"Longitude (x)","Latitude (y)","Station Name","Climate ID","Date/Time (LST)","Year","Month","Day","Time (LST)","Temp (°C)","Temp Flag","Dew Point Temp (°C)","Dew Point Temp Flag","Rel Hum (%)","Rel Hum Flag","Precip. Amount (mm)","Precip. Amount Flag","Wind Dir (10s deg)","Wind Dir Flag","Wind Spd (km/h)","Wind Spd Flag","Visibility (km)","Visibility Flag","Stn Press (kPa)","Stn Press Flag","Hmdx","Hmdx Flag","Wind Chill","Wind Chill Flag","Weather"
"-97.86","55.80","THOMPSON A","5062921","2018-10-01 00:00","2018","10","01","00:00","-0.4","","-6.5","","63","","","","22","","11","","24.1","","99.54","","","","-4","","Cloudy"
"-97.86","55.80","THOMPSON A","5062921","2018-10-01 01:00","2018","10","01","01:00","-0.2","","-6.5","","63","","","","22","","18","","24.1","","99.52","","","","-5","","NA"
"-97.86","55.80","THOMPSON A","5062921","2018-10-01 02:00","2018","10","01","02:00","-0.2","","-6.3","","64","","","","22","","13","","24.1","","99.49","","","","-4","","NA"
"-97.86","55.80","THOMPSON A","5062921","2018-10-01 03:00","2018","10","01","03:00","-0.5","","-6.2","","65","","","","21","","13","","24.1","","99.48","","","","-5","","Cloudy"
"-97.86","55.80","THOMPSON A","5062921","2018-10-01 04:00","2018","10","01","04:00","-0.5","","-6.2","","65","","","","21","","13","","24.1","","99.47","","","","-5","","NA"
"-97.86","55.80","THOMPSON A","5062921","2018-10-01 05:00","2018","10","01","05:00","-0.8","","-6.1","","67","","","","20","","11","","24.1","","99.47","","","","-5","","NA"
"-97.86","55.80","THOMPSON A","5062921","2018-10-01 06:00","2018","10","01","06:00","-1.6","","-6.8","","68","","","","22","","10","","24.1","","99.45","","","","-5","","Mainly Clear"
"-97.86","55.80","THOMPSON A","5062921","2018-10-01 07:00","2018","10","01","07:00","-2.4","","-6.4","","74","","","","20","","9","","24.1","","99.42","","","","-6","","NA"
"-97.86","55.80","THOMPSON A","5062921","2018-10-01 08:00","2018","10","01","08:00","-0.9","","-5.8","","69","","","","21","","13","","24.1","","99.40","","","","-5","","NA"
"-97.86","55.80","THOMPSON A","5062921","2018-10-01 09:00","2018","10","01","09:00","1.6","","-6.3","","56","","","","20","","13","","24.1","","99.39","","","","","","Mainly Clear"
"-97.86","55.80","THOMPSON A","5062921","2018-10-01 10:00","2018","10","01","10:00","3.4","","-6.4","","49","","","","21","","14","","24.1","","99.36","","","","","","NA"
"-97.86","55.80","THOMPSON A","5062921","2018-10-01 11:00","2018","10","01","11:00","4.2","","-8.0","","41","","","","23","","22","","24.1","","99.32","","","","","","NA"
"-97.86","55.80","THOMPSON A","5062921","2018-10-01 12:00","2018","10","01","12:00","4.2","","-9.0","","38","","","","23","","21","","24.1","","99.28","","","","","","Mostly Cloudy"
"-97.86","55.80","THOMPSON A","5062921","2018-10-01 13:00","2018","10","01","13:00","4.8","","-9.3","","35","","","","20","","14","","24.1","","99.21","","","","","","NA"
"-97.86","55.80","THOMPSON A","5062921","2018-10-01 14:00","2018","10","01","14:00","4.2","","-8.9","","38","","","","24","","21","","24.1","","99.14","","","","","","NA"
"-97.86","55.80","THOMPSON A","5062921","2018-10-01 15:00","2018","10","01","15:00","3.8","","-8.8","","39","","","","21","","12","","24.1","","99.07","","","","","","Cloudy"
"-97.86","55.80","THOMPSON A","5062921","2018-10-01 16:00","2018","10","01","16:00","3.5","","-9.8","","37","","","","21","","14","","24.1","","99.02","","","","","","NA"
"-97.86","55.80","THOMPSON A","5062921","2018-10-01 17:00","2018","10","01","17:00","3.0","","-8.3","","43","","","","21","","12","","24.1","","98.97","","","","","","NA"
"-97.86","55.80","THOMPSON A","5062921","2018-10-01 18:00","2018","10","01","18:00","2.1","","-8.6","","45","","","","21","","9","","24.1","","98.95","","","","","","Cloudy"
"-97.86","55.80","THOMPSON A","5062921","2018-10-01 19:00","2018","10","01","19:00","1.0","","-4.8","","65","","","","21","","12","","24.1","","98.98","","","","","","Snow"
"-97.86","55.80","THOMPSON A","5062921","2018-10-01 20:00","2018","10","01","20:00","0.4","","-4.2","","71","","","","21","","11","","24.1","","98.97","","","","","","Snow"
"-97.86","55.80","THOMPSON A","5062921","2018-10-01 21:00","2018","10","01","21:00","0.0","","-3.9","","75","","","","22","","9","","24.1","","98.92","","","","-3","","Snow"
"-97.86","55.80","THOMPSON A","5062921","2018-10-01 22:00","2018","10","01","22:00","-0.2","","-3.5","","79","","","","22","","8","","24.1","","98.87","","","","-3","","Snow"
"-97.86","55.80","THOMPSON A","5062921","2018-10-01 23:00","2018","10","01","23:00","-0.8","","-3.3","","83","","","","24","","10","","24.1","","98.82","","","","-4","","NA"
"-97.86","55.80","THOMPSON A","5062921","2018-10-02 00:00","2018","10","02","00:00","-0.6","","-3.0","","84","","","","23","","9","","24.1","","98.75","","","","-4","","Cloudy"
"-97.86","55.80","THOMPSON A","5062921","2018-10-02 01:00","2018","10","02","01:00","-0.9","","-3.0","","86","","","","24","","8","","24.1","","98.71","","","","-4","","NA"
"-97.86","55.80","THOMPSON A","5062921","2018-10-02 02:00","2018","10","02","02:00","-1.6","","-3.3","","88","","","","23","","9","","24.1","","98.68","","","","-5","","NA"
"-97.86","55.80","THOMPSON A","5062921","2018-10-02 03:00","2018","10","02","03:00","-1.8","","-3.0","","91","","","","25","","10","","24.1","","98.66","","","","-5","","Mostly Cloudy"
"-97.86","55.80","THOMPSON A","5062921","2018-10-02 04:00","2018","10","02","04:00","-1.5","","-3.3","","87","","","","26","","10","","24.1","","98.62","","","","-5","","NA"
"-97.86","55.80","THOMPSON A","5062921","2018-10-02 05:00","2018","10","02","05:00","-3.0","","-4.3","","91","","","","25","","8","","24.1","","98.59","","","","-6","","NA"
"-97.86","55.80","THOMPSON A","5062921","2018-10-02 06:00","2018","10","02","06:00","-4.3","","-5.5","","92","","","","23","","10","","24.1","","98.59","","","","-8","","Mainly Clear"
"-97.86","55.80","THOMPSON A","5062921","2018-10-02 07:00","2018","10","02","07:00","-4.2","","-5.2","","92","","","","25","","10","","24.1","","98.56","","","","-8","","NA"
"-97.86","55.80","THOMPSON A","5062921","2018-10-02 08:00","2018","10","02","08:00","-1.6","","-2.8","","92","","","","24","","11","","24.1","","98.53","","","","-5","","NA"
"-97.86","55.80","THOMPSON A","5062921","2018-10-02 09:00","2018","10","02","09:00","0.7","","-2.5","","79","","","","25","","15","","24.1","","98.52","","","","","","Mainly Clear"
"-97.86","55.80","THOMPSON A","5062921","2018-10-02 10:00","2018","10","02","10:00","2.9","","-2.8","","66","","","","27","","17","","24.1","","98.51","","","","","","NA"
"-97.86","55.80","THOMPSON A","5062921","2018-10-02 11:00","2018","10","02","11:00","3.4","","-5.4","","53","","","","28","","19","","24.1","","98.47","","","","","","NA"
"-97.86","55.80","THOMPSON A","5062921","2018-10-02 12:00","2018","10","02","12:00","4.7","","-5.5","","48","","","","27","","25","","24.1","","98.41","","","","","","Mostly Cloudy"
"-97.86","55.80","THOMPSON A","5062921","2018-10-02 13:00","2018","10","02","13:00","5.2","","-5.5","","46","","","","25","","28","","24.1","","98.37","","","","","","NA"
"-97.86","55.80","THOMPSON A","5062921","2018-10-02 14:00","2018","10","02","14:00","5.8","","-5.8","","43","","","","25","","26","","24.1","","98.31","","","","","","NA"
"-97.86","55.80","THOMPSON A","5062921","2018-10-02 15:00","2018","10","02","15:00","4.8","","-6.8","","43","","","","25","","24","","24.1","","98.25","","","","","","Mostly Cloudy"
"-97.86","55.80","THOMPSON A","5062921","2018-10-02 16:00","2018","10","02","16:00","5.8","","-7.2","","39","","","","27","","21","","24.1","","98.18","","","","","","NA"
"-97.86","55.80","THOMPSON A","5062921","2018-10-02 17:00","2018","10","02","17:00","4.9","","-8.3","","38","","","","27","","26","","24.1","","98.16","","","","","","NA"
"-97.86","55.80","THOMPSON A","5062921","2018-10-02 18:00","2018","10","02","18:00","2.5","","-8.4","","44","","","","28","","13","","24.1","","98.16","","","","","","Mostly Cloudy"
"-97.86","55.80","THOMPSON A","5062921","2018-10-02 19:00","2018","10","02","19:00","1.3","","-9.0","","46","","","","27","","12","","24.1","","98.18","","","","","","NA"
"-97.86","55.80","THOMPSON A","5062921","2018-10-02 20:00","2018","10","02","20:00","-0.2","","-9.0","","52","","","","30","","8","","24.1","","98.15","","","","-3","","NA"
"-97.86","55.80","THOMPSON A","5062921","2018-10-02 21:00","2018","10","02","21:00","-2.0","","-9.1","","59","","","","36","","1","","24.1","","98.12","","","","-2","","Mainly Clear"
"-97.86","55.80","THOMPSON A","5062921","2018-10-02 22:00","2018","10","02","22:00","-2.7","","-8.2","","66","","","","36","","2","","24.1","","98.10","","","","-3","","NA"
"-97.86","55.80","THOMPSON A","5062921","2018-10-02 23:00","2018","10","02","23:00","-3.2","","-8.5","","67","","","","36","","1","","24.1","","98.06","","","","-4","","NA"
"-97.86","55.80","THOMPSON A","5062921","2018-10-03 00:00","2018","10","03","00:00","-3.4","","-7.7","","72","","","","36","","2","","24.1","","98.00","","","","-4","","Clear"
"-97.86","55.80","THOMPSON A","5062921","2018-10-03 01:00","2018","10","03","01:00","-4.4","","-7.7","","78","","","","16","","3","","24.1","","97.98","","","","-6","","NA"
"-97.86","55.80","THOMPSON A","5062921","2018-10-03 02:00","2018","10","03","02:00","-5.7","","-8.1","","83","","","","20","","4","","24.1","","97.93","","","","-8","","NA"
"-97.86","55.80","THOMPSON A","5062921","2018-10-03 03:00","2018","10","03","03:00","-6.6","","-8.8","","85","","","","36","","3","","24.1","","97.89","","","","-8","","Clear"
"-97.86","55.80","THOMPSON A","5062921","2018-10-03 04:00","2018","10","03","04:00","-5.0","","-7.3","","84","","","","36","","2","","24.1","","97.84","","","","-6","","NA"
"-97.86","55.80","THOMPSON A","5062921","2018-10-03 05:00","2018","10","03","05:00","-5.1","","-7.9","","81","","","","36","","3","","24.1","","97.81","","","","-6","","NA"
"-97.86","55.80","THOMPSON A","5062921","2018-10-03 06:00","2018","10","03","06:00","-5.9","","-8.4","","83","","","","24","","3","","24.1","","97.77","","","","-7","","Mainly Clear"
"-97.86","55.80","THOMPSON A","5062921","2018-10-03 07:00","2018","10","03","07:00","-6.3","","-8.6","","84","","","","21","","3","","24.1","","97.73","","","","-8","","NA"
"-97.86","55.80","THOMPSON A","5062921","2018-10-03 08:00","2018","10","03","08:00","-3.5","","-6.3","","81","","","","25","","12","","24.1","","97.73","","","","-8","","NA"
"-97.86","55.80","THOMPSON A","5062921","2018-10-03 09:00","2018","10","03","09:00","-0.7","","-4.8","","74","","","","28","","12","","24.1","","97.75","","","","-5","","Mostly Cloudy"
"-97.86","55.80","THOMPSON A","5062921","2018-10-03 10:00","2018","10","03","10:00","1.0","","-4.5","","67","","","","29","","16","","24.1","","97.74","","","","","","NA"
"-97.86","55.80","THOMPSON A","5062921","2018-10-03 11:00","2018","10","03","11:00","2.6","","-5.8","","54","","","","31","","17","","24.1","","97.74","","","","","","NA"
"-97.86","55.80","THOMPSON A","5062921","2018-10-03 12:00","2018","10","03","12:00","3.5","","-6.9","","46","","","","29","","27","","24.1","","97.76","","","","","","Snow"
"-97.86","55.80","THOMPSON A","5062921","2018-10-03 13:00","2018","10","03","13:00","2.5","","-10.3","","38","","","","29","","26","","24.1","","97.78","","","","","","NA"
"-97.86","55.80","THOMPSON A","5062921","2018-10-03 14:00","2018","10","03","14:00","2.4","","-8.9","","43","","","","30","","24","","24.1","","97.81","","","","","","Snow Showers"
"-97.86","55.80","THOMPSON A","5062921","2018-10-03 15:00","2018","10","03","15:00","2.9","","-10.5","","37","","","","31","","17","","24.1","","97.85","","","","","","Snow Showers"
"-97.86","55.80","THOMPSON A","5062921","2018-10-03 16:00","2018","10","03","16:00","1.1","","-8.0","","51","","","","27","","26","","24.1","","97.95","","","","","","Snow Showers"
"-97.86","55.80","THOMPSON A","5062921","2018-10-03 17:00","2018","10","03","17:00","1.5","","-7.3","","52","","","","30","","20","","24.1","","98.04","","","","","","Snow Showers"
"-97.86","55.80","THOMPSON A","5062921","2018-10-03 18:00","2018","10","03","18:00","0.1","","-9.8","","48","","","","32","","18","","24.1","","98.13","","","","","","Snow Showers"
"-97.86","55.80","THOMPSON A","5062921","2018-10-03 19:00","2018","10","03","19:00","-1.2","","-8.9","","56","","","","31","","23","","24.1","","98.24","","","","-7","","NA"
"-97.86","55.80","THOMPSON A","5062921","2018-10-03 20:00","2018","10","03","20:00","-2.0","","-6.3","","73","","","","32","","15","","24.1","","98.35","","","","-7","","Snow Showers"
"-97.86","55.80","THOMPSON A","5062921","2018-10-03 21:00","2018","10","03","21:00","-1.7","","-10.0","","53","","","","33","","18","","24.1","","98.43","","","","-7","","Snow Showers"
"-97.86","55.80","THOMPSON A","5062921","2018-10-03 22:00","2018","10","03","22:00","-2.3","","-8.4","","63","","","","32","","17","","24.1","","98.50","","","","-8","","NA"
"-97.86","55.80","THOMPSON A","5062921","2018-10-03 23:00","2018","10","03","23:00","-2.6","","-8.4","","64","","","","31","","22","","24.1","","98.57","","","","-9","","Snow Showers"
"-97.86","55.80","THOMPSON A","5062921","2018-10-04 00:00","2018","10","04","00:00","-3.5","","-7.3","","75","","","","31","","23","","12.9","","98.64","","","","-10","","Snow Showers"
"-97.86","55.80","THOMPSON A","5062921","2018-10-04 01:00","2018","10","04","01:00","-3.3","","-9.9","","61","","","","31","","19","","19.3","","98.70","","","","-9","","Snow Showers"
"-97.86","55.80","THOMPSON A","5062921","2018-10-04 02:00","2018","10","04","02:00","-3.9","","-11.2","","57","","","","29","","21","","19.3","","98.78","","","","-10","","Snow Showers"
"-97.86","55.80","THOMPSON A","5062921","2018-10-04 03:00","2018","10","04","03:00","-4.2","","-11.4","","58","","","","30","","18","","19.3","","98.84","","","","-10","","Snow Showers"
"-97.86","55.80","THOMPSON A","5062921","2018-10-04 04:00","2018","10","04","04:00","-4.4","","-12.0","","55","","","","30","","18","","19.3","","98.92","","","","-10","","Snow Showers"
"-97.86","55.80","THOMPSON A","5062921","2018-10-04 05:00","2018","10","04","05:00","-4.3","","-12.1","","55","","","","31","","30","","24.1","","98.98","","","","-12","","Snow Showers"
"-97.86","55.80","THOMPSON A","5062921","2018-10-04 06:00","2018","10","04","06:00","-4.4","","-11.7","","57","","","","29","","20","","24.1","","99.07","","","","-11","","Snow Showers"
"-97.86","55.80","THOMPSON A","5062921","2018-10-04 07:00","2018","10","04","07:00","-4.2","","-11.2","","58","","","","29","","21","","24.1","","99.11","","","","-11","","Snow Showers"
"-97.86","55.80","THOMPSON A","5062921","2018-10-04 08:00","2018","10","04","08:00","-3.6","","-11.0","","57","","","","31","","18","","24.1","","99.17","","","","-9","","NA"
"-97.86","55.80","THOMPSON A","5062921","2018-10-04 09:00","2018","10","04","09:00","-2.6","","-10.7","","54","","","","29","","27","","24.1","","99.21","","","","-10","","Mostly Cloudy"
"-97.86","55.80","THOMPSON A","5062921","2018-10-04 10:00","2018","10","04","10:00","-2.2","","-9.9","","56","","","","28","","23","","24.1","","99.27","","","","-8","","NA"
"-97.86","55.80","THOMPSON A","5062921","2018-10-04 11:00","2018","10","04","11:00","-1.9","","-10.4","","52","","","","30","","26","","24.1","","99.30","","","","-8","","NA"
"-97.86","55.80","THOMPSON A","5062921","2018-10-04 12:00","2018","10","04","12:00","-0.5","","-9.7","","50","","","","26","","31","","24.1","","99.30","","","","-7","","Mostly Cloudy"
"-97.86","55.80","THOMPSON A","5062921","2018-10-04 13:00","2018","10","04","13:00","-0.8","","-9.9","","50","","","","28","","17","","24.1","","99.30","","","","-6","","NA"
"-97.86","55.80","THOMPSON A","5062921","2018-10-04 14:00","2018","10","04","14:00","0.2","","-9.8","","47","","","","26","","17","","24.1","","99.32","","","","","","NA"
"-97.86","55.80","THOMPSON A","5062921","2018-10-04 15:00","2018","10","04","15:00","0.5","","-9.5","","47","","","","27","","18","","24.1","","99.32","","","","","","Mainly Clear"
"-97.86","55.80","THOMPSON A","5062921","2018-10-04 16:00","2018","10","04","16:00","0.5","","-10.5","","44","","","","32","","15","","24.1","","99.31","","","","","","NA"
"-97.86","55.80","THOMPSON A","5062921","2018-10-04 17:00","2018","10","04","17:00","0.3","","-10.5","","44","","","","28","","16","","24.1","","99.32","","","","","","NA"
"-97.86","55.80","THOMPSON A","5062921","2018-10-04 18:00","2018","10","04","18:00","-1.7","","-10.5","","51","","","","30","","5","","24.1","","99.34","","","","-4","","Mainly Clear"
"-97.86","55.80","THOMPSON A","5062921","2018-10-04 19:00","2018","10","04","19:00","-3.4","","-10.2","","59","","","","36","","1","","24.1","","99.35","","","","-4","","NA"
"-97.86","55.80","THOMPSON A","5062921","2018-10-04 20:00","2018","10","04","20:00","-5.6","","-10.4","","69","","","","","","0","","24.1","","99.34","","","","","","NA"
"-97.86","55.80","THOMPSON A","5062921","2018-10-04 21:00","2018","10","04","21:00","-7.4","","-11.3","","74","","","","36","","2","","24.1","","99.33","","","","-8","","Clear"
"-97.86","55.80","THOMPSON A","5062921","2018-10-04 22:00","2018","10","04","22:00","-7.8","","-10.9","","78","","","","36","","2","","24.1","","99.34","","","","-9","","NA"
"-97.86","55.80","THOMPSON A","5062921","2018-10-04 23:00","2018","10","04","23:00","-9.9","","-12.7","","80","","","","2","","5","","24.1","","99.34","","","","-13","","NA"
"-97.86","55.80","THOMPSON A","5062921","2018-10-05 00:00","2018","10","05","00:00","-7.7","","-10.2","","82","","","","","","0","","24.1","","99.36","","","","","","Mainly Clear"
"-97.86","55.80","THOMPSON A","5062921","2018-10-05 01:00","2018","10","05","01:00","-7.2","","-9.8","","82","","","","1","","5","","24.1","","99.34","","","","-10","","NA"
"-97.86","55.80","THOMPSON A","5062921","2018-10-05 02:00","2018","10","05","02:00","-7.4","","-10.8","","77","","","","2","","7","","24.1","","99.34","","","","-11","","NA"
"-97.86","55.80","THOMPSON A","5062921","2018-10-05 03:00","2018","10","05","03:00","-7.8","","-10.1","","84","","","","0","","1","","24.1","","99.32","","","","-8","","Mainly Clear"
"-97.86","55.80","THOMPSON A","5062921","2018-10-05 04:00","2018","10","05","04:00","-8.0","","-10.2","","84","","","","36","","3","","24.1","","99.32","","","","-10","","NA"
"-97.86","55.80","THOMPSON A","5062921","2018-10-05 05:00","2018","10","05","05:00","-6.1","","-8.9","","81","","","","36","","3","","24.1","","99.32","","","","-8","","NA"
"-97.86","55.80","THOMPSON A","5062921","2018-10-05 06:00","2018","10","05","06:00","-5.9","","-8.4","","83","","","","36","","1","","24.1","","99.33","","","","-6","","Mostly Cloudy"
"-97.86","55.80","THOMPSON A","5062921","2018-10-05 07:00","2018","10","05","07:00","-5.9","","-7.9","","86","","","","31","","4","","24.1","","99.32","","","","-8","","NA"
"-97.86","55.80","THOMPSON A","5062921","2018-10-05 08:00","2018","10","05","08:00","-4.6","","-7.6","","79","","","","1","","4","","24.1","","99.33","","","","-6","","NA"
"-97.86","55.80","THOMPSON A","5062921","2018-10-05 09:00","2018","10","05","09:00","-2.7","","-8.5","","65","","","","5","","7","","24.1","","99.32","","","","-6","","Mostly Cloudy"
"-97.86","55.80","THOMPSON A","5062921","2018-10-05 10:00","2018","10","05","10:00","-0.6","","-9.5","","51","","","","4","","9","","24.1","","99.30","","","","-4","","NA"
"-97.86","55.80","THOMPSON A","5062921","2018-10-05 11:00","2018","10","05","11:00","0.5","","-9.9","","46","","","","8","","7","","24.1","","99.28","","","","","","NA"
"-97.86","55.80","THOMPSON A","5062921","2018-10-05 12:00","2018","10","05","12:00","1.7","","-8.8","","46","","","","5","","5","","24.1","","99.24","","","","","","Mainly Clear"
"-97.86","55.80","THOMPSON A","5062921","2018-10-05 13:00","2018","10","05","13:00","2.4","","-9.1","","42","","","","18","","3","","24.1","","99.18","","","","","","NA"
"-97.86","55.80","THOMPSON A","5062921","2018-10-05 14:00","2018","10","05","14:00","3.0","","-9.1","","41","","","","29","","9","","24.1","","99.15","","","","","","NA"
"-97.86","55.80","THOMPSON A","5062921","2018-10-05 15:00","2018","10","05","15:00","2.9","","-9.7","","39","","","","36","","3","","24.1","","99.12","","","","","","Mostly Cloudy"
"-97.86","55.80","THOMPSON A","5062921","2018-10-05 16:00","2018","10","05","16:00","3.0","","-9.4","","40","","","","28","","4","","24.1","","99.10","","","","","","NA"
"-97.86","55.80","THOMPSON A","5062921","2018-10-05 17:00","2018","10","05","17:00","2.8","","-9.3","","41","","","","36","","1","","24.1","","99.10","","","","","","NA"
"-97.86","55.80","THOMPSON A","5062921","2018-10-05 18:00","2018","10","05","18:00","0.4","","-9.1","","49","","","","7","","4","","24.1","","99.11","","","","","","Cloudy"
"-97.86","55.80","THOMPSON A","5062921","2018-10-05 19:00","2018","10","05","19:00","0.4","","-8.8","","50","","","","7","","8","","24.1","","99.11","","","","","","NA"
"-97.86","55.80","THOMPSON A","5062921","2018-10-05 20:00","2018","10","05","20:00","-0.7","","-8.9","","54","","","","7","","5","","24.1","","99.12","","","","-2","","NA"
"-97.86","55.80","THOMPSON A","5062921","2018-10-05 21:00","2018","10","05","21:00","-0.2","","-8.8","","52","","","","8","","11","","24.1","","99.13","","","","-4","","Cloudy"
"-97.86","55.80","THOMPSON A","5062921","2018-10-05 22:00","2018","10","05","22:00","-0.7","","-8.5","","56","","","","9","","4","","24.1","","99.12","","","","-2","","NA"
"-97.86","55.80","THOMPSON A","5062921","2018-10-05 23:00","2018","10","05","23:00","-0.6","","-8.5","","55","","","","9","","7","","24.1","","99.08","","","","-3","","NA"
"-97.86","55.80","THOMPSON A","5062921","2018-10-06 00:00","2018","10","06","00:00","-1.0","","-7.5","","62","","","","11","","7","","24.1","","99.05","","","","-4","","Mostly Cloudy"
"-97.86","55.80","THOMPSON A","5062921","2018-10-06 01:00","2018","10","06","01:00","-2.2","","-5.0","","81","","","","9","","9","","4.8","","99.03","","","","-6","","Snow"
"-97.86","55.80","THOMPSON A","5062921","2018-10-06 02:00","2018","10","06","02:00","-2.5","","-4.2","","88","","","","9","","7","","9.7","","99.00","","","","-5","","Snow"
"-97.86","55.80","THOMPSON A","5062921","2018-10-06 03:00","2018","10","06","03:00","-2.3","","-3.6","","91","","","","8","","8","","12.9","","98.97","","","","-5","","Snow"
"-97.86","55.80","THOMPSON A","5062921","2018-10-06 04:00","2018","10","06","04:00","-1.9","","-3.0","","93","","","","9","","6","","3.2","","98.96","","","","-4","","Snow"
"-97.86","55.80","THOMPSON A","5062921","2018-10-06 05:00","2018","10","06","05:00","-1.4","","-2.3","","94","","","","9","","7","","2.4","","98.95","","","","-4","","Snow"
"-97.86","55.80","THOMPSON A","5062921","2018-10-06 06:00","2018","10","06","06:00","-0.8","","-1.6","","95","","","","9","","8","","24.1","","98.93","","","","-4","","Snow"
"-97.86","55.80","THOMPSON A","5062921","2018-10-06 07:00","2018","10","06","07:00","0.0","","-0.7","","95","","","","14","","4","","1.6","","98.93","","","","-1","","Snow"
"-97.86","55.80","THOMPSON A","5062921","2018-10-06 08:00","2018","10","06","08:00","0.1","","-0.5","","96","","","","17","","4","","4.8","","98.97","","","","","","Snow"
"-97.86","55.80","THOMPSON A","5062921","2018-10-06 09:00","2018","10","06","09:00","0.3","","-0.3","","96","","","","19","","5","","4.8","","99.00","","","","","","Snow"
"-97.86","55.80","THOMPSON A","5062921","2018-10-06 10:00","2018","10","06","10:00","0.7","","0.1","","96","","","","19","","5","","8.1","","99.03","","","","","","Fog"
"-97.86","55.80","THOMPSON A","5062921","2018-10-06 11:00","2018","10","06","11:00","1.1","","0.6","","96","","","","22","","8","","12.9","","99.08","","","","","","NA"
"-97.86","55.80","THOMPSON A","5062921","2018-10-06 12:00","2018","10","06","12:00","1.9","","0.8","","92","","","","21","","10","","24.1","","99.13","","","","","","Mostly Cloudy"
"-97.86","55.80","THOMPSON A","5062921","2018-10-06 13:00","2018","10","06","13:00","1.7","","-0.8","","84","","","","24","","16","","24.1","","99.16","","","","","","NA"
"-97.86","55.80","THOMPSON A","5062921","2018-10-06 14:00","2018","10","06","14:00","1.9","","-1.3","","79","","","","26","","11","","24.1","","99.20","","","","","","NA"
"-97.86","55.80","THOMPSON A","5062921","2018-10-06 15:00","2018","10","06","15:00","2.3","","-0.8","","80","","","","22","","10","","24.1","","99.24","","","","","","Mostly Cloudy"
"-97.86","55.80","THOMPSON A","5062921","2018-10-06 16:00","2018","10","06","16:00","2.1","","-0.9","","80","","","","21","","5","","24.1","","99.30","","","","","","NA"
"-97.86","55.80","THOMPSON A","5062921","2018-10-06 17:00","2018","10","06","17:00","0.5","","-0.6","","92","","","","29","","9","","4.8","","99.39","","","","","","Snow,Fog"
"-97.86","55.80","THOMPSON A","5062921","2018-10-06 18:00","2018","10","06","18:00","-0.1","","-1.2","","92","","","","30","","17","","19.3","","99.45","","","","-5","","Snow Showers"
"-97.86","55.80","THOMPSON A","5062921","2018-10-06 19:00","2018","10","06","19:00","-1.0","","-2.4","","91","","","","32","","10","","24.1","","99.54","","","","-5","","NA"
"-97.86","55.80","THOMPSON A","5062921","2018-10-06 20:00","2018","10","06","20:00","-1.8","","-3.3","","89","","","","32","","14","","24.1","","99.60","","","","-6","","NA"
"-97.86","55.80","THOMPSON A","5062921","2018-10-06 21:00","2018","10","06","21:00","-2.3","","-3.8","","90","","","","31","","16","","24.1","","99.66","","","","-7","","Cloudy"
"-97.86","55.80","THOMPSON A","5062921","2018-10-06 22:00","2018","10","06","22:00","-2.6","","-4.0","","91","","","","34","","14","","6.4","","99.70","","","","-7","","Snow,Fog"
"-97.86","55.80","THOMPSON A","5062921","2018-10-06 23:00","2018","10","06","23:00","-2.8","","-4.1","","91","","","","32","","9","","9.7","","99.73","","","","-6","","Snow,Fog"
"-97.86","55.80","THOMPSON A","5062921","2018-10-07 00:00","2018","10","07","00:00","-3.1","","-4.3","","91","","","","33","","12","","8.1","","99.77","","","","-8","","Snow,Fog"
"-97.86","55.80","THOMPSON A","5062921","2018-10-07 01:00","2018","10","07","01:00","-3.2","","-4.3","","92","","","","32","","7","","6.4","","99.83","","","","-6","","Snow,Fog"
"-97.86","55.80","THOMPSON A","5062921","2018-10-07 02:00","2018","10","07","02:00","-3.2","","-4.3","","92","","","","33","","9","","9.7","","99.86","","","","-7","","Snow,Fog"
"-97.86","55.80","THOMPSON A","5062921","2018-10-07 03:00","2018","10","07","03:00","-3.5","","-4.6","","92","","","","36","","9","","12.9","","99.92","","","","-7","","Snow,Fog"
"-97.86","55.80","THOMPSON A","5062921","2018-10-07 04:00","2018","10","07","04:00","-3.5","","-4.6","","92","","","","36","","8","","4.8","","99.93","","","","-7","","Snow,Fog"
"-97.86","55.80","THOMPSON A","5062921","2018-10-07 05:00","2018","10","07","05:00","-3.6","","-4.6","","93","","","","34","","7","","8.1","","99.97","","","","-7","","Snow,Fog"
"-97.86","55.80","THOMPSON A","5062921","2018-10-07 06:00","2018","10","07","06:00","-3.7","","-4.7","","93","","","","3","","10","","16.1","","99.98","","","","-8","","Snow"
"-97.86","55.80","THOMPSON A","5062921","2018-10-07 07:00","2018","10","07","07:00","-3.7","","-4.8","","93","","","","3","","7","","2.4","","100.00","","","","-7","","Snow"
"-97.86","55.80","THOMPSON A","5062921","2018-10-07 08:00","2018","10","07","08:00","-3.4","","-4.4","","93","","","","4","","9","","6.4","","100.03","","","","-7","","Snow"
"-97.86","55.80","THOMPSON A","5062921","2018-10-07 09:00","2018","10","07","09:00","-3.1","","-4.3","","92","","","","3","","11","","3.2","","100.06","","","","-7","","Snow"
"-97.86","55.80","THOMPSON A","5062921","2018-10-07 10:00","2018","10","07","10:00","-2.5","","-4.3","","87","","","","5","","12","","4.8","","100.09","","","","-7","","Snow"
"-97.86","55.80","THOMPSON A","5062921","2018-10-07 11:00","2018","10","07","11:00","-2.3","","-4.2","","87","","","","4","","11","","3.2","","100.10","","","","-6","","Snow"
"-97.86","55.80","THOMPSON A","5062921","2018-10-07 12:00","2018","10","07","12:00","-2.0","","-4.4","","84","","","","3","","9","","4.8","","100.11","","","","-5","","Snow"
"-97.86","55.80","THOMPSON A","5062921","2018-10-07 13:00","2018","10","07","13:00","-2.0","","-4.5","","83","","","","4","","12","","6.4","","100.07","","","","-6","","Snow"
"-97.86","55.80","THOMPSON A","5062921","2018-10-07 14:00","2018","10","07","14:00","-1.8","","-4.7","","80","","","","5","","13","","24.1","","100.03","","","","-6","","Snow"
"-97.86","55.80","THOMPSON A","5062921","2018-10-07 15:00","2018","10","07","15:00","-1.8","","-4.7","","80","","","","5","","12","","24.1","","100.02","","","","-6","","Snow"
"-97.86","55.80","THOMPSON A","5062921","2018-10-07 16:00","2018","10","07","16:00","-1.9","","-4.7","","82","","","","4","","8","","16.1","","100.03","","","","-5","","Snow"
"-97.86","55.80","THOMPSON A","5062921","2018-10-07 17:00","2018","10","07","17:00","-2.4","","-4.1","","88","","","","3","","7","","4.8","","100.03","","","","-5","","Snow"
"-97.86","55.80","THOMPSON A","5062921","2018-10-07 18:00","2018","10","07","18:00","-2.7","","-4.4","","88","","","","2","","7","","4.8","","100.06","","","","-6","","Snow"
"-97.86","55.80","THOMPSON A","5062921","2018-10-07 19:00","2018","10","07","19:00","-3.2","","-4.7","","89","","","","1","","11","","8.1","","100.06","","","","-7","","Snow"
"-97.86","55.80","THOMPSON A","5062921","2018-10-07 20:00","2018","10","07","20:00","-3.7","","-5.2","","89","","","","3","","11","","4.8","","100.08","","","","-8","","Snow"
"-97.86","55.80","THOMPSON A","5062921","2018-10-07 21:00","2018","10","07","21:00","-4.1","","-5.6","","90","","","","2","","9","","8.1","","100.09","","","","-8","","Snow"
"-97.86","55.80","THOMPSON A","5062921","2018-10-07 22:00","2018","10","07","22:00","-4.4","","-5.7","","91","","","","2","","5","","8.1","","100.10","","","","-7","","Snow"
"-97.86","55.80","THOMPSON A","5062921","2018-10-07 23:00","2018","10","07","23:00","-4.5","","-6.0","","90","","","","36","","6","","9.7","","100.09","","","","-7","","Snow"
"-97.86","55.80","THOMPSON A","5062921","2018-10-08 00:00","2018","10","08","00:00","-4.5","","-6.2","","89","","","","36","","4","","9.7","","100.08","","","","-6","","Snow"
"-97.86","55.80","THOMPSON A","5062921","2018-10-08 01:00","2018","10","08","01:00","-4.7","","-6.4","","88","","","","35","","3","","16.1","","100.08","","","","-6","","Snow"
"-97.86","55.80","THOMPSON A","5062921","2018-10-08 02:00","2018","10","08","02:00","-5.1","","-6.8","","88","","","","35","","4","","24.1","","100.09","","","","-7","","NA"
"-97.86","55.80","THOMPSON A","5062921","2018-10-08 03:00","2018","10","08","03:00","-7.3","","-8.7","","89","","","","34","","7","","24.1","","100.04","","","","-11","","Mostly Cloudy"
"-97.86","55.80","THOMPSON A","5062921","2018-10-08 04:00","2018","10","08","04:00","-9.1","","-10.3","","91","","","","31","","4","","24.1","","100.05","","","","-11","","NA"
"-97.86","55.80","THOMPSON A","5062921","2018-10-08 05:00","2018","10","08","05:00","-8.4","","-9.5","","92","","","","36","","1","","24.1","","100.05","","","","-9","","NA"
"-97.86","55.80","THOMPSON A","5062921","2018-10-08 06:00","2018","10","08","06:00","-10.6","","-11.9","","90","","","","36","","4","","24.1","","100.03","","","","-13","","Mainly Clear"
"-97.86","55.80","THOMPSON A","5062921","2018-10-08 07:00","2018","10","08","07:00","-10.5","","-11.6","","91","","","","28","","3","","24.1","","100.10","","","","-12","","NA"
"-97.86","55.80","THOMPSON A","5062921","2018-10-08 08:00","2018","10","08","08:00","-10.0","","-11.2","","91","","","","36","","2","","24.1","","100.10","","","","-11","","NA"
"-97.86","55.80","THOMPSON A","5062921","2018-10-08 09:00","2018","10","08","09:00","-6.5","","-8.3","","87","","","","30","","9","","24.1","","100.04","","","","-11","","Mainly Clear"
"-97.86","55.80","THOMPSON A","5062921","2018-10-08 10:00","2018","10","08","10:00","-3.7","","-8.0","","72","","","","30","","10","","24.1","","100.02","","","","-8","","NA"
"-97.86","55.80","THOMPSON A","5062921","2018-10-08 11:00","2018","10","08","11:00","-1.7","","-8.8","","59","","","","26","","10","","24.1","","99.99","","","","-5","","NA"
"-97.86","55.80","THOMPSON A","5062921","2018-10-08 12:00","2018","10","08","12:00","-0.1","","-9.2","","51","","","","30","","11","","24.1","","99.95","","","","-4","","Mainly Clear"
"-97.86","55.80","THOMPSON A","5062921","2018-10-08 13:00","2018","10","08","13:00","1.1","","-9.5","","45","","","","26","","13","","24.1","","99.88","","","","","","NA"
"-97.86","55.80","THOMPSON A","5062921","2018-10-08 14:00","2018","10","08","14:00","1.8","","-10.3","","40","","","","27","","12","","24.1","","99.81","","","","","","NA"
"-97.86","55.80","THOMPSON A","5062921","2018-10-08 15:00","2018","10","08","15:00","2.4","","-9.4","","42","","","","26","","16","","24.1","","99.76","","","","","","Mainly Clear"
"-97.86","55.80","THOMPSON A","5062921","2018-10-08 16:00","2018","10","08","16:00","2.2","","-11.4","","36","","","","28","","18","","24.1","","99.73","","","","","","NA"
"-97.86","55.80","THOMPSON A","5062921","2018-10-08 17:00","2018","10","08","17:00","1.5","","-9.5","","44","","","","28","","16","","24.1","","99.73","","","","","","NA"
"-97.86","55.80","THOMPSON A","5062921","2018-10-08 18:00","2018","10","08","18:00","-0.8","","-8.3","","57","","","","26","","10","","24.1","","99.76","","","","-4","","Mainly Clear"
"-97.86","55.80","THOMPSON A","5062921","2018-10-08 19:00","2018","10","08","19:00","-0.5","","-7.0","","62","","","","26","","11","","24.1","","99.75","","","","-4","","NA"
"-97.86","55.80","THOMPSON A","5062921","2018-10-08 20:00","2018","10","08","20:00","-0.8","","-6.6","","65","","","","28","","9","","24.1","","99.76","","","","-4","","NA"
"-97.86","55.80","THOMPSON A","5062921","2018-10-08 21:00","2018","10","08","21:00","-0.3","","-6.5","","63","","","","29","","13","","24.1","","99.77","","","","-4","","Cloudy"
"-97.86","55.80","THOMPSON A","5062921","2018-10-08 22:00","2018","10","08","22:00","-0.4","","-6.4","","64","","","","30","","12","","24.1","","99.76","","","","-4","","NA"
"-97.86","55.80","THOMPSON A","5062921","2018-10-08 23:00","2018","10","08","23:00","-0.6","","-6.2","","66","","","","33","","14","","24.1","","99.76","","","","-5","","NA"
"-97.86","55.80","THOMPSON A","5062921","2018-10-09 00:00","2018","10","09","00:00","-0.9","","-5.7","","70","","","","32","","7","","24.1","","99.78","","","","-3","","Mostly Cloudy"
"-97.86","55.80","THOMPSON A","5062921","2018-10-09 01:00","2018","10","09","01:00","-3.3","","-7.1","","75","","","","28","","9","","24.1","","99.79","","","","-7","","NA"
"-97.86","55.80","THOMPSON A","5062921","2018-10-09 02:00","2018","10","09","02:00","-3.7","","-7.0","","78","","","","26","","8","","24.1","","99.83","","","","-7","","NA"
"-97.86","55.80","THOMPSON A","5062921","2018-10-09 03:00","2018","10","09","03:00","-4.5","","-7.5","","80","","","","27","","8","","24.1","","99.85","","","","-8","","Mainly Clear"
"-97.86","55.80","THOMPSON A","5062921","2018-10-09 04:00","2018","10","09","04:00","-5.5","","-7.5","","85","","","","24","","7","","24.1","","99.89","","","","-9","","NA"
"-97.86","55.80","THOMPSON A","5062921","2018-10-09 05:00","2018","10","09","05:00","-4.1","","-6.3","","85","","","","26","","7","","24.1","","99.93","","","","-7","","NA"
"-97.86","55.80","THOMPSON A","5062921","2018-10-09 06:00","2018","10","09","06:00","-3.7","","-6.0","","84","","","","26","","9","","24.1","","99.93","","","","-7","","Cloudy"
"-97.86","55.80","THOMPSON A","5062921","2018-10-09 07:00","2018","10","09","07:00","-3.3","","-5.9","","82","","","","29","","6","","24.1","","99.98","","","","-6","","NA"
"-97.86","55.80","THOMPSON A","5062921","2018-10-09 08:00","2018","10","09","08:00","-2.4","","-5.2","","81","","","","27","","8","","24.1","","99.99","","","","-6","","NA"
"-97.86","55.80","THOMPSON A","5062921","2018-10-09 09:00","2018","10","09","09:00","-1.8","","-5.0","","79","","","","30","","7","","24.1","","100.04","","","","-4","","Cloudy"
"-97.86","55.80","THOMPSON A","5062921","2018-10-09 10:00","2018","10","09","10:00","-0.8","","-4.8","","74","","","","31","","10","","24.1","","100.07","","","","-4","","NA"
"-97.86","55.80","THOMPSON A","5062921","2018-10-09 11:00","2018","10","09","11:00","-0.2","","-4.7","","72","","","","32","","8","","24.1","","100.09","","","","-3","","NA"
"-97.86","55.80","THOMPSON A","5062921","2018-10-09 12:00","2018","10","09","12:00","0.2","","-5.1","","67","","","","34","","11","","24.1","","100.13","","","","","","Snow"
"-97.86","55.80","THOMPSON A","5062921","2018-10-09 13:00","2018","10","09","13:00","0.6","","-5.1","","66","","","","35","","14","","24.1","","100.16","","","","","","NA"
"-97.86","55.80","THOMPSON A","5062921","2018-10-09 14:00","2018","10","09","14:00","0.3","","-5.7","","64","","","","34","","14","","24.1","","100.19","","","","","","NA"
"-97.86","55.80","THOMPSON A","5062921","2018-10-09 15:00","2018","10","09","15:00","-0.2","","-5.7","","66","","","","30","","12","","24.1","","100.24","","","","-4","","Cloudy"
"-97.86","55.80","THOMPSON A","5062921","2018-10-09 16:00","2018","10","09","16:00","-0.3","","-5.9","","66","","","","33","","12","","24.1","","100.27","","","","-4","","NA"
"-97.86","55.80","THOMPSON A","5062921","2018-10-09 17:00","2018","10","09","17:00","-0.7","","-6.3","","66","","","","34","","16","","24.1","","100.32","","","","-5","","NA"
"-97.86","55.80","THOMPSON A","5062921","2018-10-09 18:00","2018","10","09","18:00","-1.4","","-6.7","","68","","","","34","","15","","24.1","","100.37","","","","-6","","Cloudy"
"-97.86","55.80","THOMPSON A","5062921","2018-10-09 19:00","2018","10","09","19:00","-1.9","","-7.4","","66","","","","36","","15","","24.1","","100.43","","","","-7","","NA"
"-97.86","55.80","THOMPSON A","5062921","2018-10-09 20:00","2018","10","09","20:00","-2.2","","-7.5","","67","","","","3","","5","","24.1","","100.46","","","","-4","","NA"
"-97.86","55.80","THOMPSON A","5062921","2018-10-09 21:00","2018","10","09","21:00","-2.2","","-7.3","","68","","","","1","","7","","24.1","","100.48","","","","-5","","Cloudy"
"-97.86","55.80","THOMPSON A","5062921","2018-10-09 22:00","2018","10","09","22:00","-2.2","","-6.8","","71","","","","35","","10","","24.1","","100.49","","","","-6","","NA"
"-97.86","55.80","THOMPSON A","5062921","2018-10-09 23:00","2018","10","09","23:00","-2.9","","-7.2","","72","","","","36","","16","","24.1","","100.50","","","","-8","","NA"
"-97.86","55.80","THOMPSON A","5062921","2018-10-10 00:00","2018","10","10","00:00","-3.4","","-8.3","","69","","","","35","","12","","24.1","","100.49","","","","-8","","Cloudy"
"-97.86","55.80","THOMPSON A","5062921","2018-10-10 01:00","2018","10","10","01:00","-3.5","","-8.3","","69","","","","1","","7","","24.1","","100.50","","","","-6","","NA"
"-97.86","55.80","THOMPSON A","5062921","2018-10-10 02:00","2018","10","10","02:00","-3.5","","-8.3","","70","","","","2","","4","","24.1","","100.49","","","","-5","","NA"
"-97.86","55.80","THOMPSON A","5062921","2018-10-10 03:00","2018","10","10","03:00","-3.5","","-8.3","","69","","","","36","","7","","24.1","","100.44","","","","-6","","Cloudy"
"-97.86","55.80","THOMPSON A","5062921","2018-10-10 04:00","2018","10","10","04:00","-3.5","","-8.4","","69","","","","32","","4","","24.1","","100.49","","","","-5","","NA"
"-97.86","55.80","THOMPSON A","5062921","2018-10-10 05:00","2018","10","10","05:00","-3.8","","-7.7","","74","","","","36","","5","","24.1","","100.44","","","","-6","","NA"
"-97.86","55.80","THOMPSON A","5062921","2018-10-10 06:00","2018","10","10","06:00","-3.7","","-8.1","","72","","","","36","","6","","24.1","","100.42","","","","-6","","Cloudy"
"-97.86","55.80","THOMPSON A","5062921","2018-10-10 07:00","2018","10","10","07:00","-3.8","","-7.9","","73","","","","1","","6","","24.1","","100.42","","","","-6","","NA"
"-97.86","55.80","THOMPSON A","5062921","2018-10-10 08:00","2018","10","10","08:00","-3.7","","-8.3","","70","","","","2","","7","","24.1","","100.42","","","","-7","","NA"
"-97.86","55.80","THOMPSON A","5062921","2018-10-10 09:00","2018","10","10","09:00","-3.5","","-8.3","","69","","","","5","","14","","24.1","","100.37","","","","-9","","Cloudy"
"-97.86","55.80","THOMPSON A","5062921","2018-10-10 10:00","2018","10","10","10:00","-3.0","","-8.2","","68","","","","36","","9","","24.1","","100.34","","","","-7","","NA"
"-97.86","55.80","THOMPSON A","5062921","2018-10-10 11:00","2018","10","10","11:00","-2.5","","-8.7","","63","","","","32","","4","","24.1","","100.25","","","","-4","","NA"
"-97.86","55.80","THOMPSON A","5062921","2018-10-10 12:00","2018","10","10","12:00","-0.5","","-7.9","","57","","","","34","","8","","24.1","","100.19","","","","-3","","Mainly Clear"
"-97.86","55.80","THOMPSON A","5062921","2018-10-10 13:00","2018","10","10","13:00","0.6","","-8.3","","52","","","","2","","9","","24.1","","100.09","","","","","","NA"
"-97.86","55.80","THOMPSON A","5062921","2018-10-10 14:00","2018","10","10","14:00","1.3","","-8.3","","49","","","","4","","11","","24.1","","100.00","","","","","","NA"
"-97.86","55.80","THOMPSON A","5062921","2018-10-10 15:00","2018","10","10","15:00","1.9","","-8.8","","45","","","","3","","12","","24.1","","99.93","","","","","","Mainly Clear"
"-97.86","55.80","THOMPSON A","5062921","2018-10-10 16:00","2018","10","10","16:00","1.8","","-9.3","","44","","","","3","","8","","24.1","","99.86","","","","","","NA"
"-97.86","55.80","THOMPSON A","5062921","2018-10-10 17:00","2018","10","10","17:00","0.8","","-9.5","","46","","","","4","","9","","24.1","","99.84","","","","","","NA"
"-97.86","55.80","THOMPSON A","5062921","2018-10-10 18:00","2018","10","10","18:00","-2.1","","-10.0","","55","","","","7","","3","","24.1","","99.82","","","","-3","","Mainly Clear"
"-97.86","55.80","THOMPSON A","5062921","2018-10-10 19:00","2018","10","10","19:00","-4.3","","-10.4","","63","","","","5","","3","","24.1","","99.78","","","","-6","","NA"
"-97.86","55.80","THOMPSON A","5062921","2018-10-10 20:00","2018","10","10","20:00","-6.7","","-11.3","","70","","","","36","","3","","24.1","","99.72","","","","-8","","NA"
"-97.86","55.80","THOMPSON A","5062921","2018-10-10 21:00","2018","10","10","21:00","-7.7","","-11.2","","76","","","","3","","4","","24.1","","99.68","","","","-10","","Clear"
"-97.86","55.80","THOMPSON A","5062921","2018-10-10 22:00","2018","10","10","22:00","-9.5","","-12.6","","78","","","","5","","4","","24.1","","99.61","","","","-12","","NA"
"-97.86","55.80","THOMPSON A","5062921","2018-10-10 23:00","2018","10","10","23:00","-10.2","","-13.0","","80","","","","36","","3","","24.1","","99.54","","","","-12","","NA"
"-97.86","55.80","THOMPSON A","5062921","2018-10-11 00:00","2018","10","11","00:00","-9.7","","-12.1","","83","","","","36","","1","","24.1","","99.50","","","","-10","","Clear"
"-97.86","55.80","THOMPSON A","5062921","2018-10-11 01:00","2018","10","11","01:00","-11.7","","-13.8","","85","","","","36","","1","","24.1","","99.44","","","","-12","","NA"
"-97.86","55.80","THOMPSON A","5062921","2018-10-11 02:00","2018","10","11","02:00","-12.7","","-14.6","","86","","","","36","","1","","24.1","","99.36","","","","-13","","NA"
"-97.86","55.80","THOMPSON A","5062921","2018-10-11 03:00","2018","10","11","03:00","-13.3","","-15.2","","86","","","","36","","3","","24.1","","99.30","","","","-15","","Clear"
"-97.86","55.80","THOMPSON A","5062921","2018-10-11 04:00","2018","10","11","04:00","-13.5","","-15.3","","87","","","","36","","1","","24.1","","99.27","","","","-14","","NA"
"-97.86","55.80","THOMPSON A","5062921","2018-10-11 05:00","2018","10","11","05:00","-14.5","","-16.4","","86","","","","36","","1","","24.1","","99.25","","","","-15","","NA"
"-97.86","55.80","THOMPSON A","5062921","2018-10-11 06:00","2018","10","11","06:00","-14.8","","-16.8","","85","","","","36","","1","","24.1","","99.22","","","","-16","","Clear"
"-97.86","55.80","THOMPSON A","5062921","2018-10-11 07:00","2018","10","11","07:00","-14.5","","-16.6","","85","","","","36","","1","","24.1","","99.14","","","","-15","","NA"
"-97.86","55.80","THOMPSON A","5062921","2018-10-11 08:00","2018","10","11","08:00","-12.3","","-14.1","","86","","","","27","","4","","24.1","","99.10","","","","-15","","NA"
"-97.86","55.80","THOMPSON A","5062921","2018-10-11 09:00","2018","10","11","09:00","-7.5","","-10.2","","81","","","","24","","3","","24.1","","99.08","","","","-9","","Mainly Clear"
"-97.86","55.80","THOMPSON A","5062921","2018-10-11 10:00","2018","10","11","10:00","-4.4","","-8.8","","71","","","","24","","3","","24.1","","99.04","","","","-6","","NA"
"-97.86","55.80","THOMPSON A","5062921","2018-10-11 11:00","2018","10","11","11:00","-1.3","","-8.9","","56","","","","23","","4","","24.1","","98.97","","","","-3","","NA"
"-97.86","55.80","THOMPSON A","5062921","2018-10-11 12:00","2018","10","11","12:00","0.6","","-9.7","","46","","","","26","","3","","24.1","","98.92","","","","","","Mainly Clear"
"-97.86","55.80","THOMPSON A","5062921","2018-10-11 13:00","2018","10","11","13:00","2.0","","-11.3","","37","","","","36","","2","","24.1","","98.84","","","","","","NA"
"-97.86","55.80","THOMPSON A","5062921","2018-10-11 14:00","2018","10","11","14:00","3.6","","-11.9","","31","","","","29","","13","","24.1","","98.74","","","","","","NA"
"-97.86","55.80","THOMPSON A","5062921","2018-10-11 15:00","2018","10","11","15:00","4.1","","-10.9","","33","","","","35","","9","","24.1","","98.69","","","","","","Mainly Clear"
"-97.86","55.80","THOMPSON A","5062921","2018-10-11 16:00","2018","10","11","16:00","4.0","","-12.9","","28","","","","31","","11","","24.1","","98.63","","","","","","NA"
"-97.86","55.80","THOMPSON A","5062921","2018-10-11 17:00","2018","10","11","17:00","3.1","","-12.4","","31","","","","30","","7","","24.1","","98.59","","","","","","NA"
"-97.86","55.80","THOMPSON A","5062921","2018-10-11 18:00","2018","10","11","18:00","-2.1","","-10.8","","52","","","","0","","1","","24.1","","98.56","","","","-2","","Mainly Clear"
"-97.86","55.80","THOMPSON A","5062921","2018-10-11 19:00","2018","10","11","19:00","-4.0","","-11.5","","56","","","","0","","1","","24.1","","98.54","","","","-4","","NA"
"-97.86","55.80","THOMPSON A","5062921","2018-10-11 20:00","2018","10","11","20:00","-4.0","","-10.9","","59","","","","0","","1","","24.1","","98.50","","","","-4","","NA"
"-97.86","55.80","THOMPSON A","5062921","2018-10-11 21:00","2018","10","11","21:00","-7.1","","-12.0","","68","","","","31","","3","","24.1","","98.48","","","","-9","","Clear"
"-97.86","55.80","THOMPSON A","5062921","2018-10-11 22:00","2018","10","11","22:00","-7.2","","-11.9","","69","","","","36","","2","","24.1","","98.43","","","","-8","","NA"
"-97.86","55.80","THOMPSON A","5062921","2018-10-11 23:00","2018","10","11","23:00","-7.1","","-10.6","","76","","","","36","","2","","24.1","","98.38","","","","-8","","NA"
"-97.86","55.80","THOMPSON A","5062921","2018-10-12 00:00","2018","10","12","00:00","-10.1","","-13.3","","77","","","","36","","1","","24.1","","98.34","","","","-11","","Clear"
"-97.86","55.80","THOMPSON A","5062921","2018-10-12 01:00","2018","10","12","01:00","-9.6","","-12.3","","81","","","","0","","1","","24.1","","98.29","","","","-10","","NA"
"-97.86","55.80","THOMPSON A","5062921","2018-10-12 02:00","2018","10","12","02:00","-11.4","","-13.8","","83","","","","36","","2","","24.1","","98.27","","","","-13","","NA"
"-97.86","55.80","THOMPSON A","5062921","2018-10-12 03:00","2018","10","12","03:00","-11.5","","-13.7","","84","","","","36","","2","","24.1","","98.23","","","","-13","","Clear"
"-97.86","55.80","THOMPSON A","5062921","2018-10-12 04:00","2018","10","12","04:00","-11.9","","-13.8","","86","","","","36","","1","","24.1","","98.17","","","","-13","","NA"
"-97.86","55.80","THOMPSON A","5062921","2018-10-12 05:00","2018","10","12","05:00","-13.7","","-15.4","","87","","","","14","","4","","22.5","","98.09","","","","-16","","NA"
"-97.86","55.80","THOMPSON A","5062921","2018-10-12 06:00","2018","10","12","06:00","-13.2","","-14.8","","88","","","","36","","2","","24.1","","98.01","","","","-15","","Mainly Clear"
"-97.86","55.80","THOMPSON A","5062921","2018-10-12 07:00","2018","10","12","07:00","-12.1","","-14.0","","86","","","","36","","2","","24.1","","97.93","","","","-13","","NA"
"-97.86","55.80","THOMPSON A","5062921","2018-10-12 08:00","2018","10","12","08:00","-9.9","","-11.5","","88","","","","16","","3","","24.1","","97.87","","","","-12","","NA"
"-97.86","55.80","THOMPSON A","5062921","2018-10-12 09:00","2018","10","12","09:00","-4.5","","-7.5","","80","","","","18","","4","","24.1","","97.78","","","","-6","","Mostly Cloudy"
"-97.86","55.80","THOMPSON A","5062921","2018-10-12 10:00","2018","10","12","10:00","-0.7","","-6.0","","67","","","","19","","12","","24.1","","97.72","","","","-5","","NA"
"-97.86","55.80","THOMPSON A","5062921","2018-10-12 11:00","2018","10","12","11:00","2.7","","-6.0","","53","","","","19","","13","","24.1","","97.65","","","","","","NA"
"-97.86","55.80","THOMPSON A","5062921","2018-10-12 12:00","2018","10","12","12:00","4.5","","-5.8","","47","","","","20","","15","","24.1","","97.57","","","","","","Mainly Clear"
"-97.86","55.80","THOMPSON A","5062921","2018-10-12 13:00","2018","10","12","13:00","5.5","","-4.6","","48","","","","20","","11","","24.1","","97.49","","","","","","NA"
"-97.86","55.80","THOMPSON A","5062921","2018-10-12 14:00","2018","10","12","14:00","6.2","","-4.2","","48","","","","17","","10","","24.1","","97.41","","","","","","NA"
"-97.86","55.80","THOMPSON A","5062921","2018-10-12 15:00","2018","10","12","15:00","5.9","","-4.0","","49","","","","17","","11","","24.1","","97.34","","","","","","Mostly Cloudy"
"-97.86","55.80","THOMPSON A","5062921","2018-10-12 16:00","2018","10","12","16:00","5.5","","-4.1","","50","","","","19","","12","","24.1","","97.30","","","","","","NA"
"-97.86","55.80","THOMPSON A","5062921","2018-10-12 17:00","2018","10","12","17:00","4.5","","-4.0","","54","","","","15","","5","","24.1","","97.26","","","","","","NA"
"-97.86","55.80","THOMPSON A","5062921","2018-10-12 18:00","2018","10","12","18:00","3.5","","-4.0","","58","","","","16","","4","","24.1","","97.25","","","","","","Cloudy"
"-97.86","55.80","THOMPSON A","5062921","2018-10-12 19:00","2018","10","12","19:00","2.9","","-3.9","","61","","","","18","","5","","24.1","","97.25","","","","","","NA"
"-97.86","55.80","THOMPSON A","5062921","2018-10-12 20:00","2018","10","12","20:00","2.9","","-3.9","","61","","","","17","","4","","24.1","","97.24","","","","","","NA"
"-97.86","55.80","THOMPSON A","5062921","2018-10-12 21:00","2018","10","12","21:00","2.8","","-3.1","","65","","","","16","","6","","24.1","","97.22","","","","","","Cloudy"
"-97.86","55.80","THOMPSON A","5062921","2018-10-12 22:00","2018","10","12","22:00","2.7","","-1.9","","72","","","","16","","7","","24.1","","97.22","","","","","","Rain"
"-97.86","55.80","THOMPSON A","5062921","2018-10-12 23:00","2018","10","12","23:00","2.0","","-0.9","","81","","","","18","","4","","24.1","","97.23","","","","","","Rain"
"-97.86","55.80","THOMPSON A","5062921","2018-10-13 00:00","2018","10","13","00:00","1.5","","-0.6","","86","","","","8","","4","","24.1","","97.23","","","","","","Rain"
"-97.86","55.80","THOMPSON A","5062921","2018-10-13 01:00","2018","10","13","01:00","0.9","","-0.8","","89","","","","9","","5","","12.9","","97.23","","","","","","Rain,Snow"
"-97.86","55.80","THOMPSON A","5062921","2018-10-13 02:00","2018","10","13","02:00","0.6","","-0.7","","91","","","","8","","8","","12.9","","97.23","","","","","","Rain,Snow"
"-97.86","55.80","THOMPSON A","5062921","2018-10-13 03:00","2018","10","13","03:00","0.5","","-0.7","","92","","","","7","","7","","6.4","","97.25","","","","","","Rain,Snow"
"-97.86","55.80","THOMPSON A","5062921","2018-10-13 04:00","2018","10","13","04:00","0.3","","-0.9","","92","","","","8","","5","","4.8","","97.29","","","","","","Rain,Snow"
"-97.86","55.80","THOMPSON A","5062921","2018-10-13 05:00","2018","10","13","05:00","0.2","","-0.8","","93","","","","7","","8","","4.8","","97.34","","","","","","Snow"
"-97.86","55.80","THOMPSON A","5062921","2018-10-13 06:00","2018","10","13","06:00","0.2","","-0.7","","94","","","","6","","15","","4.8","","97.40","","","","","","Snow"
"-97.86","55.80","THOMPSON A","5062921","2018-10-13 07:00","2018","10","13","07:00","0.2","","-0.7","","94","","","","5","","20","","4.8","","97.48","","","","","","Snow"
"-97.86","55.80","THOMPSON A","5062921","2018-10-13 08:00","2018","10","13","08:00","0.2","","-0.8","","93","","","","5","","16","","4.8","","97.59","","","","","","Snow"
"-97.86","55.80","THOMPSON A","5062921","2018-10-13 09:00","2018","10","13","09:00","-0.6","","-1.5","","94","","","","4","","17","","3.2","","97.75","","","","-6","","Snow"
"-97.86","55.80","THOMPSON A","5062921","2018-10-13 10:00","2018","10","13","10:00","-1.1","","-3.4","","84","","","","4","","23","","4.8","","97.88","","","","-7","","Snow"
"-97.86","55.80","THOMPSON A","5062921","2018-10-13 11:00","2018","10","13","11:00","-0.3","","-3.6","","79","","","","4","","22","","4.8","","98.00","","","","-6","","Snow"
"-97.86","55.80","THOMPSON A","5062921","2018-10-13 12:00","2018","10","13","12:00","0.2","","-4.8","","69","","","","4","","39","","24.1","","98.10","","","","","","Snow"
"-97.86","55.80","THOMPSON A","5062921","2018-10-13 13:00","2018","10","13","13:00","1.1","","-4.2","","68","","","","4","","33","","24.1","","98.18","","","","","","NA"
"-97.86","55.80","THOMPSON A","5062921","2018-10-13 14:00","2018","10","13","14:00","1.0","","-4.5","","67","","","","3","","24","","24.1","","98.29","","","","","","NA"
"-97.86","55.80","THOMPSON A","5062921","2018-10-13 15:00","2018","10","13","15:00","-0.6","","-5.1","","71","","","","2","","32","","24.1","","98.41","","","","-7","","Mostly Cloudy"
"-97.86","55.80","THOMPSON A","5062921","2018-10-13 16:00","2018","10","13","16:00","-0.5","","-5.7","","68","","","","1","","26","","24.1","","98.52","","","","-7","","NA"
"-97.86","55.80","THOMPSON A","5062921","2018-10-13 17:00","2018","10","13","17:00","-1.4","","-6.2","","70","","","","1","","32","","24.1","","98.64","","","","-9","","NA"
"-97.86","55.80","THOMPSON A","5062921","2018-10-13 18:00","2018","10","13","18:00","-1.8","","-6.2","","72","","","","36","","25","","24.1","","98.76","","","","-8","","Mostly Cloudy"
"-97.86","55.80","THOMPSON A","5062921","2018-10-13 19:00","2018","10","13","19:00","-3.1","","-5.7","","83","","","","36","","22","","24.1","","98.88","","","","-9","","NA"
"-97.86","55.80","THOMPSON A","5062921","2018-10-13 20:00","2018","10","13","20:00","-3.7","","-8.1","","72","","","","36","","24","","24.1","","98.97","","","","-11","","NA"
"-97.86","55.80","THOMPSON A","5062921","2018-10-13 21:00","2018","10","13","21:00","-3.5","","-8.2","","70","","","","2","","23","","24.1","","99.06","","","","-10","","Mostly Cloudy"
"-97.86","55.80","THOMPSON A","5062921","2018-10-13 22:00","2018","10","13","22:00","-3.7","","-8.3","","71","","","","1","","20","","24.1","","99.13","","","","-10","","NA"
"-97.86","55.80","THOMPSON A","5062921","2018-10-13 23:00","2018","10","13","23:00","-3.9","","-7.9","","74","","","","36","","21","","24.1","","99.18","","","","-10","","Snow"
"-97.86","55.80","THOMPSON A","5062921","2018-10-14 00:00","2018","10","14","00:00","-4.7","","-7.7","","80","","","","35","","12","","24.1","","99.23","","","","-9","","Snow"
"-97.86","55.80","THOMPSON A","5062921","2018-10-14 01:00","2018","10","14","01:00","-5.4","","-9.3","","74","","","","36","","22","","24.1","","99.28","","","","-12","","Snow"
"-97.86","55.80","THOMPSON A","5062921","2018-10-14 02:00","2018","10","14","02:00","-5.7","","-9.8","","73","","","","35","","11","","24.1","","99.32","","","","-10","","Snow"
"-97.86","55.80","THOMPSON A","5062921","2018-10-14 03:00","2018","10","14","03:00","-6.2","","-9.0","","80","","","","36","","14","","12.9","","99.36","","","","-12","","Snow"
"-97.86","55.80","THOMPSON A","5062921","2018-10-14 04:00","2018","10","14","04:00","-7.9","","-10.2","","83","","","","34","","10","","24.1","","99.43","","","","-13","","NA"
"-97.86","55.80","THOMPSON A","5062921","2018-10-14 05:00","2018","10","14","05:00","-9.2","","-11.4","","84","","","","34","","10","","24.1","","99.46","","","","-14","","NA"
"-97.86","55.80","THOMPSON A","5062921","2018-10-14 06:00","2018","10","14","06:00","-10.5","","-12.2","","88","","","","33","","8","","24.1","","99.52","","","","-15","","Mostly Cloudy"
"-97.86","55.80","THOMPSON A","5062921","2018-10-14 07:00","2018","10","14","07:00","-11.3","","-12.6","","90","","","","34","","9","","24.1","","99.53","","","","-16","","NA"
"-97.86","55.80","THOMPSON A","5062921","2018-10-14 08:00","2018","10","14","08:00","-10.4","","-12.1","","87","","","","33","","7","","24.1","","99.55","","","","-14","","Snow"
"-97.86","55.80","THOMPSON A","5062921","2018-10-14 09:00","2018","10","14","09:00","-8.3","","-11.2","","80","","","","2","","14","","24.1","","99.56","","","","-14","","Snow"
"-97.86","55.80","THOMPSON A","5062921","2018-10-14 10:00","2018","10","14","10:00","-7.9","","-11.8","","74","","","","35","","14","","24.1","","99.59","","","","-14","","Snow"
"-97.86","55.80","THOMPSON A","5062921","2018-10-14 11:00","2018","10","14","11:00","-7.5","","-11.8","","71","","","","2","","4","","19.3","","99.58","","","","-10","","Snow"
"-97.86","55.80","THOMPSON A","5062921","2018-10-14 12:00","2018","10","14","12:00","-7.1","","-11.4","","71","","","","30","","11","","16.1","","99.55","","","","-12","","Snow"
"-97.86","55.80","THOMPSON A","5062921","2018-10-14 13:00","2018","10","14","13:00","-6.1","","-10.6","","71","","","","31","","8","","24.1","","99.52","","","","-10","","Snow"
"-97.86","55.80","THOMPSON A","5062921","2018-10-14 14:00","2018","10","14","14:00","-6.0","","-10.5","","71","","","","29","","12","","24.1","","99.47","","","","-11","","Snow"
"-97.86","55.80","THOMPSON A","5062921","2018-10-14 15:00","2018","10","14","15:00","-6.1","","-10.4","","72","","","","30","","12","","24.1","","99.44","","","","-11","","Snow"
"-97.86","55.80","THOMPSON A","5062921","2018-10-14 16:00","2018","10","14","16:00","-6.1","","-9.8","","75","","","","26","","13","","24.1","","99.43","","","","-11","","NA"
"-97.86","55.80","THOMPSON A","5062921","2018-10-14 17:00","2018","10","14","17:00","-6.5","","-10.5","","73","","","","30","","8","","24.1","","99.37","","","","-10","","NA"
"-97.86","55.80","THOMPSON A","5062921","2018-10-14 18:00","2018","10","14","18:00","-6.6","","-9.6","","79","","","","24","","13","","24.1","","99.35","","","","-12","","Cloudy"
"-97.86","55.80","THOMPSON A","5062921","2018-10-14 19:00","2018","10","14","19:00","-6.9","","-10.1","","78","","","","25","","10","","24.1","","99.32","","","","-12","","NA"
"-97.86","55.80","THOMPSON A","5062921","2018-10-14 20:00","2018","10","14","20:00","-7.2","","-10.6","","77","","","","22","","11","","24.1","","99.23","","","","-12","","NA"
"-97.86","55.80","THOMPSON A","5062921","2018-10-14 21:00","2018","10","14","21:00","-7.0","","-10.2","","78","","","","24","","11","","24.1","","99.15","","","","-12","","Cloudy"
"-97.86","55.80","THOMPSON A","5062921","2018-10-14 22:00","2018","10","14","22:00","-7.0","","-10.0","","80","","","","23","","17","","24.1","","99.10","","","","-13","","NA"
"-97.86","55.80","THOMPSON A","5062921","2018-10-14 23:00","2018","10","14","23:00","-7.1","","-9.9","","80","","","","19","","11","","24.1","","98.98","","","","-12","","NA"
"-97.86","55.80","THOMPSON A","5062921","2018-10-15 00:00","2018","10","15","00:00","-6.9","","-9.8","","80","","","","20","","15","","24.1","","98.88","","","","-13","","Cloudy"
"-97.86","55.80","THOMPSON A","5062921","2018-10-15 01:00","2018","10","15","01:00","-6.9","","-9.6","","81","","","","19","","13","","24.1","","98.74","","","","-12","","NA"
"-97.86","55.80","THOMPSON A","5062921","2018-10-15 02:00","2018","10","15","02:00","-6.7","","-9.3","","81","","","","18","","9","","24.1","","98.59","","","","-11","","NA"
"-97.86","55.80","THOMPSON A","5062921","2018-10-15 03:00","2018","10","15","03:00","-6.1","","-8.8","","82","","","","19","","10","","24.1","","98.46","","","","-11","","Cloudy"
"-97.86","55.80","THOMPSON A","5062921","2018-10-15 04:00","2018","10","15","04:00","-6.0","","-8.2","","85","","","","19","","12","","24.1","","98.32","","","","-11","","NA"
"-97.86","55.80","THOMPSON A","5062921","2018-10-15 05:00","2018","10","15","05:00","-6.0","","-7.7","","88","","","","20","","20","","24.1","","98.13","","","","-13","","NA"
"-97.86","55.80","THOMPSON A","5062921","2018-10-15 06:00","2018","10","15","06:00","-6.0","","-7.5","","89","","","","19","","17","","24.1","","97.95","","","","-12","","Cloudy"
"-97.86","55.80","THOMPSON A","5062921","2018-10-15 07:00","2018","10","15","07:00","-5.8","","-7.4","","88","","","","17","","13","","3.2","","97.80","","","","-11","","Snow"
"-97.86","55.80","THOMPSON A","5062921","2018-10-15 08:00","2018","10","15","08:00","-5.4","","-6.8","","90","","","","17","","11","","0.8","","97.63","","","","-10","","Moderate Snow"
"-97.86","55.80","THOMPSON A","5062921","2018-10-15 09:00","2018","10","15","09:00","-5.0","","-6.2","","91","","","","16","","7","","0.8","","97.49","","","","-8","","Moderate Snow"
"-97.86","55.80","THOMPSON A","5062921","2018-10-15 10:00","2018","10","15","10:00","-4.1","","-5.3","","91","","","","17","","13","","1.2","","97.35","","","","-9","","Snow"
"-97.86","55.80","THOMPSON A","5062921","2018-10-15 11:00","2018","10","15","11:00","-3.4","","-4.7","","91","","","","17","","9","","0.8","","97.24","","","","-7","","Moderate Snow"
"-97.86","55.80","THOMPSON A","5062921","2018-10-15 12:00","2018","10","15","12:00","-2.3","","-3.5","","91","","","","18","","7","","1.6","","97.15","","","","-5","","Snow"
"-97.86","55.80","THOMPSON A","5062921","2018-10-15 13:00","2018","10","15","13:00","-1.6","","-2.7","","92","","","","18","","5","","1.6","","97.09","","","","-3","","Snow"
"-97.86","55.80","THOMPSON A","5062921","2018-10-15 14:00","2018","10","15","14:00","-1.2","","-2.4","","92","","","","21","","8","","1.6","","97.05","","","","-4","","Snow"
"-97.86","55.80","THOMPSON A","5062921","2018-10-15 15:00","2018","10","15","15:00","-1.3","","-2.7","","90","","","","26","","5","","1.6","","97.10","","","","-3","","Snow"
"-97.86","55.80","THOMPSON A","5062921","2018-10-15 16:00","2018","10","15","16:00","-1.2","","-2.5","","91","","","","33","","10","","2.4","","97.16","","","","-5","","Snow"
"-97.86","55.80","THOMPSON A","5062921","2018-10-15 17:00","2018","10","15","17:00","-1.5","","-2.9","","90","","","","35","","15","","4.8","","97.29","","","","-6","","Snow"
"-97.86","55.80","THOMPSON A","5062921","2018-10-15 18:00","2018","10","15","18:00","-2.0","","-3.3","","91","","","","34","","16","","3.2","","97.45","","","","-7","","Snow"
"-97.86","55.80","THOMPSON A","5062921","2018-10-15 19:00","2018","10","15","19:00","-2.4","","-3.6","","91","","","","33","","20","","3.2","","97.60","","","","-8","","Snow"
"-97.86","55.80","THOMPSON A","5062921","2018-10-15 20:00","2018","10","15","20:00","-2.5","","-3.8","","90","","","","36","","17","","16.1","","97.74","","","","-8","","Snow"
"-97.86","55.80","THOMPSON A","5062921","2018-10-15 21:00","2018","10","15","21:00","-3.2","","-5.0","","87","","","","36","","27","","24.1","","97.87","","","","-10","","Mainly Clear"
"-97.86","55.80","THOMPSON A","5062921","2018-10-15 22:00","2018","10","15","22:00","-4.7","","-6.9","","85","","","","35","","18","","24.1","","98.01","","","","-11","","NA"
"-97.86","55.80","THOMPSON A","5062921","2018-10-15 23:00","2018","10","15","23:00","-4.7","","-6.7","","86","","","","35","","9","","24.1","","98.13","","","","-9","","NA"
"-97.86","55.80","THOMPSON A","5062921","2018-10-16 00:00","2018","10","16","00:00","-4.6","","-6.5","","87","","","","33","","13","","24.1","","98.22","","","","-10","","Cloudy"
"-97.86","55.80","THOMPSON A","5062921","2018-10-16 01:00","2018","10","16","01:00","-4.8","","-6.9","","85","","","","33","","10","","24.1","","98.29","","","","-9","","NA"
"-97.86","55.80","THOMPSON A","5062921","2018-10-16 02:00","2018","10","16","02:00","-4.8","","-6.6","","87","","","","31","","13","","24.1","","98.35","","","","-10","","NA"
"-97.86","55.80","THOMPSON A","5062921","2018-10-16 03:00","2018","10","16","03:00","-4.6","","-6.7","","86","","","","29","","12","","24.1","","98.39","","","","-9","","Cloudy"
"-97.86","55.80","THOMPSON A","5062921","2018-10-16 04:00","2018","10","16","04:00","-4.5","","-6.4","","87","","","","29","","12","","24.1","","98.40","","","","-9","","NA"
"-97.86","55.80","THOMPSON A","5062921","2018-10-16 05:00","2018","10","16","05:00","-4.3","","-6.2","","87","","","","29","","18","","24.1","","98.43","","","","-10","","NA"
"-97.86","55.80","THOMPSON A","5062921","2018-10-16 06:00","2018","10","16","06:00","-4.2","","-6.1","","87","","","","29","","17","","24.1","","98.47","","","","-10","","Cloudy"
"-97.86","55.80","THOMPSON A","5062921","2018-10-16 07:00","2018","10","16","07:00","-4.0","","-5.7","","88","","","","29","","13","","24.1","","98.50","","","","-9","","Snow Showers"
"-97.86","55.80","THOMPSON A","5062921","2018-10-16 08:00","2018","10","16","08:00","-3.6","","-5.2","","89","","","","28","","13","","24.1","","98.50","","","","-8","","NA"
"-97.86","55.80","THOMPSON A","5062921","2018-10-16 09:00","2018","10","16","09:00","-3.1","","-4.7","","89","","","","30","","14","","6.4","","98.54","","","","-8","","Snow"
"-97.86","55.80","THOMPSON A","5062921","2018-10-16 10:00","2018","10","16","10:00","-2.9","","-5.8","","81","","","","33","","21","","19.3","","98.63","","","","-9","","Snow"
"-97.86","55.80","THOMPSON A","5062921","2018-10-16 11:00","2018","10","16","11:00","-3.3","","-6.7","","77","","","","34","","26","","24.1","","98.75","","","","-10","","Snow,Blowing Snow"
"-97.86","55.80","THOMPSON A","5062921","2018-10-16 12:00","2018","10","16","12:00","-4.5","","-8.2","","76","","","","34","","28","","24.1","","98.88","","","","-12","","Snow,Blowing Snow"
"-97.86","55.80","THOMPSON A","5062921","2018-10-16 13:00","2018","10","16","13:00","-5.4","","-10.1","","70","","","","34","","27","","24.1","","98.99","","","","-13","","Snow,Blowing Snow"
"-97.86","55.80","THOMPSON A","5062921","2018-10-16 14:00","2018","10","16","14:00","-5.7","","-11.1","","66","","","","33","","27","","24.1","","99.08","","","","-14","","Blowing Snow"
"-97.86","55.80","THOMPSON A","5062921","2018-10-16 15:00","2018","10","16","15:00","-5.4","","-11.2","","64","","","","34","","26","","24.1","","99.14","","","","-13","","Blowing Snow"
"-97.86","55.80","THOMPSON A","5062921","2018-10-16 16:00","2018","10","16","16:00","-5.8","","-12.4","","60","","","","33","","24","","24.1","","99.22","","","","-13","","Blowing Snow"
"-97.86","55.80","THOMPSON A","5062921","2018-10-16 17:00","2018","10","16","17:00","-6.6","","-13.0","","61","","","","34","","13","","24.1","","99.29","","","","-12","","NA"
"-97.86","55.80","THOMPSON A","5062921","2018-10-16 18:00","2018","10","16","18:00","-7.8","","-13.3","","65","","","","33","","11","","24.1","","99.37","","","","-13","","Clear"
"-97.86","55.80","THOMPSON A","5062921","2018-10-16 19:00","2018","10","16","19:00","-8.8","","-13.7","","68","","","","33","","10","","24.1","","99.41","","","","-14","","NA"
"-97.86","55.80","THOMPSON A","5062921","2018-10-16 20:00","2018","10","16","20:00","-10.4","","-14.4","","73","","","","30","","10","","24.1","","99.42","","","","-16","","NA"
"-97.86","55.80","THOMPSON A","5062921","2018-10-16 21:00","2018","10","16","21:00","-11.3","","-14.6","","77","","","","30","","12","","24.1","","99.48","","","","-17","","Clear"
"-97.86","55.80","THOMPSON A","5062921","2018-10-16 22:00","2018","10","16","22:00","-11.8","","-14.9","","79","","","","30","","10","","24.1","","99.51","","","","-17","","NA"
"-97.86","55.80","THOMPSON A","5062921","2018-10-16 23:00","2018","10","16","23:00","-12.8","","-15.6","","80","","","","29","","10","","24.1","","99.53","","","","-19","","NA"
"-97.86","55.80","THOMPSON A","5062921","2018-10-17 00:00","2018","10","17","00:00","-12.8","","-15.3","","81","","","","30","","8","","24.1","","99.58","","","","-18","","Clear"
"-97.86","55.80","THOMPSON A","5062921","2018-10-17 01:00","2018","10","17","01:00","-13.7","","-16.1","","83","","","","30","","5","","24.1","","99.63","","","","-17","","NA"
"-97.86","55.80","THOMPSON A","5062921","2018-10-17 02:00","2018","10","17","02:00","-15.3","","-17.2","","86","","","","29","","8","","24.1","","99.64","","","","-21","","NA"
"-97.86","55.80","THOMPSON A","5062921","2018-10-17 03:00","2018","10","17","03:00","-15.5","","-17.4","","85","","","","30","","9","","24.1","","99.62","","","","-21","","Clear"
"-97.86","55.80","THOMPSON A","5062921","2018-10-17 04:00","2018","10","17","04:00","-15.6","","-17.5","","86","","","","30","","10","","24.1","","99.65","","","","-22","","NA"
"-97.86","55.80","THOMPSON A","5062921","2018-10-17 05:00","2018","10","17","05:00","-15.0","","-16.8","","86","","","","28","","9","","24.1","","99.71","","","","-21","","NA"
"-97.86","55.80","THOMPSON A","5062921","2018-10-17 06:00","2018","10","17","06:00","-19.1","","-20.9","","85","","","","36","","2","","24.1","","99.74","","","","-21","","Clear"
"-97.86","55.80","THOMPSON A","5062921","2018-10-17 07:00","2018","10","17","07:00","-19.3","","-21.1","","86","","","","36","","1","","24.1","","99.72","","","","-20","","NA"
"-97.86","55.80","THOMPSON A","5062921","2018-10-17 08:00","2018","10","17","08:00","-18.2","","-20.1","","86","","","","27","","5","","24.1","","99.72","","","","-22","","NA"
"-97.86","55.80","THOMPSON A","5062921","2018-10-17 09:00","2018","10","17","09:00","-13.0","","-14.9","","86","","","","21","","3","","24.1","","99.75","","","","-15","","Mostly Cloudy"
"-97.86","55.80","THOMPSON A","5062921","2018-10-17 10:00","2018","10","17","10:00","-9.3","","-12.0","","81","","","","15","","5","","24.1","","99.65","","","","-12","","NA"
"-97.86","55.80","THOMPSON A","5062921","2018-10-17 11:00","2018","10","17","11:00","-7.0","","-11.5","","71","","","","21","","8","","24.1","","99.61","","","","-11","","NA"
"-97.86","55.80","THOMPSON A","5062921","2018-10-17 12:00","2018","10","17","12:00","-6.0","","-11.2","","67","","","","20","","14","","24.1","","99.53","","","","-12","","Mostly Cloudy"
"-97.86","55.80","THOMPSON A","5062921","2018-10-17 13:00","2018","10","17","13:00","-4.8","","-11.4","","60","","","","18","","8","","24.1","","99.45","","","","-8","","NA"
"-97.86","55.80","THOMPSON A","5062921","2018-10-17 14:00","2018","10","17","14:00","-4.2","","-10.8","","60","","","","16","","8","","24.1","","99.31","","","","-8","","NA"
"-97.86","55.80","THOMPSON A","5062921","2018-10-17 15:00","2018","10","17","15:00","-3.9","","-10.5","","60","","","","15","","9","","24.1","","99.18","","","","-8","","Mostly Cloudy"
"-97.86","55.80","THOMPSON A","5062921","2018-10-17 16:00","2018","10","17","16:00","-4.1","","-10.7","","60","","","","15","","10","","24.1","","98.94","","","","-8","","NA"
"-97.86","55.80","THOMPSON A","5062921","2018-10-17 17:00","2018","10","17","17:00","-4.2","","-10.3","","62","","","","15","","9","","24.1","","98.85","","","","-8","","NA"
"-97.86","55.80","THOMPSON A","5062921","2018-10-17 18:00","2018","10","17","18:00","-4.1","","-9.5","","66","","","","15","","10","","24.1","","98.72","","","","-8","","Mostly Cloudy"
"-97.86","55.80","THOMPSON A","5062921","2018-10-17 19:00","2018","10","17","19:00","-3.9","","-9.0","","68","","","","14","","5","","24.1","","98.66","","","","-6","","NA"
"-97.86","55.80","THOMPSON A","5062921","2018-10-17 20:00","2018","10","17","20:00","-4.1","","-8.5","","72","","","","10","","7","","24.1","","98.57","","","","-7","","NA"
"-97.86","55.80","THOMPSON A","5062921","2018-10-17 21:00","2018","10","17","21:00","-3.9","","-8.0","","73","","","","12","","5","","24.1","","98.40","","","","-6","","Mostly Cloudy"
"-97.86","55.80","THOMPSON A","5062921","2018-10-17 22:00","2018","10","17","22:00","-4.5","","-8.1","","76","","","","9","","4","","24.1","","98.33","","","","-6","","NA"
"-97.86","55.80","THOMPSON A","5062921","2018-10-17 23:00","2018","10","17","23:00","-5.3","","-8.2","","80","","","","9","","4","","24.1","","98.25","","","","-7","","NA"
"-97.86","55.80","THOMPSON A","5062921","2018-10-18 00:00","2018","10","18","00:00","-5.4","","-8.1","","81","","","","10","","4","","24.1","","98.16","","","","-7","","Mainly Clear"
"-97.86","55.80","THOMPSON A","5062921","2018-10-18 01:00","2018","10","18","01:00","-5.8","","-8.3","","83","","","","8","","6","","24.1","","98.10","","","","-9","","NA"
"-97.86","55.80","THOMPSON A","5062921","2018-10-18 02:00","2018","10","18","02:00","-5.7","","-8.0","","84","","","","10","","5","","24.1","","97.97","","","","-8","","NA"
"-97.86","55.80","THOMPSON A","5062921","2018-10-18 03:00","2018","10","18","03:00","-5.8","","-7.9","","85","","","","10","","3","","24.1","","97.93","","","","-7","","Mostly Cloudy"
"-97.86","55.80","THOMPSON A","5062921","2018-10-18 04:00","2018","10","18","04:00","-5.8","","-7.7","","86","","","","18","","5","","24.1","","97.87","","","","-8","","NA"
"-97.86","55.80","THOMPSON A","5062921","2018-10-18 05:00","2018","10","18","05:00","-5.5","","-7.1","","89","","","","36","","2","","24.1","","97.82","","","","-6","","NA"
"-97.86","55.80","THOMPSON A","5062921","2018-10-18 06:00","2018","10","18","06:00","-5.0","","-6.5","","89","","","","9","","4","","24.1","","97.78","","","","-7","","Cloudy"
"-97.86","55.80","THOMPSON A","5062921","2018-10-18 07:00","2018","10","18","07:00","-5.0","","-6.5","","89","","","","8","","5","","24.1","","97.67","","","","-7","","NA"
"-97.86","55.80","THOMPSON A","5062921","2018-10-18 08:00","2018","10","18","08:00","-4.6","","-6.0","","90","","","","10","","3","","24.1","","97.62","","","","-6","","NA"
"-97.86","55.80","THOMPSON A","5062921","2018-10-18 09:00","2018","10","18","09:00","-3.7","","-5.3","","89","","","","18","","5","","24.1","","97.59","","","","-6","","Cloudy"
"-97.86","55.80","THOMPSON A","5062921","2018-10-18 10:00","2018","10","18","10:00","-2.2","","-4.0","","87","","","","8","","3","","24.1","","97.57","","","","-3","","NA"
"-97.86","55.80","THOMPSON A","5062921","2018-10-18 11:00","2018","10","18","11:00","0.2","","-3.2","","78","","","","36","","1","","24.1","","97.55","","","","","","NA"
"-97.86","55.80","THOMPSON A","5062921","2018-10-18 12:00","2018","10","18","12:00","1.9","","-2.7","","72","","","","17","","6","","24.1","","97.48","","","","","","Mostly Cloudy"
"-97.86","55.80","THOMPSON A","5062921","2018-10-18 13:00","2018","10","18","13:00","1.5","","-2.5","","75","","","","22","","7","","24.1","","97.48","","","","","","NA"
"-97.86","55.80","THOMPSON A","5062921","2018-10-18 14:00","2018","10","18","14:00","2.1","","-1.9","","75","","","","24","","10","","24.1","","97.51","","","","","","NA"
"-97.86","55.80","THOMPSON A","5062921","2018-10-18 15:00","2018","10","18","15:00","3.0","","-1.6","","72","","","","23","","6","","24.1","","97.47","","","","","","Mostly Cloudy"
"-97.86","55.80","THOMPSON A","5062921","2018-10-18 16:00","2018","10","18","16:00","3.5","","-1.0","","72","","","","22","","5","","24.1","","97.44","","","","","","NA"
"-97.86","55.80","THOMPSON A","5062921","2018-10-18 17:00","2018","10","18","17:00","3.4","","-0.6","","75","","","","28","","5","","24.1","","97.47","","","","","","NA"
"-97.86","55.80","THOMPSON A","5062921","2018-10-18 18:00","2018","10","18","18:00","2.1","","-0.8","","81","","","","27","","8","","24.1","","97.53","","","","","","Mostly Cloudy"
"-97.86","55.80","THOMPSON A","5062921","2018-10-18 19:00","2018","10","18","19:00","1.3","","-1.2","","83","","","","28","","8","","24.1","","97.55","","","","","","NA"
"-97.86","55.80","THOMPSON A","5062921","2018-10-18 20:00","2018","10","18","20:00","0.3","","-1.8","","86","","","","30","","3","","24.1","","97.50","","","","","","NA"
"-97.86","55.80","THOMPSON A","5062921","2018-10-18 21:00","2018","10","18","21:00","-2.5","","-3.8","","91","","","","36","","1","","24.1","","97.50","","","","-3","","Mainly Clear"
"-97.86","55.80","THOMPSON A","5062921","2018-10-18 22:00","2018","10","18","22:00","-1.4","","-2.1","","95","","","","30","","5","","24.1","","97.50","","","","-3","","NA"
"-97.86","55.80","THOMPSON A","5062921","2018-10-18 23:00","2018","10","18","23:00","-1.5","","-2.3","","94","","","","28","","11","","24.1","","97.56","","","","-5","","NA"
"-97.86","55.80","THOMPSON A","5062921","2018-10-19 00:00","2018","10","19","00:00","-0.7","","-2.1","","90","","","","30","","9","","24.1","","97.55","","","","-4","","Mainly Clear"
"-97.86","55.80","THOMPSON A","5062921","2018-10-19 01:00","2018","10","19","01:00","0.0","","-1.4","","91","","","","30","","8","","19.3","","97.59","","","","-3","","Rain"
"-97.86","55.80","THOMPSON A","5062921","2018-10-19 02:00","2018","10","19","02:00","0.3","","-0.9","","92","","","","28","","7","","24.1","","97.65","","","","","","NA"
"-97.86","55.80","THOMPSON A","5062921","2018-10-19 03:00","2018","10","19","03:00","1.5","","0.4","","93","","","","31","","15","","24.1","","97.70","","","","","","Cloudy"
"-97.86","55.80","THOMPSON A","5062921","2018-10-19 04:00","2018","10","19","04:00","2.1","","0.3","","88","","","","32","","14","","24.1","","97.77","","","","","","NA"
"-97.86","55.80","THOMPSON A","5062921","2018-10-19 05:00","2018","10","19","05:00","1.7","","-0.2","","87","","","","34","","16","","19.3","","97.88","","","","","","Rain Showers"
"-97.86","55.80","THOMPSON A","5062921","2018-10-19 06:00","2018","10","19","06:00","1.2","","-0.7","","87","","","","35","","14","","19.3","","97.95","","","","","","Rain Showers"
"-97.86","55.80","THOMPSON A","5062921","2018-10-19 07:00","2018","10","19","07:00","0.7","","-2.2","","81","","","","33","","8","","24.1","","97.97","","","","","","NA"
"-97.86","55.80","THOMPSON A","5062921","2018-10-19 08:00","2018","10","19","08:00","-0.4","","-1.8","","90","","","","33","","26","","6.4","","98.07","","","","-7","","Snow"
"-97.86","55.80","THOMPSON A","5062921","2018-10-19 09:00","2018","10","19","09:00","-2.3","","-5.5","","79","","","","35","","31","","24.1","","98.20","","","","-10","","Mostly Cloudy"
"-97.86","55.80","THOMPSON A","5062921","2018-10-19 10:00","2018","10","19","10:00","-3.8","","-8.4","","70","","","","32","","27","","24.1","","98.34","","","","-11","","NA"
"-97.86","55.80","THOMPSON A","5062921","2018-10-19 11:00","2018","10","19","11:00","-4.6","","-9.5","","69","","","","32","","22","","24.1","","98.41","","","","-11","","Snow,Blowing Snow"
"-97.86","55.80","THOMPSON A","5062921","2018-10-19 12:00","2018","10","19","12:00","-3.6","","-10.1","","61","","","","32","","20","","24.1","","98.42","","","","-10","","Snow,Blowing Snow"
"-97.86","55.80","THOMPSON A","5062921","2018-10-19 13:00","2018","10","19","13:00","-3.9","","-9.6","","65","","","","31","","32","","24.1","","98.41","","","","-12","","Snow,Blowing Snow"
"-97.86","55.80","THOMPSON A","5062921","2018-10-19 14:00","2018","10","19","14:00","-3.5","","-11.3","","55","","","","32","","29","","24.1","","98.45","","","","-11","","Snow,Blowing Snow"
"-97.86","55.80","THOMPSON A","5062921","2018-10-19 15:00","2018","10","19","15:00","-3.8","","-11.2","","57","","","","32","","32","","24.1","","98.51","","","","-12","","Snow,Blowing Snow"
"-97.86","55.80","THOMPSON A","5062921","2018-10-19 16:00","2018","10","19","16:00","-4.1","","-10.6","","61","","","","32","","34","","24.1","","98.58","","","","-12","","Snow,Blowing Snow"
"-97.86","55.80","THOMPSON A","5062921","2018-10-19 17:00","2018","10","19","17:00","-4.4","","-9.6","","67","","","","32","","30","","4.8","","98.65","","","","-12","","Snow,Blowing Snow"
"-97.86","55.80","THOMPSON A","5062921","2018-10-19 18:00","2018","10","19","18:00","-4.9","","-9.0","","73","","","","32","","28","","24.1","","98.72","","","","-13","","Snow,Blowing Snow"
"-97.86","55.80","THOMPSON A","5062921","2018-10-19 19:00","2018","10","19","19:00","-4.9","","-9.6","","70","","","","33","","22","","16.1","","98.80","","","","-12","","Snow,Blowing Snow"
"-97.86","55.80","THOMPSON A","5062921","2018-10-19 20:00","2018","10","19","20:00","-5.3","","-9.7","","71","","","","33","","25","","24.1","","98.88","","","","-13","","Snow,Blowing Snow"
"-97.86","55.80","THOMPSON A","5062921","2018-10-19 21:00","2018","10","19","21:00","-5.3","","-9.6","","72","","","","33","","28","","24.1","","98.98","","","","-13","","Blowing Snow"
"-97.86","55.80","THOMPSON A","5062921","2018-10-19 22:00","2018","10","19","22:00","-5.2","","-10.1","","69","","","","34","","27","","24.1","","99.12","","","","-13","","Blowing Snow"
"-97.86","55.80","THOMPSON A","5062921","2018-10-19 23:00","2018","10","19","23:00","-5.4","","-9.9","","71","","","","33","","30","","19.3","","99.22","","","","-14","","Snow Grains,Blowing Snow"
"-97.86","55.80","THOMPSON A","5062921","2018-10-20 00:00","2018","10","20","00:00","-6.2","","-10.9","","69","","","","35","","32","","24.1","","99.32","","","","-15","","Snow Grains,Blowing Snow"
"-97.86","55.80","THOMPSON A","5062921","2018-10-20 01:00","2018","10","20","01:00","-7.8","","-12.4","","70","","","","33","","28","","24.1","","99.47","","","","-16","","Blowing Snow"
"-97.86","55.80","THOMPSON A","5062921","2018-10-20 02:00","2018","10","20","02:00","-9.1","","-12.9","","74","","","","33","","22","","24.1","","99.56","","","","-17","","Blowing Snow"
"-97.86","55.80","THOMPSON A","5062921","2018-10-20 03:00","2018","10","20","03:00","-9.8","","-13.2","","76","","","","32","","15","","24.1","","99.64","","","","-16","","Blowing Snow"
"-97.86","55.80","THOMPSON A","5062921","2018-10-20 04:00","2018","10","20","04:00","-10.1","","-13.3","","78","","","","32","","13","","24.1","","99.74","","","","-16","","NA"
"-97.86","55.80","THOMPSON A","5062921","2018-10-20 05:00","2018","10","20","05:00","-10.3","","-13.2","","80","","","","33","","17","","24.1","","99.74","","","","-18","","NA"
"-97.86","55.80","THOMPSON A","5062921","2018-10-20 06:00","2018","10","20","06:00","-10.4","","-13.3","","80","","","","32","","19","","24.1","","99.81","","","","-18","","Cloudy"
"-97.86","55.80","THOMPSON A","5062921","2018-10-20 07:00","2018","10","20","07:00","-11.0","","-13.4","","83","","","","33","","9","","24.1","","99.82","","","","-16","","NA"
"-97.86","55.80","THOMPSON A","5062921","2018-10-20 08:00","2018","10","20","08:00","-11.3","","-13.5","","84","","","","33","","7","","24.1","","99.84","","","","-16","","Snow Showers"
"-97.86","55.80","THOMPSON A","5062921","2018-10-20 09:00","2018","10","20","09:00","-10.8","","-13.3","","83","","","","30","","8","","24.1","","99.80","","","","-15","","Snow Showers"
"-97.86","55.80","THOMPSON A","5062921","2018-10-20 10:00","2018","10","20","10:00","-9.9","","-12.8","","79","","","","36","","2","","24.1","","99.76","","","","-11","","Ice Crystals,Snow Showers"
"-97.86","55.80","THOMPSON A","5062921","2018-10-20 11:00","2018","10","20","11:00","-8.7","","-12.4","","75","","","","22","","7","","24.1","","99.76","","","","-13","","NA"
"-97.86","55.80","THOMPSON A","5062921","2018-10-20 12:00","2018","10","20","12:00","-7.2","","-11.7","","71","","","","21","","9","","24.1","","99.64","","","","-12","","Mostly Cloudy"
"-97.86","55.80","THOMPSON A","5062921","2018-10-20 13:00","2018","10","20","13:00","-5.7","","-11.6","","64","","","","16","","8","","24.1","","99.51","","","","-9","","NA"
"-97.86","55.80","THOMPSON A","5062921","2018-10-20 14:00","2018","10","20","14:00","-4.8","","-10.5","","64","","","","21","","9","","24.1","","99.39","","","","-9","","NA"
"-97.86","55.80","THOMPSON A","5062921","2018-10-20 15:00","2018","10","20","15:00","-4.3","","-10.6","","62","","","","18","","10","","24.1","","99.24","","","","-8","","Cloudy"
"-97.86","55.80","THOMPSON A","5062921","2018-10-20 16:00","2018","10","20","16:00","-3.9","","-10.5","","61","","","","18","","9","","24.1","","99.13","","","","-8","","NA"
"-97.86","55.80","THOMPSON A","5062921","2018-10-20 17:00","2018","10","20","17:00","-3.9","","-10.2","","61","","","","19","","13","","24.1","","99.07","","","","-9","","NA"
"-97.86","55.80","THOMPSON A","5062921","2018-10-20 18:00","2018","10","20","18:00","-3.8","","-9.9","","63","","","","18","","9","","24.1","","98.97","","","","-8","","Cloudy"
"-97.86","55.80","THOMPSON A","5062921","2018-10-20 19:00","2018","10","20","19:00","-3.7","","-9.6","","64","","","","18","","6","","24.1","","98.79","","","","-6","","NA"
"-97.86","55.80","THOMPSON A","5062921","2018-10-20 20:00","2018","10","20","20:00","-3.2","","-8.9","","65","","","","18","","13","","24.1","","98.62","","","","-8","","NA"
"-97.86","55.80","THOMPSON A","5062921","2018-10-20 21:00","2018","10","20","21:00","-2.5","","-7.6","","68","","","","18","","12","","24.1","","98.42","","","","-7","","Cloudy"
"-97.86","55.80","THOMPSON A","5062921","2018-10-20 22:00","2018","10","20","22:00","-1.7","","-6.2","","72","","","","20","","17","","24.1","","98.37","","","","-7","","NA"
"-97.86","55.80","THOMPSON A","5062921","2018-10-20 23:00","2018","10","20","23:00","-1.8","","-5.1","","78","","","","19","","10","","24.1","","98.24","","","","-5","","NA"
"-97.86","55.80","THOMPSON A","5062921","2018-10-21 00:00","2018","10","21","00:00","-1.1","","-4.6","","77","","","","21","","17","","24.1","","98.15","","","","-6","","Cloudy"
"-97.86","55.80","THOMPSON A","5062921","2018-10-21 01:00","2018","10","21","01:00","-1.0","","-3.5","","83","","","","21","","14","","4.8","","98.09","","","","-5","","Snow,Blowing Snow"
"-97.86","55.80","THOMPSON A","5062921","2018-10-21 02:00","2018","10","21","02:00","-1.3","","-2.5","","91","","","","20","","13","","24.1","","97.98","","","","-6","","NA"
"-97.86","55.80","THOMPSON A","5062921","2018-10-21 03:00","2018","10","21","03:00","-1.6","","-2.8","","92","","","","20","","11","","24.1","","97.92","","","","-5","","Mostly Cloudy"
"-97.86","55.80","THOMPSON A","5062921","2018-10-21 04:00","2018","10","21","04:00","-2.3","","-3.3","","93","","","","20","","8","","24.1","","97.84","","","","-5","","NA"
"-97.86","55.80","THOMPSON A","5062921","2018-10-21 05:00","2018","10","21","05:00","-2.8","","-3.7","","94","","","","18","","7","","24.1","","97.80","","","","-6","","NA"
"-97.86","55.80","THOMPSON A","5062921","2018-10-21 06:00","2018","10","21","06:00","-2.8","","-3.6","","94","","","","20","","7","","24.1","","97.76","","","","-6","","Mainly Clear"
"-97.86","55.80","THOMPSON A","5062921","2018-10-21 07:00","2018","10","21","07:00","-3.0","","-3.8","","94","","","","20","","5","","24.1","","97.73","","","","-5","","NA"
"-97.86","55.80","THOMPSON A","5062921","2018-10-21 08:00","2018","10","21","08:00","-3.3","","-4.1","","94","","","","20","","9","","24.1","","97.68","","","","-7","","NA"
"-97.86","55.80","THOMPSON A","5062921","2018-10-21 09:00","2018","10","21","09:00","-1.7","","-2.8","","93","","","","23","","11","","24.1","","97.68","","","","-6","","Mainly Clear"
"-97.86","55.80","THOMPSON A","5062921","2018-10-21 10:00","2018","10","21","10:00","0.4","","-2.5","","81","","","","24","","13","","24.1","","97.67","","","","","","NA"
"-97.86","55.80","THOMPSON A","5062921","2018-10-21 11:00","2018","10","21","11:00","4.1","","-1.2","","68","","","","27","","18","","24.1","","97.68","","","","","","NA"
"-97.86","55.80","THOMPSON A","5062921","2018-10-21 12:00","2018","10","21","12:00","5.8","","-0.8","","62","","","","27","","13","","24.1","","97.62","","","","","","Mostly Cloudy"
"-97.86","55.80","THOMPSON A","5062921","2018-10-21 13:00","2018","10","21","13:00","5.6","","-0.4","","65","","","","26","","12","","24.1","","97.62","","","","","","NA"
"-97.86","55.80","THOMPSON A","5062921","2018-10-21 14:00","2018","10","21","14:00","5.7","","-0.2","","66","","","","25","","18","","24.1","","97.65","","","","","","NA"
"-97.86","55.80","THOMPSON A","5062921","2018-10-21 15:00","2018","10","21","15:00","4.8","","0.7","","75","","","","27","","25","","16.1","","97.66","","","","","","Rain"
"-97.86","55.80","THOMPSON A","5062921","2018-10-21 16:00","2018","10","21","16:00","3.1","","1.9","","92","","","","25","","13","","16.1","","97.68","","","","","","Rain"
"-97.86","55.80","THOMPSON A","5062921","2018-10-21 17:00","2018","10","21","17:00","3.3","","2.1","","92","","","","28","","20","","16.1","","97.76","","","","","","Rain"
"-97.86","55.80","THOMPSON A","5062921","2018-10-21 18:00","2018","10","21","18:00","3.0","","1.8","","92","","","","28","","21","","24.1","","97.76","","","","","","Mostly Cloudy"
"-97.86","55.80","THOMPSON A","5062921","2018-10-21 19:00","2018","10","21","19:00","2.8","","1.7","","92","","","","29","","10","","24.1","","97.81","","","","","","NA"
"-97.86","55.80","THOMPSON A","5062921","2018-10-21 20:00","2018","10","21","20:00","2.8","","1.8","","93","","","","31","","13","","24.1","","97.87","","","","","","NA"
"-97.86","55.80","THOMPSON A","5062921","2018-10-21 21:00","2018","10","21","21:00","2.6","","1.7","","94","","","","32","","16","","24.1","","97.95","","","","","","Rain"
"-97.86","55.80","THOMPSON A","5062921","2018-10-21 22:00","2018","10","21","22:00","2.3","","1.4","","93","","","","32","","12","","24.1","","98.02","","","","","","NA"
"-97.86","55.80","THOMPSON A","5062921","2018-10-21 23:00","2018","10","21","23:00","2.1","","1.2","","94","","","","32","","14","","12.9","","98.09","","","","","","Rain"
"-97.86","55.80","THOMPSON A","5062921","2018-10-22 00:00","2018","10","22","00:00","1.8","","0.9","","94","","","","32","","16","","19.3","","98.17","","","","","","Rain"
"-97.86","55.80","THOMPSON A","5062921","2018-10-22 01:00","2018","10","22","01:00","1.1","","0.1","","93","","","","34","","18","","24.1","","98.31","","","","","","NA"
"-97.86","55.80","THOMPSON A","5062921","2018-10-22 02:00","2018","10","22","02:00","0.8","","-0.6","","91","","","","32","","17","","24.1","","98.41","","","","","","NA"
"-97.86","55.80","THOMPSON A","5062921","2018-10-22 03:00","2018","10","22","03:00","0.0","","-1.4","","90","","","","34","","21","","4.8","","98.53","","","","-5","","Snow"
"-97.86","55.80","THOMPSON A","5062921","2018-10-22 04:00","2018","10","22","04:00","-0.9","","-3.1","","85","","","","33","","17","","24.1","","98.67","","","","-6","","NA"
"-97.86","55.80","THOMPSON A","5062921","2018-10-22 05:00","2018","10","22","05:00","-1.5","","-3.7","","85","","","","33","","28","","8.1","","98.78","","","","-8","","Snow"
"-97.86","55.80","THOMPSON A","5062921","2018-10-22 06:00","2018","10","22","06:00","-2.5","","-4.7","","84","","","","33","","18","","8.1","","98.91","","","","-8","","Snow,Blowing Snow"
"-97.86","55.80","THOMPSON A","5062921","2018-10-22 07:00","2018","10","22","07:00","-2.9","","-5.8","","81","","","","33","","14","","24.1","","99.02","","","","-8","","Snow,Blowing Snow"
"-97.86","55.80","THOMPSON A","5062921","2018-10-22 08:00","2018","10","22","08:00","-3.4","","-6.6","","78","","","","31","","20","","24.1","","99.12","","","","-10","","NA"
"-97.86","55.80","THOMPSON A","5062921","2018-10-22 09:00","2018","10","22","09:00","-3.5","","-6.4","","81","","","","34","","16","","24.1","","99.20","","","","-9","","Snow"
"-97.86","55.80","THOMPSON A","5062921","2018-10-22 10:00","2018","10","22","10:00","-3.9","","-7.3","","77","","","","33","","23","","24.1","","99.31","","","","-11","","Snow"
"-97.86","55.80","THOMPSON A","5062921","2018-10-22 11:00","2018","10","22","11:00","-3.5","","-7.5","","74","","","","31","","24","","24.1","","99.41","","","","-10","","Snow"
"-97.86","55.80","THOMPSON A","5062921","2018-10-22 12:00","2018","10","22","12:00","-3.6","","-7.5","","74","","","","31","","24","","24.1","","99.48","","","","-10","","Snow"
"-97.86","55.80","THOMPSON A","5062921","2018-10-22 13:00","2018","10","22","13:00","-2.8","","-7.4","","70","","","","32","","22","","24.1","","99.55","","","","-9","","NA"
"-97.86","55.80","THOMPSON A","5062921","2018-10-22 14:00","2018","10","22","14:00","-2.7","","-7.2","","71","","","","31","","21","","24.1","","99.62","","","","-9","","NA"
"-97.86","55.80","THOMPSON A","5062921","2018-10-22 15:00","2018","10","22","15:00","-3.3","","-7.7","","72","","","","34","","19","","24.1","","99.71","","","","-9","","Mostly Cloudy"
"-97.86","55.80","THOMPSON A","5062921","2018-10-22 16:00","2018","10","22","16:00","-3.8","","-8.0","","73","","","","32","","18","","24.1","","99.76","","","","-10","","NA"
"-97.86","55.80","THOMPSON A","5062921","2018-10-22 17:00","2018","10","22","17:00","-4.2","","-8.2","","74","","","","31","","19","","24.1","","99.86","","","","-10","","NA"
"-97.86","55.80","THOMPSON A","5062921","2018-10-22 18:00","2018","10","22","18:00","-4.4","","-8.0","","76","","","","30","","13","","24.1","","99.91","","","","-9","","Mostly Cloudy"
"-97.86","55.80","THOMPSON A","5062921","2018-10-22 19:00","2018","10","22","19:00","-4.0","","-7.8","","75","","","","31","","14","","24.1","","99.96","","","","-9","","NA"
"-97.86","55.80","THOMPSON A","5062921","2018-10-22 20:00","2018","10","22","20:00","-4.1","","-7.6","","77","","","","31","","12","","24.1","","99.98","","","","-9","","NA"
"-97.86","55.80","THOMPSON A","5062921","2018-10-22 21:00","2018","10","22","21:00","-4.1","","-7.5","","77","","","","31","","8","","24.1","","100.03","","","","-8","","Cloudy"
"-97.86","55.80","THOMPSON A","5062921","2018-10-22 22:00","2018","10","22","22:00","-4.0","","-7.5","","77","","","","32","","6","","24.1","","100.03","","","","-7","","NA"
"-97.86","55.80","THOMPSON A","5062921","2018-10-22 23:00","2018","10","22","23:00","-5.1","","-7.9","","80","","","","31","","6","","24.1","","100.06","","","","-8","","NA"
"-97.86","55.80","THOMPSON A","5062921","2018-10-23 00:00","2018","10","23","00:00","-7.3","","-9.6","","84","","","","1","","5","","24.1","","100.09","","","","-10","","Mainly Clear"
"-97.86","55.80","THOMPSON A","5062921","2018-10-23 01:00","2018","10","23","01:00","-6.8","","-8.4","","88","","","","2","","4","","24.1","","100.11","","","","-9","","NA"
"-97.86","55.80","THOMPSON A","5062921","2018-10-23 02:00","2018","10","23","02:00","-7.9","","-9.5","","88","","","","1","","3","","24.1","","100.14","","","","-9","","NA"
"-97.86","55.80","THOMPSON A","5062921","2018-10-23 03:00","2018","10","23","03:00","-9.5","","-10.9","","90","","","","36","","1","","24.1","","100.15","","","","-10","","Mainly Clear"
"-97.86","55.80","THOMPSON A","5062921","2018-10-23 04:00","2018","10","23","04:00","-9.9","","-11.1","","91","","","","36","","1","","24.1","","100.14","","","","-10","","NA"
"-97.86","55.80","THOMPSON A","5062921","2018-10-23 05:00","2018","10","23","05:00","-10.3","","-11.6","","90","","","","36","","2","","24.1","","100.16","","","","-11","","NA"
"-97.86","55.80","THOMPSON A","5062921","2018-10-23 06:00","2018","10","23","06:00","-10.2","","-11.5","","90","","","","0","","1","","24.1","","100.16","","","","-11","","Mainly Clear"
"-97.86","55.80","THOMPSON A","5062921","2018-10-23 07:00","2018","10","23","07:00","-8.7","","-10.1","","90","","","","36","","1","","24.1","","100.17","","","","-9","","NA"
"-97.86","55.80","THOMPSON A","5062921","2018-10-23 08:00","2018","10","23","08:00","-7.5","","-9.0","","90","","","","36","","2","","24.1","","100.18","","","","-9","","NA"
"-97.86","55.80","THOMPSON A","5062921","2018-10-23 09:00","2018","10","23","09:00","-6.0","","-7.3","","91","","","","36","","3","","24.1","","100.15","","","","-7","","Mostly Cloudy"
"-97.86","55.80","THOMPSON A","5062921","2018-10-23 10:00","2018","10","23","10:00","-3.8","","-5.8","","86","","","","17","","5","","24.1","","100.12","","","","-6","","NA"
"-97.86","55.80","THOMPSON A","5062921","2018-10-23 11:00","2018","10","23","11:00","-2.9","","-6.5","","76","","","","21","","13","","24.1","","100.08","","","","-8","","NA"
"-97.86","55.80","THOMPSON A","5062921","2018-10-23 12:00","2018","10","23","12:00","-2.0","","-6.5","","71","","","","20","","14","","24.1","","100.01","","","","-7","","Mostly Cloudy"
"-97.86","55.80","THOMPSON A","5062921","2018-10-23 13:00","2018","10","23","13:00","-1.7","","-6.4","","70","","","","19","","9","","24.1","","99.94","","","","-5","","NA"
"-97.86","55.80","THOMPSON A","5062921","2018-10-23 14:00","2018","10","23","14:00","-1.2","","-5.9","","70","","","","17","","10","","24.1","","99.87","","","","-5","","NA"
"-97.86","55.80","THOMPSON A","5062921","2018-10-23 15:00","2018","10","23","15:00","-0.7","","-5.8","","69","","","","20","","11","","24.1","","99.81","","","","-4","","Mostly Cloudy"
"-97.86","55.80","THOMPSON A","5062921","2018-10-23 16:00","2018","10","23","16:00","-0.5","","-5.5","","69","","","","17","","9","","24.1","","99.72","","","","-4","","NA"
"-97.86","55.80","THOMPSON A","5062921","2018-10-23 17:00","2018","10","23","17:00","-0.4","","-5.5","","68","","","","16","","8","","24.1","","99.66","","","","-3","","NA"
"-97.86","55.80","THOMPSON A","5062921","2018-10-23 18:00","2018","10","23","18:00","-1.2","","-5.5","","73","","","","16","","5","","24.1","","99.60","","","","-3","","Mostly Cloudy"
"-97.86","55.80","THOMPSON A","5062921","2018-10-23 19:00","2018","10","23","19:00","-2.2","","-5.5","","78","","","","14","","5","","24.1","","99.54","","","","-4","","NA"
"-97.86","55.80","THOMPSON A","5062921","2018-10-23 20:00","2018","10","23","20:00","-2.2","","-4.9","","82","","","","13","","6","","24.1","","99.46","","","","-5","","NA"
"-97.86","55.80","THOMPSON A","5062921","2018-10-23 21:00","2018","10","23","21:00","-2.2","","-4.3","","85","","","","17","","7","","24.1","","99.41","","","","-5","","Mostly Cloudy"
"-97.86","55.80","THOMPSON A","5062921","2018-10-23 22:00","2018","10","23","22:00","-2.4","","-4.1","","88","","","","15","","7","","24.1","","99.37","","","","-5","","NA"
"-97.86","55.80","THOMPSON A","5062921","2018-10-23 23:00","2018","10","23","23:00","-3.0","","-4.3","","91","","","","17","","8","","24.1","","99.31","","","","-6","","NA"
"-97.86","55.80","THOMPSON A","5062921","2018-10-24 00:00","2018","10","24","00:00","-1.4","","-2.4","","92","","","","19","","12","","24.1","","99.25","","","","-5","","Mostly Cloudy"
"-97.86","55.80","THOMPSON A","5062921","2018-10-24 01:00","2018","10","24","01:00","-1.8","","-2.8","","93","","","","18","","3","","24.1","","99.22","","","","-3","","NA"
"-97.86","55.80","THOMPSON A","5062921","2018-10-24 02:00","2018","10","24","02:00","-2.4","","-3.2","","94","","","","15","","6","","24.1","","99.14","","","","-5","","NA"
"-97.86","55.80","THOMPSON A","5062921","2018-10-24 03:00","2018","10","24","03:00","-2.7","","-3.4","","95","","","","14","","6","","24.1","","99.11","","","","-5","","Mostly Cloudy"
"-97.86","55.80","THOMPSON A","5062921","2018-10-24 04:00","2018","10","24","04:00","-2.8","","-3.4","","95","","","","15","","5","","24.1","","99.06","","","","-5","","NA"
"-97.86","55.80","THOMPSON A","5062921","2018-10-24 05:00","2018","10","24","05:00","-3.2","","-3.8","","96","","","","16","","7","","24.1","","99.00","","","","-6","","NA"
"-97.86","55.80","THOMPSON A","5062921","2018-10-24 06:00","2018","10","24","06:00","-3.7","","-4.2","","96","","","","13","","5","","24.1","","98.95","","","","-6","","Mainly Clear"
"-97.86","55.80","THOMPSON A","5062921","2018-10-24 07:00","2018","10","24","07:00","-4.1","","-4.6","","96","","","","15","","5","","24.1","","98.91","","","","-6","","NA"
"-97.86","55.80","THOMPSON A","5062921","2018-10-24 08:00","2018","10","24","08:00","-4.1","","-4.6","","96","","","","14","","5","","24.1","","98.91","","","","-6","","NA"
"-97.86","55.80","THOMPSON A","5062921","2018-10-24 09:00","2018","10","24","09:00","-3.2","","-3.7","","96","","","","36","","1","","24.1","","98.89","","","","-4","","Mainly Clear"
"-97.86","55.80","THOMPSON A","5062921","2018-10-24 10:00","2018","10","24","10:00","-1.3","","-1.9","","96","","","","2","","3","","24.1","","98.91","","","","-2","","NA"
"-97.86","55.80","THOMPSON A","5062921","2018-10-24 11:00","2018","10","24","11:00","0.7","","-1.3","","87","","","","2","","3","","24.1","","98.87","","","","","","NA"
"-97.86","55.80","THOMPSON A","5062921","2018-10-24 12:00","2018","10","24","12:00","2.0","","-1.9","","75","","","","4","","13","","24.1","","98.90","","","","","","Mainly Clear"
"-97.86","55.80","THOMPSON A","5062921","2018-10-24 13:00","2018","10","24","13:00","2.0","","-2.1","","75","","","","2","","18","","24.1","","98.92","","","","","","NA"
"-97.86","55.80","THOMPSON A","5062921","2018-10-24 14:00","2018","10","24","14:00","1.1","","-2.2","","79","","","","3","","17","","24.1","","98.96","","","","","","NA"
"-97.86","55.80","THOMPSON A","5062921","2018-10-24 15:00","2018","10","24","15:00","0.5","","-2.5","","80","","","","4","","21","","24.1","","99.00","","","","","","Mainly Clear"
"-97.86","55.80","THOMPSON A","5062921","2018-10-24 16:00","2018","10","24","16:00","-0.3","","-2.8","","83","","","","4","","21","","24.1","","99.05","","","","-6","","NA"
"-97.86","55.80","THOMPSON A","5062921","2018-10-24 17:00","2018","10","24","17:00","-0.6","","-2.8","","85","","","","4","","14","","24.1","","99.11","","","","-5","","NA"
"-97.86","55.80","THOMPSON A","5062921","2018-10-24 18:00","2018","10","24","18:00","-0.4","","-2.7","","84","","","","6","","19","","24.1","","99.17","","","","-6","","Mainly Clear"
"-97.86","55.80","THOMPSON A","5062921","2018-10-24 19:00","2018","10","24","19:00","-1.0","","-3.1","","86","","","","6","","12","","24.1","","99.21","","","","-5","","NA"
"-97.86","55.80","THOMPSON A","5062921","2018-10-24 20:00","2018","10","24","20:00","-0.9","","-3.0","","86","","","","6","","16","","24.1","","99.26","","","","-6","","NA"
"-97.86","55.80","THOMPSON A","5062921","2018-10-24 21:00","2018","10","24","21:00","-0.4","","-2.8","","84","","","","6","","14","","24.1","","99.32","","","","-5","","Mostly Cloudy"
"-97.86","55.80","THOMPSON A","5062921","2018-10-24 22:00","2018","10","24","22:00","-0.1","","-2.8","","82","","","","8","","16","","24.1","","99.36","","","","-5","","NA"
"-97.86","55.80","THOMPSON A","5062921","2018-10-24 23:00","2018","10","24","23:00","-0.3","","-3.0","","82","","","","8","","16","","24.1","","99.40","","","","-5","","NA"
"-97.86","55.80","THOMPSON A","5062921","2018-10-25 00:00","2018","10","25","00:00","-0.6","","-3.2","","83","","","","6","","14","","24.1","","99.44","","","","-5","","Cloudy"
"-97.86","55.80","THOMPSON A","5062921","2018-10-25 01:00","2018","10","25","01:00","-1.0","","-3.4","","84","","","","8","","12","","24.1","","99.46","","","","-5","","NA"
"-97.86","55.80","THOMPSON A","5062921","2018-10-25 02:00","2018","10","25","02:00","-1.7","","-4.1","","84","","","","7","","13","","24.1","","99.50","","","","-6","","NA"
"-97.86","55.80","THOMPSON A","5062921","2018-10-25 03:00","2018","10","25","03:00","-1.9","","-4.4","","83","","","","8","","16","","24.1","","99.50","","","","-7","","Cloudy"
"-97.86","55.80","THOMPSON A","5062921","2018-10-25 04:00","2018","10","25","04:00","-2.0","","-4.5","","83","","","","7","","14","","24.1","","99.54","","","","-7","","NA"
"-97.86","55.80","THOMPSON A","5062921","2018-10-25 05:00","2018","10","25","05:00","-2.1","","-4.7","","83","","","","8","","20","","24.1","","99.55","","","","-8","","NA"
"-97.86","55.80","THOMPSON A","5062921","2018-10-25 06:00","2018","10","25","06:00","-2.1","","-4.7","","82","","","","8","","17","","24.1","","99.52","","","","-7","","Snow"
"-97.86","55.80","THOMPSON A","5062921","2018-10-25 07:00","2018","10","25","07:00","-2.1","","-4.7","","82","","","","8","","14","","24.1","","99.54","","","","-7","","Snow"
"-97.86","55.80","THOMPSON A","5062921","2018-10-25 08:00","2018","10","25","08:00","-2.1","","-4.6","","83","","","","8","","14","","24.1","","99.56","","","","-7","","NA"
"-97.86","55.80","THOMPSON A","5062921","2018-10-25 09:00","2018","10","25","09:00","-1.9","","-4.9","","81","","","","9","","12","","24.1","","99.55","","","","-6","","Cloudy"
"-97.86","55.80","THOMPSON A","5062921","2018-10-25 10:00","2018","10","25","10:00","-1.6","","-4.6","","80","","","","9","","9","","24.1","","99.60","","","","-5","","NA"
"-97.86","55.80","THOMPSON A","5062921","2018-10-25 11:00","2018","10","25","11:00","-1.1","","-4.6","","78","","","","9","","14","","24.1","","99.60","","","","-6","","Snow"
"-97.86","55.80","THOMPSON A","5062921","2018-10-25 12:00","2018","10","25","12:00","-1.0","","-4.5","","77","","","","7","","17","","24.1","","99.56","","","","-6","","Snow"
"-97.86","55.80","THOMPSON A","5062921","2018-10-25 13:00","2018","10","25","13:00","-1.1","","-4.5","","78","","","","9","","12","","24.1","","99.53","","","","-5","","Snow"
"-97.86","55.80","THOMPSON A","5062921","2018-10-25 14:00","2018","10","25","14:00","-1.4","","-5.0","","76","","","","10","","13","","24.1","","99.49","","","","-6","","NA"
"-97.86","55.80","THOMPSON A","5062921","2018-10-25 15:00","2018","10","25","15:00","-1.7","","-4.9","","79","","","","8","","12","","24.1","","99.46","","","","-6","","Cloudy"
"-97.86","55.80","THOMPSON A","5062921","2018-10-25 16:00","2018","10","25","16:00","-2.1","","-5.2","","79","","","","9","","15","","24.1","","99.43","","","","-7","","NA"
"-97.86","55.80","THOMPSON A","5062921","2018-10-25 17:00","2018","10","25","17:00","-2.1","","-5.2","","80","","","","9","","9","","24.1","","99.43","","","","-6","","NA"
"-97.86","55.80","THOMPSON A","5062921","2018-10-25 18:00","2018","10","25","18:00","-2.2","","-5.3","","79","","","","10","","15","","24.1","","99.40","","","","-7","","Cloudy"
"-97.86","55.80","THOMPSON A","5062921","2018-10-25 19:00","2018","10","25","19:00","-2.4","","-5.3","","80","","","","9","","13","","24.1","","99.35","","","","-7","","NA"
"-97.86","55.80","THOMPSON A","5062921","2018-10-25 20:00","2018","10","25","20:00","-2.4","","-5.3","","80","","","","11","","8","","24.1","","99.34","","","","-6","","NA"
"-97.86","55.80","THOMPSON A","5062921","2018-10-25 21:00","2018","10","25","21:00","-2.5","","-5.3","","81","","","","11","","11","","24.1","","99.32","","","","-7","","Cloudy"
"-97.86","55.80","THOMPSON A","5062921","2018-10-25 22:00","2018","10","25","22:00","-2.5","","-5.3","","81","","","","10","","6","","24.1","","99.28","","","","-5","","NA"
"-97.86","55.80","THOMPSON A","5062921","2018-10-25 23:00","2018","10","25","23:00","-2.4","","-5.2","","81","","","","12","","9","","24.1","","99.24","","","","-6","","NA"
"-97.86","55.80","THOMPSON A","5062921","2018-10-26 00:00","2018","10","26","00:00","-2.4","","-5.1","","82","","","","10","","9","","24.1","","99.22","","","","-6","","Cloudy"
"-97.86","55.80","THOMPSON A","5062921","2018-10-26 01:00","2018","10","26","01:00","-2.4","","-5.0","","82","","","","10","","3","","24.1","","99.15","","","","-4","","NA"
"-97.86","55.80","THOMPSON A","5062921","2018-10-26 02:00","2018","10","26","02:00","-2.3","","-4.8","","83","","","","12","","8","","24.1","","99.11","","","","-5","","NA"
"-97.86","55.80","THOMPSON A","5062921","2018-10-26 03:00","2018","10","26","03:00","-2.3","","-4.7","","84","","","","11","","7","","24.1","","99.03","","","","-5","","Cloudy"
"-97.86","55.80","THOMPSON A","5062921","2018-10-26 04:00","2018","10","26","04:00","-2.3","","-4.6","","84","","","","12","","7","","24.1","","98.99","","","","-5","","NA"
"-97.86","55.80","THOMPSON A","5062921","2018-10-26 05:00","2018","10","26","05:00","-2.4","","-4.6","","85","","","","10","","7","","24.1","","98.95","","","","-5","","NA"
"-97.86","55.80","THOMPSON A","5062921","2018-10-26 06:00","2018","10","26","06:00","-2.5","","-4.8","","85","","","","12","","6","","24.1","","98.89","","","","-5","","Cloudy"
"-97.86","55.80","THOMPSON A","5062921","2018-10-26 07:00","2018","10","26","07:00","-2.6","","-4.7","","85","","","","10","","8","","24.1","","98.85","","","","-6","","NA"
"-97.86","55.80","THOMPSON A","5062921","2018-10-26 08:00","2018","10","26","08:00","-2.6","","-4.6","","86","","","","12","","5","","24.1","","98.81","","","","-5","","NA"
"-97.86","55.80","THOMPSON A","5062921","2018-10-26 09:00","2018","10","26","09:00","-2.5","","-4.5","","86","","","","12","","7","","24.1","","98.75","","","","-5","","Cloudy"
"-97.86","55.80","THOMPSON A","5062921","2018-10-26 10:00","2018","10","26","10:00","-2.2","","-4.3","","86","","","","9","","6","","24.1","","98.73","","","","-5","","NA"
"-97.86","55.80","THOMPSON A","5062921","2018-10-26 11:00","2018","10","26","11:00","-1.9","","-4.1","","85","","","","9","","5","","24.1","","98.66","","","","-4","","NA"
"-97.86","55.80","THOMPSON A","5062921","2018-10-26 12:00","2018","10","26","12:00","-1.7","","-4.1","","84","","","","12","","5","","24.1","","98.61","","","","-4","","Cloudy"
"-97.86","55.80","THOMPSON A","5062921","2018-10-26 13:00","2018","10","26","13:00","-1.6","","-4.0","","84","","","","17","","8","","24.1","","98.54","","","","-5","","NA"
"-97.86","55.80","THOMPSON A","5062921","2018-10-26 14:00","2018","10","26","14:00","-1.4","","-3.9","","83","","","","13","","7","","24.1","","98.48","","","","-4","","NA"
"-97.86","55.80","THOMPSON A","5062921","2018-10-26 15:00","2018","10","26","15:00","-1.4","","-3.8","","84","","","","7","","9","","24.1","","98.42","","","","-5","","Cloudy"
"-97.86","55.80","THOMPSON A","5062921","2018-10-26 16:00","2018","10","26","16:00","-1.3","","-3.7","","84","","","","8","","5","","24.1","","98.37","","","","-3","","NA"
"-97.86","55.80","THOMPSON A","5062921","2018-10-26 17:00","2018","10","26","17:00","-1.4","","-3.6","","85","","","","9","","4","","24.1","","98.36","","","","-3","","NA"
"-97.86","55.80","THOMPSON A","5062921","2018-10-26 18:00","2018","10","26","18:00","-1.4","","-3.5","","86","","","","7","","9","","24.1","","98.32","","","","-5","","Cloudy"
"-97.86","55.80","THOMPSON A","5062921","2018-10-26 19:00","2018","10","26","19:00","-1.5","","-3.3","","88","","","","8","","8","","24.1","","98.28","","","","-5","","NA"
"-97.86","55.80","THOMPSON A","5062921","2018-10-26 20:00","2018","10","26","20:00","-1.7","","-3.1","","90","","","","9","","7","","9.7","","98.25","","","","-4","","Snow"
"-97.86","55.80","THOMPSON A","5062921","2018-10-26 21:00","2018","10","26","21:00","-1.7","","-2.9","","92","","","","9","","7","","24.1","","98.19","","","","-4","","Snow"
"-97.86","55.80","THOMPSON A","5062921","2018-10-26 22:00","2018","10","26","22:00","-1.7","","-2.9","","92","","","","7","","7","","24.1","","98.15","","","","-4","","Snow"
"-97.86","55.80","THOMPSON A","5062921","2018-10-26 23:00","2018","10","26","23:00","-1.8","","-2.9","","92","","","","8","","5","","8.1","","98.14","","","","-4","","Snow"
"-97.86","55.80","THOMPSON A","5062921","2018-10-27 00:00","2018","10","27","00:00","-1.9","","-2.8","","94","","","","7","","5","","8.1","","98.10","","","","-4","","Snow"
"-97.86","55.80","THOMPSON A","5062921","2018-10-27 01:00","2018","10","27","01:00","-1.9","","-2.6","","95","","","","8","","7","","8.1","","98.05","","","","-5","","Freezing Drizzle,Snow"
"-97.86","55.80","THOMPSON A","5062921","2018-10-27 02:00","2018","10","27","02:00","-1.9","","-2.6","","95","","","","8","","7","","8.1","","98.01","","","","-5","","Freezing Drizzle"
"-97.86","55.80","THOMPSON A","5062921","2018-10-27 03:00","2018","10","27","03:00","-2.0","","-2.6","","95","","","","8","","6","","6.4","","98.00","","","","-4","","Fog"
"-97.86","55.80","THOMPSON A","5062921","2018-10-27 04:00","2018","10","27","04:00","-2.1","","-2.7","","96","","","","8","","6","","3.2","","97.96","","","","-4","","Freezing Drizzle,Fog"
"-97.86","55.80","THOMPSON A","5062921","2018-10-27 05:00","2018","10","27","05:00","-2.0","","-2.6","","96","","","","7","","5","","3.2","","97.92","","","","-4","","Freezing Drizzle,Fog"
"-97.86","55.80","THOMPSON A","5062921","2018-10-27 06:00","2018","10","27","06:00","-1.9","","-2.4","","96","","","","6","","9","","6.4","","97.88","","","","-5","","Freezing Drizzle,Fog"
"-97.86","55.80","THOMPSON A","5062921","2018-10-27 07:00","2018","10","27","07:00","-1.7","","-2.2","","96","","","","7","","9","","8.1","","97.84","","","","-5","","Freezing Drizzle,Snow,Fog"
"-97.86","55.80","THOMPSON A","5062921","2018-10-27 08:00","2018","10","27","08:00","-1.6","","-2.1","","97","","","","7","","6","","3.2","","97.83","","","","-4","","Freezing Drizzle,Ice Pellets,Fog"
"-97.86","55.80","THOMPSON A","5062921","2018-10-27 09:00","2018","10","27","09:00","-1.2","","-1.7","","97","","","","5","","8","","3.2","","97.79","","","","-4","","Freezing Drizzle,Snow,Ice Pellets"
"-97.86","55.80","THOMPSON A","5062921","2018-10-27 10:00","2018","10","27","10:00","-1.0","","-1.5","","97","","","","5","","10","","3.2","","97.79","","","","-5","","Snow,Fog"
"-97.86","55.80","THOMPSON A","5062921","2018-10-27 11:00","2018","10","27","11:00","-0.5","","-1.0","","96","","","","4","","9","","6.4","","97.77","","","","-4","","Snow"
"-97.86","55.80","THOMPSON A","5062921","2018-10-27 12:00","2018","10","27","12:00","-0.4","","-1.0","","96","","","","5","","11","","6.4","","97.74","","","","-4","","Snow"
"-97.86","55.80","THOMPSON A","5062921","2018-10-27 13:00","2018","10","27","13:00","-0.2","","-0.9","","95","","","","5","","11","","6.4","","97.71","","","","-4","","Snow"
"-97.86","55.80","THOMPSON A","5062921","2018-10-27 14:00","2018","10","27","14:00","-0.1","","-0.8","","95","","","","4","","16","","8.1","","97.69","","","","-5","","Snow"
"-97.86","55.80","THOMPSON A","5062921","2018-10-27 15:00","2018","10","27","15:00","-0.1","","-0.7","","95","","","","4","","10","","6.4","","97.68","","","","-3","","Snow"
"-97.86","55.80","THOMPSON A","5062921","2018-10-27 16:00","2018","10","27","16:00","-0.1","","-0.7","","96","","","","4","","9","","6.4","","97.69","","","","-3","","Snow"
"-97.86","55.80","THOMPSON A","5062921","2018-10-27 17:00","2018","10","27","17:00","-0.1","","-0.7","","96","","","","2","","10","","6.4","","97.72","","","","-3","","Snow"
"-97.86","55.80","THOMPSON A","5062921","2018-10-27 18:00","2018","10","27","18:00","-0.2","","-0.8","","96","","","","1","","9","","4.8","","97.75","","","","-3","","Snow"
"-97.86","55.80","THOMPSON A","5062921","2018-10-27 19:00","2018","10","27","19:00","-0.2","","-0.8","","96","","","","1","","13","","3.2","","97.75","","","","-4","","Snow"
"-97.86","55.80","THOMPSON A","5062921","2018-10-27 20:00","2018","10","27","20:00","-0.2","","-0.8","","96","","","","1","","13","","9.7","","97.78","","","","-4","","Snow"
"-97.86","55.80","THOMPSON A","5062921","2018-10-27 21:00","2018","10","27","21:00","-0.2","","-0.8","","96","","","","1","","11","","19.3","","97.79","","","","-4","","Snow,Ice Crystals"
"-97.86","55.80","THOMPSON A","5062921","2018-10-27 22:00","2018","10","27","22:00","-0.3","","-0.8","","96","","","","36","","11","","24.1","","97.80","","","","-4","","Snow"
"-97.86","55.80","THOMPSON A","5062921","2018-10-27 23:00","2018","10","27","23:00","-0.3","","-0.8","","96","","","","36","","10","","8.1","","97.85","","","","-4","","Snow"
"-97.86","55.80","THOMPSON A","5062921","2018-10-28 00:00","2018","10","28","00:00","-0.3","","-0.8","","96","","","","36","","9","","6.4","","97.90","","","","-3","","Snow"
"-97.86","55.80","THOMPSON A","5062921","2018-10-28 01:00","2018","10","28","01:00","-0.4","","-0.9","","96","","","","35","","10","","12.9","","97.93","","","","-4","","Snow"
"-97.86","55.80","THOMPSON A","5062921","2018-10-28 02:00","2018","10","28","02:00","-0.4","","-0.9","","96","","","","34","","8","","6.4","","97.97","","","","-3","","Snow"
"-97.86","55.80","THOMPSON A","5062921","2018-10-28 03:00","2018","10","28","03:00","-0.3","","-0.8","","96","","","","35","","9","","12.9","","98.02","","","","-3","","Snow"
"-97.86","55.80","THOMPSON A","5062921","2018-10-28 04:00","2018","10","28","04:00","-0.2","","-0.8","","96","","","","35","","9","","24.1","","98.09","","","","-3","","Snow"
"-97.86","55.80","THOMPSON A","5062921","2018-10-28 05:00","2018","10","28","05:00","-0.2","","-0.7","","96","","","","33","","5","","24.1","","98.15","","","","-2","","Snow"
"-97.86","55.80","THOMPSON A","5062921","2018-10-28 06:00","2018","10","28","06:00","-0.2","","-0.8","","96","","","","33","","9","","24.1","","98.21","","","","-3","","Cloudy"
"-97.86","55.80","THOMPSON A","5062921","2018-10-28 07:00","2018","10","28","07:00","-0.3","","-0.9","","96","","","","31","","5","","24.1","","98.27","","","","-2","","NA"
"-97.86","55.80","THOMPSON A","5062921","2018-10-28 08:00","2018","10","28","08:00","-0.2","","-0.7","","96","","","","34","","4","","24.1","","98.32","","","","-1","","NA"
"-97.86","55.80","THOMPSON A","5062921","2018-10-28 09:00","2018","10","28","09:00","0.1","","-0.5","","96","","","","32","","6","","24.1","","98.38","","","","","","Cloudy"
"-97.86","55.80","THOMPSON A","5062921","2018-10-28 10:00","2018","10","28","10:00","0.3","","-0.3","","95","","","","32","","7","","24.1","","98.48","","","","","","NA"
"-97.86","55.80","THOMPSON A","5062921","2018-10-28 11:00","2018","10","28","11:00","0.6","","-0.1","","95","","","","30","","9","","24.1","","98.49","","","","","","NA"
"-97.86","55.80","THOMPSON A","5062921","2018-10-28 12:00","2018","10","28","12:00","-0.4","","-1.2","","95","","","","31","","16","","4.8","","98.55","","","","-5","","Fog"
"-97.86","55.80","THOMPSON A","5062921","2018-10-28 13:00","2018","10","28","13:00","0.0","","-0.8","","94","","","","31","","9","","6.4","","98.59","","","","-3","","Fog"
"-97.86","55.80","THOMPSON A","5062921","2018-10-28 14:00","2018","10","28","14:00","0.3","","-0.9","","92","","","","31","","9","","4.8","","98.60","","","","","","Snow,Fog"
"-97.86","55.80","THOMPSON A","5062921","2018-10-28 15:00","2018","10","28","15:00","0.3","","-0.6","","93","","","","29","","8","","6.4","","98.62","","","","","","Snow,Fog"
"-97.86","55.80","THOMPSON A","5062921","2018-10-28 16:00","2018","10","28","16:00","0.2","","-1.1","","91","","","","30","","8","","9.7","","98.67","","","","","","Snow,Fog"
"-97.86","55.80","THOMPSON A","5062921","2018-10-28 17:00","2018","10","28","17:00","-0.3","","-1.2","","94","","","","33","","6","","2.4","","98.73","","","","-2","","Snow Showers,Fog"
"-97.86","55.80","THOMPSON A","5062921","2018-10-28 18:00","2018","10","28","18:00","-0.3","","-1.0","","95","","","","25","","5","","19.3","","98.73","","","","-2","","Snow Showers"
"-97.86","55.80","THOMPSON A","5062921","2018-10-28 19:00","2018","10","28","19:00","-0.3","","-0.9","","96","","","","24","","7","","24.1","","98.73","","","","-3","","Snow Showers"
"-97.86","55.80","THOMPSON A","5062921","2018-10-28 20:00","2018","10","28","20:00","-0.3","","-0.9","","96","","","","30","","3","","19.3","","98.75","","","","-1","","Snow Showers"
"-97.86","55.80","THOMPSON A","5062921","2018-10-28 21:00","2018","10","28","21:00","-0.4","","-1.0","","96","","","","24","","8","","24.1","","98.75","","","","-3","","Snow Showers"
"-97.86","55.80","THOMPSON A","5062921","2018-10-28 22:00","2018","10","28","22:00","-0.5","","-1.2","","95","","","","24","","7","","19.3","","98.77","","","","-3","","Snow Showers"
"-97.86","55.80","THOMPSON A","5062921","2018-10-28 23:00","2018","10","28","23:00","-0.5","","-1.2","","95","","","","25","","7","","19.3","","98.81","","","","-3","","NA"
"-97.86","55.80","THOMPSON A","5062921","2018-10-29 00:00","2018","10","29","00:00","-0.8","","-1.4","","96","","","","21","","5","","24.1","","98.80","","","","-2","","Snow Showers"
"-97.86","55.80","THOMPSON A","5062921","2018-10-29 01:00","2018","10","29","01:00","-1.0","","-1.5","","96","","","","23","","4","","24.1","","98.79","","","","-2","","NA"
"-97.86","55.80","THOMPSON A","5062921","2018-10-29 02:00","2018","10","29","02:00","-0.8","","-1.3","","97","","","","24","","4","","4.8","","98.77","","","","-2","","Snow"
"-97.86","55.80","THOMPSON A","5062921","2018-10-29 03:00","2018","10","29","03:00","-0.8","","-1.3","","97","","","","25","","4","","6.4","","98.78","","","","-2","","Snow"
"-97.86","55.80","THOMPSON A","5062921","2018-10-29 04:00","2018","10","29","04:00","-0.8","","-1.2","","97","","","","21","","3","","8.1","","98.74","","","","-2","","Snow"
"-97.86","55.80","THOMPSON A","5062921","2018-10-29 05:00","2018","10","29","05:00","-0.9","","-1.3","","97","","","","36","","1","","8.1","","98.69","","","","-1","","Snow"
"-97.86","55.80","THOMPSON A","5062921","2018-10-29 06:00","2018","10","29","06:00","-1.0","","-1.4","","97","","","","36","","3","","16.1","","98.71","","","","-2","","Snow"
"-97.86","55.80","THOMPSON A","5062921","2018-10-29 07:00","2018","10","29","07:00","-1.4","","-1.9","","97","","","","36","","1","","16.1","","98.69","","","","-2","","Snow"
"-97.86","55.80","THOMPSON A","5062921","2018-10-29 08:00","2018","10","29","08:00","-1.1","","-1.5","","97","","","","18","","4","","6.4","","98.68","","","","-2","","Snow,Fog"
"-97.86","55.80","THOMPSON A","5062921","2018-10-29 09:00","2018","10","29","09:00","-0.9","","-1.3","","97","","","","16","","3","","12.9","","98.66","","","","-2","","Snow"
"-97.86","55.80","THOMPSON A","5062921","2018-10-29 10:00","2018","10","29","10:00","-0.9","","-1.6","","95","","","","9","","6","","6.4","","98.63","","","","-3","","Snow,Fog"
"-97.86","55.80","THOMPSON A","5062921","2018-10-29 11:00","2018","10","29","11:00","-0.9","","-1.9","","92","","","","19","","7","","6.4","","98.63","","","","-3","","Snow,Fog"
"-97.86","55.80","THOMPSON A","5062921","2018-10-29 12:00","2018","10","29","12:00","-0.8","","-2.3","","89","","","","18","","8","","4.8","","98.61","","","","-4","","Snow,Fog"
"-97.86","55.80","THOMPSON A","5062921","2018-10-29 13:00","2018","10","29","13:00","-0.6","","-2.6","","86","","","","13","","4","","6.4","","98.55","","","","-2","","Snow,Fog"
"-97.86","55.80","THOMPSON A","5062921","2018-10-29 14:00","2018","10","29","14:00","-0.6","","-1.8","","91","","","","14","","7","","8.1","","98.53","","","","-3","","Snow"
"-97.86","55.80","THOMPSON A","5062921","2018-10-29 15:00","2018","10","29","15:00","-0.7","","-1.9","","92","","","","12","","4","","12.9","","98.47","","","","-2","","Snow"
"-97.86","55.80","THOMPSON A","5062921","2018-10-29 16:00","2018","10","29","16:00","-0.8","","-2.0","","91","","","","11","","5","","16.1","","98.50","","","","-2","","NA"
"-97.86","55.80","THOMPSON A","5062921","2018-10-29 17:00","2018","10","29","17:00","-1.0","","-2.1","","93","","","","13","","5","","24.1","","98.46","","","","-3","","NA"
"-97.86","55.80","THOMPSON A","5062921","2018-10-29 18:00","2018","10","29","18:00","-1.2","","-2.1","","93","","","","7","","8","","24.1","","98.43","","","","-4","","Cloudy"
"-97.86","55.80","THOMPSON A","5062921","2018-10-29 19:00","2018","10","29","19:00","-1.1","","-1.9","","94","","","","9","","8","","24.1","","98.39","","","","-4","","NA"
"-97.86","55.80","THOMPSON A","5062921","2018-10-29 20:00","2018","10","29","20:00","-1.1","","-1.8","","95","","","","10","","5","","2.4","","98.40","","","","-3","","Snow"
"-97.86","55.80","THOMPSON A","5062921","2018-10-29 21:00","2018","10","29","21:00","-1.3","","-2.0","","95","","","","6","","10","","2.4","","98.33","","","","-5","","Snow"
"-97.86","55.80","THOMPSON A","5062921","2018-10-29 22:00","2018","10","29","22:00","-1.2","","-1.9","","95","","","","7","","9","","3.2","","98.27","","","","-4","","Snow"
"-97.86","55.80","THOMPSON A","5062921","2018-10-29 23:00","2018","10","29","23:00","-1.2","","-1.9","","95","","","","7","","9","","3.2","","98.26","","","","-4","","Snow"
"-97.86","55.80","THOMPSON A","5062921","2018-10-30 00:00","2018","10","30","00:00","-1.2","","-1.8","","96","","","","7","","12","","1.6","","98.24","","","","-5","","Snow"
"-97.86","55.80","THOMPSON A","5062921","2018-10-30 01:00","2018","10","30","01:00","-1.1","","-1.7","","96","","","","6","","12","","1.6","","98.18","","","","-5","","Snow"
"-97.86","55.80","THOMPSON A","5062921","2018-10-30 02:00","2018","10","30","02:00","-0.9","","-1.5","","96","","","","6","","15","","1.6","","98.12","","","","-6","","Snow"
"-97.86","55.80","THOMPSON A","5062921","2018-10-30 03:00","2018","10","30","03:00","-0.8","","-1.4","","95","","","","7","","11","","1.6","","98.09","","","","-5","","Snow"
"-97.86","55.80","THOMPSON A","5062921","2018-10-30 04:00","2018","10","30","04:00","-0.8","","-1.4","","95","","","","5","","16","","1.2","","98.06","","","","-6","","Snow"
"-97.86","55.80","THOMPSON A","5062921","2018-10-30 05:00","2018","10","30","05:00","-0.8","","-1.5","","95","","","","6","","19","","1.2","","98.05","","","","-6","","Snow"
"-97.86","55.80","THOMPSON A","5062921","2018-10-30 06:00","2018","10","30","06:00","-0.9","","-1.6","","95","","","","5","","22","","3.2","","98.03","","","","-7","","Snow"
"-97.86","55.80","THOMPSON A","5062921","2018-10-30 07:00","2018","10","30","07:00","-1.0","","-1.8","","95","","","","5","","23","","3.2","","98.02","","","","-7","","Snow"
"-97.86","55.80","THOMPSON A","5062921","2018-10-30 08:00","2018","10","30","08:00","-1.1","","-1.8","","95","","","","5","","20","","4.8","","98.03","","","","-7","","Snow"
"-97.86","55.80","THOMPSON A","5062921","2018-10-30 09:00","2018","10","30","09:00","-1.1","","-1.9","","94","","","","4","","18","","4.8","","98.04","","","","-6","","Snow"
"-97.86","55.80","THOMPSON A","5062921","2018-10-30 10:00","2018","10","30","10:00","-0.9","","-1.8","","94","","","","4","","18","","4.8","","98.04","","","","-6","","Snow"
"-97.86","55.80","THOMPSON A","5062921","2018-10-30 11:00","2018","10","30","11:00","-0.8","","-1.8","","93","","","","3","","21","","3.2","","98.04","","","","-6","","Snow"
"-97.86","55.80","THOMPSON A","5062921","2018-10-30 12:00","2018","10","30","12:00","-0.9","","-2.0","","92","","","","2","","16","","1.6","","98.04","","","","-6","","Snow"
"-97.86","55.80","THOMPSON A","5062921","2018-10-30 13:00","2018","10","30","13:00","-1.2","","-2.5","","91","","","","2","","24","","3.2","","98.03","","","","-7","","Snow"
"-97.86","55.80","THOMPSON A","5062921","2018-10-30 14:00","2018","10","30","14:00","-1.4","","-2.6","","91","","","","2","","23","","1.6","","98.04","","","","-7","","Snow"
"-97.86","55.80","THOMPSON A","5062921","2018-10-30 15:00","2018","10","30","15:00","-1.6","","-2.8","","91","","","","1","","19","","1.6","","98.08","","","","-7","","Snow"
"-97.86","55.80","THOMPSON A","5062921","2018-10-30 16:00","2018","10","30","16:00","-2.2","","-3.5","","91","","","","1","","25","","1.6","","98.12","","","","-9","","Snow"
"-97.86","55.80","THOMPSON A","5062921","2018-10-30 17:00","2018","10","30","17:00","-2.8","","-4.0","","91","","","","1","","26","","1.6","","98.17","","","","-10","","Snow"
"-97.86","55.80","THOMPSON A","5062921","2018-10-30 18:00","2018","10","30","18:00","-2.9","","-4.2","","91","","","","1","","22","","1.6","","98.21","","","","-9","","Snow"
"-97.86","55.80","THOMPSON A","5062921","2018-10-30 19:00","2018","10","30","19:00","-3.0","","-4.2","","91","","","","35","","23","","3.2","","98.21","","","","-9","","Snow"
"-97.86","55.80","THOMPSON A","5062921","2018-10-30 20:00","2018","10","30","20:00","-3.4","","-4.8","","90","","","","36","","23","","3.2","","98.22","","","","-10","","Snow"
"-97.86","55.80","THOMPSON A","5062921","2018-10-30 21:00","2018","10","30","21:00","-3.8","","-5.2","","90","","","","36","","21","","8.1","","98.24","","","","-10","","Snow"
"-97.86","55.80","THOMPSON A","5062921","2018-10-30 22:00","2018","10","30","22:00","-4.2","","-5.7","","89","","","","35","","17","","8.1","","98.23","","","","-10","","Snow"
"-97.86","55.80","THOMPSON A","5062921","2018-10-30 23:00","2018","10","30","23:00","-4.6","","-6.1","","89","","","","35","","18","","8.1","","98.23","","","","-11","","Snow"
"-97.86","55.80","THOMPSON A","5062921","2018-10-31 00:00","2018","10","31","00:00","-4.9","","-6.5","","89","","","","35","","16","","8.1","","98.24","","","","-11","","Snow"
"-97.86","55.80","THOMPSON A","5062921","2018-10-31 01:00","2018","10","31","01:00","-5.2","","-6.7","","89","","","","35","","14","","8.1","","98.27","","","","-11","","Snow"
"-97.86","55.80","THOMPSON A","5062921","2018-10-31 02:00","2018","10","31","02:00","-5.3","","-6.9","","89","","","","36","","14","","12.9","","98.29","","","","-11","","Snow"
"-97.86","55.80","THOMPSON A","5062921","2018-10-31 03:00","2018","10","31","03:00","-5.6","","-7.0","","90","","","","35","","10","","16.1","","98.30","","","","-10","","Snow"
"-97.86","55.80","THOMPSON A","5062921","2018-10-31 04:00","2018","10","31","04:00","-5.4","","-6.8","","90","","","","35","","10","","24.1","","98.30","","","","-10","","NA"
"-97.86","55.80","THOMPSON A","5062921","2018-10-31 05:00","2018","10","31","05:00","-5.3","","-6.8","","90","","","","34","","13","","24.1","","98.31","","","","-10","","NA"
"-97.86","55.80","THOMPSON A","5062921","2018-10-31 06:00","2018","10","31","06:00","-6.0","","-7.5","","89","","","","35","","11","","24.1","","98.33","","","","-11","","Cloudy"
"-97.86","55.80","THOMPSON A","5062921","2018-10-31 07:00","2018","10","31","07:00","-6.4","","-7.9","","89","","","","32","","10","","24.1","","98.34","","","","-11","","NA"
"-97.86","55.80","THOMPSON A","5062921","2018-10-31 08:00","2018","10","31","08:00","-7.7","","-9.1","","90","","","","32","","10","","24.1","","98.35","","","","-13","","NA"
"-97.86","55.80","THOMPSON A","5062921","2018-10-31 09:00","2018","10","31","09:00","-7.5","","-8.8","","91","","","","32","","7","","24.1","","98.34","","","","-11","","Mostly Cloudy"
"-97.86","55.80","THOMPSON A","5062921","2018-10-31 10:00","2018","10","31","10:00","-5.6","","-7.4","","87","","","","35","","11","","24.1","","98.34","","","","-10","","NA"
"-97.86","55.80","THOMPSON A","5062921","2018-10-31 11:00","2018","10","31","11:00","-4.7","","-7.0","","84","","","","31","","11","","24.1","","98.34","","","","-9","","NA"
"-97.86","55.80","THOMPSON A","5062921","2018-10-31 12:00","2018","10","31","12:00","-4.3","","-6.6","","84","","","","36","","10","","24.1","","98.34","","","","-8","","Cloudy"
"-97.86","55.80","THOMPSON A","5062921","2018-10-31 13:00","2018","10","31","13:00","-4.2","","-6.4","","85","","","","35","","9","","24.1","","98.34","","","","-8","","NA"
"-97.86","55.80","THOMPSON A","5062921","2018-10-31 14:00","2018","10","31","14:00","-4.0","","-6.1","","86","","","","34","","9","","24.1","","98.34","","","","-8","","NA"
"-97.86","55.80","THOMPSON A","5062921","2018-10-31 15:00","2018","10","31","15:00","-3.9","","-5.5","","89","","","","32","","4","","9.7","","98.35","","","","-6","","Snow,Fog"
"-97.86","55.80","THOMPSON A","5062921","2018-10-31 16:00","2018","10","31","16:00","-3.8","","-4.9","","92","","","","34","","4","","4.8","","98.37","","","","-5","","Freezing Drizzle"
"-97.86","55.80","THOMPSON A","5062921","2018-10-31 17:00","2018","10","31","17:00","-3.7","","-4.7","","93","","","","36","","3","","8.1","","98.40","","","","-5","","Freezing Drizzle"
"-97.86","55.80","THOMPSON A","5062921","2018-10-31 18:00","2018","10","31","18:00","-3.8","","-4.6","","94","","","","32","","4","","19.3","","98.41","","","","-5","","Snow"
"-97.86","55.80","THOMPSON A","5062921","2018-10-31 19:00","2018","10","31","19:00","-3.9","","-4.7","","94","","","","31","","3","","16.1","","98.41","","","","-5","","Snow"
"-97.86","55.80","THOMPSON A","5062921","2018-10-31 20:00","2018","10","31","20:00","-3.8","","-4.6","","94","","","","27","","3","","19.3","","98.41","","","","-5","","Snow"
"-97.86","55.80","THOMPSON A","5062921","2018-10-31 21:00","2018","10","31","21:00","-3.9","","-4.6","","94","","","","30","","4","","19.3","","98.42","","","","-6","","Snow"
"-97.86","55.80","THOMPSON A","5062921","2018-10-31 22:00","2018","10","31","22:00","-4.0","","-4.8","","94","","","","32","","7","","19.3","","98.42","","","","-7","","Snow"
"-97.86","55.80","THOMPSON A","5062921","2018-10-31 23:00","2018","10","31","23:00","-4.0","","-4.9","","94","","","","33","","5","","3.2","","98.43","","","","-6","","Snow"
