"Longitude (x)","Latitude (y)","Station Name","Climate ID","Date/Time (LST)","Year","Month","Day","Time (LST)","Temp (°C)","Temp Flag","Dew Point Temp (°C)","Dew Point Temp Flag","Rel Hum (%)","Rel Hum Flag","Precip. Amount (mm)","Precip. Amount Flag","Wind Dir (10s deg)","Wind Dir Flag","Wind Spd (km/h)","Wind Spd Flag","Visibility (km)","Visibility Flag","Stn Press (kPa)","Stn Press Flag","Hmdx","Hmdx Flag","Wind Chill","Wind Chill Flag","Weather"
"-94.36","49.79","KENORA A","6034076","2023-01-01 00:00","2023","01","01","00:00","-8.4","","-9.5","","92","","","","6","","8","","0.8","","95.69","","","","-13","","Snow,Freezing Fog"
"-94.36","49.79","KENORA A","6034076","2023-01-01 01:00","2023","01","01","01:00","-8.3","","-9.4","","92","","","","3","","6","","0.8","","95.70","","","","-12","","Snow,Freezing Fog"
"-94.36","49.79","KENORA A","6034076","2023-01-01 02:00","2023","01","01","02:00","-8.2","","-9.3","","92","","","","3","","5","","0.8","","95.71","","","","-11","","Snow,Freezing Fog"
"-94.36","49.79","KENORA A","6034076","2023-01-01 03:00","2023","01","01","03:00","-8.2","","-9.3","","92","","","","4","","7","","0.8","","95.70","","","","-12","","Snow,Freezing Fog"
"-94.36","49.79","KENORA A","6034076","2023-01-01 04:00","2023","01","01","04:00","-8.1","","-9.2","","92","","","","3","","7","","0.8","","95.74","","","","-12","","Snow,Freezing Fog"
"-94.36","49.79","KENORA A","6034076","2023-01-01 05:00","2023","01","01","05:00","-8.0","","-9.1","","92","","","","4","","3","","0.8","","95.78","","","","-10","","Snow,Freezing Fog"
"-94.36","49.79","KENORA A","6034076","2023-01-01 06:00","2023","01","01","06:00","-7.9","","-9.0","","92","","","","1","","5","","0.8","","95.82","","","","-11","","Freezing Fog"
"-94.36","49.79","KENORA A","6034076","2023-01-01 07:00","2023","01","01","07:00","-7.9","","-9.0","","92","","","","1","","7","","0.8","","95.82","","","","-12","","Freezing Fog"
"-94.36","49.79","KENORA A","6034076","2023-01-01 08:00","2023","01","01","08:00","-7.9","","-9.0","","92","","","","27","","5","","1.2","","95.89","","","","-11","","Snow,Fog"
"-94.36","49.79","KENORA A","6034076","2023-01-01 09:00","2023","01","01","09:00","-7.9","","-8.9","","92","","","","35","","4","","1.2","","95.93","","","","-10","","Snow,Fog"
"-94.36","49.79","KENORA A","6034076","2023-01-01 10:00","2023","01","01","10:00","-7.7","","-8.8","","92","","","","35","","8","","3.2","","96.01","","","","-12","","Snow,Fog"
"-94.36","49.79","KENORA A","6034076","2023-01-01 11:00","2023","01","01","11:00","-7.6","","-8.6","","93","","","","34","","9","","4.8","","96.07","","","","-12","","Snow,Fog"
"-94.36","49.79","KENORA A","6034076","2023-01-01 12:00","2023","01","01","12:00","-7.5","","-8.4","","93","","","","29","","6","","4.8","","96.08","","","","-11","","Snow,Fog"
"-94.36","49.79","KENORA A","6034076","2023-01-01 13:00","2023","01","01","13:00","-6.7","","-7.6","","93","","","","29","","5","","4.8","","96.10","","","","-9","","Snow,Fog"
"-94.36","49.79","KENORA A","6034076","2023-01-01 14:00","2023","01","01","14:00","-6.6","","-7.5","","94","","","","34","","8","","6.4","","96.15","","","","-10","","Snow,Fog"
"-94.36","49.79","KENORA A","6034076","2023-01-01 15:00","2023","01","01","15:00","-6.4","","-7.2","","94","","","","29","","7","","1.6","","96.20","","","","-10","","Snow,Fog"
"-94.36","49.79","KENORA A","6034076","2023-01-01 16:00","2023","01","01","16:00","-6.2","","-7.0","","94","","","","32","","5","","1.2","","96.28","","","","-9","","Snow,Fog"
"-94.36","49.79","KENORA A","6034076","2023-01-01 17:00","2023","01","01","17:00","-6.2","","-7.0","","94","","","","32","","7","","1.6","","96.35","","","","-10","","Snow,Fog"
"-94.36","49.79","KENORA A","6034076","2023-01-01 18:00","2023","01","01","18:00","-6.2","","-7.0","","94","","","","33","","13","","1.6","","96.37","","","","-12","","Snow,Fog"
"-94.36","49.79","KENORA A","6034076","2023-01-01 19:00","2023","01","01","19:00","-6.5","","-7.3","","94","","","","30","","8","","4.8","","96.44","","","","-10","","Fog"
"-94.36","49.79","KENORA A","6034076","2023-01-01 20:00","2023","01","01","20:00","-6.9","","-7.8","","93","","","","26","","9","","9.7","","96.50","","","","-11","","Snow,Fog"
"-94.36","49.79","KENORA A","6034076","2023-01-01 21:00","2023","01","01","21:00","-7.4","","-8.4","","93","","","","31","","6","","1.6","","96.56","","","","-11","","Snow,Fog"
"-94.36","49.79","KENORA A","6034076","2023-01-01 22:00","2023","01","01","22:00","-7.8","","-8.8","","92","","","","30","","9","","0.8","","96.62","","","","-12","","Snow,Freezing Fog"
"-94.36","49.79","KENORA A","6034076","2023-01-01 23:00","2023","01","01","23:00","-8.0","","-9.0","","92","","","","24","","12","","0.8","","96.65","","","","-13","","Snow,Freezing Fog"
"-94.36","49.79","KENORA A","6034076","2023-01-02 00:00","2023","01","02","00:00","-7.9","","-9.0","","92","","","","26","","8","","0.8","","96.67","","","","-12","","Snow,Freezing Fog"
"-94.36","49.79","KENORA A","6034076","2023-01-02 01:00","2023","01","02","01:00","-8.3","","-9.4","","92","","","","25","","13","","0.8","","96.69","","","","-14","","Snow,Freezing Fog"
"-94.36","49.79","KENORA A","6034076","2023-01-02 02:00","2023","01","02","02:00","-8.7","","-9.8","","91","","","","23","","13","","0.8","","96.72","","","","-15","","Snow,Freezing Fog"
"-94.36","49.79","KENORA A","6034076","2023-01-02 03:00","2023","01","02","03:00","-9.0","","-10.2","","91","","","","25","","14","","0.8","","96.76","","","","-15","","Snow,Freezing Fog"
"-94.36","49.79","KENORA A","6034076","2023-01-02 04:00","2023","01","02","04:00","-9.4","","-10.6","","91","","","","23","","12","","0.8","","96.74","","","","-15","","Snow,Freezing Fog"
"-94.36","49.79","KENORA A","6034076","2023-01-02 05:00","2023","01","02","05:00","-9.6","","-10.9","","91","","","","26","","9","","0.8","","96.69","","","","-14","","Snow,Freezing Fog"
"-94.36","49.79","KENORA A","6034076","2023-01-02 06:00","2023","01","02","06:00","-9.7","","-11.0","","90","","","","22","","13","","0.8","","96.70","","","","-16","","Snow,Freezing Fog"
"-94.36","49.79","KENORA A","6034076","2023-01-02 07:00","2023","01","02","07:00","-9.5","","-10.7","","91","","","","21","","16","","0.8","","96.71","","","","-16","","Freezing Fog"
"-94.36","49.79","KENORA A","6034076","2023-01-02 08:00","2023","01","02","08:00","-9.5","","-10.8","","91","","","","21","","20","","0.6","","96.73","","","","-17","","Freezing Fog"
"-94.36","49.79","KENORA A","6034076","2023-01-02 09:00","2023","01","02","09:00","-9.8","","-11.1","","90","","","","21","","19","","0.6","","96.74","","","","-17","","Freezing Fog"
"-94.36","49.79","KENORA A","6034076","2023-01-02 10:00","2023","01","02","10:00","-10.1","","-11.5","","90","","","","22","","23","","0.6","","96.76","","","","-19","","Freezing Fog"
"-94.36","49.79","KENORA A","6034076","2023-01-02 11:00","2023","01","02","11:00","-9.8","","-11.1","","90","","","","22","","18","","0.6","","96.77","","","","-17","","Freezing Fog"
"-94.36","49.79","KENORA A","6034076","2023-01-02 12:00","2023","01","02","12:00","-9.5","","-10.8","","90","","","","20","","19","","0.8","","96.73","","","","-17","","Freezing Fog"
"-94.36","49.79","KENORA A","6034076","2023-01-02 13:00","2023","01","02","13:00","-9.2","","-10.5","","91","","","","21","","16","","0.8","","96.65","","","","-16","","Freezing Fog"
"-94.36","49.79","KENORA A","6034076","2023-01-02 14:00","2023","01","02","14:00","-9.0","","-10.2","","91","","","","20","","17","","0.8","","96.60","","","","-16","","Freezing Fog"
"-94.36","49.79","KENORA A","6034076","2023-01-02 15:00","2023","01","02","15:00","-9.0","","-10.2","","91","","","","19","","22","","1.6","","96.56","","","","-17","","Fog"
"-94.36","49.79","KENORA A","6034076","2023-01-02 16:00","2023","01","02","16:00","-9.0","","-10.2","","91","","","","20","","17","","4.8","","96.58","","","","-16","","Fog"
"-94.36","49.79","KENORA A","6034076","2023-01-02 17:00","2023","01","02","17:00","-8.9","","-10.1","","91","","","","20","","13","","4.8","","96.63","","","","-15","","Fog"
"-94.36","49.79","KENORA A","6034076","2023-01-02 18:00","2023","01","02","18:00","-9.0","","-10.2","","91","","","","21","","14","","4.8","","96.62","","","","-15","","Fog"
"-94.36","49.79","KENORA A","6034076","2023-01-02 19:00","2023","01","02","19:00","-9.1","","-10.3","","91","","","","22","","18","","8.1","","96.62","","","","-16","","Fog"
"-94.36","49.79","KENORA A","6034076","2023-01-02 20:00","2023","01","02","20:00","-9.2","","-10.4","","91","","","","23","","13","","9.7","","96.69","","","","-15","","Fog"
"-94.36","49.79","KENORA A","6034076","2023-01-02 21:00","2023","01","02","21:00","-9.1","","-10.3","","91","","","","22","","14","","9.7","","96.67","","","","-15","","Fog"
"-94.36","49.79","KENORA A","6034076","2023-01-02 22:00","2023","01","02","22:00","-9.4","","-10.6","","91","","","","22","","13","","8.1","","96.65","","","","-15","","Fog"
"-94.36","49.79","KENORA A","6034076","2023-01-02 23:00","2023","01","02","23:00","-9.7","","-10.9","","90","","","","24","","11","","3.2","","96.67","","","","-15","","Fog"
"-94.36","49.79","KENORA A","6034076","2023-01-03 00:00","2023","01","03","00:00","-10.8","","-12.3","","89","","","","20","","10","","9.7","","96.66","","","","-16","","Fog"
"-94.36","49.79","KENORA A","6034076","2023-01-03 01:00","2023","01","03","01:00","-12.6","","-14.2","","88","","","","19","","9","","16.1","","96.67","","","","-18","","NA"
"-94.36","49.79","KENORA A","6034076","2023-01-03 02:00","2023","01","03","02:00","-13.7","","-15.5","","86","","","","20","","4","","12.9","","96.67","","","","-16","","NA"
"-94.36","49.79","KENORA A","6034076","2023-01-03 03:00","2023","01","03","03:00","-13.2","","-14.9","","87","","","","19","","7","","32.2","","96.60","","","","-18","","Mainly Clear"
"-94.36","49.79","KENORA A","6034076","2023-01-03 04:00","2023","01","03","04:00","-14.0","","-15.7","","87","","","","16","","8","","32.2","","96.59","","","","-19","","NA"
"-94.36","49.79","KENORA A","6034076","2023-01-03 05:00","2023","01","03","05:00","-13.6","","-15.3","","87","","","","15","","10","","32.2","","96.60","","","","-20","","NA"
"-94.36","49.79","KENORA A","6034076","2023-01-03 06:00","2023","01","03","06:00","-14.3","","-16.2","","86","","","","16","","9","","32.2","","96.60","","","","-20","","Mainly Clear"
"-94.36","49.79","KENORA A","6034076","2023-01-03 07:00","2023","01","03","07:00","-14.7","","-16.6","","86","","","","13","","7","","0.4","","96.57","","","","-19","","Freezing Fog"
"-94.36","49.79","KENORA A","6034076","2023-01-03 08:00","2023","01","03","08:00","-15.1","","-17.1","","85","","","","9","","6","","0.2","","96.49","","","","-19","","Freezing Fog"
"-94.36","49.79","KENORA A","6034076","2023-01-03 09:00","2023","01","03","09:00","-14.2","","-16.1","","86","","","","17","","10","","9.7","","96.54","","","","-20","","Fog"
"-94.36","49.79","KENORA A","6034076","2023-01-03 10:00","2023","01","03","10:00","-13.0","","-14.7","","87","","","","16","","7","","9.7","","96.53","","","","-18","","Snow,Fog"
"-94.36","49.79","KENORA A","6034076","2023-01-03 11:00","2023","01","03","11:00","-12.1","","-13.9","","87","","","","1","","6","","19.3","","96.48","","","","-16","","NA"
"-94.36","49.79","KENORA A","6034076","2023-01-03 12:00","2023","01","03","12:00","-11.0","","-12.6","","88","","","","3","","9","","19.3","","96.40","","","","-16","","Mainly Clear"
"-94.36","49.79","KENORA A","6034076","2023-01-03 13:00","2023","01","03","13:00","-9.1","","-10.5","","90","","","","12","","8","","19.3","","96.35","","","","-13","","NA"
"-94.36","49.79","KENORA A","6034076","2023-01-03 14:00","2023","01","03","14:00","-8.1","","-9.4","","91","","","","34","","5","","19.3","","96.30","","","","-11","","NA"
"-94.36","49.79","KENORA A","6034076","2023-01-03 15:00","2023","01","03","15:00","-8.4","","-9.6","","91","","","","3","","8","","19.3","","96.34","","","","-13","","Mostly Cloudy"
"-94.36","49.79","KENORA A","6034076","2023-01-03 16:00","2023","01","03","16:00","-8.9","","-10.1","","91","","","","6","","4","","19.3","","96.41","","","","-11","","NA"
"-94.36","49.79","KENORA A","6034076","2023-01-03 17:00","2023","01","03","17:00","-8.7","","-9.8","","91","","","","7","","8","","19.3","","96.43","","","","-13","","NA"
"-94.36","49.79","KENORA A","6034076","2023-01-03 18:00","2023","01","03","18:00","-11.4","","-12.9","","89","","","","8","","9","","19.3","","96.43","","","","-17","","Mainly Clear"
"-94.36","49.79","KENORA A","6034076","2023-01-03 19:00","2023","01","03","19:00","-11.2","","-12.5","","90","","","","8","","8","","32.2","","96.43","","","","-16","","NA"
"-94.36","49.79","KENORA A","6034076","2023-01-03 20:00","2023","01","03","20:00","-12.3","","-13.9","","88","","","","11","","7","","32.2","","96.44","","","","-17","","NA"
"-94.36","49.79","KENORA A","6034076","2023-01-03 21:00","2023","01","03","21:00","-12.3","","-13.8","","88","","","","6","","8","","32.2","","96.41","","","","-17","","Clear"
"-94.36","49.79","KENORA A","6034076","2023-01-03 22:00","2023","01","03","22:00","-12.7","","-14.4","","87","","","","2","","12","","32.2","","96.40","","","","-19","","NA"
"-94.36","49.79","KENORA A","6034076","2023-01-03 23:00","2023","01","03","23:00","-12.8","","-14.4","","88","","","","3","","14","","32.2","","96.40","","","","-20","","NA"
"-94.36","49.79","KENORA A","6034076","2023-01-04 00:00","2023","01","04","00:00","-13.0","","-14.7","","87","","","","3","","15","","32.2","","96.38","","","","-20","","Mainly Clear"
"-94.36","49.79","KENORA A","6034076","2023-01-04 01:00","2023","01","04","01:00","-13.2","","-14.9","","87","","","","8","","8","","32.2","","96.44","","","","-18","","NA"
"-94.36","49.79","KENORA A","6034076","2023-01-04 02:00","2023","01","04","02:00","-12.3","","-14.0","","88","","","","6","","8","","32.2","","96.44","","","","-17","","NA"
"-94.36","49.79","KENORA A","6034076","2023-01-04 03:00","2023","01","04","03:00","-13.2","","-15.0","","87","","","","4","","10","","32.2","","96.49","","","","-19","","Mainly Clear"
"-94.36","49.79","KENORA A","6034076","2023-01-04 04:00","2023","01","04","04:00","-13.9","","-15.7","","87","","","","5","","10","","32.2","","96.52","","","","-20","","NA"
"-94.36","49.79","KENORA A","6034076","2023-01-04 05:00","2023","01","04","05:00","-13.5","","-15.3","","87","","","","5","","6","","32.2","","96.55","","","","-18","","NA"
"-94.36","49.79","KENORA A","6034076","2023-01-04 06:00","2023","01","04","06:00","-14.7","","-16.6","","86","","","","3","","11","","32.2","","96.57","","","","-21","","Clear"
"-94.36","49.79","KENORA A","6034076","2023-01-04 07:00","2023","01","04","07:00","-14.8","","-16.7","","86","","","","3","","11","","24.1","","96.57","","","","-21","","NA"
"-94.36","49.79","KENORA A","6034076","2023-01-04 08:00","2023","01","04","08:00","-14.0","","-15.8","","86","","","","4","","15","","32.2","","96.63","","","","-22","","NA"
"-94.36","49.79","KENORA A","6034076","2023-01-04 09:00","2023","01","04","09:00","-13.5","","-15.2","","87","","","","6","","11","","32.2","","96.67","","","","-20","","Mainly Clear"
"-94.36","49.79","KENORA A","6034076","2023-01-04 10:00","2023","01","04","10:00","-12.6","","-14.2","","87","","","","5","","15","","16.1","","96.71","","","","-20","","NA"
"-94.36","49.79","KENORA A","6034076","2023-01-04 11:00","2023","01","04","11:00","-11.8","","-13.4","","88","","","","3","","15","","32.2","","96.71","","","","-19","","NA"
"-94.36","49.79","KENORA A","6034076","2023-01-04 12:00","2023","01","04","12:00","-9.8","","-11.3","","89","","","","2","","9","","32.2","","96.71","","","","-15","","Mainly Clear"
"-94.36","49.79","KENORA A","6034076","2023-01-04 13:00","2023","01","04","13:00","-8.3","","-9.6","","91","","","","3","","14","","32.2","","96.68","","","","-14","","NA"
"-94.36","49.79","KENORA A","6034076","2023-01-04 14:00","2023","01","04","14:00","-7.2","","-8.3","","92","","","","4","","18","","32.2","","96.63","","","","-14","","NA"
"-94.36","49.79","KENORA A","6034076","2023-01-04 15:00","2023","01","04","15:00","-6.9","","-7.9","","93","","","","4","","12","","32.2","","96.67","","","","-12","","Mainly Clear"
"-94.36","49.79","KENORA A","6034076","2023-01-04 16:00","2023","01","04","16:00","-7.8","","-8.9","","92","","","","4","","13","","32.2","","96.72","","","","-14","","NA"
"-94.36","49.79","KENORA A","6034076","2023-01-04 17:00","2023","01","04","17:00","-8.5","","-9.7","","92","","","","5","","16","","32.2","","96.76","","","","-15","","NA"
"-94.36","49.79","KENORA A","6034076","2023-01-04 18:00","2023","01","04","18:00","-8.6","","-9.7","","92","","","","5","","14","","32.2","","96.76","","","","-15","","Cloudy"
"-94.36","49.79","KENORA A","6034076","2023-01-04 19:00","2023","01","04","19:00","-9.3","","-10.6","","91","","","","7","","16","","24.1","","96.76","","","","-16","","NA"
"-94.36","49.79","KENORA A","6034076","2023-01-04 20:00","2023","01","04","20:00","-9.8","","-11.1","","90","","","","6","","9","","24.1","","96.81","","","","-15","","NA"
"-94.36","49.79","KENORA A","6034076","2023-01-04 21:00","2023","01","04","21:00","-10.2","","-11.6","","90","","","","8","","10","","32.2","","96.81","","","","-15","","Cloudy"
"-94.36","49.79","KENORA A","6034076","2023-01-04 22:00","2023","01","04","22:00","-10.4","","-11.7","","90","","","","5","","8","","24.1","","96.81","","","","-15","","NA"
"-94.36","49.79","KENORA A","6034076","2023-01-04 23:00","2023","01","04","23:00","-10.6","","-12.0","","89","","","","7","","9","","16.1","","96.80","","","","-16","","NA"
"-94.36","49.79","KENORA A","6034076","2023-01-05 00:00","2023","01","05","00:00","-10.9","","-12.3","","89","","","","7","","9","","16.1","","96.83","","","","-16","","Cloudy"
"-94.36","49.79","KENORA A","6034076","2023-01-05 01:00","2023","01","05","01:00","-11.1","","-12.6","","89","","","","9","","8","","16.1","","96.82","","","","-16","","NA"
"-94.36","49.79","KENORA A","6034076","2023-01-05 02:00","2023","01","05","02:00","-11.3","","-12.8","","89","","","","10","","9","","24.1","","96.81","","","","-16","","NA"
"-94.36","49.79","KENORA A","6034076","2023-01-05 03:00","2023","01","05","03:00","-11.3","","-12.8","","89","","","","11","","7","","24.1","","96.81","","","","-16","","Cloudy"
"-94.36","49.79","KENORA A","6034076","2023-01-05 04:00","2023","01","05","04:00","-11.6","","-13.2","","88","","","","13","","7","","16.1","","96.77","","","","-16","","NA"
"-94.36","49.79","KENORA A","6034076","2023-01-05 05:00","2023","01","05","05:00","-11.9","","-13.5","","88","","","","4","","4","","9.7","","96.73","","","","-14","","Fog"
"-94.36","49.79","KENORA A","6034076","2023-01-05 06:00","2023","01","05","06:00","-12.0","","-13.6","","88","","","","14","","7","","3.2","","96.71","","","","-16","","Fog"
"-94.36","49.79","KENORA A","6034076","2023-01-05 07:00","2023","01","05","07:00","-12.5","","-14.1","","88","","","","17","","4","","2.8","","96.72","","","","-15","","Fog"
"-94.36","49.79","KENORA A","6034076","2023-01-05 08:00","2023","01","05","08:00","-12.6","","-14.3","","88","","","","15","","5","","2.0","","96.71","","","","-16","","Snow,Fog"
"-94.36","49.79","KENORA A","6034076","2023-01-05 09:00","2023","01","05","09:00","-12.7","","-14.3","","88","","","","36","","2","","4.0","","96.74","","","","-14","","Snow,Fog"
"-94.36","49.79","KENORA A","6034076","2023-01-05 10:00","2023","01","05","10:00","-12.6","","-14.2","","87","","","","16","","7","","6.4","","96.78","","","","-17","","Snow,Fog"
"-94.36","49.79","KENORA A","6034076","2023-01-05 11:00","2023","01","05","11:00","-11.8","","-13.4","","88","","","","25","","5","","6.4","","96.79","","","","-15","","Snow,Fog"
"-94.36","49.79","KENORA A","6034076","2023-01-05 12:00","2023","01","05","12:00","-11.1","","-12.7","","88","","","","36","","1","","24.1","","96.74","","","","-12","","Snow"
"-94.36","49.79","KENORA A","6034076","2023-01-05 13:00","2023","01","05","13:00","-9.6","","-11.1","","89","","","","22","","5","","24.1","","96.70","","","","-12","","NA"
"-94.36","49.79","KENORA A","6034076","2023-01-05 14:00","2023","01","05","14:00","-9.1","","-10.4","","90","","","","15","","7","","24.1","","96.64","","","","-13","","NA"
"-94.36","49.79","KENORA A","6034076","2023-01-05 15:00","2023","01","05","15:00","-9.0","","-10.3","","90","","","","20","","4","","24.1","","96.61","","","","-11","","Clear"
"-94.36","49.79","KENORA A","6034076","2023-01-05 16:00","2023","01","05","16:00","-10.2","","-11.6","","90","","","","22","","7","","24.1","","96.64","","","","-14","","NA"
"-94.36","49.79","KENORA A","6034076","2023-01-05 17:00","2023","01","05","17:00","-11.6","","-13.1","","89","","","","29","","3","","24.1","","96.68","","","","-13","","NA"
"-94.36","49.79","KENORA A","6034076","2023-01-05 18:00","2023","01","05","18:00","-11.3","","-12.7","","89","","","","32","","6","","24.1","","96.68","","","","-15","","Clear"
"-94.36","49.79","KENORA A","6034076","2023-01-05 19:00","2023","01","05","19:00","-12.2","","-13.7","","89","","","","18","","4","","32.2","","96.68","","","","-15","","NA"
"-94.36","49.79","KENORA A","6034076","2023-01-05 20:00","2023","01","05","20:00","-13.3","","-15.0","","87","","","","22","","3","","32.2","","96.75","","","","-15","","NA"
"-94.36","49.79","KENORA A","6034076","2023-01-05 21:00","2023","01","05","21:00","-14.4","","-16.3","","86","","","","22","","4","","32.2","","96.74","","","","-17","","Clear"
"-94.36","49.79","KENORA A","6034076","2023-01-05 22:00","2023","01","05","22:00","-13.8","","-15.6","","87","","","","22","","7","","32.2","","96.77","","","","-18","","NA"
"-94.36","49.79","KENORA A","6034076","2023-01-05 23:00","2023","01","05","23:00","-12.7","","-14.2","","88","","","","29","","3","","32.2","","96.78","","","","-15","","NA"
"-94.36","49.79","KENORA A","6034076","2023-01-06 00:00","2023","01","06","00:00","-12.9","","-14.6","","87","","","","29","","4","","32.2","","96.79","","","","-16","","Mainly Clear"
"-94.36","49.79","KENORA A","6034076","2023-01-06 01:00","2023","01","06","01:00","-12.2","","-13.9","","88","","","","32","","6","","24.1","","96.80","","","","-16","","NA"
"-94.36","49.79","KENORA A","6034076","2023-01-06 02:00","2023","01","06","02:00","-11.0","","-12.4","","89","","","","32","","6","","2.4","","96.83","","","","-15","","Fog"
"-94.36","49.79","KENORA A","6034076","2023-01-06 03:00","2023","01","06","03:00","-11.4","","-12.9","","89","","","","34","","13","","3.2","","96.92","","","","-18","","Fog"
"-94.36","49.79","KENORA A","6034076","2023-01-06 04:00","2023","01","06","04:00","-12.7","","-14.4","","87","","","","36","","13","","4.8","","96.96","","","","-20","","Fog"
"-94.36","49.79","KENORA A","6034076","2023-01-06 05:00","2023","01","06","05:00","-12.5","","-14.1","","88","","","","1","","8","","32.2","","96.94","","","","-17","","NA"
"-94.36","49.79","KENORA A","6034076","2023-01-06 06:00","2023","01","06","06:00","-12.7","","-14.4","","87","","","","35","","7","","32.2","","97.00","","","","-17","","Mainly Clear"
"-94.36","49.79","KENORA A","6034076","2023-01-06 07:00","2023","01","06","07:00","-14.3","","-16.2","","86","","","","36","","2","","32.2","","97.06","","","","-16","","NA"
"-94.36","49.79","KENORA A","6034076","2023-01-06 08:00","2023","01","06","08:00","-13.7","","-15.5","","86","","","","36","","9","","24.1","","97.10","","","","-19","","NA"
"-94.36","49.79","KENORA A","6034076","2023-01-06 09:00","2023","01","06","09:00","-14.4","","-16.2","","86","","","","36","","11","","19.3","","97.17","","","","-21","","Mainly Clear"
"-94.36","49.79","KENORA A","6034076","2023-01-06 10:00","2023","01","06","10:00","-12.7","","-14.4","","87","","","","36","","8","","1.2","","97.29","","","","-18","","Fog"
"-94.36","49.79","KENORA A","6034076","2023-01-06 11:00","2023","01","06","11:00","-11.6","","-13.2","","88","","","","3","","5","","1.6","","97.31","","","","-15","","Fog"
"-94.36","49.79","KENORA A","6034076","2023-01-06 12:00","2023","01","06","12:00","-11.5","","-13.1","","88","","","","7","","7","","8.1","","97.29","","","","-16","","Fog"
"-94.36","49.79","KENORA A","6034076","2023-01-06 13:00","2023","01","06","13:00","-9.7","","-11.1","","90","","","","5","","3","","19.3","","97.30","","","","-11","","NA"
"-94.36","49.79","KENORA A","6034076","2023-01-06 14:00","2023","01","06","14:00","-9.1","","-10.4","","90","","","","36","","2","","19.3","","97.34","","","","-10","","NA"
"-94.36","49.79","KENORA A","6034076","2023-01-06 15:00","2023","01","06","15:00","-9.3","","-10.6","","90","","","","33","","4","","19.3","","97.40","","","","-12","","Mostly Cloudy"
"-94.36","49.79","KENORA A","6034076","2023-01-06 16:00","2023","01","06","16:00","-9.9","","-11.3","","90","","","","22","","5","","19.3","","97.43","","","","-13","","NA"
"-94.36","49.79","KENORA A","6034076","2023-01-06 17:00","2023","01","06","17:00","-10.2","","-11.6","","90","","","","36","","1","","12.9","","97.51","","","","-11","","NA"
"-94.36","49.79","KENORA A","6034076","2023-01-06 18:00","2023","01","06","18:00","-10.7","","-12.1","","89","","","","27","","3","","4.8","","97.58","","","","-13","","Fog"
"-94.36","49.79","KENORA A","6034076","2023-01-06 19:00","2023","01","06","19:00","-10.2","","-11.6","","90","","","","14","","4","","1.6","","97.58","","","","-13","","Fog"
"-94.36","49.79","KENORA A","6034076","2023-01-06 20:00","2023","01","06","20:00","-10.5","","-11.9","","90","","","","15","","8","","1.6","","97.60","","","","-15","","Fog"
"-94.36","49.79","KENORA A","6034076","2023-01-06 21:00","2023","01","06","21:00","-10.8","","-12.2","","89","","","","6","","4","","0.8","","97.65","","","","-13","","Freezing Fog"
"-94.36","49.79","KENORA A","6034076","2023-01-06 22:00","2023","01","06","22:00","-11.1","","-12.6","","89","","","","15","","7","","0.4","","97.63","","","","-15","","Freezing Fog"
"-94.36","49.79","KENORA A","6034076","2023-01-06 23:00","2023","01","06","23:00","-11.1","","-12.6","","89","","","","16","","7","","0.8","","97.68","","","","-15","","Freezing Fog"
"-94.36","49.79","KENORA A","6034076","2023-01-07 00:00","2023","01","07","00:00","-11.2","","-12.7","","89","","","","25","","8","","0.8","","97.69","","","","-16","","Freezing Fog"
"-94.36","49.79","KENORA A","6034076","2023-01-07 01:00","2023","01","07","01:00","-11.3","","-12.8","","89","","","","18","","9","","0.8","","97.69","","","","-16","","Freezing Fog"
"-94.36","49.79","KENORA A","6034076","2023-01-07 02:00","2023","01","07","02:00","-11.1","","-12.6","","89","","","","20","","8","","0.8","","97.69","","","","-16","","Freezing Fog"
"-94.36","49.79","KENORA A","6034076","2023-01-07 03:00","2023","01","07","03:00","-11.3","","-12.8","","89","","","","19","","14","","0.8","","97.64","","","","-18","","Freezing Fog"
"-94.36","49.79","KENORA A","6034076","2023-01-07 04:00","2023","01","07","04:00","-12.2","","-13.8","","88","","","","19","","18","","0.4","","97.58","","","","-20","","Freezing Fog"
"-94.36","49.79","KENORA A","6034076","2023-01-07 05:00","2023","01","07","05:00","-12.1","","-13.7","","88","","","","19","","12","","1.6","","97.57","","","","-18","","Fog"
"-94.36","49.79","KENORA A","6034076","2023-01-07 06:00","2023","01","07","06:00","-11.8","","-13.3","","88","","","","18","","20","","1.6","","97.54","","","","-20","","Fog"
"-94.36","49.79","KENORA A","6034076","2023-01-07 07:00","2023","01","07","07:00","-12.0","","-13.6","","88","","","","19","","18","","0.8","","97.51","","","","-20","","Freezing Fog"
"-94.36","49.79","KENORA A","6034076","2023-01-07 08:00","2023","01","07","08:00","-12.7","","-14.4","","87","","","","19","","22","","1.2","","97.49","","","","-22","","Snow,Fog"
"-94.36","49.79","KENORA A","6034076","2023-01-07 09:00","2023","01","07","09:00","-13.4","","-15.2","","87","","","","19","","18","","4.8","","97.46","","","","-22","","Snow,Fog"
"-94.36","49.79","KENORA A","6034076","2023-01-07 10:00","2023","01","07","10:00","-13.5","","-15.3","","87","","","","19","","20","","6.4","","97.42","","","","-22","","Snow,Fog"
"-94.36","49.79","KENORA A","6034076","2023-01-07 11:00","2023","01","07","11:00","-13.2","","-14.9","","87","","","","19","","19","","12.9","","97.40","","","","-22","","Ice Crystals"
"-94.36","49.79","KENORA A","6034076","2023-01-07 12:00","2023","01","07","12:00","-12.2","","-13.8","","88","","","","20","","21","","16.1","","97.26","","","","-21","","Ice Crystals"
"-94.36","49.79","KENORA A","6034076","2023-01-07 13:00","2023","01","07","13:00","-11.4","","-13.0","","89","","","","20","","23","","24.1","","97.22","","","","-20","","NA"
"-94.36","49.79","KENORA A","6034076","2023-01-07 14:00","2023","01","07","14:00","-10.7","","-12.1","","89","","","","20","","23","","24.1","","97.17","","","","-19","","NA"
"-94.36","49.79","KENORA A","6034076","2023-01-07 15:00","2023","01","07","15:00","-10.2","","-11.6","","90","","","","20","","24","","24.1","","97.14","","","","-19","","Mainly Clear"
"-94.36","49.79","KENORA A","6034076","2023-01-07 16:00","2023","01","07","16:00","-10.0","","-11.3","","90","","","","20","","22","","24.1","","97.12","","","","-18","","NA"
"-94.36","49.79","KENORA A","6034076","2023-01-07 17:00","2023","01","07","17:00","-10.0","","-11.3","","90","","","","20","","24","","24.1","","97.07","","","","-19","","NA"
"-94.36","49.79","KENORA A","6034076","2023-01-07 18:00","2023","01","07","18:00","-9.4","","-10.7","","91","","","","19","","26","","24.1","","96.99","","","","-18","","Mainly Clear"
"-94.36","49.79","KENORA A","6034076","2023-01-07 19:00","2023","01","07","19:00","-9.4","","-10.7","","91","","","","20","","22","","32.2","","96.94","","","","-17","","NA"
"-94.36","49.79","KENORA A","6034076","2023-01-07 20:00","2023","01","07","20:00","-9.7","","-11.0","","90","","","","19","","28","","32.2","","96.84","","","","-19","","NA"
"-94.36","49.79","KENORA A","6034076","2023-01-07 21:00","2023","01","07","21:00","-9.9","","-11.3","","90","","","","21","","27","","32.2","","96.80","","","","-19","","Mainly Clear"
"-94.36","49.79","KENORA A","6034076","2023-01-07 22:00","2023","01","07","22:00","-10.8","","-12.2","","89","","","","21","","27","","32.2","","96.76","","","","-20","","NA"
"-94.36","49.79","KENORA A","6034076","2023-01-07 23:00","2023","01","07","23:00","-11.6","","-13.2","","89","","","","20","","23","","32.2","","96.72","","","","-20","","NA"
"-94.36","49.79","KENORA A","6034076","2023-01-08 00:00","2023","01","08","00:00","-12.1","","-13.7","","88","","","","20","","21","","32.2","","96.71","","","","-21","","Mainly Clear"
"-94.36","49.79","KENORA A","6034076","2023-01-08 01:00","2023","01","08","01:00","-12.0","","-13.6","","88","","","","21","","17","","24.1","","96.69","","","","-20","","NA"
"-94.36","49.79","KENORA A","6034076","2023-01-08 02:00","2023","01","08","02:00","-12.0","","-13.5","","88","","","","20","","16","","32.2","","96.65","","","","-19","","NA"
"-94.36","49.79","KENORA A","6034076","2023-01-08 03:00","2023","01","08","03:00","-12.6","","-14.2","","87","","","","20","","16","","32.2","","96.62","","","","-20","","Mostly Cloudy"
"-94.36","49.79","KENORA A","6034076","2023-01-08 04:00","2023","01","08","04:00","-13.0","","-14.7","","87","","","","21","","17","","32.2","","96.56","","","","-21","","NA"
"-94.36","49.79","KENORA A","6034076","2023-01-08 05:00","2023","01","08","05:00","-13.2","","-14.9","","87","","","","21","","14","","32.2","","96.56","","","","-20","","NA"
"-94.36","49.79","KENORA A","6034076","2023-01-08 06:00","2023","01","08","06:00","-13.7","","-15.5","","86","","","","22","","12","","32.2","","96.58","","","","-20","","Clear"
"-94.36","49.79","KENORA A","6034076","2023-01-08 07:00","2023","01","08","07:00","-13.7","","-15.4","","87","","","","21","","15","","32.2","","96.57","","","","-21","","NA"
"-94.36","49.79","KENORA A","6034076","2023-01-08 08:00","2023","01","08","08:00","-13.9","","-15.8","","86","","","","21","","14","","19.3","","96.52","","","","-21","","NA"
"-94.36","49.79","KENORA A","6034076","2023-01-08 09:00","2023","01","08","09:00","-13.6","","-15.4","","86","","","","22","","12","","19.3","","96.53","","","","-20","","Clear"
"-94.36","49.79","KENORA A","6034076","2023-01-08 10:00","2023","01","08","10:00","-12.3","","-14.0","","88","","","","21","","13","","16.1","","96.56","","","","-19","","NA"
"-94.36","49.79","KENORA A","6034076","2023-01-08 11:00","2023","01","08","11:00","-11.0","","-12.5","","89","","","","23","","12","","16.1","","96.56","","","","-17","","NA"
"-94.36","49.79","KENORA A","6034076","2023-01-08 12:00","2023","01","08","12:00","-10.0","","-11.4","","90","","","","21","","11","","19.3","","96.52","","","","-16","","Mainly Clear"
"-94.36","49.79","KENORA A","6034076","2023-01-08 13:00","2023","01","08","13:00","-9.2","","-10.4","","90","","","","22","","10","","19.3","","96.48","","","","-14","","NA"
"-94.36","49.79","KENORA A","6034076","2023-01-08 14:00","2023","01","08","14:00","-8.4","","-9.5","","91","","","","21","","10","","19.3","","96.45","","","","-13","","NA"
"-94.36","49.79","KENORA A","6034076","2023-01-08 15:00","2023","01","08","15:00","-8.3","","-9.5","","91","","","","21","","10","","16.1","","96.42","","","","-13","","Mainly Clear"
"-94.36","49.79","KENORA A","6034076","2023-01-08 16:00","2023","01","08","16:00","-9.0","","-10.3","","91","","","","19","","9","","19.3","","96.46","","","","-14","","NA"
"-94.36","49.79","KENORA A","6034076","2023-01-08 17:00","2023","01","08","17:00","-10.3","","-11.7","","90","","","","22","","9","","19.3","","96.54","","","","-15","","NA"
"-94.36","49.79","KENORA A","6034076","2023-01-08 18:00","2023","01","08","18:00","-11.2","","-12.7","","89","","","","22","","8","","19.3","","96.54","","","","-16","","Mainly Clear"
"-94.36","49.79","KENORA A","6034076","2023-01-08 19:00","2023","01","08","19:00","-10.7","","-12.1","","89","","","","23","","9","","32.2","","96.58","","","","-16","","NA"
"-94.36","49.79","KENORA A","6034076","2023-01-08 20:00","2023","01","08","20:00","-10.6","","-12.0","","90","","","","28","","4","","32.2","","96.57","","","","-13","","NA"
"-94.36","49.79","KENORA A","6034076","2023-01-08 21:00","2023","01","08","21:00","-11.3","","-12.7","","89","","","","2","","6","","32.2","","96.55","","","","-15","","Mainly Clear"
"-94.36","49.79","KENORA A","6034076","2023-01-08 22:00","2023","01","08","22:00","-9.8","","-11.1","","90","","","","3","","6","","24.1","","96.56","","","","-13","","NA"
"-94.36","49.79","KENORA A","6034076","2023-01-08 23:00","2023","01","08","23:00","-7.9","","-8.9","","92","","","","6","","7","","24.1","","96.57","","","","-12","","NA"
"-94.36","49.79","KENORA A","6034076","2023-01-09 00:00","2023","01","09","00:00","-7.6","","-8.6","","93","","","","7","","5","","24.1","","96.59","","","","-10","","Cloudy"
"-94.36","49.79","KENORA A","6034076","2023-01-09 01:00","2023","01","09","01:00","-7.9","","-9.0","","92","","","","7","","7","","6.4","","96.55","","","","-12","","Fog"
"-94.36","49.79","KENORA A","6034076","2023-01-09 02:00","2023","01","09","02:00","-8.2","","-9.3","","92","","","","7","","6","","3.2","","96.58","","","","-11","","Fog"
"-94.36","49.79","KENORA A","6034076","2023-01-09 03:00","2023","01","09","03:00","-8.8","","-9.9","","91","","","","7","","8","","0.8","","96.60","","","","-13","","Freezing Fog"
"-94.36","49.79","KENORA A","6034076","2023-01-09 04:00","2023","01","09","04:00","-8.6","","-9.7","","92","","","","9","","7","","0.8","","96.60","","","","-12","","Freezing Fog"
"-94.36","49.79","KENORA A","6034076","2023-01-09 05:00","2023","01","09","05:00","-8.6","","-9.8","","92","","","","12","","7","","0.8","","96.59","","","","-12","","Freezing Fog"
"-94.36","49.79","KENORA A","6034076","2023-01-09 06:00","2023","01","09","06:00","-8.6","","-9.7","","92","","","","12","","8","","0.8","","96.57","","","","-13","","Freezing Fog"
"-94.36","49.79","KENORA A","6034076","2023-01-09 07:00","2023","01","09","07:00","-8.5","","-9.6","","92","","","","11","","14","","3.2","","96.52","","","","-15","","Fog"
"-94.36","49.79","KENORA A","6034076","2023-01-09 08:00","2023","01","09","08:00","-8.4","","-9.5","","92","","","","13","","11","","4.0","","96.54","","","","-14","","Fog"
"-94.36","49.79","KENORA A","6034076","2023-01-09 09:00","2023","01","09","09:00","-8.4","","-9.6","","92","","","","14","","12","","8.1","","96.54","","","","-14","","Fog"
"-94.36","49.79","KENORA A","6034076","2023-01-09 10:00","2023","01","09","10:00","-8.2","","-9.3","","92","","","","11","","14","","9.7","","96.49","","","","-14","","Fog"
"-94.36","49.79","KENORA A","6034076","2023-01-09 11:00","2023","01","09","11:00","-8.2","","-9.3","","92","","","","12","","15","","9.7","","96.51","","","","-15","","Fog"
"-94.36","49.79","KENORA A","6034076","2023-01-09 12:00","2023","01","09","12:00","-7.8","","-8.8","","92","","","","12","","10","","9.7","","96.44","","","","-13","","Fog"
"-94.36","49.79","KENORA A","6034076","2023-01-09 13:00","2023","01","09","13:00","-7.4","","-8.3","","93","","","","11","","16","","16.1","","96.39","","","","-14","","NA"
"-94.36","49.79","KENORA A","6034076","2023-01-09 14:00","2023","01","09","14:00","-6.9","","-7.8","","93","","","","11","","7","","19.3","","96.36","","","","-10","","NA"
"-94.36","49.79","KENORA A","6034076","2023-01-09 15:00","2023","01","09","15:00","-6.8","","-7.7","","93","","","","11","","14","","19.3","","96.32","","","","-13","","Cloudy"
"-94.36","49.79","KENORA A","6034076","2023-01-09 16:00","2023","01","09","16:00","-6.8","","-7.7","","93","","","","13","","13","","19.3","","96.35","","","","-12","","NA"
"-94.36","49.79","KENORA A","6034076","2023-01-09 17:00","2023","01","09","17:00","-7.0","","-8.0","","93","","","","10","","16","","19.3","","96.33","","","","-13","","NA"
"-94.36","49.79","KENORA A","6034076","2023-01-09 18:00","2023","01","09","18:00","-7.2","","-8.2","","93","","","","12","","14","","19.3","","96.27","","","","-13","","Cloudy"
"-94.36","49.79","KENORA A","6034076","2023-01-09 19:00","2023","01","09","19:00","-7.4","","-8.3","","93","","","","12","","14","","19.3","","96.23","","","","-13","","NA"
"-94.36","49.79","KENORA A","6034076","2023-01-09 20:00","2023","01","09","20:00","-7.5","","-8.5","","93","","","","12","","18","","19.3","","96.20","","","","-14","","NA"
"-94.36","49.79","KENORA A","6034076","2023-01-09 21:00","2023","01","09","21:00","-7.4","","-8.4","","93","","","","14","","19","","19.3","","96.19","","","","-14","","Cloudy"
"-94.36","49.79","KENORA A","6034076","2023-01-09 22:00","2023","01","09","22:00","-7.3","","-8.2","","93","","","","15","","14","","24.1","","96.22","","","","-13","","NA"
"-94.36","49.79","KENORA A","6034076","2023-01-09 23:00","2023","01","09","23:00","-7.1","","-8.0","","93","","","","16","","14","","24.1","","96.25","","","","-13","","NA"
"-94.36","49.79","KENORA A","6034076","2023-01-10 00:00","2023","01","10","00:00","-7.1","","-8.0","","93","","","","16","","16","","24.1","","96.27","","","","-13","","Cloudy"
"-94.36","49.79","KENORA A","6034076","2023-01-10 01:00","2023","01","10","01:00","-7.0","","-7.9","","93","","","","16","","12","","24.1","","96.28","","","","-12","","NA"
"-94.36","49.79","KENORA A","6034076","2023-01-10 02:00","2023","01","10","02:00","-6.7","","-7.6","","94","","","","17","","13","","24.1","","96.34","","","","-12","","NA"
"-94.36","49.79","KENORA A","6034076","2023-01-10 03:00","2023","01","10","03:00","-6.6","","-7.4","","94","","","","15","","12","","3.2","","96.30","","","","-12","","Fog"
"-94.36","49.79","KENORA A","6034076","2023-01-10 04:00","2023","01","10","04:00","-6.3","","-7.2","","94","","","","13","","16","","0.8","","96.26","","","","-12","","Freezing Fog"
"-94.36","49.79","KENORA A","6034076","2023-01-10 05:00","2023","01","10","05:00","-6.0","","-6.8","","94","","","","15","","11","","0.8","","96.28","","","","-11","","Freezing Fog"
"-94.36","49.79","KENORA A","6034076","2023-01-10 06:00","2023","01","10","06:00","-5.7","","-6.4","","95","","","","16","","12","","0.8","","96.28","","","","-11","","Freezing Fog"
"-94.36","49.79","KENORA A","6034076","2023-01-10 07:00","2023","01","10","07:00","-5.3","","-6.0","","95","","","","15","","15","","1.6","","96.26","","","","-11","","Fog"
"-94.36","49.79","KENORA A","6034076","2023-01-10 08:00","2023","01","10","08:00","-5.1","","-5.8","","95","","","","15","","15","","2.0","","96.27","","","","-11","","Fog"
"-94.36","49.79","KENORA A","6034076","2023-01-10 09:00","2023","01","10","09:00","-4.7","","-5.3","","96","","","","15","","18","","4.8","","96.24","","","","-11","","Fog"
"-94.36","49.79","KENORA A","6034076","2023-01-10 10:00","2023","01","10","10:00","-4.4","","-4.9","","96","","","","16","","16","","4.8","","96.19","","","","-10","","Fog"
"-94.36","49.79","KENORA A","6034076","2023-01-10 11:00","2023","01","10","11:00","-3.9","","-4.4","","96","","","","16","","18","","4.8","","96.17","","","","-10","","Fog"
"-94.36","49.79","KENORA A","6034076","2023-01-10 12:00","2023","01","10","12:00","-3.4","","-3.8","","97","","","","16","","15","","4.8","","96.12","","","","-9","","Fog"
"-94.36","49.79","KENORA A","6034076","2023-01-10 13:00","2023","01","10","13:00","-3.0","","-3.4","","97","","","","17","","23","","4.8","","96.12","","","","-9","","Fog"
"-94.36","49.79","KENORA A","6034076","2023-01-10 14:00","2023","01","10","14:00","-2.7","","-3.0","","98","","","","18","","16","","8.1","","96.10","","","","-8","","Fog"
"-94.36","49.79","KENORA A","6034076","2023-01-10 15:00","2023","01","10","15:00","-2.5","","-2.8","","98","","","","17","","18","","8.1","","96.06","","","","-8","","Fog"
"-94.36","49.79","KENORA A","6034076","2023-01-10 16:00","2023","01","10","16:00","-2.4","","-2.7","","98","","","","19","","17","","9.7","","96.08","","","","-8","","Fog"
"-94.36","49.79","KENORA A","6034076","2023-01-10 17:00","2023","01","10","17:00","-2.4","","-2.7","","98","","","","19","","16","","8.1","","96.10","","","","-8","","Freezing Drizzle,Fog"
"-94.36","49.79","KENORA A","6034076","2023-01-10 18:00","2023","01","10","18:00","-2.2","","-2.5","","98","","","","17","","17","","6.4","","96.07","","","","-8","","Freezing Drizzle,Fog"
"-94.36","49.79","KENORA A","6034076","2023-01-10 19:00","2023","01","10","19:00","-2.2","","-2.5","","98","","","","17","","16","","4.8","","96.04","","","","-7","","Freezing Drizzle,Fog"
"-94.36","49.79","KENORA A","6034076","2023-01-10 20:00","2023","01","10","20:00","-2.1","","-2.3","","98","","","","19","","16","","4.8","","96.03","","","","-7","","Freezing Drizzle,Fog"
"-94.36","49.79","KENORA A","6034076","2023-01-10 21:00","2023","01","10","21:00","-2.0","","-2.2","","98","","","","19","","16","","3.2","","96.01","","","","-7","","Freezing Drizzle,Fog"
"-94.36","49.79","KENORA A","6034076","2023-01-10 22:00","2023","01","10","22:00","-2.0","","-2.2","","98","","","","19","","15","","3.2","","96.00","","","","-7","","Freezing Drizzle,Fog"
"-94.36","49.79","KENORA A","6034076","2023-01-10 23:00","2023","01","10","23:00","-1.9","","-2.2","","98","","","","19","","16","","2.4","","95.98","","","","-7","","Freezing Drizzle,Fog"
"-94.36","49.79","KENORA A","6034076","2023-01-11 00:00","2023","01","11","00:00","-1.9","","-2.2","","98","","","","19","","14","","3.2","","95.97","","","","-7","","Freezing Drizzle,Fog"
"-94.36","49.79","KENORA A","6034076","2023-01-11 01:00","2023","01","11","01:00","-2.0","","-2.2","","98","","","","20","","12","","4.0","","95.96","","","","-6","","Freezing Drizzle,Fog"
"-94.36","49.79","KENORA A","6034076","2023-01-11 02:00","2023","01","11","02:00","-2.0","","-2.3","","98","","","","20","","10","","2.4","","95.95","","","","-6","","Freezing Drizzle,Snow,Fog"
"-94.36","49.79","KENORA A","6034076","2023-01-11 03:00","2023","01","11","03:00","-2.1","","-2.3","","98","","","","21","","9","","2.4","","95.98","","","","-6","","Freezing Drizzle,Snow,Fog"
"-94.36","49.79","KENORA A","6034076","2023-01-11 04:00","2023","01","11","04:00","-2.2","","-2.5","","98","","","","23","","9","","1.6","","95.97","","","","-6","","Snow,Fog"
"-94.36","49.79","KENORA A","6034076","2023-01-11 05:00","2023","01","11","05:00","-2.4","","-2.7","","98","","","","25","","8","","2.4","","95.95","","","","-6","","Freezing Drizzle,Snow,Fog"
"-94.36","49.79","KENORA A","6034076","2023-01-11 06:00","2023","01","11","06:00","-2.6","","-3.0","","98","","","","26","","9","","2.4","","95.95","","","","-6","","Snow,Fog"
"-94.36","49.79","KENORA A","6034076","2023-01-11 07:00","2023","01","11","07:00","-2.8","","-3.2","","98","","","","25","","7","","1.6","","95.98","","","","-6","","Freezing Rain,Freezing Drizzle,Snow,Fog"
"-94.36","49.79","KENORA A","6034076","2023-01-11 08:00","2023","01","11","08:00","-3.0","","-3.4","","97","","","","27","","7","","3.2","","95.97","","","","-6","","Freezing Drizzle,Snow,Fog"
"-94.36","49.79","KENORA A","6034076","2023-01-11 09:00","2023","01","11","09:00","-3.2","","-3.6","","97","","","","27","","8","","4.8","","96.04","","","","-6","","Fog"
"-94.36","49.79","KENORA A","6034076","2023-01-11 10:00","2023","01","11","10:00","-3.2","","-3.6","","97","","","","31","","5","","4.8","","96.09","","","","-5","","Fog"
"-94.36","49.79","KENORA A","6034076","2023-01-11 11:00","2023","01","11","11:00","-3.5","","-3.9","","97","","","","32","","9","","4.8","","96.14","","","","-7","","Snow,Fog"
"-94.36","49.79","KENORA A","6034076","2023-01-11 12:00","2023","01","11","12:00","-3.9","","-4.4","","96","","","","34","","14","","3.2","","96.13","","","","-9","","Snow,Fog"
"-94.36","49.79","KENORA A","6034076","2023-01-11 13:00","2023","01","11","13:00","-3.8","","-4.3","","97","","","","32","","10","","6.4","","96.13","","","","-8","","Snow,Fog"
"-94.36","49.79","KENORA A","6034076","2023-01-11 14:00","2023","01","11","14:00","-4.0","","-4.5","","96","","","","32","","12","","4.8","","96.18","","","","-9","","Snow,Fog"
"-94.36","49.79","KENORA A","6034076","2023-01-11 15:00","2023","01","11","15:00","-4.4","","-5.0","","96","","","","33","","12","","4.8","","96.28","","","","-9","","Snow,Fog"
"-94.36","49.79","KENORA A","6034076","2023-01-11 16:00","2023","01","11","16:00","-4.6","","-5.2","","96","","","","33","","13","","8.1","","96.37","","","","-10","","Snow,Fog"
"-94.36","49.79","KENORA A","6034076","2023-01-11 17:00","2023","01","11","17:00","-5.2","","-5.9","","95","","","","33","","15","","4.8","","96.45","","","","-11","","Snow,Fog"
"-94.36","49.79","KENORA A","6034076","2023-01-11 18:00","2023","01","11","18:00","-5.6","","-6.2","","95","","","","33","","16","","3.2","","96.53","","","","-12","","Snow,Fog"
"-94.36","49.79","KENORA A","6034076","2023-01-11 19:00","2023","01","11","19:00","-5.8","","-6.6","","95","","","","33","","15","","3.2","","96.62","","","","-12","","Snow,Fog"
"-94.36","49.79","KENORA A","6034076","2023-01-11 20:00","2023","01","11","20:00","-6.4","","-7.3","","94","","","","34","","21","","9.7","","96.66","","","","-13","","Snow,Fog"
"-94.36","49.79","KENORA A","6034076","2023-01-11 21:00","2023","01","11","21:00","-7.0","","-7.8","","94","","","","33","","15","","9.7","","96.73","","","","-13","","Snow,Fog"
"-94.36","49.79","KENORA A","6034076","2023-01-11 22:00","2023","01","11","22:00","-7.5","","-8.4","","93","","","","32","","15","","9.7","","96.79","","","","-14","","Snow,Fog"
"-94.36","49.79","KENORA A","6034076","2023-01-11 23:00","2023","01","11","23:00","-8.1","","-9.2","","92","","","","33","","17","","16.1","","96.86","","","","-15","","Snow"
"-94.36","49.79","KENORA A","6034076","2023-01-12 00:00","2023","01","12","00:00","-8.6","","-9.7","","92","","","","32","","13","","16.1","","96.96","","","","-15","","Snow"
"-94.36","49.79","KENORA A","6034076","2023-01-12 01:00","2023","01","12","01:00","-8.7","","-9.8","","92","","","","33","","13","","19.3","","97.02","","","","-15","","Snow"
"-94.36","49.79","KENORA A","6034076","2023-01-12 02:00","2023","01","12","02:00","-8.9","","-10.1","","91","","","","33","","15","","19.3","","97.10","","","","-15","","Snow"
"-94.36","49.79","KENORA A","6034076","2023-01-12 03:00","2023","01","12","03:00","-8.9","","-10.1","","91","","","","35","","16","","24.1","","97.21","","","","-16","","Snow"
"-94.36","49.79","KENORA A","6034076","2023-01-12 04:00","2023","01","12","04:00","-9.4","","-10.7","","91","","","","36","","17","","19.3","","97.30","","","","-16","","Snow"
"-94.36","49.79","KENORA A","6034076","2023-01-12 05:00","2023","01","12","05:00","-10.2","","-11.5","","90","","","","35","","12","","24.1","","97.37","","","","-16","","Snow"
"-94.36","49.79","KENORA A","6034076","2023-01-12 06:00","2023","01","12","06:00","-10.5","","-11.9","","90","","","","36","","17","","24.1","","97.45","","","","-18","","Snow"
"-94.36","49.79","KENORA A","6034076","2023-01-12 07:00","2023","01","12","07:00","-11.4","","-12.9","","89","","","","36","","17","","24.1","","97.55","","","","-19","","Snow"
"-94.36","49.79","KENORA A","6034076","2023-01-12 08:00","2023","01","12","08:00","-12.0","","-13.6","","88","","","","35","","16","","24.1","","97.61","","","","-19","","NA"
"-94.36","49.79","KENORA A","6034076","2023-01-12 09:00","2023","01","12","09:00","-12.2","","-13.8","","88","","","","35","","14","","24.1","","97.72","","","","-19","","Snow"
"-94.36","49.79","KENORA A","6034076","2023-01-12 10:00","2023","01","12","10:00","-12.2","","-13.8","","88","","","","35","","10","","12.9","","97.80","","","","-18","","Snow"
"-94.36","49.79","KENORA A","6034076","2023-01-12 11:00","2023","01","12","11:00","-12.0","","-13.6","","88","","","","1","","14","","4.8","","97.83","","","","-19","","Snow"
"-94.36","49.79","KENORA A","6034076","2023-01-12 12:00","2023","01","12","12:00","-11.8","","-13.5","","88","","","","33","","9","","19.3","","97.85","","","","-17","","Snow"
"-94.36","49.79","KENORA A","6034076","2023-01-12 13:00","2023","01","12","13:00","-11.4","","-13.0","","88","","","","33","","10","","24.1","","97.84","","","","-17","","Snow"
"-94.36","49.79","KENORA A","6034076","2023-01-12 14:00","2023","01","12","14:00","-10.5","","-12.0","","89","","","","33","","11","","24.1","","97.88","","","","-16","","Snow"
"-94.36","49.79","KENORA A","6034076","2023-01-12 15:00","2023","01","12","15:00","-10.7","","-12.2","","89","","","","2","","9","","16.1","","97.95","","","","-16","","Snow"
"-94.36","49.79","KENORA A","6034076","2023-01-12 16:00","2023","01","12","16:00","-11.1","","-12.7","","88","","","","3","","10","","24.1","","97.99","","","","-17","","Snow"
"-94.36","49.79","KENORA A","6034076","2023-01-12 17:00","2023","01","12","17:00","-11.6","","-13.2","","88","","","","2","","8","","19.3","","98.07","","","","-16","","Snow"
"-94.36","49.79","KENORA A","6034076","2023-01-12 18:00","2023","01","12","18:00","-11.7","","-13.3","","88","","","","1","","5","","24.1","","98.05","","","","-15","","Snow"
"-94.36","49.79","KENORA A","6034076","2023-01-12 19:00","2023","01","12","19:00","-12.4","","-13.9","","89","","","","32","","3","","24.1","","98.09","","","","-14","","Snow"
"-94.36","49.79","KENORA A","6034076","2023-01-12 20:00","2023","01","12","20:00","-11.7","","-13.3","","88","","","","32","","4","","24.1","","98.10","","","","-14","","Snow"
"-94.36","49.79","KENORA A","6034076","2023-01-12 21:00","2023","01","12","21:00","-14.9","","-16.7","","86","","","","2","","3","","32.2","","98.04","","","","-17","","Mostly Cloudy"
"-94.36","49.79","KENORA A","6034076","2023-01-12 22:00","2023","01","12","22:00","-15.7","","-17.7","","85","","","","34","","3","","32.2","","98.07","","","","-18","","NA"
"-94.36","49.79","KENORA A","6034076","2023-01-12 23:00","2023","01","12","23:00","-15.6","","-17.5","","85","","","","35","","6","","32.2","","98.06","","","","-20","","NA"
"-94.36","49.79","KENORA A","6034076","2023-01-13 00:00","2023","01","13","00:00","-16.4","","-18.4","","85","","","","34","","6","","32.2","","98.07","","","","-21","","Mainly Clear"
"-94.36","49.79","KENORA A","6034076","2023-01-13 01:00","2023","01","13","01:00","-14.7","","-16.4","","87","","","","8","","8","","0.8","","98.02","","","","-20","","Freezing Fog"
"-94.36","49.79","KENORA A","6034076","2023-01-13 02:00","2023","01","13","02:00","-14.6","","-16.4","","86","","","","9","","5","","0.6","","98.02","","","","-18","","Freezing Fog"
"-94.36","49.79","KENORA A","6034076","2023-01-13 03:00","2023","01","13","03:00","-15.3","","-17.3","","85","","","","11","","9","","0.8","","98.02","","","","-21","","Freezing Fog"
"-94.36","49.79","KENORA A","6034076","2023-01-13 04:00","2023","01","13","04:00","-15.6","","-17.5","","85","","","","10","","4","","1.2","","98.05","","","","-19","","Fog"
"-94.36","49.79","KENORA A","6034076","2023-01-13 05:00","2023","01","13","05:00","-15.4","","-17.4","","85","","","","13","","8","","1.6","","97.97","","","","-21","","Fog"
"-94.36","49.79","KENORA A","6034076","2023-01-13 06:00","2023","01","13","06:00","-15.1","","-17.1","","85","","","","16","","13","","0.8","","97.89","","","","-22","","Ice Crystals,Freezing Fog"
"-94.36","49.79","KENORA A","6034076","2023-01-13 07:00","2023","01","13","07:00","-15.2","","-17.1","","85","","","","16","","16","","0.8","","97.86","","","","-23","","Ice Crystals,Freezing Fog"
"-94.36","49.79","KENORA A","6034076","2023-01-13 08:00","2023","01","13","08:00","-15.2","","-17.1","","85","","","","16","","13","","0.8","","97.79","","","","-23","","Ice Crystals,Freezing Fog"
"-94.36","49.79","KENORA A","6034076","2023-01-13 09:00","2023","01","13","09:00","-14.6","","-16.5","","86","","","","16","","17","","2.4","","97.71","","","","-23","","Snow,Fog"
"-94.36","49.79","KENORA A","6034076","2023-01-13 10:00","2023","01","13","10:00","-13.8","","-15.5","","87","","","","18","","19","","8.1","","97.68","","","","-22","","Snow,Fog"
"-94.36","49.79","KENORA A","6034076","2023-01-13 11:00","2023","01","13","11:00","-12.6","","-14.2","","88","","","","16","","18","","16.1","","97.60","","","","-21","","Snow"
"-94.36","49.79","KENORA A","6034076","2023-01-13 12:00","2023","01","13","12:00","-12.1","","-13.7","","88","","","","18","","14","","24.1","","97.53","","","","-19","","Snow"
"-94.36","49.79","KENORA A","6034076","2023-01-13 13:00","2023","01","13","13:00","-11.5","","-13.0","","89","","","","17","","18","","19.3","","97.37","","","","-19","","Snow"
"-94.36","49.79","KENORA A","6034076","2023-01-13 14:00","2023","01","13","14:00","-10.6","","-12.0","","90","","","","16","","19","","24.1","","97.24","","","","-18","","NA"
"-94.36","49.79","KENORA A","6034076","2023-01-13 15:00","2023","01","13","15:00","-9.9","","-11.2","","90","","","","16","","27","","32.2","","97.16","","","","-19","","Mostly Cloudy"
"-94.36","49.79","KENORA A","6034076","2023-01-13 16:00","2023","01","13","16:00","-9.6","","-10.9","","90","","","","17","","22","","32.2","","97.11","","","","-18","","NA"
"-94.36","49.79","KENORA A","6034076","2023-01-13 17:00","2023","01","13","17:00","-9.6","","-10.8","","91","","","","16","","18","","32.2","","97.02","","","","-17","","NA"
"-94.36","49.79","KENORA A","6034076","2023-01-13 18:00","2023","01","13","18:00","-9.4","","-10.7","","91","","","","17","","24","","32.2","","96.89","","","","-18","","Snow"
"-94.36","49.79","KENORA A","6034076","2023-01-13 19:00","2023","01","13","19:00","-9.4","","-10.7","","91","","","","17","","23","","32.2","","96.77","","","","-18","","Snow"
"-94.36","49.79","KENORA A","6034076","2023-01-13 20:00","2023","01","13","20:00","-9.8","","-11.1","","90","","","","17","","27","","32.2","","96.68","","","","-19","","Snow"
"-94.36","49.79","KENORA A","6034076","2023-01-13 21:00","2023","01","13","21:00","-9.3","","-10.5","","91","","","","18","","26","","32.2","","96.53","","","","-18","","Snow"
"-94.36","49.79","KENORA A","6034076","2023-01-13 22:00","2023","01","13","22:00","-9.2","","-10.4","","91","","","","18","","25","","32.2","","96.47","","","","-18","","Snow"
"-94.36","49.79","KENORA A","6034076","2023-01-13 23:00","2023","01","13","23:00","-8.7","","-9.9","","91","","","","19","","21","","32.2","","96.41","","","","-16","","NA"
"-94.36","49.79","KENORA A","6034076","2023-01-14 00:00","2023","01","14","00:00","-8.6","","-9.8","","91","","","","19","","20","","32.2","","96.37","","","","-16","","Mainly Clear"
"-94.36","49.79","KENORA A","6034076","2023-01-14 01:00","2023","01","14","01:00","-8.7","","-10.0","","90","","","","18","","15","","32.2","","96.34","","","","-15","","NA"
"-94.36","49.79","KENORA A","6034076","2023-01-14 02:00","2023","01","14","02:00","-9.1","","-10.4","","90","","","","17","","13","","32.2","","96.32","","","","-15","","NA"
"-94.36","49.79","KENORA A","6034076","2023-01-14 03:00","2023","01","14","03:00","-8.9","","-10.4","","89","","","","18","","15","","32.2","","96.29","","","","-15","","Mainly Clear"
"-94.36","49.79","KENORA A","6034076","2023-01-14 04:00","2023","01","14","04:00","-9.1","","-10.6","","89","","","","18","","18","","32.2","","96.27","","","","-16","","NA"
"-94.36","49.79","KENORA A","6034076","2023-01-14 05:00","2023","01","14","05:00","-9.2","","-10.9","","87","","","","17","","17","","32.2","","96.24","","","","-16","","NA"
"-94.36","49.79","KENORA A","6034076","2023-01-14 06:00","2023","01","14","06:00","-8.9","","-10.8","","87","","","","17","","14","","32.2","","96.25","","","","-15","","Mostly Cloudy"
"-94.36","49.79","KENORA A","6034076","2023-01-14 07:00","2023","01","14","07:00","-8.9","","-11.1","","85","","","","16","","13","","32.2","","96.24","","","","-15","","Snow"
"-94.36","49.79","KENORA A","6034076","2023-01-14 08:00","2023","01","14","08:00","-9.0","","-11.1","","84","","","","16","","19","","32.2","","96.18","","","","-16","","NA"
"-94.36","49.79","KENORA A","6034076","2023-01-14 09:00","2023","01","14","09:00","-9.0","","-11.1","","85","","","","16","","15","","24.1","","96.21","","","","-16","","Cloudy"
"-94.36","49.79","KENORA A","6034076","2023-01-14 10:00","2023","01","14","10:00","-8.4","","-10.7","","84","","","","16","","14","","24.1","","96.19","","","","-15","","NA"
"-94.36","49.79","KENORA A","6034076","2023-01-14 11:00","2023","01","14","11:00","-7.9","","-10.1","","84","","","","16","","19","","32.2","","96.19","","","","-15","","NA"
"-94.36","49.79","KENORA A","6034076","2023-01-14 12:00","2023","01","14","12:00","-7.3","","-9.4","","85","","","","16","","20","","32.2","","96.09","","","","-14","","Cloudy"
"-94.36","49.79","KENORA A","6034076","2023-01-14 13:00","2023","01","14","13:00","-6.9","","-8.9","","86","","","","17","","18","","24.1","","95.99","","","","-14","","NA"
"-94.36","49.79","KENORA A","6034076","2023-01-14 14:00","2023","01","14","14:00","-6.5","","-8.5","","86","","","","16","","16","","16.1","","95.95","","","","-13","","NA"
"-94.36","49.79","KENORA A","6034076","2023-01-14 15:00","2023","01","14","15:00","-5.9","","-8.1","","84","","","","16","","14","","16.1","","95.94","","","","-11","","Cloudy"
"-94.36","49.79","KENORA A","6034076","2023-01-14 16:00","2023","01","14","16:00","-5.5","","-7.8","","84","","","","16","","10","","16.1","","95.96","","","","-10","","NA"
"-94.36","49.79","KENORA A","6034076","2023-01-14 17:00","2023","01","14","17:00","-5.7","","-7.9","","85","","","","14","","10","","19.3","","95.95","","","","-10","","NA"
"-94.36","49.79","KENORA A","6034076","2023-01-14 18:00","2023","01","14","18:00","-6.0","","-7.7","","88","","","","13","","13","","19.3","","95.84","","","","-11","","Mostly Cloudy"
"-94.36","49.79","KENORA A","6034076","2023-01-14 19:00","2023","01","14","19:00","-5.8","","-7.5","","88","","","","15","","16","","24.1","","95.81","","","","-12","","NA"
"-94.36","49.79","KENORA A","6034076","2023-01-14 20:00","2023","01","14","20:00","-5.7","","-7.3","","88","","","","15","","12","","19.3","","95.75","","","","-11","","NA"
"-94.36","49.79","KENORA A","6034076","2023-01-14 21:00","2023","01","14","21:00","-5.7","","-7.2","","89","","","","16","","11","","16.1","","95.71","","","","-10","","Mostly Cloudy"
"-94.36","49.79","KENORA A","6034076","2023-01-14 22:00","2023","01","14","22:00","-5.7","","-7.0","","90","","","","14","","16","","19.3","","95.63","","","","-12","","NA"
"-94.36","49.79","KENORA A","6034076","2023-01-14 23:00","2023","01","14","23:00","-5.5","","-7.1","","88","","","","15","","16","","19.3","","95.57","","","","-11","","NA"
"-94.36","49.79","KENORA A","6034076","2023-01-15 00:00","2023","01","15","00:00","-5.5","","-7.2","","88","","","","14","","17","","19.3","","95.51","","","","-12","","Mostly Cloudy"
"-94.36","49.79","KENORA A","6034076","2023-01-15 01:00","2023","01","15","01:00","-5.1","","-6.8","","88","","","","15","","17","","16.1","","95.45","","","","-11","","NA"
"-94.36","49.79","KENORA A","6034076","2023-01-15 02:00","2023","01","15","02:00","-4.8","","-6.3","","89","","","","15","","13","","16.1","","95.37","","","","-10","","NA"
"-94.36","49.79","KENORA A","6034076","2023-01-15 03:00","2023","01","15","03:00","-4.5","","-6.0","","90","","","","15","","14","","16.1","","95.37","","","","-10","","Cloudy"
"-94.36","49.79","KENORA A","6034076","2023-01-15 04:00","2023","01","15","04:00","-4.5","","-5.3","","94","","","","14","","11","","6.4","","95.29","","","","-9","","Fog"
"-94.36","49.79","KENORA A","6034076","2023-01-15 05:00","2023","01","15","05:00","-4.3","","-4.8","","96","","","","15","","10","","4.8","","95.27","","","","-8","","Fog"
"-94.36","49.79","KENORA A","6034076","2023-01-15 06:00","2023","01","15","06:00","-3.9","","-4.3","","97","","","","16","","10","","2.4","","95.22","","","","-8","","Fog"
"-94.36","49.79","KENORA A","6034076","2023-01-15 07:00","2023","01","15","07:00","-3.4","","-3.8","","98","","","","16","","10","","2.4","","95.21","","","","-7","","Freezing Drizzle,Fog"
"-94.36","49.79","KENORA A","6034076","2023-01-15 08:00","2023","01","15","08:00","-3.1","","-3.4","","98","","","","16","","11","","2.0","","95.19","","","","-7","","Freezing Drizzle,Fog"
"-94.36","49.79","KENORA A","6034076","2023-01-15 09:00","2023","01","15","09:00","-2.9","","-3.2","","98","","","","16","","13","","1.6","","95.20","","","","-8","","Freezing Drizzle,Fog"
"-94.36","49.79","KENORA A","6034076","2023-01-15 10:00","2023","01","15","10:00","-2.7","","-2.9","","98","","","","16","","10","","1.6","","95.24","","","","-7","","Freezing Drizzle,Fog"
"-94.36","49.79","KENORA A","6034076","2023-01-15 11:00","2023","01","15","11:00","-2.1","","-2.4","","98","","","","19","","10","","1.6","","95.28","","","","-6","","Freezing Drizzle,Fog"
"-94.36","49.79","KENORA A","6034076","2023-01-15 12:00","2023","01","15","12:00","-2.1","","-2.4","","98","","","","21","","13","","1.6","","95.29","","","","-7","","Freezing Drizzle,Fog"
"-94.36","49.79","KENORA A","6034076","2023-01-15 13:00","2023","01","15","13:00","-2.4","","-2.6","","98","","","","20","","11","","0.8","","95.28","","","","-6","","Freezing Drizzle,Freezing Fog"
"-94.36","49.79","KENORA A","6034076","2023-01-15 14:00","2023","01","15","14:00","-2.9","","-3.1","","98","","","","19","","10","","0.8","","95.30","","","","-7","","Freezing Drizzle,Freezing Fog"
"-94.36","49.79","KENORA A","6034076","2023-01-15 15:00","2023","01","15","15:00","-3.2","","-3.5","","98","","","","19","","12","","0.4","","95.33","","","","-8","","Freezing Fog"
"-94.36","49.79","KENORA A","6034076","2023-01-15 16:00","2023","01","15","16:00","-3.3","","-3.6","","98","","","","16","","10","","1.2","","95.40","","","","-7","","Fog"
"-94.36","49.79","KENORA A","6034076","2023-01-15 17:00","2023","01","15","17:00","-3.7","","-4.1","","97","","","","20","","10","","1.2","","95.48","","","","-8","","Fog"
"-94.36","49.79","KENORA A","6034076","2023-01-15 18:00","2023","01","15","18:00","-3.9","","-4.3","","97","","","","22","","9","","2.4","","95.52","","","","-8","","Fog"
"-94.36","49.79","KENORA A","6034076","2023-01-15 19:00","2023","01","15","19:00","-4.0","","-4.5","","97","","","","25","","4","","2.4","","95.57","","","","-6","","Fog"
"-94.36","49.79","KENORA A","6034076","2023-01-15 20:00","2023","01","15","20:00","-4.0","","-4.5","","97","","","","17","","3","","1.6","","95.58","","","","-5","","Fog"
"-94.36","49.79","KENORA A","6034076","2023-01-15 21:00","2023","01","15","21:00","-4.1","","-4.6","","96","","","","15","","8","","4.8","","95.59","","","","-8","","Fog"
"-94.36","49.79","KENORA A","6034076","2023-01-15 22:00","2023","01","15","22:00","-4.1","","-4.5","","97","","","","15","","7","","4.8","","95.61","","","","-7","","Fog"
"-94.36","49.79","KENORA A","6034076","2023-01-15 23:00","2023","01","15","23:00","-3.9","","-4.3","","97","","","","16","","7","","4.8","","95.61","","","","-7","","Fog"
"-94.36","49.79","KENORA A","6034076","2023-01-16 00:00","2023","01","16","00:00","-3.8","","-4.2","","97","","","","18","","3","","2.4","","95.63","","","","-5","","Fog"
"-94.36","49.79","KENORA A","6034076","2023-01-16 01:00","2023","01","16","01:00","-3.5","","-3.9","","97","","","","20","","3","","0.4","","95.62","","","","-5","","Freezing Fog"
"-94.36","49.79","KENORA A","6034076","2023-01-16 02:00","2023","01","16","02:00","-3.7","","-4.1","","97","","","","1","","5","","0.4","","95.62","","","","-6","","Freezing Fog"
"-94.36","49.79","KENORA A","6034076","2023-01-16 03:00","2023","01","16","03:00","-3.6","","-4.0","","97","","","","2","","4","","0.2","","95.62","","","","-5","","Freezing Fog"
"-94.36","49.79","KENORA A","6034076","2023-01-16 04:00","2023","01","16","04:00","-3.4","","-3.8","","97","","","","4","","3","","0.0","","95.65","","","","-5","","Freezing Fog"
"-94.36","49.79","KENORA A","6034076","2023-01-16 05:00","2023","01","16","05:00","-3.4","","-3.8","","97","","","","1","","8","","0.2","","95.63","","","","-7","","Freezing Fog"
"-94.36","49.79","KENORA A","6034076","2023-01-16 06:00","2023","01","16","06:00","-3.3","","-3.6","","97","","","","1","","9","","0.2","","95.65","","","","-7","","Freezing Fog"
"-94.36","49.79","KENORA A","6034076","2023-01-16 07:00","2023","01","16","07:00","-3.1","","-3.5","","97","","","","12","","9","","0.8","","95.69","","","","-7","","Freezing Fog"
"-94.36","49.79","KENORA A","6034076","2023-01-16 08:00","2023","01","16","08:00","-3.1","","-3.4","","97","","","","1","","7","","0.8","","95.67","","","","-6","","Freezing Fog"
"-94.36","49.79","KENORA A","6034076","2023-01-16 09:00","2023","01","16","09:00","-2.7","","-3.0","","98","","","","5","","7","","0.8","","95.71","","","","-6","","Freezing Fog"
"-94.36","49.79","KENORA A","6034076","2023-01-16 10:00","2023","01","16","10:00","-2.4","","-2.7","","98","","","","2","","7","","0.8","","95.73","","","","-5","","Freezing Fog"
"-94.36","49.79","KENORA A","6034076","2023-01-16 11:00","2023","01","16","11:00","-2.1","","-2.3","","98","","","","3","","7","","0.4","","95.70","","","","-5","","Freezing Fog"
"-94.36","49.79","KENORA A","6034076","2023-01-16 12:00","2023","01","16","12:00","-1.6","","-1.8","","98","","","","36","","7","","0.4","","95.65","","","","-4","","Freezing Drizzle,Freezing Fog"
"-94.36","49.79","KENORA A","6034076","2023-01-16 13:00","2023","01","16","13:00","-1.4","","-1.5","","99","","","","2","","8","","0.4","","95.58","","","","-4","","Freezing Drizzle,Freezing Fog"
"-94.36","49.79","KENORA A","6034076","2023-01-16 14:00","2023","01","16","14:00","-1.1","","-1.3","","99","","","","1","","12","","0.4","","95.53","","","","-5","","Freezing Drizzle,Freezing Fog"
"-94.36","49.79","KENORA A","6034076","2023-01-16 15:00","2023","01","16","15:00","-1.2","","-1.4","","99","","","","36","","14","","0.4","","95.54","","","","-6","","Freezing Drizzle,Freezing Fog"
"-94.36","49.79","KENORA A","6034076","2023-01-16 16:00","2023","01","16","16:00","-1.3","","-1.5","","99","","","","36","","14","","0.8","","95.57","","","","-6","","Freezing Drizzle,Freezing Fog"
"-94.36","49.79","KENORA A","6034076","2023-01-16 17:00","2023","01","16","17:00","-1.4","","-1.5","","99","","","","2","","14","","0.8","","95.59","","","","-6","","Freezing Drizzle,Freezing Fog"
"-94.36","49.79","KENORA A","6034076","2023-01-16 18:00","2023","01","16","18:00","-1.5","","-1.7","","99","","","","2","","17","","1.2","","95.61","","","","-7","","Fog"
"-94.36","49.79","KENORA A","6034076","2023-01-16 19:00","2023","01","16","19:00","-1.6","","-1.7","","99","","","","3","","14","","1.2","","95.64","","","","-6","","Fog"
"-94.36","49.79","KENORA A","6034076","2023-01-16 20:00","2023","01","16","20:00","-1.9","","-2.0","","99","","","","1","","14","","1.6","","95.64","","","","-7","","Fog"
"-94.36","49.79","KENORA A","6034076","2023-01-16 21:00","2023","01","16","21:00","-2.1","","-2.3","","98","","","","2","","14","","1.6","","95.63","","","","-7","","Fog"
"-94.36","49.79","KENORA A","6034076","2023-01-16 22:00","2023","01","16","22:00","-2.4","","-2.6","","98","","","","1","","14","","4.8","","95.64","","","","-7","","Fog"
"-94.36","49.79","KENORA A","6034076","2023-01-16 23:00","2023","01","16","23:00","-2.7","","-3.0","","98","","","","1","","17","","4.8","","95.66","","","","-8","","Fog"
"-94.36","49.79","KENORA A","6034076","2023-01-17 00:00","2023","01","17","00:00","-3.0","","-3.4","","98","","","","35","","16","","6.4","","95.66","","","","-8","","Freezing Drizzle,Fog"
"-94.36","49.79","KENORA A","6034076","2023-01-17 01:00","2023","01","17","01:00","-3.6","","-4.0","","97","","","","1","","16","","4.8","","95.65","","","","-9","","Snow,Fog"
"-94.36","49.79","KENORA A","6034076","2023-01-17 02:00","2023","01","17","02:00","-4.0","","-4.4","","97","","","","36","","14","","16.1","","95.68","","","","-9","","Snow"
"-94.36","49.79","KENORA A","6034076","2023-01-17 03:00","2023","01","17","03:00","-4.5","","-5.0","","96","","","","36","","13","","16.1","","95.73","","","","-10","","Cloudy"
"-94.36","49.79","KENORA A","6034076","2023-01-17 04:00","2023","01","17","04:00","-5.0","","-5.6","","96","","","","36","","15","","16.1","","95.76","","","","-11","","Snow"
"-94.36","49.79","KENORA A","6034076","2023-01-17 05:00","2023","01","17","05:00","-5.6","","-6.3","","95","","","","36","","18","","16.1","","95.80","","","","-12","","Snow"
"-94.36","49.79","KENORA A","6034076","2023-01-17 06:00","2023","01","17","06:00","-6.0","","-6.7","","95","","","","1","","17","","16.1","","95.86","","","","-12","","Snow"
"-94.36","49.79","KENORA A","6034076","2023-01-17 07:00","2023","01","17","07:00","-6.2","","-6.9","","95","","","","1","","14","","16.1","","95.90","","","","-12","","Freezing Drizzle"
"-94.36","49.79","KENORA A","6034076","2023-01-17 08:00","2023","01","17","08:00","-6.5","","-7.3","","94","","","","1","","16","","16.1","","95.93","","","","-13","","Freezing Drizzle"
"-94.36","49.79","KENORA A","6034076","2023-01-17 09:00","2023","01","17","09:00","-7.0","","-7.9","","94","","","","2","","19","","16.1","","96.01","","","","-14","","Freezing Drizzle"
"-94.36","49.79","KENORA A","6034076","2023-01-17 10:00","2023","01","17","10:00","-7.3","","-8.2","","93","","","","1","","13","","19.3","","96.09","","","","-13","","Freezing Drizzle"
"-94.36","49.79","KENORA A","6034076","2023-01-17 11:00","2023","01","17","11:00","-7.6","","-8.6","","93","","","","3","","16","","19.3","","96.12","","","","-14","","Freezing Drizzle"
"-94.36","49.79","KENORA A","6034076","2023-01-17 12:00","2023","01","17","12:00","-7.7","","-8.7","","93","","","","1","","17","","19.3","","96.12","","","","-14","","Freezing Drizzle"
"-94.36","49.79","KENORA A","6034076","2023-01-17 13:00","2023","01","17","13:00","-7.7","","-8.7","","93","","","","2","","15","","24.1","","96.15","","","","-14","","NA"
"-94.36","49.79","KENORA A","6034076","2023-01-17 14:00","2023","01","17","14:00","-7.5","","-8.5","","93","","","","3","","14","","24.1","","96.19","","","","-13","","NA"
"-94.36","49.79","KENORA A","6034076","2023-01-17 15:00","2023","01","17","15:00","-7.5","","-8.5","","93","","","","2","","13","","24.1","","96.28","","","","-13","","Cloudy"
"-94.36","49.79","KENORA A","6034076","2023-01-17 16:00","2023","01","17","16:00","-7.3","","-8.3","","93","","","","36","","13","","24.1","","96.35","","","","-13","","NA"
"-94.36","49.79","KENORA A","6034076","2023-01-17 17:00","2023","01","17","17:00","-7.5","","-8.5","","93","","","","1","","10","","24.1","","96.44","","","","-12","","NA"
"-94.36","49.79","KENORA A","6034076","2023-01-17 18:00","2023","01","17","18:00","-7.6","","-8.5","","93","","","","2","","8","","24.1","","96.50","","","","-12","","Cloudy"
"-94.36","49.79","KENORA A","6034076","2023-01-17 19:00","2023","01","17","19:00","-7.7","","-8.7","","93","","","","4","","10","","24.1","","96.58","","","","-13","","NA"
"-94.36","49.79","KENORA A","6034076","2023-01-17 20:00","2023","01","17","20:00","-7.8","","-8.8","","93","","","","2","","12","","24.1","","96.64","","","","-13","","NA"
"-94.36","49.79","KENORA A","6034076","2023-01-17 21:00","2023","01","17","21:00","-8.2","","-9.2","","92","","","","4","","11","","24.1","","96.67","","","","-13","","Cloudy"
"-94.36","49.79","KENORA A","6034076","2023-01-17 22:00","2023","01","17","22:00","-8.3","","-9.4","","92","","","","3","","9","","24.1","","96.71","","","","-13","","NA"
"-94.36","49.79","KENORA A","6034076","2023-01-17 23:00","2023","01","17","23:00","-8.7","","-9.7","","92","","","","4","","11","","16.1","","96.76","","","","-14","","NA"
"-94.36","49.79","KENORA A","6034076","2023-01-18 00:00","2023","01","18","00:00","-9.6","","-10.8","","91","","","","6","","13","","16.1","","96.80","","","","-16","","Cloudy"
"-94.36","49.79","KENORA A","6034076","2023-01-18 01:00","2023","01","18","01:00","-10.3","","-11.6","","90","","","","5","","10","","16.1","","96.83","","","","-16","","NA"
"-94.36","49.79","KENORA A","6034076","2023-01-18 02:00","2023","01","18","02:00","-10.4","","-11.7","","90","","","","8","","10","","16.1","","96.90","","","","-16","","Snow"
"-94.36","49.79","KENORA A","6034076","2023-01-18 03:00","2023","01","18","03:00","-11.1","","-12.6","","89","","","","6","","9","","24.1","","96.95","","","","-16","","Snow"
"-94.36","49.79","KENORA A","6034076","2023-01-18 04:00","2023","01","18","04:00","-12.4","","-14.0","","88","","","","6","","8","","24.1","","96.99","","","","-17","","Snow"
"-94.36","49.79","KENORA A","6034076","2023-01-18 05:00","2023","01","18","05:00","-14.3","","-16.1","","87","","","","2","","9","","24.1","","97.00","","","","-20","","NA"
"-94.36","49.79","KENORA A","6034076","2023-01-18 06:00","2023","01","18","06:00","-14.1","","-15.8","","87","","","","2","","10","","24.1","","97.00","","","","-20","","Cloudy"
"-94.36","49.79","KENORA A","6034076","2023-01-18 07:00","2023","01","18","07:00","-13.8","","-15.5","","87","","","","5","","13","","24.1","","97.03","","","","-21","","Snow"
"-94.36","49.79","KENORA A","6034076","2023-01-18 08:00","2023","01","18","08:00","-13.5","","-15.3","","87","","","","6","","15","","24.1","","97.06","","","","-21","","Snow"
"-94.36","49.79","KENORA A","6034076","2023-01-18 09:00","2023","01","18","09:00","-12.9","","-14.6","","87","","","","8","","7","","16.1","","97.14","","","","-17","","Snow"
"-94.36","49.79","KENORA A","6034076","2023-01-18 10:00","2023","01","18","10:00","-12.0","","-13.6","","88","","","","4","","4","","16.1","","97.19","","","","-15","","Snow"
"-94.36","49.79","KENORA A","6034076","2023-01-18 11:00","2023","01","18","11:00","-11.4","","-13.0","","88","","","","4","","9","","16.1","","97.18","","","","-17","","Snow"
"-94.36","49.79","KENORA A","6034076","2023-01-18 12:00","2023","01","18","12:00","-10.8","","-12.5","","87","","","","3","","9","","16.1","","97.07","","","","-16","","Snow"
"-94.36","49.79","KENORA A","6034076","2023-01-18 13:00","2023","01","18","13:00","-9.2","","-11.3","","85","","","","3","","10","","24.1","","96.97","","","","-14","","Snow"
"-94.36","49.79","KENORA A","6034076","2023-01-18 14:00","2023","01","18","14:00","-8.7","","-10.6","","86","","","","5","","11","","24.1","","96.92","","","","-14","","Snow"
"-94.36","49.79","KENORA A","6034076","2023-01-18 15:00","2023","01","18","15:00","-8.4","","-10.3","","86","","","","8","","14","","24.1","","96.99","","","","-15","","Snow"
"-94.36","49.79","KENORA A","6034076","2023-01-18 16:00","2023","01","18","16:00","-8.6","","-10.5","","87","","","","6","","13","","24.1","","96.99","","","","-15","","Snow"
"-94.36","49.79","KENORA A","6034076","2023-01-18 17:00","2023","01","18","17:00","-9.7","","-11.4","","88","","","","9","","10","","24.1","","97.04","","","","-15","","Snow"
"-94.36","49.79","KENORA A","6034076","2023-01-18 18:00","2023","01","18","18:00","-9.9","","-11.7","","87","","","","9","","13","","24.1","","97.06","","","","-16","","Snow"
"-94.36","49.79","KENORA A","6034076","2023-01-18 19:00","2023","01","18","19:00","-10.3","","-11.9","","88","","","","7","","9","","24.1","","96.97","","","","-15","","Snow"
"-94.36","49.79","KENORA A","6034076","2023-01-18 20:00","2023","01","18","20:00","-10.4","","-11.9","","89","","","","5","","8","","24.1","","96.92","","","","-15","","Snow"
"-94.36","49.79","KENORA A","6034076","2023-01-18 21:00","2023","01","18","21:00","-10.1","","-11.4","","90","","","","9","","11","","24.1","","96.86","","","","-16","","Snow"
"-94.36","49.79","KENORA A","6034076","2023-01-18 22:00","2023","01","18","22:00","-9.8","","-11.1","","91","","","","4","","9","","24.1","","96.79","","","","-15","","Snow"
"-94.36","49.79","KENORA A","6034076","2023-01-18 23:00","2023","01","18","23:00","-9.6","","-10.9","","90","","","","7","","9","","24.1","","96.79","","","","-14","","Snow"
"-94.36","49.79","KENORA A","6034076","2023-01-19 00:00","2023","01","19","00:00","-9.4","","-10.8","","90","","","","7","","7","","24.1","","96.79","","","","-13","","Snow"
"-94.36","49.79","KENORA A","6034076","2023-01-19 01:00","2023","01","19","01:00","-9.1","","-10.5","","90","","","","8","","8","","24.1","","96.78","","","","-13","","Snow"
"-94.36","49.79","KENORA A","6034076","2023-01-19 02:00","2023","01","19","02:00","-9.1","","-10.4","","90","","","","5","","9","","24.1","","96.73","","","","-14","","Snow"
"-94.36","49.79","KENORA A","6034076","2023-01-19 03:00","2023","01","19","03:00","-8.9","","-10.2","","90","","","","4","","10","","24.1","","96.66","","","","-14","","Snow"
"-94.36","49.79","KENORA A","6034076","2023-01-19 04:00","2023","01","19","04:00","-8.8","","-10.1","","90","","","","6","","7","","24.1","","96.62","","","","-13","","Snow"
"-94.36","49.79","KENORA A","6034076","2023-01-19 05:00","2023","01","19","05:00","-8.8","","-10.0","","91","","","","4","","10","","24.1","","96.59","","","","-14","","Snow"
"-94.36","49.79","KENORA A","6034076","2023-01-19 06:00","2023","01","19","06:00","-8.7","","-9.9","","91","","","","4","","9","","24.1","","96.55","","","","-13","","Snow"
"-94.36","49.79","KENORA A","6034076","2023-01-19 07:00","2023","01","19","07:00","-8.4","","-9.6","","91","","","","4","","11","","24.1","","96.53","","","","-14","","Snow"
"-94.36","49.79","KENORA A","6034076","2023-01-19 08:00","2023","01","19","08:00","-8.4","","-9.5","","92","","","","4","","10","","19.3","","96.51","","","","-13","","Snow"
"-94.36","49.79","KENORA A","6034076","2023-01-19 09:00","2023","01","19","09:00","-8.4","","-9.4","","92","","","","3","","13","","24.1","","96.48","","","","-14","","Snow"
"-94.36","49.79","KENORA A","6034076","2023-01-19 10:00","2023","01","19","10:00","-8.2","","-9.2","","92","","","","3","","7","","19.3","","96.50","","","","-12","","Snow"
"-94.36","49.79","KENORA A","6034076","2023-01-19 11:00","2023","01","19","11:00","-7.7","","-9.0","","91","","","","2","","10","","19.3","","96.50","","","","-13","","Snow"
"-94.36","49.79","KENORA A","6034076","2023-01-19 12:00","2023","01","19","12:00","-7.2","","-8.6","","90","","","","2","","10","","19.3","","96.45","","","","-12","","Snow"
"-94.36","49.79","KENORA A","6034076","2023-01-19 13:00","2023","01","19","13:00","-6.6","","-8.1","","89","","","","2","","10","","19.3","","96.38","","","","-11","","Snow"
"-94.36","49.79","KENORA A","6034076","2023-01-19 14:00","2023","01","19","14:00","-6.2","","-7.9","","88","","","","5","","10","","24.1","","96.38","","","","-11","","Snow"
"-94.36","49.79","KENORA A","6034076","2023-01-19 15:00","2023","01","19","15:00","-6.1","","-7.6","","89","","","","5","","10","","24.1","","96.40","","","","-11","","Snow"
"-94.36","49.79","KENORA A","6034076","2023-01-19 16:00","2023","01","19","16:00","-6.2","","-7.7","","89","","","","4","","12","","32.2","","96.46","","","","-11","","NA"
"-94.36","49.79","KENORA A","6034076","2023-01-19 17:00","2023","01","19","17:00","-6.5","","-7.9","","89","","","","4","","10","","32.2","","96.52","","","","-11","","NA"
"-94.36","49.79","KENORA A","6034076","2023-01-19 18:00","2023","01","19","18:00","-6.8","","-8.3","","89","","","","5","","12","","32.2","","96.57","","","","-12","","Cloudy"
"-94.36","49.79","KENORA A","6034076","2023-01-19 19:00","2023","01","19","19:00","-7.0","","-8.5","","89","","","","7","","9","","32.2","","96.58","","","","-11","","NA"
"-94.36","49.79","KENORA A","6034076","2023-01-19 20:00","2023","01","19","20:00","-7.3","","-8.8","","89","","","","5","","7","","32.2","","96.62","","","","-11","","Snow"
"-94.36","49.79","KENORA A","6034076","2023-01-19 21:00","2023","01","19","21:00","-7.7","","-9.2","","89","","","","7","","9","","32.2","","96.64","","","","-12","","Snow"
"-94.36","49.79","KENORA A","6034076","2023-01-19 22:00","2023","01","19","22:00","-8.1","","-9.4","","91","","","","5","","7","","32.2","","96.65","","","","-12","","Snow"
"-94.36","49.79","KENORA A","6034076","2023-01-19 23:00","2023","01","19","23:00","-8.5","","-9.5","","92","","","","9","","9","","32.2","","96.70","","","","-13","","Snow"
"-94.36","49.79","KENORA A","6034076","2023-01-20 00:00","2023","01","20","00:00","-8.7","","-9.8","","92","","","","7","","4","","32.2","","96.75","","","","-11","","Snow"
"-94.36","49.79","KENORA A","6034076","2023-01-20 01:00","2023","01","20","01:00","-8.8","","-9.8","","92","","","","36","","2","","32.2","","96.75","","","","-10","","Snow"
"-94.36","49.79","KENORA A","6034076","2023-01-20 02:00","2023","01","20","02:00","-8.8","","-9.9","","91","","","","36","","2","","32.2","","96.76","","","","-10","","Snow"
"-94.36","49.79","KENORA A","6034076","2023-01-20 03:00","2023","01","20","03:00","-8.7","","-9.8","","92","","","","7","","4","","32.2","","96.80","","","","-11","","Snow"
"-94.36","49.79","KENORA A","6034076","2023-01-20 04:00","2023","01","20","04:00","-8.8","","-9.8","","92","","","","11","","5","","32.2","","96.82","","","","-12","","Snow"
"-94.36","49.79","KENORA A","6034076","2023-01-20 05:00","2023","01","20","05:00","-8.7","","-9.8","","92","","","","15","","3","","32.2","","96.84","","","","-10","","Snow"
"-94.36","49.79","KENORA A","6034076","2023-01-20 06:00","2023","01","20","06:00","-8.7","","-9.6","","93","","","","17","","4","","24.1","","96.86","","","","-11","","Freezing Drizzle,Snow"
"-94.36","49.79","KENORA A","6034076","2023-01-20 07:00","2023","01","20","07:00","-8.6","","-9.5","","94","","","","17","","7","","24.1","","96.87","","","","-12","","Freezing Drizzle,Snow"
"-94.36","49.79","KENORA A","6034076","2023-01-20 08:00","2023","01","20","08:00","-8.5","","-9.3","","94","","","","17","","8","","19.3","","96.86","","","","-13","","Freezing Drizzle,Snow"
"-94.36","49.79","KENORA A","6034076","2023-01-20 09:00","2023","01","20","09:00","-8.4","","-9.2","","94","","","","19","","11","","19.3","","96.88","","","","-14","","Freezing Drizzle,Snow"
"-94.36","49.79","KENORA A","6034076","2023-01-20 10:00","2023","01","20","10:00","-8.1","","-8.7","","95","","","","20","","9","","1.2","","96.89","","","","-13","","Freezing Drizzle,Snow,Fog"
"-94.36","49.79","KENORA A","6034076","2023-01-20 11:00","2023","01","20","11:00","-7.7","","-8.4","","95","","","","21","","14","","0.8","","96.88","","","","-14","","Snow,Freezing Fog"
"-94.36","49.79","KENORA A","6034076","2023-01-20 12:00","2023","01","20","12:00","-7.4","","-8.2","","94","","","","22","","13","","1.6","","96.83","","","","-13","","Snow,Fog"
"-94.36","49.79","KENORA A","6034076","2023-01-20 13:00","2023","01","20","13:00","-8.1","","-9.3","","92","","","","24","","15","","9.7","","96.78","","","","-14","","Snow,Fog"
"-94.36","49.79","KENORA A","6034076","2023-01-20 14:00","2023","01","20","14:00","-8.5","","-9.9","","90","","","","23","","22","","9.7","","96.76","","","","-16","","Snow,Fog"
"-94.36","49.79","KENORA A","6034076","2023-01-20 15:00","2023","01","20","15:00","-8.7","","-10.9","","85","","","","24","","18","","6.4","","96.77","","","","-16","","Snow,Fog"
"-94.36","49.79","KENORA A","6034076","2023-01-20 16:00","2023","01","20","16:00","-8.3","","-10.4","","85","","","","24","","15","","12.9","","96.75","","","","-15","","Snow"
"-94.36","49.79","KENORA A","6034076","2023-01-20 17:00","2023","01","20","17:00","-8.1","","-9.8","","87","","","","25","","15","","16.1","","96.75","","","","-14","","Snow"
"-94.36","49.79","KENORA A","6034076","2023-01-20 18:00","2023","01","20","18:00","-8.0","","-9.1","","92","","","","23","","10","","11.3","","96.72","","","","-13","","Snow"
"-94.36","49.79","KENORA A","6034076","2023-01-20 19:00","2023","01","20","19:00","-7.8","","-8.5","","95","","","","21","","10","","8.1","","96.71","","","","-13","","Snow,Fog"
"-94.36","49.79","KENORA A","6034076","2023-01-20 20:00","2023","01","20","20:00","-7.5","","-8.2","","95","","","","21","","13","","8.1","","96.67","","","","-13","","Snow,Fog"
"-94.36","49.79","KENORA A","6034076","2023-01-20 21:00","2023","01","20","21:00","-7.2","","-7.8","","95","","","","22","","13","","12.9","","96.61","","","","-13","","Snow"
"-94.36","49.79","KENORA A","6034076","2023-01-20 22:00","2023","01","20","22:00","-6.8","","-7.6","","94","","","","22","","13","","19.3","","96.58","","","","-12","","Snow"
"-94.36","49.79","KENORA A","6034076","2023-01-20 23:00","2023","01","20","23:00","-6.6","","-7.4","","94","","","","22","","15","","19.3","","96.55","","","","-13","","Snow"
"-94.36","49.79","KENORA A","6034076","2023-01-21 00:00","2023","01","21","00:00","-6.5","","-7.2","","94","","","","23","","16","","19.3","","96.52","","","","-13","","Snow"
"-94.36","49.79","KENORA A","6034076","2023-01-21 01:00","2023","01","21","01:00","-6.5","","-7.4","","93","","","","24","","22","","19.3","","96.49","","","","-14","","Snow"
"-94.36","49.79","KENORA A","6034076","2023-01-21 02:00","2023","01","21","02:00","-6.5","","-7.3","","94","","","","22","","23","","19.3","","96.47","","","","-14","","Snow"
"-94.36","49.79","KENORA A","6034076","2023-01-21 03:00","2023","01","21","03:00","-6.8","","-7.6","","94","","","","22","","16","","19.3","","96.49","","","","-13","","Snow"
"-94.36","49.79","KENORA A","6034076","2023-01-21 04:00","2023","01","21","04:00","-7.2","","-8.0","","94","","","","21","","18","","19.3","","96.44","","","","-14","","Snow"
"-94.36","49.79","KENORA A","6034076","2023-01-21 05:00","2023","01","21","05:00","-7.5","","-8.3","","94","","","","21","","16","","16.1","","96.41","","","","-14","","Snow"
"-94.36","49.79","KENORA A","6034076","2023-01-21 06:00","2023","01","21","06:00","-8.1","","-8.9","","94","","","","20","","19","","19.3","","96.38","","","","-15","","Snow"
"-94.36","49.79","KENORA A","6034076","2023-01-21 07:00","2023","01","21","07:00","-8.1","","-8.9","","94","","","","21","","17","","24.1","","96.36","","","","-15","","Snow"
"-94.36","49.79","KENORA A","6034076","2023-01-21 08:00","2023","01","21","08:00","-8.1","","-9.0","","93","","","","22","","14","","24.1","","96.36","","","","-14","","NA"
"-94.36","49.79","KENORA A","6034076","2023-01-21 09:00","2023","01","21","09:00","-8.2","","-9.2","","93","","","","22","","14","","24.1","","96.38","","","","-14","","Mostly Cloudy"
"-94.36","49.79","KENORA A","6034076","2023-01-21 10:00","2023","01","21","10:00","-8.4","","-9.4","","92","","","","22","","13","","16.1","","96.40","","","","-14","","NA"
"-94.36","49.79","KENORA A","6034076","2023-01-21 11:00","2023","01","21","11:00","-7.8","","-8.9","","91","","","","21","","10","","19.3","","96.38","","","","-13","","NA"
"-94.36","49.79","KENORA A","6034076","2023-01-21 12:00","2023","01","21","12:00","-7.5","","-9.0","","89","","","","22","","9","","32.2","","96.35","","","","-12","","Mostly Cloudy"
"-94.36","49.79","KENORA A","6034076","2023-01-21 13:00","2023","01","21","13:00","-6.2","","-8.5","","84","","","","21","","11","","24.1","","96.29","","","","-11","","NA"
"-94.36","49.79","KENORA A","6034076","2023-01-21 14:00","2023","01","21","14:00","-5.3","","-8.8","","77","","","","21","","12","","32.2","","96.28","","","","-10","","NA"
"-94.36","49.79","KENORA A","6034076","2023-01-21 15:00","2023","01","21","15:00","-5.2","","-8.7","","77","","","","23","","9","","32.2","","96.29","","","","-9","","Mainly Clear"
"-94.36","49.79","KENORA A","6034076","2023-01-21 16:00","2023","01","21","16:00","-5.5","","-9.0","","77","","","","21","","9","","32.2","","96.32","","","","-10","","NA"
"-94.36","49.79","KENORA A","6034076","2023-01-21 17:00","2023","01","21","17:00","-6.7","","-9.4","","81","","","","20","","9","","32.2","","96.32","","","","-11","","NA"
"-94.36","49.79","KENORA A","6034076","2023-01-21 18:00","2023","01","21","18:00","-7.8","","-9.9","","85","","","","22","","10","","32.2","","96.35","","","","-13","","Mainly Clear"
"-94.36","49.79","KENORA A","6034076","2023-01-21 19:00","2023","01","21","19:00","-8.4","","-10.0","","88","","","","22","","8","","24.1","","96.40","","","","-13","","NA"
"-94.36","49.79","KENORA A","6034076","2023-01-21 20:00","2023","01","21","20:00","-8.4","","-10.1","","88","","","","23","","7","","24.1","","96.37","","","","-12","","NA"
"-94.36","49.79","KENORA A","6034076","2023-01-21 21:00","2023","01","21","21:00","-8.8","","-10.3","","89","","","","24","","6","","24.1","","96.35","","","","-12","","Mostly Cloudy"
"-94.36","49.79","KENORA A","6034076","2023-01-21 22:00","2023","01","21","22:00","-9.2","","-10.4","","91","","","","22","","7","","24.1","","96.33","","","","-13","","NA"
"-94.36","49.79","KENORA A","6034076","2023-01-21 23:00","2023","01","21","23:00","-9.8","","-10.8","","92","","","","27","","8","","24.1","","96.35","","","","-14","","NA"
"-94.36","49.79","KENORA A","6034076","2023-01-22 00:00","2023","01","22","00:00","-10.6","","-11.6","","93","","","","23","","8","","24.1","","96.30","","","","-15","","Mostly Cloudy"
"-94.36","49.79","KENORA A","6034076","2023-01-22 01:00","2023","01","22","01:00","-10.0","","-11.2","","91","","","","29","","9","","24.1","","96.28","","","","-15","","NA"
"-94.36","49.79","KENORA A","6034076","2023-01-22 02:00","2023","01","22","02:00","-11.6","","-13.1","","89","","","","25","","7","","24.1","","96.27","","","","-16","","NA"
"-94.36","49.79","KENORA A","6034076","2023-01-22 03:00","2023","01","22","03:00","-12.5","","-13.8","","90","","","","22","","6","","24.1","","96.29","","","","-16","","Mainly Clear"
"-94.36","49.79","KENORA A","6034076","2023-01-22 04:00","2023","01","22","04:00","-13.4","","-14.8","","90","","","","20","","7","","24.1","","96.28","","","","-18","","NA"
"-94.36","49.79","KENORA A","6034076","2023-01-22 05:00","2023","01","22","05:00","-13.7","","-15.2","","89","","","","22","","7","","24.1","","96.25","","","","-18","","NA"
"-94.36","49.79","KENORA A","6034076","2023-01-22 06:00","2023","01","22","06:00","-14.2","","-15.7","","88","","","","20","","4","","24.1","","96.25","","","","-17","","Mostly Cloudy"
"-94.36","49.79","KENORA A","6034076","2023-01-22 07:00","2023","01","22","07:00","-14.7","","-16.4","","87","","","","22","","9","","32.2","","96.26","","","","-20","","NA"
"-94.36","49.79","KENORA A","6034076","2023-01-22 08:00","2023","01","22","08:00","-14.8","","-16.6","","86","","","","19","","14","","0.8","","96.26","","","","-22","","Freezing Fog"
"-94.36","49.79","KENORA A","6034076","2023-01-22 09:00","2023","01","22","09:00","-15.4","","-17.3","","86","","","","20","","16","","1.6","","96.22","","","","-24","","Fog"
"-94.36","49.79","KENORA A","6034076","2023-01-22 10:00","2023","01","22","10:00","-15.5","","-17.4","","85","","","","19","","9","","3.6","","96.26","","","","-21","","Fog"
"-94.36","49.79","KENORA A","6034076","2023-01-22 11:00","2023","01","22","11:00","-13.3","","-15.0","","87","","","","18","","12","","9.7","","96.21","","","","-20","","Ice Crystals"
"-94.36","49.79","KENORA A","6034076","2023-01-22 12:00","2023","01","22","12:00","-11.4","","-12.9","","89","","","","21","","13","","12.9","","96.18","","","","-18","","Ice Crystals"
"-94.36","49.79","KENORA A","6034076","2023-01-22 13:00","2023","01","22","13:00","-10.7","","-12.1","","89","","","","21","","14","","19.3","","96.13","","","","-17","","Ice Crystals"
"-94.36","49.79","KENORA A","6034076","2023-01-22 14:00","2023","01","22","14:00","-9.3","","-10.7","","90","","","","22","","20","","16.1","","96.08","","","","-17","","Ice Crystals"
"-94.36","49.79","KENORA A","6034076","2023-01-22 15:00","2023","01","22","15:00","-8.5","","-10.2","","87","","","","19","","22","","24.1","","96.05","","","","-16","","Ice Crystals"
"-94.36","49.79","KENORA A","6034076","2023-01-22 16:00","2023","01","22","16:00","-8.6","","-10.8","","84","","","","19","","20","","19.3","","96.00","","","","-16","","Ice Crystals"
"-94.36","49.79","KENORA A","6034076","2023-01-22 17:00","2023","01","22","17:00","-9.1","","-11.1","","86","","","","20","","16","","19.3","","95.99","","","","-16","","Ice Crystals"
"-94.36","49.79","KENORA A","6034076","2023-01-22 18:00","2023","01","22","18:00","-9.9","","-11.6","","88","","","","20","","15","","24.1","","95.97","","","","-17","","Ice Crystals"
"-94.36","49.79","KENORA A","6034076","2023-01-22 19:00","2023","01","22","19:00","-9.6","","-11.5","","86","","","","19","","18","","32.2","","95.90","","","","-17","","NA"
"-94.36","49.79","KENORA A","6034076","2023-01-22 20:00","2023","01","22","20:00","-9.4","","-11.3","","86","","","","20","","18","","24.1","","95.86","","","","-17","","NA"
"-94.36","49.79","KENORA A","6034076","2023-01-22 21:00","2023","01","22","21:00","-8.4","","-10.3","","86","","","","20","","23","","24.1","","95.79","","","","-16","","Mostly Cloudy"
"-94.36","49.79","KENORA A","6034076","2023-01-22 22:00","2023","01","22","22:00","-8.1","","-9.9","","87","","","","20","","23","","24.1","","95.73","","","","-16","","NA"
"-94.36","49.79","KENORA A","6034076","2023-01-22 23:00","2023","01","22","23:00","-8.2","","-9.7","","89","","","","20","","27","","24.1","","95.66","","","","-17","","NA"
"-94.36","49.79","KENORA A","6034076","2023-01-23 00:00","2023","01","23","00:00","-8.0","","-9.5","","89","","","","20","","23","","24.1","","95.62","","","","-16","","Cloudy"
"-94.36","49.79","KENORA A","6034076","2023-01-23 01:00","2023","01","23","01:00","-8.2","","-9.6","","90","","","","22","","18","","3.2","","95.65","","","","-15","","Snow"
"-94.36","49.79","KENORA A","6034076","2023-01-23 02:00","2023","01","23","02:00","-8.6","","-9.9","","90","","","","21","","17","","1.6","","95.66","","","","-15","","Snow"
"-94.36","49.79","KENORA A","6034076","2023-01-23 03:00","2023","01","23","03:00","-8.6","","-9.8","","91","","","","23","","13","","1.6","","95.70","","","","-15","","Snow"
"-94.36","49.79","KENORA A","6034076","2023-01-23 04:00","2023","01","23","04:00","-8.2","","-9.4","","91","","","","25","","13","","2.4","","95.72","","","","-14","","Snow"
"-94.36","49.79","KENORA A","6034076","2023-01-23 05:00","2023","01","23","05:00","-7.8","","-9.0","","91","","","","27","","12","","2.4","","95.74","","","","-13","","Snow"
"-94.36","49.79","KENORA A","6034076","2023-01-23 06:00","2023","01","23","06:00","-7.2","","-8.4","","92","","","","29","","14","","2.4","","95.80","","","","-13","","Snow,Blowing Snow"
"-94.36","49.79","KENORA A","6034076","2023-01-23 07:00","2023","01","23","07:00","-6.8","","-7.8","","92","","","","30","","12","","2.4","","95.82","","","","-12","","Snow,Blowing Snow"
"-94.36","49.79","KENORA A","6034076","2023-01-23 08:00","2023","01","23","08:00","-6.5","","-7.5","","93","","","","29","","10","","2.4","","95.88","","","","-11","","Snow,Blowing Snow"
"-94.36","49.79","KENORA A","6034076","2023-01-23 09:00","2023","01","23","09:00","-6.2","","-7.0","","94","","","","29","","12","","16.1","","95.92","","","","-11","","Snow,Blowing Snow"
"-94.36","49.79","KENORA A","6034076","2023-01-23 10:00","2023","01","23","10:00","-5.4","","-6.3","","93","","","","30","","8","","9.7","","95.93","","","","-9","","Snow"
"-94.36","49.79","KENORA A","6034076","2023-01-23 11:00","2023","01","23","11:00","-4.5","","-5.7","","92","","","","29","","12","","12.9","","96.00","","","","-9","","Snow"
"-94.36","49.79","KENORA A","6034076","2023-01-23 12:00","2023","01","23","12:00","-3.9","","-5.2","","90","","","","28","","8","","12.9","","95.95","","","","-7","","Snow"
"-94.36","49.79","KENORA A","6034076","2023-01-23 13:00","2023","01","23","13:00","-3.5","","-5.5","","86","","","","31","","13","","24.1","","95.94","","","","-8","","Snow"
"-94.36","49.79","KENORA A","6034076","2023-01-23 14:00","2023","01","23","14:00","-4.3","","-6.2","","86","","","","32","","22","","24.1","","95.98","","","","-11","","Snow,Blowing Snow"
"-94.36","49.79","KENORA A","6034076","2023-01-23 15:00","2023","01","23","15:00","-5.5","","-7.1","","88","","","","32","","17","","24.1","","96.04","","","","-12","","Snow,Blowing Snow"
"-94.36","49.79","KENORA A","6034076","2023-01-23 16:00","2023","01","23","16:00","-6.3","","-7.4","","92","","","","35","","13","","24.1","","96.10","","","","-12","","Snow,Blowing Snow"
"-94.36","49.79","KENORA A","6034076","2023-01-23 17:00","2023","01","23","17:00","-7.8","","-9.2","","90","","","","34","","20","","19.3","","96.22","","","","-15","","Snow,Blowing Snow"
"-94.36","49.79","KENORA A","6034076","2023-01-23 18:00","2023","01","23","18:00","-8.6","","-10.6","","85","","","","34","","16","","24.1","","96.27","","","","-15","","Snow"
"-94.36","49.79","KENORA A","6034076","2023-01-23 19:00","2023","01","23","19:00","-9.2","","-11.2","","85","","","","33","","17","","24.1","","96.32","","","","-16","","Snow"
"-94.36","49.79","KENORA A","6034076","2023-01-23 20:00","2023","01","23","20:00","-9.7","","-12.3","","82","","","","33","","13","","24.1","","96.40","","","","-16","","Snow"
"-94.36","49.79","KENORA A","6034076","2023-01-23 21:00","2023","01","23","21:00","-10.3","","-12.5","","84","","","","34","","9","","19.3","","96.43","","","","-15","","Snow"
"-94.36","49.79","KENORA A","6034076","2023-01-23 22:00","2023","01","23","22:00","-11.1","","-13.3","","84","","","","33","","10","","19.3","","96.46","","","","-17","","Snow"
"-94.36","49.79","KENORA A","6034076","2023-01-23 23:00","2023","01","23","23:00","-11.9","","-14.0","","84","","","","32","","13","","24.1","","96.51","","","","-19","","Snow"
"-94.36","49.79","KENORA A","6034076","2023-01-24 00:00","2023","01","24","00:00","-12.3","","-14.3","","85","","","","32","","8","","24.1","","96.58","","","","-17","","Snow"
"-94.36","49.79","KENORA A","6034076","2023-01-24 01:00","2023","01","24","01:00","-12.8","","-14.8","","85","","","","35","","7","","24.1","","96.60","","","","-17","","Snow"
"-94.36","49.79","KENORA A","6034076","2023-01-24 02:00","2023","01","24","02:00","-13.1","","-15.0","","86","","","","34","","10","","24.1","","96.61","","","","-19","","Snow"
"-94.36","49.79","KENORA A","6034076","2023-01-24 03:00","2023","01","24","03:00","-13.2","","-15.0","","86","","","","36","","3","","19.3","","96.65","","","","-15","","Snow"
"-94.36","49.79","KENORA A","6034076","2023-01-24 04:00","2023","01","24","04:00","-13.3","","-15.2","","86","","","","3","","3","","24.1","","96.65","","","","-15","","Snow"
"-94.36","49.79","KENORA A","6034076","2023-01-24 05:00","2023","01","24","05:00","-13.4","","-15.1","","87","","","","19","","3","","19.3","","96.67","","","","-15","","Snow"
"-94.36","49.79","KENORA A","6034076","2023-01-24 06:00","2023","01","24","06:00","-13.5","","-15.3","","86","","","","36","","2","","19.3","","96.67","","","","-15","","Snow"
"-94.36","49.79","KENORA A","6034076","2023-01-24 07:00","2023","01","24","07:00","-13.5","","-15.3","","87","","","","36","","2","","16.1","","96.69","","","","-15","","Snow"
"-94.36","49.79","KENORA A","6034076","2023-01-24 08:00","2023","01","24","08:00","-13.5","","-15.2","","87","","","","6","","4","","19.3","","96.68","","","","-16","","Snow"
"-94.36","49.79","KENORA A","6034076","2023-01-24 09:00","2023","01","24","09:00","-13.4","","-15.1","","87","","","","8","","4","","1.6","","96.71","","","","-16","","Snow,Fog"
"-94.36","49.79","KENORA A","6034076","2023-01-24 10:00","2023","01","24","10:00","-13.3","","-15.3","","85","","","","7","","8","","1.6","","96.71","","","","-18","","Snow,Fog"
"-94.36","49.79","KENORA A","6034076","2023-01-24 11:00","2023","01","24","11:00","-12.3","","-14.8","","82","","","","9","","7","","24.1","","96.74","","","","-17","","Snow"
"-94.36","49.79","KENORA A","6034076","2023-01-24 12:00","2023","01","24","12:00","-10.8","","-13.8","","79","","","","10","","7","","24.1","","96.69","","","","-15","","Mostly Cloudy"
"-94.36","49.79","KENORA A","6034076","2023-01-24 13:00","2023","01","24","13:00","-10.0","","-13.2","","78","","","","36","","5","","24.1","","96.68","","","","-13","","NA"
"-94.36","49.79","KENORA A","6034076","2023-01-24 14:00","2023","01","24","14:00","-9.9","","-12.9","","79","","","","2","","7","","24.1","","96.64","","","","-14","","Snow"
"-94.36","49.79","KENORA A","6034076","2023-01-24 15:00","2023","01","24","15:00","-9.7","","-12.3","","81","","","","3","","9","","6.4","","96.65","","","","-15","","Snow"
"-94.36","49.79","KENORA A","6034076","2023-01-24 16:00","2023","01","24","16:00","-9.7","","-11.9","","84","","","","4","","10","","4.0","","96.69","","","","-15","","Snow,Fog"
"-94.36","49.79","KENORA A","6034076","2023-01-24 17:00","2023","01","24","17:00","-9.9","","-11.8","","86","","","","4","","11","","4.8","","96.74","","","","-15","","Snow,Fog"
"-94.36","49.79","KENORA A","6034076","2023-01-24 18:00","2023","01","24","18:00","-10.5","","-12.2","","87","","","","5","","12","","4.8","","96.76","","","","-17","","Snow"
"-94.36","49.79","KENORA A","6034076","2023-01-24 19:00","2023","01","24","19:00","-11.1","","-13.0","","86","","","","4","","11","","24.1","","96.78","","","","-17","","Snow"
"-94.36","49.79","KENORA A","6034076","2023-01-24 20:00","2023","01","24","20:00","-12.4","","-14.0","","88","","","","3","","12","","24.1","","96.78","","","","-19","","Snow"
"-94.36","49.79","KENORA A","6034076","2023-01-24 21:00","2023","01","24","21:00","-12.7","","-14.3","","88","","","","2","","15","","24.1","","96.80","","","","-20","","Snow"
"-94.36","49.79","KENORA A","6034076","2023-01-24 22:00","2023","01","24","22:00","-13.7","","-15.5","","86","","","","4","","13","","24.1","","96.83","","","","-21","","Snow"
"-94.36","49.79","KENORA A","6034076","2023-01-24 23:00","2023","01","24","23:00","-15.4","","-17.1","","87","","","","2","","12","","24.1","","96.84","","","","-22","","NA"
"-94.36","49.79","KENORA A","6034076","2023-01-25 00:00","2023","01","25","00:00","-16.6","","-18.4","","86","","","","2","","12","","24.1","","96.83","","","","-24","","Snow"
"-94.36","49.79","KENORA A","6034076","2023-01-25 01:00","2023","01","25","01:00","-17.7","","-19.6","","85","","","","1","","12","","24.1","","96.84","","","","-25","","NA"
"-94.36","49.79","KENORA A","6034076","2023-01-25 02:00","2023","01","25","02:00","-18.3","","-20.3","","85","","","","1","","13","","24.1","","96.88","","","","-26","","NA"
"-94.36","49.79","KENORA A","6034076","2023-01-25 03:00","2023","01","25","03:00","-18.1","","-20.1","","85","","","","36","","14","","24.1","","96.89","","","","-26","","Mostly Cloudy"
"-94.36","49.79","KENORA A","6034076","2023-01-25 04:00","2023","01","25","04:00","-18.2","","-20.1","","86","","","","35","","11","","24.1","","96.94","","","","-25","","NA"
"-94.36","49.79","KENORA A","6034076","2023-01-25 05:00","2023","01","25","05:00","-17.5","","-19.3","","86","","","","36","","10","","24.1","","96.94","","","","-24","","Snow"
"-94.36","49.79","KENORA A","6034076","2023-01-25 06:00","2023","01","25","06:00","-17.1","","-19.1","","85","","","","35","","9","","24.1","","96.94","","","","-23","","Snow"
"-94.36","49.79","KENORA A","6034076","2023-01-25 07:00","2023","01","25","07:00","-17.1","","-19.0","","86","","","","34","","8","","24.1","","96.93","","","","-23","","Snow"
"-94.36","49.79","KENORA A","6034076","2023-01-25 08:00","2023","01","25","08:00","-17.2","","-18.9","","87","","","","1","","15","","4.8","","96.92","","","","-26","","Snow,Fog"
"-94.36","49.79","KENORA A","6034076","2023-01-25 09:00","2023","01","25","09:00","-17.7","","-19.4","","86","","","","1","","13","","12.9","","96.96","","","","-26","","Snow"
"-94.36","49.79","KENORA A","6034076","2023-01-25 10:00","2023","01","25","10:00","-18.2","","-20.2","","84","","","","2","","8","","24.1","","96.96","","","","-24","","NA"
"-94.36","49.79","KENORA A","6034076","2023-01-25 11:00","2023","01","25","11:00","-17.4","","-19.6","","84","","","","33","","9","","32.2","","96.98","","","","-24","","NA"
"-94.36","49.79","KENORA A","6034076","2023-01-25 12:00","2023","01","25","12:00","-15.7","","-18.0","","83","","","","36","","8","","32.2","","96.92","","","","-21","","Mainly Clear"
"-94.36","49.79","KENORA A","6034076","2023-01-25 13:00","2023","01","25","13:00","-14.0","","-16.8","","80","","","","36","","11","","32.2","","96.85","","","","-20","","NA"
"-94.36","49.79","KENORA A","6034076","2023-01-25 14:00","2023","01","25","14:00","-12.8","","-16.6","","73","","","","32","","9","","32.2","","96.82","","","","-18","","NA"
"-94.36","49.79","KENORA A","6034076","2023-01-25 15:00","2023","01","25","15:00","-12.2","","-16.8","","69","","","","33","","12","","32.2","","96.84","","","","-19","","Mainly Clear"
"-94.36","49.79","KENORA A","6034076","2023-01-25 16:00","2023","01","25","16:00","-12.4","","-17.4","","67","","","","35","","9","","32.2","","96.88","","","","-18","","NA"
"-94.36","49.79","KENORA A","6034076","2023-01-25 17:00","2023","01","25","17:00","-13.7","","-17.2","","75","","","","31","","10","","32.2","","96.91","","","","-20","","NA"
"-94.36","49.79","KENORA A","6034076","2023-01-25 18:00","2023","01","25","18:00","-14.9","","-18.0","","77","","","","33","","9","","32.2","","96.92","","","","-21","","Mainly Clear"
"-94.36","49.79","KENORA A","6034076","2023-01-25 19:00","2023","01","25","19:00","-15.4","","-18.9","","75","","","","33","","9","","32.2","","96.92","","","","-21","","NA"
"-94.36","49.79","KENORA A","6034076","2023-01-25 20:00","2023","01","25","20:00","-15.5","","-19.3","","73","","","","32","","10","","32.2","","96.92","","","","-22","","NA"
"-94.36","49.79","KENORA A","6034076","2023-01-25 21:00","2023","01","25","21:00","-15.7","","-18.8","","78","","","","33","","10","","32.2","","96.91","","","","-22","","Mostly Cloudy"
"-94.36","49.79","KENORA A","6034076","2023-01-25 22:00","2023","01","25","22:00","-16.1","","-19.5","","76","","","","33","","13","","32.2","","96.89","","","","-24","","NA"
"-94.36","49.79","KENORA A","6034076","2023-01-25 23:00","2023","01","25","23:00","-16.4","","-19.5","","78","","","","1","","7","","32.2","","96.89","","","","-21","","NA"
"-94.36","49.79","KENORA A","6034076","2023-01-26 00:00","2023","01","26","00:00","-16.5","","-19.3","","79","","","","34","","8","","32.2","","96.90","","","","-22","","Cloudy"
"-94.36","49.79","KENORA A","6034076","2023-01-26 01:00","2023","01","26","01:00","-16.2","","-19.5","","76","","","","33","","8","","32.2","","96.88","","","","-22","","NA"
"-94.36","49.79","KENORA A","6034076","2023-01-26 02:00","2023","01","26","02:00","-16.8","","-19.4","","80","","","","33","","9","","32.2","","96.88","","","","-23","","NA"
"-94.36","49.79","KENORA A","6034076","2023-01-26 03:00","2023","01","26","03:00","-17.0","","-19.5","","81","","","","34","","8","","32.2","","96.90","","","","-23","","Mostly Cloudy"
"-94.36","49.79","KENORA A","6034076","2023-01-26 04:00","2023","01","26","04:00","-16.8","","-19.5","","80","","","","33","","8","","32.2","","96.84","","","","-22","","NA"
"-94.36","49.79","KENORA A","6034076","2023-01-26 05:00","2023","01","26","05:00","-16.9","","-19.2","","83","","","","32","","9","","32.2","","96.80","","","","-23","","NA"
"-94.36","49.79","KENORA A","6034076","2023-01-26 06:00","2023","01","26","06:00","-16.6","","-18.9","","83","","","","32","","9","","32.2","","96.77","","","","-23","","Cloudy"
"-94.36","49.79","KENORA A","6034076","2023-01-26 07:00","2023","01","26","07:00","-16.3","","-18.6","","83","","","","31","","5","","24.1","","96.73","","","","-20","","Snow"
"-94.36","49.79","KENORA A","6034076","2023-01-26 08:00","2023","01","26","08:00","-16.9","","-19.0","","84","","","","36","","3","","24.1","","96.62","","","","-19","","Snow"
"-94.36","49.79","KENORA A","6034076","2023-01-26 09:00","2023","01","26","09:00","-16.4","","-18.5","","83","","","","18","","7","","32.2","","96.56","","","","-21","","Snow"
"-94.36","49.79","KENORA A","6034076","2023-01-26 10:00","2023","01","26","10:00","-15.8","","-18.2","","82","","","","19","","13","","19.3","","96.45","","","","-23","","Snow"
"-94.36","49.79","KENORA A","6034076","2023-01-26 11:00","2023","01","26","11:00","-15.3","","-18.2","","79","","","","20","","11","","16.1","","96.35","","","","-22","","Snow"
"-94.36","49.79","KENORA A","6034076","2023-01-26 12:00","2023","01","26","12:00","-14.6","","-18.0","","76","","","","18","","13","","19.3","","96.23","","","","-22","","Snow"
"-94.36","49.79","KENORA A","6034076","2023-01-26 13:00","2023","01","26","13:00","-13.8","","-17.2","","76","","","","19","","13","","19.3","","96.06","","","","-21","","Snow"
"-94.36","49.79","KENORA A","6034076","2023-01-26 14:00","2023","01","26","14:00","-13.3","","-16.6","","76","","","","18","","16","","19.3","","95.95","","","","-21","","Snow"
"-94.36","49.79","KENORA A","6034076","2023-01-26 15:00","2023","01","26","15:00","-13.2","","-16.5","","77","","","","17","","20","","19.3","","95.74","","","","-22","","Snow"
"-94.36","49.79","KENORA A","6034076","2023-01-26 16:00","2023","01","26","16:00","-13.0","","-16.1","","78","","","","16","","18","","19.3","","95.64","","","","-21","","Snow"
"-94.36","49.79","KENORA A","6034076","2023-01-26 17:00","2023","01","26","17:00","-12.9","","-15.5","","81","","","","15","","22","","6.4","","95.52","","","","-22","","Snow"
"-94.36","49.79","KENORA A","6034076","2023-01-26 18:00","2023","01","26","18:00","-12.8","","-15.2","","82","","","","15","","19","","12.9","","95.42","","","","-21","","Snow"
"-94.36","49.79","KENORA A","6034076","2023-01-26 19:00","2023","01","26","19:00","-12.4","","-14.8","","83","","","","14","","16","","9.7","","95.28","","","","-20","","Snow"
"-94.36","49.79","KENORA A","6034076","2023-01-26 20:00","2023","01","26","20:00","-12.2","","-14.8","","81","","","","14","","19","","24.1","","95.15","","","","-20","","Snow"
"-94.36","49.79","KENORA A","6034076","2023-01-26 21:00","2023","01","26","21:00","-11.8","","-14.2","","82","","","","14","","21","","1.6","","94.96","","","","-20","","Snow"
"-94.36","49.79","KENORA A","6034076","2023-01-26 22:00","2023","01","26","22:00","-11.5","","-13.5","","85","","","","14","","22","","1.6","","94.83","","","","-20","","Snow"
"-94.36","49.79","KENORA A","6034076","2023-01-26 23:00","2023","01","26","23:00","-11.3","","-13.3","","86","","","","13","","19","","1.6","","94.75","","","","-19","","Snow"
"-94.36","49.79","KENORA A","6034076","2023-01-27 00:00","2023","01","27","00:00","-11.2","","-13.0","","87","","","","12","","18","","1.6","","94.65","","","","-19","","Snow,Blowing Snow"
"-94.36","49.79","KENORA A","6034076","2023-01-27 01:00","2023","01","27","01:00","-11.2","","-12.9","","87","","","","11","","15","","1.6","","94.59","","","","-18","","Snow,Blowing Snow"
"-94.36","49.79","KENORA A","6034076","2023-01-27 02:00","2023","01","27","02:00","-11.1","","-12.8","","87","","","","8","","9","","1.6","","94.58","","","","-16","","Snow,Blowing Snow"
"-94.36","49.79","KENORA A","6034076","2023-01-27 03:00","2023","01","27","03:00","-11.2","","-12.8","","88","","","","1","","9","","3.2","","94.57","","","","-16","","Snow"
"-94.36","49.79","KENORA A","6034076","2023-01-27 04:00","2023","01","27","04:00","-11.4","","-13.0","","88","","","","36","","12","","3.2","","94.61","","","","-18","","Snow"
"-94.36","49.79","KENORA A","6034076","2023-01-27 05:00","2023","01","27","05:00","-11.8","","-13.5","","87","","","","36","","12","","3.2","","94.62","","","","-18","","Snow"
"-94.36","49.79","KENORA A","6034076","2023-01-27 06:00","2023","01","27","06:00","-12.1","","-13.9","","87","","","","33","","17","","3.2","","94.68","","","","-20","","Snow"
"-94.36","49.79","KENORA A","6034076","2023-01-27 07:00","2023","01","27","07:00","-12.3","","-14.2","","86","","","","33","","21","","6.4","","94.77","","","","-21","","Snow"
"-94.36","49.79","KENORA A","6034076","2023-01-27 08:00","2023","01","27","08:00","-13.2","","-15.4","","83","","","","34","","25","","24.1","","94.89","","","","-23","","Snow,Blowing Snow"
"-94.36","49.79","KENORA A","6034076","2023-01-27 09:00","2023","01","27","09:00","-13.6","","-15.9","","82","","","","32","","23","","16.1","","95.04","","","","-23","","Snow,Blowing Snow"
"-94.36","49.79","KENORA A","6034076","2023-01-27 10:00","2023","01","27","10:00","-13.1","","-15.9","","80","","","","33","","24","","12.9","","95.14","","","","-23","","Snow,Blowing Snow"
"-94.36","49.79","KENORA A","6034076","2023-01-27 11:00","2023","01","27","11:00","-13.4","","-16.1","","80","","","","32","","24","","4.8","","95.23","","","","-23","","Snow,Blowing Snow"
"-94.36","49.79","KENORA A","6034076","2023-01-27 12:00","2023","01","27","12:00","-14.1","","-16.9","","80","","","","32","","25","","2.4","","95.27","","","","-24","","Snow,Blowing Snow"
"-94.36","49.79","KENORA A","6034076","2023-01-27 13:00","2023","01","27","13:00","-15.5","","-18.9","","75","","","","31","","22","","8.1","","95.39","","","","-25","","Snow,Blowing Snow"
"-94.36","49.79","KENORA A","6034076","2023-01-27 14:00","2023","01","27","14:00","-16.4","","-19.8","","76","","","","32","","24","","12.9","","95.48","","","","-27","","Snow,Blowing Snow"
"-94.36","49.79","KENORA A","6034076","2023-01-27 15:00","2023","01","27","15:00","-16.9","","-20.2","","76","","","","32","","24","","9.7","","95.64","","","","-27","","Snow,Blowing Snow"
"-94.36","49.79","KENORA A","6034076","2023-01-27 16:00","2023","01","27","16:00","-17.3","","-20.6","","76","","","","32","","12","","9.7","","95.80","","","","-25","","Snow,Blowing Snow"
"-94.36","49.79","KENORA A","6034076","2023-01-27 17:00","2023","01","27","17:00","-18.1","","-21.4","","75","","","","34","","21","","8.1","","95.96","","","","-28","","Snow,Blowing Snow"
"-94.36","49.79","KENORA A","6034076","2023-01-27 18:00","2023","01","27","18:00","-18.4","","-22.0","","74","","","","34","","17","","12.9","","96.09","","","","-28","","Snow,Blowing Snow"
"-94.36","49.79","KENORA A","6034076","2023-01-27 19:00","2023","01","27","19:00","-19.0","","-22.5","","75","","","","33","","15","","24.1","","96.22","","","","-28","","Snow,Blowing Snow"
"-94.36","49.79","KENORA A","6034076","2023-01-27 20:00","2023","01","27","20:00","-19.9","","-22.9","","77","","","","32","","16","","32.2","","96.34","","","","-29","","NA"
"-94.36","49.79","KENORA A","6034076","2023-01-27 21:00","2023","01","27","21:00","-20.7","","-23.6","","78","","","","33","","16","","32.2","","96.41","","","","-30","","Mainly Clear"
"-94.36","49.79","KENORA A","6034076","2023-01-27 22:00","2023","01","27","22:00","-21.0","","-23.6","","80","","","","31","","12","","32.2","","96.52","","","","-29","","NA"
"-94.36","49.79","KENORA A","6034076","2023-01-27 23:00","2023","01","27","23:00","-21.7","","-24.2","","80","","","","31","","14","","32.2","","96.64","","","","-31","","NA"
"-94.36","49.79","KENORA A","6034076","2023-01-28 00:00","2023","01","28","00:00","-22.8","","-25.4","","80","","","","33","","18","","32.2","","96.71","","","","-33","","Mostly Cloudy"
"-94.36","49.79","KENORA A","6034076","2023-01-28 01:00","2023","01","28","01:00","-24.2","","-26.8","","79","","","","32","","13","","32.2","","96.79","","","","-34","","NA"
"-94.36","49.79","KENORA A","6034076","2023-01-28 02:00","2023","01","28","02:00","-25.4","","-28.1","","79","","","","33","","15","","32.2","","96.85","","","","-36","","NA"
"-94.36","49.79","KENORA A","6034076","2023-01-28 03:00","2023","01","28","03:00","-26.4","","-29.2","","78","","","","28","","11","","32.2","","97.00","","","","-35","","Mainly Clear"
"-94.36","49.79","KENORA A","6034076","2023-01-28 04:00","2023","01","28","04:00","-27.2","","-30.1","","77","","","","30","","10","","32.2","","97.04","","","","-36","","NA"
"-94.36","49.79","KENORA A","6034076","2023-01-28 05:00","2023","01","28","05:00","-28.0","","-30.9","","77","","","","29","","9","","32.2","","97.10","","","","-36","","NA"
"-94.36","49.79","KENORA A","6034076","2023-01-28 06:00","2023","01","28","06:00","-28.7","","-31.6","","77","","","","31","","12","","32.2","","97.14","","","","-39","","Mainly Clear"
"-94.36","49.79","KENORA A","6034076","2023-01-28 07:00","2023","01","28","07:00","-29.3","","-32.3","","76","","","","28","","10","","32.2","","97.21","","","","-38","","NA"
"-94.36","49.79","KENORA A","6034076","2023-01-28 08:00","2023","01","28","08:00","-29.9","","-32.9","","75","","","","30","","12","","32.2","","97.30","","","","-40","","NA"
"-94.36","49.79","KENORA A","6034076","2023-01-28 09:00","2023","01","28","09:00","-29.2","","-32.2","","76","","","","28","","9","","32.2","","97.34","","","","-38","","Mainly Clear"
"-94.36","49.79","KENORA A","6034076","2023-01-28 10:00","2023","01","28","10:00","-26.9","","-29.9","","76","","","","28","","9","","32.2","","97.43","","","","-35","","NA"
"-94.36","49.79","KENORA A","6034076","2023-01-28 11:00","2023","01","28","11:00","-24.6","","-27.6","","76","","","","29","","11","","32.2","","97.47","","","","-33","","NA"
"-94.36","49.79","KENORA A","6034076","2023-01-28 12:00","2023","01","28","12:00","-23.2","","-26.7","","74","","","","29","","16","","32.2","","97.47","","","","-33","","Mainly Clear"
"-94.36","49.79","KENORA A","6034076","2023-01-28 13:00","2023","01","28","13:00","-22.1","","-26.3","","69","","","","28","","9","","19.3","","97.42","","","","-29","","Snow"
"-94.36","49.79","KENORA A","6034076","2023-01-28 14:00","2023","01","28","14:00","-21.8","","-26.2","","68","","","","30","","13","","4.8","","97.42","","","","-31","","Snow"
"-94.36","49.79","KENORA A","6034076","2023-01-28 15:00","2023","01","28","15:00","-20.7","","-26.1","","62","","","","28","","20","","9.7","","97.45","","","","-31","","Snow"
"-94.36","49.79","KENORA A","6034076","2023-01-28 16:00","2023","01","28","16:00","-21.5","","-26.3","","66","","","","28","","16","","9.7","","97.46","","","","-31","","Snow"
"-94.36","49.79","KENORA A","6034076","2023-01-28 17:00","2023","01","28","17:00","-22.0","","-26.3","","69","","","","28","","8","","32.2","","97.45","","","","-29","","NA"
"-94.36","49.79","KENORA A","6034076","2023-01-28 18:00","2023","01","28","18:00","-22.8","","-26.8","","70","","","","27","","11","","32.2","","97.46","","","","-31","","Clear"
"-94.36","49.79","KENORA A","6034076","2023-01-28 19:00","2023","01","28","19:00","-23.4","","-27.1","","73","","","","27","","10","","32.2","","97.48","","","","-31","","NA"
"-94.36","49.79","KENORA A","6034076","2023-01-28 20:00","2023","01","28","20:00","-24.7","","-27.5","","78","","","","26","","10","","32.2","","97.50","","","","-33","","NA"
"-94.36","49.79","KENORA A","6034076","2023-01-28 21:00","2023","01","28","21:00","-24.4","","-27.7","","75","","","","28","","9","","32.2","","97.49","","","","-32","","Clear"
"-94.36","49.79","KENORA A","6034076","2023-01-28 22:00","2023","01","28","22:00","-25.7","","-28.9","","75","","","","26","","11","","32.2","","97.50","","","","-34","","NA"
"-94.36","49.79","KENORA A","6034076","2023-01-28 23:00","2023","01","28","23:00","-27.8","","-30.8","","76","","","","24","","9","","32.2","","97.52","","","","-36","","NA"
"-94.36","49.79","KENORA A","6034076","2023-01-29 00:00","2023","01","29","00:00","-27.1","","-30.0","","77","","","","26","","8","","32.2","","97.49","","","","-35","","Clear"
"-94.36","49.79","KENORA A","6034076","2023-01-29 01:00","2023","01","29","01:00","-28.1","","-30.9","","77","","","","23","","8","","32.2","","97.45","","","","-36","","NA"
"-94.36","49.79","KENORA A","6034076","2023-01-29 02:00","2023","01","29","02:00","-28.8","","-31.7","","77","","","","24","","8","","32.2","","97.43","","","","-37","","NA"
"-94.36","49.79","KENORA A","6034076","2023-01-29 03:00","2023","01","29","03:00","-29.4","","-32.3","","76","","","","23","","8","","32.2","","97.43","","","","-37","","Clear"
"-94.36","49.79","KENORA A","6034076","2023-01-29 04:00","2023","01","29","04:00","-29.7","","-32.7","","76","","","","21","","12","","32.2","","97.40","","","","-40","","NA"
"-94.36","49.79","KENORA A","6034076","2023-01-29 05:00","2023","01","29","05:00","-30.5","","-33.6","","75","","","","22","","9","","32.2","","97.42","","","","-39","","NA"
"-94.36","49.79","KENORA A","6034076","2023-01-29 06:00","2023","01","29","06:00","-30.6","","-33.6","","75","","","","21","","9","","32.2","","97.42","","","","-39","","Mainly Clear"
"-94.36","49.79","KENORA A","6034076","2023-01-29 07:00","2023","01","29","07:00","-30.5","","-33.7","","75","","","","24","","9","","24.1","","97.40","","","","-39","","Snow"
"-94.36","49.79","KENORA A","6034076","2023-01-29 08:00","2023","01","29","08:00","-31.2","","-34.4","","74","","","","25","","12","","32.2","","97.41","","","","-42","","Ice Crystals"
"-94.36","49.79","KENORA A","6034076","2023-01-29 09:00","2023","01","29","09:00","-30.5","","-33.7","","74","","","","26","","12","","32.2","","97.47","","","","-41","","Ice Crystals"
"-94.36","49.79","KENORA A","6034076","2023-01-29 10:00","2023","01","29","10:00","-28.4","","-31.5","","75","","","","24","","8","","32.2","","97.51","","","","-36","","NA"
"-94.36","49.79","KENORA A","6034076","2023-01-29 11:00","2023","01","29","11:00","-25.8","","-28.9","","76","","","","22","","9","","32.2","","97.54","","","","-34","","NA"
"-94.36","49.79","KENORA A","6034076","2023-01-29 12:00","2023","01","29","12:00","-23.0","","-26.0","","77","","","","26","","10","","32.2","","97.50","","","","-31","","Mainly Clear"
"-94.36","49.79","KENORA A","6034076","2023-01-29 13:00","2023","01","29","13:00","-21.1","","-24.3","","76","","","","26","","8","","32.2","","97.43","","","","-28","","NA"
"-94.36","49.79","KENORA A","6034076","2023-01-29 14:00","2023","01","29","14:00","-20.2","","-26.7","","57","","","","28","","11","","32.2","","97.36","","","","-28","","NA"
"-94.36","49.79","KENORA A","6034076","2023-01-29 15:00","2023","01","29","15:00","-19.9","","-25.2","","63","","","","29","","10","","9.7","","97.35","","","","-27","","Ice Crystals"
"-94.36","49.79","KENORA A","6034076","2023-01-29 16:00","2023","01","29","16:00","-20.5","","-26.2","","61","","","","28","","13","","9.7","","97.36","","","","-29","","Ice Crystals"
"-94.36","49.79","KENORA A","6034076","2023-01-29 17:00","2023","01","29","17:00","-21.3","","-25.1","","72","","","","28","","8","","8.1","","97.36","","","","-28","","Ice Crystals"
"-94.36","49.79","KENORA A","6034076","2023-01-29 18:00","2023","01","29","18:00","-22.5","","-26.3","","72","","","","28","","9","","16.1","","97.34","","","","-30","","Ice Crystals"
"-94.36","49.79","KENORA A","6034076","2023-01-29 19:00","2023","01","29","19:00","-25.0","","-27.6","","80","","","","25","","5","","32.2","","97.35","","","","-30","","Ice Crystals"
"-94.36","49.79","KENORA A","6034076","2023-01-29 20:00","2023","01","29","20:00","-24.1","","-27.6","","73","","","","30","","9","","24.1","","97.38","","","","-32","","Snow"
"-94.36","49.79","KENORA A","6034076","2023-01-29 21:00","2023","01","29","21:00","-25.3","","-28.5","","75","","","","30","","11","","32.2","","97.36","","","","-34","","Snow"
"-94.36","49.79","KENORA A","6034076","2023-01-29 22:00","2023","01","29","22:00","-26.1","","-29.5","","73","","","","29","","9","","32.2","","97.36","","","","-34","","NA"
"-94.36","49.79","KENORA A","6034076","2023-01-29 23:00","2023","01","29","23:00","-26.9","","-30.2","","74","","","","27","","10","","32.2","","97.37","","","","-35","","NA"
"-94.36","49.79","KENORA A","6034076","2023-01-30 00:00","2023","01","30","00:00","-28.1","","-31.5","","74","","","","24","","6","","32.2","","97.37","","","","-34","","Mainly Clear"
"-94.36","49.79","KENORA A","6034076","2023-01-30 01:00","2023","01","30","01:00","-28.9","","-31.9","","76","","","","25","","7","","32.2","","97.35","","","","-36","","NA"
"-94.36","49.79","KENORA A","6034076","2023-01-30 02:00","2023","01","30","02:00","-29.5","","-32.4","","76","","","","22","","8","","32.2","","97.33","","","","-37","","Snow"
"-94.36","49.79","KENORA A","6034076","2023-01-30 03:00","2023","01","30","03:00","-30.4","","-33.5","","75","","","","20","","9","","32.2","","97.31","","","","-39","","Snow"
"-94.36","49.79","KENORA A","6034076","2023-01-30 04:00","2023","01","30","04:00","-30.9","","-34.0","","75","","","","22","","12","","32.2","","97.31","","","","-41","","Ice Crystals"
"-94.36","49.79","KENORA A","6034076","2023-01-30 05:00","2023","01","30","05:00","-31.6","","-34.8","","74","","","","23","","11","","32.2","","97.29","","","","-42","","Ice Crystals"
"-94.36","49.79","KENORA A","6034076","2023-01-30 06:00","2023","01","30","06:00","-32.5","","-35.9","","73","","","","22","","13","","32.2","","97.29","","","","-44","","Ice Crystals"
"-94.36","49.79","KENORA A","6034076","2023-01-30 07:00","2023","01","30","07:00","-32.8","","-36.2","","72","","","","23","","10","","24.1","","97.27","","","","-42","","Ice Crystals"
"-94.36","49.79","KENORA A","6034076","2023-01-30 08:00","2023","01","30","08:00","-32.9","","-36.4","","72","","","","23","","11","","24.1","","97.24","","","","-43","","Ice Crystals"
"-94.36","49.79","KENORA A","6034076","2023-01-30 09:00","2023","01","30","09:00","-32.7","","-36.1","","72","","","","22","","11","","40.2","","97.24","","","","-43","","Ice Crystals"
"-94.36","49.79","KENORA A","6034076","2023-01-30 10:00","2023","01","30","10:00","-30.1","","-33.5","","73","","","","22","","17","","24.1","","97.29","","","","-42","","Ice Crystals"
"-94.36","49.79","KENORA A","6034076","2023-01-30 11:00","2023","01","30","11:00","-29.0","","-32.4","","73","","","","21","","16","","24.1","","97.33","","","","-41","","Ice Crystals"
"-94.36","49.79","KENORA A","6034076","2023-01-30 12:00","2023","01","30","12:00","-27.5","","-30.9","","74","","","","21","","14","","24.1","","97.28","","","","-38","","Ice Crystals"
"-94.36","49.79","KENORA A","6034076","2023-01-30 13:00","2023","01","30","13:00","-26.1","","-29.5","","73","","","","22","","16","","24.1","","97.21","","","","-37","","Ice Crystals"
"-94.36","49.79","KENORA A","6034076","2023-01-30 14:00","2023","01","30","14:00","-24.2","","-28.0","","71","","","","21","","18","","24.1","","97.15","","","","-35","","Ice Crystals"
"-94.36","49.79","KENORA A","6034076","2023-01-30 15:00","2023","01","30","15:00","-23.2","","-27.9","","66","","","","19","","18","","32.2","","97.10","","","","-34","","Ice Crystals"
"-94.36","49.79","KENORA A","6034076","2023-01-30 16:00","2023","01","30","16:00","-23.1","","-27.6","","67","","","","21","","23","","32.2","","97.07","","","","-35","","Ice Crystals"
"-94.36","49.79","KENORA A","6034076","2023-01-30 17:00","2023","01","30","17:00","-23.8","","-28.0","","69","","","","19","","17","","32.2","","97.03","","","","-34","","Ice Crystals"
"-94.36","49.79","KENORA A","6034076","2023-01-30 18:00","2023","01","30","18:00","-24.3","","-27.9","","73","","","","19","","19","","32.2","","96.95","","","","-36","","Ice Crystals"
"-94.36","49.79","KENORA A","6034076","2023-01-30 19:00","2023","01","30","19:00","-24.5","","-28.1","","73","","","","20","","18","","32.2","","96.90","","","","-36","","NA"
"-94.36","49.79","KENORA A","6034076","2023-01-30 20:00","2023","01","30","20:00","-24.9","","-28.6","","72","","","","21","","24","","24.1","","96.84","","","","-38","","NA"
"-94.36","49.79","KENORA A","6034076","2023-01-30 21:00","2023","01","30","21:00","-25.6","","-29.1","","73","","","","20","","21","","24.1","","96.80","","","","-38","","Clear"
"-94.36","49.79","KENORA A","6034076","2023-01-30 22:00","2023","01","30","22:00","-25.4","","-28.9","","73","","","","21","","25","","24.1","","96.76","","","","-39","","NA"
"-94.36","49.79","KENORA A","6034076","2023-01-30 23:00","2023","01","30","23:00","-25.9","","-29.1","","75","","","","21","","18","","24.1","","96.76","","","","-37","","NA"
"-94.36","49.79","KENORA A","6034076","2023-01-31 00:00","2023","01","31","00:00","-26.7","","-29.7","","76","","","","20","","14","","24.1","","96.73","","","","-37","","Clear"
"-94.36","49.79","KENORA A","6034076","2023-01-31 01:00","2023","01","31","01:00","-26.6","","-29.6","","77","","","","20","","14","","24.1","","96.72","","","","-37","","NA"
"-94.36","49.79","KENORA A","6034076","2023-01-31 02:00","2023","01","31","02:00","-26.6","","-29.5","","77","","","","20","","12","","24.1","","96.68","","","","-36","","NA"
"-94.36","49.79","KENORA A","6034076","2023-01-31 03:00","2023","01","31","03:00","-26.5","","-29.3","","78","","","","21","","14","","24.1","","96.70","","","","-37","","Clear"
"-94.36","49.79","KENORA A","6034076","2023-01-31 04:00","2023","01","31","04:00","-26.9","","-29.7","","78","","","","21","","11","","24.1","","96.66","","","","-36","","NA"
"-94.36","49.79","KENORA A","6034076","2023-01-31 05:00","2023","01","31","05:00","-27.2","","-30.0","","78","","","","22","","9","","24.1","","96.71","","","","-35","","Ice Crystals"
"-94.36","49.79","KENORA A","6034076","2023-01-31 06:00","2023","01","31","06:00","-27.6","","-30.4","","78","","","","21","","10","","16.1","","96.68","","","","-36","","Ice Crystals"
"-94.36","49.79","KENORA A","6034076","2023-01-31 07:00","2023","01","31","07:00","-28.5","","-31.4","","77","","","","23","","10","","32.2","","96.69","","","","-37","","Ice Crystals"
"-94.36","49.79","KENORA A","6034076","2023-01-31 08:00","2023","01","31","08:00","-28.6","","-31.4","","78","","","","23","","8","","32.2","","96.66","","","","-36","","Ice Crystals"
"-94.36","49.79","KENORA A","6034076","2023-01-31 09:00","2023","01","31","09:00","-27.4","","-30.3","","77","","","","23","","11","","32.2","","96.69","","","","-37","","Ice Crystals"
"-94.36","49.79","KENORA A","6034076","2023-01-31 10:00","2023","01","31","10:00","-25.8","","-28.8","","77","","","","23","","9","","32.2","","96.73","","","","-34","","Ice Crystals"
"-94.36","49.79","KENORA A","6034076","2023-01-31 11:00","2023","01","31","11:00","-23.5","","-26.5","","77","","","","21","","8","","32.2","","96.74","","","","-30","","Ice Crystals"
"-94.36","49.79","KENORA A","6034076","2023-01-31 12:00","2023","01","31","12:00","-22.2","","-25.6","","74","","","","21","","10","","32.2","","96.72","","","","-30","","Mainly Clear"
"-94.36","49.79","KENORA A","6034076","2023-01-31 13:00","2023","01","31","13:00","-21.9","","-25.8","","71","","","","19","","11","","32.2","","96.71","","","","-30","","NA"
"-94.36","49.79","KENORA A","6034076","2023-01-31 14:00","2023","01","31","14:00","-20.9","","-25.5","","67","","","","19","","8","","32.2","","96.64","","","","-27","","NA"
"-94.36","49.79","KENORA A","6034076","2023-01-31 15:00","2023","01","31","15:00","-19.8","","-24.7","","65","","","","22","","9","","32.2","","96.60","","","","-27","","Mostly Cloudy"
"-94.36","49.79","KENORA A","6034076","2023-01-31 16:00","2023","01","31","16:00","-19.7","","-24.5","","66","","","","19","","11","","32.2","","96.60","","","","-27","","NA"
"-94.36","49.79","KENORA A","6034076","2023-01-31 17:00","2023","01","31","17:00","-20.9","","-25.3","","68","","","","19","","10","","32.2","","96.62","","","","-28","","NA"
"-94.36","49.79","KENORA A","6034076","2023-01-31 18:00","2023","01","31","18:00","-22.9","","-26.5","","73","","","","21","","14","","32.2","","96.66","","","","-32","","Mainly Clear"
"-94.36","49.79","KENORA A","6034076","2023-01-31 19:00","2023","01","31","19:00","-23.6","","-27.2","","73","","","","20","","12","","32.2","","96.68","","","","-32","","NA"
"-94.36","49.79","KENORA A","6034076","2023-01-31 20:00","2023","01","31","20:00","-24.5","","-27.8","","75","","","","22","","13","","24.1","","96.68","","","","-34","","NA"
"-94.36","49.79","KENORA A","6034076","2023-01-31 21:00","2023","01","31","21:00","-24.9","","-27.9","","76","","","","26","","12","","24.1","","96.67","","","","-34","","Clear"
"-94.36","49.79","KENORA A","6034076","2023-01-31 22:00","2023","01","31","22:00","-25.5","","-28.4","","78","","","","26","","8","","24.1","","96.67","","","","-33","","NA"
"-94.36","49.79","KENORA A","6034076","2023-01-31 23:00","2023","01","31","23:00","-26.0","","-28.8","","78","","","","25","","7","","19.3","","96.71","","","","-33","","NA"
