"Longitude (x)","Latitude (y)","Station Name","Climate ID","Date/Time (LST)","Year","Month","Day","Time (LST)","Temp (°C)","Temp Flag","Dew Point Temp (°C)","Dew Point Temp Flag","Rel Hum (%)","Rel Hum Flag","Precip. Amount (mm)","Precip. Amount Flag","Wind Dir (10s deg)","Wind Dir Flag","Wind Spd (km/h)","Wind Spd Flag","Visibility (km)","Visibility Flag","Stn Press (kPa)","Stn Press Flag","Hmdx","Hmdx Flag","Wind Chill","Wind Chill Flag","Weather"
"-94.36","49.79","KENORA A","6034076","2023-02-01 00:00","2023","02","01","00:00","-27.2","","-30.1","","76","","","","25","","7","","19.3","","96.71","","","","-34","","Mainly Clear"
"-94.36","49.79","KENORA A","6034076","2023-02-01 01:00","2023","02","01","01:00","-26.9","","-29.8","","77","","","","25","","5","","19.3","","96.68","","","","-32","","NA"
"-94.36","49.79","KENORA A","6034076","2023-02-01 02:00","2023","02","01","02:00","-27.4","","-30.2","","77","","","","23","","5","","24.1","","96.69","","","","-33","","NA"
"-94.36","49.79","KENORA A","6034076","2023-02-01 03:00","2023","02","01","03:00","-27.8","","-30.6","","77","","","","24","","8","","24.1","","96.69","","","","-35","","Mainly Clear"
"-94.36","49.79","KENORA A","6034076","2023-02-01 04:00","2023","02","01","04:00","-28.9","","-32.2","","74","","","","24","","8","","8.1","","96.72","","","","-37","","Fog"
"-94.36","49.79","KENORA A","6034076","2023-02-01 05:00","2023","02","01","05:00","-28.6","","-31.9","","74","","","","23","","8","","8.1","","96.72","","","","-36","","Fog"
"-94.36","49.79","KENORA A","6034076","2023-02-01 06:00","2023","02","01","06:00","-29.1","","-32.2","","75","","","","23","","9","","16.1","","96.73","","","","-38","","Mainly Clear"
"-94.36","49.79","KENORA A","6034076","2023-02-01 07:00","2023","02","01","07:00","-28.7","","-31.8","","75","","","","23","","11","","32.2","","96.74","","","","-38","","NA"
"-94.36","49.79","KENORA A","6034076","2023-02-01 08:00","2023","02","01","08:00","-28.5","","-31.7","","75","","","","22","","10","","32.2","","96.72","","","","-37","","NA"
"-94.36","49.79","KENORA A","6034076","2023-02-01 09:00","2023","02","01","09:00","-27.7","","-30.9","","75","","","","22","","9","","32.2","","96.75","","","","-36","","Mostly Cloudy"
"-94.36","49.79","KENORA A","6034076","2023-02-01 10:00","2023","02","01","10:00","-25.0","","-28.0","","77","","","","20","","9","","16.1","","96.75","","","","-33","","Snow"
"-94.36","49.79","KENORA A","6034076","2023-02-01 11:00","2023","02","01","11:00","-22.4","","-25.2","","78","","","","22","","12","","24.1","","96.75","","","","-31","","Ice Crystals"
"-94.36","49.79","KENORA A","6034076","2023-02-01 12:00","2023","02","01","12:00","-20.2","","-22.8","","80","","","","22","","12","","16.1","","96.72","","","","-28","","Snow"
"-94.36","49.79","KENORA A","6034076","2023-02-01 13:00","2023","02","01","13:00","-19.6","","-22.2","","80","","","","20","","12","","24.1","","96.63","","","","-28","","Snow"
"-94.36","49.79","KENORA A","6034076","2023-02-01 14:00","2023","02","01","14:00","-19.1","","-22.1","","78","","","","19","","13","","32.2","","96.57","","","","-27","","NA"
"-94.36","49.79","KENORA A","6034076","2023-02-01 15:00","2023","02","01","15:00","-17.9","","-22.1","","70","","","","21","","14","","32.2","","96.54","","","","-26","","Mainly Clear"
"-94.36","49.79","KENORA A","6034076","2023-02-01 16:00","2023","02","01","16:00","-17.5","","-21.5","","72","","","","18","","14","","32.2","","96.43","","","","-26","","NA"
"-94.36","49.79","KENORA A","6034076","2023-02-01 17:00","2023","02","01","17:00","-18.1","","-21.6","","74","","","","21","","10","","32.2","","96.47","","","","-25","","NA"
"-94.36","49.79","KENORA A","6034076","2023-02-01 18:00","2023","02","01","18:00","-18.2","","-21.2","","78","","","","19","","10","","32.2","","96.37","","","","-25","","Mainly Clear"
"-94.36","49.79","KENORA A","6034076","2023-02-01 19:00","2023","02","01","19:00","-18.4","","-21.0","","81","","","","19","","12","","32.2","","96.31","","","","-26","","NA"
"-94.36","49.79","KENORA A","6034076","2023-02-01 20:00","2023","02","01","20:00","-18.7","","-21.1","","82","","","","23","","9","","24.1","","96.28","","","","-25","","NA"
"-94.36","49.79","KENORA A","6034076","2023-02-01 21:00","2023","02","01","21:00","-17.9","","-20.4","","81","","","","25","","10","","24.1","","96.22","","","","-25","","Mostly Cloudy"
"-94.36","49.79","KENORA A","6034076","2023-02-01 22:00","2023","02","01","22:00","-17.0","","-19.4","","82","","","","28","","13","","2.4","","96.21","","","","-25","","Snow"
"-94.36","49.79","KENORA A","6034076","2023-02-01 23:00","2023","02","01","23:00","-16.5","","-18.9","","82","","","","30","","13","","2.8","","96.24","","","","-24","","Snow"
"-94.36","49.79","KENORA A","6034076","2023-02-02 00:00","2023","02","02","00:00","-17.8","","-21.4","","74","","","","32","","21","","19.3","","96.37","","","","-28","","Mostly Cloudy"
"-94.36","49.79","KENORA A","6034076","2023-02-02 01:00","2023","02","02","01:00","-19.0","","-22.9","","71","","","","33","","19","","24.1","","96.48","","","","-29","","NA"
"-94.36","49.79","KENORA A","6034076","2023-02-02 02:00","2023","02","02","02:00","-21.7","","-25.8","","70","","","","34","","29","","24.1","","96.64","","","","-35","","NA"
"-94.36","49.79","KENORA A","6034076","2023-02-02 03:00","2023","02","02","03:00","-24.2","","-27.7","","73","","","","32","","27","","24.1","","96.82","","","","-37","","Mainly Clear"
"-94.36","49.79","KENORA A","6034076","2023-02-02 04:00","2023","02","02","04:00","-25.9","","-30.0","","69","","","","33","","23","","24.1","","96.95","","","","-39","","NA"
"-94.36","49.79","KENORA A","6034076","2023-02-02 05:00","2023","02","02","05:00","-26.8","","-30.9","","69","","","","33","","20","","24.1","","97.08","","","","-39","","NA"
"-94.36","49.79","KENORA A","6034076","2023-02-02 06:00","2023","02","02","06:00","-27.6","","-31.4","","71","","","","32","","18","","24.1","","97.23","","","","-39","","Clear"
"-94.36","49.79","KENORA A","6034076","2023-02-02 07:00","2023","02","02","07:00","-28.4","","-32.1","","71","","","","32","","19","","32.2","","97.35","","","","-41","","NA"
"-94.36","49.79","KENORA A","6034076","2023-02-02 08:00","2023","02","02","08:00","-28.9","","-32.8","","70","","","","31","","18","","8.1","","97.47","","","","-41","","Fog"
"-94.36","49.79","KENORA A","6034076","2023-02-02 09:00","2023","02","02","09:00","-28.9","","-33.1","","68","","","","32","","21","","3.2","","97.58","","","","-42","","Ice Crystals,Blowing Snow"
"-94.36","49.79","KENORA A","6034076","2023-02-02 10:00","2023","02","02","10:00","-28.5","","-33.3","","64","","","","32","","22","","8.1","","97.66","","","","-42","","Ice Crystals,Blowing Snow"
"-94.36","49.79","KENORA A","6034076","2023-02-02 11:00","2023","02","02","11:00","-27.8","","-33.2","","61","","","","32","","19","","12.9","","97.78","","","","-40","","Ice Crystals,Blowing Snow"
"-94.36","49.79","KENORA A","6034076","2023-02-02 12:00","2023","02","02","12:00","-26.7","","-32.6","","59","","","","32","","18","","16.1","","97.86","","","","-38","","Ice Crystals,Blowing Snow"
"-94.36","49.79","KENORA A","6034076","2023-02-02 13:00","2023","02","02","13:00","-26.1","","-32.5","","55","","","","32","","18","","32.2","","97.89","","","","-38","","Ice Crystals,Blowing Snow"
"-94.36","49.79","KENORA A","6034076","2023-02-02 14:00","2023","02","02","14:00","-25.4","","-32.3","","54","","","","31","","22","","32.2","","97.92","","","","-38","","Ice Crystals,Blowing Snow"
"-94.36","49.79","KENORA A","6034076","2023-02-02 15:00","2023","02","02","15:00","-24.9","","-31.9","","53","","","","29","","18","","32.2","","97.95","","","","-36","","Ice Crystals,Blowing Snow"
"-94.36","49.79","KENORA A","6034076","2023-02-02 16:00","2023","02","02","16:00","-25.3","","-32.0","","55","","","","29","","20","","32.2","","98.02","","","","-37","","Ice Crystals,Blowing Snow"
"-94.36","49.79","KENORA A","6034076","2023-02-02 17:00","2023","02","02","17:00","-26.3","","-32.4","","57","","","","31","","10","","32.2","","98.09","","","","-35","","Ice Crystals,Blowing Snow"
"-94.36","49.79","KENORA A","6034076","2023-02-02 18:00","2023","02","02","18:00","-27.5","","-32.9","","61","","","","31","","11","","32.2","","98.16","","","","-37","","Ice Crystals,Blowing Snow"
"-94.36","49.79","KENORA A","6034076","2023-02-02 19:00","2023","02","02","19:00","-28.4","","-33.0","","66","","","","28","","14","","32.2","","98.17","","","","-39","","Ice Crystals,Blowing Snow"
"-94.36","49.79","KENORA A","6034076","2023-02-02 20:00","2023","02","02","20:00","-28.8","","-33.4","","66","","","","29","","15","","24.1","","98.20","","","","-40","","NA"
"-94.36","49.79","KENORA A","6034076","2023-02-02 21:00","2023","02","02","21:00","-29.4","","-33.8","","67","","","","28","","10","","24.1","","98.24","","","","-38","","Mainly Clear"
"-94.36","49.79","KENORA A","6034076","2023-02-02 22:00","2023","02","02","22:00","-29.8","","-33.9","","68","","","","28","","11","","24.1","","98.27","","","","-39","","NA"
"-94.36","49.79","KENORA A","6034076","2023-02-02 23:00","2023","02","02","23:00","-29.9","","-34.0","","69","","","","29","","12","","24.1","","98.27","","","","-40","","NA"
"-94.36","49.79","KENORA A","6034076","2023-02-03 00:00","2023","02","03","00:00","-30.3","","-34.2","","70","","","","29","","10","","24.1","","98.27","","","","-40","","Clear"
"-94.36","49.79","KENORA A","6034076","2023-02-03 01:00","2023","02","03","01:00","-30.9","","-34.5","","71","","","","27","","11","","24.1","","98.30","","","","-41","","NA"
"-94.36","49.79","KENORA A","6034076","2023-02-03 02:00","2023","02","03","02:00","-32.2","","-35.5","","73","","","","25","","8","","24.1","","98.30","","","","-41","","NA"
"-94.36","49.79","KENORA A","6034076","2023-02-03 03:00","2023","02","03","03:00","-32.0","","-35.3","","73","","","","25","","6","","24.1","","98.32","","","","-39","","Clear"
"-94.36","49.79","KENORA A","6034076","2023-02-03 04:00","2023","02","03","04:00","-33.4","","-36.8","","72","","","","22","","6","","24.1","","98.29","","","","-40","","NA"
"-94.36","49.79","KENORA A","6034076","2023-02-03 05:00","2023","02","03","05:00","-33.6","","-37.0","","73","","","","22","","7","","24.1","","98.28","","","","-41","","NA"
"-94.36","49.79","KENORA A","6034076","2023-02-03 06:00","2023","02","03","06:00","-33.0","","-36.3","","73","","","","19","","7","","24.1","","98.20","","","","-41","","Mainly Clear"
"-94.36","49.79","KENORA A","6034076","2023-02-03 07:00","2023","02","03","07:00","-32.7","","-36.0","","73","","","","19","","11","","32.2","","98.18","","","","-43","","NA"
"-94.36","49.79","KENORA A","6034076","2023-02-03 08:00","2023","02","03","08:00","-32.2","","-35.5","","73","","","","19","","16","","32.2","","98.16","","","","-45","","NA"
"-94.36","49.79","KENORA A","6034076","2023-02-03 09:00","2023","02","03","09:00","-31.1","","-34.3","","73","","","","18","","9","","32.2","","98.11","","","","-40","","Mainly Clear"
"-94.36","49.79","KENORA A","6034076","2023-02-03 10:00","2023","02","03","10:00","-29.2","","-32.6","","73","","","","19","","12","","32.2","","98.08","","","","-39","","Ice Crystals"
"-94.36","49.79","KENORA A","6034076","2023-02-03 11:00","2023","02","03","11:00","-25.7","","-29.2","","73","","","","19","","16","","32.2","","98.00","","","","-36","","Ice Crystals"
"-94.36","49.79","KENORA A","6034076","2023-02-03 12:00","2023","02","03","12:00","-23.9","","-29.6","","60","","","","19","","16","","32.2","","97.88","","","","-34","","Ice Crystals"
"-94.36","49.79","KENORA A","6034076","2023-02-03 13:00","2023","02","03","13:00","-22.9","","-28.8","","60","","","","18","","18","","32.2","","97.69","","","","-34","","Ice Crystals"
"-94.36","49.79","KENORA A","6034076","2023-02-03 14:00","2023","02","03","14:00","-21.5","","-28.7","","53","","","","18","","26","","16.1","","97.53","","","","-34","","Ice Crystals"
"-94.36","49.79","KENORA A","6034076","2023-02-03 15:00","2023","02","03","15:00","-21.3","","-27.4","","59","","","","19","","23","","16.1","","97.38","","","","-33","","Snow,Blowing Snow"
"-94.36","49.79","KENORA A","6034076","2023-02-03 16:00","2023","02","03","16:00","-20.6","","-27.2","","56","","","","17","","17","","16.1","","97.24","","","","-30","","Snow,Blowing Snow"
"-94.36","49.79","KENORA A","6034076","2023-02-03 17:00","2023","02","03","17:00","-20.4","","-27.3","","54","","","","17","","23","","24.1","","97.07","","","","-32","","Snow,Blowing Snow"
"-94.36","49.79","KENORA A","6034076","2023-02-03 18:00","2023","02","03","18:00","-20.4","","-26.5","","59","","","","17","","19","","24.1","","96.91","","","","-31","","Snow,Blowing Snow"
"-94.36","49.79","KENORA A","6034076","2023-02-03 19:00","2023","02","03","19:00","-20.2","","-25.5","","63","","","","17","","22","","24.1","","96.67","","","","-31","","Snow,Blowing Snow"
"-94.36","49.79","KENORA A","6034076","2023-02-03 20:00","2023","02","03","20:00","-19.9","","-24.8","","66","","","","17","","21","","32.2","","96.60","","","","-31","","Snow,Blowing Snow"
"-94.36","49.79","KENORA A","6034076","2023-02-03 21:00","2023","02","03","21:00","-19.2","","-24.9","","61","","","","19","","23","","32.2","","96.40","","","","-30","","Snow,Blowing Snow"
"-94.36","49.79","KENORA A","6034076","2023-02-03 22:00","2023","02","03","22:00","-18.7","","-25.3","","57","","","","19","","24","","24.1","","96.25","","","","-30","","Snow,Blowing Snow"
"-94.36","49.79","KENORA A","6034076","2023-02-03 23:00","2023","02","03","23:00","-18.7","","-24.9","","58","","","","19","","25","","24.1","","96.12","","","","-30","","Snow,Blowing Snow"
"-94.36","49.79","KENORA A","6034076","2023-02-04 00:00","2023","02","04","00:00","-18.8","","-24.8","","60","","","","19","","22","","24.1","","96.05","","","","-29","","Snow,Blowing Snow"
"-94.36","49.79","KENORA A","6034076","2023-02-04 01:00","2023","02","04","01:00","-18.9","","-24.6","","61","","","","20","","21","","24.1","","96.03","","","","-29","","Snow,Blowing Snow"
"-94.36","49.79","KENORA A","6034076","2023-02-04 02:00","2023","02","04","02:00","-18.7","","-23.9","","64","","","","19","","23","","24.1","","95.90","","","","-30","","Snow,Blowing Snow"
"-94.36","49.79","KENORA A","6034076","2023-02-04 03:00","2023","02","04","03:00","-18.4","","-23.1","","67","","","","21","","20","","24.1","","95.82","","","","-28","","Snow,Blowing Snow"
"-94.36","49.79","KENORA A","6034076","2023-02-04 04:00","2023","02","04","04:00","-18.4","","-22.7","","69","","","","20","","19","","32.2","","95.77","","","","-28","","Snow,Blowing Snow"
"-94.36","49.79","KENORA A","6034076","2023-02-04 05:00","2023","02","04","05:00","-19.0","","-22.9","","72","","","","19","","17","","32.2","","95.73","","","","-28","","Snow"
"-94.36","49.79","KENORA A","6034076","2023-02-04 06:00","2023","02","04","06:00","-19.4","","-23.1","","73","","","","18","","10","","32.2","","95.78","","","","-26","","Snow"
"-94.36","49.79","KENORA A","6034076","2023-02-04 07:00","2023","02","04","07:00","-20.2","","-23.6","","75","","","","17","","9","","32.2","","95.72","","","","-27","","NA"
"-94.36","49.79","KENORA A","6034076","2023-02-04 08:00","2023","02","04","08:00","-20.1","","-23.4","","76","","","","17","","13","","32.2","","95.72","","","","-29","","NA"
"-94.36","49.79","KENORA A","6034076","2023-02-04 09:00","2023","02","04","09:00","-19.1","","-22.5","","75","","","","19","","13","","24.1","","95.75","","","","-27","","Cloudy"
"-94.36","49.79","KENORA A","6034076","2023-02-04 10:00","2023","02","04","10:00","-18.0","","-21.5","","74","","","","18","","8","","24.1","","95.74","","","","-24","","NA"
"-94.36","49.79","KENORA A","6034076","2023-02-04 11:00","2023","02","04","11:00","-17.0","","-20.8","","73","","","","36","","1","","24.1","","95.77","","","","-18","","NA"
"-94.36","49.79","KENORA A","6034076","2023-02-04 12:00","2023","02","04","12:00","-16.0","","-19.3","","76","","","","18","","5","","3.2","","95.78","","","","-20","","Snow"
"-94.36","49.79","KENORA A","6034076","2023-02-04 13:00","2023","02","04","13:00","-15.5","","-18.6","","78","","","","36","","2","","2.0","","95.74","","","","-17","","Snow"
"-94.36","49.79","KENORA A","6034076","2023-02-04 14:00","2023","02","04","14:00","-14.3","","-17.2","","79","","","","3","","5","","1.6","","95.69","","","","-18","","Snow"
"-94.36","49.79","KENORA A","6034076","2023-02-04 15:00","2023","02","04","15:00","-13.8","","-16.7","","79","","","","3","","6","","2.4","","95.76","","","","-18","","Snow"
"-94.36","49.79","KENORA A","6034076","2023-02-04 16:00","2023","02","04","16:00","-13.5","","-16.3","","80","","","","2","","7","","1.6","","95.78","","","","-18","","Snow"
"-94.36","49.79","KENORA A","6034076","2023-02-04 17:00","2023","02","04","17:00","-13.4","","-15.7","","83","","","","1","","6","","4.8","","95.82","","","","-17","","Snow"
"-94.36","49.79","KENORA A","6034076","2023-02-04 18:00","2023","02","04","18:00","-13.6","","-15.8","","84","","","","33","","7","","16.1","","95.90","","","","-18","","Snow"
"-94.36","49.79","KENORA A","6034076","2023-02-04 19:00","2023","02","04","19:00","-13.9","","-16.0","","85","","","","35","","4","","32.2","","95.92","","","","-17","","Snow"
"-94.36","49.79","KENORA A","6034076","2023-02-04 20:00","2023","02","04","20:00","-14.2","","-16.1","","86","","","","35","","5","","32.2","","95.98","","","","-18","","Snow"
"-94.36","49.79","KENORA A","6034076","2023-02-04 21:00","2023","02","04","21:00","-14.1","","-16.2","","85","","","","36","","5","","32.2","","96.03","","","","-18","","Snow"
"-94.36","49.79","KENORA A","6034076","2023-02-04 22:00","2023","02","04","22:00","-14.1","","-16.6","","81","","","","31","","3","","32.2","","96.11","","","","-16","","Snow"
"-94.36","49.79","KENORA A","6034076","2023-02-04 23:00","2023","02","04","23:00","-14.2","","-16.5","","83","","","","31","","6","","32.2","","96.13","","","","-18","","Snow"
"-94.36","49.79","KENORA A","6034076","2023-02-05 00:00","2023","02","05","00:00","-14.2","","-16.3","","84","","","","31","","7","","19.3","","96.18","","","","-19","","Snow"
"-94.36","49.79","KENORA A","6034076","2023-02-05 01:00","2023","02","05","01:00","-14.2","","-16.3","","85","","","","34","","7","","19.3","","96.21","","","","-19","","Snow"
"-94.36","49.79","KENORA A","6034076","2023-02-05 02:00","2023","02","05","02:00","-14.7","","-16.5","","86","","","","32","","8","","24.1","","96.22","","","","-20","","Snow"
"-94.36","49.79","KENORA A","6034076","2023-02-05 03:00","2023","02","05","03:00","-15.9","","-17.7","","86","","","","33","","8","","32.2","","96.25","","","","-21","","Snow"
"-94.36","49.79","KENORA A","6034076","2023-02-05 04:00","2023","02","05","04:00","-16.0","","-17.9","","85","","","","32","","10","","32.2","","96.32","","","","-22","","Snow"
"-94.36","49.79","KENORA A","6034076","2023-02-05 05:00","2023","02","05","05:00","-16.6","","-18.6","","85","","","","32","","13","","32.2","","96.38","","","","-24","","Snow"
"-94.36","49.79","KENORA A","6034076","2023-02-05 06:00","2023","02","05","06:00","-16.9","","-19.0","","84","","","","31","","9","","32.2","","96.46","","","","-23","","Snow"
"-94.36","49.79","KENORA A","6034076","2023-02-05 07:00","2023","02","05","07:00","-16.7","","-18.8","","84","","","","31","","9","","32.2","","96.52","","","","-23","","Snow"
"-94.36","49.79","KENORA A","6034076","2023-02-05 08:00","2023","02","05","08:00","-16.4","","-18.6","","84","","","","32","","10","","32.2","","96.57","","","","-23","","NA"
"-94.36","49.79","KENORA A","6034076","2023-02-05 09:00","2023","02","05","09:00","-16.1","","-18.3","","83","","","","33","","16","","32.2","","96.63","","","","-25","","Mostly Cloudy"
"-94.36","49.79","KENORA A","6034076","2023-02-05 10:00","2023","02","05","10:00","-15.5","","-18.1","","81","","","","32","","7","","32.2","","96.72","","","","-20","","NA"
"-94.36","49.79","KENORA A","6034076","2023-02-05 11:00","2023","02","05","11:00","-15.0","","-17.9","","79","","","","32","","10","","32.2","","96.75","","","","-21","","NA"
"-94.36","49.79","KENORA A","6034076","2023-02-05 12:00","2023","02","05","12:00","-14.3","","-17.4","","78","","","","30","","8","","32.2","","96.76","","","","-20","","Cloudy"
"-94.36","49.79","KENORA A","6034076","2023-02-05 13:00","2023","02","05","13:00","-13.2","","-16.4","","77","","","","31","","3","","32.2","","96.70","","","","-15","","NA"
"-94.36","49.79","KENORA A","6034076","2023-02-05 14:00","2023","02","05","14:00","-12.9","","-16.1","","77","","","","25","","9","","32.2","","96.72","","","","-18","","NA"
"-94.36","49.79","KENORA A","6034076","2023-02-05 15:00","2023","02","05","15:00","-12.1","","-15.9","","74","","","","20","","7","","32.2","","96.61","","","","-16","","Mainly Clear"
"-94.36","49.79","KENORA A","6034076","2023-02-05 16:00","2023","02","05","16:00","-12.1","","-16.2","","71","","","","20","","10","","32.2","","96.62","","","","-18","","NA"
"-94.36","49.79","KENORA A","6034076","2023-02-05 17:00","2023","02","05","17:00","-12.5","","-16.3","","73","","","","19","","9","","32.2","","96.65","","","","-18","","NA"
"-94.36","49.79","KENORA A","6034076","2023-02-05 18:00","2023","02","05","18:00","-13.4","","-16.7","","77","","","","18","","11","","32.2","","96.65","","","","-20","","Mainly Clear"
"-94.36","49.79","KENORA A","6034076","2023-02-05 19:00","2023","02","05","19:00","-13.7","","-16.4","","80","","","","17","","14","","32.2","","96.63","","","","-21","","NA"
"-94.36","49.79","KENORA A","6034076","2023-02-05 20:00","2023","02","05","20:00","-14.6","","-17.1","","81","","","","17","","11","","32.2","","96.58","","","","-21","","NA"
"-94.36","49.79","KENORA A","6034076","2023-02-05 21:00","2023","02","05","21:00","-15.0","","-17.4","","82","","","","17","","14","","32.2","","96.54","","","","-23","","Mainly Clear"
"-94.36","49.79","KENORA A","6034076","2023-02-05 22:00","2023","02","05","22:00","-13.5","","-16.4","","79","","","","18","","21","","32.2","","96.47","","","","-22","","NA"
"-94.36","49.79","KENORA A","6034076","2023-02-05 23:00","2023","02","05","23:00","-13.0","","-15.8","","80","","","","17","","20","","32.2","","96.45","","","","-22","","NA"
"-94.36","49.79","KENORA A","6034076","2023-02-06 00:00","2023","02","06","00:00","-13.7","","-16.4","","81","","","","17","","19","","32.2","","96.43","","","","-22","","Mainly Clear"
"-94.36","49.79","KENORA A","6034076","2023-02-06 01:00","2023","02","06","01:00","-14.1","","-16.6","","81","","","","17","","19","","32.2","","96.35","","","","-23","","NA"
"-94.36","49.79","KENORA A","6034076","2023-02-06 02:00","2023","02","06","02:00","-13.1","","-15.7","","81","","","","18","","17","","32.2","","96.27","","","","-21","","NA"
"-94.36","49.79","KENORA A","6034076","2023-02-06 03:00","2023","02","06","03:00","-12.1","","-14.7","","81","","","","17","","22","","32.2","","96.14","","","","-21","","Mainly Clear"
"-94.36","49.79","KENORA A","6034076","2023-02-06 04:00","2023","02","06","04:00","-11.5","","-14.0","","82","","","","18","","21","","32.2","","96.06","","","","-20","","NA"
"-94.36","49.79","KENORA A","6034076","2023-02-06 05:00","2023","02","06","05:00","-11.2","","-13.2","","85","","","","17","","22","","32.2","","95.95","","","","-20","","NA"
"-94.36","49.79","KENORA A","6034076","2023-02-06 06:00","2023","02","06","06:00","-10.9","","-12.7","","86","","","","18","","20","","32.2","","95.91","","","","-19","","Mostly Cloudy"
"-94.36","49.79","KENORA A","6034076","2023-02-06 07:00","2023","02","06","07:00","-10.4","","-12.0","","88","","","","18","","18","","32.2","","95.84","","","","-18","","NA"
"-94.36","49.79","KENORA A","6034076","2023-02-06 08:00","2023","02","06","08:00","-8.8","","-10.6","","87","","","","17","","20","","32.2","","95.70","","","","-16","","NA"
"-94.36","49.79","KENORA A","6034076","2023-02-06 09:00","2023","02","06","09:00","-7.0","","-9.2","","84","","","","17","","19","","32.2","","95.56","","","","-14","","Mostly Cloudy"
"-94.36","49.79","KENORA A","6034076","2023-02-06 10:00","2023","02","06","10:00","-5.6","","-8.2","","82","","","","16","","26","","24.1","","95.44","","","","-13","","Blowing Snow"
"-94.36","49.79","KENORA A","6034076","2023-02-06 11:00","2023","02","06","11:00","-3.2","","-6.7","","77","","","","17","","22","","32.2","","95.34","","","","-10","","NA"
"-94.36","49.79","KENORA A","6034076","2023-02-06 12:00","2023","02","06","12:00","-0.8","","-5.0","","73","","","","19","","25","","24.1","","95.24","","","","-7","","Blowing Snow"
"-94.36","49.79","KENORA A","6034076","2023-02-06 13:00","2023","02","06","13:00","-0.1","","-4.5","","72","","","","19","","24","","24.1","","95.11","","","","-6","","Blowing Snow"
"-94.36","49.79","KENORA A","6034076","2023-02-06 14:00","2023","02","06","14:00","0.7","","-3.8","","72","","","","19","","25","","32.2","","94.99","","","","","","Blowing Snow"
"-94.36","49.79","KENORA A","6034076","2023-02-06 15:00","2023","02","06","15:00","1.3","","-3.5","","71","","","","19","","22","","32.2","","94.96","","","","","","Cloudy"
"-94.36","49.79","KENORA A","6034076","2023-02-06 16:00","2023","02","06","16:00","1.1","","-3.3","","72","","","","20","","23","","24.1","","94.96","","","","","","NA"
"-94.36","49.79","KENORA A","6034076","2023-02-06 17:00","2023","02","06","17:00","0.5","","-2.2","","82","","","","21","","20","","4.8","","94.94","","","","","","Snow"
"-94.36","49.79","KENORA A","6034076","2023-02-06 18:00","2023","02","06","18:00","0.0","","-0.5","","96","","","","22","","25","","3.2","","95.00","","","","-6","","Snow"
"-94.36","49.79","KENORA A","6034076","2023-02-06 19:00","2023","02","06","19:00","-0.3","","-1.2","","93","","","","22","","21","","9.7","","95.00","","","","-6","","Snow"
"-94.36","49.79","KENORA A","6034076","2023-02-06 20:00","2023","02","06","20:00","-0.8","","-2.1","","91","","","","25","","19","","16.1","","95.05","","","","-6","","Snow"
"-94.36","49.79","KENORA A","6034076","2023-02-06 21:00","2023","02","06","21:00","-1.0","","-2.9","","87","","","","28","","14","","24.1","","95.08","","","","-5","","Snow"
"-94.36","49.79","KENORA A","6034076","2023-02-06 22:00","2023","02","06","22:00","-1.5","","-3.3","","88","","","","30","","12","","24.1","","95.09","","","","-6","","Snow"
"-94.36","49.79","KENORA A","6034076","2023-02-06 23:00","2023","02","06","23:00","-1.6","","-3.3","","88","","","","30","","12","","32.2","","95.12","","","","-6","","Snow"
"-94.36","49.79","KENORA A","6034076","2023-02-07 00:00","2023","02","07","00:00","-1.6","","-2.8","","92","","","","31","","14","","19.3","","95.18","","","","-6","","Freezing Drizzle,Snow"
"-94.36","49.79","KENORA A","6034076","2023-02-07 01:00","2023","02","07","01:00","-3.4","","-6.8","","77","","","","32","","24","","24.1","","95.27","","","","-10","","Snow,Blowing Snow"
"-94.36","49.79","KENORA A","6034076","2023-02-07 02:00","2023","02","07","02:00","-4.9","","-9.5","","70","","","","30","","16","","32.2","","95.29","","","","-11","","Snow,Blowing Snow"
"-94.36","49.79","KENORA A","6034076","2023-02-07 03:00","2023","02","07","03:00","-6.9","","-11.5","","70","","","","32","","27","","32.2","","95.42","","","","-15","","Snow,Blowing Snow"
"-94.36","49.79","KENORA A","6034076","2023-02-07 04:00","2023","02","07","04:00","-8.2","","-12.0","","74","","","","33","","21","","32.2","","95.52","","","","-16","","Snow,Blowing Snow"
"-94.36","49.79","KENORA A","6034076","2023-02-07 05:00","2023","02","07","05:00","-9.6","","-12.6","","79","","","","30","","17","","32.2","","95.63","","","","-17","","Snow"
"-94.36","49.79","KENORA A","6034076","2023-02-07 06:00","2023","02","07","06:00","-10.7","","-13.3","","81","","","","29","","15","","32.2","","95.73","","","","-18","","Snow"
"-94.36","49.79","KENORA A","6034076","2023-02-07 07:00","2023","02","07","07:00","-11.5","","-13.8","","83","","","","28","","13","","32.2","","95.80","","","","-18","","NA"
"-94.36","49.79","KENORA A","6034076","2023-02-07 08:00","2023","02","07","08:00","-11.9","","-14.2","","84","","","","28","","14","","32.2","","95.92","","","","-19","","NA"
"-94.36","49.79","KENORA A","6034076","2023-02-07 09:00","2023","02","07","09:00","-11.3","","-14.1","","80","","","","29","","14","","32.2","","96.01","","","","-18","","Mostly Cloudy"
"-94.36","49.79","KENORA A","6034076","2023-02-07 10:00","2023","02","07","10:00","-10.0","","-13.7","","75","","","","31","","17","","32.2","","96.13","","","","-17","","NA"
"-94.36","49.79","KENORA A","6034076","2023-02-07 11:00","2023","02","07","11:00","-8.6","","-13.3","","69","","","","30","","15","","32.2","","96.19","","","","-15","","NA"
"-94.36","49.79","KENORA A","6034076","2023-02-07 12:00","2023","02","07","12:00","-7.6","","-12.9","","66","","","","27","","11","","32.2","","96.21","","","","-13","","Mostly Cloudy"
"-94.36","49.79","KENORA A","6034076","2023-02-07 13:00","2023","02","07","13:00","-6.6","","-12.3","","64","","","","26","","19","","32.2","","96.26","","","","-13","","NA"
"-94.36","49.79","KENORA A","6034076","2023-02-07 14:00","2023","02","07","14:00","-6.0","","-11.8","","64","","","","24","","13","","32.2","","96.23","","","","-11","","NA"
"-94.36","49.79","KENORA A","6034076","2023-02-07 15:00","2023","02","07","15:00","-4.5","","-11.2","","60","","","","21","","17","","32.2","","96.25","","","","-10","","Mostly Cloudy"
"-94.36","49.79","KENORA A","6034076","2023-02-07 16:00","2023","02","07","16:00","-5.2","","-11.4","","62","","","","19","","16","","32.2","","96.22","","","","-11","","NA"
"-94.36","49.79","KENORA A","6034076","2023-02-07 17:00","2023","02","07","17:00","-5.0","","-10.8","","64","","","","19","","12","","32.2","","96.26","","","","-10","","NA"
"-94.36","49.79","KENORA A","6034076","2023-02-07 18:00","2023","02","07","18:00","-5.3","","-10.6","","66","","","","17","","17","","32.2","","96.18","","","","-11","","Mostly Cloudy"
"-94.36","49.79","KENORA A","6034076","2023-02-07 19:00","2023","02","07","19:00","-4.7","","-9.7","","68","","","","19","","17","","32.2","","96.14","","","","-11","","NA"
"-94.36","49.79","KENORA A","6034076","2023-02-07 20:00","2023","02","07","20:00","-5.0","","-9.4","","72","","","","20","","18","","32.2","","96.13","","","","-11","","NA"
"-94.36","49.79","KENORA A","6034076","2023-02-07 21:00","2023","02","07","21:00","-5.4","","-8.5","","79","","","","21","","18","","32.2","","96.07","","","","-12","","Mainly Clear"
"-94.36","49.79","KENORA A","6034076","2023-02-07 22:00","2023","02","07","22:00","-5.9","","-8.3","","83","","","","21","","15","","32.2","","96.14","","","","-12","","NA"
"-94.36","49.79","KENORA A","6034076","2023-02-07 23:00","2023","02","07","23:00","-6.5","","-8.2","","87","","","","21","","14","","32.2","","96.21","","","","-12","","NA"
"-94.36","49.79","KENORA A","6034076","2023-02-08 00:00","2023","02","08","00:00","-7.0","","-8.2","","91","","","","22","","12","","32.2","","96.25","","","","-12","","Mainly Clear"
"-94.36","49.79","KENORA A","6034076","2023-02-08 01:00","2023","02","08","01:00","-8.0","","-9.0","","92","","","","23","","10","","32.2","","96.32","","","","-13","","NA"
"-94.36","49.79","KENORA A","6034076","2023-02-08 02:00","2023","02","08","02:00","-6.5","","-7.5","","93","","","","25","","10","","32.2","","96.37","","","","-11","","NA"
"-94.36","49.79","KENORA A","6034076","2023-02-08 03:00","2023","02","08","03:00","-6.9","","-7.6","","95","","","","26","","8","","32.2","","96.44","","","","-11","","Mostly Cloudy"
"-94.36","49.79","KENORA A","6034076","2023-02-08 04:00","2023","02","08","04:00","-6.2","","-7.2","","93","","","","36","","7","","32.2","","96.48","","","","-10","","NA"
"-94.36","49.79","KENORA A","6034076","2023-02-08 05:00","2023","02","08","05:00","-7.7","","-8.5","","94","","","","13","","6","","32.2","","96.51","","","","-11","","NA"
"-94.36","49.79","KENORA A","6034076","2023-02-08 06:00","2023","02","08","06:00","-6.0","","-6.7","","95","","","","14","","9","","32.2","","96.54","","","","-10","","Cloudy"
"-94.36","49.79","KENORA A","6034076","2023-02-08 07:00","2023","02","08","07:00","-4.7","","-5.5","","94","","","","8","","15","","32.2","","96.53","","","","-10","","NA"
"-94.36","49.79","KENORA A","6034076","2023-02-08 08:00","2023","02","08","08:00","-5.7","","-6.6","","93","","","","15","","14","","32.2","","96.56","","","","-11","","NA"
"-94.36","49.79","KENORA A","6034076","2023-02-08 09:00","2023","02","08","09:00","-5.0","","-5.8","","94","","","","15","","14","","32.2","","96.57","","","","-10","","Mostly Cloudy"
"-94.36","49.79","KENORA A","6034076","2023-02-08 10:00","2023","02","08","10:00","-2.6","","-6.1","","77","","","","13","","18","","32.2","","96.55","","","","-8","","NA"
"-94.36","49.79","KENORA A","6034076","2023-02-08 11:00","2023","02","08","11:00","-1.3","","-6.3","","69","","","","14","","17","","32.2","","96.51","","","","-6","","NA"
"-94.36","49.79","KENORA A","6034076","2023-02-08 12:00","2023","02","08","12:00","0.3","","-6.2","","62","","","","16","","14","","32.2","","96.50","","","","","","Mostly Cloudy"
"-94.36","49.79","KENORA A","6034076","2023-02-08 13:00","2023","02","08","13:00","1.9","","-5.7","","57","","","","12","","20","","32.2","","96.39","","","","","","NA"
"-94.36","49.79","KENORA A","6034076","2023-02-08 14:00","2023","02","08","14:00","3.0","","-5.8","","52","","","","11","","17","","32.2","","96.32","","","","","","NA"
"-94.36","49.79","KENORA A","6034076","2023-02-08 15:00","2023","02","08","15:00","3.5","","-5.7","","51","","","","13","","12","","32.2","","96.29","","","","","","Mostly Cloudy"
"-94.36","49.79","KENORA A","6034076","2023-02-08 16:00","2023","02","08","16:00","3.8","","-4.6","","54","","","","13","","12","","32.2","","96.25","","","","","","NA"
"-94.36","49.79","KENORA A","6034076","2023-02-08 17:00","2023","02","08","17:00","2.9","","-3.5","","63","","","","14","","7","","32.2","","96.31","","","","","","NA"
"-94.36","49.79","KENORA A","6034076","2023-02-08 18:00","2023","02","08","18:00","1.5","","-3.1","","72","","","","10","","8","","32.2","","96.32","","","","","","Mostly Cloudy"
"-94.36","49.79","KENORA A","6034076","2023-02-08 19:00","2023","02","08","19:00","1.2","","-5.1","","63","","","","6","","10","","32.2","","96.35","","","","","","NA"
"-94.36","49.79","KENORA A","6034076","2023-02-08 20:00","2023","02","08","20:00","0.4","","-5.6","","64","","","","7","","10","","32.2","","96.28","","","","","","NA"
"-94.36","49.79","KENORA A","6034076","2023-02-08 21:00","2023","02","08","21:00","0.3","","-5.6","","65","","","","4","","10","","32.2","","96.29","","","","","","Cloudy"
"-94.36","49.79","KENORA A","6034076","2023-02-08 22:00","2023","02","08","22:00","-0.1","","-5.5","","67","","","","3","","11","","32.2","","96.26","","","","-4","","NA"
"-94.36","49.79","KENORA A","6034076","2023-02-08 23:00","2023","02","08","23:00","-0.8","","-5.3","","71","","","","2","","15","","32.2","","96.31","","","","-5","","NA"
"-94.36","49.79","KENORA A","6034076","2023-02-09 00:00","2023","02","09","00:00","-1.4","","-5.0","","76","","","","3","","17","","32.2","","96.36","","","","-7","","Cloudy"
"-94.36","49.79","KENORA A","6034076","2023-02-09 01:00","2023","02","09","01:00","-1.8","","-4.2","","84","","","","2","","16","","32.2","","96.42","","","","-7","","NA"
"-94.36","49.79","KENORA A","6034076","2023-02-09 02:00","2023","02","09","02:00","-2.0","","-3.6","","89","","","","36","","13","","32.2","","96.50","","","","-6","","Snow"
"-94.36","49.79","KENORA A","6034076","2023-02-09 03:00","2023","02","09","03:00","-2.0","","-3.4","","91","","","","36","","18","","32.2","","96.57","","","","-7","","Snow"
"-94.36","49.79","KENORA A","6034076","2023-02-09 04:00","2023","02","09","04:00","-1.9","","-3.3","","90","","","","36","","18","","32.2","","96.65","","","","-7","","Snow"
"-94.36","49.79","KENORA A","6034076","2023-02-09 05:00","2023","02","09","05:00","-1.9","","-3.5","","89","","","","36","","17","","32.2","","96.71","","","","-7","","Snow"
"-94.36","49.79","KENORA A","6034076","2023-02-09 06:00","2023","02","09","06:00","-1.9","","-3.0","","92","","","","34","","16","","32.2","","96.80","","","","-7","","Snow"
"-94.36","49.79","KENORA A","6034076","2023-02-09 07:00","2023","02","09","07:00","-2.4","","-4.8","","84","","","","34","","20","","24.1","","96.84","","","","-8","","Snow"
"-94.36","49.79","KENORA A","6034076","2023-02-09 08:00","2023","02","09","08:00","-3.8","","-7.7","","74","","","","33","","26","","24.1","","96.98","","","","-11","","Blowing Snow"
"-94.36","49.79","KENORA A","6034076","2023-02-09 09:00","2023","02","09","09:00","-5.6","","-9.3","","75","","","","33","","22","","32.2","","97.05","","","","-13","","Blowing Snow"
"-94.36","49.79","KENORA A","6034076","2023-02-09 10:00","2023","02","09","10:00","-7.6","","-11.9","","72","","","","33","","23","","32.2","","97.12","","","","-15","","NA"
"-94.36","49.79","KENORA A","6034076","2023-02-09 11:00","2023","02","09","11:00","-8.5","","-15.5","","57","","","","32","","26","","24.1","","97.18","","","","-17","","NA"
"-94.36","49.79","KENORA A","6034076","2023-02-09 12:00","2023","02","09","12:00","-8.3","","-16.1","","54","","","","33","","28","","24.1","","97.15","","","","-17","","Clear"
"-94.36","49.79","KENORA A","6034076","2023-02-09 13:00","2023","02","09","13:00","-7.7","","-16.5","","50","","","","33","","25","","32.2","","97.08","","","","-16","","Blowing Snow"
"-94.36","49.79","KENORA A","6034076","2023-02-09 14:00","2023","02","09","14:00","-7.6","","-16.7","","49","","","","33","","24","","32.2","","97.08","","","","-16","","Blowing Snow"
"-94.36","49.79","KENORA A","6034076","2023-02-09 15:00","2023","02","09","15:00","-7.7","","-16.7","","49","","","","33","","30","","32.2","","97.18","","","","-17","","Blowing Snow"
"-94.36","49.79","KENORA A","6034076","2023-02-09 16:00","2023","02","09","16:00","-8.3","","-16.7","","51","","","","33","","21","","24.1","","97.25","","","","-16","","Blowing Snow"
"-94.36","49.79","KENORA A","6034076","2023-02-09 17:00","2023","02","09","17:00","-9.4","","-17.0","","54","","","","34","","14","","24.1","","97.33","","","","-16","","Blowing Snow"
"-94.36","49.79","KENORA A","6034076","2023-02-09 18:00","2023","02","09","18:00","-10.6","","-17.5","","57","","","","33","","14","","32.2","","97.44","","","","-17","","Blowing Snow"
"-94.36","49.79","KENORA A","6034076","2023-02-09 19:00","2023","02","09","19:00","-12.1","","-17.7","","64","","","","31","","11","","32.2","","97.54","","","","-18","","NA"
"-94.36","49.79","KENORA A","6034076","2023-02-09 20:00","2023","02","09","20:00","-13.4","","-18.2","","68","","","","32","","14","","32.2","","97.55","","","","-21","","NA"
"-94.36","49.79","KENORA A","6034076","2023-02-09 21:00","2023","02","09","21:00","-14.4","","-18.6","","71","","","","32","","10","","32.2","","97.54","","","","-21","","Clear"
"-94.36","49.79","KENORA A","6034076","2023-02-09 22:00","2023","02","09","22:00","-15.1","","-19.1","","72","","","","31","","9","","32.2","","97.53","","","","-21","","NA"
"-94.36","49.79","KENORA A","6034076","2023-02-09 23:00","2023","02","09","23:00","-15.5","","-19.6","","72","","","","30","","10","","32.2","","97.52","","","","-22","","NA"
"-94.36","49.79","KENORA A","6034076","2023-02-10 00:00","2023","02","10","00:00","-16.1","","-20.0","","72","","","","29","","9","","32.2","","97.51","","","","-22","","Clear"
"-94.36","49.79","KENORA A","6034076","2023-02-10 01:00","2023","02","10","01:00","-16.3","","-20.2","","72","","","","28","","8","","32.2","","97.47","","","","-22","","NA"
"-94.36","49.79","KENORA A","6034076","2023-02-10 02:00","2023","02","10","02:00","-17.1","","-20.8","","73","","","","28","","5","","32.2","","97.44","","","","-21","","NA"
"-94.36","49.79","KENORA A","6034076","2023-02-10 03:00","2023","02","10","03:00","-16.4","","-21.2","","67","","","","28","","9","","32.2","","97.47","","","","-22","","Clear"
"-94.36","49.79","KENORA A","6034076","2023-02-10 04:00","2023","02","10","04:00","-17.5","","-20.6","","77","","","","29","","11","","32.2","","97.48","","","","-25","","NA"
"-94.36","49.79","KENORA A","6034076","2023-02-10 05:00","2023","02","10","05:00","-19.5","","-21.9","","82","","","","25","","6","","32.2","","97.45","","","","-24","","NA"
"-94.36","49.79","KENORA A","6034076","2023-02-10 06:00","2023","02","10","06:00","-19.7","","-22.0","","82","","","","19","","6","","32.2","","97.42","","","","-25","","Mainly Clear"
"-94.36","49.79","KENORA A","6034076","2023-02-10 07:00","2023","02","10","07:00","-19.9","","-22.5","","80","","","","17","","8","","32.2","","97.39","","","","-26","","NA"
"-94.36","49.79","KENORA A","6034076","2023-02-10 08:00","2023","02","10","08:00","-19.3","","-21.8","","81","","","","16","","11","","32.2","","97.36","","","","-27","","NA"
"-94.36","49.79","KENORA A","6034076","2023-02-10 09:00","2023","02","10","09:00","-17.6","","-20.5","","78","","","","16","","14","","32.2","","97.29","","","","-26","","Mostly Cloudy"
"-94.36","49.79","KENORA A","6034076","2023-02-10 10:00","2023","02","10","10:00","-13.9","","-18.5","","69","","","","19","","13","","32.2","","97.24","","","","-21","","NA"
"-94.36","49.79","KENORA A","6034076","2023-02-10 11:00","2023","02","10","11:00","-10.6","","-18.1","","55","","","","19","","15","","32.2","","97.18","","","","-17","","NA"
"-94.36","49.79","KENORA A","6034076","2023-02-10 12:00","2023","02","10","12:00","-8.4","","-15.7","","56","","","","20","","21","","32.2","","97.10","","","","-16","","Mostly Cloudy"
"-94.36","49.79","KENORA A","6034076","2023-02-10 13:00","2023","02","10","13:00","-6.7","","-13.6","","58","","","","19","","17","","32.2","","97.04","","","","-13","","NA"
"-94.36","49.79","KENORA A","6034076","2023-02-10 14:00","2023","02","10","14:00","-4.8","","-11.5","","59","","","","19","","21","","32.2","","96.95","","","","-11","","NA"
"-94.36","49.79","KENORA A","6034076","2023-02-10 15:00","2023","02","10","15:00","-3.4","","-10.8","","57","","","","19","","17","","32.2","","96.88","","","","-9","","Mostly Cloudy"
"-94.36","49.79","KENORA A","6034076","2023-02-10 16:00","2023","02","10","16:00","-3.7","","-11.1","","57","","","","19","","17","","32.2","","96.79","","","","-9","","NA"
"-94.36","49.79","KENORA A","6034076","2023-02-10 17:00","2023","02","10","17:00","-4.0","","-11.2","","58","","","","17","","21","","32.2","","96.68","","","","-10","","NA"
"-94.36","49.79","KENORA A","6034076","2023-02-10 18:00","2023","02","10","18:00","-4.7","","-11.4","","59","","","","16","","14","","32.2","","96.59","","","","-10","","Mostly Cloudy"
"-94.36","49.79","KENORA A","6034076","2023-02-10 19:00","2023","02","10","19:00","-4.8","","-11.6","","59","","","","17","","20","","32.2","","96.45","","","","-11","","NA"
"-94.36","49.79","KENORA A","6034076","2023-02-10 20:00","2023","02","10","20:00","-4.7","","-11.3","","60","","","","17","","18","","32.2","","96.37","","","","-11","","NA"
"-94.36","49.79","KENORA A","6034076","2023-02-10 21:00","2023","02","10","21:00","-4.0","","-10.6","","60","","","","19","","23","","32.2","","96.27","","","","-11","","Mainly Clear"
"-94.36","49.79","KENORA A","6034076","2023-02-10 22:00","2023","02","10","22:00","-4.6","","-10.0","","66","","","","20","","22","","32.2","","96.13","","","","-11","","NA"
"-94.36","49.79","KENORA A","6034076","2023-02-10 23:00","2023","02","10","23:00","-4.7","","-9.1","","71","","","","20","","26","","32.2","","95.99","","","","-12","","NA"
"-94.36","49.79","KENORA A","6034076","2023-02-11 00:00","2023","02","11","00:00","-5.1","","-8.7","","76","","","","20","","25","","32.2","","95.92","","","","-12","","Mainly Clear"
"-94.36","49.79","KENORA A","6034076","2023-02-11 01:00","2023","02","11","01:00","-5.2","","-8.2","","79","","","","20","","23","","32.2","","95.83","","","","-12","","NA"
"-94.36","49.79","KENORA A","6034076","2023-02-11 02:00","2023","02","11","02:00","-5.8","","-8.1","","83","","","","20","","21","","32.2","","95.76","","","","-13","","NA"
"-94.36","49.79","KENORA A","6034076","2023-02-11 03:00","2023","02","11","03:00","-6.3","","-8.4","","85","","","","20","","18","","32.2","","95.75","","","","-13","","Clear"
"-94.36","49.79","KENORA A","6034076","2023-02-11 04:00","2023","02","11","04:00","-6.5","","-8.2","","88","","","","21","","21","","32.2","","95.68","","","","-14","","NA"
"-94.36","49.79","KENORA A","6034076","2023-02-11 05:00","2023","02","11","05:00","-6.8","","-8.3","","89","","","","20","","16","","32.2","","95.69","","","","-13","","NA"
"-94.36","49.79","KENORA A","6034076","2023-02-11 06:00","2023","02","11","06:00","-5.9","","-7.2","","91","","","","23","","20","","32.2","","95.73","","","","-13","","Mainly Clear"
"-94.36","49.79","KENORA A","6034076","2023-02-11 07:00","2023","02","11","07:00","-5.3","","-6.8","","89","","","","22","","13","","32.2","","95.76","","","","-10","","NA"
"-94.36","49.79","KENORA A","6034076","2023-02-11 08:00","2023","02","11","08:00","-4.5","","-6.2","","88","","","","23","","14","","24.1","","95.80","","","","-10","","NA"
"-94.36","49.79","KENORA A","6034076","2023-02-11 09:00","2023","02","11","09:00","-2.6","","-4.8","","85","","","","23","","13","","24.1","","95.85","","","","-7","","Mostly Cloudy"
"-94.36","49.79","KENORA A","6034076","2023-02-11 10:00","2023","02","11","10:00","-1.2","","-3.9","","82","","","","24","","12","","24.1","","95.92","","","","-5","","NA"
"-94.36","49.79","KENORA A","6034076","2023-02-11 11:00","2023","02","11","11:00","1.6","","-2.3","","75","","","","27","","19","","24.1","","95.99","","","","","","NA"
"-94.36","49.79","KENORA A","6034076","2023-02-11 12:00","2023","02","11","12:00","2.0","","-2.1","","74","","","","30","","15","","24.1","","96.07","","","","","","Cloudy"
"-94.36","49.79","KENORA A","6034076","2023-02-11 13:00","2023","02","11","13:00","2.3","","-1.9","","74","","","","29","","12","","24.1","","96.11","","","","","","NA"
"-94.36","49.79","KENORA A","6034076","2023-02-11 14:00","2023","02","11","14:00","2.5","","-1.9","","72","","","","28","","18","","24.1","","96.14","","","","","","NA"
"-94.36","49.79","KENORA A","6034076","2023-02-11 15:00","2023","02","11","15:00","1.9","","-1.8","","76","","","","30","","16","","24.1","","96.20","","","","","","Cloudy"
"-94.36","49.79","KENORA A","6034076","2023-02-11 16:00","2023","02","11","16:00","1.2","","-1.8","","80","","","","33","","7","","24.1","","96.25","","","","","","NA"
"-94.36","49.79","KENORA A","6034076","2023-02-11 17:00","2023","02","11","17:00","0.9","","-1.8","","82","","","","32","","6","","24.1","","96.26","","","","","","NA"
"-94.36","49.79","KENORA A","6034076","2023-02-11 18:00","2023","02","11","18:00","0.2","","-1.4","","89","","","","35","","5","","24.1","","96.31","","","","","","Cloudy"
"-94.36","49.79","KENORA A","6034076","2023-02-11 19:00","2023","02","11","19:00","-0.2","","-1.4","","91","","","","35","","6","","32.2","","96.31","","","","-2","","NA"
"-94.36","49.79","KENORA A","6034076","2023-02-11 20:00","2023","02","11","20:00","-0.7","","-2.0","","90","","","","34","","8","","32.2","","96.34","","","","-4","","NA"
"-94.36","49.79","KENORA A","6034076","2023-02-11 21:00","2023","02","11","21:00","-0.9","","-2.3","","90","","","","33","","7","","32.2","","96.35","","","","-3","","Cloudy"
"-94.36","49.79","KENORA A","6034076","2023-02-11 22:00","2023","02","11","22:00","-1.1","","-2.8","","88","","","","30","","5","","32.2","","96.33","","","","-3","","NA"
"-94.36","49.79","KENORA A","6034076","2023-02-11 23:00","2023","02","11","23:00","-1.3","","-3.3","","86","","","","26","","9","","32.2","","96.30","","","","-5","","NA"
"-94.36","49.79","KENORA A","6034076","2023-02-12 00:00","2023","02","12","00:00","-1.6","","-3.4","","88","","","","25","","9","","32.2","","96.30","","","","-5","","Cloudy"
"-94.36","49.79","KENORA A","6034076","2023-02-12 01:00","2023","02","12","01:00","-1.4","","-3.1","","89","","","","26","","10","","32.2","","96.31","","","","-5","","NA"
"-94.36","49.79","KENORA A","6034076","2023-02-12 02:00","2023","02","12","02:00","-1.6","","-3.2","","89","","","","23","","9","","32.2","","96.30","","","","-5","","NA"
"-94.36","49.79","KENORA A","6034076","2023-02-12 03:00","2023","02","12","03:00","-1.5","","-3.0","","90","","","","24","","10","","32.2","","96.29","","","","-5","","Cloudy"
"-94.36","49.79","KENORA A","6034076","2023-02-12 04:00","2023","02","12","04:00","-1.5","","-2.6","","92","","","","21","","8","","32.2","","96.23","","","","-5","","NA"
"-94.36","49.79","KENORA A","6034076","2023-02-12 05:00","2023","02","12","05:00","-1.5","","-2.6","","92","","","","21","","8","","32.2","","96.19","","","","-5","","NA"
"-94.36","49.79","KENORA A","6034076","2023-02-12 06:00","2023","02","12","06:00","-1.6","","-2.7","","92","","","","20","","8","","32.2","","96.15","","","","-5","","Mostly Cloudy"
"-94.36","49.79","KENORA A","6034076","2023-02-12 07:00","2023","02","12","07:00","-2.8","","-3.5","","95","","","","20","","12","","24.1","","96.12","","","","-7","","NA"
"-94.36","49.79","KENORA A","6034076","2023-02-12 08:00","2023","02","12","08:00","-3.2","","-3.6","","97","","","","20","","10","","24.1","","96.11","","","","-7","","NA"
"-94.36","49.79","KENORA A","6034076","2023-02-12 09:00","2023","02","12","09:00","-2.3","","-3.4","","93","","","","20","","14","","24.1","","96.02","","","","-7","","Clear"
"-94.36","49.79","KENORA A","6034076","2023-02-12 10:00","2023","02","12","10:00","-1.4","","-3.7","","85","","","","20","","21","","24.1","","95.99","","","","-7","","NA"
"-94.36","49.79","KENORA A","6034076","2023-02-12 11:00","2023","02","12","11:00","-1.0","","-3.9","","80","","","","20","","17","","24.1","","95.93","","","","-6","","NA"
"-94.36","49.79","KENORA A","6034076","2023-02-12 12:00","2023","02","12","12:00","0.3","","-3.6","","75","","","","21","","18","","24.1","","95.84","","","","","","Mostly Cloudy"
"-94.36","49.79","KENORA A","6034076","2023-02-12 13:00","2023","02","12","13:00","0.9","","-3.8","","71","","","","20","","21","","24.1","","95.72","","","","","","NA"
"-94.36","49.79","KENORA A","6034076","2023-02-12 14:00","2023","02","12","14:00","1.3","","-4.0","","68","","","","20","","21","","24.1","","95.61","","","","","","NA"
"-94.36","49.79","KENORA A","6034076","2023-02-12 15:00","2023","02","12","15:00","1.8","","-3.9","","66","","","","21","","17","","24.1","","95.54","","","","","","Mostly Cloudy"
"-94.36","49.79","KENORA A","6034076","2023-02-12 16:00","2023","02","12","16:00","1.8","","-3.8","","67","","","","21","","18","","24.1","","95.46","","","","","","NA"
"-94.36","49.79","KENORA A","6034076","2023-02-12 17:00","2023","02","12","17:00","2.1","","-3.9","","64","","","","24","","14","","24.1","","95.51","","","","","","NA"
"-94.36","49.79","KENORA A","6034076","2023-02-12 18:00","2023","02","12","18:00","2.0","","-4.1","","64","","","","29","","12","","24.1","","95.49","","","","","","Mostly Cloudy"
"-94.36","49.79","KENORA A","6034076","2023-02-12 19:00","2023","02","12","19:00","0.0","","-5.1","","69","","","","28","","13","","24.1","","95.49","","","","-4","","NA"
"-94.36","49.79","KENORA A","6034076","2023-02-12 20:00","2023","02","12","20:00","-1.5","","-5.6","","73","","","","29","","10","","32.2","","95.52","","","","-5","","NA"
"-94.36","49.79","KENORA A","6034076","2023-02-12 21:00","2023","02","12","21:00","-2.5","","-5.8","","78","","","","27","","12","","32.2","","95.50","","","","-7","","Mainly Clear"
"-94.36","49.79","KENORA A","6034076","2023-02-12 22:00","2023","02","12","22:00","-3.8","","-6.5","","82","","","","26","","12","","32.2","","95.48","","","","-8","","NA"
"-94.36","49.79","KENORA A","6034076","2023-02-12 23:00","2023","02","12","23:00","-5.3","","-7.1","","87","","","","25","","11","","32.2","","95.46","","","","-10","","NA"
"-94.36","49.79","KENORA A","6034076","2023-02-13 00:00","2023","02","13","00:00","-4.7","","-6.6","","87","","","","24","","12","","32.2","","95.42","","","","-9","","Clear"
"-94.36","49.79","KENORA A","6034076","2023-02-13 01:00","2023","02","13","01:00","-6.3","","-7.7","","90","","","","25","","9","","32.2","","95.41","","","","-11","","NA"
"-94.36","49.79","KENORA A","6034076","2023-02-13 02:00","2023","02","13","02:00","-6.6","","-7.7","","92","","","","26","","12","","32.2","","95.42","","","","-12","","NA"
"-94.36","49.79","KENORA A","6034076","2023-02-13 03:00","2023","02","13","03:00","-5.6","","-7.3","","88","","","","28","","13","","32.2","","95.43","","","","-11","","Mainly Clear"
"-94.36","49.79","KENORA A","6034076","2023-02-13 04:00","2023","02","13","04:00","-5.8","","-7.5","","88","","","","28","","13","","32.2","","95.45","","","","-11","","NA"
"-94.36","49.79","KENORA A","6034076","2023-02-13 05:00","2023","02","13","05:00","-6.5","","-8.0","","90","","","","26","","13","","32.2","","95.45","","","","-12","","NA"
"-94.36","49.79","KENORA A","6034076","2023-02-13 06:00","2023","02","13","06:00","-7.3","","-8.4","","92","","","","26","","12","","32.2","","95.49","","","","-13","","Clear"
"-94.36","49.79","KENORA A","6034076","2023-02-13 07:00","2023","02","13","07:00","-9.0","","-9.7","","95","","","","25","","12","","32.2","","95.47","","","","-15","","NA"
"-94.36","49.79","KENORA A","6034076","2023-02-13 08:00","2023","02","13","08:00","-9.6","","-10.5","","93","","","","23","","11","","24.1","","95.48","","","","-15","","NA"
"-94.36","49.79","KENORA A","6034076","2023-02-13 09:00","2023","02","13","09:00","-8.6","","-9.5","","93","","","","21","","10","","24.1","","95.50","","","","-14","","Mostly Cloudy"
"-94.36","49.79","KENORA A","6034076","2023-02-13 10:00","2023","02","13","10:00","-6.7","","-7.8","","92","","","","20","","9","","24.1","","95.44","","","","-11","","NA"
"-94.36","49.79","KENORA A","6034076","2023-02-13 11:00","2023","02","13","11:00","-4.3","","-7.1","","81","","","","16","","14","","32.2","","95.39","","","","-9","","NA"
"-94.36","49.79","KENORA A","6034076","2023-02-13 12:00","2023","02","13","12:00","-1.9","","-6.8","","69","","","","20","","14","","32.2","","95.32","","","","-7","","Mostly Cloudy"
"-94.36","49.79","KENORA A","6034076","2023-02-13 13:00","2023","02","13","13:00","-0.7","","-7.1","","62","","","","19","","17","","32.2","","95.21","","","","-6","","NA"
"-94.36","49.79","KENORA A","6034076","2023-02-13 14:00","2023","02","13","14:00","0.0","","-6.7","","61","","","","17","","19","","32.2","","95.12","","","","-5","","NA"
"-94.36","49.79","KENORA A","6034076","2023-02-13 15:00","2023","02","13","15:00","1.8","","-6.4","","54","","","","17","","18","","32.2","","95.01","","","","","","Mostly Cloudy"
"-94.36","49.79","KENORA A","6034076","2023-02-13 16:00","2023","02","13","16:00","2.6","","-6.2","","52","","","","17","","17","","32.2","","94.87","","","","","","NA"
"-94.36","49.79","KENORA A","6034076","2023-02-13 17:00","2023","02","13","17:00","2.3","","-6.1","","54","","","","17","","20","","32.2","","94.75","","","","","","NA"
"-94.36","49.79","KENORA A","6034076","2023-02-13 18:00","2023","02","13","18:00","2.5","","-6.5","","51","","","","17","","21","","32.2","","94.68","","","","","","Mostly Cloudy"
"-94.36","49.79","KENORA A","6034076","2023-02-13 19:00","2023","02","13","19:00","2.6","","-6.3","","52","","","","18","","21","","32.2","","94.60","","","","","","NA"
"-94.36","49.79","KENORA A","6034076","2023-02-13 20:00","2023","02","13","20:00","2.4","","-5.7","","55","","","","19","","21","","32.2","","94.52","","","","","","NA"
"-94.36","49.79","KENORA A","6034076","2023-02-13 21:00","2023","02","13","21:00","2.0","","-5.3","","59","","","","19","","25","","32.2","","94.45","","","","","","Mainly Clear"
"-94.36","49.79","KENORA A","6034076","2023-02-13 22:00","2023","02","13","22:00","1.6","","-4.8","","62","","","","20","","24","","32.2","","94.37","","","","","","NA"
"-94.36","49.79","KENORA A","6034076","2023-02-13 23:00","2023","02","13","23:00","0.5","","-4.6","","69","","","","21","","23","","32.2","","94.41","","","","","","NA"
"-94.36","49.79","KENORA A","6034076","2023-02-14 00:00","2023","02","14","00:00","-0.3","","-4.1","","76","","","","20","","26","","32.2","","94.44","","","","-6","","Clear"
"-94.36","49.79","KENORA A","6034076","2023-02-14 01:00","2023","02","14","01:00","-1.2","","-4.2","","80","","","","20","","16","","32.2","","94.51","","","","-6","","NA"
"-94.36","49.79","KENORA A","6034076","2023-02-14 02:00","2023","02","14","02:00","-1.0","","-3.7","","82","","","","20","","14","","32.2","","94.52","","","","-5","","NA"
"-94.36","49.79","KENORA A","6034076","2023-02-14 03:00","2023","02","14","03:00","-0.9","","-3.4","","83","","","","19","","14","","32.2","","94.55","","","","-5","","Mostly Cloudy"
"-94.36","49.79","KENORA A","6034076","2023-02-14 04:00","2023","02","14","04:00","-0.7","","-3.0","","84","","","","20","","14","","32.2","","94.58","","","","-5","","NA"
"-94.36","49.79","KENORA A","6034076","2023-02-14 05:00","2023","02","14","05:00","-1.1","","-3.2","","85","","","","20","","10","","32.2","","94.60","","","","-5","","NA"
"-94.36","49.79","KENORA A","6034076","2023-02-14 06:00","2023","02","14","06:00","-1.1","","-3.0","","87","","","","22","","9","","32.2","","94.63","","","","-4","","Mostly Cloudy"
"-94.36","49.79","KENORA A","6034076","2023-02-14 07:00","2023","02","14","07:00","-0.9","","-2.9","","87","","","","20","","6","","32.2","","94.66","","","","-3","","NA"
"-94.36","49.79","KENORA A","6034076","2023-02-14 08:00","2023","02","14","08:00","-1.0","","-3.1","","86","","","","23","","5","","24.1","","94.74","","","","-3","","NA"
"-94.36","49.79","KENORA A","6034076","2023-02-14 09:00","2023","02","14","09:00","-0.6","","-2.8","","85","","","","31","","3","","24.1","","94.78","","","","-2","","Cloudy"
"-94.36","49.79","KENORA A","6034076","2023-02-14 10:00","2023","02","14","10:00","0.4","","-2.4","","81","","","","36","","6","","24.1","","94.79","","","","","","NA"
"-94.36","49.79","KENORA A","6034076","2023-02-14 11:00","2023","02","14","11:00","0.9","","-2.1","","81","","","","4","","7","","32.2","","94.85","","","","","","NA"
"-94.36","49.79","KENORA A","6034076","2023-02-14 12:00","2023","02","14","12:00","1.5","","-1.9","","78","","","","8","","6","","32.2","","94.87","","","","","","Cloudy"
"-94.36","49.79","KENORA A","6034076","2023-02-14 13:00","2023","02","14","13:00","2.3","","-1.8","","74","","","","11","","9","","32.2","","94.87","","","","","","NA"
"-94.36","49.79","KENORA A","6034076","2023-02-14 14:00","2023","02","14","14:00","2.8","","-1.9","","71","","","","1","","9","","24.1","","94.91","","","","","","NA"
"-94.36","49.79","KENORA A","6034076","2023-02-14 15:00","2023","02","14","15:00","3.4","","-1.8","","69","","","","3","","11","","24.1","","94.94","","","","","","Cloudy"
"-94.36","49.79","KENORA A","6034076","2023-02-14 16:00","2023","02","14","16:00","2.9","","-2.1","","70","","","","3","","13","","24.1","","94.95","","","","","","NA"
"-94.36","49.79","KENORA A","6034076","2023-02-14 17:00","2023","02","14","17:00","2.8","","-2.7","","67","","","","3","","20","","32.2","","95.00","","","","","","NA"
"-94.36","49.79","KENORA A","6034076","2023-02-14 18:00","2023","02","14","18:00","1.9","","-3.1","","70","","","","2","","22","","32.2","","94.97","","","","","","Cloudy"
"-94.36","49.79","KENORA A","6034076","2023-02-14 19:00","2023","02","14","19:00","0.9","","-3.7","","71","","","","3","","23","","32.2","","95.04","","","","","","NA"
"-94.36","49.79","KENORA A","6034076","2023-02-14 20:00","2023","02","14","20:00","0.3","","-4.5","","70","","","","2","","25","","32.2","","95.05","","","","","","NA"
"-94.36","49.79","KENORA A","6034076","2023-02-14 21:00","2023","02","14","21:00","-0.4","","-4.3","","75","","","","3","","23","","32.2","","95.08","","","","-6","","Cloudy"
"-94.36","49.79","KENORA A","6034076","2023-02-14 22:00","2023","02","14","22:00","-0.8","","-4.4","","77","","","","2","","20","","32.2","","95.07","","","","-6","","NA"
"-94.36","49.79","KENORA A","6034076","2023-02-14 23:00","2023","02","14","23:00","-1.3","","-4.8","","77","","","","36","","21","","32.2","","95.10","","","","-7","","NA"
"-94.36","49.79","KENORA A","6034076","2023-02-15 00:00","2023","02","15","00:00","-3.9","","-7.6","","76","","","","36","","23","","32.2","","95.19","","","","-11","","Snow"
"-94.36","49.79","KENORA A","6034076","2023-02-15 01:00","2023","02","15","01:00","-6.3","","-9.9","","76","","","","36","","31","","32.2","","95.25","","","","-15","","Snow"
"-94.36","49.79","KENORA A","6034076","2023-02-15 02:00","2023","02","15","02:00","-7.9","","-11.2","","78","","","","36","","24","","32.2","","95.30","","","","-16","","NA"
"-94.36","49.79","KENORA A","6034076","2023-02-15 03:00","2023","02","15","03:00","-9.7","","-13.0","","77","","","","36","","37","","32.2","","95.36","","","","-20","","Cloudy"
"-94.36","49.79","KENORA A","6034076","2023-02-15 04:00","2023","02","15","04:00","-11.4","","-14.5","","79","","","","35","","28","","24.1","","95.47","","","","-21","","Snow"
"-94.36","49.79","KENORA A","6034076","2023-02-15 05:00","2023","02","15","05:00","-12.6","","-15.4","","79","","","","36","","27","","24.1","","95.59","","","","-22","","Snow"
"-94.36","49.79","KENORA A","6034076","2023-02-15 06:00","2023","02","15","06:00","-13.7","","-16.4","","80","","","","35","","25","","24.1","","95.75","","","","-24","","Snow"
"-94.36","49.79","KENORA A","6034076","2023-02-15 07:00","2023","02","15","07:00","-14.6","","-17.6","","78","","","","36","","28","","24.1","","95.92","","","","-25","","Snow"
"-94.36","49.79","KENORA A","6034076","2023-02-15 08:00","2023","02","15","08:00","-15.0","","-18.1","","77","","","","35","","18","","24.1","","96.08","","","","-24","","Snow"
"-94.36","49.79","KENORA A","6034076","2023-02-15 09:00","2023","02","15","09:00","-16.9","","-20.6","","73","","","","32","","25","","32.2","","96.17","","","","-28","","Mostly Cloudy"
"-94.36","49.79","KENORA A","6034076","2023-02-15 10:00","2023","02","15","10:00","-16.8","","-21.3","","69","","","","34","","18","","32.2","","96.27","","","","-26","","NA"
"-94.36","49.79","KENORA A","6034076","2023-02-15 11:00","2023","02","15","11:00","-16.1","","-21.4","","64","","","","33","","26","","32.2","","96.41","","","","-27","","NA"
"-94.36","49.79","KENORA A","6034076","2023-02-15 12:00","2023","02","15","12:00","-14.8","","-21.1","","59","","","","32","","21","","32.2","","96.49","","","","-24","","Mainly Clear"
"-94.36","49.79","KENORA A","6034076","2023-02-15 13:00","2023","02","15","13:00","-13.2","","-21.0","","53","","","","33","","19","","32.2","","96.53","","","","-22","","NA"
"-94.36","49.79","KENORA A","6034076","2023-02-15 14:00","2023","02","15","14:00","-12.0","","-21.5","","46","","","","32","","16","","32.2","","96.57","","","","-19","","NA"
"-94.36","49.79","KENORA A","6034076","2023-02-15 15:00","2023","02","15","15:00","-11.2","","-21.0","","45","","","","32","","14","","32.2","","96.59","","","","-18","","Mainly Clear"
"-94.36","49.79","KENORA A","6034076","2023-02-15 16:00","2023","02","15","16:00","-11.3","","-21.2","","44","","","","33","","11","","32.2","","96.66","","","","-17","","NA"
"-94.36","49.79","KENORA A","6034076","2023-02-15 17:00","2023","02","15","17:00","-12.2","","-21.6","","46","","","","30","","12","","32.2","","96.71","","","","-19","","NA"
"-94.36","49.79","KENORA A","6034076","2023-02-15 18:00","2023","02","15","18:00","-13.4","","-22.1","","49","","","","31","","15","","32.2","","96.82","","","","-21","","Mostly Cloudy"
"-94.36","49.79","KENORA A","6034076","2023-02-15 19:00","2023","02","15","19:00","-14.6","","-23.2","","49","","","","30","","12","","32.2","","96.91","","","","-21","","NA"
"-94.36","49.79","KENORA A","6034076","2023-02-15 20:00","2023","02","15","20:00","-15.5","","-23.1","","53","","","","29","","14","","32.2","","96.96","","","","-23","","NA"
"-94.36","49.79","KENORA A","6034076","2023-02-15 21:00","2023","02","15","21:00","-16.4","","-23.3","","56","","","","29","","19","","32.2","","97.04","","","","-26","","Snow"
"-94.36","49.79","KENORA A","6034076","2023-02-15 22:00","2023","02","15","22:00","-17.0","","-23.6","","58","","","","31","","15","","32.2","","97.12","","","","-25","","Snow"
"-94.36","49.79","KENORA A","6034076","2023-02-15 23:00","2023","02","15","23:00","-17.5","","-23.4","","61","","","","30","","16","","32.2","","97.18","","","","-26","","Snow"
"-94.36","49.79","KENORA A","6034076","2023-02-16 00:00","2023","02","16","00:00","-17.7","","-22.9","","64","","","","33","","14","","32.2","","97.24","","","","-26","","Snow"
"-94.36","49.79","KENORA A","6034076","2023-02-16 01:00","2023","02","16","01:00","-18.1","","-23.0","","66","","","","32","","13","","32.2","","97.29","","","","-26","","Snow"
"-94.36","49.79","KENORA A","6034076","2023-02-16 02:00","2023","02","16","02:00","-18.5","","-22.8","","69","","","","32","","10","","32.2","","97.32","","","","-25","","Snow"
"-94.36","49.79","KENORA A","6034076","2023-02-16 03:00","2023","02","16","03:00","-19.5","","-23.5","","71","","","","33","","12","","32.2","","97.37","","","","-27","","Snow"
"-94.36","49.79","KENORA A","6034076","2023-02-16 04:00","2023","02","16","04:00","-20.5","","-24.1","","73","","","","33","","10","","32.2","","97.40","","","","-28","","NA"
"-94.36","49.79","KENORA A","6034076","2023-02-16 05:00","2023","02","16","05:00","-20.9","","-24.3","","74","","","","32","","7","","32.2","","97.41","","","","-27","","NA"
"-94.36","49.79","KENORA A","6034076","2023-02-16 06:00","2023","02","16","06:00","-21.1","","-24.3","","76","","","","31","","8","","32.2","","97.43","","","","-28","","Clear"
"-94.36","49.79","KENORA A","6034076","2023-02-16 07:00","2023","02","16","07:00","-21.3","","-24.3","","77","","","","30","","9","","32.2","","97.46","","","","-28","","NA"
"-94.36","49.79","KENORA A","6034076","2023-02-16 08:00","2023","02","16","08:00","-21.1","","-24.2","","76","","","","30","","10","","32.2","","97.52","","","","-29","","NA"
"-94.36","49.79","KENORA A","6034076","2023-02-16 09:00","2023","02","16","09:00","-20.7","","-24.2","","73","","","","31","","12","","32.2","","97.60","","","","-29","","Mainly Clear"
"-94.36","49.79","KENORA A","6034076","2023-02-16 10:00","2023","02","16","10:00","-19.7","","-24.4","","67","","","","33","","15","","32.2","","97.64","","","","-29","","NA"
"-94.36","49.79","KENORA A","6034076","2023-02-16 11:00","2023","02","16","11:00","-17.9","","-23.9","","60","","","","34","","14","","32.2","","97.66","","","","-26","","NA"
"-94.36","49.79","KENORA A","6034076","2023-02-16 12:00","2023","02","16","12:00","-16.8","","-23.5","","57","","","","35","","7","","32.2","","97.67","","","","-22","","Clear"
"-94.36","49.79","KENORA A","6034076","2023-02-16 13:00","2023","02","16","13:00","-15.3","","-23.0","","52","","","","33","","13","","32.2","","97.58","","","","-23","","NA"
"-94.36","49.79","KENORA A","6034076","2023-02-16 14:00","2023","02","16","14:00","-14.0","","-22.5","","49","","","","31","","10","","32.2","","97.57","","","","-20","","NA"
"-94.36","49.79","KENORA A","6034076","2023-02-16 15:00","2023","02","16","15:00","-13.4","","-22.1","","48","","","","34","","9","","32.2","","97.53","","","","-19","","Clear"
"-94.36","49.79","KENORA A","6034076","2023-02-16 16:00","2023","02","16","16:00","-13.3","","-22.5","","46","","","","32","","9","","32.2","","97.51","","","","-19","","NA"
"-94.36","49.79","KENORA A","6034076","2023-02-16 17:00","2023","02","16","17:00","-13.7","","-22.5","","48","","","","33","","9","","32.2","","97.49","","","","-19","","NA"
"-94.36","49.79","KENORA A","6034076","2023-02-16 18:00","2023","02","16","18:00","-14.5","","-22.6","","51","","","","28","","4","","32.2","","97.47","","","","-17","","Mainly Clear"
"-94.36","49.79","KENORA A","6034076","2023-02-16 19:00","2023","02","16","19:00","-15.1","","-22.5","","54","","","","29","","7","","32.2","","97.50","","","","-20","","NA"
"-94.36","49.79","KENORA A","6034076","2023-02-16 20:00","2023","02","16","20:00","-15.6","","-22.7","","55","","","","30","","8","","32.2","","97.44","","","","-21","","NA"
"-94.36","49.79","KENORA A","6034076","2023-02-16 21:00","2023","02","16","21:00","-17.9","","-23.0","","65","","","","20","","8","","32.2","","97.37","","","","-24","","Mainly Clear"
"-94.36","49.79","KENORA A","6034076","2023-02-16 22:00","2023","02","16","22:00","-18.6","","-22.2","","73","","","","20","","9","","32.2","","97.33","","","","-25","","NA"
"-94.36","49.79","KENORA A","6034076","2023-02-16 23:00","2023","02","16","23:00","-19.2","","-22.2","","78","","","","21","","8","","32.2","","97.29","","","","-25","","NA"
"-94.36","49.79","KENORA A","6034076","2023-02-17 00:00","2023","02","17","00:00","-19.8","","-22.4","","80","","","","20","","9","","32.2","","97.22","","","","-27","","Mainly Clear"
"-94.36","49.79","KENORA A","6034076","2023-02-17 01:00","2023","02","17","01:00","-20.3","","-22.8","","81","","","","19","","14","","32.2","","97.12","","","","-29","","NA"
"-94.36","49.79","KENORA A","6034076","2023-02-17 02:00","2023","02","17","02:00","-19.3","","-22.4","","77","","","","21","","14","","32.2","","97.06","","","","-28","","NA"
"-94.36","49.79","KENORA A","6034076","2023-02-17 03:00","2023","02","17","03:00","-20.0","","-22.8","","78","","","","20","","14","","32.2","","96.98","","","","-29","","Mainly Clear"
"-94.36","49.79","KENORA A","6034076","2023-02-17 04:00","2023","02","17","04:00","-19.7","","-22.5","","79","","","","19","","19","","32.2","","96.86","","","","-30","","NA"
"-94.36","49.79","KENORA A","6034076","2023-02-17 05:00","2023","02","17","05:00","-19.4","","-22.5","","77","","","","19","","20","","32.2","","96.73","","","","-30","","NA"
"-94.36","49.79","KENORA A","6034076","2023-02-17 06:00","2023","02","17","06:00","-19.3","","-22.4","","76","","","","19","","18","","32.2","","96.61","","","","-29","","Mainly Clear"
"-94.36","49.79","KENORA A","6034076","2023-02-17 07:00","2023","02","17","07:00","-19.0","","-22.7","","73","","","","19","","20","","32.2","","96.48","","","","-29","","NA"
"-94.36","49.79","KENORA A","6034076","2023-02-17 08:00","2023","02","17","08:00","-17.3","","-22.2","","67","","","","19","","22","","32.2","","96.34","","","","-28","","NA"
"-94.36","49.79","KENORA A","6034076","2023-02-17 09:00","2023","02","17","09:00","-16.0","","-20.9","","67","","","","19","","27","","32.2","","96.14","","","","-27","","Mostly Cloudy"
"-94.36","49.79","KENORA A","6034076","2023-02-17 10:00","2023","02","17","10:00","-13.8","","-18.9","","66","","","","19","","27","","32.2","","96.01","","","","-24","","NA"
"-94.36","49.79","KENORA A","6034076","2023-02-17 11:00","2023","02","17","11:00","-11.3","","-17.0","","63","","","","20","","32","","32.2","","95.88","","","","-22","","NA"
"-94.36","49.79","KENORA A","6034076","2023-02-17 12:00","2023","02","17","12:00","-9.7","","-14.5","","69","","","","20","","28","","32.2","","95.71","","","","-19","","Snow"
"-94.36","49.79","KENORA A","6034076","2023-02-17 13:00","2023","02","17","13:00","-8.1","","-13.9","","63","","","","21","","30","","32.2","","95.60","","","","-17","","NA"
"-94.36","49.79","KENORA A","6034076","2023-02-17 14:00","2023","02","17","14:00","-6.5","","-12.4","","63","","","","22","","28","","32.2","","95.55","","","","-15","","NA"
"-94.36","49.79","KENORA A","6034076","2023-02-17 15:00","2023","02","17","15:00","-6.0","","-11.9","","63","","","","23","","25","","32.2","","95.56","","","","-14","","Cloudy"
"-94.36","49.79","KENORA A","6034076","2023-02-17 16:00","2023","02","17","16:00","-5.3","","-10.9","","65","","","","26","","22","","32.2","","95.61","","","","-12","","NA"
"-94.36","49.79","KENORA A","6034076","2023-02-17 17:00","2023","02","17","17:00","-5.7","","-11.2","","66","","","","25","","16","","32.2","","95.71","","","","-12","","NA"
"-94.36","49.79","KENORA A","6034076","2023-02-17 18:00","2023","02","17","18:00","-6.0","","-10.5","","71","","","","25","","11","","32.2","","95.74","","","","-11","","Cloudy"
"-94.36","49.79","KENORA A","6034076","2023-02-17 19:00","2023","02","17","19:00","-5.5","","-10.0","","71","","","","29","","15","","32.2","","95.85","","","","-11","","NA"
"-94.36","49.79","KENORA A","6034076","2023-02-17 20:00","2023","02","17","20:00","-6.8","","-9.9","","79","","","","33","","20","","32.2","","95.94","","","","-14","","NA"
"-94.36","49.79","KENORA A","6034076","2023-02-17 21:00","2023","02","17","21:00","-7.5","","-11.0","","76","","","","32","","13","","32.2","","96.05","","","","-13","","Snow"
"-94.36","49.79","KENORA A","6034076","2023-02-17 22:00","2023","02","17","22:00","-7.5","","-10.9","","77","","","","29","","10","","32.2","","96.09","","","","-12","","Snow"
"-94.36","49.79","KENORA A","6034076","2023-02-17 23:00","2023","02","17","23:00","-8.7","","-11.4","","81","","","","27","","9","","32.2","","96.10","","","","-13","","Snow"
"-94.36","49.79","KENORA A","6034076","2023-02-18 00:00","2023","02","18","00:00","-7.9","","-10.7","","81","","","","27","","13","","24.1","","96.17","","","","-14","","Snow"
"-94.36","49.79","KENORA A","6034076","2023-02-18 01:00","2023","02","18","01:00","-8.0","","-10.5","","83","","","","29","","18","","24.1","","96.24","","","","-15","","Snow"
"-94.36","49.79","KENORA A","6034076","2023-02-18 02:00","2023","02","18","02:00","-9.3","","-11.2","","86","","","","30","","8","","32.2","","96.31","","","","-14","","NA"
"-94.36","49.79","KENORA A","6034076","2023-02-18 03:00","2023","02","18","03:00","-12.0","","-15.8","","74","","","","32","","12","","32.2","","96.37","","","","-18","","Mainly Clear"
"-94.36","49.79","KENORA A","6034076","2023-02-18 04:00","2023","02","18","04:00","-12.9","","-16.7","","73","","","","33","","6","","32.2","","96.37","","","","-17","","NA"
"-94.36","49.79","KENORA A","6034076","2023-02-18 05:00","2023","02","18","05:00","-13.2","","-17.5","","71","","","","32","","7","","32.2","","96.38","","","","-18","","NA"
"-94.36","49.79","KENORA A","6034076","2023-02-18 06:00","2023","02","18","06:00","-13.1","","-17.4","","70","","","","27","","5","","32.2","","96.42","","","","-16","","Cloudy"
"-94.36","49.79","KENORA A","6034076","2023-02-18 07:00","2023","02","18","07:00","-12.9","","-17.8","","67","","","","29","","5","","32.2","","96.41","","","","-16","","NA"
"-94.36","49.79","KENORA A","6034076","2023-02-18 08:00","2023","02","18","08:00","-12.9","","-17.3","","70","","","","20","","7","","32.2","","96.42","","","","-17","","NA"
"-94.36","49.79","KENORA A","6034076","2023-02-18 09:00","2023","02","18","09:00","-11.9","","-16.6","","68","","","","18","","6","","32.2","","96.41","","","","-16","","Cloudy"
"-94.36","49.79","KENORA A","6034076","2023-02-18 10:00","2023","02","18","10:00","-9.7","","-15.4","","64","","","","17","","14","","24.1","","96.41","","","","-16","","NA"
"-94.36","49.79","KENORA A","6034076","2023-02-18 11:00","2023","02","18","11:00","-8.4","","-14.5","","62","","","","14","","14","","24.1","","96.35","","","","-15","","NA"
"-94.36","49.79","KENORA A","6034076","2023-02-18 12:00","2023","02","18","12:00","-6.1","","-11.6","","65","","","","18","","16","","32.2","","96.25","","","","-12","","Mostly Cloudy"
"-94.36","49.79","KENORA A","6034076","2023-02-18 13:00","2023","02","18","13:00","-4.6","","-9.8","","67","","","","19","","19","","32.2","","96.16","","","","-11","","NA"
"-94.36","49.79","KENORA A","6034076","2023-02-18 14:00","2023","02","18","14:00","-3.5","","-8.1","","71","","","","20","","16","","24.1","","96.07","","","","-9","","NA"
"-94.36","49.79","KENORA A","6034076","2023-02-18 15:00","2023","02","18","15:00","-3.3","","-7.5","","73","","","","21","","25","","24.1","","96.01","","","","-10","","Cloudy"
"-94.36","49.79","KENORA A","6034076","2023-02-18 16:00","2023","02","18","16:00","-3.3","","-7.2","","75","","","","21","","23","","32.2","","95.99","","","","-10","","NA"
"-94.36","49.79","KENORA A","6034076","2023-02-18 17:00","2023","02","18","17:00","-3.2","","-6.8","","76","","","","21","","15","","32.2","","95.92","","","","-8","","NA"
"-94.36","49.79","KENORA A","6034076","2023-02-18 18:00","2023","02","18","18:00","-3.2","","-6.8","","76","","","","19","","12","","24.1","","95.84","","","","-8","","Cloudy"
"-94.36","49.79","KENORA A","6034076","2023-02-18 19:00","2023","02","18","19:00","-3.0","","-6.4","","77","","","","17","","13","","24.1","","95.75","","","","-8","","NA"
"-94.36","49.79","KENORA A","6034076","2023-02-18 20:00","2023","02","18","20:00","-2.4","","-5.0","","82","","","","19","","18","","24.1","","95.70","","","","-8","","NA"
"-94.36","49.79","KENORA A","6034076","2023-02-18 21:00","2023","02","18","21:00","-2.5","","-3.2","","95","","","","20","","12","","2.4","","95.61","","","","-7","","Snow"
"-94.36","49.79","KENORA A","6034076","2023-02-18 22:00","2023","02","18","22:00","-2.4","","-2.9","","97","","","","18","","8","","1.2","","95.51","","","","-6","","Snow"
"-94.36","49.79","KENORA A","6034076","2023-02-18 23:00","2023","02","18","23:00","-2.6","","-3.0","","97","","","","36","","1","","1.2","","95.40","","","","-3","","Snow"
"-94.36","49.79","KENORA A","6034076","2023-02-19 00:00","2023","02","19","00:00","-2.5","","-2.8","","98","","","","27","","5","","2.4","","95.33","","","","-4","","Snow"
"-94.36","49.79","KENORA A","6034076","2023-02-19 01:00","2023","02","19","01:00","-2.6","","-3.0","","97","","","","30","","5","","3.2","","95.31","","","","-5","","Snow"
"-94.36","49.79","KENORA A","6034076","2023-02-19 02:00","2023","02","19","02:00","-3.7","","-4.9","","91","","","","33","","23","","3.2","","95.36","","","","-10","","Snow,Fog"
"-94.36","49.79","KENORA A","6034076","2023-02-19 03:00","2023","02","19","03:00","-5.7","","-7.3","","89","","","","33","","20","","12.9","","95.44","","","","-12","","Snow"
"-94.36","49.79","KENORA A","6034076","2023-02-19 04:00","2023","02","19","04:00","-7.3","","-9.0","","88","","","","33","","26","","16.1","","95.54","","","","-15","","Snow"
"-94.36","49.79","KENORA A","6034076","2023-02-19 05:00","2023","02","19","05:00","-10.4","","-12.5","","85","","","","33","","20","","16.1","","95.64","","","","-18","","Snow"
"-94.36","49.79","KENORA A","6034076","2023-02-19 06:00","2023","02","19","06:00","-12.9","","-15.3","","82","","","","34","","23","","12.9","","95.78","","","","-22","","Snow"
"-94.36","49.79","KENORA A","6034076","2023-02-19 07:00","2023","02","19","07:00","-15.1","","-17.4","","83","","","","35","","17","","24.1","","95.89","","","","-24","","Snow,Blowing Snow"
"-94.36","49.79","KENORA A","6034076","2023-02-19 08:00","2023","02","19","08:00","-17.1","","-19.6","","81","","","","34","","21","","24.1","","95.98","","","","-27","","Snow,Blowing Snow"
"-94.36","49.79","KENORA A","6034076","2023-02-19 09:00","2023","02","19","09:00","-16.6","","-19.2","","81","","","","34","","14","","32.2","","96.05","","","","-25","","Blowing Snow"
"-94.36","49.79","KENORA A","6034076","2023-02-19 10:00","2023","02","19","10:00","-16.2","","-19.7","","75","","","","34","","16","","24.1","","96.11","","","","-25","","Blowing Snow"
"-94.36","49.79","KENORA A","6034076","2023-02-19 11:00","2023","02","19","11:00","-15.6","","-20.4","","67","","","","33","","21","","32.2","","96.18","","","","-25","","Blowing Snow"
"-94.36","49.79","KENORA A","6034076","2023-02-19 12:00","2023","02","19","12:00","-15.5","","-21.3","","62","","","","32","","14","","32.2","","96.17","","","","-23","","Blowing Snow"
"-94.36","49.79","KENORA A","6034076","2023-02-19 13:00","2023","02","19","13:00","-15.2","","-22.0","","57","","","","32","","16","","32.2","","96.15","","","","-23","","NA"
"-94.36","49.79","KENORA A","6034076","2023-02-19 14:00","2023","02","19","14:00","-14.7","","-22.1","","54","","","","35","","16","","24.1","","96.18","","","","-23","","NA"
"-94.36","49.79","KENORA A","6034076","2023-02-19 15:00","2023","02","19","15:00","-14.8","","-22.8","","51","","","","34","","20","","32.2","","96.18","","","","-24","","Mostly Cloudy"
"-94.36","49.79","KENORA A","6034076","2023-02-19 16:00","2023","02","19","16:00","-14.4","","-21.6","","55","","","","35","","14","","32.2","","96.19","","","","-22","","NA"
"-94.36","49.79","KENORA A","6034076","2023-02-19 17:00","2023","02","19","17:00","-14.7","","-21.2","","58","","","","33","","9","","32.2","","96.18","","","","-20","","NA"
"-94.36","49.79","KENORA A","6034076","2023-02-19 18:00","2023","02","19","18:00","-15.8","","-22.1","","59","","","","32","","5","","24.1","","96.19","","","","-20","","Mainly Clear"
"-94.36","49.79","KENORA A","6034076","2023-02-19 19:00","2023","02","19","19:00","-16.3","","-22.4","","60","","","","32","","5","","24.1","","96.23","","","","-20","","NA"
"-94.36","49.79","KENORA A","6034076","2023-02-19 20:00","2023","02","19","20:00","-17.0","","-22.4","","63","","","","29","","9","","24.1","","96.23","","","","-23","","NA"
"-94.36","49.79","KENORA A","6034076","2023-02-19 21:00","2023","02","19","21:00","-18.4","","-22.9","","68","","","","32","","12","","24.1","","96.21","","","","-26","","Mainly Clear"
"-94.36","49.79","KENORA A","6034076","2023-02-19 22:00","2023","02","19","22:00","-19.3","","-23.3","","71","","","","34","","11","","24.1","","96.17","","","","-27","","NA"
"-94.36","49.79","KENORA A","6034076","2023-02-19 23:00","2023","02","19","23:00","-20.9","","-23.9","","77","","","","1","","9","","24.1","","96.15","","","","-28","","NA"
"-94.36","49.79","KENORA A","6034076","2023-02-20 00:00","2023","02","20","00:00","-21.6","","-24.2","","80","","","","1","","4","","24.1","","96.13","","","","-25","","Mainly Clear"
"-94.36","49.79","KENORA A","6034076","2023-02-20 01:00","2023","02","20","01:00","-20.4","","-23.7","","75","","","","8","","10","","24.1","","96.08","","","","-28","","NA"
"-94.36","49.79","KENORA A","6034076","2023-02-20 02:00","2023","02","20","02:00","-21.6","","-24.5","","78","","","","9","","12","","24.1","","96.02","","","","-30","","NA"
"-94.36","49.79","KENORA A","6034076","2023-02-20 03:00","2023","02","20","03:00","-22.2","","-25.4","","76","","","","11","","11","","24.1","","95.97","","","","-30","","Clear"
"-94.36","49.79","KENORA A","6034076","2023-02-20 04:00","2023","02","20","04:00","-21.6","","-25.2","","74","","","","13","","11","","24.1","","95.91","","","","-30","","NA"
"-94.36","49.79","KENORA A","6034076","2023-02-20 05:00","2023","02","20","05:00","-22.1","","-25.4","","75","","","","12","","11","","24.1","","95.87","","","","-30","","NA"
"-94.36","49.79","KENORA A","6034076","2023-02-20 06:00","2023","02","20","06:00","-22.4","","-25.6","","76","","","","11","","12","","24.1","","95.81","","","","-31","","Mainly Clear"
"-94.36","49.79","KENORA A","6034076","2023-02-20 07:00","2023","02","20","07:00","-22.0","","-25.2","","76","","","","11","","13","","32.2","","95.76","","","","-31","","NA"
"-94.36","49.79","KENORA A","6034076","2023-02-20 08:00","2023","02","20","08:00","-20.7","","-24.0","","75","","","","9","","11","","32.2","","95.75","","","","-28","","NA"
"-94.36","49.79","KENORA A","6034076","2023-02-20 09:00","2023","02","20","09:00","-21.0","","-24.4","","75","","","","7","","5","","32.2","","95.73","","","","-25","","Cloudy"
"-94.36","49.79","KENORA A","6034076","2023-02-20 10:00","2023","02","20","10:00","-19.5","","-23.0","","75","","","","3","","6","","32.2","","95.70","","","","-24","","NA"
"-94.36","49.79","KENORA A","6034076","2023-02-20 11:00","2023","02","20","11:00","-17.1","","-20.8","","73","","","","2","","9","","32.2","","95.69","","","","-23","","NA"
"-94.36","49.79","KENORA A","6034076","2023-02-20 12:00","2023","02","20","12:00","-14.8","","-18.6","","73","","","","4","","14","","9.7","","95.63","","","","-22","","Snow"
"-94.36","49.79","KENORA A","6034076","2023-02-20 13:00","2023","02","20","13:00","-12.9","","-17.6","","68","","","","3","","14","","12.9","","95.52","","","","-20","","Snow,Blowing Snow"
"-94.36","49.79","KENORA A","6034076","2023-02-20 14:00","2023","02","20","14:00","-13.2","","-17.3","","72","","","","3","","14","","6.4","","95.47","","","","-20","","Snow,Blowing Snow"
"-94.36","49.79","KENORA A","6034076","2023-02-20 15:00","2023","02","20","15:00","-13.6","","-17.5","","73","","","","4","","17","","12.9","","95.47","","","","-22","","Snow,Blowing Snow"
"-94.36","49.79","KENORA A","6034076","2023-02-20 16:00","2023","02","20","16:00","-13.4","","-17.4","","72","","","","3","","19","","4.8","","95.49","","","","-22","","Snow,Blowing Snow"
"-94.36","49.79","KENORA A","6034076","2023-02-20 17:00","2023","02","20","17:00","-13.8","","-16.8","","79","","","","1","","17","","2.4","","95.57","","","","-22","","Snow,Blowing Snow"
"-94.36","49.79","KENORA A","6034076","2023-02-20 18:00","2023","02","20","18:00","-14.6","","-17.6","","78","","","","36","","15","","4.8","","95.62","","","","-22","","Snow,Blowing Snow"
"-94.36","49.79","KENORA A","6034076","2023-02-20 19:00","2023","02","20","19:00","-14.9","","-17.1","","83","","","","36","","10","","2.4","","95.69","","","","-21","","Snow"
"-94.36","49.79","KENORA A","6034076","2023-02-20 20:00","2023","02","20","20:00","-15.6","","-18.4","","79","","","","36","","14","","6.4","","95.74","","","","-23","","Snow"
"-94.36","49.79","KENORA A","6034076","2023-02-20 21:00","2023","02","20","21:00","-16.3","","-19.8","","75","","","","34","","18","","12.9","","95.76","","","","-25","","Snow"
"-94.36","49.79","KENORA A","6034076","2023-02-20 22:00","2023","02","20","22:00","-17.9","","-21.4","","74","","","","35","","8","","24.1","","95.76","","","","-24","","NA"
"-94.36","49.79","KENORA A","6034076","2023-02-20 23:00","2023","02","20","23:00","-19.3","","-23.6","","69","","","","33","","14","","24.1","","95.77","","","","-28","","NA"
"-94.36","49.79","KENORA A","6034076","2023-02-21 00:00","2023","02","21","00:00","-20.0","","-23.8","","72","","","","32","","13","","24.1","","95.73","","","","-28","","Mainly Clear"
"-94.36","49.79","KENORA A","6034076","2023-02-21 01:00","2023","02","21","01:00","-21.3","","-24.6","","75","","","","31","","14","","24.1","","95.74","","","","-30","","NA"
"-94.36","49.79","KENORA A","6034076","2023-02-21 02:00","2023","02","21","02:00","-22.3","","-25.4","","76","","","","32","","15","","32.2","","95.73","","","","-32","","NA"
"-94.36","49.79","KENORA A","6034076","2023-02-21 03:00","2023","02","21","03:00","-23.0","","-26.2","","76","","","","31","","15","","24.1","","95.76","","","","-33","","Mainly Clear"
"-94.36","49.79","KENORA A","6034076","2023-02-21 04:00","2023","02","21","04:00","-23.8","","-26.9","","76","","","","34","","9","","32.2","","95.75","","","","-31","","NA"
"-94.36","49.79","KENORA A","6034076","2023-02-21 05:00","2023","02","21","05:00","-24.3","","-27.5","","75","","","","34","","7","","32.2","","95.80","","","","-31","","NA"
"-94.36","49.79","KENORA A","6034076","2023-02-21 06:00","2023","02","21","06:00","-24.9","","-28.1","","76","","","","30","","5","","32.2","","95.81","","","","-30","","Mainly Clear"
"-94.36","49.79","KENORA A","6034076","2023-02-21 07:00","2023","02","21","07:00","-26.1","","-29.2","","76","","","","24","","3","","32.2","","95.85","","","","-29","","NA"
"-94.36","49.79","KENORA A","6034076","2023-02-21 08:00","2023","02","21","08:00","-23.9","","-27.9","","70","","","","33","","5","","32.2","","95.86","","","","-29","","NA"
"-94.36","49.79","KENORA A","6034076","2023-02-21 09:00","2023","02","21","09:00","-22.3","","-26.9","","67","","","","29","","9","","32.2","","95.97","","","","-29","","Mainly Clear"
"-94.36","49.79","KENORA A","6034076","2023-02-21 10:00","2023","02","21","10:00","-20.3","","-26.2","","60","","","","26","","10","","32.2","","96.00","","","","-28","","NA"
"-94.36","49.79","KENORA A","6034076","2023-02-21 11:00","2023","02","21","11:00","-19.5","","-26.7","","54","","","","26","","19","","32.2","","96.05","","","","-30","","NA"
"-94.36","49.79","KENORA A","6034076","2023-02-21 12:00","2023","02","21","12:00","-17.7","","-24.4","","57","","","","34","","5","","32.2","","96.01","","","","-22","","Mainly Clear"
"-94.36","49.79","KENORA A","6034076","2023-02-21 13:00","2023","02","21","13:00","-16.4","","-25.3","","47","","","","34","","14","","32.2","","95.98","","","","-24","","NA"
"-94.36","49.79","KENORA A","6034076","2023-02-21 14:00","2023","02","21","14:00","-15.2","","-25.0","","44","","","","30","","15","","24.1","","95.98","","","","-23","","NA"
"-94.36","49.79","KENORA A","6034076","2023-02-21 15:00","2023","02","21","15:00","-15.1","","-25.1","","43","","","","32","","11","","32.2","","96.06","","","","-22","","Mainly Clear"
"-94.36","49.79","KENORA A","6034076","2023-02-21 16:00","2023","02","21","16:00","-14.9","","-24.9","","43","","","","33","","13","","32.2","","96.11","","","","-22","","NA"
"-94.36","49.79","KENORA A","6034076","2023-02-21 17:00","2023","02","21","17:00","-15.1","","-24.8","","44","","","","34","","8","","32.2","","96.19","","","","-20","","NA"
"-94.36","49.79","KENORA A","6034076","2023-02-21 18:00","2023","02","21","18:00","-17.4","","-24.7","","53","","","","24","","9","","24.1","","96.28","","","","-24","","Clear"
"-94.36","49.79","KENORA A","6034076","2023-02-21 19:00","2023","02","21","19:00","-16.9","","-24.6","","52","","","","30","","10","","24.1","","96.40","","","","-24","","NA"
"-94.36","49.79","KENORA A","6034076","2023-02-21 20:00","2023","02","21","20:00","-18.3","","-24.6","","58","","","","32","","11","","24.1","","96.50","","","","-26","","NA"
"-94.36","49.79","KENORA A","6034076","2023-02-21 21:00","2023","02","21","21:00","-19.3","","-24.9","","62","","","","32","","12","","24.1","","96.57","","","","-27","","Mainly Clear"
"-94.36","49.79","KENORA A","6034076","2023-02-21 22:00","2023","02","21","22:00","-20.6","","-26.0","","62","","","","33","","13","","24.1","","96.64","","","","-29","","NA"
"-94.36","49.79","KENORA A","6034076","2023-02-21 23:00","2023","02","21","23:00","-21.9","","-26.9","","64","","","","34","","14","","32.2","","96.78","","","","-31","","NA"
"-94.36","49.79","KENORA A","6034076","2023-02-22 00:00","2023","02","22","00:00","-23.3","","-27.9","","67","","","","33","","13","","32.2","","96.88","","","","-32","","Mainly Clear"
"-94.36","49.79","KENORA A","6034076","2023-02-22 01:00","2023","02","22","01:00","-24.6","","-28.8","","68","","","","34","","12","","32.2","","96.97","","","","-34","","NA"
"-94.36","49.79","KENORA A","6034076","2023-02-22 02:00","2023","02","22","02:00","-25.4","","-29.4","","70","","","","34","","12","","32.2","","97.05","","","","-35","","NA"
"-94.36","49.79","KENORA A","6034076","2023-02-22 03:00","2023","02","22","03:00","-26.2","","-30.1","","71","","","","35","","14","","32.2","","97.07","","","","-36","","Clear"
"-94.36","49.79","KENORA A","6034076","2023-02-22 04:00","2023","02","22","04:00","-27.1","","-30.6","","72","","","","35","","14","","32.2","","97.11","","","","-37","","NA"
"-94.36","49.79","KENORA A","6034076","2023-02-22 05:00","2023","02","22","05:00","-27.7","","-31.1","","73","","","","35","","14","","32.2","","97.18","","","","-38","","NA"
"-94.36","49.79","KENORA A","6034076","2023-02-22 06:00","2023","02","22","06:00","-28.3","","-31.5","","74","","","","36","","13","","32.2","","97.23","","","","-39","","Clear"
"-94.36","49.79","KENORA A","6034076","2023-02-22 07:00","2023","02","22","07:00","-28.9","","-32.0","","75","","","","36","","12","","32.2","","97.31","","","","-39","","NA"
"-94.36","49.79","KENORA A","6034076","2023-02-22 08:00","2023","02","22","08:00","-28.3","","-31.7","","73","","","","3","","9","","32.2","","97.44","","","","-37","","NA"
"-94.36","49.79","KENORA A","6034076","2023-02-22 09:00","2023","02","22","09:00","-26.8","","-30.7","","70","","","","2","","14","","32.2","","97.50","","","","-37","","Mainly Clear"
"-94.36","49.79","KENORA A","6034076","2023-02-22 10:00","2023","02","22","10:00","-23.9","","-29.0","","64","","","","2","","8","","32.2","","97.51","","","","-31","","NA"
"-94.36","49.79","KENORA A","6034076","2023-02-22 11:00","2023","02","22","11:00","-20.8","","-27.4","","56","","","","4","","10","","32.2","","97.54","","","","-28","","NA"
"-94.36","49.79","KENORA A","6034076","2023-02-22 12:00","2023","02","22","12:00","-19.1","","-27.6","","48","","","","3","","10","","32.2","","97.50","","","","-26","","Mainly Clear"
"-94.36","49.79","KENORA A","6034076","2023-02-22 13:00","2023","02","22","13:00","-18.1","","-27.9","","43","","","","5","","12","","32.2","","97.47","","","","-26","","NA"
"-94.36","49.79","KENORA A","6034076","2023-02-22 14:00","2023","02","22","14:00","-17.4","","-27.7","","41","","","","3","","17","","32.2","","97.41","","","","-26","","NA"
"-94.36","49.79","KENORA A","6034076","2023-02-22 15:00","2023","02","22","15:00","-17.0","","-27.3","","41","","","","4","","14","","32.2","","97.38","","","","-25","","Mainly Clear"
"-94.36","49.79","KENORA A","6034076","2023-02-22 16:00","2023","02","22","16:00","-17.1","","-27.3","","42","","","","5","","14","","32.2","","97.44","","","","-25","","NA"
"-94.36","49.79","KENORA A","6034076","2023-02-22 17:00","2023","02","22","17:00","-17.5","","-27.2","","43","","","","4","","8","","32.2","","97.48","","","","-23","","NA"
"-94.36","49.79","KENORA A","6034076","2023-02-22 18:00","2023","02","22","18:00","-19.1","","-27.6","","48","","","","1","","6","","32.2","","97.53","","","","-24","","Mainly Clear"
"-94.36","49.79","KENORA A","6034076","2023-02-22 19:00","2023","02","22","19:00","-20.6","","-28.6","","50","","","","36","","11","","32.2","","97.53","","","","-28","","NA"
"-94.36","49.79","KENORA A","6034076","2023-02-22 20:00","2023","02","22","20:00","-21.4","","-28.7","","53","","","","2","","11","","32.2","","97.56","","","","-29","","NA"
"-94.36","49.79","KENORA A","6034076","2023-02-22 21:00","2023","02","22","21:00","-21.4","","-28.6","","53","","","","1","","13","","32.2","","97.65","","","","-30","","Mostly Cloudy"
"-94.36","49.79","KENORA A","6034076","2023-02-22 22:00","2023","02","22","22:00","-21.8","","-29.0","","53","","","","3","","13","","32.2","","97.68","","","","-31","","NA"
"-94.36","49.79","KENORA A","6034076","2023-02-22 23:00","2023","02","22","23:00","-22.3","","-29.3","","54","","","","3","","14","","24.1","","97.68","","","","-32","","NA"
"-94.36","49.79","KENORA A","6034076","2023-02-23 00:00","2023","02","23","00:00","-22.8","","-29.5","","55","","","","3","","17","","32.2","","97.70","","","","-33","","Mainly Clear"
"-94.36","49.79","KENORA A","6034076","2023-02-23 01:00","2023","02","23","01:00","-23.2","","-29.7","","56","","","","4","","14","","32.2","","97.72","","","","-33","","NA"
"-94.36","49.79","KENORA A","6034076","2023-02-23 02:00","2023","02","23","02:00","-23.4","","-29.8","","57","","","","4","","16","","32.2","","97.72","","","","-34","","NA"
"-94.36","49.79","KENORA A","6034076","2023-02-23 03:00","2023","02","23","03:00","-23.9","","-29.8","","59","","","","3","","14","","32.2","","97.69","","","","-34","","Mainly Clear"
"-94.36","49.79","KENORA A","6034076","2023-02-23 04:00","2023","02","23","04:00","-24.0","","-29.9","","59","","","","4","","18","","24.1","","97.64","","","","-35","","NA"
"-94.36","49.79","KENORA A","6034076","2023-02-23 05:00","2023","02","23","05:00","-24.0","","-29.7","","60","","","","4","","18","","24.1","","97.63","","","","-35","","NA"
"-94.36","49.79","KENORA A","6034076","2023-02-23 06:00","2023","02","23","06:00","-24.1","","-29.7","","61","","","","4","","17","","24.1","","97.65","","","","-35","","Mainly Clear"
"-94.36","49.79","KENORA A","6034076","2023-02-23 07:00","2023","02","23","07:00","-24.2","","-29.8","","61","","","","5","","12","","32.2","","97.73","","","","-33","","NA"
"-94.36","49.79","KENORA A","6034076","2023-02-23 08:00","2023","02","23","08:00","-24.4","","-30.0","","60","","","","3","","14","","32.2","","97.81","","","","-34","","NA"
"-94.36","49.79","KENORA A","6034076","2023-02-23 09:00","2023","02","23","09:00","-24.3","","-30.2","","59","","","","3","","17","","32.2","","97.86","","","","-35","","Cloudy"
"-94.36","49.79","KENORA A","6034076","2023-02-23 10:00","2023","02","23","10:00","-23.5","","-30.0","","56","","","","4","","14","","32.2","","97.90","","","","-33","","NA"
"-94.36","49.79","KENORA A","6034076","2023-02-23 11:00","2023","02","23","11:00","-22.5","","-29.8","","52","","","","3","","14","","32.2","","97.95","","","","-32","","NA"
"-94.36","49.79","KENORA A","6034076","2023-02-23 12:00","2023","02","23","12:00","-21.0","","-29.5","","47","","","","2","","17","","32.2","","97.96","","","","-31","","Mostly Cloudy"
"-94.36","49.79","KENORA A","6034076","2023-02-23 13:00","2023","02","23","13:00","-19.8","","-29.0","","45","","","","2","","19","","32.2","","97.89","","","","-30","","NA"
"-94.36","49.79","KENORA A","6034076","2023-02-23 14:00","2023","02","23","14:00","-19.1","","-28.6","","44","","","","2","","14","","32.2","","97.81","","","","-28","","NA"
"-94.36","49.79","KENORA A","6034076","2023-02-23 15:00","2023","02","23","15:00","-18.2","","-28.2","","42","","","","2","","9","","32.2","","97.89","","","","-25","","Cloudy"
"-94.36","49.79","KENORA A","6034076","2023-02-23 16:00","2023","02","23","16:00","-18.0","","-28.2","","41","","","","4","","8","","32.2","","97.94","","","","-24","","NA"
"-94.36","49.79","KENORA A","6034076","2023-02-23 17:00","2023","02","23","17:00","-17.8","","-27.8","","42","","","","35","","12","","32.2","","97.94","","","","-25","","NA"
"-94.36","49.79","KENORA A","6034076","2023-02-23 18:00","2023","02","23","18:00","-18.2","","-27.8","","44","","","","34","","10","","32.2","","98.04","","","","-25","","Cloudy"
"-94.36","49.79","KENORA A","6034076","2023-02-23 19:00","2023","02","23","19:00","-19.4","","-27.5","","50","","","","33","","17","","32.2","","98.15","","","","-29","","NA"
"-94.36","49.79","KENORA A","6034076","2023-02-23 20:00","2023","02","23","20:00","-19.8","","-27.5","","51","","","","33","","14","","24.1","","98.19","","","","-29","","NA"
"-94.36","49.79","KENORA A","6034076","2023-02-23 21:00","2023","02","23","21:00","-20.0","","-27.2","","53","","","","33","","9","","24.1","","98.26","","","","-27","","Mostly Cloudy"
"-94.36","49.79","KENORA A","6034076","2023-02-23 22:00","2023","02","23","22:00","-20.1","","-27.6","","52","","","","31","","8","","24.1","","98.32","","","","-26","","NA"
"-94.36","49.79","KENORA A","6034076","2023-02-23 23:00","2023","02","23","23:00","-20.2","","-27.4","","53","","","","29","","9","","24.1","","98.36","","","","-27","","NA"
"-94.36","49.79","KENORA A","6034076","2023-02-24 00:00","2023","02","24","00:00","-20.6","","-27.3","","56","","","","30","","11","","24.1","","98.40","","","","-28","","Mostly Cloudy"
"-94.36","49.79","KENORA A","6034076","2023-02-24 01:00","2023","02","24","01:00","-21.1","","-27.1","","59","","","","29","","7","","24.1","","98.43","","","","-27","","NA"
"-94.36","49.79","KENORA A","6034076","2023-02-24 02:00","2023","02","24","02:00","-22.0","","-27.3","","63","","","","28","","10","","24.1","","98.47","","","","-30","","NA"
"-94.36","49.79","KENORA A","6034076","2023-02-24 03:00","2023","02","24","03:00","-22.4","","-27.4","","65","","","","29","","9","","24.1","","98.48","","","","-30","","Mostly Cloudy"
"-94.36","49.79","KENORA A","6034076","2023-02-24 04:00","2023","02","24","04:00","-22.9","","-27.4","","67","","","","29","","10","","24.1","","98.52","","","","-31","","NA"
"-94.36","49.79","KENORA A","6034076","2023-02-24 05:00","2023","02","24","05:00","-23.4","","-27.4","","70","","","","27","","9","","24.1","","98.53","","","","-31","","NA"
"-94.36","49.79","KENORA A","6034076","2023-02-24 06:00","2023","02","24","06:00","-24.6","","-28.0","","74","","","","26","","11","","24.1","","98.51","","","","-33","","Mainly Clear"
"-94.36","49.79","KENORA A","6034076","2023-02-24 07:00","2023","02","24","07:00","-25.8","","-28.7","","77","","","","24","","9","","32.2","","98.48","","","","-34","","NA"
"-94.36","49.79","KENORA A","6034076","2023-02-24 08:00","2023","02","24","08:00","-25.9","","-29.0","","75","","","","23","","10","","32.2","","98.52","","","","-34","","NA"
"-94.36","49.79","KENORA A","6034076","2023-02-24 09:00","2023","02","24","09:00","-23.7","","-27.9","","69","","","","23","","9","","32.2","","98.56","","","","-31","","Clear"
"-94.36","49.79","KENORA A","6034076","2023-02-24 10:00","2023","02","24","10:00","-20.3","","-26.4","","59","","","","23","","12","","32.2","","98.58","","","","-28","","NA"
"-94.36","49.79","KENORA A","6034076","2023-02-24 11:00","2023","02","24","11:00","-18.7","","-26.2","","53","","","","24","","13","","32.2","","98.57","","","","-27","","NA"
"-94.36","49.79","KENORA A","6034076","2023-02-24 12:00","2023","02","24","12:00","-17.3","","-25.8","","48","","","","24","","12","","32.2","","98.52","","","","-25","","Clear"
"-94.36","49.79","KENORA A","6034076","2023-02-24 13:00","2023","02","24","13:00","-16.6","","-25.2","","48","","","","25","","11","","32.2","","98.45","","","","-24","","NA"
"-94.36","49.79","KENORA A","6034076","2023-02-24 14:00","2023","02","24","14:00","-15.7","","-25.1","","45","","","","19","","10","","32.2","","98.32","","","","-22","","NA"
"-94.36","49.79","KENORA A","6034076","2023-02-24 15:00","2023","02","24","15:00","-15.0","","-24.7","","44","","","","20","","11","","32.2","","98.27","","","","-22","","Mainly Clear"
"-94.36","49.79","KENORA A","6034076","2023-02-24 16:00","2023","02","24","16:00","-15.1","","-24.8","","44","","","","22","","12","","32.2","","98.18","","","","-22","","NA"
"-94.36","49.79","KENORA A","6034076","2023-02-24 17:00","2023","02","24","17:00","-15.7","","-24.8","","46","","","","19","","12","","32.2","","98.08","","","","-23","","NA"
"-94.36","49.79","KENORA A","6034076","2023-02-24 18:00","2023","02","24","18:00","-17.2","","-24.9","","52","","","","21","","12","","32.2","","98.02","","","","-25","","Mostly Cloudy"
"-94.36","49.79","KENORA A","6034076","2023-02-24 19:00","2023","02","24","19:00","-17.9","","-25.7","","51","","","","19","","14","","32.2","","97.94","","","","-26","","NA"
"-94.36","49.79","KENORA A","6034076","2023-02-24 20:00","2023","02","24","20:00","-18.4","","-26.7","","49","","","","19","","10","","32.2","","97.79","","","","-25","","NA"
"-94.36","49.79","KENORA A","6034076","2023-02-24 21:00","2023","02","24","21:00","-18.6","","-26.7","","50","","","","20","","12","","32.2","","97.71","","","","-26","","Mostly Cloudy"
"-94.36","49.79","KENORA A","6034076","2023-02-24 22:00","2023","02","24","22:00","-19.0","","-26.5","","52","","","","19","","8","","32.2","","97.59","","","","-25","","NA"
"-94.36","49.79","KENORA A","6034076","2023-02-24 23:00","2023","02","24","23:00","-19.0","","-25.9","","55","","","","20","","9","","24.1","","97.50","","","","-26","","Snow"
"-94.36","49.79","KENORA A","6034076","2023-02-25 00:00","2023","02","25","00:00","-19.2","","-22.7","","74","","","","20","","10","","4.8","","97.37","","","","-26","","Snow"
"-94.36","49.79","KENORA A","6034076","2023-02-25 01:00","2023","02","25","01:00"
"-94.36","49.79","KENORA A","6034076","2023-02-25 02:00","2023","02","25","02:00","-19.6","","-22.2","","80","","","","17","","11","","4.0","","97.15","","","","-27","","Snow"
"-94.36","49.79","KENORA A","6034076","2023-02-25 03:00","2023","02","25","03:00","-19.5","","-22.1","","80","","","","17","","11","","24.1","","97.00","","","","-27","","Snow"
"-94.36","49.79","KENORA A","6034076","2023-02-25 04:00","2023","02","25","04:00","-20.0","","-22.5","","81","","","","17","","12","","32.2","","96.84","","","","-28","","Snow"
"-94.36","49.79","KENORA A","6034076","2023-02-25 05:00","2023","02","25","05:00","-19.3","","-21.9","","80","","","","18","","13","","24.1","","96.72","","","","-28","","Snow"
"-94.36","49.79","KENORA A","6034076","2023-02-25 06:00","2023","02","25","06:00","-19.2","","-21.7","","81","","","","17","","14","","19.3","","96.60","","","","-28","","Snow"
"-94.36","49.79","KENORA A","6034076","2023-02-25 07:00","2023","02","25","07:00","-18.9","","-21.5","","81","","","","17","","18","","16.1","","96.48","","","","-29","","Snow"
"-94.36","49.79","KENORA A","6034076","2023-02-25 08:00","2023","02","25","08:00","-18.6","","-21.2","","80","","","","20","","14","","4.8","","96.46","","","","-27","","Snow"
"-94.36","49.79","KENORA A","6034076","2023-02-25 09:00","2023","02","25","09:00","-17.6","","-20.8","","77","","","","21","","18","","6.4","","96.32","","","","-27","","Snow"
"-94.36","49.79","KENORA A","6034076","2023-02-25 10:00","2023","02","25","10:00","-16.9","","-21.0","","71","","","","19","","23","","12.9","","96.19","","","","-27","","Snow,Blowing Snow"
"-94.36","49.79","KENORA A","6034076","2023-02-25 11:00","2023","02","25","11:00","-15.8","","-20.1","","70","","","","18","","18","","9.7","","96.06","","","","-25","","Snow,Blowing Snow"
"-94.36","49.79","KENORA A","6034076","2023-02-25 12:00","2023","02","25","12:00","-15.7","","-20.0","","70","","","","20","","22","","6.4","","95.98","","","","-25","","Snow,Blowing Snow"
"-94.36","49.79","KENORA A","6034076","2023-02-25 13:00","2023","02","25","13:00","-15.2","","-19.2","","71","","","","21","","16","","6.4","","95.96","","","","-23","","Snow,Blowing Snow"
"-94.36","49.79","KENORA A","6034076","2023-02-25 14:00","2023","02","25","14:00","-14.6","","-19.7","","66","","","","23","","22","","8.1","","95.88","","","","-24","","Snow,Blowing Snow"
"-94.36","49.79","KENORA A","6034076","2023-02-25 15:00","2023","02","25","15:00","-14.4","","-18.6","","71","","","","23","","11","","4.8","","95.85","","","","-21","","Snow"
"-94.36","49.79","KENORA A","6034076","2023-02-25 16:00","2023","02","25","16:00","-13.7","","-18.6","","67","","","","26","","11","","9.7","","95.84","","","","-20","","Snow"
"-94.36","49.79","KENORA A","6034076","2023-02-25 17:00","2023","02","25","17:00","-13.2","","-20.0","","57","","","","26","","17","","19.3","","95.85","","","","-21","","Snow"
"-94.36","49.79","KENORA A","6034076","2023-02-25 18:00","2023","02","25","18:00","-14.1","","-20.9","","57","","","","28","","13","","32.2","","95.89","","","","-21","","Mainly Clear"
"-94.36","49.79","KENORA A","6034076","2023-02-25 19:00","2023","02","25","19:00","-16.0","","-22.1","","60","","","","27","","13","","32.2","","95.94","","","","-24","","NA"
"-94.36","49.79","KENORA A","6034076","2023-02-25 20:00","2023","02","25","20:00","-17.8","","-23.2","","63","","","","27","","17","","32.2","","95.98","","","","-27","","NA"
"-94.36","49.79","KENORA A","6034076","2023-02-25 21:00","2023","02","25","21:00","-19.3","","-23.8","","68","","","","28","","11","","32.2","","96.02","","","","-27","","Mainly Clear"
"-94.36","49.79","KENORA A","6034076","2023-02-25 22:00","2023","02","25","22:00","-20.2","","-24.1","","72","","","","27","","10","","32.2","","96.06","","","","-27","","NA"
"-94.36","49.79","KENORA A","6034076","2023-02-25 23:00","2023","02","25","23:00","-21.2","","-24.4","","75","","","","26","","12","","32.2","","96.08","","","","-29","","NA"
"-94.36","49.79","KENORA A","6034076","2023-02-26 00:00","2023","02","26","00:00","-20.9","","-24.1","","76","","","","26","","10","","32.2","","96.15","","","","-28","","Mostly Cloudy"
"-94.36","49.79","KENORA A","6034076","2023-02-26 01:00","2023","02","26","01:00","-21.5","","-24.5","","77","","","","24","","7","","32.2","","96.19","","","","-27","","NA"
"-94.36","49.79","KENORA A","6034076","2023-02-26 02:00","2023","02","26","02:00","-22.2","","-24.9","","79","","","","24","","7","","32.2","","96.21","","","","-28","","NA"
"-94.36","49.79","KENORA A","6034076","2023-02-26 03:00","2023","02","26","03:00","-22.0","","-24.8","","79","","","","24","","9","","32.2","","96.22","","","","-29","","Cloudy"
"-94.36","49.79","KENORA A","6034076","2023-02-26 04:00","2023","02","26","04:00","-21.9","","-24.8","","77","","","","25","","7","","32.2","","96.22","","","","-28","","NA"
"-94.36","49.79","KENORA A","6034076","2023-02-26 05:00","2023","02","26","05:00","-21.9","","-24.8","","78","","","","21","","6","","32.2","","96.27","","","","-27","","NA"
"-94.36","49.79","KENORA A","6034076","2023-02-26 06:00","2023","02","26","06:00","-21.7","","-24.7","","77","","","","17","","4","","32.2","","96.27","","","","-25","","Cloudy"
"-94.36","49.79","KENORA A","6034076","2023-02-26 07:00","2023","02","26","07:00","-22.3","","-25.0","","79","","","","18","","8","","32.2","","96.29","","","","-29","","NA"
"-94.36","49.79","KENORA A","6034076","2023-02-26 08:00","2023","02","26","08:00","-21.5","","-24.6","","76","","","","18","","10","","32.2","","96.31","","","","-29","","NA"
"-94.36","49.79","KENORA A","6034076","2023-02-26 09:00","2023","02","26","09:00","-19.3","","-23.5","","70","","","","16","","11","","32.2","","96.34","","","","-27","","Mainly Clear"
"-94.36","49.79","KENORA A","6034076","2023-02-26 10:00","2023","02","26","10:00","-17.0","","-23.3","","59","","","","15","","10","","32.2","","96.30","","","","-24","","NA"
"-94.36","49.79","KENORA A","6034076","2023-02-26 11:00","2023","02","26","11:00","-14.9","","-22.1","","55","","","","20","","14","","32.2","","96.30","","","","-22","","NA"
"-94.36","49.79","KENORA A","6034076","2023-02-26 12:00","2023","02","26","12:00","-12.6","","-21.8","","47","","","","16","","12","","32.2","","96.21","","","","-19","","Mainly Clear"
"-94.36","49.79","KENORA A","6034076","2023-02-26 13:00","2023","02","26","13:00","-10.8","","-20.5","","45","","","","17","","8","","32.2","","96.13","","","","-15","","NA"
"-94.36","49.79","KENORA A","6034076","2023-02-26 14:00","2023","02","26","14:00","-9.0","","-18.9","","45","","","","18","","15","","32.2","","96.04","","","","-16","","NA"
"-94.36","49.79","KENORA A","6034076","2023-02-26 15:00","2023","02","26","15:00","-8.4","","-18.2","","45","","","","15","","11","","32.2","","96.00","","","","-14","","Mostly Cloudy"
"-94.36","49.79","KENORA A","6034076","2023-02-26 16:00","2023","02","26","16:00","-7.7","","-17.6","","45","","","","15","","15","","32.2","","95.94","","","","-14","","NA"
"-94.36","49.79","KENORA A","6034076","2023-02-26 17:00","2023","02","26","17:00","-7.4","","-17.5","","45","","","","12","","14","","32.2","","95.85","","","","-13","","NA"
"-94.36","49.79","KENORA A","6034076","2023-02-26 18:00","2023","02","26","18:00","-8.8","","-18.1","","48","","","","11","","19","","32.2","","95.76","","","","-16","","Mainly Clear"
"-94.36","49.79","KENORA A","6034076","2023-02-26 19:00","2023","02","26","19:00","-10.0","","-18.1","","52","","","","10","","20","","32.2","","95.69","","","","-18","","NA"
"-94.36","49.79","KENORA A","6034076","2023-02-26 20:00","2023","02","26","20:00","-10.0","","-18.0","","52","","","","11","","23","","32.2","","95.58","","","","-18","","NA"
"-94.36","49.79","KENORA A","6034076","2023-02-26 21:00","2023","02","26","21:00","-10.0","","-18.0","","53","","","","12","","19","","32.2","","95.55","","","","-18","","Mainly Clear"
"-94.36","49.79","KENORA A","6034076","2023-02-26 22:00","2023","02","26","22:00","-9.7","","-18.1","","51","","","","13","","21","","32.2","","95.48","","","","-18","","NA"
"-94.36","49.79","KENORA A","6034076","2023-02-26 23:00","2023","02","26","23:00","-8.9","","-17.8","","49","","","","14","","21","","32.2","","95.39","","","","-17","","NA"
"-94.36","49.79","KENORA A","6034076","2023-02-27 00:00","2023","02","27","00:00","-8.4","","-17.5","","48","","","","13","","18","","32.2","","95.26","","","","-15","","Mainly Clear"
"-94.36","49.79","KENORA A","6034076","2023-02-27 01:00","2023","02","27","01:00","-8.0","","-17.1","","48","","","","15","","16","","32.2","","95.20","","","","-15","","NA"
"-94.36","49.79","KENORA A","6034076","2023-02-27 02:00","2023","02","27","02:00"
"-94.36","49.79","KENORA A","6034076","2023-02-27 03:00","2023","02","27","03:00","-7.7","","-16.1","","52","","","","14","","11","","32.2","","95.08","","","","-13","","Cloudy"
"-94.36","49.79","KENORA A","6034076","2023-02-27 04:00","2023","02","27","04:00","-7.4","","-15.3","","53","","","","13","","13","","32.2","","95.04","","","","-13","","NA"
"-94.36","49.79","KENORA A","6034076","2023-02-27 05:00","2023","02","27","05:00","-7.1","","-15.0","","54","","","","14","","17","","32.2","","94.92","","","","-14","","NA"
"-94.36","49.79","KENORA A","6034076","2023-02-27 06:00","2023","02","27","06:00","-6.7","","-14.1","","56","","","","15","","19","","32.2","","94.89","","","","-14","","Cloudy"
"-94.36","49.79","KENORA A","6034076","2023-02-27 07:00","2023","02","27","07:00","-6.5","","-13.2","","60","","","","16","","14","","32.2","","94.84","","","","-12","","NA"
"-94.36","49.79","KENORA A","6034076","2023-02-27 08:00","2023","02","27","08:00","-6.3","","-12.6","","62","","","","15","","15","","32.2","","94.83","","","","-12","","NA"
"-94.36","49.79","KENORA A","6034076","2023-02-27 09:00","2023","02","27","09:00","-6.0","","-11.1","","68","","","","16","","14","","32.2","","94.86","","","","-12","","Cloudy"
"-94.36","49.79","KENORA A","6034076","2023-02-27 10:00","2023","02","27","10:00","-5.6","","-9.1","","77","","","","17","","17","","32.2","","94.80","","","","-12","","NA"
"-94.36","49.79","KENORA A","6034076","2023-02-27 11:00","2023","02","27","11:00","-5.3","","-7.7","","83","","","","16","","15","","32.2","","94.81","","","","-11","","NA"
"-94.36","49.79","KENORA A","6034076","2023-02-27 12:00","2023","02","27","12:00","-5.1","","-6.8","","88","","","","16","","19","","24.1","","94.76","","","","-12","","Cloudy"
"-94.36","49.79","KENORA A","6034076","2023-02-27 13:00","2023","02","27","13:00","-4.6","","-6.4","","87","","","","19","","16","","32.2","","94.75","","","","-10","","NA"
"-94.36","49.79","KENORA A","6034076","2023-02-27 14:00","2023","02","27","14:00","-4.2","","-6.1","","87","","","","21","","14","","24.1","","94.77","","","","-9","","NA"
"-94.36","49.79","KENORA A","6034076","2023-02-27 15:00","2023","02","27","15:00","-3.6","","-5.7","","85","","","","20","","13","","24.1","","94.75","","","","-8","","Cloudy"
"-94.36","49.79","KENORA A","6034076","2023-02-27 16:00","2023","02","27","16:00","-2.5","","-5.2","","82","","","","21","","18","","24.1","","94.75","","","","-8","","NA"
"-94.36","49.79","KENORA A","6034076","2023-02-27 17:00","2023","02","27","17:00","-2.3","","-4.9","","82","","","","20","","14","","24.1","","94.75","","","","-7","","NA"
"-94.36","49.79","KENORA A","6034076","2023-02-27 18:00","2023","02","27","18:00","-2.4","","-4.7","","84","","","","21","","13","","32.2","","94.78","","","","-7","","Mostly Cloudy"
"-94.36","49.79","KENORA A","6034076","2023-02-27 19:00","2023","02","27","19:00","-3.3","","-5.5","","85","","","","23","","14","","32.2","","94.83","","","","-8","","NA"
"-94.36","49.79","KENORA A","6034076","2023-02-27 20:00","2023","02","27","20:00","-4.2","","-7.0","","81","","","","22","","11","","24.1","","94.83","","","","-9","","NA"
"-94.36","49.79","KENORA A","6034076","2023-02-27 21:00","2023","02","27","21:00","-3.5","","-7.5","","74","","","","26","","24","","24.1","","94.86","","","","-10","","Mainly Clear"
"-94.36","49.79","KENORA A","6034076","2023-02-27 22:00","2023","02","27","22:00","-4.9","","-9.4","","71","","","","27","","18","","24.1","","94.94","","","","-11","","NA"
"-94.36","49.79","KENORA A","6034076","2023-02-27 23:00","2023","02","27","23:00","-7.1","","-11.4","","72","","","","27","","21","","24.1","","95.05","","","","-14","","NA"
"-94.36","49.79","KENORA A","6034076","2023-02-28 00:00","2023","02","28","00:00","-8.6","","-12.3","","75","","","","26","","16","","24.1","","95.14","","","","-15","","Clear"
"-94.36","49.79","KENORA A","6034076","2023-02-28 01:00","2023","02","28","01:00","-9.7","","-13.0","","77","","","","26","","14","","24.1","","95.21","","","","-16","","NA"
"-94.36","49.79","KENORA A","6034076","2023-02-28 02:00","2023","02","28","02:00","-10.8","","-13.7","","79","","","","26","","14","","24.1","","95.29","","","","-17","","NA"
"-94.36","49.79","KENORA A","6034076","2023-02-28 03:00","2023","02","28","03:00","-12.1","","-14.4","","83","","","","24","","12","","24.1","","95.33","","","","-18","","Clear"
"-94.36","49.79","KENORA A","6034076","2023-02-28 04:00","2023","02","28","04:00","-13.3","","-15.0","","87","","","","23","","10","","24.1","","95.36","","","","-19","","NA"
"-94.36","49.79","KENORA A","6034076","2023-02-28 05:00","2023","02","28","05:00","-13.8","","-15.2","","89","","","","21","","10","","24.1","","95.40","","","","-20","","NA"
"-94.36","49.79","KENORA A","6034076","2023-02-28 06:00","2023","02","28","06:00","-14.6","","-16.1","","89","","","","23","","11","","24.1","","95.41","","","","-21","","Clear"
"-94.36","49.79","KENORA A","6034076","2023-02-28 07:00","2023","02","28","07:00","-14.5","","-16.2","","88","","","","23","","12","","32.2","","95.43","","","","-21","","NA"
"-94.36","49.79","KENORA A","6034076","2023-02-28 08:00","2023","02","28","08:00","-14.3","","-16.0","","87","","","","22","","13","","32.2","","95.49","","","","-21","","NA"
"-94.36","49.79","KENORA A","6034076","2023-02-28 09:00","2023","02","28","09:00","-12.5","","-14.6","","84","","","","23","","17","","32.2","","95.56","","","","-20","","Mainly Clear"
"-94.36","49.79","KENORA A","6034076","2023-02-28 10:00","2023","02","28","10:00","-10.2","","-14.0","","74","","","","24","","15","","32.2","","95.62","","","","-17","","NA"
"-94.36","49.79","KENORA A","6034076","2023-02-28 11:00","2023","02","28","11:00","-7.8","","-14.8","","57","","","","27","","22","","32.2","","95.64","","","","-15","","Blowing Snow"
"-94.36","49.79","KENORA A","6034076","2023-02-28 12:00","2023","02","28","12:00","-6.6","","-15.3","","50","","","","27","","25","","32.2","","95.67","","","","-14","","Blowing Snow"
"-94.36","49.79","KENORA A","6034076","2023-02-28 13:00","2023","02","28","13:00","-6.0","","-15.3","","48","","","","27","","25","","32.2","","95.71","","","","-14","","Blowing Snow"
"-94.36","49.79","KENORA A","6034076","2023-02-28 14:00","2023","02","28","14:00","-5.4","","-16.2","","43","","","","27","","22","","32.2","","95.77","","","","-12","","Blowing Snow"
"-94.36","49.79","KENORA A","6034076","2023-02-28 15:00","2023","02","28","15:00","-5.6","","-16.6","","42","","","","32","","26","","32.2","","95.83","","","","-13","","Blowing Snow"
"-94.36","49.79","KENORA A","6034076","2023-02-28 16:00","2023","02","28","16:00","-6.0","","-16.7","","43","","","","31","","17","","32.2","","95.85","","","","-12","","Blowing Snow"
"-94.36","49.79","KENORA A","6034076","2023-02-28 17:00","2023","02","28","17:00","-7.0","","-16.5","","47","","","","31","","16","","32.2","","95.94","","","","-13","","NA"
"-94.36","49.79","KENORA A","6034076","2023-02-28 18:00","2023","02","28","18:00","-8.6","","-16.4","","54","","","","31","","9","","32.2","","96.06","","","","-13","","Mainly Clear"
"-94.36","49.79","KENORA A","6034076","2023-02-28 19:00","2023","02","28","19:00","-10.0","","-17.2","","56","","","","31","","13","","24.1","","96.15","","","","-16","","NA"
"-94.36","49.79","KENORA A","6034076","2023-02-28 20:00","2023","02","28","20:00","-11.1","","-17.4","","60","","","","33","","14","","24.1","","96.19","","","","-18","","NA"
"-94.36","49.79","KENORA A","6034076","2023-02-28 21:00","2023","02","28","21:00","-12.0","","-17.7","","63","","","","33","","10","","24.1","","96.26","","","","-18","","Mostly Cloudy"
"-94.36","49.79","KENORA A","6034076","2023-02-28 22:00","2023","02","28","22:00","-12.7","","-18.8","","61","","","","33","","15","","24.1","","96.33","","","","-20","","NA"
"-94.36","49.79","KENORA A","6034076","2023-02-28 23:00","2023","02","28","23:00","-13.8","","-20.2","","59","","","","35","","13","","24.1","","96.41","","","","-21","","NA"
