"Longitude (x)","Latitude (y)","Station Name","Climate ID","Date/Time (LST)","Year","Month","Day","Time (LST)","Temp (°C)","Temp Flag","Dew Point Temp (°C)","Dew Point Temp Flag","Rel Hum (%)","Rel Hum Flag","Precip. Amount (mm)","Precip. Amount Flag","Wind Dir (10s deg)","Wind Dir Flag","Wind Spd (km/h)","Wind Spd Flag","Visibility (km)","Visibility Flag","Stn Press (kPa)","Stn Press Flag","Hmdx","Hmdx Flag","Wind Chill","Wind Chill Flag","Weather"
"-99.07","49.56","CYPRESS RIVER RCS","5010641","2022-06-01 00:00","2022","06","01","00:00","7.0","","2.4","","73","","0.0","","28","","8","","","","96.95","","","","","","NA"
"-99.07","49.56","CYPRESS RIVER RCS","5010641","2022-06-01 01:00","2022","06","01","01:00","6.2","","1.8","","73","","0.0","","33","","6","","","","96.96","","","","","","NA"
"-99.07","49.56","CYPRESS RIVER RCS","5010641","2022-06-01 02:00","2022","06","01","02:00","5.4","","1.7","","77","","0.0","","30","","9","","","","96.96","","","","","","NA"
"-99.07","49.56","CYPRESS RIVER RCS","5010641","2022-06-01 03:00","2022","06","01","03:00","5.6","","1.4","","74","","0.0","","26","","8","","","","96.95","","","","","","NA"
"-99.07","49.56","CYPRESS RIVER RCS","5010641","2022-06-01 04:00","2022","06","01","04:00","5.1","","1.6","","78","","0.0","","25","","10","","","","96.97","","","","","","NA"
"-99.07","49.56","CYPRESS RIVER RCS","5010641","2022-06-01 05:00","2022","06","01","05:00","5.7","","2.0","","77","","0.0","","26","","15","","","","96.98","","","","","","NA"
"-99.07","49.56","CYPRESS RIVER RCS","5010641","2022-06-01 06:00","2022","06","01","06:00","7.3","","2.4","","71","","0.0","","26","","14","","","","96.99","","","","","","NA"
"-99.07","49.56","CYPRESS RIVER RCS","5010641","2022-06-01 07:00","2022","06","01","07:00","9.7","","3.5","","66","","0.0","","26","","15","","","","97.01","","","","","","NA"
"-99.07","49.56","CYPRESS RIVER RCS","5010641","2022-06-01 08:00","2022","06","01","08:00","12.0","","2.7","","53","","0.0","","28","","25","","","","97.02","","","","","","NA"
"-99.07","49.56","CYPRESS RIVER RCS","5010641","2022-06-01 09:00","2022","06","01","09:00","13.8","","3.4","","50","","0.0","","28","","26","","","","96.99","","","","","","NA"
"-99.07","49.56","CYPRESS RIVER RCS","5010641","2022-06-01 10:00","2022","06","01","10:00","14.9","","2.7","","44","","0.0","","29","","33","","","","96.95","","","","","","NA"
"-99.07","49.56","CYPRESS RIVER RCS","5010641","2022-06-01 11:00","2022","06","01","11:00","15.7","","2.3","","40","","0.0","","29","","36","","","","96.92","","","","","","NA"
"-99.07","49.56","CYPRESS RIVER RCS","5010641","2022-06-01 12:00","2022","06","01","12:00","16.7","","2.4","","38","","0.0","","28","","39","","","","96.85","","","","","","NA"
"-99.07","49.56","CYPRESS RIVER RCS","5010641","2022-06-01 13:00","2022","06","01","13:00","17.4","","0.7","","32","","0.0","","30","","41","","","","96.79","","","","","","NA"
"-99.07","49.56","CYPRESS RIVER RCS","5010641","2022-06-01 14:00","2022","06","01","14:00","18.3","","1.5","","32","","0.0","","29","","42","","","","96.74","","","","","","NA"
"-99.07","49.56","CYPRESS RIVER RCS","5010641","2022-06-01 15:00","2022","06","01","15:00","18.7","","-1.0","","26","","0.0","","28","","44","","","","96.72","","","","","","NA"
"-99.07","49.56","CYPRESS RIVER RCS","5010641","2022-06-01 16:00","2022","06","01","16:00","18.5","","-2.1","","25","","0.0","","30","","42","","","","96.71","","","","","","NA"
"-99.07","49.56","CYPRESS RIVER RCS","5010641","2022-06-01 17:00","2022","06","01","17:00","18.5","","-1.3","","26","","0.0","","30","","37","","","","96.68","","","","","","NA"
"-99.07","49.56","CYPRESS RIVER RCS","5010641","2022-06-01 18:00","2022","06","01","18:00","18.5","","-1.6","","26","","0.0","","29","","31","","","","96.65","","","","","","NA"
"-99.07","49.56","CYPRESS RIVER RCS","5010641","2022-06-01 19:00","2022","06","01","19:00","17.9","","-1.9","","26","","0.0","","30","","39","","","","96.60","","","","","","NA"
"-99.07","49.56","CYPRESS RIVER RCS","5010641","2022-06-01 20:00","2022","06","01","20:00","16.7","","-1.2","","30","","0.0","","30","","27","","","","96.58","","","","","","NA"
"-99.07","49.56","CYPRESS RIVER RCS","5010641","2022-06-01 21:00","2022","06","01","21:00","13.9","","0.4","","40","","0.0","","31","","15","","","","96.59","","","","","","NA"
"-99.07","49.56","CYPRESS RIVER RCS","5010641","2022-06-01 22:00","2022","06","01","22:00","12.1","","0.6","","45","","0.0","","28","","12","","","","96.58","","","","","","NA"
"-99.07","49.56","CYPRESS RIVER RCS","5010641","2022-06-01 23:00","2022","06","01","23:00","11.4","","0.3","","46","","0.0","","34","","11","","","","96.56","","","","","","NA"
"-99.07","49.56","CYPRESS RIVER RCS","5010641","2022-06-02 00:00","2022","06","02","00:00","9.9","","1.2","","55","","0.0","","30","","14","","","","96.53","","","","","","NA"
"-99.07","49.56","CYPRESS RIVER RCS","5010641","2022-06-02 01:00","2022","06","02","01:00","8.4","","1.9","","64","","0.0","","24","","9","","","","96.48","","","","","","NA"
"-99.07","49.56","CYPRESS RIVER RCS","5010641","2022-06-02 02:00","2022","06","02","02:00","8.8","","2.6","","65","","0.0","","26","","19","","","","96.47","","","","","","NA"
"-99.07","49.56","CYPRESS RIVER RCS","5010641","2022-06-02 03:00","2022","06","02","03:00","8.6","","2.4","","65","","0.0","","28","","16","","","","96.49","","","","","","NA"
"-99.07","49.56","CYPRESS RIVER RCS","5010641","2022-06-02 04:00","2022","06","02","04:00","9.3","","2.9","","64","","0.0","","30","","24","","","","96.49","","","","","","NA"
"-99.07","49.56","CYPRESS RIVER RCS","5010641","2022-06-02 05:00","2022","06","02","05:00","9.2","","2.5","","63","","0.0","","30","","28","","","","96.51","","","","","","NA"
"-99.07","49.56","CYPRESS RIVER RCS","5010641","2022-06-02 06:00","2022","06","02","06:00","9.2","","2.6","","63","","0.0","","30","","25","","","","96.50","","","","","","NA"
"-99.07","49.56","CYPRESS RIVER RCS","5010641","2022-06-02 07:00","2022","06","02","07:00","9.9","","2.8","","61","","0.0","","29","","23","","","","96.48","","","","","","NA"
"-99.07","49.56","CYPRESS RIVER RCS","5010641","2022-06-02 08:00","2022","06","02","08:00","11.5","","1.8","","51","","0.0","","30","","37","","","","96.44","","","","","","NA"
"-99.07","49.56","CYPRESS RIVER RCS","5010641","2022-06-02 09:00","2022","06","02","09:00","11.8","","2.9","","54","","0.0","","29","","34","","","","96.42","","","","","","NA"
"-99.07","49.56","CYPRESS RIVER RCS","5010641","2022-06-02 10:00","2022","06","02","10:00","11.5","","3.8","","59","","0.0","","29","","23","","","","96.43","","","","","","NA"
"-99.07","49.56","CYPRESS RIVER RCS","5010641","2022-06-02 11:00","2022","06","02","11:00","12.2","","1.7","","49","","0.0","","31","","33","","","","96.48","","","","","","NA"
"-99.07","49.56","CYPRESS RIVER RCS","5010641","2022-06-02 12:00","2022","06","02","12:00","12.3","","1.5","","48","","0.0","","32","","33","","","","96.48","","","","","","NA"
"-99.07","49.56","CYPRESS RIVER RCS","5010641","2022-06-02 13:00","2022","06","02","13:00","12.1","","0.6","","45","","0.0","","32","","40","","","","96.54","","","","","","NA"
"-99.07","49.56","CYPRESS RIVER RCS","5010641","2022-06-02 14:00","2022","06","02","14:00","12.1","","0.8","","46","","0.0","","33","","30","","","","96.58","","","","","","NA"
"-99.07","49.56","CYPRESS RIVER RCS","5010641","2022-06-02 15:00","2022","06","02","15:00","9.5","","3.6","","67","","0.0","","3","","16","","","","96.64","","","","","","NA"
"-99.07","49.56","CYPRESS RIVER RCS","5010641","2022-06-02 16:00","2022","06","02","16:00","8.4","","4.0","","74","","0.0","","4","","16","","","","96.70","","","","","","NA"
"-99.07","49.56","CYPRESS RIVER RCS","5010641","2022-06-02 17:00","2022","06","02","17:00","9.0","","2.8","","65","","0.0","","1","","11","","","","96.76","","","","","","NA"
"-99.07","49.56","CYPRESS RIVER RCS","5010641","2022-06-02 18:00","2022","06","02","18:00","9.6","","3.0","","63","","0.0","","1","","11","","","","96.78","","","","","","NA"
"-99.07","49.56","CYPRESS RIVER RCS","5010641","2022-06-02 19:00","2022","06","02","19:00","9.7","","1.9","","58","","0.0","","1","","25","","","","96.82","","","","","","NA"
"-99.07","49.56","CYPRESS RIVER RCS","5010641","2022-06-02 20:00","2022","06","02","20:00","8.7","","2.1","","63","","0.0","","1","","12","","","","96.89","","","","","","NA"
"-99.07","49.56","CYPRESS RIVER RCS","5010641","2022-06-02 21:00","2022","06","02","21:00","6.7","","2.4","","74","","0.0","","2","","8","","","","96.96","","","","","","NA"
"-99.07","49.56","CYPRESS RIVER RCS","5010641","2022-06-02 22:00","2022","06","02","22:00","5.0","","2.5","","84","","0.0","","17","","2","","","","97.02","","","","","","NA"
"-99.07","49.56","CYPRESS RIVER RCS","5010641","2022-06-02 23:00","2022","06","02","23:00","3.5","","2.3","","92","","0.0","","26","","4","","","","97.05","","","","","","NA"
"-99.07","49.56","CYPRESS RIVER RCS","5010641","2022-06-03 00:00","2022","06","03","00:00","2.2","","1.1","","92","","0.0","","18","","8","","","","97.02","","","","","","NA"
"-99.07","49.56","CYPRESS RIVER RCS","5010641","2022-06-03 01:00","2022","06","03","01:00","2.1","","0.8","","91","","0.0","","23","","8","","","","97.05","","","","","","NA"
"-99.07","49.56","CYPRESS RIVER RCS","5010641","2022-06-03 02:00","2022","06","03","02:00","3.4","","1.9","","90","","0.0","","23","","10","","","","97.04","","","","","","NA"
"-99.07","49.56","CYPRESS RIVER RCS","5010641","2022-06-03 03:00","2022","06","03","03:00","4.6","","1.8","","82","","0.0","","29","","9","","","","97.08","","","","","","NA"
"-99.07","49.56","CYPRESS RIVER RCS","5010641","2022-06-03 04:00","2022","06","03","04:00","3.1","","1.0","","86","","0.0","","28","","7","","","","97.10","","","","","","NA"
"-99.07","49.56","CYPRESS RIVER RCS","5010641","2022-06-03 05:00","2022","06","03","05:00","2.2","","0.3","","87","","0.0","","26","","3","","","","97.10","","","","","","NA"
"-99.07","49.56","CYPRESS RIVER RCS","5010641","2022-06-03 06:00","2022","06","03","06:00","4.0","","2.4","","90","","0.0","","19","","5","","","","97.12","","","","","","NA"
"-99.07","49.56","CYPRESS RIVER RCS","5010641","2022-06-03 07:00","2022","06","03","07:00","7.5","","3.4","","75","","0.0","","24","","6","","","","97.13","","","","","","NA"
"-99.07","49.56","CYPRESS RIVER RCS","5010641","2022-06-03 08:00","2022","06","03","08:00","9.8","","2.2","","59","","0.0","","22","","10","","","","97.09","","","","","","NA"
"-99.07","49.56","CYPRESS RIVER RCS","5010641","2022-06-03 09:00","2022","06","03","09:00","11.6","","2.7","","54","","0.0","","23","","9","","","","97.03","","","","","","NA"
"-99.07","49.56","CYPRESS RIVER RCS","5010641","2022-06-03 10:00","2022","06","03","10:00","14.1","","3.3","","48","","0.0","","22","","19","","","","96.97","","","","","","NA"
"-99.07","49.56","CYPRESS RIVER RCS","5010641","2022-06-03 11:00","2022","06","03","11:00","16.7","","5.2","","46","","0.0","","25","","18","","","","96.89","","","","","","NA"
"-99.07","49.56","CYPRESS RIVER RCS","5010641","2022-06-03 12:00","2022","06","03","12:00","18.3","","-2.0","","25","","0.0","","29","","25","","","","96.81","","","","","","NA"
"-99.07","49.56","CYPRESS RIVER RCS","5010641","2022-06-03 13:00","2022","06","03","13:00","19.3","","-2.0","","24","","0.0","","28","","23","","","","96.77","","","","","","NA"
"-99.07","49.56","CYPRESS RIVER RCS","5010641","2022-06-03 14:00","2022","06","03","14:00","20.6","","-4.5","","18","","0.0","","29","","30","","","","96.74","","","","","","NA"
"-99.07","49.56","CYPRESS RIVER RCS","5010641","2022-06-03 15:00","2022","06","03","15:00","20.8","","-4.9","","17","","0.0","","31","","30","","","","96.70","","","","","","NA"
"-99.07","49.56","CYPRESS RIVER RCS","5010641","2022-06-03 16:00","2022","06","03","16:00","21.2","","-5.8","","16","","0.0","","31","","28","","","","96.66","","","","","","NA"
"-99.07","49.56","CYPRESS RIVER RCS","5010641","2022-06-03 17:00","2022","06","03","17:00","20.9","","-5.9","","16","","0.0","","29","","25","","","","96.65","","","","","","NA"
"-99.07","49.56","CYPRESS RIVER RCS","5010641","2022-06-03 18:00","2022","06","03","18:00","20.6","","-5.1","","17","","0.0","","29","","25","","","","96.60","","","","","","NA"
"-99.07","49.56","CYPRESS RIVER RCS","5010641","2022-06-03 19:00","2022","06","03","19:00","20.0","","-5.4","","17","","0.0","","30","","26","","","","96.57","","","","","","NA"
"-99.07","49.56","CYPRESS RIVER RCS","5010641","2022-06-03 20:00","2022","06","03","20:00","17.9","","-3.4","","23","","0.0","","30","","14","","","","96.57","","","","","","NA"
"-99.07","49.56","CYPRESS RIVER RCS","5010641","2022-06-03 21:00","2022","06","03","21:00","13.6","","-0.6","","38","","0.0","","29","","9","","","","96.59","","","","","","NA"
"-99.07","49.56","CYPRESS RIVER RCS","5010641","2022-06-03 22:00","2022","06","03","22:00","11.3","","1.1","","49","","0.0","","36","","9","","","","96.62","","","","","","NA"
"-99.07","49.56","CYPRESS RIVER RCS","5010641","2022-06-03 23:00","2022","06","03","23:00","9.3","","1.2","","57","","0.0","","4","","5","","","","96.67","","","","","","NA"
"-99.07","49.56","CYPRESS RIVER RCS","5010641","2022-06-04 00:00","2022","06","04","00:00","6.9","","2.3","","73","","0.0","","17","","7","","","","96.69","","","","","","NA"
"-99.07","49.56","CYPRESS RIVER RCS","5010641","2022-06-04 01:00","2022","06","04","01:00","5.8","","2.5","","80","","0.0","","8","","3","","","","96.71","","","","","","NA"
"-99.07","49.56","CYPRESS RIVER RCS","5010641","2022-06-04 02:00","2022","06","04","02:00","5.2","","3.1","","86","","0.0","","3","","7","","","","96.75","","","","","","NA"
"-99.07","49.56","CYPRESS RIVER RCS","5010641","2022-06-04 03:00","2022","06","04","03:00","3.9","","2.0","","88","","0.0","","8","","4","","","","96.77","","","","","","NA"
"-99.07","49.56","CYPRESS RIVER RCS","5010641","2022-06-04 04:00","2022","06","04","04:00","4.3","","2.2","","87","","0.0","","6","","3","","","","96.80","","","","","","NA"
"-99.07","49.56","CYPRESS RIVER RCS","5010641","2022-06-04 05:00","2022","06","04","05:00","3.1","","1.9","","91","","0.0","","8","","3","","","","96.85","","","","","","NA"
"-99.07","49.56","CYPRESS RIVER RCS","5010641","2022-06-04 06:00","2022","06","04","06:00","5.3","","3.0","","85","","0.0","","0","","1","","","","96.87","","","","","","NA"
"-99.07","49.56","CYPRESS RIVER RCS","5010641","2022-06-04 07:00","2022","06","04","07:00","8.3","","3.5","","71","","0.0","","21","","5","","","","96.89","","","","","","NA"
"-99.07","49.56","CYPRESS RIVER RCS","5010641","2022-06-04 08:00","2022","06","04","08:00","11.5","","4.3","","61","","0.0","","22","","5","","","","96.90","","","","","","NA"
"-99.07","49.56","CYPRESS RIVER RCS","5010641","2022-06-04 09:00","2022","06","04","09:00","14.7","","2.5","","44","","0.0","","2","","7","","","","96.91","","","","","","NA"
"-99.07","49.56","CYPRESS RIVER RCS","5010641","2022-06-04 10:00","2022","06","04","10:00","16.0","","-1.8","","29","","0.0","","8","","3","","","","96.91","","","","","","NA"
"-99.07","49.56","CYPRESS RIVER RCS","5010641","2022-06-04 11:00","2022","06","04","11:00","16.6","","-2.9","","26","","0.0","","33","","6","","","","96.92","","","","","","NA"
"-99.07","49.56","CYPRESS RIVER RCS","5010641","2022-06-04 12:00","2022","06","04","12:00","17.7","","-1.9","","26","","0.0","","31","","5","","","","96.88","","","","","","NA"
"-99.07","49.56","CYPRESS RIVER RCS","5010641","2022-06-04 13:00","2022","06","04","13:00","18.7","","-1.0","","26","","0.0","","14","","12","","","","96.85","","","","","","NA"
"-99.07","49.56","CYPRESS RIVER RCS","5010641","2022-06-04 14:00","2022","06","04","14:00","19.6","","1.6","","30","","0.0","","10","","12","","","","96.82","","","","","","NA"
"-99.07","49.56","CYPRESS RIVER RCS","5010641","2022-06-04 15:00","2022","06","04","15:00","19.4","","-1.1","","25","","0.0","","8","","11","","","","96.80","","","","","","NA"
"-99.07","49.56","CYPRESS RIVER RCS","5010641","2022-06-04 16:00","2022","06","04","16:00","19.0","","-0.3","","27","","0.0","","7","","13","","","","96.78","","","","","","NA"
"-99.07","49.56","CYPRESS RIVER RCS","5010641","2022-06-04 17:00","2022","06","04","17:00","19.5","","0.4","","28","","0.0","","10","","15","","","","96.75","","","","","","NA"
"-99.07","49.56","CYPRESS RIVER RCS","5010641","2022-06-04 18:00","2022","06","04","18:00","18.2","","1.3","","32","","0.0","","8","","22","","","","96.75","","","","","","NA"
"-99.07","49.56","CYPRESS RIVER RCS","5010641","2022-06-04 19:00","2022","06","04","19:00","17.1","","1.8","","36","","0.0","","8","","20","","","","96.74","","","","","","NA"
"-99.07","49.56","CYPRESS RIVER RCS","5010641","2022-06-04 20:00","2022","06","04","20:00","15.4","","2.9","","43","","0.0","","8","","18","","","","96.74","","","","","","NA"
"-99.07","49.56","CYPRESS RIVER RCS","5010641","2022-06-04 21:00","2022","06","04","21:00","13.1","","2.9","","50","","0.0","","7","","12","","","","96.76","","","","","","NA"
"-99.07","49.56","CYPRESS RIVER RCS","5010641","2022-06-04 22:00","2022","06","04","22:00","10.7","","3.6","","61","","0.0","","8","","8","","","","96.78","","","","","","NA"
"-99.07","49.56","CYPRESS RIVER RCS","5010641","2022-06-04 23:00","2022","06","04","23:00","9.8","","3.0","","63","","0.0","","7","","9","","","","96.82","","","","","","NA"
"-99.07","49.56","CYPRESS RIVER RCS","5010641","2022-06-05 00:00","2022","06","05","00:00","9.1","","3.3","","67","","0.0","","5","","9","","","","96.83","","","","","","NA"
"-99.07","49.56","CYPRESS RIVER RCS","5010641","2022-06-05 01:00","2022","06","05","01:00","8.1","","4.6","","78","","0.0","","7","","10","","","","96.85","","","","","","NA"
"-99.07","49.56","CYPRESS RIVER RCS","5010641","2022-06-05 02:00","2022","06","05","02:00","7.5","","5.0","","84","","0.0","","7","","12","","","","96.86","","","","","","NA"
"-99.07","49.56","CYPRESS RIVER RCS","5010641","2022-06-05 03:00","2022","06","05","03:00","7.2","","4.2","","81","","0.0","","7","","13","","","","96.90","","","","","","NA"
"-99.07","49.56","CYPRESS RIVER RCS","5010641","2022-06-05 04:00","2022","06","05","04:00","6.5","","3.8","","83","","0.0","","6","","12","","","","96.92","","","","","","NA"
"-99.07","49.56","CYPRESS RIVER RCS","5010641","2022-06-05 05:00","2022","06","05","05:00","6.5","","3.3","","80","","0.0","","6","","12","","","","96.95","","","","","","NA"
"-99.07","49.56","CYPRESS RIVER RCS","5010641","2022-06-05 06:00","2022","06","05","06:00","7.8","","3.8","","76","","0.0","","6","","15","","","","96.95","","","","","","NA"
"-99.07","49.56","CYPRESS RIVER RCS","5010641","2022-06-05 07:00","2022","06","05","07:00","9.1","","4.6","","73","","0.0","","6","","19","","","","96.92","","","","","","NA"
"-99.07","49.56","CYPRESS RIVER RCS","5010641","2022-06-05 08:00","2022","06","05","08:00","10.0","","5.0","","71","","0.0","","5","","22","","","","96.93","","","","","","NA"
"-99.07","49.56","CYPRESS RIVER RCS","5010641","2022-06-05 09:00","2022","06","05","09:00","11.9","","4.3","","60","","0.0","","5","","23","","","","96.92","","","","","","NA"
"-99.07","49.56","CYPRESS RIVER RCS","5010641","2022-06-05 10:00","2022","06","05","10:00","13.0","","4.3","","56","","0.0","","5","","21","","","","96.90","","","","","","NA"
"-99.07","49.56","CYPRESS RIVER RCS","5010641","2022-06-05 11:00","2022","06","05","11:00","14.0","","5.4","","56","","0.0","","4","","23","","","","96.89","","","","","","NA"
"-99.07","49.56","CYPRESS RIVER RCS","5010641","2022-06-05 12:00","2022","06","05","12:00","14.7","","4.6","","51","","0.0","","6","","19","","","","96.89","","","","","","NA"
"-99.07","49.56","CYPRESS RIVER RCS","5010641","2022-06-05 13:00","2022","06","05","13:00","14.9","","3.4","","46","","0.0","","5","","22","","","","96.89","","","","","","NA"
"-99.07","49.56","CYPRESS RIVER RCS","5010641","2022-06-05 14:00","2022","06","05","14:00","15.3","","1.8","","40","","0.0","","5","","23","","","","96.88","","","","","","NA"
"-99.07","49.56","CYPRESS RIVER RCS","5010641","2022-06-05 15:00","2022","06","05","15:00","16.0","","2.8","","41","","0.0","","4","","19","","","","96.88","","","","","","NA"
"-99.07","49.56","CYPRESS RIVER RCS","5010641","2022-06-05 16:00","2022","06","05","16:00","15.9","","2.9","","42","","0.0","","5","","17","","","","96.90","","","","","","NA"
"-99.07","49.56","CYPRESS RIVER RCS","5010641","2022-06-05 17:00","2022","06","05","17:00","15.5","","3.1","","43","","0.0","","4","","21","","","","96.91","","","","","","NA"
"-99.07","49.56","CYPRESS RIVER RCS","5010641","2022-06-05 18:00","2022","06","05","18:00","15.1","","2.8","","43","","0.0","","4","","22","","","","96.91","","","","","","NA"
"-99.07","49.56","CYPRESS RIVER RCS","5010641","2022-06-05 19:00","2022","06","05","19:00","14.4","","3.3","","47","","0.0","","3","","21","","","","96.95","","","","","","NA"
"-99.07","49.56","CYPRESS RIVER RCS","5010641","2022-06-05 20:00","2022","06","05","20:00","13.1","","2.9","","50","","0.0","","4","","16","","","","96.97","","","","","","NA"
"-99.07","49.56","CYPRESS RIVER RCS","5010641","2022-06-05 21:00","2022","06","05","21:00","11.1","","3.6","","60","","0.0","","3","","14","","","","96.99","","","","","","NA"
"-99.07","49.56","CYPRESS RIVER RCS","5010641","2022-06-05 22:00","2022","06","05","22:00","9.9","","3.5","","65","","0.0","","3","","15","","","","96.99","","","","","","NA"
"-99.07","49.56","CYPRESS RIVER RCS","5010641","2022-06-05 23:00","2022","06","05","23:00","8.6","","3.4","","70","","0.0","","2","","6","","","","97.01","","","","","","NA"
"-99.07","49.56","CYPRESS RIVER RCS","5010641","2022-06-06 00:00","2022","06","06","00:00","7.4","","3.3","","75","","0.0","","35","","2","","","","97.04","","","","","","NA"
"-99.07","49.56","CYPRESS RIVER RCS","5010641","2022-06-06 01:00","2022","06","06","01:00","6.7","","4.3","","85","","0.0","","27","","6","","","","97.07","","","","","","NA"
"-99.07","49.56","CYPRESS RIVER RCS","5010641","2022-06-06 02:00","2022","06","06","02:00","5.5","","3.9","","90","","0.0","","30","","5","","","","97.09","","","","","","NA"
"-99.07","49.56","CYPRESS RIVER RCS","5010641","2022-06-06 03:00","2022","06","06","03:00","5.4","","4.1","","91","","0.0","","31","","6","","","","97.10","","","","","","NA"
"-99.07","49.56","CYPRESS RIVER RCS","5010641","2022-06-06 04:00","2022","06","06","04:00","4.8","","4.0","","94","","0.0","","35","","9","","","","97.09","","","","","","NA"
"-99.07","49.56","CYPRESS RIVER RCS","5010641","2022-06-06 05:00","2022","06","06","05:00","5.2","","4.3","","94","","0.0","","36","","6","","","","97.11","","","","","","NA"
"-99.07","49.56","CYPRESS RIVER RCS","5010641","2022-06-06 06:00","2022","06","06","06:00","7.3","","5.4","","88","","0.0","","2","","11","","","","97.11","","","","","","NA"
"-99.07","49.56","CYPRESS RIVER RCS","5010641","2022-06-06 07:00","2022","06","06","07:00","9.9","","6.5","","80","","0.0","","3","","12","","","","97.14","","","","","","NA"
"-99.07","49.56","CYPRESS RIVER RCS","5010641","2022-06-06 08:00","2022","06","06","08:00","12.7","","6.8","","67","","0.0","","4","","15","","","","97.11","","","","","","NA"
"-99.07","49.56","CYPRESS RIVER RCS","5010641","2022-06-06 09:00","2022","06","06","09:00","14.7","","6.1","","56","","0.0","","5","","17","","","","97.10","","","","","","NA"
"-99.07","49.56","CYPRESS RIVER RCS","5010641","2022-06-06 10:00","2022","06","06","10:00","16.4","","5.7","","49","","0.0","","6","","17","","","","97.06","","","","","","NA"
"-99.07","49.56","CYPRESS RIVER RCS","5010641","2022-06-06 11:00","2022","06","06","11:00","17.1","","5.5","","46","","0.0","","4","","19","","","","97.03","","","","","","NA"
"-99.07","49.56","CYPRESS RIVER RCS","5010641","2022-06-06 12:00","2022","06","06","12:00","17.4","","4.0","","41","","0.0","","6","","18","","","","97.02","","","","","","NA"
"-99.07","49.56","CYPRESS RIVER RCS","5010641","2022-06-06 13:00","2022","06","06","13:00","17.7","","4.2","","41","","0.0","","4","","20","","","","96.98","","","","","","NA"
"-99.07","49.56","CYPRESS RIVER RCS","5010641","2022-06-06 14:00","2022","06","06","14:00","19.7","","4.8","","38","","0.0","","8","","14","","","","96.97","","","","","","NA"
"-99.07","49.56","CYPRESS RIVER RCS","5010641","2022-06-06 15:00","2022","06","06","15:00","19.4","","3.8","","36","","0.0","","5","","10","","","","96.96","","","","","","NA"
"-99.07","49.56","CYPRESS RIVER RCS","5010641","2022-06-06 16:00","2022","06","06","16:00","18.8","","3.6","","36","","0.0","","5","","13","","","","96.93","","","","","","NA"
"-99.07","49.56","CYPRESS RIVER RCS","5010641","2022-06-06 17:00","2022","06","06","17:00","18.7","","3.6","","37","","0.0","","4","","12","","","","96.94","","","","","","NA"
"-99.07","49.56","CYPRESS RIVER RCS","5010641","2022-06-06 18:00","2022","06","06","18:00","18.8","","4.1","","38","","0.0","","6","","9","","","","96.94","","","","","","NA"
"-99.07","49.56","CYPRESS RIVER RCS","5010641","2022-06-06 19:00","2022","06","06","19:00","18.5","","4.1","","39","","0.0","","4","","11","","","","96.97","","","","","","NA"
"-99.07","49.56","CYPRESS RIVER RCS","5010641","2022-06-06 20:00","2022","06","06","20:00","17.3","","4.8","","44","","0.0","","4","","9","","","","96.99","","","","","","NA"
"-99.07","49.56","CYPRESS RIVER RCS","5010641","2022-06-06 21:00","2022","06","06","21:00","14.7","","6.4","","58","","0.0","","3","","11","","","","97.01","","","","","","NA"
"-99.07","49.56","CYPRESS RIVER RCS","5010641","2022-06-06 22:00","2022","06","06","22:00","12.4","","5.7","","64","","0.0","","5","","4","","","","97.03","","","","","","NA"
"-99.07","49.56","CYPRESS RIVER RCS","5010641","2022-06-06 23:00","2022","06","06","23:00","10.6","","6.6","","76","","0.0","","11","","4","","","","97.03","","","","","","NA"
"-99.07","49.56","CYPRESS RIVER RCS","5010641","2022-06-07 00:00","2022","06","07","00:00","10.7","","7.8","","83","","0.0","","4","","3","","","","97.02","","","","","","NA"
"-99.07","49.56","CYPRESS RIVER RCS","5010641","2022-06-07 01:00","2022","06","07","01:00","8.5","","7.3","","92","","0.0","","19","","2","","","","97.03","","","","","","NA"
"-99.07","49.56","CYPRESS RIVER RCS","5010641","2022-06-07 02:00","2022","06","07","02:00","7.7","","5.9","","88","","0.0","","35","","3","","","","97.05","","","","","","NA"
"-99.07","49.56","CYPRESS RIVER RCS","5010641","2022-06-07 03:00","2022","06","07","03:00","7.0","","5.9","","93","","0.0","","28","","3","","","","97.08","","","","","","NA"
"-99.07","49.56","CYPRESS RIVER RCS","5010641","2022-06-07 04:00","2022","06","07","04:00","6.2","","5.2","","93","","0.0","","29","","3","","","","97.08","","","","","","NA"
"-99.07","49.56","CYPRESS RIVER RCS","5010641","2022-06-07 05:00","2022","06","07","05:00","6.0","","5.2","","95","","0.0","","22","","2","","","","97.10","","","","","","NA"
"-99.07","49.56","CYPRESS RIVER RCS","5010641","2022-06-07 06:00","2022","06","07","06:00","8.9","","7.2","","89","","0.0","","","","0","","","","97.14","","","","","","NA"
"-99.07","49.56","CYPRESS RIVER RCS","5010641","2022-06-07 07:00","2022","06","07","07:00","12.1","","7.9","","76","","0.0","","36","","2","","","","97.14","","","","","","NA"
"-99.07","49.56","CYPRESS RIVER RCS","5010641","2022-06-07 08:00","2022","06","07","08:00","15.0","","8.3","","65","","0.0","","30","","2","","","","97.14","","","","","","NA"
"-99.07","49.56","CYPRESS RIVER RCS","5010641","2022-06-07 09:00","2022","06","07","09:00","17.4","","7.7","","53","","0.0","","36","","5","","","","97.12","","","","","","NA"
"-99.07","49.56","CYPRESS RIVER RCS","5010641","2022-06-07 10:00","2022","06","07","10:00","18.9","","5.6","","42","","0.0","","2","","11","","","","97.08","","","","","","NA"
"-99.07","49.56","CYPRESS RIVER RCS","5010641","2022-06-07 11:00","2022","06","07","11:00","19.8","","4.0","","35","","0.0","","3","","15","","","","97.06","","","","","","NA"
"-99.07","49.56","CYPRESS RIVER RCS","5010641","2022-06-07 12:00","2022","06","07","12:00","20.9","","6.0","","38","","0.0","","4","","13","","","","97.04","","","","","","NA"
"-99.07","49.56","CYPRESS RIVER RCS","5010641","2022-06-07 13:00","2022","06","07","13:00","20.4","","3.1","","32","","0.0","","2","","17","","","","97.02","","","","","","NA"
"-99.07","49.56","CYPRESS RIVER RCS","5010641","2022-06-07 14:00","2022","06","07","14:00","21.6","","2.9","","29","","0.0","","36","","12","","","","97.02","","","","","","NA"
"-99.07","49.56","CYPRESS RIVER RCS","5010641","2022-06-07 15:00","2022","06","07","15:00","20.6","","1.6","","28","","0.0","","2","","14","","","","96.99","","","","","","NA"
"-99.07","49.56","CYPRESS RIVER RCS","5010641","2022-06-07 16:00","2022","06","07","16:00","21.2","","2.1","","28","","0.0","","35","","10","","","","96.98","","","","","","NA"
"-99.07","49.56","CYPRESS RIVER RCS","5010641","2022-06-07 17:00","2022","06","07","17:00","20.8","","2.8","","30","","0.0","","1","","15","","","","96.98","","","","","","NA"
"-99.07","49.56","CYPRESS RIVER RCS","5010641","2022-06-07 18:00","2022","06","07","18:00","20.4","","3.2","","32","","0.0","","3","","19","","","","96.97","","","","","","NA"
"-99.07","49.56","CYPRESS RIVER RCS","5010641","2022-06-07 19:00","2022","06","07","19:00","19.5","","2.7","","33","","0.0","","4","","15","","","","97.01","","","","","","NA"
"-99.07","49.56","CYPRESS RIVER RCS","5010641","2022-06-07 20:00","2022","06","07","20:00","17.8","","2.4","","35","","0.0","","5","","8","","","","97.03","","","","","","NA"
"-99.07","49.56","CYPRESS RIVER RCS","5010641","2022-06-07 21:00","2022","06","07","21:00","15.0","","4.0","","48","","0.0","","5","","7","","","","97.09","","","","","","NA"
"-99.07","49.56","CYPRESS RIVER RCS","5010641","2022-06-07 22:00","2022","06","07","22:00","13.6","","2.9","","48","","0.0","","3","","3","","","","97.12","","","","","","NA"
"-99.07","49.56","CYPRESS RIVER RCS","5010641","2022-06-07 23:00","2022","06","07","23:00","12.6","","5.7","","63","","0.0","","2","","4","","","","97.13","","","","","","NA"
"-99.07","49.56","CYPRESS RIVER RCS","5010641","2022-06-08 00:00","2022","06","08","00:00","11.2","","5.3","","67","","0.0","","7","","2","","","","97.15","","","","","","NA"
"-99.07","49.56","CYPRESS RIVER RCS","5010641","2022-06-08 01:00","2022","06","08","01:00","9.4","","5.1","","75","","0.0","","0","","1","","","","97.13","","","","","","NA"
"-99.07","49.56","CYPRESS RIVER RCS","5010641","2022-06-08 02:00","2022","06","08","02:00","7.2","","4.4","","82","","0.0","","19","","4","","","","97.12","","","","","","NA"
"-99.07","49.56","CYPRESS RIVER RCS","5010641","2022-06-08 03:00","2022","06","08","03:00","6.7","","4.2","","84","","0.0","","21","","2","","","","97.12","","","","","","NA"
"-99.07","49.56","CYPRESS RIVER RCS","5010641","2022-06-08 04:00","2022","06","08","04:00","6.4","","4.3","","86","","0.0","","19","","5","","","","97.14","","","","","","NA"
"-99.07","49.56","CYPRESS RIVER RCS","5010641","2022-06-08 05:00","2022","06","08","05:00","9.3","","6.2","","81","","0.0","","26","","11","","","","97.17","","","","","","NA"
"-99.07","49.56","CYPRESS RIVER RCS","5010641","2022-06-08 06:00","2022","06","08","06:00","11.9","","5.7","","66","","0.0","","27","","8","","","","97.19","","","","","","NA"
"-99.07","49.56","CYPRESS RIVER RCS","5010641","2022-06-08 07:00","2022","06","08","07:00","15.5","","5.0","","50","","0.0","","31","","7","","","","97.20","","","","","","NA"
"-99.07","49.56","CYPRESS RIVER RCS","5010641","2022-06-08 08:00","2022","06","08","08:00","17.9","","4.2","","40","","0.0","","33","","13","","","","97.18","","","","","","NA"
"-99.07","49.56","CYPRESS RIVER RCS","5010641","2022-06-08 09:00","2022","06","08","09:00","19.0","","1.1","","30","","0.0","","34","","13","","","","97.17","","","","","","NA"
"-99.07","49.56","CYPRESS RIVER RCS","5010641","2022-06-08 10:00","2022","06","08","10:00","19.6","","1.0","","29","","0.0","","1","","7","","","","97.13","","","","","","NA"
"-99.07","49.56","CYPRESS RIVER RCS","5010641","2022-06-08 11:00","2022","06","08","11:00","21.8","","2.2","","28","","0.0","","32","","10","","","","97.11","","","","","","NA"
"-99.07","49.56","CYPRESS RIVER RCS","5010641","2022-06-08 12:00","2022","06","08","12:00","20.6","","3.9","","33","","0.0","","34","","12","","","","97.11","","","","","","NA"
"-99.07","49.56","CYPRESS RIVER RCS","5010641","2022-06-08 13:00","2022","06","08","13:00","21.1","","3.7","","32","","0.0","","4","","10","","","","97.07","","","","","","NA"
"-99.07","49.56","CYPRESS RIVER RCS","5010641","2022-06-08 14:00","2022","06","08","14:00","21.0","","3.5","","32","","0.0","","2","","15","","","","97.05","","","","","","NA"
"-99.07","49.56","CYPRESS RIVER RCS","5010641","2022-06-08 15:00","2022","06","08","15:00","21.7","","4.3","","32","","0.0","","34","","6","","","","97.03","","","","","","NA"
"-99.07","49.56","CYPRESS RIVER RCS","5010641","2022-06-08 16:00","2022","06","08","16:00","23.3","","3.4","","27","","0.0","","33","","13","","","","96.98","","","","","","NA"
"-99.07","49.56","CYPRESS RIVER RCS","5010641","2022-06-08 17:00","2022","06","08","17:00","21.9","","3.2","","29","","0.0","","2","","16","","","","96.98","","","","","","NA"
"-99.07","49.56","CYPRESS RIVER RCS","5010641","2022-06-08 18:00","2022","06","08","18:00","22.0","","3.8","","30","","0.0","","1","","14","","","","96.96","","","","","","NA"
"-99.07","49.56","CYPRESS RIVER RCS","5010641","2022-06-08 19:00","2022","06","08","19:00","21.2","","3.2","","31","","0.0","","2","","19","","","","96.97","","","","","","NA"
"-99.07","49.56","CYPRESS RIVER RCS","5010641","2022-06-08 20:00","2022","06","08","20:00","18.6","","3.9","","37","","0.0","","4","","8","","","","96.99","","","","","","NA"
"-99.07","49.56","CYPRESS RIVER RCS","5010641","2022-06-08 21:00","2022","06","08","21:00","16.7","","3.9","","43","","0.0","","7","","4","","","","97.01","","","","","","NA"
"-99.07","49.56","CYPRESS RIVER RCS","5010641","2022-06-08 22:00","2022","06","08","22:00","13.0","","4.5","","56","","0.0","","","","0","","","","97.03","","","","","","NA"
"-99.07","49.56","CYPRESS RIVER RCS","5010641","2022-06-08 23:00","2022","06","08","23:00","11.1","","4.9","","66","","0.0","","19","","2","","","","97.06","","","","","","NA"
"-99.07","49.56","CYPRESS RIVER RCS","5010641","2022-06-09 00:00","2022","06","09","00:00","9.8","","5.3","","74","","0.0","","19","","6","","","","97.07","","","","","","NA"
"-99.07","49.56","CYPRESS RIVER RCS","5010641","2022-06-09 01:00","2022","06","09","01:00","9.4","","6.1","","80","","0.0","","22","","4","","","","97.07","","","","","","NA"
"-99.07","49.56","CYPRESS RIVER RCS","5010641","2022-06-09 02:00","2022","06","09","02:00","7.8","","4.4","","79","","0.0","","19","","7","","","","97.06","","","","","","NA"
"-99.07","49.56","CYPRESS RIVER RCS","5010641","2022-06-09 03:00","2022","06","09","03:00","7.9","","4.8","","81","","0.0","","17","","5","","","","97.07","","","","","","NA"
"-99.07","49.56","CYPRESS RIVER RCS","5010641","2022-06-09 04:00","2022","06","09","04:00","7.1","","4.7","","85","","0.0","","18","","4","","","","97.07","","","","","","NA"
"-99.07","49.56","CYPRESS RIVER RCS","5010641","2022-06-09 05:00","2022","06","09","05:00","7.4","","5.9","","90","","0.0","","9","","4","","","","97.09","","","","","","NA"
"-99.07","49.56","CYPRESS RIVER RCS","5010641","2022-06-09 06:00","2022","06","09","06:00","11.4","","7.1","","75","","0.0","","21","","9","","","","97.10","","","","","","NA"
"-99.07","49.56","CYPRESS RIVER RCS","5010641","2022-06-09 07:00","2022","06","09","07:00","15.2","","7.5","","60","","0.0","","17","","4","","","","97.10","","","","","","NA"
"-99.07","49.56","CYPRESS RIVER RCS","5010641","2022-06-09 08:00","2022","06","09","08:00","19.0","","7.9","","49","","0.0","","14","","9","","","","97.07","","","","","","NA"
"-99.07","49.56","CYPRESS RIVER RCS","5010641","2022-06-09 09:00","2022","06","09","09:00","21.1","","5.7","","37","","0.0","","15","","11","","","","97.05","","","","","","NA"
"-99.07","49.56","CYPRESS RIVER RCS","5010641","2022-06-09 10:00","2022","06","09","10:00","21.8","","4.3","","32","","0.0","","13","","12","","","","97.05","","","","","","NA"
"-99.07","49.56","CYPRESS RIVER RCS","5010641","2022-06-09 11:00","2022","06","09","11:00","22.2","","3.8","","30","","0.0","","11","","4","","","","97.03","","","","","","NA"
"-99.07","49.56","CYPRESS RIVER RCS","5010641","2022-06-09 12:00","2022","06","09","12:00","23.1","","4.4","","30","","0.0","","34","","4","","","","96.97","","","","","","NA"
"-99.07","49.56","CYPRESS RIVER RCS","5010641","2022-06-09 13:00","2022","06","09","13:00","23.8","","4.7","","29","","0.0","","15","","5","","","","96.91","","","","","","NA"
"-99.07","49.56","CYPRESS RIVER RCS","5010641","2022-06-09 14:00","2022","06","09","14:00","24.6","","4.8","","28","","0.0","","31","","6","","","","96.86","","","","","","NA"
"-99.07","49.56","CYPRESS RIVER RCS","5010641","2022-06-09 15:00","2022","06","09","15:00","24.2","","6.9","","33","","0.0","","0","","1","","","","96.84","","","","","","NA"
"-99.07","49.56","CYPRESS RIVER RCS","5010641","2022-06-09 16:00","2022","06","09","16:00","23.5","","3.6","","27","","0.0","","27","","9","","","","96.81","","","","","","NA"
"-99.07","49.56","CYPRESS RIVER RCS","5010641","2022-06-09 17:00","2022","06","09","17:00","22.3","","7.0","","37","","0.0","","29","","7","","","","96.83","","","","","","NA"
"-99.07","49.56","CYPRESS RIVER RCS","5010641","2022-06-09 18:00","2022","06","09","18:00","21.4","","7.2","","40","","0.0","","5","","8","","","","96.86","","","","","","NA"
"-99.07","49.56","CYPRESS RIVER RCS","5010641","2022-06-09 19:00","2022","06","09","19:00","20.5","","7.1","","42","","0.0","","8","","11","","","","96.87","","","","","","NA"
"-99.07","49.56","CYPRESS RIVER RCS","5010641","2022-06-09 20:00","2022","06","09","20:00","19.4","","7.8","","47","","0.0","","33","","11","","","","96.88","","","","","","NA"
"-99.07","49.56","CYPRESS RIVER RCS","5010641","2022-06-09 21:00","2022","06","09","21:00","18.2","","8.3","","52","","0.0","","3","","1","","","","96.88","","","","","","NA"
"-99.07","49.56","CYPRESS RIVER RCS","5010641","2022-06-09 22:00","2022","06","09","22:00","17.0","","9.7","","62","","0.0","","27","","6","","","","96.87","","","","","","NA"
"-99.07","49.56","CYPRESS RIVER RCS","5010641","2022-06-09 23:00","2022","06","09","23:00","16.1","","10.6","","70","","0.0","","29","","5","","","","96.88","","","","","","NA"
"-99.07","49.56","CYPRESS RIVER RCS","5010641","2022-06-10 00:00","2022","06","10","00:00","15.3","","11.3","","77","","0.0","","21","","5","","","","96.86","","","","","","NA"
"-99.07","49.56","CYPRESS RIVER RCS","5010641","2022-06-10 01:00","2022","06","10","01:00","14.7","","11.9","","83","","0.0","","17","","6","","","","96.84","","","","","","NA"
"-99.07","49.56","CYPRESS RIVER RCS","5010641","2022-06-10 02:00","2022","06","10","02:00","14.5","","12.2","","86","","0.0","","10","","5","","","","96.81","","","","","","NA"
"-99.07","49.56","CYPRESS RIVER RCS","5010641","2022-06-10 03:00","2022","06","10","03:00","14.5","","11.6","","83","","0.0","","9","","5","","","","96.80","","","","","","NA"
"-99.07","49.56","CYPRESS RIVER RCS","5010641","2022-06-10 04:00","2022","06","10","04:00","14.3","","11.4","","83","","0.0","","6","","5","","","","96.82","","","","","","NA"
"-99.07","49.56","CYPRESS RIVER RCS","5010641","2022-06-10 05:00","2022","06","10","05:00","13.8","","10.7","","82","","0.0","","12","","6","","","","96.80","","","","","","NA"
"-99.07","49.56","CYPRESS RIVER RCS","5010641","2022-06-10 06:00","2022","06","10","06:00","15.2","","11.1","","77","","0.0","","8","","4","","","","96.79","","","","","","NA"
"-99.07","49.56","CYPRESS RIVER RCS","5010641","2022-06-10 07:00","2022","06","10","07:00","17.9","","9.7","","59","","0.0","","9","","8","","","","96.80","","","","","","NA"
"-99.07","49.56","CYPRESS RIVER RCS","5010641","2022-06-10 08:00","2022","06","10","08:00","19.9","","7.7","","45","","0.0","","11","","11","","","","96.78","","","","","","NA"
"-99.07","49.56","CYPRESS RIVER RCS","5010641","2022-06-10 09:00","2022","06","10","09:00","21.5","","7.0","","39","","0.0","","13","","12","","","","96.77","","","","","","NA"
"-99.07","49.56","CYPRESS RIVER RCS","5010641","2022-06-10 10:00","2022","06","10","10:00","22.3","","8.0","","40","","0.0","","11","","14","","","","96.73","","","","","","NA"
"-99.07","49.56","CYPRESS RIVER RCS","5010641","2022-06-10 11:00","2022","06","10","11:00","23.3","","8.5","","39","","0.0","","11","","14","","","","96.67","","","","","","NA"
"-99.07","49.56","CYPRESS RIVER RCS","5010641","2022-06-10 12:00","2022","06","10","12:00","22.9","","7.7","","38","","0.0","","16","","18","","","","96.62","","","","","","NA"
"-99.07","49.56","CYPRESS RIVER RCS","5010641","2022-06-10 13:00","2022","06","10","13:00","23.4","","8.6","","39","","0.0","","14","","18","","","","96.58","","","","","","NA"
"-99.07","49.56","CYPRESS RIVER RCS","5010641","2022-06-10 14:00","2022","06","10","14:00","23.4","","8.9","","40","","0.0","","11","","12","","","","96.52","","","","","","NA"
"-99.07","49.56","CYPRESS RIVER RCS","5010641","2022-06-10 15:00","2022","06","10","15:00","23.3","","8.1","","38","","0.0","","13","","16","","","","96.48","","","","","","NA"
"-99.07","49.56","CYPRESS RIVER RCS","5010641","2022-06-10 16:00","2022","06","10","16:00","23.3","","9.0","","40","","0.0","","14","","11","","","","96.41","","","","","","NA"
"-99.07","49.56","CYPRESS RIVER RCS","5010641","2022-06-10 17:00","2022","06","10","17:00","23.3","","9.3","","41","","0.0","","14","","11","","","","96.33","","","","","","NA"
"-99.07","49.56","CYPRESS RIVER RCS","5010641","2022-06-10 18:00","2022","06","10","18:00","16.8","","14.1","","84","","0.0","","26","","25","","","","96.38","","","","","","NA"
"-99.07","49.56","CYPRESS RIVER RCS","5010641","2022-06-10 19:00","2022","06","10","19:00","16.4","","14.4","","88","","1.7","","32","","3","","","","96.40","","","","","","NA"
"-99.07","49.56","CYPRESS RIVER RCS","5010641","2022-06-10 20:00","2022","06","10","20:00","16.2","","14.9","","92","","1.0","","6","","2","","","","96.37","","","","","","NA"
"-99.07","49.56","CYPRESS RIVER RCS","5010641","2022-06-10 21:00","2022","06","10","21:00","15.8","","14.9","","94","","0.3","","14","","7","","","","96.34","","","","","","NA"
"-99.07","49.56","CYPRESS RIVER RCS","5010641","2022-06-10 22:00","2022","06","10","22:00","15.6","","14.6","","93","","0.0","","8","","5","","","","96.31","","","","","","NA"
"-99.07","49.56","CYPRESS RIVER RCS","5010641","2022-06-10 23:00","2022","06","10","23:00","15.5","","14.7","","95","","0.0","","7","","9","","","","96.23","","","","","","NA"
"-99.07","49.56","CYPRESS RIVER RCS","5010641","2022-06-11 00:00","2022","06","11","00:00","15.2","","14.4","","95","","0.0","","10","","6","","","","96.20","","","","","","NA"
"-99.07","49.56","CYPRESS RIVER RCS","5010641","2022-06-11 01:00","2022","06","11","01:00","15.1","","14.4","","95","","0.0","","8","","6","","","","96.17","","","","","","NA"
"-99.07","49.56","CYPRESS RIVER RCS","5010641","2022-06-11 02:00","2022","06","11","02:00","15.2","","14.3","","95","","0.0","","6","","3","","","","96.15","","","","","","NA"
"-99.07","49.56","CYPRESS RIVER RCS","5010641","2022-06-11 03:00","2022","06","11","03:00","14.8","","14.2","","96","","0.0","","8","","6","","","","96.14","","","","","","NA"
"-99.07","49.56","CYPRESS RIVER RCS","5010641","2022-06-11 04:00","2022","06","11","04:00","14.5","","13.9","","96","","0.0","","10","","8","","","","96.12","","","","","","NA"
"-99.07","49.56","CYPRESS RIVER RCS","5010641","2022-06-11 05:00","2022","06","11","05:00","14.1","","13.3","","95","","0.0","","6","","6","","","","96.15","","","","","","NA"
"-99.07","49.56","CYPRESS RIVER RCS","5010641","2022-06-11 06:00","2022","06","11","06:00","14.9","","13.8","","93","","0.0","","10","","7","","","","96.15","","","","","","NA"
"-99.07","49.56","CYPRESS RIVER RCS","5010641","2022-06-11 07:00","2022","06","11","07:00","16.6","","14.8","","89","","0.0","","14","","11","","","","96.18","","","","","","NA"
"-99.07","49.56","CYPRESS RIVER RCS","5010641","2022-06-11 08:00","2022","06","11","08:00","18.2","","15.1","","82","","0.0","","18","","8","","","","96.20","","","","","","NA"
"-99.07","49.56","CYPRESS RIVER RCS","5010641","2022-06-11 09:00","2022","06","11","09:00","20.1","","16.0","","77","","0.0","","11","","6","","","","96.21","","25","","","","NA"
"-99.07","49.56","CYPRESS RIVER RCS","5010641","2022-06-11 10:00","2022","06","11","10:00","20.7","","15.7","","73","","0.0","","10","","9","","","","96.16","","25","","","","NA"
"-99.07","49.56","CYPRESS RIVER RCS","5010641","2022-06-11 11:00","2022","06","11","11:00","22.6","","14.6","","61","","0.0","","17","","6","","","","96.17","","26","","","","NA"
"-99.07","49.56","CYPRESS RIVER RCS","5010641","2022-06-11 12:00","2022","06","11","12:00","23.2","","14.2","","57","","0.0","","21","","7","","","","96.17","","27","","","","NA"
"-99.07","49.56","CYPRESS RIVER RCS","5010641","2022-06-11 13:00","2022","06","11","13:00","24.0","","13.7","","53","","0.0","","25","","7","","","","96.16","","27","","","","NA"
"-99.07","49.56","CYPRESS RIVER RCS","5010641","2022-06-11 14:00","2022","06","11","14:00","24.3","","13.6","","51","","0.0","","19","","6","","","","96.11","","27","","","","NA"
"-99.07","49.56","CYPRESS RIVER RCS","5010641","2022-06-11 15:00","2022","06","11","15:00","24.8","","12.7","","47","","0.0","","22","","11","","","","96.09","","27","","","","NA"
"-99.07","49.56","CYPRESS RIVER RCS","5010641","2022-06-11 16:00","2022","06","11","16:00","25.3","","12.2","","44","","0.0","","2","","3","","","","96.09","","28","","","","NA"
"-99.07","49.56","CYPRESS RIVER RCS","5010641","2022-06-11 17:00","2022","06","11","17:00","25.7","","12.1","","43","","0.0","","28","","4","","","","96.09","","28","","","","NA"
"-99.07","49.56","CYPRESS RIVER RCS","5010641","2022-06-11 18:00","2022","06","11","18:00","25.7","","11.1","","40","","0.0","","6","","3","","","","96.08","","28","","","","NA"
"-99.07","49.56","CYPRESS RIVER RCS","5010641","2022-06-11 19:00","2022","06","11","19:00","24.5","","12.4","","47","","0.0","","10","","11","","","","96.06","","27","","","","NA"
"-99.07","49.56","CYPRESS RIVER RCS","5010641","2022-06-11 20:00","2022","06","11","20:00","22.4","","14.2","","60","","0.0","","10","","7","","","","96.06","","26","","","","NA"
"-99.07","49.56","CYPRESS RIVER RCS","5010641","2022-06-11 21:00","2022","06","11","21:00","21.4","","14.5","","65","","0.0","","10","","11","","","","96.08","","25","","","","NA"
"-99.07","49.56","CYPRESS RIVER RCS","5010641","2022-06-11 22:00","2022","06","11","22:00","20.9","","14.5","","67","","0.0","","16","","14","","","","96.07","","25","","","","NA"
"-99.07","49.56","CYPRESS RIVER RCS","5010641","2022-06-11 23:00","2022","06","11","23:00","19.6","","12.8","","65","","0.0","","14","","7","","","","96.05","","","","","","NA"
"-99.07","49.56","CYPRESS RIVER RCS","5010641","2022-06-12 00:00","2022","06","12","00:00","19.1","","14.1","","73","","0.0","","8","","6","","","","96.02","","","","","","NA"
"-99.07","49.56","CYPRESS RIVER RCS","5010641","2022-06-12 01:00","2022","06","12","01:00","18.4","","14.9","","80","","0.0","","26","","8","","","","96.09","","","","","","NA"
"-99.07","49.56","CYPRESS RIVER RCS","5010641","2022-06-12 02:00","2022","06","12","02:00","16.4","","14.3","","87","","1.0","","26","","11","","","","96.16","","","","","","NA"
"-99.07","49.56","CYPRESS RIVER RCS","5010641","2022-06-12 03:00","2022","06","12","03:00","15.9","","15.0","","95","","3.0","","32","","6","","","","96.14","","","","","","NA"
"-99.07","49.56","CYPRESS RIVER RCS","5010641","2022-06-12 04:00","2022","06","12","04:00","15.5","","14.7","","95","","1.7","","6","","7","","","","96.05","","","","","","NA"
"-99.07","49.56","CYPRESS RIVER RCS","5010641","2022-06-12 05:00","2022","06","12","05:00","15.4","","14.5","","95","","0.3","","6","","8","","","","95.93","","","","","","NA"
"-99.07","49.56","CYPRESS RIVER RCS","5010641","2022-06-12 06:00","2022","06","12","06:00","15.4","","14.6","","95","","0.2","","8","","18","","","","95.90","","","","","","NA"
"-99.07","49.56","CYPRESS RIVER RCS","5010641","2022-06-12 07:00","2022","06","12","07:00","16.1","","14.9","","93","","0.0","","9","","16","","","","95.82","","","","","","NA"
"-99.07","49.56","CYPRESS RIVER RCS","5010641","2022-06-12 08:00","2022","06","12","08:00","15.3","","14.7","","96","","4.0","","10","","11","","","","95.91","","","","","","NA"
"-99.07","49.56","CYPRESS RIVER RCS","5010641","2022-06-12 09:00","2022","06","12","09:00","15.5","","15.0","","97","","0.0","","3","","14","","","","95.93","","","","","","NA"
"-99.07","49.56","CYPRESS RIVER RCS","5010641","2022-06-12 10:00","2022","06","12","10:00","15.9","","15.0","","94","","0.0","","3","","19","","","","95.94","","","","","","NA"
"-99.07","49.56","CYPRESS RIVER RCS","5010641","2022-06-12 11:00","2022","06","12","11:00","17.5","","15.4","","87","","0.0","","4","","11","","","","95.94","","","","","","NA"
"-99.07","49.56","CYPRESS RIVER RCS","5010641","2022-06-12 12:00","2022","06","12","12:00","18.1","","15.1","","82","","0.0","","36","","13","","","","95.95","","","","","","NA"
"-99.07","49.56","CYPRESS RIVER RCS","5010641","2022-06-12 13:00","2022","06","12","13:00","19.5","","15.3","","77","","0.0","","32","","10","","","","95.97","","","","","","NA"
"-99.07","49.56","CYPRESS RIVER RCS","5010641","2022-06-12 14:00","2022","06","12","14:00","20.4","","16.0","","76","","0.0","","34","","10","","","","95.98","","25","","","","NA"
"-99.07","49.56","CYPRESS RIVER RCS","5010641","2022-06-12 15:00","2022","06","12","15:00","21.3","","15.5","","70","","0.0","","35","","13","","","","95.98","","26","","","","NA"
"-99.07","49.56","CYPRESS RIVER RCS","5010641","2022-06-12 16:00","2022","06","12","16:00","22.5","","13.8","","58","","0.0","","1","","6","","","","95.99","","26","","","","NA"
"-99.07","49.56","CYPRESS RIVER RCS","5010641","2022-06-12 17:00","2022","06","12","17:00","22.3","","14.7","","62","","0.0","","36","","5","","","","95.98","","26","","","","NA"
"-99.07","49.56","CYPRESS RIVER RCS","5010641","2022-06-12 18:00","2022","06","12","18:00","22.3","","14.8","","62","","0.0","","9","","6","","","","95.98","","26","","","","NA"
"-99.07","49.56","CYPRESS RIVER RCS","5010641","2022-06-12 19:00","2022","06","12","19:00","21.7","","16.0","","70","","0.0","","8","","8","","","","96.03","","26","","","","NA"
"-99.07","49.56","CYPRESS RIVER RCS","5010641","2022-06-12 20:00","2022","06","12","20:00","19.9","","15.9","","78","","0.0","","9","","12","","","","96.08","","","","","","NA"
"-99.07","49.56","CYPRESS RIVER RCS","5010641","2022-06-12 21:00","2022","06","12","21:00","18.7","","16.2","","85","","0.0","","9","","9","","","","96.07","","","","","","NA"
"-99.07","49.56","CYPRESS RIVER RCS","5010641","2022-06-12 22:00","2022","06","12","22:00","17.4","","15.7","","90","","0.0","","8","","9","","","","96.04","","","","","","NA"
"-99.07","49.56","CYPRESS RIVER RCS","5010641","2022-06-12 23:00","2022","06","12","23:00","16.4","","15.3","","93","","0.0","","10","","9","","","","96.09","","","","","","NA"
"-99.07","49.56","CYPRESS RIVER RCS","5010641","2022-06-13 00:00","2022","06","13","00:00","16.2","","15.4","","95","","0.0","","7","","7","","","","96.05","","","","","","NA"
"-99.07","49.56","CYPRESS RIVER RCS","5010641","2022-06-13 01:00","2022","06","13","01:00","16.0","","15.3","","96","","0.0","","8","","9","","","","96.07","","","","","","NA"
"-99.07","49.56","CYPRESS RIVER RCS","5010641","2022-06-13 02:00","2022","06","13","02:00","15.6","","14.7","","95","","0.0","","14","","7","","","","96.00","","","","","","NA"
"-99.07","49.56","CYPRESS RIVER RCS","5010641","2022-06-13 03:00","2022","06","13","03:00","15.8","","15.0","","95","","0.0","","11","","6","","","","96.00","","","","","","NA"
"-99.07","49.56","CYPRESS RIVER RCS","5010641","2022-06-13 04:00","2022","06","13","04:00","15.6","","14.7","","94","","0.0","","10","","9","","","","95.92","","","","","","NA"
"-99.07","49.56","CYPRESS RIVER RCS","5010641","2022-06-13 05:00","2022","06","13","05:00","15.6","","14.7","","95","","0.0","","8","","9","","","","96.01","","","","","","NA"
"-99.07","49.56","CYPRESS RIVER RCS","5010641","2022-06-13 06:00","2022","06","13","06:00","15.0","","14.5","","97","","0.0","","6","","10","","","","96.07","","","","","","NA"
"-99.07","49.56","CYPRESS RIVER RCS","5010641","2022-06-13 07:00","2022","06","13","07:00","14.7","","14.4","","98","","0.0","","7","","11","","","","96.05","","","","","","NA"
"-99.07","49.56","CYPRESS RIVER RCS","5010641","2022-06-13 08:00","2022","06","13","08:00","14.6","","14.1","","97","","0.0","","7","","13","","","","96.06","","","","","","NA"
"-99.07","49.56","CYPRESS RIVER RCS","5010641","2022-06-13 09:00","2022","06","13","09:00","15.1","","14.7","","97","","0.0","","7","","15","","","","96.02","","","","","","NA"
"-99.07","49.56","CYPRESS RIVER RCS","5010641","2022-06-13 10:00","2022","06","13","10:00","15.6","","14.4","","93","","0.0","","7","","10","","","","96.05","","","","","","NA"
"-99.07","49.56","CYPRESS RIVER RCS","5010641","2022-06-13 11:00","2022","06","13","11:00","17.4","","14.9","","86","","0.0","","7","","13","","","","96.04","","","","","","NA"
"-99.07","49.56","CYPRESS RIVER RCS","5010641","2022-06-13 12:00","2022","06","13","12:00","19.9","","15.7","","77","","0.0","","7","","16","","","","95.99","","","","","","NA"
"-99.07","49.56","CYPRESS RIVER RCS","5010641","2022-06-13 13:00","2022","06","13","13:00","22.2","","16.3","","69","","0.0","","8","","18","","","","95.96","","27","","","","NA"
"-99.07","49.56","CYPRESS RIVER RCS","5010641","2022-06-13 14:00","2022","06","13","14:00","21.8","","16.2","","71","","0.0","","5","","15","","","","95.98","","27","","","","NA"
"-99.07","49.56","CYPRESS RIVER RCS","5010641","2022-06-13 15:00","2022","06","13","15:00","22.4","","17.3","","73","","0.0","","7","","20","","","","95.96","","28","","","","NA"
"-99.07","49.56","CYPRESS RIVER RCS","5010641","2022-06-13 16:00","2022","06","13","16:00","21.5","","17.6","","78","","0.0","","6","","15","","","","95.93","","27","","","","NA"
"-99.07","49.56","CYPRESS RIVER RCS","5010641","2022-06-13 17:00","2022","06","13","17:00","20.8","","17.2","","80","","0.0","","5","","16","","","","95.92","","26","","","","NA"
"-99.07","49.56","CYPRESS RIVER RCS","5010641","2022-06-13 18:00","2022","06","13","18:00","19.2","","17.0","","87","","0.0","","4","","19","","","","95.84","","","","","","NA"
"-99.07","49.56","CYPRESS RIVER RCS","5010641","2022-06-13 19:00","2022","06","13","19:00","18.4","","16.2","","87","","0.0","","4","","15","","","","95.83","","","","","","NA"
"-99.07","49.56","CYPRESS RIVER RCS","5010641","2022-06-13 20:00","2022","06","13","20:00","18.2","","16.1","","88","","0.0","","4","","18","","","","95.74","","","","","","NA"
"-99.07","49.56","CYPRESS RIVER RCS","5010641","2022-06-13 21:00","2022","06","13","21:00","18.4","","16.3","","87","","0.0","","5","","18","","","","95.69","","","","","","NA"
"-99.07","49.56","CYPRESS RIVER RCS","5010641","2022-06-13 22:00","2022","06","13","22:00","17.7","","16.9","","95","","2.5","","4","","17","","","","95.73","","","","","","NA"
"-99.07","49.56","CYPRESS RIVER RCS","5010641","2022-06-13 23:00","2022","06","13","23:00","17.5","","16.9","","96","","5.1","","1","","17","","","","95.70","","","","","","NA"
"-99.07","49.56","CYPRESS RIVER RCS","5010641","2022-06-14 00:00","2022","06","14","00:00","17.7","","17.1","","96","","0.0","","4","","21","","","","95.62","","","","","","NA"
"-99.07","49.56","CYPRESS RIVER RCS","5010641","2022-06-14 01:00","2022","06","14","01:00","18.3","","17.7","","96","","0.0","","3","","26","","","","95.70","","","","","","NA"
"-99.07","49.56","CYPRESS RIVER RCS","5010641","2022-06-14 02:00","2022","06","14","02:00","18.9","","18.1","","95","","0.0","","5","","22","","","","95.62","","","","","","NA"
"-99.07","49.56","CYPRESS RIVER RCS","5010641","2022-06-14 03:00","2022","06","14","03:00","18.9","","18.4","","97","","0.0","","7","","20","","","","95.55","","","","","","NA"
"-99.07","49.56","CYPRESS RIVER RCS","5010641","2022-06-14 04:00","2022","06","14","04:00","19.0","","18.3","","96","","0.0","","11","","15","","","","95.56","","","","","","NA"
"-99.07","49.56","CYPRESS RIVER RCS","5010641","2022-06-14 05:00","2022","06","14","05:00","18.8","","18.1","","96","","0.0","","8","","10","","","","95.36","","","","","","NA"
"-99.07","49.56","CYPRESS RIVER RCS","5010641","2022-06-14 06:00","2022","06","14","06:00","19.3","","18.3","","94","","0.0","","14","","25","","","","95.55","","","","","","NA"
"-99.07","49.56","CYPRESS RIVER RCS","5010641","2022-06-14 07:00","2022","06","14","07:00","19.4","","18.4","","94","","0.0","","14","","10","","","","95.45","","","","","","NA"
"-99.07","49.56","CYPRESS RIVER RCS","5010641","2022-06-14 08:00","2022","06","14","08:00","19.0","","18.3","","95","","0.2","","10","","6","","","","95.35","","","","","","NA"
"-99.07","49.56","CYPRESS RIVER RCS","5010641","2022-06-14 09:00","2022","06","14","09:00","18.9","","18.3","","96","","1.0","","36","","15","","","","95.21","","","","","","NA"
"-99.07","49.56","CYPRESS RIVER RCS","5010641","2022-06-14 10:00","2022","06","14","10:00","19.1","","18.6","","97","","1.0","","34","","12","","","","95.21","","","","","","NA"
"-99.07","49.56","CYPRESS RIVER RCS","5010641","2022-06-14 11:00","2022","06","14","11:00","19.7","","19.0","","96","","0.2","","31","","19","","","","95.27","","","","","","NA"
"-99.07","49.56","CYPRESS RIVER RCS","5010641","2022-06-14 12:00","2022","06","14","12:00","20.4","","19.0","","92","","0.0","","3","","17","","","","95.05","","27","","","","NA"
"-99.07","49.56","CYPRESS RIVER RCS","5010641","2022-06-14 13:00","2022","06","14","13:00","20.9","","18.6","","86","","0.0","","11","","5","","","","95.28","","27","","","","NA"
"-99.07","49.56","CYPRESS RIVER RCS","5010641","2022-06-14 14:00","2022","06","14","14:00","18.6","","16.5","","88","","0.0","","26","","22","","","","95.35","","","","","","NA"
"-99.07","49.56","CYPRESS RIVER RCS","5010641","2022-06-14 15:00","2022","06","14","15:00","17.4","","14.0","","81","","3.2","","29","","39","","","","95.47","","","","","","NA"
"-99.07","49.56","CYPRESS RIVER RCS","5010641","2022-06-14 16:00","2022","06","14","16:00","18.1","","13.7","","76","","0.0","","29","","24","","","","95.53","","","","","","NA"
"-99.07","49.56","CYPRESS RIVER RCS","5010641","2022-06-14 17:00","2022","06","14","17:00","17.9","","12.5","","71","","0.0","","28","","32","","","","95.56","","","","","","NA"
"-99.07","49.56","CYPRESS RIVER RCS","5010641","2022-06-14 18:00","2022","06","14","18:00","17.3","","12.9","","75","","0.0","","29","","19","","","","95.60","","","","","","NA"
"-99.07","49.56","CYPRESS RIVER RCS","5010641","2022-06-14 19:00","2022","06","14","19:00","17.5","","12.6","","73","","0.0","","28","","16","","","","95.67","","","","","","NA"
"-99.07","49.56","CYPRESS RIVER RCS","5010641","2022-06-14 20:00","2022","06","14","20:00","16.6","","12.4","","77","","0.0","","25","","13","","","","95.71","","","","","","NA"
"-99.07","49.56","CYPRESS RIVER RCS","5010641","2022-06-14 21:00","2022","06","14","21:00","15.3","","14.0","","91","","0.4","","20","","10","","","","95.76","","","","","","NA"
"-99.07","49.56","CYPRESS RIVER RCS","5010641","2022-06-14 22:00","2022","06","14","22:00","13.9","","12.9","","93","","0.0","","20","","7","","","","95.80","","","","","","NA"
"-99.07","49.56","CYPRESS RIVER RCS","5010641","2022-06-14 23:00","2022","06","14","23:00","13.9","","12.4","","91","","0.0","","19","","17","","","","95.80","","","","","","NA"
"-99.07","49.56","CYPRESS RIVER RCS","5010641","2022-06-15 00:00","2022","06","15","00:00","12.9","","11.6","","92","","0.0","","17","","16","","","","95.77","","","","","","NA"
"-99.07","49.56","CYPRESS RIVER RCS","5010641","2022-06-15 01:00","2022","06","15","01:00","12.9","","10.9","","88","","0.0","","18","","20","","","","95.69","","","","","","NA"
"-99.07","49.56","CYPRESS RIVER RCS","5010641","2022-06-15 02:00","2022","06","15","02:00","12.5","","10.2","","86","","0.0","","19","","20","","","","95.65","","","","","","NA"
"-99.07","49.56","CYPRESS RIVER RCS","5010641","2022-06-15 03:00","2022","06","15","03:00","12.2","","9.7","","85","","0.0","","19","","17","","","","95.61","","","","","","NA"
"-99.07","49.56","CYPRESS RIVER RCS","5010641","2022-06-15 04:00","2022","06","15","04:00","11.7","","9.5","","86","","0.0","","19","","18","","","","95.66","","","","","","NA"
"-99.07","49.56","CYPRESS RIVER RCS","5010641","2022-06-15 05:00","2022","06","15","05:00","10.7","","9.2","","90","","0.0","","17","","11","","","","95.70","","","","","","NA"
"-99.07","49.56","CYPRESS RIVER RCS","5010641","2022-06-15 06:00","2022","06","15","06:00","11.8","","9.8","","87","","0.0","","18","","17","","","","95.71","","","","","","NA"
"-99.07","49.56","CYPRESS RIVER RCS","5010641","2022-06-15 07:00","2022","06","15","07:00","13.9","","9.9","","77","","0.0","","20","","24","","","","95.70","","","","","","NA"
"-99.07","49.56","CYPRESS RIVER RCS","5010641","2022-06-15 08:00","2022","06","15","08:00","15.4","","10.7","","73","","0.0","","21","","30","","","","95.68","","","","","","NA"
"-99.07","49.56","CYPRESS RIVER RCS","5010641","2022-06-15 09:00","2022","06","15","09:00","16.5","","7.9","","57","","0.0","","22","","31","","","","95.59","","","","","","NA"
"-99.07","49.56","CYPRESS RIVER RCS","5010641","2022-06-15 10:00","2022","06","15","10:00","17.7","","6.9","","49","","0.0","","21","","40","","","","95.47","","","","","","NA"
"-99.07","49.56","CYPRESS RIVER RCS","5010641","2022-06-15 11:00","2022","06","15","11:00","17.8","","8.0","","53","","0.0","","22","","47","","","","95.42","","","","","","NA"
"-99.07","49.56","CYPRESS RIVER RCS","5010641","2022-06-15 12:00","2022","06","15","12:00","18.9","","8.4","","51","","0.0","","22","","36","","","","95.38","","","","","","NA"
"-99.07","49.56","CYPRESS RIVER RCS","5010641","2022-06-15 13:00","2022","06","15","13:00","19.8","","9.4","","51","","0.0","","23","","31","","","","95.35","","","","","","NA"
"-99.07","49.56","CYPRESS RIVER RCS","5010641","2022-06-15 14:00","2022","06","15","14:00","20.5","","8.9","","47","","0.0","","22","","36","","","","95.28","","","","","","NA"
"-99.07","49.56","CYPRESS RIVER RCS","5010641","2022-06-15 15:00","2022","06","15","15:00","19.7","","7.8","","46","","0.0","","21","","42","","","","95.24","","","","","","NA"
"-99.07","49.56","CYPRESS RIVER RCS","5010641","2022-06-15 16:00","2022","06","15","16:00","18.4","","8.0","","51","","0.0","","22","","39","","","","95.21","","","","","","NA"
"-99.07","49.56","CYPRESS RIVER RCS","5010641","2022-06-15 17:00","2022","06","15","17:00","14.5","","10.1","","75","","0.0","","21","","35","","","","95.19","","","","","","NA"
"-99.07","49.56","CYPRESS RIVER RCS","5010641","2022-06-15 18:00","2022","06","15","18:00","14.3","","11.4","","82","","0.0","","19","","19","","","","95.09","","","","","","NA"
"-99.07","49.56","CYPRESS RIVER RCS","5010641","2022-06-15 19:00","2022","06","15","19:00","14.5","","11.4","","82","","0.3","","19","","22","","","","94.96","","","","","","NA"
"-99.07","49.56","CYPRESS RIVER RCS","5010641","2022-06-15 20:00","2022","06","15","20:00","13.6","","12.5","","93","","0.0","","18","","14","","","","94.89","","","","","","NA"
"-99.07","49.56","CYPRESS RIVER RCS","5010641","2022-06-15 21:00","2022","06","15","21:00","13.6","","12.8","","94","","2.8","","26","","14","","","","94.90","","","","","","NA"
"-99.07","49.56","CYPRESS RIVER RCS","5010641","2022-06-15 22:00","2022","06","15","22:00","13.5","","12.5","","94","","0.0","","27","","14","","","","94.97","","","","","","NA"
"-99.07","49.56","CYPRESS RIVER RCS","5010641","2022-06-15 23:00","2022","06","15","23:00","12.8","","11.6","","93","","0.0","","29","","24","","","","95.08","","","","","","NA"
"-99.07","49.56","CYPRESS RIVER RCS","5010641","2022-06-16 00:00","2022","06","16","00:00","11.8","","11.2","","96","","0.0","","28","","16","","","","95.17","","","","","","NA"
"-99.07","49.56","CYPRESS RIVER RCS","5010641","2022-06-16 01:00","2022","06","16","01:00","11.8","","11.1","","95","","0.0","","28","","18","","","","95.25","","","","","","NA"
"-99.07","49.56","CYPRESS RIVER RCS","5010641","2022-06-16 02:00","2022","06","16","02:00","12.1","","11.1","","94","","0.0","","28","","14","","","","95.31","","","","","","NA"
"-99.07","49.56","CYPRESS RIVER RCS","5010641","2022-06-16 03:00","2022","06","16","03:00","12.4","","10.8","","90","","0.0","","28","","29","","","","95.41","","","","","","NA"
"-99.07","49.56","CYPRESS RIVER RCS","5010641","2022-06-16 04:00","2022","06","16","04:00","12.1","","10.8","","91","","0.0","","29","","24","","","","95.53","","","","","","NA"
"-99.07","49.56","CYPRESS RIVER RCS","5010641","2022-06-16 05:00","2022","06","16","05:00","12.0","","10.4","","90","","0.0","","29","","27","","","","95.69","","","","","","NA"
"-99.07","49.56","CYPRESS RIVER RCS","5010641","2022-06-16 06:00","2022","06","16","06:00","12.4","","10.0","","85","","","M","29","","27","","","","95.81","","","","","","NA"
"-99.07","49.56","CYPRESS RIVER RCS","5010641","2022-06-16 07:00","2022","06","16","07:00","13.5","","10.3","","81","","0.0","","30","","24","","","","95.95","","","","","","NA"
"-99.07","49.56","CYPRESS RIVER RCS","5010641","2022-06-16 08:00","2022","06","16","08:00","15.0","","11.2","","78","","0.0","","30","","28","","","","96.09","","","","","","NA"
"-99.07","49.56","CYPRESS RIVER RCS","5010641","2022-06-16 09:00","2022","06","16","09:00","16.2","","11.3","","73","","0.0","","30","","31","","","","96.19","","","","","","NA"
"-99.07","49.56","CYPRESS RIVER RCS","5010641","2022-06-16 10:00","2022","06","16","10:00","17.9","","11.5","","66","","0.0","","30","","33","","","","96.28","","","","","","NA"
"-99.07","49.56","CYPRESS RIVER RCS","5010641","2022-06-16 11:00","2022","06","16","11:00","18.7","","10.9","","60","","0.0","","30","","32","","","","96.39","","","","","","NA"
"-99.07","49.56","CYPRESS RIVER RCS","5010641","2022-06-16 12:00","2022","06","16","12:00","19.8","","10.8","","56","","0.0","","30","","34","","","","96.51","","","","","","NA"
"-99.07","49.56","CYPRESS RIVER RCS","5010641","2022-06-16 13:00","2022","06","16","13:00","20.7","","11.2","","55","","0.0","","31","","28","","","","96.57","","","","","","NA"
"-99.07","49.56","CYPRESS RIVER RCS","5010641","2022-06-16 14:00","2022","06","16","14:00","21.1","","10.1","","49","","0.0","","31","","28","","","","96.66","","","","","","NA"
"-99.07","49.56","CYPRESS RIVER RCS","5010641","2022-06-16 15:00","2022","06","16","15:00","21.7","","9.8","","47","","0.0","","30","","31","","","","96.73","","","","","","NA"
"-99.07","49.56","CYPRESS RIVER RCS","5010641","2022-06-16 16:00","2022","06","16","16:00","22.7","","9.9","","44","","0.0","","31","","30","","","","96.77","","","","","","NA"
"-99.07","49.56","CYPRESS RIVER RCS","5010641","2022-06-16 17:00","2022","06","16","17:00","22.5","","10.0","","45","","0.0","","31","","26","","","","96.80","","","","","","NA"
"-99.07","49.56","CYPRESS RIVER RCS","5010641","2022-06-16 18:00","2022","06","16","18:00","22.6","","10.4","","46","","0.0","","31","","19","","","","96.84","","","","","","NA"
"-99.07","49.56","CYPRESS RIVER RCS","5010641","2022-06-16 19:00","2022","06","16","19:00","21.6","","10.7","","50","","0.0","","30","","23","","","","96.90","","","","","","NA"
"-99.07","49.56","CYPRESS RIVER RCS","5010641","2022-06-16 20:00","2022","06","16","20:00","20.8","","10.9","","53","","0.0","","30","","14","","","","96.96","","","","","","NA"
"-99.07","49.56","CYPRESS RIVER RCS","5010641","2022-06-16 21:00","2022","06","16","21:00","17.4","","11.9","","70","","0.0","","28","","6","","","","97.03","","","","","","NA"
"-99.07","49.56","CYPRESS RIVER RCS","5010641","2022-06-16 22:00","2022","06","16","22:00","16.3","","12.2","","77","","0.0","","28","","6","","","","97.09","","","","","","NA"
"-99.07","49.56","CYPRESS RIVER RCS","5010641","2022-06-16 23:00","2022","06","16","23:00","13.8","","11.3","","85","","0.0","","25","","6","","","","97.16","","","","","","NA"
"-99.07","49.56","CYPRESS RIVER RCS","5010641","2022-06-17 00:00","2022","06","17","00:00","12.9","","11.9","","93","","0.0","","23","","2","","","","97.20","","","","","","NA"
"-99.07","49.56","CYPRESS RIVER RCS","5010641","2022-06-17 01:00","2022","06","17","01:00","12.0","","11.2","","95","","0.0","","20","","5","","","","97.23","","","","","","NA"
"-99.07","49.56","CYPRESS RIVER RCS","5010641","2022-06-17 02:00","2022","06","17","02:00","11.4","","10.6","","95","","0.0","","21","","8","","","","97.28","","","","","","NA"
"-99.07","49.56","CYPRESS RIVER RCS","5010641","2022-06-17 03:00","2022","06","17","03:00","11.3","","10.6","","95","","0.0","","22","","4","","","","97.35","","","","","","NA"
"-99.07","49.56","CYPRESS RIVER RCS","5010641","2022-06-17 04:00","2022","06","17","04:00","10.8","","10.4","","98","","0.0","","5","","3","","","","97.40","","","","","","NA"
"-99.07","49.56","CYPRESS RIVER RCS","5010641","2022-06-17 05:00","2022","06","17","05:00","12.4","","11.6","","95","","0.0","","5","","9","","","","97.48","","","","","","NA"
"-99.07","49.56","CYPRESS RIVER RCS","5010641","2022-06-17 06:00","2022","06","17","06:00","13.4","","12.1","","91","","0.0","","5","","12","","","","97.56","","","","","","NA"
"-99.07","49.56","CYPRESS RIVER RCS","5010641","2022-06-17 07:00","2022","06","17","07:00","14.4","","12.6","","89","","0.0","","5","","14","","","","97.65","","","","","","NA"
"-99.07","49.56","CYPRESS RIVER RCS","5010641","2022-06-17 08:00","2022","06","17","08:00","16.0","","12.9","","82","","0.0","","6","","13","","","","97.70","","","","","","NA"
"-99.07","49.56","CYPRESS RIVER RCS","5010641","2022-06-17 09:00","2022","06","17","09:00","18.0","","13.7","","76","","0.0","","8","","12","","","","97.69","","","","","","NA"
"-99.07","49.56","CYPRESS RIVER RCS","5010641","2022-06-17 10:00","2022","06","17","10:00","18.7","","12.7","","68","","0.0","","7","","16","","","","97.69","","","","","","NA"
"-99.07","49.56","CYPRESS RIVER RCS","5010641","2022-06-17 11:00","2022","06","17","11:00","19.7","","13.2","","66","","0.0","","9","","18","","","","97.71","","","","","","NA"
"-99.07","49.56","CYPRESS RIVER RCS","5010641","2022-06-17 12:00","2022","06","17","12:00","20.9","","13.4","","62","","0.0","","9","","18","","","","97.67","","","","","","NA"
"-99.07","49.56","CYPRESS RIVER RCS","5010641","2022-06-17 13:00","2022","06","17","13:00","22.2","","13.2","","57","","0.0","","10","","17","","","","97.62","","25","","","","NA"
"-99.07","49.56","CYPRESS RIVER RCS","5010641","2022-06-17 14:00","2022","06","17","14:00","22.6","","13.2","","55","","0.0","","9","","20","","","","97.58","","26","","","","NA"
"-99.07","49.56","CYPRESS RIVER RCS","5010641","2022-06-17 15:00","2022","06","17","15:00","22.9","","12.6","","52","","0.0","","10","","21","","","","97.51","","25","","","","NA"
"-99.07","49.56","CYPRESS RIVER RCS","5010641","2022-06-17 16:00","2022","06","17","16:00","24.0","","12.8","","49","","0.0","","10","","21","","","","97.43","","27","","","","NA"
"-99.07","49.56","CYPRESS RIVER RCS","5010641","2022-06-17 17:00","2022","06","17","17:00","24.5","","12.3","","47","","0.0","","12","","18","","","","97.40","","27","","","","NA"
"-99.07","49.56","CYPRESS RIVER RCS","5010641","2022-06-17 18:00","2022","06","17","18:00","24.3","","10.9","","43","","0.0","","11","","19","","","","97.38","","26","","","","NA"
"-99.07","49.56","CYPRESS RIVER RCS","5010641","2022-06-17 19:00","2022","06","17","19:00","23.6","","11.1","","45","","0.0","","11","","18","","","","97.36","","25","","","","NA"
"-99.07","49.56","CYPRESS RIVER RCS","5010641","2022-06-17 20:00","2022","06","17","20:00","21.2","","12.4","","57","","0.0","","10","","15","","","","97.33","","","","","","NA"
"-99.07","49.56","CYPRESS RIVER RCS","5010641","2022-06-17 21:00","2022","06","17","21:00","19.7","","11.3","","58","","0.0","","10","","13","","","","97.35","","","","","","NA"
"-99.07","49.56","CYPRESS RIVER RCS","5010641","2022-06-17 22:00","2022","06","17","22:00","18.3","","11.3","","64","","0.0","","10","","17","","","","97.28","","","","","","NA"
"-99.07","49.56","CYPRESS RIVER RCS","5010641","2022-06-17 23:00","2022","06","17","23:00","19.4","","11.3","","59","","0.0","","13","","23","","","","97.25","","","","","","NA"
"-99.07","49.56","CYPRESS RIVER RCS","5010641","2022-06-18 00:00","2022","06","18","00:00","18.2","","10.6","","61","","0.0","","14","","25","","","","97.25","","","","","","NA"
"-99.07","49.56","CYPRESS RIVER RCS","5010641","2022-06-18 01:00","2022","06","18","01:00","18.1","","10.6","","62","","0.0","","14","","22","","","","97.23","","","","","","NA"
"-99.07","49.56","CYPRESS RIVER RCS","5010641","2022-06-18 02:00","2022","06","18","02:00","17.7","","10.5","","63","","0.0","","14","","27","","","","97.10","","","","","","NA"
"-99.07","49.56","CYPRESS RIVER RCS","5010641","2022-06-18 03:00","2022","06","18","03:00","17.9","","10.9","","64","","0.0","","14","","25","","","","97.08","","","","","","NA"
"-99.07","49.56","CYPRESS RIVER RCS","5010641","2022-06-18 04:00","2022","06","18","04:00","17.7","","10.9","","64","","0.0","","14","","29","","","","97.00","","","","","","NA"
"-99.07","49.56","CYPRESS RIVER RCS","5010641","2022-06-18 05:00","2022","06","18","05:00","17.5","","11.2","","67","","0.0","","13","","28","","","","96.96","","","","","","NA"
"-99.07","49.56","CYPRESS RIVER RCS","5010641","2022-06-18 06:00","2022","06","18","06:00","17.9","","11.5","","66","","0.0","","13","","27","","","","96.93","","","","","","NA"
"-99.07","49.56","CYPRESS RIVER RCS","5010641","2022-06-18 07:00","2022","06","18","07:00","19.6","","11.7","","60","","0.0","","15","","31","","","","96.82","","","","","","NA"
"-99.07","49.56","CYPRESS RIVER RCS","5010641","2022-06-18 08:00","2022","06","18","08:00","22.4","","12.4","","53","","0.0","","15","","41","","","","96.71","","25","","","","NA"
"-99.07","49.56","CYPRESS RIVER RCS","5010641","2022-06-18 09:00","2022","06","18","09:00","22.9","","12.8","","53","","0.0","","14","","40","","","","96.66","","26","","","","NA"
"-99.07","49.56","CYPRESS RIVER RCS","5010641","2022-06-18 10:00","2022","06","18","10:00","24.0","","13.9","","53","","0.0","","15","","37","","","","96.64","","27","","","","NA"
"-99.07","49.56","CYPRESS RIVER RCS","5010641","2022-06-18 11:00","2022","06","18","11:00","24.7","","14.0","","51","","0.0","","15","","48","","","","96.62","","28","","","","NA"
"-99.07","49.56","CYPRESS RIVER RCS","5010641","2022-06-18 12:00","2022","06","18","12:00","26.1","","14.9","","50","","0.0","","15","","42","","","","96.53","","30","","","","NA"
"-99.07","49.56","CYPRESS RIVER RCS","5010641","2022-06-18 13:00","2022","06","18","13:00","27.1","","15.5","","49","","0.0","","15","","41","","","","96.45","","31","","","","NA"
"-99.07","49.56","CYPRESS RIVER RCS","5010641","2022-06-18 14:00","2022","06","18","14:00","28.3","","15.9","","47","","0.0","","14","","42","","","","96.37","","33","","","","NA"
"-99.07","49.56","CYPRESS RIVER RCS","5010641","2022-06-18 15:00","2022","06","18","15:00","28.4","","15.6","","46","","0.0","","14","","46","","","","96.27","","33","","","","NA"
"-99.07","49.56","CYPRESS RIVER RCS","5010641","2022-06-18 16:00","2022","06","18","16:00","29.2","","15.9","","45","","0.0","","15","","48","","","","96.17","","34","","","","NA"
"-99.07","49.56","CYPRESS RIVER RCS","5010641","2022-06-18 17:00","2022","06","18","17:00","28.9","","15.6","","44","","0.0","","15","","49","","","","96.13","","33","","","","NA"
"-99.07","49.56","CYPRESS RIVER RCS","5010641","2022-06-18 18:00","2022","06","18","18:00","28.7","","15.8","","46","","0.0","","16","","52","","","","96.08","","33","","","","NA"
"-99.07","49.56","CYPRESS RIVER RCS","5010641","2022-06-18 19:00","2022","06","18","19:00","27.0","","15.2","","49","","0.0","","16","","53","","","","96.00","","31","","","","NA"
"-99.07","49.56","CYPRESS RIVER RCS","5010641","2022-06-18 20:00","2022","06","18","20:00","26.3","","15.6","","52","","0.0","","16","","45","","","","95.97","","31","","","","NA"
"-99.07","49.56","CYPRESS RIVER RCS","5010641","2022-06-18 21:00","2022","06","18","21:00","25.8","","16.1","","55","","0.0","","16","","37","","","","96.01","","30","","","","NA"
"-99.07","49.56","CYPRESS RIVER RCS","5010641","2022-06-18 22:00","2022","06","18","22:00","26.1","","16.9","","57","","0.0","","16","","34","","","","95.97","","31","","","","NA"
"-99.07","49.56","CYPRESS RIVER RCS","5010641","2022-06-18 23:00","2022","06","18","23:00","26.5","","17.7","","58","","0.0","","17","","32","","","","95.94","","32","","","","NA"
"-99.07","49.56","CYPRESS RIVER RCS","5010641","2022-06-19 00:00","2022","06","19","00:00","26.4","","18.3","","61","","0.0","","18","","22","","","","95.94","","33","","","","NA"
"-99.07","49.56","CYPRESS RIVER RCS","5010641","2022-06-19 01:00","2022","06","19","01:00","27.4","","18.7","","59","","0.0","","19","","34","","","","95.90","","34","","","","NA"
"-99.07","49.56","CYPRESS RIVER RCS","5010641","2022-06-19 02:00","2022","06","19","02:00","26.2","","19.0","","65","","0.0","","20","","27","","","","95.94","","33","","","","NA"
"-99.07","49.56","CYPRESS RIVER RCS","5010641","2022-06-19 03:00","2022","06","19","03:00","25.2","","19.2","","69","","0.0","","20","","17","","","","95.97","","32","","","","NA"
"-99.07","49.56","CYPRESS RIVER RCS","5010641","2022-06-19 04:00","2022","06","19","04:00","23.5","","19.0","","76","","0.0","","19","","18","","","","95.95","","30","","","","NA"
"-99.07","49.56","CYPRESS RIVER RCS","5010641","2022-06-19 05:00","2022","06","19","05:00","23.7","","18.6","","73","","0.0","","20","","18","","","","95.98","","30","","","","NA"
"-99.07","49.56","CYPRESS RIVER RCS","5010641","2022-06-19 06:00","2022","06","19","06:00","24.3","","18.6","","70","","0.0","","19","","21","","","","96.00","","31","","","","NA"
"-99.07","49.56","CYPRESS RIVER RCS","5010641","2022-06-19 07:00","2022","06","19","07:00","25.3","","18.9","","68","","0.0","","19","","19","","","","96.02","","32","","","","NA"
"-99.07","49.56","CYPRESS RIVER RCS","5010641","2022-06-19 08:00","2022","06","19","08:00","26.6","","18.7","","62","","0.0","","21","","15","","","","96.03","","33","","","","NA"
"-99.07","49.56","CYPRESS RIVER RCS","5010641","2022-06-19 09:00","2022","06","19","09:00","26.0","","18.9","","65","","0.0","","36","","10","","","","95.89","","33","","","","NA"
"-99.07","49.56","CYPRESS RIVER RCS","5010641","2022-06-19 10:00","2022","06","19","10:00","28.2","","19.8","","61","","0.0","","21","","18","","","","95.90","","36","","","","NA"
"-99.07","49.56","CYPRESS RIVER RCS","5010641","2022-06-19 11:00","2022","06","19","11:00","30.7","","19.2","","50","","0.0","","18","","16","","","","95.90","","38","","","","NA"
"-99.07","49.56","CYPRESS RIVER RCS","5010641","2022-06-19 12:00","2022","06","19","12:00","32.1","","21.0","","52","","0.0","","17","","15","","","","95.83","","41","","","","NA"
"-99.07","49.56","CYPRESS RIVER RCS","5010641","2022-06-19 13:00","2022","06","19","13:00","33.2","","20.3","","47","","0.0","","14","","17","","","","95.79","","41","","","","NA"
"-99.07","49.56","CYPRESS RIVER RCS","5010641","2022-06-19 14:00","2022","06","19","14:00","33.7","","20.9","","47","","0.0","","16","","23","","","","95.75","","42","","","","NA"
"-99.07","49.56","CYPRESS RIVER RCS","5010641","2022-06-19 15:00","2022","06","19","15:00","34.2","","20.9","","46","","0.0","","18","","25","","","","95.70","","43","","","","NA"
"-99.07","49.56","CYPRESS RIVER RCS","5010641","2022-06-19 16:00","2022","06","19","16:00","34.4","","20.7","","45","","0.0","","18","","29","","","","95.63","","43","","","","NA"
"-99.07","49.56","CYPRESS RIVER RCS","5010641","2022-06-19 17:00","2022","06","19","17:00","34.7","","20.9","","45","","0.0","","19","","25","","","","95.56","","43","","","","NA"
"-99.07","49.56","CYPRESS RIVER RCS","5010641","2022-06-19 18:00","2022","06","19","18:00","35.0","","20.8","","44","","0.0","","20","","25","","","","95.54","","43","","","","NA"
"-99.07","49.56","CYPRESS RIVER RCS","5010641","2022-06-19 19:00","2022","06","19","19:00","34.3","","20.9","","46","","0.0","","23","","12","","","","95.56","","43","","","","NA"
"-99.07","49.56","CYPRESS RIVER RCS","5010641","2022-06-19 20:00","2022","06","19","20:00","31.1","","23.3","","63","","0.0","","20","","4","","","","95.54","","42","","","","NA"
"-99.07","49.56","CYPRESS RIVER RCS","5010641","2022-06-19 21:00","2022","06","19","21:00","29.5","","20.6","","59","","0.0","","20","","10","","","","95.55","","38","","","","NA"
"-99.07","49.56","CYPRESS RIVER RCS","5010641","2022-06-19 22:00","2022","06","19","22:00","28.2","","20.2","","62","","0.0","","19","","11","","","","95.57","","36","","","","NA"
"-99.07","49.56","CYPRESS RIVER RCS","5010641","2022-06-19 23:00","2022","06","19","23:00","27.0","","21.7","","73","","0.0","","33","","14","","","","95.69","","36","","","","NA"
"-99.07","49.56","CYPRESS RIVER RCS","5010641","2022-06-20 00:00","2022","06","20","00:00","24.5","","21.6","","84","","0.0","","6","","5","","","","95.79","","33","","","","NA"
"-99.07","49.56","CYPRESS RIVER RCS","5010641","2022-06-20 01:00","2022","06","20","01:00","22.9","","20.7","","88","","0.0","","31","","12","","","","95.86","","31","","","","NA"
"-99.07","49.56","CYPRESS RIVER RCS","5010641","2022-06-20 02:00","2022","06","20","02:00","21.6","","20.1","","91","","0.0","","22","","8","","","","95.95","","29","","","","NA"
"-99.07","49.56","CYPRESS RIVER RCS","5010641","2022-06-20 03:00","2022","06","20","03:00","21.1","","20.0","","93","","0.0","","23","","13","","","","95.99","","29","","","","NA"
"-99.07","49.56","CYPRESS RIVER RCS","5010641","2022-06-20 04:00","2022","06","20","04:00","21.7","","20.2","","91","","0.0","","25","","15","","","","96.05","","29","","","","NA"
"-99.07","49.56","CYPRESS RIVER RCS","5010641","2022-06-20 05:00","2022","06","20","05:00","21.8","","20.1","","91","","0.0","","26","","14","","","","96.04","","29","","","","NA"
"-99.07","49.56","CYPRESS RIVER RCS","5010641","2022-06-20 06:00","2022","06","20","06:00","21.9","","20.3","","91","","0.0","","26","","16","","","","96.06","","30","","","","NA"
"-99.07","49.56","CYPRESS RIVER RCS","5010641","2022-06-20 07:00","2022","06","20","07:00","22.3","","19.9","","86","","0.0","","27","","25","","","","96.14","","30","","","","NA"
"-99.07","49.56","CYPRESS RIVER RCS","5010641","2022-06-20 08:00","2022","06","20","08:00","23.4","","20.0","","81","","0.0","","28","","22","","","","96.20","","31","","","","NA"
"-99.07","49.56","CYPRESS RIVER RCS","5010641","2022-06-20 09:00","2022","06","20","09:00","23.8","","19.7","","78","","0.0","","29","","21","","","","96.24","","31","","","","NA"
"-99.07","49.56","CYPRESS RIVER RCS","5010641","2022-06-20 10:00","2022","06","20","10:00","24.6","","19.3","","73","","0.0","","29","","19","","","","96.25","","32","","","","NA"
"-99.07","49.56","CYPRESS RIVER RCS","5010641","2022-06-20 11:00","2022","06","20","11:00","25.6","","19.2","","68","","0.0","","30","","21","","","","96.31","","33","","","","NA"
"-99.07","49.56","CYPRESS RIVER RCS","5010641","2022-06-20 12:00","2022","06","20","12:00"
"-99.07","49.56","CYPRESS RIVER RCS","5010641","2022-06-20 13:00","2022","06","20","13:00"
"-99.07","49.56","CYPRESS RIVER RCS","5010641","2022-06-20 14:00","2022","06","20","14:00"
"-99.07","49.56","CYPRESS RIVER RCS","5010641","2022-06-20 15:00","2022","06","20","15:00","25.2","","17.8","","64","","0.0","","28","","21","","","","96.43","","31","","","","NA"
"-99.07","49.56","CYPRESS RIVER RCS","5010641","2022-06-20 16:00","2022","06","20","16:00","25.0","","17.8","","64","","0.0","","28","","16","","","","96.44","","31","","","","NA"
"-99.07","49.56","CYPRESS RIVER RCS","5010641","2022-06-20 17:00","2022","06","20","17:00","25.7","","17.7","","61","","0.0","","29","","17","","","","96.31","","31","","","","NA"
"-99.07","49.56","CYPRESS RIVER RCS","5010641","2022-06-20 18:00","2022","06","20","18:00","24.5","","17.3","","64","","0.0","","31","","21","","","","96.33","","30","","","","NA"
"-99.07","49.56","CYPRESS RIVER RCS","5010641","2022-06-20 19:00","2022","06","20","19:00","23.9","","17.0","","65","","0.0","","30","","19","","","","96.35","","29","","","","NA"
"-99.07","49.56","CYPRESS RIVER RCS","5010641","2022-06-20 20:00","2022","06","20","20:00","22.6","","16.9","","70","","0.0","","32","","13","","","","96.39","","28","","","","NA"
"-99.07","49.56","CYPRESS RIVER RCS","5010641","2022-06-20 21:00","2022","06","20","21:00","21.5","","17.0","","76","","0.0","","30","","10","","","","96.43","","27","","","","NA"
"-99.07","49.56","CYPRESS RIVER RCS","5010641","2022-06-20 22:00","2022","06","20","22:00","20.1","","17.9","","87","","0.0","","2","","15","","","","96.43","","26","","","","NA"
"-99.07","49.56","CYPRESS RIVER RCS","5010641","2022-06-20 23:00","2022","06","20","23:00","18.6","","17.2","","92","","0.0","","2","","9","","","","96.41","","","","","","NA"
"-99.07","49.56","CYPRESS RIVER RCS","5010641","2022-06-21 00:00","2022","06","21","00:00","18.8","","16.8","","88","","0.0","","4","","7","","","","96.44","","","","","","NA"
"-99.07","49.56","CYPRESS RIVER RCS","5010641","2022-06-21 01:00","2022","06","21","01:00","18.6","","16.6","","88","","0.0","","13","","4","","","","96.42","","","","","","NA"
"-99.07","49.56","CYPRESS RIVER RCS","5010641","2022-06-21 02:00","2022","06","21","02:00","18.2","","16.7","","91","","0.0","","35","","8","","","","96.27","","","","","","NA"
"-99.07","49.56","CYPRESS RIVER RCS","5010641","2022-06-21 03:00","2022","06","21","03:00","17.6","","16.3","","92","","0.0","","27","","7","","","","96.32","","","","","","NA"
"-99.07","49.56","CYPRESS RIVER RCS","5010641","2022-06-21 04:00","2022","06","21","04:00","17.6","","16.9","","95","","1.0","","27","","3","","","","96.31","","","","","","NA"
"-99.07","49.56","CYPRESS RIVER RCS","5010641","2022-06-21 05:00","2022","06","21","05:00","16.6","","16.3","","98","","14.8","","25","","15","","","","96.33","","","","","","NA"
"-99.07","49.56","CYPRESS RIVER RCS","5010641","2022-06-21 06:00","2022","06","21","06:00","16.6","","15.8","","95","","0.5","","24","","8","","","","96.30","","","","","","NA"
"-99.07","49.56","CYPRESS RIVER RCS","5010641","2022-06-21 07:00","2022","06","21","07:00","17.0","","15.5","","91","","0.0","","22","","20","","","","96.22","","","","","","NA"
"-99.07","49.56","CYPRESS RIVER RCS","5010641","2022-06-21 08:00","2022","06","21","08:00","17.0","","15.1","","88","","0.0","","25","","15","","","","96.20","","","","","","NA"
"-99.07","49.56","CYPRESS RIVER RCS","5010641","2022-06-21 09:00","2022","06","21","09:00","16.9","","14.5","","86","","0.0","","24","","21","","","","96.23","","","","","","NA"
"-99.07","49.56","CYPRESS RIVER RCS","5010641","2022-06-21 10:00","2022","06","21","10:00","16.1","","14.7","","91","","0.0","","25","","22","","","","96.29","","","","","","NA"
"-99.07","49.56","CYPRESS RIVER RCS","5010641","2022-06-21 11:00","2022","06","21","11:00","16.5","","15.4","","94","","1.4","","29","","18","","","","96.37","","","","","","NA"
"-99.07","49.56","CYPRESS RIVER RCS","5010641","2022-06-21 12:00","2022","06","21","12:00","17.6","","16.1","","91","","0.5","","27","","18","","","","96.45","","","","","","NA"
"-99.07","49.56","CYPRESS RIVER RCS","5010641","2022-06-21 13:00","2022","06","21","13:00","16.3","","15.2","","93","","4.2","","33","","18","","","","96.61","","","","","","NA"
"-99.07","49.56","CYPRESS RIVER RCS","5010641","2022-06-21 14:00","2022","06","21","14:00","18.0","","15.0","","83","","0.1","","33","","25","","","","96.72","","","","","","NA"
"-99.07","49.56","CYPRESS RIVER RCS","5010641","2022-06-21 15:00","2022","06","21","15:00","17.6","","13.7","","78","","0.0","","32","","25","","","","96.85","","","","","","NA"
"-99.07","49.56","CYPRESS RIVER RCS","5010641","2022-06-21 16:00","2022","06","21","16:00","18.7","","13.2","","70","","0.0","","33","","21","","","","96.93","","","","","","NA"
"-99.07","49.56","CYPRESS RIVER RCS","5010641","2022-06-21 17:00","2022","06","21","17:00","19.7","","13.1","","65","","0.0","","32","","17","","","","96.97","","","","","","NA"
"-99.07","49.56","CYPRESS RIVER RCS","5010641","2022-06-21 18:00","2022","06","21","18:00","18.6","","13.8","","73","","0.0","","32","","10","","","","97.00","","","","","","NA"
"-99.07","49.56","CYPRESS RIVER RCS","5010641","2022-06-21 19:00","2022","06","21","19:00","18.9","","12.8","","68","","0.0","","34","","11","","","","97.10","","","","","","NA"
"-99.07","49.56","CYPRESS RIVER RCS","5010641","2022-06-21 20:00","2022","06","21","20:00","18.8","","12.6","","67","","0.0","","33","","3","","","","97.16","","","","","","NA"
"-99.07","49.56","CYPRESS RIVER RCS","5010641","2022-06-21 21:00","2022","06","21","21:00","16.7","","13.0","","79","","0.0","","25","","6","","","","97.21","","","","","","NA"
"-99.07","49.56","CYPRESS RIVER RCS","5010641","2022-06-21 22:00","2022","06","21","22:00","15.7","","13.3","","85","","0.0","","35","","5","","","","97.25","","","","","","NA"
"-99.07","49.56","CYPRESS RIVER RCS","5010641","2022-06-21 23:00","2022","06","21","23:00","14.8","","12.8","","87","","0.0","","30","","2","","","","97.27","","","","","","NA"
"-99.07","49.56","CYPRESS RIVER RCS","5010641","2022-06-22 00:00","2022","06","22","00:00","14.8","","13.1","","90","","0.0","","7","","4","","","","97.29","","","","","","NA"
"-99.07","49.56","CYPRESS RIVER RCS","5010641","2022-06-22 01:00","2022","06","22","01:00","14.0","","13.3","","96","","0.0","","30","","3","","","","97.32","","","","","","NA"
"-99.07","49.56","CYPRESS RIVER RCS","5010641","2022-06-22 02:00","2022","06","22","02:00","12.8","","12.2","","96","","0.0","","0","","1","","","","97.32","","","","","","NA"
"-99.07","49.56","CYPRESS RIVER RCS","5010641","2022-06-22 03:00","2022","06","22","03:00","12.4","","12.0","","98","","0.0","","20","","6","","","","97.32","","","","","","NA"
"-99.07","49.56","CYPRESS RIVER RCS","5010641","2022-06-22 04:00","2022","06","22","04:00","12.2","","11.8","","97","","0.0","","20","","5","","","","97.29","","","","","","NA"
"-99.07","49.56","CYPRESS RIVER RCS","5010641","2022-06-22 05:00","2022","06","22","05:00","12.6","","12.3","","98","","0.0","","21","","6","","","","97.31","","","","","","NA"
"-99.07","49.56","CYPRESS RIVER RCS","5010641","2022-06-22 06:00","2022","06","22","06:00","14.2","","13.6","","96","","0.0","","19","","7","","","","97.33","","","","","","NA"
"-99.07","49.56","CYPRESS RIVER RCS","5010641","2022-06-22 07:00","2022","06","22","07:00","16.6","","14.9","","89","","0.0","","22","","7","","","","97.37","","","","","","NA"
"-99.07","49.56","CYPRESS RIVER RCS","5010641","2022-06-22 08:00","2022","06","22","08:00","18.6","","15.4","","81","","0.0","","23","","8","","","","97.38","","","","","","NA"
"-99.07","49.56","CYPRESS RIVER RCS","5010641","2022-06-22 09:00","2022","06","22","09:00","19.8","","14.8","","72","","0.0","","24","","11","","","","97.37","","","","","","NA"
"-99.07","49.56","CYPRESS RIVER RCS","5010641","2022-06-22 10:00","2022","06","22","10:00","21.6","","15.2","","67","","0.0","","25","","13","","","","97.34","","26","","","","NA"
"-99.07","49.56","CYPRESS RIVER RCS","5010641","2022-06-22 11:00","2022","06","22","11:00","22.4","","14.2","","60","","0.0","","25","","13","","","","97.28","","26","","","","NA"
"-99.07","49.56","CYPRESS RIVER RCS","5010641","2022-06-22 12:00","2022","06","22","12:00","23.6","","14.8","","58","","0.0","","26","","16","","","","97.23","","27","","","","NA"
"-99.07","49.56","CYPRESS RIVER RCS","5010641","2022-06-22 13:00","2022","06","22","13:00","24.9","","14.8","","53","","0.0","","27","","18","","","","97.16","","29","","","","NA"
"-99.07","49.56","CYPRESS RIVER RCS","5010641","2022-06-22 14:00","2022","06","22","14:00","26.3","","14.8","","49","","0.0","","27","","17","","","","97.07","","30","","","","NA"
"-99.07","49.56","CYPRESS RIVER RCS","5010641","2022-06-22 15:00","2022","06","22","15:00","26.7","","13.9","","45","","0.0","","25","","17","","","","97.00","","30","","","","NA"
"-99.07","49.56","CYPRESS RIVER RCS","5010641","2022-06-22 16:00","2022","06","22","16:00","25.6","","14.2","","49","","0.0","","23","","14","","","","96.93","","29","","","","NA"
"-99.07","49.56","CYPRESS RIVER RCS","5010641","2022-06-22 17:00","2022","06","22","17:00","25.9","","13.3","","46","","0.0","","24","","12","","","","96.83","","29","","","","NA"
"-99.07","49.56","CYPRESS RIVER RCS","5010641","2022-06-22 18:00","2022","06","22","18:00","26.3","","12.4","","42","","0.0","","24","","16","","","","96.75","","29","","","","NA"
"-99.07","49.56","CYPRESS RIVER RCS","5010641","2022-06-22 19:00","2022","06","22","19:00","26.0","","12.7","","44","","0.0","","24","","17","","","","96.68","","29","","","","NA"
"-99.07","49.56","CYPRESS RIVER RCS","5010641","2022-06-22 20:00","2022","06","22","20:00","23.5","","14.7","","58","","0.0","","21","","12","","","","96.62","","27","","","","NA"
"-99.07","49.56","CYPRESS RIVER RCS","5010641","2022-06-22 21:00","2022","06","22","21:00","21.6","","14.1","","62","","0.0","","21","","14","","","","96.59","","25","","","","NA"
"-99.07","49.56","CYPRESS RIVER RCS","5010641","2022-06-22 22:00","2022","06","22","22:00","21.1","","13.9","","63","","0.0","","21","","15","","","","96.56","","","","","","NA"
"-99.07","49.56","CYPRESS RIVER RCS","5010641","2022-06-22 23:00","2022","06","22","23:00","21.2","","13.9","","63","","0.0","","20","","18","","","","96.52","","25","","","","NA"
"-99.07","49.56","CYPRESS RIVER RCS","5010641","2022-06-23 00:00","2022","06","23","00:00","20.2","","14.5","","69","","0.0","","20","","18","","","","96.49","","","","","","NA"
"-99.07","49.56","CYPRESS RIVER RCS","5010641","2022-06-23 01:00","2022","06","23","01:00","19.3","","14.2","","72","","0.0","","21","","19","","","","96.44","","","","","","NA"
"-99.07","49.56","CYPRESS RIVER RCS","5010641","2022-06-23 02:00","2022","06","23","02:00","18.7","","14.1","","74","","0.0","","20","","19","","","","96.40","","","","","","NA"
"-99.07","49.56","CYPRESS RIVER RCS","5010641","2022-06-23 03:00","2022","06","23","03:00","17.9","","14.0","","78","","0.0","","21","","14","","","","96.38","","","","","","NA"
"-99.07","49.56","CYPRESS RIVER RCS","5010641","2022-06-23 04:00","2022","06","23","04:00","17.4","","14.0","","81","","0.0","","20","","14","","","","96.34","","","","","","NA"
"-99.07","49.56","CYPRESS RIVER RCS","5010641","2022-06-23 05:00","2022","06","23","05:00","17.0","","14.0","","82","","0.0","","21","","11","","","","96.32","","","","","","NA"
"-99.07","49.56","CYPRESS RIVER RCS","5010641","2022-06-23 06:00","2022","06","23","06:00","17.7","","14.8","","83","","0.0","","19","","11","","","","96.30","","","","","","NA"
"-99.07","49.56","CYPRESS RIVER RCS","5010641","2022-06-23 07:00","2022","06","23","07:00","20.2","","15.9","","76","","0.0","","20","","9","","","","96.30","","25","","","","NA"
"-99.07","49.56","CYPRESS RIVER RCS","5010641","2022-06-23 08:00","2022","06","23","08:00","23.0","","15.7","","63","","0.0","","28","","11","","","","96.34","","27","","","","NA"
"-99.07","49.56","CYPRESS RIVER RCS","5010641","2022-06-23 09:00","2022","06","23","09:00","24.8","","16.7","","61","","0.0","","25","","13","","","","96.30","","30","","","","NA"
"-99.07","49.56","CYPRESS RIVER RCS","5010641","2022-06-23 10:00","2022","06","23","10:00","26.7","","15.7","","51","","0.0","","27","","20","","","","96.31","","31","","","","NA"
"-99.07","49.56","CYPRESS RIVER RCS","5010641","2022-06-23 11:00","2022","06","23","11:00","27.9","","14.4","","44","","0.0","","28","","19","","","","96.34","","32","","","","NA"
"-99.07","49.56","CYPRESS RIVER RCS","5010641","2022-06-23 12:00","2022","06","23","12:00","28.9","","13.1","","38","","0.0","","29","","22","","","","96.36","","32","","","","NA"
"-99.07","49.56","CYPRESS RIVER RCS","5010641","2022-06-23 13:00","2022","06","23","13:00","30.0","","11.9","","33","","0.0","","29","","20","","","","96.35","","32","","","","NA"
"-99.07","49.56","CYPRESS RIVER RCS","5010641","2022-06-23 14:00","2022","06","23","14:00","30.2","","12.2","","33","","0.0","","29","","18","","","","96.36","","33","","","","NA"
"-99.07","49.56","CYPRESS RIVER RCS","5010641","2022-06-23 15:00","2022","06","23","15:00","30.5","","12.8","","34","","0.0","","31","","16","","","","96.37","","33","","","","NA"
"-99.07","49.56","CYPRESS RIVER RCS","5010641","2022-06-23 16:00","2022","06","23","16:00","30.9","","13.8","","35","","0.0","","27","","13","","","","96.35","","34","","","","NA"
"-99.07","49.56","CYPRESS RIVER RCS","5010641","2022-06-23 17:00","2022","06","23","17:00","30.9","","12.4","","32","","0.0","","32","","13","","","","96.33","","33","","","","NA"
"-99.07","49.56","CYPRESS RIVER RCS","5010641","2022-06-23 18:00","2022","06","23","18:00","30.3","","12.3","","33","","0.0","","33","","11","","","","96.30","","33","","","","NA"
"-99.07","49.56","CYPRESS RIVER RCS","5010641","2022-06-23 19:00","2022","06","23","19:00","27.2","","17.8","","57","","0.0","","6","","14","","","","96.30","","33","","","","NA"
"-99.07","49.56","CYPRESS RIVER RCS","5010641","2022-06-23 20:00","2022","06","23","20:00","24.2","","18.2","","69","","0.3","","6","","12","","","","96.33","","30","","","","NA"
"-99.07","49.56","CYPRESS RIVER RCS","5010641","2022-06-23 21:00","2022","06","23","21:00","21.7","","17.2","","75","","1.2","","8","","12","","","","96.31","","27","","","","NA"
"-99.07","49.56","CYPRESS RIVER RCS","5010641","2022-06-23 22:00","2022","06","23","22:00","21.4","","17.5","","79","","0.0","","10","","13","","","","96.26","","27","","","","NA"
"-99.07","49.56","CYPRESS RIVER RCS","5010641","2022-06-23 23:00","2022","06","23","23:00","21.2","","17.9","","82","","0.8","","16","","22","","","","96.41","","27","","","","NA"
"-99.07","49.56","CYPRESS RIVER RCS","5010641","2022-06-24 00:00","2022","06","24","00:00","20.7","","16.5","","77","","0.8","","13","","18","","","","96.18","","26","","","","NA"
"-99.07","49.56","CYPRESS RIVER RCS","5010641","2022-06-24 01:00","2022","06","24","01:00","20.1","","16.2","","78","","0.0","","8","","8","","","","96.19","","25","","","","NA"
"-99.07","49.56","CYPRESS RIVER RCS","5010641","2022-06-24 02:00","2022","06","24","02:00","19.4","","17.7","","90","","0.0","","6","","12","","","","96.23","","","","","","NA"
"-99.07","49.56","CYPRESS RIVER RCS","5010641","2022-06-24 03:00","2022","06","24","03:00","18.8","","17.7","","93","","0.0","","7","","9","","","","96.29","","","","","","NA"
"-99.07","49.56","CYPRESS RIVER RCS","5010641","2022-06-24 04:00","2022","06","24","04:00","17.8","","16.8","","94","","0.0","","5","","11","","","","96.39","","","","","","NA"
"-99.07","49.56","CYPRESS RIVER RCS","5010641","2022-06-24 05:00","2022","06","24","05:00","17.6","","16.4","","93","","0.0","","8","","16","","","","96.43","","","","","","NA"
"-99.07","49.56","CYPRESS RIVER RCS","5010641","2022-06-24 06:00","2022","06","24","06:00","18.4","","16.7","","89","","0.0","","7","","15","","","","96.38","","","","","","NA"
"-99.07","49.56","CYPRESS RIVER RCS","5010641","2022-06-24 07:00","2022","06","24","07:00","18.3","","17.0","","92","","0.0","","8","","13","","","","96.41","","","","","","NA"
"-99.07","49.56","CYPRESS RIVER RCS","5010641","2022-06-24 08:00","2022","06","24","08:00","19.7","","17.1","","85","","0.0","","9","","10","","","","96.42","","","","","","NA"
"-99.07","49.56","CYPRESS RIVER RCS","5010641","2022-06-24 09:00","2022","06","24","09:00","20.8","","16.7","","78","","0.0","","11","","7","","","","96.50","","26","","","","NA"
"-99.07","49.56","CYPRESS RIVER RCS","5010641","2022-06-24 10:00","2022","06","24","10:00","21.8","","17.4","","76","","0.0","","27","","7","","","","96.55","","27","","","","NA"
"-99.07","49.56","CYPRESS RIVER RCS","5010641","2022-06-24 11:00","2022","06","24","11:00","23.2","","18.5","","75","","0.0","","11","","10","","","","96.45","","30","","","","NA"
"-99.07","49.56","CYPRESS RIVER RCS","5010641","2022-06-24 12:00","2022","06","24","12:00","23.9","","20.2","","80","","0.0","","12","","6","","","","96.53","","32","","","","NA"
"-99.07","49.56","CYPRESS RIVER RCS","5010641","2022-06-24 13:00","2022","06","24","13:00","22.4","","19.5","","83","","0.0","","36","","16","","","","96.63","","30","","","","NA"
"-99.07","49.56","CYPRESS RIVER RCS","5010641","2022-06-24 14:00","2022","06","24","14:00","24.1","","20.0","","78","","0.0","","34","","16","","","","96.58","","32","","","","NA"
"-99.07","49.56","CYPRESS RIVER RCS","5010641","2022-06-24 15:00","2022","06","24","15:00","23.4","","17.1","","68","","0.0","","36","","22","","","","96.56","","29","","","","NA"
"-99.07","49.56","CYPRESS RIVER RCS","5010641","2022-06-24 16:00","2022","06","24","16:00","22.6","","17.9","","75","","0.0","","3","","15","","","","96.59","","29","","","","NA"
"-99.07","49.56","CYPRESS RIVER RCS","5010641","2022-06-24 17:00","2022","06","24","17:00","21.5","","17.6","","78","","0.0","","2","","13","","","","96.44","","27","","","","NA"
"-99.07","49.56","CYPRESS RIVER RCS","5010641","2022-06-24 18:00","2022","06","24","18:00","21.3","","17.6","","80","","0.0","","34","","10","","","","96.57","","27","","","","NA"
"-99.07","49.56","CYPRESS RIVER RCS","5010641","2022-06-24 19:00","2022","06","24","19:00","20.6","","18.2","","86","","0.2","","35","","7","","","","96.64","","27","","","","NA"
"-99.07","49.56","CYPRESS RIVER RCS","5010641","2022-06-24 20:00","2022","06","24","20:00","17.8","","16.8","","94","","2.0","","31","","23","","","","96.66","","","","","","NA"
"-99.07","49.56","CYPRESS RIVER RCS","5010641","2022-06-24 21:00","2022","06","24","21:00","18.0","","16.8","","92","","1.5","","33","","31","","","","96.63","","","","","","NA"
"-99.07","49.56","CYPRESS RIVER RCS","5010641","2022-06-24 22:00","2022","06","24","22:00","16.5","","14.4","","87","","0.0","","33","","13","","","","96.65","","","","","","NA"
"-99.07","49.56","CYPRESS RIVER RCS","5010641","2022-06-24 23:00","2022","06","24","23:00","16.3","","15.4","","95","","0.0","","32","","13","","","","96.56","","","","","","NA"
"-99.07","49.56","CYPRESS RIVER RCS","5010641","2022-06-25 00:00","2022","06","25","00:00","15.4","","14.0","","91","","0.0","","30","","12","","","","96.59","","","","","","NA"
"-99.07","49.56","CYPRESS RIVER RCS","5010641","2022-06-25 01:00","2022","06","25","01:00","15.0","","14.1","","94","","0.0","","28","","8","","","","96.64","","","","","","NA"
"-99.07","49.56","CYPRESS RIVER RCS","5010641","2022-06-25 02:00","2022","06","25","02:00","14.3","","12.9","","91","","0.0","","26","","14","","","","96.66","","","","","","NA"
"-99.07","49.56","CYPRESS RIVER RCS","5010641","2022-06-25 03:00","2022","06","25","03:00","13.5","","12.0","","91","","0.0","","27","","17","","","","96.60","","","","","","NA"
"-99.07","49.56","CYPRESS RIVER RCS","5010641","2022-06-25 04:00","2022","06","25","04:00","13.0","","11.2","","89","","0.0","","26","","12","","","","96.60","","","","","","NA"
"-99.07","49.56","CYPRESS RIVER RCS","5010641","2022-06-25 05:00","2022","06","25","05:00","13.5","","12.0","","91","","0.0","","26","","13","","","","96.59","","","","","","NA"
"-99.07","49.56","CYPRESS RIVER RCS","5010641","2022-06-25 06:00","2022","06","25","06:00","14.4","","12.0","","85","","0.0","","28","","20","","","","96.59","","","","","","NA"
"-99.07","49.56","CYPRESS RIVER RCS","5010641","2022-06-25 07:00","2022","06","25","07:00","14.2","","12.0","","87","","0.0","","27","","21","","","","96.59","","","","","","NA"
"-99.07","49.56","CYPRESS RIVER RCS","5010641","2022-06-25 08:00","2022","06","25","08:00","14.0","","11.7","","86","","0.0","","28","","20","","","","96.58","","","","","","NA"
"-99.07","49.56","CYPRESS RIVER RCS","5010641","2022-06-25 09:00","2022","06","25","09:00","16.0","","11.6","","75","","0.0","","28","","31","","","","96.63","","","","","","NA"
"-99.07","49.56","CYPRESS RIVER RCS","5010641","2022-06-25 10:00","2022","06","25","10:00","16.0","","10.9","","72","","0.0","","26","","25","","","","96.62","","","","","","NA"
"-99.07","49.56","CYPRESS RIVER RCS","5010641","2022-06-25 11:00","2022","06","25","11:00","13.9","","10.9","","82","","0.0","","27","","37","","","","96.62","","","","","","NA"
"-99.07","49.56","CYPRESS RIVER RCS","5010641","2022-06-25 12:00","2022","06","25","12:00","16.4","","11.0","","70","","0.2","","26","","30","","","","96.60","","","","","","NA"
"-99.07","49.56","CYPRESS RIVER RCS","5010641","2022-06-25 13:00","2022","06","25","13:00","16.0","","11.3","","74","","0.0","","27","","25","","","","96.59","","","","","","NA"
"-99.07","49.56","CYPRESS RIVER RCS","5010641","2022-06-25 14:00","2022","06","25","14:00","16.2","","11.5","","74","","0.0","","27","","34","","","","96.56","","","","","","NA"
"-99.07","49.56","CYPRESS RIVER RCS","5010641","2022-06-25 15:00","2022","06","25","15:00","15.7","","12.5","","81","","0.0","","27","","40","","","","96.54","","","","","","NA"
"-99.07","49.56","CYPRESS RIVER RCS","5010641","2022-06-25 16:00","2022","06","25","16:00","16.5","","12.5","","77","","0.0","","28","","26","","","","96.55","","","","","","NA"
"-99.07","49.56","CYPRESS RIVER RCS","5010641","2022-06-25 17:00","2022","06","25","17:00","14.8","","11.8","","82","","0.3","","31","","32","","","","96.63","","","","","","NA"
"-99.07","49.56","CYPRESS RIVER RCS","5010641","2022-06-25 18:00","2022","06","25","18:00","15.1","","11.2","","78","","0.4","","30","","33","","","","96.72","","","","","","NA"
"-99.07","49.56","CYPRESS RIVER RCS","5010641","2022-06-25 19:00","2022","06","25","19:00","15.1","","10.3","","73","","0.0","","32","","29","","","","96.85","","","","","","NA"
"-99.07","49.56","CYPRESS RIVER RCS","5010641","2022-06-25 20:00","2022","06","25","20:00","13.3","","8.5","","72","","0.0","","34","","38","","","","96.98","","","","","","NA"
"-99.07","49.56","CYPRESS RIVER RCS","5010641","2022-06-25 21:00","2022","06","25","21:00","12.0","","7.8","","75","","0.0","","33","","27","","","","97.12","","","","","","NA"
"-99.07","49.56","CYPRESS RIVER RCS","5010641","2022-06-25 22:00","2022","06","25","22:00","11.7","","7.6","","76","","0.0","","32","","26","","","","97.23","","","","","","NA"
"-99.07","49.56","CYPRESS RIVER RCS","5010641","2022-06-25 23:00","2022","06","25","23:00","11.7","","7.8","","77","","0.0","","32","","21","","","","97.29","","","","","","NA"
"-99.07","49.56","CYPRESS RIVER RCS","5010641","2022-06-26 00:00","2022","06","26","00:00","11.6","","7.3","","75","","0.0","","32","","25","","","","97.34","","","","","","NA"
"-99.07","49.56","CYPRESS RIVER RCS","5010641","2022-06-26 01:00","2022","06","26","01:00","10.7","","7.2","","79","","0.0","","32","","19","","","","97.40","","","","","","NA"
"-99.07","49.56","CYPRESS RIVER RCS","5010641","2022-06-26 02:00","2022","06","26","02:00","10.3","","8.0","","86","","0.0","","30","","13","","","","97.41","","","","","","NA"
"-99.07","49.56","CYPRESS RIVER RCS","5010641","2022-06-26 03:00","2022","06","26","03:00","10.6","","8.2","","85","","0.0","","28","","15","","","","97.44","","","","","","NA"
"-99.07","49.56","CYPRESS RIVER RCS","5010641","2022-06-26 04:00","2022","06","26","04:00","10.5","","8.5","","87","","0.0","","30","","18","","","","97.48","","","","","","NA"
"-99.07","49.56","CYPRESS RIVER RCS","5010641","2022-06-26 05:00","2022","06","26","05:00","10.4","","8.7","","89","","0.0","","29","","16","","","","97.52","","","","","","NA"
"-99.07","49.56","CYPRESS RIVER RCS","5010641","2022-06-26 06:00","2022","06","26","06:00","10.8","","9.0","","88","","0.0","","31","","15","","","","97.59","","","","","","NA"
"-99.07","49.56","CYPRESS RIVER RCS","5010641","2022-06-26 07:00","2022","06","26","07:00","11.8","","9.8","","87","","0.0","","30","","12","","","","97.63","","","","","","NA"
"-99.07","49.56","CYPRESS RIVER RCS","5010641","2022-06-26 08:00","2022","06","26","08:00","13.7","","10.0","","78","","0.0","","30","","18","","","","97.67","","","","","","NA"
"-99.07","49.56","CYPRESS RIVER RCS","5010641","2022-06-26 09:00","2022","06","26","09:00","15.5","","9.5","","67","","0.0","","30","","18","","","","97.72","","","","","","NA"
"-99.07","49.56","CYPRESS RIVER RCS","5010641","2022-06-26 10:00","2022","06","26","10:00","17.6","","10.9","","65","","0.0","","29","","14","","","","97.72","","","","","","NA"
"-99.07","49.56","CYPRESS RIVER RCS","5010641","2022-06-26 11:00","2022","06","26","11:00","18.6","","8.7","","53","","0.0","","31","","23","","","","97.75","","","","","","NA"
"-99.07","49.56","CYPRESS RIVER RCS","5010641","2022-06-26 12:00","2022","06","26","12:00","19.6","","9.3","","51","","0.0","","31","","19","","","","97.75","","","","","","NA"
"-99.07","49.56","CYPRESS RIVER RCS","5010641","2022-06-26 13:00","2022","06","26","13:00","19.5","","10.6","","56","","0.0","","30","","17","","","","97.69","","","","","","NA"
"-99.07","49.56","CYPRESS RIVER RCS","5010641","2022-06-26 14:00","2022","06","26","14:00","21.4","","10.7","","50","","0.0","","30","","21","","","","97.68","","","","","","NA"
"-99.07","49.56","CYPRESS RIVER RCS","5010641","2022-06-26 15:00","2022","06","26","15:00","21.7","","10.4","","49","","0.0","","30","","22","","","","97.64","","","","","","NA"
"-99.07","49.56","CYPRESS RIVER RCS","5010641","2022-06-26 16:00","2022","06","26","16:00","22.9","","9.7","","43","","0.0","","32","","25","","","","97.59","","","","","","NA"
"-99.07","49.56","CYPRESS RIVER RCS","5010641","2022-06-26 17:00","2022","06","26","17:00","23.2","","10.6","","45","","0.0","","31","","26","","","","97.59","","25","","","","NA"
"-99.07","49.56","CYPRESS RIVER RCS","5010641","2022-06-26 18:00","2022","06","26","18:00","18.9","","14.4","","75","","0.6","","3","","6","","","","97.58","","","","","","NA"
"-99.07","49.56","CYPRESS RIVER RCS","5010641","2022-06-26 19:00","2022","06","26","19:00","19.0","","16.1","","83","","0.2","","14","","4","","","","97.58","","","","","","NA"
"-99.07","49.56","CYPRESS RIVER RCS","5010641","2022-06-26 20:00","2022","06","26","20:00","18.0","","14.7","","81","","0.0","","18","","5","","","","97.59","","","","","","NA"
"-99.07","49.56","CYPRESS RIVER RCS","5010641","2022-06-26 21:00","2022","06","26","21:00","16.2","","14.3","","89","","0.0","","19","","9","","","","97.57","","","","","","NA"
"-99.07","49.56","CYPRESS RIVER RCS","5010641","2022-06-26 22:00","2022","06","26","22:00","16.0","","13.7","","86","","0.0","","21","","10","","","","97.59","","","","","","NA"
"-99.07","49.56","CYPRESS RIVER RCS","5010641","2022-06-26 23:00","2022","06","26","23:00","15.6","","12.8","","83","","0.0","","23","","9","","","","97.59","","","","","","NA"
"-99.07","49.56","CYPRESS RIVER RCS","5010641","2022-06-27 00:00","2022","06","27","00:00","16.1","","12.2","","78","","0.0","","25","","11","","","","97.56","","","","","","NA"
"-99.07","49.56","CYPRESS RIVER RCS","5010641","2022-06-27 01:00","2022","06","27","01:00","14.8","","12.2","","84","","0.0","","24","","7","","","","97.54","","","","","","NA"
"-99.07","49.56","CYPRESS RIVER RCS","5010641","2022-06-27 02:00","2022","06","27","02:00","13.7","","11.7","","88","","0.0","","23","","8","","","","97.52","","","","","","NA"
"-99.07","49.56","CYPRESS RIVER RCS","5010641","2022-06-27 03:00","2022","06","27","03:00","14.8","","11.2","","79","","0.0","","23","","9","","","","97.49","","","","","","NA"
"-99.07","49.56","CYPRESS RIVER RCS","5010641","2022-06-27 04:00","2022","06","27","04:00","12.2","","10.4","","89","","0.0","","22","","10","","","","97.48","","","","","","NA"
"-99.07","49.56","CYPRESS RIVER RCS","5010641","2022-06-27 05:00","2022","06","27","05:00","12.7","","10.0","","84","","0.0","","21","","12","","","","97.46","","","","","","NA"
"-99.07","49.56","CYPRESS RIVER RCS","5010641","2022-06-27 06:00","2022","06","27","06:00","15.8","","10.8","","72","","0.0","","24","","9","","","","97.46","","","","","","NA"
"-99.07","49.56","CYPRESS RIVER RCS","5010641","2022-06-27 07:00","2022","06","27","07:00","17.6","","11.5","","67","","0.0","","26","","13","","","","97.44","","","","","","NA"
"-99.07","49.56","CYPRESS RIVER RCS","5010641","2022-06-27 08:00","2022","06","27","08:00","19.8","","11.6","","59","","0.0","","26","","18","","","","97.43","","","","","","NA"
"-99.07","49.56","CYPRESS RIVER RCS","5010641","2022-06-27 09:00","2022","06","27","09:00","21.8","","11.4","","52","","0.0","","26","","18","","","","97.42","","","","","","NA"
"-99.07","49.56","CYPRESS RIVER RCS","5010641","2022-06-27 10:00","2022","06","27","10:00","23.1","","11.2","","47","","0.0","","25","","23","","","","97.38","","25","","","","NA"
"-99.07","49.56","CYPRESS RIVER RCS","5010641","2022-06-27 11:00","2022","06","27","11:00","24.4","","11.2","","44","","0.0","","26","","24","","","","97.34","","26","","","","NA"
"-99.07","49.56","CYPRESS RIVER RCS","5010641","2022-06-27 12:00","2022","06","27","12:00","25.7","","10.3","","38","","0.0","","26","","25","","","","97.31","","27","","","","NA"
"-99.07","49.56","CYPRESS RIVER RCS","5010641","2022-06-27 13:00","2022","06","27","13:00","26.9","","9.1","","33","","0.0","","26","","23","","","","97.23","","28","","","","NA"
"-99.07","49.56","CYPRESS RIVER RCS","5010641","2022-06-27 14:00","2022","06","27","14:00","27.1","","8.4","","31","","0.0","","26","","27","","","","97.20","","28","","","","NA"
"-99.07","49.56","CYPRESS RIVER RCS","5010641","2022-06-27 15:00","2022","06","27","15:00","22.7","","10.2","","45","","0.0","","30","","31","","","","97.20","","","","","","NA"
"-99.07","49.56","CYPRESS RIVER RCS","5010641","2022-06-27 16:00","2022","06","27","16:00","22.5","","10.2","","46","","0.2","","24","","27","","","","97.15","","","","","","NA"
"-99.07","49.56","CYPRESS RIVER RCS","5010641","2022-06-27 17:00","2022","06","27","17:00","24.5","","13.5","","50","","0.3","","26","","13","","","","97.14","","28","","","","NA"
"-99.07","49.56","CYPRESS RIVER RCS","5010641","2022-06-27 18:00","2022","06","27","18:00","24.4","","11.0","","43","","0.0","","33","","24","","","","97.18","","26","","","","NA"
"-99.07","49.56","CYPRESS RIVER RCS","5010641","2022-06-27 19:00","2022","06","27","19:00","22.4","","13.3","","56","","0.0","","35","","16","","","","97.20","","25","","","","NA"
"-99.07","49.56","CYPRESS RIVER RCS","5010641","2022-06-27 20:00","2022","06","27","20:00","19.2","","13.6","","70","","0.0","","8","","7","","","","97.22","","","","","","NA"
"-99.07","49.56","CYPRESS RIVER RCS","5010641","2022-06-27 21:00","2022","06","27","21:00","17.7","","14.0","","79","","0.0","","10","","9","","","","97.30","","","","","","NA"
"-99.07","49.56","CYPRESS RIVER RCS","5010641","2022-06-27 22:00","2022","06","27","22:00","16.5","","13.4","","82","","0.0","","7","","5","","","","97.35","","","","","","NA"
"-99.07","49.56","CYPRESS RIVER RCS","5010641","2022-06-27 23:00","2022","06","27","23:00","15.1","","13.8","","92","","0.0","","","","0","","","","97.41","","","","","","NA"
"-99.07","49.56","CYPRESS RIVER RCS","5010641","2022-06-28 00:00","2022","06","28","00:00","14.8","","14.0","","95","","0.0","","31","","4","","","","97.43","","","","","","NA"
"-99.07","49.56","CYPRESS RIVER RCS","5010641","2022-06-28 01:00","2022","06","28","01:00","14.1","","11.1","","82","","0.0","","36","","10","","","","97.42","","","","","","NA"
"-99.07","49.56","CYPRESS RIVER RCS","5010641","2022-06-28 02:00","2022","06","28","02:00","13.2","","11.4","","88","","0.0","","1","","2","","","","97.43","","","","","","NA"
"-99.07","49.56","CYPRESS RIVER RCS","5010641","2022-06-28 03:00","2022","06","28","03:00","11.8","","10.5","","92","","0.0","","0","","1","","","","97.44","","","","","","NA"
"-99.07","49.56","CYPRESS RIVER RCS","5010641","2022-06-28 04:00","2022","06","28","04:00","11.9","","11.0","","95","","0.0","","5","","4","","","","97.48","","","","","","NA"
"-99.07","49.56","CYPRESS RIVER RCS","5010641","2022-06-28 05:00","2022","06","28","05:00","12.5","","10.3","","87","","0.0","","3","","4","","","","97.59","","","","","","NA"
"-99.07","49.56","CYPRESS RIVER RCS","5010641","2022-06-28 06:00","2022","06","28","06:00","12.8","","10.3","","85","","0.0","","5","","7","","","","97.62","","","","","","NA"
"-99.07","49.56","CYPRESS RIVER RCS","5010641","2022-06-28 07:00","2022","06","28","07:00","13.6","","10.0","","79","","0.0","","6","","6","","","","97.67","","","","","","NA"
"-99.07","49.56","CYPRESS RIVER RCS","5010641","2022-06-28 08:00","2022","06","28","08:00","13.6","","10.2","","80","","0.0","","6","","5","","","","97.72","","","","","","NA"
"-99.07","49.56","CYPRESS RIVER RCS","5010641","2022-06-28 09:00","2022","06","28","09:00","15.0","","10.7","","76","","0.0","","7","","6","","","","97.74","","","","","","NA"
"-99.07","49.56","CYPRESS RIVER RCS","5010641","2022-06-28 10:00","2022","06","28","10:00","15.6","","9.8","","69","","0.0","","4","","6","","","","97.72","","","","","","NA"
"-99.07","49.56","CYPRESS RIVER RCS","5010641","2022-06-28 11:00","2022","06","28","11:00","17.5","","10.3","","63","","0.0","","4","","6","","","","97.73","","","","","","NA"
"-99.07","49.56","CYPRESS RIVER RCS","5010641","2022-06-28 12:00","2022","06","28","12:00","17.5","","9.5","","59","","0.0","","3","","10","","","","97.70","","","","","","NA"
"-99.07","49.56","CYPRESS RIVER RCS","5010641","2022-06-28 13:00","2022","06","28","13:00","18.7","","9.9","","57","","0.0","","5","","8","","","","97.69","","","","","","NA"
"-99.07","49.56","CYPRESS RIVER RCS","5010641","2022-06-28 14:00","2022","06","28","14:00","19.4","","8.1","","48","","0.0","","35","","4","","","","97.66","","","","","","NA"
"-99.07","49.56","CYPRESS RIVER RCS","5010641","2022-06-28 15:00","2022","06","28","15:00","18.7","","8.1","","50","","0.0","","13","","2","","","","97.65","","","","","","NA"
"-99.07","49.56","CYPRESS RIVER RCS","5010641","2022-06-28 16:00","2022","06","28","16:00","19.2","","8.6","","50","","0.0","","9","","3","","","","97.62","","","","","","NA"
"-99.07","49.56","CYPRESS RIVER RCS","5010641","2022-06-28 17:00","2022","06","28","17:00","19.5","","10.1","","55","","0.0","","5","","8","","","","97.57","","","","","","NA"
"-99.07","49.56","CYPRESS RIVER RCS","5010641","2022-06-28 18:00","2022","06","28","18:00","19.6","","8.4","","48","","0.0","","11","","6","","","","97.53","","","","","","NA"
"-99.07","49.56","CYPRESS RIVER RCS","5010641","2022-06-28 19:00","2022","06","28","19:00","19.1","","9.5","","54","","0.0","","12","","8","","","","97.48","","","","","","NA"
"-99.07","49.56","CYPRESS RIVER RCS","5010641","2022-06-28 20:00","2022","06","28","20:00","17.4","","10.1","","62","","0.0","","13","","7","","","","97.44","","","","","","NA"
"-99.07","49.56","CYPRESS RIVER RCS","5010641","2022-06-28 21:00","2022","06","28","21:00","14.8","","10.0","","73","","0.0","","13","","11","","","","97.43","","","","","","NA"
"-99.07","49.56","CYPRESS RIVER RCS","5010641","2022-06-28 22:00","2022","06","28","22:00","13.9","","10.5","","80","","0.0","","14","","13","","","","97.45","","","","","","NA"
"-99.07","49.56","CYPRESS RIVER RCS","5010641","2022-06-28 23:00","2022","06","28","23:00","13.5","","9.5","","77","","0.0","","16","","14","","","","97.43","","","","","","NA"
"-99.07","49.56","CYPRESS RIVER RCS","5010641","2022-06-29 00:00","2022","06","29","00:00","12.6","","9.6","","82","","0.0","","15","","13","","","","97.37","","","","","","NA"
"-99.07","49.56","CYPRESS RIVER RCS","5010641","2022-06-29 01:00","2022","06","29","01:00","11.1","","9.2","","88","","0.0","","16","","6","","","","97.35","","","","","","NA"
"-99.07","49.56","CYPRESS RIVER RCS","5010641","2022-06-29 02:00","2022","06","29","02:00","11.2","","9.5","","90","","0.0","","12","","6","","","","97.29","","","","","","NA"
"-99.07","49.56","CYPRESS RIVER RCS","5010641","2022-06-29 03:00","2022","06","29","03:00","12.3","","9.5","","83","","0.0","","16","","15","","","","97.27","","","","","","NA"
"-99.07","49.56","CYPRESS RIVER RCS","5010641","2022-06-29 04:00","2022","06","29","04:00","12.4","","8.8","","79","","0.0","","14","","11","","","","97.20","","","","","","NA"
"-99.07","49.56","CYPRESS RIVER RCS","5010641","2022-06-29 05:00","2022","06","29","05:00","13.0","","9.4","","79","","0.0","","15","","8","","","","97.20","","","","","","NA"
"-99.07","49.56","CYPRESS RIVER RCS","5010641","2022-06-29 06:00","2022","06","29","06:00","14.8","","9.8","","72","","0.0","","16","","19","","","","97.03","","","","","","NA"
"-99.07","49.56","CYPRESS RIVER RCS","5010641","2022-06-29 07:00","2022","06","29","07:00","15.0","","9.8","","71","","0.0","","16","","28","","","","96.96","","","","","","NA"
"-99.07","49.56","CYPRESS RIVER RCS","5010641","2022-06-29 08:00","2022","06","29","08:00","16.9","","10.0","","64","","0.0","","17","","27","","","","96.92","","","","","","NA"
"-99.07","49.56","CYPRESS RIVER RCS","5010641","2022-06-29 09:00","2022","06","29","09:00","16.9","","9.1","","60","","0.0","","17","","25","","","","96.85","","","","","","NA"
"-99.07","49.56","CYPRESS RIVER RCS","5010641","2022-06-29 10:00","2022","06","29","10:00","16.6","","9.4","","63","","0.0","","16","","25","","","","96.67","","","","","","NA"
"-99.07","49.56","CYPRESS RIVER RCS","5010641","2022-06-29 11:00","2022","06","29","11:00","19.6","","11.6","","60","","0.0","","16","","32","","","","96.51","","","","","","NA"
"-99.07","49.56","CYPRESS RIVER RCS","5010641","2022-06-29 12:00","2022","06","29","12:00","21.7","","13.7","","60","","0.0","","17","","24","","","","96.49","","25","","","","NA"
"-99.07","49.56","CYPRESS RIVER RCS","5010641","2022-06-29 13:00","2022","06","29","13:00","22.2","","13.8","","59","","0.0","","18","","24","","","","96.42","","25","","","","NA"
"-99.07","49.56","CYPRESS RIVER RCS","5010641","2022-06-29 14:00","2022","06","29","14:00","22.7","","14.7","","61","","0.0","","22","","18","","","","96.41","","26","","","","NA"
"-99.07","49.56","CYPRESS RIVER RCS","5010641","2022-06-29 15:00","2022","06","29","15:00","22.5","","14.9","","62","","0.0","","25","","13","","","","96.29","","26","","","","NA"
"-99.07","49.56","CYPRESS RIVER RCS","5010641","2022-06-29 16:00","2022","06","29","16:00","23.3","","15.0","","60","","0.0","","26","","18","","","","96.29","","27","","","","NA"
"-99.07","49.56","CYPRESS RIVER RCS","5010641","2022-06-29 17:00","2022","06","29","17:00","22.1","","16.4","","70","","0.0","","22","","5","","","","96.20","","27","","","","NA"
"-99.07","49.56","CYPRESS RIVER RCS","5010641","2022-06-29 18:00","2022","06","29","18:00","22.4","","15.6","","65","","0.3","","20","","17","","","","95.97","","27","","","","NA"
"-99.07","49.56","CYPRESS RIVER RCS","5010641","2022-06-29 19:00","2022","06","29","19:00","22.5","","16.3","","68","","0.0","","23","","11","","","","95.93","","27","","","","NA"
"-99.07","49.56","CYPRESS RIVER RCS","5010641","2022-06-29 20:00","2022","06","29","20:00","22.1","","17.3","","74","","0.0","","21","","21","","","","95.98","","28","","","","NA"
"-99.07","49.56","CYPRESS RIVER RCS","5010641","2022-06-29 21:00","2022","06","29","21:00","21.1","","17.3","","79","","0.0","","21","","16","","","","95.98","","27","","","","NA"
"-99.07","49.56","CYPRESS RIVER RCS","5010641","2022-06-29 22:00","2022","06","29","22:00","20.8","","17.2","","80","","0.0","","21","","21","","","","95.95","","26","","","","NA"
"-99.07","49.56","CYPRESS RIVER RCS","5010641","2022-06-29 23:00","2022","06","29","23:00","20.9","","17.3","","80","","0.0","","23","","14","","","","95.93","","26","","","","NA"
"-99.07","49.56","CYPRESS RIVER RCS","5010641","2022-06-30 00:00","2022","06","30","00:00","20.8","","16.7","","77","","0.0","","24","","18","","","","95.93","","26","","","","NA"
"-99.07","49.56","CYPRESS RIVER RCS","5010641","2022-06-30 01:00","2022","06","30","01:00","20.0","","14.1","","69","","0.0","","26","","21","","","","95.98","","","","","","NA"
"-99.07","49.56","CYPRESS RIVER RCS","5010641","2022-06-30 02:00","2022","06","30","02:00","18.0","","14.2","","78","","0.0","","26","","14","","","","95.99","","","","","","NA"
"-99.07","49.56","CYPRESS RIVER RCS","5010641","2022-06-30 03:00","2022","06","30","03:00","17.4","","14.2","","81","","0.0","","28","","25","","","","96.08","","","","","","NA"
"-99.07","49.56","CYPRESS RIVER RCS","5010641","2022-06-30 04:00","2022","06","30","04:00","16.0","","13.5","","85","","0.0","","28","","22","","","","96.14","","","","","","NA"
"-99.07","49.56","CYPRESS RIVER RCS","5010641","2022-06-30 05:00","2022","06","30","05:00","15.9","","13.2","","84","","0.0","","30","","20","","","","96.25","","","","","","NA"
"-99.07","49.56","CYPRESS RIVER RCS","5010641","2022-06-30 06:00","2022","06","30","06:00","15.2","","12.7","","85","","0.0","","31","","16","","","","96.35","","","","","","NA"
"-99.07","49.56","CYPRESS RIVER RCS","5010641","2022-06-30 07:00","2022","06","30","07:00","15.9","","12.6","","81","","0.0","","30","","19","","","","96.44","","","","","","NA"
"-99.07","49.56","CYPRESS RIVER RCS","5010641","2022-06-30 08:00","2022","06","30","08:00","17.4","","12.3","","72","","0.0","","31","","20","","","","96.51","","","","","","NA"
"-99.07","49.56","CYPRESS RIVER RCS","5010641","2022-06-30 09:00","2022","06","30","09:00","17.9","","12.0","","69","","0.0","","31","","20","","","","96.57","","","","","","NA"
"-99.07","49.56","CYPRESS RIVER RCS","5010641","2022-06-30 10:00","2022","06","30","10:00","18.3","","11.0","","63","","0.0","","31","","22","","","","96.66","","","","","","NA"
"-99.07","49.56","CYPRESS RIVER RCS","5010641","2022-06-30 11:00","2022","06","30","11:00","18.1","","11.0","","63","","0.3","","31","","23","","","","96.71","","","","","","NA"
"-99.07","49.56","CYPRESS RIVER RCS","5010641","2022-06-30 12:00","2022","06","30","12:00","15.3","","13.0","","86","","1.0","","33","","14","","","","96.77","","","","","","NA"
"-99.07","49.56","CYPRESS RIVER RCS","5010641","2022-06-30 13:00","2022","06","30","13:00","19.0","","7.4","","47","","0.0","","32","","23","","","","96.80","","","","","","NA"
"-99.07","49.56","CYPRESS RIVER RCS","5010641","2022-06-30 14:00","2022","06","30","14:00","20.2","","7.8","","45","","0.0","","33","","21","","","","96.80","","","","","","NA"
"-99.07","49.56","CYPRESS RIVER RCS","5010641","2022-06-30 15:00","2022","06","30","15:00","19.6","","8.4","","48","","0.0","","32","","23","","","","96.83","","","","","","NA"
"-99.07","49.56","CYPRESS RIVER RCS","5010641","2022-06-30 16:00","2022","06","30","16:00","21.3","","5.0","","34","","0.0","","32","","25","","","","96.84","","","","","","NA"
"-99.07","49.56","CYPRESS RIVER RCS","5010641","2022-06-30 17:00","2022","06","30","17:00","21.2","","6.3","","38","","0.0","","33","","19","","","","96.82","","","","","","NA"
"-99.07","49.56","CYPRESS RIVER RCS","5010641","2022-06-30 18:00","2022","06","30","18:00","20.8","","7.1","","41","","0.0","","30","","22","","","","96.83","","","","","","NA"
"-99.07","49.56","CYPRESS RIVER RCS","5010641","2022-06-30 19:00","2022","06","30","19:00","19.9","","8.7","","48","","0.0","","30","","9","","","","96.83","","","","","","NA"
"-99.07","49.56","CYPRESS RIVER RCS","5010641","2022-06-30 20:00","2022","06","30","20:00","19.0","","9.0","","52","","0.0","","28","","11","","","","96.83","","","","","","NA"
"-99.07","49.56","CYPRESS RIVER RCS","5010641","2022-06-30 21:00","2022","06","30","21:00","18.2","","10.2","","60","","0.0","","27","","9","","","","96.86","","","","","","NA"
"-99.07","49.56","CYPRESS RIVER RCS","5010641","2022-06-30 22:00","2022","06","30","22:00","16.3","","12.0","","76","","0.0","","27","","18","","","","96.93","","","","","","NA"
"-99.07","49.56","CYPRESS RIVER RCS","5010641","2022-06-30 23:00","2022","06","30","23:00","14.3","","12.1","","86","","0.0","","26","","11","","","","96.96","","","","","","NA"
