"Longitude (x)","Latitude (y)","Station Name","Climate ID","Date/Time (LST)","Year","Month","Day","Time (LST)","Temp (°C)","Temp Flag","Dew Point Temp (°C)","Dew Point Temp Flag","Rel Hum (%)","Rel Hum Flag","Precip. Amount (mm)","Precip. Amount Flag","Wind Dir (10s deg)","Wind Dir Flag","Wind Spd (km/h)","Wind Spd Flag","Visibility (km)","Visibility Flag","Stn Press (kPa)","Stn Press Flag","Hmdx","Hmdx Flag","Wind Chill","Wind Chill Flag","Weather"
"-79.03","69.08","ROWLEY ISLAND","2403625","2018-12-01 00:00","2018","12","01","00:00","-9.8","","-10.7","","93","","","","18","","24","","","M","100.29","","","","-18","","NA"
"-79.03","69.08","ROWLEY ISLAND","2403625","2018-12-01 01:00","2018","12","01","01:00","-9.1","","-9.9","","94","","","","17","","26","","","M","100.27","","","","-18","","NA"
"-79.03","69.08","ROWLEY ISLAND","2403625","2018-12-01 02:00","2018","12","01","02:00","-8.9","","-9.7","","94","","","","18","","24","","","M","100.25","","","","-17","","NA"
"-79.03","69.08","ROWLEY ISLAND","2403625","2018-12-01 03:00","2018","12","01","03:00","-9.8","","-10.7","","93","","","","20","","24","","","M","100.26","","","","-18","","NA"
"-79.03","69.08","ROWLEY ISLAND","2403625","2018-12-01 04:00","2018","12","01","04:00","-11.0","","-12.0","","92","","","","19","","18","","","M","100.25","","","","-19","","NA"
"-79.03","69.08","ROWLEY ISLAND","2403625","2018-12-01 05:00","2018","12","01","05:00","-10.4","","-11.3","","92","","","","19","","17","","","M","100.24","","","","-18","","NA"
"-79.03","69.08","ROWLEY ISLAND","2403625","2018-12-01 06:00","2018","12","01","06:00","-9.6","","-10.5","","93","","","","20","","21","","","M","100.24","","","","-18","","NA"
"-79.03","69.08","ROWLEY ISLAND","2403625","2018-12-01 07:00","2018","12","01","07:00","-9.6","","-10.5","","93","","","","23","","18","","","M","100.24","","","","-17","","NA"
"-79.03","69.08","ROWLEY ISLAND","2403625","2018-12-01 08:00","2018","12","01","08:00","-11.8","","-13.0","","91","","","","23","","22","","","M","100.24","","","","-21","","NA"
"-79.03","69.08","ROWLEY ISLAND","2403625","2018-12-01 09:00","2018","12","01","09:00","-13.1","","-14.4","","90","","","","22","","15","","","M","100.26","","","","-21","","NA"
"-79.03","69.08","ROWLEY ISLAND","2403625","2018-12-01 10:00","2018","12","01","10:00","-11.2","","-12.3","","92","","","","23","","17","","","M","100.27","","","","-19","","NA"
"-79.03","69.08","ROWLEY ISLAND","2403625","2018-12-01 11:00","2018","12","01","11:00","-11.3","","-12.4","","92","","","","23","","17","","","M","100.27","","","","-19","","NA"
"-79.03","69.08","ROWLEY ISLAND","2403625","2018-12-01 12:00","2018","12","01","12:00","-11.7","","-12.9","","91","","","","21","","13","","","M","100.26","","","","-18","","NA"
"-79.03","69.08","ROWLEY ISLAND","2403625","2018-12-01 13:00","2018","12","01","13:00","-12.4","","-13.6","","91","","","","20","","13","","","M","100.26","","","","-19","","NA"
"-79.03","69.08","ROWLEY ISLAND","2403625","2018-12-01 14:00","2018","12","01","14:00","-12.7","","-14.0","","90","","","","17","","15","","","M","100.27","","","","-20","","NA"
"-79.03","69.08","ROWLEY ISLAND","2403625","2018-12-01 15:00","2018","12","01","15:00","-12.4","","-13.6","","90","","","","16","","17","","","M","100.25","","","","-20","","NA"
"-79.03","69.08","ROWLEY ISLAND","2403625","2018-12-01 16:00","2018","12","01","16:00","-12.4","","-13.7","","90","","","","15","","22","","","M","100.24","","","","-21","","NA"
"-79.03","69.08","ROWLEY ISLAND","2403625","2018-12-01 17:00","2018","12","01","17:00","-12.1","","-13.3","","91","","","","15","","22","","","M","100.22","","","","-21","","NA"
"-79.03","69.08","ROWLEY ISLAND","2403625","2018-12-01 18:00","2018","12","01","18:00","-11.7","","-12.9","","91","","","","15","","21","","","M","100.19","","","","-20","","NA"
"-79.03","69.08","ROWLEY ISLAND","2403625","2018-12-01 19:00","2018","12","01","19:00","-11.9","","-13.0","","91","","","","19","","11","","","M","100.18","","","","-18","","NA"
"-79.03","69.08","ROWLEY ISLAND","2403625","2018-12-01 20:00","2018","12","01","20:00","-11.7","","-12.9","","91","","","","20","","11","","","M","100.15","","","","-18","","NA"
"-79.03","69.08","ROWLEY ISLAND","2403625","2018-12-01 21:00","2018","12","01","21:00","-11.5","","-12.6","","91","","","","23","","13","","","M","100.13","","","","-18","","NA"
"-79.03","69.08","ROWLEY ISLAND","2403625","2018-12-01 22:00","2018","12","01","22:00"
"-79.03","69.08","ROWLEY ISLAND","2403625","2018-12-01 23:00","2018","12","01","23:00","-10.7","","-11.7","","92","","","","30","","21","","","M","100.05","","","","-19","","NA"
"-79.03","69.08","ROWLEY ISLAND","2403625","2018-12-02 00:00","2018","12","02","00:00","-10.9","","-12.0","","92","","","","30","","17","","","M","100.04","","","","-18","","NA"
"-79.03","69.08","ROWLEY ISLAND","2403625","2018-12-02 01:00","2018","12","02","01:00","-11.5","","-12.6","","91","","","","29","","17","","","M","100.04","","","","-19","","NA"
"-79.03","69.08","ROWLEY ISLAND","2403625","2018-12-02 02:00","2018","12","02","02:00","-11.9","","-13.1","","91","","","","28","","18","","","M","100.05","","","","-20","","NA"
"-79.03","69.08","ROWLEY ISLAND","2403625","2018-12-02 03:00","2018","12","02","03:00","-12.1","","-13.3","","91","","","","30","","22","","","M","100.04","","","","-21","","NA"
"-79.03","69.08","ROWLEY ISLAND","2403625","2018-12-02 04:00","2018","12","02","04:00","-13.4","","-14.7","","90","","","","30","","24","","","M","100.06","","","","-23","","NA"
"-79.03","69.08","ROWLEY ISLAND","2403625","2018-12-02 05:00","2018","12","02","05:00","-14.1","","-15.5","","89","","","","31","","30","","","M","100.05","","","","-25","","NA"
"-79.03","69.08","ROWLEY ISLAND","2403625","2018-12-02 06:00","2018","12","02","06:00","-15.0","","-16.5","","88","","","","31","","26","","","M","100.06","","","","-25","","NA"
"-79.03","69.08","ROWLEY ISLAND","2403625","2018-12-02 07:00","2018","12","02","07:00","-15.8","","-17.4","","87","","","","30","","28","","","M","100.06","","","","-27","","NA"
"-79.03","69.08","ROWLEY ISLAND","2403625","2018-12-02 08:00","2018","12","02","08:00","-15.9","","-17.5","","87","","","","31","","26","","","M","100.06","","","","-27","","NA"
"-79.03","69.08","ROWLEY ISLAND","2403625","2018-12-02 09:00","2018","12","02","09:00","-16.4","","-18.1","","87","","","","31","","26","","","M","100.07","","","","-27","","NA"
"-79.03","69.08","ROWLEY ISLAND","2403625","2018-12-02 10:00","2018","12","02","10:00","-16.7","","-18.4","","86","","","","32","","34","","","M","100.03","","","","-29","","NA"
"-79.03","69.08","ROWLEY ISLAND","2403625","2018-12-02 11:00","2018","12","02","11:00","-16.8","","-18.5","","86","","","","32","","35","","","M","100.01","","","","-29","","NA"
"-79.03","69.08","ROWLEY ISLAND","2403625","2018-12-02 12:00","2018","12","02","12:00","-17.6","","-19.4","","85","","","","32","","35","","","M","100.02","","","","-30","","NA"
"-79.03","69.08","ROWLEY ISLAND","2403625","2018-12-02 13:00","2018","12","02","13:00","-18.6","","-20.6","","84","","","","32","","34","","","M","100.04","","","","-31","","NA"
"-79.03","69.08","ROWLEY ISLAND","2403625","2018-12-02 14:00","2018","12","02","14:00","-19.4","","-21.5","","84","","","","32","","34","","","M","100.04","","","","-32","","NA"
"-79.03","69.08","ROWLEY ISLAND","2403625","2018-12-02 15:00","2018","12","02","15:00","-20.3","","-22.4","","83","","","","32","","35","","","M","100.06","","","","-34","","NA"
"-79.03","69.08","ROWLEY ISLAND","2403625","2018-12-02 16:00","2018","12","02","16:00","-20.8","","-23.0","","82","","","","31","","41","","","M","100.05","","","","-35","","NA"
"-79.03","69.08","ROWLEY ISLAND","2403625","2018-12-02 17:00","2018","12","02","17:00","-21.3","","-23.6","","82","","","","32","","41","","","M","100.05","","","","-36","","NA"
"-79.03","69.08","ROWLEY ISLAND","2403625","2018-12-02 18:00","2018","12","02","18:00","-21.4","","-23.7","","82","","","","32","","48","","","M","100.03","","","","-37","","NA"
"-79.03","69.08","ROWLEY ISLAND","2403625","2018-12-02 19:00","2018","12","02","19:00","-21.7","","-24.0","","82","","","","32","","46","","","M","100.05","","","","-37","","NA"
"-79.03","69.08","ROWLEY ISLAND","2403625","2018-12-02 20:00","2018","12","02","20:00","-22.3","","-24.6","","81","","","","32","","43","","","M","100.05","","","","-38","","NA"
"-79.03","69.08","ROWLEY ISLAND","2403625","2018-12-02 21:00","2018","12","02","21:00","-22.7","","-25.1","","81","","","","32","","34","","","M","100.05","","","","-37","","NA"
"-79.03","69.08","ROWLEY ISLAND","2403625","2018-12-02 22:00","2018","12","02","22:00","-23.0","","-25.4","","81","","","","31","","43","","","M","99.99","","","","-39","","NA"
"-79.03","69.08","ROWLEY ISLAND","2403625","2018-12-02 23:00","2018","12","02","23:00","-23.8","","-26.3","","80","","","","32","","43","","","M","99.98","","","","-40","","NA"
"-79.03","69.08","ROWLEY ISLAND","2403625","2018-12-03 00:00","2018","12","03","00:00","-24.2","","-26.7","","80","","","","33","","43","","","M","99.99","","","","-40","","NA"
"-79.03","69.08","ROWLEY ISLAND","2403625","2018-12-03 01:00","2018","12","03","01:00","-24.5","","-27.0","","79","","","","32","","41","","","M","99.98","","","","-40","","NA"
"-79.03","69.08","ROWLEY ISLAND","2403625","2018-12-03 02:00","2018","12","03","02:00","-24.9","","-27.4","","79","","","","32","","35","","","M","99.98","","","","-40","","NA"
"-79.03","69.08","ROWLEY ISLAND","2403625","2018-12-03 03:00","2018","12","03","03:00","-25.4","","-28.0","","79","","","","32","","46","","","M","99.92","","","","-42","","NA"
"-79.03","69.08","ROWLEY ISLAND","2403625","2018-12-03 04:00","2018","12","03","04:00","-25.4","","-28.0","","79","","","","33","","43","","","M","99.93","","","","-42","","NA"
"-79.03","69.08","ROWLEY ISLAND","2403625","2018-12-03 05:00","2018","12","03","05:00","-25.9","","-28.5","","78","","","","32","","37","","","M","99.92","","","","-42","","NA"
"-79.03","69.08","ROWLEY ISLAND","2403625","2018-12-03 06:00","2018","12","03","06:00","-25.9","","-28.5","","78","","","","32","","44","","","M","99.85","","","","-43","","NA"
"-79.03","69.08","ROWLEY ISLAND","2403625","2018-12-03 07:00","2018","12","03","07:00","-25.9","","-28.5","","78","","","","32","","34","","","M","99.90","","","","-41","","NA"
"-79.03","69.08","ROWLEY ISLAND","2403625","2018-12-03 08:00","2018","12","03","08:00","-26.3","","-28.9","","78","","","","33","","41","","","M","99.85","","","","-43","","NA"
"-79.03","69.08","ROWLEY ISLAND","2403625","2018-12-03 09:00","2018","12","03","09:00","-26.4","","-29.1","","78","","","","32","","39","","","M","99.82","","","","-43","","NA"
"-79.03","69.08","ROWLEY ISLAND","2403625","2018-12-03 10:00","2018","12","03","10:00","-26.2","","-28.8","","78","","","","32","","41","","","M","99.77","","","","-43","","NA"
"-79.03","69.08","ROWLEY ISLAND","2403625","2018-12-03 11:00","2018","12","03","11:00","-26.4","","-29.1","","78","","","","32","","39","","","M","99.74","","","","-43","","NA"
"-79.03","69.08","ROWLEY ISLAND","2403625","2018-12-03 12:00","2018","12","03","12:00","-26.4","","-29.1","","78","","","","31","","35","","","M","99.73","","","","-42","","NA"
"-79.03","69.08","ROWLEY ISLAND","2403625","2018-12-03 13:00","2018","12","03","13:00","-26.6","","-29.3","","78","","","","32","","30","","","M","99.72","","","","-41","","NA"
"-79.03","69.08","ROWLEY ISLAND","2403625","2018-12-03 14:00","2018","12","03","14:00","-26.6","","-29.3","","78","","","","33","","24","","","M","99.71","","","","-40","","NA"
"-79.03","69.08","ROWLEY ISLAND","2403625","2018-12-03 15:00","2018","12","03","15:00","-27.2","","-30.0","","77","","","","32","","30","","","M","99.69","","","","-42","","NA"
"-79.03","69.08","ROWLEY ISLAND","2403625","2018-12-03 16:00","2018","12","03","16:00","-27.6","","-30.4","","77","","","","32","","26","","","M","99.69","","","","-42","","NA"
"-79.03","69.08","ROWLEY ISLAND","2403625","2018-12-03 17:00","2018","12","03","17:00","-27.8","","-30.6","","77","","","","32","","28","","","M","99.67","","","","-42","","NA"
"-79.03","69.08","ROWLEY ISLAND","2403625","2018-12-03 18:00","2018","12","03","18:00","-28.1","","-30.9","","77","","","","32","","24","","","M","99.68","","","","-42","","NA"
"-79.03","69.08","ROWLEY ISLAND","2403625","2018-12-03 19:00","2018","12","03","19:00","-26.4","","-29.1","","78","","","","32","","22","","","M","99.65","","","","-39","","NA"
"-79.03","69.08","ROWLEY ISLAND","2403625","2018-12-03 20:00","2018","12","03","20:00","-25.4","","-28.0","","79","","","","33","","26","","","M","99.60","","","","-39","","NA"
"-79.03","69.08","ROWLEY ISLAND","2403625","2018-12-03 21:00","2018","12","03","21:00","-24.9","","-27.4","","79","","","","32","","24","","","M","99.58","","","","-38","","NA"
"-79.03","69.08","ROWLEY ISLAND","2403625","2018-12-03 22:00","2018","12","03","22:00","-24.4","","-26.9","","79","","","","31","","22","","","M","99.59","","","","-37","","NA"
"-79.03","69.08","ROWLEY ISLAND","2403625","2018-12-03 23:00","2018","12","03","23:00","-23.9","","-26.4","","80","","","","31","","21","","","M","99.54","","","","-36","","NA"
"-79.03","69.08","ROWLEY ISLAND","2403625","2018-12-04 00:00","2018","12","04","00:00","-23.4","","-25.8","","80","","","","31","","22","","","M","99.50","","","","-35","","NA"
"-79.03","69.08","ROWLEY ISLAND","2403625","2018-12-04 01:00","2018","12","04","01:00","-22.7","","-25.1","","81","","","","32","","21","","","M","99.51","","","","-34","","NA"
"-79.03","69.08","ROWLEY ISLAND","2403625","2018-12-04 02:00","2018","12","04","02:00","-22.1","","-24.5","","81","","","","32","","18","","","M","99.51","","","","-33","","NA"
"-79.03","69.08","ROWLEY ISLAND","2403625","2018-12-04 03:00","2018","12","04","03:00","-21.3","","-23.6","","82","","","","32","","17","","","M","99.51","","","","-31","","NA"
"-79.03","69.08","ROWLEY ISLAND","2403625","2018-12-04 04:00","2018","12","04","04:00","-20.9","","-23.2","","82","","","","32","","18","","","M","99.47","","","","-31","","NA"
"-79.03","69.08","ROWLEY ISLAND","2403625","2018-12-04 05:00","2018","12","04","05:00","-20.1","","-22.3","","83","","","","32","","17","","","M","99.45","","","","-30","","NA"
"-79.03","69.08","ROWLEY ISLAND","2403625","2018-12-04 06:00","2018","12","04","06:00","-18.9","","-20.9","","84","","","","36","","17","","","M","99.44","","","","-28","","NA"
"-79.03","69.08","ROWLEY ISLAND","2403625","2018-12-04 07:00","2018","12","04","07:00","-18.2","","-20.1","","85","","","","2","","15","","","M","99.45","","","","-27","","NA"
"-79.03","69.08","ROWLEY ISLAND","2403625","2018-12-04 08:00","2018","12","04","08:00","-18.2","","-20.2","","85","","","","1","","21","","","M","99.45","","","","-28","","NA"
"-79.03","69.08","ROWLEY ISLAND","2403625","2018-12-04 09:00","2018","12","04","09:00","-18.4","","-20.4","","84","","","","36","","22","","","M","99.45","","","","-29","","NA"
"-79.03","69.08","ROWLEY ISLAND","2403625","2018-12-04 10:00","2018","12","04","10:00","-18.6","","-20.6","","84","","","","1","","18","","","M","99.44","","","","-28","","NA"
"-79.03","69.08","ROWLEY ISLAND","2403625","2018-12-04 11:00","2018","12","04","11:00","-18.9","","-20.9","","84","","","","1","","15","","","M","99.44","","","","-28","","NA"
"-79.03","69.08","ROWLEY ISLAND","2403625","2018-12-04 12:00","2018","12","04","12:00","-19.1","","-21.1","","84","","","","36","","21","","","M","99.42","","","","-30","","NA"
"-79.03","69.08","ROWLEY ISLAND","2403625","2018-12-04 13:00","2018","12","04","13:00","-19.4","","-21.5","","83","","","","35","","24","","","M","99.40","","","","-31","","NA"
"-79.03","69.08","ROWLEY ISLAND","2403625","2018-12-04 14:00","2018","12","04","14:00","-20.0","","-22.2","","83","","","","34","","26","","","M","99.38","","","","-32","","NA"
"-79.03","69.08","ROWLEY ISLAND","2403625","2018-12-04 15:00","2018","12","04","15:00","-20.7","","-22.9","","82","","","","34","","24","","","M","99.38","","","","-32","","NA"
"-79.03","69.08","ROWLEY ISLAND","2403625","2018-12-04 16:00","2018","12","04","16:00","-20.6","","-22.8","","82","","","","35","","21","","","M","99.39","","","","-31","","NA"
"-79.03","69.08","ROWLEY ISLAND","2403625","2018-12-04 17:00","2018","12","04","17:00","-20.5","","-22.7","","82","","","","34","","18","","","M","99.40","","","","-31","","NA"
"-79.03","69.08","ROWLEY ISLAND","2403625","2018-12-04 18:00","2018","12","04","18:00","-20.8","","-23.0","","82","","","","33","","17","","","M","99.41","","","","-31","","NA"
"-79.03","69.08","ROWLEY ISLAND","2403625","2018-12-04 19:00","2018","12","04","19:00","-21.2","","-23.5","","82","","","","33","","15","","","M","99.42","","","","-31","","NA"
"-79.03","69.08","ROWLEY ISLAND","2403625","2018-12-04 20:00","2018","12","04","20:00","-21.6","","-23.9","","82","","","","34","","21","","","M","99.41","","","","-33","","NA"
"-79.03","69.08","ROWLEY ISLAND","2403625","2018-12-04 21:00","2018","12","04","21:00","-22.6","","-25.0","","81","","","","34","","17","","","M","99.39","","","","-33","","NA"
"-79.03","69.08","ROWLEY ISLAND","2403625","2018-12-04 22:00","2018","12","04","22:00","-23.9","","-26.3","","80","","","","35","","21","","","M","99.36","","","","-36","","NA"
"-79.03","69.08","ROWLEY ISLAND","2403625","2018-12-04 23:00","2018","12","04","23:00","-25.2","","-27.8","","79","","","","35","","17","","","M","99.33","","","","-36","","NA"
"-79.03","69.08","ROWLEY ISLAND","2403625","2018-12-05 00:00","2018","12","05","00:00","-24.1","","-26.6","","80","","","","34","","21","","","M","99.33","","","","-36","","NA"
"-79.03","69.08","ROWLEY ISLAND","2403625","2018-12-05 01:00","2018","12","05","01:00","-24.0","","-26.5","","80","","","","36","","13","","","M","99.33","","","","-33","","NA"
"-79.03","69.08","ROWLEY ISLAND","2403625","2018-12-05 02:00","2018","12","05","02:00","-24.0","","-26.5","","80","","","","35","","13","","","M","99.32","","","","-33","","NA"
"-79.03","69.08","ROWLEY ISLAND","2403625","2018-12-05 03:00","2018","12","05","03:00","-24.0","","-26.5","","80","","","","35","","18","","","M","99.30","","","","-35","","NA"
"-79.03","69.08","ROWLEY ISLAND","2403625","2018-12-05 04:00","2018","12","05","04:00","-24.3","","-26.8","","80","","","","33","","15","","","M","99.30","","","","-34","","NA"
"-79.03","69.08","ROWLEY ISLAND","2403625","2018-12-05 05:00","2018","12","05","05:00","-24.3","","-26.8","","79","","","","33","","17","","","M","99.30","","","","-35","","NA"
"-79.03","69.08","ROWLEY ISLAND","2403625","2018-12-05 06:00","2018","12","05","06:00","-24.1","","-26.6","","80","","","","33","","15","","","M","99.27","","","","-34","","NA"
"-79.03","69.08","ROWLEY ISLAND","2403625","2018-12-05 07:00","2018","12","05","07:00","-25.3","","-27.9","","79","","","","33","","17","","","M","99.24","","","","-36","","NA"
"-79.03","69.08","ROWLEY ISLAND","2403625","2018-12-05 08:00","2018","12","05","08:00","-26.5","","-29.1","","78","","","","33","","21","","","M","99.22","","","","-39","","NA"
"-79.03","69.08","ROWLEY ISLAND","2403625","2018-12-05 09:00","2018","12","05","09:00","-25.1","","-27.7","","79","","","","35","","17","","","M","99.21","","","","-36","","NA"
"-79.03","69.08","ROWLEY ISLAND","2403625","2018-12-05 10:00","2018","12","05","10:00","-25.3","","-27.9","","79","","","","33","","11","","","M","99.20","","","","-34","","NA"
"-79.03","69.08","ROWLEY ISLAND","2403625","2018-12-05 11:00","2018","12","05","11:00","-25.6","","-28.3","","78","","","","36","","11","","","M","99.18","","","","-34","","NA"
"-79.03","69.08","ROWLEY ISLAND","2403625","2018-12-05 12:00","2018","12","05","12:00","-25.9","","-28.5","","78","","","","2","","11","","","M","99.16","","","","-35","","NA"
"-79.03","69.08","ROWLEY ISLAND","2403625","2018-12-05 13:00","2018","12","05","13:00","-27.3","","-30.0","","77","","","","3","","11","","","M","99.15","","","","-36","","NA"
"-79.03","69.08","ROWLEY ISLAND","2403625","2018-12-05 14:00","2018","12","05","14:00","-26.4","","-29.1","","78","","","","2","","8","","","M","99.15","","","","-34","","NA"
"-79.03","69.08","ROWLEY ISLAND","2403625","2018-12-05 15:00","2018","12","05","15:00","-25.7","","-28.3","","78","","","","29","","11","","","M","99.14","","","","-34","","NA"
"-79.03","69.08","ROWLEY ISLAND","2403625","2018-12-05 16:00","2018","12","05","16:00","-26.9","","-29.6","","78","","","","33","","17","","","M","99.14","","","","-38","","NA"
"-79.03","69.08","ROWLEY ISLAND","2403625","2018-12-05 17:00","2018","12","05","17:00","-27.3","","-30.1","","77","","","","32","","15","","","M","99.17","","","","-38","","NA"
"-79.03","69.08","ROWLEY ISLAND","2403625","2018-12-05 18:00","2018","12","05","18:00","-26.4","","-29.1","","78","","","","33","","17","","","M","99.14","","","","-38","","NA"
"-79.03","69.08","ROWLEY ISLAND","2403625","2018-12-05 19:00","2018","12","05","19:00","-27.3","","-30.0","","77","","","","31","","15","","","M","99.12","","","","-38","","NA"
"-79.03","69.08","ROWLEY ISLAND","2403625","2018-12-05 20:00","2018","12","05","20:00","-27.0","","-29.7","","77","","","","36","","11","","","M","99.11","","","","-36","","NA"
"-79.03","69.08","ROWLEY ISLAND","2403625","2018-12-05 21:00","2018","12","05","21:00","-27.1","","-29.8","","77","","","","33","","13","","","M","99.09","","","","-37","","NA"
"-79.03","69.08","ROWLEY ISLAND","2403625","2018-12-05 22:00","2018","12","05","22:00","-26.9","","-29.6","","77","","","","34","","15","","","M","99.08","","","","-38","","NA"
"-79.03","69.08","ROWLEY ISLAND","2403625","2018-12-05 23:00","2018","12","05","23:00","-26.8","","-29.5","","78","","","","1","","13","","","M","99.05","","","","-37","","NA"
"-79.03","69.08","ROWLEY ISLAND","2403625","2018-12-06 00:00","2018","12","06","00:00","-26.8","","-29.5","","78","","","","2","","11","","","M","99.02","","","","-36","","NA"
"-79.03","69.08","ROWLEY ISLAND","2403625","2018-12-06 01:00","2018","12","06","01:00","-26.7","","-29.4","","78","","","","1","","11","","","M","99.02","","","","-36","","NA"
"-79.03","69.08","ROWLEY ISLAND","2403625","2018-12-06 02:00","2018","12","06","02:00","-26.3","","-28.9","","78","","","","2","","8","","","M","99.05","","","","-34","","NA"
"-79.03","69.08","ROWLEY ISLAND","2403625","2018-12-06 03:00","2018","12","06","03:00","-26.9","","-29.6","","77","","","","4","","9","","","M","99.05","","","","-35","","NA"
"-79.03","69.08","ROWLEY ISLAND","2403625","2018-12-06 04:00","2018","12","06","04:00","-26.5","","-29.2","","78","","","","1","","9","","","M","99.06","","","","-34","","NA"
"-79.03","69.08","ROWLEY ISLAND","2403625","2018-12-06 05:00","2018","12","06","05:00","-25.9","","-28.6","","78","","","","4","","11","","","M","99.06","","","","-35","","NA"
"-79.03","69.08","ROWLEY ISLAND","2403625","2018-12-06 06:00","2018","12","06","06:00","-25.1","","-27.7","","79","","","","36","","9","","","M","99.06","","","","-33","","NA"
"-79.03","69.08","ROWLEY ISLAND","2403625","2018-12-06 07:00","2018","12","06","07:00","-24.6","","-27.2","","79","","","","32","","11","","","M","99.05","","","","-33","","NA"
"-79.03","69.08","ROWLEY ISLAND","2403625","2018-12-06 08:00","2018","12","06","08:00","-24.4","","-27.0","","79","","","","33","","15","","","M","99.06","","","","-35","","NA"
"-79.03","69.08","ROWLEY ISLAND","2403625","2018-12-06 09:00","2018","12","06","09:00","-23.6","","-26.1","","80","","","","35","","13","","","M","99.07","","","","-33","","NA"
"-79.03","69.08","ROWLEY ISLAND","2403625","2018-12-06 10:00","2018","12","06","10:00","-23.5","","-26.0","","80","","","","34","","11","","","M","99.10","","","","-32","","NA"
"-79.03","69.08","ROWLEY ISLAND","2403625","2018-12-06 11:00","2018","12","06","11:00","-24.0","","-26.5","","80","","","","35","","11","","","M","99.10","","","","-32","","NA"
"-79.03","69.08","ROWLEY ISLAND","2403625","2018-12-06 12:00","2018","12","06","12:00","-24.0","","-26.5","","80","","","","3","","11","","","M","99.10","","","","-32","","NA"
"-79.03","69.08","ROWLEY ISLAND","2403625","2018-12-06 13:00","2018","12","06","13:00","-23.9","","-26.3","","80","","","","27","","5","","","M","99.13","","","","-29","","NA"
"-79.03","69.08","ROWLEY ISLAND","2403625","2018-12-06 14:00","2018","12","06","14:00","-23.8","","-26.3","","80","","","","27","","13","","","M","99.16","","","","-33","","NA"
"-79.03","69.08","ROWLEY ISLAND","2403625","2018-12-06 15:00","2018","12","06","15:00","-23.1","","-25.5","","80","","","","25","","11","","","M","99.20","","","","-31","","NA"
"-79.03","69.08","ROWLEY ISLAND","2403625","2018-12-06 16:00","2018","12","06","16:00","-24.7","","-27.3","","79","","","","23","","15","","","M","99.27","","","","-35","","NA"
"-79.03","69.08","ROWLEY ISLAND","2403625","2018-12-06 17:00","2018","12","06","17:00","-25.7","","-28.3","","78","","","","20","","13","","","M","99.34","","","","-35","","NA"
"-79.03","69.08","ROWLEY ISLAND","2403625","2018-12-06 18:00","2018","12","06","18:00"
"-79.03","69.08","ROWLEY ISLAND","2403625","2018-12-06 19:00","2018","12","06","19:00","-24.6","","-27.1","","79","","","","24","","9","","","M","99.40","","","","-32","","NA"
"-79.03","69.08","ROWLEY ISLAND","2403625","2018-12-06 20:00","2018","12","06","20:00","-25.8","","-28.5","","78","","","","20","","8","","","M","99.43","","","","-33","","NA"
"-79.03","69.08","ROWLEY ISLAND","2403625","2018-12-06 21:00","2018","12","06","21:00","-26.3","","-28.9","","78","","","","16","","11","","","M","99.45","","","","-35","","NA"
"-79.03","69.08","ROWLEY ISLAND","2403625","2018-12-06 22:00","2018","12","06","22:00","-26.4","","-29.1","","78","","","","19","","13","","","M","99.46","","","","-36","","NA"
"-79.03","69.08","ROWLEY ISLAND","2403625","2018-12-06 23:00","2018","12","06","23:00","-27.7","","-30.5","","77","","","","19","","15","","","M","99.49","","","","-39","","NA"
"-79.03","69.08","ROWLEY ISLAND","2403625","2018-12-07 00:00","2018","12","07","00:00","-28.1","","-31.0","","77","","","","19","","17","","","M","99.53","","","","-40","","NA"
"-79.03","69.08","ROWLEY ISLAND","2403625","2018-12-07 01:00","2018","12","07","01:00","-28.1","","-30.9","","77","","","","19","","18","","","M","99.58","","","","-40","","NA"
"-79.03","69.08","ROWLEY ISLAND","2403625","2018-12-07 02:00","2018","12","07","02:00","-27.8","","-30.5","","77","","","","17","","22","","","M","99.65","","","","-41","","NA"
"-79.03","69.08","ROWLEY ISLAND","2403625","2018-12-07 03:00","2018","12","07","03:00","-28.6","","-31.4","","76","","","","20","","21","","","M","99.71","","","","-42","","NA"
"-79.03","69.08","ROWLEY ISLAND","2403625","2018-12-07 04:00","2018","12","07","04:00","-27.8","","-30.6","","77","","","","21","","15","","","M","99.77","","","","-39","","NA"
"-79.03","69.08","ROWLEY ISLAND","2403625","2018-12-07 05:00","2018","12","07","05:00","-26.9","","-29.6","","77","","","","22","","11","","","M","99.82","","","","-36","","NA"
"-79.03","69.08","ROWLEY ISLAND","2403625","2018-12-07 06:00","2018","12","07","06:00","-26.4","","-29.1","","78","","","","19","","8","","","M","99.89","","","","-34","","NA"
"-79.03","69.08","ROWLEY ISLAND","2403625","2018-12-07 07:00","2018","12","07","07:00","-25.9","","-28.6","","78","","","","15","","5","","","M","99.94","","","","-31","","NA"
"-79.03","69.08","ROWLEY ISLAND","2403625","2018-12-07 08:00","2018","12","07","08:00","-25.4","","-28.0","","79","","","","14","","5","","","M","99.99","","","","-30","","NA"
"-79.03","69.08","ROWLEY ISLAND","2403625","2018-12-07 09:00","2018","12","07","09:00","-25.2","","-27.8","","79","","","","15","","4","","","M","100.04","","","","-29","","NA"
"-79.03","69.08","ROWLEY ISLAND","2403625","2018-12-07 10:00","2018","12","07","10:00","-24.8","","-27.3","","79","","","","16","","8","","","M","100.10","","","","-32","","NA"
"-79.03","69.08","ROWLEY ISLAND","2403625","2018-12-07 11:00","2018","12","07","11:00","-24.6","","-27.2","","79","","","","5","","5","","","M","100.15","","","","-29","","NA"
"-79.03","69.08","ROWLEY ISLAND","2403625","2018-12-07 12:00","2018","12","07","12:00","-24.4","","-26.9","","79","","","","7","","5","","","M","100.17","","","","-29","","NA"
"-79.03","69.08","ROWLEY ISLAND","2403625","2018-12-07 13:00","2018","12","07","13:00","-24.3","","-26.8","","79","","","","9","","5","","","M","100.21","","","","-29","","NA"
"-79.03","69.08","ROWLEY ISLAND","2403625","2018-12-07 14:00","2018","12","07","14:00","-24.2","","-26.7","","79","","","","9","","4","","","M","100.25","","","","-28","","NA"
"-79.03","69.08","ROWLEY ISLAND","2403625","2018-12-07 15:00","2018","12","07","15:00","-24.2","","-26.7","","79","","","","21","","8","","","M","100.30","","","","-31","","NA"
"-79.03","69.08","ROWLEY ISLAND","2403625","2018-12-07 16:00","2018","12","07","16:00","-24.3","","-26.8","","79","","","","15","","5","","","M","100.36","","","","-29","","NA"
"-79.03","69.08","ROWLEY ISLAND","2403625","2018-12-07 17:00","2018","12","07","17:00","-23.6","","-26.1","","80","","","","13","","5","","","M","100.41","","","","-28","","NA"
"-79.03","69.08","ROWLEY ISLAND","2403625","2018-12-07 18:00","2018","12","07","18:00","-23.6","","-26.0","","80","","","","11","","11","","","M","100.43","","","","-32","","NA"
"-79.03","69.08","ROWLEY ISLAND","2403625","2018-12-07 19:00","2018","12","07","19:00","-23.9","","-26.4","","80","","","","12","","15","","","M","100.46","","","","-34","","NA"
"-79.03","69.08","ROWLEY ISLAND","2403625","2018-12-07 20:00","2018","12","07","20:00","-23.8","","-26.3","","80","","","","12","","17","","","M","100.50","","","","-34","","NA"
"-79.03","69.08","ROWLEY ISLAND","2403625","2018-12-07 21:00","2018","12","07","21:00","-25.2","","-27.8","","79","","","","11","","17","","","M","100.52","","","","-36","","NA"
"-79.03","69.08","ROWLEY ISLAND","2403625","2018-12-07 22:00","2018","12","07","22:00","-24.1","","-26.6","","80","","","","12","","17","","","M","100.54","","","","-35","","NA"
"-79.03","69.08","ROWLEY ISLAND","2403625","2018-12-07 23:00","2018","12","07","23:00","-24.0","","-26.5","","80","","","","12","","17","","","M","100.57","","","","-35","","NA"
"-79.03","69.08","ROWLEY ISLAND","2403625","2018-12-08 00:00","2018","12","08","00:00","-24.2","","-26.8","","79","","","","12","","11","","","M","100.58","","","","-33","","NA"
"-79.03","69.08","ROWLEY ISLAND","2403625","2018-12-08 01:00","2018","12","08","01:00","-24.3","","-26.8","","79","","","","12","","13","","","M","100.64","","","","-34","","NA"
"-79.03","69.08","ROWLEY ISLAND","2403625","2018-12-08 02:00","2018","12","08","02:00","-24.4","","-26.9","","79","","","","13","","9","","","M","100.70","","","","-32","","NA"
"-79.03","69.08","ROWLEY ISLAND","2403625","2018-12-08 03:00","2018","12","08","03:00","-24.3","","-26.8","","79","","","","7","","5","","","M","100.71","","","","-29","","NA"
"-79.03","69.08","ROWLEY ISLAND","2403625","2018-12-08 04:00","2018","12","08","04:00","-23.9","","-26.4","","80","","","","7","","9","","","M","100.75","","","","-31","","NA"
"-79.03","69.08","ROWLEY ISLAND","2403625","2018-12-08 05:00","2018","12","08","05:00","-23.3","","-25.8","","80","","","","7","","5","","","M","100.77","","","","-28","","NA"
"-79.03","69.08","ROWLEY ISLAND","2403625","2018-12-08 06:00","2018","12","08","06:00","-22.7","","-25.1","","81","","","","8","","11","","","M","100.79","","","","-31","","NA"
"-79.03","69.08","ROWLEY ISLAND","2403625","2018-12-08 07:00","2018","12","08","07:00","-21.4","","-23.7","","82","","","","17","","22","","","M","100.81","","","","-33","","NA"
"-79.03","69.08","ROWLEY ISLAND","2403625","2018-12-08 08:00","2018","12","08","08:00","-21.6","","-23.9","","81","","","","16","","24","","","M","100.84","","","","-33","","NA"
"-79.03","69.08","ROWLEY ISLAND","2403625","2018-12-08 09:00","2018","12","08","09:00","-21.7","","-24.0","","81","","","","14","","22","","","M","100.87","","","","-33","","NA"
"-79.03","69.08","ROWLEY ISLAND","2403625","2018-12-08 10:00","2018","12","08","10:00","-22.5","","-24.8","","81","","","","14","","21","","","M","100.93","","","","-34","","NA"
"-79.03","69.08","ROWLEY ISLAND","2403625","2018-12-08 11:00","2018","12","08","11:00","-22.1","","-24.4","","81","","","","18","","21","","","M","100.95","","","","-33","","NA"
"-79.03","69.08","ROWLEY ISLAND","2403625","2018-12-08 12:00","2018","12","08","12:00","-21.9","","-24.2","","81","","","","16","","34","","","M","100.98","","","","-36","","NA"
"-79.03","69.08","ROWLEY ISLAND","2403625","2018-12-08 13:00","2018","12","08","13:00","-21.8","","-24.1","","81","","","","16","","34","","","M","101.03","","","","-36","","NA"
"-79.03","69.08","ROWLEY ISLAND","2403625","2018-12-08 14:00","2018","12","08","14:00","-22.0","","-24.4","","81","","","","16","","30","","","M","101.08","","","","-35","","NA"
"-79.03","69.08","ROWLEY ISLAND","2403625","2018-12-08 15:00","2018","12","08","15:00","-21.9","","-24.2","","81","","","","15","","28","","","M","101.13","","","","-35","","NA"
"-79.03","69.08","ROWLEY ISLAND","2403625","2018-12-08 16:00","2018","12","08","16:00","-22.0","","-24.3","","81","","","","15","","30","","","M","101.19","","","","-35","","NA"
"-79.03","69.08","ROWLEY ISLAND","2403625","2018-12-08 17:00","2018","12","08","17:00","-21.9","","-24.2","","81","","","","15","","30","","","M","101.23","","","","-35","","NA"
"-79.03","69.08","ROWLEY ISLAND","2403625","2018-12-08 18:00","2018","12","08","18:00","-22.1","","-24.5","","81","","","","16","","30","","","M","101.29","","","","-35","","NA"
"-79.03","69.08","ROWLEY ISLAND","2403625","2018-12-08 19:00","2018","12","08","19:00","-22.6","","-25.0","","81","","","","16","","26","","","M","101.33","","","","-35","","NA"
"-79.03","69.08","ROWLEY ISLAND","2403625","2018-12-08 20:00","2018","12","08","20:00","-22.9","","-25.3","","81","","","","16","","26","","","M","101.35","","","","-36","","NA"
"-79.03","69.08","ROWLEY ISLAND","2403625","2018-12-08 21:00","2018","12","08","21:00","-22.2","","-24.5","","81","","","","15","","26","","","M","101.39","","","","-35","","NA"
"-79.03","69.08","ROWLEY ISLAND","2403625","2018-12-08 22:00","2018","12","08","22:00","-22.3","","-24.7","","81","","","","15","","26","","","M","101.43","","","","-35","","NA"
"-79.03","69.08","ROWLEY ISLAND","2403625","2018-12-08 23:00","2018","12","08","23:00","-23.3","","-25.8","","80","","","","16","","28","","","M","101.46","","","","-36","","NA"
"-79.03","69.08","ROWLEY ISLAND","2403625","2018-12-09 00:00","2018","12","09","00:00","-23.8","","-26.2","","80","","","","17","","26","","","M","101.50","","","","-37","","NA"
"-79.03","69.08","ROWLEY ISLAND","2403625","2018-12-09 01:00","2018","12","09","01:00","-24.2","","-26.7","","79","","","","15","","24","","","M","101.54","","","","-37","","NA"
"-79.03","69.08","ROWLEY ISLAND","2403625","2018-12-09 02:00","2018","12","09","02:00","-24.6","","-27.1","","79","","","","16","","28","","","M","101.56","","","","-38","","NA"
"-79.03","69.08","ROWLEY ISLAND","2403625","2018-12-09 03:00","2018","12","09","03:00","-24.5","","-27.0","","79","","","","16","","24","","","M","101.59","","","","-37","","NA"
"-79.03","69.08","ROWLEY ISLAND","2403625","2018-12-09 04:00","2018","12","09","04:00","-24.0","","-26.5","","80","","","","15","","24","","","M","101.64","","","","-37","","NA"
"-79.03","69.08","ROWLEY ISLAND","2403625","2018-12-09 05:00","2018","12","09","05:00","-23.6","","-26.1","","80","","","","13","","11","","","M","101.67","","","","-32","","NA"
"-79.03","69.08","ROWLEY ISLAND","2403625","2018-12-09 06:00","2018","12","09","06:00","-21.9","","-24.3","","81","","","","12","","15","","","M","101.69","","","","-31","","NA"
"-79.03","69.08","ROWLEY ISLAND","2403625","2018-12-09 07:00","2018","12","09","07:00","-21.9","","-24.3","","81","","","","11","","11","","","M","101.72","","","","-30","","NA"
"-79.03","69.08","ROWLEY ISLAND","2403625","2018-12-09 08:00","2018","12","09","08:00","-21.0","","-23.2","","82","","","","12","","17","","","M","101.72","","","","-31","","NA"
"-79.03","69.08","ROWLEY ISLAND","2403625","2018-12-09 09:00","2018","12","09","09:00","-21.9","","-24.2","","81","","","","10","","15","","","M","101.75","","","","-31","","NA"
"-79.03","69.08","ROWLEY ISLAND","2403625","2018-12-09 10:00","2018","12","09","10:00","-22.5","","-24.9","","81","","","","9","","15","","","M","101.82","","","","-32","","NA"
"-79.03","69.08","ROWLEY ISLAND","2403625","2018-12-09 11:00","2018","12","09","11:00","-22.7","","-25.1","","81","","","","11","","15","","","M","101.84","","","","-32","","NA"
"-79.03","69.08","ROWLEY ISLAND","2403625","2018-12-09 12:00","2018","12","09","12:00","-23.5","","-25.9","","80","","","","10","","21","","","M","101.82","","","","-35","","NA"
"-79.03","69.08","ROWLEY ISLAND","2403625","2018-12-09 13:00","2018","12","09","13:00","-24.7","","-27.2","","79","","","","10","","24","","","M","101.82","","","","-37","","NA"
"-79.03","69.08","ROWLEY ISLAND","2403625","2018-12-09 14:00","2018","12","09","14:00","-23.4","","-25.8","","80","","","","10","","17","","","M","101.92","","","","-34","","NA"
"-79.03","69.08","ROWLEY ISLAND","2403625","2018-12-09 15:00","2018","12","09","15:00","-22.9","","-25.4","","80","","","","9","","15","","","M","101.96","","","","-33","","NA"
"-79.03","69.08","ROWLEY ISLAND","2403625","2018-12-09 16:00","2018","12","09","16:00","-22.8","","-25.2","","80","","","","7","","11","","","M","101.99","","","","-31","","NA"
"-79.03","69.08","ROWLEY ISLAND","2403625","2018-12-09 17:00","2018","12","09","17:00","-21.5","","-23.8","","82","","","","9","","17","","","M","101.95","","","","-32","","NA"
"-79.03","69.08","ROWLEY ISLAND","2403625","2018-12-09 18:00","2018","12","09","18:00","-20.0","","-22.2","","83","","","","10","","18","","","M","101.96","","","","-30","","NA"
"-79.03","69.08","ROWLEY ISLAND","2403625","2018-12-09 19:00","2018","12","09","19:00","-20.2","","-22.4","","83","","","","10","","15","","","M","101.96","","","","-29","","NA"
"-79.03","69.08","ROWLEY ISLAND","2403625","2018-12-09 20:00","2018","12","09","20:00","-19.5","","-21.6","","83","","","","13","","17","","","M","101.94","","","","-29","","NA"
"-79.03","69.08","ROWLEY ISLAND","2403625","2018-12-09 21:00","2018","12","09","21:00","-18.9","","-20.9","","84","","","","14","","13","","","M","101.93","","","","-27","","NA"
"-79.03","69.08","ROWLEY ISLAND","2403625","2018-12-09 22:00","2018","12","09","22:00","-17.9","","-19.8","","85","","","","18","","13","","","M","101.97","","","","-26","","NA"
"-79.03","69.08","ROWLEY ISLAND","2403625","2018-12-09 23:00","2018","12","09","23:00","-18.1","","-20.1","","85","","","","19","","9","","","M","101.99","","","","-24","","NA"
"-79.03","69.08","ROWLEY ISLAND","2403625","2018-12-10 00:00","2018","12","10","00:00","-20.9","","-23.1","","82","","","","19","","18","","","M","102.00","","","","-31","","NA"
"-79.03","69.08","ROWLEY ISLAND","2403625","2018-12-10 01:00","2018","12","10","01:00","-23.0","","-25.4","","81","","","","17","","21","","","M","101.98","","","","-35","","NA"
"-79.03","69.08","ROWLEY ISLAND","2403625","2018-12-10 02:00","2018","12","10","02:00","-20.1","","-22.2","","83","","","","17","","22","","","M","101.98","","","","-31","","NA"
"-79.03","69.08","ROWLEY ISLAND","2403625","2018-12-10 03:00","2018","12","10","03:00","-19.7","","-21.8","","83","","","","19","","17","","","M","102.01","","","","-29","","NA"
"-79.03","69.08","ROWLEY ISLAND","2403625","2018-12-10 04:00","2018","12","10","04:00","-20.0","","-22.1","","83","","","","18","","18","","","M","102.00","","","","-30","","NA"
"-79.03","69.08","ROWLEY ISLAND","2403625","2018-12-10 05:00","2018","12","10","05:00","-20.5","","-22.7","","82","","","","17","","17","","","M","101.99","","","","-30","","NA"
"-79.03","69.08","ROWLEY ISLAND","2403625","2018-12-10 06:00","2018","12","10","06:00","-20.1","","-22.3","","83","","","","14","","11","","","M","101.96","","","","-28","","NA"
"-79.03","69.08","ROWLEY ISLAND","2403625","2018-12-10 07:00","2018","12","10","07:00","-19.3","","-21.4","","84","","","","12","","17","","","M","101.89","","","","-29","","NA"
"-79.03","69.08","ROWLEY ISLAND","2403625","2018-12-10 08:00","2018","12","10","08:00","-18.7","","-20.7","","84","","","","12","","13","","","M","101.86","","","","-27","","NA"
"-79.03","69.08","ROWLEY ISLAND","2403625","2018-12-10 09:00","2018","12","10","09:00","-18.3","","-20.3","","84","","","","13","","18","","","M","101.82","","","","-28","","NA"
"-79.03","69.08","ROWLEY ISLAND","2403625","2018-12-10 10:00","2018","12","10","10:00","-19.2","","-21.3","","84","","","","13","","24","","","M","101.76","","","","-30","","NA"
"-79.03","69.08","ROWLEY ISLAND","2403625","2018-12-10 11:00","2018","12","10","11:00","-20.8","","-23.0","","82","","","","15","","26","","","M","101.72","","","","-33","","NA"
"-79.03","69.08","ROWLEY ISLAND","2403625","2018-12-10 12:00","2018","12","10","12:00","-19.2","","-21.3","","84","","","","15","","28","","","M","101.69","","","","-31","","NA"
"-79.03","69.08","ROWLEY ISLAND","2403625","2018-12-10 13:00","2018","12","10","13:00","-21.6","","-23.9","","82","","","","15","","35","","","M","101.62","","","","-36","","NA"
"-79.03","69.08","ROWLEY ISLAND","2403625","2018-12-10 14:00","2018","12","10","14:00","-21.4","","-23.6","","82","","","","15","","37","","","M","101.54","","","","-36","","NA"
"-79.03","69.08","ROWLEY ISLAND","2403625","2018-12-10 15:00","2018","12","10","15:00","-20.4","","-22.6","","83","","","","15","","35","","","M","101.44","","","","-34","","NA"
"-79.03","69.08","ROWLEY ISLAND","2403625","2018-12-10 16:00","2018","12","10","16:00","-17.3","","-19.1","","85","","","","17","","37","","","M","101.42","","","","-30","","NA"
"-79.03","69.08","ROWLEY ISLAND","2403625","2018-12-10 17:00","2018","12","10","17:00","-17.0","","-18.9","","86","","","","16","","41","","","M","101.31","","","","-30","","NA"
"-79.03","69.08","ROWLEY ISLAND","2403625","2018-12-10 18:00","2018","12","10","18:00","-16.8","","-18.5","","86","","","","18","","28","","","M","101.24","","","","-28","","NA"
"-79.03","69.08","ROWLEY ISLAND","2403625","2018-12-10 19:00","2018","12","10","19:00","-20.4","","-22.5","","83","","","","18","","28","","","M","101.20","","","","-33","","NA"
"-79.03","69.08","ROWLEY ISLAND","2403625","2018-12-10 20:00","2018","12","10","20:00","-21.4","","-23.6","","82","","","","16","","39","","","M","101.07","","","","-36","","NA"
"-79.03","69.08","ROWLEY ISLAND","2403625","2018-12-10 21:00","2018","12","10","21:00","-20.6","","-22.8","","82","","","","16","","41","","","M","100.97","","","","-35","","NA"
"-79.03","69.08","ROWLEY ISLAND","2403625","2018-12-10 22:00","2018","12","10","22:00","-21.4","","-23.7","","82","","","","16","","43","","","M","100.85","","","","-36","","NA"
"-79.03","69.08","ROWLEY ISLAND","2403625","2018-12-10 23:00","2018","12","10","23:00","-19.6","","-21.7","","83","","","","16","","46","","","M","100.74","","","","-34","","NA"
"-79.03","69.08","ROWLEY ISLAND","2403625","2018-12-11 00:00","2018","12","11","00:00","-19.1","","-21.2","","84","","","","16","","48","","","M","100.64","","","","-34","","NA"
"-79.03","69.08","ROWLEY ISLAND","2403625","2018-12-11 01:00","2018","12","11","01:00","-17.8","","-19.7","","85","","","","16","","52","","","M","100.53","","","","-33","","NA"
"-79.03","69.08","ROWLEY ISLAND","2403625","2018-12-11 02:00","2018","12","11","02:00","-17.4","","-19.2","","85","","","","16","","55","","","M","100.35","","","","-32","","NA"
"-79.03","69.08","ROWLEY ISLAND","2403625","2018-12-11 03:00","2018","12","11","03:00","-16.7","","-18.4","","86","","","","16","","61","","","M","100.18","","","","-32","","NA"
"-79.03","69.08","ROWLEY ISLAND","2403625","2018-12-11 04:00","2018","12","11","04:00","-15.9","","-17.6","","87","","","","16","","63","","","M","100.08","","","","-31","","NA"
"-79.03","69.08","ROWLEY ISLAND","2403625","2018-12-11 05:00","2018","12","11","05:00","-15.6","","-17.2","","87","","","","16","","68","","","M","99.89","","","","-31","","NA"
"-79.03","69.08","ROWLEY ISLAND","2403625","2018-12-11 06:00","2018","12","11","06:00","-15.0","","-16.5","","88","","","","16","","65","","","M","99.75","","","","-30","","NA"
"-79.03","69.08","ROWLEY ISLAND","2403625","2018-12-11 07:00","2018","12","11","07:00","-14.4","","-15.9","","88","","","","16","","65","","","M","99.58","","","","-29","","NA"
"-79.03","69.08","ROWLEY ISLAND","2403625","2018-12-11 08:00","2018","12","11","08:00","-13.4","","-14.8","","89","","","","17","","65","","","M","99.42","","","","-28","","NA"
"-79.03","69.08","ROWLEY ISLAND","2403625","2018-12-11 09:00","2018","12","11","09:00","-12.8","","-14.1","","90","","","","16","","55","","","M","99.40","","","","-26","","NA"
"-79.03","69.08","ROWLEY ISLAND","2403625","2018-12-11 10:00","2018","12","11","10:00","-12.2","","-13.4","","91","","","","17","","59","","","M","99.28","","","","-26","","NA"
"-79.03","69.08","ROWLEY ISLAND","2403625","2018-12-11 11:00","2018","12","11","11:00","-11.7","","-12.9","","91","","","","17","","46","","","M","99.18","","","","-24","","NA"
"-79.03","69.08","ROWLEY ISLAND","2403625","2018-12-11 12:00","2018","12","11","12:00","-11.8","","-12.9","","91","","","","16","","54","","","M","99.01","","","","-25","","NA"
"-79.03","69.08","ROWLEY ISLAND","2403625","2018-12-11 13:00","2018","12","11","13:00","-11.6","","-12.7","","91","","","","17","","52","","","M","98.93","","","","-24","","NA"
"-79.03","69.08","ROWLEY ISLAND","2403625","2018-12-11 14:00","2018","12","11","14:00","-11.2","","-12.2","","92","","","","18","","44","","","M","98.92","","","","-23","","NA"
"-79.03","69.08","ROWLEY ISLAND","2403625","2018-12-11 15:00","2018","12","11","15:00","-11.3","","-12.4","","91","","","","20","","41","","","M","98.87","","","","-23","","NA"
"-79.03","69.08","ROWLEY ISLAND","2403625","2018-12-11 16:00","2018","12","11","16:00","-11.9","","-13.0","","91","","","","19","","41","","","M","98.81","","","","-23","","NA"
"-79.03","69.08","ROWLEY ISLAND","2403625","2018-12-11 17:00","2018","12","11","17:00","-12.0","","-13.2","","91","","","","19","","35","","","M","98.76","","","","-23","","NA"
"-79.03","69.08","ROWLEY ISLAND","2403625","2018-12-11 18:00","2018","12","11","18:00","-12.0","","-13.2","","91","","","","19","","30","","","M","98.68","","","","-22","","NA"
"-79.03","69.08","ROWLEY ISLAND","2403625","2018-12-11 19:00","2018","12","11","19:00","-11.9","","-13.1","","91","","","","19","","28","","","M","98.62","","","","-22","","NA"
"-79.03","69.08","ROWLEY ISLAND","2403625","2018-12-11 20:00","2018","12","11","20:00","-11.8","","-12.9","","91","","","","19","","31","","","M","98.52","","","","-22","","NA"
"-79.03","69.08","ROWLEY ISLAND","2403625","2018-12-11 21:00","2018","12","11","21:00","-11.6","","-12.7","","91","","","","18","","26","","","M","98.47","","","","-21","","NA"
"-79.03","69.08","ROWLEY ISLAND","2403625","2018-12-11 22:00","2018","12","11","22:00","-11.4","","-12.5","","91","","","","18","","24","","","M","98.45","","","","-20","","NA"
"-79.03","69.08","ROWLEY ISLAND","2403625","2018-12-11 23:00","2018","12","11","23:00","-11.2","","-12.2","","92","","","","19","","22","","","M","98.42","","","","-20","","NA"
"-79.03","69.08","ROWLEY ISLAND","2403625","2018-12-12 00:00","2018","12","12","00:00","-11.0","","-12.1","","92","","","","19","","17","","","M","98.39","","","","-18","","NA"
"-79.03","69.08","ROWLEY ISLAND","2403625","2018-12-12 01:00","2018","12","12","01:00","-10.8","","-11.8","","92","","","","21","","18","","","M","98.38","","","","-18","","NA"
"-79.03","69.08","ROWLEY ISLAND","2403625","2018-12-12 02:00","2018","12","12","02:00","-11.5","","-12.6","","91","","","","22","","17","","","M","98.39","","","","-19","","NA"
"-79.03","69.08","ROWLEY ISLAND","2403625","2018-12-12 03:00","2018","12","12","03:00","-11.6","","-12.7","","91","","","","23","","18","","","M","98.41","","","","-19","","NA"
"-79.03","69.08","ROWLEY ISLAND","2403625","2018-12-12 04:00","2018","12","12","04:00","-10.2","","-11.2","","93","","","","24","","22","","","M","98.44","","","","-18","","NA"
"-79.03","69.08","ROWLEY ISLAND","2403625","2018-12-12 05:00","2018","12","12","05:00","-10.4","","-11.4","","92","","","","25","","30","","","M","98.49","","","","-20","","NA"
"-79.03","69.08","ROWLEY ISLAND","2403625","2018-12-12 06:00","2018","12","12","06:00","-10.5","","-11.5","","92","","","","27","","30","","","M","98.54","","","","-20","","NA"
"-79.03","69.08","ROWLEY ISLAND","2403625","2018-12-12 07:00","2018","12","12","07:00","-10.8","","-11.8","","92","","","","28","","35","","","M","98.57","","","","-21","","NA"
"-79.03","69.08","ROWLEY ISLAND","2403625","2018-12-12 08:00","2018","12","12","08:00","-11.0","","-12.0","","92","","","","27","","31","","","M","98.61","","","","-21","","NA"
"-79.03","69.08","ROWLEY ISLAND","2403625","2018-12-12 09:00","2018","12","12","09:00","-11.6","","-12.7","","91","","","","27","","37","","","M","98.68","","","","-23","","NA"
"-79.03","69.08","ROWLEY ISLAND","2403625","2018-12-12 10:00","2018","12","12","10:00","-12.1","","-13.2","","91","","","","28","","39","","","M","98.75","","","","-23","","NA"
"-79.03","69.08","ROWLEY ISLAND","2403625","2018-12-12 11:00","2018","12","12","11:00","-11.6","","-12.8","","91","","","","29","","34","","","M","98.84","","","","-22","","NA"
"-79.03","69.08","ROWLEY ISLAND","2403625","2018-12-12 12:00","2018","12","12","12:00","-12.5","","-13.7","","90","","","","30","","35","","","M","98.90","","","","-23","","NA"
"-79.03","69.08","ROWLEY ISLAND","2403625","2018-12-12 13:00","2018","12","12","13:00","-14.5","","-16.0","","88","","","","28","","22","","","M","99.00","","","","-24","","NA"
"-79.03","69.08","ROWLEY ISLAND","2403625","2018-12-12 14:00","2018","12","12","14:00","-15.1","","-16.7","","88","","","","28","","22","","","M","99.09","","","","-25","","NA"
"-79.03","69.08","ROWLEY ISLAND","2403625","2018-12-12 15:00","2018","12","12","15:00","-14.6","","-16.1","","88","","","","30","","15","","","M","99.20","","","","-22","","NA"
"-79.03","69.08","ROWLEY ISLAND","2403625","2018-12-12 16:00","2018","12","12","16:00","-15.0","","-16.5","","88","","","","33","","18","","","M","99.30","","","","-24","","NA"
"-79.03","69.08","ROWLEY ISLAND","2403625","2018-12-12 17:00","2018","12","12","17:00","-17.2","","-19.0","","86","","","","32","","22","","","M","99.38","","","","-27","","NA"
"-79.03","69.08","ROWLEY ISLAND","2403625","2018-12-12 18:00","2018","12","12","18:00","-17.9","","-19.8","","85","","","","34","","11","","","M","99.48","","","","-25","","NA"
"-79.03","69.08","ROWLEY ISLAND","2403625","2018-12-12 19:00","2018","12","12","19:00","-18.1","","-20.0","","85","","","","11","","5","","","M","99.53","","","","-22","","NA"
"-79.03","69.08","ROWLEY ISLAND","2403625","2018-12-12 20:00","2018","12","12","20:00","-18.4","","-20.4","","85","","","","9","","5","","","M","99.53","","","","-22","","NA"
"-79.03","69.08","ROWLEY ISLAND","2403625","2018-12-12 21:00","2018","12","12","21:00","-19.7","","-21.8","","83","","","","14","","11","","","M","99.55","","","","-27","","NA"
"-79.03","69.08","ROWLEY ISLAND","2403625","2018-12-12 22:00","2018","12","12","22:00","-20.6","","-22.7","","83","","","","15","","11","","","M","99.58","","","","-28","","NA"
"-79.03","69.08","ROWLEY ISLAND","2403625","2018-12-12 23:00","2018","12","12","23:00","-20.6","","-22.8","","83","","","","14","","13","","","M","99.62","","","","-29","","NA"
"-79.03","69.08","ROWLEY ISLAND","2403625","2018-12-13 00:00","2018","12","13","00:00","-18.9","","-21.0","","84","","","","16","","18","","","M","99.61","","","","-29","","NA"
"-79.03","69.08","ROWLEY ISLAND","2403625","2018-12-13 01:00","2018","12","13","01:00","-18.7","","-20.7","","84","","","","15","","26","","","M","99.60","","","","-30","","NA"
"-79.03","69.08","ROWLEY ISLAND","2403625","2018-12-13 02:00","2018","12","13","02:00","-17.2","","-19.0","","86","","","","13","","13","","","M","99.59","","","","-25","","NA"
"-79.03","69.08","ROWLEY ISLAND","2403625","2018-12-13 03:00","2018","12","13","03:00","-16.1","","-17.8","","87","","","","13","","15","","","M","99.63","","","","-24","","NA"
"-79.03","69.08","ROWLEY ISLAND","2403625","2018-12-13 04:00","2018","12","13","04:00","-15.7","","-17.3","","87","","","","13","","15","","","M","99.64","","","","-24","","NA"
"-79.03","69.08","ROWLEY ISLAND","2403625","2018-12-13 05:00","2018","12","13","05:00","-15.2","","-16.8","","88","","","","14","","24","","","M","99.59","","","","-25","","NA"
"-79.03","69.08","ROWLEY ISLAND","2403625","2018-12-13 06:00","2018","12","13","06:00","-14.3","","-15.7","","89","","","","15","","26","","","M","99.60","","","","-24","","NA"
"-79.03","69.08","ROWLEY ISLAND","2403625","2018-12-13 07:00","2018","12","13","07:00","-13.6","","-15.0","","89","","","","15","","35","","","M","99.58","","","","-25","","NA"
"-79.03","69.08","ROWLEY ISLAND","2403625","2018-12-13 08:00","2018","12","13","08:00","-13.1","","-14.5","","90","","","","15","","30","","","M","99.58","","","","-24","","NA"
"-79.03","69.08","ROWLEY ISLAND","2403625","2018-12-13 09:00","2018","12","13","09:00","-12.8","","-14.1","","90","","","","15","","35","","","M","99.54","","","","-24","","NA"
"-79.03","69.08","ROWLEY ISLAND","2403625","2018-12-13 10:00","2018","12","13","10:00","-12.2","","-13.4","","91","","","","16","","34","","","M","99.56","","","","-23","","NA"
"-79.03","69.08","ROWLEY ISLAND","2403625","2018-12-13 11:00","2018","12","13","11:00","-11.4","","-12.6","","91","","","","17","","34","","","M","99.56","","","","-22","","NA"
"-79.03","69.08","ROWLEY ISLAND","2403625","2018-12-13 12:00","2018","12","13","12:00","-11.0","","-12.1","","92","","","","18","","30","","","M","99.56","","","","-21","","NA"
"-79.03","69.08","ROWLEY ISLAND","2403625","2018-12-13 13:00","2018","12","13","13:00","-11.0","","-12.1","","92","","","","20","","28","","","M","99.61","","","","-21","","NA"
"-79.03","69.08","ROWLEY ISLAND","2403625","2018-12-13 14:00","2018","12","13","14:00","-11.2","","-12.2","","92","","","","20","","26","","","M","99.68","","","","-20","","NA"
"-79.03","69.08","ROWLEY ISLAND","2403625","2018-12-13 15:00","2018","12","13","15:00","-11.3","","-12.4","","91","","","","20","","28","","","M","99.69","","","","-21","","NA"
"-79.03","69.08","ROWLEY ISLAND","2403625","2018-12-13 16:00","2018","12","13","16:00","-11.7","","-12.8","","91","","","","19","","28","","","M","99.71","","","","-21","","NA"
"-79.03","69.08","ROWLEY ISLAND","2403625","2018-12-13 17:00","2018","12","13","17:00","-11.8","","-13.0","","91","","","","18","","21","","","M","99.73","","","","-20","","NA"
"-79.03","69.08","ROWLEY ISLAND","2403625","2018-12-13 18:00","2018","12","13","18:00","-11.2","","-12.3","","92","","","","18","","28","","","M","99.76","","","","-21","","NA"
"-79.03","69.08","ROWLEY ISLAND","2403625","2018-12-13 19:00","2018","12","13","19:00","-11.2","","-12.3","","92","","","","17","","15","","","M","99.77","","","","-18","","NA"
"-79.03","69.08","ROWLEY ISLAND","2403625","2018-12-13 20:00","2018","12","13","20:00","-11.3","","-12.4","","91","","","","15","","13","","","M","99.79","","","","-18","","NA"
"-79.03","69.08","ROWLEY ISLAND","2403625","2018-12-13 21:00","2018","12","13","21:00","-10.3","","-11.3","","92","","","","14","","13","","","M","99.76","","","","-17","","NA"
"-79.03","69.08","ROWLEY ISLAND","2403625","2018-12-13 22:00","2018","12","13","22:00","-9.7","","-10.6","","93","","","","16","","26","","","M","99.74","","","","-19","","NA"
"-79.03","69.08","ROWLEY ISLAND","2403625","2018-12-13 23:00","2018","12","13","23:00","-9.5","","-10.4","","93","","","","16","","34","","","M","99.73","","","","-19","","NA"
"-79.03","69.08","ROWLEY ISLAND","2403625","2018-12-14 00:00","2018","12","14","00:00","-9.7","","-10.6","","93","","","","15","","18","","","M","99.73","","","","-17","","NA"
"-79.03","69.08","ROWLEY ISLAND","2403625","2018-12-14 01:00","2018","12","14","01:00","-9.6","","-10.5","","93","","","","13","","18","","","M","99.73","","","","-17","","NA"
"-79.03","69.08","ROWLEY ISLAND","2403625","2018-12-14 02:00","2018","12","14","02:00","-9.3","","-10.1","","93","","","","14","","18","","","M","99.70","","","","-17","","NA"
"-79.03","69.08","ROWLEY ISLAND","2403625","2018-12-14 03:00","2018","12","14","03:00"
"-79.03","69.08","ROWLEY ISLAND","2403625","2018-12-14 04:00","2018","12","14","04:00","-9.1","","-10.0","","93","","","","13","","24","","","M","99.73","","","","-17","","NA"
"-79.03","69.08","ROWLEY ISLAND","2403625","2018-12-14 05:00","2018","12","14","05:00","-9.5","","-10.4","","93","","","","13","","28","","","M","99.70","","","","-19","","NA"
"-79.03","69.08","ROWLEY ISLAND","2403625","2018-12-14 06:00","2018","12","14","06:00","-9.7","","-10.6","","93","","","","13","","30","","","M","99.69","","","","-19","","NA"
"-79.03","69.08","ROWLEY ISLAND","2403625","2018-12-14 07:00","2018","12","14","07:00","-10.3","","-11.2","","92","","","","13","","30","","","M","99.66","","","","-20","","NA"
"-79.03","69.08","ROWLEY ISLAND","2403625","2018-12-14 08:00","2018","12","14","08:00","-10.3","","-11.3","","93","","","","13","","28","","","M","99.62","","","","-20","","NA"
"-79.03","69.08","ROWLEY ISLAND","2403625","2018-12-14 09:00","2018","12","14","09:00","-10.1","","-11.1","","93","","","","13","","30","","","M","99.60","","","","-20","","NA"
"-79.03","69.08","ROWLEY ISLAND","2403625","2018-12-14 10:00","2018","12","14","10:00","-10.2","","-11.2","","93","","","","12","","35","","","M","99.59","","","","-20","","NA"
"-79.03","69.08","ROWLEY ISLAND","2403625","2018-12-14 11:00","2018","12","14","11:00","-10.5","","-11.5","","92","","","","12","","30","","","M","99.59","","","","-20","","NA"
"-79.03","69.08","ROWLEY ISLAND","2403625","2018-12-14 12:00","2018","12","14","12:00","-10.6","","-11.6","","92","","","","12","","31","","","M","99.56","","","","-20","","NA"
"-79.03","69.08","ROWLEY ISLAND","2403625","2018-12-14 13:00","2018","12","14","13:00","-10.7","","-11.7","","92","","","","12","","35","","","M","99.51","","","","-21","","NA"
"-79.03","69.08","ROWLEY ISLAND","2403625","2018-12-14 14:00","2018","12","14","14:00","-11.2","","-12.3","","92","","","","11","","34","","","M","99.47","","","","-22","","NA"
"-79.03","69.08","ROWLEY ISLAND","2403625","2018-12-14 15:00","2018","12","14","15:00","-11.6","","-12.7","","91","","","","11","","24","","","M","99.49","","","","-21","","NA"
"-79.03","69.08","ROWLEY ISLAND","2403625","2018-12-14 16:00","2018","12","14","16:00","-12.2","","-13.4","","91","","","","10","","24","","","M","99.47","","","","-21","","NA"
"-79.03","69.08","ROWLEY ISLAND","2403625","2018-12-14 17:00","2018","12","14","17:00","-12.8","","-14.0","","90","","","","10","","28","","","M","99.47","","","","-23","","NA"
"-79.03","69.08","ROWLEY ISLAND","2403625","2018-12-14 18:00","2018","12","14","18:00","-13.6","","-14.9","","89","","","","10","","31","","","M","99.43","","","","-24","","NA"
"-79.03","69.08","ROWLEY ISLAND","2403625","2018-12-14 19:00","2018","12","14","19:00","-14.1","","-15.5","","89","","","","10","","26","","","M","99.41","","","","-24","","NA"
"-79.03","69.08","ROWLEY ISLAND","2403625","2018-12-14 20:00","2018","12","14","20:00","-14.0","","-15.4","","89","","","","10","","28","","","M","99.37","","","","-24","","NA"
"-79.03","69.08","ROWLEY ISLAND","2403625","2018-12-14 21:00","2018","12","14","21:00","-13.7","","-15.0","","89","","","","10","","22","","","M","99.31","","","","-23","","NA"
"-79.03","69.08","ROWLEY ISLAND","2403625","2018-12-14 22:00","2018","12","14","22:00","-13.2","","-14.5","","90","","","","11","","24","","","M","99.27","","","","-23","","NA"
"-79.03","69.08","ROWLEY ISLAND","2403625","2018-12-14 23:00","2018","12","14","23:00","-13.3","","-14.6","","90","","","","11","","22","","","M","99.25","","","","-22","","NA"
"-79.03","69.08","ROWLEY ISLAND","2403625","2018-12-15 00:00","2018","12","15","00:00","-13.5","","-14.9","","89","","","","9","","30","","","M","99.21","","","","-24","","NA"
"-79.03","69.08","ROWLEY ISLAND","2403625","2018-12-15 01:00","2018","12","15","01:00","-13.4","","-14.8","","89","","","","9","","30","","","M","99.20","","","","-24","","NA"
"-79.03","69.08","ROWLEY ISLAND","2403625","2018-12-15 02:00","2018","12","15","02:00"
"-79.03","69.08","ROWLEY ISLAND","2403625","2018-12-15 03:00","2018","12","15","03:00"
"-79.03","69.08","ROWLEY ISLAND","2403625","2018-12-15 04:00","2018","12","15","04:00"
"-79.03","69.08","ROWLEY ISLAND","2403625","2018-12-15 05:00","2018","12","15","05:00"
"-79.03","69.08","ROWLEY ISLAND","2403625","2018-12-15 06:00","2018","12","15","06:00"
"-79.03","69.08","ROWLEY ISLAND","2403625","2018-12-15 07:00","2018","12","15","07:00"
"-79.03","69.08","ROWLEY ISLAND","2403625","2018-12-15 08:00","2018","12","15","08:00"
"-79.03","69.08","ROWLEY ISLAND","2403625","2018-12-15 09:00","2018","12","15","09:00"
"-79.03","69.08","ROWLEY ISLAND","2403625","2018-12-15 10:00","2018","12","15","10:00"
"-79.03","69.08","ROWLEY ISLAND","2403625","2018-12-15 11:00","2018","12","15","11:00"
"-79.03","69.08","ROWLEY ISLAND","2403625","2018-12-15 12:00","2018","12","15","12:00"
"-79.03","69.08","ROWLEY ISLAND","2403625","2018-12-15 13:00","2018","12","15","13:00"
"-79.03","69.08","ROWLEY ISLAND","2403625","2018-12-15 14:00","2018","12","15","14:00"
"-79.03","69.08","ROWLEY ISLAND","2403625","2018-12-15 15:00","2018","12","15","15:00"
"-79.03","69.08","ROWLEY ISLAND","2403625","2018-12-15 16:00","2018","12","15","16:00"
"-79.03","69.08","ROWLEY ISLAND","2403625","2018-12-15 17:00","2018","12","15","17:00"
"-79.03","69.08","ROWLEY ISLAND","2403625","2018-12-15 18:00","2018","12","15","18:00"
"-79.03","69.08","ROWLEY ISLAND","2403625","2018-12-15 19:00","2018","12","15","19:00"
"-79.03","69.08","ROWLEY ISLAND","2403625","2018-12-15 20:00","2018","12","15","20:00"
"-79.03","69.08","ROWLEY ISLAND","2403625","2018-12-15 21:00","2018","12","15","21:00"
"-79.03","69.08","ROWLEY ISLAND","2403625","2018-12-15 22:00","2018","12","15","22:00"
"-79.03","69.08","ROWLEY ISLAND","2403625","2018-12-15 23:00","2018","12","15","23:00"
"-79.03","69.08","ROWLEY ISLAND","2403625","2018-12-16 00:00","2018","12","16","00:00"
"-79.03","69.08","ROWLEY ISLAND","2403625","2018-12-16 01:00","2018","12","16","01:00"
"-79.03","69.08","ROWLEY ISLAND","2403625","2018-12-16 02:00","2018","12","16","02:00"
"-79.03","69.08","ROWLEY ISLAND","2403625","2018-12-16 03:00","2018","12","16","03:00"
"-79.03","69.08","ROWLEY ISLAND","2403625","2018-12-16 04:00","2018","12","16","04:00"
"-79.03","69.08","ROWLEY ISLAND","2403625","2018-12-16 05:00","2018","12","16","05:00"
"-79.03","69.08","ROWLEY ISLAND","2403625","2018-12-16 06:00","2018","12","16","06:00"
"-79.03","69.08","ROWLEY ISLAND","2403625","2018-12-16 07:00","2018","12","16","07:00"
"-79.03","69.08","ROWLEY ISLAND","2403625","2018-12-16 08:00","2018","12","16","08:00"
"-79.03","69.08","ROWLEY ISLAND","2403625","2018-12-16 09:00","2018","12","16","09:00"
"-79.03","69.08","ROWLEY ISLAND","2403625","2018-12-16 10:00","2018","12","16","10:00"
"-79.03","69.08","ROWLEY ISLAND","2403625","2018-12-16 11:00","2018","12","16","11:00"
"-79.03","69.08","ROWLEY ISLAND","2403625","2018-12-16 12:00","2018","12","16","12:00"
"-79.03","69.08","ROWLEY ISLAND","2403625","2018-12-16 13:00","2018","12","16","13:00"
"-79.03","69.08","ROWLEY ISLAND","2403625","2018-12-16 14:00","2018","12","16","14:00"
"-79.03","69.08","ROWLEY ISLAND","2403625","2018-12-16 15:00","2018","12","16","15:00"
"-79.03","69.08","ROWLEY ISLAND","2403625","2018-12-16 16:00","2018","12","16","16:00"
"-79.03","69.08","ROWLEY ISLAND","2403625","2018-12-16 17:00","2018","12","16","17:00"
"-79.03","69.08","ROWLEY ISLAND","2403625","2018-12-16 18:00","2018","12","16","18:00"
"-79.03","69.08","ROWLEY ISLAND","2403625","2018-12-16 19:00","2018","12","16","19:00"
"-79.03","69.08","ROWLEY ISLAND","2403625","2018-12-16 20:00","2018","12","16","20:00"
"-79.03","69.08","ROWLEY ISLAND","2403625","2018-12-16 21:00","2018","12","16","21:00"
"-79.03","69.08","ROWLEY ISLAND","2403625","2018-12-16 22:00","2018","12","16","22:00"
"-79.03","69.08","ROWLEY ISLAND","2403625","2018-12-16 23:00","2018","12","16","23:00"
"-79.03","69.08","ROWLEY ISLAND","2403625","2018-12-17 00:00","2018","12","17","00:00"
"-79.03","69.08","ROWLEY ISLAND","2403625","2018-12-17 01:00","2018","12","17","01:00"
"-79.03","69.08","ROWLEY ISLAND","2403625","2018-12-17 02:00","2018","12","17","02:00"
"-79.03","69.08","ROWLEY ISLAND","2403625","2018-12-17 03:00","2018","12","17","03:00"
"-79.03","69.08","ROWLEY ISLAND","2403625","2018-12-17 04:00","2018","12","17","04:00"
"-79.03","69.08","ROWLEY ISLAND","2403625","2018-12-17 05:00","2018","12","17","05:00"
"-79.03","69.08","ROWLEY ISLAND","2403625","2018-12-17 06:00","2018","12","17","06:00"
"-79.03","69.08","ROWLEY ISLAND","2403625","2018-12-17 07:00","2018","12","17","07:00"
"-79.03","69.08","ROWLEY ISLAND","2403625","2018-12-17 08:00","2018","12","17","08:00"
"-79.03","69.08","ROWLEY ISLAND","2403625","2018-12-17 09:00","2018","12","17","09:00"
"-79.03","69.08","ROWLEY ISLAND","2403625","2018-12-17 10:00","2018","12","17","10:00"
"-79.03","69.08","ROWLEY ISLAND","2403625","2018-12-17 11:00","2018","12","17","11:00"
"-79.03","69.08","ROWLEY ISLAND","2403625","2018-12-17 12:00","2018","12","17","12:00"
"-79.03","69.08","ROWLEY ISLAND","2403625","2018-12-17 13:00","2018","12","17","13:00"
"-79.03","69.08","ROWLEY ISLAND","2403625","2018-12-17 14:00","2018","12","17","14:00"
"-79.03","69.08","ROWLEY ISLAND","2403625","2018-12-17 15:00","2018","12","17","15:00"
"-79.03","69.08","ROWLEY ISLAND","2403625","2018-12-17 16:00","2018","12","17","16:00"
"-79.03","69.08","ROWLEY ISLAND","2403625","2018-12-17 17:00","2018","12","17","17:00"
"-79.03","69.08","ROWLEY ISLAND","2403625","2018-12-17 18:00","2018","12","17","18:00"
"-79.03","69.08","ROWLEY ISLAND","2403625","2018-12-17 19:00","2018","12","17","19:00"
"-79.03","69.08","ROWLEY ISLAND","2403625","2018-12-17 20:00","2018","12","17","20:00"
"-79.03","69.08","ROWLEY ISLAND","2403625","2018-12-17 21:00","2018","12","17","21:00"
"-79.03","69.08","ROWLEY ISLAND","2403625","2018-12-17 22:00","2018","12","17","22:00"
"-79.03","69.08","ROWLEY ISLAND","2403625","2018-12-17 23:00","2018","12","17","23:00"
"-79.03","69.08","ROWLEY ISLAND","2403625","2018-12-18 00:00","2018","12","18","00:00"
"-79.03","69.08","ROWLEY ISLAND","2403625","2018-12-18 01:00","2018","12","18","01:00"
"-79.03","69.08","ROWLEY ISLAND","2403625","2018-12-18 02:00","2018","12","18","02:00"
"-79.03","69.08","ROWLEY ISLAND","2403625","2018-12-18 03:00","2018","12","18","03:00"
"-79.03","69.08","ROWLEY ISLAND","2403625","2018-12-18 04:00","2018","12","18","04:00"
"-79.03","69.08","ROWLEY ISLAND","2403625","2018-12-18 05:00","2018","12","18","05:00"
"-79.03","69.08","ROWLEY ISLAND","2403625","2018-12-18 06:00","2018","12","18","06:00"
"-79.03","69.08","ROWLEY ISLAND","2403625","2018-12-18 07:00","2018","12","18","07:00"
"-79.03","69.08","ROWLEY ISLAND","2403625","2018-12-18 08:00","2018","12","18","08:00"
"-79.03","69.08","ROWLEY ISLAND","2403625","2018-12-18 09:00","2018","12","18","09:00"
"-79.03","69.08","ROWLEY ISLAND","2403625","2018-12-18 10:00","2018","12","18","10:00"
"-79.03","69.08","ROWLEY ISLAND","2403625","2018-12-18 11:00","2018","12","18","11:00"
"-79.03","69.08","ROWLEY ISLAND","2403625","2018-12-18 12:00","2018","12","18","12:00"
"-79.03","69.08","ROWLEY ISLAND","2403625","2018-12-18 13:00","2018","12","18","13:00"
"-79.03","69.08","ROWLEY ISLAND","2403625","2018-12-18 14:00","2018","12","18","14:00"
"-79.03","69.08","ROWLEY ISLAND","2403625","2018-12-18 15:00","2018","12","18","15:00"
"-79.03","69.08","ROWLEY ISLAND","2403625","2018-12-18 16:00","2018","12","18","16:00"
"-79.03","69.08","ROWLEY ISLAND","2403625","2018-12-18 17:00","2018","12","18","17:00"
"-79.03","69.08","ROWLEY ISLAND","2403625","2018-12-18 18:00","2018","12","18","18:00"
"-79.03","69.08","ROWLEY ISLAND","2403625","2018-12-18 19:00","2018","12","18","19:00"
"-79.03","69.08","ROWLEY ISLAND","2403625","2018-12-18 20:00","2018","12","18","20:00"
"-79.03","69.08","ROWLEY ISLAND","2403625","2018-12-18 21:00","2018","12","18","21:00"
"-79.03","69.08","ROWLEY ISLAND","2403625","2018-12-18 22:00","2018","12","18","22:00"
"-79.03","69.08","ROWLEY ISLAND","2403625","2018-12-18 23:00","2018","12","18","23:00"
"-79.03","69.08","ROWLEY ISLAND","2403625","2018-12-19 00:00","2018","12","19","00:00"
"-79.03","69.08","ROWLEY ISLAND","2403625","2018-12-19 01:00","2018","12","19","01:00","-24.9","","-27.5","","79","","","","33","","15","","","M","99.88","","","","-35","","NA"
"-79.03","69.08","ROWLEY ISLAND","2403625","2018-12-19 02:00","2018","12","19","02:00"
"-79.03","69.08","ROWLEY ISLAND","2403625","2018-12-19 03:00","2018","12","19","03:00"
"-79.03","69.08","ROWLEY ISLAND","2403625","2018-12-19 04:00","2018","12","19","04:00"
"-79.03","69.08","ROWLEY ISLAND","2403625","2018-12-19 05:00","2018","12","19","05:00"
"-79.03","69.08","ROWLEY ISLAND","2403625","2018-12-19 06:00","2018","12","19","06:00"
"-79.03","69.08","ROWLEY ISLAND","2403625","2018-12-19 07:00","2018","12","19","07:00"
"-79.03","69.08","ROWLEY ISLAND","2403625","2018-12-19 08:00","2018","12","19","08:00"
"-79.03","69.08","ROWLEY ISLAND","2403625","2018-12-19 09:00","2018","12","19","09:00","-22.7","","-25.1","","81","","","","36","","11","","","M","100.06","","","","-31","","NA"
"-79.03","69.08","ROWLEY ISLAND","2403625","2018-12-19 10:00","2018","12","19","10:00","-22.6","","-25.0","","81","","","","35","","13","","","M","100.06","","","","-32","","NA"
"-79.03","69.08","ROWLEY ISLAND","2403625","2018-12-19 11:00","2018","12","19","11:00","-22.7","","-25.1","","81","","","","35","","13","","","M","100.08","","","","-32","","NA"
"-79.03","69.08","ROWLEY ISLAND","2403625","2018-12-19 12:00","2018","12","19","12:00","-22.6","","-24.9","","81","","","","35","","13","","","M","100.10","","","","-32","","NA"
"-79.03","69.08","ROWLEY ISLAND","2403625","2018-12-19 13:00","2018","12","19","13:00","-22.5","","-24.8","","81","","","","35","","17","","","M","100.11","","","","-33","","NA"
"-79.03","69.08","ROWLEY ISLAND","2403625","2018-12-19 14:00","2018","12","19","14:00","-23.4","","-25.9","","80","","","","35","","15","","","M","100.16","","","","-33","","NA"
"-79.03","69.08","ROWLEY ISLAND","2403625","2018-12-19 15:00","2018","12","19","15:00","-23.5","","-26.0","","80","","","","33","","15","","","M","100.20","","","","-33","","NA"
"-79.03","69.08","ROWLEY ISLAND","2403625","2018-12-19 16:00","2018","12","19","16:00","-23.9","","-26.3","","80","","","","35","","17","","","M","100.24","","","","-35","","NA"
"-79.03","69.08","ROWLEY ISLAND","2403625","2018-12-19 17:00","2018","12","19","17:00","-23.5","","-26.0","","80","","","","34","","15","","","M","100.30","","","","-33","","NA"
"-79.03","69.08","ROWLEY ISLAND","2403625","2018-12-19 18:00","2018","12","19","18:00","-24.4","","-26.9","","79","","","","35","","13","","","M","100.33","","","","-34","","NA"
"-79.03","69.08","ROWLEY ISLAND","2403625","2018-12-19 19:00","2018","12","19","19:00","-25.1","","-27.6","","79","","","","35","","13","","","M","100.36","","","","-35","","NA"
"-79.03","69.08","ROWLEY ISLAND","2403625","2018-12-19 20:00","2018","12","19","20:00","-24.9","","-27.5","","79","","","","34","","15","","","M","100.38","","","","-35","","NA"
"-79.03","69.08","ROWLEY ISLAND","2403625","2018-12-19 21:00","2018","12","19","21:00","-24.9","","-27.5","","79","","","","34","","17","","","M","100.41","","","","-36","","NA"
"-79.03","69.08","ROWLEY ISLAND","2403625","2018-12-19 22:00","2018","12","19","22:00","-25.2","","-27.8","","79","","","","35","","13","","","M","100.41","","","","-35","","NA"
"-79.03","69.08","ROWLEY ISLAND","2403625","2018-12-19 23:00","2018","12","19","23:00","-25.2","","-27.8","","79","","","","34","","15","","","M","100.48","","","","-35","","NA"
"-79.03","69.08","ROWLEY ISLAND","2403625","2018-12-20 00:00","2018","12","20","00:00","-24.9","","-27.5","","79","","","","34","","15","","","M","100.53","","","","-35","","NA"
"-79.03","69.08","ROWLEY ISLAND","2403625","2018-12-20 01:00","2018","12","20","01:00","-24.7","","-27.3","","79","","","","33","","13","","","M","100.57","","","","-34","","NA"
"-79.03","69.08","ROWLEY ISLAND","2403625","2018-12-20 02:00","2018","12","20","02:00","-25.4","","-28.0","","79","","","","32","","13","","","M","100.61","","","","-35","","NA"
"-79.03","69.08","ROWLEY ISLAND","2403625","2018-12-20 03:00","2018","12","20","03:00","-26.8","","-29.5","","78","","","","33","","15","","","M","100.65","","","","-37","","NA"
"-79.03","69.08","ROWLEY ISLAND","2403625","2018-12-20 04:00","2018","12","20","04:00","-27.1","","-29.8","","77","","","","33","","17","","","M","100.67","","","","-39","","NA"
"-79.03","69.08","ROWLEY ISLAND","2403625","2018-12-20 05:00","2018","12","20","05:00","-27.1","","-29.8","","77","","","","33","","17","","","M","100.70","","","","-39","","NA"
"-79.03","69.08","ROWLEY ISLAND","2403625","2018-12-20 06:00","2018","12","20","06:00","-27.8","","-30.5","","77","","","","32","","21","","","M","100.75","","","","-41","","NA"
"-79.03","69.08","ROWLEY ISLAND","2403625","2018-12-20 07:00","2018","12","20","07:00","-27.8","","-30.6","","77","","","","32","","18","","","M","100.81","","","","-40","","NA"
"-79.03","69.08","ROWLEY ISLAND","2403625","2018-12-20 08:00","2018","12","20","08:00","-27.4","","-30.2","","77","","","","32","","13","","","M","100.84","","","","-37","","NA"
"-79.03","69.08","ROWLEY ISLAND","2403625","2018-12-20 09:00","2018","12","20","09:00","-27.1","","-29.8","","77","","","","33","","15","","","M","100.88","","","","-38","","NA"
"-79.03","69.08","ROWLEY ISLAND","2403625","2018-12-20 10:00","2018","12","20","10:00","-26.2","","-28.9","","78","","","","4","","11","","","M","100.92","","","","-35","","NA"
"-79.03","69.08","ROWLEY ISLAND","2403625","2018-12-20 11:00","2018","12","20","11:00","-25.9","","-28.5","","78","","","","33","","13","","","M","100.93","","","","-36","","NA"
"-79.03","69.08","ROWLEY ISLAND","2403625","2018-12-20 12:00","2018","12","20","12:00","-25.7","","-28.4","","78","","","","32","","17","","","M","100.98","","","","-37","","NA"
"-79.03","69.08","ROWLEY ISLAND","2403625","2018-12-20 13:00","2018","12","20","13:00"
"-79.03","69.08","ROWLEY ISLAND","2403625","2018-12-20 14:00","2018","12","20","14:00","-25.8","","-28.4","","78","","","","31","","13","","","M","101.07","","","","-35","","NA"
"-79.03","69.08","ROWLEY ISLAND","2403625","2018-12-20 15:00","2018","12","20","15:00","-26.5","","-29.2","","78","","","","30","","13","","","M","101.11","","","","-36","","NA"
"-79.03","69.08","ROWLEY ISLAND","2403625","2018-12-20 16:00","2018","12","20","16:00","-26.8","","-29.5","","78","","","","33","","11","","","M","101.17","","","","-36","","NA"
"-79.03","69.08","ROWLEY ISLAND","2403625","2018-12-20 17:00","2018","12","20","17:00","-27.2","","-29.9","","77","","","","32","","8","","","M","101.20","","","","-35","","NA"
"-79.03","69.08","ROWLEY ISLAND","2403625","2018-12-20 18:00","2018","12","20","18:00","-27.5","","-30.2","","77","","","","32","","13","","","M","101.18","","","","-38","","NA"
"-79.03","69.08","ROWLEY ISLAND","2403625","2018-12-20 19:00","2018","12","20","19:00","-27.3","","-30.1","","77","","","","32","","8","","","M","101.22","","","","-35","","NA"
"-79.03","69.08","ROWLEY ISLAND","2403625","2018-12-20 20:00","2018","12","20","20:00","-27.4","","-30.1","","77","","","","28","","8","","","M","101.21","","","","-35","","NA"
"-79.03","69.08","ROWLEY ISLAND","2403625","2018-12-20 21:00","2018","12","20","21:00","-27.1","","-29.9","","77","","","","26","","5","","","M","101.23","","","","-32","","NA"
"-79.03","69.08","ROWLEY ISLAND","2403625","2018-12-20 22:00","2018","12","20","22:00","-26.8","","-29.5","","77","","","","28","","4","","","M","101.26","","","","-31","","NA"
"-79.03","69.08","ROWLEY ISLAND","2403625","2018-12-20 23:00","2018","12","20","23:00","-27.4","","-30.2","","77","","","","5","","9","","","M","101.29","","","","-36","","NA"
"-79.03","69.08","ROWLEY ISLAND","2403625","2018-12-21 00:00","2018","12","21","00:00","-27.6","","-30.4","","77","","","","2","","9","","","M","101.28","","","","-36","","NA"
"-79.03","69.08","ROWLEY ISLAND","2403625","2018-12-21 01:00","2018","12","21","01:00","-27.8","","-30.6","","77","","","","35","","11","","","M","101.27","","","","-37","","NA"
"-79.03","69.08","ROWLEY ISLAND","2403625","2018-12-21 02:00","2018","12","21","02:00","-28.4","","-31.2","","76","","","","33","","17","","","M","101.31","","","","-40","","NA"
"-79.03","69.08","ROWLEY ISLAND","2403625","2018-12-21 03:00","2018","12","21","03:00","-29.6","","-32.5","","75","","","","35","","18","","","M","101.31","","","","-42","","NA"
"-79.03","69.08","ROWLEY ISLAND","2403625","2018-12-21 04:00","2018","12","21","04:00","-31.5","","-34.5","","74","","","","32","","21","","","M","101.32","","","","-45","","NA"
"-79.03","69.08","ROWLEY ISLAND","2403625","2018-12-21 05:00","2018","12","21","05:00","-32.0","","-35.1","","74","","","","34","","21","","","M","101.35","","","","-46","","NA"
"-79.03","69.08","ROWLEY ISLAND","2403625","2018-12-21 06:00","2018","12","21","06:00","-32.6","","-35.8","","73","","","","3","","9","","","M","101.39","","","","-42","","NA"
"-79.03","69.08","ROWLEY ISLAND","2403625","2018-12-21 07:00","2018","12","21","07:00","-33.4","","-36.6","","72","","","","34","","17","","","M","101.41","","","","-46","","NA"
"-79.03","69.08","ROWLEY ISLAND","2403625","2018-12-21 08:00","2018","12","21","08:00","-33.9","","-37.2","","72","","","","3","","9","","","M","101.44","","","","-43","","NA"
"-79.03","69.08","ROWLEY ISLAND","2403625","2018-12-21 09:00","2018","12","21","09:00","-33.9","","-37.2","","72","","","","36","","11","","","M","101.46","","","","-44","","NA"
"-79.03","69.08","ROWLEY ISLAND","2403625","2018-12-21 10:00","2018","12","21","10:00","-33.1","","-36.4","","73","","","","5","","9","","","M","101.51","","","","-42","","NA"
"-79.03","69.08","ROWLEY ISLAND","2403625","2018-12-21 11:00","2018","12","21","11:00","-31.7","","-34.8","","74","","","","35","","18","","","M","101.51","","","","-45","","NA"
"-79.03","69.08","ROWLEY ISLAND","2403625","2018-12-21 12:00","2018","12","21","12:00","-30.9","","-34.0","","74","","","","2","","11","","","M","101.53","","","","-41","","NA"
"-79.03","69.08","ROWLEY ISLAND","2403625","2018-12-21 13:00","2018","12","21","13:00","-29.9","","-32.9","","75","","","","35","","21","","","M","101.54","","","","-43","","NA"
"-79.03","69.08","ROWLEY ISLAND","2403625","2018-12-21 14:00","2018","12","21","14:00","-29.8","","-32.8","","75","","","","35","","15","","","M","101.57","","","","-41","","NA"
"-79.03","69.08","ROWLEY ISLAND","2403625","2018-12-21 15:00","2018","12","21","15:00","-30.0","","-33.0","","75","","","","34","","17","","","M","101.61","","","","-42","","NA"
"-79.03","69.08","ROWLEY ISLAND","2403625","2018-12-21 16:00","2018","12","21","16:00","-29.9","","-32.9","","75","","","","34","","17","","","M","101.61","","","","-42","","NA"
"-79.03","69.08","ROWLEY ISLAND","2403625","2018-12-21 17:00","2018","12","21","17:00","-30.0","","-33.0","","75","","","","35","","15","","","M","101.61","","","","-41","","NA"
"-79.03","69.08","ROWLEY ISLAND","2403625","2018-12-21 18:00","2018","12","21","18:00","-30.2","","-33.2","","75","","","","33","","13","","","M","101.63","","","","-41","","NA"
"-79.03","69.08","ROWLEY ISLAND","2403625","2018-12-21 19:00","2018","12","21","19:00","-30.1","","-33.1","","75","","","","32","","13","","","M","101.65","","","","-41","","NA"
"-79.03","69.08","ROWLEY ISLAND","2403625","2018-12-21 20:00","2018","12","21","20:00","-30.5","","-33.6","","75","","","","34","","17","","","M","101.64","","","","-43","","NA"
"-79.03","69.08","ROWLEY ISLAND","2403625","2018-12-21 21:00","2018","12","21","21:00","-30.4","","-33.4","","75","","","","1","","8","","","M","101.61","","","","-38","","NA"
"-79.03","69.08","ROWLEY ISLAND","2403625","2018-12-21 22:00","2018","12","21","22:00","-30.3","","-33.2","","75","","","","35","","15","","","M","101.58","","","","-42","","NA"
"-79.03","69.08","ROWLEY ISLAND","2403625","2018-12-21 23:00","2018","12","21","23:00","-30.4","","-33.4","","75","","","","35","","17","","","M","101.58","","","","-43","","NA"
"-79.03","69.08","ROWLEY ISLAND","2403625","2018-12-22 00:00","2018","12","22","00:00","-30.8","","-33.9","","74","","","","36","","18","","","M","101.56","","","","-43","","NA"
"-79.03","69.08","ROWLEY ISLAND","2403625","2018-12-22 01:00","2018","12","22","01:00","-30.6","","-33.7","","75","","","","35","","17","","","M","101.56","","","","-43","","NA"
"-79.03","69.08","ROWLEY ISLAND","2403625","2018-12-22 02:00","2018","12","22","02:00","-29.9","","-32.8","","75","","","","34","","24","","","M","101.54","","","","-44","","NA"
"-79.03","69.08","ROWLEY ISLAND","2403625","2018-12-22 03:00","2018","12","22","03:00","-30.0","","-33.0","","75","","","","33","","21","","","M","101.54","","","","-43","","NA"
"-79.03","69.08","ROWLEY ISLAND","2403625","2018-12-22 04:00","2018","12","22","04:00","-30.0","","-33.0","","75","","","","33","","22","","","M","101.50","","","","-44","","NA"
"-79.03","69.08","ROWLEY ISLAND","2403625","2018-12-22 05:00","2018","12","22","05:00","-30.4","","-33.4","","75","","","","33","","21","","","M","101.47","","","","-44","","NA"
"-79.03","69.08","ROWLEY ISLAND","2403625","2018-12-22 06:00","2018","12","22","06:00","-30.0","","-32.9","","75","","","","34","","24","","","M","101.44","","","","-44","","NA"
"-79.03","69.08","ROWLEY ISLAND","2403625","2018-12-22 07:00","2018","12","22","07:00","-30.4","","-33.4","","75","","","","32","","17","","","M","101.43","","","","-43","","NA"
"-79.03","69.08","ROWLEY ISLAND","2403625","2018-12-22 08:00","2018","12","22","08:00","-31.5","","-34.5","","74","","","","33","","22","","","M","101.40","","","","-46","","NA"
"-79.03","69.08","ROWLEY ISLAND","2403625","2018-12-22 09:00","2018","12","22","09:00","-31.5","","-34.6","","74","","","","34","","24","","","M","101.39","","","","-46","","NA"
"-79.03","69.08","ROWLEY ISLAND","2403625","2018-12-22 10:00","2018","12","22","10:00","-30.8","","-33.8","","74","","","","35","","22","","","M","101.38","","","","-45","","NA"
"-79.03","69.08","ROWLEY ISLAND","2403625","2018-12-22 11:00","2018","12","22","11:00","-30.4","","-33.4","","75","","","","34","","26","","","M","101.35","","","","-45","","NA"
"-79.03","69.08","ROWLEY ISLAND","2403625","2018-12-22 12:00","2018","12","22","12:00","-29.7","","-32.6","","75","","","","35","","22","","","M","101.32","","","","-43","","NA"
"-79.03","69.08","ROWLEY ISLAND","2403625","2018-12-22 13:00","2018","12","22","13:00","-29.8","","-32.8","","75","","","","36","","18","","","M","101.29","","","","-42","","NA"
"-79.03","69.08","ROWLEY ISLAND","2403625","2018-12-22 14:00","2018","12","22","14:00","-28.8","","-31.7","","76","","","","34","","22","","","M","101.28","","","","-42","","NA"
"-79.03","69.08","ROWLEY ISLAND","2403625","2018-12-22 15:00","2018","12","22","15:00","-28.4","","-31.2","","76","","","","33","","17","","","M","101.25","","","","-40","","NA"
"-79.03","69.08","ROWLEY ISLAND","2403625","2018-12-22 16:00","2018","12","22","16:00","-29.3","","-32.2","","76","","","","33","","22","","","M","101.23","","","","-43","","NA"
"-79.03","69.08","ROWLEY ISLAND","2403625","2018-12-22 17:00","2018","12","22","17:00","-28.9","","-31.8","","76","","","","32","","24","","","M","101.22","","","","-43","","NA"
"-79.03","69.08","ROWLEY ISLAND","2403625","2018-12-22 18:00","2018","12","22","18:00","-29.2","","-32.1","","76","","","","33","","22","","","M","101.20","","","","-43","","NA"
"-79.03","69.08","ROWLEY ISLAND","2403625","2018-12-22 19:00","2018","12","22","19:00","-28.8","","-31.7","","76","","","","32","","24","","","M","101.14","","","","-43","","NA"
"-79.03","69.08","ROWLEY ISLAND","2403625","2018-12-22 20:00","2018","12","22","20:00","-29.0","","-31.9","","76","","","","33","","24","","","M","101.10","","","","-43","","NA"
"-79.03","69.08","ROWLEY ISLAND","2403625","2018-12-22 21:00","2018","12","22","21:00","-29.0","","-31.9","","76","","","","32","","17","","","M","101.06","","","","-41","","NA"
"-79.03","69.08","ROWLEY ISLAND","2403625","2018-12-22 22:00","2018","12","22","22:00","-28.5","","-31.4","","76","","","","32","","26","","","M","101.01","","","","-43","","NA"
"-79.03","69.08","ROWLEY ISLAND","2403625","2018-12-22 23:00","2018","12","22","23:00","-28.0","","-30.8","","76","","","","34","","22","","","M","100.93","","","","-41","","NA"
"-79.03","69.08","ROWLEY ISLAND","2403625","2018-12-23 00:00","2018","12","23","00:00","-26.8","","-29.6","","77","","","","33","","24","","","M","100.89","","","","-40","","NA"
"-79.03","69.08","ROWLEY ISLAND","2403625","2018-12-23 01:00","2018","12","23","01:00","-26.3","","-29.0","","78","","","","33","","26","","","M","100.86","","","","-40","","NA"
"-79.03","69.08","ROWLEY ISLAND","2403625","2018-12-23 02:00","2018","12","23","02:00","-26.1","","-28.8","","78","","","","33","","24","","","M","100.80","","","","-39","","NA"
"-79.03","69.08","ROWLEY ISLAND","2403625","2018-12-23 03:00","2018","12","23","03:00","-26.2","","-28.9","","78","","","","33","","22","","","M","100.80","","","","-39","","NA"
"-79.03","69.08","ROWLEY ISLAND","2403625","2018-12-23 04:00","2018","12","23","04:00","-25.0","","-27.6","","79","","","","33","","28","","","M","100.74","","","","-39","","NA"
"-79.03","69.08","ROWLEY ISLAND","2403625","2018-12-23 05:00","2018","12","23","05:00","-24.8","","-27.4","","79","","","","33","","22","","","M","100.71","","","","-37","","NA"
"-79.03","69.08","ROWLEY ISLAND","2403625","2018-12-23 06:00","2018","12","23","06:00","-25.2","","-27.8","","79","","","","32","","18","","","M","100.67","","","","-36","","NA"
"-79.03","69.08","ROWLEY ISLAND","2403625","2018-12-23 07:00","2018","12","23","07:00","-24.4","","-27.0","","79","","","","30","","18","","","M","100.64","","","","-35","","NA"
"-79.03","69.08","ROWLEY ISLAND","2403625","2018-12-23 08:00","2018","12","23","08:00","-23.8","","-26.3","","80","","","","30","","17","","","M","100.62","","","","-34","","NA"
"-79.03","69.08","ROWLEY ISLAND","2403625","2018-12-23 09:00","2018","12","23","09:00","-23.2","","-25.7","","80","","","","29","","22","","","M","100.57","","","","-35","","NA"
"-79.03","69.08","ROWLEY ISLAND","2403625","2018-12-23 10:00","2018","12","23","10:00","-22.3","","-24.7","","81","","","","29","","24","","","M","100.54","","","","-34","","NA"
"-79.03","69.08","ROWLEY ISLAND","2403625","2018-12-23 11:00","2018","12","23","11:00","-21.7","","-24.0","","81","","","","30","","26","","","M","100.50","","","","-34","","NA"
"-79.03","69.08","ROWLEY ISLAND","2403625","2018-12-23 12:00","2018","12","23","12:00","-21.4","","-23.7","","81","","","","30","","24","","","M","100.51","","","","-33","","NA"
"-79.03","69.08","ROWLEY ISLAND","2403625","2018-12-23 13:00","2018","12","23","13:00","-21.4","","-23.7","","82","","","","32","","31","","","M","100.45","","","","-35","","NA"
"-79.03","69.08","ROWLEY ISLAND","2403625","2018-12-23 14:00","2018","12","23","14:00","-20.8","","-23.1","","82","","","","32","","34","","","M","100.46","","","","-34","","NA"
"-79.03","69.08","ROWLEY ISLAND","2403625","2018-12-23 15:00","2018","12","23","15:00","-22.4","","-24.8","","81","","","","33","","30","","","M","100.47","","","","-36","","NA"
"-79.03","69.08","ROWLEY ISLAND","2403625","2018-12-23 16:00","2018","12","23","16:00","-22.5","","-24.8","","81","","","","32","","22","","","M","100.52","","","","-34","","NA"
"-79.03","69.08","ROWLEY ISLAND","2403625","2018-12-23 17:00","2018","12","23","17:00","-23.4","","-25.9","","80","","","","32","","13","","","M","100.56","","","","-33","","NA"
"-79.03","69.08","ROWLEY ISLAND","2403625","2018-12-23 18:00","2018","12","23","18:00","-23.6","","-26.1","","80","","","","28","","15","","","M","100.58","","","","-34","","NA"
"-79.03","69.08","ROWLEY ISLAND","2403625","2018-12-23 19:00","2018","12","23","19:00","-24.1","","-26.6","","80","","","","29","","18","","","M","100.58","","","","-35","","NA"
"-79.03","69.08","ROWLEY ISLAND","2403625","2018-12-23 20:00","2018","12","23","20:00","-22.9","","-25.3","","81","","","","28","","17","","","M","100.59","","","","-33","","NA"
"-79.03","69.08","ROWLEY ISLAND","2403625","2018-12-23 21:00","2018","12","23","21:00","-22.2","","-24.6","","81","","","","29","","18","","","M","100.62","","","","-33","","NA"
"-79.03","69.08","ROWLEY ISLAND","2403625","2018-12-23 22:00","2018","12","23","22:00","-22.1","","-24.4","","81","","","","29","","15","","","M","100.62","","","","-32","","NA"
"-79.03","69.08","ROWLEY ISLAND","2403625","2018-12-23 23:00","2018","12","23","23:00","-20.7","","-23.0","","82","","","","33","","18","","","M","100.65","","","","-31","","NA"
"-79.03","69.08","ROWLEY ISLAND","2403625","2018-12-24 00:00","2018","12","24","00:00","-21.1","","-23.4","","82","","","","34","","24","","","M","100.68","","","","-33","","NA"
"-79.03","69.08","ROWLEY ISLAND","2403625","2018-12-24 01:00","2018","12","24","01:00","-21.8","","-24.1","","81","","","","35","","18","","","M","100.73","","","","-32","","NA"
"-79.03","69.08","ROWLEY ISLAND","2403625","2018-12-24 02:00","2018","12","24","02:00","-22.2","","-24.6","","81","","","","35","","21","","","M","100.75","","","","-34","","NA"
"-79.03","69.08","ROWLEY ISLAND","2403625","2018-12-24 03:00","2018","12","24","03:00","-22.3","","-24.7","","81","","","","33","","18","","","M","100.78","","","","-33","","NA"
"-79.03","69.08","ROWLEY ISLAND","2403625","2018-12-24 04:00","2018","12","24","04:00","-22.8","","-25.2","","81","","","","34","","15","","","M","100.84","","","","-33","","NA"
"-79.03","69.08","ROWLEY ISLAND","2403625","2018-12-24 05:00","2018","12","24","05:00","-22.6","","-25.0","","81","","","","35","","24","","","M","100.87","","","","-35","","NA"
"-79.03","69.08","ROWLEY ISLAND","2403625","2018-12-24 06:00","2018","12","24","06:00","-23.1","","-25.5","","80","","","","33","","18","","","M","100.90","","","","-34","","NA"
"-79.03","69.08","ROWLEY ISLAND","2403625","2018-12-24 07:00","2018","12","24","07:00","-22.9","","-25.3","","81","","","","34","","17","","","M","100.91","","","","-33","","NA"
"-79.03","69.08","ROWLEY ISLAND","2403625","2018-12-24 08:00","2018","12","24","08:00","-23.1","","-25.6","","80","","","","33","","18","","","M","100.92","","","","-34","","NA"
"-79.03","69.08","ROWLEY ISLAND","2403625","2018-12-24 09:00","2018","12","24","09:00","-23.2","","-25.6","","80","","","","34","","15","","","M","100.94","","","","-33","","NA"
"-79.03","69.08","ROWLEY ISLAND","2403625","2018-12-24 10:00","2018","12","24","10:00","-24.1","","-26.6","","80","","","","34","","11","","","M","100.96","","","","-33","","NA"
"-79.03","69.08","ROWLEY ISLAND","2403625","2018-12-24 11:00","2018","12","24","11:00","-24.2","","-26.7","","80","","","","36","","8","","","M","100.95","","","","-31","","NA"
"-79.03","69.08","ROWLEY ISLAND","2403625","2018-12-24 12:00","2018","12","24","12:00","-23.5","","-25.9","","80","","","","2","","9","","","M","100.92","","","","-31","","NA"
"-79.03","69.08","ROWLEY ISLAND","2403625","2018-12-24 13:00","2018","12","24","13:00","-23.1","","-25.6","","80","","","","2","","8","","","M","100.92","","","","-30","","NA"
"-79.03","69.08","ROWLEY ISLAND","2403625","2018-12-24 14:00","2018","12","24","14:00","-23.3","","-25.7","","80","","","","36","","8","","","M","100.92","","","","-30","","NA"
"-79.03","69.08","ROWLEY ISLAND","2403625","2018-12-24 15:00","2018","12","24","15:00","-22.8","","-25.2","","81","","","","32","","17","","","M","100.93","","","","-33","","NA"
"-79.03","69.08","ROWLEY ISLAND","2403625","2018-12-24 16:00","2018","12","24","16:00","-21.5","","-23.8","","82","","","","33","","15","","","M","100.96","","","","-31","","NA"
"-79.03","69.08","ROWLEY ISLAND","2403625","2018-12-24 17:00","2018","12","24","17:00","-23.0","","-25.4","","80","","","","31","","15","","","M","100.95","","","","-33","","NA"
"-79.03","69.08","ROWLEY ISLAND","2403625","2018-12-24 18:00","2018","12","24","18:00","-25.1","","-27.7","","79","","","","33","","18","","","M","100.96","","","","-36","","NA"
"-79.03","69.08","ROWLEY ISLAND","2403625","2018-12-24 19:00","2018","12","24","19:00","-26.1","","-28.7","","78","","","","34","","15","","","M","100.95","","","","-37","","NA"
"-79.03","69.08","ROWLEY ISLAND","2403625","2018-12-24 20:00","2018","12","24","20:00","-26.6","","-29.3","","78","","","","35","","13","","","M","100.91","","","","-36","","NA"
"-79.03","69.08","ROWLEY ISLAND","2403625","2018-12-24 21:00","2018","12","24","21:00","-26.9","","-29.6","","78","","","","32","","13","","","M","100.89","","","","-37","","NA"
"-79.03","69.08","ROWLEY ISLAND","2403625","2018-12-24 22:00","2018","12","24","22:00","-27.6","","-30.4","","77","","","","33","","15","","","M","100.87","","","","-38","","NA"
"-79.03","69.08","ROWLEY ISLAND","2403625","2018-12-24 23:00","2018","12","24","23:00","-27.5","","-30.3","","77","","","","34","","13","","","M","100.87","","","","-38","","NA"
"-79.03","69.08","ROWLEY ISLAND","2403625","2018-12-25 00:00","2018","12","25","00:00","-27.3","","-30.1","","77","","","","1","","13","","","M","100.84","","","","-37","","NA"
"-79.03","69.08","ROWLEY ISLAND","2403625","2018-12-25 01:00","2018","12","25","01:00","-27.1","","-29.9","","77","","","","1","","15","","","M","100.82","","","","-38","","NA"
"-79.03","69.08","ROWLEY ISLAND","2403625","2018-12-25 02:00","2018","12","25","02:00","-26.8","","-29.5","","78","","","","36","","17","","","M","100.81","","","","-38","","NA"
"-79.03","69.08","ROWLEY ISLAND","2403625","2018-12-25 03:00","2018","12","25","03:00","-26.5","","-29.2","","78","","","","2","","11","","","M","100.81","","","","-35","","NA"
"-79.03","69.08","ROWLEY ISLAND","2403625","2018-12-25 04:00","2018","12","25","04:00","-26.3","","-29.0","","78","","","","1","","13","","","M","100.80","","","","-36","","NA"
"-79.03","69.08","ROWLEY ISLAND","2403625","2018-12-25 05:00","2018","12","25","05:00","-26.5","","-29.2","","78","","","","3","","9","","","M","100.82","","","","-34","","NA"
"-79.03","69.08","ROWLEY ISLAND","2403625","2018-12-25 06:00","2018","12","25","06:00","-26.2","","-28.8","","78","","","","1","","9","","","M","100.80","","","","-34","","NA"
"-79.03","69.08","ROWLEY ISLAND","2403625","2018-12-25 07:00","2018","12","25","07:00","-25.6","","-28.2","","78","","","","3","","11","","","M","100.78","","","","-34","","NA"
"-79.03","69.08","ROWLEY ISLAND","2403625","2018-12-25 08:00","2018","12","25","08:00","-25.3","","-27.9","","79","","","","36","","13","","","M","100.78","","","","-35","","NA"
"-79.03","69.08","ROWLEY ISLAND","2403625","2018-12-25 09:00","2018","12","25","09:00","-25.3","","-27.9","","79","","","","33","","15","","","M","100.76","","","","-36","","NA"
"-79.03","69.08","ROWLEY ISLAND","2403625","2018-12-25 10:00","2018","12","25","10:00","-25.7","","-28.3","","78","","","","3","","13","","","M","100.75","","","","-35","","NA"
"-79.03","69.08","ROWLEY ISLAND","2403625","2018-12-25 11:00","2018","12","25","11:00","-26.3","","-28.9","","78","","","","34","","15","","","M","100.73","","","","-37","","NA"
"-79.03","69.08","ROWLEY ISLAND","2403625","2018-12-25 12:00","2018","12","25","12:00","-26.2","","-28.8","","78","","","","4","","11","","","M","100.72","","","","-35","","NA"
"-79.03","69.08","ROWLEY ISLAND","2403625","2018-12-25 13:00","2018","12","25","13:00","-26.0","","-28.7","","78","","","","4","","11","","","M","100.72","","","","-35","","NA"
"-79.03","69.08","ROWLEY ISLAND","2403625","2018-12-25 14:00","2018","12","25","14:00","-26.1","","-28.8","","78","","","","1","","13","","","M","100.71","","","","-36","","NA"
"-79.03","69.08","ROWLEY ISLAND","2403625","2018-12-25 15:00","2018","12","25","15:00"
"-79.03","69.08","ROWLEY ISLAND","2403625","2018-12-25 16:00","2018","12","25","16:00","-25.8","","-28.4","","78","","","","35","","18","","","M","100.71","","","","-37","","NA"
"-79.03","69.08","ROWLEY ISLAND","2403625","2018-12-25 17:00","2018","12","25","17:00","-25.4","","-28.0","","78","","","","34","","18","","","M","100.73","","","","-37","","NA"
"-79.03","69.08","ROWLEY ISLAND","2403625","2018-12-25 18:00","2018","12","25","18:00","-25.6","","-28.2","","78","","","","33","","21","","","M","100.71","","","","-38","","NA"
"-79.03","69.08","ROWLEY ISLAND","2403625","2018-12-25 19:00","2018","12","25","19:00","-27.5","","-30.3","","77","","","","32","","22","","","M","100.70","","","","-40","","NA"
"-79.03","69.08","ROWLEY ISLAND","2403625","2018-12-25 20:00","2018","12","25","20:00","-28.2","","-31.0","","76","","","","32","","18","","","M","100.69","","","","-40","","NA"
"-79.03","69.08","ROWLEY ISLAND","2403625","2018-12-25 21:00","2018","12","25","21:00","-28.6","","-31.4","","76","","","","33","","18","","","M","100.67","","","","-41","","NA"
"-79.03","69.08","ROWLEY ISLAND","2403625","2018-12-25 22:00","2018","12","25","22:00","-28.5","","-31.4","","76","","","","33","","21","","","M","100.66","","","","-41","","NA"
"-79.03","69.08","ROWLEY ISLAND","2403625","2018-12-25 23:00","2018","12","25","23:00","-28.5","","-31.4","","76","","","","33","","21","","","M","100.64","","","","-41","","NA"
"-79.03","69.08","ROWLEY ISLAND","2403625","2018-12-26 00:00","2018","12","26","00:00","-29.2","","-32.1","","76","","","","33","","24","","","M","100.62","","","","-43","","NA"
"-79.03","69.08","ROWLEY ISLAND","2403625","2018-12-26 01:00","2018","12","26","01:00","-29.4","","-32.3","","76","","","","33","","21","","","M","100.62","","","","-43","","NA"
"-79.03","69.08","ROWLEY ISLAND","2403625","2018-12-26 02:00","2018","12","26","02:00","-28.7","","-31.6","","76","","","","32","","28","","","M","100.61","","","","-43","","NA"
"-79.03","69.08","ROWLEY ISLAND","2403625","2018-12-26 03:00","2018","12","26","03:00","-28.6","","-31.5","","76","","","","36","","17","","","M","100.64","","","","-40","","NA"
"-79.03","69.08","ROWLEY ISLAND","2403625","2018-12-26 04:00","2018","12","26","04:00","-28.3","","-31.2","","76","","","","35","","24","","","M","100.65","","","","-42","","NA"
"-79.03","69.08","ROWLEY ISLAND","2403625","2018-12-26 05:00","2018","12","26","05:00","-27.9","","-30.7","","77","","","","34","","22","","","M","100.66","","","","-41","","NA"
"-79.03","69.08","ROWLEY ISLAND","2403625","2018-12-26 06:00","2018","12","26","06:00","-28.3","","-31.2","","76","","","","33","","24","","","M","100.66","","","","-42","","NA"
"-79.03","69.08","ROWLEY ISLAND","2403625","2018-12-26 07:00","2018","12","26","07:00","-29.0","","-31.8","","76","","","","33","","31","","","M","100.64","","","","-45","","NA"
"-79.03","69.08","ROWLEY ISLAND","2403625","2018-12-26 08:00","2018","12","26","08:00","-29.5","","-32.4","","75","","","","33","","26","","","M","100.65","","","","-44","","NA"
"-79.03","69.08","ROWLEY ISLAND","2403625","2018-12-26 09:00","2018","12","26","09:00","-29.6","","-32.5","","75","","","","33","","24","","","M","100.66","","","","-44","","NA"
"-79.03","69.08","ROWLEY ISLAND","2403625","2018-12-26 10:00","2018","12","26","10:00","-29.5","","-32.4","","75","","","","34","","24","","","M","100.66","","","","-44","","NA"
"-79.03","69.08","ROWLEY ISLAND","2403625","2018-12-26 11:00","2018","12","26","11:00","-29.7","","-32.6","","75","","","","33","","22","","","M","100.66","","","","-43","","NA"
"-79.03","69.08","ROWLEY ISLAND","2403625","2018-12-26 12:00","2018","12","26","12:00","-29.8","","-32.7","","75","","","","33","","24","","","M","100.65","","","","-44","","NA"
"-79.03","69.08","ROWLEY ISLAND","2403625","2018-12-26 13:00","2018","12","26","13:00","-30.0","","-33.0","","75","","","","34","","18","","","M","100.66","","","","-42","","NA"
"-79.03","69.08","ROWLEY ISLAND","2403625","2018-12-26 14:00","2018","12","26","14:00","-29.4","","-32.3","","76","","","","34","","22","","","M","100.69","","","","-43","","NA"
"-79.03","69.08","ROWLEY ISLAND","2403625","2018-12-26 15:00","2018","12","26","15:00","-29.4","","-32.3","","76","","","","34","","21","","","M","100.70","","","","-43","","NA"
"-79.03","69.08","ROWLEY ISLAND","2403625","2018-12-26 16:00","2018","12","26","16:00","-28.3","","-31.2","","76","","","","34","","28","","","M","100.68","","","","-43","","NA"
"-79.03","69.08","ROWLEY ISLAND","2403625","2018-12-26 17:00","2018","12","26","17:00","-27.7","","-30.5","","77","","","","33","","26","","","M","100.72","","","","-42","","NA"
"-79.03","69.08","ROWLEY ISLAND","2403625","2018-12-26 18:00","2018","12","26","18:00","-27.7","","-30.5","","77","","","","33","","22","","","M","100.73","","","","-41","","NA"
"-79.03","69.08","ROWLEY ISLAND","2403625","2018-12-26 19:00","2018","12","26","19:00","-28.2","","-31.0","","76","","","","32","","24","","","M","100.73","","","","-42","","NA"
"-79.03","69.08","ROWLEY ISLAND","2403625","2018-12-26 20:00","2018","12","26","20:00","-29.3","","-32.2","","76","","","","32","","18","","","M","100.76","","","","-42","","NA"
"-79.03","69.08","ROWLEY ISLAND","2403625","2018-12-26 21:00","2018","12","26","21:00","-29.8","","-32.7","","75","","","","32","","28","","","M","100.74","","","","-45","","NA"
"-79.03","69.08","ROWLEY ISLAND","2403625","2018-12-26 22:00","2018","12","26","22:00","-29.5","","-32.4","","75","","","","33","","21","","","M","100.76","","","","-43","","NA"
"-79.03","69.08","ROWLEY ISLAND","2403625","2018-12-26 23:00","2018","12","26","23:00","-29.7","","-32.7","","75","","","","33","","21","","","M","100.75","","","","-43","","NA"
"-79.03","69.08","ROWLEY ISLAND","2403625","2018-12-27 00:00","2018","12","27","00:00","-29.4","","-32.4","","75","","","","33","","24","","","M","100.76","","","","-43","","NA"
"-79.03","69.08","ROWLEY ISLAND","2403625","2018-12-27 01:00","2018","12","27","01:00","-29.3","","-32.2","","76","","","","33","","28","","","M","100.76","","","","-44","","NA"
"-79.03","69.08","ROWLEY ISLAND","2403625","2018-12-27 02:00","2018","12","27","02:00"
"-79.03","69.08","ROWLEY ISLAND","2403625","2018-12-27 03:00","2018","12","27","03:00","-28.4","","-31.2","","76","","","","34","","28","","","M","100.78","","","","-43","","NA"
"-79.03","69.08","ROWLEY ISLAND","2403625","2018-12-27 04:00","2018","12","27","04:00","-27.9","","-30.7","","77","","","","35","","18","","","M","100.80","","","","-40","","NA"
"-79.03","69.08","ROWLEY ISLAND","2403625","2018-12-27 05:00","2018","12","27","05:00","-27.6","","-30.4","","77","","","","34","","26","","","M","100.83","","","","-42","","NA"
"-79.03","69.08","ROWLEY ISLAND","2403625","2018-12-27 06:00","2018","12","27","06:00","-27.9","","-30.7","","76","","","","34","","21","","","M","100.83","","","","-41","","NA"
"-79.03","69.08","ROWLEY ISLAND","2403625","2018-12-27 07:00","2018","12","27","07:00","-28.7","","-31.6","","76","","","","33","","22","","","M","100.83","","","","-42","","NA"
"-79.03","69.08","ROWLEY ISLAND","2403625","2018-12-27 08:00","2018","12","27","08:00","-29.5","","-32.4","","75","","","","33","","24","","","M","100.86","","","","-44","","NA"
"-79.03","69.08","ROWLEY ISLAND","2403625","2018-12-27 09:00","2018","12","27","09:00","-29.6","","-32.5","","75","","","","33","","24","","","M","100.85","","","","-44","","NA"
"-79.03","69.08","ROWLEY ISLAND","2403625","2018-12-27 10:00","2018","12","27","10:00","-28.5","","-31.4","","76","","","","32","","21","","","M","100.86","","","","-41","","NA"
"-79.03","69.08","ROWLEY ISLAND","2403625","2018-12-27 11:00","2018","12","27","11:00","-28.7","","-31.6","","76","","","","33","","21","","","M","100.88","","","","-42","","NA"
"-79.03","69.08","ROWLEY ISLAND","2403625","2018-12-27 12:00","2018","12","27","12:00","-29.4","","-32.3","","75","","","","32","","18","","","M","100.89","","","","-42","","NA"
"-79.03","69.08","ROWLEY ISLAND","2403625","2018-12-27 13:00","2018","12","27","13:00","-30.2","","-33.2","","75","","","","33","","24","","","M","100.90","","","","-44","","NA"
"-79.03","69.08","ROWLEY ISLAND","2403625","2018-12-27 14:00","2018","12","27","14:00","-29.3","","-32.3","","76","","","","34","","21","","","M","100.90","","","","-43","","NA"
"-79.03","69.08","ROWLEY ISLAND","2403625","2018-12-27 15:00","2018","12","27","15:00","-28.5","","-31.4","","76","","","","34","","22","","","M","100.92","","","","-42","","NA"
"-79.03","69.08","ROWLEY ISLAND","2403625","2018-12-27 16:00","2018","12","27","16:00"
"-79.03","69.08","ROWLEY ISLAND","2403625","2018-12-27 17:00","2018","12","27","17:00","-27.1","","-29.9","","77","","","","34","","17","","","M","100.97","","","","-39","","NA"
"-79.03","69.08","ROWLEY ISLAND","2403625","2018-12-27 18:00","2018","12","27","18:00","-27.0","","-29.7","","77","","","","33","","18","","","M","100.95","","","","-39","","NA"
"-79.03","69.08","ROWLEY ISLAND","2403625","2018-12-27 19:00","2018","12","27","19:00","-27.0","","-29.7","","77","","","","34","","21","","","M","100.94","","","","-40","","NA"
"-79.03","69.08","ROWLEY ISLAND","2403625","2018-12-27 20:00","2018","12","27","20:00","-27.5","","-30.3","","77","","","","33","","21","","","M","100.92","","","","-40","","NA"
"-79.03","69.08","ROWLEY ISLAND","2403625","2018-12-27 21:00","2018","12","27","21:00","-27.8","","-30.6","","77","","","","33","","15","","","M","100.93","","","","-39","","NA"
"-79.03","69.08","ROWLEY ISLAND","2403625","2018-12-27 22:00","2018","12","27","22:00","-28.0","","-30.8","","76","","","","31","","17","","","M","100.90","","","","-40","","NA"
"-79.03","69.08","ROWLEY ISLAND","2403625","2018-12-27 23:00","2018","12","27","23:00","-28.0","","-30.8","","77","","","","33","","17","","","M","100.88","","","","-40","","NA"
"-79.03","69.08","ROWLEY ISLAND","2403625","2018-12-28 00:00","2018","12","28","00:00","-28.1","","-31.0","","76","","","","33","","15","","","M","100.84","","","","-39","","NA"
"-79.03","69.08","ROWLEY ISLAND","2403625","2018-12-28 01:00","2018","12","28","01:00","-28.0","","-30.8","","77","","","","32","","11","","","M","100.85","","","","-37","","NA"
"-79.03","69.08","ROWLEY ISLAND","2403625","2018-12-28 02:00","2018","12","28","02:00","-27.5","","-30.3","","77","","","","34","","15","","","M","100.83","","","","-38","","NA"
"-79.03","69.08","ROWLEY ISLAND","2403625","2018-12-28 03:00","2018","12","28","03:00","-26.6","","-29.3","","77","","","","4","","9","","","M","100.82","","","","-35","","NA"
"-79.03","69.08","ROWLEY ISLAND","2403625","2018-12-28 04:00","2018","12","28","04:00","-25.9","","-28.5","","78","","","","35","","15","","","M","100.80","","","","-36","","NA"
"-79.03","69.08","ROWLEY ISLAND","2403625","2018-12-28 05:00","2018","12","28","05:00","-25.2","","-27.8","","78","","","","3","","13","","","M","100.77","","","","-35","","NA"
"-79.03","69.08","ROWLEY ISLAND","2403625","2018-12-28 06:00","2018","12","28","06:00","-24.8","","-27.4","","79","","","","4","","11","","","M","100.74","","","","-33","","NA"
"-79.03","69.08","ROWLEY ISLAND","2403625","2018-12-28 07:00","2018","12","28","07:00","-24.3","","-26.9","","79","","","","2","","13","","","M","100.71","","","","-34","","NA"
"-79.03","69.08","ROWLEY ISLAND","2403625","2018-12-28 08:00","2018","12","28","08:00","-24.0","","-26.5","","79","","","","3","","13","","","M","100.72","","","","-33","","NA"
"-79.03","69.08","ROWLEY ISLAND","2403625","2018-12-28 09:00","2018","12","28","09:00","-24.2","","-26.8","","79","","","","2","","15","","","M","100.72","","","","-34","","NA"
"-79.03","69.08","ROWLEY ISLAND","2403625","2018-12-28 10:00","2018","12","28","10:00","-24.6","","-27.1","","79","","","","2","","17","","","M","100.70","","","","-35","","NA"
"-79.03","69.08","ROWLEY ISLAND","2403625","2018-12-28 11:00","2018","12","28","11:00","-25.2","","-27.8","","79","","","","4","","15","","","M","100.68","","","","-35","","NA"
"-79.03","69.08","ROWLEY ISLAND","2403625","2018-12-28 12:00","2018","12","28","12:00","-25.0","","-27.6","","79","","","","3","","15","","","M","100.66","","","","-35","","NA"
"-79.03","69.08","ROWLEY ISLAND","2403625","2018-12-28 13:00","2018","12","28","13:00","-25.3","","-27.9","","79","","","","2","","15","","","M","100.65","","","","-36","","NA"
"-79.03","69.08","ROWLEY ISLAND","2403625","2018-12-28 14:00","2018","12","28","14:00","-25.5","","-28.1","","78","","","","6","","28","","","M","100.64","","","","-39","","NA"
"-79.03","69.08","ROWLEY ISLAND","2403625","2018-12-28 15:00","2018","12","28","15:00","-25.1","","-27.7","","79","","","","3","","18","","","M","100.65","","","","-36","","NA"
"-79.03","69.08","ROWLEY ISLAND","2403625","2018-12-28 16:00","2018","12","28","16:00","-24.8","","-27.4","","79","","","","4","","22","","","M","100.63","","","","-37","","NA"
"-79.03","69.08","ROWLEY ISLAND","2403625","2018-12-28 17:00","2018","12","28","17:00","-24.7","","-27.3","","79","","","","4","","18","","","M","100.63","","","","-36","","NA"
"-79.03","69.08","ROWLEY ISLAND","2403625","2018-12-28 18:00","2018","12","28","18:00","-25.1","","-27.7","","79","","","","6","","30","","","M","100.63","","","","-39","","NA"
"-79.03","69.08","ROWLEY ISLAND","2403625","2018-12-28 19:00","2018","12","28","19:00","-25.5","","-28.1","","78","","","","6","","28","","","M","100.62","","","","-39","","NA"
"-79.03","69.08","ROWLEY ISLAND","2403625","2018-12-28 20:00","2018","12","28","20:00","-25.6","","-28.3","","78","","","","6","","30","","","M","100.60","","","","-40","","NA"
"-79.03","69.08","ROWLEY ISLAND","2403625","2018-12-28 21:00","2018","12","28","21:00","-26.0","","-28.6","","78","","","","6","","30","","","M","100.60","","","","-40","","NA"
"-79.03","69.08","ROWLEY ISLAND","2403625","2018-12-28 22:00","2018","12","28","22:00","-26.1","","-28.8","","78","","","","6","","30","","","M","100.58","","","","-41","","NA"
"-79.03","69.08","ROWLEY ISLAND","2403625","2018-12-28 23:00","2018","12","28","23:00","-25.9","","-28.6","","78","","","","6","","30","","","M","100.57","","","","-40","","NA"
"-79.03","69.08","ROWLEY ISLAND","2403625","2018-12-29 00:00","2018","12","29","00:00","-25.5","","-28.1","","78","","","","6","","30","","","M","100.60","","","","-40","","NA"
"-79.03","69.08","ROWLEY ISLAND","2403625","2018-12-29 01:00","2018","12","29","01:00","-26.4","","-29.1","","78","","","","7","","18","","","M","100.63","","","","-38","","NA"
"-79.03","69.08","ROWLEY ISLAND","2403625","2018-12-29 02:00","2018","12","29","02:00","-25.0","","-27.6","","79","","","","8","","21","","","M","100.66","","","","-37","","NA"
"-79.03","69.08","ROWLEY ISLAND","2403625","2018-12-29 03:00","2018","12","29","03:00","-25.6","","-28.3","","78","","","","7","","22","","","M","100.66","","","","-38","","NA"
"-79.03","69.08","ROWLEY ISLAND","2403625","2018-12-29 04:00","2018","12","29","04:00","-25.5","","-28.2","","78","","","","8","","15","","","M","100.68","","","","-36","","NA"
"-79.03","69.08","ROWLEY ISLAND","2403625","2018-12-29 05:00","2018","12","29","05:00","-25.4","","-28.0","","78","","","","8","","28","","","M","100.69","","","","-39","","NA"
"-79.03","69.08","ROWLEY ISLAND","2403625","2018-12-29 06:00","2018","12","29","06:00","-26.2","","-28.8","","78","","","","6","","15","","","M","100.69","","","","-37","","NA"
"-79.03","69.08","ROWLEY ISLAND","2403625","2018-12-29 07:00","2018","12","29","07:00","-26.3","","-29.0","","78","","","","6","","15","","","M","100.68","","","","-37","","NA"
"-79.03","69.08","ROWLEY ISLAND","2403625","2018-12-29 08:00","2018","12","29","08:00","-25.8","","-28.5","","78","","","","6","","15","","","M","100.70","","","","-36","","NA"
"-79.03","69.08","ROWLEY ISLAND","2403625","2018-12-29 09:00","2018","12","29","09:00","-26.0","","-28.7","","78","","","","4","","13","","","M","100.73","","","","-36","","NA"
"-79.03","69.08","ROWLEY ISLAND","2403625","2018-12-29 10:00","2018","12","29","10:00","-26.1","","-28.8","","78","","","","7","","5","","","M","100.72","","","","-31","","NA"
"-79.03","69.08","ROWLEY ISLAND","2403625","2018-12-29 11:00","2018","12","29","11:00","-25.9","","-28.6","","78","","","","4","","17","","","M","100.72","","","","-37","","NA"
"-79.03","69.08","ROWLEY ISLAND","2403625","2018-12-29 12:00","2018","12","29","12:00","-26.9","","-29.7","","77","","","","3","","18","","","M","100.67","","","","-39","","NA"
"-79.03","69.08","ROWLEY ISLAND","2403625","2018-12-29 13:00","2018","12","29","13:00","-26.9","","-29.6","","77","","","","4","","17","","","M","100.63","","","","-38","","NA"
"-79.03","69.08","ROWLEY ISLAND","2403625","2018-12-29 14:00","2018","12","29","14:00","-26.0","","-28.7","","78","","","","1","","13","","","M","100.61","","","","-36","","NA"
"-79.03","69.08","ROWLEY ISLAND","2403625","2018-12-29 15:00","2018","12","29","15:00","-24.9","","-27.5","","79","","","","35","","18","","","M","100.57","","","","-36","","NA"
"-79.03","69.08","ROWLEY ISLAND","2403625","2018-12-29 16:00","2018","12","29","16:00","-25.4","","-28.1","","78","","","","34","","24","","","M","100.53","","","","-38","","NA"
"-79.03","69.08","ROWLEY ISLAND","2403625","2018-12-29 17:00","2018","12","29","17:00","-26.1","","-28.8","","78","","","","3","","9","","","M","100.54","","","","-34","","NA"
"-79.03","69.08","ROWLEY ISLAND","2403625","2018-12-29 18:00","2018","12","29","18:00","-26.7","","-29.4","","78","","","","1","","18","","","M","100.50","","","","-38","","NA"
"-79.03","69.08","ROWLEY ISLAND","2403625","2018-12-29 19:00","2018","12","29","19:00","-26.6","","-29.3","","78","","","","2","","15","","","M","100.45","","","","-37","","NA"
"-79.03","69.08","ROWLEY ISLAND","2403625","2018-12-29 20:00","2018","12","29","20:00","-27.3","","-30.1","","77","","","","2","","13","","","M","100.40","","","","-37","","NA"
"-79.03","69.08","ROWLEY ISLAND","2403625","2018-12-29 21:00","2018","12","29","21:00","-28.0","","-30.8","","77","","","","2","","15","","","M","100.34","","","","-39","","NA"
"-79.03","69.08","ROWLEY ISLAND","2403625","2018-12-29 22:00","2018","12","29","22:00","-26.9","","-29.7","","77","","","","2","","15","","","M","100.31","","","","-38","","NA"
"-79.03","69.08","ROWLEY ISLAND","2403625","2018-12-29 23:00","2018","12","29","23:00","-27.5","","-30.3","","77","","","","3","","11","","","M","100.26","","","","-37","","NA"
"-79.03","69.08","ROWLEY ISLAND","2403625","2018-12-30 00:00","2018","12","30","00:00","-27.4","","-30.2","","77","","","","1","","18","","","M","100.18","","","","-39","","NA"
"-79.03","69.08","ROWLEY ISLAND","2403625","2018-12-30 01:00","2018","12","30","01:00","-29.0","","-31.9","","76","","","","3","","24","","","M","100.18","","","","-43","","NA"
"-79.03","69.08","ROWLEY ISLAND","2403625","2018-12-30 02:00","2018","12","30","02:00","-29.8","","-32.7","","75","","","","4","","24","","","M","100.18","","","","-44","","NA"
"-79.03","69.08","ROWLEY ISLAND","2403625","2018-12-30 03:00","2018","12","30","03:00","-30.1","","-33.0","","75","","","","3","","21","","","M","100.15","","","","-44","","NA"
"-79.03","69.08","ROWLEY ISLAND","2403625","2018-12-30 04:00","2018","12","30","04:00","-29.7","","-32.6","","75","","","","2","","18","","","M","100.13","","","","-42","","NA"
"-79.03","69.08","ROWLEY ISLAND","2403625","2018-12-30 05:00","2018","12","30","05:00","-28.7","","-31.6","","76","","","","2","","18","","","M","100.08","","","","-41","","NA"
"-79.03","69.08","ROWLEY ISLAND","2403625","2018-12-30 06:00","2018","12","30","06:00","-27.2","","-30.0","","77","","","","4","","31","","","M","100.04","","","","-42","","NA"
"-79.03","69.08","ROWLEY ISLAND","2403625","2018-12-30 07:00","2018","12","30","07:00","-26.0","","-28.7","","78","","","","3","","28","","","M","100.02","","","","-40","","NA"
"-79.03","69.08","ROWLEY ISLAND","2403625","2018-12-30 08:00","2018","12","30","08:00","-25.7","","-28.4","","78","","","","1","","22","","","M","100.01","","","","-38","","NA"
"-79.03","69.08","ROWLEY ISLAND","2403625","2018-12-30 09:00","2018","12","30","09:00","-25.5","","-28.1","","78","","","","1","","24","","","M","100.00","","","","-38","","NA"
"-79.03","69.08","ROWLEY ISLAND","2403625","2018-12-30 10:00","2018","12","30","10:00","-25.0","","-27.6","","79","","","","1","","26","","","M","100.01","","","","-38","","NA"
"-79.03","69.08","ROWLEY ISLAND","2403625","2018-12-30 11:00","2018","12","30","11:00","-25.0","","-27.6","","79","","","","36","","24","","","M","99.98","","","","-38","","NA"
"-79.03","69.08","ROWLEY ISLAND","2403625","2018-12-30 12:00","2018","12","30","12:00","-23.7","","-26.2","","80","","","","1","","28","","","M","99.94","","","","-37","","NA"
"-79.03","69.08","ROWLEY ISLAND","2403625","2018-12-30 13:00","2018","12","30","13:00","-21.1","","-23.3","","82","","","","1","","24","","","M","99.91","","","","-33","","NA"
"-79.03","69.08","ROWLEY ISLAND","2403625","2018-12-30 14:00","2018","12","30","14:00","-19.8","","-21.9","","83","","","","3","","30","","","M","99.91","","","","-32","","NA"
"-79.03","69.08","ROWLEY ISLAND","2403625","2018-12-30 15:00","2018","12","30","15:00","-19.4","","-21.5","","83","","","","3","","28","","","M","99.94","","","","-31","","NA"
"-79.03","69.08","ROWLEY ISLAND","2403625","2018-12-30 16:00","2018","12","30","16:00","-18.9","","-20.9","","84","","","","4","","28","","","M","100.00","","","","-31","","NA"
"-79.03","69.08","ROWLEY ISLAND","2403625","2018-12-30 17:00","2018","12","30","17:00","-18.0","","-19.9","","85","","","","5","","31","","","M","100.04","","","","-30","","NA"
"-79.03","69.08","ROWLEY ISLAND","2403625","2018-12-30 18:00","2018","12","30","18:00","-17.8","","-19.7","","85","","","","4","","26","","","M","100.09","","","","-29","","NA"
"-79.03","69.08","ROWLEY ISLAND","2403625","2018-12-30 19:00","2018","12","30","19:00","-18.4","","-20.4","","84","","","","3","","22","","","M","100.15","","","","-29","","NA"
"-79.03","69.08","ROWLEY ISLAND","2403625","2018-12-30 20:00","2018","12","30","20:00","-18.6","","-20.6","","84","","","","2","","22","","","M","100.18","","","","-29","","NA"
"-79.03","69.08","ROWLEY ISLAND","2403625","2018-12-30 21:00","2018","12","30","21:00","-19.0","","-21.1","","84","","","","1","","21","","","M","100.22","","","","-29","","NA"
"-79.03","69.08","ROWLEY ISLAND","2403625","2018-12-30 22:00","2018","12","30","22:00","-17.6","","-19.5","","85","","","","2","","22","","","M","100.21","","","","-28","","NA"
"-79.03","69.08","ROWLEY ISLAND","2403625","2018-12-30 23:00","2018","12","30","23:00","-16.8","","-18.6","","86","","","","2","","24","","","M","100.23","","","","-27","","NA"
"-79.03","69.08","ROWLEY ISLAND","2403625","2018-12-31 00:00","2018","12","31","00:00","-15.9","","-17.6","","87","","","","36","","18","","","M","100.26","","","","-25","","NA"
"-79.03","69.08","ROWLEY ISLAND","2403625","2018-12-31 01:00","2018","12","31","01:00","-15.2","","-16.8","","87","","","","1","","21","","","M","100.29","","","","-25","","NA"
"-79.03","69.08","ROWLEY ISLAND","2403625","2018-12-31 02:00","2018","12","31","02:00","-14.8","","-16.3","","88","","","","1","","21","","","M","100.31","","","","-24","","NA"
"-79.03","69.08","ROWLEY ISLAND","2403625","2018-12-31 03:00","2018","12","31","03:00","-14.9","","-16.4","","88","","","","1","","15","","","M","100.33","","","","-23","","NA"
"-79.03","69.08","ROWLEY ISLAND","2403625","2018-12-31 04:00","2018","12","31","04:00","-15.0","","-16.6","","88","","","","2","","26","","","M","100.33","","","","-25","","NA"
"-79.03","69.08","ROWLEY ISLAND","2403625","2018-12-31 05:00","2018","12","31","05:00","-15.6","","-17.3","","87","","","","1","","21","","","M","100.34","","","","-25","","NA"
"-79.03","69.08","ROWLEY ISLAND","2403625","2018-12-31 06:00","2018","12","31","06:00","-16.6","","-18.3","","86","","","","1","","22","","","M","100.35","","","","-27","","NA"
"-79.03","69.08","ROWLEY ISLAND","2403625","2018-12-31 07:00","2018","12","31","07:00","-16.8","","-18.6","","86","","","","1","","22","","","M","100.38","","","","-27","","NA"
"-79.03","69.08","ROWLEY ISLAND","2403625","2018-12-31 08:00","2018","12","31","08:00","-17.2","","-19.1","","86","","","","36","","21","","","M","100.38","","","","-27","","NA"
"-79.03","69.08","ROWLEY ISLAND","2403625","2018-12-31 09:00","2018","12","31","09:00","-17.9","","-19.8","","85","","","","1","","17","","","M","100.42","","","","-27","","NA"
"-79.03","69.08","ROWLEY ISLAND","2403625","2018-12-31 10:00","2018","12","31","10:00","-18.1","","-20.0","","85","","","","2","","17","","","M","100.42","","","","-27","","NA"
"-79.03","69.08","ROWLEY ISLAND","2403625","2018-12-31 11:00","2018","12","31","11:00","-18.5","","-20.5","","84","","","","2","","17","","","M","100.42","","","","-28","","NA"
"-79.03","69.08","ROWLEY ISLAND","2403625","2018-12-31 12:00","2018","12","31","12:00","-17.9","","-19.8","","85","","","","7","","9","","","M","100.42","","","","-24","","NA"
"-79.03","69.08","ROWLEY ISLAND","2403625","2018-12-31 13:00","2018","12","31","13:00","-17.2","","-19.0","","86","","","","7","","9","","","M","100.41","","","","-23","","NA"
"-79.03","69.08","ROWLEY ISLAND","2403625","2018-12-31 14:00","2018","12","31","14:00","-18.7","","-20.7","","84","","","","8","","31","","","M","100.45","","","","-31","","NA"
"-79.03","69.08","ROWLEY ISLAND","2403625","2018-12-31 15:00","2018","12","31","15:00","-19.5","","-21.6","","83","","","","9","","24","","","M","100.48","","","","-31","","NA"
"-79.03","69.08","ROWLEY ISLAND","2403625","2018-12-31 16:00","2018","12","31","16:00","-18.7","","-20.7","","84","","","","9","","21","","","M","100.56","","","","-29","","NA"
"-79.03","69.08","ROWLEY ISLAND","2403625","2018-12-31 17:00","2018","12","31","17:00","-18.3","","-20.3","","85","","","","12","","18","","","M","100.62","","","","-28","","NA"
"-79.03","69.08","ROWLEY ISLAND","2403625","2018-12-31 18:00","2018","12","31","18:00","-19.0","","-21.0","","84","","","","13","","22","","","M","100.66","","","","-30","","NA"
"-79.03","69.08","ROWLEY ISLAND","2403625","2018-12-31 19:00","2018","12","31","19:00","-20.5","","-22.7","","83","","","","13","","15","","","M","100.69","","","","-30","","NA"
"-79.03","69.08","ROWLEY ISLAND","2403625","2018-12-31 20:00","2018","12","31","20:00","-22.4","","-24.7","","81","","","","14","","22","","","M","100.72","","","","-34","","NA"
"-79.03","69.08","ROWLEY ISLAND","2403625","2018-12-31 21:00","2018","12","31","21:00","-21.9","","-24.2","","82","","","","12","","15","","","M","100.70","","","","-31","","NA"
"-79.03","69.08","ROWLEY ISLAND","2403625","2018-12-31 22:00","2018","12","31","22:00","-21.1","","-23.3","","82","","","","9","","17","","","M","100.68","","","","-31","","NA"
"-79.03","69.08","ROWLEY ISLAND","2403625","2018-12-31 23:00","2018","12","31","23:00","-21.9","","-24.2","","81","","","","8","","18","","","M","100.66","","","","-32","","NA"
