"Longitude (x)","Latitude (y)","Station Name","Climate ID","Date/Time (LST)","Year","Month","Day","Time (LST)","Temp (°C)","Temp Flag","Dew Point Temp (°C)","Dew Point Temp Flag","Rel Hum (%)","Rel Hum Flag","Precip. Amount (mm)","Precip. Amount Flag","Wind Dir (10s deg)","Wind Dir Flag","Wind Spd (km/h)","Wind Spd Flag","Visibility (km)","Visibility Flag","Stn Press (kPa)","Stn Press Flag","Hmdx","Hmdx Flag","Wind Chill","Wind Chill Flag","Weather"
"-94.98","74.72","RESOLUTE CS","2403505","2018-10-01 00:00","2018","10","01","00:00","-15.1","","-16.4","","90","","0.0","","36","","18","","","","99.77","","","","-24","","NA"
"-94.98","74.72","RESOLUTE CS","2403505","2018-10-01 01:00","2018","10","01","01:00","-12.6","","-13.7","","92","","0.0","","34","","16","","","","99.73","","","","-20","","NA"
"-94.98","74.72","RESOLUTE CS","2403505","2018-10-01 02:00","2018","10","01","02:00","-11.7","","-12.7","","92","","0.0","","33","","13","","","","99.70","","","","-18","","NA"
"-94.98","74.72","RESOLUTE CS","2403505","2018-10-01 03:00","2018","10","01","03:00","-10.7","","-11.6","","93","","0.0","","31","","17","","","","99.61","","","","-18","","NA"
"-94.98","74.72","RESOLUTE CS","2403505","2018-10-01 04:00","2018","10","01","04:00","-10.4","","-11.3","","93","","0.0","","32","","11","","","","99.54","","","","-16","","NA"
"-94.98","74.72","RESOLUTE CS","2403505","2018-10-01 05:00","2018","10","01","05:00","-10.5","","-11.3","","93","","0.0","","25","","14","","","","99.49","","","","-17","","NA"
"-94.98","74.72","RESOLUTE CS","2403505","2018-10-01 06:00","2018","10","01","06:00","-10.7","","-11.6","","93","","0.0","","21","","11","","","","99.44","","","","-16","","NA"
"-94.98","74.72","RESOLUTE CS","2403505","2018-10-01 07:00","2018","10","01","07:00","-10.0","","-10.9","","94","","0.0","","18","","12","","","","99.40","","","","-16","","NA"
"-94.98","74.72","RESOLUTE CS","2403505","2018-10-01 08:00","2018","10","01","08:00","-9.1","","-9.8","","94","","0.2","","17","","12","","","","99.35","","","","-15","","NA"
"-94.98","74.72","RESOLUTE CS","2403505","2018-10-01 09:00","2018","10","01","09:00","-8.6","","-9.3","","94","","0.0","","19","","16","","","","99.36","","","","-15","","NA"
"-94.98","74.72","RESOLUTE CS","2403505","2018-10-01 10:00","2018","10","01","10:00","-8.8","","-9.5","","94","","0.0","","17","","15","","","","99.41","","","","-15","","NA"
"-94.98","74.72","RESOLUTE CS","2403505","2018-10-01 11:00","2018","10","01","11:00","-8.7","","-9.4","","94","","0.0","","17","","14","","","","99.47","","","","-15","","NA"
"-94.98","74.72","RESOLUTE CS","2403505","2018-10-01 12:00","2018","10","01","12:00","-8.7","","-9.5","","94","","0.0","","15","","16","","","","99.54","","","","-15","","NA"
"-94.98","74.72","RESOLUTE CS","2403505","2018-10-01 13:00","2018","10","01","13:00","-8.9","","-9.7","","94","","0.0","","14","","17","","","","99.66","","","","-16","","NA"
"-94.98","74.72","RESOLUTE CS","2403505","2018-10-01 14:00","2018","10","01","14:00","-8.8","","-9.6","","94","","0.0","","12","","20","","","","99.77","","","","-16","","NA"
"-94.98","74.72","RESOLUTE CS","2403505","2018-10-01 15:00","2018","10","01","15:00","-9.5","","-10.3","","94","","0.0","","10","","17","","","","99.87","","","","-17","","NA"
"-94.98","74.72","RESOLUTE CS","2403505","2018-10-01 16:00","2018","10","01","16:00","-10.4","","-11.3","","93","","0.0","","10","","13","","","","99.98","","","","-17","","NA"
"-94.98","74.72","RESOLUTE CS","2403505","2018-10-01 17:00","2018","10","01","17:00","-11.5","","-12.5","","93","","0.0","","10","","15","","","","100.09","","","","-19","","NA"
"-94.98","74.72","RESOLUTE CS","2403505","2018-10-01 18:00","2018","10","01","18:00","-11.6","","-12.6","","92","","0.0","","9","","11","","","","100.16","","","","-18","","NA"
"-94.98","74.72","RESOLUTE CS","2403505","2018-10-01 19:00","2018","10","01","19:00","-13.9","","-15.1","","91","","0.0","","9","","10","","","","100.26","","","","-20","","NA"
"-94.98","74.72","RESOLUTE CS","2403505","2018-10-01 20:00","2018","10","01","20:00","-12.7","","-13.8","","92","","0.0","","9","","11","","","","100.34","","","","-19","","NA"
"-94.98","74.72","RESOLUTE CS","2403505","2018-10-01 21:00","2018","10","01","21:00","-12.2","","-13.2","","92","","0.0","","5","","8","","","","100.42","","","","-17","","NA"
"-94.98","74.72","RESOLUTE CS","2403505","2018-10-01 22:00","2018","10","01","22:00","-11.1","","-12.0","","93","","0.0","","5","","12","","","","100.49","","","","-17","","NA"
"-94.98","74.72","RESOLUTE CS","2403505","2018-10-01 23:00","2018","10","01","23:00","-11.0","","-11.9","","93","","0.0","","6","","11","","","","100.54","","","","-17","","NA"
"-94.98","74.72","RESOLUTE CS","2403505","2018-10-02 00:00","2018","10","02","00:00","-11.2","","-12.2","","93","","0.0","","5","","12","","","","100.59","","","","-17","","NA"
"-94.98","74.72","RESOLUTE CS","2403505","2018-10-02 01:00","2018","10","02","01:00","-11.7","","-12.8","","92","","0.0","","8","","9","","","","100.64","","","","-17","","NA"
"-94.98","74.72","RESOLUTE CS","2403505","2018-10-02 02:00","2018","10","02","02:00","-12.5","","-13.6","","92","","0.0","","7","","5","","","","100.66","","","","-16","","NA"
"-94.98","74.72","RESOLUTE CS","2403505","2018-10-02 03:00","2018","10","02","03:00","-12.7","","-13.7","","92","","0.0","","5","","8","","","","100.70","","","","-18","","NA"
"-94.98","74.72","RESOLUTE CS","2403505","2018-10-02 04:00","2018","10","02","04:00","-10.2","","-11.2","","93","","0.0","","7","","20","","","","100.75","","","","-18","","NA"
"-94.98","74.72","RESOLUTE CS","2403505","2018-10-02 05:00","2018","10","02","05:00","-10.6","","-11.7","","92","","0.0","","7","","19","","","","100.80","","","","-18","","NA"
"-94.98","74.72","RESOLUTE CS","2403505","2018-10-02 06:00","2018","10","02","06:00","-10.8","","-11.9","","92","","0.0","","6","","30","","","","100.83","","","","-21","","NA"
"-94.98","74.72","RESOLUTE CS","2403505","2018-10-02 07:00","2018","10","02","07:00","-11.0","","-12.5","","89","","0.0","","6","","32","","","","100.86","","","","-21","","NA"
"-94.98","74.72","RESOLUTE CS","2403505","2018-10-02 08:00","2018","10","02","08:00","-9.4","","-11.3","","87","","0.0","","7","","33","","","","100.91","","","","-19","","NA"
"-94.98","74.72","RESOLUTE CS","2403505","2018-10-02 09:00","2018","10","02","09:00","-9.1","","-11.8","","81","","0.0","","7","","30","","","","100.94","","","","-18","","NA"
"-94.98","74.72","RESOLUTE CS","2403505","2018-10-02 10:00","2018","10","02","10:00","-8.0","","-10.4","","83","","0.0","","7","","28","","","","100.97","","","","-17","","NA"
"-94.98","74.72","RESOLUTE CS","2403505","2018-10-02 11:00","2018","10","02","11:00","-7.8","","-10.7","","80","","0.0","","5","","16","","","","101.01","","","","-14","","NA"
"-94.98","74.72","RESOLUTE CS","2403505","2018-10-02 12:00","2018","10","02","12:00","-7.8","","-10.8","","79","","0.0","","5","","17","","","","101.02","","","","-14","","NA"
"-94.98","74.72","RESOLUTE CS","2403505","2018-10-02 13:00","2018","10","02","13:00","-7.8","","-10.5","","81","","0.0","","3","","14","","","","101.04","","","","-14","","NA"
"-94.98","74.72","RESOLUTE CS","2403505","2018-10-02 14:00","2018","10","02","14:00","-10.0","","-12.9","","79","","0.0","","34","","10","","","","101.02","","","","-15","","NA"
"-94.98","74.72","RESOLUTE CS","2403505","2018-10-02 15:00","2018","10","02","15:00","-11.2","","-14.0","","80","","0.0","","34","","8","","","","101.01","","","","-16","","NA"
"-94.98","74.72","RESOLUTE CS","2403505","2018-10-02 16:00","2018","10","02","16:00","-9.2","","-11.1","","86","","0.0","","6","","40","","","","100.97","","","","-20","","NA"
"-94.98","74.72","RESOLUTE CS","2403505","2018-10-02 17:00","2018","10","02","17:00","-7.9","","-9.6","","87","","0.0","","6","","31","","","","101.04","","","","-17","","NA"
"-94.98","74.72","RESOLUTE CS","2403505","2018-10-02 18:00","2018","10","02","18:00","-7.2","","-8.9","","88","","0.0","","5","","29","","","","101.06","","","","-16","","NA"
"-94.98","74.72","RESOLUTE CS","2403505","2018-10-02 19:00","2018","10","02","19:00","-7.2","","-9.2","","86","","0.0","","5","","27","","","","101.09","","","","-15","","NA"
"-94.98","74.72","RESOLUTE CS","2403505","2018-10-02 20:00","2018","10","02","20:00","-10.2","","-11.7","","89","","0.0","","5","","25","","","","101.09","","","","-19","","NA"
"-94.98","74.72","RESOLUTE CS","2403505","2018-10-02 21:00","2018","10","02","21:00","-12.5","","-14.0","","88","","0.0","","3","","29","","","","101.04","","","","-23","","NA"
"-94.98","74.72","RESOLUTE CS","2403505","2018-10-02 22:00","2018","10","02","22:00","-13.9","","-15.6","","87","","0.0","","31","","10","","","","101.07","","","","-20","","NA"
"-94.98","74.72","RESOLUTE CS","2403505","2018-10-02 23:00","2018","10","02","23:00","-15.2","","-17.0","","87","","0.0","","29","","11","","","","101.05","","","","-22","","NA"
"-94.98","74.72","RESOLUTE CS","2403505","2018-10-03 00:00","2018","10","03","00:00","-14.2","","-16.0","","86","","0.0","","35","","23","","","","100.97","","","","-24","","NA"
"-94.98","74.72","RESOLUTE CS","2403505","2018-10-03 01:00","2018","10","03","01:00","-10.3","","-12.9","","81","","0.0","","3","","26","","","","100.94","","","","-19","","NA"
"-94.98","74.72","RESOLUTE CS","2403505","2018-10-03 02:00","2018","10","03","02:00","-9.0","","-11.1","","85","","0.0","","5","","47","","","","100.87","","","","-20","","NA"
"-94.98","74.72","RESOLUTE CS","2403505","2018-10-03 03:00","2018","10","03","03:00","-10.7","","-12.5","","86","","0.0","","35","","16","","","","100.99","","","","-18","","NA"
"-94.98","74.72","RESOLUTE CS","2403505","2018-10-03 04:00","2018","10","03","04:00","-7.4","","-8.8","","90","","0.0","","2","","7","","","","100.98","","","","-11","","NA"
"-94.98","74.72","RESOLUTE CS","2403505","2018-10-03 05:00","2018","10","03","05:00","-7.1","","-8.6","","89","","0.0","","6","","38","","","","100.95","","","","-17","","NA"
"-94.98","74.72","RESOLUTE CS","2403505","2018-10-03 06:00","2018","10","03","06:00","-7.6","","-9.2","","88","","0.0","","6","","35","","","","101.00","","","","-17","","NA"
"-94.98","74.72","RESOLUTE CS","2403505","2018-10-03 07:00","2018","10","03","07:00","-7.7","","-9.1","","90","","0.0","","7","","36","","","","100.99","","","","-17","","NA"
"-94.98","74.72","RESOLUTE CS","2403505","2018-10-03 08:00","2018","10","03","08:00","-7.6","","-9.1","","89","","0.0","","7","","26","","","","101.03","","","","-16","","NA"
"-94.98","74.72","RESOLUTE CS","2403505","2018-10-03 09:00","2018","10","03","09:00","-7.1","","-8.8","","88","","0.0","","6","","23","","","","101.07","","","","-15","","NA"
"-94.98","74.72","RESOLUTE CS","2403505","2018-10-03 10:00","2018","10","03","10:00","-6.8","","-8.7","","86","","0.0","","5","","32","","","","101.10","","","","-16","","NA"
"-94.98","74.72","RESOLUTE CS","2403505","2018-10-03 11:00","2018","10","03","11:00","-6.4","","-7.9","","89","","0.0","","6","","30","","","","101.11","","","","-15","","NA"
"-94.98","74.72","RESOLUTE CS","2403505","2018-10-03 12:00","2018","10","03","12:00","-7.1","","-8.7","","88","","0.0","","6","","30","","","","101.08","","","","-16","","NA"
"-94.98","74.72","RESOLUTE CS","2403505","2018-10-03 13:00","2018","10","03","13:00","-7.0","","-8.6","","89","","0.0","","6","","30","","","","101.11","","","","-16","","NA"
"-94.98","74.72","RESOLUTE CS","2403505","2018-10-03 14:00","2018","10","03","14:00","-7.2","","-8.3","","92","","0.0","","6","","29","","","","101.12","","","","-16","","NA"
"-94.98","74.72","RESOLUTE CS","2403505","2018-10-03 15:00","2018","10","03","15:00","-6.9","","-8.2","","91","","0.0","","5","","28","","","","101.12","","","","-15","","NA"
"-94.98","74.72","RESOLUTE CS","2403505","2018-10-03 16:00","2018","10","03","16:00","-7.4","","-8.5","","92","","0.0","","5","","30","","","","101.13","","","","-16","","NA"
"-94.98","74.72","RESOLUTE CS","2403505","2018-10-03 17:00","2018","10","03","17:00","-7.8","","-8.9","","91","","0.0","","6","","29","","","","101.15","","","","-17","","NA"
"-94.98","74.72","RESOLUTE CS","2403505","2018-10-03 18:00","2018","10","03","18:00","-8.9","","-10.6","","87","","0.0","","5","","32","","","","101.15","","","","-18","","NA"
"-94.98","74.72","RESOLUTE CS","2403505","2018-10-03 19:00","2018","10","03","19:00","-9.9","","-11.3","","89","","0.0","","7","","28","","","","101.15","","","","-19","","NA"
"-94.98","74.72","RESOLUTE CS","2403505","2018-10-03 20:00","2018","10","03","20:00","-9.1","","-10.4","","90","","0.0","","7","","22","","","","101.15","","","","-17","","NA"
"-94.98","74.72","RESOLUTE CS","2403505","2018-10-03 21:00","2018","10","03","21:00","-10.1","","-11.4","","90","","0.0","","8","","9","","","","101.15","","","","-15","","NA"
"-94.98","74.72","RESOLUTE CS","2403505","2018-10-03 22:00","2018","10","03","22:00","-9.3","","-10.5","","91","","0.0","","30","","3","","","","101.17","","","","-11","","NA"
"-94.98","74.72","RESOLUTE CS","2403505","2018-10-03 23:00","2018","10","03","23:00","-9.1","","-9.9","","94","","0.0","","13","","1","","","","101.16","","","","-10","","NA"
"-94.98","74.72","RESOLUTE CS","2403505","2018-10-04 00:00","2018","10","04","00:00","-9.4","","-10.1","","95","","0.0","","29","","3","","","","101.14","","","","-11","","NA"
"-94.98","74.72","RESOLUTE CS","2403505","2018-10-04 01:00","2018","10","04","01:00","-9.9","","-10.8","","94","","0.0","","3","","3","","","","101.17","","","","-12","","NA"
"-94.98","74.72","RESOLUTE CS","2403505","2018-10-04 02:00","2018","10","04","02:00","-8.9","","-9.6","","94","","0.0","","","","0","","","","101.18","","","","","","NA"
"-94.98","74.72","RESOLUTE CS","2403505","2018-10-04 03:00","2018","10","04","03:00","-8.3","","-9.0","","95","","0.0","","2","","3","","","","101.16","","","","-10","","NA"
"-94.98","74.72","RESOLUTE CS","2403505","2018-10-04 04:00","2018","10","04","04:00","-7.9","","-8.6","","95","","0.0","","36","","5","","","","101.17","","","","-11","","NA"
"-94.98","74.72","RESOLUTE CS","2403505","2018-10-04 05:00","2018","10","04","05:00","-7.9","","-8.6","","95","","0.0","","3","","5","","","","101.21","","","","-11","","NA"
"-94.98","74.72","RESOLUTE CS","2403505","2018-10-04 06:00","2018","10","04","06:00","-7.5","","-8.1","","95","","0.2","","11","","6","","","","101.23","","","","-11","","NA"
"-94.98","74.72","RESOLUTE CS","2403505","2018-10-04 07:00","2018","10","04","07:00","-7.0","","-7.8","","94","","0.0","","13","","6","","","","101.26","","","","-10","","NA"
"-94.98","74.72","RESOLUTE CS","2403505","2018-10-04 08:00","2018","10","04","08:00","-6.7","","-7.6","","93","","0.0","","14","","10","","","","101.27","","","","-11","","NA"
"-94.98","74.72","RESOLUTE CS","2403505","2018-10-04 09:00","2018","10","04","09:00","-6.0","","-7.5","","89","","0.0","","10","","6","","","","101.26","","","","-9","","NA"
"-94.98","74.72","RESOLUTE CS","2403505","2018-10-04 10:00","2018","10","04","10:00","-5.8","","-7.7","","86","","0.0","","14","","8","","","","101.29","","","","-10","","NA"
"-94.98","74.72","RESOLUTE CS","2403505","2018-10-04 11:00","2018","10","04","11:00","-5.2","","-7.7","","83","","0.0","","13","","12","","","","101.30","","","","-10","","NA"
"-94.98","74.72","RESOLUTE CS","2403505","2018-10-04 12:00","2018","10","04","12:00","-5.0","","-7.6","","82","","0.0","","12","","14","","","","101.33","","","","-10","","NA"
"-94.98","74.72","RESOLUTE CS","2403505","2018-10-04 13:00","2018","10","04","13:00","-4.7","","-7.7","","79","","0.0","","12","","11","","","","101.36","","","","-9","","NA"
"-94.98","74.72","RESOLUTE CS","2403505","2018-10-04 14:00","2018","10","04","14:00","-4.5","","-7.7","","78","","0.0","","12","","15","","","","101.38","","","","-10","","NA"
"-94.98","74.72","RESOLUTE CS","2403505","2018-10-04 15:00","2018","10","04","15:00","-4.6","","-7.7","","79","","0.0","","11","","20","","","","101.40","","","","-11","","NA"
"-94.98","74.72","RESOLUTE CS","2403505","2018-10-04 16:00","2018","10","04","16:00","-6.1","","-8.8","","81","","0.0","","10","","15","","","","101.44","","","","-12","","NA"
"-94.98","74.72","RESOLUTE CS","2403505","2018-10-04 17:00","2018","10","04","17:00","-5.0","","-7.9","","80","","0.0","","11","","17","","","","101.47","","","","-11","","NA"
"-94.98","74.72","RESOLUTE CS","2403505","2018-10-04 18:00","2018","10","04","18:00","-6.9","","-9.0","","85","","0.0","","8","","19","","","","101.54","","","","-14","","NA"
"-94.98","74.72","RESOLUTE CS","2403505","2018-10-04 19:00","2018","10","04","19:00","-4.6","","-7.4","","81","","0.0","","10","","15","","","","101.56","","","","-10","","NA"
"-94.98","74.72","RESOLUTE CS","2403505","2018-10-04 20:00","2018","10","04","20:00","-4.8","","-7.4","","82","","0.0","","9","","16","","","","101.58","","","","-11","","NA"
"-94.98","74.72","RESOLUTE CS","2403505","2018-10-04 21:00","2018","10","04","21:00","-6.3","","-8.0","","88","","0.0","","7","","20","","","","101.63","","","","-13","","NA"
"-94.98","74.72","RESOLUTE CS","2403505","2018-10-04 22:00","2018","10","04","22:00","-6.9","","-8.6","","88","","0.0","","8","","21","","","","101.65","","","","-14","","NA"
"-94.98","74.72","RESOLUTE CS","2403505","2018-10-04 23:00","2018","10","04","23:00","-6.7","","-8.4","","87","","0.0","","7","","17","","","","101.68","","","","-13","","NA"
"-94.98","74.72","RESOLUTE CS","2403505","2018-10-05 00:00","2018","10","05","00:00","-6.2","","-8.3","","85","","0.0","","6","","12","","","","101.68","","","","-11","","NA"
"-94.98","74.72","RESOLUTE CS","2403505","2018-10-05 01:00","2018","10","05","01:00","-7.4","","-9.1","","87","","0.0","","3","","25","","","","101.68","","","","-15","","NA"
"-94.98","74.72","RESOLUTE CS","2403505","2018-10-05 02:00","2018","10","05","02:00","-8.3","","-9.8","","89","","0.0","","3","","16","","","","101.71","","","","-15","","NA"
"-94.98","74.72","RESOLUTE CS","2403505","2018-10-05 03:00","2018","10","05","03:00","-9.0","","-9.6","","96","","0.0","","6","","13","","","","101.71","","","","-15","","NA"
"-94.98","74.72","RESOLUTE CS","2403505","2018-10-05 04:00","2018","10","05","04:00","-10.3","","-11.5","","91","","0.0","","6","","11","","","","101.70","","","","-16","","NA"
"-94.98","74.72","RESOLUTE CS","2403505","2018-10-05 05:00","2018","10","05","05:00","-12.3","","-13.5","","91","","0.0","","32","","6","","","","101.69","","","","-16","","NA"
"-94.98","74.72","RESOLUTE CS","2403505","2018-10-05 06:00","2018","10","05","06:00","-11.7","","-13.2","","89","","0.0","","4","","27","","","","101.62","","","","-21","","NA"
"-94.98","74.72","RESOLUTE CS","2403505","2018-10-05 07:00","2018","10","05","07:00","-12.4","","-14.1","","87","","0.0","","3","","26","","","","101.61","","","","-22","","NA"
"-94.98","74.72","RESOLUTE CS","2403505","2018-10-05 08:00","2018","10","05","08:00","-12.1","","-13.9","","86","","0.0","","4","","31","","","","101.59","","","","-22","","NA"
"-94.98","74.72","RESOLUTE CS","2403505","2018-10-05 09:00","2018","10","05","09:00","-11.3","","-13.2","","86","","0.0","","3","","33","","","","101.55","","","","-22","","NA"
"-94.98","74.72","RESOLUTE CS","2403505","2018-10-05 10:00","2018","10","05","10:00","-10.5","","-12.7","","84","","0.0","","1","","22","","","","101.53","","","","-19","","NA"
"-94.98","74.72","RESOLUTE CS","2403505","2018-10-05 11:00","2018","10","05","11:00","-9.8","","-11.4","","88","","0.0","","35","","12","","","","101.48","","","","-16","","NA"
"-94.98","74.72","RESOLUTE CS","2403505","2018-10-05 12:00","2018","10","05","12:00","-8.4","","-10.2","","87","","0.0","","34","","16","","","","101.43","","","","-15","","NA"
"-94.98","74.72","RESOLUTE CS","2403505","2018-10-05 13:00","2018","10","05","13:00","-9.0","","-10.4","","90","","0.0","","32","","19","","","","101.37","","","","-16","","NA"
"-94.98","74.72","RESOLUTE CS","2403505","2018-10-05 14:00","2018","10","05","14:00","-10.5","","-12.7","","84","","0.0","","33","","19","","","","101.33","","","","-18","","NA"
"-94.98","74.72","RESOLUTE CS","2403505","2018-10-05 15:00","2018","10","05","15:00","-11.8","","-14.0","","84","","0.0","","34","","19","","","","101.27","","","","-20","","NA"
"-94.98","74.72","RESOLUTE CS","2403505","2018-10-05 16:00","2018","10","05","16:00","-13.0","","-14.5","","89","","0.0","","32","","20","","","","101.21","","","","-22","","NA"
"-94.98","74.72","RESOLUTE CS","2403505","2018-10-05 17:00","2018","10","05","17:00","-13.2","","-14.3","","91","","0.0","","33","","19","","","","101.15","","","","-22","","NA"
"-94.98","74.72","RESOLUTE CS","2403505","2018-10-05 18:00","2018","10","05","18:00","-13.8","","-15.1","","91","","0.0","","34","","24","","","","101.05","","","","-23","","NA"
"-94.98","74.72","RESOLUTE CS","2403505","2018-10-05 19:00","2018","10","05","19:00","-13.8","","-15.0","","91","","0.0","","34","","21","","","","100.98","","","","-23","","NA"
"-94.98","74.72","RESOLUTE CS","2403505","2018-10-05 20:00","2018","10","05","20:00","-13.3","","-14.5","","91","","0.0","","34","","16","","","","100.94","","","","-21","","NA"
"-94.98","74.72","RESOLUTE CS","2403505","2018-10-05 21:00","2018","10","05","21:00","-12.5","","-13.5","","92","","0.0","","33","","18","","","","100.84","","","","-21","","NA"
"-94.98","74.72","RESOLUTE CS","2403505","2018-10-05 22:00","2018","10","05","22:00","-10.8","","-11.7","","93","","0.0","","32","","25","","","","100.71","","","","-20","","NA"
"-94.98","74.72","RESOLUTE CS","2403505","2018-10-05 23:00","2018","10","05","23:00","-10.3","","-11.2","","93","","0.0","","31","","33","","","","100.63","","","","-20","","NA"
"-94.98","74.72","RESOLUTE CS","2403505","2018-10-06 00:00","2018","10","06","00:00","-10.0","","-10.9","","93","","0.0","","32","","35","","","","100.56","","","","-20","","NA"
"-94.98","74.72","RESOLUTE CS","2403505","2018-10-06 01:00","2018","10","06","01:00","-9.7","","-10.6","","93","","0.0","","31","","37","","","","100.45","","","","-20","","NA"
"-94.98","74.72","RESOLUTE CS","2403505","2018-10-06 02:00","2018","10","06","02:00","-9.5","","-10.3","","93","","0.0","","32","","42","","","","100.34","","","","-20","","NA"
"-94.98","74.72","RESOLUTE CS","2403505","2018-10-06 03:00","2018","10","06","03:00","-9.2","","-10.1","","93","","0.0","","32","","28","","","","100.27","","","","-18","","NA"
"-94.98","74.72","RESOLUTE CS","2403505","2018-10-06 04:00","2018","10","06","04:00","-8.8","","-9.7","","94","","0.0","","32","","38","","","","100.19","","","","-19","","NA"
"-94.98","74.72","RESOLUTE CS","2403505","2018-10-06 05:00","2018","10","06","05:00","-8.8","","-9.7","","93","","0.0","","32","","39","","","","100.12","","","","-19","","NA"
"-94.98","74.72","RESOLUTE CS","2403505","2018-10-06 06:00","2018","10","06","06:00","-9.6","","-10.6","","92","","0.0","","33","","31","","","","100.12","","","","-19","","NA"
"-94.98","74.72","RESOLUTE CS","2403505","2018-10-06 07:00","2018","10","06","07:00","-10.2","","-11.3","","91","","0.0","","34","","30","","","","100.02","","","","-20","","NA"
"-94.98","74.72","RESOLUTE CS","2403505","2018-10-06 08:00","2018","10","06","08:00","-9.6","","-10.6","","92","","0.0","","34","","35","","","","99.98","","","","-20","","NA"
"-94.98","74.72","RESOLUTE CS","2403505","2018-10-06 09:00","2018","10","06","09:00","-9.0","","-10.1","","92","","0.0","","34","","26","","","","99.93","","","","-18","","NA"
"-94.98","74.72","RESOLUTE CS","2403505","2018-10-06 10:00","2018","10","06","10:00","-8.9","","-10.2","","90","","0.0","","34","","28","","","","99.90","","","","-18","","NA"
"-94.98","74.72","RESOLUTE CS","2403505","2018-10-06 11:00","2018","10","06","11:00","-8.5","","-10.2","","87","","0.0","","34","","33","","","","99.84","","","","-18","","NA"
"-94.98","74.72","RESOLUTE CS","2403505","2018-10-06 12:00","2018","10","06","12:00","-7.8","","-10.1","","83","","0.0","","35","","28","","","","99.87","","","","-16","","NA"
"-94.98","74.72","RESOLUTE CS","2403505","2018-10-06 13:00","2018","10","06","13:00","-7.4","","-9.3","","86","","0.0","","34","","22","","","","99.83","","","","-15","","NA"
"-94.98","74.72","RESOLUTE CS","2403505","2018-10-06 14:00","2018","10","06","14:00","-7.2","","-8.5","","90","","0.0","","35","","35","","","","99.74","","","","-16","","NA"
"-94.98","74.72","RESOLUTE CS","2403505","2018-10-06 15:00","2018","10","06","15:00","-7.0","","-8.2","","91","","0.0","","34","","36","","","","99.71","","","","-16","","NA"
"-94.98","74.72","RESOLUTE CS","2403505","2018-10-06 16:00","2018","10","06","16:00","-6.5","","-8.0","","89","","0.0","","35","","31","","","","99.72","","","","-15","","NA"
"-94.98","74.72","RESOLUTE CS","2403505","2018-10-06 17:00","2018","10","06","17:00","-6.9","","-7.9","","92","","0.0","","34","","28","","","","99.62","","","","-15","","NA"
"-94.98","74.72","RESOLUTE CS","2403505","2018-10-06 18:00","2018","10","06","18:00","-6.9","","-7.8","","93","","0.0","","32","","26","","","","99.67","","","","-15","","NA"
"-94.98","74.72","RESOLUTE CS","2403505","2018-10-06 19:00","2018","10","06","19:00","-7.1","","-7.9","","94","","0.0","","30","","11","","","","99.60","","","","-12","","NA"
"-94.98","74.72","RESOLUTE CS","2403505","2018-10-06 20:00","2018","10","06","20:00","-7.2","","-8.4","","91","","0.0","","33","","34","","","","99.43","","","","-16","","NA"
"-94.98","74.72","RESOLUTE CS","2403505","2018-10-06 21:00","2018","10","06","21:00","-6.7","","-7.7","","93","","0.0","","33","","26","","","","99.32","","","","-15","","NA"
"-94.98","74.72","RESOLUTE CS","2403505","2018-10-06 22:00","2018","10","06","22:00","-6.0","","-7.1","","92","","0.0","","33","","33","","","","99.28","","","","-15","","NA"
"-94.98","74.72","RESOLUTE CS","2403505","2018-10-06 23:00","2018","10","06","23:00","-6.5","","-7.7","","91","","0.0","","34","","34","","","","99.18","","","","-15","","NA"
"-94.98","74.72","RESOLUTE CS","2403505","2018-10-07 00:00","2018","10","07","00:00","-7.5","","-8.6","","92","","0.0","","35","","18","","","","99.25","","","","-14","","NA"
"-94.98","74.72","RESOLUTE CS","2403505","2018-10-07 01:00","2018","10","07","01:00","-7.4","","-8.7","","91","","0.0","","36","","36","","","","99.18","","","","-17","","NA"
"-94.98","74.72","RESOLUTE CS","2403505","2018-10-07 02:00","2018","10","07","02:00","-8.9","","-10.2","","91","","0.0","","36","","24","","","","99.28","","","","-17","","NA"
"-94.98","74.72","RESOLUTE CS","2403505","2018-10-07 03:00","2018","10","07","03:00","-9.0","","-10.6","","88","","0.0","","36","","36","","","","99.33","","","","-19","","NA"
"-94.98","74.72","RESOLUTE CS","2403505","2018-10-07 04:00","2018","10","07","04:00","-10.3","","-11.8","","89","","0.0","","36","","21","","","","99.47","","","","-18","","NA"
"-94.98","74.72","RESOLUTE CS","2403505","2018-10-07 05:00","2018","10","07","05:00","-9.8","","-11.1","","90","","0.0","","36","","22","","","","99.49","","","","-18","","NA"
"-94.98","74.72","RESOLUTE CS","2403505","2018-10-07 06:00","2018","10","07","06:00","-10.5","","-12.1","","89","","0.0","","34","","26","","","","99.52","","","","-20","","NA"
"-94.98","74.72","RESOLUTE CS","2403505","2018-10-07 07:00","2018","10","07","07:00","-12.0","","-13.3","","90","","0.0","","32","","20","","","","99.59","","","","-20","","NA"
"-94.98","74.72","RESOLUTE CS","2403505","2018-10-07 08:00","2018","10","07","08:00","-11.7","","-12.8","","92","","0.0","","33","","18","","","","99.58","","","","-20","","NA"
"-94.98","74.72","RESOLUTE CS","2403505","2018-10-07 09:00","2018","10","07","09:00","-11.3","","-12.5","","91","","0.0","","33","","15","","","","99.59","","","","-18","","NA"
"-94.98","74.72","RESOLUTE CS","2403505","2018-10-07 10:00","2018","10","07","10:00","-10.6","","-11.8","","91","","0.0","","29","","10","","","","99.59","","","","-16","","NA"
"-94.98","74.72","RESOLUTE CS","2403505","2018-10-07 11:00","2018","10","07","11:00","-9.8","","-11.5","","88","","0.0","","35","","29","","","","99.59","","","","-19","","NA"
"-94.98","74.72","RESOLUTE CS","2403505","2018-10-07 12:00","2018","10","07","12:00","-9.5","","-11.4","","86","","0.0","","33","","20","","","","99.59","","","","-17","","NA"
"-94.98","74.72","RESOLUTE CS","2403505","2018-10-07 13:00","2018","10","07","13:00","-8.9","","-10.9","","85","","0.0","","34","","20","","","","99.56","","","","-16","","NA"
"-94.98","74.72","RESOLUTE CS","2403505","2018-10-07 14:00","2018","10","07","14:00","-8.7","","-10.7","","85","","0.0","","35","","28","","","","99.57","","","","-18","","NA"
"-94.98","74.72","RESOLUTE CS","2403505","2018-10-07 15:00","2018","10","07","15:00","-8.8","","-10.6","","87","","0.0","","36","","24","","","","99.60","","","","-17","","NA"
"-94.98","74.72","RESOLUTE CS","2403505","2018-10-07 16:00","2018","10","07","16:00","-9.7","","-11.0","","91","","0.0","","2","","42","","","","99.55","","","","-21","","NA"
"-94.98","74.72","RESOLUTE CS","2403505","2018-10-07 17:00","2018","10","07","17:00","-9.4","","-10.6","","91","","0.0","","1","","34","","","","99.56","","","","-19","","NA"
"-94.98","74.72","RESOLUTE CS","2403505","2018-10-07 18:00","2018","10","07","18:00","-9.2","","-10.5","","90","","0.0","","1","","29","","","","99.58","","","","-18","","NA"
"-94.98","74.72","RESOLUTE CS","2403505","2018-10-07 19:00","2018","10","07","19:00","-8.1","","-9.4","","90","","0.0","","36","","39","","","","99.55","","","","-18","","NA"
"-94.98","74.72","RESOLUTE CS","2403505","2018-10-07 20:00","2018","10","07","20:00","-7.9","","-9.2","","91","","0.0","","36","","36","","","","99.60","","","","-18","","NA"
"-94.98","74.72","RESOLUTE CS","2403505","2018-10-07 21:00","2018","10","07","21:00","-7.9","","-9.0","","92","","0.0","","36","","30","","","","99.66","","","","-17","","NA"
"-94.98","74.72","RESOLUTE CS","2403505","2018-10-07 22:00","2018","10","07","22:00","-8.1","","-9.4","","91","","0.0","","36","","30","","","","99.67","","","","-17","","NA"
"-94.98","74.72","RESOLUTE CS","2403505","2018-10-07 23:00","2018","10","07","23:00","-8.1","","-9.1","","92","","0.0","","1","","37","","","","99.66","","","","-18","","NA"
"-94.98","74.72","RESOLUTE CS","2403505","2018-10-08 00:00","2018","10","08","00:00","-8.2","","-9.5","","90","","0.0","","36","","35","","","","99.74","","","","-18","","NA"
"-94.98","74.72","RESOLUTE CS","2403505","2018-10-08 01:00","2018","10","08","01:00","-8.5","","-9.7","","91","","0.0","","35","","32","","","","99.79","","","","-18","","NA"
"-94.98","74.72","RESOLUTE CS","2403505","2018-10-08 02:00","2018","10","08","02:00","-8.3","","-9.5","","91","","0.0","","1","","43","","","","99.77","","","","-19","","NA"
"-94.98","74.72","RESOLUTE CS","2403505","2018-10-08 03:00","2018","10","08","03:00","-8.1","","-9.3","","91","","0.0","","36","","38","","","","99.85","","","","-18","","NA"
"-94.98","74.72","RESOLUTE CS","2403505","2018-10-08 04:00","2018","10","08","04:00","-8.0","","-9.4","","90","","0.0","","36","","38","","","","99.90","","","","-18","","NA"
"-94.98","74.72","RESOLUTE CS","2403505","2018-10-08 05:00","2018","10","08","05:00","-8.8","","-10.2","","90","","0.0","","36","","35","","","","99.94","","","","-19","","NA"
"-94.98","74.72","RESOLUTE CS","2403505","2018-10-08 06:00","2018","10","08","06:00","-9.2","","-10.5","","90","","0.0","","1","","35","","","","99.99","","","","-19","","NA"
"-94.98","74.72","RESOLUTE CS","2403505","2018-10-08 07:00","2018","10","08","07:00","-10.1","","-11.4","","90","","0.0","","2","","35","","","","100.05","","","","-20","","NA"
"-94.98","74.72","RESOLUTE CS","2403505","2018-10-08 08:00","2018","10","08","08:00","-10.9","","-12.1","","91","","0.0","","2","","37","","","","100.08","","","","-22","","NA"
"-94.98","74.72","RESOLUTE CS","2403505","2018-10-08 09:00","2018","10","08","09:00","-10.4","","-12.0","","88","","0.0","","2","","39","","","","100.13","","","","-21","","NA"
"-94.98","74.72","RESOLUTE CS","2403505","2018-10-08 10:00","2018","10","08","10:00","-10.4","","-12.1","","87","","0.0","","3","","36","","","","100.16","","","","-21","","NA"
"-94.98","74.72","RESOLUTE CS","2403505","2018-10-08 11:00","2018","10","08","11:00","-9.9","","-11.8","","86","","0.0","","2","","26","","","","100.19","","","","-19","","NA"
"-94.98","74.72","RESOLUTE CS","2403505","2018-10-08 12:00","2018","10","08","12:00","-9.1","","-11.3","","84","","0.0","","1","","26","","","","100.20","","","","-18","","NA"
"-94.98","74.72","RESOLUTE CS","2403505","2018-10-08 13:00","2018","10","08","13:00","-8.0","","-10.5","","82","","0.0","","32","","19","","","","100.31","","","","-15","","NA"
"-94.98","74.72","RESOLUTE CS","2403505","2018-10-08 14:00","2018","10","08","14:00","-9.4","","-11.8","","83","","0.0","","33","","14","","","","100.33","","","","-16","","NA"
"-94.98","74.72","RESOLUTE CS","2403505","2018-10-08 15:00","2018","10","08","15:00","-9.6","","-11.1","","89","","0.0","","33","","22","","","","100.35","","","","-18","","NA"
"-94.98","74.72","RESOLUTE CS","2403505","2018-10-08 16:00","2018","10","08","16:00","-10.0","","-11.3","","90","","0.0","","33","","21","","","","100.39","","","","-18","","NA"
"-94.98","74.72","RESOLUTE CS","2403505","2018-10-08 17:00","2018","10","08","17:00","-9.4","","-10.5","","92","","0.0","","34","","16","","","","100.35","","","","-16","","NA"
"-94.98","74.72","RESOLUTE CS","2403505","2018-10-08 18:00","2018","10","08","18:00","-8.6","","-9.3","","94","","0.0","","34","","14","","","","100.35","","","","-15","","NA"
"-94.98","74.72","RESOLUTE CS","2403505","2018-10-08 19:00","2018","10","08","19:00","-8.4","","-9.2","","94","","0.0","","33","","16","","","","100.30","","","","-15","","NA"
"-94.98","74.72","RESOLUTE CS","2403505","2018-10-08 20:00","2018","10","08","20:00","-8.4","","-9.2","","94","","0.0","","34","","16","","","","100.22","","","","-15","","NA"
"-94.98","74.72","RESOLUTE CS","2403505","2018-10-08 21:00","2018","10","08","21:00","-9.1","","-10.1","","92","","0.0","","33","","18","","","","100.19","","","","-16","","NA"
"-94.98","74.72","RESOLUTE CS","2403505","2018-10-08 22:00","2018","10","08","22:00","-9.8","","-10.9","","91","","0.0","","34","","16","","","","100.16","","","","-17","","NA"
"-94.98","74.72","RESOLUTE CS","2403505","2018-10-08 23:00","2018","10","08","23:00","-9.6","","-10.7","","92","","0.0","","35","","19","","","","100.11","","","","-17","","NA"
"-94.98","74.72","RESOLUTE CS","2403505","2018-10-09 00:00","2018","10","09","00:00","-9.8","","-11.1","","90","","0.0","","35","","21","","","","100.10","","","","-18","","NA"
"-94.98","74.72","RESOLUTE CS","2403505","2018-10-09 01:00","2018","10","09","01:00","-9.8","","-11.0","","91","","0.0","","33","","28","","","","100.03","","","","-19","","NA"
"-94.98","74.72","RESOLUTE CS","2403505","2018-10-09 02:00","2018","10","09","02:00","-10.0","","-11.4","","89","","0.0","","32","","28","","","","100.04","","","","-19","","NA"
"-94.98","74.72","RESOLUTE CS","2403505","2018-10-09 03:00","2018","10","09","03:00","-10.1","","-11.7","","89","","0.0","","34","","20","","","","100.05","","","","-18","","NA"
"-94.98","74.72","RESOLUTE CS","2403505","2018-10-09 04:00","2018","10","09","04:00","-10.5","","-12.1","","88","","0.0","","32","","25","","","","100.04","","","","-19","","NA"
"-94.98","74.72","RESOLUTE CS","2403505","2018-10-09 05:00","2018","10","09","05:00","-11.1","","-13.0","","86","","0.0","","32","","25","","","","100.02","","","","-20","","NA"
"-94.98","74.72","RESOLUTE CS","2403505","2018-10-09 06:00","2018","10","09","06:00","-11.4","","-12.9","","89","","0.0","","32","","24","","","","100.02","","","","-20","","NA"
"-94.98","74.72","RESOLUTE CS","2403505","2018-10-09 07:00","2018","10","09","07:00","-12.1","","-13.5","","89","","0.0","","33","","24","","","","100.02","","","","-21","","NA"
"-94.98","74.72","RESOLUTE CS","2403505","2018-10-09 08:00","2018","10","09","08:00","-12.3","","-13.6","","90","","0.0","","33","","23","","","","100.02","","","","-21","","NA"
"-94.98","74.72","RESOLUTE CS","2403505","2018-10-09 09:00","2018","10","09","09:00","-12.4","","-13.7","","90","","0.0","","32","","22","","","","100.00","","","","-21","","NA"
"-94.98","74.72","RESOLUTE CS","2403505","2018-10-09 10:00","2018","10","09","10:00","-12.4","","-13.8","","89","","0.0","","32","","27","","","","99.97","","","","-22","","NA"
"-94.98","74.72","RESOLUTE CS","2403505","2018-10-09 11:00","2018","10","09","11:00","-12.6","","-14.3","","87","","0.0","","32","","27","","","","99.98","","","","-22","","NA"
"-94.98","74.72","RESOLUTE CS","2403505","2018-10-09 12:00","2018","10","09","12:00","-12.6","","-14.2","","87","","0.0","","32","","24","","","","99.98","","","","-22","","NA"
"-94.98","74.72","RESOLUTE CS","2403505","2018-10-09 13:00","2018","10","09","13:00","-13.4","","-15.2","","87","","0.0","","34","","17","","","","99.99","","","","-21","","NA"
"-94.98","74.72","RESOLUTE CS","2403505","2018-10-09 14:00","2018","10","09","14:00","-12.6","","-14.2","","88","","0.0","","34","","16","","","","99.97","","","","-20","","NA"
"-94.98","74.72","RESOLUTE CS","2403505","2018-10-09 15:00","2018","10","09","15:00","-12.3","","-13.7","","89","","0.0","","34","","22","","","","99.95","","","","-21","","NA"
"-94.98","74.72","RESOLUTE CS","2403505","2018-10-09 16:00","2018","10","09","16:00","-11.3","","-12.4","","91","","0.0","","33","","19","","","","99.96","","","","-19","","NA"
"-94.98","74.72","RESOLUTE CS","2403505","2018-10-09 17:00","2018","10","09","17:00","-10.3","","-11.0","","95","","0.0","","35","","12","","","","99.93","","","","-16","","NA"
"-94.98","74.72","RESOLUTE CS","2403505","2018-10-09 18:00","2018","10","09","18:00","-9.8","","-10.6","","94","","0.0","","33","","6","","","","99.90","","","","-13","","NA"
"-94.98","74.72","RESOLUTE CS","2403505","2018-10-09 19:00","2018","10","09","19:00","-9.4","","-10.6","","91","","0.0","","32","","23","","","","99.87","","","","-18","","NA"
"-94.98","74.72","RESOLUTE CS","2403505","2018-10-09 20:00","2018","10","09","20:00","-8.9","","-9.7","","95","","0.0","","32","","17","","","","99.84","","","","-16","","NA"
"-94.98","74.72","RESOLUTE CS","2403505","2018-10-09 21:00","2018","10","09","21:00","-8.6","","-10.0","","90","","0.0","","32","","21","","","","99.81","","","","-16","","NA"
"-94.98","74.72","RESOLUTE CS","2403505","2018-10-09 22:00","2018","10","09","22:00","-8.2","","-9.1","","94","","0.0","","32","","21","","","","99.78","","","","-16","","NA"
"-94.98","74.72","RESOLUTE CS","2403505","2018-10-09 23:00","2018","10","09","23:00","-7.4","","-8.2","","94","","0.0","","31","","30","","","","99.78","","","","-16","","NA"
"-94.98","74.72","RESOLUTE CS","2403505","2018-10-10 00:00","2018","10","10","00:00","-8.1","","-9.3","","91","","0.0","","32","","23","","","","99.79","","","","-16","","NA"
"-94.98","74.72","RESOLUTE CS","2403505","2018-10-10 01:00","2018","10","10","01:00","-8.1","","-9.4","","91","","0.0","","32","","24","","","","99.79","","","","-16","","NA"
"-94.98","74.72","RESOLUTE CS","2403505","2018-10-10 02:00","2018","10","10","02:00","-8.0","","-9.1","","92","","0.0","","32","","25","","","","99.81","","","","-16","","NA"
"-94.98","74.72","RESOLUTE CS","2403505","2018-10-10 03:00","2018","10","10","03:00","-8.3","","-9.3","","93","","0.0","","32","","24","","","","99.84","","","","-16","","NA"
"-94.98","74.72","RESOLUTE CS","2403505","2018-10-10 04:00","2018","10","10","04:00","-9.9","","-11.4","","88","","0.0","","32","","36","","","","99.84","","","","-20","","NA"
"-94.98","74.72","RESOLUTE CS","2403505","2018-10-10 05:00","2018","10","10","05:00","-12.0","","-13.7","","87","","0.0","","35","","26","","","","99.90","","","","-22","","NA"
"-94.98","74.72","RESOLUTE CS","2403505","2018-10-10 06:00","2018","10","10","06:00","-13.1","","-14.7","","88","","0.0","","34","","18","","","","99.97","","","","-21","","NA"
"-94.98","74.72","RESOLUTE CS","2403505","2018-10-10 07:00","2018","10","10","07:00","-13.3","","-14.8","","88","","0.0","","34","","20","","","","99.98","","","","-22","","NA"
"-94.98","74.72","RESOLUTE CS","2403505","2018-10-10 08:00","2018","10","10","08:00","-12.5","","-13.7","","91","","0.0","","32","","18","","","","100.00","","","","-21","","NA"
"-94.98","74.72","RESOLUTE CS","2403505","2018-10-10 09:00","2018","10","10","09:00","-12.1","","-13.0","","93","","0.0","","32","","16","","","","100.02","","","","-20","","NA"
"-94.98","74.72","RESOLUTE CS","2403505","2018-10-10 10:00","2018","10","10","10:00","-11.3","","-12.3","","92","","0.0","","34","","10","","","","100.01","","","","-17","","NA"
"-94.98","74.72","RESOLUTE CS","2403505","2018-10-10 11:00","2018","10","10","11:00","-9.1","","-10.1","","92","","0.0","","30","","14","","","","100.01","","","","-15","","NA"
"-94.98","74.72","RESOLUTE CS","2403505","2018-10-10 12:00","2018","10","10","12:00","-7.3","","-8.0","","95","","0.0","","29","","26","","","","99.97","","","","-15","","NA"
"-94.98","74.72","RESOLUTE CS","2403505","2018-10-10 13:00","2018","10","10","13:00","-6.8","","-7.5","","95","","0.0","","27","","35","","","","99.96","","","","-16","","NA"
"-94.98","74.72","RESOLUTE CS","2403505","2018-10-10 14:00","2018","10","10","14:00","-7.1","","-7.8","","95","","0.0","","27","","32","","","","99.93","","","","-16","","NA"
"-94.98","74.72","RESOLUTE CS","2403505","2018-10-10 15:00","2018","10","10","15:00","-6.5","","-7.1","","95","","0.0","","26","","34","","","","99.90","","","","-15","","NA"
"-94.98","74.72","RESOLUTE CS","2403505","2018-10-10 16:00","2018","10","10","16:00","-6.4","","-7.0","","96","","0.0","","27","","36","","","","99.85","","","","-16","","NA"
"-94.98","74.72","RESOLUTE CS","2403505","2018-10-10 17:00","2018","10","10","17:00","-6.1","","-6.7","","96","","0.0","","27","","35","","","","99.80","","","","-15","","NA"
"-94.98","74.72","RESOLUTE CS","2403505","2018-10-10 18:00","2018","10","10","18:00","-6.3","","-6.9","","96","","0.2","","26","","36","","","","99.74","","","","-15","","NA"
"-94.98","74.72","RESOLUTE CS","2403505","2018-10-10 19:00","2018","10","10","19:00","-6.4","","-7.0","","96","","0.0","","26","","38","","","","99.64","","","","-16","","NA"
"-94.98","74.72","RESOLUTE CS","2403505","2018-10-10 20:00","2018","10","10","20:00","-6.5","","-7.1","","96","","0.2","","25","","37","","","","99.55","","","","-16","","NA"
"-94.98","74.72","RESOLUTE CS","2403505","2018-10-10 21:00","2018","10","10","21:00","-6.9","","-7.5","","95","","0.0","","26","","35","","","","99.46","","","","-16","","NA"
"-94.98","74.72","RESOLUTE CS","2403505","2018-10-10 22:00","2018","10","10","22:00","-6.8","","-7.4","","95","","0.2","","26","","36","","","","99.37","","","","-16","","NA"
"-94.98","74.72","RESOLUTE CS","2403505","2018-10-10 23:00","2018","10","10","23:00","-6.7","","-7.4","","95","","0.3","","26","","39","","","","99.27","","","","-16","","NA"
"-94.98","74.72","RESOLUTE CS","2403505","2018-10-11 00:00","2018","10","11","00:00","-7.0","","-7.7","","95","","0.2","","26","","36","","","","99.22","","","","-16","","NA"
"-94.98","74.72","RESOLUTE CS","2403505","2018-10-11 01:00","2018","10","11","01:00","-6.9","","-7.5","","95","","0.0","","26","","39","","","","99.14","","","","-17","","NA"
"-94.98","74.72","RESOLUTE CS","2403505","2018-10-11 02:00","2018","10","11","02:00","-6.1","","-6.7","","96","","0.0","","26","","35","","","","99.08","","","","-15","","NA"
"-94.98","74.72","RESOLUTE CS","2403505","2018-10-11 03:00","2018","10","11","03:00","-5.6","","-6.1","","96","","0.0","","26","","42","","","","99.02","","","","-15","","NA"
"-94.98","74.72","RESOLUTE CS","2403505","2018-10-11 04:00","2018","10","11","04:00","-4.5","","-5.0","","97","","0.2","","27","","31","","","","99.01","","","","-12","","NA"
"-94.98","74.72","RESOLUTE CS","2403505","2018-10-11 05:00","2018","10","11","05:00","-4.0","","-4.4","","97","","0.0","","29","","23","","","","99.00","","","","-11","","NA"
"-94.98","74.72","RESOLUTE CS","2403505","2018-10-11 06:00","2018","10","11","06:00","-4.1","","-4.5","","97","","0.0","","32","","31","","","","99.04","","","","-12","","NA"
"-94.98","74.72","RESOLUTE CS","2403505","2018-10-11 07:00","2018","10","11","07:00","-4.4","","-4.8","","97","","0.0","","31","","27","","","","99.05","","","","-12","","NA"
"-94.98","74.72","RESOLUTE CS","2403505","2018-10-11 08:00","2018","10","11","08:00","-5.4","","-5.9","","96","","0.0","","32","","29","","","","99.09","","","","-13","","NA"
"-94.98","74.72","RESOLUTE CS","2403505","2018-10-11 09:00","2018","10","11","09:00","-6.0","","-6.6","","96","","0.0","","32","","25","","","","99.12","","","","-14","","NA"
"-94.98","74.72","RESOLUTE CS","2403505","2018-10-11 10:00","2018","10","11","10:00","-5.6","","-6.2","","96","","0.0","","32","","21","","","","99.14","","","","-12","","NA"
"-94.98","74.72","RESOLUTE CS","2403505","2018-10-11 11:00","2018","10","11","11:00","-5.4","","-5.9","","96","","0.0","","32","","20","","","","99.15","","","","-12","","NA"
"-94.98","74.72","RESOLUTE CS","2403505","2018-10-11 12:00","2018","10","11","12:00","-5.6","","-6.2","","96","","0.0","","32","","25","","","","99.18","","","","-13","","NA"
"-94.98","74.72","RESOLUTE CS","2403505","2018-10-11 13:00","2018","10","11","13:00","-6.3","","-6.9","","96","","0.0","","32","","20","","","","99.22","","","","-13","","NA"
"-94.98","74.72","RESOLUTE CS","2403505","2018-10-11 14:00","2018","10","11","14:00","-6.7","","-7.3","","96","","0.0","","31","","22","","","","99.23","","","","-14","","NA"
"-94.98","74.72","RESOLUTE CS","2403505","2018-10-11 15:00","2018","10","11","15:00","-7.0","","-7.6","","95","","0.0","","33","","25","","","","99.28","","","","-15","","NA"
"-94.98","74.72","RESOLUTE CS","2403505","2018-10-11 16:00","2018","10","11","16:00","-8.0","","-8.7","","95","","0.0","","33","","22","","","","99.29","","","","-16","","NA"
"-94.98","74.72","RESOLUTE CS","2403505","2018-10-11 17:00","2018","10","11","17:00","-8.9","","-9.7","","94","","0.0","","33","","15","","","","99.32","","","","-15","","NA"
"-94.98","74.72","RESOLUTE CS","2403505","2018-10-11 18:00","2018","10","11","18:00","-9.0","","-9.7","","94","","0.0","","32","","16","","","","99.36","","","","-16","","NA"
"-94.98","74.72","RESOLUTE CS","2403505","2018-10-11 19:00","2018","10","11","19:00","-9.4","","-10.3","","94","","0.0","","35","","17","","","","99.36","","","","-16","","NA"
"-94.98","74.72","RESOLUTE CS","2403505","2018-10-11 20:00","2018","10","11","20:00","-9.5","","-10.3","","94","","0.0","","35","","22","","","","99.36","","","","-18","","NA"
"-94.98","74.72","RESOLUTE CS","2403505","2018-10-11 21:00","2018","10","11","21:00","-9.3","","-10.1","","94","","0.0","","35","","19","","","","99.38","","","","-17","","NA"
"-94.98","74.72","RESOLUTE CS","2403505","2018-10-11 22:00","2018","10","11","22:00","-9.0","","-9.8","","94","","0.0","","34","","15","","","","99.40","","","","-16","","NA"
"-94.98","74.72","RESOLUTE CS","2403505","2018-10-11 23:00","2018","10","11","23:00","-8.7","","-9.4","","94","","0.0","","34","","21","","","","99.39","","","","-16","","NA"
"-94.98","74.72","RESOLUTE CS","2403505","2018-10-12 00:00","2018","10","12","00:00","-9.2","","-10.0","","94","","0.0","","34","","19","","","","99.39","","","","-17","","NA"
"-94.98","74.72","RESOLUTE CS","2403505","2018-10-12 01:00","2018","10","12","01:00","-9.2","","-10.0","","94","","0.0","","36","","22","","","","99.41","","","","-17","","NA"
"-94.98","74.72","RESOLUTE CS","2403505","2018-10-12 02:00","2018","10","12","02:00","-9.3","","-10.1","","94","","0.0","","1","","18","","","","99.43","","","","-17","","NA"
"-94.98","74.72","RESOLUTE CS","2403505","2018-10-12 03:00","2018","10","12","03:00","-9.0","","-9.8","","94","","0.0","","35","","11","","","","99.45","","","","-14","","NA"
"-94.98","74.72","RESOLUTE CS","2403505","2018-10-12 04:00","2018","10","12","04:00","-9.0","","-9.8","","94","","0.0","","34","","6","","","","99.46","","","","-12","","NA"
"-94.98","74.72","RESOLUTE CS","2403505","2018-10-12 05:00","2018","10","12","05:00","-8.8","","-9.5","","94","","0.0","","1","","4","","","","99.45","","","","-11","","NA"
"-94.98","74.72","RESOLUTE CS","2403505","2018-10-12 06:00","2018","10","12","06:00","-8.9","","-9.7","","94","","0.0","","35","","9","","","","99.46","","","","-14","","NA"
"-94.98","74.72","RESOLUTE CS","2403505","2018-10-12 07:00","2018","10","12","07:00","-9.0","","-9.8","","94","","0.0","","36","","12","","","","99.44","","","","-15","","NA"
"-94.98","74.72","RESOLUTE CS","2403505","2018-10-12 08:00","2018","10","12","08:00","-9.1","","-9.9","","94","","0.0","","33","","10","","","","99.44","","","","-14","","NA"
"-94.98","74.72","RESOLUTE CS","2403505","2018-10-12 09:00","2018","10","12","09:00","-9.2","","-10.0","","94","","0.0","","34","","13","","","","99.42","","","","-15","","NA"
"-94.98","74.72","RESOLUTE CS","2403505","2018-10-12 10:00","2018","10","12","10:00","-9.0","","-9.8","","94","","0.0","","33","","11","","","","99.44","","","","-14","","NA"
"-94.98","74.72","RESOLUTE CS","2403505","2018-10-12 11:00","2018","10","12","11:00","-9.3","","-10.1","","94","","0.0","","32","","14","","","","99.46","","","","-16","","NA"
"-94.98","74.72","RESOLUTE CS","2403505","2018-10-12 12:00","2018","10","12","12:00","-8.9","","-9.7","","94","","0.0","","32","","9","","","","99.46","","","","-14","","NA"
"-94.98","74.72","RESOLUTE CS","2403505","2018-10-12 13:00","2018","10","12","13:00","-8.6","","-9.3","","95","","0.0","","33","","22","","","","99.45","","","","-16","","NA"
"-94.98","74.72","RESOLUTE CS","2403505","2018-10-12 14:00","2018","10","12","14:00","-8.8","","-9.6","","94","","0.0","","32","","18","","","","99.47","","","","-16","","NA"
"-94.98","74.72","RESOLUTE CS","2403505","2018-10-12 15:00","2018","10","12","15:00","-9.2","","-10.0","","94","","0.0","","31","","15","","","","99.46","","","","-16","","NA"
"-94.98","74.72","RESOLUTE CS","2403505","2018-10-12 16:00","2018","10","12","16:00","-9.1","","-9.9","","94","","0.0","","33","","16","","","","99.46","","","","-16","","NA"
"-94.98","74.72","RESOLUTE CS","2403505","2018-10-12 17:00","2018","10","12","17:00","-9.0","","-9.7","","94","","0.0","","32","","19","","","","99.48","","","","-16","","NA"
"-94.98","74.72","RESOLUTE CS","2403505","2018-10-12 18:00","2018","10","12","18:00","-9.5","","-10.4","","94","","0.0","","34","","20","","","","99.48","","","","-17","","NA"
"-94.98","74.72","RESOLUTE CS","2403505","2018-10-12 19:00","2018","10","12","19:00","-11.0","","-12.0","","93","","0.0","","34","","17","","","","99.50","","","","-18","","NA"
"-94.98","74.72","RESOLUTE CS","2403505","2018-10-12 20:00","2018","10","12","20:00","-9.9","","-10.8","","94","","0.0","","34","","16","","","","99.51","","","","-17","","NA"
"-94.98","74.72","RESOLUTE CS","2403505","2018-10-12 21:00","2018","10","12","21:00","-9.8","","-10.7","","93","","0.0","","34","","19","","","","99.50","","","","-17","","NA"
"-94.98","74.72","RESOLUTE CS","2403505","2018-10-12 22:00","2018","10","12","22:00","-11.0","","-11.9","","92","","0.0","","34","","16","","","","99.51","","","","-18","","NA"
"-94.98","74.72","RESOLUTE CS","2403505","2018-10-12 23:00","2018","10","12","23:00","-11.2","","-12.2","","92","","0.0","","34","","21","","","","99.53","","","","-20","","NA"
"-94.98","74.72","RESOLUTE CS","2403505","2018-10-13 00:00","2018","10","13","00:00","-12.3","","-13.4","","92","","0.0","","32","","22","","","","99.53","","","","-21","","NA"
"-94.98","74.72","RESOLUTE CS","2403505","2018-10-13 01:00","2018","10","13","01:00","-11.7","","-12.7","","92","","0.0","","34","","24","","","","99.54","","","","-21","","NA"
"-94.98","74.72","RESOLUTE CS","2403505","2018-10-13 02:00","2018","10","13","02:00","-12.7","","-13.8","","91","","0.0","","34","","19","","","","99.56","","","","-21","","NA"
"-94.98","74.72","RESOLUTE CS","2403505","2018-10-13 03:00","2018","10","13","03:00","-12.6","","-13.6","","92","","0.0","","34","","19","","","","99.57","","","","-21","","NA"
"-94.98","74.72","RESOLUTE CS","2403505","2018-10-13 04:00","2018","10","13","04:00","-12.8","","-13.9","","91","","0.0","","32","","25","","","","99.59","","","","-22","","NA"
"-94.98","74.72","RESOLUTE CS","2403505","2018-10-13 05:00","2018","10","13","05:00","-13.1","","-14.2","","91","","0.0","","33","","18","","","","99.60","","","","-21","","NA"
"-94.98","74.72","RESOLUTE CS","2403505","2018-10-13 06:00","2018","10","13","06:00","-13.3","","-14.4","","91","","0.0","","34","","14","","","","99.57","","","","-21","","NA"
"-94.98","74.72","RESOLUTE CS","2403505","2018-10-13 07:00","2018","10","13","07:00","-13.2","","-14.3","","91","","0.0","","34","","14","","","","99.59","","","","-20","","NA"
"-94.98","74.72","RESOLUTE CS","2403505","2018-10-13 08:00","2018","10","13","08:00","-13.6","","-14.7","","91","","0.0","","34","","12","","","","99.59","","","","-20","","NA"
"-94.98","74.72","RESOLUTE CS","2403505","2018-10-13 09:00","2018","10","13","09:00","-14.4","","-15.6","","91","","0.0","","35","","15","","","","99.59","","","","-22","","NA"
"-94.98","74.72","RESOLUTE CS","2403505","2018-10-13 10:00","2018","10","13","10:00","-14.4","","-15.6","","91","","0.0","","36","","14","","","","99.61","","","","-22","","NA"
"-94.98","74.72","RESOLUTE CS","2403505","2018-10-13 11:00","2018","10","13","11:00","-13.8","","-14.8","","92","","0.0","","1","","12","","","","99.62","","","","-21","","NA"
"-94.98","74.72","RESOLUTE CS","2403505","2018-10-13 12:00","2018","10","13","12:00","-14.1","","-15.3","","91","","0.0","","31","","9","","","","99.62","","","","-20","","NA"
"-94.98","74.72","RESOLUTE CS","2403505","2018-10-13 13:00","2018","10","13","13:00","-13.1","","-14.2","","92","","0.0","","35","","12","","","","99.64","","","","-20","","NA"
"-94.98","74.72","RESOLUTE CS","2403505","2018-10-13 14:00","2018","10","13","14:00","-13.4","","-14.6","","91","","0.0","","35","","15","","","","99.64","","","","-21","","NA"
"-94.98","74.72","RESOLUTE CS","2403505","2018-10-13 15:00","2018","10","13","15:00","-13.8","","-15.0","","91","","0.0","","35","","16","","","","99.66","","","","-22","","NA"
"-94.98","74.72","RESOLUTE CS","2403505","2018-10-13 16:00","2018","10","13","16:00","-13.6","","-14.8","","91","","0.0","","35","","14","","","","99.69","","","","-21","","NA"
"-94.98","74.72","RESOLUTE CS","2403505","2018-10-13 17:00","2018","10","13","17:00","-14.4","","-15.7","","90","","0.0","","34","","14","","","","99.68","","","","-22","","NA"
"-94.98","74.72","RESOLUTE CS","2403505","2018-10-13 18:00","2018","10","13","18:00","-15.6","","-17.0","","89","","0.0","","33","","16","","","","99.69","","","","-24","","NA"
"-94.98","74.72","RESOLUTE CS","2403505","2018-10-13 19:00","2018","10","13","19:00","-16.1","","-17.5","","89","","0.0","","33","","16","","","","99.69","","","","-25","","NA"
"-94.98","74.72","RESOLUTE CS","2403505","2018-10-13 20:00","2018","10","13","20:00","-15.5","","-16.8","","90","","0.0","","36","","21","","","","99.66","","","","-25","","NA"
"-94.98","74.72","RESOLUTE CS","2403505","2018-10-13 21:00","2018","10","13","21:00","-14.9","","-16.2","","90","","0.0","","32","","15","","","","99.65","","","","-23","","NA"
"-94.98","74.72","RESOLUTE CS","2403505","2018-10-13 22:00","2018","10","13","22:00","-13.3","","-14.4","","91","","0.0","","33","","16","","","","99.61","","","","-21","","NA"
"-94.98","74.72","RESOLUTE CS","2403505","2018-10-13 23:00","2018","10","13","23:00","-12.0","","-13.0","","92","","0.0","","33","","22","","","","99.60","","","","-21","","NA"
"-94.98","74.72","RESOLUTE CS","2403505","2018-10-14 00:00","2018","10","14","00:00","-12.7","","-13.8","","92","","0.0","","33","","23","","","","99.58","","","","-22","","NA"
"-94.98","74.72","RESOLUTE CS","2403505","2018-10-14 01:00","2018","10","14","01:00","-13.2","","-14.4","","91","","0.0","","32","","16","","","","99.60","","","","-21","","NA"
"-94.98","74.72","RESOLUTE CS","2403505","2018-10-14 02:00","2018","10","14","02:00","-12.7","","-13.7","","92","","0.0","","30","","13","","","","99.59","","","","-20","","NA"
"-94.98","74.72","RESOLUTE CS","2403505","2018-10-14 03:00","2018","10","14","03:00","-11.5","","-12.4","","93","","0.0","","32","","13","","","","99.57","","","","-18","","NA"
"-94.98","74.72","RESOLUTE CS","2403505","2018-10-14 04:00","2018","10","14","04:00","-10.0","","-10.9","","93","","0.3","","31","","24","","","","99.54","","","","-19","","NA"
"-94.98","74.72","RESOLUTE CS","2403505","2018-10-14 05:00","2018","10","14","05:00","-10.1","","-11.0","","93","","0.0","","31","","22","","","","99.52","","","","-18","","NA"
"-94.98","74.72","RESOLUTE CS","2403505","2018-10-14 06:00","2018","10","14","06:00","-9.7","","-10.6","","94","","0.2","","32","","25","","","","99.51","","","","-18","","NA"
"-94.98","74.72","RESOLUTE CS","2403505","2018-10-14 07:00","2018","10","14","07:00","-10.1","","-11.0","","93","","0.0","","32","","18","","","","99.49","","","","-18","","NA"
"-94.98","74.72","RESOLUTE CS","2403505","2018-10-14 08:00","2018","10","14","08:00","-9.9","","-10.8","","93","","0.2","","32","","20","","","","99.46","","","","-18","","NA"
"-94.98","74.72","RESOLUTE CS","2403505","2018-10-14 09:00","2018","10","14","09:00","-10.2","","-11.1","","93","","0.0","","32","","18","","","","99.43","","","","-18","","NA"
"-94.98","74.72","RESOLUTE CS","2403505","2018-10-14 10:00","2018","10","14","10:00","-10.0","","-10.9","","93","","0.0","","33","","18","","","","99.41","","","","-17","","NA"
"-94.98","74.72","RESOLUTE CS","2403505","2018-10-14 11:00","2018","10","14","11:00","-10.1","","-11.0","","93","","0.2","","33","","18","","","","99.40","","","","-18","","NA"
"-94.98","74.72","RESOLUTE CS","2403505","2018-10-14 12:00","2018","10","14","12:00","-10.3","","-11.2","","93","","0.0","","33","","14","","","","99.39","","","","-17","","NA"
"-94.98","74.72","RESOLUTE CS","2403505","2018-10-14 13:00","2018","10","14","13:00","-10.9","","-11.8","","93","","0.0","","34","","18","","","","99.40","","","","-19","","NA"
"-94.98","74.72","RESOLUTE CS","2403505","2018-10-14 14:00","2018","10","14","14:00","-11.6","","-12.6","","92","","0.0","","34","","10","","","","99.42","","","","-17","","NA"
"-94.98","74.72","RESOLUTE CS","2403505","2018-10-14 15:00","2018","10","14","15:00","-13.4","","-14.5","","91","","0.0","","36","","13","","","","99.43","","","","-20","","NA"
"-94.98","74.72","RESOLUTE CS","2403505","2018-10-14 16:00","2018","10","14","16:00","-13.2","","-14.4","","91","","0.0","","1","","17","","","","99.46","","","","-21","","NA"
"-94.98","74.72","RESOLUTE CS","2403505","2018-10-14 17:00","2018","10","14","17:00","-14.3","","-15.6","","90","","0.0","","1","","14","","","","99.50","","","","-22","","NA"
"-94.98","74.72","RESOLUTE CS","2403505","2018-10-14 18:00","2018","10","14","18:00","-16.5","","-17.9","","88","","0.0","","3","","24","","","","99.49","","","","-27","","NA"
"-94.98","74.72","RESOLUTE CS","2403505","2018-10-14 19:00","2018","10","14","19:00","-16.6","","-18.0","","88","","0.0","","3","","27","","","","99.50","","","","-28","","NA"
"-94.98","74.72","RESOLUTE CS","2403505","2018-10-14 20:00","2018","10","14","20:00","-16.9","","-18.3","","88","","0.0","","36","","20","","","","99.51","","","","-27","","NA"
"-94.98","74.72","RESOLUTE CS","2403505","2018-10-14 21:00","2018","10","14","21:00","-17.7","","-19.3","","87","","0.0","","1","","16","","","","99.51","","","","-27","","NA"
"-94.98","74.72","RESOLUTE CS","2403505","2018-10-14 22:00","2018","10","14","22:00","-19.0","","-20.6","","88","","0.0","","36","","13","","","","99.53","","","","-27","","NA"
"-94.98","74.72","RESOLUTE CS","2403505","2018-10-14 23:00","2018","10","14","23:00","-17.6","","-19.1","","88","","0.0","","1","","15","","","","99.51","","","","-26","","NA"
"-94.98","74.72","RESOLUTE CS","2403505","2018-10-15 00:00","2018","10","15","00:00","-17.1","","-18.6","","88","","0.0","","3","","19","","","","99.51","","","","-27","","NA"
"-94.98","74.72","RESOLUTE CS","2403505","2018-10-15 01:00","2018","10","15","01:00","-18.0","","-19.6","","87","","0.0","","3","","23","","","","99.51","","","","-29","","NA"
"-94.98","74.72","RESOLUTE CS","2403505","2018-10-15 02:00","2018","10","15","02:00","-17.2","","-18.6","","88","","0.0","","3","","24","","","","99.51","","","","-28","","NA"
"-94.98","74.72","RESOLUTE CS","2403505","2018-10-15 03:00","2018","10","15","03:00","-15.6","","-16.9","","90","","0.0","","3","","18","","","","99.52","","","","-24","","NA"
"-94.98","74.72","RESOLUTE CS","2403505","2018-10-15 04:00","2018","10","15","04:00","-14.8","","-16.0","","90","","0.2","","36","","13","","","","99.55","","","","-22","","NA"
"-94.98","74.72","RESOLUTE CS","2403505","2018-10-15 05:00","2018","10","15","05:00","-14.3","","-15.5","","90","","0.0","","2","","25","","","","99.54","","","","-24","","NA"
"-94.98","74.72","RESOLUTE CS","2403505","2018-10-15 06:00","2018","10","15","06:00","-14.2","","-15.4","","90","","0.0","","2","","19","","","","99.57","","","","-23","","NA"
"-94.98","74.72","RESOLUTE CS","2403505","2018-10-15 07:00","2018","10","15","07:00","-13.9","","-15.1","","90","","0.0","","2","","20","","","","99.56","","","","-23","","NA"
"-94.98","74.72","RESOLUTE CS","2403505","2018-10-15 08:00","2018","10","15","08:00","-14.0","","-15.3","","90","","0.0","","3","","24","","","","99.56","","","","-24","","NA"
"-94.98","74.72","RESOLUTE CS","2403505","2018-10-15 09:00","2018","10","15","09:00","-14.1","","-15.3","","90","","0.0","","3","","27","","","","99.55","","","","-24","","NA"
"-94.98","74.72","RESOLUTE CS","2403505","2018-10-15 10:00","2018","10","15","10:00","-14.0","","-15.4","","90","","0.0","","3","","18","","","","99.56","","","","-22","","NA"
"-94.98","74.72","RESOLUTE CS","2403505","2018-10-15 11:00","2018","10","15","11:00","-14.5","","-15.9","","90","","0.0","","34","","10","","","","99.59","","","","-21","","NA"
"-94.98","74.72","RESOLUTE CS","2403505","2018-10-15 12:00","2018","10","15","12:00","-13.3","","-14.6","","90","","0.0","","1","","16","","","","99.60","","","","-21","","NA"
"-94.98","74.72","RESOLUTE CS","2403505","2018-10-15 13:00","2018","10","15","13:00","-13.1","","-14.4","","90","","0.0","","2","","16","","","","99.62","","","","-21","","NA"
"-94.98","74.72","RESOLUTE CS","2403505","2018-10-15 14:00","2018","10","15","14:00","-13.2","","-14.5","","90","","0.0","","2","","15","","","","99.64","","","","-21","","NA"
"-94.98","74.72","RESOLUTE CS","2403505","2018-10-15 15:00","2018","10","15","15:00","-12.5","","-13.9","","90","","0.0","","2","","14","","","","99.65","","","","-20","","NA"
"-94.98","74.72","RESOLUTE CS","2403505","2018-10-15 16:00","2018","10","15","16:00","-12.7","","-14.1","","89","","0.0","","1","","10","","","","99.64","","","","-18","","NA"
"-94.98","74.72","RESOLUTE CS","2403505","2018-10-15 17:00","2018","10","15","17:00","-13.4","","-14.7","","90","","0.0","","2","","13","","","","99.65","","","","-20","","NA"
"-94.98","74.72","RESOLUTE CS","2403505","2018-10-15 18:00","2018","10","15","18:00","-13.4","","-14.7","","90","","0.0","","1","","15","","","","99.67","","","","-21","","NA"
"-94.98","74.72","RESOLUTE CS","2403505","2018-10-15 19:00","2018","10","15","19:00","-13.7","","-14.9","","90","","0.0","","31","","9","","","","99.66","","","","-19","","NA"
"-94.98","74.72","RESOLUTE CS","2403505","2018-10-15 20:00","2018","10","15","20:00","-13.9","","-15.0","","91","","0.0","","35","","8","","","","99.61","","","","-19","","NA"
"-94.98","74.72","RESOLUTE CS","2403505","2018-10-15 21:00","2018","10","15","21:00","-14.2","","-15.4","","91","","0.0","","32","","12","","","","99.58","","","","-21","","NA"
"-94.98","74.72","RESOLUTE CS","2403505","2018-10-15 22:00","2018","10","15","22:00","-15.1","","-16.4","","90","","0.0","","36","","15","","","","99.58","","","","-23","","NA"
"-94.98","74.72","RESOLUTE CS","2403505","2018-10-15 23:00","2018","10","15","23:00","-16.1","","-17.5","","89","","0.0","","2","","13","","","","99.57","","","","-24","","NA"
"-94.98","74.72","RESOLUTE CS","2403505","2018-10-16 00:00","2018","10","16","00:00","-15.5","","-16.9","","90","","0.0","","1","","14","","","","99.53","","","","-23","","NA"
"-94.98","74.72","RESOLUTE CS","2403505","2018-10-16 01:00","2018","10","16","01:00","-14.9","","-16.2","","90","","0.0","","1","","16","","","","99.55","","","","-23","","NA"
"-94.98","74.72","RESOLUTE CS","2403505","2018-10-16 02:00","2018","10","16","02:00","-15.3","","-16.6","","90","","0.0","","1","","12","","","","99.52","","","","-22","","NA"
"-94.98","74.72","RESOLUTE CS","2403505","2018-10-16 03:00","2018","10","16","03:00","-14.5","","-15.9","","89","","0.0","","1","","15","","","","99.54","","","","-22","","NA"
"-94.98","74.72","RESOLUTE CS","2403505","2018-10-16 04:00","2018","10","16","04:00","-14.9","","-16.2","","90","","0.0","","1","","13","","","","99.51","","","","-22","","NA"
"-94.98","74.72","RESOLUTE CS","2403505","2018-10-16 05:00","2018","10","16","05:00","-15.1","","-16.5","","89","","0.0","","35","","11","","","","99.54","","","","-22","","NA"
"-94.98","74.72","RESOLUTE CS","2403505","2018-10-16 06:00","2018","10","16","06:00","-15.0","","-16.3","","90","","0.0","","35","","12","","","","99.53","","","","-22","","NA"
"-94.98","74.72","RESOLUTE CS","2403505","2018-10-16 07:00","2018","10","16","07:00","-15.2","","-16.5","","90","","0.0","","35","","8","","","","99.50","","","","-21","","NA"
"-94.98","74.72","RESOLUTE CS","2403505","2018-10-16 08:00","2018","10","16","08:00","-14.9","","-16.2","","90","","0.2","","36","","8","","","","99.50","","","","-20","","NA"
"-94.98","74.72","RESOLUTE CS","2403505","2018-10-16 09:00","2018","10","16","09:00","-15.1","","-16.4","","90","","0.2","","31","","7","","","","99.48","","","","-20","","NA"
"-94.98","74.72","RESOLUTE CS","2403505","2018-10-16 10:00","2018","10","16","10:00","-14.7","","-16.0","","90","","0.2","","36","","9","","","","99.49","","","","-20","","NA"
"-94.98","74.72","RESOLUTE CS","2403505","2018-10-16 11:00","2018","10","16","11:00","-14.9","","-16.2","","90","","0.2","","36","","8","","","","99.47","","","","-20","","NA"
"-94.98","74.72","RESOLUTE CS","2403505","2018-10-16 12:00","2018","10","16","12:00","-14.7","","-16.1","","89","","0.0","","1","","12","","","","99.47","","","","-22","","NA"
"-94.98","74.72","RESOLUTE CS","2403505","2018-10-16 13:00","2018","10","16","13:00","-14.7","","-16.1","","89","","0.2","","1","","12","","","","99.48","","","","-22","","NA"
"-94.98","74.72","RESOLUTE CS","2403505","2018-10-16 14:00","2018","10","16","14:00","-14.4","","-15.8","","89","","0.0","","36","","7","","","","99.48","","","","-19","","NA"
"-94.98","74.72","RESOLUTE CS","2403505","2018-10-16 15:00","2018","10","16","15:00","-14.3","","-15.7","","89","","0.0","","32","","4","","","","99.49","","","","-17","","NA"
"-94.98","74.72","RESOLUTE CS","2403505","2018-10-16 16:00","2018","10","16","16:00","-14.1","","-15.4","","90","","0.0","","33","","5","","","","99.49","","","","-18","","NA"
"-94.98","74.72","RESOLUTE CS","2403505","2018-10-16 17:00","2018","10","16","17:00","-13.8","","-15.1","","90","","0.0","","34","","4","","","","99.48","","","","-17","","NA"
"-94.98","74.72","RESOLUTE CS","2403505","2018-10-16 18:00","2018","10","16","18:00","-13.3","","-14.6","","90","","0.0","","2","","4","","","","99.46","","","","-16","","NA"
"-94.98","74.72","RESOLUTE CS","2403505","2018-10-16 19:00","2018","10","16","19:00","-12.9","","-14.1","","91","","0.2","","8","","3","","","","99.47","","","","-15","","NA"
"-94.98","74.72","RESOLUTE CS","2403505","2018-10-16 20:00","2018","10","16","20:00","-13.1","","-14.3","","91","","0.0","","12","","2","","","","99.45","","","","-14","","NA"
"-94.98","74.72","RESOLUTE CS","2403505","2018-10-16 21:00","2018","10","16","21:00","-12.7","","-13.8","","91","","0.2","","10","","2","","","","99.43","","","","-14","","NA"
"-94.98","74.72","RESOLUTE CS","2403505","2018-10-16 22:00","2018","10","16","22:00","-12.5","","-13.6","","91","","0.0","","12","","4","","","","99.41","","","","-15","","NA"
"-94.98","74.72","RESOLUTE CS","2403505","2018-10-16 23:00","2018","10","16","23:00","-12.2","","-13.3","","92","","0.0","","18","","3","","","","99.39","","","","-14","","NA"
"-94.98","74.72","RESOLUTE CS","2403505","2018-10-17 00:00","2018","10","17","00:00","-12.2","","-13.3","","92","","0.0","","12","","3","","","","99.40","","","","-14","","NA"
"-94.98","74.72","RESOLUTE CS","2403505","2018-10-17 01:00","2018","10","17","01:00","-12.3","","-13.4","","91","","0.0","","11","","5","","","","99.40","","","","-16","","NA"
"-94.98","74.72","RESOLUTE CS","2403505","2018-10-17 02:00","2018","10","17","02:00","-12.2","","-13.3","","92","","0.0","","9","","6","","","","99.38","","","","-16","","NA"
"-94.98","74.72","RESOLUTE CS","2403505","2018-10-17 03:00","2018","10","17","03:00","-12.5","","-13.7","","91","","0.0","","8","","5","","","","99.37","","","","-16","","NA"
"-94.98","74.72","RESOLUTE CS","2403505","2018-10-17 04:00","2018","10","17","04:00","-12.1","","-13.3","","91","","0.0","","8","","8","","","","99.37","","","","-17","","NA"
"-94.98","74.72","RESOLUTE CS","2403505","2018-10-17 05:00","2018","10","17","05:00","-11.9","","-13.0","","91","","0.2","","9","","6","","","","99.36","","","","-16","","NA"
"-94.98","74.72","RESOLUTE CS","2403505","2018-10-17 06:00","2018","10","17","06:00","-12.0","","-13.1","","91","","0.0","","9","","8","","","","99.33","","","","-17","","NA"
"-94.98","74.72","RESOLUTE CS","2403505","2018-10-17 07:00","2018","10","17","07:00","-12.2","","-13.4","","91","","0.0","","9","","8","","","","99.32","","","","-17","","NA"
"-94.98","74.72","RESOLUTE CS","2403505","2018-10-17 08:00","2018","10","17","08:00","-12.7","","-13.8","","91","","0.0","","7","","10","","","","99.30","","","","-18","","NA"
"-94.98","74.72","RESOLUTE CS","2403505","2018-10-17 09:00","2018","10","17","09:00","-13.0","","-14.1","","91","","0.0","","7","","10","","","","99.28","","","","-19","","NA"
"-94.98","74.72","RESOLUTE CS","2403505","2018-10-17 10:00","2018","10","17","10:00","-12.5","","-13.7","","91","","0.0","","7","","9","","","","99.26","","","","-18","","NA"
"-94.98","74.72","RESOLUTE CS","2403505","2018-10-17 11:00","2018","10","17","11:00","-12.4","","-13.6","","91","","0.0","","7","","9","","","","99.24","","","","-18","","NA"
"-94.98","74.72","RESOLUTE CS","2403505","2018-10-17 12:00","2018","10","17","12:00","-12.7","","-13.9","","90","","0.0","","10","","5","","","","99.23","","","","-16","","NA"
"-94.98","74.72","RESOLUTE CS","2403505","2018-10-17 13:00","2018","10","17","13:00","-13.7","","-15.2","","89","","0.0","","8","","9","","","","99.22","","","","-19","","NA"
"-94.98","74.72","RESOLUTE CS","2403505","2018-10-17 14:00","2018","10","17","14:00","-13.4","","-14.8","","89","","0.0","","7","","10","","","","99.21","","","","-19","","NA"
"-94.98","74.72","RESOLUTE CS","2403505","2018-10-17 15:00","2018","10","17","15:00","-13.2","","-14.6","","89","","0.0","","7","","10","","","","99.20","","","","-19","","NA"
"-94.98","74.72","RESOLUTE CS","2403505","2018-10-17 16:00","2018","10","17","16:00","-12.4","","-13.8","","89","","0.0","","7","","8","","","","99.20","","","","-17","","NA"
"-94.98","74.72","RESOLUTE CS","2403505","2018-10-17 17:00","2018","10","17","17:00","-11.9","","-13.3","","89","","0.0","","4","","10","","","","99.18","","","","-18","","NA"
"-94.98","74.72","RESOLUTE CS","2403505","2018-10-17 18:00","2018","10","17","18:00","-12.2","","-13.7","","89","","0.0","","7","","8","","","","99.16","","","","-17","","NA"
"-94.98","74.72","RESOLUTE CS","2403505","2018-10-17 19:00","2018","10","17","19:00","-11.8","","-13.0","","91","","0.0","","5","","4","","","","99.17","","","","-14","","NA"
"-94.98","74.72","RESOLUTE CS","2403505","2018-10-17 20:00","2018","10","17","20:00","-12.2","","-13.4","","91","","0.0","","34","","4","","","","99.15","","","","-15","","NA"
"-94.98","74.72","RESOLUTE CS","2403505","2018-10-17 21:00","2018","10","17","21:00","-12.7","","-13.9","","91","","0.0","","2","","8","","","","99.13","","","","-18","","NA"
"-94.98","74.72","RESOLUTE CS","2403505","2018-10-17 22:00","2018","10","17","22:00","-12.5","","-13.6","","92","","0.0","","2","","6","","","","99.12","","","","-16","","NA"
"-94.98","74.72","RESOLUTE CS","2403505","2018-10-17 23:00","2018","10","17","23:00","-12.6","","-13.7","","92","","0.0","","1","","6","","","","99.12","","","","-17","","NA"
"-94.98","74.72","RESOLUTE CS","2403505","2018-10-18 00:00","2018","10","18","00:00","-12.8","","-13.9","","91","","0.0","","36","","7","","","","99.12","","","","-17","","NA"
"-94.98","74.72","RESOLUTE CS","2403505","2018-10-18 01:00","2018","10","18","01:00","-12.7","","-13.9","","91","","0.0","","36","","7","","","","99.12","","","","-17","","NA"
"-94.98","74.72","RESOLUTE CS","2403505","2018-10-18 02:00","2018","10","18","02:00","-12.9","","-14.1","","91","","0.0","","1","","8","","","","99.12","","","","-18","","NA"
"-94.98","74.72","RESOLUTE CS","2403505","2018-10-18 03:00","2018","10","18","03:00","-13.6","","-14.8","","90","","0.0","","2","","8","","","","99.13","","","","-19","","NA"
"-94.98","74.72","RESOLUTE CS","2403505","2018-10-18 04:00","2018","10","18","04:00","-13.7","","-15.0","","90","","0.0","","3","","11","","","","99.18","","","","-20","","NA"
"-94.98","74.72","RESOLUTE CS","2403505","2018-10-18 05:00","2018","10","18","05:00","-13.5","","-14.9","","89","","0.0","","2","","13","","","","99.19","","","","-20","","NA"
"-94.98","74.72","RESOLUTE CS","2403505","2018-10-18 06:00","2018","10","18","06:00","-13.8","","-15.3","","89","","0.0","","3","","12","","","","99.21","","","","-21","","NA"
"-94.98","74.72","RESOLUTE CS","2403505","2018-10-18 07:00","2018","10","18","07:00","-14.9","","-16.5","","88","","0.0","","3","","11","","","","99.24","","","","-21","","NA"
"-94.98","74.72","RESOLUTE CS","2403505","2018-10-18 08:00","2018","10","18","08:00","-13.5","","-15.1","","88","","0.0","","2","","13","","","","99.27","","","","-20","","NA"
"-94.98","74.72","RESOLUTE CS","2403505","2018-10-18 09:00","2018","10","18","09:00","-13.5","","-15.3","","87","","0.0","","6","","15","","","","99.30","","","","-21","","NA"
"-94.98","74.72","RESOLUTE CS","2403505","2018-10-18 10:00","2018","10","18","10:00","-13.4","","-14.8","","89","","0.0","","5","","9","","","","99.34","","","","-19","","NA"
"-94.98","74.72","RESOLUTE CS","2403505","2018-10-18 11:00","2018","10","18","11:00","-14.1","","-15.5","","89","","0.0","","5","","20","","","","99.40","","","","-23","","NA"
"-94.98","74.72","RESOLUTE CS","2403505","2018-10-18 12:00","2018","10","18","12:00","-16.1","","-17.6","","89","","0.0","","6","","20","","","","99.47","","","","-26","","NA"
"-94.98","74.72","RESOLUTE CS","2403505","2018-10-18 13:00","2018","10","18","13:00","-15.4","","-16.9","","89","","0.0","","6","","25","","","","99.53","","","","-26","","NA"
"-94.98","74.72","RESOLUTE CS","2403505","2018-10-18 14:00","2018","10","18","14:00","-17.0","","-18.5","","88","","0.0","","5","","29","","","","99.60","","","","-28","","NA"
"-94.98","74.72","RESOLUTE CS","2403505","2018-10-18 15:00","2018","10","18","15:00","-16.8","","-18.3","","88","","0.0","","5","","26","","","","99.65","","","","-28","","NA"
"-94.98","74.72","RESOLUTE CS","2403505","2018-10-18 16:00","2018","10","18","16:00","-16.2","","-17.7","","88","","0.0","","5","","35","","","","99.72","","","","-28","","NA"
"-94.98","74.72","RESOLUTE CS","2403505","2018-10-18 17:00","2018","10","18","17:00","-16.0","","-17.4","","89","","0.0","","5","","30","","","","99.80","","","","-27","","NA"
"-94.98","74.72","RESOLUTE CS","2403505","2018-10-18 18:00","2018","10","18","18:00","-15.7","","-17.1","","89","","0.2","","5","","32","","","","99.86","","","","-27","","NA"
"-94.98","74.72","RESOLUTE CS","2403505","2018-10-18 19:00","2018","10","18","19:00","-15.9","","-17.3","","89","","0.0","","4","","32","","","","99.89","","","","-28","","NA"
"-94.98","74.72","RESOLUTE CS","2403505","2018-10-18 20:00","2018","10","18","20:00","-17.1","","-18.6","","88","","0.0","","4","","27","","","","99.94","","","","-28","","NA"
"-94.98","74.72","RESOLUTE CS","2403505","2018-10-18 21:00","2018","10","18","21:00","-17.5","","-19.1","","88","","0.0","","3","","31","","","","99.99","","","","-29","","NA"
"-94.98","74.72","RESOLUTE CS","2403505","2018-10-18 22:00","2018","10","18","22:00","-18.0","","-19.6","","88","","0.0","","6","","24","","","","100.01","","","","-29","","NA"
"-94.98","74.72","RESOLUTE CS","2403505","2018-10-18 23:00","2018","10","18","23:00","-19.4","","-21.1","","86","","0.0","","33","","6","","","","100.13","","","","-24","","NA"
"-94.98","74.72","RESOLUTE CS","2403505","2018-10-19 00:00","2018","10","19","00:00","-19.3","","-20.9","","87","","0.0","","2","","3","","","","100.13","","","","-22","","NA"
"-94.98","74.72","RESOLUTE CS","2403505","2018-10-19 01:00","2018","10","19","01:00","-18.3","","-19.8","","88","","0.0","","33","","11","","","","100.19","","","","-26","","NA"
"-94.98","74.72","RESOLUTE CS","2403505","2018-10-19 02:00","2018","10","19","02:00","-17.8","","-19.4","","88","","0.0","","33","","11","","","","100.20","","","","-25","","NA"
"-94.98","74.72","RESOLUTE CS","2403505","2018-10-19 03:00","2018","10","19","03:00","-17.2","","-18.7","","88","","0.0","","35","","10","","","","100.26","","","","-24","","NA"
"-94.98","74.72","RESOLUTE CS","2403505","2018-10-19 04:00","2018","10","19","04:00","-17.1","","-18.6","","88","","0.0","","34","","13","","","","100.28","","","","-25","","NA"
"-94.98","74.72","RESOLUTE CS","2403505","2018-10-19 05:00","2018","10","19","05:00","-17.2","","-18.7","","88","","0.0","","35","","12","","","","100.29","","","","-25","","NA"
"-94.98","74.72","RESOLUTE CS","2403505","2018-10-19 06:00","2018","10","19","06:00","-18.0","","-19.6","","87","","0.0","","34","","9","","","","100.32","","","","-24","","NA"
"-94.98","74.72","RESOLUTE CS","2403505","2018-10-19 07:00","2018","10","19","07:00","-15.7","","-17.0","","90","","0.0","","34","","12","","","","100.33","","","","-23","","NA"
"-94.98","74.72","RESOLUTE CS","2403505","2018-10-19 08:00","2018","10","19","08:00","-14.9","","-16.2","","90","","0.2","","33","","11","","","","100.33","","","","-21","","NA"
"-94.98","74.72","RESOLUTE CS","2403505","2018-10-19 09:00","2018","10","19","09:00","-14.0","","-15.2","","90","","0.0","","31","","13","","","","100.32","","","","-21","","NA"
"-94.98","74.72","RESOLUTE CS","2403505","2018-10-19 10:00","2018","10","19","10:00","-12.6","","-13.6","","92","","0.0","","32","","16","","","","100.31","","","","-20","","NA"
"-94.98","74.72","RESOLUTE CS","2403505","2018-10-19 11:00","2018","10","19","11:00","-12.3","","-13.4","","92","","0.0","","32","","19","","","","100.31","","","","-21","","NA"
"-94.98","74.72","RESOLUTE CS","2403505","2018-10-19 12:00","2018","10","19","12:00","-11.2","","-12.1","","92","","0.0","","33","","20","","","","100.32","","","","-19","","NA"
"-94.98","74.72","RESOLUTE CS","2403505","2018-10-19 13:00","2018","10","19","13:00","-11.6","","-12.6","","92","","0.0","","33","","30","","","","100.33","","","","-22","","NA"
"-94.98","74.72","RESOLUTE CS","2403505","2018-10-19 14:00","2018","10","19","14:00","-11.9","","-13.0","","91","","0.0","","34","","28","","","","100.33","","","","-22","","NA"
"-94.98","74.72","RESOLUTE CS","2403505","2018-10-19 15:00","2018","10","19","15:00","-12.1","","-13.2","","91","","0.0","","34","","23","","","","100.35","","","","-21","","NA"
"-94.98","74.72","RESOLUTE CS","2403505","2018-10-19 16:00","2018","10","19","16:00","-12.5","","-13.7","","91","","0.0","","31","","32","","","","100.36","","","","-23","","NA"
"-94.98","74.72","RESOLUTE CS","2403505","2018-10-19 17:00","2018","10","19","17:00","-12.4","","-13.4","","92","","0.0","","32","","24","","","","100.37","","","","-22","","NA"
"-94.98","74.72","RESOLUTE CS","2403505","2018-10-19 18:00","2018","10","19","18:00","-11.4","","-12.4","","93","","0.0","","32","","21","","","","100.34","","","","-20","","NA"
"-94.98","74.72","RESOLUTE CS","2403505","2018-10-19 19:00","2018","10","19","19:00","-10.9","","-12.0","","92","","0.0","","33","","24","","","","100.30","","","","-20","","NA"
"-94.98","74.72","RESOLUTE CS","2403505","2018-10-19 20:00","2018","10","19","20:00","-11.2","","-12.3","","92","","0.0","","34","","22","","","","100.29","","","","-20","","NA"
"-94.98","74.72","RESOLUTE CS","2403505","2018-10-19 21:00","2018","10","19","21:00","-12.6","","-13.8","","91","","0.0","","33","","14","","","","100.28","","","","-20","","NA"
"-94.98","74.72","RESOLUTE CS","2403505","2018-10-19 22:00","2018","10","19","22:00","-14.1","","-15.4","","90","","0.0","","34","","18","","","","100.24","","","","-23","","NA"
"-94.98","74.72","RESOLUTE CS","2403505","2018-10-19 23:00","2018","10","19","23:00","-14.6","","-15.9","","90","","0.0","","33","","20","","","","100.21","","","","-24","","NA"
"-94.98","74.72","RESOLUTE CS","2403505","2018-10-20 00:00","2018","10","20","00:00","-14.5","","-15.7","","91","","0.0","","34","","17","","","","100.21","","","","-23","","NA"
"-94.98","74.72","RESOLUTE CS","2403505","2018-10-20 01:00","2018","10","20","01:00","-15.1","","-16.5","","89","","0.0","","36","","11","","","","100.19","","","","-22","","NA"
"-94.98","74.72","RESOLUTE CS","2403505","2018-10-20 02:00","2018","10","20","02:00","-14.2","","-15.4","","91","","0.0","","33","","20","","","","100.16","","","","-23","","NA"
"-94.98","74.72","RESOLUTE CS","2403505","2018-10-20 03:00","2018","10","20","03:00","-13.6","","-14.7","","91","","0.0","","33","","15","","","","100.15","","","","-21","","NA"
"-94.98","74.72","RESOLUTE CS","2403505","2018-10-20 04:00","2018","10","20","04:00","-14.1","","-15.2","","91","","0.0","","32","","19","","","","100.10","","","","-23","","NA"
"-94.98","74.72","RESOLUTE CS","2403505","2018-10-20 05:00","2018","10","20","05:00","-14.1","","-15.4","","90","","0.0","","35","","19","","","","100.04","","","","-23","","NA"
"-94.98","74.72","RESOLUTE CS","2403505","2018-10-20 06:00","2018","10","20","06:00","-14.3","","-15.5","","90","","0.0","","35","","18","","","","100.01","","","","-23","","NA"
"-94.98","74.72","RESOLUTE CS","2403505","2018-10-20 07:00","2018","10","20","07:00","-13.4","","-14.7","","90","","0.0","","34","","20","","","","99.96","","","","-22","","NA"
"-94.98","74.72","RESOLUTE CS","2403505","2018-10-20 08:00","2018","10","20","08:00","-13.3","","-14.5","","91","","0.0","","1","","14","","","","99.95","","","","-21","","NA"
"-94.98","74.72","RESOLUTE CS","2403505","2018-10-20 09:00","2018","10","20","09:00","-12.8","","-14.0","","91","","0.0","","2","","12","","","","99.91","","","","-19","","NA"
"-94.98","74.72","RESOLUTE CS","2403505","2018-10-20 10:00","2018","10","20","10:00","-13.0","","-14.3","","90","","0.0","","1","","12","","","","99.88","","","","-20","","NA"
"-94.98","74.72","RESOLUTE CS","2403505","2018-10-20 11:00","2018","10","20","11:00","-13.9","","-15.2","","90","","0.0","","1","","12","","","","99.89","","","","-21","","NA"
"-94.98","74.72","RESOLUTE CS","2403505","2018-10-20 12:00","2018","10","20","12:00","-15.0","","-16.4","","89","","0.0","","1","","9","","","","99.89","","","","-21","","NA"
"-94.98","74.72","RESOLUTE CS","2403505","2018-10-20 13:00","2018","10","20","13:00","-15.7","","-17.1","","88","","0.0","","36","","8","","","","99.91","","","","-21","","NA"
"-94.98","74.72","RESOLUTE CS","2403505","2018-10-20 14:00","2018","10","20","14:00","-15.8","","-17.2","","89","","0.0","","1","","9","","","","99.95","","","","-22","","NA"
"-94.98","74.72","RESOLUTE CS","2403505","2018-10-20 15:00","2018","10","20","15:00","-15.2","","-16.7","","89","","0.0","","36","","11","","","","99.96","","","","-22","","NA"
"-94.98","74.72","RESOLUTE CS","2403505","2018-10-20 16:00","2018","10","20","16:00","-16.2","","-17.7","","88","","0.0","","1","","12","","","","100.00","","","","-23","","NA"
"-94.98","74.72","RESOLUTE CS","2403505","2018-10-20 17:00","2018","10","20","17:00","-16.9","","-18.3","","88","","0.0","","36","","12","","","","100.04","","","","-24","","NA"
"-94.98","74.72","RESOLUTE CS","2403505","2018-10-20 18:00","2018","10","20","18:00","-16.5","","-18.0","","88","","0.0","","2","","17","","","","100.07","","","","-25","","NA"
"-94.98","74.72","RESOLUTE CS","2403505","2018-10-20 19:00","2018","10","20","19:00","-16.3","","-17.8","","88","","0.0","","2","","16","","","","100.09","","","","-25","","NA"
"-94.98","74.72","RESOLUTE CS","2403505","2018-10-20 20:00","2018","10","20","20:00","-15.9","","-17.3","","89","","0.0","","36","","11","","","","100.11","","","","-23","","NA"
"-94.98","74.72","RESOLUTE CS","2403505","2018-10-20 21:00","2018","10","20","21:00","-14.7","","-16.0","","90","","0.0","","36","","10","","","","100.14","","","","-21","","NA"
"-94.98","74.72","RESOLUTE CS","2403505","2018-10-20 22:00","2018","10","20","22:00","-16.0","","-17.4","","89","","0.0","","35","","8","","","","100.19","","","","-22","","NA"
"-94.98","74.72","RESOLUTE CS","2403505","2018-10-20 23:00","2018","10","20","23:00","-14.9","","-16.1","","90","","0.0","","1","","8","","","","100.21","","","","-20","","NA"
"-94.98","74.72","RESOLUTE CS","2403505","2018-10-21 00:00","2018","10","21","00:00","-15.5","","-16.8","","89","","0.0","","1","","9","","","","100.27","","","","-21","","NA"
"-94.98","74.72","RESOLUTE CS","2403505","2018-10-21 01:00","2018","10","21","01:00","-14.5","","-15.9","","89","","0.0","","2","","10","","","","100.32","","","","-21","","NA"
"-94.98","74.72","RESOLUTE CS","2403505","2018-10-21 02:00","2018","10","21","02:00","-15.3","","-16.6","","90","","0.0","","1","","3","","","","100.38","","","","-17","","NA"
"-94.98","74.72","RESOLUTE CS","2403505","2018-10-21 03:00","2018","10","21","03:00","-14.8","","-16.1","","90","","0.0","","2","","8","","","","100.41","","","","-20","","NA"
"-94.98","74.72","RESOLUTE CS","2403505","2018-10-21 04:00","2018","10","21","04:00","-15.5","","-16.9","","89","","0.0","","2","","11","","","","100.47","","","","-22","","NA"
"-94.98","74.72","RESOLUTE CS","2403505","2018-10-21 05:00","2018","10","21","05:00","-15.0","","-16.3","","90","","0.0","","36","","8","","","","100.50","","","","-20","","NA"
"-94.98","74.72","RESOLUTE CS","2403505","2018-10-21 06:00","2018","10","21","06:00","-15.0","","-16.2","","91","","0.0","","36","","10","","","","100.54","","","","-21","","NA"
"-94.98","74.72","RESOLUTE CS","2403505","2018-10-21 07:00","2018","10","21","07:00","-15.0","","-16.2","","91","","0.0","","1","","8","","","","100.59","","","","-20","","NA"
"-94.98","74.72","RESOLUTE CS","2403505","2018-10-21 08:00","2018","10","21","08:00","-14.5","","-15.7","","91","","0.0","","1","","7","","","","100.62","","","","-19","","NA"
"-94.98","74.72","RESOLUTE CS","2403505","2018-10-21 09:00","2018","10","21","09:00","-14.7","","-16.0","","90","","0.0","","36","","6","","","","100.66","","","","-19","","NA"
"-94.98","74.72","RESOLUTE CS","2403505","2018-10-21 10:00","2018","10","21","10:00","-14.7","","-16.0","","90","","0.0","","36","","4","","","","100.68","","","","-18","","NA"
"-94.98","74.72","RESOLUTE CS","2403505","2018-10-21 11:00","2018","10","21","11:00","-15.5","","-16.9","","90","","0.0","","34","","3","","","","100.73","","","","-18","","NA"
"-94.98","74.72","RESOLUTE CS","2403505","2018-10-21 12:00","2018","10","21","12:00","-15.0","","-16.2","","91","","0.0","","36","","2","","","","100.75","","","","-16","","NA"
"-94.98","74.72","RESOLUTE CS","2403505","2018-10-21 13:00","2018","10","21","13:00","-14.4","","-15.7","","90","","0.0","","","","0","","","","100.81","","","","","","NA"
"-94.98","74.72","RESOLUTE CS","2403505","2018-10-21 14:00","2018","10","21","14:00","-14.2","","-15.4","","90","","0.2","","","","0","","","","100.83","","","","","","NA"
"-94.98","74.72","RESOLUTE CS","2403505","2018-10-21 15:00","2018","10","21","15:00","-14.5","","-15.7","","90","","0.0","","","","0","","","","100.87","","","","","","NA"
"-94.98","74.72","RESOLUTE CS","2403505","2018-10-21 16:00","2018","10","21","16:00","-15.1","","-16.4","","90","","0.0","","","","0","","","","100.89","","","","","","NA"
"-94.98","74.72","RESOLUTE CS","2403505","2018-10-21 17:00","2018","10","21","17:00","-14.7","","-16.0","","90","","0.0","","0","","1","","","","100.92","","","","-15","","NA"
"-94.98","74.72","RESOLUTE CS","2403505","2018-10-21 18:00","2018","10","21","18:00","-14.7","","-16.0","","90","","0.0","","0","","1","","","","100.94","","","","-15","","NA"
"-94.98","74.72","RESOLUTE CS","2403505","2018-10-21 19:00","2018","10","21","19:00","-15.0","","-16.3","","90","","0.0","","0","","1","","","","100.97","","","","-16","","NA"
"-94.98","74.72","RESOLUTE CS","2403505","2018-10-21 20:00","2018","10","21","20:00","-14.9","","-16.2","","90","","0.0","","36","","2","","","","101.00","","","","-16","","NA"
"-94.98","74.72","RESOLUTE CS","2403505","2018-10-21 21:00","2018","10","21","21:00","-15.7","","-17.1","","89","","0.0","","34","","1","","","","101.02","","","","-16","","NA"
"-94.98","74.72","RESOLUTE CS","2403505","2018-10-21 22:00","2018","10","21","22:00","-16.2","","-17.7","","89","","0.0","","34","","1","","","","101.05","","","","-17","","NA"
"-94.98","74.72","RESOLUTE CS","2403505","2018-10-21 23:00","2018","10","21","23:00","-16.7","","-18.1","","88","","0.0","","36","","1","","","","101.07","","","","-17","","NA"
"-94.98","74.72","RESOLUTE CS","2403505","2018-10-22 00:00","2018","10","22","00:00","-18.3","","-19.9","","87","","0.0","","1","","2","","","","101.10","","","","-20","","NA"
"-94.98","74.72","RESOLUTE CS","2403505","2018-10-22 01:00","2018","10","22","01:00","-18.7","","-20.3","","87","","0.0","","1","","2","","","","101.13","","","","-20","","NA"
"-94.98","74.72","RESOLUTE CS","2403505","2018-10-22 02:00","2018","10","22","02:00","-17.1","","-18.4","","90","","0.0","","36","","2","","","","101.15","","","","-19","","NA"
"-94.98","74.72","RESOLUTE CS","2403505","2018-10-22 03:00","2018","10","22","03:00","-18.4","","-19.9","","88","","0.0","","36","","3","","","","101.18","","","","-21","","NA"
"-94.98","74.72","RESOLUTE CS","2403505","2018-10-22 04:00","2018","10","22","04:00","-19.3","","-21.0","","86","","0.0","","33","","12","","","","101.24","","","","-27","","NA"
"-94.98","74.72","RESOLUTE CS","2403505","2018-10-22 05:00","2018","10","22","05:00","-19.4","","-21.0","","87","","0.0","","33","","12","","","","101.25","","","","-27","","NA"
"-94.98","74.72","RESOLUTE CS","2403505","2018-10-22 06:00","2018","10","22","06:00","-18.9","","-20.6","","87","","0.0","","36","","10","","","","101.30","","","","-26","","NA"
"-94.98","74.72","RESOLUTE CS","2403505","2018-10-22 07:00","2018","10","22","07:00","-18.6","","-20.3","","87","","0.0","","33","","13","","","","101.33","","","","-27","","NA"
"-94.98","74.72","RESOLUTE CS","2403505","2018-10-22 08:00","2018","10","22","08:00","-18.2","","-19.7","","88","","0.0","","32","","13","","","","101.33","","","","-26","","NA"
"-94.98","74.72","RESOLUTE CS","2403505","2018-10-22 09:00","2018","10","22","09:00","-18.3","","-19.9","","88","","0.0","","33","","15","","","","101.38","","","","-27","","NA"
"-94.98","74.72","RESOLUTE CS","2403505","2018-10-22 10:00","2018","10","22","10:00","-19.3","","-21.0","","86","","0.0","","32","","12","","","","101.41","","","","-27","","NA"
"-94.98","74.72","RESOLUTE CS","2403505","2018-10-22 11:00","2018","10","22","11:00","-18.0","","-19.5","","88","","0.0","","33","","15","","","","101.42","","","","-27","","NA"
"-94.98","74.72","RESOLUTE CS","2403505","2018-10-22 12:00","2018","10","22","12:00","-17.6","","-19.1","","88","","0.0","","34","","9","","","","101.48","","","","-24","","NA"
"-94.98","74.72","RESOLUTE CS","2403505","2018-10-22 13:00","2018","10","22","13:00","-17.9","","-19.4","","88","","0.0","","34","","16","","","","101.50","","","","-27","","NA"
"-94.98","74.72","RESOLUTE CS","2403505","2018-10-22 14:00","2018","10","22","14:00","-19.1","","-20.7","","87","","0.0","","34","","9","","","","101.55","","","","-26","","NA"
"-94.98","74.72","RESOLUTE CS","2403505","2018-10-22 15:00","2018","10","22","15:00","-19.2","","-21.0","","86","","0.0","","36","","5","","","","101.60","","","","-23","","NA"
"-94.98","74.72","RESOLUTE CS","2403505","2018-10-22 16:00","2018","10","22","16:00","-18.9","","-20.5","","87","","0.0","","35","","7","","","","101.63","","","","-24","","NA"
"-94.98","74.72","RESOLUTE CS","2403505","2018-10-22 17:00","2018","10","22","17:00","-18.5","","-20.2","","87","","0.0","","35","","11","","","","101.65","","","","-26","","NA"
"-94.98","74.72","RESOLUTE CS","2403505","2018-10-22 18:00","2018","10","22","18:00","-19.4","","-21.1","","86","","0.0","","34","","8","","","","101.71","","","","-26","","NA"
"-94.98","74.72","RESOLUTE CS","2403505","2018-10-22 19:00","2018","10","22","19:00","-17.9","","-19.5","","87","","0.0","","35","","14","","","","101.72","","","","-26","","NA"
"-94.98","74.72","RESOLUTE CS","2403505","2018-10-22 20:00","2018","10","22","20:00","-19.7","","-21.5","","86","","0.0","","34","","6","","","","101.76","","","","-25","","NA"
"-94.98","74.72","RESOLUTE CS","2403505","2018-10-22 21:00","2018","10","22","21:00","-18.2","","-19.8","","87","","0.0","","34","","11","","","","101.74","","","","-25","","NA"
"-94.98","74.72","RESOLUTE CS","2403505","2018-10-22 22:00","2018","10","22","22:00","-18.0","","-19.6","","87","","0.0","","35","","8","","","","101.77","","","","-24","","NA"
"-94.98","74.72","RESOLUTE CS","2403505","2018-10-22 23:00","2018","10","22","23:00","-17.8","","-19.4","","87","","0.0","","35","","8","","","","101.77","","","","-24","","NA"
"-94.98","74.72","RESOLUTE CS","2403505","2018-10-23 00:00","2018","10","23","00:00","-19.4","","-21.1","","86","","0.0","","35","","12","","","","101.81","","","","-27","","NA"
"-94.98","74.72","RESOLUTE CS","2403505","2018-10-23 01:00","2018","10","23","01:00","-20.7","","-22.5","","85","","0.0","","2","","15","","","","101.87","","","","-30","","NA"
"-94.98","74.72","RESOLUTE CS","2403505","2018-10-23 02:00","2018","10","23","02:00","-21.7","","-23.7","","84","","0.0","","35","","5","","","","101.92","","","","-26","","NA"
"-94.98","74.72","RESOLUTE CS","2403505","2018-10-23 03:00","2018","10","23","03:00","-22.5","","-24.5","","84","","0.0","","35","","9","","","","101.94","","","","-30","","NA"
"-94.98","74.72","RESOLUTE CS","2403505","2018-10-23 04:00","2018","10","23","04:00","-22.7","","-24.7","","84","","0.0","","3","","3","","","","101.96","","","","-25","","NA"
"-94.98","74.72","RESOLUTE CS","2403505","2018-10-23 05:00","2018","10","23","05:00","-22.6","","-24.8","","82","","0.0","","32","","9","","","","101.96","","","","-30","","NA"
"-94.98","74.72","RESOLUTE CS","2403505","2018-10-23 06:00","2018","10","23","06:00","-22.8","","-24.8","","84","","0.0","","35","","10","","","","101.99","","","","-31","","NA"
"-94.98","74.72","RESOLUTE CS","2403505","2018-10-23 07:00","2018","10","23","07:00","-22.1","","-24.1","","84","","0.0","","36","","7","","","","101.99","","","","-28","","NA"
"-94.98","74.72","RESOLUTE CS","2403505","2018-10-23 08:00","2018","10","23","08:00","-23.3","","-25.5","","83","","0.0","","34","","9","","","","101.99","","","","-31","","NA"
"-94.98","74.72","RESOLUTE CS","2403505","2018-10-23 09:00","2018","10","23","09:00","-23.1","","-25.1","","83","","0.0","","1","","6","","","","102.01","","","","-29","","NA"
"-94.98","74.72","RESOLUTE CS","2403505","2018-10-23 10:00","2018","10","23","10:00","-23.0","","-25.0","","84","","0.0","","2","","7","","","","102.02","","","","-29","","NA"
"-94.98","74.72","RESOLUTE CS","2403505","2018-10-23 11:00","2018","10","23","11:00","-23.8","","-25.8","","83","","0.0","","36","","9","","","","102.01","","","","-31","","NA"
"-94.98","74.72","RESOLUTE CS","2403505","2018-10-23 12:00","2018","10","23","12:00","-23.6","","-25.6","","83","","0.0","","2","","11","","","","102.02","","","","-32","","NA"
"-94.98","74.72","RESOLUTE CS","2403505","2018-10-23 13:00","2018","10","23","13:00","-22.7","","-24.6","","84","","0.0","","1","","10","","","","102.01","","","","-30","","NA"
"-94.98","74.72","RESOLUTE CS","2403505","2018-10-23 14:00","2018","10","23","14:00","-21.1","","-23.0","","85","","0.0","","36","","12","","","","102.03","","","","-29","","NA"
"-94.98","74.72","RESOLUTE CS","2403505","2018-10-23 15:00","2018","10","23","15:00","-20.7","","-22.6","","85","","0.0","","36","","10","","","","102.02","","","","-28","","NA"
"-94.98","74.72","RESOLUTE CS","2403505","2018-10-23 16:00","2018","10","23","16:00","-20.3","","-22.1","","86","","0.0","","35","","15","","","","102.02","","","","-29","","NA"
"-94.98","74.72","RESOLUTE CS","2403505","2018-10-23 17:00","2018","10","23","17:00","-20.2","","-22.0","","86","","0.0","","34","","11","","","","102.00","","","","-28","","NA"
"-94.98","74.72","RESOLUTE CS","2403505","2018-10-23 18:00","2018","10","23","18:00","-20.1","","-21.8","","86","","0.0","","33","","9","","","","101.99","","","","-27","","NA"
"-94.98","74.72","RESOLUTE CS","2403505","2018-10-23 19:00","2018","10","23","19:00","-20.5","","-22.3","","85","","0.0","","34","","8","","","","101.96","","","","-27","","NA"
"-94.98","74.72","RESOLUTE CS","2403505","2018-10-23 20:00","2018","10","23","20:00","-20.4","","-22.2","","86","","0.0","","33","","11","","","","101.95","","","","-28","","NA"
"-94.98","74.72","RESOLUTE CS","2403505","2018-10-23 21:00","2018","10","23","21:00","-20.9","","-22.8","","85","","0.0","","32","","12","","","","101.94","","","","-29","","NA"
"-94.98","74.72","RESOLUTE CS","2403505","2018-10-23 22:00","2018","10","23","22:00","-20.4","","-22.2","","85","","0.0","","32","","13","","","","101.92","","","","-29","","NA"
"-94.98","74.72","RESOLUTE CS","2403505","2018-10-23 23:00","2018","10","23","23:00","-20.3","","-22.1","","86","","0.0","","33","","11","","","","101.95","","","","-28","","NA"
"-94.98","74.72","RESOLUTE CS","2403505","2018-10-24 00:00","2018","10","24","00:00","-20.0","","-21.7","","86","","0.0","","33","","12","","","","101.97","","","","-28","","NA"
"-94.98","74.72","RESOLUTE CS","2403505","2018-10-24 01:00","2018","10","24","01:00","-20.0","","-21.8","","86","","0.0","","33","","12","","","","101.99","","","","-28","","NA"
"-94.98","74.72","RESOLUTE CS","2403505","2018-10-24 02:00","2018","10","24","02:00","-20.7","","-22.5","","85","","0.0","","32","","9","","","","102.02","","","","-28","","NA"
"-94.98","74.72","RESOLUTE CS","2403505","2018-10-24 03:00","2018","10","24","03:00","-21.6","","-23.6","","84","","0.0","","33","","10","","","","102.04","","","","-29","","NA"
"-94.98","74.72","RESOLUTE CS","2403505","2018-10-24 04:00","2018","10","24","04:00","-21.5","","-23.3","","85","","0.0","","29","","5","","","","102.04","","","","-26","","NA"
"-94.98","74.72","RESOLUTE CS","2403505","2018-10-24 05:00","2018","10","24","05:00","-21.5","","-23.4","","84","","0.0","","33","","6","","","","102.05","","","","-27","","NA"
"-94.98","74.72","RESOLUTE CS","2403505","2018-10-24 06:00","2018","10","24","06:00","-21.2","","-23.0","","85","","0.0","","33","","9","","","","102.04","","","","-28","","NA"
"-94.98","74.72","RESOLUTE CS","2403505","2018-10-24 07:00","2018","10","24","07:00","-20.7","","-22.6","","85","","0.0","","33","","7","","","","102.06","","","","-26","","NA"
"-94.98","74.72","RESOLUTE CS","2403505","2018-10-24 08:00","2018","10","24","08:00","-20.5","","-22.3","","85","","0.0","","32","","5","","","","102.07","","","","-25","","NA"
"-94.98","74.72","RESOLUTE CS","2403505","2018-10-24 09:00","2018","10","24","09:00","-19.2","","-20.9","","86","","0.0","","33","","6","","","","102.08","","","","-24","","NA"
"-94.98","74.72","RESOLUTE CS","2403505","2018-10-24 10:00","2018","10","24","10:00","-17.3","","-18.8","","88","","0.2","","31","","8","","","","102.10","","","","-23","","NA"
"-94.98","74.72","RESOLUTE CS","2403505","2018-10-24 11:00","2018","10","24","11:00","-16.7","","-18.2","","88","","0.0","","31","","7","","","","102.09","","","","-22","","NA"
"-94.98","74.72","RESOLUTE CS","2403505","2018-10-24 12:00","2018","10","24","12:00","-16.3","","-17.7","","89","","0.0","","31","","4","","","","102.12","","","","-19","","NA"
"-94.98","74.72","RESOLUTE CS","2403505","2018-10-24 13:00","2018","10","24","13:00","-16.0","","-17.4","","89","","0.0","","31","","3","","","","102.13","","","","-18","","NA"
"-94.98","74.72","RESOLUTE CS","2403505","2018-10-24 14:00","2018","10","24","14:00","-15.9","","-17.3","","89","","0.0","","34","","3","","","","102.16","","","","-18","","NA"
"-94.98","74.72","RESOLUTE CS","2403505","2018-10-24 15:00","2018","10","24","15:00","-16.2","","-17.6","","89","","0.0","","34","","3","","","","102.18","","","","-18","","NA"
"-94.98","74.72","RESOLUTE CS","2403505","2018-10-24 16:00","2018","10","24","16:00","-16.3","","-17.7","","89","","0.0","","35","","2","","","","102.21","","","","-18","","NA"
"-94.98","74.72","RESOLUTE CS","2403505","2018-10-24 17:00","2018","10","24","17:00","-16.4","","-17.9","","89","","0.0","","1","","1","","","","102.22","","","","-17","","NA"
"-94.98","74.72","RESOLUTE CS","2403505","2018-10-24 18:00","2018","10","24","18:00","-16.3","","-17.7","","89","","0.0","","0","","1","","","","102.21","","","","-17","","NA"
"-94.98","74.72","RESOLUTE CS","2403505","2018-10-24 19:00","2018","10","24","19:00","-16.2","","-17.6","","89","","0.0","","","","0","","","","102.20","","","","","","NA"
"-94.98","74.72","RESOLUTE CS","2403505","2018-10-24 20:00","2018","10","24","20:00","-16.5","","-18.0","","89","","0.0","","","","0","","","","102.22","","","","","","NA"
"-94.98","74.72","RESOLUTE CS","2403505","2018-10-24 21:00","2018","10","24","21:00","-16.9","","-18.4","","88","","0.0","","","","0","","","","102.24","","","","","","NA"
"-94.98","74.72","RESOLUTE CS","2403505","2018-10-24 22:00","2018","10","24","22:00","-17.0","","-18.5","","88","","0.0","","","","0","","","","102.23","","","","","","NA"
"-94.98","74.72","RESOLUTE CS","2403505","2018-10-24 23:00","2018","10","24","23:00","-16.9","","-18.3","","88","","0.0","","","","0","","","","102.23","","","","","","NA"
"-94.98","74.72","RESOLUTE CS","2403505","2018-10-25 00:00","2018","10","25","00:00","-17.4","","-18.9","","88","","0.0","","","","0","","","","102.24","","","","","","NA"
"-94.98","74.72","RESOLUTE CS","2403505","2018-10-25 01:00","2018","10","25","01:00","-17.8","","-19.3","","88","","0.0","","","","0","","","","102.26","","","","","","NA"
"-94.98","74.72","RESOLUTE CS","2403505","2018-10-25 02:00","2018","10","25","02:00","-18.0","","-19.6","","87","","0.0","","","","0","","","","102.29","","","","","","NA"
"-94.98","74.72","RESOLUTE CS","2403505","2018-10-25 03:00","2018","10","25","03:00","-19.4","","-21.1","","86","","0.0","","7","","2","","","","102.28","","","","-21","","NA"
"-94.98","74.72","RESOLUTE CS","2403505","2018-10-25 04:00","2018","10","25","04:00","-17.5","","-19.0","","88","","0.0","","","","0","","","","102.29","","","","","","NA"
"-94.98","74.72","RESOLUTE CS","2403505","2018-10-25 05:00","2018","10","25","05:00","-16.4","","-17.8","","89","","0.0","","","","0","","","","102.28","","","","","","NA"
"-94.98","74.72","RESOLUTE CS","2403505","2018-10-25 06:00","2018","10","25","06:00","-16.5","","-18.0","","88","","0.0","","18","","5","","","","102.29","","","","-20","","NA"
"-94.98","74.72","RESOLUTE CS","2403505","2018-10-25 07:00","2018","10","25","07:00","-16.1","","-17.5","","89","","0.0","","15","","4","","","","102.28","","","","-19","","NA"
"-94.98","74.72","RESOLUTE CS","2403505","2018-10-25 08:00","2018","10","25","08:00","-15.8","","-17.2","","89","","0.0","","14","","7","","","","102.24","","","","-21","","NA"
"-94.98","74.72","RESOLUTE CS","2403505","2018-10-25 09:00","2018","10","25","09:00","-15.2","","-16.5","","90","","0.0","","13","","5","","","","102.22","","","","-19","","NA"
"-94.98","74.72","RESOLUTE CS","2403505","2018-10-25 10:00","2018","10","25","10:00","-16.3","","-17.8","","88","","0.0","","13","","6","","","","102.20","","","","-21","","NA"
"-94.98","74.72","RESOLUTE CS","2403505","2018-10-25 11:00","2018","10","25","11:00","-16.6","","-18.0","","89","","0.0","","12","","7","","","","102.19","","","","-22","","NA"
"-94.98","74.72","RESOLUTE CS","2403505","2018-10-25 12:00","2018","10","25","12:00","-15.6","","-16.9","","90","","0.0","","12","","7","","","","102.17","","","","-21","","NA"
"-94.98","74.72","RESOLUTE CS","2403505","2018-10-25 13:00","2018","10","25","13:00","-15.8","","-17.2","","89","","0.0","","12","","6","","","","102.17","","","","-20","","NA"
"-94.98","74.72","RESOLUTE CS","2403505","2018-10-25 14:00","2018","10","25","14:00","-16.5","","-18.0","","89","","0.0","","12","","5","","","","102.17","","","","-20","","NA"
"-94.98","74.72","RESOLUTE CS","2403505","2018-10-25 15:00","2018","10","25","15:00","-15.6","","-17.0","","89","","0.0","","13","","4","","","","102.18","","","","-19","","NA"
"-94.98","74.72","RESOLUTE CS","2403505","2018-10-25 16:00","2018","10","25","16:00","-14.9","","-16.2","","90","","0.0","","12","","4","","","","102.13","","","","-18","","NA"
"-94.98","74.72","RESOLUTE CS","2403505","2018-10-25 17:00","2018","10","25","17:00","-14.3","","-15.5","","90","","0.2","","12","","6","","","","102.06","","","","-18","","NA"
"-94.98","74.72","RESOLUTE CS","2403505","2018-10-25 18:00","2018","10","25","18:00","-16.3","","-17.7","","89","","0.0","","13","","6","","","","102.06","","","","-21","","NA"
"-94.98","74.72","RESOLUTE CS","2403505","2018-10-25 19:00","2018","10","25","19:00","-16.8","","-18.2","","88","","0.0","","13","","7","","","","102.03","","","","-22","","NA"
"-94.98","74.72","RESOLUTE CS","2403505","2018-10-25 20:00","2018","10","25","20:00","-17.0","","-18.5","","88","","0.0","","13","","7","","","","102.01","","","","-22","","NA"
"-94.98","74.72","RESOLUTE CS","2403505","2018-10-25 21:00","2018","10","25","21:00","-17.4","","-18.9","","88","","0.0","","13","","6","","","","102.01","","","","-22","","NA"
"-94.98","74.72","RESOLUTE CS","2403505","2018-10-25 22:00","2018","10","25","22:00","-17.1","","-18.6","","88","","0.0","","12","","7","","","","102.00","","","","-22","","NA"
"-94.98","74.72","RESOLUTE CS","2403505","2018-10-25 23:00","2018","10","25","23:00","-17.2","","-18.7","","88","","0.0","","13","","6","","","","102.00","","","","-22","","NA"
"-94.98","74.72","RESOLUTE CS","2403505","2018-10-26 00:00","2018","10","26","00:00","-16.5","","-18.0","","89","","0.0","","13","","7","","","","101.97","","","","-22","","NA"
"-94.98","74.72","RESOLUTE CS","2403505","2018-10-26 01:00","2018","10","26","01:00","-16.3","","-17.8","","89","","0.0","","13","","6","","","","102.00","","","","-21","","NA"
"-94.98","74.72","RESOLUTE CS","2403505","2018-10-26 02:00","2018","10","26","02:00","-16.4","","-17.9","","88","","0.0","","13","","7","","","","101.98","","","","-21","","NA"
"-94.98","74.72","RESOLUTE CS","2403505","2018-10-26 03:00","2018","10","26","03:00","-16.6","","-18.1","","88","","0.0","","13","","6","","","","101.97","","","","-21","","NA"
"-94.98","74.72","RESOLUTE CS","2403505","2018-10-26 04:00","2018","10","26","04:00","-16.3","","-17.7","","89","","0.0","","12","","6","","","","101.94","","","","-21","","NA"
"-94.98","74.72","RESOLUTE CS","2403505","2018-10-26 05:00","2018","10","26","05:00","-15.3","","-16.6","","90","","0.0","","13","","6","","","","101.92","","","","-20","","NA"
"-94.98","74.72","RESOLUTE CS","2403505","2018-10-26 06:00","2018","10","26","06:00","-13.3","","-14.5","","91","","0.0","","13","","6","","","","101.92","","","","-17","","NA"
"-94.98","74.72","RESOLUTE CS","2403505","2018-10-26 07:00","2018","10","26","07:00","-12.8","","-14.0","","91","","0.0","","14","","7","","","","101.87","","","","-17","","NA"
"-94.98","74.72","RESOLUTE CS","2403505","2018-10-26 08:00","2018","10","26","08:00","-12.3","","-13.5","","91","","0.0","","13","","8","","","","101.83","","","","-17","","NA"
"-94.98","74.72","RESOLUTE CS","2403505","2018-10-26 09:00","2018","10","26","09:00","-11.8","","-12.9","","91","","0.0","","13","","9","","","","101.77","","","","-17","","NA"
"-94.98","74.72","RESOLUTE CS","2403505","2018-10-26 10:00","2018","10","26","10:00","-11.6","","-12.8","","91","","0.0","","14","","14","","","","101.74","","","","-18","","NA"
"-94.98","74.72","RESOLUTE CS","2403505","2018-10-26 11:00","2018","10","26","11:00","-11.7","","-13.0","","90","","0.3","","15","","52","","","","101.71","","","","-24","","NA"
"-94.98","74.72","RESOLUTE CS","2403505","2018-10-26 12:00","2018","10","26","12:00","-11.6","","-13.0","","89","","0.0","","15","","47","","","","101.69","","","","-24","","NA"
"-94.98","74.72","RESOLUTE CS","2403505","2018-10-26 13:00","2018","10","26","13:00","-11.2","","-12.6","","89","","0.0","","15","","40","","","","101.62","","","","-22","","NA"
"-94.98","74.72","RESOLUTE CS","2403505","2018-10-26 14:00","2018","10","26","14:00","-11.0","","-12.4","","89","","0.0","","15","","36","","","","101.54","","","","-22","","NA"
"-94.98","74.72","RESOLUTE CS","2403505","2018-10-26 15:00","2018","10","26","15:00","-10.5","","-12.0","","89","","0.0","","15","","40","","","","101.47","","","","-21","","NA"
"-94.98","74.72","RESOLUTE CS","2403505","2018-10-26 16:00","2018","10","26","16:00","-10.8","","-12.4","","88","","0.0","","15","","38","","","","101.42","","","","-22","","NA"
"-94.98","74.72","RESOLUTE CS","2403505","2018-10-26 17:00","2018","10","26","17:00","-11.4","","-13.2","","86","","0.0","","15","","37","","","","101.35","","","","-22","","NA"
"-94.98","74.72","RESOLUTE CS","2403505","2018-10-26 18:00","2018","10","26","18:00","-11.6","","-13.3","","88","","0.0","","14","","31","","","","101.26","","","","-22","","NA"
"-94.98","74.72","RESOLUTE CS","2403505","2018-10-26 19:00","2018","10","26","19:00","-13.1","","-14.8","","87","","0.0","","13","","22","","","","101.16","","","","-22","","NA"
"-94.98","74.72","RESOLUTE CS","2403505","2018-10-26 20:00","2018","10","26","20:00","-13.1","","-14.7","","88","","0.0","","12","","25","","","","101.10","","","","-23","","NA"
"-94.98","74.72","RESOLUTE CS","2403505","2018-10-26 21:00","2018","10","26","21:00","-12.7","","-14.3","","88","","0.0","","14","","14","","","","101.00","","","","-20","","NA"
"-94.98","74.72","RESOLUTE CS","2403505","2018-10-26 22:00","2018","10","26","22:00","-12.3","","-13.3","","93","","0.0","","13","","18","","","","100.93","","","","-20","","NA"
"-94.98","74.72","RESOLUTE CS","2403505","2018-10-26 23:00","2018","10","26","23:00","-12.7","","-13.8","","91","","0.0","","14","","16","","","","100.83","","","","-20","","NA"
"-94.98","74.72","RESOLUTE CS","2403505","2018-10-27 00:00","2018","10","27","00:00","-13.5","","-14.7","","91","","0.0","","13","","12","","","","100.77","","","","-20","","NA"
"-94.98","74.72","RESOLUTE CS","2403505","2018-10-27 01:00","2018","10","27","01:00","-15.3","","-16.6","","90","","0.0","","12","","18","","","","100.71","","","","-24","","NA"
"-94.98","74.72","RESOLUTE CS","2403505","2018-10-27 02:00","2018","10","27","02:00","-15.1","","-16.4","","90","","0.0","","12","","19","","","","100.65","","","","-24","","NA"
"-94.98","74.72","RESOLUTE CS","2403505","2018-10-27 03:00","2018","10","27","03:00","-15.2","","-16.5","","89","","0.0","","13","","20","","","","100.58","","","","-24","","NA"
"-94.98","74.72","RESOLUTE CS","2403505","2018-10-27 04:00","2018","10","27","04:00","-16.8","","-18.3","","88","","0.0","","9","","7","","","","100.57","","","","-22","","NA"
"-94.98","74.72","RESOLUTE CS","2403505","2018-10-27 05:00","2018","10","27","05:00","-18.1","","-19.9","","86","","0.0","","10","","15","","","","100.51","","","","-27","","NA"
"-94.98","74.72","RESOLUTE CS","2403505","2018-10-27 06:00","2018","10","27","06:00","-17.1","","-18.5","","89","","0.0","","11","","14","","","","100.48","","","","-25","","NA"
"-94.98","74.72","RESOLUTE CS","2403505","2018-10-27 07:00","2018","10","27","07:00","-17.7","","-19.2","","88","","0.0","","9","","11","","","","100.48","","","","-25","","NA"
"-94.98","74.72","RESOLUTE CS","2403505","2018-10-27 08:00","2018","10","27","08:00","-18.8","","-20.4","","87","","0.0","","9","","9","","","","100.45","","","","-25","","NA"
"-94.98","74.72","RESOLUTE CS","2403505","2018-10-27 09:00","2018","10","27","09:00","-15.9","","-17.2","","90","","0.0","","12","","10","","","","100.46","","","","-22","","NA"
"-94.98","74.72","RESOLUTE CS","2403505","2018-10-27 10:00","2018","10","27","10:00","-15.6","","-17.0","","90","","0.0","","12","","6","","","","100.45","","","","-20","","NA"
"-94.98","74.72","RESOLUTE CS","2403505","2018-10-27 11:00","2018","10","27","11:00","-16.9","","-18.3","","89","","0.0","","12","","2","","","","100.45","","","","-18","","NA"
"-94.98","74.72","RESOLUTE CS","2403505","2018-10-27 12:00","2018","10","27","12:00","-19.4","","-21.0","","87","","0.0","","7","","1","","","","100.43","","","","-20","","NA"
"-94.98","74.72","RESOLUTE CS","2403505","2018-10-27 13:00","2018","10","27","13:00","-18.2","","-19.6","","89","","0.0","","","","0","","","","100.43","","","","","","NA"
"-94.98","74.72","RESOLUTE CS","2403505","2018-10-27 14:00","2018","10","27","14:00","-18.9","","-20.6","","87","","0.0","","0","","1","","","","100.43","","","","-20","","NA"
"-94.98","74.72","RESOLUTE CS","2403505","2018-10-27 15:00","2018","10","27","15:00","-18.7","","-20.3","","87","","0.0","","","","0","","","","100.44","","","","","","NA"
"-94.98","74.72","RESOLUTE CS","2403505","2018-10-27 16:00","2018","10","27","16:00","-18.2","","-19.8","","87","","0.0","","","","0","","","","100.44","","","","","","NA"
"-94.98","74.72","RESOLUTE CS","2403505","2018-10-27 17:00","2018","10","27","17:00","-18.4","","-20.0","","87","","0.0","","35","","1","","","","100.47","","","","-19","","NA"
"-94.98","74.72","RESOLUTE CS","2403505","2018-10-27 18:00","2018","10","27","18:00","-18.9","","-20.5","","87","","0.0","","","","0","","","","100.45","","","","","","NA"
"-94.98","74.72","RESOLUTE CS","2403505","2018-10-27 19:00","2018","10","27","19:00","-19.0","","-20.7","","87","","0.0","","0","","1","","","","100.45","","","","-20","","NA"
"-94.98","74.72","RESOLUTE CS","2403505","2018-10-27 20:00","2018","10","27","20:00","-19.2","","-20.9","","86","","0.0","","36","","2","","","","100.46","","","","-21","","NA"
"-94.98","74.72","RESOLUTE CS","2403505","2018-10-27 21:00","2018","10","27","21:00","-19.4","","-21.2","","86","","0.0","","36","","2","","","","100.45","","","","-21","","NA"
"-94.98","74.72","RESOLUTE CS","2403505","2018-10-27 22:00","2018","10","27","22:00","-19.9","","-21.7","","86","","0.0","","36","","3","","","","100.46","","","","-22","","NA"
"-94.98","74.72","RESOLUTE CS","2403505","2018-10-27 23:00","2018","10","27","23:00","-19.4","","-21.1","","86","","0.0","","36","","2","","","","100.46","","","","-21","","NA"
"-94.98","74.72","RESOLUTE CS","2403505","2018-10-28 00:00","2018","10","28","00:00","-19.3","","-21.0","","86","","0.0","","35","","2","","","","100.48","","","","-21","","NA"
"-94.98","74.72","RESOLUTE CS","2403505","2018-10-28 01:00","2018","10","28","01:00","-19.2","","-20.9","","86","","0.0","","0","","1","","","","100.49","","","","-20","","NA"
"-94.98","74.72","RESOLUTE CS","2403505","2018-10-28 02:00","2018","10","28","02:00","-19.6","","-21.3","","86","","0.0","","35","","1","","","","100.50","","","","-20","","NA"
"-94.98","74.72","RESOLUTE CS","2403505","2018-10-28 03:00","2018","10","28","03:00","-18.9","","-20.6","","87","","0.2","","36","","1","","","","100.52","","","","-20","","NA"
"-94.98","74.72","RESOLUTE CS","2403505","2018-10-28 04:00","2018","10","28","04:00","-18.0","","-19.6","","87","","0.0","","","","0","","","","100.52","","","","","","NA"
"-94.98","74.72","RESOLUTE CS","2403505","2018-10-28 05:00","2018","10","28","05:00","-17.9","","-19.5","","88","","0.0","","","","0","","","","100.54","","","","","","NA"
"-94.98","74.72","RESOLUTE CS","2403505","2018-10-28 06:00","2018","10","28","06:00","-17.6","","-19.2","","88","","0.2","","0","","1","","","","100.54","","","","-18","","NA"
"-94.98","74.72","RESOLUTE CS","2403505","2018-10-28 07:00","2018","10","28","07:00","-16.8","","-18.2","","88","","0.2","","23","","1","","","","100.54","","","","-18","","NA"
"-94.98","74.72","RESOLUTE CS","2403505","2018-10-28 08:00","2018","10","28","08:00","-16.5","","-18.0","","88","","0.0","","20","","2","","","","100.55","","","","-18","","NA"
"-94.98","74.72","RESOLUTE CS","2403505","2018-10-28 09:00","2018","10","28","09:00","-15.7","","-17.1","","89","","0.0","","20","","2","","","","100.56","","","","-17","","NA"
"-94.98","74.72","RESOLUTE CS","2403505","2018-10-28 10:00","2018","10","28","10:00","-15.2","","-16.5","","90","","0.2","","18","","1","","","","100.56","","","","-16","","NA"
"-94.98","74.72","RESOLUTE CS","2403505","2018-10-28 11:00","2018","10","28","11:00","-14.7","","-16.0","","90","","0.0","","22","","1","","","","100.59","","","","-15","","NA"
"-94.98","74.72","RESOLUTE CS","2403505","2018-10-28 12:00","2018","10","28","12:00","-14.1","","-15.3","","91","","0.0","","22","","2","","","","100.61","","","","-15","","NA"
"-94.98","74.72","RESOLUTE CS","2403505","2018-10-28 13:00","2018","10","28","13:00","-13.7","","-15.0","","91","","0.0","","19","","2","","","","100.61","","","","-15","","NA"
"-94.98","74.72","RESOLUTE CS","2403505","2018-10-28 14:00","2018","10","28","14:00","-13.3","","-14.4","","91","","0.0","","19","","2","","","","100.63","","","","-15","","NA"
"-94.98","74.72","RESOLUTE CS","2403505","2018-10-28 15:00","2018","10","28","15:00","-12.9","","-14.0","","91","","0.0","","19","","2","","","","100.64","","","","-14","","NA"
"-94.98","74.72","RESOLUTE CS","2403505","2018-10-28 16:00","2018","10","28","16:00","-13.0","","-14.1","","91","","0.2","","23","","2","","","","100.67","","","","-14","","NA"
"-94.98","74.72","RESOLUTE CS","2403505","2018-10-28 17:00","2018","10","28","17:00","-12.6","","-13.7","","91","","0.0","","22","","3","","","","100.67","","","","-15","","NA"
"-94.98","74.72","RESOLUTE CS","2403505","2018-10-28 18:00","2018","10","28","18:00","-12.7","","-13.8","","91","","0.0","","16","","2","","","","100.68","","","","-14","","NA"
"-94.98","74.72","RESOLUTE CS","2403505","2018-10-28 19:00","2018","10","28","19:00","-12.4","","-13.5","","92","","0.0","","16","","2","","","","100.73","","","","-14","","NA"
"-94.98","74.72","RESOLUTE CS","2403505","2018-10-28 20:00","2018","10","28","20:00","-12.5","","-13.6","","91","","0.0","","16","","2","","","","100.75","","","","-14","","NA"
"-94.98","74.72","RESOLUTE CS","2403505","2018-10-28 21:00","2018","10","28","21:00","-12.6","","-13.7","","91","","0.0","","20","","3","","","","100.78","","","","-15","","NA"
"-94.98","74.72","RESOLUTE CS","2403505","2018-10-28 22:00","2018","10","28","22:00","-12.8","","-13.9","","91","","0.0","","15","","2","","","","100.83","","","","-14","","NA"
"-94.98","74.72","RESOLUTE CS","2403505","2018-10-28 23:00","2018","10","28","23:00","-12.9","","-14.0","","91","","0.0","","18","","2","","","","100.83","","","","-14","","NA"
"-94.98","74.72","RESOLUTE CS","2403505","2018-10-29 00:00","2018","10","29","00:00","-13.4","","-14.6","","91","","0.0","","19","","2","","","","100.85","","","","-15","","NA"
"-94.98","74.72","RESOLUTE CS","2403505","2018-10-29 01:00","2018","10","29","01:00","-12.7","","-13.8","","91","","0.0","","21","","4","","","","100.87","","","","-15","","NA"
"-94.98","74.72","RESOLUTE CS","2403505","2018-10-29 02:00","2018","10","29","02:00","-12.5","","-13.5","","92","","0.0","","20","","3","","","","100.89","","","","-14","","NA"
"-94.98","74.72","RESOLUTE CS","2403505","2018-10-29 03:00","2018","10","29","03:00","-12.3","","-13.4","","92","","0.0","","20","","2","","","","100.94","","","","-14","","NA"
"-94.98","74.72","RESOLUTE CS","2403505","2018-10-29 04:00","2018","10","29","04:00","-12.5","","-13.6","","91","","0.0","","20","","3","","","","100.96","","","","-14","","NA"
"-94.98","74.72","RESOLUTE CS","2403505","2018-10-29 05:00","2018","10","29","05:00","-12.4","","-13.4","","92","","0.0","","17","","3","","","","100.99","","","","-14","","NA"
"-94.98","74.72","RESOLUTE CS","2403505","2018-10-29 06:00","2018","10","29","06:00","-11.6","","-12.6","","92","","0.0","","18","","4","","","","101.00","","","","-14","","NA"
"-94.98","74.72","RESOLUTE CS","2403505","2018-10-29 07:00","2018","10","29","07:00","-11.4","","-12.4","","92","","0.0","","20","","6","","","","100.98","","","","-15","","NA"
"-94.98","74.72","RESOLUTE CS","2403505","2018-10-29 08:00","2018","10","29","08:00","-11.0","","-12.0","","92","","0.0","","20","","6","","","","101.00","","","","-15","","NA"
"-94.98","74.72","RESOLUTE CS","2403505","2018-10-29 09:00","2018","10","29","09:00","-11.0","","-11.9","","93","","0.0","","20","","6","","","","101.01","","","","-15","","NA"
"-94.98","74.72","RESOLUTE CS","2403505","2018-10-29 10:00","2018","10","29","10:00","-10.6","","-11.5","","93","","0.0","","20","","7","","","","101.01","","","","-15","","NA"
"-94.98","74.72","RESOLUTE CS","2403505","2018-10-29 11:00","2018","10","29","11:00","-10.4","","-11.3","","93","","0.0","","20","","20","","","","101.05","","","","-18","","NA"
"-94.98","74.72","RESOLUTE CS","2403505","2018-10-29 12:00","2018","10","29","12:00","-10.2","","-11.1","","93","","0.0","","19","","31","","","","101.09","","","","-20","","NA"
"-94.98","74.72","RESOLUTE CS","2403505","2018-10-29 13:00","2018","10","29","13:00","-10.2","","-11.1","","93","","0.0","","19","","23","","","","101.12","","","","-19","","NA"
"-94.98","74.72","RESOLUTE CS","2403505","2018-10-29 14:00","2018","10","29","14:00","-10.1","","-11.0","","93","","0.0","","19","","16","","","","101.17","","","","-17","","NA"
"-94.98","74.72","RESOLUTE CS","2403505","2018-10-29 15:00","2018","10","29","15:00","-10.0","","-10.9","","93","","0.0","","19","","19","","","","101.21","","","","-18","","NA"
"-94.98","74.72","RESOLUTE CS","2403505","2018-10-29 16:00","2018","10","29","16:00","-10.8","","-11.7","","93","","0.0","","20","","16","","","","101.25","","","","-18","","NA"
"-94.98","74.72","RESOLUTE CS","2403505","2018-10-29 17:00","2018","10","29","17:00","-10.3","","-11.2","","93","","0.0","","19","","16","","","","101.27","","","","-17","","NA"
"-94.98","74.72","RESOLUTE CS","2403505","2018-10-29 18:00","2018","10","29","18:00","-10.1","","-11.0","","93","","0.0","","19","","19","","","","101.27","","","","-18","","NA"
"-94.98","74.72","RESOLUTE CS","2403505","2018-10-29 19:00","2018","10","29","19:00","-10.1","","-11.0","","93","","0.2","","19","","20","","","","101.27","","","","-18","","NA"
"-94.98","74.72","RESOLUTE CS","2403505","2018-10-29 20:00","2018","10","29","20:00","-10.1","","-11.0","","93","","0.0","","20","","17","","","","101.30","","","","-17","","NA"
"-94.98","74.72","RESOLUTE CS","2403505","2018-10-29 21:00","2018","10","29","21:00","-10.4","","-11.3","","93","","0.0","","20","","18","","","","101.31","","","","-18","","NA"
"-94.98","74.72","RESOLUTE CS","2403505","2018-10-29 22:00","2018","10","29","22:00","-10.7","","-11.6","","93","","0.0","","18","","14","","","","101.31","","","","-17","","NA"
"-94.98","74.72","RESOLUTE CS","2403505","2018-10-29 23:00","2018","10","29","23:00","-10.5","","-11.4","","93","","0.0","","19","","20","","","","101.34","","","","-18","","NA"
"-94.98","74.72","RESOLUTE CS","2403505","2018-10-30 00:00","2018","10","30","00:00","-10.6","","-11.6","","93","","0.0","","18","","17","","","","101.37","","","","-18","","NA"
"-94.98","74.72","RESOLUTE CS","2403505","2018-10-30 01:00","2018","10","30","01:00","-10.7","","-11.6","","93","","0.0","","19","","20","","","","101.40","","","","-19","","NA"
"-94.98","74.72","RESOLUTE CS","2403505","2018-10-30 02:00","2018","10","30","02:00","-10.6","","-11.6","","93","","0.0","","19","","19","","","","101.41","","","","-18","","NA"
"-94.98","74.72","RESOLUTE CS","2403505","2018-10-30 03:00","2018","10","30","03:00","-10.6","","-11.5","","93","","0.0","","19","","17","","","","101.42","","","","-18","","NA"
"-94.98","74.72","RESOLUTE CS","2403505","2018-10-30 04:00","2018","10","30","04:00","-10.6","","-11.5","","93","","0.0","","17","","15","","","","101.42","","","","-17","","NA"
"-94.98","74.72","RESOLUTE CS","2403505","2018-10-30 05:00","2018","10","30","05:00","-10.5","","-11.4","","93","","0.0","","16","","13","","","","101.43","","","","-17","","NA"
"-94.98","74.72","RESOLUTE CS","2403505","2018-10-30 06:00","2018","10","30","06:00","-10.4","","-11.3","","93","","0.0","","18","","9","","","","101.44","","","","-15","","NA"
"-94.98","74.72","RESOLUTE CS","2403505","2018-10-30 07:00","2018","10","30","07:00","-10.4","","-11.3","","93","","0.0","","16","","11","","","","101.44","","","","-16","","NA"
"-94.98","74.72","RESOLUTE CS","2403505","2018-10-30 08:00","2018","10","30","08:00","-10.4","","-11.3","","93","","0.0","","17","","13","","","","101.44","","","","-17","","NA"
"-94.98","74.72","RESOLUTE CS","2403505","2018-10-30 09:00","2018","10","30","09:00","-10.3","","-11.2","","93","","0.0","","18","","12","","","","101.43","","","","-16","","NA"
"-94.98","74.72","RESOLUTE CS","2403505","2018-10-30 10:00","2018","10","30","10:00","-10.3","","-11.2","","93","","0.0","","16","","13","","","","101.43","","","","-17","","NA"
"-94.98","74.72","RESOLUTE CS","2403505","2018-10-30 11:00","2018","10","30","11:00","-10.3","","-11.2","","93","","0.0","","17","","12","","","","101.45","","","","-16","","NA"
"-94.98","74.72","RESOLUTE CS","2403505","2018-10-30 12:00","2018","10","30","12:00","-10.1","","-11.0","","93","","0.2","","16","","12","","","","101.45","","","","-16","","NA"
"-94.98","74.72","RESOLUTE CS","2403505","2018-10-30 13:00","2018","10","30","13:00","-10.0","","-10.9","","93","","0.0","","17","","13","","","","101.46","","","","-16","","NA"
"-94.98","74.72","RESOLUTE CS","2403505","2018-10-30 14:00","2018","10","30","14:00","-10.1","","-11.0","","93","","0.0","","17","","11","","","","101.49","","","","-16","","NA"
"-94.98","74.72","RESOLUTE CS","2403505","2018-10-30 15:00","2018","10","30","15:00","-10.0","","-10.8","","93","","0.0","","14","","9","","","","101.51","","","","-15","","NA"
"-94.98","74.72","RESOLUTE CS","2403505","2018-10-30 16:00","2018","10","30","16:00","-9.7","","-10.5","","93","","0.0","","16","","9","","","","101.52","","","","-15","","NA"
"-94.98","74.72","RESOLUTE CS","2403505","2018-10-30 17:00","2018","10","30","17:00","-9.5","","-10.4","","94","","0.0","","14","","4","","","","101.54","","","","-12","","NA"
"-94.98","74.72","RESOLUTE CS","2403505","2018-10-30 18:00","2018","10","30","18:00","-9.4","","-10.2","","94","","0.0","","14","","4","","","","101.53","","","","-12","","NA"
"-94.98","74.72","RESOLUTE CS","2403505","2018-10-30 19:00","2018","10","30","19:00","-9.2","","-10.0","","94","","0.2","","27","","7","","","","101.53","","","","-13","","NA"
"-94.98","74.72","RESOLUTE CS","2403505","2018-10-30 20:00","2018","10","30","20:00","-9.8","","-10.7","","93","","0.0","","27","","8","","","","101.51","","","","-14","","NA"
"-94.98","74.72","RESOLUTE CS","2403505","2018-10-30 21:00","2018","10","30","21:00","-10.5","","-11.4","","93","","0.0","","26","","5","","","","101.49","","","","-14","","NA"
"-94.98","74.72","RESOLUTE CS","2403505","2018-10-30 22:00","2018","10","30","22:00","-11.5","","-12.5","","92","","0.0","","35","","3","","","","101.50","","","","-13","","NA"
"-94.98","74.72","RESOLUTE CS","2403505","2018-10-30 23:00","2018","10","30","23:00","-12.1","","-13.1","","92","","0.0","","31","","4","","","","101.51","","","","-15","","NA"
"-94.98","74.72","RESOLUTE CS","2403505","2018-10-31 00:00","2018","10","31","00:00","-12.1","","-13.2","","92","","0.0","","32","","5","","","","101.52","","","","-15","","NA"
"-94.98","74.72","RESOLUTE CS","2403505","2018-10-31 01:00","2018","10","31","01:00","-12.1","","-13.1","","92","","0.0","","28","","7","","","","101.55","","","","-16","","NA"
"-94.98","74.72","RESOLUTE CS","2403505","2018-10-31 02:00","2018","10","31","02:00","-12.3","","-13.3","","92","","0.0","","30","","3","","","","101.57","","","","-14","","NA"
"-94.98","74.72","RESOLUTE CS","2403505","2018-10-31 03:00","2018","10","31","03:00","-12.3","","-13.4","","92","","0.0","","","","0","","","","101.57","","","","","","NA"
"-94.98","74.72","RESOLUTE CS","2403505","2018-10-31 04:00","2018","10","31","04:00","-12.8","","-13.9","","91","","0.0","","25","","1","","","","101.57","","","","-13","","NA"
"-94.98","74.72","RESOLUTE CS","2403505","2018-10-31 05:00","2018","10","31","05:00","-13.9","","-15.1","","91","","0.0","","","","0","","","","101.57","","","","","","NA"
"-94.98","74.72","RESOLUTE CS","2403505","2018-10-31 06:00","2018","10","31","06:00","-14.9","","-16.2","","90","","0.0","","0","","1","","","","101.58","","","","-16","","NA"
"-94.98","74.72","RESOLUTE CS","2403505","2018-10-31 07:00","2018","10","31","07:00","-15.4","","-16.7","","90","","0.0","","34","","1","","","","101.56","","","","-16","","NA"
"-94.98","74.72","RESOLUTE CS","2403505","2018-10-31 08:00","2018","10","31","08:00","-15.5","","-16.8","","89","","0.0","","0","","1","","","","101.57","","","","-16","","NA"
"-94.98","74.72","RESOLUTE CS","2403505","2018-10-31 09:00","2018","10","31","09:00","-16.0","","-17.4","","89","","0.0","","","","0","","","","101.57","","","","","","NA"
"-94.98","74.72","RESOLUTE CS","2403505","2018-10-31 10:00","2018","10","31","10:00","-16.5","","-17.9","","89","","0.0","","","","0","","","","101.61","","","","","","NA"
"-94.98","74.72","RESOLUTE CS","2403505","2018-10-31 11:00","2018","10","31","11:00"
"-94.98","74.72","RESOLUTE CS","2403505","2018-10-31 12:00","2018","10","31","12:00"
"-94.98","74.72","RESOLUTE CS","2403505","2018-10-31 13:00","2018","10","31","13:00"
"-94.98","74.72","RESOLUTE CS","2403505","2018-10-31 14:00","2018","10","31","14:00"
"-94.98","74.72","RESOLUTE CS","2403505","2018-10-31 15:00","2018","10","31","15:00"
"-94.98","74.72","RESOLUTE CS","2403505","2018-10-31 16:00","2018","10","31","16:00"
"-94.98","74.72","RESOLUTE CS","2403505","2018-10-31 17:00","2018","10","31","17:00"
"-94.98","74.72","RESOLUTE CS","2403505","2018-10-31 18:00","2018","10","31","18:00","-14.6","","-15.9","","90","","0.0","","","","0","","","","101.74","","","","","","NA"
"-94.98","74.72","RESOLUTE CS","2403505","2018-10-31 19:00","2018","10","31","19:00","-14.9","","-16.2","","90","","0.0","","","","0","","","","101.77","","","","","","NA"
"-94.98","74.72","RESOLUTE CS","2403505","2018-10-31 20:00","2018","10","31","20:00","-14.8","","-16.1","","90","","0.2","","","","0","","","","101.76","","","","","","NA"
"-94.98","74.72","RESOLUTE CS","2403505","2018-10-31 21:00","2018","10","31","21:00","-14.7","","-15.9","","90","","0.0","","","","0","","","","101.77","","","","","","NA"
"-94.98","74.72","RESOLUTE CS","2403505","2018-10-31 22:00","2018","10","31","22:00","-14.8","","-16.1","","90","","0.0","","","","0","","","","101.75","","","","","","NA"
"-94.98","74.72","RESOLUTE CS","2403505","2018-10-31 23:00","2018","10","31","23:00","-15.0","","-16.3","","90","","0.0","","","","0","","","","101.73","","","","","","NA"
