"Longitude (x)","Latitude (y)","Station Name","Climate ID","Date/Time (LST)","Year","Month","Day","Time (LST)","Temp (°C)","Temp Flag","Dew Point Temp (°C)","Dew Point Temp Flag","Rel Hum (%)","Rel Hum Flag","Precip. Amount (mm)","Precip. Amount Flag","Wind Dir (10s deg)","Wind Dir Flag","Wind Spd (km/h)","Wind Spd Flag","Visibility (km)","Visibility Flag","Stn Press (kPa)","Stn Press Flag","Hmdx","Hmdx Flag","Wind Chill","Wind Chill Flag","Weather"
"-139.84","67.57","OLD CROW A","2100801","2020-06-01 00:00","2020","06","01","00:00"
"-139.84","67.57","OLD CROW A","2100801","2020-06-01 01:00","2020","06","01","01:00"
"-139.84","67.57","OLD CROW A","2100801","2020-06-01 02:00","2020","06","01","02:00"
"-139.84","67.57","OLD CROW A","2100801","2020-06-01 03:00","2020","06","01","03:00"
"-139.84","67.57","OLD CROW A","2100801","2020-06-01 04:00","2020","06","01","04:00"
"-139.84","67.57","OLD CROW A","2100801","2020-06-01 05:00","2020","06","01","05:00","2.6","","-1.5","","74","","","","36","","2","","56.3","","97.97","","","","","","NA"
"-139.84","67.57","OLD CROW A","2100801","2020-06-01 06:00","2020","06","01","06:00","3.0","","-2.7","","66","","","","5","","12","","56.3","","97.99","","","","","","NA"
"-139.84","67.57","OLD CROW A","2100801","2020-06-01 07:00","2020","06","01","07:00","3.1","","-3.6","","61","","","","5","","29","","56.3","","97.99","","","","","","Clear"
"-139.84","67.57","OLD CROW A","2100801","2020-06-01 08:00","2020","06","01","08:00","5.2","","-3.3","","54","","","","5","","18","","56.3","","98.00","","","","","","NA"
"-139.84","67.57","OLD CROW A","2100801","2020-06-01 09:00","2020","06","01","09:00","6.1","","-3.3","","51","","","","4","","22","","56.3","","97.97","","","","","","NA"
"-139.84","67.57","OLD CROW A","2100801","2020-06-01 10:00","2020","06","01","10:00","7.8","","-3.2","","46","","","","5","","23","","56.3","","97.95","","","","","","Clear"
"-139.84","67.57","OLD CROW A","2100801","2020-06-01 11:00","2020","06","01","11:00","9.2","","-3.2","","41","","","","2","","19","","56.3","","97.91","","","","","","NA"
"-139.84","67.57","OLD CROW A","2100801","2020-06-01 12:00","2020","06","01","12:00","10.5","","-3.2","","38","","","","4","","22","","56.3","","97.87","","","","","","NA"
"-139.84","67.57","OLD CROW A","2100801","2020-06-01 13:00","2020","06","01","13:00","11.4","","-2.3","","38","","","","2","","18","","56.3","","97.83","","","","","","Clear"
"-139.84","67.57","OLD CROW A","2100801","2020-06-01 14:00","2020","06","01","14:00","12.5","","-2.3","","36","","","","3","","21","","56.3","","97.78","","","","","","NA"
"-139.84","67.57","OLD CROW A","2100801","2020-06-01 15:00","2020","06","01","15:00","13.3","","-1.9","","35","","","","4","","22","","56.3","","97.74","","","","","","NA"
"-139.84","67.57","OLD CROW A","2100801","2020-06-01 16:00","2020","06","01","16:00","14.3","","-0.4","","36","","","","6","","16","","56.3","","97.70","","","","","","Clear"
"-139.84","67.57","OLD CROW A","2100801","2020-06-01 17:00","2020","06","01","17:00","14.1","","-1.8","","33","","","","4","","24","","56.3","","97.65","","","","","","NA"
"-139.84","67.57","OLD CROW A","2100801","2020-06-01 18:00","2020","06","01","18:00"
"-139.84","67.57","OLD CROW A","2100801","2020-06-01 19:00","2020","06","01","19:00"
"-139.84","67.57","OLD CROW A","2100801","2020-06-01 20:00","2020","06","01","20:00"
"-139.84","67.57","OLD CROW A","2100801","2020-06-01 21:00","2020","06","01","21:00"
"-139.84","67.57","OLD CROW A","2100801","2020-06-01 22:00","2020","06","01","22:00"
"-139.84","67.57","OLD CROW A","2100801","2020-06-01 23:00","2020","06","01","23:00"
"-139.84","67.57","OLD CROW A","2100801","2020-06-02 00:00","2020","06","02","00:00"
"-139.84","67.57","OLD CROW A","2100801","2020-06-02 01:00","2020","06","02","01:00"
"-139.84","67.57","OLD CROW A","2100801","2020-06-02 02:00","2020","06","02","02:00"
"-139.84","67.57","OLD CROW A","2100801","2020-06-02 03:00","2020","06","02","03:00"
"-139.84","67.57","OLD CROW A","2100801","2020-06-02 04:00","2020","06","02","04:00"
"-139.84","67.57","OLD CROW A","2100801","2020-06-02 05:00","2020","06","02","05:00","3.2","","-2.5","","67","","","","8","","10","","56.3","","97.78","","","","","","NA"
"-139.84","67.57","OLD CROW A","2100801","2020-06-02 06:00","2020","06","02","06:00","4.8","","-2.4","","60","","","","9","","10","","56.3","","97.80","","","","","","NA"
"-139.84","67.57","OLD CROW A","2100801","2020-06-02 07:00","2020","06","02","07:00","6.5","","-2.3","","54","","","","5","","13","","56.3","","97.81","","","","","","Clear"
"-139.84","67.57","OLD CROW A","2100801","2020-06-02 08:00","2020","06","02","08:00","7.7","","-2.1","","50","","","","5","","12","","56.3","","97.82","","","","","","NA"
"-139.84","67.57","OLD CROW A","2100801","2020-06-02 09:00","2020","06","02","09:00","9.2","","-1.9","","46","","","","7","","17","","56.3","","97.82","","","","","","NA"
"-139.84","67.57","OLD CROW A","2100801","2020-06-02 10:00","2020","06","02","10:00","9.8","","-1.9","","44","","","","4","","17","","56.3","","97.81","","","","","","Mainly Clear"
"-139.84","67.57","OLD CROW A","2100801","2020-06-02 11:00","2020","06","02","11:00","11.6","","-1.5","","40","","","","5","","19","","56.3","","97.81","","","","","","NA"
"-139.84","67.57","OLD CROW A","2100801","2020-06-02 12:00","2020","06","02","12:00","13.2","","-0.4","","39","","","","8","","17","","56.3","","97.78","","","","","","NA"
"-139.84","67.57","OLD CROW A","2100801","2020-06-02 13:00","2020","06","02","13:00","14.0","","-0.6","","36","","","","5","","15","","56.3","","97.77","","","","","","Mainly Clear"
"-139.84","67.57","OLD CROW A","2100801","2020-06-02 14:00","2020","06","02","14:00","14.4","","-0.8","","35","","","","5","","21","","56.3","","97.76","","","","","","NA"
"-139.84","67.57","OLD CROW A","2100801","2020-06-02 15:00","2020","06","02","15:00","14.9","","-1.2","","33","","","","5","","17","","56.3","","97.75","","","","","","NA"
"-139.84","67.57","OLD CROW A","2100801","2020-06-02 16:00","2020","06","02","16:00","15.8","","-1.5","","30","","","","5","","20","","56.3","","97.73","","","","","","Mainly Clear"
"-139.84","67.57","OLD CROW A","2100801","2020-06-02 17:00","2020","06","02","17:00","15.8","","-1.3","","31","","","","7","","12","","56.3","","97.74","","","","","","NA"
"-139.84","67.57","OLD CROW A","2100801","2020-06-02 18:00","2020","06","02","18:00"
"-139.84","67.57","OLD CROW A","2100801","2020-06-02 19:00","2020","06","02","19:00"
"-139.84","67.57","OLD CROW A","2100801","2020-06-02 20:00","2020","06","02","20:00"
"-139.84","67.57","OLD CROW A","2100801","2020-06-02 21:00","2020","06","02","21:00"
"-139.84","67.57","OLD CROW A","2100801","2020-06-02 22:00","2020","06","02","22:00"
"-139.84","67.57","OLD CROW A","2100801","2020-06-02 23:00","2020","06","02","23:00"
"-139.84","67.57","OLD CROW A","2100801","2020-06-03 00:00","2020","06","03","00:00"
"-139.84","67.57","OLD CROW A","2100801","2020-06-03 01:00","2020","06","03","01:00"
"-139.84","67.57","OLD CROW A","2100801","2020-06-03 02:00","2020","06","03","02:00"
"-139.84","67.57","OLD CROW A","2100801","2020-06-03 03:00","2020","06","03","03:00"
"-139.84","67.57","OLD CROW A","2100801","2020-06-03 04:00","2020","06","03","04:00"
"-139.84","67.57","OLD CROW A","2100801","2020-06-03 05:00","2020","06","03","05:00","6.8","","-1.9","","54","","","","8","","9","","56.3","","98.23","","","","","","NA"
"-139.84","67.57","OLD CROW A","2100801","2020-06-03 06:00","2020","06","03","06:00","8.3","","-2.7","","46","","","","5","","13","","56.3","","98.26","","","","","","NA"
"-139.84","67.57","OLD CROW A","2100801","2020-06-03 07:00","2020","06","03","07:00","9.2","","-2.9","","43","","","","6","","11","","56.3","","98.29","","","","","","Clear"
"-139.84","67.57","OLD CROW A","2100801","2020-06-03 08:00","2020","06","03","08:00","10.2","","-2.5","","41","","","","7","","8","","56.3","","98.31","","","","","","NA"
"-139.84","67.57","OLD CROW A","2100801","2020-06-03 09:00","2020","06","03","09:00","11.3","","-2.1","","39","","","","6","","13","","56.3","","98.32","","","","","","NA"
"-139.84","67.57","OLD CROW A","2100801","2020-06-03 10:00","2020","06","03","10:00","12.6","","-2.4","","35","","","","6","","10","","56.3","","98.30","","","","","","Clear"
"-139.84","67.57","OLD CROW A","2100801","2020-06-03 11:00","2020","06","03","11:00","13.8","","-4.1","","29","","","","11","","5","","56.3","","98.29","","","","","","NA"
"-139.84","67.57","OLD CROW A","2100801","2020-06-03 12:00","2020","06","03","12:00","15.1","","-3.8","","27","","","","11","","10","","56.3","","98.29","","","","","","NA"
"-139.84","67.57","OLD CROW A","2100801","2020-06-03 13:00","2020","06","03","13:00","16.0","","-4.4","","24","","","","11","","10","","56.3","","98.28","","","","","","Mainly Clear"
"-139.84","67.57","OLD CROW A","2100801","2020-06-03 14:00","2020","06","03","14:00","15.8","","-3.8","","26","","","","6","","16","","56.3","","98.27","","","","","","NA"
"-139.84","67.57","OLD CROW A","2100801","2020-06-03 15:00","2020","06","03","15:00","16.4","","-3.0","","26","","","","6","","7","","56.3","","98.27","","","","","","NA"
"-139.84","67.57","OLD CROW A","2100801","2020-06-03 16:00","2020","06","03","16:00","16.8","","-2.4","","27","","","","8","","14","","56.3","","98.28","","","","","","Mainly Clear"
"-139.84","67.57","OLD CROW A","2100801","2020-06-03 17:00","2020","06","03","17:00","16.3","","-3.7","","25","","","","2","","9","","56.3","","98.27","","","","","","NA"
"-139.84","67.57","OLD CROW A","2100801","2020-06-03 18:00","2020","06","03","18:00"
"-139.84","67.57","OLD CROW A","2100801","2020-06-03 19:00","2020","06","03","19:00"
"-139.84","67.57","OLD CROW A","2100801","2020-06-03 20:00","2020","06","03","20:00"
"-139.84","67.57","OLD CROW A","2100801","2020-06-03 21:00","2020","06","03","21:00"
"-139.84","67.57","OLD CROW A","2100801","2020-06-03 22:00","2020","06","03","22:00"
"-139.84","67.57","OLD CROW A","2100801","2020-06-03 23:00","2020","06","03","23:00"
"-139.84","67.57","OLD CROW A","2100801","2020-06-04 00:00","2020","06","04","00:00"
"-139.84","67.57","OLD CROW A","2100801","2020-06-04 01:00","2020","06","04","01:00"
"-139.84","67.57","OLD CROW A","2100801","2020-06-04 02:00","2020","06","04","02:00"
"-139.84","67.57","OLD CROW A","2100801","2020-06-04 03:00","2020","06","04","03:00"
"-139.84","67.57","OLD CROW A","2100801","2020-06-04 04:00","2020","06","04","04:00"
"-139.84","67.57","OLD CROW A","2100801","2020-06-04 05:00","2020","06","04","05:00","6.8","","-1.7","","55","","","","6","","10","","56.3","","98.63","","","","","","NA"
"-139.84","67.57","OLD CROW A","2100801","2020-06-04 06:00","2020","06","04","06:00","8.2","","-1.8","","49","","","","5","","9","","56.3","","98.63","","","","","","NA"
"-139.84","67.57","OLD CROW A","2100801","2020-06-04 07:00","2020","06","04","07:00","9.2","","-1.7","","46","","","","6","","9","","56.3","","98.64","","","","","","Clear"
"-139.84","67.57","OLD CROW A","2100801","2020-06-04 08:00","2020","06","04","08:00","10.5","","-0.9","","45","","","","6","","10","","56.3","","98.64","","","","","","NA"
"-139.84","67.57","OLD CROW A","2100801","2020-06-04 09:00","2020","06","04","09:00","11.8","","-1.7","","39","","","","9","","4","","56.3","","98.61","","","","","","NA"
"-139.84","67.57","OLD CROW A","2100801","2020-06-04 10:00","2020","06","04","10:00","13.3","","-1.9","","35","","","","13","","6","","56.3","","98.59","","","","","","Clear"
"-139.84","67.57","OLD CROW A","2100801","2020-06-04 11:00","2020","06","04","11:00","14.0","","-2.9","","31","","","","6","","4","","56.3","","98.58","","","","","","NA"
"-139.84","67.57","OLD CROW A","2100801","2020-06-04 12:00","2020","06","04","12:00","14.5","","-3.4","","29","","","","36","","1","","56.3","","98.54","","","","","","NA"
"-139.84","67.57","OLD CROW A","2100801","2020-06-04 13:00","2020","06","04","13:00","15.0","","-4.9","","25","","","","2","","3","","56.3","","98.53","","","","","","Mainly Clear"
"-139.84","67.57","OLD CROW A","2100801","2020-06-04 14:00","2020","06","04","14:00","15.9","","-4.8","","24","","","","7","","8","","56.3","","98.51","","","","","","NA"
"-139.84","67.57","OLD CROW A","2100801","2020-06-04 15:00","2020","06","04","15:00","16.1","","-5.2","","23","","","","6","","16","","56.3","","98.50","","","","","","NA"
"-139.84","67.57","OLD CROW A","2100801","2020-06-04 16:00","2020","06","04","16:00","16.2","","-5.5","","22","","","","6","","21","","56.3","","98.48","","","","","","Mainly Clear"
"-139.84","67.57","OLD CROW A","2100801","2020-06-04 17:00","2020","06","04","17:00","16.1","","-3.9","","25","","","","5","","15","","56.3","","98.45","","","","","","NA"
"-139.84","67.57","OLD CROW A","2100801","2020-06-04 18:00","2020","06","04","18:00"
"-139.84","67.57","OLD CROW A","2100801","2020-06-04 19:00","2020","06","04","19:00"
"-139.84","67.57","OLD CROW A","2100801","2020-06-04 20:00","2020","06","04","20:00"
"-139.84","67.57","OLD CROW A","2100801","2020-06-04 21:00","2020","06","04","21:00"
"-139.84","67.57","OLD CROW A","2100801","2020-06-04 22:00","2020","06","04","22:00"
"-139.84","67.57","OLD CROW A","2100801","2020-06-04 23:00","2020","06","04","23:00"
"-139.84","67.57","OLD CROW A","2100801","2020-06-05 00:00","2020","06","05","00:00"
"-139.84","67.57","OLD CROW A","2100801","2020-06-05 01:00","2020","06","05","01:00"
"-139.84","67.57","OLD CROW A","2100801","2020-06-05 02:00","2020","06","05","02:00"
"-139.84","67.57","OLD CROW A","2100801","2020-06-05 03:00","2020","06","05","03:00"
"-139.84","67.57","OLD CROW A","2100801","2020-06-05 04:00","2020","06","05","04:00"
"-139.84","67.57","OLD CROW A","2100801","2020-06-05 05:00","2020","06","05","05:00","5.7","","-0.8","","63","","","","8","","8","","56.3","","98.62","","","","","","NA"
"-139.84","67.57","OLD CROW A","2100801","2020-06-05 06:00","2020","06","05","06:00","6.5","","0.5","","66","","","","36","","3","","56.3","","98.62","","","","","","NA"
"-139.84","67.57","OLD CROW A","2100801","2020-06-05 07:00","2020","06","05","07:00","8.2","","-1.5","","51","","","","3","","16","","56.3","","98.63","","","","","","Clear"
"-139.84","67.57","OLD CROW A","2100801","2020-06-05 08:00","2020","06","05","08:00","9.2","","-1.3","","48","","","","6","","12","","56.3","","98.61","","","","","","NA"
"-139.84","67.57","OLD CROW A","2100801","2020-06-05 09:00","2020","06","05","09:00","10.8","","-0.8","","44","","","","4","","11","","56.3","","98.60","","","","","","NA"
"-139.84","67.57","OLD CROW A","2100801","2020-06-05 10:00","2020","06","05","10:00","12.3","","-1.2","","39","","","","6","","13","","56.3","","98.56","","","","","","Mainly Clear"
"-139.84","67.57","OLD CROW A","2100801","2020-06-05 11:00","2020","06","05","11:00","14.2","","0.2","","38","","","","7","","8","","56.3","","98.52","","","","","","NA"
"-139.84","67.57","OLD CROW A","2100801","2020-06-05 12:00","2020","06","05","12:00","15.4","","-1.5","","31","","","","5","","11","","56.3","","98.48","","","","","","NA"
"-139.84","67.57","OLD CROW A","2100801","2020-06-05 13:00","2020","06","05","13:00","16.6","","-3.2","","25","","","","10","","8","","56.3","","98.44","","","","","","Mainly Clear"
"-139.84","67.57","OLD CROW A","2100801","2020-06-05 14:00","2020","06","05","14:00","16.9","","-4.2","","23","","","","16","","7","","56.3","","98.43","","","","","","NA"
"-139.84","67.57","OLD CROW A","2100801","2020-06-05 15:00","2020","06","05","15:00"
"-139.84","67.57","OLD CROW A","2100801","2020-06-05 16:00","2020","06","05","16:00"
"-139.84","67.57","OLD CROW A","2100801","2020-06-05 17:00","2020","06","05","17:00"
"-139.84","67.57","OLD CROW A","2100801","2020-06-05 18:00","2020","06","05","18:00"
"-139.84","67.57","OLD CROW A","2100801","2020-06-05 19:00","2020","06","05","19:00"
"-139.84","67.57","OLD CROW A","2100801","2020-06-05 20:00","2020","06","05","20:00"
"-139.84","67.57","OLD CROW A","2100801","2020-06-05 21:00","2020","06","05","21:00"
"-139.84","67.57","OLD CROW A","2100801","2020-06-05 22:00","2020","06","05","22:00"
"-139.84","67.57","OLD CROW A","2100801","2020-06-05 23:00","2020","06","05","23:00"
"-139.84","67.57","OLD CROW A","2100801","2020-06-06 00:00","2020","06","06","00:00"
"-139.84","67.57","OLD CROW A","2100801","2020-06-06 01:00","2020","06","06","01:00"
"-139.84","67.57","OLD CROW A","2100801","2020-06-06 02:00","2020","06","06","02:00"
"-139.84","67.57","OLD CROW A","2100801","2020-06-06 03:00","2020","06","06","03:00"
"-139.84","67.57","OLD CROW A","2100801","2020-06-06 04:00","2020","06","06","04:00"
"-139.84","67.57","OLD CROW A","2100801","2020-06-06 05:00","2020","06","06","05:00","5.3","","-0.2","","68","","","","6","","4","","56.3","","98.61","","","","","","NA"
"-139.84","67.57","OLD CROW A","2100801","2020-06-06 06:00","2020","06","06","06:00","8.2","","0.2","","57","","","","7","","7","","56.3","","98.59","","","","","","NA"
"-139.84","67.57","OLD CROW A","2100801","2020-06-06 07:00","2020","06","06","07:00","10.0","","-0.7","","47","","","","6","","10","","56.3","","98.59","","","","","","Mainly Clear"
"-139.84","67.57","OLD CROW A","2100801","2020-06-06 08:00","2020","06","06","08:00","11.3","","-0.3","","45","","","","6","","8","","56.3","","98.57","","","","","","NA"
"-139.84","67.57","OLD CROW A","2100801","2020-06-06 09:00","2020","06","06","09:00","13.8","","-0.7","","37","","","","8","","12","","56.3","","98.53","","","","","","NA"
"-139.84","67.57","OLD CROW A","2100801","2020-06-06 10:00","2020","06","06","10:00","14.4","","-1.5","","33","","","","13","","6","","56.3","","98.50","","","","","","Mostly Cloudy"
"-139.84","67.57","OLD CROW A","2100801","2020-06-06 11:00","2020","06","06","11:00","13.6","","-1.4","","35","","","","12","","5","","56.3","","98.50","","","","","","NA"
"-139.84","67.57","OLD CROW A","2100801","2020-06-06 12:00","2020","06","06","12:00","14.1","","-2.3","","32","","","","9","","14","","56.3","","98.48","","","","","","NA"
"-139.84","67.57","OLD CROW A","2100801","2020-06-06 13:00","2020","06","06","13:00","14.4","","-3.2","","29","","","","7","","15","","56.3","","98.44","","","","","","Mostly Cloudy"
"-139.84","67.57","OLD CROW A","2100801","2020-06-06 14:00","2020","06","06","14:00","16.7","","-1.4","","29","","","","11","","6","","56.3","","98.42","","","","","","NA"
"-139.84","67.57","OLD CROW A","2100801","2020-06-06 15:00","2020","06","06","15:00"
"-139.84","67.57","OLD CROW A","2100801","2020-06-06 16:00","2020","06","06","16:00"
"-139.84","67.57","OLD CROW A","2100801","2020-06-06 17:00","2020","06","06","17:00"
"-139.84","67.57","OLD CROW A","2100801","2020-06-06 18:00","2020","06","06","18:00"
"-139.84","67.57","OLD CROW A","2100801","2020-06-06 19:00","2020","06","06","19:00"
"-139.84","67.57","OLD CROW A","2100801","2020-06-06 20:00","2020","06","06","20:00"
"-139.84","67.57","OLD CROW A","2100801","2020-06-06 21:00","2020","06","06","21:00"
"-139.84","67.57","OLD CROW A","2100801","2020-06-06 22:00","2020","06","06","22:00"
"-139.84","67.57","OLD CROW A","2100801","2020-06-06 23:00","2020","06","06","23:00"
"-139.84","67.57","OLD CROW A","2100801","2020-06-07 00:00","2020","06","07","00:00"
"-139.84","67.57","OLD CROW A","2100801","2020-06-07 01:00","2020","06","07","01:00"
"-139.84","67.57","OLD CROW A","2100801","2020-06-07 02:00","2020","06","07","02:00"
"-139.84","67.57","OLD CROW A","2100801","2020-06-07 03:00","2020","06","07","03:00"
"-139.84","67.57","OLD CROW A","2100801","2020-06-07 04:00","2020","06","07","04:00"
"-139.84","67.57","OLD CROW A","2100801","2020-06-07 05:00","2020","06","07","05:00","9.3","","0.9","","55","","","","7","","13","","56.3","","98.31","","","","","","NA"
"-139.84","67.57","OLD CROW A","2100801","2020-06-07 06:00","2020","06","07","06:00","10.1","","1.4","","54","","","","7","","9","","56.3","","98.29","","","","","","NA"
"-139.84","67.57","OLD CROW A","2100801","2020-06-07 07:00","2020","06","07","07:00","10.8","","1.9","","54","","","","5","","14","","56.3","","98.27","","","","","","Mostly Cloudy"
"-139.84","67.57","OLD CROW A","2100801","2020-06-07 08:00","2020","06","07","08:00","11.9","","2.9","","54","","","","6","","13","","56.3","","98.24","","","","","","NA"
"-139.84","67.57","OLD CROW A","2100801","2020-06-07 09:00","2020","06","07","09:00","14.9","","3.9","","47","","","","9","","11","","56.3","","98.20","","","","","","NA"
"-139.84","67.57","OLD CROW A","2100801","2020-06-07 10:00","2020","06","07","10:00","16.3","","4.4","","45","","","","10","","10","","56.3","","98.15","","","","","","Mainly Clear"
"-139.84","67.57","OLD CROW A","2100801","2020-06-07 11:00","2020","06","07","11:00","17.3","","3.7","","40","","","","13","","13","","56.3","","98.12","","","","","","NA"
"-139.84","67.57","OLD CROW A","2100801","2020-06-07 12:00","2020","06","07","12:00","16.1","","4.5","","46","","","","10","","10","","56.3","","98.07","","","","","","NA"
"-139.84","67.57","OLD CROW A","2100801","2020-06-07 13:00","2020","06","07","13:00","17.4","","3.9","","40","","","","10","","9","","56.3","","98.00","","","","","","Mostly Cloudy"
"-139.84","67.57","OLD CROW A","2100801","2020-06-07 14:00","2020","06","07","14:00","18.6","","3.2","","36","","","","10","","10","","56.3","","97.93","","","","","","NA"
"-139.84","67.57","OLD CROW A","2100801","2020-06-07 15:00","2020","06","07","15:00"
"-139.84","67.57","OLD CROW A","2100801","2020-06-07 16:00","2020","06","07","16:00"
"-139.84","67.57","OLD CROW A","2100801","2020-06-07 17:00","2020","06","07","17:00"
"-139.84","67.57","OLD CROW A","2100801","2020-06-07 18:00","2020","06","07","18:00"
"-139.84","67.57","OLD CROW A","2100801","2020-06-07 19:00","2020","06","07","19:00"
"-139.84","67.57","OLD CROW A","2100801","2020-06-07 20:00","2020","06","07","20:00"
"-139.84","67.57","OLD CROW A","2100801","2020-06-07 21:00","2020","06","07","21:00"
"-139.84","67.57","OLD CROW A","2100801","2020-06-07 22:00","2020","06","07","22:00"
"-139.84","67.57","OLD CROW A","2100801","2020-06-07 23:00","2020","06","07","23:00"
"-139.84","67.57","OLD CROW A","2100801","2020-06-08 00:00","2020","06","08","00:00"
"-139.84","67.57","OLD CROW A","2100801","2020-06-08 01:00","2020","06","08","01:00"
"-139.84","67.57","OLD CROW A","2100801","2020-06-08 02:00","2020","06","08","02:00"
"-139.84","67.57","OLD CROW A","2100801","2020-06-08 03:00","2020","06","08","03:00"
"-139.84","67.57","OLD CROW A","2100801","2020-06-08 04:00","2020","06","08","04:00"
"-139.84","67.57","OLD CROW A","2100801","2020-06-08 05:00","2020","06","08","05:00","12.2","","5.6","","64","","","","10","","5","","56.3","","97.84","","","","","","NA"
"-139.84","67.57","OLD CROW A","2100801","2020-06-08 06:00","2020","06","08","06:00","12.6","","6.1","","64","","","","9","","8","","56.3","","97.83","","","","","","NA"
"-139.84","67.57","OLD CROW A","2100801","2020-06-08 07:00","2020","06","08","07:00","11.9","","5.9","","67","","","","9","","11","","56.3","","97.82","","","","","","Mostly Cloudy"
"-139.84","67.57","OLD CROW A","2100801","2020-06-08 08:00","2020","06","08","08:00","11.7","","6.5","","70","","","","7","","5","","56.3","","97.81","","","","","","NA"
"-139.84","67.57","OLD CROW A","2100801","2020-06-08 09:00","2020","06","08","09:00","12.6","","7.2","","70","","","","30","","4","","56.3","","97.81","","","","","","NA"
"-139.84","67.57","OLD CROW A","2100801","2020-06-08 10:00","2020","06","08","10:00","13.8","","7.5","","65","","","","24","","7","","56.3","","97.78","","","","","","Mostly Cloudy"
"-139.84","67.57","OLD CROW A","2100801","2020-06-08 11:00","2020","06","08","11:00","15.9","","7.6","","58","","","","0","","1","","56.3","","97.73","","","","","","NA"
"-139.84","67.57","OLD CROW A","2100801","2020-06-08 12:00","2020","06","08","12:00","19.7","","5.0","","38","","","","6","","13","","56.3","","97.65","","","","","","NA"
"-139.84","67.57","OLD CROW A","2100801","2020-06-08 13:00","2020","06","08","13:00","20.8","","5.3","","36","","","","11","","7","","56.3","","97.60","","","","","","Mainly Clear"
"-139.84","67.57","OLD CROW A","2100801","2020-06-08 14:00","2020","06","08","14:00","21.6","","6.2","","36","","","","13","","14","","56.3","","97.57","","","","","","NA"
"-139.84","67.57","OLD CROW A","2100801","2020-06-08 15:00","2020","06","08","15:00","21.0","","5.9","","37","","","","13","","8","","56.3","","97.55","","","","","","NA"
"-139.84","67.57","OLD CROW A","2100801","2020-06-08 16:00","2020","06","08","16:00","18.5","","6.9","","46","","","","5","","11","","56.3","","97.55","","","","","","Rain Showers"
"-139.84","67.57","OLD CROW A","2100801","2020-06-08 17:00","2020","06","08","17:00","19.6","","4.2","","36","","","","5","","26","","56.3","","97.54","","","","","","NA"
"-139.84","67.57","OLD CROW A","2100801","2020-06-08 18:00","2020","06","08","18:00"
"-139.84","67.57","OLD CROW A","2100801","2020-06-08 19:00","2020","06","08","19:00"
"-139.84","67.57","OLD CROW A","2100801","2020-06-08 20:00","2020","06","08","20:00"
"-139.84","67.57","OLD CROW A","2100801","2020-06-08 21:00","2020","06","08","21:00"
"-139.84","67.57","OLD CROW A","2100801","2020-06-08 22:00","2020","06","08","22:00"
"-139.84","67.57","OLD CROW A","2100801","2020-06-08 23:00","2020","06","08","23:00"
"-139.84","67.57","OLD CROW A","2100801","2020-06-09 00:00","2020","06","09","00:00"
"-139.84","67.57","OLD CROW A","2100801","2020-06-09 01:00","2020","06","09","01:00"
"-139.84","67.57","OLD CROW A","2100801","2020-06-09 02:00","2020","06","09","02:00"
"-139.84","67.57","OLD CROW A","2100801","2020-06-09 03:00","2020","06","09","03:00"
"-139.84","67.57","OLD CROW A","2100801","2020-06-09 04:00","2020","06","09","04:00"
"-139.84","67.57","OLD CROW A","2100801","2020-06-09 05:00","2020","06","09","05:00","10.4","","4.1","","65","","","","4","","10","","56.3","","97.83","","","","","","NA"
"-139.84","67.57","OLD CROW A","2100801","2020-06-09 06:00","2020","06","09","06:00","11.4","","3.3","","57","","","","3","","25","","56.3","","97.82","","","","","","NA"
"-139.84","67.57","OLD CROW A","2100801","2020-06-09 07:00","2020","06","09","07:00","11.8","","3.6","","57","","","","4","","18","","56.3","","97.83","","","","","","Mostly Cloudy"
"-139.84","67.57","OLD CROW A","2100801","2020-06-09 08:00","2020","06","09","08:00","13.0","","4.2","","55","","","","3","","25","","56.3","","97.84","","","","","","NA"
"-139.84","67.57","OLD CROW A","2100801","2020-06-09 09:00","2020","06","09","09:00","13.8","","4.8","","54","","","","2","","15","","56.3","","97.82","","","","","","NA"
"-139.84","67.57","OLD CROW A","2100801","2020-06-09 10:00","2020","06","09","10:00","13.2","","4.5","","55","","","","5","","22","","56.3","","97.83","","","","","","Mostly Cloudy"
"-139.84","67.57","OLD CROW A","2100801","2020-06-09 11:00","2020","06","09","11:00","14.4","","5.5","","55","","","","6","","17","","56.3","","97.82","","","","","","NA"
"-139.84","67.57","OLD CROW A","2100801","2020-06-09 12:00","2020","06","09","12:00","14.4","","4.9","","52","","","","5","","24","","56.3","","97.82","","","","","","NA"
"-139.84","67.57","OLD CROW A","2100801","2020-06-09 13:00","2020","06","09","13:00","14.4","","5.5","","55","","","","6","","26","","56.3","","97.82","","","","","","Mostly Cloudy"
"-139.84","67.57","OLD CROW A","2100801","2020-06-09 14:00","2020","06","09","14:00","14.2","","6.0","","57","","","","5","","21","","56.3","","97.86","","","","","","NA"
"-139.84","67.57","OLD CROW A","2100801","2020-06-09 15:00","2020","06","09","15:00","14.2","","5.0","","54","","","","6","","22","","56.3","","97.86","","","","","","NA"
"-139.84","67.57","OLD CROW A","2100801","2020-06-09 16:00","2020","06","09","16:00","14.3","","4.5","","52","","","","3","","19","","56.3","","97.86","","","","","","Mostly Cloudy"
"-139.84","67.57","OLD CROW A","2100801","2020-06-09 17:00","2020","06","09","17:00","13.2","","3.7","","52","","","","6","","22","","56.3","","97.88","","","","","","NA"
"-139.84","67.57","OLD CROW A","2100801","2020-06-09 18:00","2020","06","09","18:00"
"-139.84","67.57","OLD CROW A","2100801","2020-06-09 19:00","2020","06","09","19:00"
"-139.84","67.57","OLD CROW A","2100801","2020-06-09 20:00","2020","06","09","20:00","11.6","","2.8","","54","","","","6","","18","","56.3","","98.00","","","","","","NA"
"-139.84","67.57","OLD CROW A","2100801","2020-06-09 21:00","2020","06","09","21:00","11.8","","2.7","","53","","","","7","","11","","56.3","","97.99","","","","","","NA"
"-139.84","67.57","OLD CROW A","2100801","2020-06-09 22:00","2020","06","09","22:00","11.2","","2.4","","54","","","","6","","15","","56.3","","98.02","","","","","","Mostly Cloudy"
"-139.84","67.57","OLD CROW A","2100801","2020-06-09 23:00","2020","06","09","23:00","9.5","","3.3","","65","","","","4","","4","","56.3","","98.07","","","","","","NA"
"-139.84","67.57","OLD CROW A","2100801","2020-06-10 00:00","2020","06","10","00:00"
"-139.84","67.57","OLD CROW A","2100801","2020-06-10 01:00","2020","06","10","01:00"
"-139.84","67.57","OLD CROW A","2100801","2020-06-10 02:00","2020","06","10","02:00"
"-139.84","67.57","OLD CROW A","2100801","2020-06-10 03:00","2020","06","10","03:00"
"-139.84","67.57","OLD CROW A","2100801","2020-06-10 04:00","2020","06","10","04:00"
"-139.84","67.57","OLD CROW A","2100801","2020-06-10 05:00","2020","06","10","05:00","6.0","","3.5","","84","","","","31","","4","","56.3","","98.17","","","","","","NA"
"-139.84","67.57","OLD CROW A","2100801","2020-06-10 06:00","2020","06","10","06:00","7.8","","4.3","","78","","","","36","","3","","56.3","","98.17","","","","","","NA"
"-139.84","67.57","OLD CROW A","2100801","2020-06-10 07:00","2020","06","10","07:00","9.4","","3.4","","66","","","","10","","3","","56.3","","98.18","","","","","","Mainly Clear"
"-139.84","67.57","OLD CROW A","2100801","2020-06-10 08:00","2020","06","10","08:00","11.5","","4.0","","60","","","","36","","1","","56.3","","98.19","","","","","","NA"
"-139.84","67.57","OLD CROW A","2100801","2020-06-10 09:00","2020","06","10","09:00","12.4","","3.7","","55","","","","30","","3","","56.3","","98.17","","","","","","NA"
"-139.84","67.57","OLD CROW A","2100801","2020-06-10 10:00","2020","06","10","10:00","13.6","","2.9","","48","","","","26","","9","","56.3","","98.18","","","","","","Mostly Cloudy"
"-139.84","67.57","OLD CROW A","2100801","2020-06-10 11:00","2020","06","10","11:00","14.4","","2.9","","45","","","","25","","6","","56.3","","98.18","","","","","","NA"
"-139.84","67.57","OLD CROW A","2100801","2020-06-10 12:00","2020","06","10","12:00","14.4","","1.9","","43","","","","25","","4","","56.3","","98.17","","","","","","NA"
"-139.84","67.57","OLD CROW A","2100801","2020-06-10 13:00","2020","06","10","13:00","16.6","","2.4","","38","","","","18","","8","","56.3","","98.14","","","","","","Mostly Cloudy"
"-139.84","67.57","OLD CROW A","2100801","2020-06-10 14:00","2020","06","10","14:00","17.7","","2.4","","35","","","","19","","8","","56.3","","98.13","","","","","","NA"
"-139.84","67.57","OLD CROW A","2100801","2020-06-10 15:00","2020","06","10","15:00"
"-139.84","67.57","OLD CROW A","2100801","2020-06-10 16:00","2020","06","10","16:00"
"-139.84","67.57","OLD CROW A","2100801","2020-06-10 17:00","2020","06","10","17:00"
"-139.84","67.57","OLD CROW A","2100801","2020-06-10 18:00","2020","06","10","18:00"
"-139.84","67.57","OLD CROW A","2100801","2020-06-10 19:00","2020","06","10","19:00"
"-139.84","67.57","OLD CROW A","2100801","2020-06-10 20:00","2020","06","10","20:00"
"-139.84","67.57","OLD CROW A","2100801","2020-06-10 21:00","2020","06","10","21:00"
"-139.84","67.57","OLD CROW A","2100801","2020-06-10 22:00","2020","06","10","22:00"
"-139.84","67.57","OLD CROW A","2100801","2020-06-10 23:00","2020","06","10","23:00"
"-139.84","67.57","OLD CROW A","2100801","2020-06-11 00:00","2020","06","11","00:00"
"-139.84","67.57","OLD CROW A","2100801","2020-06-11 01:00","2020","06","11","01:00"
"-139.84","67.57","OLD CROW A","2100801","2020-06-11 02:00","2020","06","11","02:00"
"-139.84","67.57","OLD CROW A","2100801","2020-06-11 03:00","2020","06","11","03:00"
"-139.84","67.57","OLD CROW A","2100801","2020-06-11 04:00","2020","06","11","04:00"
"-139.84","67.57","OLD CROW A","2100801","2020-06-11 05:00","2020","06","11","05:00","11.2","","7.4","","77","","","","20","","3","","56.3","","98.18","","","","","","NA"
"-139.84","67.57","OLD CROW A","2100801","2020-06-11 06:00","2020","06","11","06:00","12.2","","6.6","","68","","","","22","","4","","56.3","","98.18","","","","","","NA"
"-139.84","67.57","OLD CROW A","2100801","2020-06-11 07:00","2020","06","11","07:00","14.7","","7.0","","60","","","","22","","5","","56.3","","98.21","","","","","","Mostly Cloudy"
"-139.84","67.57","OLD CROW A","2100801","2020-06-11 08:00","2020","06","11","08:00","15.5","","6.9","","56","","","","23","","7","","56.3","","98.23","","","","","","NA"
"-139.84","67.57","OLD CROW A","2100801","2020-06-11 09:00","2020","06","11","09:00","17.5","","5.2","","44","","","","27","","10","","56.3","","98.23","","","","","","NA"
"-139.84","67.57","OLD CROW A","2100801","2020-06-11 10:00","2020","06","11","10:00","20.6","","6.2","","39","","","","22","","8","","56.3","","98.21","","","","","","Mainly Clear"
"-139.84","67.57","OLD CROW A","2100801","2020-06-11 11:00","2020","06","11","11:00","22.1","","5.1","","33","","","","23","","7","","56.3","","98.20","","","","","","NA"
"-139.84","67.57","OLD CROW A","2100801","2020-06-11 12:00","2020","06","11","12:00","23.4","","4.5","","29","","","","23","","20","","56.3","","98.19","","","","","","NA"
"-139.84","67.57","OLD CROW A","2100801","2020-06-11 13:00","2020","06","11","13:00","24.3","","4.6","","27","","","","23","","16","","56.3","","98.19","","","","","","Mostly Cloudy"
"-139.84","67.57","OLD CROW A","2100801","2020-06-11 14:00","2020","06","11","14:00","25.2","","3.8","","25","","","","19","","8","","56.3","","98.18","","","","","","NA"
"-139.84","67.57","OLD CROW A","2100801","2020-06-11 15:00","2020","06","11","15:00","25.4","","3.2","","23","","","","22","","10","","56.3","","98.16","","","","","","NA"
"-139.84","67.57","OLD CROW A","2100801","2020-06-11 16:00","2020","06","11","16:00","25.3","","3.0","","23","","","","18","","3","","56.3","","98.13","","","","","","Mostly Cloudy"
"-139.84","67.57","OLD CROW A","2100801","2020-06-11 17:00","2020","06","11","17:00","25.8","","1.6","","20","","","","22","","7","","56.3","","98.12","","","","","","NA"
"-139.84","67.57","OLD CROW A","2100801","2020-06-11 18:00","2020","06","11","18:00"
"-139.84","67.57","OLD CROW A","2100801","2020-06-11 19:00","2020","06","11","19:00"
"-139.84","67.57","OLD CROW A","2100801","2020-06-11 20:00","2020","06","11","20:00"
"-139.84","67.57","OLD CROW A","2100801","2020-06-11 21:00","2020","06","11","21:00"
"-139.84","67.57","OLD CROW A","2100801","2020-06-11 22:00","2020","06","11","22:00"
"-139.84","67.57","OLD CROW A","2100801","2020-06-11 23:00","2020","06","11","23:00"
"-139.84","67.57","OLD CROW A","2100801","2020-06-12 00:00","2020","06","12","00:00"
"-139.84","67.57","OLD CROW A","2100801","2020-06-12 01:00","2020","06","12","01:00"
"-139.84","67.57","OLD CROW A","2100801","2020-06-12 02:00","2020","06","12","02:00"
"-139.84","67.57","OLD CROW A","2100801","2020-06-12 03:00","2020","06","12","03:00"
"-139.84","67.57","OLD CROW A","2100801","2020-06-12 04:00","2020","06","12","04:00"
"-139.84","67.57","OLD CROW A","2100801","2020-06-12 05:00","2020","06","12","05:00","13.2","","7.0","","66","","","","9","","6","","56.3","","98.63","","","","","","NA"
"-139.84","67.57","OLD CROW A","2100801","2020-06-12 06:00","2020","06","12","06:00","13.9","","7.0","","63","","","","14","","4","","56.3","","98.62","","","","","","NA"
"-139.84","67.57","OLD CROW A","2100801","2020-06-12 07:00","2020","06","12","07:00","14.4","","8.2","","66","","","","10","","4","","56.3","","98.61","","","","","","Mostly Cloudy"
"-139.84","67.57","OLD CROW A","2100801","2020-06-12 08:00","2020","06","12","08:00","15.8","","8.4","","61","","","","16","","4","","56.3","","98.61","","","","","","NA"
"-139.84","67.57","OLD CROW A","2100801","2020-06-12 09:00","2020","06","12","09:00","17.5","","8.8","","56","","","","7","","14","","56.3","","98.58","","","","","","NA"
"-139.84","67.57","OLD CROW A","2100801","2020-06-12 10:00","2020","06","12","10:00","18.6","","7.4","","47","","","","10","","4","","56.3","","98.57","","","","","","Mostly Cloudy"
"-139.84","67.57","OLD CROW A","2100801","2020-06-12 11:00","2020","06","12","11:00","20.6","","8.1","","44","","","","10","","12","","56.3","","98.55","","","","","","NA"
"-139.84","67.57","OLD CROW A","2100801","2020-06-12 12:00","2020","06","12","12:00","21.1","","6.6","","38","","","","13","","9","","56.3","","98.52","","","","","","NA"
"-139.84","67.57","OLD CROW A","2100801","2020-06-12 13:00","2020","06","12","13:00","22.1","","7.8","","39","","","","3","","13","","56.3","","98.47","","","","","","Mainly Clear"
"-139.84","67.57","OLD CROW A","2100801","2020-06-12 14:00","2020","06","12","14:00","22.6","","7.0","","36","","","","1","","10","","56.3","","98.40","","","","","","NA"
"-139.84","67.57","OLD CROW A","2100801","2020-06-12 15:00","2020","06","12","15:00"
"-139.84","67.57","OLD CROW A","2100801","2020-06-12 16:00","2020","06","12","16:00"
"-139.84","67.57","OLD CROW A","2100801","2020-06-12 17:00","2020","06","12","17:00"
"-139.84","67.57","OLD CROW A","2100801","2020-06-12 18:00","2020","06","12","18:00"
"-139.84","67.57","OLD CROW A","2100801","2020-06-12 19:00","2020","06","12","19:00"
"-139.84","67.57","OLD CROW A","2100801","2020-06-12 20:00","2020","06","12","20:00"
"-139.84","67.57","OLD CROW A","2100801","2020-06-12 21:00","2020","06","12","21:00"
"-139.84","67.57","OLD CROW A","2100801","2020-06-12 22:00","2020","06","12","22:00"
"-139.84","67.57","OLD CROW A","2100801","2020-06-12 23:00","2020","06","12","23:00"
"-139.84","67.57","OLD CROW A","2100801","2020-06-13 00:00","2020","06","13","00:00"
"-139.84","67.57","OLD CROW A","2100801","2020-06-13 01:00","2020","06","13","01:00"
"-139.84","67.57","OLD CROW A","2100801","2020-06-13 02:00","2020","06","13","02:00"
"-139.84","67.57","OLD CROW A","2100801","2020-06-13 03:00","2020","06","13","03:00"
"-139.84","67.57","OLD CROW A","2100801","2020-06-13 04:00","2020","06","13","04:00"
"-139.84","67.57","OLD CROW A","2100801","2020-06-13 05:00","2020","06","13","05:00","11.0","","9.3","","89","","","","5","","4","","56.3","","98.38","","","","","","NA"
"-139.84","67.57","OLD CROW A","2100801","2020-06-13 06:00","2020","06","13","06:00","12.9","","10.0","","82","","","","36","","1","","56.3","","98.36","","","","","","NA"
"-139.84","67.57","OLD CROW A","2100801","2020-06-13 07:00","2020","06","13","07:00","15.4","","10.4","","72","","","","36","","2","","56.3","","98.34","","","","","","Mainly Clear"
"-139.84","67.57","OLD CROW A","2100801","2020-06-13 08:00","2020","06","13","08:00","17.9","","11.0","","64","","","","10","","4","","56.3","","98.33","","","","","","NA"
"-139.84","67.57","OLD CROW A","2100801","2020-06-13 09:00","2020","06","13","09:00","18.3","","10.0","","58","","","","4","","13","","56.3","","98.31","","","","","","NA"
"-139.84","67.57","OLD CROW A","2100801","2020-06-13 10:00","2020","06","13","10:00","19.9","","9.4","","50","","","","6","","13","","56.3","","98.26","","","","","","Mainly Clear"
"-139.84","67.57","OLD CROW A","2100801","2020-06-13 11:00","2020","06","13","11:00","21.3","","10.2","","49","","","","8","","10","","56.3","","98.22","","","","","","NA"
"-139.84","67.57","OLD CROW A","2100801","2020-06-13 12:00","2020","06","13","12:00","22.2","","9.0","","42","","","","7","","11","","56.3","","98.16","","","","","","NA"
"-139.84","67.57","OLD CROW A","2100801","2020-06-13 13:00","2020","06","13","13:00","23.1","","8.2","","38","","","","9","","8","","56.3","","98.10","","","","","","Mainly Clear"
"-139.84","67.57","OLD CROW A","2100801","2020-06-13 14:00","2020","06","13","14:00","23.2","","8.1","","38","","","","9","","5","","56.3","","98.03","","","","","","NA"
"-139.84","67.57","OLD CROW A","2100801","2020-06-13 15:00","2020","06","13","15:00"
"-139.84","67.57","OLD CROW A","2100801","2020-06-13 16:00","2020","06","13","16:00"
"-139.84","67.57","OLD CROW A","2100801","2020-06-13 17:00","2020","06","13","17:00"
"-139.84","67.57","OLD CROW A","2100801","2020-06-13 18:00","2020","06","13","18:00"
"-139.84","67.57","OLD CROW A","2100801","2020-06-13 19:00","2020","06","13","19:00"
"-139.84","67.57","OLD CROW A","2100801","2020-06-13 20:00","2020","06","13","20:00"
"-139.84","67.57","OLD CROW A","2100801","2020-06-13 21:00","2020","06","13","21:00"
"-139.84","67.57","OLD CROW A","2100801","2020-06-13 22:00","2020","06","13","22:00"
"-139.84","67.57","OLD CROW A","2100801","2020-06-13 23:00","2020","06","13","23:00"
"-139.84","67.57","OLD CROW A","2100801","2020-06-14 00:00","2020","06","14","00:00"
"-139.84","67.57","OLD CROW A","2100801","2020-06-14 01:00","2020","06","14","01:00"
"-139.84","67.57","OLD CROW A","2100801","2020-06-14 02:00","2020","06","14","02:00"
"-139.84","67.57","OLD CROW A","2100801","2020-06-14 03:00","2020","06","14","03:00"
"-139.84","67.57","OLD CROW A","2100801","2020-06-14 04:00","2020","06","14","04:00"
"-139.84","67.57","OLD CROW A","2100801","2020-06-14 05:00","2020","06","14","05:00","12.2","","8.9","","80","","","","25","","8","","56.3","","97.99","","","","","","NA"
"-139.84","67.57","OLD CROW A","2100801","2020-06-14 06:00","2020","06","14","06:00","13.1","","8.8","","75","","","","20","","3","","56.3","","97.97","","","","","","NA"
"-139.84","67.57","OLD CROW A","2100801","2020-06-14 07:00","2020","06","14","07:00","15.1","","8.8","","66","","","","24","","4","","56.3","","97.99","","","","","","Mainly Clear"
"-139.84","67.57","OLD CROW A","2100801","2020-06-14 08:00","2020","06","14","08:00","18.4","","7.4","","48","","","","6","","13","","56.3","","97.97","","","","","","NA"
"-139.84","67.57","OLD CROW A","2100801","2020-06-14 09:00","2020","06","14","09:00","18.8","","8.1","","50","","","","4","","15","","56.3","","97.96","","","","","","NA"
"-139.84","67.57","OLD CROW A","2100801","2020-06-14 10:00","2020","06","14","10:00","20.0","","7.9","","45","","","","4","","14","","56.3","","97.94","","","","","","Mostly Cloudy"
"-139.84","67.57","OLD CROW A","2100801","2020-06-14 11:00","2020","06","14","11:00","21.8","","7.7","","40","","","","5","","13","","56.3","","97.90","","","","","","NA"
"-139.84","67.57","OLD CROW A","2100801","2020-06-14 12:00","2020","06","14","12:00","23.6","","7.1","","34","","","","5","","16","","56.3","","97.88","","","","","","NA"
"-139.84","67.57","OLD CROW A","2100801","2020-06-14 13:00","2020","06","14","13:00","24.8","","7.0","","32","","","","36","","5","","56.3","","97.83","","25","","","","Mostly Cloudy"
"-139.84","67.57","OLD CROW A","2100801","2020-06-14 14:00","2020","06","14","14:00","23.9","","6.6","","32","","","","5","","17","","56.3","","97.81","","","","","","NA"
"-139.84","67.57","OLD CROW A","2100801","2020-06-14 15:00","2020","06","14","15:00","25.6","","5.1","","26","","","","10","","9","","56.3","","97.77","","25","","","","NA"
"-139.84","67.57","OLD CROW A","2100801","2020-06-14 16:00","2020","06","14","16:00","25.7","","3.5","","23","","","","5","","18","","56.3","","97.71","","25","","","","Mostly Cloudy"
"-139.84","67.57","OLD CROW A","2100801","2020-06-14 17:00","2020","06","14","17:00","24.4","","1.8","","22","","","","8","","18","","56.3","","97.69","","","","","","NA"
"-139.84","67.57","OLD CROW A","2100801","2020-06-14 18:00","2020","06","14","18:00"
"-139.84","67.57","OLD CROW A","2100801","2020-06-14 19:00","2020","06","14","19:00"
"-139.84","67.57","OLD CROW A","2100801","2020-06-14 20:00","2020","06","14","20:00"
"-139.84","67.57","OLD CROW A","2100801","2020-06-14 21:00","2020","06","14","21:00"
"-139.84","67.57","OLD CROW A","2100801","2020-06-14 22:00","2020","06","14","22:00"
"-139.84","67.57","OLD CROW A","2100801","2020-06-14 23:00","2020","06","14","23:00"
"-139.84","67.57","OLD CROW A","2100801","2020-06-15 00:00","2020","06","15","00:00"
"-139.84","67.57","OLD CROW A","2100801","2020-06-15 01:00","2020","06","15","01:00"
"-139.84","67.57","OLD CROW A","2100801","2020-06-15 02:00","2020","06","15","02:00"
"-139.84","67.57","OLD CROW A","2100801","2020-06-15 03:00","2020","06","15","03:00"
"-139.84","67.57","OLD CROW A","2100801","2020-06-15 04:00","2020","06","15","04:00"
"-139.84","67.57","OLD CROW A","2100801","2020-06-15 05:00","2020","06","15","05:00","12.8","","8.3","","73","","","","10","","5","","56.3","","98.05","","","","","","NA"
"-139.84","67.57","OLD CROW A","2100801","2020-06-15 06:00","2020","06","15","06:00","14.8","","9.1","","68","","","","36","","2","","56.3","","98.04","","","","","","NA"
"-139.84","67.57","OLD CROW A","2100801","2020-06-15 07:00","2020","06","15","07:00","17.4","","8.9","","57","","","","10","","10","","56.3","","98.06","","","","","","Clear"
"-139.84","67.57","OLD CROW A","2100801","2020-06-15 08:00","2020","06","15","08:00","19.3","","6.3","","42","","","","5","","14","","56.3","","98.06","","","","","","NA"
"-139.84","67.57","OLD CROW A","2100801","2020-06-15 09:00","2020","06","15","09:00","20.0","","7.5","","44","","","","4","","12","","56.3","","98.05","","","","","","NA"
"-139.84","67.57","OLD CROW A","2100801","2020-06-15 10:00","2020","06","15","10:00","20.8","","6.2","","38","","","","4","","11","","56.3","","98.02","","","","","","Mostly Cloudy"
"-139.84","67.57","OLD CROW A","2100801","2020-06-15 11:00","2020","06","15","11:00","21.8","","6.9","","38","","","","6","","14","","56.3","","98.01","","","","","","NA"
"-139.84","67.57","OLD CROW A","2100801","2020-06-15 12:00","2020","06","15","12:00","23.0","","5.2","","31","","","","9","","8","","56.3","","97.98","","","","","","NA"
"-139.84","67.57","OLD CROW A","2100801","2020-06-15 13:00","2020","06","15","13:00","22.8","","6.7","","35","","","","6","","13","","56.3","","97.95","","","","","","Mostly Cloudy"
"-139.84","67.57","OLD CROW A","2100801","2020-06-15 14:00","2020","06","15","14:00","24.1","","6.0","","31","","","","10","","11","","56.3","","97.93","","","","","","NA"
"-139.84","67.57","OLD CROW A","2100801","2020-06-15 15:00","2020","06","15","15:00","24.8","","7.2","","32","","","","12","","8","","56.3","","97.90","","25","","","","NA"
"-139.84","67.57","OLD CROW A","2100801","2020-06-15 16:00","2020","06","15","16:00","24.8","","7.6","","33","","","","7","","11","","56.3","","97.88","","25","","","","Mostly Cloudy"
"-139.84","67.57","OLD CROW A","2100801","2020-06-15 17:00","2020","06","15","17:00","24.8","","8.3","","34","","","","8","","7","","56.3","","97.85","","25","","","","NA"
"-139.84","67.57","OLD CROW A","2100801","2020-06-15 18:00","2020","06","15","18:00"
"-139.84","67.57","OLD CROW A","2100801","2020-06-15 19:00","2020","06","15","19:00"
"-139.84","67.57","OLD CROW A","2100801","2020-06-15 20:00","2020","06","15","20:00"
"-139.84","67.57","OLD CROW A","2100801","2020-06-15 21:00","2020","06","15","21:00"
"-139.84","67.57","OLD CROW A","2100801","2020-06-15 22:00","2020","06","15","22:00"
"-139.84","67.57","OLD CROW A","2100801","2020-06-15 23:00","2020","06","15","23:00"
"-139.84","67.57","OLD CROW A","2100801","2020-06-16 00:00","2020","06","16","00:00"
"-139.84","67.57","OLD CROW A","2100801","2020-06-16 01:00","2020","06","16","01:00"
"-139.84","67.57","OLD CROW A","2100801","2020-06-16 02:00","2020","06","16","02:00"
"-139.84","67.57","OLD CROW A","2100801","2020-06-16 03:00","2020","06","16","03:00"
"-139.84","67.57","OLD CROW A","2100801","2020-06-16 04:00","2020","06","16","04:00"
"-139.84","67.57","OLD CROW A","2100801","2020-06-16 05:00","2020","06","16","05:00","13.1","","10.6","","85","","","","5","","5","","32.2","","98.01","","","","","","Drizzle"
"-139.84","67.57","OLD CROW A","2100801","2020-06-16 06:00","2020","06","16","06:00","12.5","","11.5","","94","","","","36","","1","","32.2","","98.00","","","","","","Rain"
"-139.84","67.57","OLD CROW A","2100801","2020-06-16 07:00","2020","06","16","07:00","12.5","","11.4","","93","","","","5","","7","","32.2","","98.04","","","","","","Cloudy"
"-139.84","67.57","OLD CROW A","2100801","2020-06-16 08:00","2020","06","16","08:00","12.8","","11.0","","89","","","","11","","6","","32.2","","98.06","","","","","","Rain"
"-139.84","67.57","OLD CROW A","2100801","2020-06-16 09:00","2020","06","16","09:00","12.4","","10.9","","91","","","","8","","10","","32.2","","98.04","","","","","","Rain"
"-139.84","67.57","OLD CROW A","2100801","2020-06-16 10:00","2020","06","16","10:00","12.5","","10.6","","88","","","","5","","10","","48.3","","97.95","","","","","","Cloudy"
"-139.84","67.57","OLD CROW A","2100801","2020-06-16 11:00","2020","06","16","11:00","13.2","","10.7","","85","","","","5","","15","","56.3","","97.92","","","","","","NA"
"-139.84","67.57","OLD CROW A","2100801","2020-06-16 12:00","2020","06","16","12:00","14.6","","10.7","","77","","","","6","","15","","56.3","","97.92","","","","","","NA"
"-139.84","67.57","OLD CROW A","2100801","2020-06-16 13:00","2020","06","16","13:00","15.4","","10.1","","71","","","","6","","9","","56.3","","97.89","","","","","","Cloudy"
"-139.84","67.57","OLD CROW A","2100801","2020-06-16 14:00","2020","06","16","14:00","15.0","","8.6","","65","","","","6","","9","","56.3","","97.87","","","","","","NA"
"-139.84","67.57","OLD CROW A","2100801","2020-06-16 15:00","2020","06","16","15:00","15.2","","9.3","","68","","","","5","","13","","56.3","","97.87","","","","","","NA"
"-139.84","67.57","OLD CROW A","2100801","2020-06-16 16:00","2020","06","16","16:00","15.9","","8.8","","62","","","","4","","8","","56.3","","97.86","","","","","","Cloudy"
"-139.84","67.57","OLD CROW A","2100801","2020-06-16 17:00","2020","06","16","17:00","16.2","","8.8","","61","","","","6","","8","","56.3","","97.84","","","","","","NA"
"-139.84","67.57","OLD CROW A","2100801","2020-06-16 18:00","2020","06","16","18:00"
"-139.84","67.57","OLD CROW A","2100801","2020-06-16 19:00","2020","06","16","19:00"
"-139.84","67.57","OLD CROW A","2100801","2020-06-16 20:00","2020","06","16","20:00"
"-139.84","67.57","OLD CROW A","2100801","2020-06-16 21:00","2020","06","16","21:00"
"-139.84","67.57","OLD CROW A","2100801","2020-06-16 22:00","2020","06","16","22:00"
"-139.84","67.57","OLD CROW A","2100801","2020-06-16 23:00","2020","06","16","23:00"
"-139.84","67.57","OLD CROW A","2100801","2020-06-17 00:00","2020","06","17","00:00"
"-139.84","67.57","OLD CROW A","2100801","2020-06-17 01:00","2020","06","17","01:00"
"-139.84","67.57","OLD CROW A","2100801","2020-06-17 02:00","2020","06","17","02:00"
"-139.84","67.57","OLD CROW A","2100801","2020-06-17 03:00","2020","06","17","03:00"
"-139.84","67.57","OLD CROW A","2100801","2020-06-17 04:00","2020","06","17","04:00"
"-139.84","67.57","OLD CROW A","2100801","2020-06-17 05:00","2020","06","17","05:00","11.4","","10.2","","92","","","","6","","6","","56.3","","97.90","","","","","","NA"
"-139.84","67.57","OLD CROW A","2100801","2020-06-17 06:00","2020","06","17","06:00","11.4","","10.3","","93","","","","35","","3","","56.3","","97.91","","","","","","NA"
"-139.84","67.57","OLD CROW A","2100801","2020-06-17 07:00","2020","06","17","07:00","12.7","","10.3","","85","","","","36","","1","","56.3","","97.92","","","","","","Mostly Cloudy"
"-139.84","67.57","OLD CROW A","2100801","2020-06-17 08:00","2020","06","17","08:00","14.3","","11.0","","81","","","","11","","4","","56.3","","97.89","","","","","","NA"
"-139.84","67.57","OLD CROW A","2100801","2020-06-17 09:00","2020","06","17","09:00","15.2","","10.9","","76","","","","27","","8","","56.3","","97.91","","","","","","Rain"
"-139.84","67.57","OLD CROW A","2100801","2020-06-17 10:00","2020","06","17","10:00","15.3","","10.6","","73","","","","28","","3","","56.3","","97.90","","","","","","Mostly Cloudy"
"-139.84","67.57","OLD CROW A","2100801","2020-06-17 11:00","2020","06","17","11:00","16.6","","10.1","","65","","","","25","","6","","56.3","","97.89","","","","","","NA"
"-139.84","67.57","OLD CROW A","2100801","2020-06-17 12:00","2020","06","17","12:00","18.0","","10.5","","61","","","","25","","5","","56.3","","97.88","","","","","","NA"
"-139.84","67.57","OLD CROW A","2100801","2020-06-17 13:00","2020","06","17","13:00","19.8","","10.8","","56","","","","11","","4","","56.3","","97.85","","","","","","Mostly Cloudy"
"-139.84","67.57","OLD CROW A","2100801","2020-06-17 14:00","2020","06","17","14:00","20.5","","10.9","","54","","","","12","","7","","56.3","","97.82","","","","","","NA"
"-139.84","67.57","OLD CROW A","2100801","2020-06-17 15:00","2020","06","17","15:00","22.6","","10.5","","46","","","","14","","14","","56.3","","97.80","","","","","","NA"
"-139.84","67.57","OLD CROW A","2100801","2020-06-17 16:00","2020","06","17","16:00","23.0","","9.7","","42","","","","21","","7","","56.3","","97.79","","","","","","Mostly Cloudy"
"-139.84","67.57","OLD CROW A","2100801","2020-06-17 17:00","2020","06","17","17:00","23.6","","10.0","","42","","","","19","","10","","56.3","","97.75","","25","","","","NA"
"-139.84","67.57","OLD CROW A","2100801","2020-06-17 18:00","2020","06","17","18:00"
"-139.84","67.57","OLD CROW A","2100801","2020-06-17 19:00","2020","06","17","19:00"
"-139.84","67.57","OLD CROW A","2100801","2020-06-17 20:00","2020","06","17","20:00"
"-139.84","67.57","OLD CROW A","2100801","2020-06-17 21:00","2020","06","17","21:00"
"-139.84","67.57","OLD CROW A","2100801","2020-06-17 22:00","2020","06","17","22:00"
"-139.84","67.57","OLD CROW A","2100801","2020-06-17 23:00","2020","06","17","23:00"
"-139.84","67.57","OLD CROW A","2100801","2020-06-18 00:00","2020","06","18","00:00"
"-139.84","67.57","OLD CROW A","2100801","2020-06-18 01:00","2020","06","18","01:00"
"-139.84","67.57","OLD CROW A","2100801","2020-06-18 02:00","2020","06","18","02:00"
"-139.84","67.57","OLD CROW A","2100801","2020-06-18 03:00","2020","06","18","03:00"
"-139.84","67.57","OLD CROW A","2100801","2020-06-18 04:00","2020","06","18","04:00"
"-139.84","67.57","OLD CROW A","2100801","2020-06-18 05:00","2020","06","18","05:00","13.6","","11.2","","85","","","","36","","1","","56.3","","97.90","","","","","","NA"
"-139.84","67.57","OLD CROW A","2100801","2020-06-18 06:00","2020","06","18","06:00","14.7","","11.3","","80","","","","0","","1","","56.3","","97.90","","","","","","NA"
"-139.84","67.57","OLD CROW A","2100801","2020-06-18 07:00","2020","06","18","07:00","15.2","","11.0","","76","","","","29","","5","","56.3","","97.92","","","","","","Mostly Cloudy"
"-139.84","67.57","OLD CROW A","2100801","2020-06-18 08:00","2020","06","18","08:00","16.4","","11.7","","74","","","","8","","10","","56.3","","97.95","","","","","","NA"
"-139.84","67.57","OLD CROW A","2100801","2020-06-18 09:00","2020","06","18","09:00","19.4","","11.8","","61","","","","16","","4","","56.3","","97.90","","","","","","NA"
"-139.84","67.57","OLD CROW A","2100801","2020-06-18 10:00","2020","06","18","10:00","16.4","","10.8","","69","","","","5","","22","","56.3","","97.93","","","","","","Mostly Cloudy"
"-139.84","67.57","OLD CROW A","2100801","2020-06-18 11:00","2020","06","18","11:00","19.2","","11.5","","60","","","","4","","17","","56.3","","97.92","","","","","","NA"
"-139.84","67.57","OLD CROW A","2100801","2020-06-18 12:00","2020","06","18","12:00","19.5","","11.0","","58","","","","4","","24","","56.3","","97.89","","","","","","NA"
"-139.84","67.57","OLD CROW A","2100801","2020-06-18 13:00","2020","06","18","13:00","20.7","","10.3","","51","","","","4","","22","","56.3","","97.88","","","","","","Mostly Cloudy"
"-139.84","67.57","OLD CROW A","2100801","2020-06-18 14:00","2020","06","18","14:00","21.1","","10.6","","51","","","","3","","18","","56.3","","97.83","","","","","","NA"
"-139.84","67.57","OLD CROW A","2100801","2020-06-18 15:00","2020","06","18","15:00"
"-139.84","67.57","OLD CROW A","2100801","2020-06-18 16:00","2020","06","18","16:00"
"-139.84","67.57","OLD CROW A","2100801","2020-06-18 17:00","2020","06","18","17:00"
"-139.84","67.57","OLD CROW A","2100801","2020-06-18 18:00","2020","06","18","18:00"
"-139.84","67.57","OLD CROW A","2100801","2020-06-18 19:00","2020","06","18","19:00"
"-139.84","67.57","OLD CROW A","2100801","2020-06-18 20:00","2020","06","18","20:00"
"-139.84","67.57","OLD CROW A","2100801","2020-06-18 21:00","2020","06","18","21:00"
"-139.84","67.57","OLD CROW A","2100801","2020-06-18 22:00","2020","06","18","22:00"
"-139.84","67.57","OLD CROW A","2100801","2020-06-18 23:00","2020","06","18","23:00"
"-139.84","67.57","OLD CROW A","2100801","2020-06-19 00:00","2020","06","19","00:00"
"-139.84","67.57","OLD CROW A","2100801","2020-06-19 01:00","2020","06","19","01:00"
"-139.84","67.57","OLD CROW A","2100801","2020-06-19 02:00","2020","06","19","02:00"
"-139.84","67.57","OLD CROW A","2100801","2020-06-19 03:00","2020","06","19","03:00"
"-139.84","67.57","OLD CROW A","2100801","2020-06-19 04:00","2020","06","19","04:00"
"-139.84","67.57","OLD CROW A","2100801","2020-06-19 05:00","2020","06","19","05:00","12.0","","8.3","","78","","","","3","","20","","48.3","","97.74","","","","","","NA"
"-139.84","67.57","OLD CROW A","2100801","2020-06-19 06:00","2020","06","19","06:00","12.4","","8.3","","76","","","","3","","16","","48.3","","97.68","","","","","","NA"
"-139.84","67.57","OLD CROW A","2100801","2020-06-19 07:00","2020","06","19","07:00","12.6","","8.3","","75","","","","3","","19","","48.3","","97.67","","","","","","Cloudy"
"-139.84","67.57","OLD CROW A","2100801","2020-06-19 08:00","2020","06","19","08:00","12.9","","8.3","","74","","","","3","","16","","48.3","","97.65","","","","","","NA"
"-139.84","67.57","OLD CROW A","2100801","2020-06-19 09:00","2020","06","19","09:00","12.2","","8.1","","76","","","","3","","25","","48.3","","97.65","","","","","","Rain"
"-139.84","67.57","OLD CROW A","2100801","2020-06-19 10:00","2020","06","19","10:00","12.9","","7.5","","70","","","","3","","23","","48.3","","97.64","","","","","","Cloudy"
"-139.84","67.57","OLD CROW A","2100801","2020-06-19 11:00","2020","06","19","11:00","14.0","","7.2","","63","","","","3","","21","","48.3","","97.61","","","","","","Rain"
"-139.84","67.57","OLD CROW A","2100801","2020-06-19 12:00","2020","06","19","12:00","13.5","","6.2","","61","","","","3","","19","","40.2","","97.64","","","","","","NA"
"-139.84","67.57","OLD CROW A","2100801","2020-06-19 13:00","2020","06","19","13:00","12.5","","8.7","","77","","","","3","","15","","32.2","","97.61","","","","","","Rain"
"-139.84","67.57","OLD CROW A","2100801","2020-06-19 14:00","2020","06","19","14:00","13.0","","9.4","","79","","","","3","","21","","32.2","","97.61","","","","","","Rain"
"-139.84","67.57","OLD CROW A","2100801","2020-06-19 15:00","2020","06","19","15:00"
"-139.84","67.57","OLD CROW A","2100801","2020-06-19 16:00","2020","06","19","16:00"
"-139.84","67.57","OLD CROW A","2100801","2020-06-19 17:00","2020","06","19","17:00"
"-139.84","67.57","OLD CROW A","2100801","2020-06-19 18:00","2020","06","19","18:00"
"-139.84","67.57","OLD CROW A","2100801","2020-06-19 19:00","2020","06","19","19:00"
"-139.84","67.57","OLD CROW A","2100801","2020-06-19 20:00","2020","06","19","20:00"
"-139.84","67.57","OLD CROW A","2100801","2020-06-19 21:00","2020","06","19","21:00"
"-139.84","67.57","OLD CROW A","2100801","2020-06-19 22:00","2020","06","19","22:00"
"-139.84","67.57","OLD CROW A","2100801","2020-06-19 23:00","2020","06","19","23:00"
"-139.84","67.57","OLD CROW A","2100801","2020-06-20 00:00","2020","06","20","00:00"
"-139.84","67.57","OLD CROW A","2100801","2020-06-20 01:00","2020","06","20","01:00"
"-139.84","67.57","OLD CROW A","2100801","2020-06-20 02:00","2020","06","20","02:00"
"-139.84","67.57","OLD CROW A","2100801","2020-06-20 03:00","2020","06","20","03:00"
"-139.84","67.57","OLD CROW A","2100801","2020-06-20 04:00","2020","06","20","04:00"
"-139.84","67.57","OLD CROW A","2100801","2020-06-20 05:00","2020","06","20","05:00","7.2","","5.3","","88","","","","3","","19","","16.1","","97.85","","","","","","Drizzle"
"-139.84","67.57","OLD CROW A","2100801","2020-06-20 06:00","2020","06","20","06:00","6.9","","5.3","","89","","","","5","","26","","9.7","","97.82","","","","","","Drizzle"
"-139.84","67.57","OLD CROW A","2100801","2020-06-20 07:00","2020","06","20","07:00","7.3","","5.4","","88","","","","5","","21","","16.1","","97.85","","","","","","Cloudy"
"-139.84","67.57","OLD CROW A","2100801","2020-06-20 08:00","2020","06","20","08:00","7.9","","5.5","","84","","","","4","","22","","16.1","","97.87","","","","","","NA"
"-139.84","67.57","OLD CROW A","2100801","2020-06-20 09:00","2020","06","20","09:00","8.2","","5.7","","84","","","","5","","24","","17.7","","97.86","","","","","","NA"
"-139.84","67.57","OLD CROW A","2100801","2020-06-20 10:00","2020","06","20","10:00","8.2","","5.7","","84","","","","5","","26","","16.1","","97.88","","","","","","Cloudy"
"-139.84","67.57","OLD CROW A","2100801","2020-06-20 11:00","2020","06","20","11:00","8.9","","6.5","","85","","","","4","","16","","16.1","","97.90","","","","","","NA"
"-139.84","67.57","OLD CROW A","2100801","2020-06-20 12:00","2020","06","20","12:00","9.0","","6.0","","81","","","","4","","27","","24.1","","97.93","","","","","","NA"
"-139.84","67.57","OLD CROW A","2100801","2020-06-20 13:00","2020","06","20","13:00","9.9","","6.7","","80","","","","5","","22","","24.1","","97.95","","","","","","Cloudy"
"-139.84","67.57","OLD CROW A","2100801","2020-06-20 14:00","2020","06","20","14:00","9.8","","6.7","","81","","","","4","","24","","24.1","","97.95","","","","","","NA"
"-139.84","67.57","OLD CROW A","2100801","2020-06-20 15:00","2020","06","20","15:00","10.5","","6.6","","77","","","","5","","22","","24.1","","97.95","","","","","","NA"
"-139.84","67.57","OLD CROW A","2100801","2020-06-20 16:00","2020","06","20","16:00"
"-139.84","67.57","OLD CROW A","2100801","2020-06-20 17:00","2020","06","20","17:00"
"-139.84","67.57","OLD CROW A","2100801","2020-06-20 18:00","2020","06","20","18:00"
"-139.84","67.57","OLD CROW A","2100801","2020-06-20 19:00","2020","06","20","19:00"
"-139.84","67.57","OLD CROW A","2100801","2020-06-20 20:00","2020","06","20","20:00"
"-139.84","67.57","OLD CROW A","2100801","2020-06-20 21:00","2020","06","20","21:00"
"-139.84","67.57","OLD CROW A","2100801","2020-06-20 22:00","2020","06","20","22:00"
"-139.84","67.57","OLD CROW A","2100801","2020-06-20 23:00","2020","06","20","23:00"
"-139.84","67.57","OLD CROW A","2100801","2020-06-21 00:00","2020","06","21","00:00"
"-139.84","67.57","OLD CROW A","2100801","2020-06-21 01:00","2020","06","21","01:00"
"-139.84","67.57","OLD CROW A","2100801","2020-06-21 02:00","2020","06","21","02:00"
"-139.84","67.57","OLD CROW A","2100801","2020-06-21 03:00","2020","06","21","03:00"
"-139.84","67.57","OLD CROW A","2100801","2020-06-21 04:00","2020","06","21","04:00"
"-139.84","67.57","OLD CROW A","2100801","2020-06-21 05:00","2020","06","21","05:00","8.1","","5.6","","84","","","","5","","8","","24.1","","97.93","","","","","","NA"
"-139.84","67.57","OLD CROW A","2100801","2020-06-21 06:00","2020","06","21","06:00","8.5","","5.5","","82","","","","6","","9","","24.1","","97.91","","","","","","NA"
"-139.84","67.57","OLD CROW A","2100801","2020-06-21 07:00","2020","06","21","07:00","8.5","","5.4","","81","","","","8","","11","","24.1","","97.92","","","","","","Mostly Cloudy"
"-139.84","67.57","OLD CROW A","2100801","2020-06-21 08:00","2020","06","21","08:00","9.6","","6.1","","79","","","","7","","11","","24.1","","97.90","","","","","","NA"
"-139.84","67.57","OLD CROW A","2100801","2020-06-21 09:00","2020","06","21","09:00","10.3","","6.1","","75","","","","5","","13","","56.3","","97.87","","","","","","NA"
"-139.84","67.57","OLD CROW A","2100801","2020-06-21 10:00","2020","06","21","10:00","12.2","","6.9","","70","","","","6","","4","","56.3","","97.81","","","","","","Mostly Cloudy"
"-139.84","67.57","OLD CROW A","2100801","2020-06-21 11:00","2020","06","21","11:00","12.3","","7.2","","71","","","","8","","7","","56.3","","97.76","","","","","","NA"
"-139.84","67.57","OLD CROW A","2100801","2020-06-21 12:00","2020","06","21","12:00","14.2","","7.8","","65","","","","9","","5","","56.3","","97.71","","","","","","NA"
"-139.84","67.57","OLD CROW A","2100801","2020-06-21 13:00","2020","06","21","13:00","14.9","","8.1","","63","","","","9","","6","","56.3","","97.67","","","","","","Mostly Cloudy"
"-139.84","67.57","OLD CROW A","2100801","2020-06-21 14:00","2020","06","21","14:00","15.4","","7.7","","60","","","","11","","5","","56.3","","97.65","","","","","","NA"
"-139.84","67.57","OLD CROW A","2100801","2020-06-21 15:00","2020","06","21","15:00"
"-139.84","67.57","OLD CROW A","2100801","2020-06-21 16:00","2020","06","21","16:00"
"-139.84","67.57","OLD CROW A","2100801","2020-06-21 17:00","2020","06","21","17:00"
"-139.84","67.57","OLD CROW A","2100801","2020-06-21 18:00","2020","06","21","18:00"
"-139.84","67.57","OLD CROW A","2100801","2020-06-21 19:00","2020","06","21","19:00"
"-139.84","67.57","OLD CROW A","2100801","2020-06-21 20:00","2020","06","21","20:00"
"-139.84","67.57","OLD CROW A","2100801","2020-06-21 21:00","2020","06","21","21:00"
"-139.84","67.57","OLD CROW A","2100801","2020-06-21 22:00","2020","06","21","22:00"
"-139.84","67.57","OLD CROW A","2100801","2020-06-21 23:00","2020","06","21","23:00"
"-139.84","67.57","OLD CROW A","2100801","2020-06-22 00:00","2020","06","22","00:00"
"-139.84","67.57","OLD CROW A","2100801","2020-06-22 01:00","2020","06","22","01:00"
"-139.84","67.57","OLD CROW A","2100801","2020-06-22 02:00","2020","06","22","02:00"
"-139.84","67.57","OLD CROW A","2100801","2020-06-22 03:00","2020","06","22","03:00"
"-139.84","67.57","OLD CROW A","2100801","2020-06-22 04:00","2020","06","22","04:00"
"-139.84","67.57","OLD CROW A","2100801","2020-06-22 05:00","2020","06","22","05:00","11.5","","9.2","","86","","","","6","","7","","56.3","","97.29","","","","","","NA"
"-139.84","67.57","OLD CROW A","2100801","2020-06-22 06:00","2020","06","22","06:00","12.6","","9.7","","82","","","","10","","3","","56.3","","97.25","","","","","","NA"
"-139.84","67.57","OLD CROW A","2100801","2020-06-22 07:00","2020","06","22","07:00","12.7","","9.7","","82","","","","11","","4","","56.3","","97.23","","","","","","Mostly Cloudy"
"-139.84","67.57","OLD CROW A","2100801","2020-06-22 08:00","2020","06","22","08:00","13.9","","9.9","","77","","","","13","","4","","56.3","","97.22","","","","","","NA"
"-139.84","67.57","OLD CROW A","2100801","2020-06-22 09:00","2020","06","22","09:00","15.3","","9.1","","66","","","","0","","1","","56.3","","97.17","","","","","","NA"
"-139.84","67.57","OLD CROW A","2100801","2020-06-22 10:00","2020","06","22","10:00","16.9","","9.4","","61","","","","14","","4","","56.3","","97.11","","","","","","Mostly Cloudy"
"-139.84","67.57","OLD CROW A","2100801","2020-06-22 11:00","2020","06","22","11:00","19.2","","9.5","","53","","","","12","","4","","56.3","","97.04","","","","","","NA"
"-139.84","67.57","OLD CROW A","2100801","2020-06-22 12:00","2020","06","22","12:00","18.8","","9.4","","54","","","","36","","3","","56.3","","96.98","","","","","","NA"
"-139.84","67.57","OLD CROW A","2100801","2020-06-22 13:00","2020","06","22","13:00","20.9","","8.6","","45","","","","19","","5","","56.3","","96.92","","","","","","Mostly Cloudy"
"-139.84","67.57","OLD CROW A","2100801","2020-06-22 14:00","2020","06","22","14:00","21.4","","9.9","","48","","","","11","","5","","56.3","","96.88","","","","","","NA"
"-139.84","67.57","OLD CROW A","2100801","2020-06-22 15:00","2020","06","22","15:00","21.9","","8.4","","41","","","","36","","3","","56.3","","96.83","","","","","","NA"
"-139.84","67.57","OLD CROW A","2100801","2020-06-22 16:00","2020","06","22","16:00","22.3","","7.8","","39","","","","25","","4","","56.3","","96.77","","","","","","Mostly Cloudy"
"-139.84","67.57","OLD CROW A","2100801","2020-06-22 17:00","2020","06","22","17:00","23.1","","9.1","","40","","","","12","","9","","56.3","","96.73","","","","","","NA"
"-139.84","67.57","OLD CROW A","2100801","2020-06-22 18:00","2020","06","22","18:00"
"-139.84","67.57","OLD CROW A","2100801","2020-06-22 19:00","2020","06","22","19:00"
"-139.84","67.57","OLD CROW A","2100801","2020-06-22 20:00","2020","06","22","20:00"
"-139.84","67.57","OLD CROW A","2100801","2020-06-22 21:00","2020","06","22","21:00"
"-139.84","67.57","OLD CROW A","2100801","2020-06-22 22:00","2020","06","22","22:00"
"-139.84","67.57","OLD CROW A","2100801","2020-06-22 23:00","2020","06","22","23:00"
"-139.84","67.57","OLD CROW A","2100801","2020-06-23 00:00","2020","06","23","00:00"
"-139.84","67.57","OLD CROW A","2100801","2020-06-23 01:00","2020","06","23","01:00"
"-139.84","67.57","OLD CROW A","2100801","2020-06-23 02:00","2020","06","23","02:00"
"-139.84","67.57","OLD CROW A","2100801","2020-06-23 03:00","2020","06","23","03:00"
"-139.84","67.57","OLD CROW A","2100801","2020-06-23 04:00","2020","06","23","04:00"
"-139.84","67.57","OLD CROW A","2100801","2020-06-23 05:00","2020","06","23","05:00","5.5","","1.7","","77","","","","4","","8","","24.1","","97.22","","","","","","NA"
"-139.84","67.57","OLD CROW A","2100801","2020-06-23 06:00","2020","06","23","06:00","5.1","","1.4","","77","","","","5","","10","","24.1","","97.21","","","","","","NA"
"-139.84","67.57","OLD CROW A","2100801","2020-06-23 07:00","2020","06","23","07:00","5.6","","1.2","","73","","","","4","","19","","24.1","","97.21","","","","","","Mostly Cloudy"
"-139.84","67.57","OLD CROW A","2100801","2020-06-23 08:00","2020","06","23","08:00","6.0","","1.4","","72","","","","3","","12","","24.1","","97.20","","","","","","NA"
"-139.84","67.57","OLD CROW A","2100801","2020-06-23 09:00","2020","06","23","09:00","6.0","","1.0","","70","","","","3","","21","","24.1","","97.22","","","","","","NA"
"-139.84","67.57","OLD CROW A","2100801","2020-06-23 10:00","2020","06","23","10:00","6.1","","1.7","","73","","","","4","","18","","24.1","","97.24","","","","","","Rain"
"-139.84","67.57","OLD CROW A","2100801","2020-06-23 11:00","2020","06","23","11:00","6.8","","1.7","","70","","","","3","","17","","32.2","","97.24","","","","","","NA"
"-139.84","67.57","OLD CROW A","2100801","2020-06-23 12:00","2020","06","23","12:00","6.6","","1.9","","72","","","","3","","16","","48.3","","97.27","","","","","","NA"
"-139.84","67.57","OLD CROW A","2100801","2020-06-23 13:00","2020","06","23","13:00","6.5","","3.7","","82","","","","3","","12","","32.2","","97.30","","","","","","Rain"
"-139.84","67.57","OLD CROW A","2100801","2020-06-23 14:00","2020","06","23","14:00","6.3","","4.0","","85","","","","3","","12","","11.3","","97.33","","","","","","Rain"
"-139.84","67.57","OLD CROW A","2100801","2020-06-23 15:00","2020","06","23","15:00","6.6","","4.3","","85","","","","4","","15","","11.3","","97.35","","","","","","Rain"
"-139.84","67.57","OLD CROW A","2100801","2020-06-23 16:00","2020","06","23","16:00","7.5","","5.2","","85","","","","6","","12","","12.9","","97.34","","","","","","Rain"
"-139.84","67.57","OLD CROW A","2100801","2020-06-23 17:00","2020","06","23","17:00","8.0","","4.7","","79","","","","6","","14","","32.2","","97.35","","","","","","NA"
"-139.84","67.57","OLD CROW A","2100801","2020-06-23 18:00","2020","06","23","18:00"
"-139.84","67.57","OLD CROW A","2100801","2020-06-23 19:00","2020","06","23","19:00"
"-139.84","67.57","OLD CROW A","2100801","2020-06-23 20:00","2020","06","23","20:00"
"-139.84","67.57","OLD CROW A","2100801","2020-06-23 21:00","2020","06","23","21:00"
"-139.84","67.57","OLD CROW A","2100801","2020-06-23 22:00","2020","06","23","22:00"
"-139.84","67.57","OLD CROW A","2100801","2020-06-23 23:00","2020","06","23","23:00"
"-139.84","67.57","OLD CROW A","2100801","2020-06-24 00:00","2020","06","24","00:00"
"-139.84","67.57","OLD CROW A","2100801","2020-06-24 01:00","2020","06","24","01:00"
"-139.84","67.57","OLD CROW A","2100801","2020-06-24 02:00","2020","06","24","02:00"
"-139.84","67.57","OLD CROW A","2100801","2020-06-24 03:00","2020","06","24","03:00"
"-139.84","67.57","OLD CROW A","2100801","2020-06-24 04:00","2020","06","24","04:00"
"-139.84","67.57","OLD CROW A","2100801","2020-06-24 05:00","2020","06","24","05:00","6.9","","5.9","","94","","","","8","","9","","32.2","","97.52","","","","","","NA"
"-139.84","67.57","OLD CROW A","2100801","2020-06-24 06:00","2020","06","24","06:00","7.1","","6.0","","93","","","","8","","7","","32.2","","97.55","","","","","","Drizzle"
"-139.84","67.57","OLD CROW A","2100801","2020-06-24 07:00","2020","06","24","07:00","7.6","","6.6","","93","","","","8","","8","","32.2","","97.57","","","","","","Drizzle"
"-139.84","67.57","OLD CROW A","2100801","2020-06-24 08:00","2020","06","24","08:00","8.3","","6.7","","89","","","","9","","7","","32.2","","97.59","","","","","","Drizzle"
"-139.84","67.57","OLD CROW A","2100801","2020-06-24 09:00","2020","06","24","09:00","8.9","","6.6","","85","","","","9","","7","","32.2","","97.60","","","","","","Drizzle"
"-139.84","67.57","OLD CROW A","2100801","2020-06-24 10:00","2020","06","24","10:00","9.4","","6.7","","83","","","","6","","10","","32.2","","97.62","","","","","","Cloudy"
"-139.84","67.57","OLD CROW A","2100801","2020-06-24 11:00","2020","06","24","11:00","10.7","","7.4","","80","","","","10","","7","","32.2","","97.63","","","","","","NA"
"-139.84","67.57","OLD CROW A","2100801","2020-06-24 12:00","2020","06","24","12:00","10.9","","7.3","","78","","","","10","","7","","32.2","","97.64","","","","","","NA"
"-139.84","67.57","OLD CROW A","2100801","2020-06-24 13:00","2020","06","24","13:00","11.2","","8.6","","84","","","","9","","9","","32.2","","97.65","","","","","","Rain"
"-139.84","67.57","OLD CROW A","2100801","2020-06-24 14:00","2020","06","24","14:00","11.7","","8.6","","81","","","","12","","6","","32.2","","97.65","","","","","","Rain"
"-139.84","67.57","OLD CROW A","2100801","2020-06-24 15:00","2020","06","24","15:00","12.2","","9.7","","84","","","","27","","8","","32.2","","97.66","","","","","","NA"
"-139.84","67.57","OLD CROW A","2100801","2020-06-24 16:00","2020","06","24","16:00","12.7","","9.8","","82","","","","24","","5","","32.2","","97.66","","","","","","Cloudy"
"-139.84","67.57","OLD CROW A","2100801","2020-06-24 17:00","2020","06","24","17:00","11.9","","10.4","","90","","","","25","","8","","24.1","","97.65","","","","","","Rain"
"-139.84","67.57","OLD CROW A","2100801","2020-06-24 18:00","2020","06","24","18:00"
"-139.84","67.57","OLD CROW A","2100801","2020-06-24 19:00","2020","06","24","19:00"
"-139.84","67.57","OLD CROW A","2100801","2020-06-24 20:00","2020","06","24","20:00"
"-139.84","67.57","OLD CROW A","2100801","2020-06-24 21:00","2020","06","24","21:00"
"-139.84","67.57","OLD CROW A","2100801","2020-06-24 22:00","2020","06","24","22:00"
"-139.84","67.57","OLD CROW A","2100801","2020-06-24 23:00","2020","06","24","23:00"
"-139.84","67.57","OLD CROW A","2100801","2020-06-25 00:00","2020","06","25","00:00"
"-139.84","67.57","OLD CROW A","2100801","2020-06-25 01:00","2020","06","25","01:00"
"-139.84","67.57","OLD CROW A","2100801","2020-06-25 02:00","2020","06","25","02:00"
"-139.84","67.57","OLD CROW A","2100801","2020-06-25 03:00","2020","06","25","03:00"
"-139.84","67.57","OLD CROW A","2100801","2020-06-25 04:00","2020","06","25","04:00"
"-139.84","67.57","OLD CROW A","2100801","2020-06-25 05:00","2020","06","25","05:00","10.1","","9.8","","98","","","","22","","5","","56.3","","97.66","","","","","","NA"
"-139.84","67.57","OLD CROW A","2100801","2020-06-25 06:00","2020","06","25","06:00","10.5","","10.0","","97","","","","22","","3","","56.3","","97.67","","","","","","Rain"
"-139.84","67.57","OLD CROW A","2100801","2020-06-25 07:00","2020","06","25","07:00","11.3","","10.1","","92","","","","23","","3","","56.3","","97.68","","","","","","Mostly Cloudy"
"-139.84","67.57","OLD CROW A","2100801","2020-06-25 08:00","2020","06","25","08:00","11.8","","9.2","","84","","","","24","","11","","56.3","","97.68","","","","","","NA"
"-139.84","67.57","OLD CROW A","2100801","2020-06-25 09:00","2020","06","25","09:00","12.3","","9.5","","83","","","","24","","6","","56.3","","97.67","","","","","","NA"
"-139.84","67.57","OLD CROW A","2100801","2020-06-25 10:00","2020","06","25","10:00","12.8","","8.8","","76","","","","23","","9","","56.3","","97.66","","","","","","Cloudy"
"-139.84","67.57","OLD CROW A","2100801","2020-06-25 11:00","2020","06","25","11:00","12.6","","8.5","","76","","","","27","","22","","48.3","","97.65","","","","","","Rain"
"-139.84","67.57","OLD CROW A","2100801","2020-06-25 12:00","2020","06","25","12:00","14.6","","8.5","","66","","","","24","","9","","56.3","","97.62","","","","","","NA"
"-139.84","67.57","OLD CROW A","2100801","2020-06-25 13:00","2020","06","25","13:00","15.3","","8.6","","64","","","","22","","12","","56.3","","97.58","","","","","","Mostly Cloudy"
"-139.84","67.57","OLD CROW A","2100801","2020-06-25 14:00","2020","06","25","14:00","14.7","","9.0","","68","","","","25","","8","","56.3","","97.56","","","","","","Rain Showers"
"-139.84","67.57","OLD CROW A","2100801","2020-06-25 15:00","2020","06","25","15:00","14.4","","8.9","","69","","","","22","","7","","56.3","","97.53","","","","","","NA"
"-139.84","67.57","OLD CROW A","2100801","2020-06-25 16:00","2020","06","25","16:00","16.4","","8.6","","59","","","","24","","7","","56.3","","97.48","","","","","","Mostly Cloudy"
"-139.84","67.57","OLD CROW A","2100801","2020-06-25 17:00","2020","06","25","17:00","16.6","","7.7","","55","","","","22","","7","","56.3","","97.46","","","","","","NA"
"-139.84","67.57","OLD CROW A","2100801","2020-06-25 18:00","2020","06","25","18:00"
"-139.84","67.57","OLD CROW A","2100801","2020-06-25 19:00","2020","06","25","19:00"
"-139.84","67.57","OLD CROW A","2100801","2020-06-25 20:00","2020","06","25","20:00"
"-139.84","67.57","OLD CROW A","2100801","2020-06-25 21:00","2020","06","25","21:00"
"-139.84","67.57","OLD CROW A","2100801","2020-06-25 22:00","2020","06","25","22:00"
"-139.84","67.57","OLD CROW A","2100801","2020-06-25 23:00","2020","06","25","23:00"
"-139.84","67.57","OLD CROW A","2100801","2020-06-26 00:00","2020","06","26","00:00"
"-139.84","67.57","OLD CROW A","2100801","2020-06-26 01:00","2020","06","26","01:00"
"-139.84","67.57","OLD CROW A","2100801","2020-06-26 02:00","2020","06","26","02:00"
"-139.84","67.57","OLD CROW A","2100801","2020-06-26 03:00","2020","06","26","03:00"
"-139.84","67.57","OLD CROW A","2100801","2020-06-26 04:00","2020","06","26","04:00"
"-139.84","67.57","OLD CROW A","2100801","2020-06-26 05:00","2020","06","26","05:00","9.5","","7.2","","85","","","","24","","15","","56.3","","97.52","","","","","","NA"
"-139.84","67.57","OLD CROW A","2100801","2020-06-26 06:00","2020","06","26","06:00","11.2","","7.2","","76","","","","25","","10","","56.3","","97.53","","","","","","NA"
"-139.84","67.57","OLD CROW A","2100801","2020-06-26 07:00","2020","06","26","07:00","12.5","","7.7","","72","","","","26","","14","","56.3","","97.54","","","","","","Mostly Cloudy"
"-139.84","67.57","OLD CROW A","2100801","2020-06-26 08:00","2020","06","26","08:00","12.8","","8.1","","73","","","","25","","16","","56.3","","97.53","","","","","","Rain Showers"
"-139.84","67.57","OLD CROW A","2100801","2020-06-26 09:00","2020","06","26","09:00","14.2","","8.3","","67","","","","25","","18","","56.3","","97.53","","","","","","NA"
"-139.84","67.57","OLD CROW A","2100801","2020-06-26 10:00","2020","06","26","10:00","13.7","","8.1","","69","","","","26","","19","","56.3","","97.54","","","","","","Mostly Cloudy"
"-139.84","67.57","OLD CROW A","2100801","2020-06-26 11:00","2020","06","26","11:00","13.6","","8.3","","70","","","","24","","20","","24.1","","97.56","","","","","","NA"
"-139.84","67.57","OLD CROW A","2100801","2020-06-26 12:00","2020","06","26","12:00","13.5","","8.0","","69","","","","26","","16","","24.1","","97.58","","","","","","NA"
"-139.84","67.57","OLD CROW A","2100801","2020-06-26 13:00","2020","06","26","13:00","13.4","","8.2","","71","","","","28","","12","","24.1","","97.59","","","","","","Rain"
"-139.84","67.57","OLD CROW A","2100801","2020-06-26 14:00","2020","06","26","14:00","13.5","","9.2","","75","","","","26","","15","","56.3","","97.59","","","","","","NA"
"-139.84","67.57","OLD CROW A","2100801","2020-06-26 15:00","2020","06","26","15:00","15.6","","8.6","","63","","","","23","","21","","56.3","","97.58","","","","","","NA"
"-139.84","67.57","OLD CROW A","2100801","2020-06-26 16:00","2020","06","26","16:00","14.8","","9.0","","68","","","","25","","12","","56.3","","97.57","","","","","","Mostly Cloudy"
"-139.84","67.57","OLD CROW A","2100801","2020-06-26 17:00","2020","06","26","17:00","16.2","","8.8","","61","","","","22","","5","","56.3","","97.58","","","","","","NA"
"-139.84","67.57","OLD CROW A","2100801","2020-06-26 18:00","2020","06","26","18:00"
"-139.84","67.57","OLD CROW A","2100801","2020-06-26 19:00","2020","06","26","19:00"
"-139.84","67.57","OLD CROW A","2100801","2020-06-26 20:00","2020","06","26","20:00"
"-139.84","67.57","OLD CROW A","2100801","2020-06-26 21:00","2020","06","26","21:00"
"-139.84","67.57","OLD CROW A","2100801","2020-06-26 22:00","2020","06","26","22:00"
"-139.84","67.57","OLD CROW A","2100801","2020-06-26 23:00","2020","06","26","23:00"
"-139.84","67.57","OLD CROW A","2100801","2020-06-27 00:00","2020","06","27","00:00"
"-139.84","67.57","OLD CROW A","2100801","2020-06-27 01:00","2020","06","27","01:00"
"-139.84","67.57","OLD CROW A","2100801","2020-06-27 02:00","2020","06","27","02:00"
"-139.84","67.57","OLD CROW A","2100801","2020-06-27 03:00","2020","06","27","03:00"
"-139.84","67.57","OLD CROW A","2100801","2020-06-27 04:00","2020","06","27","04:00"
"-139.84","67.57","OLD CROW A","2100801","2020-06-27 05:00","2020","06","27","05:00","10.1","","9.0","","93","","","","22","","8","","56.3","","98.18","","","","","","NA"
"-139.84","67.57","OLD CROW A","2100801","2020-06-27 06:00","2020","06","27","06:00","10.1","","9.4","","96","","","","21","","5","","56.3","","98.22","","","","","","NA"
"-139.84","67.57","OLD CROW A","2100801","2020-06-27 07:00","2020","06","27","07:00","10.9","","9.7","","92","","","","21","","6","","56.3","","98.26","","","","","","Mostly Cloudy"
"-139.84","67.57","OLD CROW A","2100801","2020-06-27 08:00","2020","06","27","08:00","12.5","","9.5","","81","","","","22","","12","","56.3","","98.30","","","","","","NA"
"-139.84","67.57","OLD CROW A","2100801","2020-06-27 09:00","2020","06","27","09:00","12.7","","9.4","","80","","","","24","","13","","56.3","","98.35","","","","","","NA"
"-139.84","67.57","OLD CROW A","2100801","2020-06-27 10:00","2020","06","27","10:00","14.8","","9.8","","72","","","","22","","8","","56.3","","98.37","","","","","","Mostly Cloudy"
"-139.84","67.57","OLD CROW A","2100801","2020-06-27 11:00","2020","06","27","11:00","16.2","","9.4","","64","","","","25","","13","","56.3","","98.38","","","","","","NA"
"-139.84","67.57","OLD CROW A","2100801","2020-06-27 12:00","2020","06","27","12:00","13.9","","11.2","","84","","","","7","","6","","56.3","","98.42","","","","","","NA"
"-139.84","67.57","OLD CROW A","2100801","2020-06-27 13:00","2020","06","27","13:00","13.5","","11.5","","88","","","","29","","8","","24.1","","98.46","","","","","","Thunderstorms,Rain Showers"
"-139.84","67.57","OLD CROW A","2100801","2020-06-27 14:00","2020","06","27","14:00","12.7","","10.5","","87","","","","4","","8","","56.3","","98.46","","","","","","Rain"
"-139.84","67.57","OLD CROW A","2100801","2020-06-27 15:00","2020","06","27","15:00","13.4","","11.2","","86","","","","4","","15","","24.1","","98.47","","","","","","Thunderstorms,Moderate Rain Showers"
"-139.84","67.57","OLD CROW A","2100801","2020-06-27 16:00","2020","06","27","16:00","11.8","","10.3","","91","","","","25","","4","","56.3","","98.55","","","","","","Rain"
"-139.84","67.57","OLD CROW A","2100801","2020-06-27 17:00","2020","06","27","17:00","12.1","","9.7","","85","","","","6","","7","","24.1","","98.55","","","","","","Thunderstorms,Rain"
"-139.84","67.57","OLD CROW A","2100801","2020-06-27 18:00","2020","06","27","18:00"
"-139.84","67.57","OLD CROW A","2100801","2020-06-27 19:00","2020","06","27","19:00"
"-139.84","67.57","OLD CROW A","2100801","2020-06-27 20:00","2020","06","27","20:00"
"-139.84","67.57","OLD CROW A","2100801","2020-06-27 21:00","2020","06","27","21:00"
"-139.84","67.57","OLD CROW A","2100801","2020-06-27 22:00","2020","06","27","22:00"
"-139.84","67.57","OLD CROW A","2100801","2020-06-27 23:00","2020","06","27","23:00"
"-139.84","67.57","OLD CROW A","2100801","2020-06-28 00:00","2020","06","28","00:00"
"-139.84","67.57","OLD CROW A","2100801","2020-06-28 01:00","2020","06","28","01:00"
"-139.84","67.57","OLD CROW A","2100801","2020-06-28 02:00","2020","06","28","02:00"
"-139.84","67.57","OLD CROW A","2100801","2020-06-28 03:00","2020","06","28","03:00"
"-139.84","67.57","OLD CROW A","2100801","2020-06-28 04:00","2020","06","28","04:00"
"-139.84","67.57","OLD CROW A","2100801","2020-06-28 05:00","2020","06","28","05:00","8.6","","7.5","","93","","","","36","","1","","56.3","","98.49","","","","","","NA"
"-139.84","67.57","OLD CROW A","2100801","2020-06-28 06:00","2020","06","28","06:00","10.3","","8.8","","90","","","","29","","4","","56.3","","98.46","","","","","","NA"
"-139.84","67.57","OLD CROW A","2100801","2020-06-28 07:00","2020","06","28","07:00","12.7","","5.9","","63","","","","36","","1","","56.3","","98.41","","","","","","Mainly Clear"
"-139.84","67.57","OLD CROW A","2100801","2020-06-28 08:00","2020","06","28","08:00","14.3","","7.8","","65","","","","26","","8","","56.3","","98.36","","","","","","NA"
"-139.84","67.57","OLD CROW A","2100801","2020-06-28 09:00","2020","06","28","09:00","16.6","","7.2","","53","","","","24","","5","","56.3","","98.29","","","","","","NA"
"-139.84","67.57","OLD CROW A","2100801","2020-06-28 10:00","2020","06","28","10:00","18.2","","6.9","","47","","","","24","","4","","56.3","","98.24","","","","","","Mainly Clear"
"-139.84","67.57","OLD CROW A","2100801","2020-06-28 11:00","2020","06","28","11:00","19.5","","7.0","","44","","","","23","","7","","56.3","","98.18","","","","","","NA"
"-139.84","67.57","OLD CROW A","2100801","2020-06-28 12:00","2020","06","28","12:00","20.3","","5.7","","38","","","","21","","8","","56.3","","98.10","","","","","","NA"
"-139.84","67.57","OLD CROW A","2100801","2020-06-28 13:00","2020","06","28","13:00","20.0","","4.0","","34","","","","36","","2","","56.3","","98.01","","","","","","Mainly Clear"
"-139.84","67.57","OLD CROW A","2100801","2020-06-28 14:00","2020","06","28","14:00","21.8","","5.2","","33","","","","25","","5","","56.3","","97.92","","","","","","NA"
"-139.84","67.57","OLD CROW A","2100801","2020-06-28 15:00","2020","06","28","15:00","21.7","","4.4","","32","","","","12","","5","","56.3","","97.85","","","","","","NA"
"-139.84","67.57","OLD CROW A","2100801","2020-06-28 16:00","2020","06","28","16:00","22.3","","4.1","","30","","","","12","","5","","56.3","","97.78","","","","","","Mostly Cloudy"
"-139.84","67.57","OLD CROW A","2100801","2020-06-28 17:00","2020","06","28","17:00","22.3","","4.0","","30","","","","36","","2","","56.3","","97.71","","","","","","NA"
"-139.84","67.57","OLD CROW A","2100801","2020-06-28 18:00","2020","06","28","18:00"
"-139.84","67.57","OLD CROW A","2100801","2020-06-28 19:00","2020","06","28","19:00"
"-139.84","67.57","OLD CROW A","2100801","2020-06-28 20:00","2020","06","28","20:00"
"-139.84","67.57","OLD CROW A","2100801","2020-06-28 21:00","2020","06","28","21:00"
"-139.84","67.57","OLD CROW A","2100801","2020-06-28 22:00","2020","06","28","22:00"
"-139.84","67.57","OLD CROW A","2100801","2020-06-28 23:00","2020","06","28","23:00"
"-139.84","67.57","OLD CROW A","2100801","2020-06-29 00:00","2020","06","29","00:00"
"-139.84","67.57","OLD CROW A","2100801","2020-06-29 01:00","2020","06","29","01:00"
"-139.84","67.57","OLD CROW A","2100801","2020-06-29 02:00","2020","06","29","02:00"
"-139.84","67.57","OLD CROW A","2100801","2020-06-29 03:00","2020","06","29","03:00"
"-139.84","67.57","OLD CROW A","2100801","2020-06-29 04:00","2020","06","29","04:00"
"-139.84","67.57","OLD CROW A","2100801","2020-06-29 05:00","2020","06","29","05:00","11.2","","7.9","","80","","","","21","","3","","56.3","","97.68","","","","","","NA"
"-139.84","67.57","OLD CROW A","2100801","2020-06-29 06:00","2020","06","29","06:00","11.4","","8.6","","83","","","","0","","1","","56.3","","97.69","","","","","","NA"
"-139.84","67.57","OLD CROW A","2100801","2020-06-29 07:00","2020","06","29","07:00","14.4","","9.2","","71","","","","24","","19","","56.3","","97.75","","","","","","Mostly Cloudy"
"-139.84","67.57","OLD CROW A","2100801","2020-06-29 08:00","2020","06","29","08:00","14.1","","8.7","","69","","","","25","","22","","56.3","","97.81","","","","","","NA"
"-139.84","67.57","OLD CROW A","2100801","2020-06-29 09:00","2020","06","29","09:00","14.5","","9.2","","70","","","","26","","25","","56.3","","97.85","","","","","","NA"
"-139.84","67.57","OLD CROW A","2100801","2020-06-29 10:00","2020","06","29","10:00","15.1","","9.5","","69","","","","27","","29","","56.3","","97.83","","","","","","Mostly Cloudy"
"-139.84","67.57","OLD CROW A","2100801","2020-06-29 11:00","2020","06","29","11:00","15.4","","9.1","","66","","","","25","","23","","56.3","","97.87","","","","","","NA"
"-139.84","67.57","OLD CROW A","2100801","2020-06-29 12:00","2020","06","29","12:00","15.8","","9.3","","65","","","","24","","24","","56.3","","97.89","","","","","","NA"
"-139.84","67.57","OLD CROW A","2100801","2020-06-29 13:00","2020","06","29","13:00","16.9","","8.5","","57","","","","24","","26","","56.3","","97.91","","","","","","Mostly Cloudy"
"-139.84","67.57","OLD CROW A","2100801","2020-06-29 14:00","2020","06","29","14:00","17.0","","8.2","","56","","","","24","","24","","56.3","","97.93","","","","","","NA"
"-139.84","67.57","OLD CROW A","2100801","2020-06-29 15:00","2020","06","29","15:00","17.9","","8.6","","54","","","","27","","29","","56.3","","97.93","","","","","","NA"
"-139.84","67.57","OLD CROW A","2100801","2020-06-29 16:00","2020","06","29","16:00","17.6","","7.8","","52","","","","25","","23","","56.3","","97.94","","","","","","Mostly Cloudy"
"-139.84","67.57","OLD CROW A","2100801","2020-06-29 17:00","2020","06","29","17:00","17.3","","7.9","","54","","","","25","","19","","56.3","","97.95","","","","","","NA"
"-139.84","67.57","OLD CROW A","2100801","2020-06-29 18:00","2020","06","29","18:00"
"-139.84","67.57","OLD CROW A","2100801","2020-06-29 19:00","2020","06","29","19:00"
"-139.84","67.57","OLD CROW A","2100801","2020-06-29 20:00","2020","06","29","20:00"
"-139.84","67.57","OLD CROW A","2100801","2020-06-29 21:00","2020","06","29","21:00"
"-139.84","67.57","OLD CROW A","2100801","2020-06-29 22:00","2020","06","29","22:00"
"-139.84","67.57","OLD CROW A","2100801","2020-06-29 23:00","2020","06","29","23:00"
"-139.84","67.57","OLD CROW A","2100801","2020-06-30 00:00","2020","06","30","00:00"
"-139.84","67.57","OLD CROW A","2100801","2020-06-30 01:00","2020","06","30","01:00"
"-139.84","67.57","OLD CROW A","2100801","2020-06-30 02:00","2020","06","30","02:00"
"-139.84","67.57","OLD CROW A","2100801","2020-06-30 03:00","2020","06","30","03:00"
"-139.84","67.57","OLD CROW A","2100801","2020-06-30 04:00","2020","06","30","04:00"
"-139.84","67.57","OLD CROW A","2100801","2020-06-30 05:00","2020","06","30","05:00","10.8","","7.4","","79","","","","25","","10","","56.3","","98.43","","","","","","NA"
"-139.84","67.57","OLD CROW A","2100801","2020-06-30 06:00","2020","06","30","06:00","11.9","","7.3","","73","","","","25","","21","","56.3","","98.47","","","","","","NA"
"-139.84","67.57","OLD CROW A","2100801","2020-06-30 07:00","2020","06","30","07:00","11.5","","6.7","","72","","","","24","","27","","56.3","","98.52","","","","","","Mostly Cloudy"
"-139.84","67.57","OLD CROW A","2100801","2020-06-30 08:00","2020","06","30","08:00","12.2","","5.8","","65","","","","25","","24","","56.3","","98.59","","","","","","NA"
"-139.84","67.57","OLD CROW A","2100801","2020-06-30 09:00","2020","06","30","09:00","12.9","","4.8","","57","","","","26","","34","","56.3","","98.61","","","","","","NA"
"-139.84","67.57","OLD CROW A","2100801","2020-06-30 10:00","2020","06","30","10:00","13.8","","4.8","","55","","","","25","","34","","56.3","","98.64","","","","","","Mostly Cloudy"
"-139.84","67.57","OLD CROW A","2100801","2020-06-30 11:00","2020","06","30","11:00","14.4","","3.0","","46","","","","26","","33","","56.3","","98.68","","","","","","NA"
"-139.84","67.57","OLD CROW A","2100801","2020-06-30 12:00","2020","06","30","12:00","15.0","","3.6","","46","","","","25","","26","","56.3","","98.74","","","","","","NA"
"-139.84","67.57","OLD CROW A","2100801","2020-06-30 13:00","2020","06","30","13:00","15.6","","3.8","","45","","","","24","","29","","56.3","","98.77","","","","","","Mostly Cloudy"
"-139.84","67.57","OLD CROW A","2100801","2020-06-30 14:00","2020","06","30","14:00","16.2","","4.1","","44","","","","23","","19","","56.3","","98.81","","","","","","NA"
"-139.84","67.57","OLD CROW A","2100801","2020-06-30 15:00","2020","06","30","15:00"
"-139.84","67.57","OLD CROW A","2100801","2020-06-30 16:00","2020","06","30","16:00"
"-139.84","67.57","OLD CROW A","2100801","2020-06-30 17:00","2020","06","30","17:00"
"-139.84","67.57","OLD CROW A","2100801","2020-06-30 18:00","2020","06","30","18:00"
"-139.84","67.57","OLD CROW A","2100801","2020-06-30 19:00","2020","06","30","19:00"
"-139.84","67.57","OLD CROW A","2100801","2020-06-30 20:00","2020","06","30","20:00"
"-139.84","67.57","OLD CROW A","2100801","2020-06-30 21:00","2020","06","30","21:00"
"-139.84","67.57","OLD CROW A","2100801","2020-06-30 22:00","2020","06","30","22:00"
"-139.84","67.57","OLD CROW A","2100801","2020-06-30 23:00","2020","06","30","23:00"
