"Longitude (x)","Latitude (y)","Station Name","Climate ID","Date/Time (LST)","Year","Month","Day","Time (LST)","Temp (°C)","Temp Flag","Dew Point Temp (°C)","Dew Point Temp Flag","Rel Hum (%)","Rel Hum Flag","Precip. Amount (mm)","Precip. Amount Flag","Wind Dir (10s deg)","Wind Dir Flag","Wind Spd (km/h)","Wind Spd Flag","Visibility (km)","Visibility Flag","Stn Press (kPa)","Stn Press Flag","Hmdx","Hmdx Flag","Wind Chill","Wind Chill Flag","Weather"
"-93.58","69.55","TALOYOAK A","2403855","2021-02-01 00:00","2021","02","01","00:00","-33.6","","-37.2","","71","","","","20","","6","","1.2","","102.58","","","","-41","","Ice Crystals,Fog"
"-93.58","69.55","TALOYOAK A","2403855","2021-02-01 01:00","2021","02","01","01:00","-34.3","","-38.1","","70","","","","17","","5","","1.0","","102.61","","","","-41","","Ice Crystals,Fog"
"-93.58","69.55","TALOYOAK A","2403855","2021-02-01 02:00","2021","02","01","02:00","-34.3","","-37.9","","70","","","","24","","6","","1.2","","102.64","","","","-41","","Ice Crystals,Fog"
"-93.58","69.55","TALOYOAK A","2403855","2021-02-01 03:00","2021","02","01","03:00","-34.3","","-38.0","","70","","","","22","","13","","1.2","","102.65","","","","-46","","Ice Crystals,Fog"
"-93.58","69.55","TALOYOAK A","2403855","2021-02-01 04:00","2021","02","01","04:00","-32.9","","-36.5","","71","","","","22","","10","","0.8","","102.64","","","","-43","","Ice Crystals,Freezing Fog"
"-93.58","69.55","TALOYOAK A","2403855","2021-02-01 05:00","2021","02","01","05:00","-33.7","","-37.4","","70","","","","25","","15","","0.8","","102.64","","","","-46","","Ice Crystals,Freezing Fog"
"-93.58","69.55","TALOYOAK A","2403855","2021-02-01 06:00","2021","02","01","06:00","-33.1","","-36.7","","71","","","","27","","21","","0.8","","102.63","","","","-47","","Ice Crystals,Freezing Fog"
"-93.58","69.55","TALOYOAK A","2403855","2021-02-01 07:00","2021","02","01","07:00","-33.8","","-37.5","","70","","","","25","","13","","1.0","","102.63","","","","-45","","Ice Crystals,Fog"
"-93.58","69.55","TALOYOAK A","2403855","2021-02-01 08:00","2021","02","01","08:00","-34.1","","-37.8","","70","","","","21","","10","","1.2","","102.60","","","","-44","","Ice Crystals,Fog"
"-93.58","69.55","TALOYOAK A","2403855","2021-02-01 09:00","2021","02","01","09:00","-32.7","","-36.3","","71","","","","30","","13","","1.2","","102.60","","","","-44","","Ice Crystals,Freezing Fog"
"-93.58","69.55","TALOYOAK A","2403855","2021-02-01 10:00","2021","02","01","10:00","-34.1","","-37.8","","70","","","","12","","6","","1.2","","102.58","","","","-41","","Ice Crystals,Fog"
"-93.58","69.55","TALOYOAK A","2403855","2021-02-01 11:00","2021","02","01","11:00","-34.5","","-38.3","","70","","","","15","","11","","1.2","","102.56","","","","-45","","Ice Crystals,Fog"
"-93.58","69.55","TALOYOAK A","2403855","2021-02-01 12:00","2021","02","01","12:00","-34.7","","-38.5","","70","","","","14","","11","","1.2","","102.57","","","","-45","","Ice Crystals,Fog"
"-93.58","69.55","TALOYOAK A","2403855","2021-02-01 13:00","2021","02","01","13:00","-35.3","","-39.1","","69","","","","14","","14","","1.2","","102.57","","","","-48","","Ice Crystals,Fog"
"-93.58","69.55","TALOYOAK A","2403855","2021-02-01 14:00","2021","02","01","14:00","-35.4","","-39.2","","69","","","","14","","16","","1.2","","102.58","","","","-48","","Ice Crystals,Fog"
"-93.58","69.55","TALOYOAK A","2403855","2021-02-01 15:00","2021","02","01","15:00","-36.2","","-40.0","","69","","","","13","","14","","1.2","","102.58","","","","-49","","Ice Crystals,Fog"
"-93.58","69.55","TALOYOAK A","2403855","2021-02-01 16:00","2021","02","01","16:00","-36.2","","-40.0","","69","","","","14","","14","","1.6","","102.61","","","","-49","","Ice Crystals,Fog"
"-93.58","69.55","TALOYOAK A","2403855","2021-02-01 17:00","2021","02","01","17:00","-36.2","","-40.1","","69","","","","14","","15","","1.6","","102.58","","","","-49","","Ice Crystals,Fog"
"-93.58","69.55","TALOYOAK A","2403855","2021-02-01 18:00","2021","02","01","18:00","-36.1","","-39.9","","69","","","","14","","15","","2.0","","102.56","","","","-49","","Ice Crystals,Fog"
"-93.58","69.55","TALOYOAK A","2403855","2021-02-01 19:00","2021","02","01","19:00","-36.0","","-39.9","","69","","","","15","","18","","2.0","","102.53","","","","-50","","Ice Crystals,Fog"
"-93.58","69.55","TALOYOAK A","2403855","2021-02-01 20:00","2021","02","01","20:00","-35.6","","-39.4","","69","","","","15","","22","","2.4","","102.48","","","","-51","","Ice Crystals,Fog"
"-93.58","69.55","TALOYOAK A","2403855","2021-02-01 21:00","2021","02","01","21:00","-35.5","","-39.3","","69","","","","18","","8","","2.4","","102.48","","","","-44","","Ice Crystals,Fog"
"-93.58","69.55","TALOYOAK A","2403855","2021-02-01 22:00","2021","02","01","22:00","-33.5","","-37.1","","70","","","","23","","9","","1.2","","102.48","","","","-43","","Ice Crystals,Fog"
"-93.58","69.55","TALOYOAK A","2403855","2021-02-01 23:00","2021","02","01","23:00","-31.6","","-35.1","","72","","","","21","","13","","1.2","","102.47","","","","-43","","Ice Crystals,Fog"
"-93.58","69.55","TALOYOAK A","2403855","2021-02-02 00:00","2021","02","02","00:00","-30.9","","-34.4","","72","","","","23","","9","","1.6","","102.44","","","","-40","","Ice Crystals,Fog"
"-93.58","69.55","TALOYOAK A","2403855","2021-02-02 01:00","2021","02","02","01:00","-31.9","","-35.5","","72","","","","22","","9","","1.6","","102.44","","","","-41","","Ice Crystals,Fog"
"-93.58","69.55","TALOYOAK A","2403855","2021-02-02 02:00","2021","02","02","02:00","-32.5","","-36.1","","71","","","","22","","17","","1.0","","102.45","","","","-45","","Ice Crystals,Fog"
"-93.58","69.55","TALOYOAK A","2403855","2021-02-02 03:00","2021","02","02","03:00","-33.2","","-36.8","","71","","","","20","","13","","1.2","","102.45","","","","-44","","Ice Crystals,Fog"
"-93.58","69.55","TALOYOAK A","2403855","2021-02-02 04:00","2021","02","02","04:00","-34.0","","-37.8","","70","","","","22","","5","","4.8","","102.44","","","","-40","","Ice Crystals,Fog"
"-93.58","69.55","TALOYOAK A","2403855","2021-02-02 05:00","2021","02","02","05:00","-34.4","","-38.1","","70","","","","15","","8","","1.2","","102.42","","","","-43","","Ice Crystals,Fog"
"-93.58","69.55","TALOYOAK A","2403855","2021-02-02 06:00","2021","02","02","06:00","-34.7","","-38.5","","70","","","","14","","8","","4.8","","102.40","","","","-43","","Ice Crystals,Fog"
"-93.58","69.55","TALOYOAK A","2403855","2021-02-02 07:00","2021","02","02","07:00","-34.7","","-38.4","","70","","","","14","","9","","6.4","","102.41","","","","-44","","Ice Crystals,Fog"
"-93.58","69.55","TALOYOAK A","2403855","2021-02-02 08:00","2021","02","02","08:00","-34.5","","-38.3","","70","","","","13","","9","","9.7","","102.40","","","","-44","","Ice Crystals,Fog"
"-93.58","69.55","TALOYOAK A","2403855","2021-02-02 09:00","2021","02","02","09:00","-35.0","","-38.8","","69","","","","14","","8","","11.3","","102.36","","","","-44","","Snow"
"-93.58","69.55","TALOYOAK A","2403855","2021-02-02 10:00","2021","02","02","10:00","-34.6","","-38.4","","70","","","","12","","9","","19.3","","102.37","","","","-44","","Snow"
"-93.58","69.55","TALOYOAK A","2403855","2021-02-02 11:00","2021","02","02","11:00","-34.1","","-37.8","","70","","","","13","","11","","16.1","","102.37","","","","-45","","Snow"
"-93.58","69.55","TALOYOAK A","2403855","2021-02-02 12:00","2021","02","02","12:00","-33.4","","-37.1","","70","","","","16","","7","","12.9","","102.39","","","","-41","","Snow"
"-93.58","69.55","TALOYOAK A","2403855","2021-02-02 13:00","2021","02","02","13:00","-33.7","","-37.4","","70","","","","13","","12","","19.3","","102.40","","","","-45","","Snow"
"-93.58","69.55","TALOYOAK A","2403855","2021-02-02 14:00","2021","02","02","14:00","-33.7","","-37.4","","70","","","","15","","9","","20.9","","102.44","","","","-43","","Snow"
"-93.58","69.55","TALOYOAK A","2403855","2021-02-02 15:00","2021","02","02","15:00","-35.0","","-38.7","","69","","","","13","","8","","20.9","","102.47","","","","-44","","Snow"
"-93.58","69.55","TALOYOAK A","2403855","2021-02-02 16:00","2021","02","02","16:00","-35.3","","-39.1","","69","","","","14","","11","","19.3","","102.47","","","","-46","","Snow"
"-93.58","69.55","TALOYOAK A","2403855","2021-02-02 17:00","2021","02","02","17:00","-35.2","","-39.0","","69","","","","15","","13","","19.3","","102.46","","","","-47","","Snow"
"-93.58","69.55","TALOYOAK A","2403855","2021-02-02 18:00","2021","02","02","18:00","-35.2","","-39.0","","69","","","","16","","12","","19.3","","102.46","","","","-46","","Snow"
"-93.58","69.55","TALOYOAK A","2403855","2021-02-02 19:00","2021","02","02","19:00","-35.5","","-39.3","","69","","","","16","","13","","16.1","","102.45","","","","-47","","Snow"
"-93.58","69.55","TALOYOAK A","2403855","2021-02-02 20:00","2021","02","02","20:00","-35.8","","-39.7","","69","","","","15","","16","","3.2","","102.45","","","","-49","","Snow Showers"
"-93.58","69.55","TALOYOAK A","2403855","2021-02-02 21:00","2021","02","02","21:00","-36.4","","-40.3","","68","","","","16","","16","","3.2","","102.45","","","","-50","","Snow"
"-93.58","69.55","TALOYOAK A","2403855","2021-02-02 22:00","2021","02","02","22:00","-37.2","","-41.2","","68","","","","16","","16","","3.2","","102.47","","","","-51","","Snow"
"-93.58","69.55","TALOYOAK A","2403855","2021-02-02 23:00","2021","02","02","23:00","-36.9","","-40.8","","68","","","","16","","15","","2.4","","102.45","","","","-50","","Snow Showers,Blowing Snow"
"-93.58","69.55","TALOYOAK A","2403855","2021-02-03 00:00","2021","02","03","00:00","-37.2","","-41.1","","68","","","","16","","19","","2.4","","102.48","","","","-52","","Snow Showers,Blowing Snow"
"-93.58","69.55","TALOYOAK A","2403855","2021-02-03 01:00","2021","02","03","01:00","-37.2","","-41.2","","68","","","","16","","15","","1.6","","102.48","","","","-50","","Snow Showers,Fog"
"-93.58","69.55","TALOYOAK A","2403855","2021-02-03 02:00","2021","02","03","02:00","-38.3","","-42.3","","67","","","","17","","20","","8.1","","102.45","","","","-54","","Ice Crystals,Fog"
"-93.58","69.55","TALOYOAK A","2403855","2021-02-03 03:00","2021","02","03","03:00","-38.7","","-42.7","","67","","","","16","","22","","6.4","","102.48","","","","-55","","Ice Crystals,Fog,Blowing Snow"
"-93.58","69.55","TALOYOAK A","2403855","2021-02-03 04:00","2021","02","03","04:00","-38.9","","-42.9","","67","","","","17","","23","","1.6","","102.47","","","","-55","","Snow Showers,Fog,Blowing Snow"
"-93.58","69.55","TALOYOAK A","2403855","2021-02-03 05:00","2021","02","03","05:00","-39.9","","-44.0","","66","","","","16","","21","","1.6","","102.46","","","","-56","","Snow Showers,Blowing Snow"
"-93.58","69.55","TALOYOAK A","2403855","2021-02-03 06:00","2021","02","03","06:00","-39.9","","-44.0","","66","","","","16","","17","","3.2","","102.44","","","","-54","","Snow Showers,Blowing Snow"
"-93.58","69.55","TALOYOAK A","2403855","2021-02-03 07:00","2021","02","03","07:00","-39.5","","-43.6","","66","","","","15","","19","","3.2","","102.40","","","","-55","","Snow,Blowing Snow"
"-93.58","69.55","TALOYOAK A","2403855","2021-02-03 08:00","2021","02","03","08:00","-39.5","","-43.6","","66","","","","16","","18","","6.4","","102.42","","","","-54","","Ice Crystals,Fog"
"-93.58","69.55","TALOYOAK A","2403855","2021-02-03 09:00","2021","02","03","09:00","-40.1","","-44.3","","66","","","","17","","23","","3.6","","102.38","","","","-57","","Ice Crystals,Fog"
"-93.58","69.55","TALOYOAK A","2403855","2021-02-03 10:00","2021","02","03","10:00","-40.3","","-44.4","","66","","","","17","","16","","17.7","","102.39","","","","-55","","Ice Crystals"
"-93.58","69.55","TALOYOAK A","2403855","2021-02-03 11:00","2021","02","03","11:00","-40.0","","-44.2","","66","","","","17","","16","","16.1","","102.39","","","","-54","","Ice Crystals"
"-93.58","69.55","TALOYOAK A","2403855","2021-02-03 12:00","2021","02","03","12:00","-39.8","","-44.0","","66","","","","17","","14","","8.1","","102.38","","","","-53","","Ice Crystals"
"-93.58","69.55","TALOYOAK A","2403855","2021-02-03 13:00","2021","02","03","13:00","-39.3","","-43.4","","66","","","","17","","13","","8.1","","102.36","","","","-52","","Ice Crystals,Fog"
"-93.58","69.55","TALOYOAK A","2403855","2021-02-03 14:00","2021","02","03","14:00","-39.4","","-43.5","","66","","","","18","","14","","12.9","","102.35","","","","-53","","Snow"
"-93.58","69.55","TALOYOAK A","2403855","2021-02-03 15:00","2021","02","03","15:00","-40.4","","-44.6","","65","","","","17","","14","","16.1","","102.34","","","","-54","","Snow"
"-93.58","69.55","TALOYOAK A","2403855","2021-02-03 16:00","2021","02","03","16:00","-40.8","","-45.0","","65","","","","18","","16","","17.7","","102.33","","","","-55","","Ice Crystals"
"-93.58","69.55","TALOYOAK A","2403855","2021-02-03 17:00","2021","02","03","17:00","-41.4","","-45.6","","65","","","","17","","13","","16.1","","102.29","","","","-54","","Ice Crystals"
"-93.58","69.55","TALOYOAK A","2403855","2021-02-03 18:00","2021","02","03","18:00","-41.5","","-45.8","","65","","","","18","","12","","16.1","","102.26","","","","-54","","Snow Grains,Ice Crystals"
"-93.58","69.55","TALOYOAK A","2403855","2021-02-03 19:00","2021","02","03","19:00","-41.1","","-45.3","","65","","","","16","","7","","19.3","","102.23","","","","-50","","Ice Crystals"
"-93.58","69.55","TALOYOAK A","2403855","2021-02-03 20:00","2021","02","03","20:00","-41.2","","-45.4","","65","","","","19","","8","","19.3","","102.21","","","","-51","","Snow Grains,Ice Crystals"
"-93.58","69.55","TALOYOAK A","2403855","2021-02-03 21:00","2021","02","03","21:00","-42.7","","-47.0","","64","","","","36","","2","","9.7","","102.21","","","","-46","","Ice Crystals,Fog"
"-93.58","69.55","TALOYOAK A","2403855","2021-02-03 22:00","2021","02","03","22:00","-42.3","","-46.6","","64","","","","36","","3","","9.7","","102.18","","","","-47","","Ice Crystals"
"-93.58","69.55","TALOYOAK A","2403855","2021-02-03 23:00","2021","02","03","23:00","-42.5","","-46.8","","64","","","","36","","1","","1.6","","102.17","","","","-44","","Ice Crystals,Fog"
"-93.58","69.55","TALOYOAK A","2403855","2021-02-04 00:00","2021","02","04","00:00","-41.8","","-46.0","","65","","","","36","","1","","3.2","","102.16","","","","-43","","Snow,Fog"
"-93.58","69.55","TALOYOAK A","2403855","2021-02-04 01:00","2021","02","04","01:00","-41.4","","-45.6","","65","","","","16","","7","","3.2","","102.16","","","","-51","","Snow,Fog"
"-93.58","69.55","TALOYOAK A","2403855","2021-02-04 02:00","2021","02","04","02:00","-41.6","","-45.8","","65","","","","17","","4","","4.0","","102.12","","","","-47","","Snow,Fog"
"-93.58","69.55","TALOYOAK A","2403855","2021-02-04 03:00","2021","02","04","03:00","-42.5","","-46.8","","64","","","","4","","4","","3.6","","102.09","","","","-48","","Snow,Fog"
"-93.58","69.55","TALOYOAK A","2403855","2021-02-04 04:00","2021","02","04","04:00","-42.6","","-47.0","","64","","","","4","","4","","3.2","","102.08","","","","-48","","Snow,Fog"
"-93.58","69.55","TALOYOAK A","2403855","2021-02-04 05:00","2021","02","04","05:00","-42.5","","-46.8","","64","","","","7","","8","","3.2","","102.08","","","","-53","","Ice Crystals,Fog"
"-93.58","69.55","TALOYOAK A","2403855","2021-02-04 06:00","2021","02","04","06:00","-42.4","","-46.7","","64","","","","5","","8","","4.8","","102.05","","","","-53","","Ice Crystals,Fog"
"-93.58","69.55","TALOYOAK A","2403855","2021-02-04 07:00","2021","02","04","07:00","-42.1","","-46.4","","64","","","","4","","12","","16.1","","102.01","","","","-55","","Ice Crystals"
"-93.58","69.55","TALOYOAK A","2403855","2021-02-04 08:00","2021","02","04","08:00","-42.1","","-46.4","","65","","","","4","","12","","19.3","","102.02","","","","-55","","Ice Crystals"
"-93.58","69.55","TALOYOAK A","2403855","2021-02-04 09:00","2021","02","04","09:00","-41.7","","-45.9","","65","","","","4","","13","","19.3","","102.02","","","","-55","","Ice Crystals"
"-93.58","69.55","TALOYOAK A","2403855","2021-02-04 10:00","2021","02","04","10:00","-43.6","","-48.0","","63","","","","2","","19","","17.7","","102.00","","","","-60","","Ice Crystals"
"-93.58","69.55","TALOYOAK A","2403855","2021-02-04 11:00","2021","02","04","11:00","-44.2","","-48.6","","63","","","","1","","13","","19.3","","101.99","","","","-58","","Ice Crystals"
"-93.58","69.55","TALOYOAK A","2403855","2021-02-04 12:00","2021","02","04","12:00","-43.6","","-48.0","","63","","","","1","","21","","19.3","","101.97","","","","-61","","Ice Crystals"
"-93.58","69.55","TALOYOAK A","2403855","2021-02-04 13:00","2021","02","04","13:00","-42.7","","-47.0","","64","","","","1","","18","","16.1","","101.96","","","","-58","","Snow Grains,Ice Crystals"
"-93.58","69.55","TALOYOAK A","2403855","2021-02-04 14:00","2021","02","04","14:00","-41.6","","-45.8","","65","","","","36","","17","","12.9","","101.97","","","","-57","","Snow Grains,Ice Crystals"
"-93.58","69.55","TALOYOAK A","2403855","2021-02-04 15:00","2021","02","04","15:00","-42.6","","-46.9","","64","","","","2","","17","","14.5","","101.97","","","","-58","","Snow Grains,Ice Crystals"
"-93.58","69.55","TALOYOAK A","2403855","2021-02-04 16:00","2021","02","04","16:00","-42.0","","-46.3","","64","","","","1","","12","","12.9","","101.96","","","","-55","","Snow Grains,Ice Crystals"
"-93.58","69.55","TALOYOAK A","2403855","2021-02-04 17:00","2021","02","04","17:00","-41.0","","-45.2","","65","","","","2","","16","","12.9","","101.95","","","","-55","","Snow Grains,Ice Crystals"
"-93.58","69.55","TALOYOAK A","2403855","2021-02-04 18:00","2021","02","04","18:00","-38.6","","-42.6","","67","","","","5","","24","","12.9","","101.92","","","","-55","","Snow,Ice Crystals"
"-93.58","69.55","TALOYOAK A","2403855","2021-02-04 19:00","2021","02","04","19:00","-38.7","","-42.8","","66","","","","4","","19","","12.9","","101.92","","","","-54","","Snow,Ice Crystals"
"-93.58","69.55","TALOYOAK A","2403855","2021-02-04 20:00","2021","02","04","20:00","-38.9","","-43.0","","66","","","","4","","21","","16.1","","101.90","","","","-55","","Snow,Ice Crystals,Blowing Snow"
"-93.58","69.55","TALOYOAK A","2403855","2021-02-04 21:00","2021","02","04","21:00","-36.3","","-40.2","","68","","","","5","","28","","12.9","","101.88","","","","-53","","Snow Showers,Blowing Snow"
"-93.58","69.55","TALOYOAK A","2403855","2021-02-04 22:00","2021","02","04","22:00","-37.4","","-41.4","","67","","","","4","","25","","6.4","","101.88","","","","-54","","Snow Showers,Blowing Snow"
"-93.58","69.55","TALOYOAK A","2403855","2021-02-04 23:00","2021","02","04","23:00","-37.4","","-41.5","","67","","","","4","","27","","6.4","","101.86","","","","-55","","Snow Showers,Blowing Snow"
"-93.58","69.55","TALOYOAK A","2403855","2021-02-05 00:00","2021","02","05","00:00","-36.0","","-39.9","","68","","","","5","","29","","6.4","","101.88","","","","-53","","Snow Showers,Blowing Snow"
"-93.58","69.55","TALOYOAK A","2403855","2021-02-05 01:00","2021","02","05","01:00","-36.9","","-40.9","","68","","","","5","","31","","8.1","","101.86","","","","-55","","Snow Showers,Blowing Snow"
"-93.58","69.55","TALOYOAK A","2403855","2021-02-05 02:00","2021","02","05","02:00","-38.8","","-42.9","","66","","","","1","","14","","12.9","","101.88","","","","-52","","Snow"
"-93.58","69.55","TALOYOAK A","2403855","2021-02-05 03:00","2021","02","05","03:00","-36.6","","-40.6","","68","","","","3","","20","","16.1","","101.86","","","","-51","","Snow"
"-93.58","69.55","TALOYOAK A","2403855","2021-02-05 04:00","2021","02","05","04:00","-36.9","","-40.9","","67","","","","2","","16","","19.3","","101.88","","","","-50","","Snow"
"-93.58","69.55","TALOYOAK A","2403855","2021-02-05 05:00","2021","02","05","05:00","-37.0","","-41.0","","68","","","","1","","14","","19.3","","101.85","","","","-50","","Snow"
"-93.58","69.55","TALOYOAK A","2403855","2021-02-05 06:00","2021","02","05","06:00","-36.0","","-39.9","","68","","","","3","","23","","16.1","","101.79","","","","-52","","Snow"
"-93.58","69.55","TALOYOAK A","2403855","2021-02-05 07:00","2021","02","05","07:00","-36.6","","-40.5","","68","","","","2","","20","","8.1","","101.78","","","","-51","","Snow,Fog"
"-93.58","69.55","TALOYOAK A","2403855","2021-02-05 08:00","2021","02","05","08:00","-36.8","","-40.8","","68","","","","1","","22","","9.7","","101.74","","","","-52","","Snow,Fog"
"-93.58","69.55","TALOYOAK A","2403855","2021-02-05 09:00","2021","02","05","09:00","-36.8","","-40.8","","68","","","","36","","24","","9.7","","101.70","","","","-53","","Snow,Fog,Blowing Snow"
"-93.58","69.55","TALOYOAK A","2403855","2021-02-05 10:00","2021","02","05","10:00","-36.9","","-40.9","","68","","","","35","","16","","12.9","","101.68","","","","-50","","Snow"
"-93.58","69.55","TALOYOAK A","2403855","2021-02-05 11:00","2021","02","05","11:00","-35.2","","-39.1","","69","","","","36","","20","","12.9","","101.66","","","","-50","","Snow"
"-93.58","69.55","TALOYOAK A","2403855","2021-02-05 12:00","2021","02","05","12:00","-35.3","","-39.2","","69","","","","35","","16","","16.1","","101.63","","","","-48","","Snow"
"-93.58","69.55","TALOYOAK A","2403855","2021-02-05 13:00","2021","02","05","13:00","-33.7","","-37.4","","70","","","","36","","14","","11.3","","101.61","","","","-46","","Snow"
"-93.58","69.55","TALOYOAK A","2403855","2021-02-05 14:00","2021","02","05","14:00","-32.8","","-36.5","","70","","","","36","","19","","4.0","","101.57","","","","-46","","Snow"
"-93.58","69.55","TALOYOAK A","2403855","2021-02-05 15:00","2021","02","05","15:00","-32.1","","-35.7","","71","","","","36","","18","","9.7","","101.55","","","","-45","","Snow"
"-93.58","69.55","TALOYOAK A","2403855","2021-02-05 16:00","2021","02","05","16:00","-31.2","","-34.8","","72","","","","35","","18","","9.7","","101.50","","","","-44","","Snow"
"-93.58","69.55","TALOYOAK A","2403855","2021-02-05 17:00","2021","02","05","17:00","-30.9","","-34.4","","72","","","","35","","22","","9.7","","101.45","","","","-45","","Snow"
"-93.58","69.55","TALOYOAK A","2403855","2021-02-05 18:00","2021","02","05","18:00","-30.3","","-33.8","","72","","","","35","","18","","9.7","","101.45","","","","-43","","Snow"
"-93.58","69.55","TALOYOAK A","2403855","2021-02-05 19:00","2021","02","05","19:00","-29.5","","-32.9","","73","","","","36","","19","","9.7","","101.46","","","","-42","","Snow"
"-93.58","69.55","TALOYOAK A","2403855","2021-02-05 20:00","2021","02","05","20:00","-29.4","","-32.8","","73","","","","33","","12","","9.7","","101.46","","","","-39","","Snow"
"-93.58","69.55","TALOYOAK A","2403855","2021-02-05 21:00","2021","02","05","21:00","-28.6","","-32.0","","74","","","","34","","19","","6.4","","101.43","","","","-41","","Snow Showers"
"-93.58","69.55","TALOYOAK A","2403855","2021-02-05 22:00","2021","02","05","22:00","-28.5","","-31.8","","74","","","","35","","14","","8.1","","101.41","","","","-39","","Snow Showers"
"-93.58","69.55","TALOYOAK A","2403855","2021-02-05 23:00","2021","02","05","23:00","-28.6","","-31.9","","74","","","","33","","13","","9.7","","101.40","","","","-39","","Snow Showers"
"-93.58","69.55","TALOYOAK A","2403855","2021-02-06 00:00","2021","02","06","00:00","-28.6","","-31.9","","74","","","","33","","20","","9.7","","101.41","","","","-41","","Snow Showers"
"-93.58","69.55","TALOYOAK A","2403855","2021-02-06 01:00","2021","02","06","01:00","-28.6","","-31.9","","74","","","","32","","18","","12.9","","101.44","","","","-41","","Snow Showers"
"-93.58","69.55","TALOYOAK A","2403855","2021-02-06 02:00","2021","02","06","02:00","-29.0","","-32.3","","73","","","","33","","14","","12.9","","101.45","","","","-40","","Snow Showers"
"-93.58","69.55","TALOYOAK A","2403855","2021-02-06 03:00","2021","02","06","03:00","-31.4","","-34.9","","72","","","","33","","12","","19.3","","101.46","","","","-42","","Ice Crystals"
"-93.58","69.55","TALOYOAK A","2403855","2021-02-06 04:00","2021","02","06","04:00","-31.3","","-34.7","","72","","","","31","","9","","24.1","","101.51","","","","-40","","Ice Crystals"
"-93.58","69.55","TALOYOAK A","2403855","2021-02-06 05:00","2021","02","06","05:00","-31.3","","-34.8","","72","","","","16","","4","","24.1","","101.55","","","","-36","","Ice Crystals"
"-93.58","69.55","TALOYOAK A","2403855","2021-02-06 06:00","2021","02","06","06:00","-32.3","","-35.9","","71","","","","15","","6","","24.1","","101.57","","","","-39","","Ice Crystals"
"-93.58","69.55","TALOYOAK A","2403855","2021-02-06 07:00","2021","02","06","07:00","-33.5","","-37.2","","70","","","","15","","8","","24.1","","101.58","","","","-42","","Ice Crystals"
"-93.58","69.55","TALOYOAK A","2403855","2021-02-06 08:00","2021","02","06","08:00","-33.9","","-37.6","","70","","","","13","","8","","24.1","","101.67","","","","-43","","Ice Crystals"
"-93.58","69.55","TALOYOAK A","2403855","2021-02-06 09:00","2021","02","06","09:00","-34.4","","-38.1","","70","","","","14","","8","","24.1","","101.70","","","","-43","","Ice Crystals"
"-93.58","69.55","TALOYOAK A","2403855","2021-02-06 10:00","2021","02","06","10:00","-33.8","","-37.5","","70","","","","17","","3","","24.1","","101.76","","","","-37","","Ice Crystals"
"-93.58","69.55","TALOYOAK A","2403855","2021-02-06 11:00","2021","02","06","11:00","-33.9","","-37.6","","70","","","","18","","5","","24.1","","101.77","","","","-40","","Ice Crystals"
"-93.58","69.55","TALOYOAK A","2403855","2021-02-06 12:00","2021","02","06","12:00","-33.6","","-37.3","","70","","","","15","","6","","24.1","","101.83","","","","-41","","Ice Crystals"
"-93.58","69.55","TALOYOAK A","2403855","2021-02-06 13:00","2021","02","06","13:00","-33.0","","-36.6","","71","","","","36","","2","","24.1","","101.87","","","","-35","","Ice Crystals"
"-93.58","69.55","TALOYOAK A","2403855","2021-02-06 14:00","2021","02","06","14:00","-33.0","","-36.6","","71","","","","36","","2","","24.1","","101.93","","","","-35","","Ice Crystals"
"-93.58","69.55","TALOYOAK A","2403855","2021-02-06 15:00","2021","02","06","15:00","-33.4","","-37.1","","70","","","","36","","7","","24.1","","101.93","","","","-41","","Ice Crystals"
"-93.58","69.55","TALOYOAK A","2403855","2021-02-06 16:00","2021","02","06","16:00","-34.0","","-37.7","","70","","","","36","","8","","24.1","","102.01","","","","-43","","Ice Crystals"
"-93.58","69.55","TALOYOAK A","2403855","2021-02-06 17:00","2021","02","06","17:00","-33.9","","-37.6","","70","","","","1","","8","","24.1","","102.05","","","","-43","","Ice Crystals"
"-93.58","69.55","TALOYOAK A","2403855","2021-02-06 18:00","2021","02","06","18:00","-32.0","","-35.6","","71","","","","1","","11","","24.1","","102.03","","","","-42","","Snow"
"-93.58","69.55","TALOYOAK A","2403855","2021-02-06 19:00","2021","02","06","19:00","-30.0","","-33.4","","73","","","","1","","14","","16.1","","102.04","","","","-41","","Snow"
"-93.58","69.55","TALOYOAK A","2403855","2021-02-06 20:00","2021","02","06","20:00","-29.7","","-33.1","","73","","","","1","","17","","6.4","","102.06","","","","-42","","Snow"
"-93.58","69.55","TALOYOAK A","2403855","2021-02-06 21:00","2021","02","06","21:00","-28.7","","-32.0","","74","","","","2","","10","","6.4","","102.06","","","","-38","","Snow"
"-93.58","69.55","TALOYOAK A","2403855","2021-02-06 22:00","2021","02","06","22:00","-27.3","","-30.5","","75","","","","36","","15","","8.1","","102.02","","","","-38","","Snow"
"-93.58","69.55","TALOYOAK A","2403855","2021-02-06 23:00","2021","02","06","23:00","-25.4","","-28.4","","76","","","","36","","15","","6.4","","102.02","","","","-36","","Snow Showers"
"-93.58","69.55","TALOYOAK A","2403855","2021-02-07 00:00","2021","02","07","00:00","-24.3","","-27.3","","77","","","","36","","18","","9.7","","101.99","","","","-35","","Snow Showers"
"-93.58","69.55","TALOYOAK A","2403855","2021-02-07 01:00","2021","02","07","01:00","-23.5","","-26.4","","78","","","","36","","17","","12.9","","101.95","","","","-34","","Snow Showers"
"-93.58","69.55","TALOYOAK A","2403855","2021-02-07 02:00","2021","02","07","02:00","-21.9","","-24.6","","79","","","","1","","23","","16.1","","101.91","","","","-34","","Snow Showers"
"-93.58","69.55","TALOYOAK A","2403855","2021-02-07 03:00","2021","02","07","03:00","-21.1","","-23.8","","80","","","","1","","18","","16.1","","101.91","","","","-31","","Snow"
"-93.58","69.55","TALOYOAK A","2403855","2021-02-07 04:00","2021","02","07","04:00","-20.0","","-22.5","","81","","","","3","","23","","9.7","","101.94","","","","-31","","Snow Showers,Blowing Snow"
"-93.58","69.55","TALOYOAK A","2403855","2021-02-07 05:00","2021","02","07","05:00","-19.9","","-22.4","","81","","","","5","","28","","9.7","","101.94","","","","-32","","Snow Showers"
"-93.58","69.55","TALOYOAK A","2403855","2021-02-07 06:00","2021","02","07","06:00","-19.6","","-22.1","","81","","","","4","","23","","6.4","","101.87","","","","-31","","Snow Showers,Blowing Snow"
"-93.58","69.55","TALOYOAK A","2403855","2021-02-07 07:00","2021","02","07","07:00"
"-93.58","69.55","TALOYOAK A","2403855","2021-02-07 08:00","2021","02","07","08:00","-18.5","","-20.8","","82","","","","5","","28","","2.4","","101.98","","","","-30","","Snow,Fog,Blowing Snow"
"-93.58","69.55","TALOYOAK A","2403855","2021-02-07 09:00","2021","02","07","09:00","-17.9","","-20.2","","83","","","","5","","39","","1.0","","101.97","","","","-31","","Snow,Fog,Blowing Snow"
"-93.58","69.55","TALOYOAK A","2403855","2021-02-07 10:00","2021","02","07","10:00","-17.3","","-19.5","","83","","","","5","","28","","1.0","","102.02","","","","-29","","Snow,Fog,Blowing Snow"
"-93.58","69.55","TALOYOAK A","2403855","2021-02-07 11:00","2021","02","07","11:00","-16.5","","-18.6","","84","","","","4","","25","","1.0","","102.08","","","","-27","","Snow,Fog"
"-93.58","69.55","TALOYOAK A","2403855","2021-02-07 12:00","2021","02","07","12:00","-16.2","","-18.3","","84","","","","3","","25","","1.2","","102.09","","","","-27","","Snow,Fog"
"-93.58","69.55","TALOYOAK A","2403855","2021-02-07 13:00","2021","02","07","13:00","-16.3","","-18.4","","84","","","","5","","24","","2.4","","102.12","","","","-27","","Snow,Fog,Blowing Snow"
"-93.58","69.55","TALOYOAK A","2403855","2021-02-07 14:00","2021","02","07","14:00","-16.2","","-18.3","","84","","","","6","","36","","1.2","","102.12","","","","-29","","Snow,Fog,Blowing Snow"
"-93.58","69.55","TALOYOAK A","2403855","2021-02-07 15:00","2021","02","07","15:00","-16.0","","-18.1","","85","","","","5","","32","","3.2","","102.20","","","","-28","","Blowing Snow"
"-93.58","69.55","TALOYOAK A","2403855","2021-02-07 16:00","2021","02","07","16:00","-15.2","","-17.2","","85","","","","6","","34","","1.0","","102.20","","","","-27","","Blowing Snow"
"-93.58","69.55","TALOYOAK A","2403855","2021-02-07 17:00","2021","02","07","17:00","-14.7","","-16.6","","86","","","","4","","23","","12.9","","102.27","","","","-24","","Ice Crystals,Blowing Snow"
"-93.58","69.55","TALOYOAK A","2403855","2021-02-07 18:00","2021","02","07","18:00","-14.4","","-16.3","","86","","","","4","","18","","1.0","","102.26","","","","-23","","Snow Showers,Fog"
"-93.58","69.55","TALOYOAK A","2403855","2021-02-07 19:00","2021","02","07","19:00","-13.7","","-15.5","","87","","","","5","","35","","1.2","","102.28","","","","-25","","Snow,Fog,Blowing Snow"
"-93.58","69.55","TALOYOAK A","2403855","2021-02-07 20:00","2021","02","07","20:00","-13.2","","-14.9","","87","","","","5","","34","","1.6","","102.24","","","","-24","","Snow,Fog,Blowing Snow"
"-93.58","69.55","TALOYOAK A","2403855","2021-02-07 21:00","2021","02","07","21:00","-12.7","","-14.3","","88","","","","5","","30","","6.4","","102.24","","","","-23","","Fog,Blowing Snow"
"-93.58","69.55","TALOYOAK A","2403855","2021-02-07 22:00","2021","02","07","22:00","-12.4","","-14.0","","88","","","","3","","31","","16.1","","102.19","","","","-23","","Snow,Blowing Snow"
"-93.58","69.55","TALOYOAK A","2403855","2021-02-07 23:00","2021","02","07","23:00","-12.4","","-14.0","","88","","","","4","","32","","24.1","","102.20","","","","-23","","Snow"
"-93.58","69.55","TALOYOAK A","2403855","2021-02-08 00:00","2021","02","08","00:00","-12.5","","-14.1","","88","","","","4","","32","","16.1","","102.21","","","","-23","","Snow"
"-93.58","69.55","TALOYOAK A","2403855","2021-02-08 01:00","2021","02","08","01:00","-12.8","","-14.5","","87","","","","4","","35","","11.3","","102.14","","","","-24","","Snow,Blowing Snow"
"-93.58","69.55","TALOYOAK A","2403855","2021-02-08 02:00","2021","02","08","02:00","-13.2","","-14.8","","87","","","","4","","40","","12.9","","102.11","","","","-25","","Snow,Blowing Snow"
"-93.58","69.55","TALOYOAK A","2403855","2021-02-08 03:00","2021","02","08","03:00","-13.1","","-14.8","","87","","","","5","","36","","8.1","","102.16","","","","-24","","Snow,Blowing Snow"
"-93.58","69.55","TALOYOAK A","2403855","2021-02-08 04:00","2021","02","08","04:00","-13.4","","-15.2","","87","","","","5","","28","","9.7","","102.17","","","","-24","","Snow,Blowing Snow"
"-93.58","69.55","TALOYOAK A","2403855","2021-02-08 05:00","2021","02","08","05:00","-13.5","","-15.3","","87","","","","6","","41","","6.4","","102.20","","","","-26","","Snow,Blowing Snow"
"-93.58","69.55","TALOYOAK A","2403855","2021-02-08 06:00","2021","02","08","06:00","-14.1","","-15.9","","86","","","","6","","38","","6.4","","102.23","","","","-26","","Snow,Blowing Snow"
"-93.58","69.55","TALOYOAK A","2403855","2021-02-08 07:00","2021","02","08","07:00","-13.7","","-15.4","","87","","","","7","","43","","8.1","","102.27","","","","-26","","Snow,Blowing Snow"
"-93.58","69.55","TALOYOAK A","2403855","2021-02-08 08:00","2021","02","08","08:00","-14.4","","-16.3","","86","","","","6","","43","","16.1","","102.30","","","","-27","","Snow,Blowing Snow"
"-93.58","69.55","TALOYOAK A","2403855","2021-02-08 09:00","2021","02","08","09:00","-14.3","","-16.1","","86","","","","7","","41","","12.9","","102.30","","","","-27","","Snow,Blowing Snow"
"-93.58","69.55","TALOYOAK A","2403855","2021-02-08 10:00","2021","02","08","10:00","-13.7","","-15.5","","87","","","","7","","40","","12.9","","102.38","","","","-26","","Snow,Blowing Snow"
"-93.58","69.55","TALOYOAK A","2403855","2021-02-08 11:00","2021","02","08","11:00","-13.4","","-15.2","","87","","","","7","","43","","11.3","","102.40","","","","-26","","Snow,Blowing Snow"
"-93.58","69.55","TALOYOAK A","2403855","2021-02-08 12:00","2021","02","08","12:00","-13.7","","-15.5","","87","","","","5","","34","","24.1","","102.45","","","","-25","","Blowing Snow"
"-93.58","69.55","TALOYOAK A","2403855","2021-02-08 13:00","2021","02","08","13:00","-14.0","","-15.8","","86","","","","6","","31","","24.1","","102.49","","","","-25","","Blowing Snow"
"-93.58","69.55","TALOYOAK A","2403855","2021-02-08 14:00","2021","02","08","14:00","-13.4","","-15.1","","87","","","","5","","31","","24.1","","102.51","","","","-24","","Blowing Snow"
"-93.58","69.55","TALOYOAK A","2403855","2021-02-08 15:00","2021","02","08","15:00","-12.7","","-14.3","","88","","","","6","","45","","12.9","","102.48","","","","-25","","Blowing Snow"
"-93.58","69.55","TALOYOAK A","2403855","2021-02-08 16:00","2021","02","08","16:00","-13.5","","-15.2","","87","","","","5","","36","","24.1","","102.52","","","","-25","","Blowing Snow"
"-93.58","69.55","TALOYOAK A","2403855","2021-02-08 17:00","2021","02","08","17:00","-14.7","","-16.6","","86","","","","5","","35","","24.1","","102.53","","","","-26","","Blowing Snow"
"-93.58","69.55","TALOYOAK A","2403855","2021-02-08 18:00","2021","02","08","18:00","-15.6","","-17.5","","85","","","","5","","39","","24.1","","102.52","","","","-28","","Ice Crystals,Blowing Snow"
"-93.58","69.55","TALOYOAK A","2403855","2021-02-08 19:00","2021","02","08","19:00","-16.1","","-18.1","","85","","","","4","","36","","24.1","","102.52","","","","-28","","Ice Crystals,Blowing Snow"
"-93.58","69.55","TALOYOAK A","2403855","2021-02-08 20:00","2021","02","08","20:00","-14.9","","-16.8","","86","","","","4","","30","","4.0","","102.61","","","","-26","","Ice Crystals,Blowing Snow"
"-93.58","69.55","TALOYOAK A","2403855","2021-02-08 21:00","2021","02","08","21:00","-17.5","","-19.7","","83","","","","35","","10","","24.1","","102.63","","","","-24","","Ice Crystals"
"-93.58","69.55","TALOYOAK A","2403855","2021-02-08 22:00","2021","02","08","22:00","-16.4","","-18.3","","85","","","","3","","19","","24.1","","102.59","","","","-26","","Ice Crystals"
"-93.58","69.55","TALOYOAK A","2403855","2021-02-08 23:00","2021","02","08","23:00","-17.5","","-19.7","","83","","","","2","","14","","24.1","","102.65","","","","-26","","Ice Crystals"
"-93.58","69.55","TALOYOAK A","2403855","2021-02-09 00:00","2021","02","09","00:00","-15.9","","-18.1","","84","","","","5","","36","","24.1","","102.55","","","","-28","","Ice Crystals,Blowing Snow"
"-93.58","69.55","TALOYOAK A","2403855","2021-02-09 01:00","2021","02","09","01:00","-16.1","","-18.3","","83","","","","6","","39","","16.1","","102.63","","","","-29","","Ice Crystals,Blowing Snow"
"-93.58","69.55","TALOYOAK A","2403855","2021-02-09 02:00","2021","02","09","02:00","-16.9","","-19.2","","82","","","","6","","32","","19.3","","102.65","","","","-29","","Snow,Blowing Snow"
"-93.58","69.55","TALOYOAK A","2403855","2021-02-09 03:00","2021","02","09","03:00","-17.2","","-19.7","","81","","","","5","","32","","24.1","","102.71","","","","-29","","Ice Crystals,Blowing Snow"
"-93.58","69.55","TALOYOAK A","2403855","2021-02-09 04:00","2021","02","09","04:00","-16.9","","-19.5","","80","","","","5","","30","","24.1","","102.76","","","","-29","","Ice Crystals,Blowing Snow"
"-93.58","69.55","TALOYOAK A","2403855","2021-02-09 05:00","2021","02","09","05:00","-19.1","","-22.0","","78","","","","2","","25","","24.1","","102.78","","","","-30","","Ice Crystals"
"-93.58","69.55","TALOYOAK A","2403855","2021-02-09 06:00","2021","02","09","06:00","-18.7","","-21.4","","80","","","","2","","23","","24.1","","102.79","","","","-30","","Ice Crystals"
"-93.58","69.55","TALOYOAK A","2403855","2021-02-09 07:00","2021","02","09","07:00","-19.4","","-22.2","","78","","","","35","","17","","24.1","","102.78","","","","-29","","Ice Crystals"
"-93.58","69.55","TALOYOAK A","2403855","2021-02-09 08:00","2021","02","09","08:00","-21.1","","-23.9","","79","","","","1","","15","","24.1","","102.85","","","","-30","","Ice Crystals"
"-93.58","69.55","TALOYOAK A","2403855","2021-02-09 09:00","2021","02","09","09:00","-19.9","","-22.9","","78","","","","3","","18","","24.1","","102.89","","","","-30","","Ice Crystals"
"-93.58","69.55","TALOYOAK A","2403855","2021-02-09 10:00","2021","02","09","10:00","-20.5","","-23.6","","76","","","","1","","14","","24.1","","102.95","","","","-29","","Ice Crystals"
"-93.58","69.55","TALOYOAK A","2403855","2021-02-09 11:00","2021","02","09","11:00","-18.9","","-22.1","","76","","","","3","","9","","24.1","","102.97","","","","-25","","Ice Crystals"
"-93.58","69.55","TALOYOAK A","2403855","2021-02-09 12:00","2021","02","09","12:00","-17.8","","-21.7","","72","","","","6","","16","","24.1","","103.03","","","","-27","","Ice Crystals"
"-93.58","69.55","TALOYOAK A","2403855","2021-02-09 13:00","2021","02","09","13:00","-20.7","","-23.6","","78","","","","1","","12","","24.1","","103.05","","","","-29","","Ice Crystals"
"-93.58","69.55","TALOYOAK A","2403855","2021-02-09 14:00","2021","02","09","14:00","-21.5","","-24.3","","79","","","","1","","7","","24.1","","103.07","","","","-27","","Ice Crystals"
"-93.58","69.55","TALOYOAK A","2403855","2021-02-09 15:00","2021","02","09","15:00","-22.8","","-25.4","","80","","","","1","","12","","24.1","","103.11","","","","-31","","Ice Crystals"
"-93.58","69.55","TALOYOAK A","2403855","2021-02-09 16:00","2021","02","09","16:00","-21.7","","-24.3","","80","","","","1","","11","","24.1","","103.15","","","","-30","","Ice Crystals"
"-93.58","69.55","TALOYOAK A","2403855","2021-02-09 17:00","2021","02","09","17:00","-19.3","","-22.0","","80","","","","36","","7","","24.1","","103.19","","","","-25","","Ice Crystals"
"-93.58","69.55","TALOYOAK A","2403855","2021-02-09 18:00","2021","02","09","18:00","-22.4","","-24.9","","80","","","","1","","12","","24.1","","103.23","","","","-31","","Ice Crystals"
"-93.58","69.55","TALOYOAK A","2403855","2021-02-09 19:00","2021","02","09","19:00","-22.8","","-25.3","","80","","","","1","","17","","24.1","","103.25","","","","-33","","NA"
"-93.58","69.55","TALOYOAK A","2403855","2021-02-09 20:00","2021","02","09","20:00","-23.4","","-25.9","","80","","","","1","","15","","24.1","","103.31","","","","-33","","Ice Crystals"
"-93.58","69.55","TALOYOAK A","2403855","2021-02-09 21:00","2021","02","09","21:00","-22.2","","-24.6","","81","","","","2","","14","","24.1","","103.33","","","","-31","","NA"
"-93.58","69.55","TALOYOAK A","2403855","2021-02-09 22:00","2021","02","09","22:00","-23.1","","-25.6","","81","","","","1","","12","","24.1","","103.36","","","","-32","","Ice Crystals"
"-93.58","69.55","TALOYOAK A","2403855","2021-02-09 23:00","2021","02","09","23:00","-22.3","","-24.6","","82","","","","3","","18","","24.1","","103.36","","","","-33","","Ice Crystals"
"-93.58","69.55","TALOYOAK A","2403855","2021-02-10 00:00","2021","02","10","00:00","-21.5","","-23.7","","82","","","","5","","9","","24.1","","103.41","","","","-29","","Ice Crystals"
"-93.58","69.55","TALOYOAK A","2403855","2021-02-10 01:00","2021","02","10","01:00","-23.8","","-26.3","","80","","","","1","","10","","24.1","","103.43","","","","-32","","Ice Crystals"
"-93.58","69.55","TALOYOAK A","2403855","2021-02-10 02:00","2021","02","10","02:00","-24.5","","-27.0","","80","","","","1","","15","","24.1","","103.46","","","","-35","","Ice Crystals"
"-93.58","69.55","TALOYOAK A","2403855","2021-02-10 03:00","2021","02","10","03:00","-22.4","","-24.7","","82","","","","3","","3","","24.1","","103.46","","","","-25","","Ice Crystals"
"-93.58","69.55","TALOYOAK A","2403855","2021-02-10 04:00","2021","02","10","04:00","-21.7","","-24.1","","81","","","","4","","8","","24.1","","103.47","","","","-28","","Ice Crystals"
"-93.58","69.55","TALOYOAK A","2403855","2021-02-10 05:00","2021","02","10","05:00","-24.0","","-26.5","","80","","","","2","","13","","24.1","","103.48","","","","-33","","Ice Crystals"
"-93.58","69.55","TALOYOAK A","2403855","2021-02-10 06:00","2021","02","10","06:00","-22.9","","-25.3","","82","","","","36","","2","","24.1","","103.47","","","","-25","","Ice Crystals"
"-93.58","69.55","TALOYOAK A","2403855","2021-02-10 07:00","2021","02","10","07:00","-24.1","","-26.6","","80","","","","16","","3","","24.1","","103.45","","","","-27","","NA"
"-93.58","69.55","TALOYOAK A","2403855","2021-02-10 08:00","2021","02","10","08:00","-23.3","","-25.8","","81","","","","15","","4","","24.1","","103.42","","","","-27","","Clear"
"-93.58","69.55","TALOYOAK A","2403855","2021-02-10 09:00","2021","02","10","09:00","-27.0","","-29.8","","77","","","","36","","3","","24.1","","103.41","","","","-30","","NA"
"-93.58","69.55","TALOYOAK A","2403855","2021-02-10 10:00","2021","02","10","10:00","-25.2","","-27.9","","79","","","","15","","7","","1.2","","103.40","","","","-32","","Ice Crystals,Fog"
"-93.58","69.55","TALOYOAK A","2403855","2021-02-10 11:00","2021","02","10","11:00","-26.1","","-29.0","","77","","","","19","","4","","1.0","","103.37","","","","-30","","Ice Crystals,Fog"
"-93.58","69.55","TALOYOAK A","2403855","2021-02-10 12:00","2021","02","10","12:00","-26.6","","-29.6","","76","","","","1","","4","","1.0","","103.38","","","","-31","","Ice Crystals,Fog"
"-93.58","69.55","TALOYOAK A","2403855","2021-02-10 13:00","2021","02","10","13:00","-26.3","","-29.3","","76","","","","36","","3","","3.2","","103.37","","","","-29","","Ice Crystals,Fog"
"-93.58","69.55","TALOYOAK A","2403855","2021-02-10 14:00","2021","02","10","14:00","-26.4","","-29.4","","76","","","","36","","1","","1.6","","103.38","","","","-27","","Ice Crystals,Fog"
"-93.58","69.55","TALOYOAK A","2403855","2021-02-10 15:00","2021","02","10","15:00","-27.5","","-30.6","","75","","","","2","","8","","1.0","","103.39","","","","-35","","Ice Crystals,Fog"
"-93.58","69.55","TALOYOAK A","2403855","2021-02-10 16:00","2021","02","10","16:00","-27.7","","-30.8","","75","","","","1","","7","","1.6","","103.38","","","","-35","","Ice Crystals,Fog"
"-93.58","69.55","TALOYOAK A","2403855","2021-02-10 17:00","2021","02","10","17:00","-27.5","","-30.6","","76","","","","2","","6","","4.8","","103.34","","","","-34","","Ice Crystals,Fog"
"-93.58","69.55","TALOYOAK A","2403855","2021-02-10 18:00","2021","02","10","18:00","-28.5","","-31.7","","75","","","","35","","3","","6.4","","103.32","","","","-32","","Ice Crystals,Fog"
"-93.58","69.55","TALOYOAK A","2403855","2021-02-10 19:00","2021","02","10","19:00","-28.1","","-31.2","","75","","","","34","","4","","6.4","","103.30","","","","-32","","Ice Crystals,Fog"
"-93.58","69.55","TALOYOAK A","2403855","2021-02-10 20:00","2021","02","10","20:00","-27.8","","-30.8","","76","","","","36","","1","","2.4","","103.28","","","","-29","","Ice Crystals,Fog"
"-93.58","69.55","TALOYOAK A","2403855","2021-02-10 21:00","2021","02","10","21:00","-27.9","","-31.0","","75","","","","36","","1","","1.2","","103.28","","","","-29","","Ice Crystals,Fog"
"-93.58","69.55","TALOYOAK A","2403855","2021-02-10 22:00","2021","02","10","22:00","-28.2","","-31.4","","75","","","","36","","3","","1.2","","103.23","","","","-31","","Ice Crystals,Fog"
"-93.58","69.55","TALOYOAK A","2403855","2021-02-10 23:00","2021","02","10","23:00","-28.5","","-31.6","","75","","","","36","","1","","1.2","","103.21","","","","-30","","Ice Crystals,Fog"
"-93.58","69.55","TALOYOAK A","2403855","2021-02-11 00:00","2021","02","11","00:00","-29.1","","-32.4","","74","","","","15","","8","","1.6","","103.20","","","","-37","","Ice Crystals,Fog"
"-93.58","69.55","TALOYOAK A","2403855","2021-02-11 01:00","2021","02","11","01:00","-28.8","","-32.1","","74","","","","17","","8","","2.4","","103.17","","","","-37","","Ice Crystals,Fog"
"-93.58","69.55","TALOYOAK A","2403855","2021-02-11 02:00","2021","02","11","02:00","-29.0","","-32.2","","74","","","","22","","5","","2.0","","103.14","","","","-34","","Ice Crystals,Fog"
"-93.58","69.55","TALOYOAK A","2403855","2021-02-11 03:00","2021","02","11","03:00","-29.3","","-32.6","","74","","","","18","","5","","11.3","","103.12","","","","-35","","Ice Crystals"
"-93.58","69.55","TALOYOAK A","2403855","2021-02-11 04:00","2021","02","11","04:00","-29.3","","-32.5","","74","","","","14","","7","","11.3","","103.10","","","","-36","","Ice Crystals"
"-93.58","69.55","TALOYOAK A","2403855","2021-02-11 05:00","2021","02","11","05:00","-29.2","","-32.4","","74","","","","19","","9","","12.9","","103.08","","","","-38","","Ice Crystals"
"-93.58","69.55","TALOYOAK A","2403855","2021-02-11 06:00","2021","02","11","06:00","-29.8","","-33.1","","74","","","","18","","12","","19.3","","103.04","","","","-40","","Ice Crystals"
"-93.58","69.55","TALOYOAK A","2403855","2021-02-11 07:00","2021","02","11","07:00","-30.1","","-33.4","","73","","","","17","","8","","24.1","","103.01","","","","-38","","Ice Crystals"
"-93.58","69.55","TALOYOAK A","2403855","2021-02-11 08:00","2021","02","11","08:00","-30.4","","-33.8","","73","","","","17","","8","","24.1","","102.96","","","","-38","","Ice Crystals"
"-93.58","69.55","TALOYOAK A","2403855","2021-02-11 09:00","2021","02","11","09:00","-30.5","","-33.9","","73","","","","18","","9","","24.1","","102.91","","","","-39","","Ice Crystals"
"-93.58","69.55","TALOYOAK A","2403855","2021-02-11 10:00","2021","02","11","10:00","-30.0","","-33.3","","73","","","","17","","13","","24.1","","102.85","","","","-41","","Ice Crystals"
"-93.58","69.55","TALOYOAK A","2403855","2021-02-11 11:00","2021","02","11","11:00","-29.6","","-32.9","","74","","","","17","","16","","24.1","","102.81","","","","-41","","Ice Crystals"
"-93.58","69.55","TALOYOAK A","2403855","2021-02-11 12:00","2021","02","11","12:00","-29.6","","-32.9","","74","","","","18","","18","","24.1","","102.74","","","","-42","","Ice Crystals"
"-93.58","69.55","TALOYOAK A","2403855","2021-02-11 13:00","2021","02","11","13:00","-29.5","","-32.8","","74","","","","16","","19","","24.1","","102.72","","","","-42","","Ice Crystals"
"-93.58","69.55","TALOYOAK A","2403855","2021-02-11 14:00","2021","02","11","14:00","-29.9","","-33.2","","73","","","","16","","21","","24.1","","102.66","","","","-43","","Ice Crystals"
"-93.58","69.55","TALOYOAK A","2403855","2021-02-11 15:00","2021","02","11","15:00","-30.1","","-33.5","","73","","","","16","","22","","24.1","","102.60","","","","-44","","Ice Crystals"
"-93.58","69.55","TALOYOAK A","2403855","2021-02-11 16:00","2021","02","11","16:00","-30.2","","-33.6","","73","","","","16","","20","","24.1","","102.53","","","","-43","","Ice Crystals"
"-93.58","69.55","TALOYOAK A","2403855","2021-02-11 17:00","2021","02","11","17:00","-30.3","","-33.6","","73","","","","15","","19","","24.1","","102.49","","","","-43","","Ice Crystals"
"-93.58","69.55","TALOYOAK A","2403855","2021-02-11 18:00","2021","02","11","18:00","-30.8","","-34.2","","73","","","","16","","16","","24.1","","102.43","","","","-43","","Ice Crystals"
"-93.58","69.55","TALOYOAK A","2403855","2021-02-11 19:00","2021","02","11","19:00","-30.9","","-34.2","","73","","","","16","","15","","24.1","","102.42","","","","-43","","Ice Crystals"
"-93.58","69.55","TALOYOAK A","2403855","2021-02-11 20:00","2021","02","11","20:00","-31.6","","-35.1","","72","","","","18","","10","","24.1","","102.41","","","","-41","","Ice Crystals"
"-93.58","69.55","TALOYOAK A","2403855","2021-02-11 21:00","2021","02","11","21:00","-31.8","","-35.3","","72","","","","16","","13","","24.1","","102.40","","","","-43","","Ice Crystals"
"-93.58","69.55","TALOYOAK A","2403855","2021-02-11 22:00","2021","02","11","22:00","-32.0","","-35.5","","72","","","","17","","10","","24.1","","102.39","","","","-42","","Ice Crystals"
"-93.58","69.55","TALOYOAK A","2403855","2021-02-11 23:00","2021","02","11","23:00","-32.4","","-35.9","","72","","","","10","","7","","4.8","","102.49","","","","-40","","Ice Crystals,Fog"
"-93.58","69.55","TALOYOAK A","2403855","2021-02-12 00:00","2021","02","12","00:00","-33.9","","-37.6","","71","","","","27","","10","","24.1","","102.44","","","","-44","","Ice Crystals"
"-93.58","69.55","TALOYOAK A","2403855","2021-02-12 01:00","2021","02","12","01:00","-33.3","","-36.9","","71","","","","13","","9","","24.1","","102.50","","","","-43","","Ice Crystals"
"-93.58","69.55","TALOYOAK A","2403855","2021-02-12 02:00","2021","02","12","02:00","-33.0","","-36.5","","71","","","","36","","2","","24.1","","102.53","","","","-35","","Ice Crystals"
"-93.58","69.55","TALOYOAK A","2403855","2021-02-12 03:00","2021","02","12","03:00","-33.6","","-37.2","","71","","","","22","","10","","24.1","","102.52","","","","-43","","Ice Crystals"
"-93.58","69.55","TALOYOAK A","2403855","2021-02-12 04:00","2021","02","12","04:00","-34.0","","-37.7","","70","","","","16","","9","","24.1","","102.58","","","","-43","","Ice Crystals"
"-93.58","69.55","TALOYOAK A","2403855","2021-02-12 05:00","2021","02","12","05:00","-33.6","","-37.2","","71","","","","18","","9","","24.1","","102.60","","","","-43","","Ice Crystals"
"-93.58","69.55","TALOYOAK A","2403855","2021-02-12 06:00","2021","02","12","06:00","-33.3","","-36.9","","71","","","","18","","16","","24.1","","102.62","","","","-46","","Ice Crystals"
"-93.58","69.55","TALOYOAK A","2403855","2021-02-12 07:00","2021","02","12","07:00","-33.4","","-37.0","","71","","","","19","","16","","24.1","","102.66","","","","-46","","Ice Crystals"
"-93.58","69.55","TALOYOAK A","2403855","2021-02-12 08:00","2021","02","12","08:00","-33.0","","-36.6","","71","","","","17","","17","","24.1","","102.65","","","","-46","","Ice Crystals"
"-93.58","69.55","TALOYOAK A","2403855","2021-02-12 09:00","2021","02","12","09:00","-33.0","","-36.6","","71","","","","17","","22","","24.1","","102.68","","","","-47","","Ice Crystals"
"-93.58","69.55","TALOYOAK A","2403855","2021-02-12 10:00","2021","02","12","10:00","-32.9","","-36.5","","71","","","","17","","22","","24.1","","102.65","","","","-47","","Ice Crystals"
"-93.58","69.55","TALOYOAK A","2403855","2021-02-12 11:00","2021","02","12","11:00","-32.8","","-36.4","","71","","","","16","","27","","24.1","","102.61","","","","-49","","Ice Crystals,Blowing Snow"
"-93.58","69.55","TALOYOAK A","2403855","2021-02-12 12:00","2021","02","12","12:00","-32.5","","-36.1","","71","","","","16","","24","","24.1","","102.63","","","","-47","","Ice Crystals,Blowing Snow"
"-93.58","69.55","TALOYOAK A","2403855","2021-02-12 13:00","2021","02","12","13:00","-31.8","","-35.4","","72","","","","17","","26","","24.1","","102.60","","","","-47","","Ice Crystals"
"-93.58","69.55","TALOYOAK A","2403855","2021-02-12 14:00","2021","02","12","14:00","-31.0","","-34.5","","72","","","","15","","23","","24.1","","102.52","","","","-45","","Ice Crystals"
"-93.58","69.55","TALOYOAK A","2403855","2021-02-12 15:00","2021","02","12","15:00","-30.1","","-33.5","","73","","","","15","","17","","16.1","","102.45","","","","-42","","Ice Crystals"
"-93.58","69.55","TALOYOAK A","2403855","2021-02-12 16:00","2021","02","12","16:00","-29.6","","-32.9","","73","","","","15","","17","","16.1","","102.46","","","","-42","","Ice Crystals"
"-93.58","69.55","TALOYOAK A","2403855","2021-02-12 17:00","2021","02","12","17:00","-29.6","","-32.9","","73","","","","15","","21","","24.1","","102.42","","","","-43","","Ice Crystals"
"-93.58","69.55","TALOYOAK A","2403855","2021-02-12 18:00","2021","02","12","18:00","-29.1","","-32.4","","74","","","","15","","17","","19.3","","102.40","","","","-41","","Ice Crystals,Blowing Snow"
"-93.58","69.55","TALOYOAK A","2403855","2021-02-12 19:00","2021","02","12","19:00","-29.3","","-32.6","","74","","","","14","","20","","24.1","","102.33","","","","-42","","Ice Crystals,Blowing Snow"
"-93.58","69.55","TALOYOAK A","2403855","2021-02-12 20:00","2021","02","12","20:00","-27.9","","-31.2","","75","","","","15","","19","","24.1","","102.23","","","","-40","","Ice Crystals,Blowing Snow"
"-93.58","69.55","TALOYOAK A","2403855","2021-02-12 21:00","2021","02","12","21:00","-27.6","","-30.8","","75","","","","15","","15","","24.1","","102.18","","","","-38","","Ice Crystals,Blowing Snow"
"-93.58","69.55","TALOYOAK A","2403855","2021-02-12 22:00","2021","02","12","22:00","-25.4","","-28.4","","77","","","","20","","10","","24.1","","102.11","","","","-34","","Ice Crystals"
"-93.58","69.55","TALOYOAK A","2403855","2021-02-12 23:00","2021","02","12","23:00","-18.9","","-21.2","","82","","","","30","","8","","24.1","","102.06","","","","-25","","Ice Crystals"
"-93.58","69.55","TALOYOAK A","2403855","2021-02-13 00:00","2021","02","13","00:00","-20.4","","-23.0","","80","","","","30","","28","","24.1","","102.01","","","","-33","","Ice Crystals,Blowing Snow"
"-93.58","69.55","TALOYOAK A","2403855","2021-02-13 01:00","2021","02","13","01:00","-20.5","","-23.0","","81","","","","31","","35","","4.8","","101.94","","","","-34","","Snow,Blowing Snow"
"-93.58","69.55","TALOYOAK A","2403855","2021-02-13 02:00","2021","02","13","02:00","-19.6","","-22.1","","81","","","","31","","35","","6.4","","101.97","","","","-33","","Snow,Blowing Snow"
"-93.58","69.55","TALOYOAK A","2403855","2021-02-13 03:00","2021","02","13","03:00","-18.9","","-21.3","","82","","","","31","","30","","8.1","","101.95","","","","-31","","Snow,Blowing Snow"
"-93.58","69.55","TALOYOAK A","2403855","2021-02-13 04:00","2021","02","13","04:00","-24.5","","-27.4","","78","","","","16","","7","","24.1","","101.99","","","","-31","","NA"
"-93.58","69.55","TALOYOAK A","2403855","2021-02-13 05:00","2021","02","13","05:00","-25.6","","-28.6","","77","","","","14","","13","","24.1","","101.98","","","","-35","","Mainly Clear"
"-93.58","69.55","TALOYOAK A","2403855","2021-02-13 06:00","2021","02","13","06:00","-24.6","","-27.4","","78","","","","15","","12","","24.1","","101.95","","","","-34","","NA"
"-93.58","69.55","TALOYOAK A","2403855","2021-02-13 07:00","2021","02","13","07:00","-23.7","","-26.5","","78","","","","14","","11","","24.1","","101.91","","","","-32","","NA"
"-93.58","69.55","TALOYOAK A","2403855","2021-02-13 08:00","2021","02","13","08:00","-23.1","","-25.8","","79","","","","17","","13","","24.1","","101.88","","","","-32","","Cloudy"
"-93.58","69.55","TALOYOAK A","2403855","2021-02-13 09:00","2021","02","13","09:00","-22.5","","-25.2","","79","","","","17","","14","","24.1","","101.85","","","","-32","","NA"
"-93.58","69.55","TALOYOAK A","2403855","2021-02-13 10:00","2021","02","13","10:00","-22.4","","-25.1","","79","","","","16","","15","","24.1","","101.75","","","","-32","","NA"
"-93.58","69.55","TALOYOAK A","2403855","2021-02-13 11:00","2021","02","13","11:00","-21.8","","-24.4","","80","","","","14","","9","","24.1","","101.70","","","","-29","","Mostly Cloudy"
"-93.58","69.55","TALOYOAK A","2403855","2021-02-13 12:00","2021","02","13","12:00","-20.4","","-22.9","","81","","","","14","","9","","24.1","","101.65","","","","-27","","NA"
"-93.58","69.55","TALOYOAK A","2403855","2021-02-13 13:00","2021","02","13","13:00","-15.9","","-18.1","","83","","","","31","","39","","24.1","","101.59","","","","-29","","Blowing Snow"
"-93.58","69.55","TALOYOAK A","2403855","2021-02-13 14:00","2021","02","13","14:00","-16.4","","-19.1","","80","","","","28","","16","","24.1","","101.62","","","","-25","","Blowing Snow"
"-93.58","69.55","TALOYOAK A","2403855","2021-02-13 15:00","2021","02","13","15:00","-15.9","","-21.7","","61","","","","29","","26","","24.1","","101.54","","","","-27","","Blowing Snow"
"-93.58","69.55","TALOYOAK A","2403855","2021-02-13 16:00","2021","02","13","16:00","-20.2","","-25.3","","64","","","","16","","10","","24.1","","101.47","","","","-27","","NA"
"-93.58","69.55","TALOYOAK A","2403855","2021-02-13 17:00","2021","02","13","17:00","-22.7","","-26.0","","75","","","","13","","15","","24.1","","101.39","","","","-32","","Mostly Cloudy"
"-93.58","69.55","TALOYOAK A","2403855","2021-02-13 18:00","2021","02","13","18:00","-23.2","","-26.4","","75","","","","15","","12","","24.1","","101.32","","","","-32","","Ice Crystals"
"-93.58","69.55","TALOYOAK A","2403855","2021-02-13 19:00","2021","02","13","19:00","-22.8","","-26.7","","71","","","","20","","16","","24.1","","101.21","","","","-33","","NA"
"-93.58","69.55","TALOYOAK A","2403855","2021-02-13 20:00","2021","02","13","20:00","-23.4","","-26.9","","73","","","","20","","12","","24.1","","101.12","","","","-32","","Ice Crystals"
"-93.58","69.55","TALOYOAK A","2403855","2021-02-13 21:00","2021","02","13","21:00","-22.9","","-26.2","","75","","","","24","","13","","24.1","","101.03","","","","-32","","NA"
"-93.58","69.55","TALOYOAK A","2403855","2021-02-13 22:00","2021","02","13","22:00","-23.0","","-26.8","","72","","","","23","","18","","24.1","","100.93","","","","-34","","NA"
"-93.58","69.55","TALOYOAK A","2403855","2021-02-13 23:00","2021","02","13","23:00","-23.1","","-26.8","","72","","","","23","","26","","24.1","","100.85","","","","-36","","Ice Crystals,Blowing Snow"
"-93.58","69.55","TALOYOAK A","2403855","2021-02-14 00:00","2021","02","14","00:00","-22.2","","-25.4","","75","","","","28","","9","","24.1","","100.78","","","","-29","","Ice Crystals"
"-93.58","69.55","TALOYOAK A","2403855","2021-02-14 01:00","2021","02","14","01:00","-22.0","","-25.2","","75","","","","9","","8","","24.1","","100.74","","","","-29","","Ice Crystals"
"-93.58","69.55","TALOYOAK A","2403855","2021-02-14 02:00","2021","02","14","02:00","-20.8","","-24.4","","73","","","","22","","4","","24.1","","100.75","","","","-24","","Ice Crystals"
"-93.58","69.55","TALOYOAK A","2403855","2021-02-14 03:00","2021","02","14","03:00","-21.3","","-24.7","","74","","","","19","","11","","24.1","","100.74","","","","-29","","Ice Crystals"
"-93.58","69.55","TALOYOAK A","2403855","2021-02-14 04:00","2021","02","14","04:00","-20.1","","-23.9","","72","","","","28","","10","","24.1","","100.70","","","","-27","","Ice Crystals"
"-93.58","69.55","TALOYOAK A","2403855","2021-02-14 05:00","2021","02","14","05:00","-20.1","","-23.4","","75","","","","30","","17","","24.1","","100.67","","","","-30","","Ice Crystals"
"-93.58","69.55","TALOYOAK A","2403855","2021-02-14 06:00","2021","02","14","06:00","-18.7","","-22.0","","76","","","","30","","25","","24.1","","100.63","","","","-30","","Ice Crystals"
"-93.58","69.55","TALOYOAK A","2403855","2021-02-14 07:00","2021","02","14","07:00","-18.9","","-22.2","","76","","","","29","","21","","24.1","","100.62","","","","-29","","Snow"
"-93.58","69.55","TALOYOAK A","2403855","2021-02-14 08:00","2021","02","14","08:00","-19.3","","-22.4","","77","","","","28","","30","","24.1","","100.55","","","","-32","","Mostly Cloudy"
"-93.58","69.55","TALOYOAK A","2403855","2021-02-14 09:00","2021","02","14","09:00","-20.0","","-23.3","","75","","","","29","","21","","24.1","","100.56","","","","-31","","Ice Crystals,Blowing Snow"
"-93.58","69.55","TALOYOAK A","2403855","2021-02-14 10:00","2021","02","14","10:00","-20.4","","-23.5","","76","","","","26","","14","","24.1","","100.54","","","","-29","","NA"
"-93.58","69.55","TALOYOAK A","2403855","2021-02-14 11:00","2021","02","14","11:00","-21.4","","-24.5","","76","","","","33","","16","","24.1","","100.52","","","","-31","","Mostly Cloudy"
"-93.58","69.55","TALOYOAK A","2403855","2021-02-14 12:00","2021","02","14","12:00","-23.2","","-26.3","","76","","","","21","","6","","24.1","","100.52","","","","-29","","NA"
"-93.58","69.55","TALOYOAK A","2403855","2021-02-14 13:00","2021","02","14","13:00","-23.6","","-26.6","","77","","","","16","","12","","19.3","","100.50","","","","-32","","Ice Crystals"
"-93.58","69.55","TALOYOAK A","2403855","2021-02-14 14:00","2021","02","14","14:00","-24.4","","-27.4","","76","","","","20","","9","","24.1","","100.49","","","","-32","","Ice Crystals"
"-93.58","69.55","TALOYOAK A","2403855","2021-02-14 15:00","2021","02","14","15:00","-24.6","","-27.4","","78","","","","24","","9","","24.1","","100.48","","","","-32","","Ice Crystals"
"-93.58","69.55","TALOYOAK A","2403855","2021-02-14 16:00","2021","02","14","16:00","-26.0","","-28.8","","78","","","","24","","14","","24.1","","100.48","","","","-36","","NA"
"-93.58","69.55","TALOYOAK A","2403855","2021-02-14 17:00","2021","02","14","17:00","-26.2","","-29.3","","76","","","","21","","12","","16.1","","100.46","","","","-36","","Ice Crystals"
"-93.58","69.55","TALOYOAK A","2403855","2021-02-14 18:00","2021","02","14","18:00","-25.9","","-29.1","","75","","","","15","","7","","12.9","","100.41","","","","-33","","Ice Crystals"
"-93.58","69.55","TALOYOAK A","2403855","2021-02-14 19:00","2021","02","14","19:00","-26.8","","-29.9","","76","","","","24","","15","","12.9","","100.37","","","","-37","","Ice Crystals"
"-93.58","69.55","TALOYOAK A","2403855","2021-02-14 20:00","2021","02","14","20:00","-27.6","","-30.6","","76","","","","19","","19","","12.9","","100.32","","","","-40","","Ice Crystals"
"-93.58","69.55","TALOYOAK A","2403855","2021-02-14 21:00","2021","02","14","21:00","-27.9","","-31.0","","75","","","","21","","25","","12.9","","100.23","","","","-42","","Ice Crystals"
"-93.58","69.55","TALOYOAK A","2403855","2021-02-14 22:00","2021","02","14","22:00","-28.2","","-31.3","","75","","","","20","","21","","4.0","","100.22","","","","-41","","Ice Crystals,Fog"
"-93.58","69.55","TALOYOAK A","2403855","2021-02-14 23:00","2021","02","14","23:00","-27.8","","-30.9","","75","","","","21","","15","","1.2","","100.16","","","","-39","","Ice Crystals,Fog"
"-93.58","69.55","TALOYOAK A","2403855","2021-02-15 00:00","2021","02","15","00:00","-28.1","","-31.2","","75","","","","22","","26","","1.2","","100.12","","","","-42","","Ice Crystals,Fog"
"-93.58","69.55","TALOYOAK A","2403855","2021-02-15 01:00","2021","02","15","01:00","-28.8","","-32.0","","75","","","","20","","19","","1.2","","100.08","","","","-41","","Ice Crystals,Fog"
"-93.58","69.55","TALOYOAK A","2403855","2021-02-15 02:00","2021","02","15","02:00","-28.3","","-31.5","","75","","","","20","","22","","1.0","","100.04","","","","-42","","Ice Crystals,Fog"
"-93.58","69.55","TALOYOAK A","2403855","2021-02-15 03:00","2021","02","15","03:00","-28.1","","-31.2","","75","","","","23","","25","","1.0","","99.99","","","","-42","","Ice Crystals,Fog"
"-93.58","69.55","TALOYOAK A","2403855","2021-02-15 04:00","2021","02","15","04:00","-29.4","","-32.7","","74","","","","23","","12","","1.2","","99.95","","","","-39","","Ice Crystals,Fog"
"-93.58","69.55","TALOYOAK A","2403855","2021-02-15 05:00","2021","02","15","05:00","-29.2","","-32.4","","74","","","","22","","14","","1.2","","99.93","","","","-40","","Ice Crystals,Fog"
"-93.58","69.55","TALOYOAK A","2403855","2021-02-15 06:00","2021","02","15","06:00","-29.0","","-32.3","","74","","","","24","","15","","2.0","","99.89","","","","-40","","Ice Crystals,Fog"
"-93.58","69.55","TALOYOAK A","2403855","2021-02-15 07:00","2021","02","15","07:00","-27.8","","-30.9","","75","","","","29","","9","","0.8","","99.81","","","","-36","","Snow Showers,Freezing Fog"
"-93.58","69.55","TALOYOAK A","2403855","2021-02-15 08:00","2021","02","15","08:00","-27.9","","-31.2","","74","","","","24","","11","","9.7","","99.83","","","","-37","","Snow,Fog"
"-93.58","69.55","TALOYOAK A","2403855","2021-02-15 09:00","2021","02","15","09:00","-27.6","","-30.9","","74","","","","27","","10","","3.2","","99.83","","","","-36","","Snow,Fog"
"-93.58","69.55","TALOYOAK A","2403855","2021-02-15 10:00","2021","02","15","10:00","-26.6","","-29.8","","75","","","","30","","6","","2.4","","99.86","","","","-33","","Snow,Fog"
"-93.58","69.55","TALOYOAK A","2403855","2021-02-15 11:00","2021","02","15","11:00","-27.4","","-30.7","","74","","","","30","","34","","1.2","","99.87","","","","-43","","Snow,Fog,Blowing Snow"
"-93.58","69.55","TALOYOAK A","2403855","2021-02-15 12:00","2021","02","15","12:00","-26.9","","-30.2","","74","","","","29","","18","","4.8","","99.93","","","","-39","","Ice Crystals,Fog"
"-93.58","69.55","TALOYOAK A","2403855","2021-02-15 13:00","2021","02","15","13:00","-26.9","","-30.5","","72","","","","23","","8","","16.1","","99.99","","","","-34","","Ice Crystals"
"-93.58","69.55","TALOYOAK A","2403855","2021-02-15 14:00","2021","02","15","14:00","-28.0","","-31.7","","71","","","","27","","22","","16.1","","100.03","","","","-41","","Mainly Clear"
"-93.58","69.55","TALOYOAK A","2403855","2021-02-15 15:00","2021","02","15","15:00","-28.3","","-32.1","","70","","","","28","","10","","16.1","","100.06","","","","-37","","NA"
"-93.58","69.55","TALOYOAK A","2403855","2021-02-15 16:00","2021","02","15","16:00","-29.0","","-32.6","","72","","","","20","","5","","16.1","","100.05","","","","-34","","Snow Grains"
"-93.58","69.55","TALOYOAK A","2403855","2021-02-15 17:00","2021","02","15","17:00","-29.5","","-33.0","","72","","","","23","","22","","16.1","","100.07","","","","-43","","Snow Grains"
"-93.58","69.55","TALOYOAK A","2403855","2021-02-15 18:00","2021","02","15","18:00","-30.3","","-33.8","","72","","","","24","","17","","16.1","","100.05","","","","-43","","Ice Crystals"
"-93.58","69.55","TALOYOAK A","2403855","2021-02-15 19:00","2021","02","15","19:00","-30.7","","-34.1","","73","","","","26","","20","","16.1","","100.03","","","","-44","","Ice Crystals"
"-93.58","69.55","TALOYOAK A","2403855","2021-02-15 20:00","2021","02","15","20:00","-31.7","","-35.3","","71","","","","25","","13","","24.1","","100.03","","","","-43","","Ice Crystals"
"-93.58","69.55","TALOYOAK A","2403855","2021-02-15 21:00","2021","02","15","21:00","-32.6","","-36.3","","71","","","","25","","22","","24.1","","100.03","","","","-47","","Ice Crystals"
"-93.58","69.55","TALOYOAK A","2403855","2021-02-15 22:00","2021","02","15","22:00","-33.7","","-37.5","","70","","","","28","","18","","24.1","","100.06","","","","-47","","Ice Crystals"
"-93.58","69.55","TALOYOAK A","2403855","2021-02-15 23:00","2021","02","15","23:00","-34.7","","-38.5","","69","","","","28","","16","","19.3","","100.07","","","","-48","","Ice Crystals"
"-93.58","69.55","TALOYOAK A","2403855","2021-02-16 00:00","2021","02","16","00:00","-34.7","","-38.7","","68","","","","28","","17","","16.1","","100.10","","","","-48","","Ice Crystals"
"-93.58","69.55","TALOYOAK A","2403855","2021-02-16 01:00","2021","02","16","01:00","-34.6","","-38.4","","69","","","","21","","18","","9.7","","100.13","","","","-48","","Ice Crystals,Fog"
"-93.58","69.55","TALOYOAK A","2403855","2021-02-16 02:00","2021","02","16","02:00","-34.8","","-38.6","","69","","","","25","","22","","6.4","","100.14","","","","-50","","Ice Crystals,Fog"
"-93.58","69.55","TALOYOAK A","2403855","2021-02-16 03:00","2021","02","16","03:00","-34.7","","-38.5","","69","","","","23","","14","","6.4","","100.14","","","","-47","","Ice Crystals,Fog"
"-93.58","69.55","TALOYOAK A","2403855","2021-02-16 04:00","2021","02","16","04:00","-34.1","","-38.0","","69","","","","24","","17","","9.7","","100.11","","","","-47","","Snow,Fog"
"-93.58","69.55","TALOYOAK A","2403855","2021-02-16 05:00","2021","02","16","05:00","-33.2","","-37.3","","68","","","","28","","17","","16.1","","100.10","","","","-46","","Snow"
"-93.58","69.55","TALOYOAK A","2403855","2021-02-16 06:00","2021","02","16","06:00","-34.5","","-38.6","","68","","","","22","","14","","16.1","","100.06","","","","-47","","Snow"
"-93.58","69.55","TALOYOAK A","2403855","2021-02-16 07:00","2021","02","16","07:00","-35.0","","-38.8","","70","","","","24","","15","","4.8","","100.04","","","","-48","","Ice Crystals,Fog"
"-93.58","69.55","TALOYOAK A","2403855","2021-02-16 08:00","2021","02","16","08:00","-37.2","","-40.9","","70","","","","24","","6","","19.3","","100.05","","","","-45","","Ice Crystals"
"-93.58","69.55","TALOYOAK A","2403855","2021-02-16 09:00","2021","02","16","09:00","-37.7","","-41.5","","69","","","","12","","4","","19.3","","100.06","","","","-43","","Ice Crystals"
"-93.58","69.55","TALOYOAK A","2403855","2021-02-16 10:00","2021","02","16","10:00","-37.1","","-40.9","","68","","","","36","","2","","17.7","","100.09","","","","-40","","Ice Crystals"
"-93.58","69.55","TALOYOAK A","2403855","2021-02-16 11:00","2021","02","16","11:00","-36.3","","-40.3","","67","","","","28","","13","","2.0","","100.08","","","","-48","","Ice Crystals"
"-93.58","69.55","TALOYOAK A","2403855","2021-02-16 12:00","2021","02","16","12:00","-35.8","","-40.0","","66","","","","32","","3","","17.7","","100.10","","","","-40","","Ice Crystals"
"-93.58","69.55","TALOYOAK A","2403855","2021-02-16 13:00","2021","02","16","13:00","-37.0","","-41.0","","67","","","","31","","19","","17.7","","100.12","","","","-52","","Ice Crystals"
"-93.58","69.55","TALOYOAK A","2403855","2021-02-16 14:00","2021","02","16","14:00","-37.1","","-41.1","","68","","","","32","","8","","16.1","","100.19","","","","-46","","Ice Crystals"
"-93.58","69.55","TALOYOAK A","2403855","2021-02-16 15:00","2021","02","16","15:00","-37.8","","-41.7","","68","","","","25","","9","","6.4","","100.21","","","","-48","","Fog"
"-93.58","69.55","TALOYOAK A","2403855","2021-02-16 16:00","2021","02","16","16:00","-39.5","","-43.5","","67","","","","28","","17","","2.4","","100.23","","","","-54","","Ice Crystals,Fog"
"-93.58","69.55","TALOYOAK A","2403855","2021-02-16 17:00","2021","02","16","17:00","-38.4","","-42.7","","65","","","","28","","12","","4.8","","100.26","","","","-50","","Ice Crystals,Fog"
"-93.58","69.55","TALOYOAK A","2403855","2021-02-16 18:00","2021","02","16","18:00","-39.7","","-43.9","","66","","","","18","","3","","4.8","","100.28","","","","-44","","Ice Crystals,Fog"
"-93.58","69.55","TALOYOAK A","2403855","2021-02-16 19:00","2021","02","16","19:00","-39.3","","-43.4","","66","","","","30","","13","","2.4","","100.26","","","","-52","","Ice Crystals,Fog"
"-93.58","69.55","TALOYOAK A","2403855","2021-02-16 20:00","2021","02","16","20:00","-38.2","","-42.4","","66","","","","29","","17","","3.2","","100.25","","","","-52","","Ice Crystals,Fog"
"-93.58","69.55","TALOYOAK A","2403855","2021-02-16 21:00","2021","02","16","21:00","-38.7","","-42.8","","67","","","","26","","7","","4.8","","100.31","","","","-47","","Ice Crystals,Fog"
"-93.58","69.55","TALOYOAK A","2403855","2021-02-16 22:00","2021","02","16","22:00","-38.0","","-42.1","","66","","","","36","","2","","6.4","","100.30","","","","-41","","Snow,Fog"
"-93.58","69.55","TALOYOAK A","2403855","2021-02-16 23:00","2021","02","16","23:00","-39.1","","-43.1","","66","","","","22","","24","","8.1","","100.27","","","","-56","","Snow,Fog,Blowing Snow"
"-93.58","69.55","TALOYOAK A","2403855","2021-02-17 00:00","2021","02","17","00:00","-39.2","","-43.2","","67","","","","22","","18","","9.7","","100.26","","","","-54","","Snow,Fog"
"-93.58","69.55","TALOYOAK A","2403855","2021-02-17 01:00","2021","02","17","01:00","-39.3","","-43.3","","67","","","","19","","16","","6.4","","100.27","","","","-53","","Snow,Fog"
"-93.58","69.55","TALOYOAK A","2403855","2021-02-17 02:00","2021","02","17","02:00","-38.7","","-42.7","","67","","","","22","","21","","16.1","","100.24","","","","-54","","Snow"
"-93.58","69.55","TALOYOAK A","2403855","2021-02-17 03:00","2021","02","17","03:00","-38.7","","-42.7","","67","","","","20","","16","","16.1","","100.25","","","","-53","","Snow"
"-93.58","69.55","TALOYOAK A","2403855","2021-02-17 04:00","2021","02","17","04:00","-38.4","","-42.4","","67","","","","21","","20","","9.7","","100.23","","","","-54","","Snow,Fog"
"-93.58","69.55","TALOYOAK A","2403855","2021-02-17 05:00","2021","02","17","05:00","-38.6","","-42.6","","67","","","","21","","19","","9.7","","100.20","","","","-54","","Ice Crystals,Fog"
"-93.58","69.55","TALOYOAK A","2403855","2021-02-17 06:00","2021","02","17","06:00"
"-93.58","69.55","TALOYOAK A","2403855","2021-02-17 07:00","2021","02","17","07:00"
"-93.58","69.55","TALOYOAK A","2403855","2021-02-17 08:00","2021","02","17","08:00","-37.6","","-41.6","","67","","","","23","","12","","1.6","","100.11","","","","-49","","Snow,Fog"
"-93.58","69.55","TALOYOAK A","2403855","2021-02-17 09:00","2021","02","17","09:00","-36.8","","-40.8","","68","","","","21","","17","","1.6","","100.10","","","","-51","","Snow,Fog"
"-93.58","69.55","TALOYOAK A","2403855","2021-02-17 10:00","2021","02","17","10:00","-35.8","","-39.8","","68","","","","22","","22","","2.4","","100.08","","","","-51","","Snow,Fog"
"-93.58","69.55","TALOYOAK A","2403855","2021-02-17 11:00","2021","02","17","11:00","-35.2","","-39.1","","68","","","","20","","27","","2.4","","100.04","","","","-52","","Snow,Fog,Blowing Snow"
"-93.58","69.55","TALOYOAK A","2403855","2021-02-17 12:00","2021","02","17","12:00","-34.1","","-37.9","","69","","","","23","","36","","0.8","","99.93","","","","-52","","Snow,Fog,Blowing Snow"
"-93.58","69.55","TALOYOAK A","2403855","2021-02-17 13:00","2021","02","17","13:00","-33.1","","-37.0","","69","","","","24","","27","","1.0","","99.93","","","","-49","","Snow,Fog,Blowing Snow"
"-93.58","69.55","TALOYOAK A","2403855","2021-02-17 14:00","2021","02","17","14:00","-32.4","","-36.2","","69","","","","25","","24","","1.2","","99.94","","","","-47","","Snow,Fog,Blowing Snow"
"-93.58","69.55","TALOYOAK A","2403855","2021-02-17 15:00","2021","02","17","15:00","-32.2","","-36.2","","69","","","","25","","25","","1.2","","99.88","","","","-47","","Snow,Fog,Blowing Snow"
"-93.58","69.55","TALOYOAK A","2403855","2021-02-17 16:00","2021","02","17","16:00","-32.4","","-36.4","","68","","","","26","","20","","3.2","","99.87","","","","-46","","Snow,Fog,Blowing Snow"
"-93.58","69.55","TALOYOAK A","2403855","2021-02-17 17:00","2021","02","17","17:00","-32.1","","-36.2","","68","","","","24","","11","","6.4","","99.87","","","","-42","","Snow,Fog"
"-93.58","69.55","TALOYOAK A","2403855","2021-02-17 18:00","2021","02","17","18:00","-31.8","","-35.8","","69","","","","26","","23","","9.7","","99.80","","","","-46","","Snow,Blowing Snow"
"-93.58","69.55","TALOYOAK A","2403855","2021-02-17 19:00","2021","02","17","19:00","-31.3","","-35.2","","70","","","","25","","20","","4.8","","99.78","","","","-45","","Snow,Blowing Snow"
"-93.58","69.55","TALOYOAK A","2403855","2021-02-17 20:00","2021","02","17","20:00","-31.7","","-35.4","","70","","","","26","","18","","6.4","","99.76","","","","-45","","Snow,Blowing Snow"
"-93.58","69.55","TALOYOAK A","2403855","2021-02-17 21:00","2021","02","17","21:00","-31.0","","-34.6","","71","","","","27","","23","","6.4","","99.71","","","","-45","","Snow,Blowing Snow"
"-93.58","69.55","TALOYOAK A","2403855","2021-02-17 22:00","2021","02","17","22:00","-29.7","","-33.3","","72","","","","26","","19","","9.7","","99.70","","","","-42","","Snow"
"-93.58","69.55","TALOYOAK A","2403855","2021-02-17 23:00","2021","02","17","23:00","-30.2","","-33.8","","72","","","","25","","6","","12.9","","99.69","","","","-37","","Snow Showers"
"-93.58","69.55","TALOYOAK A","2403855","2021-02-18 00:00","2021","02","18","00:00","-30.8","","-34.4","","72","","","","26","","14","","12.9","","99.68","","","","-42","","Snow Showers"
"-93.58","69.55","TALOYOAK A","2403855","2021-02-18 01:00","2021","02","18","01:00","-29.3","","-32.8","","73","","","","27","","24","","12.9","","99.66","","","","-43","","Snow Showers"
"-93.58","69.55","TALOYOAK A","2403855","2021-02-18 02:00","2021","02","18","02:00","-28.1","","-31.6","","72","","","","25","","22","","16.1","","99.67","","","","-41","","Snow Showers,Blowing Snow"
"-93.58","69.55","TALOYOAK A","2403855","2021-02-18 03:00","2021","02","18","03:00","-27.9","","-31.4","","73","","","","26","","16","","16.1","","99.64","","","","-39","","Snow,Blowing Snow"
"-93.58","69.55","TALOYOAK A","2403855","2021-02-18 04:00","2021","02","18","04:00","-27.9","","-31.1","","74","","","","22","","10","","9.7","","99.60","","","","-37","","Snow Showers"
"-93.58","69.55","TALOYOAK A","2403855","2021-02-18 05:00","2021","02","18","05:00","-26.5","","-29.8","","75","","","","24","","17","","16.1","","99.56","","","","-38","","Snow Showers"
"-93.58","69.55","TALOYOAK A","2403855","2021-02-18 06:00","2021","02","18","06:00"
"-93.58","69.55","TALOYOAK A","2403855","2021-02-18 07:00","2021","02","18","07:00","-25.6","","-28.9","","75","","","","27","","23","","6.4","","99.48","","","","-38","","Snow Showers"
"-93.58","69.55","TALOYOAK A","2403855","2021-02-18 08:00","2021","02","18","08:00","-25.4","","-28.8","","74","","","","27","","17","","4.0","","99.48","","","","-36","","Snow,Fog"
"-93.58","69.55","TALOYOAK A","2403855","2021-02-18 09:00","2021","02","18","09:00","-25.4","","-28.7","","74","","","","28","","22","","1.6","","99.48","","","","-38","","Snow,Fog"
"-93.58","69.55","TALOYOAK A","2403855","2021-02-18 10:00","2021","02","18","10:00","-27.0","","-30.8","","71","","","","28","","18","","12.9","","99.53","","","","-39","","Ice Crystals"
"-93.58","69.55","TALOYOAK A","2403855","2021-02-18 11:00","2021","02","18","11:00","-27.4","","-30.9","","73","","","","27","","20","","12.9","","99.56","","","","-40","","Ice Crystals,Blowing Snow"
"-93.58","69.55","TALOYOAK A","2403855","2021-02-18 12:00","2021","02","18","12:00","-28.4","","-32.1","","71","","","","27","","22","","12.9","","99.59","","","","-42","","Ice Crystals,Blowing Snow"
"-93.58","69.55","TALOYOAK A","2403855","2021-02-18 13:00","2021","02","18","13:00","-28.4","","-32.1","","71","","","","29","","18","","12.9","","99.62","","","","-40","","Ice Crystals"
"-93.58","69.55","TALOYOAK A","2403855","2021-02-18 14:00","2021","02","18","14:00","-29.3","","-33.0","","71","","","","26","","7","","12.9","","99.66","","","","-36","","Ice Crystals"
"-93.58","69.55","TALOYOAK A","2403855","2021-02-18 15:00","2021","02","18","15:00","-29.7","","-33.3","","72","","","","31","","10","","12.9","","99.70","","","","-39","","Ice Crystals"
"-93.58","69.55","TALOYOAK A","2403855","2021-02-18 16:00","2021","02","18","16:00","-29.8","","-33.2","","73","","","","33","","5","","11.3","","99.72","","","","-35","","Ice Crystals"
"-93.58","69.55","TALOYOAK A","2403855","2021-02-18 17:00","2021","02","18","17:00","-28.0","","-31.8","","71","","","","29","","14","","12.9","","99.69","","","","-39","","Snow"
"-93.58","69.55","TALOYOAK A","2403855","2021-02-18 18:00","2021","02","18","18:00","-28.6","","-32.0","","73","","","","23","","5","","2.4","","99.69","","","","-34","","Snow Showers"
"-93.58","69.55","TALOYOAK A","2403855","2021-02-18 19:00","2021","02","18","19:00","-29.5","","-33.2","","71","","","","25","","16","","9.7","","99.66","","","","-41","","Snow"
"-93.58","69.55","TALOYOAK A","2403855","2021-02-18 20:00","2021","02","18","20:00","-29.6","","-33.0","","73","","","","23","","14","","6.4","","99.64","","","","-41","","Snow Showers"
"-93.58","69.55","TALOYOAK A","2403855","2021-02-18 21:00","2021","02","18","21:00","-29.4","","-32.9","","72","","","","24","","16","","3.2","","99.62","","","","-41","","Snow Showers"
"-93.58","69.55","TALOYOAK A","2403855","2021-02-18 22:00","2021","02","18","22:00","-30.4","","-33.9","","72","","","","22","","9","","4.0","","99.60","","","","-39","","Snow Showers"
"-93.58","69.55","TALOYOAK A","2403855","2021-02-18 23:00","2021","02","18","23:00","-30.4","","-34.0","","72","","","","26","","5","","4.0","","99.62","","","","-36","","Snow Showers"
"-93.58","69.55","TALOYOAK A","2403855","2021-02-19 00:00","2021","02","19","00:00","-32.3","","-35.9","","71","","","","30","","6","","4.0","","99.66","","","","-39","","Snow Showers"
"-93.58","69.55","TALOYOAK A","2403855","2021-02-19 01:00","2021","02","19","01:00","-34.1","","-37.8","","70","","","","35","","9","","3.2","","99.69","","","","-43","","Snow Showers"
"-93.58","69.55","TALOYOAK A","2403855","2021-02-19 02:00","2021","02","19","02:00","-33.4","","-37.0","","71","","","","31","","7","","12.9","","99.72","","","","-41","","Snow"
"-93.58","69.55","TALOYOAK A","2403855","2021-02-19 03:00","2021","02","19","03:00","-36.9","","-40.7","","68","","","","1","","3","","19.3","","99.79","","","","-41","","Ice Crystals"
"-93.58","69.55","TALOYOAK A","2403855","2021-02-19 04:00","2021","02","19","04:00","-35.5","","-38.9","","72","","","","5","","7","","24.1","","99.81","","","","-44","","Ice Crystals"
"-93.58","69.55","TALOYOAK A","2403855","2021-02-19 05:00","2021","02","19","05:00","-36.9","","-40.4","","71","","","","9","","3","","24.1","","99.86","","","","-41","","Ice Crystals"
"-93.58","69.55","TALOYOAK A","2403855","2021-02-19 06:00","2021","02","19","06:00","-36.7","","-40.3","","70","","","","14","","7","","24.1","","99.90","","","","-45","","Ice Crystals"
"-93.58","69.55","TALOYOAK A","2403855","2021-02-19 07:00","2021","02","19","07:00","-38.5","","-42.3","","68","","","","8","","8","","9.7","","99.97","","","","-48","","Ice Crystals,Fog"
"-93.58","69.55","TALOYOAK A","2403855","2021-02-19 08:00","2021","02","19","08:00","-38.4","","-42.2","","69","","","","9","","4","","19.3","","100.02","","","","-44","","Ice Crystals"
"-93.58","69.55","TALOYOAK A","2403855","2021-02-19 09:00","2021","02","19","09:00","-38.6","","-42.4","","68","","","","17","","7","","14.5","","100.06","","","","-47","","Ice Crystals"
"-93.58","69.55","TALOYOAK A","2403855","2021-02-19 10:00","2021","02","19","10:00","-40.2","","-44.3","","66","","","","2","","9","","12.9","","100.14","","","","-51","","Ice Crystals"
"-93.58","69.55","TALOYOAK A","2403855","2021-02-19 11:00","2021","02","19","11:00","-40.0","","-44.0","","66","","","","36","","4","","12.9","","100.18","","","","-46","","Ice Crystals"
"-93.58","69.55","TALOYOAK A","2403855","2021-02-19 12:00","2021","02","19","12:00","-38.7","","-42.8","","66","","","","4","","7","","24.1","","100.23","","","","-47","","Ice Crystals"
"-93.58","69.55","TALOYOAK A","2403855","2021-02-19 13:00","2021","02","19","13:00","-38.8","","-42.9","","66","","","","36","","1","","12.9","","100.25","","","","-40","","Ice Crystals"
"-93.58","69.55","TALOYOAK A","2403855","2021-02-19 14:00","2021","02","19","14:00","-40.9","","-45.1","","65","","","","36","","3","","12.9","","100.29","","","","-45","","Ice Crystals"
"-93.58","69.55","TALOYOAK A","2403855","2021-02-19 15:00","2021","02","19","15:00","-40.2","","-44.2","","66","","","","2","","5","","16.1","","100.31","","","","-47","","Ice Crystals"
"-93.58","69.55","TALOYOAK A","2403855","2021-02-19 16:00","2021","02","19","16:00","-39.9","","-43.9","","67","","","","10","","3","","12.9","","100.35","","","","-44","","Ice Crystals"
"-93.58","69.55","TALOYOAK A","2403855","2021-02-19 17:00","2021","02","19","17:00","-39.8","","-43.6","","67","","","","10","","5","","4.8","","100.36","","","","-47","","Ice Crystals,Fog"
"-93.58","69.55","TALOYOAK A","2403855","2021-02-19 18:00","2021","02","19","18:00","-38.9","","-42.8","","68","","","","7","","7","","12.9","","100.35","","","","-48","","Ice Crystals"
"-93.58","69.55","TALOYOAK A","2403855","2021-02-19 19:00","2021","02","19","19:00","-40.3","","-44.3","","67","","","","4","","10","","12.9","","100.32","","","","-51","","Ice Crystals"
"-93.58","69.55","TALOYOAK A","2403855","2021-02-19 20:00","2021","02","19","20:00","-39.6","","-43.5","","67","","","","7","","22","","6.4","","100.27","","","","-56","","Ice Crystals,Fog"
"-93.58","69.55","TALOYOAK A","2403855","2021-02-19 21:00","2021","02","19","21:00","-39.1","","-43.0","","67","","","","6","","21","","8.1","","100.23","","","","-55","","Ice Crystals,Fog"
"-93.58","69.55","TALOYOAK A","2403855","2021-02-19 22:00","2021","02","19","22:00","-38.8","","-42.8","","67","","","","6","","21","","11.3","","100.13","","","","-55","","Ice Crystals,Blowing Snow"
"-93.58","69.55","TALOYOAK A","2403855","2021-02-19 23:00","2021","02","19","23:00","-37.1","","-41.1","","68","","","","6","","16","","6.4","","100.11","","","","-51","","Snow,Fog,Blowing Snow"
"-93.58","69.55","TALOYOAK A","2403855","2021-02-20 00:00","2021","02","20","00:00","-35.7","","-39.5","","68","","","","6","","19","","6.4","","100.06","","","","-50","","Snow Showers,Fog"
"-93.58","69.55","TALOYOAK A","2403855","2021-02-20 01:00","2021","02","20","01:00","-34.0","","-37.8","","70","","","","7","","16","","4.8","","100.00","","","","-47","","Snow Showers,Fog,Blowing Snow"
"-93.58","69.55","TALOYOAK A","2403855","2021-02-20 02:00","2021","02","20","02:00","-32.8","","-36.6","","70","","","","6","","14","","4.8","","99.91","","","","-44","","Snow Showers,Fog"
"-93.58","69.55","TALOYOAK A","2403855","2021-02-20 03:00","2021","02","20","03:00","-32.5","","-36.3","","70","","","","9","","15","","4.8","","99.81","","","","-44","","Snow Showers,Fog,Blowing Snow"
"-93.58","69.55","TALOYOAK A","2403855","2021-02-20 04:00","2021","02","20","04:00","-31.9","","-35.7","","70","","","","9","","28","","2.8","","99.70","","","","-48","","Snow Showers,Fog,Blowing Snow"
"-93.58","69.55","TALOYOAK A","2403855","2021-02-20 05:00","2021","02","20","05:00","-31.5","","-35.2","","70","","","","8","","31","","2.4","","99.60","","","","-48","","Snow Showers,Fog,Blowing Snow"
"-93.58","69.55","TALOYOAK A","2403855","2021-02-20 06:00","2021","02","20","06:00","-30.7","","-34.5","","70","","","","9","","24","","3.2","","99.52","","","","-45","","Snow Showers,Fog,Blowing Snow"
"-93.58","69.55","TALOYOAK A","2403855","2021-02-20 07:00","2021","02","20","07:00","-30.2","","-33.9","","71","","","","8","","28","","1.6","","99.44","","","","-45","","Snow Showers,Fog,Blowing Snow"
"-93.58","69.55","TALOYOAK A","2403855","2021-02-20 08:00","2021","02","20","08:00","-29.2","","-32.8","","71","","","","8","","28","","1.6","","99.34","","","","-44","","Snow Showers,Fog,Blowing Snow"
"-93.58","69.55","TALOYOAK A","2403855","2021-02-20 09:00","2021","02","20","09:00","-28.5","","-32.1","","71","","","","8","","30","","1.0","","99.25","","","","-44","","Snow Showers,Blowing Snow"
"-93.58","69.55","TALOYOAK A","2403855","2021-02-20 10:00","2021","02","20","10:00","-28.0","","-31.6","","72","","","","9","","30","","1.0","","99.14","","","","-43","","Snow Showers,Blowing Snow"
"-93.58","69.55","TALOYOAK A","2403855","2021-02-20 11:00","2021","02","20","11:00","-27.4","","-31.1","","72","","","","7","","31","","1.0","","99.08","","","","-42","","Snow Showers,Blowing Snow"
"-93.58","69.55","TALOYOAK A","2403855","2021-02-20 12:00","2021","02","20","12:00","-26.8","","-30.4","","72","","","","7","","29","","1.0","","99.00","","","","-41","","Snow Showers,Fog,Blowing Snow"
"-93.58","69.55","TALOYOAK A","2403855","2021-02-20 13:00","2021","02","20","13:00","-26.2","","-29.8","","72","","","","7","","28","","1.0","","98.95","","","","-40","","Snow Showers,Fog,Blowing Snow"
"-93.58","69.55","TALOYOAK A","2403855","2021-02-20 14:00","2021","02","20","14:00","-26.0","","-29.6","","72","","","","5","","27","","2.4","","98.92","","","","-40","","Snow Showers,Fog,Blowing Snow"
"-93.58","69.55","TALOYOAK A","2403855","2021-02-20 15:00","2021","02","20","15:00","-26.4","","-29.9","","73","","","","5","","29","","12.9","","98.91","","","","-41","","Snow,Blowing Snow"
"-93.58","69.55","TALOYOAK A","2403855","2021-02-20 16:00","2021","02","20","16:00","-25.6","","-29.1","","73","","","","5","","25","","11.3","","98.91","","","","-39","","Snow,Blowing Snow"
"-93.58","69.55","TALOYOAK A","2403855","2021-02-20 17:00","2021","02","20","17:00","-25.0","","-28.4","","74","","","","6","","24","","12.9","","98.89","","","","-38","","Snow,Blowing Snow"
"-93.58","69.55","TALOYOAK A","2403855","2021-02-20 18:00","2021","02","20","18:00","-24.8","","-28.1","","75","","","","5","","22","","9.7","","98.89","","","","-37","","Snow Showers,Blowing Snow"
"-93.58","69.55","TALOYOAK A","2403855","2021-02-20 19:00","2021","02","20","19:00","-25.6","","-28.9","","75","","","","5","","29","","3.2","","98.87","","","","-40","","Snow,Blowing Snow"
"-93.58","69.55","TALOYOAK A","2403855","2021-02-20 20:00","2021","02","20","20:00","-26.0","","-29.3","","74","","","","4","","26","","3.2","","98.88","","","","-40","","Snow Showers,Blowing Snow"
"-93.58","69.55","TALOYOAK A","2403855","2021-02-20 21:00","2021","02","20","21:00","-26.5","","-29.8","","74","","","","4","","28","","8.1","","98.88","","","","-41","","Snow,Blowing Snow"
"-93.58","69.55","TALOYOAK A","2403855","2021-02-20 22:00","2021","02","20","22:00","-28.0","","-31.5","","73","","","","4","","28","","16.1","","98.89","","","","-43","","Snow,Blowing Snow"
"-93.58","69.55","TALOYOAK A","2403855","2021-02-20 23:00","2021","02","20","23:00","-30.1","","-33.6","","72","","","","2","","22","","16.1","","98.94","","","","-44","","Ice Crystals,Blowing Snow"
"-93.58","69.55","TALOYOAK A","2403855","2021-02-21 00:00","2021","02","21","00:00","-31.5","","-35.2","","71","","","","2","","21","","19.3","","98.99","","","","-45","","Ice Crystals,Blowing Snow"
"-93.58","69.55","TALOYOAK A","2403855","2021-02-21 01:00","2021","02","21","01:00","-33.7","","-37.3","","71","","","","35","","19","","24.1","","99.03","","","","-47","","Ice Crystals"
"-93.58","69.55","TALOYOAK A","2403855","2021-02-21 02:00","2021","02","21","02:00","-33.9","","-37.5","","71","","","","36","","18","","24.1","","99.06","","","","-47","","Ice Crystals"
"-93.58","69.55","TALOYOAK A","2403855","2021-02-21 03:00","2021","02","21","03:00","-34.0","","-37.5","","71","","","","36","","18","","24.1","","99.09","","","","-47","","Ice Crystals"
"-93.58","69.55","TALOYOAK A","2403855","2021-02-21 04:00","2021","02","21","04:00","-34.5","","-38.1","","70","","","","36","","17","","24.1","","99.11","","","","-48","","Ice Crystals"
"-93.58","69.55","TALOYOAK A","2403855","2021-02-21 05:00","2021","02","21","05:00","-34.5","","-38.1","","71","","","","36","","18","","24.1","","99.15","","","","-48","","Ice Crystals"
"-93.58","69.55","TALOYOAK A","2403855","2021-02-21 06:00","2021","02","21","06:00","-34.7","","-38.4","","70","","","","2","","16","","24.1","","99.15","","","","-48","","Ice Crystals"
"-93.58","69.55","TALOYOAK A","2403855","2021-02-21 07:00","2021","02","21","07:00","-34.8","","-38.4","","70","","","","1","","16","","24.1","","99.14","","","","-48","","Ice Crystals"
"-93.58","69.55","TALOYOAK A","2403855","2021-02-21 08:00","2021","02","21","08:00","-34.1","","-37.8","","71","","","","2","","15","","24.1","","99.15","","","","-46","","Ice Crystals"
"-93.58","69.55","TALOYOAK A","2403855","2021-02-21 09:00","2021","02","21","09:00","-34.9","","-38.4","","71","","","","36","","12","","24.1","","99.13","","","","-46","","Ice Crystals"
"-93.58","69.55","TALOYOAK A","2403855","2021-02-21 10:00","2021","02","21","10:00","-34.1","","-37.7","","71","","","","1","","12","","24.1","","99.15","","","","-45","","Ice Crystals"
"-93.58","69.55","TALOYOAK A","2403855","2021-02-21 11:00","2021","02","21","11:00","-33.0","","-36.7","","70","","","","2","","19","","24.1","","99.12","","","","-47","","Ice Crystals"
"-93.58","69.55","TALOYOAK A","2403855","2021-02-21 12:00","2021","02","21","12:00","-33.6","","-37.4","","69","","","","3","","17","","24.1","","99.15","","","","-47","","Ice Crystals"
"-93.58","69.55","TALOYOAK A","2403855","2021-02-21 13:00","2021","02","21","13:00","-33.4","","-37.2","","70","","","","2","","17","","24.1","","99.15","","","","-46","","Ice Crystals"
"-93.58","69.55","TALOYOAK A","2403855","2021-02-21 14:00","2021","02","21","14:00","-33.2","","-36.9","","70","","","","2","","14","","24.1","","99.14","","","","-45","","Ice Crystals"
"-93.58","69.55","TALOYOAK A","2403855","2021-02-21 15:00","2021","02","21","15:00","-33.1","","-36.9","","70","","","","2","","16","","24.1","","99.11","","","","-46","","Ice Crystals"
"-93.58","69.55","TALOYOAK A","2403855","2021-02-21 16:00","2021","02","21","16:00","-33.0","","-36.7","","70","","","","2","","14","","24.1","","99.09","","","","-45","","Ice Crystals"
"-93.58","69.55","TALOYOAK A","2403855","2021-02-21 17:00","2021","02","21","17:00","-33.1","","-36.8","","70","","","","1","","14","","24.1","","99.08","","","","-45","","Ice Crystals"
"-93.58","69.55","TALOYOAK A","2403855","2021-02-21 18:00","2021","02","21","18:00","-32.5","","-36.2","","71","","","","2","","15","","24.1","","99.05","","","","-44","","Ice Crystals"
"-93.58","69.55","TALOYOAK A","2403855","2021-02-21 19:00","2021","02","21","19:00","-31.9","","-35.5","","72","","","","36","","13","","24.1","","99.01","","","","-43","","Ice Crystals"
"-93.58","69.55","TALOYOAK A","2403855","2021-02-21 20:00","2021","02","21","20:00","-31.6","","-35.2","","71","","","","1","","19","","24.1","","98.96","","","","-45","","Ice Crystals"
"-93.58","69.55","TALOYOAK A","2403855","2021-02-21 21:00","2021","02","21","21:00","-30.1","","-33.6","","72","","","","1","","19","","24.1","","98.94","","","","-43","","Ice Crystals,Blowing Snow"
"-93.58","69.55","TALOYOAK A","2403855","2021-02-21 22:00","2021","02","21","22:00","-29.4","","-32.9","","72","","","","1","","17","","19.3","","98.92","","","","-41","","Snow"
"-93.58","69.55","TALOYOAK A","2403855","2021-02-21 23:00","2021","02","21","23:00","-28.5","","-32.0","","73","","","","36","","17","","12.9","","98.88","","","","-40","","Snow Showers,Blowing Snow"
"-93.58","69.55","TALOYOAK A","2403855","2021-02-22 00:00","2021","02","22","00:00","-27.8","","-31.4","","73","","","","1","","16","","14.5","","98.85","","","","-39","","Snow Showers"
"-93.58","69.55","TALOYOAK A","2403855","2021-02-22 01:00","2021","02","22","01:00","-27.1","","-30.7","","73","","","","1","","21","","16.1","","98.81","","","","-40","","Snow Showers"
"-93.58","69.55","TALOYOAK A","2403855","2021-02-22 02:00","2021","02","22","02:00","-26.5","","-30.0","","73","","","","1","","19","","12.9","","98.78","","","","-38","","Snow Showers,Blowing Snow"
"-93.58","69.55","TALOYOAK A","2403855","2021-02-22 03:00","2021","02","22","03:00","-25.6","","-29.0","","74","","","","2","","22","","12.9","","98.75","","","","-38","","Snow Showers,Blowing Snow"
"-93.58","69.55","TALOYOAK A","2403855","2021-02-22 04:00","2021","02","22","04:00","-25.2","","-28.6","","74","","","","2","","17","","12.9","","98.75","","","","-36","","Snow Showers"
"-93.58","69.55","TALOYOAK A","2403855","2021-02-22 05:00","2021","02","22","05:00","-25.1","","-28.3","","75","","","","3","","23","","4.8","","98.74","","","","-38","","Snow Showers,Fog"
"-93.58","69.55","TALOYOAK A","2403855","2021-02-22 06:00","2021","02","22","06:00","-25.1","","-28.4","","74","","","","3","","18","","6.4","","98.75","","","","-36","","Snow Showers,Fog"
"-93.58","69.55","TALOYOAK A","2403855","2021-02-22 07:00","2021","02","22","07:00","-24.9","","-28.4","","73","","","","3","","16","","6.4","","98.78","","","","-35","","Snow Showers,Fog"
"-93.58","69.55","TALOYOAK A","2403855","2021-02-22 08:00","2021","02","22","08:00","-24.8","","-28.3","","73","","","","3","","16","","4.8","","98.78","","","","-35","","Snow Showers,Fog"
"-93.58","69.55","TALOYOAK A","2403855","2021-02-22 09:00","2021","02","22","09:00","-24.6","","-28.1","","73","","","","2","","10","","6.4","","98.78","","","","-33","","Snow Showers"
"-93.58","69.55","TALOYOAK A","2403855","2021-02-22 10:00","2021","02","22","10:00","-24.4","","-27.9","","74","","","","3","","18","","8.1","","98.76","","","","-35","","Snow Showers"
"-93.58","69.55","TALOYOAK A","2403855","2021-02-22 11:00","2021","02","22","11:00","-24.7","","-28.0","","74","","","","36","","10","","9.7","","98.77","","","","-33","","Snow Showers"
"-93.58","69.55","TALOYOAK A","2403855","2021-02-22 12:00","2021","02","22","12:00","-24.9","","-28.2","","75","","","","36","","7","","12.9","","98.79","","","","-31","","Snow Showers"
"-93.58","69.55","TALOYOAK A","2403855","2021-02-22 13:00","2021","02","22","13:00","-24.4","","-27.7","","75","","","","35","","11","","19.3","","98.82","","","","-33","","Snow Showers"
"-93.58","69.55","TALOYOAK A","2403855","2021-02-22 14:00","2021","02","22","14:00","-24.2","","-27.6","","75","","","","36","","7","","16.1","","98.85","","","","-31","","Snow Showers"
"-93.58","69.55","TALOYOAK A","2403855","2021-02-22 15:00","2021","02","22","15:00","-24.5","","-27.9","","74","","","","5","","4","","12.9","","98.87","","","","-28","","Snow Showers"
"-93.58","69.55","TALOYOAK A","2403855","2021-02-22 16:00","2021","02","22","16:00","-24.8","","-28.1","","75","","","","3","","3","","19.3","","98.88","","","","-28","","Snow"
"-93.58","69.55","TALOYOAK A","2403855","2021-02-22 17:00","2021","02","22","17:00","-25.7","","-28.8","","76","","","","36","","1","","19.3","","98.93","","","","-27","","Snow"
"-93.58","69.55","TALOYOAK A","2403855","2021-02-22 18:00","2021","02","22","18:00","-25.4","","-28.4","","76","","","","28","","4","","19.3","","98.94","","","","-29","","Snow"
"-93.58","69.55","TALOYOAK A","2403855","2021-02-22 19:00","2021","02","22","19:00","-26.1","","-28.9","","78","","","","30","","4","","19.3","","98.96","","","","-30","","Snow"
"-93.58","69.55","TALOYOAK A","2403855","2021-02-22 20:00","2021","02","22","20:00","-28.1","","-30.9","","78","","","","36","","7","","24.1","","98.96","","","","-35","","Snow"
"-93.58","69.55","TALOYOAK A","2403855","2021-02-22 21:00","2021","02","22","21:00","-27.8","","-30.6","","78","","","","36","","7","","24.1","","98.99","","","","-35","","Snow"
"-93.58","69.55","TALOYOAK A","2403855","2021-02-22 22:00","2021","02","22","22:00","-29.0","","-31.8","","77","","","","36","","2","","24.1","","99.00","","","","-31","","Snow"
"-93.58","69.55","TALOYOAK A","2403855","2021-02-22 23:00","2021","02","22","23:00","-29.4","","-32.4","","76","","","","36","","6","","16.1","","99.03","","","","-36","","Snow"
"-93.58","69.55","TALOYOAK A","2403855","2021-02-23 00:00","2021","02","23","00:00","-28.1","","-31.2","","75","","","","35","","3","","11.3","","99.07","","","","-31","","Snow Showers"
"-93.58","69.55","TALOYOAK A","2403855","2021-02-23 01:00","2021","02","23","01:00","-30.2","","-33.4","","74","","","","36","","2","","19.3","","99.11","","","","-32","","Snow Showers"
"-93.58","69.55","TALOYOAK A","2403855","2021-02-23 02:00","2021","02","23","02:00","-29.0","","-32.3","","74","","","","32","","16","","19.3","","99.12","","","","-41","","Snow"
"-93.58","69.55","TALOYOAK A","2403855","2021-02-23 03:00","2021","02","23","03:00","-28.1","","-31.4","","74","","","","32","","21","","19.3","","99.13","","","","-41","","Snow"
"-93.58","69.55","TALOYOAK A","2403855","2021-02-23 04:00","2021","02","23","04:00","-28.5","","-31.9","","73","","","","32","","22","","19.3","","99.17","","","","-42","","Snow"
"-93.58","69.55","TALOYOAK A","2403855","2021-02-23 05:00","2021","02","23","05:00","-28.6","","-32.1","","73","","","","31","","27","","16.1","","99.20","","","","-43","","Snow Showers,Blowing Snow"
"-93.58","69.55","TALOYOAK A","2403855","2021-02-23 06:00","2021","02","23","06:00","-28.4","","-31.8","","74","","","","31","","29","","11.3","","99.23","","","","-43","","Snow Showers,Blowing Snow"
"-93.58","69.55","TALOYOAK A","2403855","2021-02-23 07:00","2021","02","23","07:00","-28.3","","-31.7","","74","","","","32","","27","","14.5","","99.24","","","","-43","","Snow Showers,Blowing Snow"
"-93.58","69.55","TALOYOAK A","2403855","2021-02-23 08:00","2021","02","23","08:00","-28.2","","-31.5","","74","","","","31","","28","","16.1","","99.27","","","","-43","","Snow Showers,Blowing Snow"
"-93.58","69.55","TALOYOAK A","2403855","2021-02-23 09:00","2021","02","23","09:00","-28.8","","-32.2","","73","","","","31","","34","","3.2","","99.28","","","","-45","","Snow,Fog,Blowing Snow"
"-93.58","69.55","TALOYOAK A","2403855","2021-02-23 10:00","2021","02","23","10:00","-29.6","","-33.0","","72","","","","31","","27","","4.0","","99.30","","","","-44","","Snow,Fog,Blowing Snow"
"-93.58","69.55","TALOYOAK A","2403855","2021-02-23 11:00","2021","02","23","11:00","-29.0","","-32.7","","72","","","","31","","36","","9.7","","99.30","","","","-45","","Ice Crystals,Blowing Snow"
"-93.58","69.55","TALOYOAK A","2403855","2021-02-23 12:00","2021","02","23","12:00","-29.3","","-33.1","","70","","","","31","","38","","8.1","","99.34","","","","-46","","Ice Crystals,Blowing Snow"
"-93.58","69.55","TALOYOAK A","2403855","2021-02-23 13:00","2021","02","23","13:00","-29.9","","-33.5","","72","","","","31","","42","","1.6","","99.36","","","","-48","","Ice Crystals,Blowing Snow"
"-93.58","69.55","TALOYOAK A","2403855","2021-02-23 14:00","2021","02","23","14:00","-29.9","","-33.5","","71","","","","31","","41","","1.6","","99.43","","","","-48","","Ice Crystals,Blowing Snow"
"-93.58","69.55","TALOYOAK A","2403855","2021-02-23 15:00","2021","02","23","15:00","-31.9","","-35.6","","71","","","","31","","45","","1.6","","99.49","","","","-51","","Ice Crystals,Blowing Snow"
"-93.58","69.55","TALOYOAK A","2403855","2021-02-23 16:00","2021","02","23","16:00","-32.2","","-35.8","","71","","","","31","","43","","1.6","","99.51","","","","-51","","Ice Crystals,Blowing Snow"
"-93.58","69.55","TALOYOAK A","2403855","2021-02-23 17:00","2021","02","23","17:00","-31.7","","-35.4","","71","","","","32","","43","","3.2","","99.56","","","","-50","","Ice Crystals,Blowing Snow"
"-93.58","69.55","TALOYOAK A","2403855","2021-02-23 18:00","2021","02","23","18:00","-33.0","","-36.7","","70","","","","32","","43","","2.4","","99.59","","","","-52","","Ice Crystals,Blowing Snow"
"-93.58","69.55","TALOYOAK A","2403855","2021-02-23 19:00","2021","02","23","19:00","-33.6","","-37.4","","70","","","","32","","40","","2.0","","99.61","","","","-52","","Ice Crystals,Blowing Snow"
"-93.58","69.55","TALOYOAK A","2403855","2021-02-23 20:00","2021","02","23","20:00","-34.5","","-38.2","","69","","","","31","","39","","1.6","","99.63","","","","-53","","Ice Crystals,Blowing Snow"
"-93.58","69.55","TALOYOAK A","2403855","2021-02-23 21:00","2021","02","23","21:00","-34.6","","-38.3","","69","","","","32","","37","","1.2","","99.61","","","","-53","","Ice Crystals,Blowing Snow"
"-93.58","69.55","TALOYOAK A","2403855","2021-02-23 22:00","2021","02","23","22:00","-35.8","","-39.7","","68","","","","31","","37","","1.2","","99.65","","","","-55","","Ice Crystals,Blowing Snow"
"-93.58","69.55","TALOYOAK A","2403855","2021-02-23 23:00","2021","02","23","23:00","-37.4","","-41.4","","67","","","","31","","35","","1.6","","99.65","","","","-56","","Ice Crystals,Blowing Snow"
"-93.58","69.55","TALOYOAK A","2403855","2021-02-24 00:00","2021","02","24","00:00","-37.5","","-41.5","","67","","","","29","","41","","1.0","","99.65","","","","-58","","Ice Crystals,Blowing Snow"
"-93.58","69.55","TALOYOAK A","2403855","2021-02-24 01:00","2021","02","24","01:00","-37.9","","-42.0","","67","","","","28","","17","","1.6","","99.76","","","","-52","","Ice Crystals,Fog,Blowing Snow"
"-93.58","69.55","TALOYOAK A","2403855","2021-02-24 02:00","2021","02","24","02:00","-38.8","","-42.9","","66","","","","29","","13","","1.2","","99.76","","","","-51","","Ice Crystals,Fog"
"-93.58","69.55","TALOYOAK A","2403855","2021-02-24 03:00","2021","02","24","03:00","-39.3","","-43.4","","66","","","","31","","14","","1.0","","99.78","","","","-52","","Ice Crystals,Fog"
"-93.58","69.55","TALOYOAK A","2403855","2021-02-24 04:00","2021","02","24","04:00","-38.7","","-42.7","","67","","","","27","","11","","1.0","","99.81","","","","-50","","Ice Crystals,Fog"
"-93.58","69.55","TALOYOAK A","2403855","2021-02-24 05:00","2021","02","24","05:00","-38.9","","-42.9","","67","","","","29","","10","","1.0","","99.82","","","","-50","","Ice Crystals,Fog"
"-93.58","69.55","TALOYOAK A","2403855","2021-02-24 06:00","2021","02","24","06:00","-39.4","","-43.6","","66","","","","24","","17","","1.0","","99.81","","","","-54","","Ice Crystals,Fog"
"-93.58","69.55","TALOYOAK A","2403855","2021-02-24 07:00","2021","02","24","07:00","-40.6","","-44.8","","66","","","","24","","10","","0.6","","99.80","","","","-52","","Ice Crystals,Freezing Fog"
"-93.58","69.55","TALOYOAK A","2403855","2021-02-24 08:00","2021","02","24","08:00","-40.7","","-44.9","","66","","","","22","","8","","0.8","","99.81","","","","-51","","Ice Crystals,Freezing Fog"
"-93.58","69.55","TALOYOAK A","2403855","2021-02-24 09:00","2021","02","24","09:00","-40.7","","-44.9","","65","","","","29","","11","","0.8","","99.81","","","","-53","","Ice Crystals,Freezing Fog"
"-93.58","69.55","TALOYOAK A","2403855","2021-02-24 10:00","2021","02","24","10:00","-40.6","","-44.8","","65","","","","24","","12","","1.6","","99.84","","","","-53","","Ice Crystals,Fog"
"-93.58","69.55","TALOYOAK A","2403855","2021-02-24 11:00","2021","02","24","11:00","-41.4","","-45.7","","64","","","","23","","21","","3.2","","99.85","","","","-58","","Ice Crystals,Fog"
"-93.58","69.55","TALOYOAK A","2403855","2021-02-24 12:00","2021","02","24","12:00","-40.9","","-45.3","","64","","","","21","","25","","3.2","","99.88","","","","-58","","Ice Crystals,Fog"
"-93.58","69.55","TALOYOAK A","2403855","2021-02-24 13:00","2021","02","24","13:00","-40.5","","-44.9","","64","","","","22","","23","","3.2","","99.83","","","","-57","","Ice Crystals,Fog"
"-93.58","69.55","TALOYOAK A","2403855","2021-02-24 14:00","2021","02","24","14:00","-40.6","","-45.0","","64","","","","22","","22","","3.2","","99.86","","","","-57","","Ice Crystals,Blowing Snow"
"-93.58","69.55","TALOYOAK A","2403855","2021-02-24 15:00","2021","02","24","15:00","-41.1","","-45.6","","63","","","","22","","27","","9.7","","99.85","","","","-59","","Ice Crystals,Fog,Blowing Snow"
"-93.58","69.55","TALOYOAK A","2403855","2021-02-24 16:00","2021","02","24","16:00","-41.6","","-46.0","","64","","","","22","","28","","6.4","","99.83","","","","-60","","Ice Crystals,Fog,Blowing Snow"
"-93.58","69.55","TALOYOAK A","2403855","2021-02-24 17:00","2021","02","24","17:00","-41.6","","-45.9","","64","","","","21","","22","","6.4","","99.87","","","","-58","","Ice Crystals,Fog,Blowing Snow"
"-93.58","69.55","TALOYOAK A","2403855","2021-02-24 18:00","2021","02","24","18:00","-41.6","","-45.9","","64","","","","22","","10","","6.4","","99.89","","","","-53","","Ice Crystals,Fog,Blowing Snow"
"-93.58","69.55","TALOYOAK A","2403855","2021-02-24 19:00","2021","02","24","19:00","-41.8","","-46.1","","64","","","","19","","24","","6.4","","99.87","","","","-59","","Ice Crystals,Fog,Blowing Snow"
"-93.58","69.55","TALOYOAK A","2403855","2021-02-24 20:00","2021","02","24","20:00","-42.2","","-46.5","","64","","","","21","","28","","3.2","","99.83","","","","-61","","Ice Crystals,Fog,Blowing Snow"
"-93.58","69.55","TALOYOAK A","2403855","2021-02-24 21:00","2021","02","24","21:00","-42.3","","-46.6","","64","","","","23","","16","","3.2","","99.84","","","","-57","","Ice Crystals,Fog,Blowing Snow"
"-93.58","69.55","TALOYOAK A","2403855","2021-02-24 22:00","2021","02","24","22:00","-42.8","","-47.0","","64","","","","19","","18","","1.6","","99.81","","","","-58","","Snow,Fog"
"-93.58","69.55","TALOYOAK A","2403855","2021-02-24 23:00","2021","02","24","23:00","-43.2","","-47.4","","64","","","","21","","20","","1.6","","99.81","","","","-60","","Ice Crystals,Fog,Blowing Snow"
"-93.58","69.55","TALOYOAK A","2403855","2021-02-25 00:00","2021","02","25","00:00","-43.8","","-48.0","","64","","","","21","","21","","3.2","","99.77","","","","-61","","Ice Crystals,Fog,Blowing Snow"
"-93.58","69.55","TALOYOAK A","2403855","2021-02-25 01:00","2021","02","25","01:00","-44.2","","-48.5","","64","","","","17","","16","","1.6","","99.79","","","","-59","","Ice Crystals,Fog,Blowing Snow"
"-93.58","69.55","TALOYOAK A","2403855","2021-02-25 02:00","2021","02","25","02:00","-44.6","","-48.9","","64","","","","16","","17","","2.4","","99.76","","","","-60","","Ice Crystals,Fog,Blowing Snow"
"-93.58","69.55","TALOYOAK A","2403855","2021-02-25 03:00","2021","02","25","03:00","-44.8","","-49.2","","63","","","","16","","14","","3.2","","99.78","","","","-59","","Ice Crystals,Fog"
"-93.58","69.55","TALOYOAK A","2403855","2021-02-25 04:00","2021","02","25","04:00","-44.8","","-49.1","","63","","","","16","","13","","3.2","","99.81","","","","-59","","Ice Crystals,Fog"
"-93.58","69.55","TALOYOAK A","2403855","2021-02-25 05:00","2021","02","25","05:00","-44.5","","-48.8","","63","","","","16","","8","","3.2","","99.81","","","","-55","","Ice Crystals,Fog"
"-93.58","69.55","TALOYOAK A","2403855","2021-02-25 06:00","2021","02","25","06:00","-44.3","","-48.6","","64","","","","16","","6","","16.1","","99.84","","","","-53","","Ice Crystals"
"-93.58","69.55","TALOYOAK A","2403855","2021-02-25 07:00","2021","02","25","07:00","-46.8","","-51.2","","62","","","","35","","5","","12.9","","99.81","","","","-55","","Ice Crystals"
"-93.58","69.55","TALOYOAK A","2403855","2021-02-25 08:00","2021","02","25","08:00","-45.3","","-49.8","","62","","","","2","","11","","1.6","","99.86","","","","-58","","Ice Crystals,Fog"
"-93.58","69.55","TALOYOAK A","2403855","2021-02-25 09:00","2021","02","25","09:00","-43.6","","-48.0","","63","","","","5","","18","","8.1","","99.86","","","","-59","","Ice Crystals,Fog"
"-93.58","69.55","TALOYOAK A","2403855","2021-02-25 10:00","2021","02","25","10:00","-43.7","","-48.1","","63","","","","3","","15","","16.1","","99.86","","","","-58","","Ice Crystals"
"-93.58","69.55","TALOYOAK A","2403855","2021-02-25 11:00","2021","02","25","11:00","-42.4","","-46.7","","64","","","","3","","16","","16.1","","99.87","","","","-57","","Ice Crystals"
"-93.58","69.55","TALOYOAK A","2403855","2021-02-25 12:00","2021","02","25","12:00","-42.3","","-46.6","","64","","","","36","","14","","2.8","","99.89","","","","-56","","Ice Crystals,Fog"
"-93.58","69.55","TALOYOAK A","2403855","2021-02-25 13:00","2021","02","25","13:00","-41.8","","-46.1","","64","","","","2","","15","","8.1","","99.91","","","","-56","","Ice Crystals,Fog"
"-93.58","69.55","TALOYOAK A","2403855","2021-02-25 14:00","2021","02","25","14:00","-40.0","","-44.2","","65","","","","5","","16","","16.1","","99.96","","","","-54","","Ice Crystals"
"-93.58","69.55","TALOYOAK A","2403855","2021-02-25 15:00","2021","02","25","15:00","-39.2","","-43.4","","66","","","","6","","17","","16.1","","100.00","","","","-54","","Ice Crystals"
"-93.58","69.55","TALOYOAK A","2403855","2021-02-25 16:00","2021","02","25","16:00","-39.5","","-43.6","","66","","","","7","","14","","24.1","","100.03","","","","-53","","Ice Crystals"
"-93.58","69.55","TALOYOAK A","2403855","2021-02-25 17:00","2021","02","25","17:00","-40.8","","-44.9","","66","","","","1","","7","","16.1","","100.09","","","","-50","","Ice Crystals"
"-93.58","69.55","TALOYOAK A","2403855","2021-02-25 18:00","2021","02","25","18:00","-41.5","","-45.6","","65","","","","3","","11","","16.1","","100.14","","","","-54","","Ice Crystals"
"-93.58","69.55","TALOYOAK A","2403855","2021-02-25 19:00","2021","02","25","19:00","-38.6","","-42.6","","67","","","","8","","10","","12.9","","100.16","","","","-49","","Ice Crystals"
"-93.58","69.55","TALOYOAK A","2403855","2021-02-25 20:00","2021","02","25","20:00","-40.0","","-44.1","","66","","","","4","","10","","19.3","","100.17","","","","-51","","Snow"
"-93.58","69.55","TALOYOAK A","2403855","2021-02-25 21:00","2021","02","25","21:00","-38.8","","-42.9","","66","","","","2","","12","","24.1","","100.17","","","","-51","","Snow"
"-93.58","69.55","TALOYOAK A","2403855","2021-02-25 22:00","2021","02","25","22:00","-37.9","","-41.9","","67","","","","1","","12","","24.1","","100.18","","","","-50","","NA"
"-93.58","69.55","TALOYOAK A","2403855","2021-02-25 23:00","2021","02","25","23:00","-36.7","","-40.6","","68","","","","4","","19","","24.1","","100.20","","","","-51","","Ice Crystals"
"-93.58","69.55","TALOYOAK A","2403855","2021-02-26 00:00","2021","02","26","00:00","-36.3","","-40.2","","68","","","","5","","22","","16.1","","100.22","","","","-52","","Ice Crystals"
"-93.58","69.55","TALOYOAK A","2403855","2021-02-26 01:00","2021","02","26","01:00","-36.0","","-39.9","","68","","","","6","","28","","16.1","","100.22","","","","-53","","Ice Crystals,Blowing Snow"
"-93.58","69.55","TALOYOAK A","2403855","2021-02-26 02:00","2021","02","26","02:00","-35.9","","-39.8","","68","","","","6","","31","","16.1","","100.24","","","","-54","","Ice Crystals,Blowing Snow"
"-93.58","69.55","TALOYOAK A","2403855","2021-02-26 03:00","2021","02","26","03:00","-36.4","","-40.4","","68","","","","5","","20","","6.4","","100.29","","","","-51","","Ice Crystals,Fog,Blowing Snow"
"-93.58","69.55","TALOYOAK A","2403855","2021-02-26 04:00","2021","02","26","04:00","-37.3","","-41.4","","67","","","","2","","9","","1.6","","100.29","","","","-47","","Ice Crystals,Fog"
"-93.58","69.55","TALOYOAK A","2403855","2021-02-26 05:00","2021","02","26","05:00","-37.0","","-41.0","","67","","","","3","","25","","1.6","","100.27","","","","-53","","Ice Crystals,Fog,Blowing Snow"
"-93.58","69.55","TALOYOAK A","2403855","2021-02-26 06:00","2021","02","26","06:00","-37.8","","-41.8","","67","","","","1","","23","","2.0","","100.29","","","","-54","","Ice Crystals,Fog,Blowing Snow"
"-93.58","69.55","TALOYOAK A","2403855","2021-02-26 07:00","2021","02","26","07:00","-37.4","","-41.4","","67","","","","1","","19","","9.7","","100.34","","","","-52","","Ice Crystals,Fog,Blowing Snow"
"-93.58","69.55","TALOYOAK A","2403855","2021-02-26 08:00","2021","02","26","08:00","-38.5","","-42.5","","66","","","","2","","14","","19.3","","100.32","","","","-51","","Ice Crystals"
"-93.58","69.55","TALOYOAK A","2403855","2021-02-26 09:00","2021","02","26","09:00","-38.1","","-42.2","","66","","","","36","","13","","19.3","","100.28","","","","-50","","Ice Crystals"
"-93.58","69.55","TALOYOAK A","2403855","2021-02-26 10:00","2021","02","26","10:00","-37.9","","-41.9","","67","","","","35","","16","","20.9","","100.27","","","","-52","","Ice Crystals"
"-93.58","69.55","TALOYOAK A","2403855","2021-02-26 11:00","2021","02","26","11:00","-37.6","","-41.7","","67","","","","36","","13","","20.9","","100.23","","","","-50","","Ice Crystals"
"-93.58","69.55","TALOYOAK A","2403855","2021-02-26 12:00","2021","02","26","12:00","-37.9","","-42.2","","65","","","","36","","10","","24.1","","100.18","","","","-49","","NA"
"-93.58","69.55","TALOYOAK A","2403855","2021-02-26 13:00","2021","02","26","13:00","-37.5","","-41.8","","65","","","","34","","9","","24.1","","100.12","","","","-47","","NA"
"-93.58","69.55","TALOYOAK A","2403855","2021-02-26 14:00","2021","02","26","14:00","-35.8","","-40.2","","65","","","","36","","9","","24.1","","100.04","","","","-45","","Mostly Cloudy"
"-93.58","69.55","TALOYOAK A","2403855","2021-02-26 15:00","2021","02","26","15:00","-35.8","","-40.5","","63","","","","35","","13","","24.1","","99.99","","","","-48","","NA"
"-93.58","69.55","TALOYOAK A","2403855","2021-02-26 16:00","2021","02","26","16:00","-36.0","","-40.7","","63","","","","34","","18","","24.1","","99.92","","","","-50","","NA"
"-93.58","69.55","TALOYOAK A","2403855","2021-02-26 17:00","2021","02","26","17:00","-34.0","","-38.4","","66","","","","33","","28","","24.1","","99.85","","","","-50","","Ice Crystals"
"-93.58","69.55","TALOYOAK A","2403855","2021-02-26 18:00","2021","02","26","18:00","-33.2","","-37.8","","65","","","","33","","28","","24.1","","99.78","","","","-49","","Ice Crystals"
"-93.58","69.55","TALOYOAK A","2403855","2021-02-26 19:00","2021","02","26","19:00","-33.1","","-37.4","","66","","","","32","","33","","19.3","","99.67","","","","-50","","Ice Crystals,Blowing Snow"
"-93.58","69.55","TALOYOAK A","2403855","2021-02-26 20:00","2021","02","26","20:00","-32.7","","-36.7","","68","","","","32","","31","","16.1","","99.56","","","","-49","","Ice Crystals,Blowing Snow"
"-93.58","69.55","TALOYOAK A","2403855","2021-02-26 21:00","2021","02","26","21:00","-31.1","","-35.1","","68","","","","34","","35","","6.4","","99.44","","","","-48","","Ice Crystals,Blowing Snow"
"-93.58","69.55","TALOYOAK A","2403855","2021-02-26 22:00","2021","02","26","22:00","-31.4","","-35.3","","69","","","","33","","33","","2.0","","99.39","","","","-48","","Ice Crystals,Blowing Snow"
"-93.58","69.55","TALOYOAK A","2403855","2021-02-26 23:00","2021","02","26","23:00","-32.0","","-35.7","","71","","","","31","","26","","2.4","","99.34","","","","-47","","Ice Crystals,Blowing Snow"
"-93.58","69.55","TALOYOAK A","2403855","2021-02-27 00:00","2021","02","27","00:00","-31.3","","-35.0","","71","","","","32","","35","","1.2","","99.27","","","","-48","","Snow,Blowing Snow"
"-93.58","69.55","TALOYOAK A","2403855","2021-02-27 01:00","2021","02","27","01:00","-32.7","","-36.4","","70","","","","31","","33","","1.0","","99.21","","","","-50","","Snow,Blowing Snow"
"-93.58","69.55","TALOYOAK A","2403855","2021-02-27 02:00","2021","02","27","02:00","-32.7","","-36.4","","70","","","","32","","30","","1.2","","99.20","","","","-49","","Snow,Blowing Snow"
"-93.58","69.55","TALOYOAK A","2403855","2021-02-27 03:00","2021","02","27","03:00","-31.8","","-35.6","","70","","","","32","","26","","1.2","","99.16","","","","-47","","Snow,Blowing Snow"
"-93.58","69.55","TALOYOAK A","2403855","2021-02-27 04:00","2021","02","27","04:00","-32.7","","-36.5","","70","","","","31","","29","","1.0","","99.11","","","","-49","","Snow,Blowing Snow"
"-93.58","69.55","TALOYOAK A","2403855","2021-02-27 05:00","2021","02","27","05:00","-33.1","","-36.9","","70","","","","31","","26","","1.2","","99.08","","","","-49","","Snow,Blowing Snow"
"-93.58","69.55","TALOYOAK A","2403855","2021-02-27 06:00","2021","02","27","06:00","-32.7","","-36.6","","69","","","","32","","25","","2.4","","99.04","","","","-48","","Snow,Fog,Blowing Snow"
"-93.58","69.55","TALOYOAK A","2403855","2021-02-27 07:00","2021","02","27","07:00","-32.3","","-36.1","","70","","","","32","","21","","3.2","","99.01","","","","-46","","Snow,Fog,Blowing Snow"
"-93.58","69.55","TALOYOAK A","2403855","2021-02-27 08:00","2021","02","27","08:00","-32.1","","-36.0","","70","","","","31","","15","","4.8","","99.03","","","","-44","","Snow,Fog"
"-93.58","69.55","TALOYOAK A","2403855","2021-02-27 09:00","2021","02","27","09:00","-31.9","","-35.8","","69","","","","30","","10","","4.8","","99.00","","","","-41","","Snow,Fog"
"-93.58","69.55","TALOYOAK A","2403855","2021-02-27 10:00","2021","02","27","10:00","-31.0","","-35.0","","69","","","","32","","16","","6.4","","98.99","","","","-43","","Snow,Fog"
"-93.58","69.55","TALOYOAK A","2403855","2021-02-27 11:00","2021","02","27","11:00","-30.9","","-35.0","","68","","","","30","","15","","16.1","","98.95","","","","-43","","Snow Grains"
"-93.58","69.55","TALOYOAK A","2403855","2021-02-27 12:00","2021","02","27","12:00","-29.9","","-33.9","","69","","","","32","","14","","3.2","","98.96","","","","-41","","Snow Grains,Fog"
"-93.58","69.55","TALOYOAK A","2403855","2021-02-27 13:00","2021","02","27","13:00","-29.4","","-33.2","","70","","","","30","","12","","3.2","","98.99","","","","-39","","Snow Grains,Fog"
"-93.58","69.55","TALOYOAK A","2403855","2021-02-27 14:00","2021","02","27","14:00","-29.2","","-33.0","","70","","","","21","","6","","3.6","","98.98","","","","-36","","Snow,Fog"
"-93.58","69.55","TALOYOAK A","2403855","2021-02-27 15:00","2021","02","27","15:00","-29.2","","-32.7","","72","","","","19","","11","","3.2","","98.96","","","","-39","","Snow,Fog"
"-93.58","69.55","TALOYOAK A","2403855","2021-02-27 16:00","2021","02","27","16:00","-29.6","","-33.1","","72","","","","20","","12","","4.8","","98.98","","","","-40","","Snow,Fog"
"-93.58","69.55","TALOYOAK A","2403855","2021-02-27 17:00","2021","02","27","17:00","-29.9","","-33.5","","72","","","","16","","8","","4.8","","98.97","","","","-38","","Snow,Fog"
"-93.58","69.55","TALOYOAK A","2403855","2021-02-27 18:00","2021","02","27","18:00","-30.5","","-34.0","","72","","","","15","","14","","4.8","","98.95","","","","-42","","Snow Showers,Fog"
"-93.58","69.55","TALOYOAK A","2403855","2021-02-27 19:00","2021","02","27","19:00","-30.8","","-34.3","","72","","","","15","","15","","6.4","","98.95","","","","-42","","Snow Showers,Fog"
"-93.58","69.55","TALOYOAK A","2403855","2021-02-27 20:00","2021","02","27","20:00","-30.5","","-34.0","","72","","","","15","","8","","6.4","","98.94","","","","-39","","Snow Showers"
"-93.58","69.55","TALOYOAK A","2403855","2021-02-27 21:00","2021","02","27","21:00","-30.7","","-34.2","","72","","","","15","","8","","6.4","","98.93","","","","-39","","Snow Showers"
"-93.58","69.55","TALOYOAK A","2403855","2021-02-27 22:00","2021","02","27","22:00","-30.5","","-34.0","","72","","","","13","","5","","6.4","","98.92","","","","-36","","Snow Showers"
"-93.58","69.55","TALOYOAK A","2403855","2021-02-27 23:00","2021","02","27","23:00","-29.8","","-33.2","","73","","","","32","","5","","6.4","","98.95","","","","-35","","Snow Showers"
"-93.58","69.55","TALOYOAK A","2403855","2021-02-28 00:00","2021","02","28","00:00","-29.4","","-33.1","","71","","","","32","","15","","6.4","","98.91","","","","-41","","Snow Showers"
"-93.58","69.55","TALOYOAK A","2403855","2021-02-28 01:00","2021","02","28","01:00","-29.8","","-33.6","","71","","","","32","","22","","12.9","","98.92","","","","-43","","Snow"
"-93.58","69.55","TALOYOAK A","2403855","2021-02-28 02:00","2021","02","28","02:00","-30.0","","-33.9","","70","","","","31","","24","","12.9","","98.92","","","","-44","","Snow"
"-93.58","69.55","TALOYOAK A","2403855","2021-02-28 03:00","2021","02","28","03:00","-29.4","","-33.4","","69","","","","32","","23","","9.7","","98.95","","","","-43","","Snow,Blowing Snow"
"-93.58","69.55","TALOYOAK A","2403855","2021-02-28 04:00","2021","02","28","04:00","-29.6","","-33.3","","71","","","","1","","18","","9.7","","98.96","","","","-42","","Snow"
"-93.58","69.55","TALOYOAK A","2403855","2021-02-28 05:00","2021","02","28","05:00","-29.9","","-33.5","","71","","","","2","","15","","9.7","","99.00","","","","-41","","Snow"
"-93.58","69.55","TALOYOAK A","2403855","2021-02-28 06:00","2021","02","28","06:00","-29.5","","-33.2","","71","","","","2","","8","","9.7","","99.06","","","","-37","","Snow,Fog"
"-93.58","69.55","TALOYOAK A","2403855","2021-02-28 07:00","2021","02","28","07:00","-29.0","","-32.9","","70","","","","2","","7","","8.1","","99.11","","","","-36","","Snow,Fog"
"-93.58","69.55","TALOYOAK A","2403855","2021-02-28 08:00","2021","02","28","08:00","-28.8","","-32.3","","72","","","","1","","8","","4.8","","99.13","","","","-37","","Snow,Fog"
"-93.58","69.55","TALOYOAK A","2403855","2021-02-28 09:00","2021","02","28","09:00","-28.4","","-32.0","","72","","","","9","","7","","1.2","","99.17","","","","-35","","Snow Showers,Fog"
"-93.58","69.55","TALOYOAK A","2403855","2021-02-28 10:00","2021","02","28","10:00","-28.1","","-31.6","","72","","","","8","","4","","1.2","","99.21","","","","-32","","Snow Showers,Fog"
"-93.58","69.55","TALOYOAK A","2403855","2021-02-28 11:00","2021","02","28","11:00","-27.8","","-31.4","","72","","","","11","","6","","1.6","","99.21","","","","-34","","Snow Showers,Fog"
"-93.58","69.55","TALOYOAK A","2403855","2021-02-28 12:00","2021","02","28","12:00","-27.7","","-31.3","","72","","","","12","","8","","2.0","","99.29","","","","-35","","Snow Showers,Fog"
"-93.58","69.55","TALOYOAK A","2403855","2021-02-28 13:00","2021","02","28","13:00","-27.7","","-31.3","","72","","","","8","","4","","3.2","","99.38","","","","-32","","Snow Showers,Fog"
"-93.58","69.55","TALOYOAK A","2403855","2021-02-28 14:00","2021","02","28","14:00","-28.6","","-32.7","","69","","","","11","","19","","11.3","","99.44","","","","-41","","Snow"
"-93.58","69.55","TALOYOAK A","2403855","2021-02-28 15:00","2021","02","28","15:00","-29.7","","-33.8","","69","","","","15","","9","","11.3","","99.54","","","","-38","","Snow"
"-93.58","69.55","TALOYOAK A","2403855","2021-02-28 16:00","2021","02","28","16:00","-32.1","","-36.1","","69","","","","7","","18","","19.3","","99.64","","","","-45","","Snow"
"-93.58","69.55","TALOYOAK A","2403855","2021-02-28 17:00","2021","02","28","17:00","-32.8","","-36.6","","69","","","","7","","18","","20.9","","99.74","","","","-46","","Snow,Blowing Snow"
"-93.58","69.55","TALOYOAK A","2403855","2021-02-28 18:00","2021","02","28","18:00","-33.6","","-37.5","","68","","","","6","","17","","19.3","","99.83","","","","-47","","Ice Crystals,Blowing Snow"
"-93.58","69.55","TALOYOAK A","2403855","2021-02-28 19:00","2021","02","28","19:00","-34.1","","-37.9","","69","","","","6","","30","","24.1","","99.87","","","","-51","","Ice Crystals,Blowing Snow"
"-93.58","69.55","TALOYOAK A","2403855","2021-02-28 20:00","2021","02","28","20:00","-34.8","","-38.6","","69","","","","5","","21","","24.1","","99.98","","","","-49","","Ice Crystals,Blowing Snow"
"-93.58","69.55","TALOYOAK A","2403855","2021-02-28 21:00","2021","02","28","21:00","-35.2","","-39.1","","68","","","","5","","27","","9.7","","100.02","","","","-52","","Ice Crystals,Blowing Snow"
"-93.58","69.55","TALOYOAK A","2403855","2021-02-28 22:00","2021","02","28","22:00","-35.4","","-39.3","","68","","","","5","","33","","9.7","","100.12","","","","-53","","Ice Crystals,Blowing Snow"
"-93.58","69.55","TALOYOAK A","2403855","2021-02-28 23:00","2021","02","28","23:00","-35.8","","-39.7","","68","","","","6","","35","","9.7","","100.19","","","","-54","","Ice Crystals,Blowing Snow"
