"Longitude (x)","Latitude (y)","Station Name","Climate ID","Date/Time (LST)","Year","Month","Day","Time (LST)","Temp (°C)","Temp Flag","Dew Point Temp (°C)","Dew Point Temp Flag","Rel Hum (%)","Rel Hum Flag","Precip. Amount (mm)","Precip. Amount Flag","Wind Dir (10s deg)","Wind Dir Flag","Wind Spd (km/h)","Wind Spd Flag","Visibility (km)","Visibility Flag","Stn Press (kPa)","Stn Press Flag","Hmdx","Hmdx Flag","Wind Chill","Wind Chill Flag","Weather"
"-93.58","69.55","TALOYOAK A","2403855","2021-05-01 00:00","2021","05","01","00:00","-12.8","","-15.6","","80","","","","36","","12","","24.1","","101.79","","","","-19","","NA"
"-93.58","69.55","TALOYOAK A","2403855","2021-05-01 01:00","2021","05","01","01:00","-12.8","","-15.2","","83","","","","36","","13","","12.9","","101.74","","","","-20","","Snow"
"-93.58","69.55","TALOYOAK A","2403855","2021-05-01 02:00","2021","05","01","02:00","-12.4","","-14.7","","83","","","","35","","15","","12.9","","101.73","","","","-20","","Snow"
"-93.58","69.55","TALOYOAK A","2403855","2021-05-01 03:00","2021","05","01","03:00","-12.2","","-14.2","","85","","","","36","","13","","8.1","","101.70","","","","-19","","Snow Pellets"
"-93.58","69.55","TALOYOAK A","2403855","2021-05-01 04:00","2021","05","01","04:00","-12.2","","-14.2","","85","","","","35","","10","","9.7","","101.68","","","","-18","","Snow Pellets"
"-93.58","69.55","TALOYOAK A","2403855","2021-05-01 05:00","2021","05","01","05:00","-11.7","","-13.7","","85","","","","36","","14","","9.7","","101.67","","","","-19","","Snow Pellets"
"-93.58","69.55","TALOYOAK A","2403855","2021-05-01 06:00","2021","05","01","06:00","-11.1","","-13.4","","84","","","","36","","12","","16.1","","101.66","","","","-17","","Moderate Ice Pellets"
"-93.58","69.55","TALOYOAK A","2403855","2021-05-01 07:00","2021","05","01","07:00","-10.7","","-13.0","","83","","","","36","","11","","17.7","","101.65","","","","-16","","Snow"
"-93.58","69.55","TALOYOAK A","2403855","2021-05-01 08:00","2021","05","01","08:00","-9.6","","-12.0","","83","","","","34","","13","","12.9","","101.63","","","","-16","","Snow"
"-93.58","69.55","TALOYOAK A","2403855","2021-05-01 09:00","2021","05","01","09:00","-8.5","","-11.0","","82","","","","35","","14","","12.9","","101.64","","","","-15","","Snow"
"-93.58","69.55","TALOYOAK A","2403855","2021-05-01 10:00","2021","05","01","10:00","-7.7","","-10.0","","83","","","","34","","14","","11.3","","101.63","","","","-14","","Snow"
"-93.58","69.55","TALOYOAK A","2403855","2021-05-01 11:00","2021","05","01","11:00","-6.5","","-8.8","","84","","","","34","","13","","9.7","","101.63","","","","-12","","Snow"
"-93.58","69.55","TALOYOAK A","2403855","2021-05-01 12:00","2021","05","01","12:00","-5.9","","-8.2","","84","","","","35","","14","","12.9","","101.63","","","","-11","","Snow"
"-93.58","69.55","TALOYOAK A","2403855","2021-05-01 13:00","2021","05","01","13:00","-5.4","","-7.6","","85","","","","35","","14","","4.8","","101.66","","","","-11","","Snow"
"-93.58","69.55","TALOYOAK A","2403855","2021-05-01 14:00","2021","05","01","14:00","-4.7","","-6.8","","85","","","","36","","15","","4.8","","101.67","","","","-10","","Snow"
"-93.58","69.55","TALOYOAK A","2403855","2021-05-01 15:00","2021","05","01","15:00","-4.7","","-6.4","","88","","","","1","","16","","3.2","","101.68","","","","-10","","Snow"
"-93.58","69.55","TALOYOAK A","2403855","2021-05-01 16:00","2021","05","01","16:00","-4.7","","-6.0","","90","","","","1","","16","","3.2","","101.68","","","","-10","","Snow Pellets"
"-93.58","69.55","TALOYOAK A","2403855","2021-05-01 17:00","2021","05","01","17:00","-4.6","","-5.9","","91","","","","1","","17","","11.3","","101.68","","","","-10","","Snow Pellets"
"-93.58","69.55","TALOYOAK A","2403855","2021-05-01 18:00","2021","05","01","18:00","-4.7","","-5.8","","92","","","","2","","17","","3.2","","101.70","","","","-11","","Snow Pellets"
"-93.58","69.55","TALOYOAK A","2403855","2021-05-01 19:00","2021","05","01","19:00","-4.9","","-5.9","","92","","","","3","","15","","11.3","","101.72","","","","-10","","Snow Pellets"
"-93.58","69.55","TALOYOAK A","2403855","2021-05-01 20:00","2021","05","01","20:00","-5.0","","-6.1","","92","","","","3","","13","","11.3","","101.72","","","","-10","","Snow Pellets"
"-93.58","69.55","TALOYOAK A","2403855","2021-05-01 21:00","2021","05","01","21:00","-5.2","","-6.5","","91","","","","5","","21","","9.7","","101.71","","","","-12","","Snow Pellets"
"-93.58","69.55","TALOYOAK A","2403855","2021-05-01 22:00","2021","05","01","22:00","-5.5","","-6.6","","92","","","","2","","14","","9.7","","101.71","","","","-11","","Snow Pellets"
"-93.58","69.55","TALOYOAK A","2403855","2021-05-01 23:00","2021","05","01","23:00","-5.6","","-6.8","","91","","","","3","","14","","19.3","","101.71","","","","-11","","Snow"
"-93.58","69.55","TALOYOAK A","2403855","2021-05-02 00:00","2021","05","02","00:00","-5.5","","-6.8","","91","","","","4","","20","","19.3","","101.69","","","","-12","","Snow"
"-93.58","69.55","TALOYOAK A","2403855","2021-05-02 01:00","2021","05","02","01:00","-5.6","","-6.9","","90","","","","4","","16","","24.1","","101.73","","","","-12","","Snow"
"-93.58","69.55","TALOYOAK A","2403855","2021-05-02 02:00","2021","05","02","02:00","-5.5","","-6.9","","90","","","","3","","21","","24.1","","101.74","","","","-12","","Snow"
"-93.58","69.55","TALOYOAK A","2403855","2021-05-02 03:00","2021","05","02","03:00","-5.4","","-6.8","","90","","","","3","","18","","24.1","","101.77","","","","-12","","Snow"
"-93.58","69.55","TALOYOAK A","2403855","2021-05-02 04:00","2021","05","02","04:00"
"-93.58","69.55","TALOYOAK A","2403855","2021-05-02 05:00","2021","05","02","05:00","-5.1","","-6.4","","90","","","","2","","18","","24.1","","101.81","","","","-11","","Snow"
"-93.58","69.55","TALOYOAK A","2403855","2021-05-02 06:00","2021","05","02","06:00","-4.6","","-6.2","","89","","","","3","","17","","24.1","","101.84","","","","-10","","Snow"
"-93.58","69.55","TALOYOAK A","2403855","2021-05-02 07:00","2021","05","02","07:00","-3.8","","-5.5","","88","","","","3","","16","","24.1","","101.88","","","","-9","","NA"
"-93.58","69.55","TALOYOAK A","2403855","2021-05-02 08:00","2021","05","02","08:00","-3.2","","-5.1","","86","","","","3","","19","","12.9","","101.89","","","","-9","","Snow"
"-93.58","69.55","TALOYOAK A","2403855","2021-05-02 09:00","2021","05","02","09:00","-2.8","","-4.7","","87","","","","4","","23","","24.1","","101.90","","","","-9","","NA"
"-93.58","69.55","TALOYOAK A","2403855","2021-05-02 10:00","2021","05","02","10:00","-2.3","","-4.1","","88","","","","2","","18","","24.1","","101.94","","","","-8","","NA"
"-93.58","69.55","TALOYOAK A","2403855","2021-05-02 11:00","2021","05","02","11:00","-1.9","","-3.7","","87","","","","2","","17","","24.1","","101.96","","","","-7","","Cloudy"
"-93.58","69.55","TALOYOAK A","2403855","2021-05-02 12:00","2021","05","02","12:00","-1.2","","-3.3","","86","","","","4","","19","","24.1","","102.00","","","","-7","","Snow"
"-93.58","69.55","TALOYOAK A","2403855","2021-05-02 13:00","2021","05","02","13:00","-1.0","","-3.2","","85","","","","5","","27","","24.1","","102.02","","","","-7","","NA"
"-93.58","69.55","TALOYOAK A","2403855","2021-05-02 14:00","2021","05","02","14:00","-1.3","","-2.9","","89","","","","5","","19","","24.1","","102.07","","","","-7","","Cloudy"
"-93.58","69.55","TALOYOAK A","2403855","2021-05-02 15:00","2021","05","02","15:00","-1.6","","-2.8","","92","","","","4","","23","","6.4","","102.10","","","","-8","","Ice Pellets"
"-93.58","69.55","TALOYOAK A","2403855","2021-05-02 16:00","2021","05","02","16:00","-1.9","","-3.0","","92","","","","4","","26","","6.4","","102.13","","","","-8","","Ice Pellets"
"-93.58","69.55","TALOYOAK A","2403855","2021-05-02 17:00","2021","05","02","17:00","-1.8","","-2.7","","94","","","","4","","23","","12.9","","102.15","","","","-8","","Snow Pellets"
"-93.58","69.55","TALOYOAK A","2403855","2021-05-02 18:00","2021","05","02","18:00","-2.1","","-3.1","","93","","","","6","","21","","24.1","","102.17","","","","-8","","NA"
"-93.58","69.55","TALOYOAK A","2403855","2021-05-02 19:00","2021","05","02","19:00","-2.4","","-3.3","","93","","","","4","","16","","12.9","","102.20","","","","-8","","Snow Grains"
"-93.58","69.55","TALOYOAK A","2403855","2021-05-02 20:00","2021","05","02","20:00","-2.5","","-3.4","","94","","","","6","","28","","16.1","","102.16","","","","-10","","Snow Grains"
"-93.58","69.55","TALOYOAK A","2403855","2021-05-02 21:00","2021","05","02","21:00","-2.4","","-3.3","","93","","","","7","","29","","12.9","","102.19","","","","-9","","Snow"
"-93.58","69.55","TALOYOAK A","2403855","2021-05-02 22:00","2021","05","02","22:00","-2.4","","-3.4","","93","","","","7","","27","","12.9","","102.21","","","","-9","","Snow"
"-93.58","69.55","TALOYOAK A","2403855","2021-05-02 23:00","2021","05","02","23:00","-2.8","","-3.8","","93","","","","5","","28","","12.9","","102.24","","","","-10","","Snow"
"-93.58","69.55","TALOYOAK A","2403855","2021-05-03 00:00","2021","05","03","00:00","-2.9","","-3.9","","92","","","","4","","28","","12.9","","102.25","","","","-10","","Snow"
"-93.58","69.55","TALOYOAK A","2403855","2021-05-03 01:00","2021","05","03","01:00","-3.0","","-3.9","","93","","","","5","","29","","9.7","","102.25","","","","-10","","Snow"
"-93.58","69.55","TALOYOAK A","2403855","2021-05-03 02:00","2021","05","03","02:00","-2.9","","-3.8","","94","","","","5","","25","","8.1","","102.28","","","","-10","","Snow"
"-93.58","69.55","TALOYOAK A","2403855","2021-05-03 03:00","2021","05","03","03:00","-3.2","","-4.3","","93","","","","5","","25","","6.4","","102.32","","","","-10","","Snow,Fog"
"-93.58","69.55","TALOYOAK A","2403855","2021-05-03 04:00","2021","05","03","04:00","-3.2","","-4.1","","93","","","","4","","18","","6.4","","102.34","","","","-9","","Snow,Fog"
"-93.58","69.55","TALOYOAK A","2403855","2021-05-03 05:00","2021","05","03","05:00","-3.1","","-4.1","","93","","","","4","","16","","6.4","","102.35","","","","-8","","Snow,Fog"
"-93.58","69.55","TALOYOAK A","2403855","2021-05-03 06:00","2021","05","03","06:00","-2.8","","-3.9","","93","","","","3","","18","","3.2","","102.36","","","","-8","","Snow Showers"
"-93.58","69.55","TALOYOAK A","2403855","2021-05-03 07:00","2021","05","03","07:00","-2.1","","-3.4","","91","","","","3","","19","","9.7","","102.36","","","","-8","","Snow Showers"
"-93.58","69.55","TALOYOAK A","2403855","2021-05-03 08:00","2021","05","03","08:00","-2.0","","-3.4","","90","","","","5","","19","","6.4","","102.35","","","","-8","","Snow Showers"
"-93.58","69.55","TALOYOAK A","2403855","2021-05-03 09:00","2021","05","03","09:00","-1.6","","-3.0","","90","","","","3","","14","","4.8","","102.36","","","","-6","","Snow Showers"
"-93.58","69.55","TALOYOAK A","2403855","2021-05-03 10:00","2021","05","03","10:00","-1.5","","-2.9","","90","","","","6","","16","","4.8","","102.37","","","","-6","","Snow Showers"
"-93.58","69.55","TALOYOAK A","2403855","2021-05-03 11:00","2021","05","03","11:00","-1.1","","-2.8","","88","","","","6","","17","","4.8","","102.37","","","","-6","","Snow Showers"
"-93.58","69.55","TALOYOAK A","2403855","2021-05-03 12:00","2021","05","03","12:00","-1.4","","-2.9","","89","","","","5","","19","","4.8","","102.35","","","","-7","","Snow Pellets"
"-93.58","69.55","TALOYOAK A","2403855","2021-05-03 13:00","2021","05","03","13:00","-1.1","","-3.1","","86","","","","7","","16","","11.3","","102.35","","","","-6","","Snow Pellets"
"-93.58","69.55","TALOYOAK A","2403855","2021-05-03 14:00","2021","05","03","14:00","-1.2","","-3.3","","86","","","","7","","32","","24.1","","102.31","","","","-8","","Snow Showers"
"-93.58","69.55","TALOYOAK A","2403855","2021-05-03 15:00","2021","05","03","15:00","-1.6","","-3.4","","88","","","","7","","33","","24.1","","102.31","","","","-9","","Snow Showers"
"-93.58","69.55","TALOYOAK A","2403855","2021-05-03 16:00","2021","05","03","16:00","-2.1","","-3.6","","89","","","","8","","27","","24.1","","102.34","","","","-9","","Snow,Blowing Snow"
"-93.58","69.55","TALOYOAK A","2403855","2021-05-03 17:00","2021","05","03","17:00","-2.7","","-4.0","","91","","","","8","","27","","24.1","","102.34","","","","-10","","Snow Pellets,Blowing Snow"
"-93.58","69.55","TALOYOAK A","2403855","2021-05-03 18:00","2021","05","03","18:00","-2.4","","-3.7","","91","","","","5","","9","","24.1","","102.39","","","","-6","","NA"
"-93.58","69.55","TALOYOAK A","2403855","2021-05-03 19:00","2021","05","03","19:00","-3.2","","-4.2","","92","","","","36","","10","","24.1","","102.40","","","","-7","","NA"
"-93.58","69.55","TALOYOAK A","2403855","2021-05-03 20:00","2021","05","03","20:00","-4.4","","-5.3","","93","","","","1","","10","","24.1","","102.38","","","","-9","","Mostly Cloudy"
"-93.58","69.55","TALOYOAK A","2403855","2021-05-03 21:00","2021","05","03","21:00","-3.7","","-4.6","","93","","","","4","","9","","24.1","","102.39","","","","-7","","NA"
"-93.58","69.55","TALOYOAK A","2403855","2021-05-03 22:00","2021","05","03","22:00","-4.2","","-5.2","","93","","","","4","","12","","24.1","","102.35","","","","-9","","NA"
"-93.58","69.55","TALOYOAK A","2403855","2021-05-03 23:00","2021","05","03","23:00","-4.6","","-5.5","","93","","","","5","","26","","24.1","","102.30","","","","-12","","Mostly Cloudy"
"-93.58","69.55","TALOYOAK A","2403855","2021-05-04 00:00","2021","05","04","00:00","-5.0","","-5.9","","94","","","","4","","16","","24.1","","102.33","","","","-11","","NA"
"-93.58","69.55","TALOYOAK A","2403855","2021-05-04 01:00","2021","05","04","01:00","-4.4","","-5.5","","92","","","","6","","10","","24.1","","102.38","","","","-9","","NA"
"-93.58","69.55","TALOYOAK A","2403855","2021-05-04 02:00","2021","05","04","02:00","-4.6","","-5.6","","93","","","","7","","12","","24.1","","102.36","","","","-9","","Mostly Cloudy"
"-93.58","69.55","TALOYOAK A","2403855","2021-05-04 03:00","2021","05","04","03:00","-5.4","","-6.5","","92","","","","5","","10","","24.1","","102.39","","","","-10","","NA"
"-93.58","69.55","TALOYOAK A","2403855","2021-05-04 04:00","2021","05","04","04:00","-5.2","","-6.3","","92","","","","7","","11","","24.1","","102.40","","","","-10","","NA"
"-93.58","69.55","TALOYOAK A","2403855","2021-05-04 05:00","2021","05","04","05:00","-5.2","","-6.6","","90","","","","5","","7","","24.1","","102.40","","","","-8","","Cloudy"
"-93.58","69.55","TALOYOAK A","2403855","2021-05-04 06:00","2021","05","04","06:00","-5.0","","-6.3","","90","","","","5","","14","","24.1","","102.36","","","","-10","","NA"
"-93.58","69.55","TALOYOAK A","2403855","2021-05-04 07:00","2021","05","04","07:00","-4.6","","-6.1","","90","","","","7","","9","","24.1","","102.35","","","","-8","","NA"
"-93.58","69.55","TALOYOAK A","2403855","2021-05-04 08:00","2021","05","04","08:00","-4.0","","-5.7","","88","","","","4","","14","","24.1","","102.33","","","","-9","","Cloudy"
"-93.58","69.55","TALOYOAK A","2403855","2021-05-04 09:00","2021","05","04","09:00","-3.6","","-5.4","","87","","","","7","","12","","24.1","","102.34","","","","-8","","NA"
"-93.58","69.55","TALOYOAK A","2403855","2021-05-04 10:00","2021","05","04","10:00","-2.6","","-4.9","","85","","","","4","","10","","24.1","","102.32","","","","-6","","NA"
"-93.58","69.55","TALOYOAK A","2403855","2021-05-04 11:00","2021","05","04","11:00","-2.1","","-4.4","","84","","","","4","","13","","24.1","","102.31","","","","-7","","Cloudy"
"-93.58","69.55","TALOYOAK A","2403855","2021-05-04 12:00","2021","05","04","12:00","-1.4","","-4.0","","83","","","","4","","12","","24.1","","102.30","","","","-5","","NA"
"-93.58","69.55","TALOYOAK A","2403855","2021-05-04 13:00","2021","05","04","13:00","-1.6","","-4.0","","84","","","","3","","12","","24.1","","102.29","","","","-6","","NA"
"-93.58","69.55","TALOYOAK A","2403855","2021-05-04 14:00","2021","05","04","14:00","-1.9","","-4.1","","85","","","","2","","11","","24.1","","102.29","","","","-6","","Cloudy"
"-93.58","69.55","TALOYOAK A","2403855","2021-05-04 15:00","2021","05","04","15:00","-2.7","","-4.4","","88","","","","2","","8","","24.1","","102.29","","","","-6","","NA"
"-93.58","69.55","TALOYOAK A","2403855","2021-05-04 16:00","2021","05","04","16:00","-3.9","","-5.4","","89","","","","2","","7","","24.1","","102.28","","","","-7","","NA"
"-93.58","69.55","TALOYOAK A","2403855","2021-05-04 17:00","2021","05","04","17:00","-4.4","","-6.0","","89","","","","2","","7","","24.1","","102.26","","","","-8","","Mostly Cloudy"
"-93.58","69.55","TALOYOAK A","2403855","2021-05-04 18:00","2021","05","04","18:00","-5.7","","-7.0","","91","","","","2","","9","","24.1","","102.24","","","","-10","","NA"
"-93.58","69.55","TALOYOAK A","2403855","2021-05-04 19:00","2021","05","04","19:00","-5.7","","-7.0","","90","","","","2","","9","","24.1","","102.23","","","","-10","","NA"
"-93.58","69.55","TALOYOAK A","2403855","2021-05-04 20:00","2021","05","04","20:00","-6.0","","-7.0","","93","","","","2","","9","","24.1","","102.21","","","","-10","","Mostly Cloudy"
"-93.58","69.55","TALOYOAK A","2403855","2021-05-04 21:00","2021","05","04","21:00","-6.8","","-7.7","","94","","","","7","","8","","4.8","","102.21","","","","-11","","Fog"
"-93.58","69.55","TALOYOAK A","2403855","2021-05-04 22:00","2021","05","04","22:00","-7.0","","-8.0","","93","","","","9","","5","","0.6","","102.18","","","","-10","","Freezing Fog"
"-93.58","69.55","TALOYOAK A","2403855","2021-05-04 23:00","2021","05","04","23:00","-7.7","","-8.5","","93","","","","8","","8","","0.6","","102.19","","","","-12","","Freezing Fog"
"-93.58","69.55","TALOYOAK A","2403855","2021-05-05 00:00","2021","05","05","00:00","-7.9","","-8.9","","92","","","","7","","5","","0.6","","102.20","","","","-11","","Freezing Fog"
"-93.58","69.55","TALOYOAK A","2403855","2021-05-05 01:00","2021","05","05","01:00","-8.3","","-9.4","","92","","","","36","","1","","0.6","","102.22","","","","-9","","Freezing Fog"
"-93.58","69.55","TALOYOAK A","2403855","2021-05-05 02:00","2021","05","05","02:00","-7.9","","-8.9","","92","","","","35","","7","","0.6","","102.22","","","","-12","","Freezing Fog"
"-93.58","69.55","TALOYOAK A","2403855","2021-05-05 03:00","2021","05","05","03:00","-7.8","","-8.8","","92","","","","35","","10","","0.4","","102.22","","","","-13","","Freezing Fog"
"-93.58","69.55","TALOYOAK A","2403855","2021-05-05 04:00","2021","05","05","04:00","-7.5","","-8.5","","92","","","","3","","9","","0.6","","102.21","","","","-12","","Freezing Fog"
"-93.58","69.55","TALOYOAK A","2403855","2021-05-05 05:00","2021","05","05","05:00","-8.5","","-9.6","","91","","","","4","","13","","6.4","","102.22","","","","-14","","Fog"
"-93.58","69.55","TALOYOAK A","2403855","2021-05-05 06:00","2021","05","05","06:00","-8.1","","-9.2","","92","","","","3","","10","","2.4","","102.21","","","","-13","","Fog"
"-93.58","69.55","TALOYOAK A","2403855","2021-05-05 07:00","2021","05","05","07:00","-7.8","","-8.9","","92","","","","3","","6","","0.4","","102.21","","","","-11","","Freezing Fog"
"-93.58","69.55","TALOYOAK A","2403855","2021-05-05 08:00","2021","05","05","08:00","-7.7","","-8.8","","92","","","","35","","8","","0.6","","102.22","","","","-12","","Freezing Fog"
"-93.58","69.55","TALOYOAK A","2403855","2021-05-05 09:00","2021","05","05","09:00","-7.2","","-8.3","","92","","","","1","","8","","0.4","","102.22","","","","-11","","Freezing Fog"
"-93.58","69.55","TALOYOAK A","2403855","2021-05-05 10:00","2021","05","05","10:00","-7.1","","-8.2","","92","","","","4","","7","","4.8","","102.21","","","","-11","","Fog"
"-93.58","69.55","TALOYOAK A","2403855","2021-05-05 11:00","2021","05","05","11:00","-6.5","","-7.5","","93","","","","3","","7","","3.2","","102.21","","","","-10","","Fog"
"-93.58","69.55","TALOYOAK A","2403855","2021-05-05 12:00","2021","05","05","12:00","-6.1","","-7.0","","93","","","","2","","3","","8.1","","102.22","","","","-8","","Fog"
"-93.58","69.55","TALOYOAK A","2403855","2021-05-05 13:00","2021","05","05","13:00","-6.4","","-7.5","","92","","","","36","","1","","12.9","","102.23","","","","-7","","NA"
"-93.58","69.55","TALOYOAK A","2403855","2021-05-05 14:00","2021","05","05","14:00","-5.8","","-6.8","","93","","","","36","","1","","24.1","","102.25","","","","-6","","Mainly Clear"
"-93.58","69.55","TALOYOAK A","2403855","2021-05-05 15:00","2021","05","05","15:00","-5.8","","-6.8","","93","","","","36","","1","","24.1","","102.23","","","","-6","","NA"
"-93.58","69.55","TALOYOAK A","2403855","2021-05-05 16:00","2021","05","05","16:00","-6.0","","-6.9","","93","","","","34","","3","","24.1","","102.24","","","","-7","","NA"
"-93.58","69.55","TALOYOAK A","2403855","2021-05-05 17:00","2021","05","05","17:00","-6.4","","-7.3","","93","","","","26","","5","","24.1","","102.24","","","","-9","","Mainly Clear"
"-93.58","69.55","TALOYOAK A","2403855","2021-05-05 18:00","2021","05","05","18:00","-7.0","","-8.0","","93","","","","29","","3","","24.1","","102.21","","","","-9","","NA"
"-93.58","69.55","TALOYOAK A","2403855","2021-05-05 19:00","2021","05","05","19:00","-8.4","","-9.6","","91","","","","36","","2","","1.0","","102.20","","","","-9","","Fog"
"-93.58","69.55","TALOYOAK A","2403855","2021-05-05 20:00","2021","05","05","20:00","-8.5","","-9.7","","91","","","","36","","2","","1.2","","102.20","","","","-10","","Fog"
"-93.58","69.55","TALOYOAK A","2403855","2021-05-05 21:00","2021","05","05","21:00","-8.4","","-9.5","","92","","","","36","","3","","1.2","","102.19","","","","-10","","Fog"
"-93.58","69.55","TALOYOAK A","2403855","2021-05-05 22:00","2021","05","05","22:00","-8.2","","-9.3","","92","","","","36","","1","","16.1","","102.19","","","","-9","","NA"
"-93.58","69.55","TALOYOAK A","2403855","2021-05-05 23:00","2021","05","05","23:00","-8.1","","-9.2","","92","","","","36","","1","","14.5","","102.20","","","","-9","","Mostly Cloudy"
"-93.58","69.55","TALOYOAK A","2403855","2021-05-06 00:00","2021","05","06","00:00","-8.4","","-9.5","","92","","","","16","","4","","24.1","","102.20","","","","-11","","NA"
"-93.58","69.55","TALOYOAK A","2403855","2021-05-06 01:00","2021","05","06","01:00","-8.0","","-9.1","","92","","","","14","","3","","16.1","","102.21","","","","-10","","NA"
"-93.58","69.55","TALOYOAK A","2403855","2021-05-06 02:00","2021","05","06","02:00","-9.0","","-10.2","","91","","","","35","","6","","8.1","","102.23","","","","-12","","Fog"
"-93.58","69.55","TALOYOAK A","2403855","2021-05-06 03:00","2021","05","06","03:00","-7.9","","-8.9","","92","","","","36","","3","","24.1","","102.22","","","","-9","","NA"
"-93.58","69.55","TALOYOAK A","2403855","2021-05-06 04:00","2021","05","06","04:00","-7.2","","-8.2","","93","","","","36","","3","","24.1","","102.24","","","","-9","","NA"
"-93.58","69.55","TALOYOAK A","2403855","2021-05-06 05:00","2021","05","06","05:00","-7.4","","-8.4","","93","","","","36","","2","","24.1","","102.25","","","","-8","","Mostly Cloudy"
"-93.58","69.55","TALOYOAK A","2403855","2021-05-06 06:00","2021","05","06","06:00","-7.2","","-8.2","","93","","","","36","","1","","24.1","","102.26","","","","-8","","NA"
"-93.58","69.55","TALOYOAK A","2403855","2021-05-06 07:00","2021","05","06","07:00","-7.2","","-8.2","","93","","","","20","","4","","24.1","","102.27","","","","-9","","NA"
"-93.58","69.55","TALOYOAK A","2403855","2021-05-06 08:00","2021","05","06","08:00","-6.7","","-7.7","","93","","","","21","","5","","24.1","","102.28","","","","-9","","Cloudy"
"-93.58","69.55","TALOYOAK A","2403855","2021-05-06 09:00","2021","05","06","09:00","-6.0","","-7.0","","93","","","","17","","7","","24.1","","102.28","","","","-9","","NA"
"-93.58","69.55","TALOYOAK A","2403855","2021-05-06 10:00","2021","05","06","10:00","-5.0","","-5.8","","94","","","","19","","8","","24.1","","102.29","","","","-9","","NA"
"-93.58","69.55","TALOYOAK A","2403855","2021-05-06 11:00","2021","05","06","11:00","-4.3","","-5.1","","95","","","","18","","10","","24.1","","102.30","","","","-8","","Cloudy"
"-93.58","69.55","TALOYOAK A","2403855","2021-05-06 12:00","2021","05","06","12:00","-3.8","","-4.5","","95","","","","18","","11","","24.1","","102.31","","","","-8","","NA"
"-93.58","69.55","TALOYOAK A","2403855","2021-05-06 13:00","2021","05","06","13:00","-3.4","","-4.1","","94","","","","18","","13","","24.1","","102.31","","","","-8","","NA"
"-93.58","69.55","TALOYOAK A","2403855","2021-05-06 14:00","2021","05","06","14:00","-2.8","","-4.0","","91","","","","19","","12","","24.1","","102.33","","","","-7","","Cloudy"
"-93.58","69.55","TALOYOAK A","2403855","2021-05-06 15:00","2021","05","06","15:00","-2.4","","-4.0","","88","","","","18","","11","","24.1","","102.33","","","","-6","","NA"
"-93.58","69.55","TALOYOAK A","2403855","2021-05-06 16:00","2021","05","06","16:00","-2.2","","-3.9","","88","","","","16","","7","","24.1","","102.32","","","","-5","","NA"
"-93.58","69.55","TALOYOAK A","2403855","2021-05-06 17:00","2021","05","06","17:00","-2.1","","-3.5","","90","","","","22","","3","","24.1","","102.34","","","","-3","","Cloudy"
"-93.58","69.55","TALOYOAK A","2403855","2021-05-06 18:00","2021","05","06","18:00","-1.4","","-2.4","","93","","","","31","","14","","24.1","","102.32","","","","-6","","NA"
"-93.58","69.55","TALOYOAK A","2403855","2021-05-06 19:00","2021","05","06","19:00","-1.6","","-2.8","","92","","","","28","","7","","24.1","","102.34","","","","-4","","NA"
"-93.58","69.55","TALOYOAK A","2403855","2021-05-06 20:00","2021","05","06","20:00","-2.2","","-3.3","","92","","","","31","","11","","24.1","","102.34","","","","-6","","Mostly Cloudy"
"-93.58","69.55","TALOYOAK A","2403855","2021-05-06 21:00","2021","05","06","21:00","-2.9","","-3.8","","94","","","","30","","10","","24.1","","102.34","","","","-7","","NA"
"-93.58","69.55","TALOYOAK A","2403855","2021-05-06 22:00","2021","05","06","22:00","-4.5","","-5.3","","94","","","","32","","16","","24.1","","102.36","","","","-10","","NA"
"-93.58","69.55","TALOYOAK A","2403855","2021-05-06 23:00","2021","05","06","23:00","-5.6","","-6.2","","95","","","","31","","20","","19.3","","102.37","","","","-12","","Mostly Cloudy"
"-93.58","69.55","TALOYOAK A","2403855","2021-05-07 00:00","2021","05","07","00:00","-5.6","","-6.4","","95","","","","31","","14","","12.9","","102.38","","","","-11","","NA"
"-93.58","69.55","TALOYOAK A","2403855","2021-05-07 01:00","2021","05","07","01:00"
"-93.58","69.55","TALOYOAK A","2403855","2021-05-07 02:00","2021","05","07","02:00"
"-93.58","69.55","TALOYOAK A","2403855","2021-05-07 03:00","2021","05","07","03:00","-7.2","","-8.2","","93","","","","27","","14","","1.6","","102.45","","","","-13","","Fog"
"-93.58","69.55","TALOYOAK A","2403855","2021-05-07 04:00","2021","05","07","04:00","-7.4","","-8.4","","93","","","","26","","15","","6.4","","102.46","","","","-14","","Fog"
"-93.58","69.55","TALOYOAK A","2403855","2021-05-07 05:00","2021","05","07","05:00","-7.1","","-8.0","","93","","","","25","","19","","6.4","","102.46","","","","-14","","Fog"
"-93.58","69.55","TALOYOAK A","2403855","2021-05-07 06:00","2021","05","07","06:00","-6.2","","-7.0","","94","","","","24","","11","","9.7","","102.45","","","","-11","","Fog"
"-93.58","69.55","TALOYOAK A","2403855","2021-05-07 07:00","2021","05","07","07:00","-5.6","","-6.4","","94","","","","26","","20","","19.3","","102.43","","","","-12","","NA"
"-93.58","69.55","TALOYOAK A","2403855","2021-05-07 08:00","2021","05","07","08:00","-5.1","","-5.9","","94","","","","26","","27","","24.1","","102.41","","","","-13","","Cloudy"
"-93.58","69.55","TALOYOAK A","2403855","2021-05-07 09:00","2021","05","07","09:00","-4.5","","-5.3","","94","","","","26","","27","","24.1","","102.40","","","","-12","","NA"
"-93.58","69.55","TALOYOAK A","2403855","2021-05-07 10:00","2021","05","07","10:00","-4.4","","-5.2","","94","","","","26","","27","","24.1","","102.39","","","","-12","","NA"
"-93.58","69.55","TALOYOAK A","2403855","2021-05-07 11:00","2021","05","07","11:00","-4.2","","-6.0","","88","","","","27","","29","","24.1","","102.39","","","","-12","","Cloudy"
"-93.58","69.55","TALOYOAK A","2403855","2021-05-07 12:00","2021","05","07","12:00","-3.9","","-6.0","","86","","","","28","","25","","24.1","","102.41","","","","-11","","NA"
"-93.58","69.55","TALOYOAK A","2403855","2021-05-07 13:00","2021","05","07","13:00","-3.7","","-6.0","","84","","","","30","","17","","24.1","","102.41","","","","-9","","NA"
"-93.58","69.55","TALOYOAK A","2403855","2021-05-07 14:00","2021","05","07","14:00","-3.8","","-6.5","","82","","","","30","","20","","24.1","","102.43","","","","-10","","Cloudy"
"-93.58","69.55","TALOYOAK A","2403855","2021-05-07 15:00","2021","05","07","15:00","-4.0","","-6.8","","81","","","","31","","24","","24.1","","102.42","","","","-11","","NA"
"-93.58","69.55","TALOYOAK A","2403855","2021-05-07 16:00","2021","05","07","16:00","-4.2","","-6.8","","82","","","","32","","21","","24.1","","102.43","","","","-11","","NA"
"-93.58","69.55","TALOYOAK A","2403855","2021-05-07 17:00","2021","05","07","17:00","-4.5","","-6.7","","85","","","","31","","16","","24.1","","102.44","","","","-10","","Cloudy"
"-93.58","69.55","TALOYOAK A","2403855","2021-05-07 18:00","2021","05","07","18:00","-4.8","","-6.7","","86","","","","31","","19","","24.1","","102.43","","","","-11","","NA"
"-93.58","69.55","TALOYOAK A","2403855","2021-05-07 19:00","2021","05","07","19:00","-5.0","","-6.6","","88","","","","28","","12","","24.1","","102.44","","","","-10","","NA"
"-93.58","69.55","TALOYOAK A","2403855","2021-05-07 20:00","2021","05","07","20:00","-5.3","","-7.1","","87","","","","32","","18","","24.1","","102.42","","","","-12","","Cloudy"
"-93.58","69.55","TALOYOAK A","2403855","2021-05-07 21:00","2021","05","07","21:00","-5.7","","-7.4","","88","","","","33","","16","","24.1","","102.45","","","","-12","","NA"
"-93.58","69.55","TALOYOAK A","2403855","2021-05-07 22:00","2021","05","07","22:00","-5.9","","-7.7","","87","","","","31","","15","","24.1","","102.46","","","","-12","","NA"
"-93.58","69.55","TALOYOAK A","2403855","2021-05-07 23:00","2021","05","07","23:00","-6.0","","-7.9","","86","","","","29","","10","","24.1","","102.48","","","","-10","","Snow"
"-93.58","69.55","TALOYOAK A","2403855","2021-05-08 00:00","2021","05","08","00:00","-6.1","","-8.0","","87","","","","32","","18","","24.1","","102.48","","","","-13","","Snow"
"-93.58","69.55","TALOYOAK A","2403855","2021-05-08 01:00","2021","05","08","01:00","-6.2","","-7.8","","88","","","","30","","11","","24.1","","102.51","","","","-11","","Snow"
"-93.58","69.55","TALOYOAK A","2403855","2021-05-08 02:00","2021","05","08","02:00","-6.2","","-8.0","","87","","","","31","","15","","24.1","","102.52","","","","-12","","Snow"
"-93.58","69.55","TALOYOAK A","2403855","2021-05-08 03:00","2021","05","08","03:00","-6.3","","-8.5","","85","","","","30","","5","","24.1","","102.56","","","","-9","","Snow"
"-93.58","69.55","TALOYOAK A","2403855","2021-05-08 04:00","2021","05","08","04:00","-6.7","","-8.7","","86","","","","32","","13","","24.1","","102.57","","","","-12","","Snow"
"-93.58","69.55","TALOYOAK A","2403855","2021-05-08 05:00","2021","05","08","05:00","-7.3","","-9.3","","85","","","","33","","13","","24.1","","102.59","","","","-13","","Snow"
"-93.58","69.55","TALOYOAK A","2403855","2021-05-08 06:00","2021","05","08","06:00","-6.9","","-9.2","","84","","","","32","","17","","24.1","","102.61","","","","-13","","NA"
"-93.58","69.55","TALOYOAK A","2403855","2021-05-08 07:00","2021","05","08","07:00","-8.0","","-10.2","","85","","","","35","","12","","24.1","","102.62","","","","-13","","NA"
"-93.58","69.55","TALOYOAK A","2403855","2021-05-08 08:00","2021","05","08","08:00","-7.6","","-10.1","","82","","","","1","","11","","24.1","","102.62","","","","-13","","Mostly Cloudy"
"-93.58","69.55","TALOYOAK A","2403855","2021-05-08 09:00","2021","05","08","09:00","-6.9","","-9.9","","79","","","","3","","8","","24.1","","102.64","","","","-11","","NA"
"-93.58","69.55","TALOYOAK A","2403855","2021-05-08 10:00","2021","05","08","10:00","-6.2","","-9.1","","80","","","","36","","5","","24.1","","102.64","","","","-9","","NA"
"-93.58","69.55","TALOYOAK A","2403855","2021-05-08 11:00","2021","05","08","11:00","-4.8","","-9.2","","72","","","","19","","4","","24.1","","102.66","","","","-7","","Mainly Clear"
"-93.58","69.55","TALOYOAK A","2403855","2021-05-08 12:00","2021","05","08","12:00","-4.8","","-8.0","","78","","","","21","","7","","24.1","","102.69","","","","-8","","NA"
"-93.58","69.55","TALOYOAK A","2403855","2021-05-08 13:00","2021","05","08","13:00","-4.7","","-7.9","","78","","","","25","","4","","24.1","","102.70","","","","-6","","NA"
"-93.58","69.55","TALOYOAK A","2403855","2021-05-08 14:00","2021","05","08","14:00","-4.5","","-7.9","","77","","","","24","","4","","24.1","","102.71","","","","-6","","Mostly Cloudy"
"-93.58","69.55","TALOYOAK A","2403855","2021-05-08 15:00","2021","05","08","15:00","-4.5","","-7.7","","78","","","","22","","4","","24.1","","102.71","","","","-6","","NA"
"-93.58","69.55","TALOYOAK A","2403855","2021-05-08 16:00","2021","05","08","16:00","-4.7","","-7.7","","79","","","","23","","4","","24.1","","102.69","","","","-6","","NA"
"-93.58","69.55","TALOYOAK A","2403855","2021-05-08 17:00","2021","05","08","17:00","-4.7","","-8.1","","78","","","","36","","2","","24.1","","102.67","","","","-6","","Mainly Clear"
"-93.58","69.55","TALOYOAK A","2403855","2021-05-08 18:00","2021","05","08","18:00","-6.2","","-8.5","","84","","","","11","","7","","24.1","","102.66","","","","-10","","NA"
"-93.58","69.55","TALOYOAK A","2403855","2021-05-08 19:00","2021","05","08","19:00","-7.7","","-9.8","","85","","","","12","","12","","24.1","","102.64","","","","-13","","NA"
"-93.58","69.55","TALOYOAK A","2403855","2021-05-08 20:00","2021","05","08","20:00","-7.3","","-9.4","","85","","","","14","","10","","24.1","","102.62","","","","-12","","Mostly Cloudy"
"-93.58","69.55","TALOYOAK A","2403855","2021-05-08 21:00","2021","05","08","21:00","-6.5","","-8.4","","86","","","","14","","13","","24.1","","102.60","","","","-12","","NA"
"-93.58","69.55","TALOYOAK A","2403855","2021-05-08 22:00","2021","05","08","22:00","-6.5","","-8.7","","85","","","","14","","14","","24.1","","102.57","","","","-12","","NA"
"-93.58","69.55","TALOYOAK A","2403855","2021-05-08 23:00","2021","05","08","23:00","-6.7","","-8.6","","86","","","","12","","18","","24.1","","102.52","","","","-13","","Cloudy"
"-93.58","69.55","TALOYOAK A","2403855","2021-05-09 00:00","2021","05","09","00:00","-6.8","","-8.6","","87","","","","11","","18","","24.1","","102.47","","","","-13","","NA"
"-93.58","69.55","TALOYOAK A","2403855","2021-05-09 01:00","2021","05","09","01:00","-7.0","","-8.6","","88","","","","11","","25","","24.1","","102.41","","","","-15","","NA"
"-93.58","69.55","TALOYOAK A","2403855","2021-05-09 02:00","2021","05","09","02:00","-7.1","","-8.5","","89","","","","10","","21","","6.4","","102.36","","","","-14","","Fog"
"-93.58","69.55","TALOYOAK A","2403855","2021-05-09 03:00","2021","05","09","03:00","-6.9","","-8.5","","89","","","","11","","26","","6.4","","102.30","","","","-15","","Fog"
"-93.58","69.55","TALOYOAK A","2403855","2021-05-09 04:00","2021","05","09","04:00","-6.8","","-8.6","","87","","","","11","","27","","6.4","","102.25","","","","-15","","Fog"
"-93.58","69.55","TALOYOAK A","2403855","2021-05-09 05:00","2021","05","09","05:00","-6.5","","-8.1","","88","","","","10","","27","","3.2","","102.16","","","","-15","","Snow Showers,Blowing Snow"
"-93.58","69.55","TALOYOAK A","2403855","2021-05-09 06:00","2021","05","09","06:00","-6.4","","-8.1","","88","","","","10","","30","","3.2","","102.10","","","","-15","","Snow Showers,Blowing Snow"
"-93.58","69.55","TALOYOAK A","2403855","2021-05-09 07:00","2021","05","09","07:00","-6.2","","-8.2","","86","","","","10","","33","","6.4","","102.03","","","","-15","","Snow,Blowing Snow"
"-93.58","69.55","TALOYOAK A","2403855","2021-05-09 08:00","2021","05","09","08:00","-6.4","","-8.4","","85","","","","10","","35","","6.4","","101.99","","","","-15","","Snow,Blowing Snow"
"-93.58","69.55","TALOYOAK A","2403855","2021-05-09 09:00","2021","05","09","09:00","-5.9","","-8.1","","85","","","","9","","33","","4.8","","101.94","","","","-15","","Snow,Blowing Snow"
"-93.58","69.55","TALOYOAK A","2403855","2021-05-09 10:00","2021","05","09","10:00","-5.8","","-8.0","","84","","","","9","","38","","4.8","","101.87","","","","-15","","Snow,Blowing Snow"
"-93.58","69.55","TALOYOAK A","2403855","2021-05-09 11:00","2021","05","09","11:00","-5.8","","-7.9","","85","","","","8","","39","","12.9","","101.82","","","","-15","","Snow,Blowing Snow"
"-93.58","69.55","TALOYOAK A","2403855","2021-05-09 12:00","2021","05","09","12:00","-5.6","","-7.7","","85","","","","8","","36","","16.1","","101.77","","","","-14","","Snow,Blowing Snow"
"-93.58","69.55","TALOYOAK A","2403855","2021-05-09 13:00","2021","05","09","13:00","-5.8","","-8.0","","85","","","","9","","49","","12.9","","101.69","","","","-16","","Snow,Blowing Snow"
"-93.58","69.55","TALOYOAK A","2403855","2021-05-09 14:00","2021","05","09","14:00","-5.8","","-7.8","","86","","","","9","","47","","12.9","","101.67","","","","-16","","Snow,Blowing Snow"
"-93.58","69.55","TALOYOAK A","2403855","2021-05-09 15:00","2021","05","09","15:00","-6.1","","-8.0","","86","","","","8","","46","","9.7","","101.64","","","","-16","","Snow,Blowing Snow"
"-93.58","69.55","TALOYOAK A","2403855","2021-05-09 16:00","2021","05","09","16:00","-6.3","","-8.2","","87","","","","8","","42","","9.7","","101.63","","","","-16","","Snow,Blowing Snow"
"-93.58","69.55","TALOYOAK A","2403855","2021-05-09 17:00","2021","05","09","17:00","-6.6","","-8.6","","86","","","","8","","43","","16.1","","101.61","","","","-17","","Snow,Blowing Snow"
"-93.58","69.55","TALOYOAK A","2403855","2021-05-09 18:00","2021","05","09","18:00","-6.9","","-8.8","","86","","","","7","","39","","16.1","","101.57","","","","-17","","Snow,Blowing Snow"
"-93.58","69.55","TALOYOAK A","2403855","2021-05-09 19:00","2021","05","09","19:00","-7.4","","-9.3","","86","","","","7","","37","","24.1","","101.58","","","","-17","","Snow,Blowing Snow"
"-93.58","69.55","TALOYOAK A","2403855","2021-05-09 20:00","2021","05","09","20:00","-7.8","","-9.7","","86","","","","7","","32","","24.1","","101.53","","","","-17","","Snow,Blowing Snow"
"-93.58","69.55","TALOYOAK A","2403855","2021-05-09 21:00","2021","05","09","21:00","-8.5","","-10.2","","88","","","","7","","29","","19.3","","101.52","","","","-17","","Snow,Blowing Snow"
"-93.58","69.55","TALOYOAK A","2403855","2021-05-09 22:00","2021","05","09","22:00","-9.2","","-11.0","","87","","","","7","","38","","12.9","","101.45","","","","-19","","Blowing Snow"
"-93.58","69.55","TALOYOAK A","2403855","2021-05-09 23:00","2021","05","09","23:00"
"-93.58","69.55","TALOYOAK A","2403855","2021-05-10 00:00","2021","05","10","00:00"
"-93.58","69.55","TALOYOAK A","2403855","2021-05-10 01:00","2021","05","10","01:00"
"-93.58","69.55","TALOYOAK A","2403855","2021-05-10 02:00","2021","05","10","02:00"
"-93.58","69.55","TALOYOAK A","2403855","2021-05-10 03:00","2021","05","10","03:00"
"-93.58","69.55","TALOYOAK A","2403855","2021-05-10 04:00","2021","05","10","04:00","-11.2","","-13.1","","86","","","","6","","39","","1.2","","101.23","","","","-22","","Snow,Blowing Snow"
"-93.58","69.55","TALOYOAK A","2403855","2021-05-10 05:00","2021","05","10","05:00","-10.9","","-13.1","","84","","","","5","","36","","12.9","","101.25","","","","-21","","Snow,Blowing Snow"
"-93.58","69.55","TALOYOAK A","2403855","2021-05-10 06:00","2021","05","10","06:00","-10.7","","-13.2","","82","","","","6","","40","","16.1","","101.22","","","","-22","","Snow,Blowing Snow"
"-93.58","69.55","TALOYOAK A","2403855","2021-05-10 07:00","2021","05","10","07:00","-10.0","","-12.3","","83","","","","6","","37","","16.1","","101.18","","","","-20","","Snow,Blowing Snow"
"-93.58","69.55","TALOYOAK A","2403855","2021-05-10 08:00","2021","05","10","08:00","-9.8","","-11.9","","85","","","","6","","35","","1.6","","101.16","","","","-20","","Snow,Blowing Snow"
"-93.58","69.55","TALOYOAK A","2403855","2021-05-10 09:00","2021","05","10","09:00","-9.6","","-11.8","","84","","","","7","","39","","6.4","","101.13","","","","-20","","Snow,Blowing Snow"
"-93.58","69.55","TALOYOAK A","2403855","2021-05-10 10:00","2021","05","10","10:00","-9.2","","-11.4","","84","","","","6","","38","","4.8","","101.11","","","","-19","","Snow,Blowing Snow"
"-93.58","69.55","TALOYOAK A","2403855","2021-05-10 11:00","2021","05","10","11:00","-9.1","","-11.0","","86","","","","6","","40","","0.6","","101.02","","","","-20","","Snow,Blowing Snow"
"-93.58","69.55","TALOYOAK A","2403855","2021-05-10 12:00","2021","05","10","12:00","-8.9","","-10.9","","86","","","","6","","37","","0.6","","101.01","","","","-19","","Snow,Blowing Snow"
"-93.58","69.55","TALOYOAK A","2403855","2021-05-10 13:00","2021","05","10","13:00","-8.8","","-10.9","","85","","","","6","","40","","1.0","","100.98","","","","-19","","Snow,Blowing Snow"
"-93.58","69.55","TALOYOAK A","2403855","2021-05-10 14:00","2021","05","10","14:00","-8.8","","-10.7","","86","","","","7","","43","","1.2","","100.97","","","","-19","","Snow,Blowing Snow"
"-93.58","69.55","TALOYOAK A","2403855","2021-05-10 15:00","2021","05","10","15:00","-8.8","","-10.6","","87","","","","7","","44","","0.8","","100.92","","","","-20","","Snow,Blowing Snow"
"-93.58","69.55","TALOYOAK A","2403855","2021-05-10 16:00","2021","05","10","16:00","-8.8","","-10.6","","87","","","","7","","45","","0.6","","100.90","","","","-20","","Snow,Blowing Snow"
"-93.58","69.55","TALOYOAK A","2403855","2021-05-10 17:00","2021","05","10","17:00","-9.1","","-10.9","","87","","","","7","","43","","1.0","","100.88","","","","-20","","Snow,Blowing Snow"
"-93.58","69.55","TALOYOAK A","2403855","2021-05-10 18:00","2021","05","10","18:00","-9.0","","-10.8","","87","","","","6","","34","","2.4","","100.95","","","","-19","","Snow,Blowing Snow"
"-93.58","69.55","TALOYOAK A","2403855","2021-05-10 19:00","2021","05","10","19:00","-8.9","","-10.6","","88","","","","5","","36","","1.0","","100.95","","","","-19","","Snow,Blowing Snow"
"-93.58","69.55","TALOYOAK A","2403855","2021-05-10 20:00","2021","05","10","20:00","-9.2","","-10.9","","88","","","","4","","35","","1.2","","100.96","","","","-19","","Snow,Blowing Snow"
"-93.58","69.55","TALOYOAK A","2403855","2021-05-10 21:00","2021","05","10","21:00","-10.2","","-12.0","","87","","","","4","","41","","1.0","","100.95","","","","-21","","Snow,Blowing Snow"
"-93.58","69.55","TALOYOAK A","2403855","2021-05-10 22:00","2021","05","10","22:00","-10.1","","-11.8","","87","","","","3","","37","","1.2","","100.97","","","","-21","","Snow,Blowing Snow"
"-93.58","69.55","TALOYOAK A","2403855","2021-05-10 23:00","2021","05","10","23:00","-10.1","","-11.9","","87","","","","2","","27","","4.8","","101.00","","","","-19","","Snow,Blowing Snow"
"-93.58","69.55","TALOYOAK A","2403855","2021-05-11 00:00","2021","05","11","00:00","-10.7","","-12.6","","86","","","","3","","30","","16.1","","101.00","","","","-20","","Snow"
"-93.58","69.55","TALOYOAK A","2403855","2021-05-11 01:00","2021","05","11","01:00","-10.9","","-13.0","","84","","","","2","","34","","24.1","","101.02","","","","-21","","Snow"
"-93.58","69.55","TALOYOAK A","2403855","2021-05-11 02:00","2021","05","11","02:00"
"-93.58","69.55","TALOYOAK A","2403855","2021-05-11 03:00","2021","05","11","03:00","-14.2","","-16.7","","82","","","","36","","19","","24.1","","101.08","","","","-23","","NA"
"-93.58","69.55","TALOYOAK A","2403855","2021-05-11 04:00","2021","05","11","04:00","-14.9","","-17.3","","82","","","","36","","17","","24.1","","101.11","","","","-23","","NA"
"-93.58","69.55","TALOYOAK A","2403855","2021-05-11 05:00","2021","05","11","05:00","-13.8","","-16.5","","80","","","","34","","13","","24.1","","101.15","","","","-21","","Mainly Clear"
"-93.58","69.55","TALOYOAK A","2403855","2021-05-11 06:00","2021","05","11","06:00","-12.5","","-15.8","","77","","","","34","","17","","24.1","","101.18","","","","-20","","NA"
"-93.58","69.55","TALOYOAK A","2403855","2021-05-11 07:00","2021","05","11","07:00","-11.4","","-14.6","","77","","","","35","","21","","24.1","","101.21","","","","-20","","NA"
"-93.58","69.55","TALOYOAK A","2403855","2021-05-11 08:00","2021","05","11","08:00","-10.4","","-13.8","","76","","","","1","","15","","24.1","","101.27","","","","-17","","Clear"
"-93.58","69.55","TALOYOAK A","2403855","2021-05-11 09:00","2021","05","11","09:00","-9.2","","-13.1","","74","","","","35","","18","","24.1","","101.32","","","","-16","","NA"
"-93.58","69.55","TALOYOAK A","2403855","2021-05-11 10:00","2021","05","11","10:00","-8.2","","-11.6","","77","","","","35","","19","","24.1","","101.34","","","","-15","","NA"
"-93.58","69.55","TALOYOAK A","2403855","2021-05-11 11:00","2021","05","11","11:00","-7.9","","-11.9","","73","","","","36","","31","","24.1","","101.38","","","","-17","","Mainly Clear"
"-93.58","69.55","TALOYOAK A","2403855","2021-05-11 12:00","2021","05","11","12:00","-7.9","","-12.2","","71","","","","36","","27","","24.1","","101.43","","","","-16","","NA"
"-93.58","69.55","TALOYOAK A","2403855","2021-05-11 13:00","2021","05","11","13:00","-7.6","","-11.7","","73","","","","36","","21","","24.1","","101.48","","","","-15","","NA"
"-93.58","69.55","TALOYOAK A","2403855","2021-05-11 14:00","2021","05","11","14:00","-7.5","","-11.8","","72","","","","35","","27","","24.1","","101.54","","","","-16","","Clear"
"-93.58","69.55","TALOYOAK A","2403855","2021-05-11 15:00","2021","05","11","15:00","-8.1","","-11.6","","76","","","","33","","25","","24.1","","101.58","","","","-16","","NA"
"-93.58","69.55","TALOYOAK A","2403855","2021-05-11 16:00","2021","05","11","16:00","-9.1","","-12.8","","75","","","","32","","34","","24.1","","101.61","","","","-19","","NA"
"-93.58","69.55","TALOYOAK A","2403855","2021-05-11 17:00","2021","05","11","17:00","-10.5","","-13.7","","78","","","","32","","36","","24.1","","101.66","","","","-21","","Blowing Snow"
"-93.58","69.55","TALOYOAK A","2403855","2021-05-11 18:00","2021","05","11","18:00","-11.8","","-15.0","","78","","","","33","","38","","24.1","","101.70","","","","-23","","Blowing Snow"
"-93.58","69.55","TALOYOAK A","2403855","2021-05-11 19:00","2021","05","11","19:00","-12.9","","-16.1","","77","","","","33","","44","","24.1","","101.72","","","","-25","","Blowing Snow"
"-93.58","69.55","TALOYOAK A","2403855","2021-05-11 20:00","2021","05","11","20:00","-14.5","","-17.4","","79","","","","33","","24","","24.1","","101.80","","","","-24","","Blowing Snow"
"-93.58","69.55","TALOYOAK A","2403855","2021-05-11 21:00","2021","05","11","21:00","-15.4","","-18.4","","78","","","","33","","34","","24.1","","101.77","","","","-27","","Blowing Snow"
"-93.58","69.55","TALOYOAK A","2403855","2021-05-11 22:00","2021","05","11","22:00","-15.6","","-18.7","","77","","","","33","","32","","24.1","","101.81","","","","-27","","Blowing Snow"
"-93.58","69.55","TALOYOAK A","2403855","2021-05-11 23:00","2021","05","11","23:00","-16.9","","-20.2","","76","","","","32","","21","","24.1","","101.87","","","","-27","","Clear"
"-93.58","69.55","TALOYOAK A","2403855","2021-05-12 00:00","2021","05","12","00:00","-17.1","","-20.7","","74","","","","33","","25","","24.1","","101.90","","","","-28","","Blowing Snow"
"-93.58","69.55","TALOYOAK A","2403855","2021-05-12 01:00","2021","05","12","01:00","-18.5","","-21.6","","77","","","","33","","25","","24.1","","101.93","","","","-30","","NA"
"-93.58","69.55","TALOYOAK A","2403855","2021-05-12 02:00","2021","05","12","02:00","-18.8","","-22.1","","76","","","","33","","19","","24.1","","101.98","","","","-29","","Clear"
"-93.58","69.55","TALOYOAK A","2403855","2021-05-12 03:00","2021","05","12","03:00","-19.3","","-22.6","","76","","","","32","","21","","24.1","","102.00","","","","-30","","NA"
"-93.58","69.55","TALOYOAK A","2403855","2021-05-12 04:00","2021","05","12","04:00","-18.6","","-22.3","","73","","","","35","","15","","24.1","","102.04","","","","-27","","NA"
"-93.58","69.55","TALOYOAK A","2403855","2021-05-12 05:00","2021","05","12","05:00","-17.7","","-21.3","","74","","","","34","","18","","24.1","","102.06","","","","-27","","Clear"
"-93.58","69.55","TALOYOAK A","2403855","2021-05-12 06:00","2021","05","12","06:00","-17.2","","-20.9","","73","","","","36","","2","","24.1","","102.08","","","","-19","","NA"
"-93.58","69.55","TALOYOAK A","2403855","2021-05-12 07:00","2021","05","12","07:00","-16.3","","-20.2","","73","","","","34","","9","","24.1","","102.07","","","","-22","","NA"
"-93.58","69.55","TALOYOAK A","2403855","2021-05-12 08:00","2021","05","12","08:00","-15.6","","-19.7","","71","","","","33","","10","","24.1","","102.05","","","","-22","","Clear"
"-93.58","69.55","TALOYOAK A","2403855","2021-05-12 09:00","2021","05","12","09:00","-14.8","","-19.1","","70","","","","33","","6","","24.1","","102.07","","","","-19","","NA"
"-93.58","69.55","TALOYOAK A","2403855","2021-05-12 10:00","2021","05","12","10:00","-14.4","","-19.0","","69","","","","32","","8","","24.1","","102.06","","","","-20","","NA"
"-93.58","69.55","TALOYOAK A","2403855","2021-05-12 11:00","2021","05","12","11:00","-14.0","","-19.0","","66","","","","29","","4","","24.1","","102.05","","","","-17","","Mainly Clear"
"-93.58","69.55","TALOYOAK A","2403855","2021-05-12 12:00","2021","05","12","12:00","-13.5","","-18.1","","69","","","","24","","7","","32.2","","102.05","","","","-18","","NA"
"-93.58","69.55","TALOYOAK A","2403855","2021-05-12 13:00","2021","05","12","13:00","-12.9","","-17.3","","70","","","","30","","11","","24.1","","102.02","","","","-19","","NA"
"-93.58","69.55","TALOYOAK A","2403855","2021-05-12 14:00","2021","05","12","14:00","-12.8","","-17.0","","71","","","","26","","12","","24.1","","101.99","","","","-19","","Mostly Cloudy"
"-93.58","69.55","TALOYOAK A","2403855","2021-05-12 15:00","2021","05","12","15:00","-12.7","","-16.4","","74","","","","26","","11","","24.1","","101.99","","","","-19","","Snow"
"-93.58","69.55","TALOYOAK A","2403855","2021-05-12 16:00","2021","05","12","16:00","-13.1","","-16.7","","74","","","","27","","8","","24.1","","101.95","","","","-18","","Snow"
"-93.58","69.55","TALOYOAK A","2403855","2021-05-12 17:00","2021","05","12","17:00","-13.4","","-16.9","","75","","","","25","","10","","19.3","","101.94","","","","-19","","Snow"
"-93.58","69.55","TALOYOAK A","2403855","2021-05-12 18:00","2021","05","12","18:00","-13.6","","-16.7","","78","","","","29","","10","","1.2","","101.90","","","","-20","","Snow Showers"
"-93.58","69.55","TALOYOAK A","2403855","2021-05-12 19:00","2021","05","12","19:00","-14.0","","-16.4","","82","","","","29","","9","","6.4","","101.85","","","","-20","","Snow Showers"
"-93.58","69.55","TALOYOAK A","2403855","2021-05-12 20:00","2021","05","12","20:00","-14.3","","-16.5","","84","","","","33","","7","","6.4","","101.82","","","","-19","","Snow Showers"
"-93.58","69.55","TALOYOAK A","2403855","2021-05-12 21:00","2021","05","12","21:00","-15.0","","-17.0","","85","","","","35","","5","","4.8","","101.80","","","","-19","","Snow Showers"
"-93.58","69.55","TALOYOAK A","2403855","2021-05-12 22:00","2021","05","12","22:00","-16.6","","-18.6","","85","","","","2","","7","","8.1","","101.78","","","","-22","","Snow"
"-93.58","69.55","TALOYOAK A","2403855","2021-05-12 23:00","2021","05","12","23:00","-16.4","","-18.5","","83","","","","4","","13","","8.1","","101.76","","","","-24","","Snow"
"-93.58","69.55","TALOYOAK A","2403855","2021-05-13 00:00","2021","05","13","00:00","-15.7","","-17.9","","84","","","","5","","17","","8.1","","101.76","","","","-24","","Snow"
"-93.58","69.55","TALOYOAK A","2403855","2021-05-13 01:00","2021","05","13","01:00","-17.6","","-19.8","","83","","","","4","","21","","9.7","","101.80","","","","-28","","Snow"
"-93.58","69.55","TALOYOAK A","2403855","2021-05-13 02:00","2021","05","13","02:00","-18.2","","-20.6","","82","","","","3","","17","","9.7","","101.82","","","","-27","","Snow"
"-93.58","69.55","TALOYOAK A","2403855","2021-05-13 03:00","2021","05","13","03:00","-19.2","","-21.7","","81","","","","3","","20","","24.1","","101.84","","","","-29","","Snow Grains"
"-93.58","69.55","TALOYOAK A","2403855","2021-05-13 04:00","2021","05","13","04:00","-21.0","","-23.9","","78","","","","35","","17","","24.1","","101.88","","","","-31","","Snow Grains"
"-93.58","69.55","TALOYOAK A","2403855","2021-05-13 05:00","2021","05","13","05:00","-19.5","","-22.8","","75","","","","35","","22","","24.1","","101.91","","","","-30","","Mostly Cloudy"
"-93.58","69.55","TALOYOAK A","2403855","2021-05-13 06:00","2021","05","13","06:00","-18.5","","-22.3","","73","","","","36","","20","","16.1","","101.95","","","","-29","","NA"
"-93.58","69.55","TALOYOAK A","2403855","2021-05-13 07:00","2021","05","13","07:00","-17.7","","-21.2","","75","","","","35","","25","","24.1","","101.99","","","","-29","","NA"
"-93.58","69.55","TALOYOAK A","2403855","2021-05-13 08:00","2021","05","13","08:00","-17.5","","-21.6","","71","","","","34","","25","","24.1","","102.02","","","","-28","","Mostly Cloudy"
"-93.58","69.55","TALOYOAK A","2403855","2021-05-13 09:00","2021","05","13","09:00","-16.1","","-20.9","","67","","","","34","","26","","24.1","","102.03","","","","-27","","NA"
"-93.58","69.55","TALOYOAK A","2403855","2021-05-13 10:00","2021","05","13","10:00","-16.0","","-20.4","","69","","","","34","","36","","24.1","","102.02","","","","-28","","Blowing Snow"
"-93.58","69.55","TALOYOAK A","2403855","2021-05-13 11:00","2021","05","13","11:00","-15.8","","-20.7","","66","","","","34","","39","","24.1","","102.04","","","","-28","","Blowing Snow"
"-93.58","69.55","TALOYOAK A","2403855","2021-05-13 12:00","2021","05","13","12:00","-15.6","","-20.9","","64","","","","34","","33","","24.1","","102.06","","","","-27","","Blowing Snow"
"-93.58","69.55","TALOYOAK A","2403855","2021-05-13 13:00","2021","05","13","13:00","-15.3","","-21.0","","62","","","","34","","30","","24.1","","102.08","","","","-26","","Blowing Snow"
"-93.58","69.55","TALOYOAK A","2403855","2021-05-13 14:00","2021","05","13","14:00","-15.5","","-19.6","","71","","","","33","","35","","16.1","","102.08","","","","-27","","Snow Pellets,Blowing Snow"
"-93.58","69.55","TALOYOAK A","2403855","2021-05-13 15:00","2021","05","13","15:00","-15.6","","-19.6","","72","","","","32","","34","","24.1","","102.09","","","","-27","","Blowing Snow"
"-93.58","69.55","TALOYOAK A","2403855","2021-05-13 16:00","2021","05","13","16:00","-15.8","","-19.9","","72","","","","32","","25","","16.1","","102.07","","","","-26","","Blowing Snow"
"-93.58","69.55","TALOYOAK A","2403855","2021-05-13 17:00","2021","05","13","17:00","-16.6","","-21.1","","68","","","","32","","28","","24.1","","102.07","","","","-28","","Blowing Snow"
"-93.58","69.55","TALOYOAK A","2403855","2021-05-13 18:00","2021","05","13","18:00","-17.1","","-20.1","","78","","","","31","","31","","11.3","","102.04","","","","-29","","Snow Pellets,Blowing Snow"
"-93.58","69.55","TALOYOAK A","2403855","2021-05-13 19:00","2021","05","13","19:00","-16.8","","-19.3","","81","","","","31","","30","","4.8","","102.00","","","","-28","","Snow Pellets,Blowing Snow"
"-93.58","69.55","TALOYOAK A","2403855","2021-05-13 20:00","2021","05","13","20:00","-16.3","","-18.7","","82","","","","30","","21","","1.2","","101.99","","","","-26","","Snow Pellets"
"-93.58","69.55","TALOYOAK A","2403855","2021-05-13 21:00","2021","05","13","21:00","-15.7","","-17.9","","83","","","","32","","26","","1.2","","101.95","","","","-26","","Snow Pellets"
"-93.58","69.55","TALOYOAK A","2403855","2021-05-13 22:00","2021","05","13","22:00","-15.6","","-18.0","","82","","","","33","","30","","2.4","","101.92","","","","-27","","Snow Pellets,Blowing Snow"
"-93.58","69.55","TALOYOAK A","2403855","2021-05-13 23:00","2021","05","13","23:00","-15.5","","-17.8","","83","","","","33","","30","","2.4","","101.90","","","","-27","","Snow Pellets,Blowing Snow"
"-93.58","69.55","TALOYOAK A","2403855","2021-05-14 00:00","2021","05","14","00:00","-15.3","","-17.5","","84","","","","32","","26","","1.6","","101.89","","","","-26","","Moderate Ice Pellets,Blowing Snow"
"-93.58","69.55","TALOYOAK A","2403855","2021-05-14 01:00","2021","05","14","01:00","-14.9","","-17.1","","83","","","","32","","34","","1.6","","101.87","","","","-27","","Snow Showers,Blowing Snow"
"-93.58","69.55","TALOYOAK A","2403855","2021-05-14 02:00","2021","05","14","02:00","-14.8","","-16.9","","84","","","","33","","30","","1.6","","101.87","","","","-26","","Snow Showers"
"-93.58","69.55","TALOYOAK A","2403855","2021-05-14 03:00","2021","05","14","03:00"
"-93.58","69.55","TALOYOAK A","2403855","2021-05-14 04:00","2021","05","14","04:00","-14.0","","-16.2","","84","","","","33","","34","","1.6","","101.86","","","","-25","","Snow,Blowing Snow"
"-93.58","69.55","TALOYOAK A","2403855","2021-05-14 05:00","2021","05","14","05:00","-13.5","","-16.0","","82","","","","34","","29","","1.6","","101.87","","","","-24","","Snow,Blowing Snow"
"-93.58","69.55","TALOYOAK A","2403855","2021-05-14 06:00","2021","05","14","06:00","-13.1","","-15.5","","82","","","","33","","31","","1.6","","101.86","","","","-24","","Snow Showers,Blowing Snow"
"-93.58","69.55","TALOYOAK A","2403855","2021-05-14 07:00","2021","05","14","07:00","-12.8","","-15.2","","82","","","","33","","32","","1.6","","101.83","","","","-23","","Snow Showers,Blowing Snow"
"-93.58","69.55","TALOYOAK A","2403855","2021-05-14 08:00","2021","05","14","08:00","-12.2","","-14.7","","81","","","","33","","30","","1.2","","101.80","","","","-22","","Snow Showers,Blowing Snow"
"-93.58","69.55","TALOYOAK A","2403855","2021-05-14 09:00","2021","05","14","09:00","-11.8","","-14.3","","81","","","","35","","31","","1.0","","101.79","","","","-22","","Snow Showers,Blowing Snow"
"-93.58","69.55","TALOYOAK A","2403855","2021-05-14 10:00","2021","05","14","10:00","-11.4","","-14.1","","81","","","","32","","26","","1.6","","101.79","","","","-21","","Snow Showers,Blowing Snow"
"-93.58","69.55","TALOYOAK A","2403855","2021-05-14 11:00","2021","05","14","11:00","-10.4","","-12.8","","82","","","","34","","23","","1.2","","101.78","","","","-19","","Snow Showers,Blowing Snow"
"-93.58","69.55","TALOYOAK A","2403855","2021-05-14 12:00","2021","05","14","12:00","-10.2","","-12.8","","81","","","","33","","30","","1.0","","101.74","","","","-20","","Snow Showers,Blowing Snow"
"-93.58","69.55","TALOYOAK A","2403855","2021-05-14 13:00","2021","05","14","13:00","-10.6","","-13.0","","83","","","","32","","30","","1.0","","101.72","","","","-20","","Snow Showers,Blowing Snow"
"-93.58","69.55","TALOYOAK A","2403855","2021-05-14 14:00","2021","05","14","14:00","-10.5","","-13.0","","82","","","","33","","30","","1.2","","101.71","","","","-20","","Snow Showers,Blowing Snow"
"-93.58","69.55","TALOYOAK A","2403855","2021-05-14 15:00","2021","05","14","15:00","-10.5","","-12.7","","84","","","","32","","32","","1.2","","101.67","","","","-20","","Snow Showers,Blowing Snow"
"-93.58","69.55","TALOYOAK A","2403855","2021-05-14 16:00","2021","05","14","16:00","-10.5","","-12.6","","85","","","","32","","31","","1.2","","101.63","","","","-20","","Snow Showers,Blowing Snow"
"-93.58","69.55","TALOYOAK A","2403855","2021-05-14 17:00","2021","05","14","17:00","-10.5","","-12.6","","84","","","","33","","21","","1.2","","101.63","","","","-19","","Snow Showers,Blowing Snow"
"-93.58","69.55","TALOYOAK A","2403855","2021-05-14 18:00","2021","05","14","18:00","-10.8","","-13.2","","83","","","","33","","32","","9.7","","101.54","","","","-21","","Snow,Blowing Snow"
"-93.58","69.55","TALOYOAK A","2403855","2021-05-14 19:00","2021","05","14","19:00","-11.1","","-13.7","","81","","","","34","","34","","9.7","","101.48","","","","-22","","Snow,Blowing Snow"
"-93.58","69.55","TALOYOAK A","2403855","2021-05-14 20:00","2021","05","14","20:00","-11.3","","-13.3","","85","","","","33","","32","","4.8","","101.42","","","","-22","","Snow Showers,Blowing Snow"
"-93.58","69.55","TALOYOAK A","2403855","2021-05-14 21:00","2021","05","14","21:00","-11.3","","-13.2","","86","","","","33","","26","","2.4","","101.37","","","","-21","","Snow Showers,Blowing Snow"
"-93.58","69.55","TALOYOAK A","2403855","2021-05-14 22:00","2021","05","14","22:00","-11.3","","-13.3","","85","","","","34","","30","","3.2","","101.34","","","","-21","","Snow,Blowing Snow"
"-93.58","69.55","TALOYOAK A","2403855","2021-05-14 23:00","2021","05","14","23:00","-11.1","","-13.4","","83","","","","34","","25","","3.2","","101.31","","","","-20","","Snow"
"-93.58","69.55","TALOYOAK A","2403855","2021-05-15 00:00","2021","05","15","00:00","-10.6","","-13.5","","79","","","","34","","26","","4.8","","101.30","","","","-20","","Snow"
"-93.58","69.55","TALOYOAK A","2403855","2021-05-15 01:00","2021","05","15","01:00","-10.6","","-13.8","","77","","","","35","","24","","19.3","","101.26","","","","-19","","Snow"
"-93.58","69.55","TALOYOAK A","2403855","2021-05-15 02:00","2021","05","15","02:00","-11.6","","-14.4","","80","","","","36","","32","","24.1","","101.25","","","","-22","","Snow"
"-93.58","69.55","TALOYOAK A","2403855","2021-05-15 03:00","2021","05","15","03:00","-13.4","","-16.2","","80","","","","35","","18","","24.1","","101.28","","","","-22","","Snow"
"-93.58","69.55","TALOYOAK A","2403855","2021-05-15 04:00","2021","05","15","04:00","-12.7","","-15.7","","79","","","","35","","23","","24.1","","101.25","","","","-22","","NA"
"-93.58","69.55","TALOYOAK A","2403855","2021-05-15 05:00","2021","05","15","05:00","-12.3","","-15.3","","78","","","","32","","21","","24.1","","101.24","","","","-21","","Mainly Clear"
"-93.58","69.55","TALOYOAK A","2403855","2021-05-15 06:00","2021","05","15","06:00","-11.3","","-14.3","","79","","","","33","","20","","24.1","","101.25","","","","-20","","NA"
"-93.58","69.55","TALOYOAK A","2403855","2021-05-15 07:00","2021","05","15","07:00","-9.5","","-12.6","","78","","","","1","","23","","24.1","","101.25","","","","-18","","NA"
"-93.58","69.55","TALOYOAK A","2403855","2021-05-15 08:00","2021","05","15","08:00","-8.8","","-11.8","","79","","","","2","","32","","24.1","","101.23","","","","-18","","Mostly Cloudy"
"-93.58","69.55","TALOYOAK A","2403855","2021-05-15 09:00","2021","05","15","09:00","-8.2","","-11.4","","78","","","","2","","34","","24.1","","101.22","","","","-18","","NA"
"-93.58","69.55","TALOYOAK A","2403855","2021-05-15 10:00","2021","05","15","10:00","-7.8","","-11.2","","77","","","","1","","29","","24.1","","101.25","","","","-17","","NA"
"-93.58","69.55","TALOYOAK A","2403855","2021-05-15 11:00","2021","05","15","11:00","-7.6","","-11.4","","74","","","","2","","30","","24.1","","101.28","","","","-16","","Mainly Clear"
"-93.58","69.55","TALOYOAK A","2403855","2021-05-15 12:00","2021","05","15","12:00","-7.2","","-11.0","","74","","","","1","","28","","24.1","","101.30","","","","-16","","NA"
"-93.58","69.55","TALOYOAK A","2403855","2021-05-15 13:00","2021","05","15","13:00","-7.2","","-11.5","","71","","","","3","","27","","12.9","","101.33","","","","-15","","Snow"
"-93.58","69.55","TALOYOAK A","2403855","2021-05-15 14:00","2021","05","15","14:00","-6.4","","-11.3","","69","","","","3","","23","","24.1","","101.34","","","","-14","","Snow"
"-93.58","69.55","TALOYOAK A","2403855","2021-05-15 15:00","2021","05","15","15:00","-7.5","","-10.7","","78","","","","3","","27","","12.9","","101.35","","","","-16","","Snow Showers"
"-93.58","69.55","TALOYOAK A","2403855","2021-05-15 16:00","2021","05","15","16:00","-7.7","","-10.2","","83","","","","4","","27","","9.7","","101.38","","","","-16","","Snow Showers,Blowing Snow"
"-93.58","69.55","TALOYOAK A","2403855","2021-05-15 17:00","2021","05","15","17:00","-9.2","","-12.3","","79","","","","7","","14","","24.1","","101.46","","","","-16","","Snow Showers"
"-93.58","69.55","TALOYOAK A","2403855","2021-05-15 18:00","2021","05","15","18:00","-11.2","","-14.3","","79","","","","6","","19","","24.1","","101.49","","","","-19","","NA"
"-93.58","69.55","TALOYOAK A","2403855","2021-05-15 19:00","2021","05","15","19:00","-12.5","","-16.3","","74","","","","3","","13","","24.1","","101.55","","","","-19","","NA"
"-93.58","69.55","TALOYOAK A","2403855","2021-05-15 20:00","2021","05","15","20:00","-14.3","","-17.3","","79","","","","3","","14","","24.1","","101.56","","","","-22","","Mainly Clear"
"-93.58","69.55","TALOYOAK A","2403855","2021-05-15 21:00","2021","05","15","21:00","-14.5","","-17.1","","81","","","","4","","15","","24.1","","101.57","","","","-22","","NA"
"-93.58","69.55","TALOYOAK A","2403855","2021-05-15 22:00","2021","05","15","22:00","-13.9","","-16.5","","81","","","","4","","13","","24.1","","101.60","","","","-21","","NA"
"-93.58","69.55","TALOYOAK A","2403855","2021-05-15 23:00","2021","05","15","23:00","-13.8","","-16.3","","82","","","","4","","9","","24.1","","101.63","","","","-19","","Mostly Cloudy"
"-93.58","69.55","TALOYOAK A","2403855","2021-05-16 00:00","2021","05","16","00:00","-14.0","","-16.6","","81","","","","6","","10","","24.1","","101.66","","","","-20","","NA"
"-93.58","69.55","TALOYOAK A","2403855","2021-05-16 01:00","2021","05","16","01:00","-16.3","","-18.8","","82","","","","7","","11","","24.1","","101.67","","","","-23","","NA"
"-93.58","69.55","TALOYOAK A","2403855","2021-05-16 02:00","2021","05","16","02:00","-18.3","","-20.2","","86","","","","35","","12","","24.1","","101.69","","","","-26","","Mostly Cloudy"
"-93.58","69.55","TALOYOAK A","2403855","2021-05-16 03:00","2021","05","16","03:00"
"-93.58","69.55","TALOYOAK A","2403855","2021-05-16 04:00","2021","05","16","04:00"
"-93.58","69.55","TALOYOAK A","2403855","2021-05-16 05:00","2021","05","16","05:00","-17.9","","-20.6","","80","","","","19","","7","","24.1","","101.73","","","","-23","","Mostly Cloudy"
"-93.58","69.55","TALOYOAK A","2403855","2021-05-16 06:00","2021","05","16","06:00","-16.9","","-19.5","","81","","","","15","","4","","16.1","","101.71","","","","-20","","Snow"
"-93.58","69.55","TALOYOAK A","2403855","2021-05-16 07:00","2021","05","16","07:00","-15.9","","-18.3","","82","","","","18","","11","","4.8","","101.69","","","","-23","","Snow Pellets"
"-93.58","69.55","TALOYOAK A","2403855","2021-05-16 08:00","2021","05","16","08:00","-15.0","","-17.5","","81","","","","18","","14","","4.8","","101.64","","","","-23","","Snow Pellets"
"-93.58","69.55","TALOYOAK A","2403855","2021-05-16 09:00","2021","05","16","09:00","-14.6","","-17.1","","81","","","","17","","16","","4.8","","101.59","","","","-23","","Snow Pellets"
"-93.58","69.55","TALOYOAK A","2403855","2021-05-16 10:00","2021","05","16","10:00","-11.6","","-13.7","","85","","","","21","","13","","4.8","","101.57","","","","-18","","Snow Pellets"
"-93.58","69.55","TALOYOAK A","2403855","2021-05-16 11:00","2021","05","16","11:00","-11.0","","-13.9","","80","","","","23","","22","","4.8","","101.55","","","","-20","","Snow Showers"
"-93.58","69.55","TALOYOAK A","2403855","2021-05-16 12:00","2021","05","16","12:00","-10.8","","-13.3","","82","","","","22","","22","","1.0","","101.53","","","","-19","","Snow Showers"
"-93.58","69.55","TALOYOAK A","2403855","2021-05-16 13:00","2021","05","16","13:00","-11.0","","-13.4","","82","","","","22","","26","","1.0","","101.51","","","","-20","","Snow Showers"
"-93.58","69.55","TALOYOAK A","2403855","2021-05-16 14:00","2021","05","16","14:00","-11.0","","-13.3","","84","","","","20","","23","","0.8","","101.49","","","","-20","","Moderate Snow Showers"
"-93.58","69.55","TALOYOAK A","2403855","2021-05-16 15:00","2021","05","16","15:00","-11.1","","-13.3","","84","","","","22","","24","","0.8","","101.47","","","","-20","","Moderate Snow Showers"
"-93.58","69.55","TALOYOAK A","2403855","2021-05-16 16:00","2021","05","16","16:00","-11.1","","-13.2","","85","","","","21","","27","","4.8","","101.42","","","","-21","","Snow Showers"
"-93.58","69.55","TALOYOAK A","2403855","2021-05-16 17:00","2021","05","16","17:00","-11.1","","-13.1","","85","","","","22","","24","","4.8","","101.40","","","","-20","","Snow Showers"
"-93.58","69.55","TALOYOAK A","2403855","2021-05-16 18:00","2021","05","16","18:00","-11.1","","-12.8","","87","","","","20","","18","","3.2","","101.35","","","","-19","","Snow Showers"
"-93.58","69.55","TALOYOAK A","2403855","2021-05-16 19:00","2021","05","16","19:00","-11.4","","-13.1","","88","","","","19","","19","","6.4","","101.32","","","","-19","","Snow Showers"
"-93.58","69.55","TALOYOAK A","2403855","2021-05-16 20:00","2021","05","16","20:00","-11.5","","-13.1","","88","","","","20","","16","","2.4","","101.28","","","","-19","","Snow Showers"
"-93.58","69.55","TALOYOAK A","2403855","2021-05-16 21:00","2021","05","16","21:00","-12.0","","-13.5","","88","","","","19","","15","","3.2","","101.27","","","","-19","","Snow Showers"
"-93.58","69.55","TALOYOAK A","2403855","2021-05-16 22:00","2021","05","16","22:00","-11.7","","-13.2","","88","","","","21","","22","","3.2","","101.24","","","","-20","","Snow Showers"
"-93.58","69.55","TALOYOAK A","2403855","2021-05-16 23:00","2021","05","16","23:00","-11.8","","-13.4","","89","","","","19","","14","","2.8","","101.23","","","","-19","","Snow Showers"
"-93.58","69.55","TALOYOAK A","2403855","2021-05-17 00:00","2021","05","17","00:00","-11.8","","-13.3","","89","","","","15","","15","","2.4","","101.20","","","","-19","","Snow Showers"
"-93.58","69.55","TALOYOAK A","2403855","2021-05-17 01:00","2021","05","17","01:00","-12.0","","-13.7","","88","","","","14","","19","","1.2","","101.17","","","","-20","","Snow Showers"
"-93.58","69.55","TALOYOAK A","2403855","2021-05-17 02:00","2021","05","17","02:00","-12.1","","-13.8","","87","","","","15","","23","","1.2","","101.14","","","","-21","","Snow Showers"
"-93.58","69.55","TALOYOAK A","2403855","2021-05-17 03:00","2021","05","17","03:00","-12.3","","-14.2","","86","","","","14","","23","","1.0","","101.11","","","","-21","","Snow Showers"
"-93.58","69.55","TALOYOAK A","2403855","2021-05-17 04:00","2021","05","17","04:00","-12.9","","-14.9","","85","","","","15","","26","","2.0","","101.12","","","","-23","","Snow Showers"
"-93.58","69.55","TALOYOAK A","2403855","2021-05-17 05:00","2021","05","17","05:00","-12.6","","-14.8","","84","","","","14","","23","","1.6","","101.11","","","","-22","","Snow Showers"
"-93.58","69.55","TALOYOAK A","2403855","2021-05-17 06:00","2021","05","17","06:00","-12.1","","-14.7","","81","","","","12","","21","","1.6","","101.11","","","","-21","","Snow Showers"
"-93.58","69.55","TALOYOAK A","2403855","2021-05-17 07:00","2021","05","17","07:00","-11.9","","-14.5","","81","","","","10","","23","","3.2","","101.11","","","","-21","","Snow Showers"
"-93.58","69.55","TALOYOAK A","2403855","2021-05-17 08:00","2021","05","17","08:00","-11.2","","-14.1","","80","","","","10","","26","","3.2","","101.10","","","","-20","","Snow Showers"
"-93.58","69.55","TALOYOAK A","2403855","2021-05-17 09:00","2021","05","17","09:00","-11.2","","-13.9","","81","","","","9","","32","","2.4","","101.10","","","","-21","","Snow Showers"
"-93.58","69.55","TALOYOAK A","2403855","2021-05-17 10:00","2021","05","17","10:00","-11.2","","-13.8","","81","","","","9","","36","","1.2","","101.10","","","","-22","","Snow Showers,Blowing Snow"
"-93.58","69.55","TALOYOAK A","2403855","2021-05-17 11:00","2021","05","17","11:00","-11.0","","-13.7","","81","","","","8","","34","","1.2","","101.15","","","","-21","","Snow Showers,Blowing Snow"
"-93.58","69.55","TALOYOAK A","2403855","2021-05-17 12:00","2021","05","17","12:00","-10.9","","-13.6","","81","","","","8","","39","","0.8","","101.17","","","","-22","","Snow Showers,Blowing Snow"
"-93.58","69.55","TALOYOAK A","2403855","2021-05-17 13:00","2021","05","17","13:00","-10.8","","-13.6","","80","","","","8","","40","","1.0","","101.20","","","","-22","","Snow Showers,Blowing Snow"
"-93.58","69.55","TALOYOAK A","2403855","2021-05-17 14:00","2021","05","17","14:00","-10.5","","-12.9","","83","","","","8","","35","","0.8","","101.26","","","","-21","","Snow Showers,Blowing Snow"
"-93.58","69.55","TALOYOAK A","2403855","2021-05-17 15:00","2021","05","17","15:00","-10.8","","-13.2","","83","","","","6","","46","","0.6","","101.28","","","","-22","","Snow Showers,Blowing Snow"
"-93.58","69.55","TALOYOAK A","2403855","2021-05-17 16:00","2021","05","17","16:00","-10.9","","-13.1","","84","","","","5","","36","","1.6","","101.34","","","","-21","","Snow Showers,Blowing Snow"
"-93.58","69.55","TALOYOAK A","2403855","2021-05-17 17:00","2021","05","17","17:00","-11.5","","-13.8","","83","","","","4","","37","","1.6","","101.37","","","","-22","","Snow Showers,Blowing Snow"
"-93.58","69.55","TALOYOAK A","2403855","2021-05-17 18:00","2021","05","17","18:00","-12.0","","-14.3","","83","","","","4","","31","","12.9","","101.43","","","","-22","","Snow Showers,Blowing Snow"
"-93.58","69.55","TALOYOAK A","2403855","2021-05-17 19:00","2021","05","17","19:00","-11.9","","-14.3","","83","","","","5","","30","","11.3","","101.46","","","","-22","","Snow Showers,Blowing Snow"
"-93.58","69.55","TALOYOAK A","2403855","2021-05-17 20:00","2021","05","17","20:00","-12.3","","-14.5","","84","","","","3","","25","","11.3","","101.50","","","","-22","","Snow Pellets"
"-93.58","69.55","TALOYOAK A","2403855","2021-05-17 21:00","2021","05","17","21:00","-12.4","","-14.8","","83","","","","3","","26","","16.1","","101.51","","","","-22","","Snow Pellets"
"-93.58","69.55","TALOYOAK A","2403855","2021-05-17 22:00","2021","05","17","22:00","-12.3","","-14.3","","85","","","","2","","23","","9.7","","101.54","","","","-21","","Snow Pellets"
"-93.58","69.55","TALOYOAK A","2403855","2021-05-17 23:00","2021","05","17","23:00","-11.9","","-14.0","","85","","","","1","","28","","16.1","","101.56","","","","-22","","Snow Pellets"
"-93.58","69.55","TALOYOAK A","2403855","2021-05-18 00:00","2021","05","18","00:00","-12.0","","-14.0","","85","","","","3","","35","","16.1","","101.58","","","","-23","","Snow Pellets"
"-93.58","69.55","TALOYOAK A","2403855","2021-05-18 01:00","2021","05","18","01:00","-12.2","","-14.4","","84","","","","3","","30","","19.3","","101.59","","","","-22","","Snow"
"-93.58","69.55","TALOYOAK A","2403855","2021-05-18 02:00","2021","05","18","02:00","-12.4","","-14.7","","83","","","","36","","28","","16.1","","101.66","","","","-22","","Snow"
"-93.58","69.55","TALOYOAK A","2403855","2021-05-18 03:00","2021","05","18","03:00","-12.4","","-14.7","","83","","","","35","","26","","6.4","","101.70","","","","-22","","Snow,Fog"
"-93.58","69.55","TALOYOAK A","2403855","2021-05-18 04:00","2021","05","18","04:00"
"-93.58","69.55","TALOYOAK A","2403855","2021-05-18 05:00","2021","05","18","05:00","-11.3","","-13.7","","82","","","","33","","29","","6.4","","101.76","","","","-21","","Snow,Fog"
"-93.58","69.55","TALOYOAK A","2403855","2021-05-18 06:00","2021","05","18","06:00","-11.4","","-14.3","","79","","","","34","","27","","16.1","","101.77","","","","-21","","Snow"
"-93.58","69.55","TALOYOAK A","2403855","2021-05-18 07:00","2021","05","18","07:00","-11.4","","-14.8","","76","","","","34","","35","","24.1","","101.74","","","","-22","","Blowing Snow"
"-93.58","69.55","TALOYOAK A","2403855","2021-05-18 08:00","2021","05","18","08:00","-11.2","","-14.4","","77","","","","34","","33","","24.1","","101.74","","","","-22","","Blowing Snow"
"-93.58","69.55","TALOYOAK A","2403855","2021-05-18 09:00","2021","05","18","09:00","-10.8","","-13.8","","79","","","","32","","38","","24.1","","101.67","","","","-22","","Blowing Snow"
"-93.58","69.55","TALOYOAK A","2403855","2021-05-18 10:00","2021","05","18","10:00","-10.2","","-13.3","","79","","","","32","","39","","24.1","","101.64","","","","-21","","Blowing Snow"
"-93.58","69.55","TALOYOAK A","2403855","2021-05-18 11:00","2021","05","18","11:00","-10.0","","-13.0","","79","","","","32","","41","","24.1","","101.61","","","","-21","","Blowing Snow"
"-93.58","69.55","TALOYOAK A","2403855","2021-05-18 12:00","2021","05","18","12:00","-10.1","","-13.0","","79","","","","31","","44","","24.1","","101.57","","","","-21","","Blowing Snow"
"-93.58","69.55","TALOYOAK A","2403855","2021-05-18 13:00","2021","05","18","13:00","-10.2","","-12.8","","82","","","","31","","43","","6.4","","101.56","","","","-21","","Blowing Snow"
"-93.58","69.55","TALOYOAK A","2403855","2021-05-18 14:00","2021","05","18","14:00","-9.8","","-12.4","","82","","","","31","","46","","8.1","","101.54","","","","-21","","Blowing Snow"
"-93.58","69.55","TALOYOAK A","2403855","2021-05-18 15:00","2021","05","18","15:00","-9.3","","-11.8","","83","","","","31","","47","","9.7","","101.50","","","","-21","","Blowing Snow"
"-93.58","69.55","TALOYOAK A","2403855","2021-05-18 16:00","2021","05","18","16:00","-8.7","","-11.1","","83","","","","31","","45","","4.8","","101.50","","","","-20","","Blowing Snow"
"-93.58","69.55","TALOYOAK A","2403855","2021-05-18 17:00","2021","05","18","17:00","-9.9","","-12.1","","84","","","","31","","50","","1.2","","101.45","","","","-22","","Blowing Snow"
"-93.58","69.55","TALOYOAK A","2403855","2021-05-18 18:00","2021","05","18","18:00","-10.6","","-12.7","","85","","","","30","","50","","0.6","","101.43","","","","-23","","Blowing Snow"
"-93.58","69.55","TALOYOAK A","2403855","2021-05-18 19:00","2021","05","18","19:00","-11.2","","-13.1","","86","","","","31","","53","","0.8","","101.42","","","","-24","","Blowing Snow"
"-93.58","69.55","TALOYOAK A","2403855","2021-05-18 20:00","2021","05","18","20:00","-11.7","","-13.7","","85","","","","30","","49","","0.8","","101.44","","","","-24","","Blowing Snow"
"-93.58","69.55","TALOYOAK A","2403855","2021-05-18 21:00","2021","05","18","21:00","-12.1","","-14.2","","85","","","","31","","50","","1.2","","101.44","","","","-25","","Blowing Snow"
"-93.58","69.55","TALOYOAK A","2403855","2021-05-18 22:00","2021","05","18","22:00","-12.6","","-14.6","","85","","","","31","","52","","1.0","","101.43","","","","-26","","Blowing Snow"
"-93.58","69.55","TALOYOAK A","2403855","2021-05-18 23:00","2021","05","18","23:00","-13.1","","-15.2","","85","","","","31","","46","","1.2","","101.41","","","","-26","","Blowing Snow"
"-93.58","69.55","TALOYOAK A","2403855","2021-05-19 00:00","2021","05","19","00:00","-14.0","","-16.2","","83","","","","30","","37","","12.9","","101.42","","","","-26","","Blowing Snow"
"-93.58","69.55","TALOYOAK A","2403855","2021-05-19 01:00","2021","05","19","01:00","-14.2","","-16.5","","83","","","","30","","23","","12.9","","101.45","","","","-24","","Blowing Snow"
"-93.58","69.55","TALOYOAK A","2403855","2021-05-19 02:00","2021","05","19","02:00","-13.9","","-16.3","","83","","","","31","","27","","12.9","","101.42","","","","-24","","Blowing Snow"
"-93.58","69.55","TALOYOAK A","2403855","2021-05-19 03:00","2021","05","19","03:00","-14.8","","-17.3","","81","","","","30","","37","","12.9","","101.37","","","","-27","","Blowing Snow"
"-93.58","69.55","TALOYOAK A","2403855","2021-05-19 04:00","2021","05","19","04:00","-15.5","","-18.1","","81","","","","29","","27","","14.5","","101.40","","","","-26","","Blowing Snow"
"-93.58","69.55","TALOYOAK A","2403855","2021-05-19 05:00","2021","05","19","05:00","-14.2","","-17.1","","79","","","","26","","21","","12.9","","101.41","","","","-23","","Mostly Cloudy"
"-93.58","69.55","TALOYOAK A","2403855","2021-05-19 06:00","2021","05","19","06:00","-14.2","","-16.7","","82","","","","20","","12","","12.9","","101.39","","","","-21","","NA"
"-93.58","69.55","TALOYOAK A","2403855","2021-05-19 07:00","2021","05","19","07:00","-12.8","","-15.7","","79","","","","27","","19","","12.9","","101.38","","","","-21","","NA"
"-93.58","69.55","TALOYOAK A","2403855","2021-05-19 08:00","2021","05","19","08:00","-11.5","","-14.4","","80","","","","28","","22","","12.9","","101.34","","","","-20","","Mostly Cloudy"
"-93.58","69.55","TALOYOAK A","2403855","2021-05-19 09:00","2021","05","19","09:00","-10.9","","-14.3","","76","","","","25","","18","","12.9","","101.30","","","","-19","","Snow"
"-93.58","69.55","TALOYOAK A","2403855","2021-05-19 10:00","2021","05","19","10:00","-10.5","","-13.7","","78","","","","27","","25","","12.9","","101.23","","","","-19","","Snow"
"-93.58","69.55","TALOYOAK A","2403855","2021-05-19 11:00","2021","05","19","11:00","-9.7","","-12.6","","79","","","","27","","27","","8.1","","101.18","","","","-19","","Snow Showers"
"-93.58","69.55","TALOYOAK A","2403855","2021-05-19 12:00","2021","05","19","12:00","-9.3","","-12.2","","79","","","","27","","40","","3.2","","101.14","","","","-20","","Snow,Blowing Snow"
"-93.58","69.55","TALOYOAK A","2403855","2021-05-19 13:00","2021","05","19","13:00","-9.4","","-11.9","","82","","","","28","","41","","1.6","","101.08","","","","-20","","Snow,Blowing Snow"
"-93.58","69.55","TALOYOAK A","2403855","2021-05-19 14:00","2021","05","19","14:00","-9.3","","-11.7","","83","","","","29","","33","","3.2","","101.10","","","","-19","","Snow,Blowing Snow"
"-93.58","69.55","TALOYOAK A","2403855","2021-05-19 15:00","2021","05","19","15:00","-9.1","","-11.8","","81","","","","28","","33","","3.2","","101.08","","","","-19","","Snow Showers,Blowing Snow"
"-93.58","69.55","TALOYOAK A","2403855","2021-05-19 16:00","2021","05","19","16:00","-9.3","","-12.1","","80","","","","28","","27","","3.2","","101.03","","","","-18","","Snow Showers,Blowing Snow"
"-93.58","69.55","TALOYOAK A","2403855","2021-05-19 17:00","2021","05","19","17:00","-9.0","","-11.8","","80","","","","27","","28","","9.7","","100.99","","","","-18","","Snow,Blowing Snow"
"-93.58","69.55","TALOYOAK A","2403855","2021-05-19 18:00","2021","05","19","18:00","-10.0","","-12.9","","80","","","","28","","30","","12.9","","100.93","","","","-20","","Snow,Blowing Snow"
"-93.58","69.55","TALOYOAK A","2403855","2021-05-19 19:00","2021","05","19","19:00","-10.3","","-12.4","","84","","","","24","","22","","12.9","","100.89","","","","-19","","Snow"
"-93.58","69.55","TALOYOAK A","2403855","2021-05-19 20:00","2021","05","19","20:00","-11.0","","-13.0","","85","","","","26","","19","","24.1","","100.85","","","","-19","","Mostly Cloudy"
"-93.58","69.55","TALOYOAK A","2403855","2021-05-19 21:00","2021","05","19","21:00","-10.6","","-12.8","","84","","","","24","","10","","12.9","","100.79","","","","-16","","Snow"
"-93.58","69.55","TALOYOAK A","2403855","2021-05-19 22:00","2021","05","19","22:00","-10.0","","-12.2","","84","","","","27","","28","","11.3","","100.73","","","","-19","","Snow"
"-93.58","69.55","TALOYOAK A","2403855","2021-05-19 23:00","2021","05","19","23:00","-10.1","","-11.7","","88","","","","24","","19","","1.0","","100.68","","","","-18","","Snow Showers"
"-93.58","69.55","TALOYOAK A","2403855","2021-05-20 00:00","2021","05","20","00:00","-10.2","","-12.0","","87","","","","24","","23","","1.2","","100.59","","","","-19","","Snow Showers"
"-93.58","69.55","TALOYOAK A","2403855","2021-05-20 01:00","2021","05","20","01:00","-10.0","","-11.8","","87","","","","26","","28","","4.8","","100.54","","","","-19","","Snow Showers,Blowing Snow"
"-93.58","69.55","TALOYOAK A","2403855","2021-05-20 02:00","2021","05","20","02:00","-9.9","","-11.8","","86","","","","26","","25","","1.2","","100.53","","","","-19","","Snow Showers,Blowing Snow"
"-93.58","69.55","TALOYOAK A","2403855","2021-05-20 03:00","2021","05","20","03:00","-9.9","","-11.6","","87","","","","24","","25","","1.2","","100.47","","","","-19","","Snow Showers"
"-93.58","69.55","TALOYOAK A","2403855","2021-05-20 04:00","2021","05","20","04:00","-9.4","","-11.2","","87","","","","24","","18","","3.2","","100.46","","","","-17","","Snow Showers"
"-93.58","69.55","TALOYOAK A","2403855","2021-05-20 05:00","2021","05","20","05:00","-8.9","","-10.8","","86","","","","25","","23","","1.6","","100.41","","","","-17","","Snow Showers"
"-93.58","69.55","TALOYOAK A","2403855","2021-05-20 06:00","2021","05","20","06:00","-8.4","","-10.6","","84","","","","27","","25","","4.8","","100.37","","","","-17","","Snow Showers"
"-93.58","69.55","TALOYOAK A","2403855","2021-05-20 07:00","2021","05","20","07:00","-8.0","","-10.3","","83","","","","26","","25","","9.7","","100.32","","","","-16","","Snow Showers"
"-93.58","69.55","TALOYOAK A","2403855","2021-05-20 08:00","2021","05","20","08:00","-7.5","","-10.0","","82","","","","26","","13","","8.1","","100.30","","","","-13","","Snow Showers"
"-93.58","69.55","TALOYOAK A","2403855","2021-05-20 09:00","2021","05","20","09:00","-7.2","","-9.4","","84","","","","29","","23","","16.1","","100.26","","","","-15","","Snow"
"-93.58","69.55","TALOYOAK A","2403855","2021-05-20 10:00","2021","05","20","10:00","-6.3","","-9.3","","79","","","","30","","25","","19.3","","100.26","","","","-14","","Snow"
"-93.58","69.55","TALOYOAK A","2403855","2021-05-20 11:00","2021","05","20","11:00","-7.6","","-10.7","","78","","","","1","","22","","16.1","","100.33","","","","-15","","Snow"
"-93.58","69.55","TALOYOAK A","2403855","2021-05-20 12:00","2021","05","20","12:00","-7.7","","-11.9","","72","","","","2","","17","","24.1","","100.42","","","","-14","","Snow"
"-93.58","69.55","TALOYOAK A","2403855","2021-05-20 13:00","2021","05","20","13:00"
"-93.58","69.55","TALOYOAK A","2403855","2021-05-20 14:00","2021","05","20","14:00","-8.1","","-12.5","","71","","","","33","","16","","24.1","","100.56","","","","-15","","Mostly Cloudy"
"-93.58","69.55","TALOYOAK A","2403855","2021-05-20 15:00","2021","05","20","15:00","-8.3","","-12.1","","74","","","","32","","21","","24.1","","100.59","","","","-16","","NA"
"-93.58","69.55","TALOYOAK A","2403855","2021-05-20 16:00","2021","05","20","16:00","-8.2","","-11.6","","77","","","","31","","25","","24.1","","100.62","","","","-16","","NA"
"-93.58","69.55","TALOYOAK A","2403855","2021-05-20 17:00","2021","05","20","17:00","-8.6","","-11.7","","78","","","","31","","31","","24.1","","100.65","","","","-18","","Blowing Snow"
"-93.58","69.55","TALOYOAK A","2403855","2021-05-20 18:00","2021","05","20","18:00","-10.4","","-13.2","","80","","","","29","","18","","24.1","","100.69","","","","-18","","NA"
"-93.58","69.55","TALOYOAK A","2403855","2021-05-20 19:00","2021","05","20","19:00","-11.4","","-14.1","","81","","","","29","","23","","24.1","","100.69","","","","-20","","NA"
"-93.58","69.55","TALOYOAK A","2403855","2021-05-20 20:00","2021","05","20","20:00","-12.1","","-14.8","","81","","","","29","","26","","24.1","","100.67","","","","-22","","Mostly Cloudy"
"-93.58","69.55","TALOYOAK A","2403855","2021-05-20 21:00","2021","05","20","21:00","-12.9","","-15.0","","84","","","","29","","25","","24.1","","100.69","","","","-22","","NA"
"-93.58","69.55","TALOYOAK A","2403855","2021-05-20 22:00","2021","05","20","22:00","-13.7","","-15.7","","85","","","","28","","19","","24.1","","100.69","","","","-22","","NA"
"-93.58","69.55","TALOYOAK A","2403855","2021-05-20 23:00","2021","05","20","23:00","-14.6","","-16.6","","84","","","","26","","17","","24.1","","100.71","","","","-23","","Mostly Cloudy"
"-93.58","69.55","TALOYOAK A","2403855","2021-05-21 00:00","2021","05","21","00:00","-14.3","","-16.4","","84","","","","29","","27","","24.1","","100.71","","","","-25","","NA"
"-93.58","69.55","TALOYOAK A","2403855","2021-05-21 01:00","2021","05","21","01:00","-15.1","","-17.1","","84","","","","30","","24","","19.3","","100.70","","","","-25","","Snow"
"-93.58","69.55","TALOYOAK A","2403855","2021-05-21 02:00","2021","05","21","02:00","-14.8","","-16.9","","84","","","","31","","27","","24.1","","100.74","","","","-25","","Snow"
"-93.58","69.55","TALOYOAK A","2403855","2021-05-21 03:00","2021","05","21","03:00","-13.1","","-15.8","","81","","","","32","","23","","24.1","","100.79","","","","-22","","NA"
"-93.58","69.55","TALOYOAK A","2403855","2021-05-21 04:00","2021","05","21","04:00","-11.7","","-14.3","","81","","","","35","","18","","24.1","","100.85","","","","-20","","Snow"
"-93.58","69.55","TALOYOAK A","2403855","2021-05-21 05:00","2021","05","21","05:00","-10.1","","-13.2","","79","","","","1","","28","","24.1","","100.94","","","","-19","","Snow"
"-93.58","69.55","TALOYOAK A","2403855","2021-05-21 06:00","2021","05","21","06:00","-10.3","","-13.6","","77","","","","34","","23","","24.1","","101.00","","","","-19","","Snow"
"-93.58","69.55","TALOYOAK A","2403855","2021-05-21 07:00","2021","05","21","07:00","-9.8","","-13.3","","76","","","","35","","21","","24.1","","101.05","","","","-18","","NA"
"-93.58","69.55","TALOYOAK A","2403855","2021-05-21 08:00","2021","05","21","08:00","-10.0","","-13.4","","76","","","","36","","22","","19.3","","101.15","","","","-18","","Snow"
"-93.58","69.55","TALOYOAK A","2403855","2021-05-21 09:00","2021","05","21","09:00","-9.3","","-12.6","","77","","","","1","","22","","24.1","","101.20","","","","-17","","NA"
"-93.58","69.55","TALOYOAK A","2403855","2021-05-21 10:00","2021","05","21","10:00","-8.6","","-12.4","","74","","","","36","","36","","24.1","","101.28","","","","-18","","NA"
"-93.58","69.55","TALOYOAK A","2403855","2021-05-21 11:00","2021","05","21","11:00","-8.1","","-12.1","","73","","","","35","","29","","24.1","","101.38","","","","-17","","Mainly Clear"
"-93.58","69.55","TALOYOAK A","2403855","2021-05-21 12:00","2021","05","21","12:00","-8.0","","-12.3","","71","","","","35","","27","","24.1","","101.47","","","","-16","","NA"
"-93.58","69.55","TALOYOAK A","2403855","2021-05-21 13:00","2021","05","21","13:00","-7.8","","-12.4","","70","","","","36","","24","","24.1","","101.56","","","","-16","","NA"
"-93.58","69.55","TALOYOAK A","2403855","2021-05-21 14:00","2021","05","21","14:00","-7.3","","-11.5","","73","","","","34","","23","","24.1","","101.60","","","","-15","","Clear"
"-93.58","69.55","TALOYOAK A","2403855","2021-05-21 15:00","2021","05","21","15:00","-7.3","","-10.8","","76","","","","31","","27","","24.1","","101.62","","","","-16","","NA"
"-93.58","69.55","TALOYOAK A","2403855","2021-05-21 16:00","2021","05","21","16:00","-8.0","","-11.1","","78","","","","30","","32","","24.1","","101.64","","","","-17","","Blowing Snow"
"-93.58","69.55","TALOYOAK A","2403855","2021-05-21 17:00","2021","05","21","17:00","-8.3","","-11.1","","81","","","","31","","36","","24.1","","101.65","","","","-18","","Blowing Snow"
"-93.58","69.55","TALOYOAK A","2403855","2021-05-21 18:00","2021","05","21","18:00","-9.6","","-12.5","","79","","","","27","","16","","24.1","","101.69","","","","-16","","Blowing Snow"
"-93.58","69.55","TALOYOAK A","2403855","2021-05-21 19:00","2021","05","21","19:00","-10.6","","-14.1","","76","","","","29","","22","","24.1","","101.67","","","","-19","","Blowing Snow"
"-93.58","69.55","TALOYOAK A","2403855","2021-05-21 20:00","2021","05","21","20:00"
"-93.58","69.55","TALOYOAK A","2403855","2021-05-21 21:00","2021","05","21","21:00"
"-93.58","69.55","TALOYOAK A","2403855","2021-05-21 22:00","2021","05","21","22:00"
"-93.58","69.55","TALOYOAK A","2403855","2021-05-21 23:00","2021","05","21","23:00"
"-93.58","69.55","TALOYOAK A","2403855","2021-05-22 00:00","2021","05","22","00:00"
"-93.58","69.55","TALOYOAK A","2403855","2021-05-22 01:00","2021","05","22","01:00"
"-93.58","69.55","TALOYOAK A","2403855","2021-05-22 02:00","2021","05","22","02:00"
"-93.58","69.55","TALOYOAK A","2403855","2021-05-22 03:00","2021","05","22","03:00"
"-93.58","69.55","TALOYOAK A","2403855","2021-05-22 04:00","2021","05","22","04:00"
"-93.58","69.55","TALOYOAK A","2403855","2021-05-22 05:00","2021","05","22","05:00"
"-93.58","69.55","TALOYOAK A","2403855","2021-05-22 06:00","2021","05","22","06:00"
"-93.58","69.55","TALOYOAK A","2403855","2021-05-22 07:00","2021","05","22","07:00"
"-93.58","69.55","TALOYOAK A","2403855","2021-05-22 08:00","2021","05","22","08:00","-8.1","","-10.6","","82","","","","30","","31","","16.1","","101.49","","","","-17","","Snow,Blowing Snow"
"-93.58","69.55","TALOYOAK A","2403855","2021-05-22 09:00","2021","05","22","09:00","-7.8","","-10.4","","82","","","","30","","31","","14.5","","101.49","","","","-17","","Snow,Blowing Snow"
"-93.58","69.55","TALOYOAK A","2403855","2021-05-22 10:00","2021","05","22","10:00","-7.3","","-10.0","","81","","","","30","","28","","12.9","","101.46","","","","-16","","Snow,Blowing Snow"
"-93.58","69.55","TALOYOAK A","2403855","2021-05-22 11:00","2021","05","22","11:00","-7.1","","-10.2","","78","","","","29","","31","","12.9","","101.44","","","","-16","","Snow,Blowing Snow"
"-93.58","69.55","TALOYOAK A","2403855","2021-05-22 12:00","2021","05","22","12:00","-7.0","","-10.0","","79","","","","29","","32","","12.9","","101.43","","","","-16","","Snow,Blowing Snow"
"-93.58","69.55","TALOYOAK A","2403855","2021-05-22 13:00","2021","05","22","13:00","-7.0","","-10.6","","76","","","","30","","30","","9.7","","101.44","","","","-16","","Snow,Blowing Snow"
"-93.58","69.55","TALOYOAK A","2403855","2021-05-22 14:00","2021","05","22","14:00","-6.7","","-10.1","","77","","","","29","","24","","12.9","","101.42","","","","-14","","Snow"
"-93.58","69.55","TALOYOAK A","2403855","2021-05-22 15:00","2021","05","22","15:00","-6.7","","-9.9","","78","","","","30","","29","","12.9","","101.43","","","","-15","","Snow"
"-93.58","69.55","TALOYOAK A","2403855","2021-05-22 16:00","2021","05","22","16:00","-6.8","","-9.9","","79","","","","31","","25","","16.1","","101.44","","","","-15","","Snow"
"-93.58","69.55","TALOYOAK A","2403855","2021-05-22 17:00","2021","05","22","17:00","-7.1","","-10.4","","77","","","","30","","25","","16.1","","101.41","","","","-15","","Snow"
"-93.58","69.55","TALOYOAK A","2403855","2021-05-22 18:00","2021","05","22","18:00","-7.3","","-9.9","","82","","","","31","","22","","14.5","","101.39","","","","-15","","Snow"
"-93.58","69.55","TALOYOAK A","2403855","2021-05-22 19:00","2021","05","22","19:00","-7.8","","-10.7","","79","","","","32","","19","","19.3","","101.37","","","","-15","","Snow"
"-93.58","69.55","TALOYOAK A","2403855","2021-05-22 20:00","2021","05","22","20:00"
"-93.58","69.55","TALOYOAK A","2403855","2021-05-22 21:00","2021","05","22","21:00"
"-93.58","69.55","TALOYOAK A","2403855","2021-05-22 22:00","2021","05","22","22:00"
"-93.58","69.55","TALOYOAK A","2403855","2021-05-22 23:00","2021","05","22","23:00"
"-93.58","69.55","TALOYOAK A","2403855","2021-05-23 00:00","2021","05","23","00:00"
"-93.58","69.55","TALOYOAK A","2403855","2021-05-23 01:00","2021","05","23","01:00"
"-93.58","69.55","TALOYOAK A","2403855","2021-05-23 02:00","2021","05","23","02:00"
"-93.58","69.55","TALOYOAK A","2403855","2021-05-23 03:00","2021","05","23","03:00"
"-93.58","69.55","TALOYOAK A","2403855","2021-05-23 04:00","2021","05","23","04:00"
"-93.58","69.55","TALOYOAK A","2403855","2021-05-23 05:00","2021","05","23","05:00"
"-93.58","69.55","TALOYOAK A","2403855","2021-05-23 06:00","2021","05","23","06:00"
"-93.58","69.55","TALOYOAK A","2403855","2021-05-23 07:00","2021","05","23","07:00"
"-93.58","69.55","TALOYOAK A","2403855","2021-05-23 08:00","2021","05","23","08:00"
"-93.58","69.55","TALOYOAK A","2403855","2021-05-23 09:00","2021","05","23","09:00"
"-93.58","69.55","TALOYOAK A","2403855","2021-05-23 10:00","2021","05","23","10:00"
"-93.58","69.55","TALOYOAK A","2403855","2021-05-23 11:00","2021","05","23","11:00"
"-93.58","69.55","TALOYOAK A","2403855","2021-05-23 12:00","2021","05","23","12:00","-5.9","","-8.6","","81","","","","36","","10","","11.3","","101.22","","","","-10","","Snow Showers"
"-93.58","69.55","TALOYOAK A","2403855","2021-05-23 13:00","2021","05","23","13:00","-4.7","","-7.4","","82","","","","2","","12","","16.1","","101.22","","","","-9","","Snow"
"-93.58","69.55","TALOYOAK A","2403855","2021-05-23 14:00","2021","05","23","14:00","-4.7","","-7.5","","81","","","","2","","16","","19.3","","101.23","","","","-10","","Snow"
"-93.58","69.55","TALOYOAK A","2403855","2021-05-23 15:00","2021","05","23","15:00","-4.9","","-7.2","","84","","","","4","","19","","19.3","","101.23","","","","-11","","Snow"
"-93.58","69.55","TALOYOAK A","2403855","2021-05-23 16:00","2021","05","23","16:00","-5.2","","-7.3","","85","","","","4","","18","","12.9","","101.25","","","","-11","","Snow"
"-93.58","69.55","TALOYOAK A","2403855","2021-05-23 17:00","2021","05","23","17:00","-5.4","","-7.7","","84","","","","4","","20","","24.1","","101.25","","","","-12","","Snow"
"-93.58","69.55","TALOYOAK A","2403855","2021-05-23 18:00","2021","05","23","18:00","-5.7","","-7.6","","86","","","","4","","16","","19.3","","101.28","","","","-12","","Snow"
"-93.58","69.55","TALOYOAK A","2403855","2021-05-23 19:00","2021","05","23","19:00","-6.0","","-7.9","","86","","","","5","","14","","24.1","","101.30","","","","-12","","Snow"
"-93.58","69.55","TALOYOAK A","2403855","2021-05-23 20:00","2021","05","23","20:00","-6.2","","-8.0","","87","","","","4","","12","","24.1","","101.31","","","","-11","","Snow"
"-93.58","69.55","TALOYOAK A","2403855","2021-05-23 21:00","2021","05","23","21:00","-6.5","","-7.9","","90","","","","1","","6","","12.9","","101.34","","","","-9","","Snow"
"-93.58","69.55","TALOYOAK A","2403855","2021-05-23 22:00","2021","05","23","22:00","-6.4","","-7.5","","91","","","","35","","11","","12.9","","101.35","","","","-11","","Snow"
"-93.58","69.55","TALOYOAK A","2403855","2021-05-23 23:00","2021","05","23","23:00","-6.3","","-7.5","","91","","","","36","","11","","16.1","","101.36","","","","-11","","Snow"
"-93.58","69.55","TALOYOAK A","2403855","2021-05-24 00:00","2021","05","24","00:00","-5.8","","-8.6","","81","","","","5","","12","","24.1","","101.35","","","","-11","","Snow"
"-93.58","69.55","TALOYOAK A","2403855","2021-05-24 01:00","2021","05","24","01:00","-6.4","","-8.3","","86","","","","36","","12","","24.1","","101.39","","","","-12","","Snow"
"-93.58","69.55","TALOYOAK A","2403855","2021-05-24 02:00","2021","05","24","02:00","-6.5","","-8.3","","88","","","","33","","10","","19.3","","101.40","","","","-11","","Snow"
"-93.58","69.55","TALOYOAK A","2403855","2021-05-24 03:00","2021","05","24","03:00","-6.6","","-8.4","","87","","","","34","","8","","24.1","","101.42","","","","-10","","Snow"
"-93.58","69.55","TALOYOAK A","2403855","2021-05-24 04:00","2021","05","24","04:00","-5.6","","-8.1","","82","","","","1","","18","","24.1","","101.44","","","","-12","","Snow"
"-93.58","69.55","TALOYOAK A","2403855","2021-05-24 05:00","2021","05","24","05:00","-5.6","","-7.7","","85","","","","2","","19","","24.1","","101.49","","","","-12","","Snow"
"-93.58","69.55","TALOYOAK A","2403855","2021-05-24 06:00","2021","05","24","06:00","-5.4","","-7.5","","85","","","","3","","11","","16.1","","101.53","","","","-10","","Snow"
"-93.58","69.55","TALOYOAK A","2403855","2021-05-24 07:00","2021","05","24","07:00","-4.9","","-7.2","","84","","","","3","","18","","24.1","","101.56","","","","-11","","Snow"
"-93.58","69.55","TALOYOAK A","2403855","2021-05-24 08:00","2021","05","24","08:00","-4.7","","-7.2","","82","","","","5","","16","","12.9","","101.57","","","","-10","","Snow"
"-93.58","69.55","TALOYOAK A","2403855","2021-05-24 09:00","2021","05","24","09:00","-4.1","","-7.1","","80","","","","4","","15","","19.3","","101.62","","","","-9","","Snow"
"-93.58","69.55","TALOYOAK A","2403855","2021-05-24 10:00","2021","05","24","10:00","-3.6","","-6.8","","79","","","","3","","13","","19.3","","101.65","","","","-8","","Snow"
"-93.58","69.55","TALOYOAK A","2403855","2021-05-24 11:00","2021","05","24","11:00","-3.3","","-7.0","","76","","","","1","","12","","24.1","","101.68","","","","-8","","Snow"
"-93.58","69.55","TALOYOAK A","2403855","2021-05-24 12:00","2021","05","24","12:00","-3.3","","-6.8","","77","","","","33","","8","","24.1","","101.71","","","","-7","","Snow"
"-93.58","69.55","TALOYOAK A","2403855","2021-05-24 13:00","2021","05","24","13:00","-2.8","","-6.8","","74","","","","34","","15","","24.1","","101.69","","","","-8","","Snow"
"-93.58","69.55","TALOYOAK A","2403855","2021-05-24 14:00","2021","05","24","14:00","-2.5","","-6.0","","77","","","","34","","13","","24.1","","101.71","","","","-7","","Mainly Clear"
"-93.58","69.55","TALOYOAK A","2403855","2021-05-24 15:00","2021","05","24","15:00","-2.6","","-5.4","","81","","","","34","","12","","24.1","","101.75","","","","-7","","NA"
"-93.58","69.55","TALOYOAK A","2403855","2021-05-24 16:00","2021","05","24","16:00","-2.4","","-5.7","","79","","","","36","","9","","24.1","","101.77","","","","-6","","NA"
"-93.58","69.55","TALOYOAK A","2403855","2021-05-24 17:00","2021","05","24","17:00","-3.4","","-6.3","","80","","","","2","","14","","24.1","","101.80","","","","-8","","Mainly Clear"
"-93.58","69.55","TALOYOAK A","2403855","2021-05-24 18:00","2021","05","24","18:00","-4.7","","-7.4","","81","","","","3","","13","","24.1","","101.79","","","","-10","","NA"
"-93.58","69.55","TALOYOAK A","2403855","2021-05-24 19:00","2021","05","24","19:00","-6.0","","-8.9","","80","","","","1","","7","","24.1","","101.80","","","","-9","","NA"
"-93.58","69.55","TALOYOAK A","2403855","2021-05-24 20:00","2021","05","24","20:00","-7.7","","-9.5","","87","","","","35","","9","","24.1","","101.77","","","","-12","","Mainly Clear"
"-93.58","69.55","TALOYOAK A","2403855","2021-05-24 21:00","2021","05","24","21:00","-9.8","","-11.4","","88","","","","35","","12","","24.1","","101.76","","","","-16","","NA"
"-93.58","69.55","TALOYOAK A","2403855","2021-05-24 22:00","2021","05","24","22:00","-6.9","","-9.2","","84","","","","32","","20","","24.1","","101.74","","","","-14","","NA"
"-93.58","69.55","TALOYOAK A","2403855","2021-05-24 23:00","2021","05","24","23:00","-9.2","","-11.5","","83","","","","30","","19","","24.1","","101.66","","","","-17","","Mainly Clear"
"-93.58","69.55","TALOYOAK A","2403855","2021-05-25 00:00","2021","05","25","00:00","-9.7","","-12.1","","83","","","","31","","24","","24.1","","101.64","","","","-18","","NA"
"-93.58","69.55","TALOYOAK A","2403855","2021-05-25 01:00","2021","05","25","01:00","-11.8","","-13.5","","87","","","","31","","24","","24.1","","101.59","","","","-21","","NA"
"-93.58","69.55","TALOYOAK A","2403855","2021-05-25 02:00","2021","05","25","02:00","-11.7","","-13.9","","84","","","","32","","23","","24.1","","101.56","","","","-21","","Clear"
"-93.58","69.55","TALOYOAK A","2403855","2021-05-25 03:00","2021","05","25","03:00","-12.1","","-14.4","","83","","","","33","","22","","24.1","","101.48","","","","-21","","NA"
"-93.58","69.55","TALOYOAK A","2403855","2021-05-25 04:00","2021","05","25","04:00","-12.2","","-14.8","","81","","","","36","","15","","24.1","","101.45","","","","-19","","NA"
"-93.58","69.55","TALOYOAK A","2403855","2021-05-25 05:00","2021","05","25","05:00","-11.2","","-13.8","","81","","","","32","","17","","24.1","","101.40","","","","-19","","Clear"
"-93.58","69.55","TALOYOAK A","2403855","2021-05-25 06:00","2021","05","25","06:00","-10.2","","-13.0","","80","","","","32","","20","","24.1","","101.33","","","","-18","","NA"
"-93.58","69.55","TALOYOAK A","2403855","2021-05-25 07:00","2021","05","25","07:00","-8.9","","-12.1","","78","","","","31","","23","","24.1","","101.28","","","","-17","","NA"
"-93.58","69.55","TALOYOAK A","2403855","2021-05-25 08:00","2021","05","25","08:00","-8.0","","-11.1","","79","","","","31","","22","","24.1","","101.23","","","","-16","","Clear"
"-93.58","69.55","TALOYOAK A","2403855","2021-05-25 09:00","2021","05","25","09:00","-6.9","","-10.2","","77","","","","31","","25","","24.1","","101.17","","","","-15","","NA"
"-93.58","69.55","TALOYOAK A","2403855","2021-05-25 10:00","2021","05","25","10:00","-6.4","","-9.6","","78","","","","32","","24","","24.1","","101.12","","","","-14","","NA"
"-93.58","69.55","TALOYOAK A","2403855","2021-05-25 11:00","2021","05","25","11:00","-5.8","","-9.2","","77","","","","31","","21","","24.1","","101.07","","","","-13","","Clear"
"-93.58","69.55","TALOYOAK A","2403855","2021-05-25 12:00","2021","05","25","12:00","-4.8","","-8.6","","75","","","","31","","18","","24.1","","101.04","","","","-11","","NA"
"-93.58","69.55","TALOYOAK A","2403855","2021-05-25 13:00","2021","05","25","13:00","-4.5","","-8.4","","74","","","","32","","23","","24.1","","101.03","","","","-11","","NA"
"-93.58","69.55","TALOYOAK A","2403855","2021-05-25 14:00","2021","05","25","14:00","-4.9","","-8.3","","77","","","","31","","22","","24.1","","101.00","","","","-12","","Clear"
"-93.58","69.55","TALOYOAK A","2403855","2021-05-25 15:00","2021","05","25","15:00","-5.4","","-8.6","","78","","","","31","","26","","24.1","","100.99","","","","-13","","NA"
"-93.58","69.55","TALOYOAK A","2403855","2021-05-25 16:00","2021","05","25","16:00","-5.6","","-8.6","","80","","","","32","","27","","24.1","","100.94","","","","-13","","NA"
"-93.58","69.55","TALOYOAK A","2403855","2021-05-25 17:00","2021","05","25","17:00","-5.5","","-8.4","","80","","","","31","","23","","24.1","","100.94","","","","-13","","Clear"
"-93.58","69.55","TALOYOAK A","2403855","2021-05-25 18:00","2021","05","25","18:00","-5.9","","-8.8","","80","","","","32","","18","","24.1","","100.96","","","","-12","","NA"
"-93.58","69.55","TALOYOAK A","2403855","2021-05-25 19:00","2021","05","25","19:00","-6.9","","-9.7","","80","","","","33","","7","","24.1","","100.98","","","","-10","","NA"
"-93.58","69.55","TALOYOAK A","2403855","2021-05-25 20:00","2021","05","25","20:00","-8.0","","-10.7","","81","","","","33","","4","","24.1","","100.98","","","","-10","","Mostly Cloudy"
"-93.58","69.55","TALOYOAK A","2403855","2021-05-25 21:00","2021","05","25","21:00","-9.2","","-11.3","","85","","","","33","","17","","24.1","","100.97","","","","-16","","NA"
"-93.58","69.55","TALOYOAK A","2403855","2021-05-25 22:00","2021","05","25","22:00","-8.5","","-11.1","","82","","","","32","","14","","24.1","","101.01","","","","-15","","NA"
"-93.58","69.55","TALOYOAK A","2403855","2021-05-25 23:00","2021","05","25","23:00","-9.0","","-11.9","","80","","","","36","","13","","24.1","","101.03","","","","-15","","Mostly Cloudy"
"-93.58","69.55","TALOYOAK A","2403855","2021-05-26 00:00","2021","05","26","00:00","-8.9","","-12.2","","77","","","","34","","16","","24.1","","101.05","","","","-16","","NA"
"-93.58","69.55","TALOYOAK A","2403855","2021-05-26 01:00","2021","05","26","01:00","-7.6","","-11.1","","76","","","","36","","9","","24.1","","101.06","","","","-12","","NA"
"-93.58","69.55","TALOYOAK A","2403855","2021-05-26 02:00","2021","05","26","02:00","-6.6","","-10.6","","73","","","","1","","8","","24.1","","101.08","","","","-10","","Mostly Cloudy"
"-93.58","69.55","TALOYOAK A","2403855","2021-05-26 03:00","2021","05","26","03:00","-10.7","","-13.1","","82","","","","15","","7","","24.1","","101.13","","","","-15","","NA"
"-93.58","69.55","TALOYOAK A","2403855","2021-05-26 04:00","2021","05","26","04:00","-10.8","","-13.2","","83","","","","16","","8","","24.1","","101.14","","","","-15","","NA"
"-93.58","69.55","TALOYOAK A","2403855","2021-05-26 05:00","2021","05","26","05:00","-10.6","","-13.3","","81","","","","16","","8","","24.1","","101.16","","","","-15","","Mostly Cloudy"
"-93.58","69.55","TALOYOAK A","2403855","2021-05-26 06:00","2021","05","26","06:00","-11.1","","-13.7","","81","","","","21","","8","","24.1","","101.16","","","","-16","","NA"
"-93.58","69.55","TALOYOAK A","2403855","2021-05-26 07:00","2021","05","26","07:00","-10.1","","-12.8","","81","","","","16","","7","","24.1","","101.15","","","","-14","","NA"
"-93.58","69.55","TALOYOAK A","2403855","2021-05-26 08:00","2021","05","26","08:00","-8.3","","-11.3","","79","","","","17","","6","","24.1","","101.13","","","","-12","","Mainly Clear"
"-93.58","69.55","TALOYOAK A","2403855","2021-05-26 09:00","2021","05","26","09:00","-4.9","","-8.8","","74","","","","21","","5","","24.1","","101.13","","","","-7","","NA"
"-93.58","69.55","TALOYOAK A","2403855","2021-05-26 10:00","2021","05","26","10:00","-4.4","","-8.1","","76","","","","32","","33","","24.1","","101.11","","","","-13","","NA"
"-93.58","69.55","TALOYOAK A","2403855","2021-05-26 11:00","2021","05","26","11:00","-4.2","","-7.2","","80","","","","32","","31","","24.1","","101.12","","","","-12","","Mainly Clear"
"-93.58","69.55","TALOYOAK A","2403855","2021-05-26 12:00","2021","05","26","12:00","-3.5","","-6.6","","79","","","","31","","29","","24.1","","101.16","","","","-11","","NA"
"-93.58","69.55","TALOYOAK A","2403855","2021-05-26 13:00","2021","05","26","13:00","-3.2","","-6.2","","80","","","","32","","40","","24.1","","101.16","","","","-12","","NA"
"-93.58","69.55","TALOYOAK A","2403855","2021-05-26 14:00","2021","05","26","14:00","-2.7","","-5.5","","81","","","","31","","30","","24.1","","101.20","","","","-10","","Mainly Clear"
"-93.58","69.55","TALOYOAK A","2403855","2021-05-26 15:00","2021","05","26","15:00","-2.6","","-5.5","","81","","","","32","","27","","24.1","","101.24","","","","-10","","NA"
"-93.58","69.55","TALOYOAK A","2403855","2021-05-26 16:00","2021","05","26","16:00","-2.5","","-5.3","","81","","","","32","","23","","24.1","","101.27","","","","-9","","NA"
"-93.58","69.55","TALOYOAK A","2403855","2021-05-26 17:00","2021","05","26","17:00","-3.5","","-5.9","","83","","","","33","","25","","24.1","","101.32","","","","-10","","Clear"
"-93.58","69.55","TALOYOAK A","2403855","2021-05-26 18:00","2021","05","26","18:00","-3.9","","-6.1","","85","","","","34","","21","","24.1","","101.36","","","","-10","","NA"
"-93.58","69.55","TALOYOAK A","2403855","2021-05-26 19:00","2021","05","26","19:00","-4.8","","-6.9","","86","","","","34","","27","","24.1","","101.41","","","","-12","","NA"
"-93.58","69.55","TALOYOAK A","2403855","2021-05-26 20:00","2021","05","26","20:00","-6.4","","-8.1","","88","","","","33","","19","","24.1","","101.44","","","","-13","","Mainly Clear"
"-93.58","69.55","TALOYOAK A","2403855","2021-05-26 21:00","2021","05","26","21:00","-5.4","","-6.5","","92","","","","34","","17","","24.1","","101.45","","","","-11","","NA"
"-93.58","69.55","TALOYOAK A","2403855","2021-05-26 22:00","2021","05","26","22:00","-3.6","","-4.8","","91","","","","33","","23","","24.1","","101.45","","","","-10","","NA"
"-93.58","69.55","TALOYOAK A","2403855","2021-05-26 23:00","2021","05","26","23:00","-3.7","","-5.0","","91","","","","32","","19","","24.1","","101.48","","","","-10","","Mostly Cloudy"
"-93.58","69.55","TALOYOAK A","2403855","2021-05-27 00:00","2021","05","27","00:00","-3.5","","-5.2","","88","","","","32","","19","","24.1","","101.51","","","","-9","","NA"
"-93.58","69.55","TALOYOAK A","2403855","2021-05-27 01:00","2021","05","27","01:00","-3.7","","-5.5","","87","","","","34","","20","","24.1","","101.54","","","","-10","","NA"
"-93.58","69.55","TALOYOAK A","2403855","2021-05-27 02:00","2021","05","27","02:00","-3.8","","-5.7","","86","","","","34","","17","","24.1","","101.60","","","","-10","","Snow"
"-93.58","69.55","TALOYOAK A","2403855","2021-05-27 03:00","2021","05","27","03:00","-3.6","","-5.6","","87","","","","34","","17","","24.1","","101.62","","","","-9","","NA"
"-93.58","69.55","TALOYOAK A","2403855","2021-05-27 04:00","2021","05","27","04:00","-3.4","","-5.7","","84","","","","34","","16","","24.1","","101.63","","","","-9","","NA"
"-93.58","69.55","TALOYOAK A","2403855","2021-05-27 05:00","2021","05","27","05:00","-3.1","","-5.6","","83","","","","34","","23","","24.1","","101.62","","","","-10","","Cloudy"
"-93.58","69.55","TALOYOAK A","2403855","2021-05-27 06:00","2021","05","27","06:00","-2.7","","-5.8","","80","","","","35","","12","","24.1","","101.63","","","","-7","","NA"
"-93.58","69.55","TALOYOAK A","2403855","2021-05-27 07:00","2021","05","27","07:00","-2.3","","-6.2","","74","","","","36","","14","","24.1","","101.63","","","","-7","","NA"
"-93.58","69.55","TALOYOAK A","2403855","2021-05-27 08:00","2021","05","27","08:00","-2.3","","-6.8","","71","","","","34","","12","","24.1","","101.60","","","","-7","","Mostly Cloudy"
"-93.58","69.55","TALOYOAK A","2403855","2021-05-27 09:00","2021","05","27","09:00","-1.9","","-5.9","","74","","","","34","","13","","24.1","","101.59","","","","-6","","NA"
"-93.58","69.55","TALOYOAK A","2403855","2021-05-27 10:00","2021","05","27","10:00","-1.6","","-6.3","","71","","","","36","","10","","24.1","","101.57","","","","-5","","NA"
"-93.58","69.55","TALOYOAK A","2403855","2021-05-27 11:00","2021","05","27","11:00","-1.6","","-6.2","","71","","","","1","","14","","24.1","","101.57","","","","-6","","Mostly Cloudy"
"-93.58","69.55","TALOYOAK A","2403855","2021-05-27 12:00","2021","05","27","12:00","-1.4","","-5.5","","74","","","","35","","8","","24.1","","101.55","","","","-4","","NA"
"-93.58","69.55","TALOYOAK A","2403855","2021-05-27 13:00","2021","05","27","13:00","-1.2","","-5.0","","76","","","","31","","10","","24.1","","101.56","","","","-5","","NA"
"-93.58","69.55","TALOYOAK A","2403855","2021-05-27 14:00","2021","05","27","14:00","-1.2","","-5.3","","73","","","","32","","10","","24.1","","101.53","","","","-5","","Mostly Cloudy"
"-93.58","69.55","TALOYOAK A","2403855","2021-05-27 15:00","2021","05","27","15:00","-1.0","","-4.9","","75","","","","28","","8","","24.1","","101.51","","","","-4","","NA"
"-93.58","69.55","TALOYOAK A","2403855","2021-05-27 16:00","2021","05","27","16:00","-1.3","","-5.1","","76","","","","27","","10","","24.1","","101.50","","","","-5","","NA"
"-93.58","69.55","TALOYOAK A","2403855","2021-05-27 17:00","2021","05","27","17:00","-1.5","","-5.0","","77","","","","26","","5","","24.1","","101.46","","","","-3","","Mostly Cloudy"
"-93.58","69.55","TALOYOAK A","2403855","2021-05-27 18:00","2021","05","27","18:00","-1.5","","-4.9","","78","","","","24","","3","","24.1","","101.43","","","","-3","","NA"
"-93.58","69.55","TALOYOAK A","2403855","2021-05-27 19:00","2021","05","27","19:00","-1.8","","-5.0","","79","","","","20","","6","","24.1","","101.41","","","","-4","","NA"
"-93.58","69.55","TALOYOAK A","2403855","2021-05-27 20:00","2021","05","27","20:00","-2.0","","-4.8","","81","","","","18","","8","","24.1","","101.41","","","","-5","","Cloudy"
"-93.58","69.55","TALOYOAK A","2403855","2021-05-27 21:00","2021","05","27","21:00","-2.3","","-5.1","","81","","","","26","","10","","24.1","","101.40","","","","-6","","NA"
"-93.58","69.55","TALOYOAK A","2403855","2021-05-27 22:00","2021","05","27","22:00","-2.8","","-5.5","","81","","","","22","","4","","24.1","","101.39","","","","-4","","NA"
"-93.58","69.55","TALOYOAK A","2403855","2021-05-27 23:00","2021","05","27","23:00","-3.1","","-5.5","","84","","","","36","","3","","24.1","","101.36","","","","-4","","Cloudy"
"-93.58","69.55","TALOYOAK A","2403855","2021-05-28 00:00","2021","05","28","00:00","-3.4","","-5.3","","86","","","","17","","10","","24.1","","101.34","","","","-7","","NA"
"-93.58","69.55","TALOYOAK A","2403855","2021-05-28 01:00","2021","05","28","01:00","-3.5","","-5.1","","89","","","","16","","9","","24.1","","101.30","","","","-7","","NA"
"-93.58","69.55","TALOYOAK A","2403855","2021-05-28 02:00","2021","05","28","02:00","-3.7","","-5.0","","90","","","","20","","5","","24.1","","101.26","","","","-6","","Cloudy"
"-93.58","69.55","TALOYOAK A","2403855","2021-05-28 03:00","2021","05","28","03:00","-3.9","","-5.0","","93","","","","16","","13","","24.1","","101.26","","","","-9","","NA"
"-93.58","69.55","TALOYOAK A","2403855","2021-05-28 04:00","2021","05","28","04:00","-4.0","","-5.2","","92","","","","17","","10","","12.9","","101.23","","","","-8","","Snow Grains"
"-93.58","69.55","TALOYOAK A","2403855","2021-05-28 05:00","2021","05","28","05:00","-4.6","","-5.4","","94","","","","12","","10","","12.9","","101.17","","","","-9","","Snow Grains"
"-93.58","69.55","TALOYOAK A","2403855","2021-05-28 06:00","2021","05","28","06:00","-5.1","","-6.0","","93","","","","10","","18","","11.3","","101.14","","","","-11","","NA"
"-93.58","69.55","TALOYOAK A","2403855","2021-05-28 07:00","2021","05","28","07:00","-4.9","","-5.9","","93","","","","9","","13","","11.3","","101.12","","","","-10","","Snow Grains"
"-93.58","69.55","TALOYOAK A","2403855","2021-05-28 08:00","2021","05","28","08:00","-4.8","","-5.9","","92","","","","12","","17","","12.9","","101.09","","","","-11","","Snow Grains"
"-93.58","69.55","TALOYOAK A","2403855","2021-05-28 09:00","2021","05","28","09:00","-4.5","","-6.9","","83","","","","11","","18","","19.3","","101.08","","","","-11","","NA"
"-93.58","69.55","TALOYOAK A","2403855","2021-05-28 10:00","2021","05","28","10:00","-4.2","","-7.0","","81","","","","12","","18","","20.9","","101.06","","","","-10","","NA"
"-93.58","69.55","TALOYOAK A","2403855","2021-05-28 11:00","2021","05","28","11:00","-3.6","","-5.7","","85","","","","11","","18","","24.1","","101.02","","","","-9","","Mostly Cloudy"
"-93.58","69.55","TALOYOAK A","2403855","2021-05-28 12:00","2021","05","28","12:00","-3.6","","-5.7","","85","","","","11","","17","","24.1","","100.99","","","","-9","","NA"
"-93.58","69.55","TALOYOAK A","2403855","2021-05-28 13:00","2021","05","28","13:00","-3.1","","-4.9","","87","","","","10","","17","","24.1","","100.97","","","","-9","","NA"
"-93.58","69.55","TALOYOAK A","2403855","2021-05-28 14:00","2021","05","28","14:00","-2.6","","-4.6","","87","","","","11","","15","","24.1","","100.96","","","","-8","","Mostly Cloudy"
"-93.58","69.55","TALOYOAK A","2403855","2021-05-28 15:00","2021","05","28","15:00","-2.3","","-4.3","","86","","","","11","","18","","24.1","","100.93","","","","-8","","NA"
"-93.58","69.55","TALOYOAK A","2403855","2021-05-28 16:00","2021","05","28","16:00","-2.2","","-4.2","","86","","","","11","","18","","24.1","","100.92","","","","-8","","NA"
"-93.58","69.55","TALOYOAK A","2403855","2021-05-28 17:00","2021","05","28","17:00","-2.1","","-3.9","","87","","","","11","","19","","24.1","","100.91","","","","-8","","Mostly Cloudy"
"-93.58","69.55","TALOYOAK A","2403855","2021-05-28 18:00","2021","05","28","18:00","-2.3","","-4.1","","88","","","","10","","18","","24.1","","100.90","","","","-8","","NA"
"-93.58","69.55","TALOYOAK A","2403855","2021-05-28 19:00","2021","05","28","19:00","-2.9","","-4.7","","88","","","","7","","21","","24.1","","100.90","","","","-9","","NA"
"-93.58","69.55","TALOYOAK A","2403855","2021-05-28 20:00","2021","05","28","20:00","-3.1","","-4.8","","88","","","","9","","18","","24.1","","100.89","","","","-9","","Mostly Cloudy"
"-93.58","69.55","TALOYOAK A","2403855","2021-05-28 21:00","2021","05","28","21:00","-3.3","","-4.6","","90","","","","8","","19","","24.1","","100.86","","","","-9","","NA"
"-93.58","69.55","TALOYOAK A","2403855","2021-05-28 22:00","2021","05","28","22:00","-3.5","","-4.7","","91","","","","7","","19","","24.1","","100.85","","","","-9","","NA"
"-93.58","69.55","TALOYOAK A","2403855","2021-05-28 23:00","2021","05","28","23:00","-3.8","","-4.9","","92","","","","7","","18","","24.1","","100.84","","","","-10","","Snow"
"-93.58","69.55","TALOYOAK A","2403855","2021-05-29 00:00","2021","05","29","00:00","-4.1","","-5.2","","91","","","","6","","18","","24.1","","100.83","","","","-10","","Snow"
"-93.58","69.55","TALOYOAK A","2403855","2021-05-29 01:00","2021","05","29","01:00","-4.2","","-5.5","","91","","","","7","","21","","24.1","","100.79","","","","-11","","Snow"
"-93.58","69.55","TALOYOAK A","2403855","2021-05-29 02:00","2021","05","29","02:00","-4.3","","-5.4","","92","","","","5","","18","","24.1","","100.78","","","","-10","","Snow"
"-93.58","69.55","TALOYOAK A","2403855","2021-05-29 03:00","2021","05","29","03:00","-4.5","","-5.5","","92","","","","6","","23","","24.1","","100.75","","","","-11","","Snow Grains"
"-93.58","69.55","TALOYOAK A","2403855","2021-05-29 04:00","2021","05","29","04:00","-4.4","","-5.6","","91","","","","6","","22","","24.1","","100.77","","","","-11","","Snow Grains"
"-93.58","69.55","TALOYOAK A","2403855","2021-05-29 05:00","2021","05","29","05:00","-4.1","","-5.3","","91","","","","5","","21","","24.1","","100.80","","","","-11","","Snow Grains"
"-93.58","69.55","TALOYOAK A","2403855","2021-05-29 06:00","2021","05","29","06:00","-4.5","","-5.6","","92","","","","5","","26","","12.9","","100.78","","","","-12","","Snow Grains"
"-93.58","69.55","TALOYOAK A","2403855","2021-05-29 07:00","2021","05","29","07:00","-4.3","","-5.6","","91","","","","5","","21","","12.9","","100.77","","","","-11","","Snow Grains"
"-93.58","69.55","TALOYOAK A","2403855","2021-05-29 08:00","2021","05","29","08:00","-4.0","","-5.8","","88","","","","5","","22","","12.9","","100.75","","","","-11","","Snow Grains"
"-93.58","69.55","TALOYOAK A","2403855","2021-05-29 09:00","2021","05","29","09:00","-3.6","","-5.9","","85","","","","5","","23","","19.3","","100.73","","","","-10","","Snow Grains"
"-93.58","69.55","TALOYOAK A","2403855","2021-05-29 10:00","2021","05","29","10:00","-3.8","","-5.6","","87","","","","5","","20","","19.3","","100.73","","","","-10","","Snow Grains"
"-93.58","69.55","TALOYOAK A","2403855","2021-05-29 11:00","2021","05","29","11:00","-3.3","","-5.9","","83","","","","6","","17","","24.1","","100.76","","","","-9","","Snow Grains"
"-93.58","69.55","TALOYOAK A","2403855","2021-05-29 12:00","2021","05","29","12:00","-2.7","","-5.3","","83","","","","4","","15","","24.1","","100.73","","","","-8","","NA"
"-93.58","69.55","TALOYOAK A","2403855","2021-05-29 13:00","2021","05","29","13:00","-2.5","","-5.2","","82","","","","5","","18","","24.1","","100.74","","","","-8","","NA"
"-93.58","69.55","TALOYOAK A","2403855","2021-05-29 14:00","2021","05","29","14:00","-2.4","","-5.0","","83","","","","5","","18","","24.1","","100.76","","","","-8","","Mostly Cloudy"
"-93.58","69.55","TALOYOAK A","2403855","2021-05-29 15:00","2021","05","29","15:00","-2.4","","-4.8","","83","","","","5","","16","","24.1","","100.77","","","","-8","","NA"
"-93.58","69.55","TALOYOAK A","2403855","2021-05-29 16:00","2021","05","29","16:00","-2.1","","-4.8","","81","","","","4","","11","","24.1","","100.80","","","","-6","","NA"
"-93.58","69.55","TALOYOAK A","2403855","2021-05-29 17:00","2021","05","29","17:00","-2.5","","-4.8","","84","","","","9","","5","","24.1","","100.79","","","","-4","","Mainly Clear"
"-93.58","69.55","TALOYOAK A","2403855","2021-05-29 18:00","2021","05","29","18:00","-2.7","","-5.0","","85","","","","36","","2","","24.1","","100.79","","","","-3","","NA"
"-93.58","69.55","TALOYOAK A","2403855","2021-05-29 19:00","2021","05","29","19:00","-3.0","","-4.9","","87","","","","0","","1","","24.1","","100.78","","","","-3","","NA"
"-93.58","69.55","TALOYOAK A","2403855","2021-05-29 20:00","2021","05","29","20:00","-4.2","","-5.2","","92","","","","36","","1","","24.1","","100.75","","","","-5","","Mostly Cloudy"
"-93.58","69.55","TALOYOAK A","2403855","2021-05-29 21:00","2021","05","29","21:00","-5.1","","-5.7","","96","","","","27","","4","","24.1","","100.75","","","","-7","","NA"
"-93.58","69.55","TALOYOAK A","2403855","2021-05-29 22:00","2021","05","29","22:00","-5.0","","-5.6","","95","","","","24","","5","","24.1","","100.73","","","","-7","","NA"
"-93.58","69.55","TALOYOAK A","2403855","2021-05-29 23:00","2021","05","29","23:00","-8.1","","-9.1","","93","","","","17","","4","","0.6","","100.75","","","","-10","","Freezing Fog"
"-93.58","69.55","TALOYOAK A","2403855","2021-05-30 00:00","2021","05","30","00:00","-8.7","","-9.8","","92","","","","16","","5","","0.6","","100.76","","","","-11","","Freezing Fog"
"-93.58","69.55","TALOYOAK A","2403855","2021-05-30 01:00","2021","05","30","01:00","-8.0","","-9.0","","92","","","","36","","2","","4.8","","100.75","","","","-9","","Fog"
"-93.58","69.55","TALOYOAK A","2403855","2021-05-30 02:00","2021","05","30","02:00","-8.2","","-9.3","","92","","","","36","","2","","3.2","","100.74","","","","-9","","Fog"
"-93.58","69.55","TALOYOAK A","2403855","2021-05-30 03:00","2021","05","30","03:00","-8.1","","-9.2","","92","","","","14","","6","","6.4","","100.74","","","","-11","","Fog"
"-93.58","69.55","TALOYOAK A","2403855","2021-05-30 04:00","2021","05","30","04:00","-8.7","","-9.9","","92","","","","2","","4","","4.8","","100.74","","","","-11","","Fog"
"-93.58","69.55","TALOYOAK A","2403855","2021-05-30 05:00","2021","05","30","05:00","-7.7","","-8.7","","92","","","","15","","5","","6.4","","100.72","","","","-10","","Fog"
"-93.58","69.55","TALOYOAK A","2403855","2021-05-30 06:00","2021","05","30","06:00","-7.5","","-8.6","","92","","","","24","","6","","9.7","","100.70","","","","-11","","Fog"
"-93.58","69.55","TALOYOAK A","2403855","2021-05-30 07:00","2021","05","30","07:00","-6.5","","-7.5","","93","","","","36","","4","","19.3","","100.71","","","","-8","","NA"
"-93.58","69.55","TALOYOAK A","2403855","2021-05-30 08:00","2021","05","30","08:00","-6.4","","-7.4","","93","","","","23","","5","","19.3","","100.69","","","","-9","","Mostly Cloudy"
"-93.58","69.55","TALOYOAK A","2403855","2021-05-30 09:00","2021","05","30","09:00","-5.8","","-6.7","","93","","","","21","","7","","24.1","","100.67","","","","-9","","NA"
"-93.58","69.55","TALOYOAK A","2403855","2021-05-30 10:00","2021","05","30","10:00","-5.8","","-6.8","","93","","","","23","","8","","24.1","","100.65","","","","-10","","NA"
"-93.58","69.55","TALOYOAK A","2403855","2021-05-30 11:00","2021","05","30","11:00","-5.2","","-6.7","","89","","","","26","","5","","24.1","","100.67","","","","-7","","Mostly Cloudy"
"-93.58","69.55","TALOYOAK A","2403855","2021-05-30 12:00","2021","05","30","12:00","-4.8","","-7.4","","82","","","","28","","9","","24.1","","100.67","","","","-9","","NA"
"-93.58","69.55","TALOYOAK A","2403855","2021-05-30 13:00","2021","05","30","13:00","-4.5","","-7.3","","81","","","","36","","2","","24.1","","100.67","","","","-5","","NA"
"-93.58","69.55","TALOYOAK A","2403855","2021-05-30 14:00","2021","05","30","14:00","-3.7","","-6.6","","81","","","","25","","8","","24.1","","100.67","","","","-7","","Mostly Cloudy"
"-93.58","69.55","TALOYOAK A","2403855","2021-05-30 15:00","2021","05","30","15:00","-3.8","","-6.8","","80","","","","23","","5","","24.1","","100.66","","","","-6","","NA"
"-93.58","69.55","TALOYOAK A","2403855","2021-05-30 16:00","2021","05","30","16:00","-3.1","","-5.8","","82","","","","29","","15","","24.1","","100.68","","","","-8","","NA"
"-93.58","69.55","TALOYOAK A","2403855","2021-05-30 17:00","2021","05","30","17:00","-3.6","","-5.9","","84","","","","29","","10","","24.1","","100.70","","","","-8","","Clear"
"-93.58","69.55","TALOYOAK A","2403855","2021-05-30 18:00","2021","05","30","18:00","-4.2","","-6.6","","83","","","","29","","13","","24.1","","100.73","","","","-9","","NA"
"-93.58","69.55","TALOYOAK A","2403855","2021-05-30 19:00","2021","05","30","19:00","-5.4","","-7.2","","88","","","","29","","11","","24.1","","100.72","","","","-10","","NA"
"-93.58","69.55","TALOYOAK A","2403855","2021-05-30 20:00","2021","05","30","20:00","-7.0","","-8.0","","92","","","","28","","13","","24.1","","100.73","","","","-13","","Mostly Cloudy"
"-93.58","69.55","TALOYOAK A","2403855","2021-05-30 21:00","2021","05","30","21:00","-6.6","","-7.4","","94","","","","29","","16","","16.1","","100.75","","","","-13","","NA"
"-93.58","69.55","TALOYOAK A","2403855","2021-05-30 22:00","2021","05","30","22:00","-7.5","","-8.5","","93","","","","29","","14","","12.9","","100.75","","","","-13","","NA"
"-93.58","69.55","TALOYOAK A","2403855","2021-05-30 23:00","2021","05","30","23:00","-9.2","","-10.4","","91","","","","28","","12","","24.1","","100.78","","","","-15","","Mainly Clear"
"-93.58","69.55","TALOYOAK A","2403855","2021-05-31 00:00","2021","05","31","00:00","-9.7","","-10.9","","91","","","","30","","16","","24.1","","100.81","","","","-17","","NA"
"-93.58","69.55","TALOYOAK A","2403855","2021-05-31 01:00","2021","05","31","01:00","-9.1","","-10.3","","92","","","","28","","10","","3.2","","100.83","","","","-14","","Fog"
"-93.58","69.55","TALOYOAK A","2403855","2021-05-31 02:00","2021","05","31","02:00","-7.8","","-8.8","","92","","","","34","","11","","16.1","","100.85","","","","-13","","Mostly Cloudy"
"-93.58","69.55","TALOYOAK A","2403855","2021-05-31 03:00","2021","05","31","03:00","-6.9","","-7.9","","93","","","","31","","13","","24.1","","100.87","","","","-12","","NA"
"-93.58","69.55","TALOYOAK A","2403855","2021-05-31 04:00","2021","05","31","04:00","-7.0","","-8.1","","92","","","","34","","15","","24.1","","100.91","","","","-13","","NA"
"-93.58","69.55","TALOYOAK A","2403855","2021-05-31 05:00","2021","05","31","05:00","-6.7","","-7.7","","93","","","","34","","10","","24.1","","100.93","","","","-11","","Mostly Cloudy"
"-93.58","69.55","TALOYOAK A","2403855","2021-05-31 06:00","2021","05","31","06:00","-5.5","","-7.4","","87","","","","25","","5","","24.1","","100.95","","","","-8","","NA"
"-93.58","69.55","TALOYOAK A","2403855","2021-05-31 07:00","2021","05","31","07:00","-5.8","","-7.5","","88","","","","36","","2","","24.1","","100.96","","","","-7","","NA"
"-93.58","69.55","TALOYOAK A","2403855","2021-05-31 08:00","2021","05","31","08:00","-5.7","","-7.4","","88","","","","16","","6","","24.1","","100.99","","","","-9","","Cloudy"
"-93.58","69.55","TALOYOAK A","2403855","2021-05-31 09:00","2021","05","31","09:00","-5.0","","-7.0","","86","","","","17","","5","","24.1","","101.00","","","","-7","","NA"
"-93.58","69.55","TALOYOAK A","2403855","2021-05-31 10:00","2021","05","31","10:00","-4.4","","-6.6","","84","","","","18","","9","","24.1","","101.01","","","","-8","","NA"
"-93.58","69.55","TALOYOAK A","2403855","2021-05-31 11:00","2021","05","31","11:00","-4.0","","-6.7","","81","","","","19","","8","","24.1","","101.02","","","","-7","","Cloudy"
"-93.58","69.55","TALOYOAK A","2403855","2021-05-31 12:00","2021","05","31","12:00","-3.8","","-7.2","","78","","","","27","","4","","24.1","","101.04","","","","-5","","NA"
"-93.58","69.55","TALOYOAK A","2403855","2021-05-31 13:00","2021","05","31","13:00","-3.6","","-7.0","","77","","","","36","","3","","24.1","","101.06","","","","-5","","NA"
"-93.58","69.55","TALOYOAK A","2403855","2021-05-31 14:00","2021","05","31","14:00","-3.2","","-5.9","","82","","","","28","","9","","24.1","","101.08","","","","-7","","Mostly Cloudy"
"-93.58","69.55","TALOYOAK A","2403855","2021-05-31 15:00","2021","05","31","15:00","-3.7","","-6.6","","80","","","","24","","10","","24.1","","101.10","","","","-8","","NA"
"-93.58","69.55","TALOYOAK A","2403855","2021-05-31 16:00","2021","05","31","16:00","-3.0","","-6.3","","78","","","","30","","10","","24.1","","101.09","","","","-7","","NA"
"-93.58","69.55","TALOYOAK A","2403855","2021-05-31 17:00","2021","05","31","17:00","-3.6","","-6.8","","79","","","","33","","9","","24.1","","101.09","","","","-7","","Mainly Clear"
"-93.58","69.55","TALOYOAK A","2403855","2021-05-31 18:00","2021","05","31","18:00","-4.2","","-6.5","","84","","","","27","","14","","24.1","","101.10","","","","-9","","NA"
"-93.58","69.55","TALOYOAK A","2403855","2021-05-31 19:00","2021","05","31","19:00","-5.5","","-7.5","","85","","","","27","","13","","24.1","","101.08","","","","-11","","NA"
"-93.58","69.55","TALOYOAK A","2403855","2021-05-31 20:00","2021","05","31","20:00","-6.2","","-8.0","","87","","","","28","","13","","24.1","","101.07","","","","-12","","Mainly Clear"
"-93.58","69.55","TALOYOAK A","2403855","2021-05-31 21:00","2021","05","31","21:00","-7.5","","-9.1","","88","","","","24","","9","","24.1","","101.06","","","","-12","","NA"
"-93.58","69.55","TALOYOAK A","2403855","2021-05-31 22:00","2021","05","31","22:00","-8.7","","-10.2","","89","","","","17","","6","","24.1","","101.04","","","","-12","","NA"
"-93.58","69.55","TALOYOAK A","2403855","2021-05-31 23:00","2021","05","31","23:00","-9.2","","-10.4","","91","","","","14","","4","","24.1","","101.03","","","","-11","","Mostly Cloudy"
