"Longitude (x)","Latitude (y)","Station Name","Climate ID","Date/Time (LST)","Year","Month","Day","Time (LST)","Temp (°C)","Temp Flag","Dew Point Temp (°C)","Dew Point Temp Flag","Rel Hum (%)","Rel Hum Flag","Precip. Amount (mm)","Precip. Amount Flag","Wind Dir (10s deg)","Wind Dir Flag","Wind Spd (km/h)","Wind Spd Flag","Visibility (km)","Visibility Flag","Stn Press (kPa)","Stn Press Flag","Hmdx","Hmdx Flag","Wind Chill","Wind Chill Flag","Weather"
"-122.36","49.03","ABBOTSFORD A","1100031","2023-01-01 00:00","2023","01","01","00:00","5.5","","4.9","","96","","","","20","","5","","16.1","","100.97","","","","","","NA"
"-122.36","49.03","ABBOTSFORD A","1100031","2023-01-01 01:00","2023","01","01","01:00","5.8","","5.2","","96","","","","36","","3","","16.1","","101.02","","","","","","Cloudy"
"-122.36","49.03","ABBOTSFORD A","1100031","2023-01-01 02:00","2023","01","01","02:00","6.0","","5.3","","96","","","","28","","5","","12.9","","101.09","","","","","","NA"
"-122.36","49.03","ABBOTSFORD A","1100031","2023-01-01 03:00","2023","01","01","03:00","5.7","","5.2","","97","","","","22","","8","","11.3","","101.19","","","","","","NA"
"-122.36","49.03","ABBOTSFORD A","1100031","2023-01-01 04:00","2023","01","01","04:00","5.3","","5.1","","98","","","","12","","8","","11.3","","101.22","","","","","","Cloudy"
"-122.36","49.03","ABBOTSFORD A","1100031","2023-01-01 05:00","2023","01","01","05:00","5.3","","5.2","","99","","","","9","","8","","11.3","","101.25","","","","","","NA"
"-122.36","49.03","ABBOTSFORD A","1100031","2023-01-01 06:00","2023","01","01","06:00","5.3","","5.1","","99","","","","36","","3","","3.2","","101.30","","","","","","Drizzle"
"-122.36","49.03","ABBOTSFORD A","1100031","2023-01-01 07:00","2023","01","01","07:00","5.1","","5.0","","99","","","","35","","5","","3.2","","101.32","","","","","","Rain,Drizzle"
"-122.36","49.03","ABBOTSFORD A","1100031","2023-01-01 08:00","2023","01","01","08:00","5.1","","5.0","","99","","","","32","","3","","3.2","","101.35","","","","","","Rain,Drizzle"
"-122.36","49.03","ABBOTSFORD A","1100031","2023-01-01 09:00","2023","01","01","09:00","5.0","","5.0","","99","","","","2","","4","","4.8","","101.43","","","","","","Fog"
"-122.36","49.03","ABBOTSFORD A","1100031","2023-01-01 10:00","2023","01","01","10:00","5.0","","4.9","","99","","","","36","","1","","3.2","","101.50","","","","","","Drizzle"
"-122.36","49.03","ABBOTSFORD A","1100031","2023-01-01 11:00","2023","01","01","11:00","5.4","","5.3","","99","","","","7","","8","","8.1","","101.42","","","","","","Rain"
"-122.36","49.03","ABBOTSFORD A","1100031","2023-01-01 12:00","2023","01","01","12:00","6.1","","5.6","","96","","","","35","","8","","11.3","","101.36","","","","","","NA"
"-122.36","49.03","ABBOTSFORD A","1100031","2023-01-01 13:00","2023","01","01","13:00","6.1","","5.4","","96","","","","29","","6","","11.3","","101.36","","","","","","Cloudy"
"-122.36","49.03","ABBOTSFORD A","1100031","2023-01-01 14:00","2023","01","01","14:00","6.3","","5.5","","94","","","","8","","7","","11.3","","101.27","","","","","","NA"
"-122.36","49.03","ABBOTSFORD A","1100031","2023-01-01 15:00","2023","01","01","15:00","6.5","","5.5","","93","","","","36","","3","","16.1","","101.24","","","","","","NA"
"-122.36","49.03","ABBOTSFORD A","1100031","2023-01-01 16:00","2023","01","01","16:00","5.7","","4.8","","94","","","","2","","10","","16.1","","101.19","","","","","","Mostly Cloudy"
"-122.36","49.03","ABBOTSFORD A","1100031","2023-01-01 17:00","2023","01","01","17:00","4.0","","3.7","","98","","","","35","","8","","24.1","","101.12","","","","","","NA"
"-122.36","49.03","ABBOTSFORD A","1100031","2023-01-01 18:00","2023","01","01","18:00","2.8","","2.7","","99","","","","","","0","","24.1","","101.10","","","","","","NA"
"-122.36","49.03","ABBOTSFORD A","1100031","2023-01-01 19:00","2023","01","01","19:00","1.1","","1.1","","99","","","","2","","7","","11.3","","101.07","","","","","","Fog"
"-122.36","49.03","ABBOTSFORD A","1100031","2023-01-01 20:00","2023","01","01","20:00","1.6","","1.6","","100","","","","3","","13","","3.2","","100.99","","","","","","Fog"
"-122.36","49.03","ABBOTSFORD A","1100031","2023-01-01 21:00","2023","01","01","21:00","1.6","","1.5","","100","","","","4","","6","","9.7","","100.97","","","","","","Fog"
"-122.36","49.03","ABBOTSFORD A","1100031","2023-01-01 22:00","2023","01","01","22:00","1.8","","1.7","","100","","","","4","","10","","16.1","","100.96","","","","","","Clear"
"-122.36","49.03","ABBOTSFORD A","1100031","2023-01-01 23:00","2023","01","01","23:00","0.8","","0.7","","99","","","","36","","8","","24.1","","100.90","","","","","","NA"
"-122.36","49.03","ABBOTSFORD A","1100031","2023-01-02 00:00","2023","01","02","00:00","0.9","","0.8","","99","","","","1","","8","","24.1","","100.83","","","","","","NA"
"-122.36","49.03","ABBOTSFORD A","1100031","2023-01-02 01:00","2023","01","02","01:00","0.8","","0.7","","99","","","","5","","6","","24.1","","100.74","","","","","","Clear"
"-122.36","49.03","ABBOTSFORD A","1100031","2023-01-02 02:00","2023","01","02","02:00","0.1","","-0.1","","99","","","","1","","10","","24.1","","100.61","","","","","","NA"
"-122.36","49.03","ABBOTSFORD A","1100031","2023-01-02 03:00","2023","01","02","03:00","1.3","","0.7","","96","","","","3","","13","","24.1","","100.52","","","","","","NA"
"-122.36","49.03","ABBOTSFORD A","1100031","2023-01-02 04:00","2023","01","02","04:00","0.7","","0.0","","95","","","","2","","9","","24.1","","100.43","","","","","","Clear"
"-122.36","49.03","ABBOTSFORD A","1100031","2023-01-02 05:00","2023","01","02","05:00","1.0","","0.0","","94","","","","32","","7","","24.1","","100.41","","","","","","NA"
"-122.36","49.03","ABBOTSFORD A","1100031","2023-01-02 06:00","2023","01","02","06:00","2.1","","0.2","","88","","","","6","","17","","24.1","","100.33","","","","","","NA"
"-122.36","49.03","ABBOTSFORD A","1100031","2023-01-02 07:00","2023","01","02","07:00","2.0","","-0.6","","83","","","","1","","11","","24.1","","100.21","","","","","","Mostly Cloudy"
"-122.36","49.03","ABBOTSFORD A","1100031","2023-01-02 08:00","2023","01","02","08:00","1.9","","-0.7","","83","","","","3","","5","","40.2","","100.16","","","","","","NA"
"-122.36","49.03","ABBOTSFORD A","1100031","2023-01-02 09:00","2023","01","02","09:00","1.7","","-0.8","","84","","","","2","","6","","40.2","","100.13","","","","","","NA"
"-122.36","49.03","ABBOTSFORD A","1100031","2023-01-02 10:00","2023","01","02","10:00","2.0","","-0.1","","86","","","","2","","10","","40.2","","100.07","","","","","","Mostly Cloudy"
"-122.36","49.03","ABBOTSFORD A","1100031","2023-01-02 11:00","2023","01","02","11:00","4.2","","1.0","","79","","","","2","","5","","40.2","","100.00","","","","","","NA"
"-122.36","49.03","ABBOTSFORD A","1100031","2023-01-02 12:00","2023","01","02","12:00","5.3","","0.3","","70","","","","2","","7","","40.2","","99.95","","","","","","NA"
"-122.36","49.03","ABBOTSFORD A","1100031","2023-01-02 13:00","2023","01","02","13:00","5.7","","-0.7","","63","","","","5","","15","","40.2","","99.84","","","","","","Mostly Cloudy"
"-122.36","49.03","ABBOTSFORD A","1100031","2023-01-02 14:00","2023","01","02","14:00","5.9","","-0.8","","62","","","","4","","15","","40.2","","99.79","","","","","","NA"
"-122.36","49.03","ABBOTSFORD A","1100031","2023-01-02 15:00","2023","01","02","15:00","5.4","","-0.9","","64","","","","8","","18","","40.2","","99.78","","","","","","NA"
"-122.36","49.03","ABBOTSFORD A","1100031","2023-01-02 16:00","2023","01","02","16:00","4.8","","-1.7","","63","","","","6","","21","","40.2","","99.79","","","","","","Mostly Cloudy"
"-122.36","49.03","ABBOTSFORD A","1100031","2023-01-02 17:00","2023","01","02","17:00","3.5","","-1.2","","71","","","","6","","8","","40.2","","99.82","","","","","","NA"
"-122.36","49.03","ABBOTSFORD A","1100031","2023-01-02 18:00","2023","01","02","18:00","3.3","","-1.8","","69","","","","5","","7","","40.2","","99.83","","","","","","NA"
"-122.36","49.03","ABBOTSFORD A","1100031","2023-01-02 19:00","2023","01","02","19:00","2.5","","-2.1","","72","","","","3","","7","","40.2","","99.86","","","","","","Clear"
"-122.36","49.03","ABBOTSFORD A","1100031","2023-01-02 20:00","2023","01","02","20:00","-0.3","","-2.3","","86","","","","36","","8","","24.1","","99.85","","","","-3","","NA"
"-122.36","49.03","ABBOTSFORD A","1100031","2023-01-02 21:00","2023","01","02","21:00","2.4","","-1.8","","74","","","","6","","10","","24.1","","99.90","","","","","","NA"
"-122.36","49.03","ABBOTSFORD A","1100031","2023-01-02 22:00","2023","01","02","22:00","1.0","","-1.6","","83","","","","36","","7","","24.1","","99.90","","","","","","Clear"
"-122.36","49.03","ABBOTSFORD A","1100031","2023-01-02 23:00","2023","01","02","23:00","2.0","","-2.2","","74","","","","6","","16","","24.1","","99.94","","","","","","NA"
"-122.36","49.03","ABBOTSFORD A","1100031","2023-01-03 00:00","2023","01","03","00:00","0.0","","-2.2","","85","","","","2","","7","","24.1","","99.94","","","","-2","","NA"
"-122.36","49.03","ABBOTSFORD A","1100031","2023-01-03 01:00","2023","01","03","01:00","2.0","","-1.9","","76","","","","5","","12","","24.1","","99.94","","","","","","Cloudy"
"-122.36","49.03","ABBOTSFORD A","1100031","2023-01-03 02:00","2023","01","03","02:00","1.3","","-1.0","","85","","","","5","","5","","24.1","","100.00","","","","","","NA"
"-122.36","49.03","ABBOTSFORD A","1100031","2023-01-03 03:00","2023","01","03","03:00","2.2","","-1.9","","74","","","","5","","7","","24.1","","100.06","","","","","","NA"
"-122.36","49.03","ABBOTSFORD A","1100031","2023-01-03 04:00","2023","01","03","04:00","1.9","","-1.8","","77","","","","17","","4","","16.1","","100.18","","","","","","Cloudy"
"-122.36","49.03","ABBOTSFORD A","1100031","2023-01-03 05:00","2023","01","03","05:00","1.0","","-0.4","","90","","","","15","","5","","9.7","","100.23","","","","","","Rain"
"-122.36","49.03","ABBOTSFORD A","1100031","2023-01-03 06:00","2023","01","03","06:00","0.9","","-0.1","","93","","","","36","","8","","16.1","","100.27","","","","","","Rain"
"-122.36","49.03","ABBOTSFORD A","1100031","2023-01-03 07:00","2023","01","03","07:00","0.8","","-0.1","","94","","","","5","","5","","12.9","","100.31","","","","","","Cloudy"
"-122.36","49.03","ABBOTSFORD A","1100031","2023-01-03 08:00","2023","01","03","08:00","0.8","","0.4","","97","","","","6","","3","","16.1","","100.37","","","","","","Rain"
"-122.36","49.03","ABBOTSFORD A","1100031","2023-01-03 09:00","2023","01","03","09:00","1.0","","0.5","","96","","","","36","","7","","19.3","","100.42","","","","","","Rain"
"-122.36","49.03","ABBOTSFORD A","1100031","2023-01-03 10:00","2023","01","03","10:00","0.8","","0.5","","98","","","","3","","9","","4.8","","100.48","","","","","","Rain"
"-122.36","49.03","ABBOTSFORD A","1100031","2023-01-03 11:00","2023","01","03","11:00","1.3","","1.0","","98","","","","3","","9","","16.1","","100.48","","","","","","NA"
"-122.36","49.03","ABBOTSFORD A","1100031","2023-01-03 12:00","2023","01","03","12:00","1.6","","1.3","","98","","","","2","","11","","12.9","","100.49","","","","","","NA"
"-122.36","49.03","ABBOTSFORD A","1100031","2023-01-03 13:00","2023","01","03","13:00","3.6","","2.1","","90","","","","36","","12","","16.1","","100.47","","","","","","Mostly Cloudy"
"-122.36","49.03","ABBOTSFORD A","1100031","2023-01-03 14:00","2023","01","03","14:00","3.3","","2.2","","93","","","","2","","13","","24.1","","100.49","","","","","","NA"
"-122.36","49.03","ABBOTSFORD A","1100031","2023-01-03 15:00","2023","01","03","15:00","3.3","","2.2","","92","","","","2","","9","","32.2","","100.48","","","","","","NA"
"-122.36","49.03","ABBOTSFORD A","1100031","2023-01-03 16:00","2023","01","03","16:00","2.8","","1.5","","92","","","","2","","13","","40.2","","100.47","","","","","","Mainly Clear"
"-122.36","49.03","ABBOTSFORD A","1100031","2023-01-03 17:00","2023","01","03","17:00","1.0","","0.5","","96","","","","2","","11","","32.2","","100.48","","","","","","NA"
"-122.36","49.03","ABBOTSFORD A","1100031","2023-01-03 18:00","2023","01","03","18:00","1.4","","0.8","","96","","","","3","","10","","16.1","","100.47","","","","","","NA"
"-122.36","49.03","ABBOTSFORD A","1100031","2023-01-03 19:00","2023","01","03","19:00","1.1","","0.5","","96","","","","4","","9","","16.1","","100.47","","","","","","Mainly Clear"
"-122.36","49.03","ABBOTSFORD A","1100031","2023-01-03 20:00","2023","01","03","20:00","0.6","","0.2","","97","","","","3","","13","","24.1","","100.50","","","","","","NA"
"-122.36","49.03","ABBOTSFORD A","1100031","2023-01-03 21:00","2023","01","03","21:00","0.1","","-0.4","","97","","","","1","","9","","24.1","","100.53","","","","","","NA"
"-122.36","49.03","ABBOTSFORD A","1100031","2023-01-03 22:00","2023","01","03","22:00","0.7","","0.2","","97","","","","4","","7","","24.1","","100.59","","","","","","Mostly Cloudy"
"-122.36","49.03","ABBOTSFORD A","1100031","2023-01-03 23:00","2023","01","03","23:00","1.0","","0.2","","95","","","","2","","10","","24.1","","100.64","","","","","","NA"
"-122.36","49.03","ABBOTSFORD A","1100031","2023-01-04 00:00","2023","01","04","00:00","1.0","","-0.2","","92","","","","2","","13","","24.1","","100.64","","","","","","NA"
"-122.36","49.03","ABBOTSFORD A","1100031","2023-01-04 01:00","2023","01","04","01:00","0.8","","-0.4","","92","","","","3","","9","","24.1","","100.66","","","","","","Mostly Cloudy"
"-122.36","49.03","ABBOTSFORD A","1100031","2023-01-04 02:00","2023","01","04","02:00","1.6","","-0.1","","88","","","","1","","7","","24.1","","100.68","","","","","","NA"
"-122.36","49.03","ABBOTSFORD A","1100031","2023-01-04 03:00","2023","01","04","03:00","2.5","","-0.7","","80","","","","7","","11","","24.1","","100.72","","","","","","NA"
"-122.36","49.03","ABBOTSFORD A","1100031","2023-01-04 04:00","2023","01","04","04:00","2.2","","-0.1","","85","","","","1","","5","","24.1","","100.70","","","","","","Cloudy"
"-122.36","49.03","ABBOTSFORD A","1100031","2023-01-04 05:00","2023","01","04","05:00","1.9","","-0.3","","85","","","","2","","5","","24.1","","100.69","","","","","","NA"
"-122.36","49.03","ABBOTSFORD A","1100031","2023-01-04 06:00","2023","01","04","06:00","1.5","","-0.2","","88","","","","2","","14","","24.1","","100.53","","","","","","NA"
"-122.36","49.03","ABBOTSFORD A","1100031","2023-01-04 07:00","2023","01","04","07:00","2.0","","-1.0","","80","","","","1","","7","","24.1","","100.61","","","","","","Mostly Cloudy"
"-122.36","49.03","ABBOTSFORD A","1100031","2023-01-04 08:00","2023","01","04","08:00","1.1","","-1.3","","84","","","","35","","11","","48.3","","100.63","","","","","","NA"
"-122.36","49.03","ABBOTSFORD A","1100031","2023-01-04 09:00","2023","01","04","09:00","2.5","","-1.3","","76","","","","2","","5","","48.3","","100.64","","","","","","NA"
"-122.36","49.03","ABBOTSFORD A","1100031","2023-01-04 10:00","2023","01","04","10:00","3.6","","-3.0","","62","","","","6","","13","","48.3","","100.57","","","","","","Mainly Clear"
"-122.36","49.03","ABBOTSFORD A","1100031","2023-01-04 11:00","2023","01","04","11:00","4.3","","-3.7","","56","","","","6","","27","","48.3","","100.44","","","","","","NA"
"-122.36","49.03","ABBOTSFORD A","1100031","2023-01-04 12:00","2023","01","04","12:00","4.5","","-3.9","","54","","","","6","","19","","48.3","","100.31","","","","","","NA"
"-122.36","49.03","ABBOTSFORD A","1100031","2023-01-04 13:00","2023","01","04","13:00","5.2","","-4.1","","51","","","","7","","27","","48.3","","100.15","","","","","","Mostly Cloudy"
"-122.36","49.03","ABBOTSFORD A","1100031","2023-01-04 14:00","2023","01","04","14:00","5.3","","-4.2","","50","","","","7","","19","","48.3","","100.09","","","","","","NA"
"-122.36","49.03","ABBOTSFORD A","1100031","2023-01-04 15:00","2023","01","04","15:00","6.0","","-4.0","","49","","","","7","","19","","48.3","","100.03","","","","","","NA"
"-122.36","49.03","ABBOTSFORD A","1100031","2023-01-04 16:00","2023","01","04","16:00","6.2","","-4.4","","47","","","","6","","25","","48.3","","99.96","","","","","","Cloudy"
"-122.36","49.03","ABBOTSFORD A","1100031","2023-01-04 17:00","2023","01","04","17:00","6.4","","-4.6","","45","","","","6","","20","","48.3","","99.90","","","","","","NA"
"-122.36","49.03","ABBOTSFORD A","1100031","2023-01-04 18:00","2023","01","04","18:00","6.3","","-4.2","","47","","","","7","","22","","24.1","","99.82","","","","","","NA"
"-122.36","49.03","ABBOTSFORD A","1100031","2023-01-04 19:00","2023","01","04","19:00","6.8","","-4.3","","45","","","","6","","20","","24.1","","99.73","","","","","","Cloudy"
"-122.36","49.03","ABBOTSFORD A","1100031","2023-01-04 20:00","2023","01","04","20:00","6.7","","-3.9","","47","","","","6","","23","","24.1","","99.66","","","","","","NA"
"-122.36","49.03","ABBOTSFORD A","1100031","2023-01-04 21:00","2023","01","04","21:00","6.7","","-3.6","","48","","","","7","","21","","24.1","","99.53","","","","","","NA"
"-122.36","49.03","ABBOTSFORD A","1100031","2023-01-04 22:00","2023","01","04","22:00","7.3","","-3.3","","47","","","","7","","21","","24.1","","99.47","","","","","","Cloudy"
"-122.36","49.03","ABBOTSFORD A","1100031","2023-01-04 23:00","2023","01","04","23:00","7.0","","-3.1","","49","","","","6","","17","","24.1","","99.46","","","","","","NA"
"-122.36","49.03","ABBOTSFORD A","1100031","2023-01-05 00:00","2023","01","05","00:00","7.4","","-2.2","","50","","","","7","","19","","24.1","","99.36","","","","","","Rain Showers"
"-122.36","49.03","ABBOTSFORD A","1100031","2023-01-05 01:00","2023","01","05","01:00","8.4","","-1.9","","48","","","","6","","19","","24.1","","99.26","","","","","","Rain Showers"
"-122.36","49.03","ABBOTSFORD A","1100031","2023-01-05 02:00","2023","01","05","02:00","7.7","","-0.8","","55","","","","7","","22","","24.1","","99.17","","","","","","Rain Showers"
"-122.36","49.03","ABBOTSFORD A","1100031","2023-01-05 03:00","2023","01","05","03:00","7.1","","-0.6","","58","","","","8","","28","","24.1","","99.22","","","","","","Rain Showers"
"-122.36","49.03","ABBOTSFORD A","1100031","2023-01-05 04:00","2023","01","05","04:00","6.8","","0.1","","62","","","","5","","13","","24.1","","99.19","","","","","","Rain Showers"
"-122.36","49.03","ABBOTSFORD A","1100031","2023-01-05 05:00","2023","01","05","05:00","7.0","","0.9","","65","","","","3","","14","","24.1","","99.17","","","","","","Rain Showers"
"-122.36","49.03","ABBOTSFORD A","1100031","2023-01-05 06:00","2023","01","05","06:00","7.0","","0.4","","63","","","","4","","11","","24.1","","99.12","","","","","","NA"
"-122.36","49.03","ABBOTSFORD A","1100031","2023-01-05 07:00","2023","01","05","07:00","6.4","","0.7","","67","","","","6","","8","","24.1","","99.07","","","","","","Cloudy"
"-122.36","49.03","ABBOTSFORD A","1100031","2023-01-05 08:00","2023","01","05","08:00","6.7","","0.8","","66","","","","3","","14","","40.2","","98.96","","","","","","NA"
"-122.36","49.03","ABBOTSFORD A","1100031","2023-01-05 09:00","2023","01","05","09:00","7.3","","0.9","","64","","","","4","","10","","40.2","","99.05","","","","","","NA"
"-122.36","49.03","ABBOTSFORD A","1100031","2023-01-05 10:00","2023","01","05","10:00","7.7","","1.4","","64","","","","3","","6","","48.3","","99.06","","","","","","Mostly Cloudy"
"-122.36","49.03","ABBOTSFORD A","1100031","2023-01-05 11:00","2023","01","05","11:00","9.0","","1.8","","61","","","","4","","7","","48.3","","99.09","","","","","","NA"
"-122.36","49.03","ABBOTSFORD A","1100031","2023-01-05 12:00","2023","01","05","12:00","9.2","","2.0","","61","","","","3","","10","","40.2","","99.18","","","","","","Rain Showers"
"-122.36","49.03","ABBOTSFORD A","1100031","2023-01-05 13:00","2023","01","05","13:00","9.9","","1.7","","57","","","","7","","11","","40.2","","99.13","","","","","","Mostly Cloudy"
"-122.36","49.03","ABBOTSFORD A","1100031","2023-01-05 14:00","2023","01","05","14:00","9.9","","2.2","","59","","","","4","","4","","40.2","","99.13","","","","","","NA"
"-122.36","49.03","ABBOTSFORD A","1100031","2023-01-05 15:00","2023","01","05","15:00","9.9","","1.6","","56","","","","3","","11","","40.2","","99.14","","","","","","NA"
"-122.36","49.03","ABBOTSFORD A","1100031","2023-01-05 16:00","2023","01","05","16:00","9.5","","1.3","","56","","","","7","","10","","40.2","","99.23","","","","","","Rain Showers"
"-122.36","49.03","ABBOTSFORD A","1100031","2023-01-05 17:00","2023","01","05","17:00","8.6","","1.4","","61","","","","7","","14","","32.2","","99.37","","","","","","NA"
"-122.36","49.03","ABBOTSFORD A","1100031","2023-01-05 18:00","2023","01","05","18:00","8.5","","2.2","","65","","","","10","","7","","24.1","","99.45","","","","","","NA"
"-122.36","49.03","ABBOTSFORD A","1100031","2023-01-05 19:00","2023","01","05","19:00","8.2","","2.9","","69","","","","10","","21","","24.1","","99.54","","","","","","Rain Showers"
"-122.36","49.03","ABBOTSFORD A","1100031","2023-01-05 20:00","2023","01","05","20:00","9.2","","3.8","","69","","","","11","","22","","24.1","","99.68","","","","","","NA"
"-122.36","49.03","ABBOTSFORD A","1100031","2023-01-05 21:00","2023","01","05","21:00","8.3","","3.6","","72","","","","9","","17","","24.1","","99.80","","","","","","NA"
"-122.36","49.03","ABBOTSFORD A","1100031","2023-01-05 22:00","2023","01","05","22:00","11.8","","4.8","","62","","","","14","","19","","24.1","","99.93","","","","","","Cloudy"
"-122.36","49.03","ABBOTSFORD A","1100031","2023-01-05 23:00","2023","01","05","23:00","11.4","","4.8","","64","","","","18","","34","","24.1","","100.09","","","","","","NA"
"-122.36","49.03","ABBOTSFORD A","1100031","2023-01-06 00:00","2023","01","06","00:00","11.1","","4.8","","65","","","","17","","35","","24.1","","100.25","","","","","","NA"
"-122.36","49.03","ABBOTSFORD A","1100031","2023-01-06 01:00","2023","01","06","01:00","10.6","","4.9","","67","","","","17","","24","","24.1","","100.35","","","","","","Cloudy"
"-122.36","49.03","ABBOTSFORD A","1100031","2023-01-06 02:00","2023","01","06","02:00","10.3","","4.9","","69","","","","18","","24","","24.1","","100.47","","","","","","NA"
"-122.36","49.03","ABBOTSFORD A","1100031","2023-01-06 03:00","2023","01","06","03:00","10.2","","4.6","","68","","","","18","","29","","24.1","","100.56","","","","","","NA"
"-122.36","49.03","ABBOTSFORD A","1100031","2023-01-06 04:00","2023","01","06","04:00","9.8","","4.8","","71","","","","18","","19","","24.1","","100.62","","","","","","Cloudy"
"-122.36","49.03","ABBOTSFORD A","1100031","2023-01-06 05:00","2023","01","06","05:00","9.7","","4.3","","69","","","","20","","20","","24.1","","100.66","","","","","","NA"
"-122.36","49.03","ABBOTSFORD A","1100031","2023-01-06 06:00","2023","01","06","06:00","9.3","","4.2","","70","","","","21","","16","","24.1","","100.71","","","","","","NA"
"-122.36","49.03","ABBOTSFORD A","1100031","2023-01-06 07:00","2023","01","06","07:00","8.5","","3.3","","69","","","","20","","18","","24.1","","100.73","","","","","","Mostly Cloudy"
"-122.36","49.03","ABBOTSFORD A","1100031","2023-01-06 08:00","2023","01","06","08:00","6.4","","2.5","","76","","","","22","","6","","40.2","","100.78","","","","","","NA"
"-122.36","49.03","ABBOTSFORD A","1100031","2023-01-06 09:00","2023","01","06","09:00","9.2","","2.7","","64","","","","17","","11","","40.2","","100.87","","","","","","NA"
"-122.36","49.03","ABBOTSFORD A","1100031","2023-01-06 10:00","2023","01","06","10:00","10.8","","1.8","","54","","","","14","","13","","48.3","","100.87","","","","","","Mostly Cloudy"
"-122.36","49.03","ABBOTSFORD A","1100031","2023-01-06 11:00","2023","01","06","11:00","10.2","","3.2","","62","","","","5","","15","","48.3","","100.84","","","","","","NA"
"-122.36","49.03","ABBOTSFORD A","1100031","2023-01-06 12:00","2023","01","06","12:00","10.0","","3.3","","63","","","","6","","12","","48.3","","100.79","","","","","","NA"
"-122.36","49.03","ABBOTSFORD A","1100031","2023-01-06 13:00","2023","01","06","13:00","9.5","","3.5","","66","","","","5","","9","","48.3","","100.79","","","","","","Mostly Cloudy"
"-122.36","49.03","ABBOTSFORD A","1100031","2023-01-06 14:00","2023","01","06","14:00","9.5","","4.0","","68","","","","3","","13","","40.2","","100.73","","","","","","NA"
"-122.36","49.03","ABBOTSFORD A","1100031","2023-01-06 15:00","2023","01","06","15:00","9.3","","4.0","","69","","","","6","","10","","40.2","","100.72","","","","","","NA"
"-122.36","49.03","ABBOTSFORD A","1100031","2023-01-06 16:00","2023","01","06","16:00","8.8","","3.8","","71","","","","5","","8","","40.2","","100.65","","","","","","Mostly Cloudy"
"-122.36","49.03","ABBOTSFORD A","1100031","2023-01-06 17:00","2023","01","06","17:00","7.7","","3.7","","75","","","","36","","11","","32.2","","100.62","","","","","","NA"
"-122.36","49.03","ABBOTSFORD A","1100031","2023-01-06 18:00","2023","01","06","18:00","7.8","","3.7","","75","","","","2","","12","","24.1","","100.53","","","","","","NA"
"-122.36","49.03","ABBOTSFORD A","1100031","2023-01-06 19:00","2023","01","06","19:00","8.2","","3.9","","74","","","","10","","16","","24.1","","100.56","","","","","","Cloudy"
"-122.36","49.03","ABBOTSFORD A","1100031","2023-01-06 20:00","2023","01","06","20:00","6.7","","4.5","","86","","","","36","","4","","20.9","","100.63","","","","","","Rain Showers"
"-122.36","49.03","ABBOTSFORD A","1100031","2023-01-06 21:00","2023","01","06","21:00","6.7","","4.4","","85","","","","35","","7","","20.9","","100.65","","","","","","NA"
"-122.36","49.03","ABBOTSFORD A","1100031","2023-01-06 22:00","2023","01","06","22:00","7.2","","4.5","","83","","","","4","","7","","12.9","","100.68","","","","","","Rain Showers"
"-122.36","49.03","ABBOTSFORD A","1100031","2023-01-06 23:00","2023","01","06","23:00","7.8","","4.1","","78","","","","6","","15","","16.1","","100.70","","","","","","Rain Showers"
"-122.36","49.03","ABBOTSFORD A","1100031","2023-01-07 00:00","2023","01","07","00:00","6.5","","4.6","","88","","","","1","","7","","24.1","","100.72","","","","","","NA"
"-122.36","49.03","ABBOTSFORD A","1100031","2023-01-07 01:00","2023","01","07","01:00","6.0","","5.0","","94","","","","2","","7","","24.1","","100.68","","","","","","Cloudy"
"-122.36","49.03","ABBOTSFORD A","1100031","2023-01-07 02:00","2023","01","07","02:00","5.5","","4.7","","94","","","","5","","4","","24.1","","100.69","","","","","","NA"
"-122.36","49.03","ABBOTSFORD A","1100031","2023-01-07 03:00","2023","01","07","03:00","6.2","","4.8","","91","","","","4","","8","","24.1","","100.69","","","","","","NA"
"-122.36","49.03","ABBOTSFORD A","1100031","2023-01-07 04:00","2023","01","07","04:00","6.0","","4.8","","92","","","","3","","11","","24.1","","100.67","","","","","","Cloudy"
"-122.36","49.03","ABBOTSFORD A","1100031","2023-01-07 05:00","2023","01","07","05:00","5.8","","4.7","","93","","","","6","","4","","24.1","","100.68","","","","","","NA"
"-122.36","49.03","ABBOTSFORD A","1100031","2023-01-07 06:00","2023","01","07","06:00","5.7","","4.6","","93","","","","3","","10","","24.1","","100.61","","","","","","NA"
"-122.36","49.03","ABBOTSFORD A","1100031","2023-01-07 07:00","2023","01","07","07:00","5.7","","4.6","","93","","","","3","","12","","24.1","","100.54","","","","","","Cloudy"
"-122.36","49.03","ABBOTSFORD A","1100031","2023-01-07 08:00","2023","01","07","08:00","5.4","","4.7","","95","","","","3","","10","","32.2","","100.54","","","","","","Rain"
"-122.36","49.03","ABBOTSFORD A","1100031","2023-01-07 09:00","2023","01","07","09:00","5.5","","5.0","","96","","","","3","","7","","24.1","","100.55","","","","","","Rain"
"-122.36","49.03","ABBOTSFORD A","1100031","2023-01-07 10:00","2023","01","07","10:00","6.1","","5.4","","95","","","","6","","9","","20.9","","100.53","","","","","","Rain"
"-122.36","49.03","ABBOTSFORD A","1100031","2023-01-07 11:00","2023","01","07","11:00","6.2","","5.9","","98","","","","2","","10","","20.9","","100.46","","","","","","Rain"
"-122.36","49.03","ABBOTSFORD A","1100031","2023-01-07 12:00","2023","01","07","12:00","6.6","","6.3","","98","","","","3","","6","","24.1","","100.37","","","","","","Rain"
"-122.36","49.03","ABBOTSFORD A","1100031","2023-01-07 13:00","2023","01","07","13:00","6.7","","6.2","","97","","","","2","","13","","24.1","","100.28","","","","","","Rain"
"-122.36","49.03","ABBOTSFORD A","1100031","2023-01-07 14:00","2023","01","07","14:00","6.7","","6.4","","98","","","","2","","12","","24.1","","100.20","","","","","","Rain"
"-122.36","49.03","ABBOTSFORD A","1100031","2023-01-07 15:00","2023","01","07","15:00","7.0","","6.5","","97","","","","6","","8","","32.2","","100.19","","","","","","Rain"
"-122.36","49.03","ABBOTSFORD A","1100031","2023-01-07 16:00","2023","01","07","16:00","6.3","","6.0","","98","","","","36","","1","","32.2","","100.18","","","","","","Rain"
"-122.36","49.03","ABBOTSFORD A","1100031","2023-01-07 17:00","2023","01","07","17:00","6.3","","6.1","","99","","","","3","","6","","24.1","","100.13","","","","","","Rain"
"-122.36","49.03","ABBOTSFORD A","1100031","2023-01-07 18:00","2023","01","07","18:00","6.5","","6.2","","98","","","","3","","13","","9.7","","100.08","","","","","","Rain,Fog"
"-122.36","49.03","ABBOTSFORD A","1100031","2023-01-07 19:00","2023","01","07","19:00","6.3","","6.1","","98","","","","5","","9","","9.7","","100.07","","","","","","Rain,Fog"
"-122.36","49.03","ABBOTSFORD A","1100031","2023-01-07 20:00","2023","01","07","20:00","6.2","","5.9","","98","","","","1","","12","","11.3","","100.00","","","","","","Rain"
"-122.36","49.03","ABBOTSFORD A","1100031","2023-01-07 21:00","2023","01","07","21:00","6.4","","5.6","","95","","","","3","","12","","14.5","","99.98","","","","","","NA"
"-122.36","49.03","ABBOTSFORD A","1100031","2023-01-07 22:00","2023","01","07","22:00","6.3","","5.7","","96","","","","7","","6","","16.1","","99.94","","","","","","Cloudy"
"-122.36","49.03","ABBOTSFORD A","1100031","2023-01-07 23:00","2023","01","07","23:00","6.1","","5.3","","95","","","","36","","6","","16.1","","99.90","","","","","","NA"
"-122.36","49.03","ABBOTSFORD A","1100031","2023-01-08 00:00","2023","01","08","00:00","6.0","","5.2","","94","","","","3","","14","","24.1","","99.82","","","","","","NA"
"-122.36","49.03","ABBOTSFORD A","1100031","2023-01-08 01:00","2023","01","08","01:00","4.9","","4.3","","95","","","","2","","9","","24.1","","99.73","","","","","","Mostly Cloudy"
"-122.36","49.03","ABBOTSFORD A","1100031","2023-01-08 02:00","2023","01","08","02:00","4.0","","3.3","","96","","","","1","","12","","24.1","","99.67","","","","","","NA"
"-122.36","49.03","ABBOTSFORD A","1100031","2023-01-08 03:00","2023","01","08","03:00","4.3","","3.5","","95","","","","3","","12","","24.1","","99.60","","","","","","NA"
"-122.36","49.03","ABBOTSFORD A","1100031","2023-01-08 04:00","2023","01","08","04:00","4.4","","3.5","","94","","","","3","","12","","24.1","","99.51","","","","","","Mostly Cloudy"
"-122.36","49.03","ABBOTSFORD A","1100031","2023-01-08 05:00","2023","01","08","05:00","4.7","","3.4","","91","","","","3","","10","","24.1","","99.42","","","","","","NA"
"-122.36","49.03","ABBOTSFORD A","1100031","2023-01-08 06:00","2023","01","08","06:00","5.2","","3.4","","89","","","","3","","11","","24.1","","99.37","","","","","","NA"
"-122.36","49.03","ABBOTSFORD A","1100031","2023-01-08 07:00","2023","01","08","07:00","5.7","","3.4","","85","","","","36","","4","","24.1","","99.38","","","","","","Cloudy"
"-122.36","49.03","ABBOTSFORD A","1100031","2023-01-08 08:00","2023","01","08","08:00","5.2","","3.5","","89","","","","28","","3","","40.2","","99.41","","","","","","Rain"
"-122.36","49.03","ABBOTSFORD A","1100031","2023-01-08 09:00","2023","01","08","09:00","6.0","","3.8","","86","","","","1","","12","","40.2","","99.38","","","","","","Rain"
"-122.36","49.03","ABBOTSFORD A","1100031","2023-01-08 10:00","2023","01","08","10:00","6.1","","4.3","","88","","","","4","","4","","16.1","","99.46","","","","","","Rain"
"-122.36","49.03","ABBOTSFORD A","1100031","2023-01-08 11:00","2023","01","08","11:00","5.8","","5.1","","95","","","","36","","2","","16.1","","99.53","","","","","","Rain"
"-122.36","49.03","ABBOTSFORD A","1100031","2023-01-08 12:00","2023","01","08","12:00","5.6","","4.9","","96","","","","35","","5","","8.1","","99.53","","","","","","Rain"
"-122.36","49.03","ABBOTSFORD A","1100031","2023-01-08 13:00","2023","01","08","13:00","6.0","","5.4","","96","","","","6","","9","","9.7","","99.55","","","","","","Rain"
"-122.36","49.03","ABBOTSFORD A","1100031","2023-01-08 14:00","2023","01","08","14:00","6.2","","5.7","","96","","","","5","","8","","12.9","","99.57","","","","","","Rain"
"-122.36","49.03","ABBOTSFORD A","1100031","2023-01-08 15:00","2023","01","08","15:00","6.3","","5.8","","97","","","","9","","5","","16.1","","99.66","","","","","","Rain"
"-122.36","49.03","ABBOTSFORD A","1100031","2023-01-08 16:00","2023","01","08","16:00","6.4","","5.8","","96","","","","2","","6","","16.1","","99.78","","","","","","Rain"
"-122.36","49.03","ABBOTSFORD A","1100031","2023-01-08 17:00","2023","01","08","17:00","6.0","","5.6","","98","","","","36","","6","","16.1","","99.86","","","","","","NA"
"-122.36","49.03","ABBOTSFORD A","1100031","2023-01-08 18:00","2023","01","08","18:00","5.9","","5.6","","98","","","","1","","4","","16.1","","99.92","","","","","","NA"
"-122.36","49.03","ABBOTSFORD A","1100031","2023-01-08 19:00","2023","01","08","19:00","5.8","","5.5","","98","","","","1","","4","","16.1","","100.01","","","","","","Cloudy"
"-122.36","49.03","ABBOTSFORD A","1100031","2023-01-08 20:00","2023","01","08","20:00","5.6","","5.1","","96","","","","2","","10","","16.1","","100.07","","","","","","NA"
"-122.36","49.03","ABBOTSFORD A","1100031","2023-01-08 21:00","2023","01","08","21:00","4.8","","4.4","","97","","","","1","","8","","16.1","","100.10","","","","","","NA"
"-122.36","49.03","ABBOTSFORD A","1100031","2023-01-08 22:00","2023","01","08","22:00","7.0","","4.2","","82","","","","12","","10","","16.1","","100.18","","","","","","Mostly Cloudy"
"-122.36","49.03","ABBOTSFORD A","1100031","2023-01-08 23:00","2023","01","08","23:00","6.9","","3.8","","81","","","","16","","13","","16.1","","100.19","","","","","","NA"
"-122.36","49.03","ABBOTSFORD A","1100031","2023-01-09 00:00","2023","01","09","00:00","4.2","","3.5","","96","","","","2","","10","","16.1","","100.16","","","","","","NA"
"-122.36","49.03","ABBOTSFORD A","1100031","2023-01-09 01:00","2023","01","09","01:00","3.5","","3.3","","98","","","","3","","8","","16.1","","100.14","","","","","","Mostly Cloudy"
"-122.36","49.03","ABBOTSFORD A","1100031","2023-01-09 02:00","2023","01","09","02:00","4.3","","4.2","","99","","","","5","","13","","16.1","","100.06","","","","","","NA"
"-122.36","49.03","ABBOTSFORD A","1100031","2023-01-09 03:00","2023","01","09","03:00","4.0","","3.7","","98","","","","2","","12","","16.1","","100.01","","","","","","NA"
"-122.36","49.03","ABBOTSFORD A","1100031","2023-01-09 04:00","2023","01","09","04:00","2.8","","2.6","","98","","","","2","","9","","16.1","","99.92","","","","","","Mostly Cloudy"
"-122.36","49.03","ABBOTSFORD A","1100031","2023-01-09 05:00","2023","01","09","05:00","2.6","","2.5","","99","","","","2","","13","","0.8","","99.77","","","","","","Fog"
"-122.36","49.03","ABBOTSFORD A","1100031","2023-01-09 06:00","2023","01","09","06:00","3.1","","3.0","","99","","","","3","","16","","16.1","","99.51","","","","","","NA"
"-122.36","49.03","ABBOTSFORD A","1100031","2023-01-09 07:00","2023","01","09","07:00","4.0","","2.6","","91","","","","6","","14","","24.1","","99.29","","","","","","Clear"
"-122.36","49.03","ABBOTSFORD A","1100031","2023-01-09 08:00","2023","01","09","08:00","3.4","","1.8","","89","","","","2","","10","","48.3","","99.07","","","","","","NA"
"-122.36","49.03","ABBOTSFORD A","1100031","2023-01-09 09:00","2023","01","09","09:00","4.8","","1.9","","82","","","","3","","13","","48.3","","98.97","","","","","","NA"
"-122.36","49.03","ABBOTSFORD A","1100031","2023-01-09 10:00","2023","01","09","10:00","6.0","","1.8","","74","","","","3","","6","","48.3","","98.95","","","","","","Cloudy"
"-122.36","49.03","ABBOTSFORD A","1100031","2023-01-09 11:00","2023","01","09","11:00","6.9","","1.2","","67","","","","9","","25","","24.1","","98.98","","","","","","NA"
"-122.36","49.03","ABBOTSFORD A","1100031","2023-01-09 12:00","2023","01","09","12:00","8.5","","1.7","","62","","","","4","","18","","32.2","","98.91","","","","","","NA"
"-122.36","49.03","ABBOTSFORD A","1100031","2023-01-09 13:00","2023","01","09","13:00","8.2","","1.5","","62","","","","6","","11","","24.1","","98.99","","","","","","Mostly Cloudy"
"-122.36","49.03","ABBOTSFORD A","1100031","2023-01-09 14:00","2023","01","09","14:00","8.9","","1.8","","61","","","","9","","16","","32.2","","99.06","","","","","","NA"
"-122.36","49.03","ABBOTSFORD A","1100031","2023-01-09 15:00","2023","01","09","15:00","8.8","","1.6","","60","","","","7","","21","","32.2","","99.13","","","","","","NA"
"-122.36","49.03","ABBOTSFORD A","1100031","2023-01-09 16:00","2023","01","09","16:00","8.0","","2.8","","70","","","","10","","7","","24.1","","99.23","","","","","","Cloudy"
"-122.36","49.03","ABBOTSFORD A","1100031","2023-01-09 17:00","2023","01","09","17:00","9.5","","3.4","","65","","","","15","","28","","16.1","","99.30","","","","","","NA"
"-122.36","49.03","ABBOTSFORD A","1100031","2023-01-09 18:00","2023","01","09","18:00","9.4","","2.9","","64","","","","14","","22","","16.1","","99.38","","","","","","NA"
"-122.36","49.03","ABBOTSFORD A","1100031","2023-01-09 19:00","2023","01","09","19:00","9.1","","3.1","","66","","","","17","","16","","16.1","","99.43","","","","","","Cloudy"
"-122.36","49.03","ABBOTSFORD A","1100031","2023-01-09 20:00","2023","01","09","20:00","8.5","","2.5","","66","","","","7","","11","","16.1","","99.47","","","","","","NA"
"-122.36","49.03","ABBOTSFORD A","1100031","2023-01-09 21:00","2023","01","09","21:00","5.6","","3.4","","86","","","","2","","9","","16.1","","99.60","","","","","","NA"
"-122.36","49.03","ABBOTSFORD A","1100031","2023-01-09 22:00","2023","01","09","22:00","5.8","","4.1","","88","","","","36","","4","","16.1","","99.71","","","","","","Cloudy"
"-122.36","49.03","ABBOTSFORD A","1100031","2023-01-09 23:00","2023","01","09","23:00","5.1","","4.4","","95","","","","36","","2","","9.7","","99.75","","","","","","Rain"
"-122.36","49.03","ABBOTSFORD A","1100031","2023-01-10 00:00","2023","01","10","00:00","5.3","","4.9","","97","","","","5","","10","","9.7","","99.80","","","","","","Rain"
"-122.36","49.03","ABBOTSFORD A","1100031","2023-01-10 01:00","2023","01","10","01:00","5.2","","4.8","","97","","","","3","","11","","9.7","","99.81","","","","","","Rain"
"-122.36","49.03","ABBOTSFORD A","1100031","2023-01-10 02:00","2023","01","10","02:00","5.3","","5.0","","98","","","","4","","11","","9.7","","99.80","","","","","","Rain"
"-122.36","49.03","ABBOTSFORD A","1100031","2023-01-10 03:00","2023","01","10","03:00","5.3","","5.0","","98","","","","4","","8","","8.1","","99.86","","","","","","Rain"
"-122.36","49.03","ABBOTSFORD A","1100031","2023-01-10 04:00","2023","01","10","04:00","5.2","","4.9","","98","","","","3","","11","","9.7","","99.87","","","","","","Rain"
"-122.36","49.03","ABBOTSFORD A","1100031","2023-01-10 05:00","2023","01","10","05:00","5.1","","4.8","","98","","","","4","","7","","9.7","","99.88","","","","","","Rain"
"-122.36","49.03","ABBOTSFORD A","1100031","2023-01-10 06:00","2023","01","10","06:00","5.1","","4.8","","98","","","","3","","10","","9.7","","99.87","","","","","","Rain"
"-122.36","49.03","ABBOTSFORD A","1100031","2023-01-10 07:00","2023","01","10","07:00","5.1","","4.8","","98","","","","4","","9","","16.1","","99.89","","","","","","Cloudy"
"-122.36","49.03","ABBOTSFORD A","1100031","2023-01-10 08:00","2023","01","10","08:00","5.2","","4.8","","97","","","","3","","12","","40.2","","99.88","","","","","","NA"
"-122.36","49.03","ABBOTSFORD A","1100031","2023-01-10 09:00","2023","01","10","09:00","5.8","","4.9","","94","","","","3","","15","","48.3","","99.85","","","","","","NA"
"-122.36","49.03","ABBOTSFORD A","1100031","2023-01-10 10:00","2023","01","10","10:00","7.0","","5.1","","88","","","","2","","14","","48.3","","99.82","","","","","","Mostly Cloudy"
"-122.36","49.03","ABBOTSFORD A","1100031","2023-01-10 11:00","2023","01","10","11:00","8.0","","5.1","","82","","","","3","","15","","48.3","","99.78","","","","","","NA"
"-122.36","49.03","ABBOTSFORD A","1100031","2023-01-10 12:00","2023","01","10","12:00","9.1","","5.4","","77","","","","3","","13","","48.3","","99.71","","","","","","NA"
"-122.36","49.03","ABBOTSFORD A","1100031","2023-01-10 13:00","2023","01","10","13:00","9.7","","5.3","","74","","","","3","","16","","48.3","","99.68","","","","","","Mostly Cloudy"
"-122.36","49.03","ABBOTSFORD A","1100031","2023-01-10 14:00","2023","01","10","14:00","10.6","","5.4","","70","","","","1","","10","","48.3","","99.64","","","","","","NA"
"-122.36","49.03","ABBOTSFORD A","1100031","2023-01-10 15:00","2023","01","10","15:00","10.8","","5.3","","69","","","","2","","9","","48.3","","99.62","","","","","","NA"
"-122.36","49.03","ABBOTSFORD A","1100031","2023-01-10 16:00","2023","01","10","16:00","9.1","","4.6","","74","","","","2","","12","","48.3","","99.61","","","","","","Mainly Clear"
"-122.36","49.03","ABBOTSFORD A","1100031","2023-01-10 17:00","2023","01","10","17:00","7.3","","4.0","","80","","","","3","","12","","48.3","","99.61","","","","","","NA"
"-122.36","49.03","ABBOTSFORD A","1100031","2023-01-10 18:00","2023","01","10","18:00","6.0","","3.7","","85","","","","2","","13","","24.1","","99.60","","","","","","NA"
"-122.36","49.03","ABBOTSFORD A","1100031","2023-01-10 19:00","2023","01","10","19:00","6.3","","2.9","","79","","","","3","","12","","24.1","","99.63","","","","","","Mainly Clear"
"-122.36","49.03","ABBOTSFORD A","1100031","2023-01-10 20:00","2023","01","10","20:00","5.3","","2.8","","84","","","","2","","13","","24.1","","99.70","","","","","","NA"
"-122.36","49.03","ABBOTSFORD A","1100031","2023-01-10 21:00","2023","01","10","21:00","4.8","","2.6","","85","","","","2","","12","","24.1","","99.74","","","","","","NA"
"-122.36","49.03","ABBOTSFORD A","1100031","2023-01-10 22:00","2023","01","10","22:00","4.7","","2.6","","86","","","","36","","9","","24.1","","99.84","","","","","","Clear"
"-122.36","49.03","ABBOTSFORD A","1100031","2023-01-10 23:00","2023","01","10","23:00","3.4","","1.7","","89","","","","36","","13","","24.1","","99.91","","","","","","NA"
"-122.36","49.03","ABBOTSFORD A","1100031","2023-01-11 00:00","2023","01","11","00:00","4.5","","2.0","","84","","","","33","","7","","24.1","","99.95","","","","","","NA"
"-122.36","49.03","ABBOTSFORD A","1100031","2023-01-11 01:00","2023","01","11","01:00","3.6","","1.5","","86","","","","1","","9","","24.1","","99.98","","","","","","Clear"
"-122.36","49.03","ABBOTSFORD A","1100031","2023-01-11 02:00","2023","01","11","02:00","3.7","","1.0","","83","","","","3","","8","","24.1","","100.04","","","","","","NA"
"-122.36","49.03","ABBOTSFORD A","1100031","2023-01-11 03:00","2023","01","11","03:00","4.8","","-0.1","","70","","","","9","","14","","24.1","","100.14","","","","","","NA"
"-122.36","49.03","ABBOTSFORD A","1100031","2023-01-11 04:00","2023","01","11","04:00","2.5","","0.8","","89","","","","34","","7","","22.5","","100.22","","","","","","Mostly Cloudy"
"-122.36","49.03","ABBOTSFORD A","1100031","2023-01-11 05:00","2023","01","11","05:00","3.0","","1.1","","87","","","","36","","11","","22.5","","100.26","","","","","","NA"
"-122.36","49.03","ABBOTSFORD A","1100031","2023-01-11 06:00","2023","01","11","06:00","4.6","","1.1","","78","","","","6","","7","","24.1","","100.33","","","","","","NA"
"-122.36","49.03","ABBOTSFORD A","1100031","2023-01-11 07:00","2023","01","11","07:00","5.3","","0.8","","73","","","","6","","13","","24.1","","100.40","","","","","","Mostly Cloudy"
"-122.36","49.03","ABBOTSFORD A","1100031","2023-01-11 08:00","2023","01","11","08:00","5.8","","0.6","","69","","","","7","","16","","48.3","","100.46","","","","","","NA"
"-122.36","49.03","ABBOTSFORD A","1100031","2023-01-11 09:00","2023","01","11","09:00","4.7","","2.3","","84","","","","2","","12","","48.3","","100.51","","","","","","NA"
"-122.36","49.03","ABBOTSFORD A","1100031","2023-01-11 10:00","2023","01","11","10:00","5.9","","1.2","","72","","","","5","","9","","48.3","","100.60","","","","","","Mostly Cloudy"
"-122.36","49.03","ABBOTSFORD A","1100031","2023-01-11 11:00","2023","01","11","11:00","6.6","","1.7","","71","","","","5","","10","","48.3","","100.65","","","","","","NA"
"-122.36","49.03","ABBOTSFORD A","1100031","2023-01-11 12:00","2023","01","11","12:00","7.0","","1.8","","69","","","","4","","12","","48.3","","100.63","","","","","","NA"
"-122.36","49.03","ABBOTSFORD A","1100031","2023-01-11 13:00","2023","01","11","13:00","8.3","","2.4","","66","","","","5","","17","","48.3","","100.57","","","","","","Mostly Cloudy"
"-122.36","49.03","ABBOTSFORD A","1100031","2023-01-11 14:00","2023","01","11","14:00","9.3","","1.8","","59","","","","4","","15","","48.3","","100.53","","","","","","NA"
"-122.36","49.03","ABBOTSFORD A","1100031","2023-01-11 15:00","2023","01","11","15:00","8.9","","1.1","","58","","","","7","","17","","48.3","","100.47","","","","","","NA"
"-122.36","49.03","ABBOTSFORD A","1100031","2023-01-11 16:00","2023","01","11","16:00","7.2","","1.4","","67","","","","6","","6","","48.3","","100.46","","","","","","Mostly Cloudy"
"-122.36","49.03","ABBOTSFORD A","1100031","2023-01-11 17:00","2023","01","11","17:00","5.6","","1.6","","76","","","","1","","5","","48.3","","100.44","","","","","","NA"
"-122.36","49.03","ABBOTSFORD A","1100031","2023-01-11 18:00","2023","01","11","18:00","6.2","","2.0","","74","","","","1","","10","","24.1","","100.44","","","","","","NA"
"-122.36","49.03","ABBOTSFORD A","1100031","2023-01-11 19:00","2023","01","11","19:00","6.5","","1.8","","72","","","","8","","8","","24.1","","100.40","","","","","","Mostly Cloudy"
"-122.36","49.03","ABBOTSFORD A","1100031","2023-01-11 20:00","2023","01","11","20:00","6.3","","2.2","","75","","","","35","","5","","24.1","","100.41","","","","","","NA"
"-122.36","49.03","ABBOTSFORD A","1100031","2023-01-11 21:00","2023","01","11","21:00","6.3","","2.2","","75","","","","2","","11","","24.1","","100.34","","","","","","NA"
"-122.36","49.03","ABBOTSFORD A","1100031","2023-01-11 22:00","2023","01","11","22:00","6.3","","2.4","","76","","","","35","","10","","24.1","","100.38","","","","","","Mostly Cloudy"
"-122.36","49.03","ABBOTSFORD A","1100031","2023-01-11 23:00","2023","01","11","23:00","6.4","","2.2","","74","","","","3","","7","","24.1","","100.37","","","","","","NA"
"-122.36","49.03","ABBOTSFORD A","1100031","2023-01-12 00:00","2023","01","12","00:00","6.6","","2.8","","76","","","","2","","5","","16.1","","100.37","","","","","","Rain"
"-122.36","49.03","ABBOTSFORD A","1100031","2023-01-12 01:00","2023","01","12","01:00","7.1","","2.9","","74","","","","5","","19","","16.1","","100.38","","","","","","Rain"
"-122.36","49.03","ABBOTSFORD A","1100031","2023-01-12 02:00","2023","01","12","02:00","5.3","","4.4","","94","","","","4","","9","","12.9","","100.37","","","","","","Moderate Rain"
"-122.36","49.03","ABBOTSFORD A","1100031","2023-01-12 03:00","2023","01","12","03:00","6.5","","4.2","","85","","","","7","","19","","12.9","","100.29","","","","","","Moderate Rain"
"-122.36","49.03","ABBOTSFORD A","1100031","2023-01-12 04:00","2023","01","12","04:00","6.6","","4.4","","86","","","","6","","25","","24.1","","100.28","","","","","","Moderate Rain"
"-122.36","49.03","ABBOTSFORD A","1100031","2023-01-12 05:00","2023","01","12","05:00","6.8","","4.7","","87","","","","5","","18","","12.9","","100.23","","","","","","Rain"
"-122.36","49.03","ABBOTSFORD A","1100031","2023-01-12 06:00","2023","01","12","06:00","6.6","","5.0","","90","","","","6","","18","","12.9","","100.27","","","","","","Rain"
"-122.36","49.03","ABBOTSFORD A","1100031","2023-01-12 07:00","2023","01","12","07:00","6.2","","5.3","","94","","","","3","","11","","12.9","","100.31","","","","","","Rain"
"-122.36","49.03","ABBOTSFORD A","1100031","2023-01-12 08:00","2023","01","12","08:00","6.2","","5.8","","97","","","","36","","9","","11.3","","100.38","","","","","","Rain"
"-122.36","49.03","ABBOTSFORD A","1100031","2023-01-12 09:00","2023","01","12","09:00","6.7","","6.0","","95","","","","4","","10","","16.1","","100.46","","","","","","Rain"
"-122.36","49.03","ABBOTSFORD A","1100031","2023-01-12 10:00","2023","01","12","10:00","6.8","","5.6","","92","","","","6","","18","","14.5","","100.52","","","","","","Rain"
"-122.36","49.03","ABBOTSFORD A","1100031","2023-01-12 11:00","2023","01","12","11:00","7.0","","6.2","","95","","","","5","","15","","11.3","","100.52","","","","","","Rain"
"-122.36","49.03","ABBOTSFORD A","1100031","2023-01-12 12:00","2023","01","12","12:00","7.0","","6.0","","94","","","","4","","15","","14.5","","100.49","","","","","","Rain"
"-122.36","49.03","ABBOTSFORD A","1100031","2023-01-12 13:00","2023","01","12","13:00","7.1","","6.4","","95","","","","5","","11","","11.3","","100.46","","","","","","Rain"
"-122.36","49.03","ABBOTSFORD A","1100031","2023-01-12 14:00","2023","01","12","14:00","7.1","","6.8","","98","","","","6","","10","","4.8","","100.42","","","","","","Moderate Rain"
"-122.36","49.03","ABBOTSFORD A","1100031","2023-01-12 15:00","2023","01","12","15:00","7.3","","7.1","","99","","","","5","","15","","16.1","","100.37","","","","","","Rain"
"-122.36","49.03","ABBOTSFORD A","1100031","2023-01-12 16:00","2023","01","12","16:00","7.5","","6.8","","95","","","","5","","20","","19.3","","100.37","","","","","","Cloudy"
"-122.36","49.03","ABBOTSFORD A","1100031","2023-01-12 17:00","2023","01","12","17:00","7.7","","7.2","","96","","","","3","","14","","11.3","","100.32","","","","","","Rain"
"-122.36","49.03","ABBOTSFORD A","1100031","2023-01-12 18:00","2023","01","12","18:00","7.7","","7.2","","97","","","","5","","7","","8.1","","100.32","","","","","","Rain,Fog"
"-122.36","49.03","ABBOTSFORD A","1100031","2023-01-12 19:00","2023","01","12","19:00","7.7","","7.4","","97","","","","5","","10","","9.7","","100.32","","","","","","Rain"
"-122.36","49.03","ABBOTSFORD A","1100031","2023-01-12 20:00","2023","01","12","20:00","7.7","","7.3","","97","","","","7","","10","","9.7","","100.31","","","","","","Rain,Fog"
"-122.36","49.03","ABBOTSFORD A","1100031","2023-01-12 21:00","2023","01","12","21:00","7.9","","7.5","","97","","","","6","","12","","20.9","","100.28","","","","","","Rain"
"-122.36","49.03","ABBOTSFORD A","1100031","2023-01-12 22:00","2023","01","12","22:00","8.1","","7.8","","98","","","","5","","10","","11.3","","100.28","","","","","","Rain"
"-122.36","49.03","ABBOTSFORD A","1100031","2023-01-12 23:00","2023","01","12","23:00","8.0","","7.7","","98","","","","4","","12","","16.1","","100.26","","","","","","Rain"
"-122.36","49.03","ABBOTSFORD A","1100031","2023-01-13 00:00","2023","01","13","00:00","7.8","","7.6","","99","","","","4","","10","","16.1","","100.23","","","","","","Rain"
"-122.36","49.03","ABBOTSFORD A","1100031","2023-01-13 01:00","2023","01","13","01:00","7.9","","7.7","","98","","","","4","","9","","11.3","","100.17","","","","","","Rain"
"-122.36","49.03","ABBOTSFORD A","1100031","2023-01-13 02:00","2023","01","13","02:00","7.9","","7.6","","98","","","","8","","8","","20.9","","100.10","","","","","","Rain"
"-122.36","49.03","ABBOTSFORD A","1100031","2023-01-13 03:00","2023","01","13","03:00","8.4","","7.5","","94","","","","4","","13","","16.1","","100.07","","","","","","Rain"
"-122.36","49.03","ABBOTSFORD A","1100031","2023-01-13 04:00","2023","01","13","04:00","7.7","","7.4","","98","","","","1","","9","","24.1","","100.01","","","","","","Rain"
"-122.36","49.03","ABBOTSFORD A","1100031","2023-01-13 05:00","2023","01","13","05:00","7.7","","7.5","","98","","","","1","","5","","24.1","","99.96","","","","","","Rain"
"-122.36","49.03","ABBOTSFORD A","1100031","2023-01-13 06:00","2023","01","13","06:00","7.6","","7.3","","98","","","","6","","7","","24.1","","99.92","","","","","","NA"
"-122.36","49.03","ABBOTSFORD A","1100031","2023-01-13 07:00","2023","01","13","07:00","8.3","","7.3","","93","","","","4","","10","","24.1","","99.88","","","","","","Cloudy"
"-122.36","49.03","ABBOTSFORD A","1100031","2023-01-13 08:00","2023","01","13","08:00","9.6","","7.1","","84","","","","9","","14","","24.1","","99.86","","","","","","NA"
"-122.36","49.03","ABBOTSFORD A","1100031","2023-01-13 09:00","2023","01","13","09:00","9.0","","7.5","","90","","","","3","","6","","24.1","","99.91","","","","","","NA"
"-122.36","49.03","ABBOTSFORD A","1100031","2023-01-13 10:00","2023","01","13","10:00","8.6","","8.0","","96","","","","34","","13","","9.7","","99.95","","","","","","Rain,Fog"
"-122.36","49.03","ABBOTSFORD A","1100031","2023-01-13 11:00","2023","01","13","11:00","8.8","","8.5","","98","","","","3","","10","","11.3","","99.97","","","","","","Rain"
"-122.36","49.03","ABBOTSFORD A","1100031","2023-01-13 12:00","2023","01","13","12:00","9.0","","8.7","","98","","","","2","","8","","4.8","","99.94","","","","","","Rain,Fog"
"-122.36","49.03","ABBOTSFORD A","1100031","2023-01-13 13:00","2023","01","13","13:00","9.2","","9.0","","99","","","","2","","4","","4.0","","99.88","","","","","","Rain,Fog"
"-122.36","49.03","ABBOTSFORD A","1100031","2023-01-13 14:00","2023","01","13","14:00","9.5","","9.4","","99","","","","36","","2","","4.8","","99.81","","","","","","Rain,Fog"
"-122.36","49.03","ABBOTSFORD A","1100031","2023-01-13 15:00","2023","01","13","15:00","9.8","","9.7","","99","","","","3","","5","","8.1","","99.81","","","","","","Rain,Fog"
"-122.36","49.03","ABBOTSFORD A","1100031","2023-01-13 16:00","2023","01","13","16:00","9.6","","9.4","","99","","","","6","","7","","4.0","","99.79","","","","","","Rain,Fog"
"-122.36","49.03","ABBOTSFORD A","1100031","2023-01-13 17:00","2023","01","13","17:00","9.1","","9.0","","99","","","","10","","4","","6.4","","99.77","","","","","","Rain,Fog"
"-122.36","49.03","ABBOTSFORD A","1100031","2023-01-13 18:00","2023","01","13","18:00","8.7","","8.6","","99","","","","3","","5","","6.4","","99.72","","","","","","Rain,Fog"
"-122.36","49.03","ABBOTSFORD A","1100031","2023-01-13 19:00","2023","01","13","19:00","8.4","","8.3","","100","","","","6","","8","","6.4","","99.69","","","","","","Fog"
"-122.36","49.03","ABBOTSFORD A","1100031","2023-01-13 20:00","2023","01","13","20:00","8.2","","8.2","","100","","","","4","","4","","4.8","","99.66","","","","","","Fog"
"-122.36","49.03","ABBOTSFORD A","1100031","2023-01-13 21:00","2023","01","13","21:00","8.2","","8.1","","100","","","","3","","5","","4.0","","99.63","","","","","","Fog"
"-122.36","49.03","ABBOTSFORD A","1100031","2023-01-13 22:00","2023","01","13","22:00","8.0","","8.0","","100","","","","4","","11","","4.0","","99.62","","","","","","Rain,Fog"
"-122.36","49.03","ABBOTSFORD A","1100031","2023-01-13 23:00","2023","01","13","23:00","7.9","","7.8","","100","","","","1","","5","","4.8","","99.63","","","","","","Rain,Fog"
"-122.36","49.03","ABBOTSFORD A","1100031","2023-01-14 00:00","2023","01","14","00:00","8.0","","8.0","","99","","","","8","","13","","9.7","","99.61","","","","","","Rain,Fog"
"-122.36","49.03","ABBOTSFORD A","1100031","2023-01-14 01:00","2023","01","14","01:00","8.3","","7.9","","97","","","","7","","7","","12.9","","99.62","","","","","","Rain"
"-122.36","49.03","ABBOTSFORD A","1100031","2023-01-14 02:00","2023","01","14","02:00","8.7","","8.0","","96","","","","7","","7","","11.3","","99.62","","","","","","Rain"
"-122.36","49.03","ABBOTSFORD A","1100031","2023-01-14 03:00","2023","01","14","03:00","7.7","","7.6","","99","","","","9","","7","","11.3","","99.64","","","","","","Rain"
"-122.36","49.03","ABBOTSFORD A","1100031","2023-01-14 04:00","2023","01","14","04:00","7.6","","7.4","","99","","","","11","","8","","20.9","","99.64","","","","","","Rain"
"-122.36","49.03","ABBOTSFORD A","1100031","2023-01-14 05:00","2023","01","14","05:00","7.0","","6.9","","99","","","","2","","5","","8.1","","99.61","","","","","","Rain,Fog"
"-122.36","49.03","ABBOTSFORD A","1100031","2023-01-14 06:00","2023","01","14","06:00","6.6","","6.5","","100","","","","3","","11","","6.4","","99.56","","","","","","Fog"
"-122.36","49.03","ABBOTSFORD A","1100031","2023-01-14 07:00","2023","01","14","07:00","5.6","","5.5","","100","","","","1","","8","","24.1","","99.51","","","","","","Mostly Cloudy"
"-122.36","49.03","ABBOTSFORD A","1100031","2023-01-14 08:00","2023","01","14","08:00","6.2","","6.2","","100","","","","5","","8","","24.1","","99.47","","","","","","NA"
"-122.36","49.03","ABBOTSFORD A","1100031","2023-01-14 09:00","2023","01","14","09:00","7.5","","7.4","","100","","","","1","","11","","40.2","","99.44","","","","","","NA"
"-122.36","49.03","ABBOTSFORD A","1100031","2023-01-14 10:00","2023","01","14","10:00","7.9","","7.3","","96","","","","1","","16","","40.2","","99.35","","","","","","Mainly Clear"
"-122.36","49.03","ABBOTSFORD A","1100031","2023-01-14 11:00","2023","01","14","11:00","9.4","","7.5","","88","","","","3","","13","","48.3","","99.22","","","","","","NA"
"-122.36","49.03","ABBOTSFORD A","1100031","2023-01-14 12:00","2023","01","14","12:00","10.5","","7.3","","80","","","","3","","14","","48.3","","99.07","","","","","","NA"
"-122.36","49.03","ABBOTSFORD A","1100031","2023-01-14 13:00","2023","01","14","13:00","11.4","","7.3","","76","","","","2","","12","","48.3","","98.94","","","","","","Mainly Clear"
"-122.36","49.03","ABBOTSFORD A","1100031","2023-01-14 14:00","2023","01","14","14:00","11.2","","6.8","","74","","","","4","","9","","48.3","","98.86","","","","","","NA"
"-122.36","49.03","ABBOTSFORD A","1100031","2023-01-14 15:00","2023","01","14","15:00","10.8","","7.0","","77","","","","1","","12","","48.3","","98.76","","","","","","NA"
"-122.36","49.03","ABBOTSFORD A","1100031","2023-01-14 16:00","2023","01","14","16:00","9.3","","6.2","","81","","","","2","","8","","48.3","","98.72","","","","","","Mostly Cloudy"
"-122.36","49.03","ABBOTSFORD A","1100031","2023-01-14 17:00","2023","01","14","17:00","7.2","","5.5","","89","","","","36","","9","","48.3","","98.69","","","","","","NA"
"-122.36","49.03","ABBOTSFORD A","1100031","2023-01-14 18:00","2023","01","14","18:00","7.2","","5.0","","86","","","","3","","12","","24.1","","98.64","","","","","","NA"
"-122.36","49.03","ABBOTSFORD A","1100031","2023-01-14 19:00","2023","01","14","19:00","9.4","","4.5","","71","","","","6","","24","","24.1","","98.66","","","","","","Mainly Clear"
"-122.36","49.03","ABBOTSFORD A","1100031","2023-01-14 20:00","2023","01","14","20:00","7.3","","4.5","","82","","","","2","","9","","24.1","","98.64","","","","","","NA"
"-122.36","49.03","ABBOTSFORD A","1100031","2023-01-14 21:00","2023","01","14","21:00","7.4","","4.6","","82","","","","3","","10","","24.1","","98.62","","","","","","NA"
"-122.36","49.03","ABBOTSFORD A","1100031","2023-01-14 22:00","2023","01","14","22:00","7.1","","4.5","","84","","","","3","","6","","24.1","","98.61","","","","","","Cloudy"
"-122.36","49.03","ABBOTSFORD A","1100031","2023-01-14 23:00","2023","01","14","23:00","8.1","","4.0","","75","","","","1","","7","","24.1","","98.60","","","","","","NA"
"-122.36","49.03","ABBOTSFORD A","1100031","2023-01-15 00:00","2023","01","15","00:00","9.4","","3.2","","65","","","","4","","26","","20.9","","98.61","","","","","","Rain Showers"
"-122.36","49.03","ABBOTSFORD A","1100031","2023-01-15 01:00","2023","01","15","01:00","7.6","","4.5","","80","","","","22","","4","","20.9","","98.67","","","","","","Rain Showers"
"-122.36","49.03","ABBOTSFORD A","1100031","2023-01-15 02:00","2023","01","15","02:00","7.3","","4.4","","82","","","","8","","4","","20.9","","98.67","","","","","","Rain Showers"
"-122.36","49.03","ABBOTSFORD A","1100031","2023-01-15 03:00","2023","01","15","03:00","6.5","","5.1","","91","","","","2","","5","","24.1","","98.63","","","","","","NA"
"-122.36","49.03","ABBOTSFORD A","1100031","2023-01-15 04:00","2023","01","15","04:00","6.5","","4.3","","86","","","","1","","9","","24.1","","98.57","","","","","","Mostly Cloudy"
"-122.36","49.03","ABBOTSFORD A","1100031","2023-01-15 05:00","2023","01","15","05:00","5.9","","3.7","","86","","","","35","","12","","24.1","","98.54","","","","","","NA"
"-122.36","49.03","ABBOTSFORD A","1100031","2023-01-15 06:00","2023","01","15","06:00","5.6","","3.2","","85","","","","3","","12","","24.1","","98.52","","","","","","NA"
"-122.36","49.03","ABBOTSFORD A","1100031","2023-01-15 07:00","2023","01","15","07:00","6.0","","3.8","","86","","","","3","","13","","32.2","","98.50","","","","","","Mostly Cloudy"
"-122.36","49.03","ABBOTSFORD A","1100031","2023-01-15 08:00","2023","01","15","08:00","6.1","","3.8","","85","","","","3","","8","","32.2","","98.50","","","","","","NA"
"-122.36","49.03","ABBOTSFORD A","1100031","2023-01-15 09:00","2023","01","15","09:00","6.7","","4.0","","83","","","","1","","5","","32.2","","98.57","","","","","","NA"
"-122.36","49.03","ABBOTSFORD A","1100031","2023-01-15 10:00","2023","01","15","10:00","7.2","","4.9","","85","","","","35","","7","","32.2","","98.57","","","","","","Mostly Cloudy"
"-122.36","49.03","ABBOTSFORD A","1100031","2023-01-15 11:00","2023","01","15","11:00","8.3","","3.7","","73","","","","36","","3","","32.2","","98.62","","","","","","NA"
"-122.36","49.03","ABBOTSFORD A","1100031","2023-01-15 12:00","2023","01","15","12:00","8.5","","4.2","","74","","","","10","","4","","24.1","","98.61","","","","","","NA"
"-122.36","49.03","ABBOTSFORD A","1100031","2023-01-15 13:00","2023","01","15","13:00","8.6","","4.2","","74","","","","25","","5","","32.2","","98.62","","","","","","Mostly Cloudy"
"-122.36","49.03","ABBOTSFORD A","1100031","2023-01-15 14:00","2023","01","15","14:00","8.8","","5.3","","79","","","","2","","11","","32.2","","98.61","","","","","","NA"
"-122.36","49.03","ABBOTSFORD A","1100031","2023-01-15 15:00","2023","01","15","15:00","8.6","","5.3","","80","","","","2","","12","","32.2","","98.65","","","","","","NA"
"-122.36","49.03","ABBOTSFORD A","1100031","2023-01-15 16:00","2023","01","15","16:00","8.2","","4.6","","78","","","","36","","2","","32.2","","98.75","","","","","","Clear"
"-122.36","49.03","ABBOTSFORD A","1100031","2023-01-15 17:00","2023","01","15","17:00","7.2","","5.4","","89","","","","32","","4","","32.2","","98.80","","","","","","NA"
"-122.36","49.03","ABBOTSFORD A","1100031","2023-01-15 18:00","2023","01","15","18:00","7.0","","5.4","","90","","","","1","","5","","24.1","","98.87","","","","","","NA"
"-122.36","49.03","ABBOTSFORD A","1100031","2023-01-15 19:00","2023","01","15","19:00","6.9","","6.1","","95","","","","4","","4","","16.1","","98.93","","","","","","Rain"
"-122.36","49.03","ABBOTSFORD A","1100031","2023-01-15 20:00","2023","01","15","20:00","6.5","","6.0","","96","","","","7","","4","","16.1","","98.99","","","","","","Rain"
"-122.36","49.03","ABBOTSFORD A","1100031","2023-01-15 21:00","2023","01","15","21:00","6.4","","6.1","","98","","","","22","","7","","24.1","","99.08","","","","","","Rain"
"-122.36","49.03","ABBOTSFORD A","1100031","2023-01-15 22:00","2023","01","15","22:00","6.2","","6.1","","99","","","","23","","5","","9.7","","99.16","","","","","","Rain"
"-122.36","49.03","ABBOTSFORD A","1100031","2023-01-15 23:00","2023","01","15","23:00","6.6","","5.1","","90","","","","13","","7","","9.7","","99.20","","","","","","Rain"
"-122.36","49.03","ABBOTSFORD A","1100031","2023-01-16 00:00","2023","01","16","00:00","6.4","","6.2","","98","","","","4","","5","","6.4","","99.27","","","","","","Rain"
"-122.36","49.03","ABBOTSFORD A","1100031","2023-01-16 01:00","2023","01","16","01:00","6.6","","6.1","","96","","","","2","","7","","6.4","","99.30","","","","","","Rain"
"-122.36","49.03","ABBOTSFORD A","1100031","2023-01-16 02:00","2023","01","16","02:00","6.9","","5.6","","91","","","","12","","7","","6.4","","99.38","","","","","","Rain"
"-122.36","49.03","ABBOTSFORD A","1100031","2023-01-16 03:00","2023","01","16","03:00","6.9","","5.0","","87","","","","15","","9","","6.4","","99.45","","","","","","Rain"
"-122.36","49.03","ABBOTSFORD A","1100031","2023-01-16 04:00","2023","01","16","04:00","6.8","","5.0","","88","","","","13","","5","","16.1","","99.51","","","","","","Rain"
"-122.36","49.03","ABBOTSFORD A","1100031","2023-01-16 05:00","2023","01","16","05:00","6.2","","5.4","","95","","","","6","","5","","9.7","","99.57","","","","","","Rain"
"-122.36","49.03","ABBOTSFORD A","1100031","2023-01-16 06:00","2023","01","16","06:00","5.9","","5.2","","95","","","","5","","5","","9.7","","99.63","","","","","","Rain"
"-122.36","49.03","ABBOTSFORD A","1100031","2023-01-16 07:00","2023","01","16","07:00","5.5","","5.2","","98","","","","35","","7","","9.7","","99.69","","","","","","Rain"
"-122.36","49.03","ABBOTSFORD A","1100031","2023-01-16 08:00","2023","01","16","08:00","5.3","","5.0","","98","","","","1","","7","","16.1","","99.75","","","","","","Rain"
"-122.36","49.03","ABBOTSFORD A","1100031","2023-01-16 09:00","2023","01","16","09:00","5.5","","5.1","","97","","","","1","","5","","24.1","","99.84","","","","","","NA"
"-122.36","49.03","ABBOTSFORD A","1100031","2023-01-16 10:00","2023","01","16","10:00","6.2","","5.4","","95","","","","5","","7","","24.1","","99.89","","","","","","Mostly Cloudy"
"-122.36","49.03","ABBOTSFORD A","1100031","2023-01-16 11:00","2023","01","16","11:00","6.8","","5.6","","92","","","","2","","8","","19.3","","99.94","","","","","","NA"
"-122.36","49.03","ABBOTSFORD A","1100031","2023-01-16 12:00","2023","01","16","12:00","7.6","","5.5","","87","","","","2","","9","","24.1","","99.92","","","","","","NA"
"-122.36","49.03","ABBOTSFORD A","1100031","2023-01-16 13:00","2023","01","16","13:00","7.7","","6.0","","89","","","","3","","8","","24.1","","99.93","","","","","","Mostly Cloudy"
"-122.36","49.03","ABBOTSFORD A","1100031","2023-01-16 14:00","2023","01","16","14:00","8.0","","5.9","","87","","","","4","","8","","24.1","","99.94","","","","","","NA"
"-122.36","49.03","ABBOTSFORD A","1100031","2023-01-16 15:00","2023","01","16","15:00","8.0","","5.9","","87","","","","4","","8","","24.1","","99.99","","","","","","NA"
"-122.36","49.03","ABBOTSFORD A","1100031","2023-01-16 16:00","2023","01","16","16:00","7.5","","5.6","","88","","","","5","","5","","24.1","","100.03","","","","","","Mostly Cloudy"
"-122.36","49.03","ABBOTSFORD A","1100031","2023-01-16 17:00","2023","01","16","17:00","6.7","","4.9","","88","","","","4","","10","","24.1","","100.07","","","","","","NA"
"-122.36","49.03","ABBOTSFORD A","1100031","2023-01-16 18:00","2023","01","16","18:00","6.1","","5.0","","92","","","","36","","1","","24.1","","100.14","","","","","","NA"
"-122.36","49.03","ABBOTSFORD A","1100031","2023-01-16 19:00","2023","01","16","19:00","6.0","","5.1","","94","","","","3","","6","","24.1","","100.17","","","","","","Mostly Cloudy"
"-122.36","49.03","ABBOTSFORD A","1100031","2023-01-16 20:00","2023","01","16","20:00","5.6","","4.8","","94","","","","34","","5","","16.1","","100.20","","","","","","NA"
"-122.36","49.03","ABBOTSFORD A","1100031","2023-01-16 21:00","2023","01","16","21:00","5.0","","4.4","","96","","","","4","","5","","16.1","","100.23","","","","","","NA"
"-122.36","49.03","ABBOTSFORD A","1100031","2023-01-16 22:00","2023","01","16","22:00","4.3","","3.9","","97","","","","36","","8","","16.1","","100.26","","","","","","Mostly Cloudy"
"-122.36","49.03","ABBOTSFORD A","1100031","2023-01-16 23:00","2023","01","16","23:00","4.0","","3.7","","98","","","","4","","5","","24.1","","100.31","","","","","","NA"
"-122.36","49.03","ABBOTSFORD A","1100031","2023-01-17 00:00","2023","01","17","00:00","4.1","","4.0","","99","","","","2","","9","","24.1","","100.34","","","","","","NA"
"-122.36","49.03","ABBOTSFORD A","1100031","2023-01-17 01:00","2023","01","17","01:00","4.7","","4.3","","98","","","","2","","9","","24.1","","100.35","","","","","","Mostly Cloudy"
"-122.36","49.03","ABBOTSFORD A","1100031","2023-01-17 02:00","2023","01","17","02:00","4.6","","4.2","","98","","","","4","","5","","24.1","","100.40","","","","","","NA"
"-122.36","49.03","ABBOTSFORD A","1100031","2023-01-17 03:00","2023","01","17","03:00","3.9","","3.7","","98","","","","2","","7","","24.1","","100.42","","","","","","NA"
"-122.36","49.03","ABBOTSFORD A","1100031","2023-01-17 04:00","2023","01","17","04:00","4.3","","4.1","","99","","","","36","","3","","24.1","","100.48","","","","","","Cloudy"
"-122.36","49.03","ABBOTSFORD A","1100031","2023-01-17 05:00","2023","01","17","05:00","4.5","","4.3","","98","","","","5","","3","","24.1","","100.47","","","","","","NA"
"-122.36","49.03","ABBOTSFORD A","1100031","2023-01-17 06:00","2023","01","17","06:00","4.2","","3.9","","98","","","","5","","6","","24.1","","100.47","","","","","","NA"
"-122.36","49.03","ABBOTSFORD A","1100031","2023-01-17 07:00","2023","01","17","07:00","4.4","","4.1","","98","","","","18","","3","","24.1","","100.52","","","","","","Mostly Cloudy"
"-122.36","49.03","ABBOTSFORD A","1100031","2023-01-17 08:00","2023","01","17","08:00","4.9","","4.4","","97","","","","1","","8","","24.1","","100.54","","","","","","Rain Showers"
"-122.36","49.03","ABBOTSFORD A","1100031","2023-01-17 09:00","2023","01","17","09:00","5.3","","4.8","","97","","","","34","","4","","24.1","","100.61","","","","","","NA"
"-122.36","49.03","ABBOTSFORD A","1100031","2023-01-17 10:00","2023","01","17","10:00","5.4","","5.0","","97","","","","3","","8","","24.1","","100.63","","","","","","Mostly Cloudy"
"-122.36","49.03","ABBOTSFORD A","1100031","2023-01-17 11:00","2023","01","17","11:00","6.2","","5.3","","94","","","","36","","10","","16.1","","100.64","","","","","","NA"
"-122.36","49.03","ABBOTSFORD A","1100031","2023-01-17 12:00","2023","01","17","12:00","6.7","","5.0","","89","","","","4","","7","","24.1","","100.64","","","","","","NA"
"-122.36","49.03","ABBOTSFORD A","1100031","2023-01-17 13:00","2023","01","17","13:00","7.2","","5.4","","88","","","","1","","5","","24.1","","100.60","","","","","","Mostly Cloudy"
"-122.36","49.03","ABBOTSFORD A","1100031","2023-01-17 14:00","2023","01","17","14:00","7.5","","5.2","","86","","","","36","","7","","24.1","","100.58","","","","","","NA"
"-122.36","49.03","ABBOTSFORD A","1100031","2023-01-17 15:00","2023","01","17","15:00","7.1","","5.4","","89","","","","2","","10","","24.1","","100.58","","","","","","NA"
"-122.36","49.03","ABBOTSFORD A","1100031","2023-01-17 16:00","2023","01","17","16:00","7.2","","5.4","","88","","","","2","","10","","24.1","","100.55","","","","","","Cloudy"
"-122.36","49.03","ABBOTSFORD A","1100031","2023-01-17 17:00","2023","01","17","17:00","6.9","","5.0","","88","","","","6","","10","","24.1","","100.51","","","","","","NA"
"-122.36","49.03","ABBOTSFORD A","1100031","2023-01-17 18:00","2023","01","17","18:00","6.2","","4.9","","91","","","","4","","10","","16.1","","100.51","","","","","","Rain"
"-122.36","49.03","ABBOTSFORD A","1100031","2023-01-17 19:00","2023","01","17","19:00","5.8","","5.2","","96","","","","2","","9","","16.1","","100.50","","","","","","Rain"
"-122.36","49.03","ABBOTSFORD A","1100031","2023-01-17 20:00","2023","01","17","20:00","5.6","","5.2","","97","","","","5","","9","","6.4","","100.48","","","","","","Rain"
"-122.36","49.03","ABBOTSFORD A","1100031","2023-01-17 21:00","2023","01","17","21:00","5.6","","5.1","","97","","","","4","","9","","6.4","","100.46","","","","","","Rain"
"-122.36","49.03","ABBOTSFORD A","1100031","2023-01-17 22:00","2023","01","17","22:00","5.3","","5.0","","98","","","","3","","9","","6.4","","100.43","","","","","","Rain"
"-122.36","49.03","ABBOTSFORD A","1100031","2023-01-17 23:00","2023","01","17","23:00","5.2","","4.9","","98","","","","1","","9","","16.1","","100.42","","","","","","NA"
"-122.36","49.03","ABBOTSFORD A","1100031","2023-01-18 00:00","2023","01","18","00:00","5.2","","3.8","","91","","","","6","","11","","16.1","","100.34","","","","","","NA"
"-122.36","49.03","ABBOTSFORD A","1100031","2023-01-18 01:00","2023","01","18","01:00","4.8","","3.4","","91","","","","4","","17","","16.1","","100.25","","","","","","Cloudy"
"-122.36","49.03","ABBOTSFORD A","1100031","2023-01-18 02:00","2023","01","18","02:00","4.7","","4.1","","96","","","","3","","16","","16.1","","100.21","","","","","","NA"
"-122.36","49.03","ABBOTSFORD A","1100031","2023-01-18 03:00","2023","01","18","03:00","4.8","","4.4","","98","","","","4","","17","","12.9","","100.18","","","","","","NA"
"-122.36","49.03","ABBOTSFORD A","1100031","2023-01-18 04:00","2023","01","18","04:00","5.1","","4.2","","94","","","","3","","5","","11.3","","100.09","","","","","","Cloudy"
"-122.36","49.03","ABBOTSFORD A","1100031","2023-01-18 05:00","2023","01","18","05:00","5.2","","4.0","","91","","","","2","","10","","16.1","","99.96","","","","","","NA"
"-122.36","49.03","ABBOTSFORD A","1100031","2023-01-18 06:00","2023","01","18","06:00","4.8","","4.0","","94","","","","2","","7","","16.1","","99.89","","","","","","NA"
"-122.36","49.03","ABBOTSFORD A","1100031","2023-01-18 07:00","2023","01","18","07:00","5.0","","3.9","","93","","","","5","","7","","12.9","","99.86","","","","","","Cloudy"
"-122.36","49.03","ABBOTSFORD A","1100031","2023-01-18 08:00","2023","01","18","08:00","4.8","","4.2","","95","","","","2","","3","","32.2","","99.90","","","","","","Rain Showers"
"-122.36","49.03","ABBOTSFORD A","1100031","2023-01-18 09:00","2023","01","18","09:00","5.1","","4.4","","96","","","","5","","3","","32.2","","99.99","","","","","","Rain"
"-122.36","49.03","ABBOTSFORD A","1100031","2023-01-18 10:00","2023","01","18","10:00","7.4","","5.1","","85","","","","17","","27","","20.9","","100.04","","","","","","Rain"
"-122.36","49.03","ABBOTSFORD A","1100031","2023-01-18 11:00","2023","01","18","11:00","5.9","","4.3","","90","","","","18","","13","","16.1","","100.14","","","","","","Rain"
"-122.36","49.03","ABBOTSFORD A","1100031","2023-01-18 12:00","2023","01","18","12:00","5.7","","4.4","","91","","","","15","","13","","24.1","","100.19","","","","","","Rain"
"-122.36","49.03","ABBOTSFORD A","1100031","2023-01-18 13:00","2023","01","18","13:00","5.9","","4.2","","89","","","","16","","13","","24.1","","100.24","","","","","","Rain"
"-122.36","49.03","ABBOTSFORD A","1100031","2023-01-18 14:00","2023","01","18","14:00","5.7","","3.8","","87","","","","18","","16","","32.2","","100.28","","","","","","NA"
"-122.36","49.03","ABBOTSFORD A","1100031","2023-01-18 15:00","2023","01","18","15:00","5.4","","3.1","","85","","","","18","","17","","32.2","","100.39","","","","","","NA"
"-122.36","49.03","ABBOTSFORD A","1100031","2023-01-18 16:00","2023","01","18","16:00","5.3","","3.3","","87","","","","18","","20","","40.2","","100.49","","","","","","Mostly Cloudy"
"-122.36","49.03","ABBOTSFORD A","1100031","2023-01-18 17:00","2023","01","18","17:00","4.8","","3.2","","89","","","","19","","10","","32.2","","100.60","","","","","","NA"
"-122.36","49.03","ABBOTSFORD A","1100031","2023-01-18 18:00","2023","01","18","18:00","4.0","","3.2","","94","","","","22","","10","","24.1","","100.68","","","","","","NA"
"-122.36","49.03","ABBOTSFORD A","1100031","2023-01-18 19:00","2023","01","18","19:00","4.5","","3.4","","92","","","","36","","2","","24.1","","100.73","","","","","","Mostly Cloudy"
"-122.36","49.03","ABBOTSFORD A","1100031","2023-01-18 20:00","2023","01","18","20:00","3.0","","2.1","","94","","","","20","","19","","4.8","","100.83","","","","","","Rain Showers"
"-122.36","49.03","ABBOTSFORD A","1100031","2023-01-18 21:00","2023","01","18","21:00","1.7","","1.2","","97","","","","32","","4","","16.1","","100.91","","","","","","NA"
"-122.36","49.03","ABBOTSFORD A","1100031","2023-01-18 22:00","2023","01","18","22:00","2.4","","2.0","","97","","","","33","","3","","24.1","","101.02","","","","","","Mainly Clear"
"-122.36","49.03","ABBOTSFORD A","1100031","2023-01-18 23:00","2023","01","18","23:00","0.9","","0.7","","99","","","","36","","3","","24.1","","101.11","","","","","","NA"
"-122.36","49.03","ABBOTSFORD A","1100031","2023-01-19 00:00","2023","01","19","00:00","1.4","","1.3","","99","","","","19","","8","","24.1","","101.20","","","","","","NA"
"-122.36","49.03","ABBOTSFORD A","1100031","2023-01-19 01:00","2023","01","19","01:00","1.7","","1.5","","99","","","","14","","5","","24.1","","101.29","","","","","","Mostly Cloudy"
"-122.36","49.03","ABBOTSFORD A","1100031","2023-01-19 02:00","2023","01","19","02:00","2.1","","2.0","","99","","","","22","","4","","24.1","","101.39","","","","","","NA"
"-122.36","49.03","ABBOTSFORD A","1100031","2023-01-19 03:00","2023","01","19","03:00","2.3","","2.1","","99","","","","36","","3","","24.1","","101.47","","","","","","NA"
"-122.36","49.03","ABBOTSFORD A","1100031","2023-01-19 04:00","2023","01","19","04:00","2.8","","2.6","","99","","","","21","","8","","24.1","","101.55","","","","","","Mostly Cloudy"
"-122.36","49.03","ABBOTSFORD A","1100031","2023-01-19 05:00","2023","01","19","05:00","2.7","","2.5","","99","","","","22","","9","","24.1","","101.61","","","","","","NA"
"-122.36","49.03","ABBOTSFORD A","1100031","2023-01-19 06:00","2023","01","19","06:00","3.3","","3.0","","98","","","","24","","9","","24.1","","101.71","","","","","","NA"
"-122.36","49.03","ABBOTSFORD A","1100031","2023-01-19 07:00","2023","01","19","07:00","3.1","","2.8","","98","","","","25","","4","","24.1","","101.76","","","","","","Mostly Cloudy"
"-122.36","49.03","ABBOTSFORD A","1100031","2023-01-19 08:00","2023","01","19","08:00","2.8","","2.5","","98","","","","36","","1","","32.2","","101.83","","","","","","NA"
"-122.36","49.03","ABBOTSFORD A","1100031","2023-01-19 09:00","2023","01","19","09:00","2.7","","2.3","","98","","","","36","","2","","32.2","","101.97","","","","","","NA"
"-122.36","49.03","ABBOTSFORD A","1100031","2023-01-19 10:00","2023","01","19","10:00","4.1","","3.0","","93","","","","17","","3","","32.2","","102.06","","","","","","Mostly Cloudy"
"-122.36","49.03","ABBOTSFORD A","1100031","2023-01-19 11:00","2023","01","19","11:00","4.8","","2.8","","87","","","","11","","4","","32.2","","102.13","","","","","","NA"
"-122.36","49.03","ABBOTSFORD A","1100031","2023-01-19 12:00","2023","01","19","12:00","6.6","","3.1","","78","","","","19","","8","","32.2","","102.15","","","","","","NA"
"-122.36","49.03","ABBOTSFORD A","1100031","2023-01-19 13:00","2023","01","19","13:00","6.4","","3.1","","80","","","","24","","9","","32.2","","102.16","","","","","","Mostly Cloudy"
"-122.36","49.03","ABBOTSFORD A","1100031","2023-01-19 14:00","2023","01","19","14:00","6.4","","3.0","","79","","","","23","","7","","32.2","","102.18","","","","","","NA"
"-122.36","49.03","ABBOTSFORD A","1100031","2023-01-19 15:00","2023","01","19","15:00","7.0","","2.2","","72","","","","24","","8","","32.2","","102.20","","","","","","NA"
"-122.36","49.03","ABBOTSFORD A","1100031","2023-01-19 16:00","2023","01","19","16:00","6.4","","2.1","","74","","","","22","","14","","32.2","","102.25","","","","","","Mostly Cloudy"
"-122.36","49.03","ABBOTSFORD A","1100031","2023-01-19 17:00","2023","01","19","17:00","5.5","","1.8","","77","","","","25","","4","","32.2","","102.27","","","","","","NA"
"-122.36","49.03","ABBOTSFORD A","1100031","2023-01-19 18:00","2023","01","19","18:00","4.1","","2.1","","87","","","","36","","3","","24.1","","102.29","","","","","","NA"
"-122.36","49.03","ABBOTSFORD A","1100031","2023-01-19 19:00","2023","01","19","19:00","2.0","","1.0","","93","","","","36","","3","","24.1","","102.33","","","","","","Mostly Cloudy"
"-122.36","49.03","ABBOTSFORD A","1100031","2023-01-19 20:00","2023","01","19","20:00","2.3","","1.7","","95","","","","33","","4","","24.1","","102.40","","","","","","NA"
"-122.36","49.03","ABBOTSFORD A","1100031","2023-01-19 21:00","2023","01","19","21:00","3.1","","2.4","","95","","","","28","","3","","24.1","","102.43","","","","","","NA"
"-122.36","49.03","ABBOTSFORD A","1100031","2023-01-19 22:00","2023","01","19","22:00","2.6","","2.1","","97","","","","14","","4","","24.1","","102.48","","","","","","Cloudy"
"-122.36","49.03","ABBOTSFORD A","1100031","2023-01-19 23:00","2023","01","19","23:00","2.3","","1.9","","97","","","","36","","2","","24.1","","102.48","","","","","","NA"
"-122.36","49.03","ABBOTSFORD A","1100031","2023-01-20 00:00","2023","01","20","00:00","2.5","","2.2","","98","","","","33","","4","","24.1","","102.51","","","","","","NA"
"-122.36","49.03","ABBOTSFORD A","1100031","2023-01-20 01:00","2023","01","20","01:00","2.9","","2.5","","97","","","","36","","2","","20.9","","102.51","","","","","","Drizzle"
"-122.36","49.03","ABBOTSFORD A","1100031","2023-01-20 02:00","2023","01","20","02:00","2.0","","1.8","","99","","","","36","","3","","20.9","","102.56","","","","","","NA"
"-122.36","49.03","ABBOTSFORD A","1100031","2023-01-20 03:00","2023","01","20","03:00","1.9","","1.7","","99","","","","36","","1","","16.1","","102.59","","","","","","NA"
"-122.36","49.03","ABBOTSFORD A","1100031","2023-01-20 04:00","2023","01","20","04:00","1.7","","1.5","","99","","","","36","","2","","16.1","","102.56","","","","","","Mostly Cloudy"
"-122.36","49.03","ABBOTSFORD A","1100031","2023-01-20 05:00","2023","01","20","05:00","1.9","","1.8","","99","","","","0","","1","","16.1","","102.57","","","","","","NA"
"-122.36","49.03","ABBOTSFORD A","1100031","2023-01-20 06:00","2023","01","20","06:00","1.3","","1.2","","99","","","","34","","3","","3.2","","102.57","","","","","","Fog"
"-122.36","49.03","ABBOTSFORD A","1100031","2023-01-20 07:00","2023","01","20","07:00","0.3","","0.2","","99","","","","0","","1","","1.2","","102.57","","","","","","Fog"
"-122.36","49.03","ABBOTSFORD A","1100031","2023-01-20 08:00","2023","01","20","08:00","-0.4","","-0.5","","99","","","","36","","1","","0.4","","102.60","","","","-1","","Freezing Fog"
"-122.36","49.03","ABBOTSFORD A","1100031","2023-01-20 09:00","2023","01","20","09:00","0.4","","0.3","","100","","","","36","","1","","0.6","","102.65","","","","","","Fog"
"-122.36","49.03","ABBOTSFORD A","1100031","2023-01-20 10:00","2023","01","20","10:00","2.0","","1.9","","100","","","","19","","4","","32.2","","102.70","","","","","","Mostly Cloudy"
"-122.36","49.03","ABBOTSFORD A","1100031","2023-01-20 11:00","2023","01","20","11:00","3.6","","3.5","","99","","","","36","","3","","40.2","","102.70","","","","","","NA"
"-122.36","49.03","ABBOTSFORD A","1100031","2023-01-20 12:00","2023","01","20","12:00","5.7","","3.8","","87","","","","36","","1","","48.3","","102.66","","","","","","NA"
"-122.36","49.03","ABBOTSFORD A","1100031","2023-01-20 13:00","2023","01","20","13:00","6.9","","2.1","","72","","","","7","","3","","48.3","","102.59","","","","","","Mainly Clear"
"-122.36","49.03","ABBOTSFORD A","1100031","2023-01-20 14:00","2023","01","20","14:00","7.6","","1.9","","67","","","","1","","4","","48.3","","102.58","","","","","","NA"
"-122.36","49.03","ABBOTSFORD A","1100031","2023-01-20 15:00","2023","01","20","15:00","7.5","","1.5","","65","","","","4","","6","","48.3","","102.55","","","","","","NA"
"-122.36","49.03","ABBOTSFORD A","1100031","2023-01-20 16:00","2023","01","20","16:00","6.3","","2.0","","74","","","","10","","9","","48.3","","102.52","","","","","","Mainly Clear"
"-122.36","49.03","ABBOTSFORD A","1100031","2023-01-20 17:00","2023","01","20","17:00","4.9","","1.6","","79","","","","36","","3","","48.3","","102.51","","","","","","NA"
"-122.36","49.03","ABBOTSFORD A","1100031","2023-01-20 18:00","2023","01","20","18:00","2.8","","1.3","","90","","","","2","","5","","24.1","","102.47","","","","","","NA"
"-122.36","49.03","ABBOTSFORD A","1100031","2023-01-20 19:00","2023","01","20","19:00","3.2","","1.6","","89","","","","35","","5","","24.1","","102.44","","","","","","Mainly Clear"
"-122.36","49.03","ABBOTSFORD A","1100031","2023-01-20 20:00","2023","01","20","20:00","2.2","","1.6","","95","","","","36","","5","","24.1","","102.40","","","","","","NA"
"-122.36","49.03","ABBOTSFORD A","1100031","2023-01-20 21:00","2023","01","20","21:00","1.0","","0.5","","97","","","","4","","3","","24.1","","102.36","","","","","","NA"
"-122.36","49.03","ABBOTSFORD A","1100031","2023-01-20 22:00","2023","01","20","22:00","0.5","","0.1","","97","","","","36","","1","","24.1","","102.32","","","","","","Clear"
"-122.36","49.03","ABBOTSFORD A","1100031","2023-01-20 23:00","2023","01","20","23:00","0.2","","0.0","","99","","","","5","","6","","24.1","","102.28","","","","","","NA"
"-122.36","49.03","ABBOTSFORD A","1100031","2023-01-21 00:00","2023","01","21","00:00","0.3","","0.2","","99","","","","4","","7","","24.1","","102.26","","","","","","NA"
"-122.36","49.03","ABBOTSFORD A","1100031","2023-01-21 01:00","2023","01","21","01:00","-0.3","","-0.4","","99","","","","36","","9","","24.1","","102.19","","","","-3","","Clear"
"-122.36","49.03","ABBOTSFORD A","1100031","2023-01-21 02:00","2023","01","21","02:00","-0.8","","-1.0","","99","","","","4","","3","","24.1","","102.15","","","","-2","","NA"
"-122.36","49.03","ABBOTSFORD A","1100031","2023-01-21 03:00","2023","01","21","03:00","0.2","","0.0","","99","","","","4","","6","","24.1","","102.14","","","","","","NA"
"-122.36","49.03","ABBOTSFORD A","1100031","2023-01-21 04:00","2023","01","21","04:00","0.7","","0.5","","98","","","","3","","11","","24.1","","102.02","","","","","","Mostly Cloudy"
"-122.36","49.03","ABBOTSFORD A","1100031","2023-01-21 05:00","2023","01","21","05:00","0.0","","-0.3","","98","","","","1","","11","","24.1","","101.84","","","","-4","","NA"
"-122.36","49.03","ABBOTSFORD A","1100031","2023-01-21 06:00","2023","01","21","06:00","-0.5","","-0.7","","98","","","","1","","5","","24.1","","101.70","","","","-2","","NA"
"-122.36","49.03","ABBOTSFORD A","1100031","2023-01-21 07:00","2023","01","21","07:00","-0.4","","-0.7","","98","","","","3","","7","","24.1","","101.58","","","","-3","","Mainly Clear"
"-122.36","49.03","ABBOTSFORD A","1100031","2023-01-21 08:00","2023","01","21","08:00","-0.2","","-0.4","","98","","","","4","","9","","48.3","","101.47","","","","-3","","NA"
"-122.36","49.03","ABBOTSFORD A","1100031","2023-01-21 09:00","2023","01","21","09:00","0.8","","0.4","","98","","","","10","","3","","48.3","","101.48","","","","","","NA"
"-122.36","49.03","ABBOTSFORD A","1100031","2023-01-21 10:00","2023","01","21","10:00","1.2","","0.7","","96","","","","36","","7","","40.2","","101.41","","","","","","Rain Showers"
"-122.36","49.03","ABBOTSFORD A","1100031","2023-01-21 11:00","2023","01","21","11:00","1.9","","0.9","","93","","","","2","","10","","40.2","","101.38","","","","","","NA"
"-122.36","49.03","ABBOTSFORD A","1100031","2023-01-21 12:00","2023","01","21","12:00","3.0","","1.5","","90","","","","36","","5","","32.2","","101.34","","","","","","Rain Showers"
"-122.36","49.03","ABBOTSFORD A","1100031","2023-01-21 13:00","2023","01","21","13:00","4.0","","2.0","","86","","","","18","","13","","16.1","","101.26","","","","","","Cloudy"
"-122.36","49.03","ABBOTSFORD A","1100031","2023-01-21 14:00","2023","01","21","14:00","3.6","","2.5","","92","","","","0","","1","","12.9","","101.24","","","","","","Rain"
"-122.36","49.03","ABBOTSFORD A","1100031","2023-01-21 15:00","2023","01","21","15:00","3.0","","2.1","","93","","","","34","","8","","8.1","","101.25","","","","","","Rain,Fog"
"-122.36","49.03","ABBOTSFORD A","1100031","2023-01-21 16:00","2023","01","21","16:00","2.0","","1.5","","97","","","","35","","15","","8.1","","101.26","","","","","","Rain,Fog"
"-122.36","49.03","ABBOTSFORD A","1100031","2023-01-21 17:00","2023","01","21","17:00","2.1","","1.6","","97","","","","2","","7","","8.1","","101.31","","","","","","Rain,Fog"
"-122.36","49.03","ABBOTSFORD A","1100031","2023-01-21 18:00","2023","01","21","18:00","2.3","","1.9","","98","","","","36","","4","","8.1","","101.33","","","","","","Rain,Fog"
"-122.36","49.03","ABBOTSFORD A","1100031","2023-01-21 19:00","2023","01","21","19:00","2.3","","2.1","","98","","","","31","","5","","6.4","","101.41","","","","","","Rain,Fog"
"-122.36","49.03","ABBOTSFORD A","1100031","2023-01-21 20:00","2023","01","21","20:00","2.1","","1.9","","99","","","","16","","6","","6.4","","101.50","","","","","","Rain,Fog"
"-122.36","49.03","ABBOTSFORD A","1100031","2023-01-21 21:00","2023","01","21","21:00","1.8","","1.7","","99","","","","21","","7","","6.4","","101.57","","","","","","Rain,Fog"
"-122.36","49.03","ABBOTSFORD A","1100031","2023-01-21 22:00","2023","01","21","22:00","2.0","","2.0","","99","","","","19","","7","","4.0","","101.66","","","","","","Fog"
"-122.36","49.03","ABBOTSFORD A","1100031","2023-01-21 23:00","2023","01","21","23:00","2.0","","2.0","","99","","","","16","","11","","6.4","","101.75","","","","","","Fog"
"-122.36","49.03","ABBOTSFORD A","1100031","2023-01-22 00:00","2023","01","22","00:00","2.5","","2.4","","99","","","","16","","10","","11.3","","101.79","","","","","","NA"
"-122.36","49.03","ABBOTSFORD A","1100031","2023-01-22 01:00","2023","01","22","01:00","3.0","","2.5","","97","","","","16","","13","","8.1","","101.83","","","","","","Rain"
"-122.36","49.03","ABBOTSFORD A","1100031","2023-01-22 02:00","2023","01","22","02:00","3.1","","2.6","","96","","","","15","","15","","8.1","","101.92","","","","","","Rain,Fog"
"-122.36","49.03","ABBOTSFORD A","1100031","2023-01-22 03:00","2023","01","22","03:00","3.0","","2.5","","96","","","","17","","13","","11.3","","101.99","","","","","","NA"
"-122.36","49.03","ABBOTSFORD A","1100031","2023-01-22 04:00","2023","01","22","04:00","3.1","","2.6","","96","","","","16","","16","","16.1","","102.02","","","","","","Cloudy"
"-122.36","49.03","ABBOTSFORD A","1100031","2023-01-22 05:00","2023","01","22","05:00","3.0","","2.5","","97","","","","16","","14","","16.1","","102.10","","","","","","NA"
"-122.36","49.03","ABBOTSFORD A","1100031","2023-01-22 06:00","2023","01","22","06:00","3.1","","2.5","","95","","","","16","","14","","14.5","","102.13","","","","","","NA"
"-122.36","49.03","ABBOTSFORD A","1100031","2023-01-22 07:00","2023","01","22","07:00","3.1","","2.5","","96","","","","16","","10","","14.5","","102.20","","","","","","Cloudy"
"-122.36","49.03","ABBOTSFORD A","1100031","2023-01-22 08:00","2023","01","22","08:00","3.0","","2.5","","96","","","","16","","9","","16.1","","102.25","","","","","","NA"
"-122.36","49.03","ABBOTSFORD A","1100031","2023-01-22 09:00","2023","01","22","09:00","3.4","","2.8","","96","","","","14","","9","","12.9","","102.34","","","","","","NA"
"-122.36","49.03","ABBOTSFORD A","1100031","2023-01-22 10:00","2023","01","22","10:00","3.5","","2.7","","94","","","","16","","13","","9.7","","102.38","","","","","","Rain"
"-122.36","49.03","ABBOTSFORD A","1100031","2023-01-22 11:00","2023","01","22","11:00","3.5","","2.5","","93","","","","17","","15","","16.1","","102.41","","","","","","NA"
"-122.36","49.03","ABBOTSFORD A","1100031","2023-01-22 12:00","2023","01","22","12:00","4.0","","2.8","","92","","","","20","","6","","24.1","","102.41","","","","","","NA"
"-122.36","49.03","ABBOTSFORD A","1100031","2023-01-22 13:00","2023","01","22","13:00","4.0","","2.8","","92","","","","20","","8","","9.7","","102.39","","","","","","Rain Showers"
"-122.36","49.03","ABBOTSFORD A","1100031","2023-01-22 14:00","2023","01","22","14:00","4.1","","2.6","","90","","","","20","","10","","11.3","","102.46","","","","","","NA"
"-122.36","49.03","ABBOTSFORD A","1100031","2023-01-22 15:00","2023","01","22","15:00","4.2","","2.3","","88","","","","13","","6","","16.1","","102.47","","","","","","NA"
"-122.36","49.03","ABBOTSFORD A","1100031","2023-01-22 16:00","2023","01","22","16:00","4.2","","2.8","","90","","","","20","","5","","16.1","","102.50","","","","","","Mostly Cloudy"
"-122.36","49.03","ABBOTSFORD A","1100031","2023-01-22 17:00","2023","01","22","17:00","3.5","","2.4","","92","","","","36","","2","","24.1","","102.52","","","","","","NA"
"-122.36","49.03","ABBOTSFORD A","1100031","2023-01-22 18:00","2023","01","22","18:00","3.0","","2.6","","97","","","","36","","3","","16.1","","102.52","","","","","","NA"
"-122.36","49.03","ABBOTSFORD A","1100031","2023-01-22 19:00","2023","01","22","19:00","3.4","","2.8","","96","","","","36","","3","","16.1","","102.52","","","","","","Mostly Cloudy"
"-122.36","49.03","ABBOTSFORD A","1100031","2023-01-22 20:00","2023","01","22","20:00","2.0","","1.6","","98","","","","","","0","","16.1","","102.52","","","","","","NA"
"-122.36","49.03","ABBOTSFORD A","1100031","2023-01-22 21:00","2023","01","22","21:00","1.9","","1.8","","99","","","","33","","4","","16.1","","102.50","","","","","","NA"
"-122.36","49.03","ABBOTSFORD A","1100031","2023-01-22 22:00","2023","01","22","22:00","1.7","","1.5","","99","","","","35","","4","","16.1","","102.48","","","","","","Mostly Cloudy"
"-122.36","49.03","ABBOTSFORD A","1100031","2023-01-22 23:00","2023","01","22","23:00","1.4","","1.3","","99","","","","13","","5","","16.1","","102.46","","","","","","NA"
"-122.36","49.03","ABBOTSFORD A","1100031","2023-01-23 00:00","2023","01","23","00:00","1.8","","1.7","","99","","","","24","","3","","16.1","","102.43","","","","","","NA"
"-122.36","49.03","ABBOTSFORD A","1100031","2023-01-23 01:00","2023","01","23","01:00","1.6","","1.6","","99","","","","36","","2","","16.1","","102.43","","","","","","Cloudy"
"-122.36","49.03","ABBOTSFORD A","1100031","2023-01-23 02:00","2023","01","23","02:00","2.1","","2.1","","99","","","","29","","4","","16.1","","102.53","","","","","","NA"
"-122.36","49.03","ABBOTSFORD A","1100031","2023-01-23 03:00","2023","01","23","03:00","1.6","","1.5","","99","","","","11","","9","","16.1","","102.58","","","","","","NA"
"-122.36","49.03","ABBOTSFORD A","1100031","2023-01-23 04:00","2023","01","23","04:00","2.1","","2.0","","99","","","","6","","4","","16.1","","102.52","","","","","","Cloudy"
"-122.36","49.03","ABBOTSFORD A","1100031","2023-01-23 05:00","2023","01","23","05:00","2.0","","1.9","","99","","","","3","","5","","32.2","","102.51","","","","","","NA"
"-122.36","49.03","ABBOTSFORD A","1100031","2023-01-23 06:00","2023","01","23","06:00","2.2","","2.1","","99","","","","33","","5","","16.1","","102.53","","","","","","NA"
"-122.36","49.03","ABBOTSFORD A","1100031","2023-01-23 07:00","2023","01","23","07:00","1.9","","1.8","","99","","","","12","","7","","16.1","","102.55","","","","","","Cloudy"
"-122.36","49.03","ABBOTSFORD A","1100031","2023-01-23 08:00","2023","01","23","08:00","2.1","","1.9","","99","","","","36","","3","","32.2","","102.53","","","","","","NA"
"-122.36","49.03","ABBOTSFORD A","1100031","2023-01-23 09:00","2023","01","23","09:00","2.5","","2.3","","99","","","","36","","3","","32.2","","102.55","","","","","","NA"
"-122.36","49.03","ABBOTSFORD A","1100031","2023-01-23 10:00","2023","01","23","10:00","3.8","","2.4","","91","","","","5","","6","","32.2","","102.57","","","","","","Mostly Cloudy"
"-122.36","49.03","ABBOTSFORD A","1100031","2023-01-23 11:00","2023","01","23","11:00","4.5","","2.6","","87","","","","36","","2","","32.2","","102.65","","","","","","NA"
"-122.36","49.03","ABBOTSFORD A","1100031","2023-01-23 12:00","2023","01","23","12:00","5.5","","1.4","","75","","","","4","","4","","24.1","","102.58","","","","","","NA"
"-122.36","49.03","ABBOTSFORD A","1100031","2023-01-23 13:00","2023","01","23","13:00","5.3","","1.4","","76","","","","27","","6","","16.1","","102.62","","","","","","Mostly Cloudy"
"-122.36","49.03","ABBOTSFORD A","1100031","2023-01-23 14:00","2023","01","23","14:00","5.0","","2.2","","82","","","","20","","7","","16.1","","102.63","","","","","","NA"
"-122.36","49.03","ABBOTSFORD A","1100031","2023-01-23 15:00","2023","01","23","15:00","5.6","","3.1","","84","","","","17","","10","","24.1","","102.55","","","","","","NA"
"-122.36","49.03","ABBOTSFORD A","1100031","2023-01-23 16:00","2023","01","23","16:00","5.4","","3.3","","87","","","","22","","9","","32.2","","102.53","","","","","","Mostly Cloudy"
"-122.36","49.03","ABBOTSFORD A","1100031","2023-01-23 17:00","2023","01","23","17:00","5.0","","3.4","","89","","","","26","","6","","24.1","","102.58","","","","","","NA"
"-122.36","49.03","ABBOTSFORD A","1100031","2023-01-23 18:00","2023","01","23","18:00","4.9","","3.4","","90","","","","31","","5","","24.1","","102.61","","","","","","NA"
"-122.36","49.03","ABBOTSFORD A","1100031","2023-01-23 19:00","2023","01","23","19:00","4.8","","3.4","","91","","","","35","","4","","16.1","","102.61","","","","","","Cloudy"
"-122.36","49.03","ABBOTSFORD A","1100031","2023-01-23 20:00","2023","01","23","20:00","4.4","","3.6","","94","","","","2","","8","","16.1","","102.61","","","","","","NA"
"-122.36","49.03","ABBOTSFORD A","1100031","2023-01-23 21:00","2023","01","23","21:00","4.5","","3.5","","93","","","","30","","5","","16.1","","102.60","","","","","","NA"
"-122.36","49.03","ABBOTSFORD A","1100031","2023-01-23 22:00","2023","01","23","22:00","4.0","","3.5","","97","","","","35","","5","","16.1","","102.65","","","","","","Cloudy"
"-122.36","49.03","ABBOTSFORD A","1100031","2023-01-23 23:00","2023","01","23","23:00","4.1","","3.5","","96","","","","30","","3","","16.1","","102.65","","","","","","NA"
"-122.36","49.03","ABBOTSFORD A","1100031","2023-01-24 00:00","2023","01","24","00:00","3.5","","3.1","","97","","","","36","","1","","16.1","","102.64","","","","","","NA"
"-122.36","49.03","ABBOTSFORD A","1100031","2023-01-24 01:00","2023","01","24","01:00","3.6","","3.3","","98","","","","35","","4","","16.1","","102.64","","","","","","Cloudy"
"-122.36","49.03","ABBOTSFORD A","1100031","2023-01-24 02:00","2023","01","24","02:00","4.0","","3.4","","96","","","","34","","5","","16.1","","102.65","","","","","","NA"
"-122.36","49.03","ABBOTSFORD A","1100031","2023-01-24 03:00","2023","01","24","03:00","3.5","","3.3","","98","","","","36","","3","","16.1","","102.68","","","","","","NA"
"-122.36","49.03","ABBOTSFORD A","1100031","2023-01-24 04:00","2023","01","24","04:00","3.7","","3.5","","98","","","","34","","5","","16.1","","102.67","","","","","","Cloudy"
"-122.36","49.03","ABBOTSFORD A","1100031","2023-01-24 05:00","2023","01","24","05:00","3.9","","3.7","","98","","","","3","","9","","9.7","","102.65","","","","","","Rain"
"-122.36","49.03","ABBOTSFORD A","1100031","2023-01-24 06:00","2023","01","24","06:00","3.9","","3.8","","99","","","","5","","5","","4.8","","102.63","","","","","","Rain"
"-122.36","49.03","ABBOTSFORD A","1100031","2023-01-24 07:00","2023","01","24","07:00","4.0","","3.8","","99","","","","1","","7","","8.1","","102.66","","","","","","Rain"
"-122.36","49.03","ABBOTSFORD A","1100031","2023-01-24 08:00","2023","01","24","08:00","4.0","","3.9","","99","","","","2","","8","","3.2","","102.68","","","","","","Rain,Fog"
"-122.36","49.03","ABBOTSFORD A","1100031","2023-01-24 09:00","2023","01","24","09:00","4.2","","4.0","","99","","","","1","","8","","3.2","","102.72","","","","","","Rain,Fog"
"-122.36","49.03","ABBOTSFORD A","1100031","2023-01-24 10:00","2023","01","24","10:00","4.4","","4.3","","99","","","","1","","5","","3.2","","102.74","","","","","","Rain,Fog"
"-122.36","49.03","ABBOTSFORD A","1100031","2023-01-24 11:00","2023","01","24","11:00","4.7","","4.5","","99","","","","34","","6","","3.2","","102.77","","","","","","Rain,Fog"
"-122.36","49.03","ABBOTSFORD A","1100031","2023-01-24 12:00","2023","01","24","12:00","5.0","","4.7","","98","","","","36","","4","","3.2","","102.77","","","","","","Rain,Fog"
"-122.36","49.03","ABBOTSFORD A","1100031","2023-01-24 13:00","2023","01","24","13:00","5.1","","4.9","","99","","","","1","","6","","4.8","","102.80","","","","","","Fog"
"-122.36","49.03","ABBOTSFORD A","1100031","2023-01-24 14:00","2023","01","24","14:00","5.1","","4.9","","99","","","","1","","7","","4.8","","102.74","","","","","","Rain,Fog"
"-122.36","49.03","ABBOTSFORD A","1100031","2023-01-24 15:00","2023","01","24","15:00","5.3","","5.1","","98","","","","35","","7","","12.9","","102.78","","","","","","NA"
"-122.36","49.03","ABBOTSFORD A","1100031","2023-01-24 16:00","2023","01","24","16:00","5.3","","5.0","","98","","","","36","","1","","3.2","","102.86","","","","","","Rain,Fog"
"-122.36","49.03","ABBOTSFORD A","1100031","2023-01-24 17:00","2023","01","24","17:00","5.1","","5.0","","99","","","","8","","5","","1.6","","102.85","","","","","","Rain,Fog"
"-122.36","49.03","ABBOTSFORD A","1100031","2023-01-24 18:00","2023","01","24","18:00","5.1","","5.0","","99","","","","35","","4","","1.6","","102.86","","","","","","Drizzle,Fog"
"-122.36","49.03","ABBOTSFORD A","1100031","2023-01-24 19:00","2023","01","24","19:00","5.1","","5.0","","100","","","","2","","5","","1.6","","102.92","","","","","","Drizzle,Fog"
"-122.36","49.03","ABBOTSFORD A","1100031","2023-01-24 20:00","2023","01","24","20:00","5.1","","5.0","","100","","","","5","","7","","1.6","","102.94","","","","","","Drizzle,Fog"
"-122.36","49.03","ABBOTSFORD A","1100031","2023-01-24 21:00","2023","01","24","21:00","5.0","","4.9","","100","","","","36","","3","","1.6","","102.97","","","","","","Drizzle,Fog"
"-122.36","49.03","ABBOTSFORD A","1100031","2023-01-24 22:00","2023","01","24","22:00","5.0","","4.9","","100","","","","3","","5","","1.6","","103.03","","","","","","Drizzle,Fog"
"-122.36","49.03","ABBOTSFORD A","1100031","2023-01-24 23:00","2023","01","24","23:00","4.9","","4.8","","100","","","","4","","4","","1.6","","103.06","","","","","","Rain,Fog"
"-122.36","49.03","ABBOTSFORD A","1100031","2023-01-25 00:00","2023","01","25","00:00","4.8","","4.7","","100","","","","4","","8","","1.6","","103.11","","","","","","Drizzle,Fog"
"-122.36","49.03","ABBOTSFORD A","1100031","2023-01-25 01:00","2023","01","25","01:00","4.7","","4.7","","100","","","","1","","7","","1.6","","103.11","","","","","","Drizzle,Fog"
"-122.36","49.03","ABBOTSFORD A","1100031","2023-01-25 02:00","2023","01","25","02:00","4.6","","4.6","","100","","","","2","","3","","1.6","","103.11","","","","","","Drizzle,Fog"
"-122.36","49.03","ABBOTSFORD A","1100031","2023-01-25 03:00","2023","01","25","03:00","4.7","","4.7","","100","","","","2","","4","","1.6","","103.15","","","","","","Drizzle,Fog"
"-122.36","49.03","ABBOTSFORD A","1100031","2023-01-25 04:00","2023","01","25","04:00","4.7","","4.6","","100","","","","34","","5","","1.6","","103.20","","","","","","Drizzle,Fog"
"-122.36","49.03","ABBOTSFORD A","1100031","2023-01-25 05:00","2023","01","25","05:00","4.7","","4.6","","100","","","","1","","4","","1.6","","103.21","","","","","","Drizzle,Fog"
"-122.36","49.03","ABBOTSFORD A","1100031","2023-01-25 06:00","2023","01","25","06:00","4.7","","4.7","","100","","","","3","","5","","1.6","","103.24","","","","","","Drizzle,Fog"
"-122.36","49.03","ABBOTSFORD A","1100031","2023-01-25 07:00","2023","01","25","07:00","4.7","","4.6","","100","","","","35","","3","","1.6","","103.26","","","","","","Fog"
"-122.36","49.03","ABBOTSFORD A","1100031","2023-01-25 08:00","2023","01","25","08:00","4.7","","4.6","","100","","","","1","","7","","4.0","","103.32","","","","","","Fog"
"-122.36","49.03","ABBOTSFORD A","1100031","2023-01-25 09:00","2023","01","25","09:00","5.0","","4.9","","100","","","","1","","7","","3.2","","103.36","","","","","","Fog"
"-122.36","49.03","ABBOTSFORD A","1100031","2023-01-25 10:00","2023","01","25","10:00","5.4","","5.3","","99","","","","1","","8","","6.4","","103.36","","","","","","Fog"
"-122.36","49.03","ABBOTSFORD A","1100031","2023-01-25 11:00","2023","01","25","11:00","5.7","","5.2","","97","","","","34","","5","","6.4","","103.40","","","","","","Fog"
"-122.36","49.03","ABBOTSFORD A","1100031","2023-01-25 12:00","2023","01","25","12:00","6.7","","5.5","","92","","","","35","","8","","12.9","","103.38","","","","","","NA"
"-122.36","49.03","ABBOTSFORD A","1100031","2023-01-25 13:00","2023","01","25","13:00","6.8","","4.7","","86","","","","30","","6","","16.1","","103.34","","","","","","Cloudy"
"-122.36","49.03","ABBOTSFORD A","1100031","2023-01-25 14:00","2023","01","25","14:00","7.2","","5.2","","87","","","","28","","6","","12.9","","103.24","","","","","","NA"
"-122.36","49.03","ABBOTSFORD A","1100031","2023-01-25 15:00","2023","01","25","15:00","7.2","","5.1","","86","","","","30","","7","","11.3","","103.24","","","","","","NA"
"-122.36","49.03","ABBOTSFORD A","1100031","2023-01-25 16:00","2023","01","25","16:00","7.2","","4.9","","85","","","","28","","7","","12.9","","103.23","","","","","","Cloudy"
"-122.36","49.03","ABBOTSFORD A","1100031","2023-01-25 17:00","2023","01","25","17:00","6.9","","4.7","","86","","","","36","","1","","12.9","","103.27","","","","","","NA"
"-122.36","49.03","ABBOTSFORD A","1100031","2023-01-25 18:00","2023","01","25","18:00","6.5","","5.0","","90","","","","30","","3","","11.3","","103.25","","","","","","NA"
"-122.36","49.03","ABBOTSFORD A","1100031","2023-01-25 19:00","2023","01","25","19:00","6.1","","5.0","","93","","","","18","","4","","9.7","","103.27","","","","","","Fog"
"-122.36","49.03","ABBOTSFORD A","1100031","2023-01-25 20:00","2023","01","25","20:00","5.8","","5.6","","98","","","","23","","5","","11.3","","103.28","","","","","","NA"
"-122.36","49.03","ABBOTSFORD A","1100031","2023-01-25 21:00","2023","01","25","21:00","5.6","","5.5","","99","","","","19","","4","","11.3","","103.27","","","","","","NA"
"-122.36","49.03","ABBOTSFORD A","1100031","2023-01-25 22:00","2023","01","25","22:00","5.4","","5.2","","99","","","","25","","6","","11.3","","103.25","","","","","","Cloudy"
"-122.36","49.03","ABBOTSFORD A","1100031","2023-01-25 23:00","2023","01","25","23:00","5.1","","4.9","","99","","","","15","","3","","11.3","","103.24","","","","","","NA"
"-122.36","49.03","ABBOTSFORD A","1100031","2023-01-26 00:00","2023","01","26","00:00","5.2","","5.1","","99","","","","21","","3","","11.3","","103.20","","","","","","NA"
"-122.36","49.03","ABBOTSFORD A","1100031","2023-01-26 01:00","2023","01","26","01:00","5.2","","5.1","","99","","","","36","","2","","11.3","","103.20","","","","","","Cloudy"
"-122.36","49.03","ABBOTSFORD A","1100031","2023-01-26 02:00","2023","01","26","02:00","5.1","","5.1","","100","","","","17","","5","","11.3","","103.17","","","","","","NA"
"-122.36","49.03","ABBOTSFORD A","1100031","2023-01-26 03:00","2023","01","26","03:00","5.1","","5.1","","100","","","","18","","3","","11.3","","103.13","","","","","","NA"
"-122.36","49.03","ABBOTSFORD A","1100031","2023-01-26 04:00","2023","01","26","04:00","5.0","","4.9","","100","","","","36","","3","","12.9","","103.10","","","","","","Cloudy"
"-122.36","49.03","ABBOTSFORD A","1100031","2023-01-26 05:00","2023","01","26","05:00","4.9","","4.8","","100","","","","19","","4","","12.9","","103.09","","","","","","NA"
"-122.36","49.03","ABBOTSFORD A","1100031","2023-01-26 06:00","2023","01","26","06:00","5.0","","4.9","","100","","","","17","","6","","11.3","","103.08","","","","","","NA"
"-122.36","49.03","ABBOTSFORD A","1100031","2023-01-26 07:00","2023","01","26","07:00","4.9","","4.8","","100","","","","19","","11","","11.3","","103.06","","","","","","Cloudy"
"-122.36","49.03","ABBOTSFORD A","1100031","2023-01-26 08:00","2023","01","26","08:00","4.6","","4.5","","99","","","","20","","8","","3.2","","103.07","","","","","","Drizzle,Fog"
"-122.36","49.03","ABBOTSFORD A","1100031","2023-01-26 09:00","2023","01","26","09:00","4.7","","4.7","","100","","","","16","","6","","2.4","","103.06","","","","","","Fog"
"-122.36","49.03","ABBOTSFORD A","1100031","2023-01-26 10:00","2023","01","26","10:00","4.8","","4.8","","100","","","","20","","6","","2.0","","103.05","","","","","","Drizzle,Fog"
"-122.36","49.03","ABBOTSFORD A","1100031","2023-01-26 11:00","2023","01","26","11:00","5.1","","5.0","","100","","","","22","","4","","2.0","","102.95","","","","","","Drizzle,Fog"
"-122.36","49.03","ABBOTSFORD A","1100031","2023-01-26 12:00","2023","01","26","12:00","5.6","","5.5","","99","","","","25","","7","","4.8","","102.90","","","","","","Fog"
"-122.36","49.03","ABBOTSFORD A","1100031","2023-01-26 13:00","2023","01","26","13:00","5.9","","5.7","","99","","","","18","","11","","4.0","","102.77","","","","","","Drizzle,Fog"
"-122.36","49.03","ABBOTSFORD A","1100031","2023-01-26 14:00","2023","01","26","14:00","6.0","","5.5","","97","","","","19","","14","","6.4","","102.74","","","","","","Fog"
"-122.36","49.03","ABBOTSFORD A","1100031","2023-01-26 15:00","2023","01","26","15:00","6.3","","5.3","","94","","","","20","","13","","11.3","","102.67","","","","","","NA"
"-122.36","49.03","ABBOTSFORD A","1100031","2023-01-26 16:00","2023","01","26","16:00","6.2","","5.5","","95","","","","23","","12","","11.3","","102.60","","","","","","Cloudy"
"-122.36","49.03","ABBOTSFORD A","1100031","2023-01-26 17:00","2023","01","26","17:00","5.7","","5.4","","98","","","","24","","8","","2.0","","102.56","","","","","","Drizzle,Fog"
"-122.36","49.03","ABBOTSFORD A","1100031","2023-01-26 18:00","2023","01","26","18:00","5.5","","5.3","","99","","","","36","","1","","3.2","","102.40","","","","","","Drizzle,Fog"
"-122.36","49.03","ABBOTSFORD A","1100031","2023-01-26 19:00","2023","01","26","19:00","5.6","","5.5","","99","","","","21","","6","","4.8","","102.35","","","","","","Drizzle,Fog"
"-122.36","49.03","ABBOTSFORD A","1100031","2023-01-26 20:00","2023","01","26","20:00","5.7","","5.6","","99","","","","21","","8","","4.0","","102.20","","","","","","Rain,Fog"
"-122.36","49.03","ABBOTSFORD A","1100031","2023-01-26 21:00","2023","01","26","21:00","5.7","","5.6","","99","","","","24","","10","","4.0","","102.11","","","","","","Rain,Fog"
"-122.36","49.03","ABBOTSFORD A","1100031","2023-01-26 22:00","2023","01","26","22:00","5.6","","5.2","","97","","","","19","","14","","11.3","","102.00","","","","","","Rain"
"-122.36","49.03","ABBOTSFORD A","1100031","2023-01-26 23:00","2023","01","26","23:00","5.6","","5.0","","95","","","","18","","17","","16.1","","101.84","","","","","","Drizzle"
"-122.36","49.03","ABBOTSFORD A","1100031","2023-01-27 00:00","2023","01","27","00:00","5.8","","5.0","","95","","","","18","","20","","11.3","","101.69","","","","","","Rain"
"-122.36","49.03","ABBOTSFORD A","1100031","2023-01-27 01:00","2023","01","27","01:00","5.6","","5.1","","97","","","","22","","11","","12.9","","101.61","","","","","","Rain,Fog"
"-122.36","49.03","ABBOTSFORD A","1100031","2023-01-27 02:00","2023","01","27","02:00","5.9","","5.0","","94","","","","20","","12","","12.9","","101.59","","","","","","Rain"
"-122.36","49.03","ABBOTSFORD A","1100031","2023-01-27 03:00","2023","01","27","03:00","5.8","","5.0","","95","","","","19","","16","","8.1","","101.54","","","","","","Rain,Fog"
"-122.36","49.03","ABBOTSFORD A","1100031","2023-01-27 04:00","2023","01","27","04:00","5.6","","5.2","","97","","","","23","","6","","6.4","","101.57","","","","","","Rain,Fog"
"-122.36","49.03","ABBOTSFORD A","1100031","2023-01-27 05:00","2023","01","27","05:00","5.3","","5.2","","99","","","","12","","6","","6.4","","101.60","","","","","","Rain,Fog"
"-122.36","49.03","ABBOTSFORD A","1100031","2023-01-27 06:00","2023","01","27","06:00","5.4","","5.3","","99","","","","36","","3","","6.4","","101.63","","","","","","Drizzle"
"-122.36","49.03","ABBOTSFORD A","1100031","2023-01-27 07:00","2023","01","27","07:00","5.4","","5.3","","99","","","","6","","3","","4.8","","101.59","","","","","","Drizzle"
"-122.36","49.03","ABBOTSFORD A","1100031","2023-01-27 08:00","2023","01","27","08:00","5.3","","5.2","","99","","","","34","","6","","4.8","","101.61","","","","","","Drizzle"
"-122.36","49.03","ABBOTSFORD A","1100031","2023-01-27 09:00","2023","01","27","09:00","5.5","","5.4","","99","","","","3","","6","","4.8","","101.69","","","","","","Drizzle,Fog"
"-122.36","49.03","ABBOTSFORD A","1100031","2023-01-27 10:00","2023","01","27","10:00","5.8","","5.3","","97","","","","7","","4","","6.4","","101.70","","","","","","Fog"
"-122.36","49.03","ABBOTSFORD A","1100031","2023-01-27 11:00","2023","01","27","11:00","6.4","","5.7","","95","","","","19","","5","","8.1","","101.67","","","","","","Fog"
"-122.36","49.03","ABBOTSFORD A","1100031","2023-01-27 12:00","2023","01","27","12:00","6.6","","5.4","","92","","","","25","","7","","8.1","","101.66","","","","","","Fog"
"-122.36","49.03","ABBOTSFORD A","1100031","2023-01-27 13:00","2023","01","27","13:00","6.4","","5.7","","95","","","","23","","9","","8.1","","101.64","","","","","","Drizzle,Fog"
"-122.36","49.03","ABBOTSFORD A","1100031","2023-01-27 14:00","2023","01","27","14:00","6.1","","5.0","","93","","","","18","","4","","4.8","","101.56","","","","","","Fog"
"-122.36","49.03","ABBOTSFORD A","1100031","2023-01-27 15:00","2023","01","27","15:00","6.6","","5.4","","92","","","","17","","3","","11.3","","101.56","","","","","","NA"
"-122.36","49.03","ABBOTSFORD A","1100031","2023-01-27 16:00","2023","01","27","16:00","6.7","","5.3","","91","","","","8","","4","","11.3","","101.55","","","","","","Cloudy"
"-122.36","49.03","ABBOTSFORD A","1100031","2023-01-27 17:00","2023","01","27","17:00","6.2","","5.0","","92","","","","16","","8","","8.1","","101.55","","","","","","Fog"
"-122.36","49.03","ABBOTSFORD A","1100031","2023-01-27 18:00","2023","01","27","18:00","6.0","","5.1","","94","","","","13","","7","","11.3","","101.52","","","","","","NA"
"-122.36","49.03","ABBOTSFORD A","1100031","2023-01-27 19:00","2023","01","27","19:00","5.7","","4.9","","94","","","","11","","5","","11.3","","101.52","","","","","","Cloudy"
"-122.36","49.03","ABBOTSFORD A","1100031","2023-01-27 20:00","2023","01","27","20:00","5.5","","4.8","","95","","","","8","","4","","16.1","","101.51","","","","","","NA"
"-122.36","49.03","ABBOTSFORD A","1100031","2023-01-27 21:00","2023","01","27","21:00","5.7","","4.8","","94","","","","6","","3","","16.1","","101.50","","","","","","Drizzle"
"-122.36","49.03","ABBOTSFORD A","1100031","2023-01-27 22:00","2023","01","27","22:00","5.5","","5.1","","97","","","","5","","5","","12.9","","101.50","","","","","","Cloudy"
"-122.36","49.03","ABBOTSFORD A","1100031","2023-01-27 23:00","2023","01","27","23:00","5.3","","5.0","","98","","","","0","","1","","8.1","","101.45","","","","","","Fog"
"-122.36","49.03","ABBOTSFORD A","1100031","2023-01-28 00:00","2023","01","28","00:00","4.8","","4.7","","99","","","","36","","2","","8.1","","101.43","","","","","","Fog"
"-122.36","49.03","ABBOTSFORD A","1100031","2023-01-28 01:00","2023","01","28","01:00","5.2","","5.1","","99","","","","4","","8","","6.4","","101.42","","","","","","Fog"
"-122.36","49.03","ABBOTSFORD A","1100031","2023-01-28 02:00","2023","01","28","02:00","4.3","","4.0","","98","","","","35","","6","","11.3","","101.43","","","","","","NA"
"-122.36","49.03","ABBOTSFORD A","1100031","2023-01-28 03:00","2023","01","28","03:00","3.2","","3.0","","99","","","","35","","7","","1.2","","101.42","","","","","","Fog"
"-122.36","49.03","ABBOTSFORD A","1100031","2023-01-28 04:00","2023","01","28","04:00","1.6","","1.5","","99","","","","0","","1","","0.4","","101.39","","","","","","Fog"
"-122.36","49.03","ABBOTSFORD A","1100031","2023-01-28 05:00","2023","01","28","05:00","1.4","","1.3","","100","","","","1","","7","","0.4","","101.37","","","","","","Fog"
"-122.36","49.03","ABBOTSFORD A","1100031","2023-01-28 06:00","2023","01","28","06:00","1.0","","0.9","","100","","","","36","","5","","0.4","","101.36","","","","","","Fog"
"-122.36","49.03","ABBOTSFORD A","1100031","2023-01-28 07:00","2023","01","28","07:00","0.9","","0.9","","100","","","","35","","4","","24.1","","101.38","","","","","","Mostly Cloudy"
"-122.36","49.03","ABBOTSFORD A","1100031","2023-01-28 08:00","2023","01","28","08:00","1.2","","1.2","","100","","","","36","","8","","48.3","","101.40","","","","","","NA"
"-122.36","49.03","ABBOTSFORD A","1100031","2023-01-28 09:00","2023","01","28","09:00","2.4","","2.3","","99","","","","5","","12","","48.3","","101.44","","","","","","NA"
"-122.36","49.03","ABBOTSFORD A","1100031","2023-01-28 10:00","2023","01","28","10:00","3.6","","2.0","","89","","","","4","","10","","48.3","","101.47","","","","","","Mostly Cloudy"
"-122.36","49.03","ABBOTSFORD A","1100031","2023-01-28 11:00","2023","01","28","11:00","5.0","","2.2","","82","","","","36","","2","","48.3","","101.48","","","","","","NA"
"-122.36","49.03","ABBOTSFORD A","1100031","2023-01-28 12:00","2023","01","28","12:00","8.0","","-2.5","","48","","","","4","","21","","48.3","","101.48","","","","","","NA"
"-122.36","49.03","ABBOTSFORD A","1100031","2023-01-28 13:00","2023","01","28","13:00","8.0","","-5.7","","37","","","","2","","27","","40.2","","101.47","","","","","","Mainly Clear"
"-122.36","49.03","ABBOTSFORD A","1100031","2023-01-28 14:00","2023","01","28","14:00","7.7","","-9.1","","29","","","","2","","30","","40.2","","101.49","","","","","","NA"
"-122.36","49.03","ABBOTSFORD A","1100031","2023-01-28 15:00","2023","01","28","15:00","6.8","","-10.9","","27","","","","3","","39","","48.3","","101.54","","","","","","NA"
"-122.36","49.03","ABBOTSFORD A","1100031","2023-01-28 16:00","2023","01","28","16:00","5.6","","-10.7","","30","","","","3","","40","","48.3","","101.62","","","","","","Clear"
"-122.36","49.03","ABBOTSFORD A","1100031","2023-01-28 17:00","2023","01","28","17:00","4.1","","-11.7","","31","","","","2","","43","","48.3","","101.71","","","","","","NA"
"-122.36","49.03","ABBOTSFORD A","1100031","2023-01-28 18:00","2023","01","28","18:00","3.0","","-12.2","","32","","","","3","","43","","24.1","","101.81","","","","","","NA"
"-122.36","49.03","ABBOTSFORD A","1100031","2023-01-28 19:00","2023","01","28","19:00","2.5","","-13.0","","31","","","","3","","56","","24.1","","101.88","","","","","","Clear"
"-122.36","49.03","ABBOTSFORD A","1100031","2023-01-28 20:00","2023","01","28","20:00","1.6","","-13.0","","33","","","","2","","42","","24.1","","102.06","","","","","","NA"
"-122.36","49.03","ABBOTSFORD A","1100031","2023-01-28 21:00","2023","01","28","21:00","1.3","","-13.6","","32","","","","3","","49","","24.1","","102.15","","","","","","NA"
"-122.36","49.03","ABBOTSFORD A","1100031","2023-01-28 22:00","2023","01","28","22:00","1.0","","-13.7","","33","","","","4","","33","","24.1","","102.23","","","","","","Clear"
"-122.36","49.03","ABBOTSFORD A","1100031","2023-01-28 23:00","2023","01","28","23:00","0.8","","-14.6","","31","","","","4","","50","","24.1","","102.33","","","","","","NA"
"-122.36","49.03","ABBOTSFORD A","1100031","2023-01-29 00:00","2023","01","29","00:00","0.3","","-15.0","","31","","","","4","","46","","24.1","","102.41","","","","","","NA"
"-122.36","49.03","ABBOTSFORD A","1100031","2023-01-29 01:00","2023","01","29","01:00","0.1","","-15.8","","29","","","","5","","36","","24.1","","102.45","","","","","","Clear"
"-122.36","49.03","ABBOTSFORD A","1100031","2023-01-29 02:00","2023","01","29","02:00","-0.2","","-15.8","","30","","","","5","","24","","24.1","","102.55","","","","-6","","NA"
"-122.36","49.03","ABBOTSFORD A","1100031","2023-01-29 03:00","2023","01","29","03:00","-0.6","","-16.1","","30","","","","6","","23","","24.1","","102.54","","","","-6","","NA"
"-122.36","49.03","ABBOTSFORD A","1100031","2023-01-29 04:00","2023","01","29","04:00","-0.3","","-17.4","","27","","","","4","","37","","24.1","","102.54","","","","-8","","Clear"
"-122.36","49.03","ABBOTSFORD A","1100031","2023-01-29 05:00","2023","01","29","05:00","-0.9","","-16.9","","29","","","","5","","27","","24.1","","102.63","","","","-7","","NA"
"-122.36","49.03","ABBOTSFORD A","1100031","2023-01-29 06:00","2023","01","29","06:00","-1.3","","-17.2","","29","","","","5","","20","","24.1","","102.67","","","","-7","","NA"
"-122.36","49.03","ABBOTSFORD A","1100031","2023-01-29 07:00","2023","01","29","07:00","-1.5","","-17.8","","28","","","","4","","17","","48.3","","102.68","","","","-7","","Clear"
"-122.36","49.03","ABBOTSFORD A","1100031","2023-01-29 08:00","2023","01","29","08:00","-3.2","","-16.1","","37","","","","12","","21","","48.3","","102.75","","","","-9","","NA"
"-122.36","49.03","ABBOTSFORD A","1100031","2023-01-29 09:00","2023","01","29","09:00","-2.1","","-16.6","","32","","","","7","","25","","48.3","","102.76","","","","-9","","NA"
"-122.36","49.03","ABBOTSFORD A","1100031","2023-01-29 10:00","2023","01","29","10:00","-0.9","","-17.7","","27","","","","5","","26","","48.3","","102.77","","","","-7","","Clear"
"-122.36","49.03","ABBOTSFORD A","1100031","2023-01-29 11:00","2023","01","29","11:00","-0.1","","-17.8","","25","","","","6","","22","","48.3","","102.81","","","","-6","","NA"
"-122.36","49.03","ABBOTSFORD A","1100031","2023-01-29 12:00","2023","01","29","12:00","0.3","","-16.6","","27","","","","5","","26","","48.3","","102.67","","","","","","NA"
"-122.36","49.03","ABBOTSFORD A","1100031","2023-01-29 13:00","2023","01","29","13:00","2.5","","-17.1","","22","","","","3","","10","","48.3","","102.62","","","","","","Mainly Clear"
"-122.36","49.03","ABBOTSFORD A","1100031","2023-01-29 14:00","2023","01","29","14:00","2.9","","-16.8","","22","","","","8","","10","","48.3","","102.51","","","","","","NA"
"-122.36","49.03","ABBOTSFORD A","1100031","2023-01-29 15:00","2023","01","29","15:00","3.0","","-17.9","","20","","","","4","","21","","48.3","","102.49","","","","","","NA"
"-122.36","49.03","ABBOTSFORD A","1100031","2023-01-29 16:00","2023","01","29","16:00","1.0","","-13.2","","34","","","","9","","17","","48.3","","102.49","","","","","","Mainly Clear"
"-122.36","49.03","ABBOTSFORD A","1100031","2023-01-29 17:00","2023","01","29","17:00","0.1","","-14.0","","34","","","","8","","14","","48.3","","102.49","","","","","","NA"
"-122.36","49.03","ABBOTSFORD A","1100031","2023-01-29 18:00","2023","01","29","18:00","-0.1","","-14.1","","34","","","","7","","13","","48.3","","102.49","","","","-4","","NA"
"-122.36","49.03","ABBOTSFORD A","1100031","2023-01-29 19:00","2023","01","29","19:00","-1.9","","-13.1","","42","","","","4","","7","","48.3","","102.49","","","","-5","","Clear"
"-122.36","49.03","ABBOTSFORD A","1100031","2023-01-29 20:00","2023","01","29","20:00","-3.1","","-10.8","","55","","","","1","","7","","24.1","","102.50","","","","-6","","NA"
"-122.36","49.03","ABBOTSFORD A","1100031","2023-01-29 21:00","2023","01","29","21:00","-3.6","","-11.0","","57","","","","3","","5","","24.1","","102.53","","","","-6","","NA"
"-122.36","49.03","ABBOTSFORD A","1100031","2023-01-29 22:00","2023","01","29","22:00","-4.0","","-10.4","","62","","","","3","","8","","24.1","","102.53","","","","-7","","Clear"
"-122.36","49.03","ABBOTSFORD A","1100031","2023-01-29 23:00","2023","01","29","23:00","-2.6","","-10.6","","54","","","","4","","7","","24.1","","102.53","","","","-5","","NA"
"-122.36","49.03","ABBOTSFORD A","1100031","2023-01-30 00:00","2023","01","30","00:00","-3.6","","-10.3","","60","","","","3","","4","","24.1","","102.54","","","","-5","","NA"
"-122.36","49.03","ABBOTSFORD A","1100031","2023-01-30 01:00","2023","01","30","01:00","-2.9","","-12.1","","49","","","","6","","8","","24.1","","102.52","","","","-6","","Clear"
"-122.36","49.03","ABBOTSFORD A","1100031","2023-01-30 02:00","2023","01","30","02:00","-4.0","","-10.4","","61","","","","5","","4","","24.1","","102.50","","","","-6","","NA"
"-122.36","49.03","ABBOTSFORD A","1100031","2023-01-30 03:00","2023","01","30","03:00","-3.3","","-11.8","","52","","","","6","","10","","24.1","","102.55","","","","-7","","NA"
"-122.36","49.03","ABBOTSFORD A","1100031","2023-01-30 04:00","2023","01","30","04:00","-5.8","","-10.0","","72","","","","2","","5","","24.1","","102.52","","","","-8","","Clear"
"-122.36","49.03","ABBOTSFORD A","1100031","2023-01-30 05:00","2023","01","30","05:00","-5.5","","-9.9","","71","","","","35","","3","","24.1","","102.52","","","","-7","","NA"
"-122.36","49.03","ABBOTSFORD A","1100031","2023-01-30 06:00","2023","01","30","06:00","-5.6","","-10.4","","69","","","","2","","5","","24.1","","102.54","","","","-8","","NA"
"-122.36","49.03","ABBOTSFORD A","1100031","2023-01-30 07:00","2023","01","30","07:00","-6.1","","-10.3","","72","","","","36","","7","","48.3","","102.47","","","","-9","","Clear"
"-122.36","49.03","ABBOTSFORD A","1100031","2023-01-30 08:00","2023","01","30","08:00","-4.4","","-11.8","","56","","","","6","","10","","48.3","","102.46","","","","-9","","NA"
"-122.36","49.03","ABBOTSFORD A","1100031","2023-01-30 09:00","2023","01","30","09:00","-3.3","","-10.9","","56","","","","4","","5","","48.3","","102.46","","","","-5","","NA"
"-122.36","49.03","ABBOTSFORD A","1100031","2023-01-30 10:00","2023","01","30","10:00","-2.0","","-9.8","","55","","","","36","","2","","48.3","","102.48","","","","-3","","Mainly Clear"
"-122.36","49.03","ABBOTSFORD A","1100031","2023-01-30 11:00","2023","01","30","11:00","-0.6","","-10.3","","48","","","","9","","7","","48.3","","102.50","","","","-3","","NA"
"-122.36","49.03","ABBOTSFORD A","1100031","2023-01-30 12:00","2023","01","30","12:00","0.1","","-10.6","","45","","","","8","","10","","48.3","","102.42","","","","","","NA"
"-122.36","49.03","ABBOTSFORD A","1100031","2023-01-30 13:00","2023","01","30","13:00","0.2","","-11.1","","43","","","","9","","5","","48.3","","102.37","","","","","","Mostly Cloudy"
"-122.36","49.03","ABBOTSFORD A","1100031","2023-01-30 14:00","2023","01","30","14:00","0.0","","-9.8","","48","","","","9","","8","","48.3","","102.27","","","","-3","","NA"
"-122.36","49.03","ABBOTSFORD A","1100031","2023-01-30 15:00","2023","01","30","15:00","0.1","","-9.7","","48","","","","","","0","","48.3","","102.25","","","","","","NA"
"-122.36","49.03","ABBOTSFORD A","1100031","2023-01-30 16:00","2023","01","30","16:00","0.2","","-8.3","","53","","","","5","","5","","48.3","","102.21","","","","","","Mostly Cloudy"
"-122.36","49.03","ABBOTSFORD A","1100031","2023-01-30 17:00","2023","01","30","17:00","-0.4","","-7.8","","58","","","","6","","5","","48.3","","102.16","","","","-2","","NA"
"-122.36","49.03","ABBOTSFORD A","1100031","2023-01-30 18:00","2023","01","30","18:00","-1.2","","-7.9","","61","","","","10","","4","","48.3","","102.14","","","","-3","","NA"
"-122.36","49.03","ABBOTSFORD A","1100031","2023-01-30 19:00","2023","01","30","19:00","-1.1","","-8.0","","60","","","","9","","5","","48.3","","102.10","","","","-3","","Cloudy"
"-122.36","49.03","ABBOTSFORD A","1100031","2023-01-30 20:00","2023","01","30","20:00","-1.6","","-7.3","","65","","","","8","","3","","16.1","","102.06","","","","-3","","NA"
"-122.36","49.03","ABBOTSFORD A","1100031","2023-01-30 21:00","2023","01","30","21:00","-1.5","","-7.0","","66","","","","1","","3","","24.1","","102.04","","","","-3","","NA"
"-122.36","49.03","ABBOTSFORD A","1100031","2023-01-30 22:00","2023","01","30","22:00","-1.9","","-5.9","","74","","","","31","","3","","16.1","","102.04","","","","-3","","Cloudy"
"-122.36","49.03","ABBOTSFORD A","1100031","2023-01-30 23:00","2023","01","30","23:00","-1.6","","-6.2","","71","","","","2","","3","","16.1","","102.04","","","","-3","","NA"
"-122.36","49.03","ABBOTSFORD A","1100031","2023-01-31 00:00","2023","01","31","00:00","-1.2","","-7.4","","63","","","","4","","4","","16.1","","101.99","","","","-3","","NA"
"-122.36","49.03","ABBOTSFORD A","1100031","2023-01-31 01:00","2023","01","31","01:00","-1.2","","-6.5","","67","","","","1","","4","","16.1","","101.97","","","","-3","","Cloudy"
"-122.36","49.03","ABBOTSFORD A","1100031","2023-01-31 02:00","2023","01","31","02:00","-1.3","","-6.4","","68","","","","2","","3","","16.1","","101.95","","","","-2","","NA"
"-122.36","49.03","ABBOTSFORD A","1100031","2023-01-31 03:00","2023","01","31","03:00","-1.3","","-6.5","","67","","","","3","","6","","16.1","","101.93","","","","-4","","NA"
"-122.36","49.03","ABBOTSFORD A","1100031","2023-01-31 04:00","2023","01","31","04:00","-1.3","","-5.5","","73","","","","35","","7","","16.1","","101.87","","","","-4","","Cloudy"
"-122.36","49.03","ABBOTSFORD A","1100031","2023-01-31 05:00","2023","01","31","05:00","-0.8","","-6.3","","67","","","","32","","7","","16.1","","101.91","","","","-3","","NA"
"-122.36","49.03","ABBOTSFORD A","1100031","2023-01-31 06:00","2023","01","31","06:00","-1.9","","-3.3","","90","","","","7","","6","","3.2","","101.89","","","","-4","","Snow"
"-122.36","49.03","ABBOTSFORD A","1100031","2023-01-31 07:00","2023","01","31","07:00","-1.9","","-2.7","","94","","","","4","","6","","3.2","","101.87","","","","-4","","Snow"
"-122.36","49.03","ABBOTSFORD A","1100031","2023-01-31 08:00","2023","01","31","08:00","-1.8","","-2.3","","96","","","","8","","5","","3.2","","101.82","","","","-4","","Snow"
"-122.36","49.03","ABBOTSFORD A","1100031","2023-01-31 09:00","2023","01","31","09:00","-1.6","","-2.0","","97","","","","3","","10","","3.2","","101.82","","","","-5","","Rain,Snow"
"-122.36","49.03","ABBOTSFORD A","1100031","2023-01-31 10:00","2023","01","31","10:00","-1.3","","-2.0","","95","","","","2","","8","","4.0","","101.87","","","","-4","","Snow"
"-122.36","49.03","ABBOTSFORD A","1100031","2023-01-31 11:00","2023","01","31","11:00","-1.1","","-1.8","","95","","","","4","","8","","4.8","","101.86","","","","-4","","Snow"
"-122.36","49.03","ABBOTSFORD A","1100031","2023-01-31 12:00","2023","01","31","12:00","-1.1","","-1.7","","95","","","","10","","6","","11.3","","101.81","","","","-3","","NA"
"-122.36","49.03","ABBOTSFORD A","1100031","2023-01-31 13:00","2023","01","31","13:00","-0.5","","-1.4","","93","","","","2","","8","","11.3","","101.74","","","","-3","","Cloudy"
"-122.36","49.03","ABBOTSFORD A","1100031","2023-01-31 14:00","2023","01","31","14:00","-0.4","","-1.4","","93","","","","1","","7","","11.3","","101.69","","","","-3","","NA"
"-122.36","49.03","ABBOTSFORD A","1100031","2023-01-31 15:00","2023","01","31","15:00","-0.2","","-1.2","","92","","","","3","","5","","11.3","","101.64","","","","-2","","NA"
"-122.36","49.03","ABBOTSFORD A","1100031","2023-01-31 16:00","2023","01","31","16:00","-0.2","","-1.3","","92","","","","2","","10","","24.1","","101.58","","","","-4","","Cloudy"
"-122.36","49.03","ABBOTSFORD A","1100031","2023-01-31 17:00","2023","01","31","17:00","-0.2","","-1.2","","93","","","","4","","8","","24.1","","101.56","","","","-3","","NA"
"-122.36","49.03","ABBOTSFORD A","1100031","2023-01-31 18:00","2023","01","31","18:00","-0.5","","-1.5","","93","","","","1","","7","","16.1","","101.55","","","","-3","","NA"
"-122.36","49.03","ABBOTSFORD A","1100031","2023-01-31 19:00","2023","01","31","19:00","-0.4","","-1.3","","94","","","","1","","5","","16.1","","101.48","","","","-2","","Cloudy"
"-122.36","49.03","ABBOTSFORD A","1100031","2023-01-31 20:00","2023","01","31","20:00","-0.4","","-1.2","","94","","","","5","","4","","16.1","","101.46","","","","-2","","NA"
"-122.36","49.03","ABBOTSFORD A","1100031","2023-01-31 21:00","2023","01","31","21:00","-0.3","","-1.2","","93","","","","2","","5","","12.9","","101.46","","","","-2","","NA"
"-122.36","49.03","ABBOTSFORD A","1100031","2023-01-31 22:00","2023","01","31","22:00","-0.5","","-1.0","","96","","","","12","","5","","2.4","","101.51","","","","-2","","Snow"
"-122.36","49.03","ABBOTSFORD A","1100031","2023-01-31 23:00","2023","01","31","23:00","-0.2","","-0.4","","98","","","","7","","3","","1.6","","101.53","","","","-1","","Snow"
