"Longitude (x)","Latitude (y)","Station Name","Climate ID","Date/Time (LST)","Year","Month","Day","Time (LST)","Temp (°C)","Temp Flag","Dew Point Temp (°C)","Dew Point Temp Flag","Rel Hum (%)","Rel Hum Flag","Precip. Amount (mm)","Precip. Amount Flag","Wind Dir (10s deg)","Wind Dir Flag","Wind Spd (km/h)","Wind Spd Flag","Visibility (km)","Visibility Flag","Stn Press (kPa)","Stn Press Flag","Hmdx","Hmdx Flag","Wind Chill","Wind Chill Flag","Weather"
"-94.97","74.72","RESOLUTE BAY A","2403498","2020-10-01 00:00","2020","10","01","00:00","-9.8","","-11.2","","89","","","","2","","18","","24.1","","101.72","","","","-17","","Mostly Cloudy"
"-94.97","74.72","RESOLUTE BAY A","2403498","2020-10-01 01:00","2020","10","01","01:00","-9.1","","-10.5","","90","","","","3","","19","","24.1","","101.68","","","","-17","","NA"
"-94.97","74.72","RESOLUTE BAY A","2403498","2020-10-01 02:00","2020","10","01","02:00","-7.8","","-9.0","","91","","","","36","","17","","24.1","","101.64","","","","-14","","NA"
"-94.97","74.72","RESOLUTE BAY A","2403498","2020-10-01 03:00","2020","10","01","03:00","-8.2","","-9.4","","91","","","","1","","14","","24.1","","101.59","","","","-14","","Cloudy"
"-94.97","74.72","RESOLUTE BAY A","2403498","2020-10-01 04:00","2020","10","01","04:00","-7.9","","-9.1","","91","","","","35","","16","","24.1","","101.53","","","","-14","","NA"
"-94.97","74.72","RESOLUTE BAY A","2403498","2020-10-01 05:00","2020","10","01","05:00","-7.4","","-8.6","","91","","","","33","","13","","24.1","","101.50","","","","-13","","NA"
"-94.97","74.72","RESOLUTE BAY A","2403498","2020-10-01 06:00","2020","10","01","06:00","-7.2","","-8.4","","91","","","","33","","13","","0.8","","101.42","","","","-13","","Freezing Fog"
"-94.97","74.72","RESOLUTE BAY A","2403498","2020-10-01 07:00","2020","10","01","07:00","-6.6","","-7.7","","92","","","","33","","12","","0.6","","101.38","","","","-12","","Freezing Fog"
"-94.97","74.72","RESOLUTE BAY A","2403498","2020-10-01 08:00","2020","10","01","08:00","-6.1","","-7.1","","92","","","","34","","17","","9.7","","101.30","","","","-12","","Fog"
"-94.97","74.72","RESOLUTE BAY A","2403498","2020-10-01 09:00","2020","10","01","09:00","-6.1","","-7.2","","92","","","","34","","10","","16.1","","101.22","","","","-11","","Cloudy"
"-94.97","74.72","RESOLUTE BAY A","2403498","2020-10-01 10:00","2020","10","01","10:00","-6.4","","-7.5","","92","","","","30","","16","","24.1","","101.17","","","","-13","","NA"
"-94.97","74.72","RESOLUTE BAY A","2403498","2020-10-01 11:00","2020","10","01","11:00","-7.1","","-8.2","","91","","","","35","","18","","32.2","","101.10","","","","-14","","NA"
"-94.97","74.72","RESOLUTE BAY A","2403498","2020-10-01 12:00","2020","10","01","12:00","-7.8","","-9.1","","91","","","","35","","26","","24.1","","101.06","","","","-16","","Mostly Cloudy"
"-94.97","74.72","RESOLUTE BAY A","2403498","2020-10-01 13:00","2020","10","01","13:00","-7.0","","-8.1","","91","","","","33","","16","","9.7","","101.02","","","","-13","","Fog"
"-94.97","74.72","RESOLUTE BAY A","2403498","2020-10-01 14:00","2020","10","01","14:00","-7.4","","-8.6","","91","","","","33","","21","","19.3","","100.98","","","","-15","","NA"
"-94.97","74.72","RESOLUTE BAY A","2403498","2020-10-01 15:00","2020","10","01","15:00","-7.1","","-8.3","","91","","","","33","","20","","19.3","","100.89","","","","-14","","Mostly Cloudy"
"-94.97","74.72","RESOLUTE BAY A","2403498","2020-10-01 16:00","2020","10","01","16:00","-5.6","","-6.6","","93","","","","31","","19","","0.6","","100.86","","","","-12","","Freezing Fog"
"-94.97","74.72","RESOLUTE BAY A","2403498","2020-10-01 17:00","2020","10","01","17:00","-5.0","","-5.9","","93","","","","34","","36","","16.1","","100.80","","","","-14","","NA"
"-94.97","74.72","RESOLUTE BAY A","2403498","2020-10-01 18:00","2020","10","01","18:00","-4.9","","-5.8","","94","","","","32","","25","","16.1","","100.73","","","","-12","","Snow"
"-94.97","74.72","RESOLUTE BAY A","2403498","2020-10-01 19:00","2020","10","01","19:00","-5.0","","-5.8","","94","","","","33","","31","","24.1","","100.65","","","","-13","","Snow"
"-94.97","74.72","RESOLUTE BAY A","2403498","2020-10-01 20:00","2020","10","01","20:00","-5.2","","-6.1","","93","","","","32","","35","","24.1","","100.55","","","","-14","","Snow,Blowing Snow"
"-94.97","74.72","RESOLUTE BAY A","2403498","2020-10-01 21:00","2020","10","01","21:00","-5.7","","-6.7","","93","","","","31","","27","","16.1","","100.49","","","","-14","","Snow,Blowing Snow"
"-94.97","74.72","RESOLUTE BAY A","2403498","2020-10-01 22:00","2020","10","01","22:00","-5.3","","-6.2","","93","","","","31","","31","","14.5","","100.43","","","","-14","","Snow,Blowing Snow"
"-94.97","74.72","RESOLUTE BAY A","2403498","2020-10-01 23:00","2020","10","01","23:00","-5.3","","-6.2","","93","","","","31","","35","","12.9","","100.35","","","","-14","","Snow,Blowing Snow"
"-94.97","74.72","RESOLUTE BAY A","2403498","2020-10-02 00:00","2020","10","02","00:00","-5.2","","-6.2","","93","","","","32","","45","","3.2","","100.27","","","","-15","","Snow,Blowing Snow"
"-94.97","74.72","RESOLUTE BAY A","2403498","2020-10-02 01:00","2020","10","02","01:00","-5.2","","-6.2","","93","","","","32","","38","","4.8","","100.24","","","","-14","","Snow,Blowing Snow"
"-94.97","74.72","RESOLUTE BAY A","2403498","2020-10-02 02:00","2020","10","02","02:00","-4.3","","-5.1","","94","","","","32","","36","","4.8","","100.17","","","","-13","","Snow,Blowing Snow"
"-94.97","74.72","RESOLUTE BAY A","2403498","2020-10-02 03:00","2020","10","02","03:00","-3.6","","-4.3","","95","","","","32","","42","","4.8","","100.12","","","","-12","","Snow,Blowing Snow"
"-94.97","74.72","RESOLUTE BAY A","2403498","2020-10-02 04:00","2020","10","02","04:00","-3.8","","-4.5","","95","","","","33","","44","","14.5","","100.13","","","","-13","","Snow,Blowing Snow"
"-94.97","74.72","RESOLUTE BAY A","2403498","2020-10-02 05:00","2020","10","02","05:00","-4.0","","-4.8","","94","","","","34","","44","","16.1","","100.14","","","","-13","","Snow,Blowing Snow"
"-94.97","74.72","RESOLUTE BAY A","2403498","2020-10-02 06:00","2020","10","02","06:00","-4.5","","-5.3","","94","","","","34","","44","","16.1","","100.13","","","","-14","","Snow,Blowing Snow"
"-94.97","74.72","RESOLUTE BAY A","2403498","2020-10-02 07:00","2020","10","02","07:00","-4.3","","-5.1","","94","","","","34","","43","","16.1","","100.13","","","","-13","","Snow,Blowing Snow"
"-94.97","74.72","RESOLUTE BAY A","2403498","2020-10-02 08:00","2020","10","02","08:00","-4.0","","-4.9","","94","","","","33","","48","","16.1","","100.07","","","","-13","","Snow,Blowing Snow"
"-94.97","74.72","RESOLUTE BAY A","2403498","2020-10-02 09:00","2020","10","02","09:00","-3.9","","-4.8","","94","","","","33","","44","","6.4","","100.08","","","","-13","","Snow,Blowing Snow"
"-94.97","74.72","RESOLUTE BAY A","2403498","2020-10-02 10:00","2020","10","02","10:00","-3.4","","-4.4","","93","","","","32","","40","","16.1","","100.01","","","","-12","","Snow,Blowing Snow"
"-94.97","74.72","RESOLUTE BAY A","2403498","2020-10-02 11:00","2020","10","02","11:00","-2.8","","-3.9","","92","","","","32","","35","","9.7","","100.03","","","","-11","","Snow,Blowing Snow"
"-94.97","74.72","RESOLUTE BAY A","2403498","2020-10-02 12:00","2020","10","02","12:00","-2.5","","-3.9","","90","","","","33","","37","","9.7","","100.01","","","","-10","","Snow,Blowing Snow"
"-94.97","74.72","RESOLUTE BAY A","2403498","2020-10-02 13:00","2020","10","02","13:00","-2.4","","-3.7","","91","","","","34","","42","","8.1","","100.05","","","","-11","","Snow,Blowing Snow"
"-94.97","74.72","RESOLUTE BAY A","2403498","2020-10-02 14:00","2020","10","02","14:00","-2.4","","-3.8","","90","","","","33","","36","","8.1","","100.08","","","","-10","","Snow,Blowing Snow"
"-94.97","74.72","RESOLUTE BAY A","2403498","2020-10-02 15:00","2020","10","02","15:00","-2.6","","-4.0","","90","","","","32","","30","","8.1","","100.08","","","","-10","","Snow,Blowing Snow"
"-94.97","74.72","RESOLUTE BAY A","2403498","2020-10-02 16:00","2020","10","02","16:00","-2.9","","-4.1","","91","","","","33","","40","","16.1","","100.08","","","","-11","","Snow,Blowing Snow"
"-94.97","74.72","RESOLUTE BAY A","2403498","2020-10-02 17:00","2020","10","02","17:00","-3.3","","-4.5","","92","","","","33","","50","","14.5","","100.05","","","","-13","","Snow,Blowing Snow"
"-94.97","74.72","RESOLUTE BAY A","2403498","2020-10-02 18:00","2020","10","02","18:00","-3.3","","-4.8","","89","","","","33","","55","","16.1","","100.06","","","","-13","","Snow,Blowing Snow"
"-94.97","74.72","RESOLUTE BAY A","2403498","2020-10-02 19:00","2020","10","02","19:00","-3.3","","-4.9","","89","","","","33","","47","","19.3","","100.09","","","","-12","","Snow,Blowing Snow"
"-94.97","74.72","RESOLUTE BAY A","2403498","2020-10-02 20:00","2020","10","02","20:00","-3.2","","-4.4","","92","","","","33","","43","","11.3","","100.05","","","","-12","","Snow,Blowing Snow"
"-94.97","74.72","RESOLUTE BAY A","2403498","2020-10-02 21:00","2020","10","02","21:00","-3.1","","-4.4","","90","","","","35","","41","","16.1","","100.09","","","","-12","","Snow,Blowing Snow"
"-94.97","74.72","RESOLUTE BAY A","2403498","2020-10-02 22:00","2020","10","02","22:00","-3.2","","-4.8","","89","","","","36","","27","","24.1","","100.13","","","","-10","","Snow"
"-94.97","74.72","RESOLUTE BAY A","2403498","2020-10-02 23:00","2020","10","02","23:00","-3.5","","-5.3","","88","","","","35","","28","","24.1","","100.16","","","","-11","","NA"
"-94.97","74.72","RESOLUTE BAY A","2403498","2020-10-03 00:00","2020","10","03","00:00","-3.9","","-6.1","","85","","","","35","","24","","24.1","","100.20","","","","-11","","Cloudy"
"-94.97","74.72","RESOLUTE BAY A","2403498","2020-10-03 01:00","2020","10","03","01:00","-4.2","","-5.9","","88","","","","36","","28","","24.1","","100.26","","","","-12","","NA"
"-94.97","74.72","RESOLUTE BAY A","2403498","2020-10-03 02:00","2020","10","03","02:00","-3.7","","-5.5","","87","","","","36","","35","","24.1","","100.31","","","","-12","","Blowing Snow"
"-94.97","74.72","RESOLUTE BAY A","2403498","2020-10-03 03:00","2020","10","03","03:00","-4.8","","-6.6","","88","","","","35","","39","","24.1","","100.36","","","","-14","","Mostly Cloudy"
"-94.97","74.72","RESOLUTE BAY A","2403498","2020-10-03 04:00","2020","10","03","04:00","-4.9","","-6.8","","87","","","","36","","34","","24.1","","100.40","","","","-13","","NA"
"-94.97","74.72","RESOLUTE BAY A","2403498","2020-10-03 05:00","2020","10","03","05:00","-4.7","","-6.7","","86","","","","36","","27","","24.1","","100.45","","","","-12","","NA"
"-94.97","74.72","RESOLUTE BAY A","2403498","2020-10-03 06:00","2020","10","03","06:00","-5.0","","-6.9","","86","","","","1","","37","","40.2","","100.47","","","","-14","","Mostly Cloudy"
"-94.97","74.72","RESOLUTE BAY A","2403498","2020-10-03 07:00","2020","10","03","07:00","-4.7","","-7.0","","84","","","","2","","36","","40.2","","100.53","","","","-13","","NA"
"-94.97","74.72","RESOLUTE BAY A","2403498","2020-10-03 08:00","2020","10","03","08:00","-5.3","","-7.4","","85","","","","2","","37","","32.2","","100.55","","","","-14","","NA"
"-94.97","74.72","RESOLUTE BAY A","2403498","2020-10-03 09:00","2020","10","03","09:00","-6.0","","-8.2","","85","","","","3","","37","","32.2","","100.54","","","","-15","","Mostly Cloudy"
"-94.97","74.72","RESOLUTE BAY A","2403498","2020-10-03 10:00","2020","10","03","10:00","-5.2","","-7.7","","83","","","","2","","34","","32.2","","100.55","","","","-14","","NA"
"-94.97","74.72","RESOLUTE BAY A","2403498","2020-10-03 11:00","2020","10","03","11:00","-6.3","","-8.8","","82","","","","4","","27","","32.2","","100.58","","","","-14","","NA"
"-94.97","74.72","RESOLUTE BAY A","2403498","2020-10-03 12:00","2020","10","03","12:00","-6.0","","-8.4","","83","","","","4","","27","","32.2","","100.62","","","","-14","","Mainly Clear"
"-94.97","74.72","RESOLUTE BAY A","2403498","2020-10-03 13:00","2020","10","03","13:00","-5.8","","-8.5","","81","","","","5","","25","","32.2","","100.64","","","","-13","","NA"
"-94.97","74.72","RESOLUTE BAY A","2403498","2020-10-03 14:00","2020","10","03","14:00","-5.8","","-8.9","","79","","","","6","","22","","32.2","","100.67","","","","-13","","NA"
"-94.97","74.72","RESOLUTE BAY A","2403498","2020-10-03 15:00","2020","10","03","15:00","-6.7","","-9.5","","80","","","","5","","19","","40.2","","100.71","","","","-14","","Mainly Clear"
"-94.97","74.72","RESOLUTE BAY A","2403498","2020-10-03 16:00","2020","10","03","16:00","-6.2","","-9.4","","78","","","","6","","21","","32.2","","100.73","","","","-13","","NA"
"-94.97","74.72","RESOLUTE BAY A","2403498","2020-10-03 17:00","2020","10","03","17:00","-6.7","","-9.7","","80","","","","6","","26","","40.2","","100.72","","","","-15","","NA"
"-94.97","74.72","RESOLUTE BAY A","2403498","2020-10-03 18:00","2020","10","03","18:00","-6.5","","-9.9","","77","","","","13","","15","","40.2","","100.76","","","","-12","","Clear"
"-94.97","74.72","RESOLUTE BAY A","2403498","2020-10-03 19:00","2020","10","03","19:00","-9.2","","-11.1","","86","","","","6","","40","","40.2","","100.75","","","","-20","","NA"
"-94.97","74.72","RESOLUTE BAY A","2403498","2020-10-03 20:00","2020","10","03","20:00","-8.3","","-10.3","","85","","","","5","","35","","48.3","","100.79","","","","-18","","NA"
"-94.97","74.72","RESOLUTE BAY A","2403498","2020-10-03 21:00","2020","10","03","21:00","-9.1","","-11.0","","86","","","","5","","28","","48.3","","100.76","","","","-18","","Clear"
"-94.97","74.72","RESOLUTE BAY A","2403498","2020-10-03 22:00","2020","10","03","22:00","-6.7","","-9.1","","83","","","","9","","25","","48.3","","100.73","","","","-15","","NA"
"-94.97","74.72","RESOLUTE BAY A","2403498","2020-10-03 23:00","2020","10","03","23:00","-7.5","","-9.8","","84","","","","8","","26","","48.3","","100.74","","","","-16","","NA"
"-94.97","74.72","RESOLUTE BAY A","2403498","2020-10-04 00:00","2020","10","04","00:00","-7.4","","-9.6","","85","","","","6","","32","","48.3","","100.73","","","","-16","","Mainly Clear"
"-94.97","74.72","RESOLUTE BAY A","2403498","2020-10-04 01:00","2020","10","04","01:00","-6.6","","-9.1","","83","","","","6","","32","","48.3","","100.73","","","","-15","","NA"
"-94.97","74.72","RESOLUTE BAY A","2403498","2020-10-04 02:00","2020","10","04","02:00"
"-94.97","74.72","RESOLUTE BAY A","2403498","2020-10-04 03:00","2020","10","04","03:00"
"-94.97","74.72","RESOLUTE BAY A","2403498","2020-10-04 04:00","2020","10","04","04:00","-4.7","","-8.3","","76","","","","6","","27","","24.1","","100.69","","","","-12","","Snow"
"-94.97","74.72","RESOLUTE BAY A","2403498","2020-10-04 05:00","2020","10","04","05:00","-4.7","","-8.6","","74","","","","6","","29","","24.1","","100.67","","","","-12","","Snow"
"-94.97","74.72","RESOLUTE BAY A","2403498","2020-10-04 06:00","2020","10","04","06:00","-4.3","","-8.8","","71","","","","7","","26","","24.1","","100.64","","","","-12","","Snow"
"-94.97","74.72","RESOLUTE BAY A","2403498","2020-10-04 07:00","2020","10","04","07:00","-4.6","","-8.9","","72","","","","6","","27","","32.2","","100.62","","","","-12","","NA"
"-94.97","74.72","RESOLUTE BAY A","2403498","2020-10-04 08:00","2020","10","04","08:00","-4.6","","-8.4","","75","","","","6","","26","","32.2","","100.59","","","","-12","","NA"
"-94.97","74.72","RESOLUTE BAY A","2403498","2020-10-04 09:00","2020","10","04","09:00","-4.5","","-8.2","","76","","","","6","","28","","32.2","","100.56","","","","-12","","Cloudy"
"-94.97","74.72","RESOLUTE BAY A","2403498","2020-10-04 10:00","2020","10","04","10:00","-4.6","","-7.9","","78","","","","6","","24","","32.2","","100.53","","","","-12","","NA"
"-94.97","74.72","RESOLUTE BAY A","2403498","2020-10-04 11:00","2020","10","04","11:00","-4.4","","-7.5","","79","","","","6","","27","","32.2","","100.50","","","","-12","","NA"
"-94.97","74.72","RESOLUTE BAY A","2403498","2020-10-04 12:00","2020","10","04","12:00","-4.5","","-7.6","","79","","","","7","","26","","32.2","","100.47","","","","-12","","Mostly Cloudy"
"-94.97","74.72","RESOLUTE BAY A","2403498","2020-10-04 13:00","2020","10","04","13:00","-5.2","","-8.6","","77","","","","5","","22","","32.2","","100.46","","","","-12","","NA"
"-94.97","74.72","RESOLUTE BAY A","2403498","2020-10-04 14:00","2020","10","04","14:00","-5.8","","-8.9","","79","","","","5","","26","","40.2","","100.46","","","","-14","","NA"
"-94.97","74.72","RESOLUTE BAY A","2403498","2020-10-04 15:00","2020","10","04","15:00","-6.4","","-8.6","","85","","","","6","","23","","40.2","","100.44","","","","-14","","Mostly Cloudy"
"-94.97","74.72","RESOLUTE BAY A","2403498","2020-10-04 16:00","2020","10","04","16:00","-6.4","","-8.7","","84","","","","6","","29","","40.2","","100.43","","","","-15","","NA"
"-94.97","74.72","RESOLUTE BAY A","2403498","2020-10-04 17:00","2020","10","04","17:00","-6.8","","-9.1","","84","","","","5","","28","","40.2","","100.43","","","","-15","","NA"
"-94.97","74.72","RESOLUTE BAY A","2403498","2020-10-04 18:00","2020","10","04","18:00","-6.5","","-8.9","","83","","","","5","","22","","40.2","","100.42","","","","-14","","Mainly Clear"
"-94.97","74.72","RESOLUTE BAY A","2403498","2020-10-04 19:00","2020","10","04","19:00","-6.6","","-10.0","","77","","","","5","","17","","40.2","","100.40","","","","-13","","NA"
"-94.97","74.72","RESOLUTE BAY A","2403498","2020-10-04 20:00","2020","10","04","20:00","-5.5","","-10.9","","66","","","","3","","10","","32.2","","100.39","","","","-10","","NA"
"-94.97","74.72","RESOLUTE BAY A","2403498","2020-10-04 21:00","2020","10","04","21:00","-6.1","","-10.7","","70","","","","28","","7","","32.2","","100.37","","","","-9","","Cloudy"
"-94.97","74.72","RESOLUTE BAY A","2403498","2020-10-04 22:00","2020","10","04","22:00","-7.3","","-10.4","","79","","","","34","","6","","32.2","","100.35","","","","-10","","NA"
"-94.97","74.72","RESOLUTE BAY A","2403498","2020-10-04 23:00","2020","10","04","23:00","-6.3","","-9.9","","76","","","","1","","8","","32.2","","100.32","","","","-10","","NA"
"-94.97","74.72","RESOLUTE BAY A","2403498","2020-10-05 00:00","2020","10","05","00:00","-6.6","","-9.6","","79","","","","10","","5","","32.2","","100.29","","","","-9","","Cloudy"
"-94.97","74.72","RESOLUTE BAY A","2403498","2020-10-05 01:00","2020","10","05","01:00","-7.2","","-9.7","","82","","","","2","","5","","24.1","","100.26","","","","-10","","NA"
"-94.97","74.72","RESOLUTE BAY A","2403498","2020-10-05 02:00","2020","10","05","02:00","-7.1","","-9.2","","85","","","","26","","7","","24.1","","100.28","","","","-11","","NA"
"-94.97","74.72","RESOLUTE BAY A","2403498","2020-10-05 03:00","2020","10","05","03:00","-7.5","","-9.3","","87","","","","33","","8","","24.1","","100.30","","","","-12","","Cloudy"
"-94.97","74.72","RESOLUTE BAY A","2403498","2020-10-05 04:00","2020","10","05","04:00","-8.6","","-10.1","","89","","","","33","","6","","24.1","","100.31","","","","-12","","NA"
"-94.97","74.72","RESOLUTE BAY A","2403498","2020-10-05 05:00","2020","10","05","05:00","-7.8","","-9.4","","89","","","","34","","11","","24.1","","100.31","","","","-13","","NA"
"-94.97","74.72","RESOLUTE BAY A","2403498","2020-10-05 06:00","2020","10","05","06:00","-6.7","","-9.2","","83","","","","35","","8","","32.2","","100.29","","","","-11","","Mostly Cloudy"
"-94.97","74.72","RESOLUTE BAY A","2403498","2020-10-05 07:00","2020","10","05","07:00","-7.0","","-9.4","","84","","","","33","","11","","24.1","","100.28","","","","-12","","NA"
"-94.97","74.72","RESOLUTE BAY A","2403498","2020-10-05 08:00","2020","10","05","08:00","-7.3","","-9.7","","84","","","","33","","11","","32.2","","100.27","","","","-12","","NA"
"-94.97","74.72","RESOLUTE BAY A","2403498","2020-10-05 09:00","2020","10","05","09:00","-7.1","","-9.3","","84","","","","33","","13","","32.2","","100.27","","","","-13","","Mostly Cloudy"
"-94.97","74.72","RESOLUTE BAY A","2403498","2020-10-05 10:00","2020","10","05","10:00","-7.3","","-9.5","","84","","","","35","","10","","40.2","","100.26","","","","-12","","NA"
"-94.97","74.72","RESOLUTE BAY A","2403498","2020-10-05 11:00","2020","10","05","11:00","-7.6","","-10.0","","83","","","","3","","16","","40.2","","100.27","","","","-14","","NA"
"-94.97","74.72","RESOLUTE BAY A","2403498","2020-10-05 12:00","2020","10","05","12:00","-7.7","","-9.9","","85","","","","4","","22","","40.2","","100.26","","","","-15","","Cloudy"
"-94.97","74.72","RESOLUTE BAY A","2403498","2020-10-05 13:00","2020","10","05","13:00","-7.1","","-8.7","","88","","","","4","","21","","40.2","","100.29","","","","-14","","NA"
"-94.97","74.72","RESOLUTE BAY A","2403498","2020-10-05 14:00","2020","10","05","14:00","-6.7","","-8.1","","90","","","","3","","16","","40.2","","100.31","","","","-13","","NA"
"-94.97","74.72","RESOLUTE BAY A","2403498","2020-10-05 15:00","2020","10","05","15:00","-6.7","","-8.3","","89","","","","3","","17","","40.2","","100.32","","","","-13","","Cloudy"
"-94.97","74.72","RESOLUTE BAY A","2403498","2020-10-05 16:00","2020","10","05","16:00","-6.8","","-8.6","","88","","","","3","","18","","40.2","","100.32","","","","-13","","NA"
"-94.97","74.72","RESOLUTE BAY A","2403498","2020-10-05 17:00","2020","10","05","17:00","-6.8","","-8.6","","87","","","","2","","15","","40.2","","100.32","","","","-13","","NA"
"-94.97","74.72","RESOLUTE BAY A","2403498","2020-10-05 18:00","2020","10","05","18:00","-7.2","","-8.9","","88","","","","3","","18","","40.2","","100.34","","","","-14","","Cloudy"
"-94.97","74.72","RESOLUTE BAY A","2403498","2020-10-05 19:00","2020","10","05","19:00","-6.9","","-8.7","","87","","","","3","","13","","40.2","","100.35","","","","-12","","NA"
"-94.97","74.72","RESOLUTE BAY A","2403498","2020-10-05 20:00","2020","10","05","20:00","-7.0","","-8.8","","87","","","","4","","18","","32.2","","100.34","","","","-14","","NA"
"-94.97","74.72","RESOLUTE BAY A","2403498","2020-10-05 21:00","2020","10","05","21:00","-7.2","","-9.1","","86","","","","4","","19","","24.1","","100.33","","","","-14","","Cloudy"
"-94.97","74.72","RESOLUTE BAY A","2403498","2020-10-05 22:00","2020","10","05","22:00","-6.5","","-8.7","","84","","","","4","","17","","24.1","","100.32","","","","-13","","NA"
"-94.97","74.72","RESOLUTE BAY A","2403498","2020-10-05 23:00","2020","10","05","23:00","-6.8","","-8.7","","86","","","","2","","15","","24.1","","100.32","","","","-13","","NA"
"-94.97","74.72","RESOLUTE BAY A","2403498","2020-10-06 00:00","2020","10","06","00:00","-7.2","","-9.1","","87","","","","4","","21","","24.1","","100.32","","","","-15","","Snow"
"-94.97","74.72","RESOLUTE BAY A","2403498","2020-10-06 01:00","2020","10","06","01:00","-7.4","","-9.2","","87","","","","4","","24","","24.1","","100.31","","","","-15","","Snow"
"-94.97","74.72","RESOLUTE BAY A","2403498","2020-10-06 02:00","2020","10","06","02:00","-7.6","","-9.2","","88","","","","3","","25","","24.1","","100.33","","","","-16","","Snow"
"-94.97","74.72","RESOLUTE BAY A","2403498","2020-10-06 03:00","2020","10","06","03:00","-7.3","","-8.9","","89","","","","3","","27","","24.1","","100.35","","","","-16","","Snow"
"-94.97","74.72","RESOLUTE BAY A","2403498","2020-10-06 04:00","2020","10","06","04:00","-7.3","","-9.1","","87","","","","4","","28","","24.1","","100.34","","","","-16","","Snow"
"-94.97","74.72","RESOLUTE BAY A","2403498","2020-10-06 05:00","2020","10","06","05:00","-7.2","","-9.1","","86","","","","3","","25","","32.2","","100.35","","","","-15","","Snow"
"-94.97","74.72","RESOLUTE BAY A","2403498","2020-10-06 06:00","2020","10","06","06:00","-6.2","","-8.8","","82","","","","4","","23","","32.2","","100.35","","","","-14","","Snow"
"-94.97","74.72","RESOLUTE BAY A","2403498","2020-10-06 07:00","2020","10","06","07:00","-6.8","","-9.0","","84","","","","4","","23","","40.2","","100.37","","","","-14","","NA"
"-94.97","74.72","RESOLUTE BAY A","2403498","2020-10-06 08:00","2020","10","06","08:00","-7.9","","-9.9","","85","","","","3","","26","","24.1","","100.37","","","","-16","","Snow"
"-94.97","74.72","RESOLUTE BAY A","2403498","2020-10-06 09:00","2020","10","06","09:00","-7.0","","-9.1","","85","","","","4","","24","","24.1","","100.37","","","","-15","","Snow"
"-94.97","74.72","RESOLUTE BAY A","2403498","2020-10-06 10:00","2020","10","06","10:00","-6.3","","-8.5","","85","","","","5","","24","","19.3","","100.35","","","","-14","","Snow"
"-94.97","74.72","RESOLUTE BAY A","2403498","2020-10-06 11:00","2020","10","06","11:00","-4.8","","-7.0","","85","","","","5","","26","","11.3","","100.36","","","","-12","","Snow"
"-94.97","74.72","RESOLUTE BAY A","2403498","2020-10-06 12:00","2020","10","06","12:00","-4.4","","-6.3","","87","","","","6","","22","","6.4","","100.37","","","","-11","","Snow"
"-94.97","74.72","RESOLUTE BAY A","2403498","2020-10-06 13:00","2020","10","06","13:00","-4.8","","-6.6","","87","","","","6","","28","","9.7","","100.38","","","","-12","","Snow"
"-94.97","74.72","RESOLUTE BAY A","2403498","2020-10-06 14:00","2020","10","06","14:00","-3.7","","-5.6","","87","","","","6","","21","","16.1","","100.41","","","","-10","","Snow"
"-94.97","74.72","RESOLUTE BAY A","2403498","2020-10-06 15:00","2020","10","06","15:00","-3.4","","-5.1","","88","","","","7","","23","","19.3","","100.44","","","","-10","","Snow"
"-94.97","74.72","RESOLUTE BAY A","2403498","2020-10-06 16:00","2020","10","06","16:00","-4.0","","-6.1","","85","","","","9","","19","","32.2","","100.47","","","","-10","","NA"
"-94.97","74.72","RESOLUTE BAY A","2403498","2020-10-06 17:00","2020","10","06","17:00","-4.0","","-5.9","","87","","","","9","","16","","32.2","","100.50","","","","-10","","NA"
"-94.97","74.72","RESOLUTE BAY A","2403498","2020-10-06 18:00","2020","10","06","18:00","-3.3","","-5.7","","83","","","","14","","8","","32.2","","100.53","","","","-7","","Mostly Cloudy"
"-94.97","74.72","RESOLUTE BAY A","2403498","2020-10-06 19:00","2020","10","06","19:00","-3.7","","-5.5","","87","","","","8","","16","","24.1","","100.54","","","","-9","","NA"
"-94.97","74.72","RESOLUTE BAY A","2403498","2020-10-06 20:00","2020","10","06","20:00","-3.6","","-5.5","","87","","","","8","","14","","24.1","","100.54","","","","-9","","NA"
"-94.97","74.72","RESOLUTE BAY A","2403498","2020-10-06 21:00","2020","10","06","21:00","-3.5","","-4.9","","90","","","","9","","8","","24.1","","100.55","","","","-7","","Snow"
"-94.97","74.72","RESOLUTE BAY A","2403498","2020-10-06 22:00","2020","10","06","22:00","-3.2","","-4.6","","90","","","","7","","9","","16.1","","100.54","","","","-7","","Snow"
"-94.97","74.72","RESOLUTE BAY A","2403498","2020-10-06 23:00","2020","10","06","23:00","-3.1","","-4.9","","88","","","","11","","5","","24.1","","100.54","","","","-5","","Snow"
"-94.97","74.72","RESOLUTE BAY A","2403498","2020-10-07 00:00","2020","10","07","00:00","-3.7","","-4.7","","93","","","","12","","4","","11.3","","100.54","","","","-5","","Snow"
"-94.97","74.72","RESOLUTE BAY A","2403498","2020-10-07 01:00","2020","10","07","01:00","-3.4","","-4.8","","90","","","","9","","10","","8.1","","100.55","","","","-7","","Snow"
"-94.97","74.72","RESOLUTE BAY A","2403498","2020-10-07 02:00","2020","10","07","02:00","-3.7","","-4.9","","92","","","","36","","3","","14.5","","100.55","","","","-5","","Snow"
"-94.97","74.72","RESOLUTE BAY A","2403498","2020-10-07 03:00","2020","10","07","03:00","-4.1","","-5.0","","93","","","","1","","5","","24.1","","100.56","","","","-6","","Snow"
"-94.97","74.72","RESOLUTE BAY A","2403498","2020-10-07 04:00","2020","10","07","04:00","-3.7","","-6.3","","82","","","","36","","1","","24.1","","100.57","","","","-4","","Snow"
"-94.97","74.72","RESOLUTE BAY A","2403498","2020-10-07 05:00","2020","10","07","05:00","-3.3","","-5.5","","84","","","","10","","4","","16.1","","100.57","","","","-5","","Snow"
"-94.97","74.72","RESOLUTE BAY A","2403498","2020-10-07 06:00","2020","10","07","06:00","-3.6","","-5.2","","88","","","","8","","12","","12.9","","100.59","","","","-8","","Snow"
"-94.97","74.72","RESOLUTE BAY A","2403498","2020-10-07 07:00","2020","10","07","07:00","-3.8","","-5.8","","86","","","","23","","3","","14.5","","100.59","","","","-5","","Snow"
"-94.97","74.72","RESOLUTE BAY A","2403498","2020-10-07 08:00","2020","10","07","08:00","-3.7","","-5.4","","88","","","","0","","1","","24.1","","100.61","","","","-4","","Snow"
"-94.97","74.72","RESOLUTE BAY A","2403498","2020-10-07 09:00","2020","10","07","09:00","-4.3","","-6.2","","87","","","","36","","1","","24.1","","100.62","","","","-5","","Snow"
"-94.97","74.72","RESOLUTE BAY A","2403498","2020-10-07 10:00","2020","10","07","10:00","-4.4","","-5.4","","93","","","","29","","5","","9.7","","100.63","","","","-7","","Snow"
"-94.97","74.72","RESOLUTE BAY A","2403498","2020-10-07 11:00","2020","10","07","11:00","-4.9","","-6.0","","93","","","","33","","6","","12.9","","100.64","","","","-8","","Snow"
"-94.97","74.72","RESOLUTE BAY A","2403498","2020-10-07 12:00","2020","10","07","12:00","-5.1","","-6.0","","94","","","","32","","8","","19.3","","100.65","","","","-9","","Snow"
"-94.97","74.72","RESOLUTE BAY A","2403498","2020-10-07 13:00","2020","10","07","13:00","-5.5","","-6.4","","94","","","","31","","9","","24.1","","100.68","","","","-10","","Snow"
"-94.97","74.72","RESOLUTE BAY A","2403498","2020-10-07 14:00","2020","10","07","14:00","-5.7","","-6.7","","93","","","","31","","14","","24.1","","100.72","","","","-11","","Snow"
"-94.97","74.72","RESOLUTE BAY A","2403498","2020-10-07 15:00","2020","10","07","15:00","-6.2","","-7.2","","92","","","","32","","14","","24.1","","100.74","","","","-12","","Snow"
"-94.97","74.72","RESOLUTE BAY A","2403498","2020-10-07 16:00","2020","10","07","16:00","-6.4","","-7.5","","92","","","","32","","13","","24.1","","100.78","","","","-12","","Snow"
"-94.97","74.72","RESOLUTE BAY A","2403498","2020-10-07 17:00","2020","10","07","17:00","-6.3","","-7.5","","92","","","","32","","16","","24.1","","100.80","","","","-12","","Snow"
"-94.97","74.72","RESOLUTE BAY A","2403498","2020-10-07 18:00","2020","10","07","18:00","-6.6","","-7.8","","92","","","","34","","13","","24.1","","100.80","","","","-12","","Snow"
"-94.97","74.72","RESOLUTE BAY A","2403498","2020-10-07 19:00","2020","10","07","19:00","-6.7","","-7.9","","91","","","","32","","13","","12.9","","100.81","","","","-12","","Snow"
"-94.97","74.72","RESOLUTE BAY A","2403498","2020-10-07 20:00","2020","10","07","20:00","-7.2","","-8.4","","91","","","","33","","9","","16.1","","100.80","","","","-12","","Snow"
"-94.97","74.72","RESOLUTE BAY A","2403498","2020-10-07 21:00","2020","10","07","21:00","-7.2","","-8.4","","91","","","","35","","13","","24.1","","100.80","","","","-13","","Snow"
"-94.97","74.72","RESOLUTE BAY A","2403498","2020-10-07 22:00","2020","10","07","22:00","-7.0","","-8.3","","91","","","","33","","15","","24.1","","100.80","","","","-13","","Snow"
"-94.97","74.72","RESOLUTE BAY A","2403498","2020-10-07 23:00","2020","10","07","23:00","-7.2","","-8.5","","90","","","","36","","16","","24.1","","100.81","","","","-14","","Snow"
"-94.97","74.72","RESOLUTE BAY A","2403498","2020-10-08 00:00","2020","10","08","00:00","-7.3","","-8.8","","89","","","","33","","16","","24.1","","100.81","","","","-14","","Snow"
"-94.97","74.72","RESOLUTE BAY A","2403498","2020-10-08 01:00","2020","10","08","01:00","-7.5","","-9.1","","88","","","","31","","17","","24.1","","100.83","","","","-14","","Snow"
"-94.97","74.72","RESOLUTE BAY A","2403498","2020-10-08 02:00","2020","10","08","02:00","-7.5","","-9.2","","88","","","","33","","18","","24.1","","100.86","","","","-14","","Snow"
"-94.97","74.72","RESOLUTE BAY A","2403498","2020-10-08 03:00","2020","10","08","03:00","-8.3","","-9.9","","89","","","","33","","18","","24.1","","100.90","","","","-15","","Snow"
"-94.97","74.72","RESOLUTE BAY A","2403498","2020-10-08 04:00","2020","10","08","04:00","-8.3","","-10.1","","87","","","","33","","15","","24.1","","100.92","","","","-15","","Snow"
"-94.97","74.72","RESOLUTE BAY A","2403498","2020-10-08 05:00","2020","10","08","05:00","-8.0","","-9.9","","86","","","","3","","26","","24.1","","100.90","","","","-16","","Snow"
"-94.97","74.72","RESOLUTE BAY A","2403498","2020-10-08 06:00","2020","10","08","06:00","-7.8","","-9.7","","87","","","","28","","15","","32.2","","100.94","","","","-14","","Snow"
"-94.97","74.72","RESOLUTE BAY A","2403498","2020-10-08 07:00","2020","10","08","07:00","-8.5","","-10.3","","87","","","","34","","17","","40.2","","100.95","","","","-15","","Snow"
"-94.97","74.72","RESOLUTE BAY A","2403498","2020-10-08 08:00","2020","10","08","08:00","-8.0","","-9.9","","87","","","","2","","22","","32.2","","100.92","","","","-16","","Snow"
"-94.97","74.72","RESOLUTE BAY A","2403498","2020-10-08 09:00","2020","10","08","09:00","-8.2","","-10.1","","87","","","","3","","22","","32.2","","100.94","","","","-16","","Snow"
"-94.97","74.72","RESOLUTE BAY A","2403498","2020-10-08 10:00","2020","10","08","10:00","-8.1","","-9.8","","88","","","","3","","21","","32.2","","100.96","","","","-16","","Snow"
"-94.97","74.72","RESOLUTE BAY A","2403498","2020-10-08 11:00","2020","10","08","11:00","-8.0","","-9.7","","87","","","","3","","15","","32.2","","100.98","","","","-14","","Snow"
"-94.97","74.72","RESOLUTE BAY A","2403498","2020-10-08 12:00","2020","10","08","12:00","-7.8","","-9.5","","87","","","","3","","13","","24.1","","101.01","","","","-14","","Snow"
"-94.97","74.72","RESOLUTE BAY A","2403498","2020-10-08 13:00","2020","10","08","13:00","-7.8","","-9.6","","88","","","","1","","17","","24.1","","101.03","","","","-14","","NA"
"-94.97","74.72","RESOLUTE BAY A","2403498","2020-10-08 14:00","2020","10","08","14:00","-7.8","","-9.4","","88","","","","3","","18","","32.2","","101.05","","","","-15","","Snow"
"-94.97","74.72","RESOLUTE BAY A","2403498","2020-10-08 15:00","2020","10","08","15:00","-7.7","","-9.3","","88","","","","2","","10","","32.2","","101.07","","","","-13","","Snow"
"-94.97","74.72","RESOLUTE BAY A","2403498","2020-10-08 16:00","2020","10","08","16:00","-8.3","","-10.3","","86","","","","4","","14","","24.1","","101.07","","","","-14","","Snow"
"-94.97","74.72","RESOLUTE BAY A","2403498","2020-10-08 17:00","2020","10","08","17:00","-8.9","","-10.9","","85","","","","3","","19","","32.2","","101.08","","","","-16","","Snow"
"-94.97","74.72","RESOLUTE BAY A","2403498","2020-10-08 18:00","2020","10","08","18:00","-8.8","","-10.2","","89","","","","2","","19","","24.1","","101.08","","","","-16","","Snow"
"-94.97","74.72","RESOLUTE BAY A","2403498","2020-10-08 19:00","2020","10","08","19:00","-8.5","","-9.7","","91","","","","3","","19","","24.1","","101.08","","","","-16","","Snow"
"-94.97","74.72","RESOLUTE BAY A","2403498","2020-10-08 20:00","2020","10","08","20:00","-8.8","","-10.2","","90","","","","4","","21","","24.1","","101.09","","","","-17","","Snow"
"-94.97","74.72","RESOLUTE BAY A","2403498","2020-10-08 21:00","2020","10","08","21:00","-8.9","","-10.2","","90","","","","4","","22","","24.1","","101.08","","","","-17","","Snow"
"-94.97","74.72","RESOLUTE BAY A","2403498","2020-10-08 22:00","2020","10","08","22:00","-8.8","","-10.1","","91","","","","5","","14","","24.1","","101.08","","","","-15","","Snow"
"-94.97","74.72","RESOLUTE BAY A","2403498","2020-10-08 23:00","2020","10","08","23:00","-9.0","","-10.2","","91","","","","4","","19","","24.1","","101.07","","","","-16","","Snow"
"-94.97","74.72","RESOLUTE BAY A","2403498","2020-10-09 00:00","2020","10","09","00:00","-9.5","","-10.7","","91","","","","4","","22","","11.3","","101.09","","","","-18","","Snow"
"-94.97","74.72","RESOLUTE BAY A","2403498","2020-10-09 01:00","2020","10","09","01:00","-9.6","","-10.9","","90","","","","3","","18","","9.7","","101.08","","","","-17","","Snow"
"-94.97","74.72","RESOLUTE BAY A","2403498","2020-10-09 02:00","2020","10","09","02:00","-9.4","","-10.8","","90","","","","4","","22","","12.9","","101.10","","","","-17","","Snow"
"-94.97","74.72","RESOLUTE BAY A","2403498","2020-10-09 03:00","2020","10","09","03:00","-9.0","","-10.4","","90","","","","4","","23","","16.1","","101.10","","","","-17","","Snow"
"-94.97","74.72","RESOLUTE BAY A","2403498","2020-10-09 04:00","2020","10","09","04:00","-9.7","","-11.2","","89","","","","5","","25","","24.1","","101.11","","","","-18","","Snow"
"-94.97","74.72","RESOLUTE BAY A","2403498","2020-10-09 05:00","2020","10","09","05:00","-9.8","","-11.3","","89","","","","4","","22","","24.1","","101.10","","","","-18","","Snow"
"-94.97","74.72","RESOLUTE BAY A","2403498","2020-10-09 06:00","2020","10","09","06:00","-8.9","","-10.3","","89","","","","5","","5","","32.2","","101.08","","","","-12","","Snow"
"-94.97","74.72","RESOLUTE BAY A","2403498","2020-10-09 07:00","2020","10","09","07:00","-9.3","","-10.8","","89","","","","3","","22","","40.2","","101.06","","","","-17","","NA"
"-94.97","74.72","RESOLUTE BAY A","2403498","2020-10-09 08:00","2020","10","09","08:00","-9.4","","-10.8","","89","","","","3","","23","","32.2","","101.04","","","","-18","","NA"
"-94.97","74.72","RESOLUTE BAY A","2403498","2020-10-09 09:00","2020","10","09","09:00","-7.7","","-9.0","","90","","","","6","","23","","32.2","","101.02","","","","-15","","Cloudy"
"-94.97","74.72","RESOLUTE BAY A","2403498","2020-10-09 10:00","2020","10","09","10:00","-7.3","","-8.5","","91","","","","6","","28","","32.2","","101.01","","","","-16","","NA"
"-94.97","74.72","RESOLUTE BAY A","2403498","2020-10-09 11:00","2020","10","09","11:00","-7.4","","-8.7","","91","","","","6","","27","","32.2","","100.99","","","","-16","","NA"
"-94.97","74.72","RESOLUTE BAY A","2403498","2020-10-09 12:00","2020","10","09","12:00","-7.5","","-8.9","","90","","","","6","","31","","32.2","","100.97","","","","-16","","Snow"
"-94.97","74.72","RESOLUTE BAY A","2403498","2020-10-09 13:00","2020","10","09","13:00","-7.5","","-9.2","","87","","","","6","","30","","32.2","","100.96","","","","-16","","Snow"
"-94.97","74.72","RESOLUTE BAY A","2403498","2020-10-09 14:00","2020","10","09","14:00","-7.6","","-9.8","","84","","","","5","","31","","40.2","","100.94","","","","-17","","Snow"
"-94.97","74.72","RESOLUTE BAY A","2403498","2020-10-09 15:00","2020","10","09","15:00","-7.9","","-10.3","","83","","","","5","","34","","40.2","","100.91","","","","-17","","Snow"
"-94.97","74.72","RESOLUTE BAY A","2403498","2020-10-09 16:00","2020","10","09","16:00","-7.9","","-10.8","","80","","","","5","","36","","40.2","","100.88","","","","-18","","NA"
"-94.97","74.72","RESOLUTE BAY A","2403498","2020-10-09 17:00","2020","10","09","17:00","-8.2","","-10.7","","82","","","","5","","40","","40.2","","100.85","","","","-18","","NA"
"-94.97","74.72","RESOLUTE BAY A","2403498","2020-10-09 18:00","2020","10","09","18:00","-7.8","","-10.5","","81","","","","5","","39","","40.2","","100.81","","","","-18","","Mostly Cloudy"
"-94.97","74.72","RESOLUTE BAY A","2403498","2020-10-09 19:00","2020","10","09","19:00","-8.1","","-10.5","","83","","","","3","","30","","40.2","","100.76","","","","-17","","Blowing Snow"
"-94.97","74.72","RESOLUTE BAY A","2403498","2020-10-09 20:00","2020","10","09","20:00","-8.1","","-10.5","","83","","","","4","","30","","24.1","","100.73","","","","-17","","Blowing Snow"
"-94.97","74.72","RESOLUTE BAY A","2403498","2020-10-09 21:00","2020","10","09","21:00","-7.7","","-10.0","","84","","","","4","","31","","24.1","","100.68","","","","-17","","Blowing Snow"
"-94.97","74.72","RESOLUTE BAY A","2403498","2020-10-09 22:00","2020","10","09","22:00","-8.0","","-10.4","","83","","","","4","","30","","24.1","","100.64","","","","-17","","Blowing Snow"
"-94.97","74.72","RESOLUTE BAY A","2403498","2020-10-09 23:00","2020","10","09","23:00","-7.9","","-9.9","","85","","","","4","","31","","24.1","","100.61","","","","-17","","Blowing Snow"
"-94.97","74.72","RESOLUTE BAY A","2403498","2020-10-10 00:00","2020","10","10","00:00","-7.5","","-9.6","","85","","","","5","","35","","16.1","","100.61","","","","-17","","Blowing Snow"
"-94.97","74.72","RESOLUTE BAY A","2403498","2020-10-10 01:00","2020","10","10","01:00","-7.1","","-9.8","","81","","","","5","","30","","24.1","","100.60","","","","-16","","Blowing Snow"
"-94.97","74.72","RESOLUTE BAY A","2403498","2020-10-10 02:00","2020","10","10","02:00","-7.6","","-10.1","","83","","","","5","","28","","24.1","","100.59","","","","-16","","Blowing Snow"
"-94.97","74.72","RESOLUTE BAY A","2403498","2020-10-10 03:00","2020","10","10","03:00","-6.7","","-9.3","","81","","","","5","","32","","24.1","","100.56","","","","-15","","Blowing Snow"
"-94.97","74.72","RESOLUTE BAY A","2403498","2020-10-10 04:00","2020","10","10","04:00","-8.1","","-10.1","","86","","","","4","","29","","24.1","","100.52","","","","-17","","Blowing Snow"
"-94.97","74.72","RESOLUTE BAY A","2403498","2020-10-10 05:00","2020","10","10","05:00","-9.8","","-11.5","","87","","","","5","","27","","24.1","","100.49","","","","-19","","Blowing Snow"
"-94.97","74.72","RESOLUTE BAY A","2403498","2020-10-10 06:00","2020","10","10","06:00","-7.0","","-9.1","","85","","","","5","","18","","24.1","","100.48","","","","-14","","Cloudy"
"-94.97","74.72","RESOLUTE BAY A","2403498","2020-10-10 07:00","2020","10","10","07:00","-6.2","","-8.3","","85","","","","5","","20","","24.1","","100.46","","","","-13","","Snow"
"-94.97","74.72","RESOLUTE BAY A","2403498","2020-10-10 08:00","2020","10","10","08:00","-6.3","","-8.7","","83","","","","3","","24","","32.2","","100.43","","","","-14","","NA"
"-94.97","74.72","RESOLUTE BAY A","2403498","2020-10-10 09:00","2020","10","10","09:00","-6.8","","-8.7","","86","","","","5","","31","","16.1","","100.40","","","","-15","","Snow Showers"
"-94.97","74.72","RESOLUTE BAY A","2403498","2020-10-10 10:00","2020","10","10","10:00","-6.9","","-9.0","","85","","","","4","","33","","24.1","","100.37","","","","-16","","Snow Showers"
"-94.97","74.72","RESOLUTE BAY A","2403498","2020-10-10 11:00","2020","10","10","11:00","-6.6","","-8.7","","86","","","","3","","30","","19.3","","100.32","","","","-15","","Snow Showers"
"-94.97","74.72","RESOLUTE BAY A","2403498","2020-10-10 12:00","2020","10","10","12:00","-6.8","","-8.8","","86","","","","4","","34","","24.1","","100.32","","","","-16","","Snow Showers"
"-94.97","74.72","RESOLUTE BAY A","2403498","2020-10-10 13:00","2020","10","10","13:00","-6.8","","-8.6","","87","","","","4","","33","","32.2","","100.31","","","","-16","","NA"
"-94.97","74.72","RESOLUTE BAY A","2403498","2020-10-10 14:00","2020","10","10","14:00","-6.7","","-8.5","","87","","","","5","","30","","32.2","","100.31","","","","-15","","NA"
"-94.97","74.72","RESOLUTE BAY A","2403498","2020-10-10 15:00","2020","10","10","15:00","-6.2","","-8.6","","83","","","","5","","25","","32.2","","100.29","","","","-14","","Mostly Cloudy"
"-94.97","74.72","RESOLUTE BAY A","2403498","2020-10-10 16:00","2020","10","10","16:00","-6.5","","-9.1","","82","","","","3","","26","","24.1","","100.26","","","","-14","","NA"
"-94.97","74.72","RESOLUTE BAY A","2403498","2020-10-10 17:00","2020","10","10","17:00","-6.3","","-8.7","","84","","","","3","","31","","32.2","","100.23","","","","-15","","NA"
"-94.97","74.72","RESOLUTE BAY A","2403498","2020-10-10 18:00","2020","10","10","18:00","-6.5","","-8.5","","86","","","","4","","31","","32.2","","100.21","","","","-15","","Cloudy"
"-94.97","74.72","RESOLUTE BAY A","2403498","2020-10-10 19:00","2020","10","10","19:00","-6.5","","-8.1","","89","","","","3","","21","","32.2","","100.18","","","","-14","","NA"
"-94.97","74.72","RESOLUTE BAY A","2403498","2020-10-10 20:00","2020","10","10","20:00","-6.4","","-7.5","","92","","","","1","","16","","24.1","","100.14","","","","-13","","NA"
"-94.97","74.72","RESOLUTE BAY A","2403498","2020-10-10 21:00","2020","10","10","21:00","-6.3","","-7.5","","91","","","","36","","20","","24.1","","100.13","","","","-13","","Snow"
"-94.97","74.72","RESOLUTE BAY A","2403498","2020-10-10 22:00","2020","10","10","22:00","-7.0","","-9.0","","86","","","","2","","28","","24.1","","100.08","","","","-15","","Snow"
"-94.97","74.72","RESOLUTE BAY A","2403498","2020-10-10 23:00","2020","10","10","23:00","-7.3","","-9.3","","86","","","","2","","33","","24.1","","100.05","","","","-16","","Snow"
"-94.97","74.72","RESOLUTE BAY A","2403498","2020-10-11 00:00","2020","10","11","00:00","-8.0","","-10.2","","84","","","","36","","36","","24.1","","100.04","","","","-18","","Mostly Cloudy"
"-94.97","74.72","RESOLUTE BAY A","2403498","2020-10-11 01:00","2020","10","11","01:00","-7.6","","-9.6","","86","","","","34","","26","","24.1","","100.04","","","","-16","","Snow"
"-94.97","74.72","RESOLUTE BAY A","2403498","2020-10-11 02:00","2020","10","11","02:00","-8.2","","-10.0","","87","","","","32","","25","","24.1","","100.00","","","","-16","","Snow"
"-94.97","74.72","RESOLUTE BAY A","2403498","2020-10-11 03:00","2020","10","11","03:00","-8.8","","-10.8","","86","","","","34","","29","","24.1","","99.98","","","","-18","","Snow"
"-94.97","74.72","RESOLUTE BAY A","2403498","2020-10-11 04:00","2020","10","11","04:00","-8.3","","-9.9","","88","","","","33","","31","","19.3","","99.98","","","","-17","","Snow"
"-94.97","74.72","RESOLUTE BAY A","2403498","2020-10-11 05:00","2020","10","11","05:00","-9.2","","-10.9","","88","","","","35","","31","","19.3","","99.95","","","","-19","","Snow"
"-94.97","74.72","RESOLUTE BAY A","2403498","2020-10-11 06:00","2020","10","11","06:00","-9.3","","-10.9","","88","","","","33","","27","","19.3","","99.92","","","","-18","","Snow"
"-94.97","74.72","RESOLUTE BAY A","2403498","2020-10-11 07:00","2020","10","11","07:00","-9.9","","-11.4","","89","","","","32","","30","","3.2","","99.92","","","","-19","","Snow"
"-94.97","74.72","RESOLUTE BAY A","2403498","2020-10-11 08:00","2020","10","11","08:00","-9.8","","-11.3","","89","","","","33","","28","","4.0","","99.93","","","","-19","","Fog"
"-94.97","74.72","RESOLUTE BAY A","2403498","2020-10-11 09:00","2020","10","11","09:00","-10.5","","-12.0","","89","","","","33","","23","","2.0","","99.94","","","","-19","","Snow Showers,Fog"
"-94.97","74.72","RESOLUTE BAY A","2403498","2020-10-11 10:00","2020","10","11","10:00","-10.5","","-11.9","","89","","","","34","","26","","2.0","","99.94","","","","-20","","Snow Showers,Fog"
"-94.97","74.72","RESOLUTE BAY A","2403498","2020-10-11 11:00","2020","10","11","11:00","-10.4","","-11.9","","89","","","","34","","24","","8.1","","99.93","","","","-19","","Snow,Fog"
"-94.97","74.72","RESOLUTE BAY A","2403498","2020-10-11 12:00","2020","10","11","12:00","-10.3","","-11.8","","89","","","","34","","22","","8.1","","99.95","","","","-19","","Snow,Fog"
"-94.97","74.72","RESOLUTE BAY A","2403498","2020-10-11 13:00","2020","10","11","13:00","-10.3","","-11.9","","88","","","","33","","23","","11.3","","99.98","","","","-19","","Snow"
"-94.97","74.72","RESOLUTE BAY A","2403498","2020-10-11 14:00","2020","10","11","14:00","-10.3","","-11.9","","88","","","","32","","20","","19.3","","100.02","","","","-18","","Snow"
"-94.97","74.72","RESOLUTE BAY A","2403498","2020-10-11 15:00","2020","10","11","15:00","-10.3","","-12.0","","87","","","","32","","19","","19.3","","100.07","","","","-18","","Cloudy"
"-94.97","74.72","RESOLUTE BAY A","2403498","2020-10-11 16:00","2020","10","11","16:00","-9.8","","-11.8","","85","","","","29","","26","","24.1","","100.08","","","","-19","","NA"
"-94.97","74.72","RESOLUTE BAY A","2403498","2020-10-11 17:00","2020","10","11","17:00","-10.4","","-12.9","","82","","","","32","","19","","24.1","","100.08","","","","-18","","NA"
"-94.97","74.72","RESOLUTE BAY A","2403498","2020-10-11 18:00","2020","10","11","18:00","-10.5","","-12.6","","85","","","","30","","26","","24.1","","100.10","","","","-20","","Cloudy"
"-94.97","74.72","RESOLUTE BAY A","2403498","2020-10-11 19:00","2020","10","11","19:00","-10.5","","-12.8","","83","","","","29","","27","","24.1","","100.14","","","","-20","","NA"
"-94.97","74.72","RESOLUTE BAY A","2403498","2020-10-11 20:00","2020","10","11","20:00","-10.8","","-13.0","","84","","","","29","","28","","16.1","","100.18","","","","-20","","Snow"
"-94.97","74.72","RESOLUTE BAY A","2403498","2020-10-11 21:00","2020","10","11","21:00","-10.8","","-13.1","","84","","","","29","","27","","16.1","","100.23","","","","-20","","Snow"
"-94.97","74.72","RESOLUTE BAY A","2403498","2020-10-11 22:00","2020","10","11","22:00","-11.2","","-13.3","","85","","","","29","","29","","19.3","","100.26","","","","-21","","Snow"
"-94.97","74.72","RESOLUTE BAY A","2403498","2020-10-11 23:00","2020","10","11","23:00","-11.2","","-13.2","","85","","","","28","","32","","16.1","","100.30","","","","-21","","Snow"
"-94.97","74.72","RESOLUTE BAY A","2403498","2020-10-12 00:00","2020","10","12","00:00","-11.2","","-13.3","","85","","","","27","","27","","16.1","","100.35","","","","-21","","Snow"
"-94.97","74.72","RESOLUTE BAY A","2403498","2020-10-12 01:00","2020","10","12","01:00","-11.2","","-13.2","","85","","","","29","","25","","11.3","","100.40","","","","-20","","Snow"
"-94.97","74.72","RESOLUTE BAY A","2403498","2020-10-12 02:00","2020","10","12","02:00","-11.2","","-13.6","","83","","","","28","","26","","12.9","","100.46","","","","-20","","Snow"
"-94.97","74.72","RESOLUTE BAY A","2403498","2020-10-12 03:00","2020","10","12","03:00","-11.3","","-13.6","","84","","","","30","","23","","16.1","","100.49","","","","-20","","Snow"
"-94.97","74.72","RESOLUTE BAY A","2403498","2020-10-12 04:00","2020","10","12","04:00","-11.2","","-13.1","","86","","","","28","","21","","19.3","","100.53","","","","-20","","Snow"
"-94.97","74.72","RESOLUTE BAY A","2403498","2020-10-12 05:00","2020","10","12","05:00","-11.4","","-13.2","","86","","","","27","","23","","19.3","","100.56","","","","-20","","Snow"
"-94.97","74.72","RESOLUTE BAY A","2403498","2020-10-12 06:00","2020","10","12","06:00","-11.7","","-13.9","","84","","","","27","","22","","19.3","","100.59","","","","-20","","Snow"
"-94.97","74.72","RESOLUTE BAY A","2403498","2020-10-12 07:00","2020","10","12","07:00","-11.5","","-13.8","","83","","","","27","","18","","24.1","","100.61","","","","-19","","Snow"
"-94.97","74.72","RESOLUTE BAY A","2403498","2020-10-12 08:00","2020","10","12","08:00","-12.2","","-14.6","","83","","","","27","","14","","24.1","","100.65","","","","-19","","Snow"
"-94.97","74.72","RESOLUTE BAY A","2403498","2020-10-12 09:00","2020","10","12","09:00","-12.2","","-14.2","","85","","","","35","","5","","24.1","","100.70","","","","-15","","Snow"
"-94.97","74.72","RESOLUTE BAY A","2403498","2020-10-12 10:00","2020","10","12","10:00","-12.0","","-14.2","","84","","","","26","","14","","24.1","","100.73","","","","-19","","Snow"
"-94.97","74.72","RESOLUTE BAY A","2403498","2020-10-12 11:00","2020","10","12","11:00","-11.4","","-13.8","","83","","","","26","","12","","32.2","","100.77","","","","-18","","Snow"
"-94.97","74.72","RESOLUTE BAY A","2403498","2020-10-12 12:00","2020","10","12","12:00","-11.6","","-13.8","","84","","","","35","","8","","32.2","","100.78","","","","-16","","Snow"
"-94.97","74.72","RESOLUTE BAY A","2403498","2020-10-12 13:00","2020","10","12","13:00","-11.5","","-13.8","","84","","","","36","","2","","32.2","","100.83","","","","-13","","Snow"
"-94.97","74.72","RESOLUTE BAY A","2403498","2020-10-12 14:00","2020","10","12","14:00","-11.7","","-13.7","","85","","","","36","","2","","32.2","","100.86","","","","-13","","Snow"
"-94.97","74.72","RESOLUTE BAY A","2403498","2020-10-12 15:00","2020","10","12","15:00","-11.4","","-13.6","","84","","","","17","","4","","32.2","","100.87","","","","-14","","Snow"
"-94.97","74.72","RESOLUTE BAY A","2403498","2020-10-12 16:00","2020","10","12","16:00","-11.4","","-13.3","","86","","","","29","","3","","32.2","","100.89","","","","-13","","Snow"
"-94.97","74.72","RESOLUTE BAY A","2403498","2020-10-12 17:00","2020","10","12","17:00","-12.2","","-14.1","","86","","","","36","","8","","32.2","","100.89","","","","-17","","Snow"
"-94.97","74.72","RESOLUTE BAY A","2403498","2020-10-12 18:00","2020","10","12","18:00","-11.8","","-13.4","","88","","","","6","","4","","32.2","","100.90","","","","-14","","Snow"
"-94.97","74.72","RESOLUTE BAY A","2403498","2020-10-12 19:00","2020","10","12","19:00","-12.1","","-13.6","","89","","","","7","","10","","24.1","","100.89","","","","-18","","Snow"
"-94.97","74.72","RESOLUTE BAY A","2403498","2020-10-12 20:00","2020","10","12","20:00","-12.1","","-13.7","","88","","","","10","","12","","19.3","","100.89","","","","-18","","NA"
"-94.97","74.72","RESOLUTE BAY A","2403498","2020-10-12 21:00","2020","10","12","21:00","-11.5","","-13.0","","89","","","","11","","21","","8.1","","100.90","","","","-20","","Snow"
"-94.97","74.72","RESOLUTE BAY A","2403498","2020-10-12 22:00","2020","10","12","22:00","-11.9","","-13.5","","88","","","","10","","18","","0.6","","100.92","","","","-20","","Snow,Freezing Fog"
"-94.97","74.72","RESOLUTE BAY A","2403498","2020-10-12 23:00","2020","10","12","23:00","-11.8","","-13.5","","87","","","","10","","27","","1.2","","100.91","","","","-21","","Snow,Fog"
"-94.97","74.72","RESOLUTE BAY A","2403498","2020-10-13 00:00","2020","10","13","00:00","-11.8","","-13.5","","87","","","","10","","18","","8.1","","100.91","","","","-20","","Snow,Fog"
"-94.97","74.72","RESOLUTE BAY A","2403498","2020-10-13 01:00","2020","10","13","01:00","-12.9","","-14.8","","86","","","","9","","22","","9.7","","100.85","","","","-22","","Snow,Fog"
"-94.97","74.72","RESOLUTE BAY A","2403498","2020-10-13 02:00","2020","10","13","02:00","-12.2","","-14.2","","85","","","","10","","18","","24.1","","100.83","","","","-20","","NA"
"-94.97","74.72","RESOLUTE BAY A","2403498","2020-10-13 03:00","2020","10","13","03:00","-11.7","","-14.0","","83","","","","12","","11","","24.1","","100.81","","","","-18","","Cloudy"
"-94.97","74.72","RESOLUTE BAY A","2403498","2020-10-13 04:00","2020","10","13","04:00","-11.6","","-15.0","","76","","","","11","","14","","24.1","","100.80","","","","-18","","NA"
"-94.97","74.72","RESOLUTE BAY A","2403498","2020-10-13 05:00","2020","10","13","05:00","-11.5","","-15.8","","71","","","","10","","11","","24.1","","100.76","","","","-17","","NA"
"-94.97","74.72","RESOLUTE BAY A","2403498","2020-10-13 06:00","2020","10","13","06:00","-10.1","","-15.3","","66","","","","12","","18","","24.1","","100.74","","","","-18","","Mostly Cloudy"
"-94.97","74.72","RESOLUTE BAY A","2403498","2020-10-13 07:00","2020","10","13","07:00","-10.1","","-15.3","","66","","","","13","","8","","24.1","","100.65","","","","-15","","NA"
"-94.97","74.72","RESOLUTE BAY A","2403498","2020-10-13 08:00","2020","10","13","08:00","-8.4","","-15.5","","57","","","","12","","20","","24.1","","100.59","","","","-16","","NA"
"-94.97","74.72","RESOLUTE BAY A","2403498","2020-10-13 09:00","2020","10","13","09:00","-7.4","","-15.2","","54","","","","6","","34","","24.1","","100.50","","","","-17","","Cloudy"
"-94.97","74.72","RESOLUTE BAY A","2403498","2020-10-13 10:00","2020","10","13","10:00","-6.7","","-14.8","","53","","","","6","","29","","32.2","","100.46","","","","-15","","NA"
"-94.97","74.72","RESOLUTE BAY A","2403498","2020-10-13 11:00","2020","10","13","11:00","-6.3","","-14.6","","52","","","","6","","7","","32.2","","100.44","","","","-10","","NA"
"-94.97","74.72","RESOLUTE BAY A","2403498","2020-10-13 12:00","2020","10","13","12:00","-6.5","","-14.8","","52","","","","9","","15","","32.2","","100.40","","","","-12","","Cloudy"
"-94.97","74.72","RESOLUTE BAY A","2403498","2020-10-13 13:00","2020","10","13","13:00","-6.3","","-14.6","","52","","","","10","","12","","32.2","","100.37","","","","-11","","NA"
"-94.97","74.72","RESOLUTE BAY A","2403498","2020-10-13 14:00","2020","10","13","14:00","-6.7","","-12.6","","63","","","","7","","37","","32.2","","100.30","","","","-16","","NA"
"-94.97","74.72","RESOLUTE BAY A","2403498","2020-10-13 15:00","2020","10","13","15:00","-6.6","","-10.3","","75","","","","6","","36","","24.1","","100.25","","","","-16","","Cloudy"
"-94.97","74.72","RESOLUTE BAY A","2403498","2020-10-13 16:00","2020","10","13","16:00","-6.2","","-7.9","","88","","","","10","","39","","11.3","","100.19","","","","-16","","Blowing Snow"
"-94.97","74.72","RESOLUTE BAY A","2403498","2020-10-13 17:00","2020","10","13","17:00","-5.9","","-7.3","","90","","","","11","","33","","4.0","","100.14","","","","-15","","Blowing Snow"
"-94.97","74.72","RESOLUTE BAY A","2403498","2020-10-13 18:00","2020","10","13","18:00","-5.9","","-7.3","","90","","","","11","","39","","3.6","","100.13","","","","-15","","Blowing Snow"
"-94.97","74.72","RESOLUTE BAY A","2403498","2020-10-13 19:00","2020","10","13","19:00","-5.8","","-7.3","","89","","","","10","","36","","4.0","","100.08","","","","-15","","Blowing Snow"
"-94.97","74.72","RESOLUTE BAY A","2403498","2020-10-13 20:00","2020","10","13","20:00","-5.3","","-6.7","","90","","","","11","","42","","12.9","","100.09","","","","-15","","Blowing Snow"
"-94.97","74.72","RESOLUTE BAY A","2403498","2020-10-13 21:00","2020","10","13","21:00","-5.0","","-6.4","","90","","","","10","","46","","8.1","","100.01","","","","-15","","Blowing Snow"
"-94.97","74.72","RESOLUTE BAY A","2403498","2020-10-13 22:00","2020","10","13","22:00","-4.8","","-6.2","","90","","","","10","","55","","4.8","","99.97","","","","-15","","Blowing Snow"
"-94.97","74.72","RESOLUTE BAY A","2403498","2020-10-13 23:00","2020","10","13","23:00","-4.4","","-5.9","","89","","","","10","","52","","4.8","","99.95","","","","-14","","Blowing Snow"
"-94.97","74.72","RESOLUTE BAY A","2403498","2020-10-14 00:00","2020","10","14","00:00","-4.2","","-5.6","","90","","","","11","","36","","4.8","","99.94","","","","-13","","Blowing Snow"
"-94.97","74.72","RESOLUTE BAY A","2403498","2020-10-14 01:00","2020","10","14","01:00","-4.1","","-5.4","","91","","","","11","","56","","4.8","","99.86","","","","-14","","Blowing Snow"
"-94.97","74.72","RESOLUTE BAY A","2403498","2020-10-14 02:00","2020","10","14","02:00","-3.9","","-5.2","","91","","","","11","","49","","6.4","","99.87","","","","-13","","Blowing Snow"
"-94.97","74.72","RESOLUTE BAY A","2403498","2020-10-14 03:00","2020","10","14","03:00","-3.8","","-4.9","","92","","","","10","","39","","4.8","","99.91","","","","-12","","Blowing Snow"
"-94.97","74.72","RESOLUTE BAY A","2403498","2020-10-14 04:00","2020","10","14","04:00","-3.6","","-4.7","","92","","","","11","","58","","3.2","","99.89","","","","-14","","Blowing Snow"
"-94.97","74.72","RESOLUTE BAY A","2403498","2020-10-14 05:00","2020","10","14","05:00","-3.9","","-5.0","","92","","","","9","","52","","3.2","","99.94","","","","-14","","Blowing Snow"
"-94.97","74.72","RESOLUTE BAY A","2403498","2020-10-14 06:00","2020","10","14","06:00","-4.0","","-4.4","","97","","","","10","","54","","3.2","","99.93","","","","-14","","Blowing Snow"
"-94.97","74.72","RESOLUTE BAY A","2403498","2020-10-14 07:00","2020","10","14","07:00","-4.2","","-5.3","","92","","","","10","","52","","3.2","","100.01","","","","-14","","Blowing Snow"
"-94.97","74.72","RESOLUTE BAY A","2403498","2020-10-14 08:00","2020","10","14","08:00","-4.2","","-5.3","","92","","","","10","","54","","3.2","","100.06","","","","-14","","Blowing Snow"
"-94.97","74.72","RESOLUTE BAY A","2403498","2020-10-14 09:00","2020","10","14","09:00","-4.2","","-5.3","","92","","","","10","","48","","3.2","","100.11","","","","-14","","Blowing Snow"
"-94.97","74.72","RESOLUTE BAY A","2403498","2020-10-14 10:00","2020","10","14","10:00","-4.2","","-5.6","","90","","","","11","","17","","11.3","","100.23","","","","-10","","Blowing Snow"
"-94.97","74.72","RESOLUTE BAY A","2403498","2020-10-14 11:00","2020","10","14","11:00","-4.7","","-6.7","","86","","","","10","","23","","14.5","","100.26","","","","-12","","Blowing Snow"
"-94.97","74.72","RESOLUTE BAY A","2403498","2020-10-14 12:00","2020","10","14","12:00","-4.3","","-6.3","","86","","","","10","","32","","16.1","","100.29","","","","-12","","Blowing Snow"
"-94.97","74.72","RESOLUTE BAY A","2403498","2020-10-14 13:00","2020","10","14","13:00","-4.2","","-5.9","","88","","","","10","","36","","16.1","","100.29","","","","-13","","Blowing Snow"
"-94.97","74.72","RESOLUTE BAY A","2403498","2020-10-14 14:00","2020","10","14","14:00","-4.3","","-5.7","","90","","","","10","","41","","8.1","","100.25","","","","-13","","Blowing Snow"
"-94.97","74.72","RESOLUTE BAY A","2403498","2020-10-14 15:00","2020","10","14","15:00","-4.2","","-5.6","","90","","","","9","","47","","4.8","","100.27","","","","-14","","Blowing Snow"
"-94.97","74.72","RESOLUTE BAY A","2403498","2020-10-14 16:00","2020","10","14","16:00","-4.0","","-5.6","","89","","","","9","","41","","4.8","","100.33","","","","-13","","Blowing Snow"
"-94.97","74.72","RESOLUTE BAY A","2403498","2020-10-14 17:00","2020","10","14","17:00","-3.6","","-4.7","","92","","","","11","","46","","3.2","","100.40","","","","-13","","Blowing Snow"
"-94.97","74.72","RESOLUTE BAY A","2403498","2020-10-14 18:00","2020","10","14","18:00","-3.8","","-5.2","","90","","","","10","","52","","3.2","","100.37","","","","-13","","Blowing Snow"
"-94.97","74.72","RESOLUTE BAY A","2403498","2020-10-14 19:00","2020","10","14","19:00","-3.4","","-4.5","","92","","","","11","","58","","1.0","","100.39","","","","-13","","Blowing Snow"
"-94.97","74.72","RESOLUTE BAY A","2403498","2020-10-14 20:00","2020","10","14","20:00","-3.2","","-4.3","","92","","","","11","","47","","4.8","","100.59","","","","-12","","Blowing Snow"
"-94.97","74.72","RESOLUTE BAY A","2403498","2020-10-14 21:00","2020","10","14","21:00","-3.1","","-4.4","","91","","","","11","","52","","8.1","","100.57","","","","-13","","Blowing Snow"
"-94.97","74.72","RESOLUTE BAY A","2403498","2020-10-14 22:00","2020","10","14","22:00","-3.2","","-4.5","","91","","","","11","","31","","14.5","","100.64","","","","-11","","Blowing Snow"
"-94.97","74.72","RESOLUTE BAY A","2403498","2020-10-14 23:00","2020","10","14","23:00","-3.5","","-4.9","","90","","","","8","","44","","12.9","","100.62","","","","-12","","Blowing Snow"
"-94.97","74.72","RESOLUTE BAY A","2403498","2020-10-15 00:00","2020","10","15","00:00","-3.6","","-4.9","","91","","","","10","","38","","8.1","","100.66","","","","-12","","Blowing Snow"
"-94.97","74.72","RESOLUTE BAY A","2403498","2020-10-15 01:00","2020","10","15","01:00","-3.6","","-5.2","","89","","","","8","","27","","16.1","","100.74","","","","-11","","Blowing Snow"
"-94.97","74.72","RESOLUTE BAY A","2403498","2020-10-15 02:00","2020","10","15","02:00","-5.1","","-6.6","","89","","","","3","","20","","16.1","","100.79","","","","-12","","NA"
"-94.97","74.72","RESOLUTE BAY A","2403498","2020-10-15 03:00","2020","10","15","03:00","-7.0","","-9.7","","81","","","","5","","21","","24.1","","100.79","","","","-14","","Cloudy"
"-94.97","74.72","RESOLUTE BAY A","2403498","2020-10-15 04:00","2020","10","15","04:00","-6.2","","-9.6","","77","","","","15","","10","","24.1","","100.79","","","","-11","","NA"
"-94.97","74.72","RESOLUTE BAY A","2403498","2020-10-15 05:00","2020","10","15","05:00","-6.7","","-9.8","","79","","","","6","","37","","24.1","","100.76","","","","-16","","NA"
"-94.97","74.72","RESOLUTE BAY A","2403498","2020-10-15 06:00","2020","10","15","06:00","-7.9","","-10.9","","79","","","","8","","27","","32.2","","100.81","","","","-16","","Mostly Cloudy"
"-94.97","74.72","RESOLUTE BAY A","2403498","2020-10-15 07:00","2020","10","15","07:00","-8.1","","-11.3","","78","","","","4","","28","","40.2","","100.85","","","","-17","","NA"
"-94.97","74.72","RESOLUTE BAY A","2403498","2020-10-15 08:00","2020","10","15","08:00","-7.3","","-9.1","","87","","","","5","","22","","32.2","","100.83","","","","-15","","NA"
"-94.97","74.72","RESOLUTE BAY A","2403498","2020-10-15 09:00","2020","10","15","09:00","-4.0","","-6.0","","86","","","","9","","37","","32.2","","100.81","","","","-12","","Blowing Snow"
"-94.97","74.72","RESOLUTE BAY A","2403498","2020-10-15 10:00","2020","10","15","10:00","-3.2","","-5.1","","87","","","","9","","44","","32.2","","100.80","","","","-12","","Blowing Snow"
"-94.97","74.72","RESOLUTE BAY A","2403498","2020-10-15 11:00","2020","10","15","11:00","-3.2","","-4.9","","88","","","","8","","47","","24.1","","100.84","","","","-12","","Blowing Snow"
"-94.97","74.72","RESOLUTE BAY A","2403498","2020-10-15 12:00","2020","10","15","12:00","-3.1","","-4.8","","88","","","","11","","25","","19.3","","100.94","","","","-10","","Blowing Snow"
"-94.97","74.72","RESOLUTE BAY A","2403498","2020-10-15 13:00","2020","10","15","13:00","-2.6","","-4.3","","88","","","","11","","41","","24.1","","100.91","","","","-11","","Blowing Snow"
"-94.97","74.72","RESOLUTE BAY A","2403498","2020-10-15 14:00","2020","10","15","14:00","-2.7","","-4.6","","87","","","","10","","50","","19.3","","100.91","","","","-12","","Blowing Snow"
"-94.97","74.72","RESOLUTE BAY A","2403498","2020-10-15 15:00","2020","10","15","15:00","-2.5","","-4.2","","88","","","","12","","39","","14.5","","100.94","","","","-11","","Blowing Snow"
"-94.97","74.72","RESOLUTE BAY A","2403498","2020-10-15 16:00","2020","10","15","16:00","-2.9","","-4.3","","90","","","","8","","55","","4.8","","100.90","","","","-12","","Blowing Snow"
"-94.97","74.72","RESOLUTE BAY A","2403498","2020-10-15 17:00","2020","10","15","17:00","-3.0","","-4.6","","89","","","","10","","43","","3.2","","100.94","","","","-12","","Snow,Blowing Snow"
"-94.97","74.72","RESOLUTE BAY A","2403498","2020-10-15 18:00","2020","10","15","18:00","-2.7","","-4.4","","88","","","","10","","31","","3.2","","100.97","","","","-10","","Snow,Blowing Snow"
"-94.97","74.72","RESOLUTE BAY A","2403498","2020-10-15 19:00","2020","10","15","19:00","-2.4","","-4.3","","87","","","","9","","31","","4.0","","100.97","","","","-10","","Snow,Blowing Snow"
"-94.97","74.72","RESOLUTE BAY A","2403498","2020-10-15 20:00","2020","10","15","20:00","-1.9","","-3.0","","92","","","","9","","31","","11.3","","101.00","","","","-9","","Snow,Blowing Snow"
"-94.97","74.72","RESOLUTE BAY A","2403498","2020-10-15 21:00","2020","10","15","21:00","-3.0","","-4.6","","89","","","","6","","22","","14.5","","100.99","","","","-9","","Snow"
"-94.97","74.72","RESOLUTE BAY A","2403498","2020-10-15 22:00","2020","10","15","22:00","-1.9","","-3.0","","92","","","","9","","32","","6.4","","100.96","","","","-9","","Snow,Blowing Snow"
"-94.97","74.72","RESOLUTE BAY A","2403498","2020-10-15 23:00","2020","10","15","23:00","-1.4","","-3.1","","88","","","","9","","38","","16.1","","100.94","","","","-9","","Snow,Blowing Snow"
"-94.97","74.72","RESOLUTE BAY A","2403498","2020-10-16 00:00","2020","10","16","00:00","-1.9","","-3.6","","88","","","","8","","36","","16.1","","100.94","","","","-10","","Snow,Blowing Snow"
"-94.97","74.72","RESOLUTE BAY A","2403498","2020-10-16 01:00","2020","10","16","01:00","-3.0","","-5.4","","84","","","","5","","32","","16.1","","100.89","","","","-11","","Snow,Blowing Snow"
"-94.97","74.72","RESOLUTE BAY A","2403498","2020-10-16 02:00","2020","10","16","02:00","-2.1","","-3.6","","89","","","","7","","46","","8.1","","100.81","","","","-11","","Snow,Blowing Snow"
"-94.97","74.72","RESOLUTE BAY A","2403498","2020-10-16 03:00","2020","10","16","03:00","-1.7","","-2.9","","91","","","","8","","39","","4.8","","100.83","","","","-10","","Snow,Blowing Snow"
"-94.97","74.72","RESOLUTE BAY A","2403498","2020-10-16 04:00","2020","10","16","04:00","-1.4","","-2.6","","91","","","","8","","40","","4.8","","100.83","","","","-9","","Snow,Blowing Snow"
"-94.97","74.72","RESOLUTE BAY A","2403498","2020-10-16 05:00","2020","10","16","05:00","-1.4","","-2.5","","93","","","","9","","35","","4.8","","100.83","","","","-9","","Snow,Blowing Snow"
"-94.97","74.72","RESOLUTE BAY A","2403498","2020-10-16 06:00","2020","10","16","06:00","-2.1","","-3.4","","90","","","","8","","45","","6.4","","100.80","","","","-11","","Snow,Blowing Snow"
"-94.97","74.72","RESOLUTE BAY A","2403498","2020-10-16 07:00","2020","10","16","07:00","-1.6","","-2.7","","92","","","","9","","37","","4.8","","100.79","","","","-9","","Snow,Blowing Snow"
"-94.97","74.72","RESOLUTE BAY A","2403498","2020-10-16 08:00","2020","10","16","08:00","-1.1","","-2.2","","92","","","","10","","45","","1.6","","100.82","","","","-9","","Snow,Blowing Snow"
"-94.97","74.72","RESOLUTE BAY A","2403498","2020-10-16 09:00","2020","10","16","09:00","-1.0","","-1.9","","94","","","","10","","46","","1.6","","100.78","","","","-9","","Snow,Blowing Snow"
"-94.97","74.72","RESOLUTE BAY A","2403498","2020-10-16 10:00","2020","10","16","10:00","-1.1","","-2.0","","93","","","","9","","48","","1.0","","100.76","","","","-9","","Snow,Blowing Snow"
"-94.97","74.72","RESOLUTE BAY A","2403498","2020-10-16 11:00","2020","10","16","11:00","-1.1","","-1.9","","94","","","","10","","44","","1.0","","100.77","","","","-9","","Snow,Blowing Snow"
"-94.97","74.72","RESOLUTE BAY A","2403498","2020-10-16 12:00","2020","10","16","12:00","-1.1","","-1.9","","94","","","","10","","44","","1.0","","100.79","","","","-9","","Snow,Blowing Snow"
"-94.97","74.72","RESOLUTE BAY A","2403498","2020-10-16 13:00","2020","10","16","13:00","-0.6","","-1.9","","91","","","","11","","33","","3.6","","100.84","","","","-8","","Snow,Blowing Snow"
"-94.97","74.72","RESOLUTE BAY A","2403498","2020-10-16 14:00","2020","10","16","14:00","-0.5","","-2.1","","89","","","","12","","39","","11.3","","100.84","","","","-8","","Snow,Blowing Snow"
"-94.97","74.72","RESOLUTE BAY A","2403498","2020-10-16 15:00","2020","10","16","15:00","-0.9","","-2.4","","89","","","","11","","50","","16.1","","100.79","","","","-9","","Blowing Snow"
"-94.97","74.72","RESOLUTE BAY A","2403498","2020-10-16 16:00","2020","10","16","16:00","-0.8","","-2.6","","88","","","","9","","52","","19.3","","100.79","","","","-9","","Blowing Snow"
"-94.97","74.72","RESOLUTE BAY A","2403498","2020-10-16 17:00","2020","10","16","17:00","-0.8","","-2.9","","86","","","","8","","39","","14.5","","100.83","","","","-8","","Blowing Snow"
"-94.97","74.72","RESOLUTE BAY A","2403498","2020-10-16 18:00","2020","10","16","18:00","-0.4","","-2.3","","87","","","","9","","45","","11.3","","100.85","","","","-8","","Blowing Snow"
"-94.97","74.72","RESOLUTE BAY A","2403498","2020-10-16 19:00","2020","10","16","19:00","-0.6","","-2.4","","88","","","","9","","32","","14.5","","100.88","","","","-7","","Snow,Blowing Snow"
"-94.97","74.72","RESOLUTE BAY A","2403498","2020-10-16 20:00","2020","10","16","20:00","-0.5","","-2.2","","88","","","","9","","36","","24.1","","100.86","","","","-8","","Snow"
"-94.97","74.72","RESOLUTE BAY A","2403498","2020-10-16 21:00","2020","10","16","21:00","-0.9","","-2.6","","88","","","","6","","20","","24.1","","100.87","","","","-6","","Cloudy"
"-94.97","74.72","RESOLUTE BAY A","2403498","2020-10-16 22:00","2020","10","16","22:00","-1.4","","-3.5","","86","","","","5","","22","","24.1","","100.87","","","","-7","","NA"
"-94.97","74.72","RESOLUTE BAY A","2403498","2020-10-16 23:00","2020","10","16","23:00","-1.2","","-3.7","","83","","","","5","","28","","24.1","","100.85","","","","-8","","NA"
"-94.97","74.72","RESOLUTE BAY A","2403498","2020-10-17 00:00","2020","10","17","00:00","-1.2","","-3.3","","86","","","","5","","34","","24.1","","100.84","","","","-8","","Cloudy"
"-94.97","74.72","RESOLUTE BAY A","2403498","2020-10-17 01:00","2020","10","17","01:00","-0.8","","-2.5","","88","","","","4","","32","","24.1","","100.84","","","","-8","","Snow,Blowing Snow"
"-94.97","74.72","RESOLUTE BAY A","2403498","2020-10-17 02:00","2020","10","17","02:00","-1.2","","-2.7","","89","","","","4","","32","","24.1","","100.80","","","","-8","","Snow,Blowing Snow"
"-94.97","74.72","RESOLUTE BAY A","2403498","2020-10-17 03:00","2020","10","17","03:00","-2.3","","-3.8","","90","","","","3","","32","","24.1","","100.80","","","","-10","","Snow,Blowing Snow"
"-94.97","74.72","RESOLUTE BAY A","2403498","2020-10-17 04:00","2020","10","17","04:00","-2.5","","-4.0","","90","","","","3","","29","","24.1","","100.75","","","","-10","","Snow,Blowing Snow"
"-94.97","74.72","RESOLUTE BAY A","2403498","2020-10-17 05:00","2020","10","17","05:00","-3.3","","-5.1","","88","","","","3","","40","","24.1","","100.72","","","","-12","","Snow,Blowing Snow"
"-94.97","74.72","RESOLUTE BAY A","2403498","2020-10-17 06:00","2020","10","17","06:00","-4.0","","-5.7","","88","","","","2","","42","","24.1","","100.67","","","","-13","","Snow,Blowing Snow"
"-94.97","74.72","RESOLUTE BAY A","2403498","2020-10-17 07:00","2020","10","17","07:00","-3.8","","-5.6","","88","","","","3","","43","","24.1","","100.64","","","","-13","","Blowing Snow"
"-94.97","74.72","RESOLUTE BAY A","2403498","2020-10-17 08:00","2020","10","17","08:00","-4.1","","-5.8","","88","","","","4","","53","","24.1","","100.60","","","","-14","","Blowing Snow"
"-94.97","74.72","RESOLUTE BAY A","2403498","2020-10-17 09:00","2020","10","17","09:00","-4.5","","-6.4","","87","","","","4","","47","","24.1","","100.61","","","","-14","","Blowing Snow"
"-94.97","74.72","RESOLUTE BAY A","2403498","2020-10-17 10:00","2020","10","17","10:00","-5.2","","-7.2","","86","","","","3","","37","","32.2","","100.65","","","","-14","","Blowing Snow"
"-94.97","74.72","RESOLUTE BAY A","2403498","2020-10-17 11:00","2020","10","17","11:00","-4.9","","-7.1","","85","","","","3","","42","","48.3","","100.65","","","","-14","","Blowing Snow"
"-94.97","74.72","RESOLUTE BAY A","2403498","2020-10-17 12:00","2020","10","17","12:00","-4.3","","-6.7","","84","","","","3","","37","","48.3","","100.72","","","","-13","","Blowing Snow"
"-94.97","74.72","RESOLUTE BAY A","2403498","2020-10-17 13:00","2020","10","17","13:00","-4.6","","-7.2","","82","","","","4","","39","","48.3","","100.76","","","","-13","","Blowing Snow"
"-94.97","74.72","RESOLUTE BAY A","2403498","2020-10-17 14:00","2020","10","17","14:00","-4.4","","-7.2","","81","","","","4","","37","","40.2","","100.79","","","","-13","","Blowing Snow"
"-94.97","74.72","RESOLUTE BAY A","2403498","2020-10-17 15:00","2020","10","17","15:00","-4.5","","-7.4","","81","","","","4","","39","","40.2","","100.83","","","","-13","","Cloudy"
"-94.97","74.72","RESOLUTE BAY A","2403498","2020-10-17 16:00","2020","10","17","16:00","-4.2","","-6.9","","81","","","","4","","36","","40.2","","100.83","","","","-13","","Blowing Snow"
"-94.97","74.72","RESOLUTE BAY A","2403498","2020-10-17 17:00","2020","10","17","17:00","-4.1","","-6.8","","82","","","","4","","36","","40.2","","100.83","","","","-12","","Blowing Snow"
"-94.97","74.72","RESOLUTE BAY A","2403498","2020-10-17 18:00","2020","10","17","18:00","-3.9","","-6.8","","81","","","","4","","37","","32.2","","100.84","","","","-12","","Blowing Snow"
"-94.97","74.72","RESOLUTE BAY A","2403498","2020-10-17 19:00","2020","10","17","19:00","-4.7","","-7.2","","83","","","","3","","39","","32.2","","100.84","","","","-14","","Blowing Snow"
"-94.97","74.72","RESOLUTE BAY A","2403498","2020-10-17 20:00","2020","10","17","20:00","-5.2","","-7.4","","85","","","","2","","41","","24.1","","100.86","","","","-14","","Blowing Snow"
"-94.97","74.72","RESOLUTE BAY A","2403498","2020-10-17 21:00","2020","10","17","21:00","-5.2","","-7.3","","85","","","","2","","49","","24.1","","100.83","","","","-15","","Blowing Snow"
"-94.97","74.72","RESOLUTE BAY A","2403498","2020-10-17 22:00","2020","10","17","22:00","-4.2","","-6.5","","84","","","","2","","25","","24.1","","100.89","","","","-11","","Blowing Snow"
"-94.97","74.72","RESOLUTE BAY A","2403498","2020-10-17 23:00","2020","10","17","23:00","-3.5","","-5.2","","88","","","","3","","38","","24.1","","100.86","","","","-12","","Blowing Snow"
"-94.97","74.72","RESOLUTE BAY A","2403498","2020-10-18 00:00","2020","10","18","00:00","-3.1","","-4.7","","89","","","","4","","40","","6.4","","100.86","","","","-12","","Snow,Blowing Snow"
"-94.97","74.72","RESOLUTE BAY A","2403498","2020-10-18 01:00","2020","10","18","01:00","-3.1","","-4.6","","90","","","","4","","42","","4.8","","100.84","","","","-12","","Snow,Blowing Snow"
"-94.97","74.72","RESOLUTE BAY A","2403498","2020-10-18 02:00","2020","10","18","02:00","-3.0","","-4.7","","88","","","","4","","41","","6.4","","100.84","","","","-11","","Snow,Blowing Snow"
"-94.97","74.72","RESOLUTE BAY A","2403498","2020-10-18 03:00","2020","10","18","03:00","-3.2","","-5.1","","86","","","","5","","34","","11.3","","100.84","","","","-11","","Snow,Blowing Snow"
"-94.97","74.72","RESOLUTE BAY A","2403498","2020-10-18 04:00","2020","10","18","04:00","-3.1","","-5.1","","86","","","","6","","36","","9.7","","100.85","","","","-11","","Snow,Blowing Snow"
"-94.97","74.72","RESOLUTE BAY A","2403498","2020-10-18 05:00","2020","10","18","05:00","-2.6","","-4.3","","89","","","","6","","29","","11.3","","100.83","","","","-10","","Snow,Blowing Snow"
"-94.97","74.72","RESOLUTE BAY A","2403498","2020-10-18 06:00","2020","10","18","06:00","-2.6","","-4.3","","89","","","","5","","27","","8.1","","100.85","","","","-10","","Snow,Blowing Snow"
"-94.97","74.72","RESOLUTE BAY A","2403498","2020-10-18 07:00","2020","10","18","07:00","-2.6","","-4.4","","87","","","","5","","29","","11.3","","100.85","","","","-10","","Snow,Blowing Snow"
"-94.97","74.72","RESOLUTE BAY A","2403498","2020-10-18 08:00","2020","10","18","08:00","-2.1","","-3.6","","89","","","","5","","30","","9.7","","100.85","","","","-9","","Snow,Blowing Snow"
"-94.97","74.72","RESOLUTE BAY A","2403498","2020-10-18 09:00","2020","10","18","09:00","-2.1","","-3.7","","89","","","","6","","29","","9.7","","100.82","","","","-9","","Snow,Blowing Snow"
"-94.97","74.72","RESOLUTE BAY A","2403498","2020-10-18 10:00","2020","10","18","10:00","-1.9","","-3.3","","91","","","","10","","20","","11.3","","100.81","","","","-8","","Snow,Blowing Snow"
"-94.97","74.72","RESOLUTE BAY A","2403498","2020-10-18 11:00","2020","10","18","11:00","-2.0","","-3.5","","90","","","","9","","36","","12.9","","100.76","","","","-10","","Snow,Blowing Snow"
"-94.97","74.72","RESOLUTE BAY A","2403498","2020-10-18 12:00","2020","10","18","12:00","-2.0","","-3.1","","92","","","","10","","32","","9.7","","100.76","","","","-9","","Snow,Blowing Snow"
"-94.97","74.72","RESOLUTE BAY A","2403498","2020-10-18 13:00","2020","10","18","13:00","-2.1","","-2.9","","94","","","","10","","32","","8.1","","100.74","","","","-9","","Snow,Blowing Snow"
"-94.97","74.72","RESOLUTE BAY A","2403498","2020-10-18 14:00","2020","10","18","14:00","-2.3","","-3.3","","93","","","","10","","38","","9.7","","100.73","","","","-10","","Snow,Blowing Snow"
"-94.97","74.72","RESOLUTE BAY A","2403498","2020-10-18 15:00","2020","10","18","15:00","-2.5","","-3.4","","93","","","","11","","35","","9.7","","100.74","","","","-10","","Snow,Blowing Snow"
"-94.97","74.72","RESOLUTE BAY A","2403498","2020-10-18 16:00","2020","10","18","16:00","-2.7","","-3.8","","92","","","","10","","35","","11.3","","100.73","","","","-11","","Snow,Blowing Snow"
"-94.97","74.72","RESOLUTE BAY A","2403498","2020-10-18 17:00","2020","10","18","17:00","-2.8","","-4.0","","92","","","","10","","31","","11.3","","100.72","","","","-10","","Snow,Blowing Snow"
"-94.97","74.72","RESOLUTE BAY A","2403498","2020-10-18 18:00","2020","10","18","18:00","-2.4","","-3.9","","90","","","","10","","44","","16.1","","100.67","","","","-11","","Snow,Blowing Snow"
"-94.97","74.72","RESOLUTE BAY A","2403498","2020-10-18 19:00","2020","10","18","19:00","-3.2","","-4.8","","89","","","","10","","34","","14.5","","100.66","","","","-11","","Blowing Snow"
"-94.97","74.72","RESOLUTE BAY A","2403498","2020-10-18 20:00","2020","10","18","20:00","-2.0","","-3.5","","89","","","","11","","30","","19.3","","100.64","","","","-9","","Blowing Snow"
"-94.97","74.72","RESOLUTE BAY A","2403498","2020-10-18 21:00","2020","10","18","21:00","-2.2","","-3.7","","89","","","","10","","32","","19.3","","100.59","","","","-10","","Blowing Snow"
"-94.97","74.72","RESOLUTE BAY A","2403498","2020-10-18 22:00","2020","10","18","22:00","-2.1","","-3.4","","91","","","","10","","21","","16.1","","100.55","","","","-8","","Blowing Snow"
"-94.97","74.72","RESOLUTE BAY A","2403498","2020-10-18 23:00","2020","10","18","23:00","-2.4","","-3.1","","95","","","","9","","22","","1.2","","100.48","","","","-9","","Fog,Blowing Snow"
"-94.97","74.72","RESOLUTE BAY A","2403498","2020-10-19 00:00","2020","10","19","00:00","-1.9","","-2.5","","96","","","","7","","22","","1.2","","100.46","","","","-8","","Fog"
"-94.97","74.72","RESOLUTE BAY A","2403498","2020-10-19 01:00","2020","10","19","01:00","-2.8","","-4.0","","91","","","","4","","21","","1.2","","100.40","","","","-9","","Fog"
"-94.97","74.72","RESOLUTE BAY A","2403498","2020-10-19 02:00","2020","10","19","02:00","-2.7","","-4.4","","88","","","","7","","18","","6.4","","100.38","","","","-8","","Snow"
"-94.97","74.72","RESOLUTE BAY A","2403498","2020-10-19 03:00","2020","10","19","03:00","-3.7","","-5.2","","89","","","","3","","22","","12.9","","100.30","","","","-10","","Snow"
"-94.97","74.72","RESOLUTE BAY A","2403498","2020-10-19 04:00","2020","10","19","04:00","-5.0","","-6.7","","88","","","","3","","29","","14.5","","100.25","","","","-13","","Snow"
"-94.97","74.72","RESOLUTE BAY A","2403498","2020-10-19 05:00","2020","10","19","05:00","-5.7","","-7.2","","89","","","","4","","37","","19.3","","100.16","","","","-15","","Snow"
"-94.97","74.72","RESOLUTE BAY A","2403498","2020-10-19 06:00","2020","10","19","06:00","-6.5","","-8.2","","88","","","","3","","40","","19.3","","100.11","","","","-16","","Snow"
"-94.97","74.72","RESOLUTE BAY A","2403498","2020-10-19 07:00","2020","10","19","07:00","-6.2","","-7.6","","90","","","","3","","41","","19.3","","100.05","","","","-16","","Snow,Blowing Snow"
"-94.97","74.72","RESOLUTE BAY A","2403498","2020-10-19 08:00","2020","10","19","08:00","-5.4","","-6.8","","90","","","","4","","36","","24.1","","99.98","","","","-14","","NA"
"-94.97","74.72","RESOLUTE BAY A","2403498","2020-10-19 09:00","2020","10","19","09:00","-5.6","","-6.9","","91","","","","3","","34","","24.1","","99.93","","","","-14","","Mostly Cloudy"
"-94.97","74.72","RESOLUTE BAY A","2403498","2020-10-19 10:00","2020","10","19","10:00","-4.4","","-6.0","","89","","","","4","","40","","32.2","","99.85","","","","-13","","NA"
"-94.97","74.72","RESOLUTE BAY A","2403498","2020-10-19 11:00","2020","10","19","11:00","-3.2","","-5.9","","82","","","","4","","29","","32.2","","99.80","","","","-11","","NA"
"-94.97","74.72","RESOLUTE BAY A","2403498","2020-10-19 12:00","2020","10","19","12:00","-5.0","","-7.2","","84","","","","4","","40","","32.2","","99.75","","","","-14","","Mainly Clear"
"-94.97","74.72","RESOLUTE BAY A","2403498","2020-10-19 13:00","2020","10","19","13:00","-4.7","","-7.0","","84","","","","3","","38","","32.2","","99.74","","","","-13","","Blowing Snow"
"-94.97","74.72","RESOLUTE BAY A","2403498","2020-10-19 14:00","2020","10","19","14:00","-4.4","","-6.2","","87","","","","3","","30","","32.2","","99.76","","","","-12","","NA"
"-94.97","74.72","RESOLUTE BAY A","2403498","2020-10-19 15:00","2020","10","19","15:00","-5.4","","-7.4","","86","","","","2","","31","","32.2","","99.75","","","","-14","","Mostly Cloudy"
"-94.97","74.72","RESOLUTE BAY A","2403498","2020-10-19 16:00","2020","10","19","16:00","-6.2","","-8.4","","85","","","","2","","38","","32.2","","99.69","","","","-15","","Blowing Snow"
"-94.97","74.72","RESOLUTE BAY A","2403498","2020-10-19 17:00","2020","10","19","17:00","-7.0","","-9.2","","84","","","","3","","41","","32.2","","99.66","","","","-17","","Blowing Snow"
"-94.97","74.72","RESOLUTE BAY A","2403498","2020-10-19 18:00","2020","10","19","18:00","-7.1","","-9.3","","84","","","","3","","41","","32.2","","99.55","","","","-17","","Mostly Cloudy"
"-94.97","74.72","RESOLUTE BAY A","2403498","2020-10-19 19:00","2020","10","19","19:00","-6.4","","-8.8","","83","","","","2","","39","","32.2","","99.53","","","","-16","","Blowing Snow"
"-94.97","74.72","RESOLUTE BAY A","2403498","2020-10-19 20:00","2020","10","19","20:00","-6.5","","-8.6","","85","","","","2","","52","","24.1","","99.47","","","","-17","","Blowing Snow"
"-94.97","74.72","RESOLUTE BAY A","2403498","2020-10-19 21:00","2020","10","19","21:00","-7.6","","-9.7","","85","","","","3","","52","","24.1","","99.44","","","","-19","","Blowing Snow"
"-94.97","74.72","RESOLUTE BAY A","2403498","2020-10-19 22:00","2020","10","19","22:00","-7.1","","-9.0","","86","","","","3","","55","","16.1","","99.38","","","","-18","","Blowing Snow"
"-94.97","74.72","RESOLUTE BAY A","2403498","2020-10-19 23:00","2020","10","19","23:00","-6.3","","-8.8","","83","","","","3","","48","","24.1","","99.35","","","","-17","","Blowing Snow"
"-94.97","74.72","RESOLUTE BAY A","2403498","2020-10-20 00:00","2020","10","20","00:00","-6.4","","-8.9","","83","","","","3","","50","","24.1","","99.37","","","","-17","","Blowing Snow"
"-94.97","74.72","RESOLUTE BAY A","2403498","2020-10-20 01:00","2020","10","20","01:00","-5.6","","-8.5","","80","","","","2","","40","","24.1","","99.34","","","","-15","","Blowing Snow"
"-94.97","74.72","RESOLUTE BAY A","2403498","2020-10-20 02:00","2020","10","20","02:00","-5.0","","-7.3","","84","","","","1","","46","","24.1","","99.32","","","","-15","","Blowing Snow"
"-94.97","74.72","RESOLUTE BAY A","2403498","2020-10-20 03:00","2020","10","20","03:00","-3.5","","-5.7","","85","","","","2","","37","","24.1","","99.37","","","","-12","","Cloudy"
"-94.97","74.72","RESOLUTE BAY A","2403498","2020-10-20 04:00","2020","10","20","04:00","-2.9","","-5.3","","84","","","","3","","36","","24.1","","99.38","","","","-11","","NA"
"-94.97","74.72","RESOLUTE BAY A","2403498","2020-10-20 05:00","2020","10","20","05:00","-2.2","","-4.5","","84","","","","2","","38","","24.1","","99.38","","","","-10","","NA"
"-94.97","74.72","RESOLUTE BAY A","2403498","2020-10-20 06:00","2020","10","20","06:00","-2.0","","-4.5","","83","","","","2","","34","","24.1","","99.40","","","","-10","","Mostly Cloudy"
"-94.97","74.72","RESOLUTE BAY A","2403498","2020-10-20 07:00","2020","10","20","07:00","-2.7","","-4.9","","85","","","","4","","50","","24.1","","99.33","","","","-12","","NA"
"-94.97","74.72","RESOLUTE BAY A","2403498","2020-10-20 08:00","2020","10","20","08:00","-2.7","","-4.8","","86","","","","3","","42","","24.1","","99.37","","","","-11","","Blowing Snow"
"-94.97","74.72","RESOLUTE BAY A","2403498","2020-10-20 09:00","2020","10","20","09:00","-2.0","","-4.3","","84","","","","3","","49","","24.1","","99.38","","","","-11","","Blowing Snow"
"-94.97","74.72","RESOLUTE BAY A","2403498","2020-10-20 10:00","2020","10","20","10:00","-1.7","","-4.3","","82","","","","3","","52","","24.1","","99.37","","","","-11","","Blowing Snow"
"-94.97","74.72","RESOLUTE BAY A","2403498","2020-10-20 11:00","2020","10","20","11:00","-2.4","","-5.2","","81","","","","3","","37","","24.1","","99.42","","","","-10","","Blowing Snow"
"-94.97","74.72","RESOLUTE BAY A","2403498","2020-10-20 12:00","2020","10","20","12:00","-3.8","","-6.7","","80","","","","3","","44","","24.1","","99.44","","","","-13","","Blowing Snow"
"-94.97","74.72","RESOLUTE BAY A","2403498","2020-10-20 13:00","2020","10","20","13:00","-3.9","","-7.0","","79","","","","2","","50","","24.1","","99.46","","","","-13","","Blowing Snow"
"-94.97","74.72","RESOLUTE BAY A","2403498","2020-10-20 14:00","2020","10","20","14:00","-5.3","","-8.0","","82","","","","1","","45","","24.1","","99.51","","","","-15","","Blowing Snow"
"-94.97","74.72","RESOLUTE BAY A","2403498","2020-10-20 15:00","2020","10","20","15:00","-4.7","","-7.3","","82","","","","2","","42","","24.1","","99.51","","","","-14","","Blowing Snow"
"-94.97","74.72","RESOLUTE BAY A","2403498","2020-10-20 16:00","2020","10","20","16:00","-5.5","","-8.0","","83","","","","3","","41","","24.1","","99.52","","","","-15","","Blowing Snow"
"-94.97","74.72","RESOLUTE BAY A","2403498","2020-10-20 17:00","2020","10","20","17:00","-6.6","","-9.0","","83","","","","3","","45","","24.1","","99.54","","","","-17","","Blowing Snow"
"-94.97","74.72","RESOLUTE BAY A","2403498","2020-10-20 18:00","2020","10","20","18:00","-7.1","","-9.9","","81","","","","2","","37","","24.1","","99.58","","","","-17","","Blowing Snow"
"-94.97","74.72","RESOLUTE BAY A","2403498","2020-10-20 19:00","2020","10","20","19:00","-8.6","","-11.1","","82","","","","3","","48","","24.1","","99.60","","","","-20","","Blowing Snow"
"-94.97","74.72","RESOLUTE BAY A","2403498","2020-10-20 20:00","2020","10","20","20:00","-10.3","","-12.8","","82","","","","3","","51","","16.1","","99.57","","","","-22","","Blowing Snow"
"-94.97","74.72","RESOLUTE BAY A","2403498","2020-10-20 21:00","2020","10","20","21:00","-9.4","","-11.9","","82","","","","3","","43","","24.1","","99.63","","","","-20","","Mainly Clear"
"-94.97","74.72","RESOLUTE BAY A","2403498","2020-10-20 22:00","2020","10","20","22:00","-9.9","","-12.4","","82","","","","3","","47","","24.1","","99.69","","","","-21","","NA"
"-94.97","74.72","RESOLUTE BAY A","2403498","2020-10-20 23:00","2020","10","20","23:00","-10.0","","-12.5","","82","","","","3","","36","","24.1","","99.78","","","","-20","","NA"
"-94.97","74.72","RESOLUTE BAY A","2403498","2020-10-21 00:00","2020","10","21","00:00","-10.4","","-12.8","","82","","","","3","","39","","24.1","","99.83","","","","-21","","Mainly Clear"
"-94.97","74.72","RESOLUTE BAY A","2403498","2020-10-21 01:00","2020","10","21","01:00","-10.8","","-13.3","","82","","","","3","","46","","24.1","","99.88","","","","-22","","NA"
"-94.97","74.72","RESOLUTE BAY A","2403498","2020-10-21 02:00","2020","10","21","02:00","-9.4","","-12.1","","81","","","","4","","43","","24.1","","99.91","","","","-20","","NA"
"-94.97","74.72","RESOLUTE BAY A","2403498","2020-10-21 03:00","2020","10","21","03:00","-9.3","","-12.0","","81","","","","3","","42","","24.1","","99.94","","","","-20","","Mainly Clear"
"-94.97","74.72","RESOLUTE BAY A","2403498","2020-10-21 04:00","2020","10","21","04:00","-8.3","","-11.2","","79","","","","3","","42","","24.1","","99.96","","","","-19","","NA"
"-94.97","74.72","RESOLUTE BAY A","2403498","2020-10-21 05:00","2020","10","21","05:00","-11.1","","-13.9","","80","","","","4","","46","","24.1","","100.00","","","","-23","","Blowing Snow"
"-94.97","74.72","RESOLUTE BAY A","2403498","2020-10-21 06:00","2020","10","21","06:00","-11.3","","-14.0","","81","","","","4","","50","","24.1","","100.03","","","","-24","","Blowing Snow"
"-94.97","74.72","RESOLUTE BAY A","2403498","2020-10-21 07:00","2020","10","21","07:00","-11.6","","-14.4","","80","","","","4","","49","","32.2","","100.03","","","","-24","","Blowing Snow"
"-94.97","74.72","RESOLUTE BAY A","2403498","2020-10-21 08:00","2020","10","21","08:00","-10.5","","-13.6","","78","","","","1","","21","","24.1","","100.15","","","","-19","","NA"
"-94.97","74.72","RESOLUTE BAY A","2403498","2020-10-21 09:00","2020","10","21","09:00","-10.1","","-13.2","","78","","","","36","","18","","24.1","","100.17","","","","-18","","Mostly Cloudy"
"-94.97","74.72","RESOLUTE BAY A","2403498","2020-10-21 10:00","2020","10","21","10:00","-11.9","","-15.2","","77","","","","3","","23","","24.1","","100.16","","","","-21","","NA"
"-94.97","74.72","RESOLUTE BAY A","2403498","2020-10-21 11:00","2020","10","21","11:00","-14.1","","-18.1","","72","","","","4","","25","","24.1","","100.17","","","","-24","","NA"
"-94.97","74.72","RESOLUTE BAY A","2403498","2020-10-21 12:00","2020","10","21","12:00","-16.2","","-19.7","","74","","","","3","","46","","24.1","","100.20","","","","-30","","Clear"
"-94.97","74.72","RESOLUTE BAY A","2403498","2020-10-21 13:00","2020","10","21","13:00","-16.8","","-20.2","","75","","","","34","","17","","24.1","","100.25","","","","-26","","NA"
"-94.97","74.72","RESOLUTE BAY A","2403498","2020-10-21 14:00","2020","10","21","14:00","-17.6","","-21.0","","75","","","","34","","25","","32.2","","100.31","","","","-29","","NA"
"-94.97","74.72","RESOLUTE BAY A","2403498","2020-10-21 15:00","2020","10","21","15:00","-18.1","","-21.4","","75","","","","35","","23","","32.2","","100.33","","","","-29","","Mainly Clear"
"-94.97","74.72","RESOLUTE BAY A","2403498","2020-10-21 16:00","2020","10","21","16:00","-18.5","","-21.5","","78","","","","34","","38","","32.2","","100.30","","","","-32","","NA"
"-94.97","74.72","RESOLUTE BAY A","2403498","2020-10-21 17:00","2020","10","21","17:00","-18.1","","-20.7","","80","","","","33","","43","","4.8","","100.35","","","","-32","","Fog"
"-94.97","74.72","RESOLUTE BAY A","2403498","2020-10-21 18:00","2020","10","21","18:00","-18.1","","-20.7","","81","","","","32","","33","","6.4","","100.38","","","","-31","","Ice Crystals,Fog"
"-94.97","74.72","RESOLUTE BAY A","2403498","2020-10-21 19:00","2020","10","21","19:00","-17.6","","-20.0","","82","","","","33","","23","","11.3","","100.39","","","","-28","","Ice Crystals"
"-94.97","74.72","RESOLUTE BAY A","2403498","2020-10-21 20:00","2020","10","21","20:00","-18.4","","-21.1","","79","","","","32","","24","","24.1","","100.40","","","","-29","","Ice Crystals"
"-94.97","74.72","RESOLUTE BAY A","2403498","2020-10-21 21:00","2020","10","21","21:00","-17.8","","-20.5","","80","","","","34","","17","","24.1","","100.36","","","","-27","","Ice Crystals"
"-94.97","74.72","RESOLUTE BAY A","2403498","2020-10-21 22:00","2020","10","21","22:00","-16.3","","-18.5","","83","","","","36","","22","","24.1","","100.32","","","","-26","","Ice Crystals"
"-94.97","74.72","RESOLUTE BAY A","2403498","2020-10-21 23:00","2020","10","21","23:00","-16.4","","-18.6","","83","","","","35","","21","","24.1","","100.29","","","","-26","","Snow"
"-94.97","74.72","RESOLUTE BAY A","2403498","2020-10-22 00:00","2020","10","22","00:00","-16.3","","-18.5","","83","","","","34","","24","","24.1","","100.28","","","","-27","","Snow"
"-94.97","74.72","RESOLUTE BAY A","2403498","2020-10-22 01:00","2020","10","22","01:00","-16.6","","-18.7","","84","","","","33","","26","","24.1","","100.27","","","","-27","","Snow"
"-94.97","74.72","RESOLUTE BAY A","2403498","2020-10-22 02:00","2020","10","22","02:00","-16.7","","-19.1","","82","","","","34","","24","","24.1","","100.27","","","","-27","","Snow"
"-94.97","74.72","RESOLUTE BAY A","2403498","2020-10-22 03:00","2020","10","22","03:00","-17.2","","-19.9","","80","","","","35","","21","","24.1","","100.25","","","","-27","","Snow"
"-94.97","74.72","RESOLUTE BAY A","2403498","2020-10-22 04:00","2020","10","22","04:00","-18.9","","-21.9","","77","","","","36","","21","","24.1","","100.24","","","","-29","","Ice Crystals"
"-94.97","74.72","RESOLUTE BAY A","2403498","2020-10-22 05:00","2020","10","22","05:00","-19.1","","-22.1","","77","","","","35","","19","","24.1","","100.23","","","","-29","","Ice Crystals"
"-94.97","74.72","RESOLUTE BAY A","2403498","2020-10-22 06:00","2020","10","22","06:00","-18.6","","-21.1","","81","","","","34","","14","","24.1","","100.23","","","","-27","","Ice Crystals"
"-94.97","74.72","RESOLUTE BAY A","2403498","2020-10-22 07:00","2020","10","22","07:00","-17.6","","-19.7","","84","","","","34","","18","","24.1","","100.22","","","","-27","","Snow"
"-94.97","74.72","RESOLUTE BAY A","2403498","2020-10-22 08:00","2020","10","22","08:00","-17.4","","-19.7","","83","","","","35","","23","","24.1","","100.20","","","","-28","","Snow"
"-94.97","74.72","RESOLUTE BAY A","2403498","2020-10-22 09:00","2020","10","22","09:00","-17.8","","-20.1","","82","","","","34","","22","","24.1","","100.18","","","","-28","","Snow"
"-94.97","74.72","RESOLUTE BAY A","2403498","2020-10-22 10:00","2020","10","22","10:00","-18.8","","-21.6","","79","","","","35","","19","","32.2","","100.19","","","","-29","","NA"
"-94.97","74.72","RESOLUTE BAY A","2403498","2020-10-22 11:00","2020","10","22","11:00","-20.2","","-23.1","","78","","","","35","","28","","32.2","","100.21","","","","-32","","NA"
"-94.97","74.72","RESOLUTE BAY A","2403498","2020-10-22 12:00","2020","10","22","12:00","-19.8","","-22.6","","79","","","","35","","29","","16.1","","100.26","","","","-32","","Mostly Cloudy"
"-94.97","74.72","RESOLUTE BAY A","2403498","2020-10-22 13:00","2020","10","22","13:00","-20.3","","-23.2","","78","","","","32","","17","","16.1","","100.28","","","","-30","","NA"
"-94.97","74.72","RESOLUTE BAY A","2403498","2020-10-22 14:00","2020","10","22","14:00","-20.7","","-23.7","","77","","","","34","","33","","24.1","","100.28","","","","-34","","NA"
"-94.97","74.72","RESOLUTE BAY A","2403498","2020-10-22 15:00","2020","10","22","15:00","-20.7","","-24.0","","75","","","","35","","25","","24.1","","100.30","","","","-33","","Ice Crystals"
"-94.97","74.72","RESOLUTE BAY A","2403498","2020-10-22 16:00","2020","10","22","16:00","-20.7","","-24.0","","75","","","","34","","26","","24.1","","100.33","","","","-33","","Ice Crystals"
"-94.97","74.72","RESOLUTE BAY A","2403498","2020-10-22 17:00","2020","10","22","17:00","-20.8","","-23.9","","77","","","","33","","25","","24.1","","100.32","","","","-33","","Ice Crystals"
"-94.97","74.72","RESOLUTE BAY A","2403498","2020-10-22 18:00","2020","10","22","18:00","-20.2","","-23.3","","77","","","","31","","24","","24.1","","100.34","","","","-32","","Ice Crystals"
"-94.97","74.72","RESOLUTE BAY A","2403498","2020-10-22 19:00","2020","10","22","19:00","-19.9","","-22.9","","77","","","","32","","26","","24.1","","100.37","","","","-32","","Ice Crystals"
"-94.97","74.72","RESOLUTE BAY A","2403498","2020-10-22 20:00","2020","10","22","20:00","-19.5","","-22.3","","79","","","","33","","28","","6.4","","100.37","","","","-32","","Ice Crystals,Blowing Snow"
"-94.97","74.72","RESOLUTE BAY A","2403498","2020-10-22 21:00","2020","10","22","21:00","-19.3","","-22.4","","77","","","","32","","18","","24.1","","100.38","","","","-29","","Ice Crystals"
"-94.97","74.72","RESOLUTE BAY A","2403498","2020-10-22 22:00","2020","10","22","22:00","-18.6","","-20.6","","85","","","","32","","18","","16.1","","100.38","","","","-28","","Snow"
"-94.97","74.72","RESOLUTE BAY A","2403498","2020-10-22 23:00","2020","10","22","23:00","-17.3","","-19.8","","81","","","","32","","17","","24.1","","100.40","","","","-26","","Snow"
"-94.97","74.72","RESOLUTE BAY A","2403498","2020-10-23 00:00","2020","10","23","00:00","-16.6","","-19.1","","81","","","","32","","17","","24.1","","100.38","","","","-25","","Snow"
"-94.97","74.72","RESOLUTE BAY A","2403498","2020-10-23 01:00","2020","10","23","01:00","-15.9","","-18.3","","82","","","","33","","18","","14.5","","100.40","","","","-25","","Snow"
"-94.97","74.72","RESOLUTE BAY A","2403498","2020-10-23 02:00","2020","10","23","02:00","-16.1","","-18.6","","81","","","","33","","27","","16.1","","100.40","","","","-27","","Snow"
"-94.97","74.72","RESOLUTE BAY A","2403498","2020-10-23 03:00","2020","10","23","03:00","-16.1","","-18.7","","81","","","","36","","29","","16.1","","100.38","","","","-27","","Snow"
"-94.97","74.72","RESOLUTE BAY A","2403498","2020-10-23 04:00","2020","10","23","04:00","-16.3","","-18.6","","83","","","","33","","30","","16.1","","100.40","","","","-28","","Snow"
"-94.97","74.72","RESOLUTE BAY A","2403498","2020-10-23 05:00","2020","10","23","05:00","-17.1","","-19.2","","84","","","","34","","28","","16.1","","100.41","","","","-28","","Snow"
"-94.97","74.72","RESOLUTE BAY A","2403498","2020-10-23 06:00","2020","10","23","06:00","-17.9","","-20.4","","82","","","","34","","34","","16.1","","100.36","","","","-30","","Ice Crystals"
"-94.97","74.72","RESOLUTE BAY A","2403498","2020-10-23 07:00","2020","10","23","07:00","-18.4","","-20.9","","81","","","","33","","31","","24.1","","100.36","","","","-31","","Ice Crystals"
"-94.97","74.72","RESOLUTE BAY A","2403498","2020-10-23 08:00","2020","10","23","08:00","-19.0","","-21.4","","81","","","","34","","26","","24.1","","100.32","","","","-31","","Ice Crystals"
"-94.97","74.72","RESOLUTE BAY A","2403498","2020-10-23 09:00","2020","10","23","09:00","-19.2","","-21.7","","81","","","","33","","19","","16.1","","100.31","","","","-29","","Snow,Ice Crystals"
"-94.97","74.72","RESOLUTE BAY A","2403498","2020-10-23 10:00","2020","10","23","10:00","-19.3","","-21.5","","83","","","","33","","19","","11.3","","100.30","","","","-29","","Ice Crystals"
"-94.97","74.72","RESOLUTE BAY A","2403498","2020-10-23 11:00","2020","10","23","11:00","-17.1","","-19.2","","84","","","","34","","18","","4.8","","100.27","","","","-26","","Ice Crystals,Fog"
"-94.97","74.72","RESOLUTE BAY A","2403498","2020-10-23 12:00","2020","10","23","12:00","-15.7","","-17.8","","85","","","","36","","12","","1.6","","100.28","","","","-23","","Snow,Fog"
"-94.97","74.72","RESOLUTE BAY A","2403498","2020-10-23 13:00","2020","10","23","13:00","-14.8","","-16.9","","84","","","","33","","9","","1.6","","100.28","","","","-21","","Snow,Fog"
"-94.97","74.72","RESOLUTE BAY A","2403498","2020-10-23 14:00","2020","10","23","14:00","-14.8","","-16.9","","84","","","","32","","11","","1.0","","100.27","","","","-21","","Snow,Fog"
"-94.97","74.72","RESOLUTE BAY A","2403498","2020-10-23 15:00","2020","10","23","15:00","-14.2","","-16.3","","84","","","","34","","21","","3.2","","100.31","","","","-23","","Snow,Fog"
"-94.97","74.72","RESOLUTE BAY A","2403498","2020-10-23 16:00","2020","10","23","16:00","-13.8","","-15.9","","85","","","","32","","19","","3.6","","100.29","","","","-22","","Snow,Fog"
"-94.97","74.72","RESOLUTE BAY A","2403498","2020-10-23 17:00","2020","10","23","17:00","-14.6","","-16.8","","84","","","","34","","16","","4.0","","100.28","","","","-23","","Snow,Fog"
"-94.97","74.72","RESOLUTE BAY A","2403498","2020-10-23 18:00","2020","10","23","18:00","-15.4","","-17.6","","83","","","","21","","5","","4.0","","100.28","","","","-19","","Snow,Fog"
"-94.97","74.72","RESOLUTE BAY A","2403498","2020-10-23 19:00","2020","10","23","19:00","-14.2","","-16.3","","84","","","","33","","13","","4.0","","100.30","","","","-21","","Snow,Fog"
"-94.97","74.72","RESOLUTE BAY A","2403498","2020-10-23 20:00","2020","10","23","20:00","-14.4","","-16.5","","84","","","","32","","12","","16.1","","100.32","","","","-21","","Snow"
"-94.97","74.72","RESOLUTE BAY A","2403498","2020-10-23 21:00","2020","10","23","21:00","-14.9","","-17.0","","84","","","","36","","12","","24.1","","100.30","","","","-22","","Snow"
"-94.97","74.72","RESOLUTE BAY A","2403498","2020-10-23 22:00","2020","10","23","22:00","-17.2","","-19.6","","81","","","","29","","13","","24.1","","100.31","","","","-25","","Ice Crystals"
"-94.97","74.72","RESOLUTE BAY A","2403498","2020-10-23 23:00","2020","10","23","23:00","-18.5","","-21.0","","81","","","","36","","15","","24.1","","100.32","","","","-27","","Ice Crystals"
"-94.97","74.72","RESOLUTE BAY A","2403498","2020-10-24 00:00","2020","10","24","00:00","-19.1","","-21.7","","80","","","","32","","7","","24.1","","100.32","","","","-25","","Ice Crystals"
"-94.97","74.72","RESOLUTE BAY A","2403498","2020-10-24 01:00","2020","10","24","01:00","-16.6","","-18.9","","82","","","","4","","20","","24.1","","100.32","","","","-26","","Ice Crystals"
"-94.97","74.72","RESOLUTE BAY A","2403498","2020-10-24 02:00","2020","10","24","02:00","-19.4","","-22.0","","80","","","","33","","13","","24.1","","100.36","","","","-28","","Ice Crystals"
"-94.97","74.72","RESOLUTE BAY A","2403498","2020-10-24 03:00","2020","10","24","03:00","-19.5","","-22.2","","80","","","","32","","9","","24.1","","100.38","","","","-26","","Ice Crystals"
"-94.97","74.72","RESOLUTE BAY A","2403498","2020-10-24 04:00","2020","10","24","04:00","-19.2","","-21.9","","80","","","","32","","15","","24.1","","100.39","","","","-28","","Ice Crystals"
"-94.97","74.72","RESOLUTE BAY A","2403498","2020-10-24 05:00","2020","10","24","05:00","-16.8","","-19.2","","82","","","","33","","17","","24.1","","100.42","","","","-26","","Ice Crystals"
"-94.97","74.72","RESOLUTE BAY A","2403498","2020-10-24 06:00","2020","10","24","06:00","-16.3","","-18.7","","82","","","","33","","17","","24.1","","100.43","","","","-25","","Snow"
"-94.97","74.72","RESOLUTE BAY A","2403498","2020-10-24 07:00","2020","10","24","07:00","-13.4","","-15.4","","85","","","","36","","10","","24.1","","100.40","","","","-19","","Snow"
"-94.97","74.72","RESOLUTE BAY A","2403498","2020-10-24 08:00","2020","10","24","08:00","-13.0","","-14.9","","85","","","","36","","12","","24.1","","100.39","","","","-20","","Snow"
"-94.97","74.72","RESOLUTE BAY A","2403498","2020-10-24 09:00","2020","10","24","09:00","-13.1","","-15.1","","85","","","","36","","5","","24.1","","100.39","","","","-16","","Snow"
"-94.97","74.72","RESOLUTE BAY A","2403498","2020-10-24 10:00","2020","10","24","10:00","-13.7","","-15.7","","85","","","","1","","6","","24.1","","100.37","","","","-18","","Snow"
"-94.97","74.72","RESOLUTE BAY A","2403498","2020-10-24 11:00","2020","10","24","11:00","-14.7","","-16.9","","84","","","","32","","5","","24.1","","100.38","","","","-18","","Snow"
"-94.97","74.72","RESOLUTE BAY A","2403498","2020-10-24 12:00","2020","10","24","12:00","-15.0","","-17.2","","83","","","","35","","7","","24.1","","100.36","","","","-20","","Snow"
"-94.97","74.72","RESOLUTE BAY A","2403498","2020-10-24 13:00","2020","10","24","13:00","-14.0","","-16.1","","85","","","","35","","10","","24.1","","100.34","","","","-20","","Snow"
"-94.97","74.72","RESOLUTE BAY A","2403498","2020-10-24 14:00","2020","10","24","14:00","-14.0","","-16.1","","84","","","","35","","6","","24.1","","100.34","","","","-18","","Snow"
"-94.97","74.72","RESOLUTE BAY A","2403498","2020-10-24 15:00","2020","10","24","15:00","-14.3","","-16.4","","84","","","","35","","6","","24.1","","100.33","","","","-18","","Snow"
"-94.97","74.72","RESOLUTE BAY A","2403498","2020-10-24 16:00","2020","10","24","16:00","-13.9","","-16.0","","85","","","","35","","6","","24.1","","100.32","","","","-18","","Snow"
"-94.97","74.72","RESOLUTE BAY A","2403498","2020-10-24 17:00","2020","10","24","17:00","-14.5","","-16.6","","84","","","","35","","6","","24.1","","100.28","","","","-19","","Snow"
"-94.97","74.72","RESOLUTE BAY A","2403498","2020-10-24 18:00","2020","10","24","18:00","-14.4","","-16.5","","84","","","","2","","4","","24.1","","100.25","","","","-17","","Snow"
"-94.97","74.72","RESOLUTE BAY A","2403498","2020-10-24 19:00","2020","10","24","19:00","-13.5","","-15.5","","85","","","","36","","2","","24.1","","100.21","","","","-15","","NA"
"-94.97","74.72","RESOLUTE BAY A","2403498","2020-10-24 20:00","2020","10","24","20:00","-13.2","","-15.2","","85","","","","36","","1","","24.1","","100.17","","","","-14","","NA"
"-94.97","74.72","RESOLUTE BAY A","2403498","2020-10-24 21:00","2020","10","24","21:00","-13.0","","-15.0","","85","","","","15","","5","","19.3","","100.11","","","","-16","","Cloudy"
"-94.97","74.72","RESOLUTE BAY A","2403498","2020-10-24 22:00","2020","10","24","22:00","-13.7","","-15.7","","85","","","","12","","10","","16.1","","100.02","","","","-20","","NA"
"-94.97","74.72","RESOLUTE BAY A","2403498","2020-10-24 23:00","2020","10","24","23:00","-13.4","","-15.4","","85","","","","15","","10","","24.1","","99.95","","","","-19","","NA"
"-94.97","74.72","RESOLUTE BAY A","2403498","2020-10-25 00:00","2020","10","25","00:00","-12.3","","-14.2","","86","","","","15","","18","","4.8","","99.88","","","","-20","","Snow"
"-94.97","74.72","RESOLUTE BAY A","2403498","2020-10-25 01:00","2020","10","25","01:00","-12.4","","-14.3","","86","","","","16","","23","","6.4","","99.82","","","","-21","","Snow"
"-94.97","74.72","RESOLUTE BAY A","2403498","2020-10-25 02:00","2020","10","25","02:00","-12.5","","-14.4","","86","","","","16","","21","","4.8","","99.76","","","","-21","","Snow"
"-94.97","74.72","RESOLUTE BAY A","2403498","2020-10-25 03:00","2020","10","25","03:00","-12.2","","-14.1","","86","","","","16","","19","","3.2","","99.69","","","","-20","","Snow"
"-94.97","74.72","RESOLUTE BAY A","2403498","2020-10-25 04:00","2020","10","25","04:00","-13.7","","-15.7","","85","","","","12","","21","","6.4","","99.62","","","","-23","","Snow"
"-94.97","74.72","RESOLUTE BAY A","2403498","2020-10-25 05:00","2020","10","25","05:00","-12.6","","-14.5","","86","","","","13","","22","","9.7","","99.57","","","","-22","","Snow"
"-94.97","74.72","RESOLUTE BAY A","2403498","2020-10-25 06:00","2020","10","25","06:00","-12.2","","-14.1","","86","","","","12","","27","","9.7","","99.51","","","","-22","","Snow"
"-94.97","74.72","RESOLUTE BAY A","2403498","2020-10-25 07:00","2020","10","25","07:00","-11.9","","-13.7","","86","","","","11","","24","","12.9","","99.47","","","","-21","","Snow"
"-94.97","74.72","RESOLUTE BAY A","2403498","2020-10-25 08:00","2020","10","25","08:00","-12.3","","-14.2","","86","","","","12","","16","","24.1","","99.44","","","","-20","","Snow"
"-94.97","74.72","RESOLUTE BAY A","2403498","2020-10-25 09:00","2020","10","25","09:00","-12.1","","-13.9","","86","","","","8","","13","","24.1","","99.40","","","","-19","","Snow"
"-94.97","74.72","RESOLUTE BAY A","2403498","2020-10-25 10:00","2020","10","25","10:00","-12.1","","-13.9","","86","","","","9","","11","","24.1","","99.35","","","","-18","","Snow"
"-94.97","74.72","RESOLUTE BAY A","2403498","2020-10-25 11:00","2020","10","25","11:00","-11.9","","-13.7","","87","","","","9","","7","","24.1","","99.32","","","","-16","","Snow"
"-94.97","74.72","RESOLUTE BAY A","2403498","2020-10-25 12:00","2020","10","25","12:00","-11.8","","-13.6","","87","","","","10","","9","","24.1","","99.28","","","","-17","","Snow"
"-94.97","74.72","RESOLUTE BAY A","2403498","2020-10-25 13:00","2020","10","25","13:00","-11.9","","-13.7","","87","","","","12","","11","","24.1","","99.25","","","","-18","","Snow"
"-94.97","74.72","RESOLUTE BAY A","2403498","2020-10-25 14:00","2020","10","25","14:00","-12.0","","-13.9","","86","","","","11","","11","","24.1","","99.22","","","","-18","","Snow"
"-94.97","74.72","RESOLUTE BAY A","2403498","2020-10-25 15:00","2020","10","25","15:00","-11.7","","-13.5","","87","","","","12","","14","","24.1","","99.20","","","","-19","","Snow"
"-94.97","74.72","RESOLUTE BAY A","2403498","2020-10-25 16:00","2020","10","25","16:00","-11.4","","-13.1","","87","","","","9","","14","","24.1","","99.13","","","","-18","","Snow"
"-94.97","74.72","RESOLUTE BAY A","2403498","2020-10-25 17:00","2020","10","25","17:00","-11.9","","-13.7","","87","","","","11","","11","","24.1","","99.10","","","","-18","","Snow"
"-94.97","74.72","RESOLUTE BAY A","2403498","2020-10-25 18:00","2020","10","25","18:00","-11.6","","-13.4","","87","","","","9","","12","","24.1","","99.06","","","","-18","","Cloudy"
"-94.97","74.72","RESOLUTE BAY A","2403498","2020-10-25 19:00","2020","10","25","19:00","-11.8","","-13.6","","87","","","","8","","17","","24.1","","99.03","","","","-19","","Snow"
"-94.97","74.72","RESOLUTE BAY A","2403498","2020-10-25 20:00","2020","10","25","20:00","-12.1","","-13.9","","86","","","","7","","16","","16.1","","99.00","","","","-20","","Snow"
"-94.97","74.72","RESOLUTE BAY A","2403498","2020-10-25 21:00","2020","10","25","21:00","-12.0","","-13.8","","86","","","","7","","17","","24.1","","98.96","","","","-20","","Snow"
"-94.97","74.72","RESOLUTE BAY A","2403498","2020-10-25 22:00","2020","10","25","22:00","-12.1","","-13.9","","86","","","","7","","19","","19.3","","98.93","","","","-20","","Snow"
"-94.97","74.72","RESOLUTE BAY A","2403498","2020-10-25 23:00","2020","10","25","23:00","-12.5","","-14.4","","86","","","","7","","28","","19.3","","98.89","","","","-22","","Snow"
"-94.97","74.72","RESOLUTE BAY A","2403498","2020-10-26 00:00","2020","10","26","00:00"
"-94.97","74.72","RESOLUTE BAY A","2403498","2020-10-26 01:00","2020","10","26","01:00"
"-94.97","74.72","RESOLUTE BAY A","2403498","2020-10-26 02:00","2020","10","26","02:00","-13.9","","-15.9","","85","","","","5","","44","","12.9","","98.87","","","","-26","","Snow"
"-94.97","74.72","RESOLUTE BAY A","2403498","2020-10-26 03:00","2020","10","26","03:00","-14.2","","-16.3","","84","","","","4","","32","","11.3","","98.92","","","","-25","","Snow"
"-94.97","74.72","RESOLUTE BAY A","2403498","2020-10-26 04:00","2020","10","26","04:00","-15.4","","-17.7","","83","","","","4","","41","","9.7","","98.89","","","","-28","","Snow,Blowing Snow"
"-94.97","74.72","RESOLUTE BAY A","2403498","2020-10-26 05:00","2020","10","26","05:00","-15.5","","-17.9","","82","","","","3","","39","","8.1","","98.93","","","","-28","","Snow,Blowing Snow"
"-94.97","74.72","RESOLUTE BAY A","2403498","2020-10-26 06:00","2020","10","26","06:00","-16.2","","-18.7","","81","","","","3","","40","","9.7","","98.94","","","","-29","","Snow,Blowing Snow"
"-94.97","74.72","RESOLUTE BAY A","2403498","2020-10-26 07:00","2020","10","26","07:00","-17.0","","-19.6","","81","","","","3","","42","","8.1","","98.96","","","","-30","","Snow,Blowing Snow"
"-94.97","74.72","RESOLUTE BAY A","2403498","2020-10-26 08:00","2020","10","26","08:00","-17.5","","-20.1","","80","","","","4","","44","","9.7","","98.97","","","","-31","","Snow,Blowing Snow"
"-94.97","74.72","RESOLUTE BAY A","2403498","2020-10-26 09:00","2020","10","26","09:00","-18.0","","-20.7","","80","","","","4","","43","","11.3","","98.96","","","","-32","","Snow,Blowing Snow"
"-94.97","74.72","RESOLUTE BAY A","2403498","2020-10-26 10:00","2020","10","26","10:00","-18.1","","-20.9","","79","","","","3","","45","","8.1","","98.96","","","","-32","","Snow,Blowing Snow"
"-94.97","74.72","RESOLUTE BAY A","2403498","2020-10-26 11:00","2020","10","26","11:00","-18.3","","-21.1","","79","","","","3","","40","","6.4","","98.99","","","","-32","","Blowing Snow"
"-94.97","74.72","RESOLUTE BAY A","2403498","2020-10-26 12:00","2020","10","26","12:00","-18.2","","-21.0","","79","","","","4","","46","","9.7","","98.99","","","","-32","","Blowing Snow"
"-94.97","74.72","RESOLUTE BAY A","2403498","2020-10-26 13:00","2020","10","26","13:00","-18.6","","-21.5","","78","","","","4","","47","","9.7","","99.00","","","","-33","","Blowing Snow"
"-94.97","74.72","RESOLUTE BAY A","2403498","2020-10-26 14:00","2020","10","26","14:00","-18.6","","-21.6","","78","","","","4","","42","","14.5","","99.02","","","","-33","","Blowing Snow"
"-94.97","74.72","RESOLUTE BAY A","2403498","2020-10-26 15:00","2020","10","26","15:00","-17.8","","-20.6","","79","","","","4","","45","","14.5","","99.05","","","","-32","","Blowing Snow"
"-94.97","74.72","RESOLUTE BAY A","2403498","2020-10-26 16:00","2020","10","26","16:00","-17.3","","-20.0","","80","","","","4","","46","","11.3","","99.06","","","","-31","","Blowing Snow"
"-94.97","74.72","RESOLUTE BAY A","2403498","2020-10-26 17:00","2020","10","26","17:00","-18.0","","-20.6","","80","","","","2","","44","","8.1","","99.08","","","","-32","","Blowing Snow"
"-94.97","74.72","RESOLUTE BAY A","2403498","2020-10-26 18:00","2020","10","26","18:00","-18.5","","-21.2","","79","","","","4","","37","","9.7","","99.11","","","","-32","","Blowing Snow"
"-94.97","74.72","RESOLUTE BAY A","2403498","2020-10-26 19:00","2020","10","26","19:00","-18.1","","-20.8","","80","","","","4","","48","","8.1","","99.12","","","","-33","","Blowing Snow"
"-94.97","74.72","RESOLUTE BAY A","2403498","2020-10-26 20:00","2020","10","26","20:00","-19.2","","-22.1","","78","","","","4","","51","","4.8","","99.12","","","","-34","","Blowing Snow"
"-94.97","74.72","RESOLUTE BAY A","2403498","2020-10-26 21:00","2020","10","26","21:00","-18.7","","-21.6","","78","","","","4","","49","","4.8","","99.13","","","","-34","","Ice Crystals,Blowing Snow"
"-94.97","74.72","RESOLUTE BAY A","2403498","2020-10-26 22:00","2020","10","26","22:00","-17.9","","-20.7","","79","","","","3","","49","","4.0","","99.14","","","","-32","","Ice Crystals,Blowing Snow"
"-94.97","74.72","RESOLUTE BAY A","2403498","2020-10-26 23:00","2020","10","26","23:00","-17.8","","-20.7","","79","","","","4","","48","","4.0","","99.12","","","","-32","","Ice Crystals,Blowing Snow"
"-94.97","74.72","RESOLUTE BAY A","2403498","2020-10-27 00:00","2020","10","27","00:00","-18.7","","-21.8","","77","","","","3","","49","","6.4","","99.16","","","","-34","","Ice Crystals,Blowing Snow"
"-94.97","74.72","RESOLUTE BAY A","2403498","2020-10-27 01:00","2020","10","27","01:00","-19.8","","-22.9","","76","","","","4","","50","","4.8","","99.17","","","","-35","","Ice Crystals,Blowing Snow"
"-94.97","74.72","RESOLUTE BAY A","2403498","2020-10-27 02:00","2020","10","27","02:00","-19.8","","-22.8","","78","","","","3","","45","","4.8","","99.20","","","","-35","","Ice Crystals,Blowing Snow"
"-94.97","74.72","RESOLUTE BAY A","2403498","2020-10-27 03:00","2020","10","27","03:00","-19.9","","-23.1","","76","","","","4","","48","","4.0","","99.21","","","","-35","","Ice Crystals,Blowing Snow"
"-94.97","74.72","RESOLUTE BAY A","2403498","2020-10-27 04:00","2020","10","27","04:00","-20.0","","-23.0","","77","","","","4","","49","","3.2","","99.25","","","","-35","","Ice Crystals,Blowing Snow"
"-94.97","74.72","RESOLUTE BAY A","2403498","2020-10-27 05:00","2020","10","27","05:00","-19.6","","-22.7","","77","","","","4","","45","","4.8","","99.28","","","","-34","","Ice Crystals,Blowing Snow"
"-94.97","74.72","RESOLUTE BAY A","2403498","2020-10-27 06:00","2020","10","27","06:00","-18.1","","-20.9","","79","","","","4","","45","","4.8","","99.28","","","","-32","","Ice Crystals,Blowing Snow"
"-94.97","74.72","RESOLUTE BAY A","2403498","2020-10-27 07:00","2020","10","27","07:00","-17.9","","-20.6","","79","","","","2","","39","","8.1","","99.30","","","","-31","","Ice Crystals,Blowing Snow"
"-94.97","74.72","RESOLUTE BAY A","2403498","2020-10-27 08:00","2020","10","27","08:00","-16.8","","-19.6","","80","","","","4","","44","","12.9","","99.33","","","","-30","","Ice Crystals,Blowing Snow"
"-94.97","74.72","RESOLUTE BAY A","2403498","2020-10-27 09:00","2020","10","27","09:00","-15.9","","-18.6","","80","","","","4","","52","","4.8","","99.33","","","","-30","","Ice Crystals,Blowing Snow"
"-94.97","74.72","RESOLUTE BAY A","2403498","2020-10-27 10:00","2020","10","27","10:00","-16.7","","-19.9","","76","","","","3","","49","","6.4","","99.32","","","","-31","","Ice Crystals,Blowing Snow"
"-94.97","74.72","RESOLUTE BAY A","2403498","2020-10-27 11:00","2020","10","27","11:00","-13.8","","-16.9","","78","","","","32","","4","","6.4","","99.41","","","","-17","","Ice Crystals,Blowing Snow"
"-94.97","74.72","RESOLUTE BAY A","2403498","2020-10-27 12:00","2020","10","27","12:00","-16.4","","-19.8","","76","","","","3","","34","","12.9","","99.44","","","","-28","","Mostly Cloudy"
"-94.97","74.72","RESOLUTE BAY A","2403498","2020-10-27 13:00","2020","10","27","13:00","-16.2","","-19.4","","76","","","","4","","43","","11.3","","99.48","","","","-29","","Blowing Snow"
"-94.97","74.72","RESOLUTE BAY A","2403498","2020-10-27 14:00","2020","10","27","14:00","-14.3","","-17.9","","75","","","","5","","36","","24.1","","99.52","","","","-26","","Blowing Snow"
"-94.97","74.72","RESOLUTE BAY A","2403498","2020-10-27 15:00","2020","10","27","15:00","-14.0","","-18.2","","71","","","","4","","30","","24.1","","99.50","","","","-25","","Cloudy"
"-94.97","74.72","RESOLUTE BAY A","2403498","2020-10-27 16:00","2020","10","27","16:00","-15.0","","-18.5","","75","","","","4","","35","","24.1","","99.53","","","","-27","","Blowing Snow"
"-94.97","74.72","RESOLUTE BAY A","2403498","2020-10-27 17:00","2020","10","27","17:00","-17.2","","-20.4","","77","","","","4","","41","","24.1","","99.54","","","","-31","","Blowing Snow"
"-94.97","74.72","RESOLUTE BAY A","2403498","2020-10-27 18:00","2020","10","27","18:00","-15.4","","-18.7","","77","","","","4","","39","","24.1","","99.56","","","","-28","","Blowing Snow"
"-94.97","74.72","RESOLUTE BAY A","2403498","2020-10-27 19:00","2020","10","27","19:00","-17.2","","-20.2","","77","","","","31","","7","","24.1","","99.63","","","","-22","","NA"
"-94.97","74.72","RESOLUTE BAY A","2403498","2020-10-27 20:00","2020","10","27","20:00","-17.4","","-20.5","","77","","","","27","","6","","24.1","","99.64","","","","-22","","NA"
"-94.97","74.72","RESOLUTE BAY A","2403498","2020-10-27 21:00","2020","10","27","21:00","-17.3","","-20.1","","79","","","","1","","13","","24.1","","99.63","","","","-25","","Mainly Clear"
"-94.97","74.72","RESOLUTE BAY A","2403498","2020-10-27 22:00","2020","10","27","22:00","-17.8","","-20.4","","80","","","","35","","16","","24.1","","99.62","","","","-27","","Ice Crystals"
"-94.97","74.72","RESOLUTE BAY A","2403498","2020-10-27 23:00","2020","10","27","23:00","-16.7","","-19.6","","78","","","","3","","17","","24.1","","99.63","","","","-26","","Ice Crystals"
"-94.97","74.72","RESOLUTE BAY A","2403498","2020-10-28 00:00","2020","10","28","00:00","-16.3","","-18.9","","80","","","","5","","19","","24.1","","99.63","","","","-26","","Mainly Clear"
"-94.97","74.72","RESOLUTE BAY A","2403498","2020-10-28 01:00","2020","10","28","01:00","-20.3","","-23.0","","79","","","","2","","5","","24.1","","99.65","","","","-25","","Ice Crystals"
"-94.97","74.72","RESOLUTE BAY A","2403498","2020-10-28 02:00","2020","10","28","02:00","-20.5","","-22.8","","82","","","","35","","8","","24.1","","99.66","","","","-27","","Ice Crystals"
"-94.97","74.72","RESOLUTE BAY A","2403498","2020-10-28 03:00","2020","10","28","03:00","-19.0","","-21.2","","83","","","","29","","4","","24.1","","99.67","","","","-22","","Ice Crystals"
"-94.97","74.72","RESOLUTE BAY A","2403498","2020-10-28 04:00","2020","10","28","04:00","-19.9","","-22.1","","83","","","","34","","5","","24.1","","99.67","","","","-24","","Ice Crystals"
"-94.97","74.72","RESOLUTE BAY A","2403498","2020-10-28 05:00","2020","10","28","05:00","-19.3","","-21.5","","83","","","","32","","8","","24.1","","99.69","","","","-25","","Ice Crystals"
"-94.97","74.72","RESOLUTE BAY A","2403498","2020-10-28 06:00","2020","10","28","06:00","-18.5","","-20.9","","82","","","","34","","7","","24.1","","99.68","","","","-24","","Ice Crystals"
"-94.97","74.72","RESOLUTE BAY A","2403498","2020-10-28 07:00","2020","10","28","07:00","-18.4","","-20.9","","81","","","","2","","16","","24.1","","99.68","","","","-27","","Ice Crystals"
"-94.97","74.72","RESOLUTE BAY A","2403498","2020-10-28 08:00","2020","10","28","08:00","-17.7","","-20.2","","81","","","","36","","10","","24.1","","99.67","","","","-24","","Ice Crystals"
"-94.97","74.72","RESOLUTE BAY A","2403498","2020-10-28 09:00","2020","10","28","09:00","-16.9","","-19.2","","82","","","","2","","13","","24.1","","99.67","","","","-25","","Ice Crystals"
"-94.97","74.72","RESOLUTE BAY A","2403498","2020-10-28 10:00","2020","10","28","10:00","-17.4","","-19.7","","82","","","","33","","7","","24.1","","99.67","","","","-23","","Ice Crystals"
"-94.97","74.72","RESOLUTE BAY A","2403498","2020-10-28 11:00","2020","10","28","11:00","-16.4","","-18.6","","83","","","","36","","7","","16.1","","99.67","","","","-21","","Ice Crystals"
"-94.97","74.72","RESOLUTE BAY A","2403498","2020-10-28 12:00","2020","10","28","12:00","-16.8","","-19.1","","83","","","","1","","10","","24.1","","99.66","","","","-23","","Ice Crystals"
"-94.97","74.72","RESOLUTE BAY A","2403498","2020-10-28 13:00","2020","10","28","13:00","-16.6","","-18.7","","84","","","","1","","7","","24.1","","99.67","","","","-22","","Ice Crystals"
"-94.97","74.72","RESOLUTE BAY A","2403498","2020-10-28 14:00","2020","10","28","14:00","-16.4","","-18.6","","84","","","","36","","7","","24.1","","99.69","","","","-21","","Ice Crystals"
"-94.97","74.72","RESOLUTE BAY A","2403498","2020-10-28 15:00","2020","10","28","15:00","-16.2","","-18.4","","83","","","","2","","5","","24.1","","99.71","","","","-20","","Snow"
"-94.97","74.72","RESOLUTE BAY A","2403498","2020-10-28 16:00","2020","10","28","16:00","-14.8","","-16.9","","84","","","","9","","4","","24.1","","99.70","","","","-18","","Snow"
"-94.97","74.72","RESOLUTE BAY A","2403498","2020-10-28 17:00","2020","10","28","17:00","-14.8","","-17.0","","84","","","","12","","7","","24.1","","99.71","","","","-20","","Snow"
"-94.97","74.72","RESOLUTE BAY A","2403498","2020-10-28 18:00","2020","10","28","18:00","-14.7","","-16.8","","84","","","","14","","7","","8.1","","99.71","","","","-19","","Snow"
"-94.97","74.72","RESOLUTE BAY A","2403498","2020-10-28 19:00","2020","10","28","19:00","-14.2","","-16.3","","84","","","","13","","8","","8.1","","99.69","","","","-19","","Snow"
"-94.97","74.72","RESOLUTE BAY A","2403498","2020-10-28 20:00","2020","10","28","20:00","-14.1","","-16.2","","84","","","","14","","5","","16.1","","99.69","","","","-18","","Snow"
"-94.97","74.72","RESOLUTE BAY A","2403498","2020-10-28 21:00","2020","10","28","21:00","-15.0","","-17.2","","84","","","","11","","8","","24.1","","99.68","","","","-20","","Snow"
"-94.97","74.72","RESOLUTE BAY A","2403498","2020-10-28 22:00","2020","10","28","22:00","-14.4","","-16.5","","84","","","","14","","9","","24.1","","99.67","","","","-20","","Snow"
"-94.97","74.72","RESOLUTE BAY A","2403498","2020-10-28 23:00","2020","10","28","23:00","-14.0","","-16.1","","84","","","","13","","4","","24.1","","99.67","","","","-17","","Snow"
"-94.97","74.72","RESOLUTE BAY A","2403498","2020-10-29 00:00","2020","10","29","00:00","-14.0","","-16.1","","84","","","","10","","9","","11.3","","99.67","","","","-20","","Snow"
"-94.97","74.72","RESOLUTE BAY A","2403498","2020-10-29 01:00","2020","10","29","01:00","-14.0","","-16.0","","85","","","","12","","8","","12.9","","99.67","","","","-19","","Snow"
"-94.97","74.72","RESOLUTE BAY A","2403498","2020-10-29 02:00","2020","10","29","02:00","-14.1","","-16.2","","84","","","","11","","9","","14.5","","99.69","","","","-20","","Snow"
"-94.97","74.72","RESOLUTE BAY A","2403498","2020-10-29 03:00","2020","10","29","03:00","-15.5","","-17.8","","83","","","","36","","3","","24.1","","99.70","","","","-18","","Snow"
"-94.97","74.72","RESOLUTE BAY A","2403498","2020-10-29 04:00","2020","10","29","04:00","-14.3","","-16.4","","84","","","","36","","2","","16.1","","99.70","","","","-16","","Snow"
"-94.97","74.72","RESOLUTE BAY A","2403498","2020-10-29 05:00","2020","10","29","05:00","-14.8","","-17.0","","84","","","","0","","1","","16.1","","99.71","","","","-16","","Snow"
"-94.97","74.72","RESOLUTE BAY A","2403498","2020-10-29 06:00","2020","10","29","06:00","-15.9","","-18.2","","83","","","","35","","5","","24.1","","99.71","","","","-20","","Snow"
"-94.97","74.72","RESOLUTE BAY A","2403498","2020-10-29 07:00","2020","10","29","07:00","-14.1","","-16.2","","84","","","","3","","4","","24.1","","99.70","","","","-17","","Snow"
"-94.97","74.72","RESOLUTE BAY A","2403498","2020-10-29 08:00","2020","10","29","08:00","-15.1","","-17.2","","84","","","","29","","4","","24.1","","99.71","","","","-18","","Snow"
"-94.97","74.72","RESOLUTE BAY A","2403498","2020-10-29 09:00","2020","10","29","09:00","-15.3","","-17.6","","83","","","","34","","4","","19.3","","99.71","","","","-18","","Snow"
"-94.97","74.72","RESOLUTE BAY A","2403498","2020-10-29 10:00","2020","10","29","10:00","-14.8","","-16.9","","84","","","","34","","8","","19.3","","99.70","","","","-20","","Snow"
"-94.97","74.72","RESOLUTE BAY A","2403498","2020-10-29 11:00","2020","10","29","11:00","-14.2","","-16.4","","84","","","","35","","9","","19.3","","99.70","","","","-20","","Snow"
"-94.97","74.72","RESOLUTE BAY A","2403498","2020-10-29 12:00","2020","10","29","12:00","-14.9","","-17.1","","83","","","","36","","11","","19.3","","99.70","","","","-21","","Snow"
"-94.97","74.72","RESOLUTE BAY A","2403498","2020-10-29 13:00","2020","10","29","13:00","-15.7","","-18.0","","83","","","","1","","15","","24.1","","99.71","","","","-24","","Snow"
"-94.97","74.72","RESOLUTE BAY A","2403498","2020-10-29 14:00","2020","10","29","14:00","-14.8","","-17.0","","84","","","","36","","15","","24.1","","99.72","","","","-23","","Snow"
"-94.97","74.72","RESOLUTE BAY A","2403498","2020-10-29 15:00","2020","10","29","15:00","-14.9","","-17.1","","84","","","","2","","14","","24.1","","99.72","","","","-22","","Snow"
"-94.97","74.72","RESOLUTE BAY A","2403498","2020-10-29 16:00","2020","10","29","16:00","-14.3","","-16.4","","84","","","","36","","15","","24.1","","99.73","","","","-22","","Snow"
"-94.97","74.72","RESOLUTE BAY A","2403498","2020-10-29 17:00","2020","10","29","17:00","-15.2","","-17.4","","83","","","","2","","16","","24.1","","99.73","","","","-23","","Snow"
"-94.97","74.72","RESOLUTE BAY A","2403498","2020-10-29 18:00","2020","10","29","18:00","-14.2","","-16.3","","84","","","","4","","4","","24.1","","99.73","","","","-17","","Snow"
"-94.97","74.72","RESOLUTE BAY A","2403498","2020-10-29 19:00","2020","10","29","19:00","-14.1","","-16.2","","85","","","","1","","12","","24.1","","99.72","","","","-21","","Snow"
"-94.97","74.72","RESOLUTE BAY A","2403498","2020-10-29 20:00","2020","10","29","20:00","-15.1","","-17.3","","83","","","","35","","11","","24.1","","99.69","","","","-22","","Snow"
"-94.97","74.72","RESOLUTE BAY A","2403498","2020-10-29 21:00","2020","10","29","21:00","-14.9","","-17.2","","83","","","","31","","9","","24.1","","99.68","","","","-21","","Snow"
"-94.97","74.72","RESOLUTE BAY A","2403498","2020-10-29 22:00","2020","10","29","22:00","-14.8","","-16.9","","84","","","","34","","10","","24.1","","99.68","","","","-21","","Snow"
"-94.97","74.72","RESOLUTE BAY A","2403498","2020-10-29 23:00","2020","10","29","23:00","-14.7","","-16.8","","84","","","","34","","10","","24.1","","99.68","","","","-21","","Snow"
"-94.97","74.72","RESOLUTE BAY A","2403498","2020-10-30 00:00","2020","10","30","00:00","-14.8","","-16.9","","84","","","","36","","9","","24.1","","99.69","","","","-21","","Snow"
"-94.97","74.72","RESOLUTE BAY A","2403498","2020-10-30 01:00","2020","10","30","01:00","-14.8","","-16.9","","84","","","","1","","10","","24.1","","99.68","","","","-21","","Snow"
"-94.97","74.72","RESOLUTE BAY A","2403498","2020-10-30 02:00","2020","10","30","02:00","-14.8","","-17.0","","84","","","","2","","16","","24.1","","99.68","","","","-23","","Snow"
"-94.97","74.72","RESOLUTE BAY A","2403498","2020-10-30 03:00","2020","10","30","03:00","-14.8","","-16.9","","84","","","","2","","13","","40.2","","99.69","","","","-22","","Snow"
"-94.97","74.72","RESOLUTE BAY A","2403498","2020-10-30 04:00","2020","10","30","04:00","-14.8","","-16.9","","84","","","","1","","14","","40.2","","99.70","","","","-22","","Snow"
"-94.97","74.72","RESOLUTE BAY A","2403498","2020-10-30 05:00","2020","10","30","05:00","-14.8","","-17.0","","84","","","","34","","7","","40.2","","99.70","","","","-20","","Snow"
"-94.97","74.72","RESOLUTE BAY A","2403498","2020-10-30 06:00","2020","10","30","06:00","-15.0","","-17.1","","84","","","","34","","9","","40.2","","99.69","","","","-21","","Snow"
"-94.97","74.72","RESOLUTE BAY A","2403498","2020-10-30 07:00","2020","10","30","07:00","-16.4","","-18.8","","82","","","","31","","10","","32.2","","99.68","","","","-23","","Snow"
"-94.97","74.72","RESOLUTE BAY A","2403498","2020-10-30 08:00","2020","10","30","08:00","-16.9","","-19.4","","82","","","","26","","8","","32.2","","99.68","","","","-23","","Snow"
"-94.97","74.72","RESOLUTE BAY A","2403498","2020-10-30 09:00","2020","10","30","09:00","-15.0","","-17.2","","84","","","","36","","7","","32.2","","99.67","","","","-20","","Snow"
"-94.97","74.72","RESOLUTE BAY A","2403498","2020-10-30 10:00","2020","10","30","10:00","-18.2","","-20.8","","80","","","","34","","9","","24.1","","99.70","","","","-25","","Snow"
"-94.97","74.72","RESOLUTE BAY A","2403498","2020-10-30 11:00","2020","10","30","11:00","-20.3","","-23.0","","79","","","","29","","7","","32.2","","99.70","","","","-26","","Snow"
"-94.97","74.72","RESOLUTE BAY A","2403498","2020-10-30 12:00","2020","10","30","12:00","-20.6","","-23.4","","79","","","","31","","13","","32.2","","99.70","","","","-29","","Snow"
"-94.97","74.72","RESOLUTE BAY A","2403498","2020-10-30 13:00","2020","10","30","13:00","-20.4","","-23.1","","79","","","","32","","14","","32.2","","99.72","","","","-29","","NA"
"-94.97","74.72","RESOLUTE BAY A","2403498","2020-10-30 14:00","2020","10","30","14:00","-20.0","","-22.8","","79","","","","32","","15","","4.0","","99.74","","","","-29","","Fog"
"-94.97","74.72","RESOLUTE BAY A","2403498","2020-10-30 15:00","2020","10","30","15:00","-19.7","","-22.4","","79","","","","33","","17","","1.0","","99.76","","","","-29","","Fog"
"-94.97","74.72","RESOLUTE BAY A","2403498","2020-10-30 16:00","2020","10","30","16:00","-21.1","","-24.0","","78","","","","33","","5","","0.6","","99.78","","","","-26","","Ice Crystals,Freezing Fog"
"-94.97","74.72","RESOLUTE BAY A","2403498","2020-10-30 17:00","2020","10","30","17:00","-20.4","","-23.1","","79","","","","34","","15","","1.0","","99.77","","","","-30","","Ice Crystals,Fog"
"-94.97","74.72","RESOLUTE BAY A","2403498","2020-10-30 18:00","2020","10","30","18:00","-19.7","","-22.4","","79","","","","35","","12","","1.0","","99.78","","","","-28","","Ice Crystals,Fog"
"-94.97","74.72","RESOLUTE BAY A","2403498","2020-10-30 19:00","2020","10","30","19:00","-20.4","","-23.2","","79","","","","36","","16","","1.0","","99.78","","","","-30","","Ice Crystals,Fog"
"-94.97","74.72","RESOLUTE BAY A","2403498","2020-10-30 20:00","2020","10","30","20:00","-19.6","","-22.3","","79","","","","36","","13","","9.7","","99.79","","","","-28","","Ice Crystals,Fog"
"-94.97","74.72","RESOLUTE BAY A","2403498","2020-10-30 21:00","2020","10","30","21:00","-19.5","","-22.2","","79","","","","35","","5","","14.5","","99.78","","","","-24","","Ice Crystals"
"-94.97","74.72","RESOLUTE BAY A","2403498","2020-10-30 22:00","2020","10","30","22:00","-19.6","","-22.4","","79","","","","36","","2","","24.1","","99.79","","","","-21","","Ice Crystals"
"-94.97","74.72","RESOLUTE BAY A","2403498","2020-10-30 23:00","2020","10","30","23:00","-19.6","","-22.3","","79","","","","33","","16","","24.1","","99.81","","","","-29","","Ice Crystals"
"-94.97","74.72","RESOLUTE BAY A","2403498","2020-10-31 00:00","2020","10","31","00:00","-19.2","","-21.9","","80","","","","33","","13","","24.1","","99.83","","","","-27","","Snow"
"-94.97","74.72","RESOLUTE BAY A","2403498","2020-10-31 01:00","2020","10","31","01:00","-18.8","","-21.4","","80","","","","33","","15","","24.1","","99.87","","","","-28","","Snow"
"-94.97","74.72","RESOLUTE BAY A","2403498","2020-10-31 02:00","2020","10","31","02:00","-18.6","","-21.2","","80","","","","31","","15","","24.1","","99.91","","","","-27","","Snow"
"-94.97","74.72","RESOLUTE BAY A","2403498","2020-10-31 03:00","2020","10","31","03:00","-18.4","","-21.0","","80","","","","35","","21","","24.1","","99.91","","","","-29","","Snow"
"-94.97","74.72","RESOLUTE BAY A","2403498","2020-10-31 04:00","2020","10","31","04:00","-18.6","","-21.2","","80","","","","33","","23","","24.1","","99.94","","","","-29","","Snow"
"-94.97","74.72","RESOLUTE BAY A","2403498","2020-10-31 05:00","2020","10","31","05:00","-18.7","","-21.4","","80","","","","33","","20","","24.1","","99.95","","","","-29","","Snow"
"-94.97","74.72","RESOLUTE BAY A","2403498","2020-10-31 06:00","2020","10","31","06:00","-18.5","","-21.1","","80","","","","34","","21","","24.1","","99.97","","","","-29","","Snow"
"-94.97","74.72","RESOLUTE BAY A","2403498","2020-10-31 07:00","2020","10","31","07:00","-18.6","","-21.2","","80","","","","33","","17","","24.1","","99.99","","","","-28","","Snow"
"-94.97","74.72","RESOLUTE BAY A","2403498","2020-10-31 08:00","2020","10","31","08:00","-18.9","","-21.6","","80","","","","34","","17","","24.1","","99.99","","","","-28","","Snow"
"-94.97","74.72","RESOLUTE BAY A","2403498","2020-10-31 09:00","2020","10","31","09:00","-19.0","","-21.7","","80","","","","34","","24","","24.1","","100.01","","","","-30","","Snow"
"-94.97","74.72","RESOLUTE BAY A","2403498","2020-10-31 10:00","2020","10","31","10:00","-19.2","","-21.9","","80","","","","33","","22","","24.1","","100.05","","","","-30","","Snow"
"-94.97","74.72","RESOLUTE BAY A","2403498","2020-10-31 11:00","2020","10","31","11:00","-18.9","","-21.6","","80","","","","34","","28","","24.1","","100.06","","","","-31","","Snow"
"-94.97","74.72","RESOLUTE BAY A","2403498","2020-10-31 12:00","2020","10","31","12:00","-17.8","","-20.3","","81","","","","34","","21","","24.1","","100.07","","","","-28","","Snow"
"-94.97","74.72","RESOLUTE BAY A","2403498","2020-10-31 13:00","2020","10","31","13:00","-17.6","","-20.1","","81","","","","34","","18","","24.1","","100.08","","","","-27","","Snow"
"-94.97","74.72","RESOLUTE BAY A","2403498","2020-10-31 14:00","2020","10","31","14:00","-17.1","","-19.5","","82","","","","34","","17","","19.3","","100.10","","","","-26","","Snow"
"-94.97","74.72","RESOLUTE BAY A","2403498","2020-10-31 15:00","2020","10","31","15:00","-16.6","","-19.0","","82","","","","34","","16","","19.3","","100.11","","","","-25","","Snow"
"-94.97","74.72","RESOLUTE BAY A","2403498","2020-10-31 16:00","2020","10","31","16:00","-16.2","","-18.6","","82","","","","34","","15","","19.3","","100.10","","","","-24","","Snow"
"-94.97","74.72","RESOLUTE BAY A","2403498","2020-10-31 17:00","2020","10","31","17:00","-16.6","","-19.0","","82","","","","34","","16","","24.1","","100.10","","","","-25","","Snow"
"-94.97","74.72","RESOLUTE BAY A","2403498","2020-10-31 18:00","2020","10","31","18:00","-16.3","","-18.6","","82","","","","34","","15","","19.3","","100.10","","","","-25","","Snow"
"-94.97","74.72","RESOLUTE BAY A","2403498","2020-10-31 19:00","2020","10","31","19:00","-16.6","","-19.0","","82","","","","34","","16","","24.1","","100.10","","","","-25","","Snow"
"-94.97","74.72","RESOLUTE BAY A","2403498","2020-10-31 20:00","2020","10","31","20:00","-16.7","","-19.1","","82","","","","34","","18","","24.1","","100.12","","","","-26","","Snow"
"-94.97","74.72","RESOLUTE BAY A","2403498","2020-10-31 21:00","2020","10","31","21:00","-16.3","","-18.7","","82","","","","33","","16","","24.1","","100.10","","","","-25","","Snow"
"-94.97","74.72","RESOLUTE BAY A","2403498","2020-10-31 22:00","2020","10","31","22:00","-17.0","","-19.5","","82","","","","34","","16","","32.2","","100.12","","","","-26","","Snow"
"-94.97","74.72","RESOLUTE BAY A","2403498","2020-10-31 23:00","2020","10","31","23:00","-17.5","","-19.9","","81","","","","36","","18","","32.2","","100.10","","","","-27","","Snow"
