"Longitude (x)","Latitude (y)","Station Name","Climate ID","Date/Time (LST)","Year","Month","Day","Time (LST)","Temp (°C)","Temp Flag","Dew Point Temp (°C)","Dew Point Temp Flag","Rel Hum (%)","Rel Hum Flag","Precip. Amount (mm)","Precip. Amount Flag","Wind Dir (10s deg)","Wind Dir Flag","Wind Spd (km/h)","Wind Spd Flag","Visibility (km)","Visibility Flag","Stn Press (kPa)","Stn Press Flag","Hmdx","Hmdx Flag","Wind Chill","Wind Chill Flag","Weather"
"-94.97","74.72","RESOLUTE BAY A","2403498","2020-01-01 00:00","2020","01","01","00:00","-33.0","","-36.5","","71","","","","14","","18","","6.4","","99.81","","","","-46","","Ice Crystals"
"-94.97","74.72","RESOLUTE BAY A","2403498","2020-01-01 01:00","2020","01","01","01:00","-32.6","","-36.1","","71","","","","14","","18","","9.7","","99.78","","","","-46","","Ice Crystals"
"-94.97","74.72","RESOLUTE BAY A","2403498","2020-01-01 02:00","2020","01","01","02:00","-32.9","","-36.4","","71","","","","14","","15","","11.3","","99.78","","","","-45","","Ice Crystals"
"-94.97","74.72","RESOLUTE BAY A","2403498","2020-01-01 03:00","2020","01","01","03:00","-32.4","","-35.9","","71","","","","14","","13","","12.9","","99.77","","","","-44","","Ice Crystals"
"-94.97","74.72","RESOLUTE BAY A","2403498","2020-01-01 04:00","2020","01","01","04:00","-30.9","","-34.3","","72","","","","14","","22","","16.1","","99.69","","","","-45","","Ice Crystals"
"-94.97","74.72","RESOLUTE BAY A","2403498","2020-01-01 05:00","2020","01","01","05:00","-30.4","","-33.8","","73","","","","14","","15","","24.1","","99.68","","","","-42","","Ice Crystals"
"-94.97","74.72","RESOLUTE BAY A","2403498","2020-01-01 06:00","2020","01","01","06:00","-30.1","","-33.4","","73","","","","14","","18","","16.1","","99.66","","","","-43","","Ice Crystals"
"-94.97","74.72","RESOLUTE BAY A","2403498","2020-01-01 07:00","2020","01","01","07:00","-29.9","","-33.3","","73","","","","14","","22","","9.7","","99.61","","","","-44","","Snow"
"-94.97","74.72","RESOLUTE BAY A","2403498","2020-01-01 08:00","2020","01","01","08:00","-29.9","","-33.3","","73","","","","14","","24","","4.8","","99.58","","","","-44","","Snow"
"-94.97","74.72","RESOLUTE BAY A","2403498","2020-01-01 09:00","2020","01","01","09:00","","M","","M","","M","","","14","","18","","8.1","","","M","","","","","Snow"
"-94.97","74.72","RESOLUTE BAY A","2403498","2020-01-01 10:00","2020","01","01","10:00","","M","","M","","M","","","14","","15","","12.9","","","M","","","","","Snow"
"-94.97","74.72","RESOLUTE BAY A","2403498","2020-01-01 11:00","2020","01","01","11:00","-29.8","","-33.2","","73","","","","7","","17","","12.9","","99.54","","","","-42","","Snow"
"-94.97","74.72","RESOLUTE BAY A","2403498","2020-01-01 12:00","2020","01","01","12:00","-29.8","","-33.2","","73","","","","9","","18","","9.7","","99.53","","","","-42","","Snow"
"-94.97","74.72","RESOLUTE BAY A","2403498","2020-01-01 13:00","2020","01","01","13:00","-29.4","","-32.7","","73","","","","8","","14","","9.7","","99.51","","","","-40","","Snow"
"-94.97","74.72","RESOLUTE BAY A","2403498","2020-01-01 14:00","2020","01","01","14:00","-30.3","","-33.7","","73","","","","7","","23","","8.1","","99.53","","","","-44","","Snow"
"-94.97","74.72","RESOLUTE BAY A","2403498","2020-01-01 15:00","2020","01","01","15:00","-31.0","","-34.5","","72","","","","7","","32","","14.5","","99.56","","","","-47","","Ice Crystals,Blowing Snow"
"-94.97","74.72","RESOLUTE BAY A","2403498","2020-01-01 16:00","2020","01","01","16:00","-31.7","","-35.3","","72","","","","6","","39","","9.7","","99.55","","","","-50","","Ice Crystals,Blowing Snow"
"-94.97","74.72","RESOLUTE BAY A","2403498","2020-01-01 17:00","2020","01","01","17:00","-31.5","","-35.0","","72","","","","6","","46","","4.8","","99.56","","","","-50","","Ice Crystals,Blowing Snow"
"-94.97","74.72","RESOLUTE BAY A","2403498","2020-01-01 18:00","2020","01","01","18:00","-31.0","","-34.5","","72","","","","5","","38","","6.4","","99.56","","","","-48","","Ice Crystals,Blowing Snow"
"-94.97","74.72","RESOLUTE BAY A","2403498","2020-01-01 19:00","2020","01","01","19:00","-31.0","","-34.5","","72","","","","5","","46","","4.8","","99.58","","","","-50","","Ice Crystals,Blowing Snow"
"-94.97","74.72","RESOLUTE BAY A","2403498","2020-01-01 20:00","2020","01","01","20:00","-31.2","","-34.7","","72","","","","5","","43","","8.1","","99.60","","","","-50","","Ice Crystals,Blowing Snow"
"-94.97","74.72","RESOLUTE BAY A","2403498","2020-01-01 21:00","2020","01","01","21:00","-26.0","","-27.3","","89","","","","9","","52","","6.4","","99.62","","","","-44","","Ice Crystals,Blowing Snow"
"-94.97","74.72","RESOLUTE BAY A","2403498","2020-01-01 22:00","2020","01","01","22:00","-27.0","","-29.5","","80","","","","9","","54","","4.8","","99.65","","","","-45","","Ice Crystals,Blowing Snow"
"-94.97","74.72","RESOLUTE BAY A","2403498","2020-01-01 23:00","2020","01","01","23:00","-25.0","","-27.8","","78","","","","9","","54","","3.2","","99.72","","","","-43","","Ice Crystals,Blowing Snow"
"-94.97","74.72","RESOLUTE BAY A","2403498","2020-01-02 00:00","2020","01","02","00:00","-24.0","","-27.0","","77","","","","9","","58","","3.2","","99.77","","","","-42","","Ice Crystals,Blowing Snow"
"-94.97","74.72","RESOLUTE BAY A","2403498","2020-01-02 01:00","2020","01","02","01:00","-36.7","","-38.1","","87","","","","5","","59","","1.6","","99.82","","","","-59","","Ice Crystals,Blowing Snow"
"-94.97","74.72","RESOLUTE BAY A","2403498","2020-01-02 02:00","2020","01","02","02:00","-34.5","","-36.8","","80","","","","5","","58","","2.0","","99.93","","","","-56","","Ice Crystals,Blowing Snow"
"-94.97","74.72","RESOLUTE BAY A","2403498","2020-01-02 03:00","2020","01","02","03:00","-35.4","","-36.6","","89","","","","5","","55","","2.0","","100.03","","","","-57","","Ice Crystals,Blowing Snow"
"-94.97","74.72","RESOLUTE BAY A","2403498","2020-01-02 04:00","2020","01","02","04:00","-34.4","","-36.7","","80","","","","5","","55","","2.0","","100.07","","","","-56","","Ice Crystals,Blowing Snow"
"-94.97","74.72","RESOLUTE BAY A","2403498","2020-01-02 05:00","2020","01","02","05:00","-33.0","","-35.6","","78","","","","5","","54","","2.0","","100.18","","","","-54","","Ice Crystals,Blowing Snow"
"-94.97","74.72","RESOLUTE BAY A","2403498","2020-01-02 06:00","2020","01","02","06:00","-34.0","","-36.5","","79","","","","5","","50","","2.0","","100.33","","","","-54","","Ice Crystals,Blowing Snow"
"-94.97","74.72","RESOLUTE BAY A","2403498","2020-01-02 07:00","2020","01","02","07:00","-36.0","","-38.3","","80","","","","5","","48","","4.8","","100.34","","","","-57","","Ice Crystals,Blowing Snow"
"-94.97","74.72","RESOLUTE BAY A","2403498","2020-01-02 08:00","2020","01","02","08:00","-37.0","","-40.1","","74","","","","5","","52","","4.8","","100.40","","","","-59","","Ice Crystals,Blowing Snow"
"-94.97","74.72","RESOLUTE BAY A","2403498","2020-01-02 09:00","2020","01","02","09:00","-37.3","","-40.4","","74","","","","5","","28","","4.8","","100.46","","","","-55","","Blowing Snow"
"-94.97","74.72","RESOLUTE BAY A","2403498","2020-01-02 10:00","2020","01","02","10:00","-37.4","","-40.3","","74","","","","5","","28","","3.2","","100.52","","","","-55","","Blowing Snow"
"-94.97","74.72","RESOLUTE BAY A","2403498","2020-01-02 11:00","2020","01","02","11:00","-37.4","","-40.5","","74","","","","5","","37","","4.8","","100.60","","","","-57","","Blowing Snow"
"-94.97","74.72","RESOLUTE BAY A","2403498","2020-01-02 12:00","2020","01","02","12:00","-39.7","","-44.0","","65","","","","1","","52","","3.2","","100.56","","","","-63","","Blowing Snow"
"-94.97","74.72","RESOLUTE BAY A","2403498","2020-01-02 13:00","2020","01","02","13:00","-40.0","","-44.2","","65","","","","2","","40","","8.1","","100.69","","","","-61","","Blowing Snow"
"-94.97","74.72","RESOLUTE BAY A","2403498","2020-01-02 14:00","2020","01","02","14:00","-40.1","","-44.5","","64","","","","36","","18","","9.7","","100.76","","","","-55","","Blowing Snow"
"-94.97","74.72","RESOLUTE BAY A","2403498","2020-01-02 15:00","2020","01","02","15:00","-40.7","","-45.1","","64","","","","30","","7","","11.3","","100.81","","","","-50","","Ice Crystals"
"-94.97","74.72","RESOLUTE BAY A","2403498","2020-01-02 16:00","2020","01","02","16:00","-41.4","","-45.7","","64","","","","2","","6","","12.9","","100.85","","","","-50","","Ice Crystals"
"-94.97","74.72","RESOLUTE BAY A","2403498","2020-01-02 17:00","2020","01","02","17:00","-40.9","","-45.3","","64","","","","33","","21","","12.9","","100.88","","","","-57","","Ice Crystals"
"-94.97","74.72","RESOLUTE BAY A","2403498","2020-01-02 18:00","2020","01","02","18:00","-41.8","","-46.3","","63","","","","31","","18","","12.9","","100.90","","","","-57","","Ice Crystals"
"-94.97","74.72","RESOLUTE BAY A","2403498","2020-01-02 19:00","2020","01","02","19:00","-42.6","","-47.0","","63","","","","35","","25","","12.9","","100.92","","","","-61","","Ice Crystals"
"-94.97","74.72","RESOLUTE BAY A","2403498","2020-01-02 20:00","2020","01","02","20:00","-42.2","","-46.5","","64","","","","34","","19","","12.9","","100.94","","","","-58","","Ice Crystals"
"-94.97","74.72","RESOLUTE BAY A","2403498","2020-01-02 21:00","2020","01","02","21:00","-41.5","","-45.8","","65","","","","33","","21","","6.4","","100.94","","","","-58","","Ice Crystals"
"-94.97","74.72","RESOLUTE BAY A","2403498","2020-01-02 22:00","2020","01","02","22:00","-41.1","","-45.3","","65","","","","34","","22","","4.8","","100.92","","","","-58","","Ice Crystals"
"-94.97","74.72","RESOLUTE BAY A","2403498","2020-01-02 23:00","2020","01","02","23:00","-41.5","","-45.7","","65","","","","33","","19","","4.8","","100.93","","","","-57","","Ice Crystals,Fog"
"-94.97","74.72","RESOLUTE BAY A","2403498","2020-01-03 00:00","2020","01","03","00:00","-40.0","","-44.1","","66","","","","33","","18","","4.8","","100.92","","","","-55","","Ice Crystals,Fog"
"-94.97","74.72","RESOLUTE BAY A","2403498","2020-01-03 01:00","2020","01","03","01:00","-38.0","","-42.0","","67","","","","34","","24","","8.1","","100.90","","","","-54","","Ice Crystals,Fog"
"-94.97","74.72","RESOLUTE BAY A","2403498","2020-01-03 02:00","2020","01","03","02:00","-36.2","","-40.1","","68","","","","31","","21","","8.1","","100.87","","","","-51","","Ice Crystals"
"-94.97","74.72","RESOLUTE BAY A","2403498","2020-01-03 03:00","2020","01","03","03:00","-35.7","","-39.5","","69","","","","31","","16","","8.1","","100.84","","","","-49","","Ice Crystals"
"-94.97","74.72","RESOLUTE BAY A","2403498","2020-01-03 04:00","2020","01","03","04:00","-34.1","","-37.9","","70","","","","28","","30","","4.8","","100.78","","","","-51","","Snow,Blowing Snow"
"-94.97","74.72","RESOLUTE BAY A","2403498","2020-01-03 05:00","2020","01","03","05:00","-34.0","","-37.8","","70","","","","28","","31","","4.8","","100.66","","","","-51","","Snow,Blowing Snow"
"-94.97","74.72","RESOLUTE BAY A","2403498","2020-01-03 06:00","2020","01","03","06:00","-34.7","","-38.5","","69","","","","27","","28","","1.0","","100.56","","","","-51","","Snow,Blowing Snow"
"-94.97","74.72","RESOLUTE BAY A","2403498","2020-01-03 07:00","2020","01","03","07:00","-34.3","","-38.1","","70","","","","27","","40","","0.8","","100.40","","","","-53","","Snow,Blowing Snow"
"-94.97","74.72","RESOLUTE BAY A","2403498","2020-01-03 08:00","2020","01","03","08:00","-33.5","","-37.2","","70","","","","27","","48","","0.6","","100.29","","","","-54","","Snow,Blowing Snow"
"-94.97","74.72","RESOLUTE BAY A","2403498","2020-01-03 09:00","2020","01","03","09:00","-33.5","","-37.2","","70","","","","27","","37","","0.6","","100.26","","","","-52","","Snow,Blowing Snow"
"-94.97","74.72","RESOLUTE BAY A","2403498","2020-01-03 10:00","2020","01","03","10:00","-32.6","","-36.3","","71","","","","29","","41","","0.8","","100.20","","","","-51","","Snow,Blowing Snow"
"-94.97","74.72","RESOLUTE BAY A","2403498","2020-01-03 11:00","2020","01","03","11:00","-32.9","","-36.6","","70","","","","30","","44","","0.8","","100.15","","","","-52","","Snow,Blowing Snow"
"-94.97","74.72","RESOLUTE BAY A","2403498","2020-01-03 12:00","2020","01","03","12:00","-33.7","","-37.4","","70","","","","31","","40","","0.8","","100.15","","","","-52","","Snow,Blowing Snow"
"-94.97","74.72","RESOLUTE BAY A","2403498","2020-01-03 13:00","2020","01","03","13:00","-34.2","","-38.0","","69","","","","31","","36","","1.0","","100.16","","","","-52","","Snow,Blowing Snow"
"-94.97","74.72","RESOLUTE BAY A","2403498","2020-01-03 14:00","2020","01","03","14:00","-34.1","","-37.8","","70","","","","31","","45","","1.0","","100.18","","","","-54","","Snow,Blowing Snow"
"-94.97","74.72","RESOLUTE BAY A","2403498","2020-01-03 15:00","2020","01","03","15:00","-34.2","","-38.0","","69","","","","30","","30","","1.0","","100.29","","","","-51","","Snow,Blowing Snow"
"-94.97","74.72","RESOLUTE BAY A","2403498","2020-01-03 16:00","2020","01","03","16:00","-35.1","","-39.0","","69","","","","32","","34","","2.8","","100.32","","","","-53","","Snow,Blowing Snow"
"-94.97","74.72","RESOLUTE BAY A","2403498","2020-01-03 17:00","2020","01","03","17:00","-37.7","","-41.7","","67","","","","34","","28","","2.8","","100.36","","","","-55","","Snow,Blowing Snow"
"-94.97","74.72","RESOLUTE BAY A","2403498","2020-01-03 18:00","2020","01","03","18:00","-39.1","","-43.3","","66","","","","33","","26","","11.3","","100.44","","","","-56","","Ice Crystals,Blowing Snow"
"-94.97","74.72","RESOLUTE BAY A","2403498","2020-01-03 19:00","2020","01","03","19:00","-40.1","","-44.3","","65","","","","36","","24","","12.9","","100.48","","","","-57","","Ice Crystals"
"-94.97","74.72","RESOLUTE BAY A","2403498","2020-01-03 20:00","2020","01","03","20:00","-40.9","","-45.2","","64","","","","33","","30","","11.3","","100.52","","","","-60","","Ice Crystals,Blowing Snow"
"-94.97","74.72","RESOLUTE BAY A","2403498","2020-01-03 21:00","2020","01","03","21:00","-39.8","","-44.2","","64","","","","35","","31","","12.9","","100.60","","","","-59","","Ice Crystals,Blowing Snow"
"-94.97","74.72","RESOLUTE BAY A","2403498","2020-01-03 22:00","2020","01","03","22:00","-39.9","","-44.2","","65","","","","35","","28","","16.1","","100.65","","","","-58","","Ice Crystals"
"-94.97","74.72","RESOLUTE BAY A","2403498","2020-01-03 23:00","2020","01","03","23:00","-41.4","","-45.7","","64","","","","34","","10","","24.1","","100.73","","","","-53","","Ice Crystals"
"-94.97","74.72","RESOLUTE BAY A","2403498","2020-01-04 00:00","2020","01","04","00:00","-41.4","","-45.7","","65","","","","32","","14","","16.1","","100.71","","","","-55","","Clear"
"-94.97","74.72","RESOLUTE BAY A","2403498","2020-01-04 01:00","2020","01","04","01:00","-42.0","","-46.3","","64","","","","32","","16","","8.1","","100.76","","","","-57","","Fog"
"-94.97","74.72","RESOLUTE BAY A","2403498","2020-01-04 02:00","2020","01","04","02:00","-41.6","","-45.9","","65","","","","34","","21","","4.8","","100.79","","","","-58","","Fog"
"-94.97","74.72","RESOLUTE BAY A","2403498","2020-01-04 03:00","2020","01","04","03:00","-39.5","","-43.7","","66","","","","33","","21","","11.3","","100.79","","","","-55","","Ice Crystals"
"-94.97","74.72","RESOLUTE BAY A","2403498","2020-01-04 04:00","2020","01","04","04:00","-40.1","","-44.2","","66","","","","33","","21","","6.4","","100.75","","","","-56","","Ice Crystals"
"-94.97","74.72","RESOLUTE BAY A","2403498","2020-01-04 05:00","2020","01","04","05:00","-39.0","","-43.1","","66","","","","33","","23","","4.8","","100.75","","","","-55","","Ice Crystals"
"-94.97","74.72","RESOLUTE BAY A","2403498","2020-01-04 06:00","2020","01","04","06:00","-38.3","","-42.3","","67","","","","34","","16","","4.8","","100.71","","","","-52","","Ice Crystals"
"-94.97","74.72","RESOLUTE BAY A","2403498","2020-01-04 07:00","2020","01","04","07:00","-38.6","","-42.7","","67","","","","33","","18","","4.0","","100.68","","","","-53","","Ice Crystals"
"-94.97","74.72","RESOLUTE BAY A","2403498","2020-01-04 08:00","2020","01","04","08:00","-39.7","","-43.8","","66","","","","33","","12","","6.4","","100.66","","","","-52","","Ice Crystals"
"-94.97","74.72","RESOLUTE BAY A","2403498","2020-01-04 09:00","2020","01","04","09:00","-39.2","","-43.3","","66","","","","34","","15","","8.1","","100.61","","","","-53","","Ice Crystals"
"-94.97","74.72","RESOLUTE BAY A","2403498","2020-01-04 10:00","2020","01","04","10:00","-38.4","","-42.4","","67","","","","32","","11","","6.4","","100.58","","","","-50","","Ice Crystals"
"-94.97","74.72","RESOLUTE BAY A","2403498","2020-01-04 11:00","2020","01","04","11:00","-37.9","","-41.9","","67","","","","31","","15","","9.7","","100.56","","","","-51","","Ice Crystals"
"-94.97","74.72","RESOLUTE BAY A","2403498","2020-01-04 12:00","2020","01","04","12:00","-37.3","","-41.2","","68","","","","33","","16","","8.1","","100.53","","","","-51","","Ice Crystals"
"-94.97","74.72","RESOLUTE BAY A","2403498","2020-01-04 13:00","2020","01","04","13:00","-36.3","","-40.2","","68","","","","32","","14","","12.9","","100.51","","","","-49","","Ice Crystals"
"-94.97","74.72","RESOLUTE BAY A","2403498","2020-01-04 14:00","2020","01","04","14:00","-35.9","","-39.8","","68","","","","33","","19","","11.3","","100.48","","","","-50","","Ice Crystals"
"-94.97","74.72","RESOLUTE BAY A","2403498","2020-01-04 15:00","2020","01","04","15:00","-35.0","","-38.9","","69","","","","33","","21","","12.9","","100.41","","","","-50","","Ice Crystals"
"-94.97","74.72","RESOLUTE BAY A","2403498","2020-01-04 16:00","2020","01","04","16:00","-35.5","","-39.4","","69","","","","33","","17","","11.3","","100.37","","","","-49","","Ice Crystals"
"-94.97","74.72","RESOLUTE BAY A","2403498","2020-01-04 17:00","2020","01","04","17:00","-34.4","","-38.2","","70","","","","33","","17","","11.3","","100.31","","","","-48","","Ice Crystals"
"-94.97","74.72","RESOLUTE BAY A","2403498","2020-01-04 18:00","2020","01","04","18:00","-36.0","","-39.9","","68","","","","32","","21","","12.9","","100.25","","","","-51","","Ice Crystals"
"-94.97","74.72","RESOLUTE BAY A","2403498","2020-01-04 19:00","2020","01","04","19:00","-36.5","","-40.5","","68","","","","33","","23","","9.7","","100.19","","","","-52","","Ice Crystals"
"-94.97","74.72","RESOLUTE BAY A","2403498","2020-01-04 20:00","2020","01","04","20:00","-36.5","","-40.4","","68","","","","31","","22","","12.9","","100.11","","","","-52","","Ice Crystals"
"-94.97","74.72","RESOLUTE BAY A","2403498","2020-01-04 21:00","2020","01","04","21:00","-34.8","","-38.5","","69","","","","31","","23","","9.7","","100.09","","","","-50","","Ice Crystals"
"-94.97","74.72","RESOLUTE BAY A","2403498","2020-01-04 22:00","2020","01","04","22:00","-34.4","","-38.2","","70","","","","32","","31","","4.8","","100.03","","","","-52","","Ice Crystals"
"-94.97","74.72","RESOLUTE BAY A","2403498","2020-01-04 23:00","2020","01","04","23:00","-33.9","","-37.7","","70","","","","33","","26","","6.4","","99.96","","","","-50","","Ice Crystals"
"-94.97","74.72","RESOLUTE BAY A","2403498","2020-01-05 00:00","2020","01","05","00:00","-33.4","","-37.0","","70","","","","31","","23","","8.1","","99.88","","","","-48","","Ice Crystals"
"-94.97","74.72","RESOLUTE BAY A","2403498","2020-01-05 01:00","2020","01","05","01:00","-33.4","","-37.1","","70","","","","33","","22","","11.3","","99.86","","","","-48","","Ice Crystals"
"-94.97","74.72","RESOLUTE BAY A","2403498","2020-01-05 02:00","2020","01","05","02:00","-32.9","","-36.5","","71","","","","31","","22","","9.7","","99.86","","","","-47","","Ice Crystals"
"-94.97","74.72","RESOLUTE BAY A","2403498","2020-01-05 03:00","2020","01","05","03:00","-32.2","","-35.7","","71","","","","31","","19","","12.9","","99.81","","","","-46","","Ice Crystals"
"-94.97","74.72","RESOLUTE BAY A","2403498","2020-01-05 04:00","2020","01","05","04:00","-32.0","","-35.6","","71","","","","32","","24","","14.5","","99.75","","","","-47","","Ice Crystals"
"-94.97","74.72","RESOLUTE BAY A","2403498","2020-01-05 05:00","2020","01","05","05:00","-33.2","","-36.9","","70","","","","32","","22","","8.1","","99.72","","","","-48","","Ice Crystals"
"-94.97","74.72","RESOLUTE BAY A","2403498","2020-01-05 06:00","2020","01","05","06:00","-33.5","","-37.1","","70","","","","31","","26","","9.7","","99.63","","","","-49","","Ice Crystals"
"-94.97","74.72","RESOLUTE BAY A","2403498","2020-01-05 07:00","2020","01","05","07:00","-33.5","","-37.2","","70","","","","31","","26","","16.1","","99.62","","","","-49","","Ice Crystals"
"-94.97","74.72","RESOLUTE BAY A","2403498","2020-01-05 08:00","2020","01","05","08:00","-34.0","","-37.8","","70","","","","31","","28","","16.1","","99.55","","","","-50","","Ice Crystals"
"-94.97","74.72","RESOLUTE BAY A","2403498","2020-01-05 09:00","2020","01","05","09:00","-34.4","","-38.2","","70","","","","32","","21","","16.1","","99.51","","","","-49","","Ice Crystals,Blowing Snow"
"-94.97","74.72","RESOLUTE BAY A","2403498","2020-01-05 10:00","2020","01","05","10:00","-34.5","","-38.2","","69","","","","32","","14","","16.1","","99.48","","","","-47","","Ice Crystals"
"-94.97","74.72","RESOLUTE BAY A","2403498","2020-01-05 11:00","2020","01","05","11:00"
"-94.97","74.72","RESOLUTE BAY A","2403498","2020-01-05 12:00","2020","01","05","12:00","-33.6","","-37.3","","70","","","","31","","20","","14.5","","99.40","","","","-48","","Ice Crystals,Blowing Snow"
"-94.97","74.72","RESOLUTE BAY A","2403498","2020-01-05 13:00","2020","01","05","13:00","-33.1","","-36.8","","71","","","","31","","34","","14.5","","99.37","","","","-51","","Ice Crystals,Blowing Snow"
"-94.97","74.72","RESOLUTE BAY A","2403498","2020-01-05 14:00","2020","01","05","14:00","-31.9","","-35.5","","71","","","","31","","33","","12.9","","99.31","","","","-49","","Ice Crystals,Blowing Snow"
"-94.97","74.72","RESOLUTE BAY A","2403498","2020-01-05 15:00","2020","01","05","15:00","-32.0","","-35.6","","71","","","","32","","31","","11.3","","99.30","","","","-48","","Ice Crystals,Blowing Snow"
"-94.97","74.72","RESOLUTE BAY A","2403498","2020-01-05 16:00","2020","01","05","16:00","-31.7","","-35.2","","72","","","","32","","36","","11.3","","99.27","","","","-49","","Ice Crystals,Blowing Snow"
"-94.97","74.72","RESOLUTE BAY A","2403498","2020-01-05 17:00","2020","01","05","17:00","-32.0","","-35.6","","71","","","","33","","41","","9.7","","99.21","","","","-50","","Ice Crystals,Blowing Snow"
"-94.97","74.72","RESOLUTE BAY A","2403498","2020-01-05 18:00","2020","01","05","18:00","-32.1","","-35.7","","71","","","","32","","37","","9.7","","99.20","","","","-50","","Ice Crystals,Blowing Snow"
"-94.97","74.72","RESOLUTE BAY A","2403498","2020-01-05 19:00","2020","01","05","19:00","-31.6","","-35.1","","72","","","","34","","43","","8.1","","99.19","","","","-50","","Ice Crystals,Blowing Snow"
"-94.97","74.72","RESOLUTE BAY A","2403498","2020-01-05 20:00","2020","01","05","20:00","-31.9","","-35.5","","71","","","","34","","23","","11.3","","99.19","","","","-46","","Ice Crystals,Blowing Snow"
"-94.97","74.72","RESOLUTE BAY A","2403498","2020-01-05 21:00","2020","01","05","21:00","-32.8","","-36.4","","71","","","","32","","18","","14.5","","99.15","","","","-46","","Ice Crystals,Blowing Snow"
"-94.97","74.72","RESOLUTE BAY A","2403498","2020-01-05 22:00","2020","01","05","22:00","-32.6","","-36.2","","71","","","","33","","41","","6.4","","99.10","","","","-51","","Ice Crystals,Blowing Snow"
"-94.97","74.72","RESOLUTE BAY A","2403498","2020-01-05 23:00","2020","01","05","23:00","-32.9","","-36.5","","71","","","","33","","18","","11.3","","99.14","","","","-46","","Ice Crystals"
"-94.97","74.72","RESOLUTE BAY A","2403498","2020-01-06 00:00","2020","01","06","00:00","-33.8","","-37.5","","70","","","","31","","28","","16.1","","99.14","","","","-50","","Ice Crystals"
"-94.97","74.72","RESOLUTE BAY A","2403498","2020-01-06 01:00","2020","01","06","01:00","-33.4","","-37.0","","70","","","","32","","37","","4.8","","99.10","","","","-51","","Ice Crystals"
"-94.97","74.72","RESOLUTE BAY A","2403498","2020-01-06 02:00","2020","01","06","02:00","-32.1","","-35.7","","71","","","","35","","43","","4.8","","99.06","","","","-51","","Ice Crystals,Blowing Snow"
"-94.97","74.72","RESOLUTE BAY A","2403498","2020-01-06 03:00","2020","01","06","03:00","-31.7","","-35.3","","72","","","","33","","46","","4.8","","99.11","","","","-51","","Ice Crystals,Blowing Snow"
"-94.97","74.72","RESOLUTE BAY A","2403498","2020-01-06 04:00","2020","01","06","04:00","-31.3","","-34.8","","72","","","","34","","37","","4.8","","99.12","","","","-49","","Snow,Blowing Snow"
"-94.97","74.72","RESOLUTE BAY A","2403498","2020-01-06 05:00","2020","01","06","05:00","-31.0","","-34.6","","72","","","","33","","24","","8.1","","99.13","","","","-45","","Snow"
"-94.97","74.72","RESOLUTE BAY A","2403498","2020-01-06 06:00","2020","01","06","06:00","-31.2","","-34.8","","71","","","","30","","15","","6.4","","99.11","","","","-43","","Snow"
"-94.97","74.72","RESOLUTE BAY A","2403498","2020-01-06 07:00","2020","01","06","07:00","-31.3","","-34.9","","71","","","","33","","39","","12.9","","99.12","","","","-49","","Snow,Blowing Snow"
"-94.97","74.72","RESOLUTE BAY A","2403498","2020-01-06 08:00","2020","01","06","08:00","-32.7","","-36.4","","70","","","","33","","19","","14.5","","99.11","","","","-46","","Ice Crystals"
"-94.97","74.72","RESOLUTE BAY A","2403498","2020-01-06 09:00","2020","01","06","09:00","-31.9","","-35.5","","71","","","","32","","16","","16.1","","99.13","","","","-44","","Ice Crystals"
"-94.97","74.72","RESOLUTE BAY A","2403498","2020-01-06 10:00","2020","01","06","10:00","-31.8","","-35.4","","71","","","","32","","31","","16.1","","99.12","","","","-48","","Ice Crystals,Blowing Snow"
"-94.97","74.72","RESOLUTE BAY A","2403498","2020-01-06 11:00","2020","01","06","11:00","-31.5","","-35.0","","72","","","","32","","33","","16.1","","99.11","","","","-48","","Ice Crystals,Blowing Snow"
"-94.97","74.72","RESOLUTE BAY A","2403498","2020-01-06 12:00","2020","01","06","12:00","-31.9","","-35.4","","71","","","","33","","17","","16.1","","99.08","","","","-44","","Ice Crystals"
"-94.97","74.72","RESOLUTE BAY A","2403498","2020-01-06 13:00","2020","01","06","13:00","-31.5","","-35.0","","72","","","","32","","28","","16.1","","99.10","","","","-47","","Ice Crystals,Blowing Snow"
"-94.97","74.72","RESOLUTE BAY A","2403498","2020-01-06 14:00","2020","01","06","14:00","-32.2","","-35.7","","72","","","","33","","23","","16.1","","99.12","","","","-47","","Ice Crystals"
"-94.97","74.72","RESOLUTE BAY A","2403498","2020-01-06 15:00","2020","01","06","15:00","-30.9","","-34.3","","73","","","","32","","28","","16.1","","99.14","","","","-46","","Ice Crystals"
"-94.97","74.72","RESOLUTE BAY A","2403498","2020-01-06 16:00","2020","01","06","16:00","-31.5","","-35.0","","72","","","","32","","26","","16.1","","99.12","","","","-47","","Ice Crystals"
"-94.97","74.72","RESOLUTE BAY A","2403498","2020-01-06 17:00","2020","01","06","17:00","-31.8","","-35.3","","72","","","","32","","27","","16.1","","99.10","","","","-47","","Ice Crystals"
"-94.97","74.72","RESOLUTE BAY A","2403498","2020-01-06 18:00","2020","01","06","18:00","-30.9","","-34.3","","73","","","","32","","22","","16.1","","99.10","","","","-45","","Ice Crystals"
"-94.97","74.72","RESOLUTE BAY A","2403498","2020-01-06 19:00","2020","01","06","19:00","-31.7","","-35.2","","72","","","","32","","21","","16.1","","99.06","","","","-46","","Ice Crystals"
"-94.97","74.72","RESOLUTE BAY A","2403498","2020-01-06 20:00","2020","01","06","20:00","-32.1","","-35.7","","71","","","","32","","28","","16.1","","99.03","","","","-48","","Ice Crystals,Blowing Snow"
"-94.97","74.72","RESOLUTE BAY A","2403498","2020-01-06 21:00","2020","01","06","21:00","-31.8","","-35.4","","72","","","","32","","28","","6.4","","99.01","","","","-48","","Ice Crystals,Blowing Snow"
"-94.97","74.72","RESOLUTE BAY A","2403498","2020-01-06 22:00","2020","01","06","22:00","-31.1","","-34.5","","72","","","","32","","32","","4.8","","98.99","","","","-47","","Ice Crystals,Blowing Snow"
"-94.97","74.72","RESOLUTE BAY A","2403498","2020-01-06 23:00","2020","01","06","23:00","-31.3","","-34.8","","72","","","","31","","31","","4.8","","98.96","","","","-48","","Ice Crystals,Blowing Snow"
"-94.97","74.72","RESOLUTE BAY A","2403498","2020-01-07 00:00","2020","01","07","00:00","-31.8","","-35.3","","72","","","","31","","25","","4.8","","98.96","","","","-47","","Ice Crystals"
"-94.97","74.72","RESOLUTE BAY A","2403498","2020-01-07 01:00","2020","01","07","01:00","-32.1","","-35.7","","71","","","","32","","28","","4.8","","98.94","","","","-48","","Ice Crystals"
"-94.97","74.72","RESOLUTE BAY A","2403498","2020-01-07 02:00","2020","01","07","02:00","-33.0","","-36.7","","71","","","","32","","23","","12.9","","98.93","","","","-48","","Ice Crystals"
"-94.97","74.72","RESOLUTE BAY A","2403498","2020-01-07 03:00","2020","01","07","03:00","-34.1","","-37.8","","70","","","","33","","26","","8.1","","98.94","","","","-50","","Ice Crystals"
"-94.97","74.72","RESOLUTE BAY A","2403498","2020-01-07 04:00","2020","01","07","04:00","-33.6","","-37.2","","70","","","","33","","28","","6.4","","98.94","","","","-50","","Ice Crystals"
"-94.97","74.72","RESOLUTE BAY A","2403498","2020-01-07 05:00","2020","01","07","05:00","-33.2","","-36.9","","71","","","","31","","25","","6.4","","98.91","","","","-49","","Ice Crystals"
"-94.97","74.72","RESOLUTE BAY A","2403498","2020-01-07 06:00","2020","01","07","06:00","-33.0","","-36.6","","71","","","","32","","43","","4.0","","98.87","","","","-52","","Ice Crystals,Blowing Snow"
"-94.97","74.72","RESOLUTE BAY A","2403498","2020-01-07 07:00","2020","01","07","07:00","-33.5","","-37.2","","70","","","","32","","37","","6.4","","98.87","","","","-52","","Ice Crystals,Blowing Snow"
"-94.97","74.72","RESOLUTE BAY A","2403498","2020-01-07 08:00","2020","01","07","08:00","-33.3","","-36.9","","71","","","","31","","37","","3.2","","98.87","","","","-51","","Ice Crystals,Blowing Snow"
"-94.97","74.72","RESOLUTE BAY A","2403498","2020-01-07 09:00","2020","01","07","09:00","-33.7","","-37.3","","70","","","","30","","28","","4.0","","98.91","","","","-50","","Ice Crystals,Blowing Snow"
"-94.97","74.72","RESOLUTE BAY A","2403498","2020-01-07 10:00","2020","01","07","10:00","-33.6","","-37.2","","70","","","","33","","34","","4.0","","98.89","","","","-51","","Ice Crystals,Blowing Snow"
"-94.97","74.72","RESOLUTE BAY A","2403498","2020-01-07 11:00","2020","01","07","11:00","-33.5","","-37.1","","70","","","","32","","34","","6.4","","98.89","","","","-51","","Ice Crystals,Blowing Snow"
"-94.97","74.72","RESOLUTE BAY A","2403498","2020-01-07 12:00","2020","01","07","12:00","-33.3","","-36.9","","71","","","","30","","18","","6.4","","98.93","","","","-47","","Ice Crystals,Blowing Snow"
"-94.97","74.72","RESOLUTE BAY A","2403498","2020-01-07 13:00","2020","01","07","13:00","-33.0","","-36.3","","73","","","","32","","26","","8.1","","98.91","","","","-49","","Ice Crystals,Blowing Snow"
"-94.97","74.72","RESOLUTE BAY A","2403498","2020-01-07 14:00","2020","01","07","14:00","-33.5","","-36.1","","78","","","","32","","26","","8.1","","98.91","","","","-49","","Ice Crystals,Blowing Snow"
"-94.97","74.72","RESOLUTE BAY A","2403498","2020-01-07 15:00","2020","01","07","15:00","-34.9","","-37.3","","79","","","","32","","22","","11.3","","98.91","","","","-50","","Ice Crystals,Blowing Snow"
"-94.97","74.72","RESOLUTE BAY A","2403498","2020-01-07 16:00","2020","01","07","16:00","-34.0","","-37.3","","73","","","","32","","28","","8.1","","98.90","","","","-50","","Ice Crystals,Blowing Snow"
"-94.97","74.72","RESOLUTE BAY A","2403498","2020-01-07 17:00","2020","01","07","17:00","-34.2","","-37.9","","70","","","","32","","41","","11.3","","98.93","","","","-53","","Ice Crystals,Blowing Snow"
"-94.97","74.72","RESOLUTE BAY A","2403498","2020-01-07 18:00","2020","01","07","18:00","-34.1","","-37.8","","70","","","","30","","25","","14.5","","98.98","","","","-50","","Ice Crystals,Blowing Snow"
"-94.97","74.72","RESOLUTE BAY A","2403498","2020-01-07 19:00","2020","01","07","19:00","-34.3","","-38.0","","70","","","","32","","21","","11.3","","98.97","","","","-49","","Ice Crystals"
"-94.97","74.72","RESOLUTE BAY A","2403498","2020-01-07 20:00","2020","01","07","20:00","-33.5","","-37.2","","70","","","","32","","22","","9.7","","98.98","","","","-48","","Ice Crystals"
"-94.97","74.72","RESOLUTE BAY A","2403498","2020-01-07 21:00","2020","01","07","21:00","-32.8","","-36.4","","71","","","","32","","25","","16.1","","98.95","","","","-48","","Ice Crystals"
"-94.97","74.72","RESOLUTE BAY A","2403498","2020-01-07 22:00","2020","01","07","22:00","-33.2","","-36.8","","71","","","","30","","26","","12.9","","98.94","","","","-49","","Ice Crystals"
"-94.97","74.72","RESOLUTE BAY A","2403498","2020-01-07 23:00","2020","01","07","23:00","-32.6","","-36.2","","71","","","","31","","21","","6.4","","98.92","","","","-47","","Ice Crystals"
"-94.97","74.72","RESOLUTE BAY A","2403498","2020-01-08 00:00","2020","01","08","00:00","-32.6","","-36.2","","71","","","","31","","22","","4.8","","98.95","","","","-47","","Ice Crystals"
"-94.97","74.72","RESOLUTE BAY A","2403498","2020-01-08 01:00","2020","01","08","01:00","-32.9","","-36.5","","71","","","","30","","18","","4.8","","99.01","","","","-46","","Ice Crystals"
"-94.97","74.72","RESOLUTE BAY A","2403498","2020-01-08 02:00","2020","01","08","02:00","-32.7","","-36.3","","71","","","","31","","23","","4.8","","99.03","","","","-47","","Ice Crystals"
"-94.97","74.72","RESOLUTE BAY A","2403498","2020-01-08 03:00","2020","01","08","03:00","-32.9","","-36.5","","71","","","","31","","22","","9.7","","99.05","","","","-47","","Ice Crystals"
"-94.97","74.72","RESOLUTE BAY A","2403498","2020-01-08 04:00","2020","01","08","04:00","-33.9","","-37.6","","70","","","","31","","21","","16.1","","99.08","","","","-48","","Ice Crystals"
"-94.97","74.72","RESOLUTE BAY A","2403498","2020-01-08 05:00","2020","01","08","05:00","-33.3","","-36.9","","71","","","","32","","24","","4.8","","99.08","","","","-48","","Snow"
"-94.97","74.72","RESOLUTE BAY A","2403498","2020-01-08 06:00","2020","01","08","06:00","-32.2","","-35.8","","71","","","","32","","26","","8.1","","99.09","","","","-48","","Snow"
"-94.97","74.72","RESOLUTE BAY A","2403498","2020-01-08 07:00","2020","01","08","07:00","-31.5","","-35.0","","72","","","","32","","27","","9.7","","99.13","","","","-47","","Snow"
"-94.97","74.72","RESOLUTE BAY A","2403498","2020-01-08 08:00","2020","01","08","08:00","-31.8","","-35.3","","72","","","","32","","29","","9.7","","99.16","","","","-48","","Ice Crystals"
"-94.97","74.72","RESOLUTE BAY A","2403498","2020-01-08 09:00","2020","01","08","09:00","-31.5","","-35.0","","72","","","","33","","19","","11.3","","99.20","","","","-45","","Ice Crystals"
"-94.97","74.72","RESOLUTE BAY A","2403498","2020-01-08 10:00","2020","01","08","10:00","-31.7","","-35.3","","72","","","","32","","25","","11.3","","99.22","","","","-47","","Ice Crystals,Blowing Snow"
"-94.97","74.72","RESOLUTE BAY A","2403498","2020-01-08 11:00","2020","01","08","11:00","-31.7","","-35.2","","72","","","","31","","21","","11.3","","99.25","","","","-46","","Ice Crystals,Blowing Snow"
"-94.97","74.72","RESOLUTE BAY A","2403498","2020-01-08 12:00","2020","01","08","12:00","-31.0","","-34.5","","72","","","","33","","17","","12.9","","99.31","","","","-43","","Ice Crystals"
"-94.97","74.72","RESOLUTE BAY A","2403498","2020-01-08 13:00","2020","01","08","13:00","-30.7","","-34.2","","72","","","","33","","23","","9.7","","99.32","","","","-45","","Ice Crystals,Blowing Snow"
"-94.97","74.72","RESOLUTE BAY A","2403498","2020-01-08 14:00","2020","01","08","14:00","-31.4","","-34.9","","72","","","","32","","31","","8.1","","99.34","","","","-48","","Ice Crystals,Blowing Snow"
"-94.97","74.72","RESOLUTE BAY A","2403498","2020-01-08 15:00","2020","01","08","15:00","-31.4","","-34.9","","72","","","","32","","40","","6.4","","99.42","","","","-49","","Ice Crystals,Blowing Snow"
"-94.97","74.72","RESOLUTE BAY A","2403498","2020-01-08 16:00","2020","01","08","16:00"
"-94.97","74.72","RESOLUTE BAY A","2403498","2020-01-08 17:00","2020","01","08","17:00","-31.0","","-34.4","","72","","","","32","","29","","9.7","","99.53","","","","-47","","Ice Crystals,Blowing Snow"
"-94.97","74.72","RESOLUTE BAY A","2403498","2020-01-08 18:00","2020","01","08","18:00","-31.6","","-35.1","","72","","","","32","","36","","9.7","","99.56","","","","-49","","Ice Crystals,Blowing Snow"
"-94.97","74.72","RESOLUTE BAY A","2403498","2020-01-08 19:00","2020","01","08","19:00","-31.4","","-34.9","","72","","","","31","","29","","11.3","","99.61","","","","-47","","Ice Crystals,Blowing Snow"
"-94.97","74.72","RESOLUTE BAY A","2403498","2020-01-08 20:00","2020","01","08","20:00","-32.6","","-36.2","","71","","","","31","","24","","12.9","","99.68","","","","-48","","Ice Crystals"
"-94.97","74.72","RESOLUTE BAY A","2403498","2020-01-08 21:00","2020","01","08","21:00","-33.9","","-37.6","","70","","","","34","","18","","16.1","","99.74","","","","-47","","Ice Crystals"
"-94.97","74.72","RESOLUTE BAY A","2403498","2020-01-08 22:00","2020","01","08","22:00","-34.4","","-38.1","","70","","","","33","","16","","24.1","","99.80","","","","-47","","Ice Crystals"
"-94.97","74.72","RESOLUTE BAY A","2403498","2020-01-08 23:00","2020","01","08","23:00","-34.7","","-38.5","","70","","","","32","","13","","24.1","","99.84","","","","-46","","Ice Crystals"
"-94.97","74.72","RESOLUTE BAY A","2403498","2020-01-09 00:00","2020","01","09","00:00","-34.6","","-38.4","","70","","","","33","","17","","24.1","","99.87","","","","-48","","Ice Crystals"
"-94.97","74.72","RESOLUTE BAY A","2403498","2020-01-09 01:00","2020","01","09","01:00","-34.5","","-38.2","","70","","","","32","","17","","24.1","","99.94","","","","-48","","Ice Crystals"
"-94.97","74.72","RESOLUTE BAY A","2403498","2020-01-09 02:00","2020","01","09","02:00","-34.8","","-38.5","","70","","","","33","","15","","24.1","","99.98","","","","-47","","Ice Crystals"
"-94.97","74.72","RESOLUTE BAY A","2403498","2020-01-09 03:00","2020","01","09","03:00","-34.8","","-38.5","","70","","","","32","","13","","24.1","","100.04","","","","-46","","Ice Crystals"
"-94.97","74.72","RESOLUTE BAY A","2403498","2020-01-09 04:00","2020","01","09","04:00","-34.8","","-38.5","","70","","","","35","","13","","24.1","","100.08","","","","-46","","Ice Crystals"
"-94.97","74.72","RESOLUTE BAY A","2403498","2020-01-09 05:00","2020","01","09","05:00","-34.1","","-37.8","","70","","","","33","","17","","24.1","","100.09","","","","-47","","Ice Crystals"
"-94.97","74.72","RESOLUTE BAY A","2403498","2020-01-09 06:00","2020","01","09","06:00","-35.4","","-39.1","","69","","","","32","","15","","24.1","","100.12","","","","-48","","Ice Crystals"
"-94.97","74.72","RESOLUTE BAY A","2403498","2020-01-09 07:00","2020","01","09","07:00","-34.5","","-38.3","","70","","","","34","","16","","24.1","","100.17","","","","-47","","Ice Crystals"
"-94.97","74.72","RESOLUTE BAY A","2403498","2020-01-09 08:00","2020","01","09","08:00","-34.1","","-37.8","","70","","","","34","","13","","24.1","","100.22","","","","-46","","Ice Crystals"
"-94.97","74.72","RESOLUTE BAY A","2403498","2020-01-09 09:00","2020","01","09","09:00","-33.7","","-37.4","","70","","","","33","","14","","24.1","","100.23","","","","-46","","Ice Crystals"
"-94.97","74.72","RESOLUTE BAY A","2403498","2020-01-09 10:00","2020","01","09","10:00","-33.6","","-37.2","","70","","","","33","","9","","24.1","","100.27","","","","-43","","Ice Crystals"
"-94.97","74.72","RESOLUTE BAY A","2403498","2020-01-09 11:00","2020","01","09","11:00","-33.4","","-37.1","","71","","","","33","","10","","24.1","","100.26","","","","-43","","Ice Crystals"
"-94.97","74.72","RESOLUTE BAY A","2403498","2020-01-09 12:00","2020","01","09","12:00","-32.7","","-36.3","","71","","","","34","","13","","24.1","","100.28","","","","-44","","Ice Crystals"
"-94.97","74.72","RESOLUTE BAY A","2403498","2020-01-09 13:00","2020","01","09","13:00","-31.8","","-35.3","","72","","","","34","","18","","24.1","","100.28","","","","-45","","Ice Crystals"
"-94.97","74.72","RESOLUTE BAY A","2403498","2020-01-09 14:00","2020","01","09","14:00","-31.0","","-34.5","","72","","","","33","","17","","24.1","","100.31","","","","-43","","Ice Crystals"
"-94.97","74.72","RESOLUTE BAY A","2403498","2020-01-09 15:00","2020","01","09","15:00","-30.4","","-33.9","","73","","","","33","","18","","24.1","","100.34","","","","-43","","Ice Crystals"
"-94.97","74.72","RESOLUTE BAY A","2403498","2020-01-09 16:00","2020","01","09","16:00","-29.5","","-32.9","","73","","","","32","","17","","24.1","","100.36","","","","-42","","Ice Crystals"
"-94.97","74.72","RESOLUTE BAY A","2403498","2020-01-09 17:00","2020","01","09","17:00","-29.0","","-32.3","","74","","","","30","","19","","24.1","","100.34","","","","-42","","Ice Crystals"
"-94.97","74.72","RESOLUTE BAY A","2403498","2020-01-09 18:00","2020","01","09","18:00","-28.3","","-31.5","","74","","","","32","","22","","24.1","","100.32","","","","-42","","Ice Crystals"
"-94.97","74.72","RESOLUTE BAY A","2403498","2020-01-09 19:00","2020","01","09","19:00","-28.1","","-31.3","","74","","","","31","","21","","24.1","","100.32","","","","-41","","Ice Crystals"
"-94.97","74.72","RESOLUTE BAY A","2403498","2020-01-09 20:00","2020","01","09","20:00","-27.6","","-30.8","","75","","","","30","","23","","24.1","","100.28","","","","-41","","Ice Crystals"
"-94.97","74.72","RESOLUTE BAY A","2403498","2020-01-09 21:00","2020","01","09","21:00","-26.9","","-30.1","","75","","","","29","","22","","24.1","","100.29","","","","-40","","Snow"
"-94.97","74.72","RESOLUTE BAY A","2403498","2020-01-09 22:00","2020","01","09","22:00","-26.5","","-29.6","","76","","","","31","","20","","24.1","","100.27","","","","-39","","Snow"
"-94.97","74.72","RESOLUTE BAY A","2403498","2020-01-09 23:00","2020","01","09","23:00","-26.4","","-29.4","","76","","","","31","","24","","24.1","","100.22","","","","-40","","Snow"
"-94.97","74.72","RESOLUTE BAY A","2403498","2020-01-10 00:00","2020","01","10","00:00","-26.2","","-29.2","","76","","","","31","","25","","24.1","","100.17","","","","-40","","Snow"
"-94.97","74.72","RESOLUTE BAY A","2403498","2020-01-10 01:00","2020","01","10","01:00","-26.0","","-29.1","","76","","","","32","","29","","24.1","","100.16","","","","-40","","Snow"
"-94.97","74.72","RESOLUTE BAY A","2403498","2020-01-10 02:00","2020","01","10","02:00","-26.2","","-29.2","","76","","","","32","","31","","24.1","","100.13","","","","-41","","Snow"
"-94.97","74.72","RESOLUTE BAY A","2403498","2020-01-10 03:00","2020","01","10","03:00","-26.1","","-29.2","","76","","","","31","","28","","24.1","","100.10","","","","-40","","Snow"
"-94.97","74.72","RESOLUTE BAY A","2403498","2020-01-10 04:00","2020","01","10","04:00","-26.0","","-29.1","","76","","","","32","","27","","24.1","","100.12","","","","-40","","Snow"
"-94.97","74.72","RESOLUTE BAY A","2403498","2020-01-10 05:00","2020","01","10","05:00","-26.1","","-29.1","","76","","","","32","","32","","24.1","","100.09","","","","-41","","Snow"
"-94.97","74.72","RESOLUTE BAY A","2403498","2020-01-10 06:00","2020","01","10","06:00","-26.2","","-29.4","","75","","","","32","","32","","24.1","","100.06","","","","-41","","Snow"
"-94.97","74.72","RESOLUTE BAY A","2403498","2020-01-10 07:00","2020","01","10","07:00","-27.4","","-30.8","","74","","","","32","","23","","24.1","","100.00","","","","-41","","Snow"
"-94.97","74.72","RESOLUTE BAY A","2403498","2020-01-10 08:00","2020","01","10","08:00","-27.4","","-30.7","","74","","","","31","","26","","24.1","","99.96","","","","-41","","Snow"
"-94.97","74.72","RESOLUTE BAY A","2403498","2020-01-10 09:00","2020","01","10","09:00","-27.2","","-30.5","","74","","","","32","","36","","16.1","","99.93","","","","-43","","Snow"
"-94.97","74.72","RESOLUTE BAY A","2403498","2020-01-10 10:00","2020","01","10","10:00","-27.9","","-31.3","","74","","","","32","","32","","16.1","","99.88","","","","-43","","Snow"
"-94.97","74.72","RESOLUTE BAY A","2403498","2020-01-10 11:00","2020","01","10","11:00","-28.5","","-31.8","","74","","","","32","","33","","12.9","","99.85","","","","-44","","Snow"
"-94.97","74.72","RESOLUTE BAY A","2403498","2020-01-10 12:00","2020","01","10","12:00","-28.8","","-32.3","","73","","","","33","","35","","12.9","","99.82","","","","-45","","Snow"
"-94.97","74.72","RESOLUTE BAY A","2403498","2020-01-10 13:00","2020","01","10","13:00","-29.0","","-32.5","","73","","","","32","","32","","12.9","","99.80","","","","-45","","Snow"
"-94.97","74.72","RESOLUTE BAY A","2403498","2020-01-10 14:00","2020","01","10","14:00","-29.6","","-33.0","","73","","","","33","","31","","12.9","","99.79","","","","-45","","Snow"
"-94.97","74.72","RESOLUTE BAY A","2403498","2020-01-10 15:00","2020","01","10","15:00","-30.3","","-33.7","","73","","","","32","","23","","16.1","","99.77","","","","-44","","Snow"
"-94.97","74.72","RESOLUTE BAY A","2403498","2020-01-10 16:00","2020","01","10","16:00","-30.5","","-34.0","","72","","","","32","","30","","16.1","","99.76","","","","-46","","Snow"
"-94.97","74.72","RESOLUTE BAY A","2403498","2020-01-10 17:00","2020","01","10","17:00","-31.1","","-34.6","","72","","","","33","","28","","16.1","","99.72","","","","-47","","Snow"
"-94.97","74.72","RESOLUTE BAY A","2403498","2020-01-10 18:00","2020","01","10","18:00","-31.8","","-35.3","","72","","","","32","","21","","16.1","","99.69","","","","-46","","Snow"
"-94.97","74.72","RESOLUTE BAY A","2403498","2020-01-10 19:00","2020","01","10","19:00","-31.0","","-34.4","","72","","","","32","","25","","16.1","","99.68","","","","-46","","Snow"
"-94.97","74.72","RESOLUTE BAY A","2403498","2020-01-10 20:00","2020","01","10","20:00","-30.7","","-34.2","","72","","","","33","","44","","12.9","","99.69","","","","-49","","Snow"
"-94.97","74.72","RESOLUTE BAY A","2403498","2020-01-10 21:00","2020","01","10","21:00","-31.1","","-34.8","","71","","","","34","","26","","12.9","","99.64","","","","-46","","Snow"
"-94.97","74.72","RESOLUTE BAY A","2403498","2020-01-10 22:00","2020","01","10","22:00","-31.3","","-34.8","","72","","","","35","","28","","16.1","","99.60","","","","-47","","Snow,Blowing Snow"
"-94.97","74.72","RESOLUTE BAY A","2403498","2020-01-10 23:00","2020","01","10","23:00","-30.4","","-33.9","","73","","","","33","","24","","14.5","","99.54","","","","-45","","Snow"
"-94.97","74.72","RESOLUTE BAY A","2403498","2020-01-11 00:00","2020","01","11","00:00","-28.6","","-31.9","","74","","","","33","","41","","14.5","","99.48","","","","-46","","Snow"
"-94.97","74.72","RESOLUTE BAY A","2403498","2020-01-11 01:00","2020","01","11","01:00","-27.4","","-30.6","","75","","","","33","","28","","6.4","","99.50","","","","-42","","Snow"
"-94.97","74.72","RESOLUTE BAY A","2403498","2020-01-11 02:00","2020","01","11","02:00","-26.8","","-30.0","","75","","","","32","","26","","6.4","","99.48","","","","-41","","Snow,Blowing Snow"
"-94.97","74.72","RESOLUTE BAY A","2403498","2020-01-11 03:00","2020","01","11","03:00","-26.3","","-29.5","","75","","","","33","","27","","8.1","","99.50","","","","-40","","Snow,Blowing Snow"
"-94.97","74.72","RESOLUTE BAY A","2403498","2020-01-11 04:00","2020","01","11","04:00","-26.1","","-29.4","","75","","","","31","","27","","9.7","","99.48","","","","-40","","Snow,Blowing Snow"
"-94.97","74.72","RESOLUTE BAY A","2403498","2020-01-11 05:00","2020","01","11","05:00","-25.8","","-29.1","","75","","","","32","","27","","8.1","","99.47","","","","-40","","Snow,Blowing Snow"
"-94.97","74.72","RESOLUTE BAY A","2403498","2020-01-11 06:00","2020","01","11","06:00","-25.6","","-28.8","","75","","","","33","","28","","12.9","","99.50","","","","-39","","Snow"
"-94.97","74.72","RESOLUTE BAY A","2403498","2020-01-11 07:00","2020","01","11","07:00","-25.2","","-28.4","","76","","","","32","","32","","6.4","","99.45","","","","-40","","Snow"
"-94.97","74.72","RESOLUTE BAY A","2403498","2020-01-11 08:00","2020","01","11","08:00","-25.2","","-28.4","","76","","","","32","","29","","11.3","","99.46","","","","-39","","Snow"
"-94.97","74.72","RESOLUTE BAY A","2403498","2020-01-11 09:00","2020","01","11","09:00","-25.7","","-28.9","","75","","","","32","","31","","11.3","","99.43","","","","-40","","Snow"
"-94.97","74.72","RESOLUTE BAY A","2403498","2020-01-11 10:00","2020","01","11","10:00","-25.9","","-29.1","","75","","","","32","","28","","11.3","","99.43","","","","-40","","Snow"
"-94.97","74.72","RESOLUTE BAY A","2403498","2020-01-11 11:00","2020","01","11","11:00","-26.6","","-29.9","","74","","","","33","","30","","11.3","","99.46","","","","-41","","Snow"
"-94.97","74.72","RESOLUTE BAY A","2403498","2020-01-11 12:00","2020","01","11","12:00","-27.0","","-30.3","","74","","","","33","","42","","11.3","","99.44","","","","-44","","Snow"
"-94.97","74.72","RESOLUTE BAY A","2403498","2020-01-11 13:00","2020","01","11","13:00","-27.7","","-31.0","","74","","","","33","","27","","6.4","","99.45","","","","-42","","Snow,Blowing Snow"
"-94.97","74.72","RESOLUTE BAY A","2403498","2020-01-11 14:00","2020","01","11","14:00","-27.8","","-31.2","","74","","","","33","","27","","8.1","","99.50","","","","-42","","Snow,Blowing Snow"
"-94.97","74.72","RESOLUTE BAY A","2403498","2020-01-11 15:00","2020","01","11","15:00","-27.8","","-31.1","","73","","","","32","","31","","9.7","","99.51","","","","-43","","Snow,Blowing Snow"
"-94.97","74.72","RESOLUTE BAY A","2403498","2020-01-11 16:00","2020","01","11","16:00","-27.3","","-30.6","","74","","","","31","","20","","9.7","","99.53","","","","-40","","Snow"
"-94.97","74.72","RESOLUTE BAY A","2403498","2020-01-11 17:00","2020","01","11","17:00","-27.1","","-30.5","","73","","","","32","","19","","11.3","","99.54","","","","-39","","Snow"
"-94.97","74.72","RESOLUTE BAY A","2403498","2020-01-11 18:00","2020","01","11","18:00","-28.2","","-31.7","","72","","","","34","","27","","11.3","","99.53","","","","-43","","Snow"
"-94.97","74.72","RESOLUTE BAY A","2403498","2020-01-11 19:00","2020","01","11","19:00","-30.4","","-34.0","","71","","","","34","","32","","12.9","","99.53","","","","-47","","Snow,Blowing Snow"
"-94.97","74.72","RESOLUTE BAY A","2403498","2020-01-11 20:00","2020","01","11","20:00","-32.2","","-35.9","","71","","","","33","","32","","8.1","","99.50","","","","-49","","Ice Crystals,Blowing Snow"
"-94.97","74.72","RESOLUTE BAY A","2403498","2020-01-11 21:00","2020","01","11","21:00","-32.9","","-36.6","","70","","","","32","","33","","12.9","","99.49","","","","-50","","Ice Crystals"
"-94.97","74.72","RESOLUTE BAY A","2403498","2020-01-11 22:00","2020","01","11","22:00","-33.4","","-37.0","","71","","","","31","","26","","16.1","","99.45","","","","-49","","Ice Crystals"
"-94.97","74.72","RESOLUTE BAY A","2403498","2020-01-11 23:00","2020","01","11","23:00","-34.1","","-37.8","","70","","","","32","","22","","16.1","","99.51","","","","-49","","Ice Crystals"
"-94.97","74.72","RESOLUTE BAY A","2403498","2020-01-12 00:00","2020","01","12","00:00","-34.5","","-38.4","","69","","","","36","","29","","16.1","","99.57","","","","-51","","Ice Crystals"
"-94.97","74.72","RESOLUTE BAY A","2403498","2020-01-12 01:00","2020","01","12","01:00","-34.1","","-38.1","","68","","","","36","","28","","24.1","","99.57","","","","-50","","Ice Crystals"
"-94.97","74.72","RESOLUTE BAY A","2403498","2020-01-12 02:00","2020","01","12","02:00","-34.3","","-38.4","","67","","","","35","","27","","24.1","","99.64","","","","-51","","Ice Crystals"
"-94.97","74.72","RESOLUTE BAY A","2403498","2020-01-12 03:00","2020","01","12","03:00","-35.0","","-39.1","","67","","","","33","","20","","24.1","","99.71","","","","-49","","Ice Crystals"
"-94.97","74.72","RESOLUTE BAY A","2403498","2020-01-12 04:00","2020","01","12","04:00","-35.0","","-39.0","","68","","","","32","","29","","24.1","","99.72","","","","-52","","Ice Crystals"
"-94.97","74.72","RESOLUTE BAY A","2403498","2020-01-12 05:00","2020","01","12","05:00","-34.2","","-38.2","","68","","","","33","","23","","24.1","","99.74","","","","-49","","Ice Crystals"
"-94.97","74.72","RESOLUTE BAY A","2403498","2020-01-12 06:00","2020","01","12","06:00","-34.9","","-39.1","","66","","","","2","","43","","24.1","","99.77","","","","-55","","Ice Crystals"
"-94.97","74.72","RESOLUTE BAY A","2403498","2020-01-12 07:00","2020","01","12","07:00","-34.2","","-38.4","","67","","","","1","","23","","16.1","","99.82","","","","-49","","Ice Crystals"
"-94.97","74.72","RESOLUTE BAY A","2403498","2020-01-12 08:00","2020","01","12","08:00","-33.7","","-38.0","","67","","","","36","","11","","24.1","","99.94","","","","-44","","Ice Crystals"
"-94.97","74.72","RESOLUTE BAY A","2403498","2020-01-12 09:00","2020","01","12","09:00","-31.7","","-35.6","","69","","","","32","","22","","12.9","","99.97","","","","-46","","Mainly Clear"
"-94.97","74.72","RESOLUTE BAY A","2403498","2020-01-12 10:00","2020","01","12","10:00","-32.1","","-36.1","","69","","","","33","","27","","12.9","","100.00","","","","-48","","Ice Crystals"
"-94.97","74.72","RESOLUTE BAY A","2403498","2020-01-12 11:00","2020","01","12","11:00","-31.6","","-36.0","","66","","","","2","","23","","12.9","","100.03","","","","-46","","Ice Crystals"
"-94.97","74.72","RESOLUTE BAY A","2403498","2020-01-12 12:00","2020","01","12","12:00","-32.4","","-36.2","","69","","","","34","","6","","16.1","","100.08","","","","-39","","Ice Crystals"
"-94.97","74.72","RESOLUTE BAY A","2403498","2020-01-12 13:00","2020","01","12","13:00","-32.5","","-36.6","","68","","","","36","","14","","16.1","","100.13","","","","-44","","Ice Crystals"
"-94.97","74.72","RESOLUTE BAY A","2403498","2020-01-12 14:00","2020","01","12","14:00","-33.1","","-36.9","","70","","","","35","","13","","12.9","","100.21","","","","-44","","Ice Crystals"
"-94.97","74.72","RESOLUTE BAY A","2403498","2020-01-12 15:00","2020","01","12","15:00","-31.0","","-34.9","","69","","","","32","","18","","12.9","","100.25","","","","-44","","Ice Crystals"
"-94.97","74.72","RESOLUTE BAY A","2403498","2020-01-12 16:00","2020","01","12","16:00","-29.3","","-33.2","","70","","","","1","","37","","12.9","","100.26","","","","-46","","Ice Crystals"
"-94.97","74.72","RESOLUTE BAY A","2403498","2020-01-12 17:00","2020","01","12","17:00","-31.3","","-35.5","","67","","","","36","","26","","12.9","","100.35","","","","-46","","Ice Crystals"
"-94.97","74.72","RESOLUTE BAY A","2403498","2020-01-12 18:00","2020","01","12","18:00","-30.6","","-34.6","","69","","","","34","","14","","12.9","","100.44","","","","-42","","Ice Crystals"
"-94.97","74.72","RESOLUTE BAY A","2403498","2020-01-12 19:00","2020","01","12","19:00","-30.0","","-33.8","","70","","","","1","","47","","12.9","","100.42","","","","-49","","Ice Crystals"
"-94.97","74.72","RESOLUTE BAY A","2403498","2020-01-12 20:00","2020","01","12","20:00"
"-94.97","74.72","RESOLUTE BAY A","2403498","2020-01-12 21:00","2020","01","12","21:00"
"-94.97","74.72","RESOLUTE BAY A","2403498","2020-01-12 22:00","2020","01","12","22:00","-32.0","","-36.0","","69","","","","28","","15","","24.1","","100.52","","","","-44","","Ice Crystals"
"-94.97","74.72","RESOLUTE BAY A","2403498","2020-01-12 23:00","2020","01","12","23:00","-31.8","","-35.8","","69","","","","32","","23","","24.1","","100.55","","","","-46","","Ice Crystals"
"-94.97","74.72","RESOLUTE BAY A","2403498","2020-01-13 00:00","2020","01","13","00:00","-32.0","","-36.0","","68","","","","1","","24","","24.1","","100.54","","","","-47","","Ice Crystals"
"-94.97","74.72","RESOLUTE BAY A","2403498","2020-01-13 01:00","2020","01","13","01:00","-31.6","","-35.7","","68","","","","1","","38","","24.1","","100.53","","","","-49","","Ice Crystals,Blowing Snow"
"-94.97","74.72","RESOLUTE BAY A","2403498","2020-01-13 02:00","2020","01","13","02:00","-29.7","","-33.9","","68","","","","2","","49","","16.1","","100.56","","","","-48","","Ice Crystals,Blowing Snow"
"-94.97","74.72","RESOLUTE BAY A","2403498","2020-01-13 03:00","2020","01","13","03:00","-32.1","","-36.3","","67","","","","1","","39","","12.9","","100.64","","","","-50","","Ice Crystals,Blowing Snow"
"-94.97","74.72","RESOLUTE BAY A","2403498","2020-01-13 04:00","2020","01","13","04:00","-31.5","","-35.6","","68","","","","1","","38","","16.1","","100.69","","","","-49","","Ice Crystals"
"-94.97","74.72","RESOLUTE BAY A","2403498","2020-01-13 05:00","2020","01","13","05:00","-31.4","","-35.4","","68","","","","3","","44","","11.3","","100.68","","","","-50","","Ice Crystals,Blowing Snow"
"-94.97","74.72","RESOLUTE BAY A","2403498","2020-01-13 06:00","2020","01","13","06:00","-31.2","","-35.3","","68","","","","1","","28","","14.5","","100.75","","","","-47","","Ice Crystals"
"-94.97","74.72","RESOLUTE BAY A","2403498","2020-01-13 07:00","2020","01","13","07:00","-31.0","","-34.9","","69","","","","31","","4","","24.1","","100.75","","","","-36","","Ice Crystals"
"-94.97","74.72","RESOLUTE BAY A","2403498","2020-01-13 08:00","2020","01","13","08:00","-32.0","","-36.3","","67","","","","30","","10","","24.1","","100.78","","","","-42","","NA"
"-94.97","74.72","RESOLUTE BAY A","2403498","2020-01-13 09:00","2020","01","13","09:00","-31.4","","-35.5","","68","","","","32","","15","","16.1","","100.79","","","","-43","","Mainly Clear"
"-94.97","74.72","RESOLUTE BAY A","2403498","2020-01-13 10:00","2020","01","13","10:00","-33.4","","-37.3","","69","","","","31","","10","","12.9","","100.81","","","","-43","","NA"
"-94.97","74.72","RESOLUTE BAY A","2403498","2020-01-13 11:00","2020","01","13","11:00","-32.6","","-36.3","","70","","","","33","","11","","16.1","","100.81","","","","-43","","NA"
"-94.97","74.72","RESOLUTE BAY A","2403498","2020-01-13 12:00","2020","01","13","12:00","-31.7","","-35.3","","71","","","","31","","22","","16.1","","100.80","","","","-46","","Mainly Clear"
"-94.97","74.72","RESOLUTE BAY A","2403498","2020-01-13 13:00","2020","01","13","13:00","-32.2","","-35.8","","71","","","","34","","40","","16.1","","100.80","","","","-50","","NA"
"-94.97","74.72","RESOLUTE BAY A","2403498","2020-01-13 14:00","2020","01","13","14:00","-32.4","","-36.0","","71","","","","32","","31","","12.9","","100.79","","","","-49","","NA"
"-94.97","74.72","RESOLUTE BAY A","2403498","2020-01-13 15:00","2020","01","13","15:00","-30.3","","-33.9","","72","","","","35","","44","","12.9","","100.79","","","","-49","","Mainly Clear"
"-94.97","74.72","RESOLUTE BAY A","2403498","2020-01-13 16:00","2020","01","13","16:00","-31.9","","-35.4","","72","","","","33","","34","","12.9","","100.81","","","","-49","","NA"
"-94.97","74.72","RESOLUTE BAY A","2403498","2020-01-13 17:00","2020","01","13","17:00","-31.9","","-35.2","","73","","","","32","","16","","12.9","","100.82","","","","-44","","NA"
"-94.97","74.72","RESOLUTE BAY A","2403498","2020-01-13 18:00","2020","01","13","18:00","-31.2","","-34.4","","74","","","","33","","10","","12.9","","100.81","","","","-41","","Mainly Clear"
"-94.97","74.72","RESOLUTE BAY A","2403498","2020-01-13 19:00","2020","01","13","19:00","-30.0","","-33.1","","75","","","","33","","20","","12.9","","100.80","","","","-43","","NA"
"-94.97","74.72","RESOLUTE BAY A","2403498","2020-01-13 20:00","2020","01","13","20:00","-28.2","","-31.3","","75","","","","33","","21","","12.9","","100.74","","","","-41","","NA"
"-94.97","74.72","RESOLUTE BAY A","2403498","2020-01-13 21:00","2020","01","13","21:00","-27.3","","-30.5","","75","","","","33","","25","","16.1","","100.70","","","","-41","","Mostly Cloudy"
"-94.97","74.72","RESOLUTE BAY A","2403498","2020-01-13 22:00","2020","01","13","22:00","-27.3","","-30.4","","75","","","","34","","23","","24.1","","100.61","","","","-41","","NA"
"-94.97","74.72","RESOLUTE BAY A","2403498","2020-01-13 23:00","2020","01","13","23:00","-27.5","","-30.6","","75","","","","33","","20","","24.1","","100.56","","","","-40","","NA"
"-94.97","74.72","RESOLUTE BAY A","2403498","2020-01-14 00:00","2020","01","14","00:00","-27.0","","-30.1","","76","","","","34","","14","","24.1","","100.52","","","","-37","","Snow"
"-94.97","74.72","RESOLUTE BAY A","2403498","2020-01-14 01:00","2020","01","14","01:00","-25.6","","-28.6","","76","","","","33","","17","","14.5","","100.50","","","","-37","","Snow"
"-94.97","74.72","RESOLUTE BAY A","2403498","2020-01-14 02:00","2020","01","14","02:00","-24.1","","-26.9","","78","","","","30","","21","","16.1","","100.47","","","","-36","","Snow"
"-94.97","74.72","RESOLUTE BAY A","2403498","2020-01-14 03:00","2020","01","14","03:00","-23.7","","-26.5","","78","","","","31","","24","","16.1","","100.47","","","","-36","","Snow"
"-94.97","74.72","RESOLUTE BAY A","2403498","2020-01-14 04:00","2020","01","14","04:00","-23.6","","-26.4","","78","","","","32","","27","","12.9","","100.45","","","","-37","","Snow,Blowing Snow"
"-94.97","74.72","RESOLUTE BAY A","2403498","2020-01-14 05:00","2020","01","14","05:00","-23.3","","-26.2","","78","","","","29","","25","","16.1","","100.44","","","","-36","","Snow"
"-94.97","74.72","RESOLUTE BAY A","2403498","2020-01-14 06:00","2020","01","14","06:00","-23.1","","-25.9","","78","","","","31","","27","","16.1","","100.41","","","","-36","","Snow"
"-94.97","74.72","RESOLUTE BAY A","2403498","2020-01-14 07:00","2020","01","14","07:00","-23.6","","-26.6","","77","","","","31","","23","","19.3","","100.34","","","","-36","","Snow"
"-94.97","74.72","RESOLUTE BAY A","2403498","2020-01-14 08:00","2020","01","14","08:00","-26.0","","-29.2","","75","","","","33","","34","","24.1","","100.33","","","","-41","","NA"
"-94.97","74.72","RESOLUTE BAY A","2403498","2020-01-14 09:00","2020","01","14","09:00","-26.1","","-29.3","","75","","","","34","","21","","12.9","","100.32","","","","-38","","Mainly Clear"
"-94.97","74.72","RESOLUTE BAY A","2403498","2020-01-14 10:00","2020","01","14","10:00","-27.0","","-30.0","","76","","","","33","","21","","11.3","","100.31","","","","-40","","NA"
"-94.97","74.72","RESOLUTE BAY A","2403498","2020-01-14 11:00","2020","01","14","11:00","-26.5","","-29.5","","76","","","","33","","22","","12.9","","100.27","","","","-39","","NA"
"-94.97","74.72","RESOLUTE BAY A","2403498","2020-01-14 12:00","2020","01","14","12:00","-25.5","","-28.3","","78","","","","33","","21","","6.4","","100.22","","","","-38","","Snow"
"-94.97","74.72","RESOLUTE BAY A","2403498","2020-01-14 13:00","2020","01","14","13:00","-25.5","","-28.1","","79","","","","30","","16","","9.7","","100.22","","","","-36","","Snow"
"-94.97","74.72","RESOLUTE BAY A","2403498","2020-01-14 14:00","2020","01","14","14:00","-24.9","","-27.6","","78","","","","32","","17","","9.7","","100.19","","","","-36","","Snow"
"-94.97","74.72","RESOLUTE BAY A","2403498","2020-01-14 15:00","2020","01","14","15:00","-23.7","","-26.4","","79","","","","34","","24","","9.7","","100.18","","","","-36","","Snow"
"-94.97","74.72","RESOLUTE BAY A","2403498","2020-01-14 16:00","2020","01","14","16:00","-23.1","","-25.8","","79","","","","35","","28","","6.4","","100.16","","","","-36","","Snow"
"-94.97","74.72","RESOLUTE BAY A","2403498","2020-01-14 17:00","2020","01","14","17:00","-23.0","","-25.6","","79","","","","35","","28","","6.4","","100.12","","","","-36","","Snow"
"-94.97","74.72","RESOLUTE BAY A","2403498","2020-01-14 18:00","2020","01","14","18:00","-23.2","","-25.9","","79","","","","35","","24","","8.1","","100.11","","","","-36","","Snow"
"-94.97","74.72","RESOLUTE BAY A","2403498","2020-01-14 19:00","2020","01","14","19:00","-23.8","","-26.5","","78","","","","36","","22","","8.1","","100.12","","","","-36","","Snow"
"-94.97","74.72","RESOLUTE BAY A","2403498","2020-01-14 20:00","2020","01","14","20:00","-23.9","","-26.7","","78","","","","35","","25","","4.8","","100.08","","","","-37","","Snow"
"-94.97","74.72","RESOLUTE BAY A","2403498","2020-01-14 21:00","2020","01","14","21:00","-24.0","","-26.8","","78","","","","33","","22","","4.8","","100.07","","","","-36","","Snow"
"-94.97","74.72","RESOLUTE BAY A","2403498","2020-01-14 22:00","2020","01","14","22:00","-23.7","","-26.5","","79","","","","33","","27","","4.8","","100.07","","","","-37","","Snow"
"-94.97","74.72","RESOLUTE BAY A","2403498","2020-01-14 23:00","2020","01","14","23:00","-23.6","","-26.3","","79","","","","32","","22","","8.1","","100.09","","","","-36","","Snow"
"-94.97","74.72","RESOLUTE BAY A","2403498","2020-01-15 00:00","2020","01","15","00:00","-23.5","","-26.2","","79","","","","33","","11","","3.2","","100.09","","","","-32","","Snow"
"-94.97","74.72","RESOLUTE BAY A","2403498","2020-01-15 01:00","2020","01","15","01:00","-23.0","","-25.7","","79","","","","35","","11","","3.2","","100.07","","","","-31","","Snow"
"-94.97","74.72","RESOLUTE BAY A","2403498","2020-01-15 02:00","2020","01","15","02:00","-22.6","","-25.3","","79","","","","36","","10","","6.4","","100.06","","","","-30","","Snow"
"-94.97","74.72","RESOLUTE BAY A","2403498","2020-01-15 03:00","2020","01","15","03:00","-22.6","","-25.2","","79","","","","31","","4","","4.8","","100.06","","","","-26","","Snow"
"-94.97","74.72","RESOLUTE BAY A","2403498","2020-01-15 04:00","2020","01","15","04:00","-22.4","","-25.1","","79","","","","29","","23","","6.4","","100.06","","","","-34","","Snow"
"-94.97","74.72","RESOLUTE BAY A","2403498","2020-01-15 05:00","2020","01","15","05:00","-23.5","","-26.3","","79","","","","29","","15","","12.9","","100.07","","","","-33","","Snow"
"-94.97","74.72","RESOLUTE BAY A","2403498","2020-01-15 06:00","2020","01","15","06:00","-25.2","","-28.1","","77","","","","29","","24","","16.1","","100.06","","","","-38","","Snow"
"-94.97","74.72","RESOLUTE BAY A","2403498","2020-01-15 07:00","2020","01","15","07:00","-26.7","","-29.8","","76","","","","32","","18","","16.1","","100.06","","","","-38","","Snow"
"-94.97","74.72","RESOLUTE BAY A","2403498","2020-01-15 08:00","2020","01","15","08:00","-25.8","","-28.7","","77","","","","33","","14","","16.1","","100.07","","","","-36","","Snow"
"-94.97","74.72","RESOLUTE BAY A","2403498","2020-01-15 09:00","2020","01","15","09:00","-26.8","","-29.8","","76","","","","33","","12","","24.1","","100.03","","","","-36","","Ice Crystals"
"-94.97","74.72","RESOLUTE BAY A","2403498","2020-01-15 10:00","2020","01","15","10:00","-24.8","","-27.6","","78","","","","32","","10","","16.1","","100.01","","","","-33","","Snow"
"-94.97","74.72","RESOLUTE BAY A","2403498","2020-01-15 11:00","2020","01","15","11:00","-24.3","","-27.2","","78","","","","34","","8","","16.1","","99.98","","","","-31","","Snow"
"-94.97","74.72","RESOLUTE BAY A","2403498","2020-01-15 12:00","2020","01","15","12:00","-23.6","","-26.3","","78","","","","32","","9","","8.1","","99.96","","","","-31","","Snow"
"-94.97","74.72","RESOLUTE BAY A","2403498","2020-01-15 13:00","2020","01","15","13:00","-23.0","","-25.7","","79","","","","35","","5","","12.9","","99.94","","","","-28","","Snow"
"-94.97","74.72","RESOLUTE BAY A","2403498","2020-01-15 14:00","2020","01","15","14:00","-22.8","","-25.4","","79","","","","30","","4","","6.4","","99.95","","","","-27","","Snow"
"-94.97","74.72","RESOLUTE BAY A","2403498","2020-01-15 15:00","2020","01","15","15:00","-22.1","","-24.8","","79","","","","13","","3","","6.4","","99.93","","","","-25","","Snow"
"-94.97","74.72","RESOLUTE BAY A","2403498","2020-01-15 16:00","2020","01","15","16:00","-21.6","","-24.2","","80","","","","34","","5","","4.8","","99.90","","","","-26","","Snow"
"-94.97","74.72","RESOLUTE BAY A","2403498","2020-01-15 17:00","2020","01","15","17:00","-21.2","","-23.7","","80","","","","36","","2","","4.0","","99.88","","","","-23","","Snow"
"-94.97","74.72","RESOLUTE BAY A","2403498","2020-01-15 18:00","2020","01","15","18:00","-21.0","","-23.5","","81","","","","29","","14","","8.1","","99.86","","","","-30","","Snow"
"-94.97","74.72","RESOLUTE BAY A","2403498","2020-01-15 19:00","2020","01","15","19:00","-21.0","","-23.5","","81","","","","29","","12","","8.1","","99.85","","","","-29","","Snow"
"-94.97","74.72","RESOLUTE BAY A","2403498","2020-01-15 20:00","2020","01","15","20:00","-21.5","","-24.1","","80","","","","29","","12","","9.7","","99.82","","","","-30","","Snow"
"-94.97","74.72","RESOLUTE BAY A","2403498","2020-01-15 21:00","2020","01","15","21:00","-21.6","","-24.2","","80","","","","29","","11","","9.7","","99.82","","","","-30","","Snow"
"-94.97","74.72","RESOLUTE BAY A","2403498","2020-01-15 22:00","2020","01","15","22:00","-22.4","","-25.1","","79","","","","33","","8","","12.9","","99.81","","","","-29","","Snow"
"-94.97","74.72","RESOLUTE BAY A","2403498","2020-01-15 23:00","2020","01","15","23:00","-23.9","","-26.6","","79","","","","30","","7","","16.1","","99.81","","","","-30","","Ice Crystals"
"-94.97","74.72","RESOLUTE BAY A","2403498","2020-01-16 00:00","2020","01","16","00:00","-23.3","","-26.0","","79","","","","29","","8","","16.1","","99.81","","","","-30","","Ice Crystals"
"-94.97","74.72","RESOLUTE BAY A","2403498","2020-01-16 01:00","2020","01","16","01:00","-25.4","","-28.3","","77","","","","32","","5","","24.1","","99.83","","","","-30","","Ice Crystals"
"-94.97","74.72","RESOLUTE BAY A","2403498","2020-01-16 02:00","2020","01","16","02:00","-26.1","","-29.0","","77","","","","31","","11","","24.1","","99.85","","","","-35","","Ice Crystals"
"-94.97","74.72","RESOLUTE BAY A","2403498","2020-01-16 03:00","2020","01","16","03:00","-24.7","","-27.5","","78","","","","3","","21","","24.1","","99.88","","","","-37","","Ice Crystals"
"-94.97","74.72","RESOLUTE BAY A","2403498","2020-01-16 04:00","2020","01","16","04:00","-24.2","","-27.0","","78","","","","3","","24","","24.1","","99.93","","","","-37","","Ice Crystals"
"-94.97","74.72","RESOLUTE BAY A","2403498","2020-01-16 05:00","2020","01","16","05:00","-23.0","","-25.7","","79","","","","1","","19","","24.1","","99.96","","","","-34","","Ice Crystals"
"-94.97","74.72","RESOLUTE BAY A","2403498","2020-01-16 06:00","2020","01","16","06:00","-23.2","","-25.9","","79","","","","2","","24","","24.1","","99.99","","","","-36","","Snow"
"-94.97","74.72","RESOLUTE BAY A","2403498","2020-01-16 07:00","2020","01","16","07:00","-23.5","","-26.2","","79","","","","2","","17","","24.1","","100.04","","","","-34","","Snow"
"-94.97","74.72","RESOLUTE BAY A","2403498","2020-01-16 08:00","2020","01","16","08:00","-26.1","","-29.1","","76","","","","36","","20","","24.1","","100.06","","","","-38","","Ice Crystals"
"-94.97","74.72","RESOLUTE BAY A","2403498","2020-01-16 09:00","2020","01","16","09:00","-27.0","","-30.1","","76","","","","2","","27","","12.9","","100.12","","","","-41","","Ice Crystals"
"-94.97","74.72","RESOLUTE BAY A","2403498","2020-01-16 10:00","2020","01","16","10:00","-28.8","","-32.0","","75","","","","36","","31","","16.1","","100.16","","","","-44","","Ice Crystals"
"-94.97","74.72","RESOLUTE BAY A","2403498","2020-01-16 11:00","2020","01","16","11:00","-29.8","","-33.1","","74","","","","3","","41","","12.9","","100.14","","","","-47","","Snow,Blowing Snow"
"-94.97","74.72","RESOLUTE BAY A","2403498","2020-01-16 12:00","2020","01","16","12:00","-28.7","","-31.9","","75","","","","3","","36","","16.1","","100.23","","","","-45","","Snow,Blowing Snow"
"-94.97","74.72","RESOLUTE BAY A","2403498","2020-01-16 13:00","2020","01","16","13:00","-28.9","","-32.1","","74","","","","34","","20","","16.1","","100.29","","","","-42","","Snow,Blowing Snow"
"-94.97","74.72","RESOLUTE BAY A","2403498","2020-01-16 14:00","2020","01","16","14:00","-31.4","","-34.9","","73","","","","34","","13","","16.1","","100.32","","","","-42","","Snow"
"-94.97","74.72","RESOLUTE BAY A","2403498","2020-01-16 15:00","2020","01","16","15:00","-29.8","","-33.0","","74","","","","2","","25","","16.1","","100.37","","","","-44","","Snow"
"-94.97","74.72","RESOLUTE BAY A","2403498","2020-01-16 16:00","2020","01","16","16:00","-32.5","","-36.0","","72","","","","32","","13","","16.1","","100.42","","","","-44","","Snow"
"-94.97","74.72","RESOLUTE BAY A","2403498","2020-01-16 17:00","2020","01","16","17:00","-32.2","","-35.7","","72","","","","34","","21","","16.1","","100.43","","","","-46","","NA"
"-94.97","74.72","RESOLUTE BAY A","2403498","2020-01-16 18:00","2020","01","16","18:00","-33.6","","-37.1","","71","","","","31","","20","","16.1","","100.47","","","","-48","","Mainly Clear"
"-94.97","74.72","RESOLUTE BAY A","2403498","2020-01-16 19:00","2020","01","16","19:00","-34.4","","-38.1","","70","","","","33","","19","","16.1","","100.49","","","","-48","","NA"
"-94.97","74.72","RESOLUTE BAY A","2403498","2020-01-16 20:00","2020","01","16","20:00","-31.8","","-35.3","","72","","","","3","","30","","16.1","","100.50","","","","-48","","NA"
"-94.97","74.72","RESOLUTE BAY A","2403498","2020-01-16 21:00","2020","01","16","21:00","-33.6","","-37.2","","71","","","","30","","18","","24.1","","100.51","","","","-47","","Clear"
"-94.97","74.72","RESOLUTE BAY A","2403498","2020-01-16 22:00","2020","01","16","22:00","-34.9","","-38.6","","70","","","","33","","28","","24.1","","100.51","","","","-52","","Blowing Snow"
"-94.97","74.72","RESOLUTE BAY A","2403498","2020-01-16 23:00","2020","01","16","23:00","-35.7","","-39.5","","69","","","","33","","29","","24.1","","100.54","","","","-53","","Blowing Snow"
"-94.97","74.72","RESOLUTE BAY A","2403498","2020-01-17 00:00","2020","01","17","00:00","-35.8","","-39.5","","69","","","","34","","24","","24.1","","100.58","","","","-52","","Clear"
"-94.97","74.72","RESOLUTE BAY A","2403498","2020-01-17 01:00","2020","01","17","01:00","-36.3","","-40.1","","69","","","","32","","18","","24.1","","100.54","","","","-50","","NA"
"-94.97","74.72","RESOLUTE BAY A","2403498","2020-01-17 02:00","2020","01","17","02:00","-36.1","","-39.9","","69","","","","32","","21","","24.1","","100.60","","","","-51","","NA"
"-94.97","74.72","RESOLUTE BAY A","2403498","2020-01-17 03:00","2020","01","17","03:00","-35.6","","-39.4","","69","","","","31","","18","","24.1","","100.63","","","","-49","","Ice Crystals"
"-94.97","74.72","RESOLUTE BAY A","2403498","2020-01-17 04:00","2020","01","17","04:00","-37.3","","-41.1","","68","","","","35","","14","","24.1","","100.66","","","","-50","","Ice Crystals"
"-94.97","74.72","RESOLUTE BAY A","2403498","2020-01-17 05:00","2020","01","17","05:00","-36.4","","-40.2","","69","","","","34","","20","","24.1","","100.65","","","","-51","","Ice Crystals"
"-94.97","74.72","RESOLUTE BAY A","2403498","2020-01-17 06:00","2020","01","17","06:00","-36.6","","-40.4","","68","","","","35","","17","","24.1","","100.60","","","","-50","","Ice Crystals"
"-94.97","74.72","RESOLUTE BAY A","2403498","2020-01-17 07:00","2020","01","17","07:00","-35.8","","-39.6","","69","","","","34","","23","","24.1","","100.64","","","","-51","","Ice Crystals"
"-94.97","74.72","RESOLUTE BAY A","2403498","2020-01-17 08:00","2020","01","17","08:00","-34.1","","-37.8","","70","","","","35","","18","","24.1","","100.58","","","","-48","","Ice Crystals"
"-94.97","74.72","RESOLUTE BAY A","2403498","2020-01-17 09:00","2020","01","17","09:00","-33.2","","-36.8","","71","","","","34","","13","","24.1","","100.54","","","","-44","","Ice Crystals"
"-94.97","74.72","RESOLUTE BAY A","2403498","2020-01-17 10:00","2020","01","17","10:00","-32.9","","-36.4","","71","","","","34","","8","","24.1","","100.48","","","","-41","","Ice Crystals"
"-94.97","74.72","RESOLUTE BAY A","2403498","2020-01-17 11:00","2020","01","17","11:00","-32.1","","-35.7","","72","","","","36","","2","","24.1","","100.38","","","","-34","","Ice Crystals"
"-94.97","74.72","RESOLUTE BAY A","2403498","2020-01-17 12:00","2020","01","17","12:00","-31.8","","-35.3","","72","","","","1","","5","","24.1","","100.33","","","","-38","","Ice Crystals"
"-94.97","74.72","RESOLUTE BAY A","2403498","2020-01-17 13:00","2020","01","17","13:00","-31.2","","-34.7","","72","","","","12","","6","","24.1","","100.25","","","","-38","","Ice Crystals"
"-94.97","74.72","RESOLUTE BAY A","2403498","2020-01-17 14:00","2020","01","17","14:00","-30.7","","-34.1","","73","","","","14","","13","","24.1","","100.16","","","","-41","","Ice Crystals"
"-94.97","74.72","RESOLUTE BAY A","2403498","2020-01-17 15:00","2020","01","17","15:00","-29.2","","-32.5","","74","","","","19","","23","","12.9","","100.09","","","","-43","","Ice Crystals"
"-94.97","74.72","RESOLUTE BAY A","2403498","2020-01-17 16:00","2020","01","17","16:00","-29.0","","-32.3","","74","","","","20","","22","","14.5","","100.01","","","","-42","","Ice Crystals"
"-94.97","74.72","RESOLUTE BAY A","2403498","2020-01-17 17:00","2020","01","17","17:00","-28.5","","-31.7","","74","","","","20","","26","","14.5","","99.94","","","","-43","","Ice Crystals,Blowing Snow"
"-94.97","74.72","RESOLUTE BAY A","2403498","2020-01-17 18:00","2020","01","17","18:00","-27.2","","-30.3","","75","","","","19","","24","","14.5","","99.84","","","","-41","","Snow,Blowing Snow"
"-94.97","74.72","RESOLUTE BAY A","2403498","2020-01-17 19:00","2020","01","17","19:00","-27.1","","-30.3","","75","","","","19","","26","","11.3","","99.72","","","","-41","","Snow,Blowing Snow"
"-94.97","74.72","RESOLUTE BAY A","2403498","2020-01-17 20:00","2020","01","17","20:00","-26.5","","-29.5","","76","","","","17","","19","","14.5","","99.61","","","","-38","","Snow,Blowing Snow"
"-94.97","74.72","RESOLUTE BAY A","2403498","2020-01-17 21:00","2020","01","17","21:00","-24.7","","-27.6","","77","","","","15","","10","","12.9","","99.44","","","","-33","","Snow"
"-94.97","74.72","RESOLUTE BAY A","2403498","2020-01-17 22:00","2020","01","17","22:00","-23.3","","-26.1","","78","","","","18","","35","","14.5","","99.24","","","","-38","","Snow,Blowing Snow"
"-94.97","74.72","RESOLUTE BAY A","2403498","2020-01-17 23:00","2020","01","17","23:00","-22.0","","-24.6","","79","","","","15","","10","","12.9","","99.13","","","","-30","","Snow"
"-94.97","74.72","RESOLUTE BAY A","2403498","2020-01-18 00:00","2020","01","18","00:00","-22.1","","-24.8","","79","","","","19","","30","","8.1","","98.91","","","","-35","","Snow,Blowing Snow"
"-94.97","74.72","RESOLUTE BAY A","2403498","2020-01-18 01:00","2020","01","18","01:00","-19.9","","-22.3","","81","","","","17","","13","","6.4","","98.73","","","","-28","","Snow,Blowing Snow"
"-94.97","74.72","RESOLUTE BAY A","2403498","2020-01-18 02:00","2020","01","18","02:00","-17.0","","-19.2","","83","","","","25","","25","","6.4","","98.61","","","","-28","","Snow,Blowing Snow"
"-94.97","74.72","RESOLUTE BAY A","2403498","2020-01-18 03:00","2020","01","18","03:00","-16.5","","-18.6","","84","","","","30","","14","","8.1","","98.56","","","","-24","","Snow,Blowing Snow"
"-94.97","74.72","RESOLUTE BAY A","2403498","2020-01-18 04:00","2020","01","18","04:00","-15.9","","-18.0","","84","","","","31","","18","","6.4","","98.52","","","","-25","","Snow,Blowing Snow"
"-94.97","74.72","RESOLUTE BAY A","2403498","2020-01-18 05:00","2020","01","18","05:00","-16.5","","-18.6","","84","","","","31","","23","","8.1","","98.53","","","","-27","","Snow,Blowing Snow"
"-94.97","74.72","RESOLUTE BAY A","2403498","2020-01-18 06:00","2020","01","18","06:00","-17.2","","-19.4","","84","","","","31","","23","","9.7","","98.55","","","","-28","","Snow,Blowing Snow"
"-94.97","74.72","RESOLUTE BAY A","2403498","2020-01-18 07:00","2020","01","18","07:00","-17.9","","-20.1","","83","","","","32","","25","","8.1","","98.60","","","","-29","","Snow,Blowing Snow"
"-94.97","74.72","RESOLUTE BAY A","2403498","2020-01-18 08:00","2020","01","18","08:00","-17.7","","-19.9","","83","","","","32","","22","","8.1","","98.63","","","","-28","","Snow,Blowing Snow"
"-94.97","74.72","RESOLUTE BAY A","2403498","2020-01-18 09:00","2020","01","18","09:00","-17.5","","-19.7","","83","","","","32","","11","","8.1","","98.68","","","","-25","","Snow,Blowing Snow"
"-94.97","74.72","RESOLUTE BAY A","2403498","2020-01-18 10:00","2020","01","18","10:00","-16.5","","-18.6","","84","","","","32","","13","","11.3","","98.71","","","","-24","","Snow"
"-94.97","74.72","RESOLUTE BAY A","2403498","2020-01-18 11:00","2020","01","18","11:00","-15.5","","-17.5","","85","","","","32","","17","","12.9","","98.73","","","","-24","","Snow"
"-94.97","74.72","RESOLUTE BAY A","2403498","2020-01-18 12:00","2020","01","18","12:00","-15.2","","-17.2","","85","","","","32","","23","","8.1","","98.70","","","","-25","","Snow,Blowing Snow"
"-94.97","74.72","RESOLUTE BAY A","2403498","2020-01-18 13:00","2020","01","18","13:00","-15.8","","-17.8","","85","","","","32","","30","","8.1","","98.77","","","","-27","","Snow,Blowing Snow"
"-94.97","74.72","RESOLUTE BAY A","2403498","2020-01-18 14:00","2020","01","18","14:00","-16.6","","-18.7","","84","","","","33","","38","","6.4","","98.83","","","","-29","","Snow,Blowing Snow"
"-94.97","74.72","RESOLUTE BAY A","2403498","2020-01-18 15:00","2020","01","18","15:00","-17.4","","-19.5","","84","","","","33","","41","","6.4","","98.88","","","","-31","","Snow,Blowing Snow"
"-94.97","74.72","RESOLUTE BAY A","2403498","2020-01-18 16:00","2020","01","18","16:00","-18.5","","-20.8","","83","","","","32","","39","","6.4","","98.96","","","","-32","","Snow,Blowing Snow"
"-94.97","74.72","RESOLUTE BAY A","2403498","2020-01-18 17:00","2020","01","18","17:00","-19.9","","-22.2","","82","","","","33","","33","","4.8","","99.02","","","","-33","","Snow,Blowing Snow"
"-94.97","74.72","RESOLUTE BAY A","2403498","2020-01-18 18:00","2020","01","18","18:00","-21.1","","-23.6","","81","","","","34","","40","","6.4","","99.12","","","","-36","","Snow,Blowing Snow"
"-94.97","74.72","RESOLUTE BAY A","2403498","2020-01-18 19:00","2020","01","18","19:00","-22.1","","-24.7","","80","","","","34","","47","","4.8","","99.14","","","","-38","","Snow,Blowing Snow"
"-94.97","74.72","RESOLUTE BAY A","2403498","2020-01-18 20:00","2020","01","18","20:00","-22.8","","-25.5","","79","","","","35","","51","","4.8","","99.10","","","","-39","","Snow,Blowing Snow"
"-94.97","74.72","RESOLUTE BAY A","2403498","2020-01-18 21:00","2020","01","18","21:00","-23.2","","-25.9","","79","","","","35","","49","","0.8","","99.11","","","","-40","","Snow,Blowing Snow"
"-94.97","74.72","RESOLUTE BAY A","2403498","2020-01-18 22:00","2020","01","18","22:00","-23.4","","-26.1","","79","","","","34","","45","","0.8","","99.15","","","","-39","","Snow,Blowing Snow"
"-94.97","74.72","RESOLUTE BAY A","2403498","2020-01-18 23:00","2020","01","18","23:00","-23.7","","-26.4","","79","","","","34","","37","","1.0","","99.14","","","","-39","","Snow,Blowing Snow"
"-94.97","74.72","RESOLUTE BAY A","2403498","2020-01-19 00:00","2020","01","19","00:00","-24.8","","-27.6","","78","","","","34","","37","","2.0","","99.16","","","","-40","","Snow,Blowing Snow"
"-94.97","74.72","RESOLUTE BAY A","2403498","2020-01-19 01:00","2020","01","19","01:00","-27.2","","-30.3","","76","","","","35","","42","","2.0","","99.23","","","","-44","","Snow,Blowing Snow"
"-94.97","74.72","RESOLUTE BAY A","2403498","2020-01-19 02:00","2020","01","19","02:00","-27.9","","-31.0","","75","","","","34","","27","","3.2","","99.24","","","","-42","","Snow,Blowing Snow"
"-94.97","74.72","RESOLUTE BAY A","2403498","2020-01-19 03:00","2020","01","19","03:00","-28.1","","-31.2","","75","","","","34","","48","","1.6","","99.16","","","","-46","","Snow,Blowing Snow"
"-94.97","74.72","RESOLUTE BAY A","2403498","2020-01-19 04:00","2020","01","19","04:00","-29.9","","-33.2","","74","","","","34","","45","","1.6","","99.19","","","","-48","","Snow,Blowing Snow"
"-94.97","74.72","RESOLUTE BAY A","2403498","2020-01-19 05:00","2020","01","19","05:00","-30.4","","-33.7","","74","","","","32","","21","","4.0","","99.21","","","","-44","","Snow,Blowing Snow"
"-94.97","74.72","RESOLUTE BAY A","2403498","2020-01-19 06:00","2020","01","19","06:00","-31.0","","-34.4","","73","","","","32","","30","","4.0","","99.17","","","","-47","","Snow,Blowing Snow"
"-94.97","74.72","RESOLUTE BAY A","2403498","2020-01-19 07:00","2020","01","19","07:00"
"-94.97","74.72","RESOLUTE BAY A","2403498","2020-01-19 08:00","2020","01","19","08:00"
"-94.97","74.72","RESOLUTE BAY A","2403498","2020-01-19 09:00","2020","01","19","09:00"
"-94.97","74.72","RESOLUTE BAY A","2403498","2020-01-19 10:00","2020","01","19","10:00","-31.5","","-34.9","","73","","","","31","","22","","8.1","","99.09","","","","-46","","Ice Crystals,Blowing Snow"
"-94.97","74.72","RESOLUTE BAY A","2403498","2020-01-19 11:00","2020","01","19","11:00","-31.5","","-34.9","","73","","","","33","","31","","9.7","","99.04","","","","-48","","Ice Crystals,Blowing Snow"
"-94.97","74.72","RESOLUTE BAY A","2403498","2020-01-19 12:00","2020","01","19","12:00","-31.5","","-34.9","","73","","","","34","","20","","12.9","","99.04","","","","-45","","Ice Crystals"
"-94.97","74.72","RESOLUTE BAY A","2403498","2020-01-19 13:00","2020","01","19","13:00","-30.6","","-33.9","","73","","","","33","","25","","8.1","","98.98","","","","-45","","Ice Crystals,Blowing Snow"
"-94.97","74.72","RESOLUTE BAY A","2403498","2020-01-19 14:00","2020","01","19","14:00","-29.1","","-32.3","","74","","","","33","","24","","8.1","","98.97","","","","-43","","Ice Crystals,Blowing Snow"
"-94.97","74.72","RESOLUTE BAY A","2403498","2020-01-19 15:00","2020","01","19","15:00","-27.7","","-30.8","","75","","","","32","","27","","11.3","","98.99","","","","-42","","Ice Crystals,Blowing Snow"
"-94.97","74.72","RESOLUTE BAY A","2403498","2020-01-19 16:00","2020","01","19","16:00","-28.2","","-31.3","","75","","","","32","","35","","9.7","","99.02","","","","-44","","Snow,Blowing Snow"
"-94.97","74.72","RESOLUTE BAY A","2403498","2020-01-19 17:00","2020","01","19","17:00","-29.2","","-32.4","","74","","","","33","","47","","3.2","","99.00","","","","-48","","Snow,Blowing Snow"
"-94.97","74.72","RESOLUTE BAY A","2403498","2020-01-19 18:00","2020","01","19","18:00","-30.5","","-33.9","","73","","","","32","","41","","4.0","","99.04","","","","-48","","Snow,Blowing Snow"
"-94.97","74.72","RESOLUTE BAY A","2403498","2020-01-19 19:00","2020","01","19","19:00","-32.3","","-35.7","","72","","","","34","","31","","9.7","","99.14","","","","-49","","Snow,Blowing Snow"
"-94.97","74.72","RESOLUTE BAY A","2403498","2020-01-19 20:00","2020","01","19","20:00","-33.5","","-37.1","","71","","","","30","","19","","9.7","","99.18","","","","-47","","Snow"
"-94.97","74.72","RESOLUTE BAY A","2403498","2020-01-19 21:00","2020","01","19","21:00","-33.7","","-37.3","","71","","","","32","","30","","11.3","","99.19","","","","-50","","Snow"
"-94.97","74.72","RESOLUTE BAY A","2403498","2020-01-19 22:00","2020","01","19","22:00","-34.1","","-37.8","","71","","","","30","","14","","11.3","","99.24","","","","-46","","Snow"
"-94.97","74.72","RESOLUTE BAY A","2403498","2020-01-19 23:00","2020","01","19","23:00","-34.3","","-38.0","","70","","","","32","","22","","12.9","","99.21","","","","-49","","Snow"
"-94.97","74.72","RESOLUTE BAY A","2403498","2020-01-20 00:00","2020","01","20","00:00","-34.9","","-38.6","","70","","","","35","","18","","12.9","","99.28","","","","-49","","Snow"
"-94.97","74.72","RESOLUTE BAY A","2403498","2020-01-20 01:00","2020","01","20","01:00","-35.1","","-38.8","","70","","","","35","","31","","14.5","","99.30","","","","-52","","Snow"
"-94.97","74.72","RESOLUTE BAY A","2403498","2020-01-20 02:00","2020","01","20","02:00","-35.2","","-38.9","","70","","","","33","","30","","16.1","","99.34","","","","-52","","Snow"
"-94.97","74.72","RESOLUTE BAY A","2403498","2020-01-20 03:00","2020","01","20","03:00","-35.4","","-39.1","","70","","","","35","","19","","16.1","","99.41","","","","-50","","Snow"
"-94.97","74.72","RESOLUTE BAY A","2403498","2020-01-20 04:00","2020","01","20","04:00","-35.5","","-39.3","","69","","","","32","","30","","16.1","","99.42","","","","-53","","Ice Crystals"
"-94.97","74.72","RESOLUTE BAY A","2403498","2020-01-20 05:00","2020","01","20","05:00","-36.1","","-39.9","","69","","","","33","","22","","16.1","","99.49","","","","-51","","Ice Crystals"
"-94.97","74.72","RESOLUTE BAY A","2403498","2020-01-20 06:00","2020","01","20","06:00","-36.3","","-40.1","","69","","","","32","","30","","16.1","","99.50","","","","-54","","Ice Crystals"
"-94.97","74.72","RESOLUTE BAY A","2403498","2020-01-20 07:00","2020","01","20","07:00","-35.6","","-39.4","","69","","","","34","","36","","16.1","","99.51","","","","-54","","Ice Crystals"
"-94.97","74.72","RESOLUTE BAY A","2403498","2020-01-20 08:00","2020","01","20","08:00","-35.2","","-39.0","","70","","","","34","","28","","16.1","","99.54","","","","-52","","Ice Crystals,Blowing Snow"
"-94.97","74.72","RESOLUTE BAY A","2403498","2020-01-20 09:00","2020","01","20","09:00","-35.6","","-39.4","","69","","","","27","","6","","24.1","","99.61","","","","-43","","Ice Crystals"
"-94.97","74.72","RESOLUTE BAY A","2403498","2020-01-20 10:00","2020","01","20","10:00","-36.0","","-39.9","","69","","","","34","","26","","24.1","","99.61","","","","-52","","Ice Crystals"
"-94.97","74.72","RESOLUTE BAY A","2403498","2020-01-20 11:00","2020","01","20","11:00","-36.9","","-40.8","","68","","","","32","","21","","24.1","","99.65","","","","-52","","Ice Crystals"
"-94.97","74.72","RESOLUTE BAY A","2403498","2020-01-20 12:00","2020","01","20","12:00","-36.2","","-40.0","","69","","","","35","","26","","24.1","","99.67","","","","-53","","Ice Crystals"
"-94.97","74.72","RESOLUTE BAY A","2403498","2020-01-20 13:00","2020","01","20","13:00","-37.2","","-41.1","","68","","","","2","","27","","32.2","","99.67","","","","-54","","Ice Crystals"
"-94.97","74.72","RESOLUTE BAY A","2403498","2020-01-20 14:00","2020","01","20","14:00","-36.9","","-40.8","","68","","","","3","","31","","32.2","","99.70","","","","-55","","Ice Crystals"
"-94.97","74.72","RESOLUTE BAY A","2403498","2020-01-20 15:00","2020","01","20","15:00","-35.7","","-39.5","","69","","","","4","","35","","32.2","","99.76","","","","-54","","Ice Crystals"
"-94.97","74.72","RESOLUTE BAY A","2403498","2020-01-20 16:00","2020","01","20","16:00","-35.0","","-38.8","","70","","","","31","","17","","32.2","","99.81","","","","-48","","Ice Crystals"
"-94.97","74.72","RESOLUTE BAY A","2403498","2020-01-20 17:00","2020","01","20","17:00","-33.2","","-36.8","","71","","","","3","","20","","32.2","","99.83","","","","-47","","Ice Crystals"
"-94.97","74.72","RESOLUTE BAY A","2403498","2020-01-20 18:00","2020","01","20","18:00","-35.8","","-39.6","","69","","","","3","","38","","32.2","","99.85","","","","-55","","Ice Crystals"
"-94.97","74.72","RESOLUTE BAY A","2403498","2020-01-20 19:00","2020","01","20","19:00","-35.3","","-39.1","","69","","","","4","","43","","24.1","","99.85","","","","-55","","Ice Crystals,Blowing Snow"
"-94.97","74.72","RESOLUTE BAY A","2403498","2020-01-20 20:00","2020","01","20","20:00","-33.4","","-37.1","","71","","","","3","","25","","24.1","","99.88","","","","-49","","Ice Crystals,Blowing Snow"
"-94.97","74.72","RESOLUTE BAY A","2403498","2020-01-20 21:00","2020","01","20","21:00","-34.4","","-38.1","","70","","","","14","","6","","24.1","","99.93","","","","-42","","Ice Crystals"
"-94.97","74.72","RESOLUTE BAY A","2403498","2020-01-20 22:00","2020","01","20","22:00","-34.6","","-38.3","","70","","","","31","","19","","24.1","","99.95","","","","-49","","Ice Crystals"
"-94.97","74.72","RESOLUTE BAY A","2403498","2020-01-20 23:00","2020","01","20","23:00","-35.0","","-38.8","","69","","","","4","","36","","24.1","","99.88","","","","-53","","Ice Crystals"
"-94.97","74.72","RESOLUTE BAY A","2403498","2020-01-21 00:00","2020","01","21","00:00","-33.5","","-37.2","","71","","","","7","","29","","24.1","","99.88","","","","-50","","Ice Crystals"
"-94.97","74.72","RESOLUTE BAY A","2403498","2020-01-21 01:00","2020","01","21","01:00","-33.3","","-36.9","","71","","","","7","","21","","24.1","","99.92","","","","-48","","Ice Crystals"
"-94.97","74.72","RESOLUTE BAY A","2403498","2020-01-21 02:00","2020","01","21","02:00","-32.7","","-36.3","","71","","","","7","","15","","24.1","","99.93","","","","-45","","Ice Crystals"
"-94.97","74.72","RESOLUTE BAY A","2403498","2020-01-21 03:00","2020","01","21","03:00","-32.1","","-35.6","","72","","","","6","","11","","24.1","","99.97","","","","-42","","Ice Crystals"
"-94.97","74.72","RESOLUTE BAY A","2403498","2020-01-21 04:00","2020","01","21","04:00","-30.5","","-33.9","","73","","","","5","","5","","24.1","","99.99","","","","-36","","Ice Crystals"
"-94.97","74.72","RESOLUTE BAY A","2403498","2020-01-21 05:00","2020","01","21","05:00","-31.9","","-35.4","","72","","","","4","","19","","24.1","","100.01","","","","-45","","Ice Crystals"
"-94.97","74.72","RESOLUTE BAY A","2403498","2020-01-21 06:00","2020","01","21","06:00","-31.9","","-35.5","","72","","","","5","","21","","24.1","","100.01","","","","-46","","Ice Crystals"
"-94.97","74.72","RESOLUTE BAY A","2403498","2020-01-21 07:00","2020","01","21","07:00","-30.5","","-33.9","","73","","","","6","","30","","24.1","","100.03","","","","-46","","Ice Crystals"
"-94.97","74.72","RESOLUTE BAY A","2403498","2020-01-21 08:00","2020","01","21","08:00","-31.0","","-34.5","","72","","","","6","","35","","24.1","","100.00","","","","-48","","Ice Crystals"
"-94.97","74.72","RESOLUTE BAY A","2403498","2020-01-21 09:00","2020","01","21","09:00","-31.2","","-34.7","","72","","","","6","","35","","24.1","","100.01","","","","-48","","Ice Crystals,Blowing Snow"
"-94.97","74.72","RESOLUTE BAY A","2403498","2020-01-21 10:00","2020","01","21","10:00","-30.1","","-33.5","","73","","","","6","","38","","32.2","","100.01","","","","-47","","Ice Crystals,Blowing Snow"
"-94.97","74.72","RESOLUTE BAY A","2403498","2020-01-21 11:00","2020","01","21","11:00","-29.2","","-32.5","","74","","","","4","","39","","24.1","","100.00","","","","-46","","Ice Crystals,Blowing Snow"
"-94.97","74.72","RESOLUTE BAY A","2403498","2020-01-21 12:00","2020","01","21","12:00","-27.4","","-30.6","","74","","","","4","","33","","16.1","","100.00","","","","-43","","Ice Crystals,Blowing Snow"
"-94.97","74.72","RESOLUTE BAY A","2403498","2020-01-21 13:00","2020","01","21","13:00","-28.4","","-31.7","","74","","","","4","","36","","24.1","","100.00","","","","-45","","Ice Crystals,Blowing Snow"
"-94.97","74.72","RESOLUTE BAY A","2403498","2020-01-21 14:00","2020","01","21","14:00","-30.3","","-33.7","","73","","","","3","","37","","24.1","","100.03","","","","-47","","Ice Crystals,Blowing Snow"
"-94.97","74.72","RESOLUTE BAY A","2403498","2020-01-21 15:00","2020","01","21","15:00","-31.6","","-35.1","","72","","","","3","","41","","24.1","","100.03","","","","-50","","Ice Crystals,Blowing Snow"
"-94.97","74.72","RESOLUTE BAY A","2403498","2020-01-21 16:00","2020","01","21","16:00","-32.5","","-36.0","","71","","","","3","","40","","19.3","","100.04","","","","-51","","Ice Crystals,Blowing Snow"
"-94.97","74.72","RESOLUTE BAY A","2403498","2020-01-21 17:00","2020","01","21","17:00","-32.9","","-36.5","","71","","","","3","","40","","19.3","","100.04","","","","-51","","Ice Crystals,Blowing Snow"
"-94.97","74.72","RESOLUTE BAY A","2403498","2020-01-21 18:00","2020","01","21","18:00","-32.6","","-36.2","","71","","","","3","","36","","24.1","","100.04","","","","-50","","Ice Crystals,Blowing Snow"
"-94.97","74.72","RESOLUTE BAY A","2403498","2020-01-21 19:00","2020","01","21","19:00","-32.4","","-36.0","","71","","","","3","","39","","24.1","","100.00","","","","-51","","Ice Crystals,Blowing Snow"
"-94.97","74.72","RESOLUTE BAY A","2403498","2020-01-21 20:00","2020","01","21","20:00","-32.6","","-36.3","","70","","","","2","","27","","24.1","","100.01","","","","-48","","Ice Crystals"
"-94.97","74.72","RESOLUTE BAY A","2403498","2020-01-21 21:00","2020","01","21","21:00","-31.6","","-35.3","","71","","","","4","","39","","24.1","","99.96","","","","-49","","Ice Crystals,Blowing Snow"
"-94.97","74.72","RESOLUTE BAY A","2403498","2020-01-21 22:00","2020","01","21","22:00","-32.0","","-35.6","","71","","","","3","","40","","24.1","","99.95","","","","-50","","Ice Crystals,Blowing Snow"
"-94.97","74.72","RESOLUTE BAY A","2403498","2020-01-21 23:00","2020","01","21","23:00","-31.6","","-35.2","","71","","","","4","","44","","24.1","","99.93","","","","-50","","Ice Crystals,Blowing Snow"
"-94.97","74.72","RESOLUTE BAY A","2403498","2020-01-22 00:00","2020","01","22","00:00","-31.8","","-35.6","","70","","","","3","","45","","24.1","","99.94","","","","-51","","Ice Crystals"
"-94.97","74.72","RESOLUTE BAY A","2403498","2020-01-22 01:00","2020","01","22","01:00","-30.8","","-34.6","","71","","","","2","","45","","24.1","","99.94","","","","-49","","Ice Crystals,Blowing Snow"
"-94.97","74.72","RESOLUTE BAY A","2403498","2020-01-22 02:00","2020","01","22","02:00","-31.7","","-35.5","","70","","","","3","","46","","24.1","","99.97","","","","-51","","Ice Crystals,Blowing Snow"
"-94.97","74.72","RESOLUTE BAY A","2403498","2020-01-22 03:00","2020","01","22","03:00","-32.6","","-36.4","","69","","","","3","","48","","24.1","","100.00","","","","-52","","Ice Crystals,Blowing Snow"
"-94.97","74.72","RESOLUTE BAY A","2403498","2020-01-22 04:00","2020","01","22","04:00","-32.5","","-36.2","","70","","","","3","","37","","24.1","","100.05","","","","-50","","Ice Crystals,Blowing Snow"
"-94.97","74.72","RESOLUTE BAY A","2403498","2020-01-22 05:00","2020","01","22","05:00","-32.0","","-35.6","","71","","","","3","","32","","24.1","","100.08","","","","-49","","Ice Crystals,Blowing Snow"
"-94.97","74.72","RESOLUTE BAY A","2403498","2020-01-22 06:00","2020","01","22","06:00","-29.1","","-32.7","","72","","","","1","","40","","24.1","","100.09","","","","-46","","Ice Crystals,Blowing Snow"
"-94.97","74.72","RESOLUTE BAY A","2403498","2020-01-22 07:00","2020","01","22","07:00","-30.9","","-34.6","","71","","","","2","","34","","24.1","","100.11","","","","-48","","Ice Crystals,Blowing Snow"
"-94.97","74.72","RESOLUTE BAY A","2403498","2020-01-22 08:00","2020","01","22","08:00","-31.1","","-34.7","","71","","","","33","","27","","24.1","","100.11","","","","-46","","Ice Crystals"
"-94.97","74.72","RESOLUTE BAY A","2403498","2020-01-22 09:00","2020","01","22","09:00","-32.0","","-35.7","","70","","","","36","","26","","24.1","","100.12","","","","-47","","Ice Crystals"
"-94.97","74.72","RESOLUTE BAY A","2403498","2020-01-22 10:00","2020","01","22","10:00","-32.9","","-36.5","","71","","","","31","","21","","24.1","","100.13","","","","-47","","Ice Crystals"
"-94.97","74.72","RESOLUTE BAY A","2403498","2020-01-22 11:00","2020","01","22","11:00","-34.6","","-38.3","","70","","","","32","","21","","24.1","","100.13","","","","-49","","Ice Crystals"
"-94.97","74.72","RESOLUTE BAY A","2403498","2020-01-22 12:00","2020","01","22","12:00","-36.0","","-39.7","","70","","","","33","","18","","32.2","","100.15","","","","-50","","Ice Crystals"
"-94.97","74.72","RESOLUTE BAY A","2403498","2020-01-22 13:00","2020","01","22","13:00","-35.4","","-39.0","","70","","","","32","","15","","32.2","","100.17","","","","-48","","Ice Crystals"
"-94.97","74.72","RESOLUTE BAY A","2403498","2020-01-22 14:00","2020","01","22","14:00","-34.2","","-37.7","","71","","","","33","","16","","32.2","","100.16","","","","-47","","Ice Crystals"
"-94.97","74.72","RESOLUTE BAY A","2403498","2020-01-22 15:00","2020","01","22","15:00","-34.8","","-38.4","","71","","","","32","","16","","32.2","","100.18","","","","-48","","Ice Crystals"
"-94.97","74.72","RESOLUTE BAY A","2403498","2020-01-22 16:00","2020","01","22","16:00","-36.3","","-40.0","","70","","","","33","","14","","32.2","","100.17","","","","-49","","Ice Crystals"
"-94.97","74.72","RESOLUTE BAY A","2403498","2020-01-22 17:00","2020","01","22","17:00","-36.4","","-40.2","","69","","","","32","","13","","24.1","","100.18","","","","-48","","Ice Crystals"
"-94.97","74.72","RESOLUTE BAY A","2403498","2020-01-22 18:00","2020","01","22","18:00","-36.8","","-40.6","","69","","","","31","","18","","32.2","","100.20","","","","-51","","Ice Crystals"
"-94.97","74.72","RESOLUTE BAY A","2403498","2020-01-22 19:00","2020","01","22","19:00","-36.2","","-40.0","","69","","","","33","","14","","32.2","","100.18","","","","-49","","Ice Crystals"
"-94.97","74.72","RESOLUTE BAY A","2403498","2020-01-22 20:00","2020","01","22","20:00","-36.2","","-40.0","","69","","","","31","","15","","24.1","","100.19","","","","-49","","Ice Crystals"
"-94.97","74.72","RESOLUTE BAY A","2403498","2020-01-22 21:00","2020","01","22","21:00","-36.5","","-40.4","","69","","","","30","","12","","24.1","","100.19","","","","-48","","Ice Crystals"
"-94.97","74.72","RESOLUTE BAY A","2403498","2020-01-22 22:00","2020","01","22","22:00","-37.1","","-41.0","","68","","","","31","","12","","24.1","","100.19","","","","-49","","Ice Crystals"
"-94.97","74.72","RESOLUTE BAY A","2403498","2020-01-22 23:00","2020","01","22","23:00","-37.2","","-41.1","","68","","","","32","","7","","24.1","","100.19","","","","-46","","Ice Crystals"
"-94.97","74.72","RESOLUTE BAY A","2403498","2020-01-23 00:00","2020","01","23","00:00","-36.3","","-40.1","","69","","","","29","","20","","24.1","","100.18","","","","-51","","Ice Crystals"
"-94.97","74.72","RESOLUTE BAY A","2403498","2020-01-23 01:00","2020","01","23","01:00","-36.0","","-39.9","","69","","","","29","","12","","24.1","","100.22","","","","-47","","Ice Crystals"
"-94.97","74.72","RESOLUTE BAY A","2403498","2020-01-23 02:00","2020","01","23","02:00","-36.3","","-40.2","","69","","","","29","","15","","24.1","","100.27","","","","-49","","Ice Crystals"
"-94.97","74.72","RESOLUTE BAY A","2403498","2020-01-23 03:00","2020","01","23","03:00","-35.9","","-39.7","","69","","","","29","","13","","24.1","","100.28","","","","-48","","Ice Crystals"
"-94.97","74.72","RESOLUTE BAY A","2403498","2020-01-23 04:00","2020","01","23","04:00","-36.0","","-39.8","","69","","","","28","","17","","24.1","","100.30","","","","-50","","Ice Crystals"
"-94.97","74.72","RESOLUTE BAY A","2403498","2020-01-23 05:00","2020","01","23","05:00","-35.8","","-39.6","","69","","","","29","","18","","24.1","","100.32","","","","-50","","Ice Crystals"
"-94.97","74.72","RESOLUTE BAY A","2403498","2020-01-23 06:00","2020","01","23","06:00","-37.6","","-41.5","","68","","","","32","","12","","24.1","","100.33","","","","-49","","Ice Crystals"
"-94.97","74.72","RESOLUTE BAY A","2403498","2020-01-23 07:00","2020","01","23","07:00","-37.5","","-41.4","","68","","","","33","","9","","24.1","","100.37","","","","-47","","Ice Crystals"
"-94.97","74.72","RESOLUTE BAY A","2403498","2020-01-23 08:00","2020","01","23","08:00","-38.4","","-42.4","","67","","","","33","","11","","24.1","","100.39","","","","-50","","Ice Crystals"
"-94.97","74.72","RESOLUTE BAY A","2403498","2020-01-23 09:00","2020","01","23","09:00","-38.7","","-42.7","","67","","","","33","","13","","24.1","","100.43","","","","-51","","Ice Crystals"
"-94.97","74.72","RESOLUTE BAY A","2403498","2020-01-23 10:00","2020","01","23","10:00","-38.2","","-42.2","","67","","","","34","","14","","24.1","","100.47","","","","-51","","Ice Crystals"
"-94.97","74.72","RESOLUTE BAY A","2403498","2020-01-23 11:00","2020","01","23","11:00","-37.4","","-41.3","","68","","","","35","","13","","24.1","","100.50","","","","-50","","Ice Crystals"
"-94.97","74.72","RESOLUTE BAY A","2403498","2020-01-23 12:00","2020","01","23","12:00","-38.1","","-42.2","","67","","","","34","","14","","19.3","","100.54","","","","-51","","Ice Crystals"
"-94.97","74.72","RESOLUTE BAY A","2403498","2020-01-23 13:00","2020","01","23","13:00","-38.3","","-42.4","","67","","","","32","","10","","19.3","","100.56","","","","-49","","Ice Crystals"
"-94.97","74.72","RESOLUTE BAY A","2403498","2020-01-23 14:00","2020","01","23","14:00","-38.5","","-42.5","","67","","","","32","","14","","19.3","","100.61","","","","-51","","Ice Crystals"
"-94.97","74.72","RESOLUTE BAY A","2403498","2020-01-23 15:00","2020","01","23","15:00","-39.1","","-43.2","","66","","","","35","","8","","19.3","","100.67","","","","-49","","Ice Crystals"
"-94.97","74.72","RESOLUTE BAY A","2403498","2020-01-23 16:00","2020","01","23","16:00","-38.0","","-42.0","","67","","","","2","","22","","24.1","","100.67","","","","-54","","Ice Crystals"
"-94.97","74.72","RESOLUTE BAY A","2403498","2020-01-23 17:00","2020","01","23","17:00","-37.7","","-41.7","","67","","","","33","","6","","24.1","","100.69","","","","-45","","Ice Crystals"
"-94.97","74.72","RESOLUTE BAY A","2403498","2020-01-23 18:00","2020","01","23","18:00","-39.2","","-43.3","","66","","","","32","","14","","16.1","","100.71","","","","-52","","Ice Crystals"
"-94.97","74.72","RESOLUTE BAY A","2403498","2020-01-23 19:00","2020","01","23","19:00","-39.8","","-43.9","","66","","","","32","","6","","11.3","","100.72","","","","-48","","Ice Crystals"
"-94.97","74.72","RESOLUTE BAY A","2403498","2020-01-23 20:00","2020","01","23","20:00","-38.4","","-42.5","","67","","","","33","","8","","19.3","","100.72","","","","-48","","Ice Crystals"
"-94.97","74.72","RESOLUTE BAY A","2403498","2020-01-23 21:00","2020","01","23","21:00","-37.7","","-41.7","","67","","","","1","","16","","24.1","","100.71","","","","-51","","Ice Crystals"
"-94.97","74.72","RESOLUTE BAY A","2403498","2020-01-23 22:00","2020","01","23","22:00","-38.9","","-42.9","","66","","","","32","","17","","24.1","","100.71","","","","-53","","Ice Crystals"
"-94.97","74.72","RESOLUTE BAY A","2403498","2020-01-23 23:00","2020","01","23","23:00","-39.0","","-43.1","","66","","","","33","","14","","24.1","","100.68","","","","-52","","Ice Crystals"
"-94.97","74.72","RESOLUTE BAY A","2403498","2020-01-24 00:00","2020","01","24","00:00","-37.3","","-41.3","","67","","","","33","","16","","24.1","","100.70","","","","-51","","Ice Crystals"
"-94.97","74.72","RESOLUTE BAY A","2403498","2020-01-24 01:00","2020","01","24","01:00","-37.7","","-41.7","","67","","","","32","","9","","24.1","","100.70","","","","-48","","Ice Crystals"
"-94.97","74.72","RESOLUTE BAY A","2403498","2020-01-24 02:00","2020","01","24","02:00","-37.2","","-41.2","","67","","","","30","","10","","24.1","","100.73","","","","-48","","Ice Crystals"
"-94.97","74.72","RESOLUTE BAY A","2403498","2020-01-24 03:00","2020","01","24","03:00","-37.7","","-41.7","","67","","","","33","","13","","24.1","","100.72","","","","-50","","Ice Crystals"
"-94.97","74.72","RESOLUTE BAY A","2403498","2020-01-24 04:00","2020","01","24","04:00","-39.6","","-43.7","","66","","","","31","","9","","24.1","","100.72","","","","-50","","Ice Crystals"
"-94.97","74.72","RESOLUTE BAY A","2403498","2020-01-24 05:00","2020","01","24","05:00","-39.8","","-43.9","","66","","","","33","","13","","4.8","","100.70","","","","-53","","Ice Crystals,Fog"
"-94.97","74.72","RESOLUTE BAY A","2403498","2020-01-24 06:00","2020","01","24","06:00","-39.2","","-43.3","","66","","","","34","","18","","11.3","","100.66","","","","-54","","Ice Crystals"
"-94.97","74.72","RESOLUTE BAY A","2403498","2020-01-24 07:00","2020","01","24","07:00","-38.1","","-42.1","","67","","","","34","","19","","9.7","","100.63","","","","-53","","Ice Crystals"
"-94.97","74.72","RESOLUTE BAY A","2403498","2020-01-24 08:00","2020","01","24","08:00","-37.8","","-41.8","","67","","","","33","","19","","16.1","","100.60","","","","-53","","Ice Crystals"
"-94.97","74.72","RESOLUTE BAY A","2403498","2020-01-24 09:00","2020","01","24","09:00","-37.4","","-41.4","","67","","","","35","","23","","16.1","","100.58","","","","-53","","Ice Crystals"
"-94.97","74.72","RESOLUTE BAY A","2403498","2020-01-24 10:00","2020","01","24","10:00","-37.4","","-41.3","","67","","","","35","","15","","16.1","","100.55","","","","-51","","Ice Crystals"
"-94.97","74.72","RESOLUTE BAY A","2403498","2020-01-24 11:00","2020","01","24","11:00","-37.3","","-41.2","","67","","","","33","","15","","11.3","","100.51","","","","-50","","Ice Crystals"
"-94.97","74.72","RESOLUTE BAY A","2403498","2020-01-24 12:00","2020","01","24","12:00","-38.6","","-42.7","","67","","","","32","","12","","16.1","","100.48","","","","-51","","Ice Crystals"
"-94.97","74.72","RESOLUTE BAY A","2403498","2020-01-24 13:00","2020","01","24","13:00","-37.7","","-41.7","","67","","","","33","","15","","16.1","","100.47","","","","-51","","Ice Crystals"
"-94.97","74.72","RESOLUTE BAY A","2403498","2020-01-24 14:00","2020","01","24","14:00","-37.1","","-41.0","","68","","","","34","","16","","12.9","","100.48","","","","-51","","Ice Crystals"
"-94.97","74.72","RESOLUTE BAY A","2403498","2020-01-24 15:00","2020","01","24","15:00","-37.8","","-41.8","","67","","","","33","","13","","12.9","","100.49","","","","-50","","Ice Crystals"
"-94.97","74.72","RESOLUTE BAY A","2403498","2020-01-24 16:00","2020","01","24","16:00","-37.5","","-41.5","","67","","","","34","","15","","12.9","","100.46","","","","-51","","Ice Crystals"
"-94.97","74.72","RESOLUTE BAY A","2403498","2020-01-24 17:00","2020","01","24","17:00","-37.8","","-41.8","","67","","","","33","","14","","12.9","","100.45","","","","-51","","Ice Crystals"
"-94.97","74.72","RESOLUTE BAY A","2403498","2020-01-24 18:00","2020","01","24","18:00","-37.8","","-41.8","","67","","","","33","","20","","12.9","","100.46","","","","-53","","Ice Crystals"
"-94.97","74.72","RESOLUTE BAY A","2403498","2020-01-24 19:00","2020","01","24","19:00","-38.5","","-42.5","","67","","","","34","","14","","12.9","","100.43","","","","-51","","Ice Crystals"
"-94.97","74.72","RESOLUTE BAY A","2403498","2020-01-24 20:00","2020","01","24","20:00","-38.3","","-42.3","","67","","","","33","","12","","16.1","","100.44","","","","-50","","Ice Crystals"
"-94.97","74.72","RESOLUTE BAY A","2403498","2020-01-24 21:00","2020","01","24","21:00","-39.0","","-43.1","","66","","","","31","","12","","12.9","","100.44","","","","-51","","Ice Crystals"
"-94.97","74.72","RESOLUTE BAY A","2403498","2020-01-24 22:00","2020","01","24","22:00","-38.3","","-42.4","","67","","","","33","","16","","9.7","","100.43","","","","-52","","Ice Crystals"
"-94.97","74.72","RESOLUTE BAY A","2403498","2020-01-24 23:00","2020","01","24","23:00","-37.8","","-41.9","","67","","","","34","","18","","14.5","","100.47","","","","-52","","Ice Crystals"
"-94.97","74.72","RESOLUTE BAY A","2403498","2020-01-25 00:00","2020","01","25","00:00","-38.7","","-42.8","","66","","","","32","","13","","12.9","","100.51","","","","-51","","Ice Crystals"
"-94.97","74.72","RESOLUTE BAY A","2403498","2020-01-25 01:00","2020","01","25","01:00","-38.0","","-42.1","","67","","","","32","","17","","11.3","","100.53","","","","-52","","Ice Crystals"
"-94.97","74.72","RESOLUTE BAY A","2403498","2020-01-25 02:00","2020","01","25","02:00","-38.3","","-42.4","","67","","","","34","","16","","9.7","","100.56","","","","-52","","Ice Crystals"
"-94.97","74.72","RESOLUTE BAY A","2403498","2020-01-25 03:00","2020","01","25","03:00","-37.0","","-41.0","","68","","","","34","","21","","24.1","","100.59","","","","-52","","Ice Crystals"
"-94.97","74.72","RESOLUTE BAY A","2403498","2020-01-25 04:00","2020","01","25","04:00","-37.0","","-41.0","","68","","","","34","","13","","16.1","","100.61","","","","-49","","Ice Crystals"
"-94.97","74.72","RESOLUTE BAY A","2403498","2020-01-25 05:00","2020","01","25","05:00","-39.4","","-43.5","","66","","","","34","","13","","12.9","","100.67","","","","-52","","Ice Crystals"
"-94.97","74.72","RESOLUTE BAY A","2403498","2020-01-25 06:00","2020","01","25","06:00","-38.9","","-43.0","","66","","","","33","","14","","8.1","","100.66","","","","-52","","Ice Crystals"
"-94.97","74.72","RESOLUTE BAY A","2403498","2020-01-25 07:00","2020","01","25","07:00","-36.8","","-40.8","","68","","","","34","","22","","14.5","","100.65","","","","-52","","Ice Crystals"
"-94.97","74.72","RESOLUTE BAY A","2403498","2020-01-25 08:00","2020","01","25","08:00","-36.3","","-40.2","","68","","","","34","","21","","9.7","","100.67","","","","-51","","Ice Crystals"
"-94.97","74.72","RESOLUTE BAY A","2403498","2020-01-25 09:00","2020","01","25","09:00","-36.1","","-40.0","","68","","","","34","","18","","16.1","","100.71","","","","-50","","Ice Crystals"
"-94.97","74.72","RESOLUTE BAY A","2403498","2020-01-25 10:00","2020","01","25","10:00","-35.5","","-39.3","","69","","","","32","","14","","16.1","","100.75","","","","-48","","Ice Crystals"
"-94.97","74.72","RESOLUTE BAY A","2403498","2020-01-25 11:00","2020","01","25","11:00","-35.8","","-39.7","","68","","","","34","","14","","12.9","","100.78","","","","-48","","Ice Crystals"
"-94.97","74.72","RESOLUTE BAY A","2403498","2020-01-25 12:00","2020","01","25","12:00","-36.2","","-40.1","","68","","","","33","","15","","12.9","","100.80","","","","-49","","Ice Crystals"
"-94.97","74.72","RESOLUTE BAY A","2403498","2020-01-25 13:00","2020","01","25","13:00","-36.0","","-39.9","","68","","","","33","","13","","16.1","","100.85","","","","-48","","Ice Crystals"
"-94.97","74.72","RESOLUTE BAY A","2403498","2020-01-25 14:00","2020","01","25","14:00","-35.7","","-39.5","","69","","","","34","","16","","16.1","","100.91","","","","-49","","Ice Crystals"
"-94.97","74.72","RESOLUTE BAY A","2403498","2020-01-25 15:00","2020","01","25","15:00","-35.9","","-39.8","","68","","","","32","","14","","12.9","","100.96","","","","-48","","Ice Crystals"
"-94.97","74.72","RESOLUTE BAY A","2403498","2020-01-25 16:00","2020","01","25","16:00","-36.0","","-39.9","","68","","","","34","","12","","16.1","","100.97","","","","-47","","Ice Crystals"
"-94.97","74.72","RESOLUTE BAY A","2403498","2020-01-25 17:00","2020","01","25","17:00","-36.0","","-39.9","","68","","","","34","","13","","16.1","","101.01","","","","-48","","Ice Crystals"
"-94.97","74.72","RESOLUTE BAY A","2403498","2020-01-25 18:00","2020","01","25","18:00","-36.4","","-40.3","","68","","","","34","","13","","16.1","","101.00","","","","-48","","Ice Crystals"
"-94.97","74.72","RESOLUTE BAY A","2403498","2020-01-25 19:00","2020","01","25","19:00","-35.8","","-39.6","","68","","","","33","","14","","16.1","","100.98","","","","-48","","Ice Crystals"
"-94.97","74.72","RESOLUTE BAY A","2403498","2020-01-25 20:00","2020","01","25","20:00","-35.3","","-39.2","","69","","","","33","","13","","16.1","","100.98","","","","-47","","Ice Crystals"
"-94.97","74.72","RESOLUTE BAY A","2403498","2020-01-25 21:00","2020","01","25","21:00","-33.8","","-37.5","","70","","","","33","","8","","16.1","","100.96","","","","-42","","Ice Crystals"
"-94.97","74.72","RESOLUTE BAY A","2403498","2020-01-25 22:00","2020","01","25","22:00","-35.5","","-39.3","","69","","","","31","","10","","24.1","","100.97","","","","-46","","Ice Crystals"
"-94.97","74.72","RESOLUTE BAY A","2403498","2020-01-25 23:00","2020","01","25","23:00","-35.9","","-39.8","","68","","","","33","","9","","24.1","","100.98","","","","-46","","Ice Crystals"
"-94.97","74.72","RESOLUTE BAY A","2403498","2020-01-26 00:00","2020","01","26","00:00","-36.2","","-40.2","","68","","","","33","","7","","24.1","","100.98","","","","-44","","Ice Crystals"
"-94.97","74.72","RESOLUTE BAY A","2403498","2020-01-26 01:00","2020","01","26","01:00","-36.0","","-39.9","","68","","","","34","","10","","24.1","","100.96","","","","-46","","Ice Crystals"
"-94.97","74.72","RESOLUTE BAY A","2403498","2020-01-26 02:00","2020","01","26","02:00","-34.5","","-38.3","","69","","","","34","","12","","24.1","","100.94","","","","-46","","Ice Crystals"
"-94.97","74.72","RESOLUTE BAY A","2403498","2020-01-26 03:00","2020","01","26","03:00","-34.3","","-38.1","","70","","","","34","","10","","24.1","","100.88","","","","-44","","Ice Crystals"
"-94.97","74.72","RESOLUTE BAY A","2403498","2020-01-26 04:00","2020","01","26","04:00","-34.4","","-38.2","","69","","","","34","","10","","16.1","","100.85","","","","-44","","Ice Crystals"
"-94.97","74.72","RESOLUTE BAY A","2403498","2020-01-26 05:00","2020","01","26","05:00","-34.6","","-38.3","","69","","","","35","","12","","24.1","","100.79","","","","-46","","Ice Crystals"
"-94.97","74.72","RESOLUTE BAY A","2403498","2020-01-26 06:00","2020","01","26","06:00","-32.3","","-35.9","","71","","","","35","","11","","24.1","","100.71","","","","-42","","Snow"
"-94.97","74.72","RESOLUTE BAY A","2403498","2020-01-26 07:00","2020","01","26","07:00","-32.9","","-36.6","","70","","","","36","","7","","24.1","","100.66","","","","-41","","Snow"
"-94.97","74.72","RESOLUTE BAY A","2403498","2020-01-26 08:00","2020","01","26","08:00","-32.1","","-35.7","","71","","","","2","","9","","24.1","","100.60","","","","-41","","Ice Crystals"
"-94.97","74.72","RESOLUTE BAY A","2403498","2020-01-26 09:00","2020","01","26","09:00","-30.8","","-34.2","","72","","","","2","","13","","16.1","","100.56","","","","-42","","Ice Crystals"
"-94.97","74.72","RESOLUTE BAY A","2403498","2020-01-26 10:00","2020","01","26","10:00","-31.1","","-34.7","","72","","","","11","","7","","16.1","","100.53","","","","-39","","Ice Crystals"
"-94.97","74.72","RESOLUTE BAY A","2403498","2020-01-26 11:00","2020","01","26","11:00","-30.4","","-33.8","","73","","","","2","","7","","16.1","","100.48","","","","-38","","Ice Crystals"
"-94.97","74.72","RESOLUTE BAY A","2403498","2020-01-26 12:00","2020","01","26","12:00","-26.8","","-29.9","","75","","","","12","","4","","12.9","","100.41","","","","-31","","Ice Crystals"
"-94.97","74.72","RESOLUTE BAY A","2403498","2020-01-26 13:00","2020","01","26","13:00","-29.9","","-33.3","","73","","","","17","","5","","12.9","","100.38","","","","-36","","Ice Crystals"
"-94.97","74.72","RESOLUTE BAY A","2403498","2020-01-26 14:00","2020","01","26","14:00","-27.7","","-30.9","","75","","","","9","","6","","16.1","","100.36","","","","-34","","Ice Crystals"
"-94.97","74.72","RESOLUTE BAY A","2403498","2020-01-26 15:00","2020","01","26","15:00","-28.8","","-32.0","","74","","","","33","","4","","16.1","","100.37","","","","-33","","Ice Crystals"
"-94.97","74.72","RESOLUTE BAY A","2403498","2020-01-26 16:00","2020","01","26","16:00","-29.2","","-32.6","","73","","","","1","","7","","16.1","","100.37","","","","-36","","NA"
"-94.97","74.72","RESOLUTE BAY A","2403498","2020-01-26 17:00","2020","01","26","17:00","-25.4","","-28.4","","76","","","","2","","9","","16.1","","100.37","","","","-33","","NA"
"-94.97","74.72","RESOLUTE BAY A","2403498","2020-01-26 18:00","2020","01","26","18:00","-27.3","","-30.4","","75","","","","3","","14","","16.1","","100.34","","","","-38","","Clear"
"-94.97","74.72","RESOLUTE BAY A","2403498","2020-01-26 19:00","2020","01","26","19:00","-29.2","","-32.5","","74","","","","4","","30","","16.1","","100.32","","","","-45","","Ice Crystals"
"-94.97","74.72","RESOLUTE BAY A","2403498","2020-01-26 20:00","2020","01","26","20:00","-28.6","","-31.9","","74","","","","2","","3","","9.7","","100.31","","","","-32","","Ice Crystals"
"-94.97","74.72","RESOLUTE BAY A","2403498","2020-01-26 21:00","2020","01","26","21:00","-29.1","","-32.4","","74","","","","4","","34","","4.8","","100.31","","","","-45","","Ice Crystals"
"-94.97","74.72","RESOLUTE BAY A","2403498","2020-01-26 22:00","2020","01","26","22:00","-32.1","","-35.6","","71","","","","26","","4","","4.0","","100.35","","","","-37","","Ice Crystals"
"-94.97","74.72","RESOLUTE BAY A","2403498","2020-01-26 23:00","2020","01","26","23:00","-33.2","","-36.8","","71","","","","33","","5","","12.9","","100.38","","","","-39","","Ice Crystals"
"-94.97","74.72","RESOLUTE BAY A","2403498","2020-01-27 00:00","2020","01","27","00:00","-33.5","","-37.0","","71","","","","33","","16","","16.1","","100.41","","","","-46","","Ice Crystals"
"-94.97","74.72","RESOLUTE BAY A","2403498","2020-01-27 01:00","2020","01","27","01:00","-34.6","","-38.4","","70","","","","32","","13","","16.1","","100.44","","","","-46","","Ice Crystals"
"-94.97","74.72","RESOLUTE BAY A","2403498","2020-01-27 02:00","2020","01","27","02:00","-34.2","","-37.9","","70","","","","30","","20","","24.1","","100.48","","","","-48","","Ice Crystals"
"-94.97","74.72","RESOLUTE BAY A","2403498","2020-01-27 03:00","2020","01","27","03:00","-34.5","","-38.3","","70","","","","32","","17","","24.1","","100.53","","","","-48","","Ice Crystals"
"-94.97","74.72","RESOLUTE BAY A","2403498","2020-01-27 04:00","2020","01","27","04:00","-34.1","","-37.8","","70","","","","29","","13","","24.1","","100.56","","","","-46","","Ice Crystals"
"-94.97","74.72","RESOLUTE BAY A","2403498","2020-01-27 05:00","2020","01","27","05:00","-34.5","","-38.3","","70","","","","32","","14","","24.1","","100.60","","","","-47","","Ice Crystals"
"-94.97","74.72","RESOLUTE BAY A","2403498","2020-01-27 06:00","2020","01","27","06:00","-34.4","","-38.1","","70","","","","32","","15","","16.1","","100.60","","","","-47","","Ice Crystals"
"-94.97","74.72","RESOLUTE BAY A","2403498","2020-01-27 07:00","2020","01","27","07:00","-33.9","","-37.6","","70","","","","31","","17","","16.1","","100.63","","","","-47","","Ice Crystals"
"-94.97","74.72","RESOLUTE BAY A","2403498","2020-01-27 08:00","2020","01","27","08:00","-33.5","","-37.1","","70","","","","32","","19","","24.1","","100.69","","","","-47","","Ice Crystals"
"-94.97","74.72","RESOLUTE BAY A","2403498","2020-01-27 09:00","2020","01","27","09:00","-33.2","","-36.8","","71","","","","33","","31","","12.9","","100.70","","","","-50","","Snow"
"-94.97","74.72","RESOLUTE BAY A","2403498","2020-01-27 10:00","2020","01","27","10:00","-34.1","","-37.8","","70","","","","33","","26","","16.1","","100.73","","","","-50","","Snow"
"-94.97","74.72","RESOLUTE BAY A","2403498","2020-01-27 11:00","2020","01","27","11:00","-34.4","","-38.1","","70","","","","34","","23","","16.1","","100.79","","","","-50","","Ice Crystals"
"-94.97","74.72","RESOLUTE BAY A","2403498","2020-01-27 12:00","2020","01","27","12:00","-33.9","","-37.6","","70","","","","34","","25","","16.1","","100.84","","","","-49","","Ice Crystals"
"-94.97","74.72","RESOLUTE BAY A","2403498","2020-01-27 13:00","2020","01","27","13:00","-34.4","","-38.1","","70","","","","33","","18","","16.1","","100.89","","","","-48","","Ice Crystals"
"-94.97","74.72","RESOLUTE BAY A","2403498","2020-01-27 14:00","2020","01","27","14:00","-33.6","","-37.3","","70","","","","35","","18","","16.1","","100.84","","","","-47","","Ice Crystals"
"-94.97","74.72","RESOLUTE BAY A","2403498","2020-01-27 15:00","2020","01","27","15:00","-35.4","","-39.2","","69","","","","33","","13","","16.1","","100.94","","","","-47","","Ice Crystals"
"-94.97","74.72","RESOLUTE BAY A","2403498","2020-01-27 16:00","2020","01","27","16:00","-34.5","","-38.3","","70","","","","34","","15","","12.9","","100.94","","","","-47","","Ice Crystals"
"-94.97","74.72","RESOLUTE BAY A","2403498","2020-01-27 17:00","2020","01","27","17:00","-35.9","","-39.8","","69","","","","34","","13","","16.1","","100.97","","","","-48","","Ice Crystals"
"-94.97","74.72","RESOLUTE BAY A","2403498","2020-01-27 18:00","2020","01","27","18:00","-36.4","","-40.2","","68","","","","34","","10","","16.1","","100.96","","","","-47","","Ice Crystals"
"-94.97","74.72","RESOLUTE BAY A","2403498","2020-01-27 19:00","2020","01","27","19:00","-36.6","","-40.5","","68","","","","33","","11","","16.1","","100.95","","","","-48","","Ice Crystals"
"-94.97","74.72","RESOLUTE BAY A","2403498","2020-01-27 20:00","2020","01","27","20:00","-34.6","","-38.4","","70","","","","29","","9","","16.1","","100.93","","","","-44","","Ice Crystals"
"-94.97","74.72","RESOLUTE BAY A","2403498","2020-01-27 21:00","2020","01","27","21:00","-36.6","","-40.5","","68","","","","34","","10","","24.1","","100.93","","","","-47","","Ice Crystals"
"-94.97","74.72","RESOLUTE BAY A","2403498","2020-01-27 22:00","2020","01","27","22:00","-35.2","","-39.0","","69","","","","28","","4","","24.1","","100.90","","","","-40","","Ice Crystals"
"-94.97","74.72","RESOLUTE BAY A","2403498","2020-01-27 23:00","2020","01","27","23:00","-36.0","","-39.9","","69","","","","31","","10","","24.1","","100.88","","","","-46","","Ice Crystals"
"-94.97","74.72","RESOLUTE BAY A","2403498","2020-01-28 00:00","2020","01","28","00:00","-35.8","","-39.7","","69","","","","1","","10","","24.1","","100.83","","","","-46","","Ice Crystals"
"-94.97","74.72","RESOLUTE BAY A","2403498","2020-01-28 01:00","2020","01","28","01:00","-34.7","","-38.4","","70","","","","33","","8","","24.1","","100.84","","","","-43","","Ice Crystals"
"-94.97","74.72","RESOLUTE BAY A","2403498","2020-01-28 02:00","2020","01","28","02:00","-34.3","","-38.1","","70","","","","34","","10","","24.1","","100.80","","","","-44","","Ice Crystals"
"-94.97","74.72","RESOLUTE BAY A","2403498","2020-01-28 03:00","2020","01","28","03:00","-34.1","","-37.9","","70","","","","33","","9","","24.1","","100.73","","","","-43","","Ice Crystals"
"-94.97","74.72","RESOLUTE BAY A","2403498","2020-01-28 04:00","2020","01","28","04:00","-34.4","","-38.2","","70","","","","35","","7","","24.1","","100.69","","","","-42","","Ice Crystals"
"-94.97","74.72","RESOLUTE BAY A","2403498","2020-01-28 05:00","2020","01","28","05:00","-34.0","","-37.7","","70","","","","36","","7","","24.1","","100.63","","","","-42","","Ice Crystals"
"-94.97","74.72","RESOLUTE BAY A","2403498","2020-01-28 06:00","2020","01","28","06:00","-32.5","","-36.1","","71","","","","15","","5","","24.1","","100.55","","","","-38","","Ice Crystals"
"-94.97","74.72","RESOLUTE BAY A","2403498","2020-01-28 07:00","2020","01","28","07:00","-32.9","","-36.5","","71","","","","30","","4","","24.1","","100.47","","","","-38","","Ice Crystals"
"-94.97","74.72","RESOLUTE BAY A","2403498","2020-01-28 08:00","2020","01","28","08:00","-32.9","","-36.5","","71","","","","31","","4","","24.1","","100.41","","","","-38","","Ice Crystals"
"-94.97","74.72","RESOLUTE BAY A","2403498","2020-01-28 09:00","2020","01","28","09:00","-31.6","","-35.1","","72","","","","1","","5","","16.1","","100.37","","","","-37","","Ice Crystals"
"-94.97","74.72","RESOLUTE BAY A","2403498","2020-01-28 10:00","2020","01","28","10:00","-29.0","","-32.3","","74","","","","36","","3","","12.9","","100.29","","","","-32","","Snow"
"-94.97","74.72","RESOLUTE BAY A","2403498","2020-01-28 11:00","2020","01","28","11:00","-29.3","","-32.7","","73","","","","36","","2","","12.9","","100.20","","","","-32","","Snow"
"-94.97","74.72","RESOLUTE BAY A","2403498","2020-01-28 12:00","2020","01","28","12:00","-27.0","","-30.1","","75","","","","8","","18","","12.9","","100.14","","","","-39","","Snow"
"-94.97","74.72","RESOLUTE BAY A","2403498","2020-01-28 13:00","2020","01","28","13:00","-26.7","","-29.8","","75","","","","8","","23","","12.9","","100.08","","","","-40","","Snow"
"-94.97","74.72","RESOLUTE BAY A","2403498","2020-01-28 14:00","2020","01","28","14:00","-27.0","","-30.1","","75","","","","8","","25","","12.9","","100.03","","","","-41","","Snow"
"-94.97","74.72","RESOLUTE BAY A","2403498","2020-01-28 15:00","2020","01","28","15:00","-27.1","","-30.2","","75","","","","8","","26","","11.3","","99.97","","","","-41","","Snow"
"-94.97","74.72","RESOLUTE BAY A","2403498","2020-01-28 16:00","2020","01","28","16:00","-27.4","","-30.5","","75","","","","8","","26","","11.3","","99.94","","","","-41","","Snow"
"-94.97","74.72","RESOLUTE BAY A","2403498","2020-01-28 17:00","2020","01","28","17:00","-27.1","","-30.2","","75","","","","7","","25","","12.9","","99.92","","","","-41","","Ice Crystals"
"-94.97","74.72","RESOLUTE BAY A","2403498","2020-01-28 18:00","2020","01","28","18:00","-26.5","","-29.6","","76","","","","9","","21","","16.1","","99.88","","","","-39","","Ice Crystals"
"-94.97","74.72","RESOLUTE BAY A","2403498","2020-01-28 19:00","2020","01","28","19:00","-27.1","","-30.3","","75","","","","8","","22","","16.1","","99.81","","","","-40","","Ice Crystals"
"-94.97","74.72","RESOLUTE BAY A","2403498","2020-01-28 20:00","2020","01","28","20:00","-26.5","","-29.5","","76","","","","8","","21","","14.5","","99.79","","","","-39","","Ice Crystals"
"-94.97","74.72","RESOLUTE BAY A","2403498","2020-01-28 21:00","2020","01","28","21:00","-26.9","","-30.0","","75","","","","8","","22","","14.5","","99.76","","","","-40","","Ice Crystals"
"-94.97","74.72","RESOLUTE BAY A","2403498","2020-01-28 22:00","2020","01","28","22:00","-26.2","","-29.3","","76","","","","9","","18","","16.1","","99.74","","","","-38","","Ice Crystals"
"-94.97","74.72","RESOLUTE BAY A","2403498","2020-01-28 23:00","2020","01","28","23:00","-26.1","","-29.2","","76","","","","8","","17","","14.5","","99.72","","","","-37","","Ice Crystals"
"-94.97","74.72","RESOLUTE BAY A","2403498","2020-01-29 00:00","2020","01","29","00:00","-25.7","","-28.7","","76","","","","7","","13","","12.9","","99.71","","","","-35","","Snow"
"-94.97","74.72","RESOLUTE BAY A","2403498","2020-01-29 01:00","2020","01","29","01:00","-25.6","","-28.6","","77","","","","8","","10","","14.5","","99.65","","","","-34","","Snow"
"-94.97","74.72","RESOLUTE BAY A","2403498","2020-01-29 02:00","2020","01","29","02:00","-25.4","","-28.3","","77","","","","3","","3","","24.1","","99.64","","","","-28","","Snow"
"-94.97","74.72","RESOLUTE BAY A","2403498","2020-01-29 03:00","2020","01","29","03:00","-25.7","","-28.6","","77","","","","2","","4","","24.1","","99.64","","","","-30","","Snow"
"-94.97","74.72","RESOLUTE BAY A","2403498","2020-01-29 04:00","2020","01","29","04:00","-28.4","","-31.6","","74","","","","4","","12","","24.1","","99.62","","","","-38","","Snow"
"-94.97","74.72","RESOLUTE BAY A","2403498","2020-01-29 05:00","2020","01","29","05:00","-29.4","","-32.7","","73","","","","3","","12","","24.1","","99.61","","","","-39","","Ice Crystals"
"-94.97","74.72","RESOLUTE BAY A","2403498","2020-01-29 06:00","2020","01","29","06:00","-28.6","","-31.9","","74","","","","34","","7","","24.1","","99.59","","","","-36","","Ice Crystals"
"-94.97","74.72","RESOLUTE BAY A","2403498","2020-01-29 07:00","2020","01","29","07:00","-29.8","","-33.1","","74","","","","2","","8","","24.1","","99.57","","","","-38","","Ice Crystals"
"-94.97","74.72","RESOLUTE BAY A","2403498","2020-01-29 08:00","2020","01","29","08:00","-29.2","","-32.5","","74","","","","3","","18","","24.1","","99.57","","","","-41","","Ice Crystals"
"-94.97","74.72","RESOLUTE BAY A","2403498","2020-01-29 09:00","2020","01","29","09:00","-32.1","","-35.7","","72","","","","30","","12","","12.9","","99.58","","","","-43","","Ice Crystals"
"-94.97","74.72","RESOLUTE BAY A","2403498","2020-01-29 10:00","2020","01","29","10:00","-31.6","","-35.1","","72","","","","33","","14","","12.9","","99.60","","","","-43","","Snow"
"-94.97","74.72","RESOLUTE BAY A","2403498","2020-01-29 11:00","2020","01","29","11:00","-31.4","","-34.9","","72","","","","35","","13","","16.1","","99.60","","","","-42","","Snow"
"-94.97","74.72","RESOLUTE BAY A","2403498","2020-01-29 12:00","2020","01","29","12:00","-35.3","","-39.1","","69","","","","28","","13","","16.1","","99.63","","","","-47","","Snow"
"-94.97","74.72","RESOLUTE BAY A","2403498","2020-01-29 13:00","2020","01","29","13:00","-36.0","","-39.8","","69","","","","33","","13","","16.1","","99.67","","","","-48","","Snow"
"-94.97","74.72","RESOLUTE BAY A","2403498","2020-01-29 14:00","2020","01","29","14:00","-36.4","","-40.2","","69","","","","32","","17","","12.9","","99.71","","","","-50","","Snow"
"-94.97","74.72","RESOLUTE BAY A","2403498","2020-01-29 15:00","2020","01","29","15:00","-37.3","","-41.2","","68","","","","29","","14","","12.9","","99.73","","","","-50","","Snow"
"-94.97","74.72","RESOLUTE BAY A","2403498","2020-01-29 16:00","2020","01","29","16:00","-38.3","","-42.2","","67","","","","34","","16","","16.1","","99.76","","","","-52","","Ice Crystals"
"-94.97","74.72","RESOLUTE BAY A","2403498","2020-01-29 17:00","2020","01","29","17:00","-37.0","","-40.9","","68","","","","30","","18","","16.1","","99.80","","","","-51","","Ice Crystals"
"-94.97","74.72","RESOLUTE BAY A","2403498","2020-01-29 18:00","2020","01","29","18:00","-38.2","","-42.2","","67","","","","32","","16","","16.1","","99.83","","","","-52","","Clear"
"-94.97","74.72","RESOLUTE BAY A","2403498","2020-01-29 19:00","2020","01","29","19:00","-37.6","","-41.5","","68","","","","33","","15","","16.1","","99.89","","","","-51","","NA"
"-94.97","74.72","RESOLUTE BAY A","2403498","2020-01-29 20:00","2020","01","29","20:00","-37.8","","-41.7","","67","","","","34","","14","","16.1","","99.90","","","","-51","","NA"
"-94.97","74.72","RESOLUTE BAY A","2403498","2020-01-29 21:00","2020","01","29","21:00","-38.3","","-42.3","","67","","","","32","","14","","16.1","","99.94","","","","-51","","Ice Crystals"
"-94.97","74.72","RESOLUTE BAY A","2403498","2020-01-29 22:00","2020","01","29","22:00","-38.3","","-42.3","","67","","","","32","","9","","16.1","","99.96","","","","-48","","Ice Crystals"
"-94.97","74.72","RESOLUTE BAY A","2403498","2020-01-29 23:00","2020","01","29","23:00","-38.7","","-42.7","","67","","","","33","","9","","12.9","","99.99","","","","-49","","Ice Crystals"
"-94.97","74.72","RESOLUTE BAY A","2403498","2020-01-30 00:00","2020","01","30","00:00","-39.1","","-43.2","","67","","","","32","","9","","14.5","","100.00","","","","-49","","Ice Crystals"
"-94.97","74.72","RESOLUTE BAY A","2403498","2020-01-30 01:00","2020","01","30","01:00","-39.2","","-43.3","","66","","","","33","","6","","9.7","","100.08","","","","-47","","Ice Crystals"
"-94.97","74.72","RESOLUTE BAY A","2403498","2020-01-30 02:00","2020","01","30","02:00","-40.0","","-44.1","","66","","","","34","","10","","9.7","","100.06","","","","-51","","Ice Crystals"
"-94.97","74.72","RESOLUTE BAY A","2403498","2020-01-30 03:00","2020","01","30","03:00","-39.2","","-43.3","","66","","","","33","","9","","12.9","","100.11","","","","-49","","Ice Crystals"
"-94.97","74.72","RESOLUTE BAY A","2403498","2020-01-30 04:00","2020","01","30","04:00","-39.1","","-43.2","","67","","","","33","","7","","16.1","","100.13","","","","-48","","Ice Crystals"
"-94.97","74.72","RESOLUTE BAY A","2403498","2020-01-30 05:00","2020","01","30","05:00","-40.7","","-44.9","","65","","","","34","","8","","12.9","","100.14","","","","-51","","Ice Crystals"
"-94.97","74.72","RESOLUTE BAY A","2403498","2020-01-30 06:00","2020","01","30","06:00","-40.1","","-44.3","","66","","","","33","","11","","11.3","","100.18","","","","-52","","Ice Crystals"
"-94.97","74.72","RESOLUTE BAY A","2403498","2020-01-30 07:00","2020","01","30","07:00","-38.3","","-42.3","","67","","","","33","","9","","12.9","","100.15","","","","-48","","Ice Crystals"
"-94.97","74.72","RESOLUTE BAY A","2403498","2020-01-30 08:00","2020","01","30","08:00","-39.9","","-44.0","","66","","","","34","","12","","16.1","","100.15","","","","-52","","Ice Crystals"
"-94.97","74.72","RESOLUTE BAY A","2403498","2020-01-30 09:00","2020","01","30","09:00","-38.8","","-42.9","","67","","","","33","","14","","16.1","","100.16","","","","-52","","Ice Crystals"
"-94.97","74.72","RESOLUTE BAY A","2403498","2020-01-30 10:00","2020","01","30","10:00","-37.5","","-41.4","","68","","","","33","","12","","16.1","","100.12","","","","-49","","Ice Crystals"
"-94.97","74.72","RESOLUTE BAY A","2403498","2020-01-30 11:00","2020","01","30","11:00","-37.9","","-41.9","","67","","","","30","","6","","16.1","","100.14","","","","-46","","Ice Crystals"
"-94.97","74.72","RESOLUTE BAY A","2403498","2020-01-30 12:00","2020","01","30","12:00","-38.7","","-42.7","","67","","","","34","","7","","16.1","","100.11","","","","-47","","Ice Crystals"
"-94.97","74.72","RESOLUTE BAY A","2403498","2020-01-30 13:00","2020","01","30","13:00","-39.0","","-43.0","","67","","","","33","","9","","16.1","","100.11","","","","-49","","Ice Crystals"
"-94.97","74.72","RESOLUTE BAY A","2403498","2020-01-30 14:00","2020","01","30","14:00","-38.9","","-43.0","","66","","","","29","","10","","16.1","","100.10","","","","-50","","Ice Crystals"
"-94.97","74.72","RESOLUTE BAY A","2403498","2020-01-30 15:00","2020","01","30","15:00","-39.2","","-43.3","","66","","","","34","","13","","16.1","","100.10","","","","-52","","Ice Crystals"
"-94.97","74.72","RESOLUTE BAY A","2403498","2020-01-30 16:00","2020","01","30","16:00","-37.5","","-41.5","","67","","","","36","","3","","16.1","","100.04","","","","-41","","Ice Crystals"
"-94.97","74.72","RESOLUTE BAY A","2403498","2020-01-30 17:00","2020","01","30","17:00","-37.7","","-41.7","","67","","","","1","","5","","16.1","","100.00","","","","-44","","Ice Crystals"
"-94.97","74.72","RESOLUTE BAY A","2403498","2020-01-30 18:00","2020","01","30","18:00","-38.4","","-42.5","","67","","","","1","","4","","16.1","","99.95","","","","-44","","Ice Crystals"
"-94.97","74.72","RESOLUTE BAY A","2403498","2020-01-30 19:00","2020","01","30","19:00","-37.6","","-41.6","","67","","","","36","","3","","16.1","","99.92","","","","-42","","Ice Crystals"
"-94.97","74.72","RESOLUTE BAY A","2403498","2020-01-30 20:00","2020","01","30","20:00","-39.6","","-43.7","","66","","","","33","","11","","14.5","","99.91","","","","-51","","Ice Crystals"
"-94.97","74.72","RESOLUTE BAY A","2403498","2020-01-30 21:00","2020","01","30","21:00","-36.7","","-40.7","","68","","","","31","","5","","16.1","","99.88","","","","-43","","Ice Crystals"
"-94.97","74.72","RESOLUTE BAY A","2403498","2020-01-30 22:00","2020","01","30","22:00","-39.0","","-43.0","","66","","","","33","","10","","16.1","","99.86","","","","-50","","Ice Crystals"
"-94.97","74.72","RESOLUTE BAY A","2403498","2020-01-30 23:00","2020","01","30","23:00","-36.4","","-40.4","","68","","","","2","","8","","16.1","","99.84","","","","-45","","Ice Crystals"
"-94.97","74.72","RESOLUTE BAY A","2403498","2020-01-31 00:00","2020","01","31","00:00","-37.1","","-41.0","","68","","","","3","","5","","24.1","","99.85","","","","-44","","Ice Crystals"
"-94.97","74.72","RESOLUTE BAY A","2403498","2020-01-31 01:00","2020","01","31","01:00","-37.6","","-41.6","","68","","","","33","","7","","16.1","","99.84","","","","-46","","Ice Crystals"
"-94.97","74.72","RESOLUTE BAY A","2403498","2020-01-31 02:00","2020","01","31","02:00","-38.9","","-42.9","","66","","","","33","","16","","9.7","","99.86","","","","-53","","Ice Crystals"
"-94.97","74.72","RESOLUTE BAY A","2403498","2020-01-31 03:00","2020","01","31","03:00","-36.9","","-40.8","","68","","","","2","","22","","12.9","","99.82","","","","-52","","Ice Crystals"
"-94.97","74.72","RESOLUTE BAY A","2403498","2020-01-31 04:00","2020","01","31","04:00","-37.8","","-41.8","","67","","","","34","","9","","14.5","","99.82","","","","-48","","Ice Crystals"
"-94.97","74.72","RESOLUTE BAY A","2403498","2020-01-31 05:00","2020","01","31","05:00","-39.6","","-43.7","","66","","","","30","","12","","14.5","","99.84","","","","-52","","Ice Crystals"
"-94.97","74.72","RESOLUTE BAY A","2403498","2020-01-31 06:00","2020","01","31","06:00","-40.0","","-44.2","","66","","","","32","","14","","4.8","","99.85","","","","-53","","Ice Crystals"
"-94.97","74.72","RESOLUTE BAY A","2403498","2020-01-31 07:00","2020","01","31","07:00","-39.5","","-43.6","","66","","","","31","","13","","6.4","","99.87","","","","-52","","Ice Crystals"
"-94.97","74.72","RESOLUTE BAY A","2403498","2020-01-31 08:00","2020","01","31","08:00","-41.7","","-45.9","","65","","","","30","","10","","4.8","","99.88","","","","-53","","Ice Crystals"
"-94.97","74.72","RESOLUTE BAY A","2403498","2020-01-31 09:00","2020","01","31","09:00","-39.8","","-44.0","","66","","","","33","","14","","4.8","","99.89","","","","-53","","Ice Crystals"
"-94.97","74.72","RESOLUTE BAY A","2403498","2020-01-31 10:00","2020","01","31","10:00","-41.9","","-46.2","","64","","","","31","","13","","4.8","","99.93","","","","-55","","Ice Crystals"
"-94.97","74.72","RESOLUTE BAY A","2403498","2020-01-31 11:00","2020","01","31","11:00","-42.4","","-46.7","","64","","","","33","","16","","4.8","","99.97","","","","-57","","Ice Crystals"
"-94.97","74.72","RESOLUTE BAY A","2403498","2020-01-31 12:00","2020","01","31","12:00","-40.3","","-44.5","","65","","","","33","","15","","3.2","","99.98","","","","-54","","Ice Crystals,Fog"
"-94.97","74.72","RESOLUTE BAY A","2403498","2020-01-31 13:00","2020","01","31","13:00","-39.4","","-43.6","","66","","","","34","","16","","4.8","","100.04","","","","-53","","Ice Crystals"
"-94.97","74.72","RESOLUTE BAY A","2403498","2020-01-31 14:00","2020","01","31","14:00","-38.0","","-42.1","","67","","","","36","","20","","8.1","","100.07","","","","-53","","Ice Crystals"
"-94.97","74.72","RESOLUTE BAY A","2403498","2020-01-31 15:00","2020","01","31","15:00","-38.2","","-42.2","","67","","","","36","","18","","8.1","","100.10","","","","-53","","Ice Crystals"
"-94.97","74.72","RESOLUTE BAY A","2403498","2020-01-31 16:00","2020","01","31","16:00","-38.3","","-42.4","","67","","","","33","","12","","6.4","","100.13","","","","-50","","Ice Crystals"
"-94.97","74.72","RESOLUTE BAY A","2403498","2020-01-31 17:00","2020","01","31","17:00","-39.8","","-43.9","","66","","","","29","","9","","4.8","","100.15","","","","-50","","Ice Crystals,Fog"
"-94.97","74.72","RESOLUTE BAY A","2403498","2020-01-31 18:00","2020","01","31","18:00","-40.2","","-44.4","","65","","","","31","","7","","4.8","","100.18","","","","-49","","Ice Crystals,Fog"
"-94.97","74.72","RESOLUTE BAY A","2403498","2020-01-31 19:00","2020","01","31","19:00","-41.2","","-45.4","","65","","","","31","","13","","4.8","","100.22","","","","-54","","Ice Crystals,Fog"
"-94.97","74.72","RESOLUTE BAY A","2403498","2020-01-31 20:00","2020","01","31","20:00","-39.4","","-43.6","","66","","","","36","","12","","8.1","","100.22","","","","-52","","Ice Crystals,Fog"
"-94.97","74.72","RESOLUTE BAY A","2403498","2020-01-31 21:00","2020","01","31","21:00","-38.2","","-42.2","","67","","","","34","","17","","16.1","","100.21","","","","-52","","Ice Crystals"
"-94.97","74.72","RESOLUTE BAY A","2403498","2020-01-31 22:00","2020","01","31","22:00","-38.6","","-42.6","","67","","","","33","","16","","16.1","","100.25","","","","-52","","Ice Crystals"
"-94.97","74.72","RESOLUTE BAY A","2403498","2020-01-31 23:00","2020","01","31","23:00","-37.5","","-41.5","","67","","","","34","","17","","24.1","","100.26","","","","-51","","Ice Crystals"
