"Longitude (x)","Latitude (y)","Station Name","Climate ID","Date/Time (LST)","Year","Month","Day","Time (LST)","Temp (°C)","Temp Flag","Dew Point Temp (°C)","Dew Point Temp Flag","Rel Hum (%)","Rel Hum Flag","Precip. Amount (mm)","Precip. Amount Flag","Wind Dir (10s deg)","Wind Dir Flag","Wind Spd (km/h)","Wind Spd Flag","Visibility (km)","Visibility Flag","Stn Press (kPa)","Stn Press Flag","Hmdx","Hmdx Flag","Wind Chill","Wind Chill Flag","Weather"
"-94.97","74.72","RESOLUTE BAY A","2403498","2020-06-01 00:00","2020","06","01","00:00","-2.4","","-4.2","","87","","","","8","","12","","24.1","","100.67","","","","-7","","Mostly Cloudy"
"-94.97","74.72","RESOLUTE BAY A","2403498","2020-06-01 01:00","2020","06","01","01:00","-2.9","","-4.0","","92","","","","36","","2","","24.1","","100.68","","","","-4","","NA"
"-94.97","74.72","RESOLUTE BAY A","2403498","2020-06-01 02:00","2020","06","01","02:00","-3.1","","-3.8","","95","","","","0","","1","","24.1","","100.70","","","","-4","","NA"
"-94.97","74.72","RESOLUTE BAY A","2403498","2020-06-01 03:00","2020","06","01","03:00","-3.0","","-4.5","","89","","","","12","","10","","24.1","","100.73","","","","-7","","Cloudy"
"-94.97","74.72","RESOLUTE BAY A","2403498","2020-06-01 04:00","2020","06","01","04:00","-3.6","","-4.7","","92","","","","12","","8","","24.1","","100.75","","","","-7","","NA"
"-94.97","74.72","RESOLUTE BAY A","2403498","2020-06-01 05:00","2020","06","01","05:00","-3.1","","-4.2","","92","","","","17","","4","","24.1","","100.77","","","","-5","","NA"
"-94.97","74.72","RESOLUTE BAY A","2403498","2020-06-01 06:00","2020","06","01","06:00","-3.2","","-4.2","","93","","","","36","","2","","24.1","","100.79","","","","-4","","Cloudy"
"-94.97","74.72","RESOLUTE BAY A","2403498","2020-06-01 07:00","2020","06","01","07:00","-3.0","","-4.1","","92","","","","15","","8","","24.1","","100.79","","","","-6","","NA"
"-94.97","74.72","RESOLUTE BAY A","2403498","2020-06-01 08:00","2020","06","01","08:00","-2.5","","-3.7","","92","","","","15","","8","","24.1","","100.80","","","","-6","","NA"
"-94.97","74.72","RESOLUTE BAY A","2403498","2020-06-01 09:00","2020","06","01","09:00","-2.1","","-3.5","","90","","","","12","","8","","24.1","","100.79","","","","-5","","Cloudy"
"-94.97","74.72","RESOLUTE BAY A","2403498","2020-06-01 10:00","2020","06","01","10:00","-1.7","","-3.2","","90","","","","17","","5","","19.3","","100.81","","","","-4","","NA"
"-94.97","74.72","RESOLUTE BAY A","2403498","2020-06-01 11:00","2020","06","01","11:00","-1.6","","-3.2","","89","","","","15","","6","","19.3","","100.82","","","","-4","","NA"
"-94.97","74.72","RESOLUTE BAY A","2403498","2020-06-01 12:00","2020","06","01","12:00","-1.4","","-3.0","","89","","","","16","","5","","19.3","","100.86","","","","-3","","Cloudy"
"-94.97","74.72","RESOLUTE BAY A","2403498","2020-06-01 13:00","2020","06","01","13:00","-1.5","","-3.3","","87","","","","20","","4","","24.1","","100.89","","","","-3","","NA"
"-94.97","74.72","RESOLUTE BAY A","2403498","2020-06-01 14:00","2020","06","01","14:00","-1.0","","-2.8","","87","","","","36","","1","","19.3","","100.89","","","","-1","","NA"
"-94.97","74.72","RESOLUTE BAY A","2403498","2020-06-01 15:00","2020","06","01","15:00","-1.0","","-3.7","","82","","","","36","","1","","24.1","","100.92","","","","-1","","Mostly Cloudy"
"-94.97","74.72","RESOLUTE BAY A","2403498","2020-06-01 16:00","2020","06","01","16:00","-0.8","","-3.6","","81","","","","36","","3","","24.1","","100.91","","","","-2","","NA"
"-94.97","74.72","RESOLUTE BAY A","2403498","2020-06-01 17:00","2020","06","01","17:00","-0.8","","-3.9","","80","","","","36","","2","","24.1","","100.93","","","","-1","","NA"
"-94.97","74.72","RESOLUTE BAY A","2403498","2020-06-01 18:00","2020","06","01","18:00","-0.9","","-3.8","","81","","","","36","","2","","19.3","","100.96","","","","-2","","Cloudy"
"-94.97","74.72","RESOLUTE BAY A","2403498","2020-06-01 19:00","2020","06","01","19:00","-1.0","","-3.9","","81","","","","26","","5","","16.1","","100.98","","","","-3","","NA"
"-94.97","74.72","RESOLUTE BAY A","2403498","2020-06-01 20:00","2020","06","01","20:00","-1.0","","-3.8","","81","","","","36","","1","","24.1","","100.98","","","","-1","","NA"
"-94.97","74.72","RESOLUTE BAY A","2403498","2020-06-01 21:00","2020","06","01","21:00","-1.4","","-2.7","","91","","","","14","","8","","24.1","","100.99","","","","-4","","Cloudy"
"-94.97","74.72","RESOLUTE BAY A","2403498","2020-06-01 22:00","2020","06","01","22:00","-1.7","","-2.8","","92","","","","15","","6","","24.1","","101.00","","","","-4","","NA"
"-94.97","74.72","RESOLUTE BAY A","2403498","2020-06-01 23:00","2020","06","01","23:00","-1.9","","-2.7","","94","","","","17","","9","","24.1","","101.01","","","","-5","","Snow"
"-94.97","74.72","RESOLUTE BAY A","2403498","2020-06-02 00:00","2020","06","02","00:00","-2.2","","-2.8","","96","","","","16","","7","","24.1","","101.01","","","","-5","","Snow"
"-94.97","74.72","RESOLUTE BAY A","2403498","2020-06-02 01:00","2020","06","02","01:00","-2.7","","-3.2","","96","","","","15","","5","","24.1","","101.04","","","","-5","","Snow"
"-94.97","74.72","RESOLUTE BAY A","2403498","2020-06-02 02:00","2020","06","02","02:00","-2.8","","-3.4","","96","","","","16","","6","","24.1","","101.06","","","","-5","","Snow"
"-94.97","74.72","RESOLUTE BAY A","2403498","2020-06-02 03:00","2020","06","02","03:00","-2.8","","-3.3","","96","","","","18","","5","","24.1","","101.08","","","","-5","","Snow"
"-94.97","74.72","RESOLUTE BAY A","2403498","2020-06-02 04:00","2020","06","02","04:00","-3.1","","-3.6","","96","","","","17","","9","","24.1","","101.08","","","","-7","","Snow"
"-94.97","74.72","RESOLUTE BAY A","2403498","2020-06-02 05:00","2020","06","02","05:00","-3.3","","-3.9","","96","","","","15","","7","","24.1","","101.09","","","","-6","","Snow"
"-94.97","74.72","RESOLUTE BAY A","2403498","2020-06-02 06:00","2020","06","02","06:00","-3.0","","-3.7","","95","","","","14","","3","","24.1","","101.10","","","","-4","","Snow"
"-94.97","74.72","RESOLUTE BAY A","2403498","2020-06-02 07:00","2020","06","02","07:00","-2.6","","-3.3","","94","","","","14","","7","","24.1","","101.10","","","","-5","","NA"
"-94.97","74.72","RESOLUTE BAY A","2403498","2020-06-02 08:00","2020","06","02","08:00","-2.2","","-3.2","","93","","","","15","","10","","24.1","","101.11","","","","-6","","NA"
"-94.97","74.72","RESOLUTE BAY A","2403498","2020-06-02 09:00","2020","06","02","09:00","-2.4","","-3.6","","91","","","","16","","16","","19.3","","101.13","","","","-8","","Mostly Cloudy"
"-94.97","74.72","RESOLUTE BAY A","2403498","2020-06-02 10:00","2020","06","02","10:00","-2.3","","-3.2","","94","","","","14","","11","","12.9","","101.15","","","","-6","","NA"
"-94.97","74.72","RESOLUTE BAY A","2403498","2020-06-02 11:00","2020","06","02","11:00","-2.2","","-3.2","","93","","","","16","","12","","16.1","","101.17","","","","-6","","NA"
"-94.97","74.72","RESOLUTE BAY A","2403498","2020-06-02 12:00","2020","06","02","12:00","-2.4","","-3.5","","92","","","","14","","13","","19.3","","101.19","","","","-7","","Cloudy"
"-94.97","74.72","RESOLUTE BAY A","2403498","2020-06-02 13:00","2020","06","02","13:00","-2.2","","-3.7","","89","","","","15","","16","","19.3","","101.21","","","","-7","","NA"
"-94.97","74.72","RESOLUTE BAY A","2403498","2020-06-02 14:00","2020","06","02","14:00","-2.2","","-3.6","","90","","","","15","","13","","19.3","","101.24","","","","-7","","NA"
"-94.97","74.72","RESOLUTE BAY A","2403498","2020-06-02 15:00","2020","06","02","15:00","-2.1","","-3.4","","90","","","","14","","15","","24.1","","101.25","","","","-7","","Mostly Cloudy"
"-94.97","74.72","RESOLUTE BAY A","2403498","2020-06-02 16:00","2020","06","02","16:00","-1.9","","-3.7","","87","","","","13","","18","","24.1","","101.28","","","","-7","","NA"
"-94.97","74.72","RESOLUTE BAY A","2403498","2020-06-02 17:00","2020","06","02","17:00","-1.9","","-3.9","","86","","","","15","","17","","24.1","","101.30","","","","-7","","NA"
"-94.97","74.72","RESOLUTE BAY A","2403498","2020-06-02 18:00","2020","06","02","18:00","-2.0","","-3.7","","88","","","","14","","19","","24.1","","101.32","","","","-8","","Mostly Cloudy"
"-94.97","74.72","RESOLUTE BAY A","2403498","2020-06-02 19:00","2020","06","02","19:00","-1.9","","-3.8","","87","","","","17","","18","","24.1","","101.35","","","","-7","","NA"
"-94.97","74.72","RESOLUTE BAY A","2403498","2020-06-02 20:00","2020","06","02","20:00","-2.1","","-4.0","","87","","","","17","","16","","24.1","","101.36","","","","-7","","NA"
"-94.97","74.72","RESOLUTE BAY A","2403498","2020-06-02 21:00","2020","06","02","21:00","-2.2","","-4.1","","87","","","","17","","17","","24.1","","101.37","","","","-8","","Cloudy"
"-94.97","74.72","RESOLUTE BAY A","2403498","2020-06-02 22:00","2020","06","02","22:00","-2.3","","-3.7","","90","","","","17","","17","","24.1","","101.39","","","","-8","","NA"
"-94.97","74.72","RESOLUTE BAY A","2403498","2020-06-02 23:00","2020","06","02","23:00","-2.5","","-3.9","","90","","","","18","","16","","24.1","","101.42","","","","-8","","NA"
"-94.97","74.72","RESOLUTE BAY A","2403498","2020-06-03 00:00","2020","06","03","00:00","-2.6","","-4.0","","91","","","","16","","14","","24.1","","101.46","","","","-7","","Cloudy"
"-94.97","74.72","RESOLUTE BAY A","2403498","2020-06-03 01:00","2020","06","03","01:00","-2.9","","-4.1","","91","","","","17","","18","","24.1","","101.48","","","","-9","","NA"
"-94.97","74.72","RESOLUTE BAY A","2403498","2020-06-03 02:00","2020","06","03","02:00","-3.2","","-4.3","","92","","","","16","","22","","24.1","","101.50","","","","-10","","Snow"
"-94.97","74.72","RESOLUTE BAY A","2403498","2020-06-03 03:00","2020","06","03","03:00","-3.3","","-4.5","","91","","","","18","","23","","24.1","","101.52","","","","-10","","Snow"
"-94.97","74.72","RESOLUTE BAY A","2403498","2020-06-03 04:00","2020","06","03","04:00","-3.6","","-4.6","","93","","","","17","","25","","14.5","","101.54","","","","-11","","Snow"
"-94.97","74.72","RESOLUTE BAY A","2403498","2020-06-03 05:00","2020","06","03","05:00","-3.8","","-4.7","","94","","","","15","","24","","14.5","","101.58","","","","-11","","Snow"
"-94.97","74.72","RESOLUTE BAY A","2403498","2020-06-03 06:00","2020","06","03","06:00","-3.6","","-5.2","","89","","","","16","","21","","14.5","","101.61","","","","-10","","Snow"
"-94.97","74.72","RESOLUTE BAY A","2403498","2020-06-03 07:00","2020","06","03","07:00","-3.4","","-4.5","","92","","","","16","","24","","12.9","","101.66","","","","-10","","Snow"
"-94.97","74.72","RESOLUTE BAY A","2403498","2020-06-03 08:00","2020","06","03","08:00","-3.3","","-4.2","","93","","","","17","","30","","9.7","","101.70","","","","-11","","Freezing Drizzle"
"-94.97","74.72","RESOLUTE BAY A","2403498","2020-06-03 09:00","2020","06","03","09:00","-2.8","","-4.8","","86","","","","16","","23","","16.1","","101.73","","","","-9","","Mostly Cloudy"
"-94.97","74.72","RESOLUTE BAY A","2403498","2020-06-03 10:00","2020","06","03","10:00","-3.0","","-4.7","","88","","","","16","","26","","24.1","","101.77","","","","-10","","NA"
"-94.97","74.72","RESOLUTE BAY A","2403498","2020-06-03 11:00","2020","06","03","11:00","-2.7","","-5.1","","84","","","","16","","25","","19.3","","101.81","","","","-9","","NA"
"-94.97","74.72","RESOLUTE BAY A","2403498","2020-06-03 12:00","2020","06","03","12:00","-2.6","","-5.3","","82","","","","16","","21","","24.1","","101.86","","","","-9","","Mostly Cloudy"
"-94.97","74.72","RESOLUTE BAY A","2403498","2020-06-03 13:00","2020","06","03","13:00","-2.4","","-5.6","","79","","","","17","","18","","24.1","","101.89","","","","-8","","NA"
"-94.97","74.72","RESOLUTE BAY A","2403498","2020-06-03 14:00","2020","06","03","14:00","-2.6","","-5.3","","82","","","","18","","19","","24.1","","101.94","","","","-8","","NA"
"-94.97","74.72","RESOLUTE BAY A","2403498","2020-06-03 15:00","2020","06","03","15:00","-2.6","","-5.3","","82","","","","17","","18","","24.1","","102.00","","","","-8","","Mainly Clear"
"-94.97","74.72","RESOLUTE BAY A","2403498","2020-06-03 16:00","2020","06","03","16:00","-2.5","","-5.0","","82","","","","16","","15","","24.1","","102.04","","","","-7","","NA"
"-94.97","74.72","RESOLUTE BAY A","2403498","2020-06-03 17:00","2020","06","03","17:00","-2.5","","-4.8","","85","","","","16","","14","","24.1","","102.06","","","","-7","","NA"
"-94.97","74.72","RESOLUTE BAY A","2403498","2020-06-03 18:00","2020","06","03","18:00","-2.1","","-4.8","","82","","","","17","","12","","24.1","","102.09","","","","-6","","Mostly Cloudy"
"-94.97","74.72","RESOLUTE BAY A","2403498","2020-06-03 19:00","2020","06","03","19:00","-2.0","","-4.6","","83","","","","18","","16","","24.1","","102.11","","","","-7","","NA"
"-94.97","74.72","RESOLUTE BAY A","2403498","2020-06-03 20:00","2020","06","03","20:00","-2.1","","-4.3","","85","","","","16","","15","","19.3","","102.13","","","","-7","","NA"
"-94.97","74.72","RESOLUTE BAY A","2403498","2020-06-03 21:00","2020","06","03","21:00","-2.4","","-3.8","","90","","","","15","","12","","24.1","","102.15","","","","-7","","Mostly Cloudy"
"-94.97","74.72","RESOLUTE BAY A","2403498","2020-06-03 22:00","2020","06","03","22:00","-2.2","","-3.9","","88","","","","14","","16","","24.1","","102.16","","","","-7","","NA"
"-94.97","74.72","RESOLUTE BAY A","2403498","2020-06-03 23:00","2020","06","03","23:00","-2.0","","-3.9","","87","","","","15","","18","","24.1","","102.19","","","","-7","","NA"
"-94.97","74.72","RESOLUTE BAY A","2403498","2020-06-04 00:00","2020","06","04","00:00","-2.2","","-3.9","","88","","","","14","","16","","24.1","","102.20","","","","-7","","Cloudy"
"-94.97","74.72","RESOLUTE BAY A","2403498","2020-06-04 01:00","2020","06","04","01:00","-2.3","","-3.5","","91","","","","13","","15","","24.1","","102.20","","","","-7","","NA"
"-94.97","74.72","RESOLUTE BAY A","2403498","2020-06-04 02:00","2020","06","04","02:00","-2.3","","-4.1","","87","","","","15","","20","","24.1","","102.20","","","","-8","","NA"
"-94.97","74.72","RESOLUTE BAY A","2403498","2020-06-04 03:00","2020","06","04","03:00","-2.6","","-4.5","","87","","","","14","","18","","19.3","","102.20","","","","-8","","Cloudy"
"-94.97","74.72","RESOLUTE BAY A","2403498","2020-06-04 04:00","2020","06","04","04:00","-2.3","","-4.7","","84","","","","13","","16","","24.1","","102.19","","","","-7","","NA"
"-94.97","74.72","RESOLUTE BAY A","2403498","2020-06-04 05:00","2020","06","04","05:00","-2.9","","-4.8","","87","","","","13","","19","","24.1","","102.19","","","","-9","","NA"
"-94.97","74.72","RESOLUTE BAY A","2403498","2020-06-04 06:00","2020","06","04","06:00","-2.9","","-5.0","","85","","","","11","","21","","24.1","","102.15","","","","-9","","Mostly Cloudy"
"-94.97","74.72","RESOLUTE BAY A","2403498","2020-06-04 07:00","2020","06","04","07:00","-3.2","","-5.3","","85","","","","12","","23","","32.2","","102.13","","","","-10","","NA"
"-94.97","74.72","RESOLUTE BAY A","2403498","2020-06-04 08:00","2020","06","04","08:00","-2.7","","-4.8","","85","","","","13","","28","","24.1","","102.12","","","","-10","","NA"
"-94.97","74.72","RESOLUTE BAY A","2403498","2020-06-04 09:00","2020","06","04","09:00","-2.2","","-4.1","","87","","","","13","","28","","24.1","","102.09","","","","-9","","Mostly Cloudy"
"-94.97","74.72","RESOLUTE BAY A","2403498","2020-06-04 10:00","2020","06","04","10:00","-1.8","","-3.5","","88","","","","13","","27","","12.9","","102.09","","","","-8","","NA"
"-94.97","74.72","RESOLUTE BAY A","2403498","2020-06-04 11:00","2020","06","04","11:00","-1.2","","-3.5","","84","","","","13","","27","","16.1","","102.08","","","","-8","","Snow"
"-94.97","74.72","RESOLUTE BAY A","2403498","2020-06-04 12:00","2020","06","04","12:00","-0.8","","-3.0","","85","","","","12","","27","","16.1","","102.07","","","","-7","","Snow"
"-94.97","74.72","RESOLUTE BAY A","2403498","2020-06-04 13:00","2020","06","04","13:00","-0.5","","-2.8","","84","","","","12","","27","","12.9","","102.06","","","","-7","","Snow"
"-94.97","74.72","RESOLUTE BAY A","2403498","2020-06-04 14:00","2020","06","04","14:00","-0.6","","-2.8","","85","","","","12","","26","","16.1","","102.03","","","","-7","","Snow"
"-94.97","74.72","RESOLUTE BAY A","2403498","2020-06-04 15:00","2020","06","04","15:00","-0.2","","-2.4","","85","","","","12","","26","","19.3","","102.01","","","","-6","","Snow"
"-94.97","74.72","RESOLUTE BAY A","2403498","2020-06-04 16:00","2020","06","04","16:00","-0.3","","-2.4","","86","","","","12","","25","","19.3","","101.99","","","","-6","","Snow"
"-94.97","74.72","RESOLUTE BAY A","2403498","2020-06-04 17:00","2020","06","04","17:00","-0.5","","-2.3","","88","","","","12","","25","","24.1","","101.97","","","","-7","","NA"
"-94.97","74.72","RESOLUTE BAY A","2403498","2020-06-04 18:00","2020","06","04","18:00","-0.6","","-2.3","","88","","","","11","","21","","24.1","","101.96","","","","-6","","Mostly Cloudy"
"-94.97","74.72","RESOLUTE BAY A","2403498","2020-06-04 19:00","2020","06","04","19:00","-1.1","","-2.5","","90","","","","11","","24","","24.1","","101.96","","","","-7","","NA"
"-94.97","74.72","RESOLUTE BAY A","2403498","2020-06-04 20:00","2020","06","04","20:00","-1.5","","-2.5","","92","","","","10","","23","","24.1","","101.95","","","","-8","","NA"
"-94.97","74.72","RESOLUTE BAY A","2403498","2020-06-04 21:00","2020","06","04","21:00","-1.6","","-2.8","","92","","","","11","","22","","24.1","","101.94","","","","-8","","Cloudy"
"-94.97","74.72","RESOLUTE BAY A","2403498","2020-06-04 22:00","2020","06","04","22:00","-2.0","","-3.1","","92","","","","11","","23","","16.1","","101.92","","","","-8","","NA"
"-94.97","74.72","RESOLUTE BAY A","2403498","2020-06-04 23:00","2020","06","04","23:00","-2.3","","-3.6","","91","","","","11","","18","","16.1","","101.89","","","","-8","","Snow Showers"
"-94.97","74.72","RESOLUTE BAY A","2403498","2020-06-05 00:00","2020","06","05","00:00","-2.3","","-3.5","","91","","","","12","","12","","19.3","","101.88","","","","-7","","Mostly Cloudy"
"-94.97","74.72","RESOLUTE BAY A","2403498","2020-06-05 01:00","2020","06","05","01:00","-3.4","","-4.8","","91","","","","8","","16","","19.3","","101.86","","","","-9","","NA"
"-94.97","74.72","RESOLUTE BAY A","2403498","2020-06-05 02:00","2020","06","05","02:00","-4.4","","-5.5","","92","","","","8","","14","","19.3","","101.85","","","","-10","","NA"
"-94.97","74.72","RESOLUTE BAY A","2403498","2020-06-05 03:00","2020","06","05","03:00","-3.7","","-5.5","","87","","","","7","","18","","24.1","","101.83","","","","-10","","Mainly Clear"
"-94.97","74.72","RESOLUTE BAY A","2403498","2020-06-05 04:00","2020","06","05","04:00","-3.8","","-5.6","","87","","","","7","","22","","24.1","","101.83","","","","-10","","NA"
"-94.97","74.72","RESOLUTE BAY A","2403498","2020-06-05 05:00","2020","06","05","05:00","-3.3","","-5.2","","87","","","","10","","14","","24.1","","101.83","","","","-8","","NA"
"-94.97","74.72","RESOLUTE BAY A","2403498","2020-06-05 06:00","2020","06","05","06:00","-3.2","","-5.1","","87","","","","12","","8","","24.1","","101.82","","","","-6","","Mostly Cloudy"
"-94.97","74.72","RESOLUTE BAY A","2403498","2020-06-05 07:00","2020","06","05","07:00","-2.1","","-4.3","","85","","","","36","","2","","24.1","","101.80","","","","-3","","NA"
"-94.97","74.72","RESOLUTE BAY A","2403498","2020-06-05 08:00","2020","06","05","08:00","-1.7","","-4.2","","83","","","","34","","5","","24.1","","101.78","","","","-4","","NA"
"-94.97","74.72","RESOLUTE BAY A","2403498","2020-06-05 09:00","2020","06","05","09:00","-2.1","","-4.1","","86","","","","34","","10","","24.1","","101.75","","","","-6","","Mostly Cloudy"
"-94.97","74.72","RESOLUTE BAY A","2403498","2020-06-05 10:00","2020","06","05","10:00","-1.9","","-3.8","","87","","","","34","","15","","24.1","","101.71","","","","-7","","NA"
"-94.97","74.72","RESOLUTE BAY A","2403498","2020-06-05 11:00","2020","06","05","11:00","-2.5","","-4.0","","90","","","","34","","19","","24.1","","101.69","","","","-8","","NA"
"-94.97","74.72","RESOLUTE BAY A","2403498","2020-06-05 12:00","2020","06","05","12:00","-2.0","","-3.5","","90","","","","35","","19","","24.1","","101.66","","","","-8","","Mostly Cloudy"
"-94.97","74.72","RESOLUTE BAY A","2403498","2020-06-05 13:00","2020","06","05","13:00","-2.0","","-3.6","","89","","","","36","","15","","24.1","","101.65","","","","-7","","NA"
"-94.97","74.72","RESOLUTE BAY A","2403498","2020-06-05 14:00","2020","06","05","14:00"
"-94.97","74.72","RESOLUTE BAY A","2403498","2020-06-05 15:00","2020","06","05","15:00","-1.2","","-3.6","","84","","","","36","","26","","24.1","","101.61","","","","-8","","Clear"
"-94.97","74.72","RESOLUTE BAY A","2403498","2020-06-05 16:00","2020","06","05","16:00","-1.1","","-3.8","","82","","","","35","","25","","24.1","","101.59","","","","-7","","NA"
"-94.97","74.72","RESOLUTE BAY A","2403498","2020-06-05 17:00","2020","06","05","17:00","-0.9","","-3.9","","80","","","","34","","21","","24.1","","101.58","","","","-7","","NA"
"-94.97","74.72","RESOLUTE BAY A","2403498","2020-06-05 18:00","2020","06","05","18:00"
"-94.97","74.72","RESOLUTE BAY A","2403498","2020-06-05 19:00","2020","06","05","19:00","-1.7","","-4.0","","84","","","","33","","21","","24.1","","101.53","","","","-8","","NA"
"-94.97","74.72","RESOLUTE BAY A","2403498","2020-06-05 20:00","2020","06","05","20:00","-1.6","","-3.0","","90","","","","32","","21","","24.1","","101.50","","","","-7","","Snow Showers"
"-94.97","74.72","RESOLUTE BAY A","2403498","2020-06-05 21:00","2020","06","05","21:00","-1.8","","-3.6","","88","","","","32","","24","","32.2","","101.48","","","","-8","","Cloudy"
"-94.97","74.72","RESOLUTE BAY A","2403498","2020-06-05 22:00","2020","06","05","22:00","-1.7","","-3.5","","88","","","","32","","16","","32.2","","101.46","","","","-7","","NA"
"-94.97","74.72","RESOLUTE BAY A","2403498","2020-06-05 23:00","2020","06","05","23:00","-1.7","","-3.2","","90","","","","30","","10","","32.2","","101.45","","","","-5","","NA"
"-94.97","74.72","RESOLUTE BAY A","2403498","2020-06-06 00:00","2020","06","06","00:00","-1.6","","-2.4","","94","","","","29","","12","","32.2","","101.42","","","","-6","","Cloudy"
"-94.97","74.72","RESOLUTE BAY A","2403498","2020-06-06 01:00","2020","06","06","01:00","-1.4","","-2.0","","96","","","","30","","22","","32.2","","101.39","","","","-7","","NA"
"-94.97","74.72","RESOLUTE BAY A","2403498","2020-06-06 02:00","2020","06","06","02:00","-1.2","","-1.7","","96","","","","29","","21","","4.8","","101.37","","","","-7","","Snow Grains,Fog"
"-94.97","74.72","RESOLUTE BAY A","2403498","2020-06-06 03:00","2020","06","06","03:00","-1.2","","-1.6","","97","","","","30","","25","","12.9","","101.35","","","","-7","","Snow Grains"
"-94.97","74.72","RESOLUTE BAY A","2403498","2020-06-06 04:00","2020","06","06","04:00","-1.8","","-2.1","","97","","","","30","","26","","12.9","","101.31","","","","-8","","Snow Grains"
"-94.97","74.72","RESOLUTE BAY A","2403498","2020-06-06 05:00","2020","06","06","05:00","-1.3","","-1.6","","98","","","","29","","32","","14.5","","101.31","","","","-8","","Snow Grains"
"-94.97","74.72","RESOLUTE BAY A","2403498","2020-06-06 06:00","2020","06","06","06:00","-1.1","","-1.5","","97","","","","30","","24","","16.1","","101.31","","","","-7","","Snow Grains"
"-94.97","74.72","RESOLUTE BAY A","2403498","2020-06-06 07:00","2020","06","06","07:00","-1.0","","-1.9","","93","","","","29","","27","","32.2","","101.29","","","","-7","","NA"
"-94.97","74.72","RESOLUTE BAY A","2403498","2020-06-06 08:00","2020","06","06","08:00","-1.0","","-2.3","","91","","","","29","","24","","24.1","","101.27","","","","-7","","NA"
"-94.97","74.72","RESOLUTE BAY A","2403498","2020-06-06 09:00","2020","06","06","09:00","-1.4","","-2.5","","92","","","","29","","27","","24.1","","101.23","","","","-8","","Cloudy"
"-94.97","74.72","RESOLUTE BAY A","2403498","2020-06-06 10:00","2020","06","06","10:00","-1.3","","-2.3","","93","","","","28","","29","","24.1","","101.22","","","","-8","","NA"
"-94.97","74.72","RESOLUTE BAY A","2403498","2020-06-06 11:00","2020","06","06","11:00","-1.4","","-3.5","","86","","","","32","","25","","24.1","","101.20","","","","-8","","NA"
"-94.97","74.72","RESOLUTE BAY A","2403498","2020-06-06 12:00","2020","06","06","12:00","-1.2","","-3.4","","86","","","","31","","23","","24.1","","101.20","","","","-7","","Cloudy"
"-94.97","74.72","RESOLUTE BAY A","2403498","2020-06-06 13:00","2020","06","06","13:00","-1.2","","-3.2","","86","","","","30","","27","","24.1","","101.21","","","","-8","","NA"
"-94.97","74.72","RESOLUTE BAY A","2403498","2020-06-06 14:00","2020","06","06","14:00"
"-94.97","74.72","RESOLUTE BAY A","2403498","2020-06-06 15:00","2020","06","06","15:00"
"-94.97","74.72","RESOLUTE BAY A","2403498","2020-06-06 16:00","2020","06","06","16:00","-1.1","","-4.3","","79","","","","32","","24","","24.1","","101.24","","","","-7","","NA"
"-94.97","74.72","RESOLUTE BAY A","2403498","2020-06-06 17:00","2020","06","06","17:00","-1.5","","-3.2","","88","","","","33","","19","","19.3","","101.24","","","","-7","","NA"
"-94.97","74.72","RESOLUTE BAY A","2403498","2020-06-06 18:00","2020","06","06","18:00","-1.5","","-4.0","","83","","","","32","","27","","19.3","","101.24","","","","-8","","Snow Showers"
"-94.97","74.72","RESOLUTE BAY A","2403498","2020-06-06 19:00","2020","06","06","19:00"
"-94.97","74.72","RESOLUTE BAY A","2403498","2020-06-06 20:00","2020","06","06","20:00","-1.7","","-3.7","","87","","","","33","","25","","19.3","","101.23","","","","-8","","Snow Showers"
"-94.97","74.72","RESOLUTE BAY A","2403498","2020-06-06 21:00","2020","06","06","21:00","-2.0","","-3.6","","88","","","","33","","22","","24.1","","101.22","","","","-8","","Snow Showers"
"-94.97","74.72","RESOLUTE BAY A","2403498","2020-06-06 22:00","2020","06","06","22:00","-1.8","","-3.7","","87","","","","31","","17","","24.1","","101.21","","","","-7","","Snow Showers"
"-94.97","74.72","RESOLUTE BAY A","2403498","2020-06-06 23:00","2020","06","06","23:00","-1.8","","-2.8","","93","","","","30","","16","","11.3","","101.19","","","","-7","","Snow Showers"
"-94.97","74.72","RESOLUTE BAY A","2403498","2020-06-07 00:00","2020","06","07","00:00","-1.9","","-2.5","","96","","","","29","","17","","9.7","","101.18","","","","-7","","Snow Showers"
"-94.97","74.72","RESOLUTE BAY A","2403498","2020-06-07 01:00","2020","06","07","01:00","-1.7","","-2.1","","97","","","","29","","17","","6.4","","101.17","","","","-7","","Snow Showers,Fog"
"-94.97","74.72","RESOLUTE BAY A","2403498","2020-06-07 02:00","2020","06","07","02:00"
"-94.97","74.72","RESOLUTE BAY A","2403498","2020-06-07 03:00","2020","06","07","03:00","-1.7","","-2.0","","98","","","","30","","18","","3.2","","101.15","","","","-7","","Snow Showers,Fog"
"-94.97","74.72","RESOLUTE BAY A","2403498","2020-06-07 04:00","2020","06","07","04:00","-1.5","","-1.8","","98","","","","30","","11","","3.2","","101.12","","","","-5","","Snow Showers,Fog"
"-94.97","74.72","RESOLUTE BAY A","2403498","2020-06-07 05:00","2020","06","07","05:00","-1.2","","-1.5","","98","","","","30","","13","","1.0","","101.12","","","","-5","","Snow Showers,Fog"
"-94.97","74.72","RESOLUTE BAY A","2403498","2020-06-07 06:00","2020","06","07","06:00","-0.9","","-1.2","","98","","","","31","","16","","1.0","","101.11","","","","-6","","Snow Showers,Fog"
"-94.97","74.72","RESOLUTE BAY A","2403498","2020-06-07 07:00","2020","06","07","07:00","-0.8","","-1.3","","96","","","","29","","17","","9.7","","101.11","","","","-6","","Fog"
"-94.97","74.72","RESOLUTE BAY A","2403498","2020-06-07 08:00","2020","06","07","08:00","-0.6","","-1.8","","91","","","","33","","16","","19.3","","101.09","","","","-5","","NA"
"-94.97","74.72","RESOLUTE BAY A","2403498","2020-06-07 09:00","2020","06","07","09:00","-0.4","","-2.4","","86","","","","33","","21","","24.1","","101.07","","","","-6","","Cloudy"
"-94.97","74.72","RESOLUTE BAY A","2403498","2020-06-07 10:00","2020","06","07","10:00","-0.1","","-2.6","","83","","","","33","","17","","24.1","","101.05","","","","-5","","NA"
"-94.97","74.72","RESOLUTE BAY A","2403498","2020-06-07 11:00","2020","06","07","11:00","-0.1","","-3.2","","80","","","","33","","19","","24.1","","101.07","","","","-5","","NA"
"-94.97","74.72","RESOLUTE BAY A","2403498","2020-06-07 12:00","2020","06","07","12:00","0.2","","-2.5","","83","","","","33","","22","","24.1","","101.10","","","","","","Cloudy"
"-94.97","74.72","RESOLUTE BAY A","2403498","2020-06-07 13:00","2020","06","07","13:00","0.0","","-2.3","","84","","","","33","","26","","24.1","","101.10","","","","-6","","NA"
"-94.97","74.72","RESOLUTE BAY A","2403498","2020-06-07 14:00","2020","06","07","14:00","0.2","","-2.4","","83","","","","33","","24","","24.1","","101.13","","","","","","NA"
"-94.97","74.72","RESOLUTE BAY A","2403498","2020-06-07 15:00","2020","06","07","15:00","0.0","","-1.8","","88","","","","33","","23","","24.1","","101.14","","","","-6","","Mostly Cloudy"
"-94.97","74.72","RESOLUTE BAY A","2403498","2020-06-07 16:00","2020","06","07","16:00","0.0","","-1.4","","90","","","","32","","28","","24.1","","101.16","","","","-6","","NA"
"-94.97","74.72","RESOLUTE BAY A","2403498","2020-06-07 17:00","2020","06","07","17:00","-0.4","","-1.9","","90","","","","32","","23","","24.1","","101.17","","","","-6","","NA"
"-94.97","74.72","RESOLUTE BAY A","2403498","2020-06-07 18:00","2020","06","07","18:00","-0.6","","-1.6","","93","","","","31","","22","","9.7","","101.18","","","","-6","","Snow"
"-94.97","74.72","RESOLUTE BAY A","2403498","2020-06-07 19:00","2020","06","07","19:00","-0.8","","-2.0","","92","","","","32","","28","","16.1","","101.18","","","","-7","","Snow"
"-94.97","74.72","RESOLUTE BAY A","2403498","2020-06-07 20:00","2020","06","07","20:00","-1.1","","-2.2","","92","","","","32","","28","","14.5","","101.20","","","","-8","","Snow"
"-94.97","74.72","RESOLUTE BAY A","2403498","2020-06-07 21:00","2020","06","07","21:00","-1.4","","-2.8","","91","","","","33","","30","","16.1","","101.22","","","","-8","","Snow"
"-94.97","74.72","RESOLUTE BAY A","2403498","2020-06-07 22:00","2020","06","07","22:00","-1.3","","-2.2","","94","","","","32","","27","","12.9","","101.20","","","","-8","","Snow Showers"
"-94.97","74.72","RESOLUTE BAY A","2403498","2020-06-07 23:00","2020","06","07","23:00","-1.4","","-2.2","","94","","","","33","","37","","14.5","","101.20","","","","-9","","Snow Showers"
"-94.97","74.72","RESOLUTE BAY A","2403498","2020-06-08 00:00","2020","06","08","00:00","-1.4","","-2.3","","94","","","","33","","24","","14.5","","101.22","","","","-8","","Snow Showers"
"-94.97","74.72","RESOLUTE BAY A","2403498","2020-06-08 01:00","2020","06","08","01:00","-1.7","","-2.5","","94","","","","32","","26","","14.5","","101.23","","","","-8","","Snow Showers"
"-94.97","74.72","RESOLUTE BAY A","2403498","2020-06-08 02:00","2020","06","08","02:00","-2.0","","-2.9","","94","","","","34","","33","","14.5","","101.24","","","","-9","","NA"
"-94.97","74.72","RESOLUTE BAY A","2403498","2020-06-08 03:00","2020","06","08","03:00","-1.9","","-3.0","","92","","","","33","","39","","16.1","","101.25","","","","-10","","Cloudy"
"-94.97","74.72","RESOLUTE BAY A","2403498","2020-06-08 04:00","2020","06","08","04:00","-2.1","","-3.0","","93","","","","32","","28","","12.9","","101.29","","","","-9","","Snow"
"-94.97","74.72","RESOLUTE BAY A","2403498","2020-06-08 05:00","2020","06","08","05:00","-2.4","","-3.8","","90","","","","34","","27","","16.1","","101.34","","","","-9","","Snow"
"-94.97","74.72","RESOLUTE BAY A","2403498","2020-06-08 06:00","2020","06","08","06:00","-3.2","","-4.7","","90","","","","33","","28","","16.1","","101.34","","","","-10","","Cloudy"
"-94.97","74.72","RESOLUTE BAY A","2403498","2020-06-08 07:00","2020","06","08","07:00","-2.8","","-4.3","","89","","","","32","","34","","24.1","","101.33","","","","-11","","Snow Showers"
"-94.97","74.72","RESOLUTE BAY A","2403498","2020-06-08 08:00","2020","06","08","08:00","-2.4","","-4.0","","89","","","","32","","32","","24.1","","101.35","","","","-10","","Snow Showers"
"-94.97","74.72","RESOLUTE BAY A","2403498","2020-06-08 09:00","2020","06","08","09:00","-2.0","","-3.6","","89","","","","33","","34","","16.1","","101.37","","","","-10","","Snow Showers"
"-94.97","74.72","RESOLUTE BAY A","2403498","2020-06-08 10:00","2020","06","08","10:00","-1.9","","-3.5","","88","","","","32","","34","","14.5","","101.37","","","","-9","","Snow Showers"
"-94.97","74.72","RESOLUTE BAY A","2403498","2020-06-08 11:00","2020","06","08","11:00","-1.2","","-2.8","","89","","","","32","","26","","19.3","","101.36","","","","-8","","Snow Showers"
"-94.97","74.72","RESOLUTE BAY A","2403498","2020-06-08 12:00","2020","06","08","12:00","-0.8","","-2.3","","89","","","","33","","32","","19.3","","101.37","","","","-8","","Snow Showers"
"-94.97","74.72","RESOLUTE BAY A","2403498","2020-06-08 13:00","2020","06","08","13:00","-0.7","","-2.0","","91","","","","32","","29","","16.1","","101.43","","","","-7","","Snow Showers"
"-94.97","74.72","RESOLUTE BAY A","2403498","2020-06-08 14:00","2020","06","08","14:00","-0.5","","-1.9","","90","","","","33","","39","","19.3","","101.46","","","","-8","","NA"
"-94.97","74.72","RESOLUTE BAY A","2403498","2020-06-08 15:00","2020","06","08","15:00","-0.7","","-1.9","","92","","","","33","","38","","19.3","","101.50","","","","-8","","Cloudy"
"-94.97","74.72","RESOLUTE BAY A","2403498","2020-06-08 16:00","2020","06","08","16:00","-0.6","","-1.5","","94","","","","32","","34","","16.1","","101.51","","","","-8","","NA"
"-94.97","74.72","RESOLUTE BAY A","2403498","2020-06-08 17:00","2020","06","08","17:00","-1.0","","-1.7","","94","","","","33","","33","","16.1","","101.55","","","","-8","","NA"
"-94.97","74.72","RESOLUTE BAY A","2403498","2020-06-08 18:00","2020","06","08","18:00","-0.9","","-1.6","","95","","","","33","","16","","19.3","","101.58","","","","-6","","Cloudy"
"-94.97","74.72","RESOLUTE BAY A","2403498","2020-06-08 19:00","2020","06","08","19:00","-0.9","","-1.6","","95","","","","33","","16","","16.1","","101.60","","","","-6","","NA"
"-94.97","74.72","RESOLUTE BAY A","2403498","2020-06-08 20:00","2020","06","08","20:00","-0.8","","-1.5","","95","","","","33","","13","","40.2","","101.60","","","","-5","","NA"
"-94.97","74.72","RESOLUTE BAY A","2403498","2020-06-08 21:00","2020","06","08","21:00","-1.3","","-2.0","","95","","","","27","","17","","40.2","","101.58","","","","-6","","Cloudy"
"-94.97","74.72","RESOLUTE BAY A","2403498","2020-06-08 22:00","2020","06","08","22:00","-1.5","","-2.1","","96","","","","29","","12","","40.2","","101.57","","","","-6","","NA"
"-94.97","74.72","RESOLUTE BAY A","2403498","2020-06-08 23:00","2020","06","08","23:00","-1.7","","-2.3","","96","","","","32","","20","","1.0","","101.58","","","","-7","","Fog"
"-94.97","74.72","RESOLUTE BAY A","2403498","2020-06-09 00:00","2020","06","09","00:00","-2.0","","-2.5","","97","","","","32","","22","","32.2","","101.60","","","","-8","","Mostly Cloudy"
"-94.97","74.72","RESOLUTE BAY A","2403498","2020-06-09 01:00","2020","06","09","01:00","-2.1","","-2.7","","95","","","","29","","17","","24.1","","101.61","","","","-7","","NA"
"-94.97","74.72","RESOLUTE BAY A","2403498","2020-06-09 02:00","2020","06","09","02:00","-3.2","","-3.6","","97","","","","32","","22","","0.8","","101.61","","","","-10","","Freezing Fog"
"-94.97","74.72","RESOLUTE BAY A","2403498","2020-06-09 03:00","2020","06","09","03:00","-3.4","","-3.9","","96","","","","31","","14","","16.1","","101.62","","","","-8","","Cloudy"
"-94.97","74.72","RESOLUTE BAY A","2403498","2020-06-09 04:00","2020","06","09","04:00","-3.9","","-4.5","","96","","","","30","","21","","40.2","","101.60","","","","-10","","NA"
"-94.97","74.72","RESOLUTE BAY A","2403498","2020-06-09 05:00","2020","06","09","05:00","-4.1","","-4.8","","95","","","","32","","16","","48.3","","101.58","","","","-10","","NA"
"-94.97","74.72","RESOLUTE BAY A","2403498","2020-06-09 06:00","2020","06","09","06:00","-4.6","","-5.3","","94","","","","30","","19","","48.3","","101.55","","","","-11","","Clear"
"-94.97","74.72","RESOLUTE BAY A","2403498","2020-06-09 07:00","2020","06","09","07:00","-3.6","","-4.9","","91","","","","30","","22","","48.3","","101.53","","","","-10","","NA"
"-94.97","74.72","RESOLUTE BAY A","2403498","2020-06-09 08:00","2020","06","09","08:00","-3.2","","-4.7","","89","","","","31","","17","","48.3","","101.51","","","","-9","","NA"
"-94.97","74.72","RESOLUTE BAY A","2403498","2020-06-09 09:00","2020","06","09","09:00","-2.7","","-4.2","","89","","","","30","","24","","48.3","","101.51","","","","-9","","Clear"
"-94.97","74.72","RESOLUTE BAY A","2403498","2020-06-09 10:00","2020","06","09","10:00","-1.8","","-3.4","","89","","","","31","","25","","48.3","","101.46","","","","-8","","NA"
"-94.97","74.72","RESOLUTE BAY A","2403498","2020-06-09 11:00","2020","06","09","11:00","-0.5","","-2.8","","85","","","","31","","31","","48.3","","101.43","","","","-7","","NA"
"-94.97","74.72","RESOLUTE BAY A","2403498","2020-06-09 12:00","2020","06","09","12:00","-0.4","","-2.3","","87","","","","32","","27","","72.4","","101.42","","","","-7","","Clear"
"-94.97","74.72","RESOLUTE BAY A","2403498","2020-06-09 13:00","2020","06","09","13:00","0.7","","-2.0","","82","","","","32","","34","","72.4","","101.38","","","","","","NA"
"-94.97","74.72","RESOLUTE BAY A","2403498","2020-06-09 14:00","2020","06","09","14:00","0.7","","-1.6","","84","","","","31","","34","","72.4","","101.38","","","","","","NA"
"-94.97","74.72","RESOLUTE BAY A","2403498","2020-06-09 15:00","2020","06","09","15:00","0.7","","-1.5","","85","","","","30","","25","","72.4","","101.38","","","","","","Clear"
"-94.97","74.72","RESOLUTE BAY A","2403498","2020-06-09 16:00","2020","06","09","16:00","-0.1","","-1.8","","89","","","","30","","23","","72.4","","101.35","","","","-6","","NA"
"-94.97","74.72","RESOLUTE BAY A","2403498","2020-06-09 17:00","2020","06","09","17:00","0.0","","-2.0","","87","","","","31","","19","","72.4","","101.33","","","","-5","","NA"
"-94.97","74.72","RESOLUTE BAY A","2403498","2020-06-09 18:00","2020","06","09","18:00","-0.3","","-1.9","","89","","","","31","","27","","72.4","","101.28","","","","-7","","Clear"
"-94.97","74.72","RESOLUTE BAY A","2403498","2020-06-09 19:00","2020","06","09","19:00","-0.8","","-2.0","","92","","","","31","","24","","48.3","","101.24","","","","-7","","NA"
"-94.97","74.72","RESOLUTE BAY A","2403498","2020-06-09 20:00","2020","06","09","20:00","-1.2","","-2.3","","92","","","","30","","22","","48.3","","101.23","","","","-7","","NA"
"-94.97","74.72","RESOLUTE BAY A","2403498","2020-06-09 21:00","2020","06","09","21:00","-1.6","","-2.6","","93","","","","31","","18","","48.3","","101.20","","","","-7","","Clear"
"-94.97","74.72","RESOLUTE BAY A","2403498","2020-06-09 22:00","2020","06","09","22:00","-1.9","","-2.8","","94","","","","30","","14","","48.3","","101.16","","","","-7","","NA"
"-94.97","74.72","RESOLUTE BAY A","2403498","2020-06-09 23:00","2020","06","09","23:00","-2.9","","-3.8","","94","","","","30","","13","","48.3","","101.14","","","","-8","","NA"
"-94.97","74.72","RESOLUTE BAY A","2403498","2020-06-10 00:00","2020","06","10","00:00","-3.6","","-4.4","","94","","","","31","","13","","48.3","","101.12","","","","-8","","Mostly Cloudy"
"-94.97","74.72","RESOLUTE BAY A","2403498","2020-06-10 01:00","2020","06","10","01:00","-3.9","","-4.5","","95","","","","31","","11","","48.3","","101.14","","","","-8","","NA"
"-94.97","74.72","RESOLUTE BAY A","2403498","2020-06-10 02:00","2020","06","10","02:00","-3.9","","-4.5","","96","","","","34","","16","","48.3","","101.11","","","","-9","","NA"
"-94.97","74.72","RESOLUTE BAY A","2403498","2020-06-10 03:00","2020","06","10","03:00","-4.3","","-4.9","","95","","","","34","","9","","32.2","","101.10","","","","-8","","Cloudy"
"-94.97","74.72","RESOLUTE BAY A","2403498","2020-06-10 04:00","2020","06","10","04:00","-4.2","","-4.8","","95","","","","34","","11","","48.3","","101.08","","","","-9","","NA"
"-94.97","74.72","RESOLUTE BAY A","2403498","2020-06-10 05:00","2020","06","10","05:00","-4.1","","-4.7","","95","","","","33","","12","","48.3","","101.08","","","","-9","","NA"
"-94.97","74.72","RESOLUTE BAY A","2403498","2020-06-10 06:00","2020","06","10","06:00","-3.9","","-4.5","","95","","","","33","","10","","48.3","","101.03","","","","-8","","Cloudy"
"-94.97","74.72","RESOLUTE BAY A","2403498","2020-06-10 07:00","2020","06","10","07:00","-3.7","","-4.3","","95","","","","34","","10","","48.3","","101.00","","","","-8","","NA"
"-94.97","74.72","RESOLUTE BAY A","2403498","2020-06-10 08:00","2020","06","10","08:00","-2.7","","-3.7","","93","","","","34","","10","","56.3","","100.99","","","","-7","","NA"
"-94.97","74.72","RESOLUTE BAY A","2403498","2020-06-10 09:00","2020","06","10","09:00","-2.5","","-3.9","","90","","","","32","","12","","56.3","","100.98","","","","-7","","Cloudy"
"-94.97","74.72","RESOLUTE BAY A","2403498","2020-06-10 10:00","2020","06","10","10:00","-1.4","","-2.7","","91","","","","33","","10","","56.3","","100.93","","","","-5","","NA"
"-94.97","74.72","RESOLUTE BAY A","2403498","2020-06-10 11:00","2020","06","10","11:00","-0.5","","-2.8","","85","","","","33","","8","","56.3","","100.90","","","","-3","","NA"
"-94.97","74.72","RESOLUTE BAY A","2403498","2020-06-10 12:00","2020","06","10","12:00","-0.2","","-1.9","","89","","","","32","","8","","48.3","","100.90","","","","-3","","Cloudy"
"-94.97","74.72","RESOLUTE BAY A","2403498","2020-06-10 13:00","2020","06","10","13:00","0.5","","-1.2","","88","","","","28","","6","","48.3","","100.89","","","","","","NA"
"-94.97","74.72","RESOLUTE BAY A","2403498","2020-06-10 14:00","2020","06","10","14:00","1.1","","-1.1","","85","","","","33","","8","","48.3","","100.85","","","","","","NA"
"-94.97","74.72","RESOLUTE BAY A","2403498","2020-06-10 15:00","2020","06","10","15:00","1.6","","-0.5","","86","","","","30","","9","","48.3","","100.83","","","","","","Mostly Cloudy"
"-94.97","74.72","RESOLUTE BAY A","2403498","2020-06-10 16:00","2020","06","10","16:00","1.5","","-0.5","","86","","","","29","","10","","48.3","","100.81","","","","","","NA"
"-94.97","74.72","RESOLUTE BAY A","2403498","2020-06-10 17:00","2020","06","10","17:00","1.5","","-0.8","","85","","","","27","","11","","48.3","","100.77","","","","","","NA"
"-94.97","74.72","RESOLUTE BAY A","2403498","2020-06-10 18:00","2020","06","10","18:00","1.6","","-0.8","","84","","","","28","","17","","48.3","","100.74","","","","","","Mainly Clear"
"-94.97","74.72","RESOLUTE BAY A","2403498","2020-06-10 19:00","2020","06","10","19:00","1.1","","-1.0","","86","","","","28","","13","","48.3","","100.71","","","","","","NA"
"-94.97","74.72","RESOLUTE BAY A","2403498","2020-06-10 20:00","2020","06","10","20:00","0.9","","-1.3","","85","","","","30","","12","","48.3","","100.68","","","","","","NA"
"-94.97","74.72","RESOLUTE BAY A","2403498","2020-06-10 21:00","2020","06","10","21:00","0.4","","-1.6","","87","","","","29","","11","","48.3","","100.64","","","","","","Mostly Cloudy"
"-94.97","74.72","RESOLUTE BAY A","2403498","2020-06-10 22:00","2020","06","10","22:00","","","-1.5","","86","","","","32","","10","","48.3","","100.59","","","","","","NA"
"-94.97","74.72","RESOLUTE BAY A","2403498","2020-06-10 23:00","2020","06","10","23:00","0.4","","-1.7","","86","","","","32","","14","","48.3","","100.56","","","","","","NA"
"-94.97","74.72","RESOLUTE BAY A","2403498","2020-06-11 00:00","2020","06","11","00:00","-0.1","","-2.1","","86","","","","31","","14","","48.3","","100.54","","","","-4","","Mainly Clear"
"-94.97","74.72","RESOLUTE BAY A","2403498","2020-06-11 01:00","2020","06","11","01:00","-0.7","","-2.2","","90","","","","30","","13","","48.3","","100.49","","","","-5","","NA"
"-94.97","74.72","RESOLUTE BAY A","2403498","2020-06-11 02:00","2020","06","11","02:00","-1.5","","-2.4","","94","","","","32","","12","","48.3","","100.51","","","","-6","","NA"
"-94.97","74.72","RESOLUTE BAY A","2403498","2020-06-11 03:00","2020","06","11","03:00","-1.7","","-2.4","","94","","","","29","","8","","48.3","","100.49","","","","-5","","Mainly Clear"
"-94.97","74.72","RESOLUTE BAY A","2403498","2020-06-11 04:00","2020","06","11","04:00","-2.3","","-3.0","","95","","","","34","","10","","48.3","","100.47","","","","-6","","NA"
"-94.97","74.72","RESOLUTE BAY A","2403498","2020-06-11 05:00","2020","06","11","05:00","-2.1","","-2.9","","94","","","","33","","11","","32.2","","100.47","","","","-6","","NA"
"-94.97","74.72","RESOLUTE BAY A","2403498","2020-06-11 06:00","2020","06","11","06:00","-1.2","","-1.9","","95","","","","30","","9","","48.3","","100.45","","","","-4","","Clear"
"-94.97","74.72","RESOLUTE BAY A","2403498","2020-06-11 07:00","2020","06","11","07:00","-1.3","","-2.4","","92","","","","29","","10","","48.3","","100.46","","","","-5","","NA"
"-94.97","74.72","RESOLUTE BAY A","2403498","2020-06-11 08:00","2020","06","11","08:00","-1.4","","-2.7","","91","","","","33","","13","","48.3","","100.45","","","","-6","","NA"
"-94.97","74.72","RESOLUTE BAY A","2403498","2020-06-11 09:00","2020","06","11","09:00","-0.6","","-2.3","","88","","","","32","","14","","48.3","","100.42","","","","-5","","Clear"
"-94.97","74.72","RESOLUTE BAY A","2403498","2020-06-11 10:00","2020","06","11","10:00","-0.7","","-2.2","","90","","","","29","","5","","48.3","","100.41","","","","-2","","NA"
"-94.97","74.72","RESOLUTE BAY A","2403498","2020-06-11 11:00","2020","06","11","11:00","-0.4","","-2.1","","89","","","","34","","5","","48.3","","100.40","","","","-2","","NA"
"-94.97","74.72","RESOLUTE BAY A","2403498","2020-06-11 12:00","2020","06","11","12:00","-0.2","","-1.9","","88","","","","33","","9","","48.3","","100.39","","","","-3","","Clear"
"-94.97","74.72","RESOLUTE BAY A","2403498","2020-06-11 13:00","2020","06","11","13:00","0.0","","-1.5","","90","","","","33","","13","","48.3","","100.41","","","","-4","","NA"
"-94.97","74.72","RESOLUTE BAY A","2403498","2020-06-11 14:00","2020","06","11","14:00","0.3","","-1.6","","87","","","","31","","14","","48.3","","100.41","","","","","","NA"
"-94.97","74.72","RESOLUTE BAY A","2403498","2020-06-11 15:00","2020","06","11","15:00","0.2","","-1.4","","89","","","","29","","16","","48.3","","100.41","","","","","","Clear"
"-94.97","74.72","RESOLUTE BAY A","2403498","2020-06-11 16:00","2020","06","11","16:00","0.2","","-1.2","","91","","","","28","","13","","48.3","","100.44","","","","","","NA"
"-94.97","74.72","RESOLUTE BAY A","2403498","2020-06-11 17:00","2020","06","11","17:00","0.3","","-1.1","","90","","","","27","","9","","48.3","","100.45","","","","","","NA"
"-94.97","74.72","RESOLUTE BAY A","2403498","2020-06-11 18:00","2020","06","11","18:00","0.3","","-1.2","","89","","","","29","","7","","40.2","","100.44","","","","","","Clear"
"-94.97","74.72","RESOLUTE BAY A","2403498","2020-06-11 19:00","2020","06","11","19:00","-0.8","","-1.5","","95","","","","30","","6","","1.2","","100.43","","","","-3","","Fog"
"-94.97","74.72","RESOLUTE BAY A","2403498","2020-06-11 20:00","2020","06","11","20:00","-1.1","","-1.5","","97","","","","30","","4","","0.4","","100.43","","","","-2","","Freezing Fog"
"-94.97","74.72","RESOLUTE BAY A","2403498","2020-06-11 21:00","2020","06","11","21:00","-1.2","","-1.5","","98","","","","33","","4","","0.4","","100.42","","","","-3","","Freezing Fog"
"-94.97","74.72","RESOLUTE BAY A","2403498","2020-06-11 22:00","2020","06","11","22:00","-1.4","","-1.7","","98","","","","36","","3","","3.2","","100.41","","","","-2","","Fog"
"-94.97","74.72","RESOLUTE BAY A","2403498","2020-06-11 23:00","2020","06","11","23:00","-2.2","","-2.6","","97","","","","35","","7","","0.6","","100.41","","","","-5","","Freezing Fog"
"-94.97","74.72","RESOLUTE BAY A","2403498","2020-06-12 00:00","2020","06","12","00:00","-2.1","","-2.5","","97","","","","36","","4","","4.8","","100.42","","","","-4","","Fog"
"-94.97","74.72","RESOLUTE BAY A","2403498","2020-06-12 01:00","2020","06","12","01:00","-2.2","","-2.5","","97","","","","12","","9","","16.1","","100.43","","","","-6","","NA"
"-94.97","74.72","RESOLUTE BAY A","2403498","2020-06-12 02:00","2020","06","12","02:00","-2.5","","-3.0","","96","","","","9","","5","","24.1","","100.45","","","","-4","","NA"
"-94.97","74.72","RESOLUTE BAY A","2403498","2020-06-12 03:00","2020","06","12","03:00","-1.8","","-2.2","","97","","","","13","","7","","16.1","","100.46","","","","-4","","Clear"
"-94.97","74.72","RESOLUTE BAY A","2403498","2020-06-12 04:00","2020","06","12","04:00","-3.0","","-3.8","","95","","","","13","","10","","16.1","","100.48","","","","-7","","NA"
"-94.97","74.72","RESOLUTE BAY A","2403498","2020-06-12 05:00","2020","06","12","05:00","-1.5","","-2.0","","96","","","","36","","1","","16.1","","100.48","","","","-2","","NA"
"-94.97","74.72","RESOLUTE BAY A","2403498","2020-06-12 06:00","2020","06","12","06:00","-1.4","","-2.0","","96","","","","13","","4","","12.9","","100.50","","","","-3","","Mainly Clear"
"-94.97","74.72","RESOLUTE BAY A","2403498","2020-06-12 07:00","2020","06","12","07:00","-0.2","","-1.5","","91","","","","5","","4","","16.1","","100.50","","","","-1","","NA"
"-94.97","74.72","RESOLUTE BAY A","2403498","2020-06-12 08:00","2020","06","12","08:00","0.3","","-1.2","","90","","","","14","","4","","24.1","","100.51","","","","","","NA"
"-94.97","74.72","RESOLUTE BAY A","2403498","2020-06-12 09:00","2020","06","12","09:00","0.4","","-1.2","","89","","","","15","","10","","24.1","","100.53","","","","","","Mainly Clear"
"-94.97","74.72","RESOLUTE BAY A","2403498","2020-06-12 10:00","2020","06","12","10:00","1.1","","-0.3","","91","","","","14","","14","","24.1","","100.53","","","","","","NA"
"-94.97","74.72","RESOLUTE BAY A","2403498","2020-06-12 11:00","2020","06","12","11:00","0.8","","-0.6","","90","","","","15","","17","","24.1","","100.55","","","","","","NA"
"-94.97","74.72","RESOLUTE BAY A","2403498","2020-06-12 12:00","2020","06","12","12:00","1.0","","-0.2","","92","","","","14","","26","","24.1","","100.60","","","","","","Mainly Clear"
"-94.97","74.72","RESOLUTE BAY A","2403498","2020-06-12 13:00","2020","06","12","13:00","0.6","","-0.5","","92","","","","13","","27","","11.3","","100.61","","","","","","NA"
"-94.97","74.72","RESOLUTE BAY A","2403498","2020-06-12 14:00","2020","06","12","14:00","0.4","","-0.4","","95","","","","11","","29","","11.3","","100.64","","","","","","NA"
"-94.97","74.72","RESOLUTE BAY A","2403498","2020-06-12 15:00","2020","06","12","15:00","0.7","","-0.4","","93","","","","11","","33","","16.1","","100.68","","","","","","Mostly Cloudy"
"-94.97","74.72","RESOLUTE BAY A","2403498","2020-06-12 16:00","2020","06","12","16:00","0.6","","-1.0","","89","","","","12","","39","","16.1","","100.67","","","","","","NA"
"-94.97","74.72","RESOLUTE BAY A","2403498","2020-06-12 17:00","2020","06","12","17:00","0.9","","-1.2","","86","","","","11","","28","","24.1","","100.68","","","","","","NA"
"-94.97","74.72","RESOLUTE BAY A","2403498","2020-06-12 18:00","2020","06","12","18:00","0.7","","-1.4","","86","","","","10","","36","","24.1","","100.67","","","","","","Mainly Clear"
"-94.97","74.72","RESOLUTE BAY A","2403498","2020-06-12 19:00","2020","06","12","19:00","0.5","","-1.6","","86","","","","11","","39","","24.1","","100.67","","","","","","NA"
"-94.97","74.72","RESOLUTE BAY A","2403498","2020-06-12 20:00","2020","06","12","20:00","0.9","","-2.2","","80","","","","12","","31","","32.2","","100.68","","","","","","NA"
"-94.97","74.72","RESOLUTE BAY A","2403498","2020-06-12 21:00","2020","06","12","21:00","0.8","","-2.5","","78","","","","12","","28","","40.2","","100.66","","","","","","Mainly Clear"
"-94.97","74.72","RESOLUTE BAY A","2403498","2020-06-12 22:00","2020","06","12","22:00","0.8","","-3.0","","76","","","","11","","36","","40.2","","100.63","","","","","","NA"
"-94.97","74.72","RESOLUTE BAY A","2403498","2020-06-12 23:00","2020","06","12","23:00","0.5","","-2.8","","79","","","","11","","34","","40.2","","100.65","","","","","","NA"
"-94.97","74.72","RESOLUTE BAY A","2403498","2020-06-13 00:00","2020","06","13","00:00","0.3","","-2.5","","81","","","","11","","32","","40.2","","100.66","","","","","","Mainly Clear"
"-94.97","74.72","RESOLUTE BAY A","2403498","2020-06-13 01:00","2020","06","13","01:00","-0.3","","-2.4","","86","","","","10","","36","","40.2","","100.65","","","","-7","","NA"
"-94.97","74.72","RESOLUTE BAY A","2403498","2020-06-13 02:00","2020","06","13","02:00","-0.9","","-2.0","","93","","","","9","","31","","40.2","","100.68","","","","-8","","NA"
"-94.97","74.72","RESOLUTE BAY A","2403498","2020-06-13 03:00","2020","06","13","03:00","0.0","","-1.5","","90","","","","9","","27","","32.2","","100.70","","","","-6","","Mostly Cloudy"
"-94.97","74.72","RESOLUTE BAY A","2403498","2020-06-13 04:00","2020","06","13","04:00","-0.4","","-1.4","","92","","","","11","","30","","32.2","","100.70","","","","-7","","NA"
"-94.97","74.72","RESOLUTE BAY A","2403498","2020-06-13 05:00","2020","06","13","05:00","0.3","","-1.4","","88","","","","9","","25","","32.2","","100.71","","","","","","NA"
"-94.97","74.72","RESOLUTE BAY A","2403498","2020-06-13 06:00","2020","06","13","06:00","0.6","","-1.5","","86","","","","8","","20","","32.2","","100.69","","","","","","Mostly Cloudy"
"-94.97","74.72","RESOLUTE BAY A","2403498","2020-06-13 07:00","2020","06","13","07:00","0.5","","-1.1","","89","","","","8","","24","","32.2","","100.70","","","","","","NA"
"-94.97","74.72","RESOLUTE BAY A","2403498","2020-06-13 08:00","2020","06","13","08:00","0.3","","-1.5","","87","","","","10","","17","","24.1","","100.70","","","","","","NA"
"-94.97","74.72","RESOLUTE BAY A","2403498","2020-06-13 09:00","2020","06","13","09:00","0.5","","-1.5","","87","","","","12","","15","","24.1","","100.69","","","","","","Mostly Cloudy"
"-94.97","74.72","RESOLUTE BAY A","2403498","2020-06-13 10:00","2020","06","13","10:00","0.9","","-1.3","","85","","","","6","","8","","24.1","","100.70","","","","","","NA"
"-94.97","74.72","RESOLUTE BAY A","2403498","2020-06-13 11:00","2020","06","13","11:00","1.4","","-1.2","","83","","","","3","","8","","24.1","","100.67","","","","","","NA"
"-94.97","74.72","RESOLUTE BAY A","2403498","2020-06-13 12:00","2020","06","13","12:00","1.6","","-0.8","","84","","","","3","","8","","24.1","","100.67","","","","","","Mostly Cloudy"
"-94.97","74.72","RESOLUTE BAY A","2403498","2020-06-13 13:00","2020","06","13","13:00","1.4","","-0.8","","85","","","","15","","4","","12.9","","100.67","","","","","","Snow"
"-94.97","74.72","RESOLUTE BAY A","2403498","2020-06-13 14:00","2020","06","13","14:00","1.5","","-0.2","","88","","","","15","","5","","24.1","","100.68","","","","","","NA"
"-94.97","74.72","RESOLUTE BAY A","2403498","2020-06-13 15:00","2020","06","13","15:00","1.6","","-0.7","","85","","","","36","","1","","12.9","","100.68","","","","","","Mostly Cloudy"
"-94.97","74.72","RESOLUTE BAY A","2403498","2020-06-13 16:00","2020","06","13","16:00","1.6","","-1.4","","80","","","","1","","16","","16.1","","100.68","","","","","","NA"
"-94.97","74.72","RESOLUTE BAY A","2403498","2020-06-13 17:00","2020","06","13","17:00","1.4","","-1.8","","79","","","","1","","11","","24.1","","100.69","","","","","","NA"
"-94.97","74.72","RESOLUTE BAY A","2403498","2020-06-13 18:00","2020","06","13","18:00","1.2","","-1.3","","83","","","","1","","9","","24.1","","100.70","","","","","","Mostly Cloudy"
"-94.97","74.72","RESOLUTE BAY A","2403498","2020-06-13 19:00","2020","06","13","19:00","1.3","","-0.8","","85","","","","34","","14","","24.1","","100.70","","","","","","NA"
"-94.97","74.72","RESOLUTE BAY A","2403498","2020-06-13 20:00","2020","06","13","20:00","1.1","","-0.6","","88","","","","33","","9","","40.2","","100.65","","","","","","NA"
"-94.97","74.72","RESOLUTE BAY A","2403498","2020-06-13 21:00","2020","06","13","21:00","0.8","","-1.0","","88","","","","33","","11","","40.2","","100.65","","","","","","Mostly Cloudy"
"-94.97","74.72","RESOLUTE BAY A","2403498","2020-06-13 22:00","2020","06","13","22:00","0.8","","-1.0","","87","","","","32","","13","","48.3","","100.65","","","","","","NA"
"-94.97","74.72","RESOLUTE BAY A","2403498","2020-06-13 23:00","2020","06","13","23:00","0.4","","-1.0","","90","","","","30","","13","","48.3","","100.65","","","","","","NA"
"-94.97","74.72","RESOLUTE BAY A","2403498","2020-06-14 00:00","2020","06","14","00:00","0.0","","-1.2","","92","","","","31","","14","","40.2","","100.64","","","","-4","","Mostly Cloudy"
"-94.97","74.72","RESOLUTE BAY A","2403498","2020-06-14 01:00","2020","06","14","01:00","0.4","","-0.8","","92","","","","33","","19","","40.2","","100.64","","","","","","NA"
"-94.97","74.72","RESOLUTE BAY A","2403498","2020-06-14 02:00","2020","06","14","02:00","-0.6","","-1.7","","92","","","","34","","16","","40.2","","100.64","","","","-5","","NA"
"-94.97","74.72","RESOLUTE BAY A","2403498","2020-06-14 03:00","2020","06","14","03:00","-1.2","","-1.8","","95","","","","35","","28","","11.3","","100.67","","","","-8","","Cloudy"
"-94.97","74.72","RESOLUTE BAY A","2403498","2020-06-14 04:00","2020","06","14","04:00","-1.1","","-1.6","","97","","","","34","","26","","11.3","","100.70","","","","-7","","NA"
"-94.97","74.72","RESOLUTE BAY A","2403498","2020-06-14 05:00","2020","06","14","05:00","-1.5","","-2.0","","97","","","","34","","25","","14.5","","100.71","","","","-8","","NA"
"-94.97","74.72","RESOLUTE BAY A","2403498","2020-06-14 06:00","2020","06","14","06:00","-1.3","","-1.8","","97","","","","34","","27","","14.5","","100.71","","","","-8","","Cloudy"
"-94.97","74.72","RESOLUTE BAY A","2403498","2020-06-14 07:00","2020","06","14","07:00","-1.2","","-1.8","","95","","","","34","","30","","16.1","","100.70","","","","-8","","NA"
"-94.97","74.72","RESOLUTE BAY A","2403498","2020-06-14 08:00","2020","06","14","08:00","-0.6","","-1.3","","95","","","","34","","27","","11.3","","100.70","","","","-7","","NA"
"-94.97","74.72","RESOLUTE BAY A","2403498","2020-06-14 09:00","2020","06","14","09:00","-0.3","","-0.8","","96","","","","33","","27","","8.1","","100.70","","","","-7","","Fog"
"-94.97","74.72","RESOLUTE BAY A","2403498","2020-06-14 10:00","2020","06","14","10:00"
"-94.97","74.72","RESOLUTE BAY A","2403498","2020-06-14 11:00","2020","06","14","11:00","-0.2","","-0.8","","96","","","","34","","27","","9.7","","100.72","","","","-6","","Fog"
"-94.97","74.72","RESOLUTE BAY A","2403498","2020-06-14 12:00","2020","06","14","12:00","0.0","","-0.6","","96","","","","33","","27","","11.3","","100.74","","","","-6","","Mostly Cloudy"
"-94.97","74.72","RESOLUTE BAY A","2403498","2020-06-14 13:00","2020","06","14","13:00","0.1","","-0.6","","95","","","","33","","30","","11.3","","100.76","","","","","","NA"
"-94.97","74.72","RESOLUTE BAY A","2403498","2020-06-14 14:00","2020","06","14","14:00","-0.1","","-0.9","","94","","","","34","","37","","12.9","","100.78","","","","-7","","NA"
"-94.97","74.72","RESOLUTE BAY A","2403498","2020-06-14 15:00","2020","06","14","15:00","0.3","","-0.9","","92","","","","33","","35","","19.3","","100.79","","","","","","Mostly Cloudy"
"-94.97","74.72","RESOLUTE BAY A","2403498","2020-06-14 16:00","2020","06","14","16:00","0.2","","-0.6","","94","","","","33","","39","","12.9","","100.83","","","","","","NA"
"-94.97","74.72","RESOLUTE BAY A","2403498","2020-06-14 17:00","2020","06","14","17:00","0.1","","-0.7","","94","","","","32","","40","","12.9","","100.87","","","","","","NA"
"-94.97","74.72","RESOLUTE BAY A","2403498","2020-06-14 18:00","2020","06","14","18:00","0.2","","-0.7","","93","","","","33","","36","","19.3","","100.87","","","","","","Mostly Cloudy"
"-94.97","74.72","RESOLUTE BAY A","2403498","2020-06-14 19:00","2020","06","14","19:00","0.3","","-1.0","","91","","","","32","","35","","14.5","","100.87","","","","","","NA"
"-94.97","74.72","RESOLUTE BAY A","2403498","2020-06-14 20:00","2020","06","14","20:00","-0.4","","-1.1","","95","","","","32","","41","","32.2","","100.88","","","","-8","","NA"
"-94.97","74.72","RESOLUTE BAY A","2403498","2020-06-14 21:00","2020","06","14","21:00","-0.9","","-1.4","","96","","","","33","","34","","16.1","","100.90","","","","-8","","Cloudy"
"-94.97","74.72","RESOLUTE BAY A","2403498","2020-06-14 22:00","2020","06","14","22:00","-0.6","","-1.1","","97","","","","33","","30","","14.5","","100.91","","","","-7","","Freezing Drizzle"
"-94.97","74.72","RESOLUTE BAY A","2403498","2020-06-14 23:00","2020","06","14","23:00","-0.2","","-0.6","","97","","","","33","","27","","32.2","","100.94","","","","-6","","NA"
"-94.97","74.72","RESOLUTE BAY A","2403498","2020-06-15 00:00","2020","06","15","00:00","-0.5","","-1.0","","96","","","","34","","29","","14.5","","100.97","","","","-7","","Freezing Drizzle"
"-94.97","74.72","RESOLUTE BAY A","2403498","2020-06-15 01:00","2020","06","15","01:00","-0.6","","-1.3","","95","","","","33","","30","","16.1","","100.98","","","","-7","","NA"
"-94.97","74.72","RESOLUTE BAY A","2403498","2020-06-15 02:00","2020","06","15","02:00","-0.9","","-1.5","","96","","","","33","","32","","16.1","","100.99","","","","-8","","Freezing Drizzle"
"-94.97","74.72","RESOLUTE BAY A","2403498","2020-06-15 03:00","2020","06","15","03:00","-1.0","","-1.5","","96","","","","32","","28","","12.9","","101.02","","","","-8","","Freezing Drizzle"
"-94.97","74.72","RESOLUTE BAY A","2403498","2020-06-15 04:00","2020","06","15","04:00","-0.8","","-1.2","","97","","","","33","","35","","16.1","","101.04","","","","-8","","Freezing Drizzle"
"-94.97","74.72","RESOLUTE BAY A","2403498","2020-06-15 05:00","2020","06","15","05:00","-0.6","","-1.0","","97","","","","34","","35","","40.2","","101.05","","","","-8","","NA"
"-94.97","74.72","RESOLUTE BAY A","2403498","2020-06-15 06:00","2020","06","15","06:00","-0.4","","-1.0","","96","","","","33","","31","","40.2","","101.06","","","","-7","","Cloudy"
"-94.97","74.72","RESOLUTE BAY A","2403498","2020-06-15 07:00","2020","06","15","07:00","-0.5","","-1.2","","95","","","","34","","31","","40.2","","101.09","","","","-7","","NA"
"-94.97","74.72","RESOLUTE BAY A","2403498","2020-06-15 08:00","2020","06","15","08:00","-0.4","","-1.0","","96","","","","33","","27","","9.7","","101.09","","","","-7","","Fog"
"-94.97","74.72","RESOLUTE BAY A","2403498","2020-06-15 09:00","2020","06","15","09:00","-0.1","","-0.7","","96","","","","34","","22","","19.3","","101.09","","","","-6","","Mostly Cloudy"
"-94.97","74.72","RESOLUTE BAY A","2403498","2020-06-15 10:00","2020","06","15","10:00","0.9","","-0.6","","90","","","","34","","20","","24.1","","101.10","","","","","","NA"
"-94.97","74.72","RESOLUTE BAY A","2403498","2020-06-15 11:00","2020","06","15","11:00","1.7","","-0.4","","86","","","","35","","20","","24.1","","101.11","","","","","","NA"
"-94.97","74.72","RESOLUTE BAY A","2403498","2020-06-15 12:00","2020","06","15","12:00","2.1","","-0.4","","84","","","","34","","17","","24.1","","101.11","","","","","","Mainly Clear"
"-94.97","74.72","RESOLUTE BAY A","2403498","2020-06-15 13:00","2020","06","15","13:00","2.4","","-0.4","","81","","","","35","","14","","24.1","","101.14","","","","","","NA"
"-94.97","74.72","RESOLUTE BAY A","2403498","2020-06-15 14:00","2020","06","15","14:00","2.8","","0.0","","82","","","","33","","21","","24.1","","101.16","","","","","","NA"
"-94.97","74.72","RESOLUTE BAY A","2403498","2020-06-15 15:00","2020","06","15","15:00","2.3","","-0.3","","83","","","","34","","26","","24.1","","101.16","","","","","","Mainly Clear"
"-94.97","74.72","RESOLUTE BAY A","2403498","2020-06-15 16:00","2020","06","15","16:00","2.5","","0.0","","84","","","","34","","22","","24.1","","101.20","","","","","","NA"
"-94.97","74.72","RESOLUTE BAY A","2403498","2020-06-15 17:00","2020","06","15","17:00","2.3","","0.2","","86","","","","34","","22","","24.1","","101.19","","","","","","NA"
"-94.97","74.72","RESOLUTE BAY A","2403498","2020-06-15 18:00","2020","06","15","18:00","2.8","","0.2","","83","","","","33","","18","","24.1","","101.22","","","","","","Mainly Clear"
"-94.97","74.72","RESOLUTE BAY A","2403498","2020-06-15 19:00","2020","06","15","19:00","2.5","","0.0","","83","","","","33","","21","","48.3","","101.21","","","","","","NA"
"-94.97","74.72","RESOLUTE BAY A","2403498","2020-06-15 20:00","2020","06","15","20:00","1.8","","-0.1","","87","","","","32","","29","","48.3","","101.21","","","","","","NA"
"-94.97","74.72","RESOLUTE BAY A","2403498","2020-06-15 21:00","2020","06","15","21:00","1.3","","-0.3","","89","","","","34","","22","","48.3","","101.21","","","","","","Clear"
"-94.97","74.72","RESOLUTE BAY A","2403498","2020-06-15 22:00","2020","06","15","22:00","0.4","","-0.5","","94","","","","34","","28","","48.3","","101.19","","","","","","NA"
"-94.97","74.72","RESOLUTE BAY A","2403498","2020-06-15 23:00","2020","06","15","23:00","0.1","","-0.4","","96","","","","34","","27","","48.3","","101.20","","","","","","NA"
"-94.97","74.72","RESOLUTE BAY A","2403498","2020-06-16 00:00","2020","06","16","00:00","0.1","","-0.3","","97","","","","32","","21","","32.2","","101.19","","","","","","Mostly Cloudy"
"-94.97","74.72","RESOLUTE BAY A","2403498","2020-06-16 01:00","2020","06","16","01:00","0.0","","-0.7","","95","","","","34","","26","","16.1","","101.18","","","","-6","","NA"
"-94.97","74.72","RESOLUTE BAY A","2403498","2020-06-16 02:00","2020","06","16","02:00","0.0","","-0.5","","96","","","","27","","8","","24.1","","101.19","","","","-3","","NA"
"-94.97","74.72","RESOLUTE BAY A","2403498","2020-06-16 03:00","2020","06","16","03:00","1.2","","-0.5","","88","","","","29","","16","","32.2","","101.22","","","","","","Clear"
"-94.97","74.72","RESOLUTE BAY A","2403498","2020-06-16 04:00","2020","06","16","04:00","1.3","","-0.6","","87","","","","33","","11","","32.2","","101.23","","","","","","NA"
"-94.97","74.72","RESOLUTE BAY A","2403498","2020-06-16 05:00","2020","06","16","05:00","1.8","","-0.2","","86","","","","33","","32","","40.2","","101.21","","","","","","NA"
"-94.97","74.72","RESOLUTE BAY A","2403498","2020-06-16 06:00","2020","06","16","06:00","1.9","","-0.9","","82","","","","34","","36","","40.2","","101.19","","","","","","Clear"
"-94.97","74.72","RESOLUTE BAY A","2403498","2020-06-16 07:00","2020","06","16","07:00","2.0","","-0.9","","81","","","","33","","31","","40.2","","101.21","","","","","","NA"
"-94.97","74.72","RESOLUTE BAY A","2403498","2020-06-16 08:00","2020","06","16","08:00","1.8","","-1.3","","80","","","","35","","37","","24.1","","101.20","","","","","","NA"
"-94.97","74.72","RESOLUTE BAY A","2403498","2020-06-16 09:00","2020","06","16","09:00","2.6","","-1.4","","74","","","","32","","31","","24.1","","101.21","","","","","","Clear"
"-94.97","74.72","RESOLUTE BAY A","2403498","2020-06-16 10:00","2020","06","16","10:00","3.0","","-2.2","","68","","","","31","","28","","24.1","","101.22","","","","","","NA"
"-94.97","74.72","RESOLUTE BAY A","2403498","2020-06-16 11:00","2020","06","16","11:00","3.4","","-2.1","","67","","","","29","","18","","24.1","","101.17","","","","","","NA"
"-94.97","74.72","RESOLUTE BAY A","2403498","2020-06-16 12:00","2020","06","16","12:00","3.4","","-2.1","","67","","","","32","","44","","24.1","","101.13","","","","","","Clear"
"-94.97","74.72","RESOLUTE BAY A","2403498","2020-06-16 13:00","2020","06","16","13:00","3.4","","-2.0","","68","","","","32","","36","","24.1","","101.10","","","","","","NA"
"-94.97","74.72","RESOLUTE BAY A","2403498","2020-06-16 14:00","2020","06","16","14:00","3.9","","-2.4","","63","","","","34","","40","","24.1","","101.11","","","","","","NA"
"-94.97","74.72","RESOLUTE BAY A","2403498","2020-06-16 15:00","2020","06","16","15:00","3.9","","-1.6","","67","","","","34","","40","","24.1","","101.12","","","","","","Clear"
"-94.97","74.72","RESOLUTE BAY A","2403498","2020-06-16 16:00","2020","06","16","16:00","4.1","","-1.7","","66","","","","32","","40","","24.1","","101.11","","","","","","NA"
"-94.97","74.72","RESOLUTE BAY A","2403498","2020-06-16 17:00","2020","06","16","17:00","4.0","","-1.9","","66","","","","33","","37","","24.1","","101.09","","","","","","NA"
"-94.97","74.72","RESOLUTE BAY A","2403498","2020-06-16 18:00","2020","06","16","18:00","3.9","","-1.7","","67","","","","33","","39","","24.1","","101.08","","","","","","Mainly Clear"
"-94.97","74.72","RESOLUTE BAY A","2403498","2020-06-16 19:00","2020","06","16","19:00","3.9","","-0.9","","71","","","","31","","30","","24.1","","101.07","","","","","","NA"
"-94.97","74.72","RESOLUTE BAY A","2403498","2020-06-16 20:00","2020","06","16","20:00","3.8","","-0.6","","73","","","","32","","27","","48.3","","101.08","","","","","","NA"
"-94.97","74.72","RESOLUTE BAY A","2403498","2020-06-16 21:00","2020","06","16","21:00","3.0","","-0.7","","76","","","","35","","22","","48.3","","101.06","","","","","","Mainly Clear"
"-94.97","74.72","RESOLUTE BAY A","2403498","2020-06-16 22:00","2020","06","16","22:00","2.3","","-0.6","","81","","","","29","","13","","48.3","","101.06","","","","","","NA"
"-94.97","74.72","RESOLUTE BAY A","2403498","2020-06-16 23:00","2020","06","16","23:00","2.0","","-0.6","","83","","","","31","","25","","48.3","","101.04","","","","","","NA"
"-94.97","74.72","RESOLUTE BAY A","2403498","2020-06-17 00:00","2020","06","17","00:00","0.5","","-1.0","","90","","","","30","","18","","48.3","","101.03","","","","","","Clear"
"-94.97","74.72","RESOLUTE BAY A","2403498","2020-06-17 01:00","2020","06","17","01:00","0.0","","-1.2","","92","","","","31","","11","","48.3","","101.01","","","","-4","","NA"
"-94.97","74.72","RESOLUTE BAY A","2403498","2020-06-17 02:00","2020","06","17","02:00","-0.4","","-1.2","","94","","","","31","","12","","48.3","","101.01","","","","-4","","NA"
"-94.97","74.72","RESOLUTE BAY A","2403498","2020-06-17 03:00","2020","06","17","03:00","-0.6","","-1.4","","94","","","","31","","13","","48.3","","100.99","","","","-5","","Mainly Clear"
"-94.97","74.72","RESOLUTE BAY A","2403498","2020-06-17 04:00","2020","06","17","04:00","-0.4","","-1.4","","93","","","","31","","11","","48.3","","100.95","","","","-4","","NA"
"-94.97","74.72","RESOLUTE BAY A","2403498","2020-06-17 05:00","2020","06","17","05:00","-0.2","","-1.2","","93","","","","33","","10","","48.3","","100.92","","","","-4","","NA"
"-94.97","74.72","RESOLUTE BAY A","2403498","2020-06-17 06:00","2020","06","17","06:00","0.3","","-0.8","","92","","","","29","","13","","40.2","","100.92","","","","","","Mostly Cloudy"
"-94.97","74.72","RESOLUTE BAY A","2403498","2020-06-17 07:00","2020","06","17","07:00","-0.3","","-1.0","","95","","","","29","","11","","1.0","","100.89","","","","-4","","Fog"
"-94.97","74.72","RESOLUTE BAY A","2403498","2020-06-17 08:00","2020","06","17","08:00","-0.1","","-0.6","","97","","","","33","","11","","2.8","","100.86","","","","-4","","Fog"
"-94.97","74.72","RESOLUTE BAY A","2403498","2020-06-17 09:00","2020","06","17","09:00","0.1","","-0.4","","96","","","","31","","14","","8.1","","100.85","","","","","","Fog"
"-94.97","74.72","RESOLUTE BAY A","2403498","2020-06-17 10:00","2020","06","17","10:00","1.0","","0.3","","95","","","","30","","14","","16.1","","100.80","","","","","","NA"
"-94.97","74.72","RESOLUTE BAY A","2403498","2020-06-17 11:00","2020","06","17","11:00","1.2","","0.1","","92","","","","33","","9","","12.9","","100.76","","","","","","NA"
"-94.97","74.72","RESOLUTE BAY A","2403498","2020-06-17 12:00","2020","06","17","12:00","2.8","","0.7","","86","","","","24","","7","","16.1","","100.73","","","","","","Mostly Cloudy"
"-94.97","74.72","RESOLUTE BAY A","2403498","2020-06-17 13:00","2020","06","17","13:00","1.8","","0.6","","92","","","","29","","10","","16.1","","100.72","","","","","","NA"
"-94.97","74.72","RESOLUTE BAY A","2403498","2020-06-17 14:00","2020","06","17","14:00","1.6","","0.5","","93","","","","26","","12","","19.3","","100.69","","","","","","NA"
"-94.97","74.72","RESOLUTE BAY A","2403498","2020-06-17 15:00","2020","06","17","15:00","1.8","","0.5","","91","","","","29","","10","","24.1","","100.67","","","","","","Mostly Cloudy"
"-94.97","74.72","RESOLUTE BAY A","2403498","2020-06-17 16:00","2020","06","17","16:00","2.0","","0.4","","89","","","","29","","12","","24.1","","100.66","","","","","","NA"
"-94.97","74.72","RESOLUTE BAY A","2403498","2020-06-17 17:00","2020","06","17","17:00","2.1","","0.6","","89","","","","27","","7","","24.1","","100.63","","","","","","NA"
"-94.97","74.72","RESOLUTE BAY A","2403498","2020-06-17 18:00","2020","06","17","18:00","2.5","","0.8","","89","","","","28","","8","","24.1","","100.60","","","","","","Mostly Cloudy"
"-94.97","74.72","RESOLUTE BAY A","2403498","2020-06-17 19:00","2020","06","17","19:00","2.4","","1.0","","90","","","","14","","5","","24.1","","100.58","","","","","","NA"
"-94.97","74.72","RESOLUTE BAY A","2403498","2020-06-17 20:00","2020","06","17","20:00","2.9","","1.0","","87","","","","21","","4","","48.3","","100.56","","","","","","NA"
"-94.97","74.72","RESOLUTE BAY A","2403498","2020-06-17 21:00","2020","06","17","21:00","3.2","","1.1","","86","","","","26","","7","","48.3","","100.56","","","","","","Mostly Cloudy"
"-94.97","74.72","RESOLUTE BAY A","2403498","2020-06-17 22:00","2020","06","17","22:00","2.9","","0.7","","85","","","","34","","5","","48.3","","100.53","","","","","","NA"
"-94.97","74.72","RESOLUTE BAY A","2403498","2020-06-17 23:00","2020","06","17","23:00","3.1","","1.3","","88","","","","31","","3","","48.3","","100.52","","","","","","NA"
"-94.97","74.72","RESOLUTE BAY A","2403498","2020-06-18 00:00","2020","06","18","00:00","1.8","","0.1","","89","","","","11","","3","","48.3","","100.48","","","","","","Clear"
"-94.97","74.72","RESOLUTE BAY A","2403498","2020-06-18 01:00","2020","06","18","01:00","2.1","","0.9","","92","","","","36","","1","","48.3","","100.47","","","","","","NA"
"-94.97","74.72","RESOLUTE BAY A","2403498","2020-06-18 02:00","2020","06","18","02:00","0.9","","0.1","","94","","","","11","","5","","48.3","","100.43","","","","","","NA"
"-94.97","74.72","RESOLUTE BAY A","2403498","2020-06-18 03:00","2020","06","18","03:00","0.2","","-0.5","","95","","","","11","","13","","48.3","","100.42","","","","","","Clear"
"-94.97","74.72","RESOLUTE BAY A","2403498","2020-06-18 04:00","2020","06","18","04:00","0.1","","-0.5","","95","","","","12","","18","","48.3","","100.43","","","","","","NA"
"-94.97","74.72","RESOLUTE BAY A","2403498","2020-06-18 05:00","2020","06","18","05:00","0.8","","-0.1","","93","","","","12","","18","","48.3","","100.42","","","","","","NA"
"-94.97","74.72","RESOLUTE BAY A","2403498","2020-06-18 06:00","2020","06","18","06:00","1.6","","0.0","","89","","","","12","","23","","48.3","","100.38","","","","","","Clear"
"-94.97","74.72","RESOLUTE BAY A","2403498","2020-06-18 07:00","2020","06","18","07:00","1.6","","0.0","","89","","","","13","","22","","48.3","","100.37","","","","","","NA"
"-94.97","74.72","RESOLUTE BAY A","2403498","2020-06-18 08:00","2020","06","18","08:00","2.0","","0.1","","88","","","","14","","29","","24.1","","100.32","","","","","","NA"
"-94.97","74.72","RESOLUTE BAY A","2403498","2020-06-18 09:00","2020","06","18","09:00","2.3","","0.6","","88","","","","14","","21","","24.1","","100.31","","","","","","Mainly Clear"
"-94.97","74.72","RESOLUTE BAY A","2403498","2020-06-18 10:00","2020","06","18","10:00","2.8","","0.6","","86","","","","15","","22","","24.1","","100.26","","","","","","NA"
"-94.97","74.72","RESOLUTE BAY A","2403498","2020-06-18 11:00","2020","06","18","11:00","3.4","","0.7","","83","","","","15","","19","","24.1","","100.25","","","","","","NA"
"-94.97","74.72","RESOLUTE BAY A","2403498","2020-06-18 12:00","2020","06","18","12:00","5.1","","1.2","","76","","","","14","","27","","24.1","","100.24","","","","","","Mainly Clear"
"-94.97","74.72","RESOLUTE BAY A","2403498","2020-06-18 13:00","2020","06","18","13:00","6.1","","1.6","","73","","","","14","","23","","24.1","","100.22","","","","","","NA"
"-94.97","74.72","RESOLUTE BAY A","2403498","2020-06-18 14:00","2020","06","18","14:00","5.1","","1.1","","76","","","","11","","28","","24.1","","100.16","","","","","","NA"
"-94.97","74.72","RESOLUTE BAY A","2403498","2020-06-18 15:00","2020","06","18","15:00","4.8","","1.1","","76","","","","12","","28","","24.1","","100.12","","","","","","Mostly Cloudy"
"-94.97","74.72","RESOLUTE BAY A","2403498","2020-06-18 16:00","2020","06","18","16:00","5.7","","1.3","","73","","","","12","","30","","24.1","","100.10","","","","","","NA"
"-94.97","74.72","RESOLUTE BAY A","2403498","2020-06-18 17:00","2020","06","18","17:00","5.1","","1.1","","75","","","","11","","34","","24.1","","100.05","","","","","","NA"
"-94.97","74.72","RESOLUTE BAY A","2403498","2020-06-18 18:00","2020","06","18","18:00","5.0","","1.3","","77","","","","12","","32","","24.1","","100.01","","","","","","Mostly Cloudy"
"-94.97","74.72","RESOLUTE BAY A","2403498","2020-06-18 19:00","2020","06","18","19:00","4.2","","1.0","","79","","","","12","","32","","24.1","","99.97","","","","","","NA"
"-94.97","74.72","RESOLUTE BAY A","2403498","2020-06-18 20:00","2020","06","18","20:00","4.0","","0.9","","80","","","","12","","33","","24.1","","99.91","","","","","","NA"
"-94.97","74.72","RESOLUTE BAY A","2403498","2020-06-18 21:00","2020","06","18","21:00","4.2","","0.7","","78","","","","12","","36","","24.1","","99.85","","","","","","Cloudy"
"-94.97","74.72","RESOLUTE BAY A","2403498","2020-06-18 22:00","2020","06","18","22:00","4.0","","0.7","","79","","","","12","","37","","24.1","","99.80","","","","","","NA"
"-94.97","74.72","RESOLUTE BAY A","2403498","2020-06-18 23:00","2020","06","18","23:00","3.3","","0.4","","82","","","","11","","34","","24.1","","99.78","","","","","","NA"
"-94.97","74.72","RESOLUTE BAY A","2403498","2020-06-19 00:00","2020","06","19","00:00","3.1","","0.0","","80","","","","8","","34","","24.1","","99.73","","","","","","Cloudy"
"-94.97","74.72","RESOLUTE BAY A","2403498","2020-06-19 01:00","2020","06","19","01:00","2.3","","-0.9","","79","","","","9","","34","","40.2","","99.71","","","","","","NA"
"-94.97","74.72","RESOLUTE BAY A","2403498","2020-06-19 02:00","2020","06","19","02:00","1.9","","-0.2","","86","","","","10","","29","","40.2","","99.69","","","","","","NA"
"-94.97","74.72","RESOLUTE BAY A","2403498","2020-06-19 03:00","2020","06","19","03:00","1.3","","-0.4","","88","","","","10","","29","","32.2","","99.64","","","","","","Cloudy"
"-94.97","74.72","RESOLUTE BAY A","2403498","2020-06-19 04:00","2020","06","19","04:00","1.4","","0.0","","91","","","","8","","41","","16.1","","99.55","","","","","","Rain"
"-94.97","74.72","RESOLUTE BAY A","2403498","2020-06-19 05:00","2020","06","19","05:00","0.9","","0.0","","94","","","","10","","36","","16.1","","99.53","","","","","","Rain"
"-94.97","74.72","RESOLUTE BAY A","2403498","2020-06-19 06:00","2020","06","19","06:00","1.0","","0.1","","94","","","","9","","47","","14.5","","99.48","","","","","","Rain"
"-94.97","74.72","RESOLUTE BAY A","2403498","2020-06-19 07:00","2020","06","19","07:00","0.7","","0.0","","95","","","","9","","45","","16.1","","99.44","","","","","","Rain"
"-94.97","74.72","RESOLUTE BAY A","2403498","2020-06-19 08:00","2020","06","19","08:00","0.9","","0.1","","94","","","","10","","45","","12.9","","99.41","","","","","","Rain"
"-94.97","74.72","RESOLUTE BAY A","2403498","2020-06-19 09:00","2020","06","19","09:00","0.9","","0.1","","95","","","","10","","48","","11.3","","99.38","","","","","","Rain"
"-94.97","74.72","RESOLUTE BAY A","2403498","2020-06-19 10:00","2020","06","19","10:00","1.0","","0.3","","95","","","","11","","44","","12.9","","99.35","","","","","","Rain"
"-94.97","74.72","RESOLUTE BAY A","2403498","2020-06-19 11:00","2020","06","19","11:00","1.0","","0.4","","95","","","","11","","43","","16.1","","99.32","","","","","","Rain"
"-94.97","74.72","RESOLUTE BAY A","2403498","2020-06-19 12:00","2020","06","19","12:00"
"-94.97","74.72","RESOLUTE BAY A","2403498","2020-06-19 13:00","2020","06","19","13:00","1.3","","0.9","","97","","","","11","","39","","12.9","","99.28","","","","","","Rain"
"-94.97","74.72","RESOLUTE BAY A","2403498","2020-06-19 14:00","2020","06","19","14:00","1.4","","1.0","","97","","","","11","","36","","14.5","","99.32","","","","","","Rain"
"-94.97","74.72","RESOLUTE BAY A","2403498","2020-06-19 15:00","2020","06","19","15:00","1.4","","0.9","","97","","","","11","","30","","14.5","","99.34","","","","","","Rain"
"-94.97","74.72","RESOLUTE BAY A","2403498","2020-06-19 16:00","2020","06","19","16:00","1.5","","1.0","","97","","","","10","","28","","16.1","","99.36","","","","","","NA"
"-94.97","74.72","RESOLUTE BAY A","2403498","2020-06-19 17:00","2020","06","19","17:00","1.4","","0.9","","97","","","","11","","27","","16.1","","99.37","","","","","","NA"
"-94.97","74.72","RESOLUTE BAY A","2403498","2020-06-19 18:00","2020","06","19","18:00","1.4","","1.0","","97","","","","10","","21","","12.9","","99.39","","","","","","Cloudy"
"-94.97","74.72","RESOLUTE BAY A","2403498","2020-06-19 19:00","2020","06","19","19:00","1.4","","1.0","","97","","","","10","","17","","4.0","","99.41","","","","","","Drizzle,Fog"
"-94.97","74.72","RESOLUTE BAY A","2403498","2020-06-19 20:00","2020","06","19","20:00","1.3","","0.9","","98","","","","11","","14","","3.2","","99.44","","","","","","Drizzle,Fog"
"-94.97","74.72","RESOLUTE BAY A","2403498","2020-06-19 21:00","2020","06","19","21:00","1.5","","1.2","","98","","","","10","","8","","4.0","","99.44","","","","","","Drizzle,Fog"
"-94.97","74.72","RESOLUTE BAY A","2403498","2020-06-19 22:00","2020","06","19","22:00","1.6","","1.2","","97","","","","9","","8","","4.0","","99.47","","","","","","Drizzle,Fog"
"-94.97","74.72","RESOLUTE BAY A","2403498","2020-06-19 23:00","2020","06","19","23:00","0.8","","0.4","","98","","","","32","","10","","0.6","","99.52","","","","","","Moderate Drizzle,Fog"
"-94.97","74.72","RESOLUTE BAY A","2403498","2020-06-20 00:00","2020","06","20","00:00","0.5","","0.2","","98","","","","34","","8","","0.6","","99.54","","","","","","Drizzle,Fog"
"-94.97","74.72","RESOLUTE BAY A","2403498","2020-06-20 01:00","2020","06","20","01:00","0.8","","0.6","","98","","","","33","","7","","0.6","","99.57","","","","","","Drizzle,Fog"
"-94.97","74.72","RESOLUTE BAY A","2403498","2020-06-20 02:00","2020","06","20","02:00","0.5","","0.2","","98","","","","34","","10","","0.6","","99.63","","","","","","Drizzle,Fog"
"-94.97","74.72","RESOLUTE BAY A","2403498","2020-06-20 03:00","2020","06","20","03:00","0.2","","0.0","","98","","","","30","","7","","0.4","","99.66","","","","","","Drizzle,Fog"
"-94.97","74.72","RESOLUTE BAY A","2403498","2020-06-20 04:00","2020","06","20","04:00","0.4","","0.2","","98","","","","35","","5","","0.6","","99.70","","","","","","Drizzle,Fog"
"-94.97","74.72","RESOLUTE BAY A","2403498","2020-06-20 05:00","2020","06","20","05:00","0.7","","0.5","","99","","","","27","","6","","0.4","","99.77","","","","","","Drizzle,Fog"
"-94.97","74.72","RESOLUTE BAY A","2403498","2020-06-20 06:00","2020","06","20","06:00","1.0","","0.8","","99","","","","28","","7","","0.4","","99.81","","","","","","Drizzle,Fog"
"-94.97","74.72","RESOLUTE BAY A","2403498","2020-06-20 07:00","2020","06","20","07:00","0.6","","0.4","","99","","","","27","","9","","0.4","","99.84","","","","","","Drizzle,Fog"
"-94.97","74.72","RESOLUTE BAY A","2403498","2020-06-20 08:00","2020","06","20","08:00"
"-94.97","74.72","RESOLUTE BAY A","2403498","2020-06-20 09:00","2020","06","20","09:00","1.6","","1.4","","99","","","","27","","10","","0.4","","99.89","","","","","","Drizzle,Fog"
"-94.97","74.72","RESOLUTE BAY A","2403498","2020-06-20 10:00","2020","06","20","10:00","1.2","","1.1","","99","","","","27","","9","","0.8","","99.93","","","","","","Fog"
"-94.97","74.72","RESOLUTE BAY A","2403498","2020-06-20 11:00","2020","06","20","11:00","1.6","","1.4","","99","","","","30","","8","","6.4","","99.95","","","","","","Fog"
"-94.97","74.72","RESOLUTE BAY A","2403498","2020-06-20 12:00","2020","06","20","12:00","1.7","","1.4","","98","","","","27","","8","","8.1","","99.95","","","","","","Fog"
"-94.97","74.72","RESOLUTE BAY A","2403498","2020-06-20 13:00","2020","06","20","13:00","1.8","","1.6","","98","","","","26","","5","","1.6","","100.01","","","","","","Fog"
"-94.97","74.72","RESOLUTE BAY A","2403498","2020-06-20 14:00","2020","06","20","14:00","2.0","","1.7","","98","","","","16","","12","","2.0","","100.05","","","","","","Fog"
"-94.97","74.72","RESOLUTE BAY A","2403498","2020-06-20 15:00","2020","06","20","15:00","1.6","","1.3","","98","","","","15","","10","","1.6","","100.06","","","","","","Fog"
"-94.97","74.72","RESOLUTE BAY A","2403498","2020-06-20 16:00","2020","06","20","16:00","0.9","","0.6","","98","","","","16","","11","","0.8","","100.10","","","","","","Fog"
"-94.97","74.72","RESOLUTE BAY A","2403498","2020-06-20 17:00","2020","06","20","17:00","0.8","","0.6","","98","","","","15","","9","","0.8","","100.12","","","","","","Fog"
"-94.97","74.72","RESOLUTE BAY A","2403498","2020-06-20 18:00","2020","06","20","18:00"
"-94.97","74.72","RESOLUTE BAY A","2403498","2020-06-20 19:00","2020","06","20","19:00","0.8","","0.6","","98","","","","16","","10","","1.6","","100.17","","","","","","Fog"
"-94.97","74.72","RESOLUTE BAY A","2403498","2020-06-20 20:00","2020","06","20","20:00","0.6","","0.4","","98","","","","17","","9","","1.6","","100.18","","","","","","Fog"
"-94.97","74.72","RESOLUTE BAY A","2403498","2020-06-20 21:00","2020","06","20","21:00","0.5","","0.2","","98","","","","15","","9","","1.6","","100.20","","","","","","Fog"
"-94.97","74.72","RESOLUTE BAY A","2403498","2020-06-20 22:00","2020","06","20","22:00","0.3","","0.1","","99","","","","15","","9","","0.4","","100.20","","","","","","Drizzle,Fog"
"-94.97","74.72","RESOLUTE BAY A","2403498","2020-06-20 23:00","2020","06","20","23:00","0.2","","0.0","","99","","","","12","","5","","0.4","","100.24","","","","","","Drizzle,Fog"
"-94.97","74.72","RESOLUTE BAY A","2403498","2020-06-21 00:00","2020","06","21","00:00","0.4","","0.2","","99","","","","11","","3","","0.4","","100.24","","","","","","Drizzle,Fog"
"-94.97","74.72","RESOLUTE BAY A","2403498","2020-06-21 01:00","2020","06","21","01:00","0.4","","0.2","","99","","","","27","","8","","0.4","","100.27","","","","","","Drizzle,Fog"
"-94.97","74.72","RESOLUTE BAY A","2403498","2020-06-21 02:00","2020","06","21","02:00","0.3","","0.1","","99","","","","27","","4","","0.4","","100.25","","","","","","Drizzle,Fog"
"-94.97","74.72","RESOLUTE BAY A","2403498","2020-06-21 03:00","2020","06","21","03:00","0.6","","0.4","","99","","","","17","","3","","1.2","","100.26","","","","","","Fog"
"-94.97","74.72","RESOLUTE BAY A","2403498","2020-06-21 04:00","2020","06","21","04:00","0.6","","0.5","","99","","","","24","","3","","0.4","","100.28","","","","","","Fog"
"-94.97","74.72","RESOLUTE BAY A","2403498","2020-06-21 05:00","2020","06","21","05:00","0.6","","0.4","","99","","","","13","","7","","0.6","","100.27","","","","","","Drizzle,Fog"
"-94.97","74.72","RESOLUTE BAY A","2403498","2020-06-21 06:00","2020","06","21","06:00","0.9","","0.7","","99","","","","14","","7","","0.6","","100.27","","","","","","Drizzle,Fog"
"-94.97","74.72","RESOLUTE BAY A","2403498","2020-06-21 07:00","2020","06","21","07:00","1.0","","0.8","","99","","","","13","","15","","0.4","","100.23","","","","","","Drizzle,Fog"
"-94.97","74.72","RESOLUTE BAY A","2403498","2020-06-21 08:00","2020","06","21","08:00","0.7","","0.6","","99","","","","14","","13","","0.4","","100.26","","","","","","Drizzle,Fog"
"-94.97","74.72","RESOLUTE BAY A","2403498","2020-06-21 09:00","2020","06","21","09:00","0.9","","0.7","","99","","","","13","","10","","0.6","","100.25","","","","","","Drizzle,Fog"
"-94.97","74.72","RESOLUTE BAY A","2403498","2020-06-21 10:00","2020","06","21","10:00","1.0","","0.8","","99","","","","14","","17","","0.4","","100.22","","","","","","Fog"
"-94.97","74.72","RESOLUTE BAY A","2403498","2020-06-21 11:00","2020","06","21","11:00","0.4","","0.3","","99","","","","14","","18","","0.6","","100.18","","","","","","Fog"
"-94.97","74.72","RESOLUTE BAY A","2403498","2020-06-21 12:00","2020","06","21","12:00","0.6","","0.5","","99","","","","14","","25","","0.2","","100.13","","","","","","Moderate Snow,Fog"
"-94.97","74.72","RESOLUTE BAY A","2403498","2020-06-21 13:00","2020","06","21","13:00","0.6","","0.4","","99","","","","14","","24","","0.4","","100.12","","","","","","Moderate Snow,Fog"
"-94.97","74.72","RESOLUTE BAY A","2403498","2020-06-21 14:00","2020","06","21","14:00","0.5","","0.4","","99","","","","16","","13","","0.6","","100.15","","","","","","Drizzle,Fog"
"-94.97","74.72","RESOLUTE BAY A","2403498","2020-06-21 15:00","2020","06","21","15:00","0.6","","0.5","","99","","","","15","","13","","0.6","","100.17","","","","","","Drizzle,Fog"
"-94.97","74.72","RESOLUTE BAY A","2403498","2020-06-21 16:00","2020","06","21","16:00","0.5","","0.4","","99","","","","13","","10","","0.6","","100.18","","","","","","Rain,Fog"
"-94.97","74.72","RESOLUTE BAY A","2403498","2020-06-21 17:00","2020","06","21","17:00","1.0","","0.8","","99","","","","15","","13","","1.0","","100.19","","","","","","Snow,Fog"
"-94.97","74.72","RESOLUTE BAY A","2403498","2020-06-21 18:00","2020","06","21","18:00","1.5","","1.4","","99","","","","13","","15","","1.6","","100.19","","","","","","Rain,Fog"
"-94.97","74.72","RESOLUTE BAY A","2403498","2020-06-21 19:00","2020","06","21","19:00","1.4","","1.3","","99","","","","14","","13","","2.0","","100.18","","","","","","Rain,Fog"
"-94.97","74.72","RESOLUTE BAY A","2403498","2020-06-21 20:00","2020","06","21","20:00","1.3","","1.1","","99","","","","13","","16","","4.8","","100.19","","","","","","Fog"
"-94.97","74.72","RESOLUTE BAY A","2403498","2020-06-21 21:00","2020","06","21","21:00","1.1","","0.9","","99","","","","13","","13","","9.7","","100.21","","","","","","Fog"
"-94.97","74.72","RESOLUTE BAY A","2403498","2020-06-21 22:00","2020","06","21","22:00","0.9","","0.8","","99","","","","13","","13","","6.4","","100.24","","","","","","Fog"
"-94.97","74.72","RESOLUTE BAY A","2403498","2020-06-21 23:00","2020","06","21","23:00","0.9","","0.8","","99","","","","14","","12","","4.8","","100.26","","","","","","Fog"
"-94.97","74.72","RESOLUTE BAY A","2403498","2020-06-22 00:00","2020","06","22","00:00","1.0","","0.9","","99","","","","13","","9","","4.8","","100.28","","","","","","Fog"
"-94.97","74.72","RESOLUTE BAY A","2403498","2020-06-22 01:00","2020","06","22","01:00","0.9","","0.8","","99","","","","15","","7","","1.2","","100.31","","","","","","Drizzle,Fog"
"-94.97","74.72","RESOLUTE BAY A","2403498","2020-06-22 02:00","2020","06","22","02:00","0.8","","0.7","","99","","","","14","","9","","1.2","","100.34","","","","","","Drizzle,Fog"
"-94.97","74.72","RESOLUTE BAY A","2403498","2020-06-22 03:00","2020","06","22","03:00","0.7","","0.6","","99","","","","36","","2","","0.6","","100.38","","","","","","Drizzle,Fog"
"-94.97","74.72","RESOLUTE BAY A","2403498","2020-06-22 04:00","2020","06","22","04:00","0.8","","0.7","","99","","","","36","","2","","0.6","","100.41","","","","","","Drizzle,Fog"
"-94.97","74.72","RESOLUTE BAY A","2403498","2020-06-22 05:00","2020","06","22","05:00","1.2","","1.1","","99","","","","36","","2","","0.6","","100.43","","","","","","Drizzle,Fog"
"-94.97","74.72","RESOLUTE BAY A","2403498","2020-06-22 06:00","2020","06","22","06:00","1.1","","1.0","","99","","","","32","","4","","0.6","","100.42","","","","","","Drizzle,Fog"
"-94.97","74.72","RESOLUTE BAY A","2403498","2020-06-22 07:00","2020","06","22","07:00","1.3","","1.2","","99","","","","31","","5","","0.6","","100.41","","","","","","Drizzle,Fog"
"-94.97","74.72","RESOLUTE BAY A","2403498","2020-06-22 08:00","2020","06","22","08:00","2.0","","1.9","","99","","","","36","","2","","1.0","","100.41","","","","","","Drizzle,Fog"
"-94.97","74.72","RESOLUTE BAY A","2403498","2020-06-22 09:00","2020","06","22","09:00","2.2","","2.1","","99","","","","13","","7","","0.8","","100.41","","","","","","Drizzle,Fog"
"-94.97","74.72","RESOLUTE BAY A","2403498","2020-06-22 10:00","2020","06","22","10:00","2.6","","2.5","","99","","","","15","","7","","0.6","","100.39","","","","","","Drizzle,Fog"
"-94.97","74.72","RESOLUTE BAY A","2403498","2020-06-22 11:00","2020","06","22","11:00","2.6","","2.5","","99","","","","16","","8","","6.4","","100.39","","","","","","Fog"
"-94.97","74.72","RESOLUTE BAY A","2403498","2020-06-22 12:00","2020","06","22","12:00","2.5","","2.4","","99","","","","13","","6","","4.8","","100.39","","","","","","Fog"
"-94.97","74.72","RESOLUTE BAY A","2403498","2020-06-22 13:00","2020","06","22","13:00","3.0","","2.9","","99","","","","14","","6","","11.3","","100.40","","","","","","NA"
"-94.97","74.72","RESOLUTE BAY A","2403498","2020-06-22 14:00","2020","06","22","14:00","2.5","","2.3","","99","","","","13","","9","","12.9","","100.35","","","","","","NA"
"-94.97","74.72","RESOLUTE BAY A","2403498","2020-06-22 15:00","2020","06","22","15:00","2.7","","2.4","","98","","","","36","","2","","16.1","","100.33","","","","","","Cloudy"
"-94.97","74.72","RESOLUTE BAY A","2403498","2020-06-22 16:00","2020","06","22","16:00","2.5","","2.2","","98","","","","17","","10","","12.9","","100.41","","","","","","NA"
"-94.97","74.72","RESOLUTE BAY A","2403498","2020-06-22 17:00","2020","06","22","17:00","3.1","","2.6","","97","","","","15","","15","","16.1","","100.36","","","","","","NA"
"-94.97","74.72","RESOLUTE BAY A","2403498","2020-06-22 18:00","2020","06","22","18:00","4.2","","3.4","","94","","","","14","","14","","16.1","","100.34","","","","","","Cloudy"
"-94.97","74.72","RESOLUTE BAY A","2403498","2020-06-22 19:00","2020","06","22","19:00","3.8","","3.4","","97","","","","14","","14","","4.0","","100.34","","","","","","Drizzle"
"-94.97","74.72","RESOLUTE BAY A","2403498","2020-06-22 20:00","2020","06","22","20:00","3.4","","3.1","","98","","","","14","","16","","4.0","","100.32","","","","","","Drizzle"
"-94.97","74.72","RESOLUTE BAY A","2403498","2020-06-22 21:00","2020","06","22","21:00","3.2","","2.8","","97","","","","14","","10","","3.6","","100.32","","","","","","Drizzle,Fog"
"-94.97","74.72","RESOLUTE BAY A","2403498","2020-06-22 22:00","2020","06","22","22:00","3.4","","3.2","","98","","","","13","","9","","1.6","","100.31","","","","","","Drizzle,Fog"
"-94.97","74.72","RESOLUTE BAY A","2403498","2020-06-22 23:00","2020","06","22","23:00","3.3","","3.1","","98","","","","13","","11","","1.0","","100.32","","","","","","Drizzle,Fog"
"-94.97","74.72","RESOLUTE BAY A","2403498","2020-06-23 00:00","2020","06","23","00:00","3.1","","2.9","","98","","","","12","","12","","1.0","","100.30","","","","","","Drizzle,Fog"
"-94.97","74.72","RESOLUTE BAY A","2403498","2020-06-23 01:00","2020","06","23","01:00","3.0","","2.8","","99","","","","15","","6","","1.0","","100.27","","","","","","Drizzle,Fog"
"-94.97","74.72","RESOLUTE BAY A","2403498","2020-06-23 02:00","2020","06","23","02:00","3.2","","3.0","","99","","","","15","","7","","0.8","","100.25","","","","","","Drizzle,Fog"
"-94.97","74.72","RESOLUTE BAY A","2403498","2020-06-23 03:00","2020","06","23","03:00","3.2","","3.0","","99","","","","15","","10","","1.0","","100.26","","","","","","Drizzle,Fog"
"-94.97","74.72","RESOLUTE BAY A","2403498","2020-06-23 04:00","2020","06","23","04:00","3.4","","3.2","","99","","","","10","","13","","9.7","","100.25","","","","","","Fog"
"-94.97","74.72","RESOLUTE BAY A","2403498","2020-06-23 05:00","2020","06","23","05:00","3.8","","2.8","","93","","","","10","","16","","14.5","","100.24","","","","","","NA"
"-94.97","74.72","RESOLUTE BAY A","2403498","2020-06-23 06:00","2020","06","23","06:00","4.2","","3.0","","92","","","","10","","18","","32.2","","100.21","","","","","","Cloudy"
"-94.97","74.72","RESOLUTE BAY A","2403498","2020-06-23 07:00","2020","06","23","07:00","4.2","","2.8","","91","","","","11","","26","","32.2","","100.16","","","","","","NA"
"-94.97","74.72","RESOLUTE BAY A","2403498","2020-06-23 08:00","2020","06","23","08:00","3.8","","3.0","","95","","","","11","","29","","24.1","","100.13","","","","","","NA"
"-94.97","74.72","RESOLUTE BAY A","2403498","2020-06-23 09:00","2020","06","23","09:00","3.8","","3.2","","96","","","","11","","29","","14.5","","100.08","","","","","","Cloudy"
"-94.97","74.72","RESOLUTE BAY A","2403498","2020-06-23 10:00","2020","06","23","10:00","4.4","","3.0","","91","","","","12","","32","","24.1","","100.05","","","","","","NA"
"-94.97","74.72","RESOLUTE BAY A","2403498","2020-06-23 11:00","2020","06","23","11:00","4.5","","2.5","","87","","","","12","","32","","24.1","","100.00","","","","","","NA"
"-94.97","74.72","RESOLUTE BAY A","2403498","2020-06-23 12:00","2020","06","23","12:00","5.1","","3.0","","87","","","","12","","28","","24.1","","99.99","","","","","","Cloudy"
"-94.97","74.72","RESOLUTE BAY A","2403498","2020-06-23 13:00","2020","06","23","13:00","5.2","","3.1","","86","","","","13","","37","","24.1","","99.95","","","","","","NA"
"-94.97","74.72","RESOLUTE BAY A","2403498","2020-06-23 14:00","2020","06","23","14:00","4.9","","2.6","","85","","","","12","","40","","24.1","","99.91","","","","","","NA"
"-94.97","74.72","RESOLUTE BAY A","2403498","2020-06-23 15:00","2020","06","23","15:00","5.0","","2.8","","86","","","","12","","37","","48.3","","99.87","","","","","","Mostly Cloudy"
"-94.97","74.72","RESOLUTE BAY A","2403498","2020-06-23 16:00","2020","06","23","16:00","5.3","","3.1","","85","","","","12","","40","","48.3","","99.82","","","","","","NA"
"-94.97","74.72","RESOLUTE BAY A","2403498","2020-06-23 17:00","2020","06","23","17:00","5.4","","3.0","","85","","","","12","","39","","48.3","","99.78","","","","","","NA"
"-94.97","74.72","RESOLUTE BAY A","2403498","2020-06-23 18:00","2020","06","23","18:00","5.2","","3.0","","85","","","","11","","37","","48.3","","99.74","","","","","","Clear"
"-94.97","74.72","RESOLUTE BAY A","2403498","2020-06-23 19:00","2020","06","23","19:00","4.6","","2.7","","87","","","","11","","36","","48.3","","99.71","","","","","","NA"
"-94.97","74.72","RESOLUTE BAY A","2403498","2020-06-23 20:00","2020","06","23","20:00","4.5","","2.4","","86","","","","10","","38","","48.3","","99.64","","","","","","NA"
"-94.97","74.72","RESOLUTE BAY A","2403498","2020-06-23 21:00","2020","06","23","21:00","4.3","","2.0","","85","","","","10","","41","","48.3","","99.61","","","","","","Mostly Cloudy"
"-94.97","74.72","RESOLUTE BAY A","2403498","2020-06-23 22:00","2020","06","23","22:00","3.8","","1.8","","87","","","","9","","39","","48.3","","99.55","","","","","","NA"
"-94.97","74.72","RESOLUTE BAY A","2403498","2020-06-23 23:00","2020","06","23","23:00","3.5","","1.5","","87","","","","10","","39","","48.3","","99.48","","","","","","NA"
"-94.97","74.72","RESOLUTE BAY A","2403498","2020-06-24 00:00","2020","06","24","00:00","3.5","","1.9","","90","","","","9","","39","","48.3","","99.49","","","","","","Mostly Cloudy"
"-94.97","74.72","RESOLUTE BAY A","2403498","2020-06-24 01:00","2020","06","24","01:00","3.3","","1.6","","89","","","","11","","48","","48.3","","99.38","","","","","","NA"
"-94.97","74.72","RESOLUTE BAY A","2403498","2020-06-24 02:00","2020","06","24","02:00","3.5","","1.9","","89","","","","9","","47","","48.3","","99.33","","","","","","NA"
"-94.97","74.72","RESOLUTE BAY A","2403498","2020-06-24 03:00","2020","06","24","03:00","4.0","","2.2","","88","","","","10","","46","","48.3","","99.32","","","","","","Mostly Cloudy"
"-94.97","74.72","RESOLUTE BAY A","2403498","2020-06-24 04:00","2020","06","24","04:00","3.7","","2.2","","90","","","","10","","50","","48.3","","99.32","","","","","","NA"
"-94.97","74.72","RESOLUTE BAY A","2403498","2020-06-24 05:00","2020","06","24","05:00","2.8","","1.9","","94","","","","9","","49","","48.3","","99.32","","","","","","NA"
"-94.97","74.72","RESOLUTE BAY A","2403498","2020-06-24 06:00","2020","06","24","06:00","2.5","","1.9","","96","","","","11","","48","","9.7","","99.30","","","","","","Fog"
"-94.97","74.72","RESOLUTE BAY A","2403498","2020-06-24 07:00","2020","06","24","07:00","3.1","","2.6","","96","","","","11","","57","","6.4","","99.22","","","","","","Fog"
"-94.97","74.72","RESOLUTE BAY A","2403498","2020-06-24 08:00","2020","06","24","08:00","4.1","","3.1","","93","","","","10","","58","","6.4","","99.18","","","","","","Fog"
"-94.97","74.72","RESOLUTE BAY A","2403498","2020-06-24 09:00","2020","06","24","09:00","5.2","","3.4","","88","","","","10","","57","","32.2","","99.17","","","","","","Mostly Cloudy"
"-94.97","74.72","RESOLUTE BAY A","2403498","2020-06-24 10:00","2020","06","24","10:00","6.8","","4.0","","83","","","","10","","56","","32.2","","99.12","","","","","","NA"
"-94.97","74.72","RESOLUTE BAY A","2403498","2020-06-24 11:00","2020","06","24","11:00","6.4","","3.7","","83","","","","11","","61","","32.2","","99.12","","","","","","NA"
"-94.97","74.72","RESOLUTE BAY A","2403498","2020-06-24 12:00","2020","06","24","12:00","6.7","","3.9","","82","","","","11","","52","","48.3","","99.12","","","","","","Mostly Cloudy"
"-94.97","74.72","RESOLUTE BAY A","2403498","2020-06-24 13:00","2020","06","24","13:00","7.1","","3.9","","80","","","","11","","57","","48.3","","99.15","","","","","","NA"
"-94.97","74.72","RESOLUTE BAY A","2403498","2020-06-24 14:00","2020","06","24","14:00","7.0","","3.9","","80","","","","11","","59","","48.3","","99.13","","","","","","NA"
"-94.97","74.72","RESOLUTE BAY A","2403498","2020-06-24 15:00","2020","06","24","15:00","7.5","","4.0","","79","","","","11","","59","","48.3","","99.15","","","","","","Mostly Cloudy"
"-94.97","74.72","RESOLUTE BAY A","2403498","2020-06-24 16:00","2020","06","24","16:00","7.3","","4.0","","80","","","","11","","58","","48.3","","99.16","","","","","","NA"
"-94.97","74.72","RESOLUTE BAY A","2403498","2020-06-24 17:00","2020","06","24","17:00","8.0","","4.3","","77","","","","11","","59","","48.3","","99.15","","","","","","NA"
"-94.97","74.72","RESOLUTE BAY A","2403498","2020-06-24 18:00","2020","06","24","18:00","7.0","","3.8","","80","","","","11","","46","","48.3","","99.18","","","","","","Cloudy"
"-94.97","74.72","RESOLUTE BAY A","2403498","2020-06-24 19:00","2020","06","24","19:00","7.4","","4.2","","80","","","","11","","45","","48.3","","99.20","","","","","","NA"
"-94.97","74.72","RESOLUTE BAY A","2403498","2020-06-24 20:00","2020","06","24","20:00","7.4","","4.0","","79","","","","11","","45","","48.3","","99.22","","","","","","NA"
"-94.97","74.72","RESOLUTE BAY A","2403498","2020-06-24 21:00","2020","06","24","21:00","7.3","","4.0","","79","","","","11","","50","","48.3","","99.22","","","","","","Mostly Cloudy"
"-94.97","74.72","RESOLUTE BAY A","2403498","2020-06-24 22:00","2020","06","24","22:00","7.5","","4.1","","79","","","","11","","44","","48.3","","99.23","","","","","","NA"
"-94.97","74.72","RESOLUTE BAY A","2403498","2020-06-24 23:00","2020","06","24","23:00","7.3","","3.8","","79","","","","11","","46","","32.2","","99.26","","","","","","NA"
"-94.97","74.72","RESOLUTE BAY A","2403498","2020-06-25 00:00","2020","06","25","00:00","6.8","","3.9","","82","","","","9","","46","","32.2","","99.28","","","","","","Mostly Cloudy"
"-94.97","74.72","RESOLUTE BAY A","2403498","2020-06-25 01:00","2020","06","25","01:00","6.8","","3.6","","80","","","","9","","50","","32.2","","99.30","","","","","","NA"
"-94.97","74.72","RESOLUTE BAY A","2403498","2020-06-25 02:00","2020","06","25","02:00","6.6","","3.5","","80","","","","9","","48","","32.2","","99.29","","","","","","NA"
"-94.97","74.72","RESOLUTE BAY A","2403498","2020-06-25 03:00","2020","06","25","03:00","6.5","","3.1","","79","","","","11","","43","","32.2","","99.35","","","","","","Mostly Cloudy"
"-94.97","74.72","RESOLUTE BAY A","2403498","2020-06-25 04:00","2020","06","25","04:00","7.2","","3.5","","77","","","","11","","50","","32.2","","99.34","","","","","","Rain"
"-94.97","74.72","RESOLUTE BAY A","2403498","2020-06-25 05:00","2020","06","25","05:00","7.7","","3.7","","76","","","","12","","41","","32.2","","99.35","","","","","","Rain"
"-94.97","74.72","RESOLUTE BAY A","2403498","2020-06-25 06:00","2020","06","25","06:00","7.8","","3.4","","74","","","","12","","57","","32.2","","99.37","","","","","","Mostly Cloudy"
"-94.97","74.72","RESOLUTE BAY A","2403498","2020-06-25 07:00","2020","06","25","07:00","7.3","","3.3","","75","","","","10","","55","","32.2","","99.37","","","","","","Rain"
"-94.97","74.72","RESOLUTE BAY A","2403498","2020-06-25 08:00","2020","06","25","08:00","6.6","","3.5","","80","","","","10","","47","","32.2","","99.42","","","","","","Rain"
"-94.97","74.72","RESOLUTE BAY A","2403498","2020-06-25 09:00","2020","06","25","09:00","6.3","","3.0","","79","","","","11","","45","","40.2","","99.48","","","","","","Mostly Cloudy"
"-94.97","74.72","RESOLUTE BAY A","2403498","2020-06-25 10:00","2020","06","25","10:00","5.7","","3.0","","83","","","","10","","41","","48.3","","99.46","","","","","","NA"
"-94.97","74.72","RESOLUTE BAY A","2403498","2020-06-25 11:00","2020","06","25","11:00","5.8","","4.0","","88","","","","10","","50","","40.2","","99.54","","","","","","NA"
"-94.97","74.72","RESOLUTE BAY A","2403498","2020-06-25 12:00","2020","06","25","12:00","5.4","","3.6","","88","","","","9","","51","","40.2","","99.54","","","","","","Mostly Cloudy"
"-94.97","74.72","RESOLUTE BAY A","2403498","2020-06-25 13:00","2020","06","25","13:00","5.5","","4.5","","93","","","","8","","49","","16.1","","99.61","","","","","","Rain"
"-94.97","74.72","RESOLUTE BAY A","2403498","2020-06-25 14:00","2020","06","25","14:00","6.9","","5.2","","89","","","","9","","46","","19.3","","99.67","","","","","","NA"
"-94.97","74.72","RESOLUTE BAY A","2403498","2020-06-25 15:00","2020","06","25","15:00"
"-94.97","74.72","RESOLUTE BAY A","2403498","2020-06-25 16:00","2020","06","25","16:00","8.0","","5.9","","86","","","","9","","41","","24.1","","99.78","","","","","","NA"
"-94.97","74.72","RESOLUTE BAY A","2403498","2020-06-25 17:00","2020","06","25","17:00","6.7","","5.2","","90","","","","9","","50","","24.1","","99.81","","","","","","NA"
"-94.97","74.72","RESOLUTE BAY A","2403498","2020-06-25 18:00","2020","06","25","18:00","6.5","","5.0","","90","","","","10","","43","","24.1","","99.89","","","","","","Cloudy"
"-94.97","74.72","RESOLUTE BAY A","2403498","2020-06-25 19:00","2020","06","25","19:00","6.3","","5.2","","92","","","","10","","44","","24.1","","99.98","","","","","","NA"
"-94.97","74.72","RESOLUTE BAY A","2403498","2020-06-25 20:00","2020","06","25","20:00","6.1","","5.1","","93","","","","10","","48","","24.1","","100.02","","","","","","NA"
"-94.97","74.72","RESOLUTE BAY A","2403498","2020-06-25 21:00","2020","06","25","21:00","5.9","","5.0","","94","","","","10","","41","","24.1","","100.07","","","","","","Rain"
"-94.97","74.72","RESOLUTE BAY A","2403498","2020-06-25 22:00","2020","06","25","22:00","4.9","","3.9","","94","","","","10","","44","","24.1","","100.12","","","","","","NA"
"-94.97","74.72","RESOLUTE BAY A","2403498","2020-06-25 23:00","2020","06","25","23:00","4.7","","3.7","","94","","","","10","","45","","24.1","","100.15","","","","","","NA"
"-94.97","74.72","RESOLUTE BAY A","2403498","2020-06-26 00:00","2020","06","26","00:00","3.9","","3.1","","94","","","","10","","41","","24.1","","100.21","","","","","","Cloudy"
"-94.97","74.72","RESOLUTE BAY A","2403498","2020-06-26 01:00","2020","06","26","01:00","3.9","","3.0","","94","","","","10","","43","","24.1","","100.24","","","","","","NA"
"-94.97","74.72","RESOLUTE BAY A","2403498","2020-06-26 02:00","2020","06","26","02:00","4.0","","3.2","","94","","","","10","","41","","24.1","","100.29","","","","","","NA"
"-94.97","74.72","RESOLUTE BAY A","2403498","2020-06-26 03:00","2020","06","26","03:00","4.4","","3.3","","93","","","","10","","44","","24.1","","100.27","","","","","","Cloudy"
"-94.97","74.72","RESOLUTE BAY A","2403498","2020-06-26 04:00","2020","06","26","04:00","3.2","","2.5","","95","","","","10","","45","","24.1","","100.35","","","","","","NA"
"-94.97","74.72","RESOLUTE BAY A","2403498","2020-06-26 05:00","2020","06","26","05:00","3.1","","2.4","","95","","","","10","","42","","24.1","","100.38","","","","","","NA"
"-94.97","74.72","RESOLUTE BAY A","2403498","2020-06-26 06:00","2020","06","26","06:00","3.4","","2.7","","95","","","","10","","37","","16.1","","100.42","","","","","","Cloudy"
"-94.97","74.72","RESOLUTE BAY A","2403498","2020-06-26 07:00","2020","06","26","07:00","2.8","","2.3","","96","","","","11","","45","","14.5","","100.46","","","","","","NA"
"-94.97","74.72","RESOLUTE BAY A","2403498","2020-06-26 08:00","2020","06","26","08:00","2.9","","2.1","","94","","","","9","","46","","16.1","","100.47","","","","","","NA"
"-94.97","74.72","RESOLUTE BAY A","2403498","2020-06-26 09:00","2020","06","26","09:00","3.5","","2.6","","94","","","","11","","51","","19.3","","100.45","","","","","","Mostly Cloudy"
"-94.97","74.72","RESOLUTE BAY A","2403498","2020-06-26 10:00","2020","06","26","10:00","5.5","","4.1","","91","","","","10","","41","","24.1","","100.45","","","","","","NA"
"-94.97","74.72","RESOLUTE BAY A","2403498","2020-06-26 11:00","2020","06","26","11:00","5.3","","3.8","","90","","","","10","","40","","19.3","","100.50","","","","","","NA"
"-94.97","74.72","RESOLUTE BAY A","2403498","2020-06-26 12:00","2020","06","26","12:00","6.0","","4.3","","89","","","","7","","45","","24.1","","100.50","","","","","","Mostly Cloudy"
"-94.97","74.72","RESOLUTE BAY A","2403498","2020-06-26 13:00","2020","06","26","13:00","6.2","","4.4","","88","","","","7","","41","","24.1","","100.50","","","","","","NA"
"-94.97","74.72","RESOLUTE BAY A","2403498","2020-06-26 14:00","2020","06","26","14:00","6.5","","4.3","","86","","","","8","","39","","19.3","","100.55","","","","","","NA"
"-94.97","74.72","RESOLUTE BAY A","2403498","2020-06-26 15:00","2020","06","26","15:00","6.4","","4.5","","88","","","","8","","42","","24.1","","100.56","","","","","","Mostly Cloudy"
"-94.97","74.72","RESOLUTE BAY A","2403498","2020-06-26 16:00","2020","06","26","16:00","6.3","","4.6","","88","","","","9","","45","","24.1","","100.55","","","","","","NA"
"-94.97","74.72","RESOLUTE BAY A","2403498","2020-06-26 17:00","2020","06","26","17:00","6.9","","4.7","","86","","","","9","","43","","24.1","","100.55","","","","","","NA"
"-94.97","74.72","RESOLUTE BAY A","2403498","2020-06-26 18:00","2020","06","26","18:00","6.0","","4.4","","90","","","","11","","32","","16.1","","100.57","","","","","","Mostly Cloudy"
"-94.97","74.72","RESOLUTE BAY A","2403498","2020-06-26 19:00","2020","06","26","19:00","5.0","","3.8","","92","","","","10","","41","","32.2","","100.56","","","","","","NA"
"-94.97","74.72","RESOLUTE BAY A","2403498","2020-06-26 20:00","2020","06","26","20:00","6.6","","5.5","","93","","","","10","","34","","32.2","","100.55","","","","","","NA"
"-94.97","74.72","RESOLUTE BAY A","2403498","2020-06-26 21:00","2020","06","26","21:00","6.2","","4.8","","91","","","","12","","34","","40.2","","100.56","","","","","","Cloudy"
"-94.97","74.72","RESOLUTE BAY A","2403498","2020-06-26 22:00","2020","06","26","22:00","6.9","","5.7","","92","","","","11","","37","","40.2","","100.51","","","","","","NA"
"-94.97","74.72","RESOLUTE BAY A","2403498","2020-06-26 23:00","2020","06","26","23:00","5.8","","4.1","","89","","","","10","","32","","40.2","","100.47","","","","","","NA"
"-94.97","74.72","RESOLUTE BAY A","2403498","2020-06-27 00:00","2020","06","27","00:00","4.7","","2.6","","86","","","","10","","39","","40.2","","100.47","","","","","","Mostly Cloudy"
"-94.97","74.72","RESOLUTE BAY A","2403498","2020-06-27 01:00","2020","06","27","01:00","4.1","","1.6","","84","","","","10","","53","","40.2","","100.42","","","","","","NA"
"-94.97","74.72","RESOLUTE BAY A","2403498","2020-06-27 02:00","2020","06","27","02:00","4.2","","1.8","","85","","","","10","","48","","32.2","","100.39","","","","","","NA"
"-94.97","74.72","RESOLUTE BAY A","2403498","2020-06-27 03:00","2020","06","27","03:00","4.2","","1.6","","83","","","","9","","50","","32.2","","100.42","","","","","","Mostly Cloudy"
"-94.97","74.72","RESOLUTE BAY A","2403498","2020-06-27 04:00","2020","06","27","04:00","2.9","","0.9","","87","","","","8","","59","","32.2","","100.36","","","","","","NA"
"-94.97","74.72","RESOLUTE BAY A","2403498","2020-06-27 05:00","2020","06","27","05:00","4.3","","1.6","","82","","","","9","","52","","32.2","","100.36","","","","","","NA"
"-94.97","74.72","RESOLUTE BAY A","2403498","2020-06-27 06:00","2020","06","27","06:00","4.8","","2.1","","83","","","","10","","50","","32.2","","100.33","","","","","","Mostly Cloudy"
"-94.97","74.72","RESOLUTE BAY A","2403498","2020-06-27 07:00","2020","06","27","07:00","5.0","","2.4","","83","","","","10","","51","","32.2","","100.32","","","","","","NA"
"-94.97","74.72","RESOLUTE BAY A","2403498","2020-06-27 08:00","2020","06","27","08:00","4.9","","2.2","","83","","","","9","","58","","24.1","","100.30","","","","","","NA"
"-94.97","74.72","RESOLUTE BAY A","2403498","2020-06-27 09:00","2020","06","27","09:00","5.9","","2.7","","80","","","","9","","51","","24.1","","100.28","","","","","","Mostly Cloudy"
"-94.97","74.72","RESOLUTE BAY A","2403498","2020-06-27 10:00","2020","06","27","10:00","5.2","","2.4","","82","","","","8","","60","","24.1","","100.25","","","","","","NA"
"-94.97","74.72","RESOLUTE BAY A","2403498","2020-06-27 11:00","2020","06","27","11:00","6.1","","3.0","","80","","","","8","","54","","24.1","","100.20","","","","","","NA"
"-94.97","74.72","RESOLUTE BAY A","2403498","2020-06-27 12:00","2020","06","27","12:00","6.5","","3.1","","79","","","","8","","58","","24.1","","100.26","","","","","","Mostly Cloudy"
"-94.97","74.72","RESOLUTE BAY A","2403498","2020-06-27 13:00","2020","06","27","13:00","7.1","","4.1","","81","","","","10","","56","","19.3","","100.23","","","","","","NA"
"-94.97","74.72","RESOLUTE BAY A","2403498","2020-06-27 14:00","2020","06","27","14:00","7.1","","3.8","","79","","","","9","","61","","24.1","","100.18","","","","","","NA"
"-94.97","74.72","RESOLUTE BAY A","2403498","2020-06-27 15:00","2020","06","27","15:00","6.6","","3.9","","83","","","","9","","59","","24.1","","100.24","","","","","","Mostly Cloudy"
"-94.97","74.72","RESOLUTE BAY A","2403498","2020-06-27 16:00","2020","06","27","16:00","6.5","","3.7","","82","","","","8","","65","","24.1","","100.21","","","","","","NA"
"-94.97","74.72","RESOLUTE BAY A","2403498","2020-06-27 17:00","2020","06","27","17:00","6.4","","3.9","","84","","","","9","","60","","24.1","","100.23","","","","","","NA"
"-94.97","74.72","RESOLUTE BAY A","2403498","2020-06-27 18:00","2020","06","27","18:00","5.5","","3.6","","88","","","","9","","60","","24.1","","100.24","","","","","","Mostly Cloudy"
"-94.97","74.72","RESOLUTE BAY A","2403498","2020-06-27 19:00","2020","06","27","19:00","5.7","","3.8","","88","","","","9","","59","","32.2","","100.27","","","","","","NA"
"-94.97","74.72","RESOLUTE BAY A","2403498","2020-06-27 20:00","2020","06","27","20:00","5.0","","3.0","","87","","","","9","","59","","32.2","","100.31","","","","","","NA"
"-94.97","74.72","RESOLUTE BAY A","2403498","2020-06-27 21:00","2020","06","27","21:00","5.1","","3.0","","86","","","","10","","55","","40.2","","100.34","","","","","","Cloudy"
"-94.97","74.72","RESOLUTE BAY A","2403498","2020-06-27 22:00","2020","06","27","22:00","5.7","","3.5","","86","","","","10","","59","","32.2","","100.35","","","","","","NA"
"-94.97","74.72","RESOLUTE BAY A","2403498","2020-06-27 23:00","2020","06","27","23:00","4.8","","2.9","","88","","","","9","","50","","32.2","","100.37","","","","","","NA"
"-94.97","74.72","RESOLUTE BAY A","2403498","2020-06-28 00:00","2020","06","28","00:00","4.6","","3.0","","89","","","","11","","54","","24.1","","100.38","","","","","","Mostly Cloudy"
"-94.97","74.72","RESOLUTE BAY A","2403498","2020-06-28 01:00","2020","06","28","01:00","4.8","","3.2","","90","","","","11","","52","","24.1","","100.43","","","","","","NA"
"-94.97","74.72","RESOLUTE BAY A","2403498","2020-06-28 02:00","2020","06","28","02:00","4.6","","3.2","","91","","","","11","","58","","24.1","","100.47","","","","","","NA"
"-94.97","74.72","RESOLUTE BAY A","2403498","2020-06-28 03:00","2020","06","28","03:00","3.8","","2.7","","93","","","","11","","54","","24.1","","100.51","","","","","","Cloudy"
"-94.97","74.72","RESOLUTE BAY A","2403498","2020-06-28 04:00","2020","06","28","04:00","4.7","","3.7","","93","","","","10","","60","","24.1","","100.55","","","","","","NA"
"-94.97","74.72","RESOLUTE BAY A","2403498","2020-06-28 05:00","2020","06","28","05:00","3.5","","2.7","","95","","","","11","","42","","16.1","","100.61","","","","","","NA"
"-94.97","74.72","RESOLUTE BAY A","2403498","2020-06-28 06:00","2020","06","28","06:00","3.4","","2.5","","94","","","","10","","47","","16.1","","100.65","","","","","","Cloudy"
"-94.97","74.72","RESOLUTE BAY A","2403498","2020-06-28 07:00","2020","06","28","07:00","2.8","","2.1","","95","","","","9","","41","","16.1","","100.67","","","","","","NA"
"-94.97","74.72","RESOLUTE BAY A","2403498","2020-06-28 08:00","2020","06","28","08:00","3.0","","2.0","","93","","","","10","","40","","16.1","","100.70","","","","","","Drizzle"
"-94.97","74.72","RESOLUTE BAY A","2403498","2020-06-28 09:00","2020","06","28","09:00","3.2","","2.1","","92","","","","11","","38","","16.1","","100.72","","","","","","Drizzle"
"-94.97","74.72","RESOLUTE BAY A","2403498","2020-06-28 10:00","2020","06","28","10:00","3.3","","1.9","","90","","","","8","","46","","16.1","","100.69","","","","","","NA"
"-94.97","74.72","RESOLUTE BAY A","2403498","2020-06-28 11:00","2020","06","28","11:00","3.5","","2.0","","90","","","","8","","50","","24.1","","100.67","","","","","","NA"
"-94.97","74.72","RESOLUTE BAY A","2403498","2020-06-28 12:00","2020","06","28","12:00","4.2","","2.3","","87","","","","8","","49","","16.1","","100.70","","","","","","Mostly Cloudy"
"-94.97","74.72","RESOLUTE BAY A","2403498","2020-06-28 13:00","2020","06","28","13:00","5.0","","2.8","","86","","","","10","","43","","19.3","","100.71","","","","","","NA"
"-94.97","74.72","RESOLUTE BAY A","2403498","2020-06-28 14:00","2020","06","28","14:00","4.1","","1.8","","85","","","","9","","48","","19.3","","100.73","","","","","","NA"
"-94.97","74.72","RESOLUTE BAY A","2403498","2020-06-28 15:00","2020","06","28","15:00","4.7","","2.3","","84","","","","8","","49","","19.3","","100.72","","","","","","Mostly Cloudy"
"-94.97","74.72","RESOLUTE BAY A","2403498","2020-06-28 16:00","2020","06","28","16:00","4.7","","2.2","","84","","","","9","","50","","19.3","","100.71","","","","","","NA"
"-94.97","74.72","RESOLUTE BAY A","2403498","2020-06-28 17:00","2020","06","28","17:00","5.5","","2.9","","83","","","","9","","51","","24.1","","100.68","","","","","","NA"
"-94.97","74.72","RESOLUTE BAY A","2403498","2020-06-28 18:00","2020","06","28","18:00","5.3","","3.1","","86","","","","9","","44","","24.1","","100.67","","","","","","Mostly Cloudy"
"-94.97","74.72","RESOLUTE BAY A","2403498","2020-06-28 19:00","2020","06","28","19:00","5.7","","3.3","","84","","","","9","","41","","24.1","","100.66","","","","","","NA"
"-94.97","74.72","RESOLUTE BAY A","2403498","2020-06-28 20:00","2020","06","28","20:00","5.1","","3.1","","87","","","","9","","38","","32.2","","100.68","","","","","","NA"
"-94.97","74.72","RESOLUTE BAY A","2403498","2020-06-28 21:00","2020","06","28","21:00","4.6","","2.8","","88","","","","10","","44","","32.2","","100.65","","","","","","Cloudy"
"-94.97","74.72","RESOLUTE BAY A","2403498","2020-06-28 22:00","2020","06","28","22:00","4.0","","2.4","","90","","","","8","","52","","32.2","","100.65","","","","","","NA"
"-94.97","74.72","RESOLUTE BAY A","2403498","2020-06-28 23:00","2020","06","28","23:00","3.6","","2.2","","91","","","","10","","38","","24.1","","100.67","","","","","","NA"
"-94.97","74.72","RESOLUTE BAY A","2403498","2020-06-29 00:00","2020","06","29","00:00","2.8","","1.5","","91","","","","8","","47","","24.1","","100.68","","","","","","Cloudy"
"-94.97","74.72","RESOLUTE BAY A","2403498","2020-06-29 01:00","2020","06","29","01:00","2.9","","1.8","","92","","","","8","","46","","24.1","","100.65","","","","","","NA"
"-94.97","74.72","RESOLUTE BAY A","2403498","2020-06-29 02:00","2020","06","29","02:00","2.7","","1.5","","92","","","","8","","46","","24.1","","100.68","","","","","","NA"
"-94.97","74.72","RESOLUTE BAY A","2403498","2020-06-29 03:00","2020","06","29","03:00","2.4","","1.3","","92","","","","7","","41","","24.1","","100.71","","","","","","Clear"
"-94.97","74.72","RESOLUTE BAY A","2403498","2020-06-29 04:00","2020","06","29","04:00","2.2","","1.4","","94","","","","8","","36","","24.1","","100.69","","","","","","NA"
"-94.97","74.72","RESOLUTE BAY A","2403498","2020-06-29 05:00","2020","06","29","05:00","2.3","","1.6","","95","","","","8","","40","","16.1","","100.66","","","","","","Drizzle"
"-94.97","74.72","RESOLUTE BAY A","2403498","2020-06-29 06:00","2020","06","29","06:00","2.6","","1.6","","93","","","","11","","33","","16.1","","100.66","","","","","","Cloudy"
"-94.97","74.72","RESOLUTE BAY A","2403498","2020-06-29 07:00","2020","06","29","07:00","2.1","","1.5","","96","","","","10","","36","","14.5","","100.69","","","","","","NA"
"-94.97","74.72","RESOLUTE BAY A","2403498","2020-06-29 08:00","2020","06","29","08:00","2.2","","1.8","","97","","","","10","","35","","6.4","","100.69","","","","","","Fog"
"-94.97","74.72","RESOLUTE BAY A","2403498","2020-06-29 09:00","2020","06","29","09:00","2.4","","1.9","","97","","","","11","","30","","6.4","","100.68","","","","","","Fog"
"-94.97","74.72","RESOLUTE BAY A","2403498","2020-06-29 10:00","2020","06","29","10:00","2.6","","2.1","","96","","","","11","","28","","8.1","","100.70","","","","","","Fog"
"-94.97","74.72","RESOLUTE BAY A","2403498","2020-06-29 11:00","2020","06","29","11:00","3.5","","2.9","","96","","","","10","","25","","9.7","","100.67","","","","","","Fog"
"-94.97","74.72","RESOLUTE BAY A","2403498","2020-06-29 12:00","2020","06","29","12:00","4.7","","3.3","","91","","","","11","","23","","12.9","","100.68","","","","","","Cloudy"
"-94.97","74.72","RESOLUTE BAY A","2403498","2020-06-29 13:00","2020","06","29","13:00","5.6","","4.0","","89","","","","12","","15","","19.3","","100.68","","","","","","NA"
"-94.97","74.72","RESOLUTE BAY A","2403498","2020-06-29 14:00","2020","06","29","14:00","6.0","","4.1","","87","","","","12","","15","","19.3","","100.71","","","","","","NA"
"-94.97","74.72","RESOLUTE BAY A","2403498","2020-06-29 15:00","2020","06","29","15:00","5.7","","3.4","","85","","","","16","","18","","16.1","","100.71","","","","","","Mostly Cloudy"
"-94.97","74.72","RESOLUTE BAY A","2403498","2020-06-29 16:00","2020","06","29","16:00","6.3","","4.0","","85","","","","15","","13","","16.1","","100.73","","","","","","NA"
"-94.97","74.72","RESOLUTE BAY A","2403498","2020-06-29 17:00","2020","06","29","17:00","5.8","","3.6","","86","","","","16","","9","","19.3","","100.73","","","","","","NA"
"-94.97","74.72","RESOLUTE BAY A","2403498","2020-06-29 18:00","2020","06","29","18:00","4.0","","2.7","","91","","","","13","","15","","19.3","","100.75","","","","","","Mostly Cloudy"
"-94.97","74.72","RESOLUTE BAY A","2403498","2020-06-29 19:00","2020","06","29","19:00","4.1","","3.0","","93","","","","15","","17","","24.1","","100.75","","","","","","NA"
"-94.97","74.72","RESOLUTE BAY A","2403498","2020-06-29 20:00","2020","06","29","20:00","4.5","","3.2","","91","","","","11","","17","","24.1","","100.78","","","","","","Rain"
"-94.97","74.72","RESOLUTE BAY A","2403498","2020-06-29 21:00","2020","06","29","21:00","4.2","","3.3","","93","","","","7","","17","","24.1","","100.78","","","","","","Rain"
"-94.97","74.72","RESOLUTE BAY A","2403498","2020-06-29 22:00","2020","06","29","22:00","3.9","","3.1","","94","","","","7","","19","","24.1","","100.78","","","","","","Rain"
"-94.97","74.72","RESOLUTE BAY A","2403498","2020-06-29 23:00","2020","06","29","23:00","4.1","","3.3","","95","","","","11","","19","","24.1","","100.80","","","","","","Rain"
"-94.97","74.72","RESOLUTE BAY A","2403498","2020-06-30 00:00","2020","06","30","00:00","2.9","","2.1","","95","","","","7","","35","","12.9","","100.79","","","","","","Rain"
"-94.97","74.72","RESOLUTE BAY A","2403498","2020-06-30 01:00","2020","06","30","01:00","3.8","","3.0","","95","","","","7","","36","","12.9","","100.77","","","","","","Rain"
"-94.97","74.72","RESOLUTE BAY A","2403498","2020-06-30 02:00","2020","06","30","02:00","4.6","","3.8","","95","","","","9","","21","","14.5","","100.80","","","","","","Drizzle"
"-94.97","74.72","RESOLUTE BAY A","2403498","2020-06-30 03:00","2020","06","30","03:00","4.2","","3.6","","96","","","","9","","37","","14.5","","100.80","","","","","","Drizzle"
"-94.97","74.72","RESOLUTE BAY A","2403498","2020-06-30 04:00","2020","06","30","04:00","3.4","","2.7","","96","","","","8","","40","","16.1","","100.83","","","","","","Rain"
"-94.97","74.72","RESOLUTE BAY A","2403498","2020-06-30 05:00","2020","06","30","05:00","3.3","","2.8","","97","","","","11","","35","","12.9","","100.88","","","","","","Rain"
"-94.97","74.72","RESOLUTE BAY A","2403498","2020-06-30 06:00","2020","06","30","06:00","3.2","","2.8","","97","","","","11","","29","","14.5","","100.90","","","","","","Drizzle"
"-94.97","74.72","RESOLUTE BAY A","2403498","2020-06-30 07:00","2020","06","30","07:00","4.1","","3.8","","98","","","","11","","25","","16.1","","100.93","","","","","","Rain"
"-94.97","74.72","RESOLUTE BAY A","2403498","2020-06-30 08:00","2020","06","30","08:00","4.3","","3.9","","97","","","","11","","22","","14.5","","100.96","","","","","","Rain"
"-94.97","74.72","RESOLUTE BAY A","2403498","2020-06-30 09:00","2020","06","30","09:00","5.2","","4.7","","96","","","","12","","15","","11.3","","100.98","","","","","","Rain"
"-94.97","74.72","RESOLUTE BAY A","2403498","2020-06-30 10:00","2020","06","30","10:00","4.6","","4.2","","97","","","","11","","20","","6.4","","101.00","","","","","","Rain"
"-94.97","74.72","RESOLUTE BAY A","2403498","2020-06-30 11:00","2020","06","30","11:00","5.2","","4.9","","98","","","","11","","20","","9.7","","101.02","","","","","","Rain"
"-94.97","74.72","RESOLUTE BAY A","2403498","2020-06-30 12:00","2020","06","30","12:00","5.1","","4.7","","97","","","","10","","23","","9.7","","101.04","","","","","","Rain"
"-94.97","74.72","RESOLUTE BAY A","2403498","2020-06-30 13:00","2020","06","30","13:00","5.5","","4.7","","94","","","","8","","24","","11.3","","101.04","","","","","","NA"
"-94.97","74.72","RESOLUTE BAY A","2403498","2020-06-30 14:00","2020","06","30","14:00","5.8","","4.9","","94","","","","11","","22","","11.3","","101.06","","","","","","NA"
"-94.97","74.72","RESOLUTE BAY A","2403498","2020-06-30 15:00","2020","06","30","15:00","5.7","","4.7","","94","","","","12","","18","","12.9","","101.08","","","","","","Cloudy"
"-94.97","74.72","RESOLUTE BAY A","2403498","2020-06-30 16:00","2020","06","30","16:00","6.1","","5.2","","94","","","","11","","16","","11.3","","101.07","","","","","","NA"
"-94.97","74.72","RESOLUTE BAY A","2403498","2020-06-30 17:00","2020","06","30","17:00","6.3","","5.4","","94","","","","11","","18","","11.3","","101.08","","","","","","NA"
"-94.97","74.72","RESOLUTE BAY A","2403498","2020-06-30 18:00","2020","06","30","18:00","5.6","","4.7","","94","","","","8","","21","","11.3","","101.09","","","","","","Cloudy"
"-94.97","74.72","RESOLUTE BAY A","2403498","2020-06-30 19:00","2020","06","30","19:00","5.8","","5.1","","95","","","","11","","17","","14.5","","101.10","","","","","","NA"
"-94.97","74.72","RESOLUTE BAY A","2403498","2020-06-30 20:00","2020","06","30","20:00","5.3","","4.6","","95","","","","11","","15","","14.5","","101.10","","","","","","NA"
"-94.97","74.72","RESOLUTE BAY A","2403498","2020-06-30 21:00","2020","06","30","21:00","4.8","","4.1","","95","","","","8","","29","","16.1","","101.07","","","","","","Cloudy"
"-94.97","74.72","RESOLUTE BAY A","2403498","2020-06-30 22:00","2020","06","30","22:00","5.0","","4.3","","95","","","","8","","32","","24.1","","101.05","","","","","","NA"
"-94.97","74.72","RESOLUTE BAY A","2403498","2020-06-30 23:00","2020","06","30","23:00","5.0","","4.3","","95","","","","8","","32","","24.1","","101.06","","","","","","NA"
