"Longitude (x)","Latitude (y)","Station Name","Climate ID","Date/Time (LST)","Year","Month","Day","Time (LST)","Temp (°C)","Temp Flag","Dew Point Temp (°C)","Dew Point Temp Flag","Rel Hum (%)","Rel Hum Flag","Precip. Amount (mm)","Precip. Amount Flag","Wind Dir (10s deg)","Wind Dir Flag","Wind Spd (km/h)","Wind Spd Flag","Visibility (km)","Visibility Flag","Stn Press (kPa)","Stn Press Flag","Hmdx","Hmdx Flag","Wind Chill","Wind Chill Flag","Weather"
"-96.08","64.30","BAKER LAKE A","2300503","2018-05-01 00:00","2018","05","01","00:00","-16.5","","-19.6","","77","","","","30","","17","","24.1","","101.36","","","","-25","","Snow,Blowing Snow"
"-96.08","64.30","BAKER LAKE A","2300503","2018-05-01 01:00","2018","05","01","01:00","-18.8","","-21.7","","78","","","","28","","21","","24.1","","101.39","","","","-29","","Snow,Blowing Snow"
"-96.08","64.30","BAKER LAKE A","2300503","2018-05-01 02:00","2018","05","01","02:00","-19.4","","-22.4","","78","","","","28","","21","","24.1","","101.41","","","","-30","","Snow,Blowing Snow"
"-96.08","64.30","BAKER LAKE A","2300503","2018-05-01 03:00","2018","05","01","03:00","-20.0","","-22.9","","78","","","","29","","22","","40.2","","101.43","","","","-31","","Clear"
"-96.08","64.30","BAKER LAKE A","2300503","2018-05-01 04:00","2018","05","01","04:00","-20.4","","-23.2","","78","","","","28","","24","","40.2","","101.47","","","","-32","","NA"
"-96.08","64.30","BAKER LAKE A","2300503","2018-05-01 05:00","2018","05","01","05:00","-20.1","","-23.2","","77","","","","29","","27","","40.2","","101.47","","","","-32","","NA"
"-96.08","64.30","BAKER LAKE A","2300503","2018-05-01 06:00","2018","05","01","06:00","-19.8","","-22.9","","76","","","","29","","22","","40.2","","101.51","","","","-31","","Clear"
"-96.08","64.30","BAKER LAKE A","2300503","2018-05-01 07:00","2018","05","01","07:00","-19.0","","-22.4","","75","","","","30","","19","","40.2","","101.53","","","","-29","","NA"
"-96.08","64.30","BAKER LAKE A","2300503","2018-05-01 08:00","2018","05","01","08:00","-18.4","","-21.9","","74","","","","31","","21","","24.1","","101.53","","","","-29","","NA"
"-96.08","64.30","BAKER LAKE A","2300503","2018-05-01 09:00","2018","05","01","09:00","-17.5","","-21.2","","74","","","","30","","16","","24.1","","101.56","","","","-26","","Clear"
"-96.08","64.30","BAKER LAKE A","2300503","2018-05-01 10:00","2018","05","01","10:00","-17.0","","-20.9","","72","","","","32","","4","","24.1","","101.57","","","","-20","","NA"
"-96.08","64.30","BAKER LAKE A","2300503","2018-05-01 11:00","2018","05","01","11:00","-16.8","","-20.4","","74","","","","24","","10","","24.1","","101.58","","","","-23","","NA"
"-96.08","64.30","BAKER LAKE A","2300503","2018-05-01 12:00","2018","05","01","12:00","-15.5","","-19.4","","72","","","","24","","19","","24.1","","101.59","","","","-25","","Clear"
"-96.08","64.30","BAKER LAKE A","2300503","2018-05-01 13:00","2018","05","01","13:00","-14.3","","-18.5","","71","","","","25","","14","","24.1","","101.58","","","","-22","","NA"
"-96.08","64.30","BAKER LAKE A","2300503","2018-05-01 14:00","2018","05","01","14:00","-13.6","","-17.8","","71","","","","25","","14","","24.1","","101.56","","","","-21","","NA"
"-96.08","64.30","BAKER LAKE A","2300503","2018-05-01 15:00","2018","05","01","15:00","-13.0","","-17.3","","71","","","","24","","15","","24.1","","101.55","","","","-20","","Clear"
"-96.08","64.30","BAKER LAKE A","2300503","2018-05-01 16:00","2018","05","01","16:00","-12.8","","-17.1","","70","","","","24","","17","","24.1","","101.53","","","","-21","","NA"
"-96.08","64.30","BAKER LAKE A","2300503","2018-05-01 17:00","2018","05","01","17:00","-13.0","","-17.5","","70","","","","16","","6","","24.1","","101.49","","","","-17","","NA"
"-96.08","64.30","BAKER LAKE A","2300503","2018-05-01 18:00","2018","05","01","18:00","-12.9","","-17.2","","70","","","","25","","8","","24.1","","101.49","","","","-18","","Clear"
"-96.08","64.30","BAKER LAKE A","2300503","2018-05-01 19:00","2018","05","01","19:00","-14.0","","-17.5","","75","","","","19","","4","","24.1","","101.46","","","","-17","","NA"
"-96.08","64.30","BAKER LAKE A","2300503","2018-05-01 20:00","2018","05","01","20:00","-16.1","","-19.1","","78","","","","22","","7","","40.2","","101.44","","","","-21","","NA"
"-96.08","64.30","BAKER LAKE A","2300503","2018-05-01 21:00","2018","05","01","21:00","-18.0","","-20.3","","82","","","","27","","4","","40.2","","101.39","","","","-21","","Clear"
"-96.08","64.30","BAKER LAKE A","2300503","2018-05-01 22:00","2018","05","01","22:00","-18.4","","-20.9","","81","","","","22","","11","","24.1","","101.34","","","","-26","","NA"
"-96.08","64.30","BAKER LAKE A","2300503","2018-05-01 23:00","2018","05","01","23:00","-19.2","","-21.9","","80","","","","22","","11","","24.1","","101.30","","","","-27","","NA"
"-96.08","64.30","BAKER LAKE A","2300503","2018-05-02 00:00","2018","05","02","00:00","-18.7","","-21.2","","81","","","","22","","14","","24.1","","101.28","","","","-27","","Clear"
"-96.08","64.30","BAKER LAKE A","2300503","2018-05-02 01:00","2018","05","02","01:00","-18.0","","-20.8","","79","","","","22","","14","","24.1","","101.21","","","","-26","","NA"
"-96.08","64.30","BAKER LAKE A","2300503","2018-05-02 02:00","2018","05","02","02:00","-17.8","","-20.7","","79","","","","20","","13","","24.1","","101.16","","","","-26","","NA"
"-96.08","64.30","BAKER LAKE A","2300503","2018-05-02 03:00","2018","05","02","03:00","-17.3","","-20.1","","79","","","","16","","6","","24.1","","101.09","","","","-22","","Cloudy"
"-96.08","64.30","BAKER LAKE A","2300503","2018-05-02 04:00","2018","05","02","04:00","-16.8","","-19.6","","79","","","","19","","11","","40.2","","101.02","","","","-24","","NA"
"-96.08","64.30","BAKER LAKE A","2300503","2018-05-02 05:00","2018","05","02","05:00","-15.7","","-17.6","","85","","","","20","","17","","40.2","","100.96","","","","-24","","NA"
"-96.08","64.30","BAKER LAKE A","2300503","2018-05-02 06:00","2018","05","02","06:00","-15.8","","-18.1","","83","","","","21","","23","","40.2","","100.90","","","","-26","","Mainly Clear"
"-96.08","64.30","BAKER LAKE A","2300503","2018-05-02 07:00","2018","05","02","07:00","-13.6","","-16.2","","81","","","","20","","28","","32.2","","100.84","","","","-24","","Ice Crystals"
"-96.08","64.30","BAKER LAKE A","2300503","2018-05-02 08:00","2018","05","02","08:00","-12.4","","-15.1","","80","","","","20","","19","","16.1","","100.77","","","","-21","","Ice Crystals"
"-96.08","64.30","BAKER LAKE A","2300503","2018-05-02 09:00","2018","05","02","09:00","-11.0","","-14.3","","77","","","","19","","27","","24.1","","100.70","","","","-20","","Ice Crystals"
"-96.08","64.30","BAKER LAKE A","2300503","2018-05-02 10:00","2018","05","02","10:00","-10.2","","-13.3","","78","","","","21","","41","","24.1","","100.57","","","","-21","","Ice Crystals"
"-96.08","64.30","BAKER LAKE A","2300503","2018-05-02 11:00","2018","05","02","11:00","-9.0","","-12.4","","77","","","","21","","33","","24.1","","100.54","","","","-19","","NA"
"-96.08","64.30","BAKER LAKE A","2300503","2018-05-02 12:00","2018","05","02","12:00","-8.0","","-11.2","","78","","","","20","","35","","24.1","","100.46","","","","-18","","Mostly Cloudy"
"-96.08","64.30","BAKER LAKE A","2300503","2018-05-02 13:00","2018","05","02","13:00","-7.0","","-9.9","","80","","","","20","","33","","24.1","","100.41","","","","-16","","NA"
"-96.08","64.30","BAKER LAKE A","2300503","2018-05-02 14:00","2018","05","02","14:00","-6.0","","-9.2","","78","","","","20","","26","","24.1","","100.38","","","","-14","","NA"
"-96.08","64.30","BAKER LAKE A","2300503","2018-05-02 15:00","2018","05","02","15:00","-5.8","","-8.8","","79","","","","21","","36","","24.1","","100.30","","","","-15","","Mostly Cloudy"
"-96.08","64.30","BAKER LAKE A","2300503","2018-05-02 16:00","2018","05","02","16:00","-5.4","","-8.1","","81","","","","21","","30","","24.1","","100.25","","","","-14","","NA"
"-96.08","64.30","BAKER LAKE A","2300503","2018-05-02 17:00","2018","05","02","17:00","-5.3","","-8.1","","81","","","","21","","31","","24.1","","100.20","","","","-14","","NA"
"-96.08","64.30","BAKER LAKE A","2300503","2018-05-02 18:00","2018","05","02","18:00","-5.9","","-8.1","","85","","","","21","","24","","24.1","","100.17","","","","-13","","Mostly Cloudy"
"-96.08","64.30","BAKER LAKE A","2300503","2018-05-02 19:00","2018","05","02","19:00","-5.8","","-7.8","","86","","","","21","","31","","24.1","","100.11","","","","-14","","NA"
"-96.08","64.30","BAKER LAKE A","2300503","2018-05-02 20:00","2018","05","02","20:00","-5.7","","-7.6","","87","","","","21","","28","","40.2","","100.11","","","","-14","","NA"
"-96.08","64.30","BAKER LAKE A","2300503","2018-05-02 21:00","2018","05","02","21:00","-6.0","","-7.8","","87","","","","22","","26","","40.2","","100.06","","","","-14","","Cloudy"
"-96.08","64.30","BAKER LAKE A","2300503","2018-05-02 22:00","2018","05","02","22:00"
"-96.08","64.30","BAKER LAKE A","2300503","2018-05-02 23:00","2018","05","02","23:00","-5.8","","-7.0","","91","","","","23","","17","","24.1","","99.98","","","","-12","","Snow"
"-96.08","64.30","BAKER LAKE A","2300503","2018-05-03 00:00","2018","05","03","00:00","-5.3","","-6.6","","91","","","","24","","14","","24.1","","99.95","","","","-11","","Snow"
"-96.08","64.30","BAKER LAKE A","2300503","2018-05-03 01:00","2018","05","03","01:00","-4.1","","-5.7","","89","","","","28","","14","","24.1","","99.96","","","","-9","","NA"
"-96.08","64.30","BAKER LAKE A","2300503","2018-05-03 02:00","2018","05","03","02:00","-4.3","","-5.8","","90","","","","31","","21","","24.1","","99.99","","","","-11","","NA"
"-96.08","64.30","BAKER LAKE A","2300503","2018-05-03 03:00","2018","05","03","03:00","-5.6","","-6.9","","90","","","","33","","25","","24.1","","100.03","","","","-13","","Cloudy"
"-96.08","64.30","BAKER LAKE A","2300503","2018-05-03 04:00","2018","05","03","04:00"
"-96.08","64.30","BAKER LAKE A","2300503","2018-05-03 05:00","2018","05","03","05:00","-11.0","","-13.5","","82","","","","33","","30","","40.2","","100.20","","","","-21","","NA"
"-96.08","64.30","BAKER LAKE A","2300503","2018-05-03 06:00","2018","05","03","06:00","-12.1","","-14.8","","81","","","","33","","32","","40.2","","100.24","","","","-23","","Mainly Clear"
"-96.08","64.30","BAKER LAKE A","2300503","2018-05-03 07:00","2018","05","03","07:00","-11.9","","-14.5","","81","","","","34","","34","","40.2","","100.28","","","","-23","","Blowing Snow"
"-96.08","64.30","BAKER LAKE A","2300503","2018-05-03 08:00","2018","05","03","08:00","-11.1","","-14.0","","79","","","","35","","24","","32.2","","100.38","","","","-20","","NA"
"-96.08","64.30","BAKER LAKE A","2300503","2018-05-03 09:00","2018","05","03","09:00","-10.7","","-14.0","","77","","","","33","","16","","32.2","","100.42","","","","-18","","Mostly Cloudy"
"-96.08","64.30","BAKER LAKE A","2300503","2018-05-03 10:00","2018","05","03","10:00","-9.4","","-12.2","","80","","","","36","","16","","32.2","","100.46","","","","-16","","Snow"
"-96.08","64.30","BAKER LAKE A","2300503","2018-05-03 11:00","2018","05","03","11:00","-8.8","","-12.1","","77","","","","33","","15","","32.2","","100.50","","","","-15","","Snow"
"-96.08","64.30","BAKER LAKE A","2300503","2018-05-03 12:00","2018","05","03","12:00","-8.0","","-11.4","","76","","","","34","","12","","32.2","","100.53","","","","-13","","Snow"
"-96.08","64.30","BAKER LAKE A","2300503","2018-05-03 13:00","2018","05","03","13:00","-8.4","","-12.1","","75","","","","34","","17","","32.2","","100.59","","","","-15","","NA"
"-96.08","64.30","BAKER LAKE A","2300503","2018-05-03 14:00","2018","05","03","14:00","-8.7","","-12.4","","75","","","","34","","25","","32.2","","100.62","","","","-17","","NA"
"-96.08","64.30","BAKER LAKE A","2300503","2018-05-03 15:00","2018","05","03","15:00","-8.7","","-12.2","","76","","","","35","","21","","32.2","","100.67","","","","-16","","Mostly Cloudy"
"-96.08","64.30","BAKER LAKE A","2300503","2018-05-03 16:00","2018","05","03","16:00","-9.3","","-12.7","","77","","","","34","","27","","32.2","","100.72","","","","-18","","NA"
"-96.08","64.30","BAKER LAKE A","2300503","2018-05-03 17:00","2018","05","03","17:00","-10.3","","-13.3","","78","","","","34","","31","","32.2","","100.76","","","","-20","","NA"
"-96.08","64.30","BAKER LAKE A","2300503","2018-05-03 18:00","2018","05","03","18:00","-10.6","","-13.5","","79","","","","35","","29","","32.2","","100.85","","","","-20","","Mostly Cloudy"
"-96.08","64.30","BAKER LAKE A","2300503","2018-05-03 19:00","2018","05","03","19:00","-11.5","","-14.2","","81","","","","35","","31","","32.2","","100.87","","","","-22","","Blowing Snow"
"-96.08","64.30","BAKER LAKE A","2300503","2018-05-03 20:00","2018","05","03","20:00","-12.2","","-15.0","","80","","","","35","","34","","40.2","","100.91","","","","-23","","Blowing Snow"
"-96.08","64.30","BAKER LAKE A","2300503","2018-05-03 21:00","2018","05","03","21:00","-12.8","","-16.2","","76","","","","36","","30","","40.2","","100.94","","","","-23","","Blowing Snow"
"-96.08","64.30","BAKER LAKE A","2300503","2018-05-03 22:00","2018","05","03","22:00","-14.3","","-17.3","","78","","","","34","","27","","24.1","","100.99","","","","-25","","Blowing Snow"
"-96.08","64.30","BAKER LAKE A","2300503","2018-05-03 23:00","2018","05","03","23:00","-16.0","","-18.8","","79","","","","34","","40","","24.1","","101.00","","","","-29","","Blowing Snow"
"-96.08","64.30","BAKER LAKE A","2300503","2018-05-04 00:00","2018","05","04","00:00","-17.0","","-19.8","","79","","","","35","","29","","24.1","","101.03","","","","-28","","Blowing Snow"
"-96.08","64.30","BAKER LAKE A","2300503","2018-05-04 01:00","2018","05","04","01:00","-17.7","","-20.4","","80","","","","34","","37","","24.1","","101.02","","","","-31","","Blowing Snow"
"-96.08","64.30","BAKER LAKE A","2300503","2018-05-04 02:00","2018","05","04","02:00","-18.4","","-21.2","","78","","","","32","","29","","24.1","","101.11","","","","-30","","Blowing Snow"
"-96.08","64.30","BAKER LAKE A","2300503","2018-05-04 03:00","2018","05","04","03:00","-18.7","","-21.6","","78","","","","33","","28","","24.1","","101.12","","","","-31","","Blowing Snow"
"-96.08","64.30","BAKER LAKE A","2300503","2018-05-04 04:00","2018","05","04","04:00","-19.4","","-22.4","","77","","","","33","","26","","24.1","","101.16","","","","-31","","Blowing Snow"
"-96.08","64.30","BAKER LAKE A","2300503","2018-05-04 05:00","2018","05","04","05:00","-19.5","","-22.6","","76","","","","34","","25","","40.2","","101.19","","","","-31","","Blowing Snow"
"-96.08","64.30","BAKER LAKE A","2300503","2018-05-04 06:00","2018","05","04","06:00","-19.1","","-22.5","","75","","","","32","","22","","40.2","","101.26","","","","-30","","Clear"
"-96.08","64.30","BAKER LAKE A","2300503","2018-05-04 07:00","2018","05","04","07:00","-18.9","","-22.4","","74","","","","33","","32","","40.2","","101.25","","","","-31","","Blowing Snow"
"-96.08","64.30","BAKER LAKE A","2300503","2018-05-04 08:00","2018","05","04","08:00","-18.6","","-22.0","","75","","","","35","","21","","32.2","","101.29","","","","-29","","NA"
"-96.08","64.30","BAKER LAKE A","2300503","2018-05-04 09:00","2018","05","04","09:00","-18.2","","-21.8","","74","","","","34","","19","","32.2","","101.32","","","","-28","","Mainly Clear"
"-96.08","64.30","BAKER LAKE A","2300503","2018-05-04 10:00","2018","05","04","10:00","-17.7","","-21.2","","75","","","","1","","18","","32.2","","101.36","","","","-27","","NA"
"-96.08","64.30","BAKER LAKE A","2300503","2018-05-04 11:00","2018","05","04","11:00","-16.9","","-20.8","","73","","","","34","","24","","32.2","","101.37","","","","-27","","NA"
"-96.08","64.30","BAKER LAKE A","2300503","2018-05-04 12:00","2018","05","04","12:00","-16.2","","-20.2","","72","","","","32","","20","","32.2","","101.41","","","","-26","","Mainly Clear"
"-96.08","64.30","BAKER LAKE A","2300503","2018-05-04 13:00","2018","05","04","13:00","-15.9","","-20.1","","71","","","","33","","19","","32.2","","101.43","","","","-25","","NA"
"-96.08","64.30","BAKER LAKE A","2300503","2018-05-04 14:00","2018","05","04","14:00","-15.5","","-19.6","","71","","","","33","","18","","32.2","","101.44","","","","-24","","NA"
"-96.08","64.30","BAKER LAKE A","2300503","2018-05-04 15:00","2018","05","04","15:00","-14.6","","-18.5","","73","","","","32","","18","","32.2","","101.46","","","","-23","","Mainly Clear"
"-96.08","64.30","BAKER LAKE A","2300503","2018-05-04 16:00","2018","05","04","16:00","-14.2","","-18.1","","73","","","","31","","20","","32.2","","101.47","","","","-23","","NA"
"-96.08","64.30","BAKER LAKE A","2300503","2018-05-04 17:00","2018","05","04","17:00","-14.0","","-17.7","","74","","","","31","","19","","32.2","","101.46","","","","-23","","NA"
"-96.08","64.30","BAKER LAKE A","2300503","2018-05-04 18:00","2018","05","04","18:00","-13.8","","-17.5","","74","","","","31","","14","","32.2","","101.48","","","","-21","","Mainly Clear"
"-96.08","64.30","BAKER LAKE A","2300503","2018-05-04 19:00","2018","05","04","19:00","-14.8","","-18.2","","75","","","","30","","8","","32.2","","101.51","","","","-20","","NA"
"-96.08","64.30","BAKER LAKE A","2300503","2018-05-04 20:00","2018","05","04","20:00","-15.9","","-19.1","","77","","","","31","","13","","40.2","","101.51","","","","-23","","NA"
"-96.08","64.30","BAKER LAKE A","2300503","2018-05-04 21:00","2018","05","04","21:00","-18.1","","-21.1","","78","","","","29","","6","","40.2","","101.51","","","","-23","","Mainly Clear"
"-96.08","64.30","BAKER LAKE A","2300503","2018-05-04 22:00","2018","05","04","22:00","-19.3","","-22.2","","78","","","","30","","10","","40.2","","101.49","","","","-26","","NA"
"-96.08","64.30","BAKER LAKE A","2300503","2018-05-04 23:00","2018","05","04","23:00","-20.4","","-23.3","","78","","","","36","","2","","24.1","","101.49","","","","-22","","NA"
"-96.08","64.30","BAKER LAKE A","2300503","2018-05-05 00:00","2018","05","05","00:00","-19.9","","-22.7","","79","","","","36","","2","","24.1","","101.51","","","","-22","","Clear"
"-96.08","64.30","BAKER LAKE A","2300503","2018-05-05 01:00","2018","05","05","01:00","-20.1","","-22.5","","81","","","","36","","3","","24.1","","101.49","","","","-23","","NA"
"-96.08","64.30","BAKER LAKE A","2300503","2018-05-05 02:00","2018","05","05","02:00","-21.0","","-23.5","","81","","","","3","","4","","24.1","","101.49","","","","-25","","NA"
"-96.08","64.30","BAKER LAKE A","2300503","2018-05-05 03:00","2018","05","05","03:00","-21.3","","-23.6","","82","","","","0","","1","","24.1","","101.49","","","","-22","","Clear"
"-96.08","64.30","BAKER LAKE A","2300503","2018-05-05 04:00","2018","05","05","04:00","-22.6","","-25.0","","81","","","","36","","1","","24.1","","101.51","","","","-24","","NA"
"-96.08","64.30","BAKER LAKE A","2300503","2018-05-05 05:00","2018","05","05","05:00","-21.4","","-23.7","","82","","","","36","","3","","24.1","","101.53","","","","-24","","NA"
"-96.08","64.30","BAKER LAKE A","2300503","2018-05-05 06:00","2018","05","05","06:00","-21.7","","-24.4","","79","","","","0","","1","","40.2","","101.52","","","","-23","","Mainly Clear"
"-96.08","64.30","BAKER LAKE A","2300503","2018-05-05 07:00","2018","05","05","07:00","-21.9","","-24.4","","80","","","","9","","3","","40.2","","101.54","","","","-25","","NA"
"-96.08","64.30","BAKER LAKE A","2300503","2018-05-05 08:00","2018","05","05","08:00","-20.8","","-23.4","","80","","","","7","","4","","32.2","","101.55","","","","-24","","Snow"
"-96.08","64.30","BAKER LAKE A","2300503","2018-05-05 09:00","2018","05","05","09:00","-19.8","","-21.7","","85","","","","11","","4","","8.1","","101.53","","","","-23","","Snow Grains"
"-96.08","64.30","BAKER LAKE A","2300503","2018-05-05 10:00","2018","05","05","10:00","-18.0","","-19.9","","85","","","","12","","4","","1.6","","101.54","","","","-21","","Snow Grains,Fog"
"-96.08","64.30","BAKER LAKE A","2300503","2018-05-05 11:00","2018","05","05","11:00","-16.7","","-18.8","","85","","","","20","","8","","2.4","","101.54","","","","-22","","Snow Grains,Fog"
"-96.08","64.30","BAKER LAKE A","2300503","2018-05-05 12:00","2018","05","05","12:00","-16.1","","-18.2","","84","","","","20","","8","","9.7","","101.54","","","","-22","","Snow Grains"
"-96.08","64.30","BAKER LAKE A","2300503","2018-05-05 13:00","2018","05","05","13:00","-15.3","","-17.4","","84","","","","17","","7","","16.1","","101.54","","","","-20","","Snow Grains"
"-96.08","64.30","BAKER LAKE A","2300503","2018-05-05 14:00","2018","05","05","14:00","-14.5","","-16.4","","85","","","","19","","7","","24.1","","101.51","","","","-19","","Snow Grains"
"-96.08","64.30","BAKER LAKE A","2300503","2018-05-05 15:00","2018","05","05","15:00","-14.1","","-16.0","","85","","","","18","","6","","32.2","","101.51","","","","-18","","Snow Grains"
"-96.08","64.30","BAKER LAKE A","2300503","2018-05-05 16:00","2018","05","05","16:00","-13.3","","-15.2","","86","","","","17","","5","","32.2","","101.51","","","","-17","","NA"
"-96.08","64.30","BAKER LAKE A","2300503","2018-05-05 17:00","2018","05","05","17:00","-12.8","","-14.7","","86","","","","14","","7","","32.2","","101.49","","","","-17","","NA"
"-96.08","64.30","BAKER LAKE A","2300503","2018-05-05 18:00","2018","05","05","18:00","-12.9","","-14.8","","86","","","","13","","7","","32.2","","101.49","","","","-17","","Clear"
"-96.08","64.30","BAKER LAKE A","2300503","2018-05-05 19:00","2018","05","05","19:00","-13.2","","-15.0","","87","","","","36","","3","","32.2","","101.46","","","","-15","","NA"
"-96.08","64.30","BAKER LAKE A","2300503","2018-05-05 20:00","2018","05","05","20:00","-14.1","","-15.9","","86","","","","36","","1","","32.2","","101.42","","","","-15","","NA"
"-96.08","64.30","BAKER LAKE A","2300503","2018-05-05 21:00","2018","05","05","21:00","-14.2","","-16.0","","86","","","","36","","1","","32.2","","101.35","","","","-15","","Mostly Cloudy"
"-96.08","64.30","BAKER LAKE A","2300503","2018-05-05 22:00","2018","05","05","22:00","-14.4","","-16.2","","86","","","","36","","2","","32.2","","101.29","","","","-16","","NA"
"-96.08","64.30","BAKER LAKE A","2300503","2018-05-05 23:00","2018","05","05","23:00","-13.8","","-15.6","","87","","","","36","","1","","24.1","","101.23","","","","-14","","NA"
"-96.08","64.30","BAKER LAKE A","2300503","2018-05-06 00:00","2018","05","06","00:00","-12.9","","-14.6","","87","","","","36","","1","","24.1","","101.16","","","","-14","","Cloudy"
"-96.08","64.30","BAKER LAKE A","2300503","2018-05-06 01:00","2018","05","06","01:00","-13.2","","-15.0","","86","","","","0","","1","","24.1","","101.07","","","","-14","","NA"
"-96.08","64.30","BAKER LAKE A","2300503","2018-05-06 02:00","2018","05","06","02:00","-13.2","","-15.1","","86","","","","33","","5","","24.1","","101.00","","","","-17","","NA"
"-96.08","64.30","BAKER LAKE A","2300503","2018-05-06 03:00","2018","05","06","03:00","-10.7","","-12.4","","87","","","","20","","14","","32.2","","100.89","","","","-17","","Mostly Cloudy"
"-96.08","64.30","BAKER LAKE A","2300503","2018-05-06 04:00","2018","05","06","04:00","-10.5","","-12.4","","86","","","","20","","19","","32.2","","100.79","","","","-18","","NA"
"-96.08","64.30","BAKER LAKE A","2300503","2018-05-06 05:00","2018","05","06","05:00","-9.6","","-12.0","","83","","","","19","","19","","32.2","","100.70","","","","-17","","NA"
"-96.08","64.30","BAKER LAKE A","2300503","2018-05-06 06:00","2018","05","06","06:00","-8.3","","-10.9","","82","","","","18","","13","","32.2","","100.57","","","","-14","","Cloudy"
"-96.08","64.30","BAKER LAKE A","2300503","2018-05-06 07:00","2018","05","06","07:00","-7.4","","-9.8","","83","","","","17","","15","","32.2","","100.43","","","","-14","","NA"
"-96.08","64.30","BAKER LAKE A","2300503","2018-05-06 08:00","2018","05","06","08:00","-6.0","","-8.3","","84","","","","19","","22","","9.7","","100.22","","","","-13","","Snow"
"-96.08","64.30","BAKER LAKE A","2300503","2018-05-06 09:00","2018","05","06","09:00","-5.3","","-7.3","","86","","","","18","","17","","1.6","","100.06","","","","-11","","Snow,Blowing Snow"
"-96.08","64.30","BAKER LAKE A","2300503","2018-05-06 10:00","2018","05","06","10:00","-4.2","","-5.5","","91","","","","18","","10","","1.2","","99.88","","","","-8","","Snow,Blowing Snow"
"-96.08","64.30","BAKER LAKE A","2300503","2018-05-06 11:00","2018","05","06","11:00","-1.9","","-3.1","","91","","","","20","","23","","3.6","","99.70","","","","-8","","Snow,Blowing Snow"
"-96.08","64.30","BAKER LAKE A","2300503","2018-05-06 12:00","2018","05","06","12:00","0.1","","-0.9","","93","","","","22","","35","","3.6","","99.57","","","","","","Snow,Blowing Snow"
"-96.08","64.30","BAKER LAKE A","2300503","2018-05-06 13:00","2018","05","06","13:00","0.7","","-0.6","","91","","","","23","","37","","11.3","","99.52","","","","","","Snow,Blowing Snow"
"-96.08","64.30","BAKER LAKE A","2300503","2018-05-06 14:00","2018","05","06","14:00","1.8","","0.2","","89","","","","28","","32","","20.9","","99.56","","","","","","Snow,Blowing Snow"
"-96.08","64.30","BAKER LAKE A","2300503","2018-05-06 15:00","2018","05","06","15:00","1.4","","-1.2","","83","","","","33","","39","","40.2","","99.62","","","","","","Mostly Cloudy"
"-96.08","64.30","BAKER LAKE A","2300503","2018-05-06 16:00","2018","05","06","16:00","-0.2","","-3.0","","82","","","","34","","54","","40.2","","99.74","","","","-9","","NA"
"-96.08","64.30","BAKER LAKE A","2300503","2018-05-06 17:00","2018","05","06","17:00","-2.7","","-5.5","","81","","","","34","","41","","40.2","","99.92","","","","-11","","NA"
"-96.08","64.30","BAKER LAKE A","2300503","2018-05-06 18:00","2018","05","06","18:00","-4.8","","-7.8","","80","","","","32","","20","","40.2","","100.12","","","","-11","","Mostly Cloudy"
"-96.08","64.30","BAKER LAKE A","2300503","2018-05-06 19:00","2018","05","06","19:00","-6.8","","-9.7","","80","","","","33","","32","","40.2","","100.15","","","","-16","","NA"
"-96.08","64.30","BAKER LAKE A","2300503","2018-05-06 20:00","2018","05","06","20:00","-8.7","","-11.6","","80","","","","34","","32","","32.2","","100.22","","","","-18","","NA"
"-96.08","64.30","BAKER LAKE A","2300503","2018-05-06 21:00","2018","05","06","21:00","-9.8","","-12.6","","80","","","","32","","33","","32.2","","100.32","","","","-20","","Mostly Cloudy"
"-96.08","64.30","BAKER LAKE A","2300503","2018-05-06 22:00","2018","05","06","22:00","-11.1","","-14.0","","79","","","","34","","32","","32.2","","100.35","","","","-21","","NA"
"-96.08","64.30","BAKER LAKE A","2300503","2018-05-06 23:00","2018","05","06","23:00","-12.1","","-14.9","","80","","","","34","","44","","24.1","","100.30","","","","-24","","NA"
"-96.08","64.30","BAKER LAKE A","2300503","2018-05-07 00:00","2018","05","07","00:00","-12.6","","-15.6","","78","","","","33","","44","","24.1","","100.37","","","","-25","","Cloudy"
"-96.08","64.30","BAKER LAKE A","2300503","2018-05-07 01:00","2018","05","07","01:00","-12.9","","-15.8","","79","","","","31","","49","","24.1","","100.34","","","","-26","","NA"
"-96.08","64.30","BAKER LAKE A","2300503","2018-05-07 02:00","2018","05","07","02:00","-13.1","","-16.1","","79","","","","32","","50","","24.1","","100.41","","","","-26","","NA"
"-96.08","64.30","BAKER LAKE A","2300503","2018-05-07 03:00","2018","05","07","03:00","-13.5","","-16.5","","78","","","","32","","54","","32.2","","100.42","","","","-27","","Cloudy"
"-96.08","64.30","BAKER LAKE A","2300503","2018-05-07 04:00","2018","05","07","04:00","-13.9","","-17.1","","77","","","","33","","46","","32.2","","100.50","","","","-27","","NA"
"-96.08","64.30","BAKER LAKE A","2300503","2018-05-07 05:00","2018","05","07","05:00","-14.4","","-17.7","","76","","","","33","","40","","32.2","","100.60","","","","-27","","NA"
"-96.08","64.30","BAKER LAKE A","2300503","2018-05-07 06:00","2018","05","07","06:00","-14.6","","-18.0","","76","","","","32","","42","","32.2","","100.66","","","","-27","","Mostly Cloudy"
"-96.08","64.30","BAKER LAKE A","2300503","2018-05-07 07:00","2018","05","07","07:00","-14.6","","-18.0","","76","","","","32","","47","","32.2","","100.71","","","","-28","","NA"
"-96.08","64.30","BAKER LAKE A","2300503","2018-05-07 08:00","2018","05","07","08:00","-14.2","","-17.8","","75","","","","31","","49","","40.2","","100.75","","","","-27","","NA"
"-96.08","64.30","BAKER LAKE A","2300503","2018-05-07 09:00","2018","05","07","09:00","-14.2","","-17.9","","74","","","","32","","61","","40.2","","100.81","","","","-29","","Mostly Cloudy"
"-96.08","64.30","BAKER LAKE A","2300503","2018-05-07 10:00","2018","05","07","10:00","-14.5","","-17.9","","76","","","","32","","58","","4.8","","100.88","","","","-29","","Blowing Snow"
"-96.08","64.30","BAKER LAKE A","2300503","2018-05-07 11:00","2018","05","07","11:00","-14.1","","-17.1","","78","","","","32","","62","","0.8","","100.96","","","","-28","","Blowing Snow"
"-96.08","64.30","BAKER LAKE A","2300503","2018-05-07 12:00","2018","05","07","12:00","-13.9","","-16.9","","78","","","","32","","59","","1.0","","101.09","","","","-28","","Blowing Snow"
"-96.08","64.30","BAKER LAKE A","2300503","2018-05-07 13:00","2018","05","07","13:00","-13.6","","-16.7","","78","","","","31","","67","","0.8","","101.14","","","","-28","","Blowing Snow"
"-96.08","64.30","BAKER LAKE A","2300503","2018-05-07 14:00","2018","05","07","14:00","-13.4","","-16.4","","79","","","","32","","58","","1.0","","101.23","","","","-27","","Blowing Snow"
"-96.08","64.30","BAKER LAKE A","2300503","2018-05-07 15:00","2018","05","07","15:00","-13.2","","-16.5","","76","","","","33","","56","","4.8","","101.31","","","","-27","","Blowing Snow"
"-96.08","64.30","BAKER LAKE A","2300503","2018-05-07 16:00","2018","05","07","16:00","-13.2","","-16.7","","75","","","","32","","50","","16.1","","101.42","","","","-26","","Blowing Snow"
"-96.08","64.30","BAKER LAKE A","2300503","2018-05-07 17:00","2018","05","07","17:00","-13.3","","-16.4","","78","","","","31","","49","","24.1","","101.43","","","","-26","","Blowing Snow"
"-96.08","64.30","BAKER LAKE A","2300503","2018-05-07 18:00","2018","05","07","18:00","-13.2","","-16.5","","76","","","","32","","39","","40.2","","101.50","","","","-25","","Blowing Snow"
"-96.08","64.30","BAKER LAKE A","2300503","2018-05-07 19:00","2018","05","07","19:00","-13.2","","-16.2","","79","","","","31","","50","","24.1","","101.42","","","","-26","","Blowing Snow"
"-96.08","64.30","BAKER LAKE A","2300503","2018-05-07 20:00","2018","05","07","20:00","-14.0","","-17.1","","78","","","","31","","37","","32.2","","101.44","","","","-26","","Blowing Snow"
"-96.08","64.30","BAKER LAKE A","2300503","2018-05-07 21:00","2018","05","07","21:00","-14.7","","-17.6","","79","","","","31","","47","","32.2","","101.39","","","","-28","","Blowing Snow"
"-96.08","64.30","BAKER LAKE A","2300503","2018-05-07 22:00","2018","05","07","22:00","-15.7","","-18.5","","79","","","","30","","27","","32.2","","101.48","","","","-26","","Blowing Snow"
"-96.08","64.30","BAKER LAKE A","2300503","2018-05-07 23:00","2018","05","07","23:00","-15.3","","-18.2","","79","","","","30","","30","","24.1","","101.51","","","","-26","","Blowing Snow"
"-96.08","64.30","BAKER LAKE A","2300503","2018-05-08 00:00","2018","05","08","00:00","-15.2","","-18.3","","78","","","","30","","37","","24.1","","101.49","","","","-27","","Blowing Snow"
"-96.08","64.30","BAKER LAKE A","2300503","2018-05-08 01:00","2018","05","08","01:00","-14.6","","-17.9","","76","","","","30","","24","","24.1","","101.56","","","","-24","","NA"
"-96.08","64.30","BAKER LAKE A","2300503","2018-05-08 02:00","2018","05","08","02:00","-14.6","","-18.0","","75","","","","32","","32","","24.1","","101.58","","","","-26","","NA"
"-96.08","64.30","BAKER LAKE A","2300503","2018-05-08 03:00","2018","05","08","03:00","-14.3","","-17.5","","77","","","","32","","39","","32.2","","101.59","","","","-26","","Cloudy"
"-96.08","64.30","BAKER LAKE A","2300503","2018-05-08 04:00","2018","05","08","04:00","-14.3","","-17.5","","77","","","","32","","37","","32.2","","101.60","","","","-26","","NA"
"-96.08","64.30","BAKER LAKE A","2300503","2018-05-08 05:00","2018","05","08","05:00","-14.1","","-17.1","","79","","","","32","","39","","32.2","","101.61","","","","-26","","NA"
"-96.08","64.30","BAKER LAKE A","2300503","2018-05-08 06:00","2018","05","08","06:00","-13.4","","-16.8","","76","","","","32","","34","","32.2","","101.63","","","","-25","","Cloudy"
"-96.08","64.30","BAKER LAKE A","2300503","2018-05-08 07:00","2018","05","08","07:00","-12.6","","-16.0","","76","","","","32","","30","","32.2","","101.66","","","","-23","","NA"
"-96.08","64.30","BAKER LAKE A","2300503","2018-05-08 08:00","2018","05","08","08:00","-12.2","","-15.8","","75","","","","33","","23","","40.2","","101.68","","","","-21","","NA"
"-96.08","64.30","BAKER LAKE A","2300503","2018-05-08 09:00","2018","05","08","09:00","-12.1","","-16.0","","73","","","","33","","30","","40.2","","101.68","","","","-22","","Cloudy"
"-96.08","64.30","BAKER LAKE A","2300503","2018-05-08 10:00","2018","05","08","10:00","-11.9","","-15.9","","72","","","","33","","28","","40.2","","101.67","","","","-22","","NA"
"-96.08","64.30","BAKER LAKE A","2300503","2018-05-08 11:00","2018","05","08","11:00","-11.2","","-15.5","","71","","","","32","","24","","40.2","","101.68","","","","-20","","NA"
"-96.08","64.30","BAKER LAKE A","2300503","2018-05-08 12:00","2018","05","08","12:00","-11.0","","-15.3","","71","","","","34","","28","","24.1","","101.65","","","","-21","","Snow"
"-96.08","64.30","BAKER LAKE A","2300503","2018-05-08 13:00","2018","05","08","13:00","-10.8","","-15.0","","72","","","","31","","18","","40.2","","101.71","","","","-18","","Snow"
"-96.08","64.30","BAKER LAKE A","2300503","2018-05-08 14:00","2018","05","08","14:00","-10.3","","-14.9","","69","","","","30","","22","","40.2","","101.69","","","","-19","","Snow"
"-96.08","64.30","BAKER LAKE A","2300503","2018-05-08 15:00","2018","05","08","15:00","-10.3","","-14.7","","70","","","","29","","17","","40.2","","101.65","","","","-18","","Snow"
"-96.08","64.30","BAKER LAKE A","2300503","2018-05-08 16:00","2018","05","08","16:00","-10.5","","-14.7","","72","","","","31","","15","","32.2","","101.62","","","","-17","","Snow"
"-96.08","64.30","BAKER LAKE A","2300503","2018-05-08 17:00","2018","05","08","17:00","-10.8","","-15.3","","70","","","","31","","16","","40.2","","101.60","","","","-18","","Snow"
"-96.08","64.30","BAKER LAKE A","2300503","2018-05-08 18:00","2018","05","08","18:00","-10.8","","-14.9","","72","","","","29","","18","","40.2","","101.60","","","","-18","","Snow"
"-96.08","64.30","BAKER LAKE A","2300503","2018-05-08 19:00","2018","05","08","19:00","-11.2","","-15.1","","73","","","","30","","20","","40.2","","101.56","","","","-19","","NA"
"-96.08","64.30","BAKER LAKE A","2300503","2018-05-08 20:00","2018","05","08","20:00","-12.1","","-15.4","","77","","","","32","","9","","24.1","","101.49","","","","-17","","NA"
"-96.08","64.30","BAKER LAKE A","2300503","2018-05-08 21:00","2018","05","08","21:00","-12.6","","-15.7","","78","","","","24","","7","","24.1","","101.46","","","","-17","","Snow"
"-96.08","64.30","BAKER LAKE A","2300503","2018-05-08 22:00","2018","05","08","22:00","-12.9","","-15.4","","82","","","","26","","12","","24.1","","101.42","","","","-19","","NA"
"-96.08","64.30","BAKER LAKE A","2300503","2018-05-08 23:00","2018","05","08","23:00","-13.7","","-16.1","","82","","","","26","","16","","24.1","","101.40","","","","-22","","Ice Crystals"
"-96.08","64.30","BAKER LAKE A","2300503","2018-05-09 00:00","2018","05","09","00:00","-16.4","","-18.7","","83","","","","15","","3","","24.1","","101.36","","","","-19","","Ice Crystals"
"-96.08","64.30","BAKER LAKE A","2300503","2018-05-09 01:00","2018","05","09","01:00","-15.0","","-17.4","","82","","","","19","","7","","24.1","","101.31","","","","-20","","Snow"
"-96.08","64.30","BAKER LAKE A","2300503","2018-05-09 02:00","2018","05","09","02:00","-13.1","","-15.8","","81","","","","29","","24","","24.1","","101.26","","","","-23","","Snow"
"-96.08","64.30","BAKER LAKE A","2300503","2018-05-09 03:00","2018","05","09","03:00","-12.2","","-14.7","","82","","","","30","","21","","24.1","","101.25","","","","-21","","Snow,Ice Crystals"
"-96.08","64.30","BAKER LAKE A","2300503","2018-05-09 04:00","2018","05","09","04:00","-12.1","","-14.5","","83","","","","30","","23","","24.1","","101.20","","","","-21","","NA"
"-96.08","64.30","BAKER LAKE A","2300503","2018-05-09 05:00","2018","05","09","05:00","-12.3","","-14.8","","82","","","","31","","18","","24.1","","101.19","","","","-20","","NA"
"-96.08","64.30","BAKER LAKE A","2300503","2018-05-09 06:00","2018","05","09","06:00","-11.7","","-14.4","","81","","","","31","","18","","24.1","","101.22","","","","-20","","Snow"
"-96.08","64.30","BAKER LAKE A","2300503","2018-05-09 07:00","2018","05","09","07:00","-10.9","","-13.6","","81","","","","31","","22","","16.1","","101.22","","","","-19","","Snow,Ice Crystals"
"-96.08","64.30","BAKER LAKE A","2300503","2018-05-09 08:00","2018","05","09","08:00","-10.0","","-12.8","","80","","","","32","","20","","16.1","","101.25","","","","-18","","Snow,Blowing Snow"
"-96.08","64.30","BAKER LAKE A","2300503","2018-05-09 09:00","2018","05","09","09:00","-9.4","","-12.7","","78","","","","33","","23","","16.1","","101.27","","","","-18","","Snow,Blowing Snow"
"-96.08","64.30","BAKER LAKE A","2300503","2018-05-09 10:00","2018","05","09","10:00","-9.0","","-12.5","","76","","","","35","","24","","40.2","","101.30","","","","-17","","Blowing Snow"
"-96.08","64.30","BAKER LAKE A","2300503","2018-05-09 11:00","2018","05","09","11:00","-8.7","","-12.0","","77","","","","35","","22","","40.2","","101.35","","","","-17","","NA"
"-96.08","64.30","BAKER LAKE A","2300503","2018-05-09 12:00","2018","05","09","12:00","-8.7","","-12.1","","76","","","","34","","31","","40.2","","101.39","","","","-18","","Mainly Clear"
"-96.08","64.30","BAKER LAKE A","2300503","2018-05-09 13:00","2018","05","09","13:00","-8.2","","-11.6","","77","","","","35","","27","","40.2","","101.47","","","","-17","","NA"
"-96.08","64.30","BAKER LAKE A","2300503","2018-05-09 14:00","2018","05","09","14:00","-8.0","","-12.0","","73","","","","36","","32","","40.2","","101.52","","","","-17","","NA"
"-96.08","64.30","BAKER LAKE A","2300503","2018-05-09 15:00","2018","05","09","15:00","-8.2","","-12.1","","73","","","","35","","34","","40.2","","101.58","","","","-18","","Mostly Cloudy"
"-96.08","64.30","BAKER LAKE A","2300503","2018-05-09 16:00","2018","05","09","16:00","-8.6","","-12.3","","75","","","","35","","30","","40.2","","101.63","","","","-18","","NA"
"-96.08","64.30","BAKER LAKE A","2300503","2018-05-09 17:00","2018","05","09","17:00","-8.5","","-12.1","","76","","","","35","","26","","40.2","","101.66","","","","-17","","NA"
"-96.08","64.30","BAKER LAKE A","2300503","2018-05-09 18:00","2018","05","09","18:00","-9.3","","-12.6","","77","","","","35","","24","","40.2","","101.68","","","","-18","","Mainly Clear"
"-96.08","64.30","BAKER LAKE A","2300503","2018-05-09 19:00","2018","05","09","19:00","-10.3","","-13.5","","77","","","","32","","17","","40.2","","101.75","","","","-18","","NA"
"-96.08","64.30","BAKER LAKE A","2300503","2018-05-09 20:00","2018","05","09","20:00","-11.4","","-14.3","","80","","","","34","","25","","32.2","","101.74","","","","-21","","NA"
"-96.08","64.30","BAKER LAKE A","2300503","2018-05-09 21:00","2018","05","09","21:00","-10.8","","-13.4","","81","","","","31","","18","","24.1","","101.80","","","","-18","","Snow"
"-96.08","64.30","BAKER LAKE A","2300503","2018-05-09 22:00","2018","05","09","22:00","-10.6","","-13.3","","81","","","","33","","26","","32.2","","101.77","","","","-20","","Snow"
"-96.08","64.30","BAKER LAKE A","2300503","2018-05-09 23:00","2018","05","09","23:00","-11.3","","-13.9","","82","","","","33","","15","","24.1","","101.77","","","","-18","","Snow"
"-96.08","64.30","BAKER LAKE A","2300503","2018-05-10 00:00","2018","05","10","00:00","-11.8","","-14.3","","82","","","","33","","20","","24.1","","101.76","","","","-20","","Snow"
"-96.08","64.30","BAKER LAKE A","2300503","2018-05-10 01:00","2018","05","10","01:00","-11.8","","-14.1","","83","","","","32","","16","","24.1","","101.78","","","","-19","","Snow"
"-96.08","64.30","BAKER LAKE A","2300503","2018-05-10 02:00","2018","05","10","02:00","-12.0","","-14.4","","82","","","","29","","11","","24.1","","101.77","","","","-18","","Snow"
"-96.08","64.30","BAKER LAKE A","2300503","2018-05-10 03:00","2018","05","10","03:00","-12.5","","-14.8","","83","","","","25","","16","","32.2","","101.72","","","","-20","","Snow"
"-96.08","64.30","BAKER LAKE A","2300503","2018-05-10 04:00","2018","05","10","04:00","-12.1","","-14.5","","83","","","","26","","21","","24.1","","101.65","","","","-21","","Snow"
"-96.08","64.30","BAKER LAKE A","2300503","2018-05-10 05:00","2018","05","10","05:00","-11.1","","-13.4","","83","","","","27","","27","","24.1","","101.59","","","","-21","","Snow"
"-96.08","64.30","BAKER LAKE A","2300503","2018-05-10 06:00","2018","05","10","06:00","-9.7","","-11.8","","84","","","","28","","22","","24.1","","101.57","","","","-18","","Snow"
"-96.08","64.30","BAKER LAKE A","2300503","2018-05-10 07:00","2018","05","10","07:00","-7.9","","-10.2","","84","","","","29","","23","","24.1","","101.56","","","","-16","","Snow"
"-96.08","64.30","BAKER LAKE A","2300503","2018-05-10 08:00","2018","05","10","08:00","-7.2","","-9.8","","82","","","","29","","20","","24.1","","101.52","","","","-14","","Snow"
"-96.08","64.30","BAKER LAKE A","2300503","2018-05-10 09:00","2018","05","10","09:00","-6.7","","-9.7","","80","","","","28","","20","","16.1","","101.46","","","","-14","","Snow"
"-96.08","64.30","BAKER LAKE A","2300503","2018-05-10 10:00","2018","05","10","10:00","-5.6","","-9.0","","77","","","","30","","22","","16.1","","101.39","","","","-13","","Snow"
"-96.08","64.30","BAKER LAKE A","2300503","2018-05-10 11:00","2018","05","10","11:00","-5.2","","-9.0","","75","","","","31","","27","","16.1","","101.33","","","","-13","","Snow"
"-96.08","64.30","BAKER LAKE A","2300503","2018-05-10 12:00","2018","05","10","12:00","-4.7","","-8.5","","75","","","","30","","28","","16.1","","101.27","","","","-12","","Snow"
"-96.08","64.30","BAKER LAKE A","2300503","2018-05-10 13:00","2018","05","10","13:00","-4.2","","-8.2","","74","","","","29","","28","","16.1","","101.25","","","","-12","","Snow"
"-96.08","64.30","BAKER LAKE A","2300503","2018-05-10 14:00","2018","05","10","14:00","-3.7","","-7.8","","74","","","","29","","29","","16.1","","101.20","","","","-11","","Snow"
"-96.08","64.30","BAKER LAKE A","2300503","2018-05-10 15:00","2018","05","10","15:00","-3.9","","-8.1","","73","","","","30","","29","","40.2","","101.18","","","","-11","","Mostly Cloudy"
"-96.08","64.30","BAKER LAKE A","2300503","2018-05-10 16:00","2018","05","10","16:00","-4.1","","-7.4","","78","","","","30","","28","","40.2","","101.13","","","","-12","","NA"
"-96.08","64.30","BAKER LAKE A","2300503","2018-05-10 17:00","2018","05","10","17:00","-3.7","","-6.1","","84","","","","30","","31","","16.1","","101.06","","","","-11","","Snow"
"-96.08","64.30","BAKER LAKE A","2300503","2018-05-10 18:00","2018","05","10","18:00","-3.7","","-5.9","","85","","","","30","","27","","24.1","","101.06","","","","-11","","Snow"
"-96.08","64.30","BAKER LAKE A","2300503","2018-05-10 19:00","2018","05","10","19:00","-4.1","","-6.4","","84","","","","31","","29","","40.2","","101.04","","","","-12","","Snow,Blowing Snow"
"-96.08","64.30","BAKER LAKE A","2300503","2018-05-10 20:00","2018","05","10","20:00","-4.7","","-6.6","","87","","","","30","","20","","24.1","","101.02","","","","-11","","Snow,Blowing Snow"
"-96.08","64.30","BAKER LAKE A","2300503","2018-05-10 21:00","2018","05","10","21:00","-5.1","","-7.4","","84","","","","33","","28","","32.2","","101.02","","","","-13","","Snow,Blowing Snow"
"-96.08","64.30","BAKER LAKE A","2300503","2018-05-10 22:00","2018","05","10","22:00","-6.1","","-8.6","","82","","","","33","","28","","32.2","","101.05","","","","-14","","Snow"
"-96.08","64.30","BAKER LAKE A","2300503","2018-05-10 23:00","2018","05","10","23:00","-6.3","","-8.8","","83","","","","32","","28","","24.1","","101.07","","","","-14","","Snow"
"-96.08","64.30","BAKER LAKE A","2300503","2018-05-11 00:00","2018","05","11","00:00","-6.5","","-10.0","","76","","","","33","","30","","24.1","","101.12","","","","-15","","Snow"
"-96.08","64.30","BAKER LAKE A","2300503","2018-05-11 01:00","2018","05","11","01:00","-6.8","","-10.2","","77","","","","32","","19","","24.1","","101.13","","","","-14","","Snow"
"-96.08","64.30","BAKER LAKE A","2300503","2018-05-11 02:00","2018","05","11","02:00","-6.9","","-9.0","","85","","","","30","","21","","24.1","","101.12","","","","-14","","Snow"
"-96.08","64.30","BAKER LAKE A","2300503","2018-05-11 03:00","2018","05","11","03:00","-6.6","","-8.6","","86","","","","32","","34","","16.1","","101.12","","","","-16","","Snow"
"-96.08","64.30","BAKER LAKE A","2300503","2018-05-11 04:00","2018","05","11","04:00","-8.2","","-10.3","","85","","","","34","","36","","24.1","","101.18","","","","-18","","Snow"
"-96.08","64.30","BAKER LAKE A","2300503","2018-05-11 05:00","2018","05","11","05:00","-9.4","","-11.9","","82","","","","34","","37","","40.2","","101.26","","","","-20","","Snow,Blowing Snow"
"-96.08","64.30","BAKER LAKE A","2300503","2018-05-11 06:00","2018","05","11","06:00","-9.7","","-13.0","","77","","","","34","","32","","24.1","","101.34","","","","-19","","Snow,Blowing Snow"
"-96.08","64.30","BAKER LAKE A","2300503","2018-05-11 07:00","2018","05","11","07:00","-10.8","","-13.9","","78","","","","33","","39","","32.2","","101.37","","","","-22","","Blowing Snow"
"-96.08","64.30","BAKER LAKE A","2300503","2018-05-11 08:00","2018","05","11","08:00","-12.1","","-15.6","","75","","","","32","","42","","32.2","","101.42","","","","-24","","Blowing Snow"
"-96.08","64.30","BAKER LAKE A","2300503","2018-05-11 09:00","2018","05","11","09:00","-11.3","","-13.9","","81","","","","35","","43","","11.3","","101.43","","","","-23","","Blowing Snow"
"-96.08","64.30","BAKER LAKE A","2300503","2018-05-11 10:00","2018","05","11","10:00","-10.4","","-13.6","","78","","","","34","","31","","11.3","","101.52","","","","-20","","Blowing Snow"
"-96.08","64.30","BAKER LAKE A","2300503","2018-05-11 11:00","2018","05","11","11:00","-9.1","","-12.6","","76","","","","33","","33","","40.2","","101.51","","","","-19","","Blowing Snow"
"-96.08","64.30","BAKER LAKE A","2300503","2018-05-11 12:00","2018","05","11","12:00","-8.4","","-12.5","","72","","","","31","","39","","16.1","","101.49","","","","-19","","Blowing Snow"
"-96.08","64.30","BAKER LAKE A","2300503","2018-05-11 13:00","2018","05","11","13:00","-7.9","","-11.6","","75","","","","32","","42","","40.2","","101.48","","","","-18","","Blowing Snow"
"-96.08","64.30","BAKER LAKE A","2300503","2018-05-11 14:00","2018","05","11","14:00","-8.0","","-11.3","","77","","","","32","","43","","24.1","","101.46","","","","-18","","Blowing Snow"
"-96.08","64.30","BAKER LAKE A","2300503","2018-05-11 15:00","2018","05","11","15:00","-8.2","","-11.9","","75","","","","32","","36","","24.1","","101.52","","","","-18","","Blowing Snow"
"-96.08","64.30","BAKER LAKE A","2300503","2018-05-11 16:00","2018","05","11","16:00","-8.9","","-12.3","","77","","","","31","","46","","24.1","","101.45","","","","-20","","Blowing Snow"
"-96.08","64.30","BAKER LAKE A","2300503","2018-05-11 17:00","2018","05","11","17:00","-9.3","","-12.7","","77","","","","32","","39","","40.2","","101.47","","","","-20","","Blowing Snow"
"-96.08","64.30","BAKER LAKE A","2300503","2018-05-11 18:00","2018","05","11","18:00","-9.6","","-12.7","","78","","","","31","","26","","40.2","","101.49","","","","-18","","Mainly Clear"
"-96.08","64.30","BAKER LAKE A","2300503","2018-05-11 19:00","2018","05","11","19:00","-9.9","","-13.0","","78","","","","32","","16","","40.2","","101.50","","","","-17","","NA"
"-96.08","64.30","BAKER LAKE A","2300503","2018-05-11 20:00","2018","05","11","20:00","-10.5","","-13.6","","78","","","","31","","22","","32.2","","101.47","","","","-19","","NA"
"-96.08","64.30","BAKER LAKE A","2300503","2018-05-11 21:00","2018","05","11","21:00","-11.4","","-14.2","","80","","","","31","","22","","32.2","","101.45","","","","-20","","Mainly Clear"
"-96.08","64.30","BAKER LAKE A","2300503","2018-05-11 22:00","2018","05","11","22:00","-12.8","","-15.4","","81","","","","31","","18","","32.2","","101.42","","","","-21","","NA"
"-96.08","64.30","BAKER LAKE A","2300503","2018-05-11 23:00","2018","05","11","23:00","-12.6","","-15.3","","80","","","","28","","11","","24.1","","101.39","","","","-19","","NA"
"-96.08","64.30","BAKER LAKE A","2300503","2018-05-12 00:00","2018","05","12","00:00","-12.9","","-15.7","","80","","","","30","","16","","24.1","","101.34","","","","-21","","Mostly Cloudy"
"-96.08","64.30","BAKER LAKE A","2300503","2018-05-12 01:00","2018","05","12","01:00","-13.2","","-15.9","","81","","","","30","","22","","24.1","","101.28","","","","-22","","NA"
"-96.08","64.30","BAKER LAKE A","2300503","2018-05-12 02:00","2018","05","12","02:00","-14.5","","-17.1","","81","","","","29","","17","","32.2","","101.29","","","","-23","","NA"
"-96.08","64.30","BAKER LAKE A","2300503","2018-05-12 03:00","2018","05","12","03:00","-15.4","","-17.9","","81","","","","30","","25","","32.2","","101.22","","","","-26","","Mainly Clear"
"-96.08","64.30","BAKER LAKE A","2300503","2018-05-12 04:00","2018","05","12","04:00","-16.0","","-18.4","","82","","","","31","","25","","32.2","","101.18","","","","-26","","NA"
"-96.08","64.30","BAKER LAKE A","2300503","2018-05-12 05:00","2018","05","12","05:00","-15.4","","-17.8","","82","","","","32","","21","","32.2","","101.14","","","","-25","","NA"
"-96.08","64.30","BAKER LAKE A","2300503","2018-05-12 06:00","2018","05","12","06:00","-14.2","","-16.6","","82","","","","33","","12","","32.2","","101.10","","","","-21","","Snow"
"-96.08","64.30","BAKER LAKE A","2300503","2018-05-12 07:00","2018","05","12","07:00","-14.5","","-17.0","","82","","","","16","","5","","32.2","","101.04","","","","-18","","Snow"
"-96.08","64.30","BAKER LAKE A","2300503","2018-05-12 08:00","2018","05","12","08:00","-13.0","","-15.6","","81","","","","20","","7","","32.2","","100.96","","","","-18","","Snow"
"-96.08","64.30","BAKER LAKE A","2300503","2018-05-12 09:00","2018","05","12","09:00","-11.9","","-14.7","","80","","","","21","","7","","32.2","","100.91","","","","-16","","Snow"
"-96.08","64.30","BAKER LAKE A","2300503","2018-05-12 10:00","2018","05","12","10:00","-11.8","","-14.8","","78","","","","18","","6","","32.2","","100.82","","","","-16","","Snow"
"-96.08","64.30","BAKER LAKE A","2300503","2018-05-12 11:00","2018","05","12","11:00","-11.3","","-14.6","","77","","","","13","","5","","32.2","","100.74","","","","-14","","Snow"
"-96.08","64.30","BAKER LAKE A","2300503","2018-05-12 12:00","2018","05","12","12:00","-10.9","","-14.1","","77","","","","14","","15","","32.2","","100.67","","","","-18","","Snow"
"-96.08","64.30","BAKER LAKE A","2300503","2018-05-12 13:00","2018","05","12","13:00","-10.6","","-14.1","","76","","","","16","","11","","32.2","","100.59","","","","-16","","Snow"
"-96.08","64.30","BAKER LAKE A","2300503","2018-05-12 14:00","2018","05","12","14:00","-10.5","","-13.6","","78","","","","13","","8","","32.2","","100.53","","","","-15","","Snow"
"-96.08","64.30","BAKER LAKE A","2300503","2018-05-12 15:00","2018","05","12","15:00","-10.2","","-13.7","","76","","","","14","","11","","16.1","","100.49","","","","-16","","Snow"
"-96.08","64.30","BAKER LAKE A","2300503","2018-05-12 16:00","2018","05","12","16:00","-10.3","","-13.6","","77","","","","10","","9","","24.1","","100.46","","","","-15","","Snow"
"-96.08","64.30","BAKER LAKE A","2300503","2018-05-12 17:00","2018","05","12","17:00","-10.0","","-12.9","","79","","","","12","","10","","24.1","","100.45","","","","-15","","Snow"
"-96.08","64.30","BAKER LAKE A","2300503","2018-05-12 18:00","2018","05","12","18:00","-10.0","","-13.1","","78","","","","11","","11","","32.2","","100.46","","","","-16","","Snow"
"-96.08","64.30","BAKER LAKE A","2300503","2018-05-12 19:00","2018","05","12","19:00","-10.0","","-12.9","","80","","","","17","","4","","32.2","","100.44","","","","-12","","Snow"
"-96.08","64.30","BAKER LAKE A","2300503","2018-05-12 20:00","2018","05","12","20:00","-10.1","","-13.2","","78","","","","26","","7","","40.2","","100.41","","","","-14","","Snow"
"-96.08","64.30","BAKER LAKE A","2300503","2018-05-12 21:00","2018","05","12","21:00","-10.3","","-13.0","","81","","","","6","","11","","24.1","","100.36","","","","-16","","Snow"
"-96.08","64.30","BAKER LAKE A","2300503","2018-05-12 22:00","2018","05","12","22:00","-10.6","","-13.3","","81","","","","5","","9","","24.1","","100.33","","","","-16","","Snow"
"-96.08","64.30","BAKER LAKE A","2300503","2018-05-12 23:00","2018","05","12","23:00","-10.7","","-13.2","","82","","","","2","","8","","22.5","","100.31","","","","-15","","Snow"
"-96.08","64.30","BAKER LAKE A","2300503","2018-05-13 00:00","2018","05","13","00:00","-11.1","","-13.2","","84","","","","2","","8","","9.7","","100.30","","","","-16","","Snow"
"-96.08","64.30","BAKER LAKE A","2300503","2018-05-13 01:00","2018","05","13","01:00","-11.4","","-13.5","","84","","","","4","","6","","11.3","","100.28","","","","-15","","Snow"
"-96.08","64.30","BAKER LAKE A","2300503","2018-05-13 02:00","2018","05","13","02:00","-11.7","","-13.8","","85","","","","35","","6","","12.9","","100.28","","","","-15","","Snow"
"-96.08","64.30","BAKER LAKE A","2300503","2018-05-13 03:00","2018","05","13","03:00","-11.9","","-14.0","","85","","","","35","","8","","6.4","","100.27","","","","-17","","Snow"
"-96.08","64.30","BAKER LAKE A","2300503","2018-05-13 04:00","2018","05","13","04:00","-12.2","","-14.3","","84","","","","34","","10","","9.7","","100.26","","","","-18","","Snow"
"-96.08","64.30","BAKER LAKE A","2300503","2018-05-13 05:00","2018","05","13","05:00","-12.1","","-14.4","","83","","","","34","","10","","16.1","","100.25","","","","-18","","Snow"
"-96.08","64.30","BAKER LAKE A","2300503","2018-05-13 06:00","2018","05","13","06:00","-12.1","","-14.4","","83","","","","31","","8","","14.5","","100.26","","","","-17","","Snow"
"-96.08","64.30","BAKER LAKE A","2300503","2018-05-13 07:00","2018","05","13","07:00","-11.7","","-14.3","","81","","","","31","","6","","24.1","","100.27","","","","-15","","NA"
"-96.08","64.30","BAKER LAKE A","2300503","2018-05-13 08:00","2018","05","13","08:00","-11.6","","-14.2","","81","","","","27","","5","","24.1","","100.26","","","","-15","","Snow"
"-96.08","64.30","BAKER LAKE A","2300503","2018-05-13 09:00","2018","05","13","09:00","-10.8","","-13.4","","81","","","","24","","8","","24.1","","100.24","","","","-15","","Snow"
"-96.08","64.30","BAKER LAKE A","2300503","2018-05-13 10:00","2018","05","13","10:00","-10.0","","-12.9","","79","","","","30","","12","","24.1","","100.24","","","","-16","","Snow"
"-96.08","64.30","BAKER LAKE A","2300503","2018-05-13 11:00","2018","05","13","11:00","-9.0","","-12.5","","76","","","","33","","27","","24.1","","100.24","","","","-18","","Snow"
"-96.08","64.30","BAKER LAKE A","2300503","2018-05-13 12:00","2018","05","13","12:00","-8.8","","-12.1","","77","","","","32","","32","","24.1","","100.28","","","","-18","","Snow"
"-96.08","64.30","BAKER LAKE A","2300503","2018-05-13 13:00","2018","05","13","13:00","-8.5","","-12.0","","76","","","","33","","29","","24.1","","100.31","","","","-17","","Snow"
"-96.08","64.30","BAKER LAKE A","2300503","2018-05-13 14:00","2018","05","13","14:00","-8.4","","-11.9","","76","","","","32","","30","","16.1","","100.36","","","","-17","","Snow"
"-96.08","64.30","BAKER LAKE A","2300503","2018-05-13 15:00","2018","05","13","15:00","-7.7","","-10.8","","78","","","","32","","31","","24.1","","100.38","","","","-17","","Snow"
"-96.08","64.30","BAKER LAKE A","2300503","2018-05-13 16:00","2018","05","13","16:00","-7.9","","-11.6","","75","","","","32","","34","","16.1","","100.42","","","","-17","","Snow,Blowing Snow"
"-96.08","64.30","BAKER LAKE A","2300503","2018-05-13 17:00","2018","05","13","17:00","-8.9","","-12.2","","77","","","","33","","28","","24.1","","100.47","","","","-18","","Blowing Snow"
"-96.08","64.30","BAKER LAKE A","2300503","2018-05-13 18:00","2018","05","13","18:00","-9.8","","-12.4","","81","","","","33","","29","","24.1","","100.52","","","","-19","","Snow,Blowing Snow"
"-96.08","64.30","BAKER LAKE A","2300503","2018-05-13 19:00","2018","05","13","19:00","-10.5","","-13.3","","80","","","","33","","24","","24.1","","100.56","","","","-19","","Snow,Blowing Snow"
"-96.08","64.30","BAKER LAKE A","2300503","2018-05-13 20:00","2018","05","13","20:00","-10.7","","-13.5","","80","","","","33","","37","","24.1","","100.57","","","","-21","","Snow,Blowing Snow"
"-96.08","64.30","BAKER LAKE A","2300503","2018-05-13 21:00","2018","05","13","21:00","-11.7","","-14.8","","78","","","","32","","34","","40.2","","100.59","","","","-22","","Snow,Blowing Snow"
"-96.08","64.30","BAKER LAKE A","2300503","2018-05-13 22:00","2018","05","13","22:00","-12.2","","-14.8","","81","","","","32","","33","","24.1","","100.59","","","","-23","","Snow,Blowing Snow"
"-96.08","64.30","BAKER LAKE A","2300503","2018-05-13 23:00","2018","05","13","23:00","-13.8","","-16.4","","81","","","","32","","36","","22.5","","100.59","","","","-25","","Snow,Blowing Snow"
"-96.08","64.30","BAKER LAKE A","2300503","2018-05-14 00:00","2018","05","14","00:00","-14.0","","-16.6","","81","","","","34","","36","","24.1","","100.63","","","","-26","","Snow,Blowing Snow"
"-96.08","64.30","BAKER LAKE A","2300503","2018-05-14 01:00","2018","05","14","01:00","-15.2","","-17.6","","81","","","","33","","40","","24.1","","100.65","","","","-28","","Blowing Snow"
"-96.08","64.30","BAKER LAKE A","2300503","2018-05-14 02:00","2018","05","14","02:00","-14.9","","-17.5","","81","","","","33","","37","","24.1","","100.70","","","","-27","","Blowing Snow"
"-96.08","64.30","BAKER LAKE A","2300503","2018-05-14 03:00","2018","05","14","03:00","-15.1","","-17.8","","80","","","","33","","45","","14.5","","100.73","","","","-28","","Blowing Snow"
"-96.08","64.30","BAKER LAKE A","2300503","2018-05-14 04:00","2018","05","14","04:00","-15.5","","-18.1","","80","","","","33","","43","","24.1","","100.78","","","","-28","","Blowing Snow"
"-96.08","64.30","BAKER LAKE A","2300503","2018-05-14 05:00","2018","05","14","05:00","-14.8","","-17.6","","80","","","","33","","39","","19.3","","100.88","","","","-27","","Blowing Snow"
"-96.08","64.30","BAKER LAKE A","2300503","2018-05-14 06:00","2018","05","14","06:00","-13.4","","-16.3","","79","","","","34","","40","","40.2","","100.96","","","","-25","","Blowing Snow"
"-96.08","64.30","BAKER LAKE A","2300503","2018-05-14 07:00","2018","05","14","07:00","-13.6","","-16.6","","78","","","","33","","39","","40.2","","101.04","","","","-25","","Blowing Snow"
"-96.08","64.30","BAKER LAKE A","2300503","2018-05-14 08:00","2018","05","14","08:00","-13.8","","-16.6","","79","","","","33","","39","","32.2","","101.10","","","","-26","","Blowing Snow"
"-96.08","64.30","BAKER LAKE A","2300503","2018-05-14 09:00","2018","05","14","09:00","-14.6","","-17.9","","77","","","","33","","42","","32.2","","101.16","","","","-27","","Blowing Snow"
"-96.08","64.30","BAKER LAKE A","2300503","2018-05-14 10:00","2018","05","14","10:00","-14.6","","-18.0","","76","","","","34","","47","","9.7","","101.18","","","","-28","","Blowing Snow"
"-96.08","64.30","BAKER LAKE A","2300503","2018-05-14 11:00","2018","05","14","11:00","-13.6","","-16.9","","76","","","","33","","37","","16.1","","101.23","","","","-25","","Blowing Snow"
"-96.08","64.30","BAKER LAKE A","2300503","2018-05-14 12:00","2018","05","14","12:00","-13.1","","-16.9","","73","","","","33","","35","","32.2","","101.26","","","","-24","","Blowing Snow"
"-96.08","64.30","BAKER LAKE A","2300503","2018-05-14 13:00","2018","05","14","13:00","-12.3","","-15.8","","75","","","","33","","41","","32.2","","101.26","","","","-24","","Blowing Snow"
"-96.08","64.30","BAKER LAKE A","2300503","2018-05-14 14:00","2018","05","14","14:00","-11.3","","-15.0","","75","","","","32","","41","","16.1","","101.28","","","","-23","","Blowing Snow"
"-96.08","64.30","BAKER LAKE A","2300503","2018-05-14 15:00","2018","05","14","15:00","-10.4","","-13.9","","76","","","","32","","41","","16.1","","101.28","","","","-21","","Blowing Snow"
"-96.08","64.30","BAKER LAKE A","2300503","2018-05-14 16:00","2018","05","14","16:00","-9.9","","-13.5","","75","","","","31","","32","","32.2","","101.29","","","","-20","","Blowing Snow"
"-96.08","64.30","BAKER LAKE A","2300503","2018-05-14 17:00","2018","05","14","17:00","-9.7","","-13.4","","75","","","","32","","34","","32.2","","101.29","","","","-20","","Blowing Snow"
"-96.08","64.30","BAKER LAKE A","2300503","2018-05-14 18:00","2018","05","14","18:00","-9.5","","-12.4","","80","","","","31","","26","","16.1","","101.29","","","","-18","","Snow,Blowing Snow"
"-96.08","64.30","BAKER LAKE A","2300503","2018-05-14 19:00","2018","05","14","19:00","-9.9","","-12.3","","82","","","","31","","30","","16.1","","101.26","","","","-19","","Snow,Blowing Snow"
"-96.08","64.30","BAKER LAKE A","2300503","2018-05-14 20:00","2018","05","14","20:00","-10.6","","-12.9","","84","","","","31","","31","","16.1","","101.26","","","","-20","","Snow,Blowing Snow"
"-96.08","64.30","BAKER LAKE A","2300503","2018-05-14 21:00","2018","05","14","21:00","-11.4","","-13.7","","83","","","","31","","29","","17.7","","101.24","","","","-21","","Snow,Blowing Snow"
"-96.08","64.30","BAKER LAKE A","2300503","2018-05-14 22:00","2018","05","14","22:00","-11.1","","-13.4","","84","","","","30","","26","","16.1","","101.25","","","","-20","","Snow,Blowing Snow"
"-96.08","64.30","BAKER LAKE A","2300503","2018-05-14 23:00","2018","05","14","23:00","-10.9","","-13.2","","84","","","","30","","26","","20.9","","101.21","","","","-20","","Snow,Blowing Snow"
"-96.08","64.30","BAKER LAKE A","2300503","2018-05-15 00:00","2018","05","15","00:00","-12.4","","-14.8","","83","","","","30","","24","","24.1","","101.21","","","","-22","","Snow,Blowing Snow"
"-96.08","64.30","BAKER LAKE A","2300503","2018-05-15 01:00","2018","05","15","01:00","-13.7","","-15.9","","84","","","","30","","25","","24.1","","101.21","","","","-24","","Blowing Snow"
"-96.08","64.30","BAKER LAKE A","2300503","2018-05-15 02:00","2018","05","15","02:00","-12.6","","-14.9","","83","","","","30","","22","","24.1","","101.21","","","","-22","","Blowing Snow"
"-96.08","64.30","BAKER LAKE A","2300503","2018-05-15 03:00","2018","05","15","03:00","-11.8","","-14.3","","82","","","","31","","23","","40.2","","101.21","","","","-21","","Cloudy"
"-96.08","64.30","BAKER LAKE A","2300503","2018-05-15 04:00","2018","05","15","04:00","-12.0","","-14.5","","82","","","","31","","16","","40.2","","101.23","","","","-19","","NA"
"-96.08","64.30","BAKER LAKE A","2300503","2018-05-15 05:00","2018","05","15","05:00","-12.4","","-15.1","","81","","","","33","","16","","40.2","","101.26","","","","-20","","NA"
"-96.08","64.30","BAKER LAKE A","2300503","2018-05-15 06:00","2018","05","15","06:00","-13.4","","-16.4","","79","","","","33","","14","","40.2","","101.30","","","","-21","","Clear"
"-96.08","64.30","BAKER LAKE A","2300503","2018-05-15 07:00","2018","05","15","07:00","-13.4","","-16.6","","77","","","","32","","13","","40.2","","101.34","","","","-20","","NA"
"-96.08","64.30","BAKER LAKE A","2300503","2018-05-15 08:00","2018","05","15","08:00","-12.8","","-15.9","","78","","","","32","","18","","32.2","","101.35","","","","-21","","NA"
"-96.08","64.30","BAKER LAKE A","2300503","2018-05-15 09:00","2018","05","15","09:00","-12.2","","-15.2","","78","","","","33","","19","","32.2","","101.37","","","","-20","","Clear"
"-96.08","64.30","BAKER LAKE A","2300503","2018-05-15 10:00","2018","05","15","10:00","-11.8","","-15.1","","77","","","","34","","22","","32.2","","101.38","","","","-21","","NA"
"-96.08","64.30","BAKER LAKE A","2300503","2018-05-15 11:00","2018","05","15","11:00","-11.4","","-15.1","","74","","","","34","","28","","32.2","","101.39","","","","-21","","NA"
"-96.08","64.30","BAKER LAKE A","2300503","2018-05-15 12:00","2018","05","15","12:00","-10.8","","-14.4","","75","","","","33","","28","","32.2","","101.45","","","","-20","","Mostly Cloudy"
"-96.08","64.30","BAKER LAKE A","2300503","2018-05-15 13:00","2018","05","15","13:00","-9.3","","-12.6","","77","","","","34","","29","","32.2","","101.46","","","","-18","","NA"
"-96.08","64.30","BAKER LAKE A","2300503","2018-05-15 14:00","2018","05","15","14:00","-9.0","","-12.1","","78","","","","34","","30","","32.2","","101.53","","","","-18","","NA"
"-96.08","64.30","BAKER LAKE A","2300503","2018-05-15 15:00","2018","05","15","15:00","-8.7","","-12.1","","77","","","","33","","26","","32.2","","101.58","","","","-17","","Cloudy"
"-96.08","64.30","BAKER LAKE A","2300503","2018-05-15 16:00","2018","05","15","16:00","-8.3","","-11.7","","77","","","","35","","36","","32.2","","101.60","","","","-18","","Blowing Snow"
"-96.08","64.30","BAKER LAKE A","2300503","2018-05-15 17:00","2018","05","15","17:00","-8.2","","-10.9","","81","","","","34","","31","","32.2","","101.61","","","","-17","","Blowing Snow"
"-96.08","64.30","BAKER LAKE A","2300503","2018-05-15 18:00","2018","05","15","18:00","-8.3","","-11.1","","81","","","","35","","46","","32.2","","101.57","","","","-19","","Blowing Snow"
"-96.08","64.30","BAKER LAKE A","2300503","2018-05-15 19:00","2018","05","15","19:00","-9.1","","-11.9","","80","","","","34","","46","","32.2","","101.63","","","","-20","","Blowing Snow"
"-96.08","64.30","BAKER LAKE A","2300503","2018-05-15 20:00","2018","05","15","20:00","-9.2","","-12.0","","81","","","","34","","33","","40.2","","101.66","","","","-19","","Blowing Snow"
"-96.08","64.30","BAKER LAKE A","2300503","2018-05-15 21:00","2018","05","15","21:00","-8.9","","-11.5","","82","","","","34","","40","","40.2","","101.68","","","","-19","","Blowing Snow"
"-96.08","64.30","BAKER LAKE A","2300503","2018-05-15 22:00","2018","05","15","22:00","-8.9","","-11.6","","81","","","","33","","39","","24.1","","101.70","","","","-19","","Blowing Snow"
"-96.08","64.30","BAKER LAKE A","2300503","2018-05-15 23:00","2018","05","15","23:00","-9.0","","-11.6","","82","","","","33","","41","","16.1","","101.68","","","","-20","","Blowing Snow"
"-96.08","64.30","BAKER LAKE A","2300503","2018-05-16 00:00","2018","05","16","00:00","-9.4","","-11.9","","82","","","","32","","39","","16.1","","101.71","","","","-20","","Blowing Snow"
"-96.08","64.30","BAKER LAKE A","2300503","2018-05-16 01:00","2018","05","16","01:00","-10.1","","-12.5","","83","","","","33","","46","","16.1","","101.69","","","","-22","","Blowing Snow"
"-96.08","64.30","BAKER LAKE A","2300503","2018-05-16 02:00","2018","05","16","02:00","-10.9","","-13.1","","84","","","","31","","44","","16.1","","101.66","","","","-22","","Blowing Snow"
"-96.08","64.30","BAKER LAKE A","2300503","2018-05-16 03:00","2018","05","16","03:00","-11.9","","-14.3","","83","","","","31","","38","","24.1","","101.75","","","","-23","","Blowing Snow"
"-96.08","64.30","BAKER LAKE A","2300503","2018-05-16 04:00","2018","05","16","04:00","-11.3","","-13.7","","83","","","","32","","40","","24.1","","101.80","","","","-23","","Blowing Snow"
"-96.08","64.30","BAKER LAKE A","2300503","2018-05-16 05:00","2018","05","16","05:00","-11.3","","-13.8","","82","","","","33","","46","","24.1","","101.79","","","","-23","","Blowing Snow"
"-96.08","64.30","BAKER LAKE A","2300503","2018-05-16 06:00","2018","05","16","06:00","-11.3","","-13.8","","82","","","","32","","41","","24.1","","101.77","","","","-23","","Blowing Snow"
"-96.08","64.30","BAKER LAKE A","2300503","2018-05-16 07:00","2018","05","16","07:00","-10.4","","-12.7","","83","","","","32","","48","","16.1","","101.76","","","","-22","","Blowing Snow"
"-96.08","64.30","BAKER LAKE A","2300503","2018-05-16 08:00","2018","05","16","08:00","-9.6","","-11.9","","83","","","","32","","42","","9.7","","101.79","","","","-20","","Snow,Blowing Snow"
"-96.08","64.30","BAKER LAKE A","2300503","2018-05-16 09:00","2018","05","16","09:00","-8.7","","-11.4","","81","","","","31","","27","","16.1","","101.86","","","","-17","","Snow,Blowing Snow"
"-96.08","64.30","BAKER LAKE A","2300503","2018-05-16 10:00","2018","05","16","10:00","-8.1","","-11.1","","79","","","","33","","29","","16.1","","101.89","","","","-17","","Snow"
"-96.08","64.30","BAKER LAKE A","2300503","2018-05-16 11:00","2018","05","16","11:00","-8.1","","-11.4","","77","","","","33","","45","","16.1","","101.83","","","","-19","","Snow,Blowing Snow"
"-96.08","64.30","BAKER LAKE A","2300503","2018-05-16 12:00","2018","05","16","12:00","-8.1","","-10.8","","81","","","","33","","43","","16.1","","101.84","","","","-19","","Snow,Blowing Snow"
"-96.08","64.30","BAKER LAKE A","2300503","2018-05-16 13:00","2018","05","16","13:00","-7.9","","-10.7","","80","","","","32","","49","","8.1","","101.85","","","","-19","","Snow,Blowing Snow"
"-96.08","64.30","BAKER LAKE A","2300503","2018-05-16 14:00","2018","05","16","14:00","-7.5","","-10.6","","78","","","","33","","38","","24.1","","101.88","","","","-17","","Snow,Blowing Snow"
"-96.08","64.30","BAKER LAKE A","2300503","2018-05-16 15:00","2018","05","16","15:00","-7.6","","-10.6","","80","","","","32","","46","","3.2","","101.87","","","","-18","","Snow,Blowing Snow"
"-96.08","64.30","BAKER LAKE A","2300503","2018-05-16 16:00","2018","05","16","16:00","-7.5","","-10.3","","81","","","","32","","37","","4.8","","101.92","","","","-17","","Snow,Blowing Snow"
"-96.08","64.30","BAKER LAKE A","2300503","2018-05-16 17:00","2018","05","16","17:00","-8.4","","-11.0","","82","","","","33","","43","","11.3","","101.91","","","","-19","","Snow,Blowing Snow"
"-96.08","64.30","BAKER LAKE A","2300503","2018-05-16 18:00","2018","05","16","18:00","-8.4","","-11.6","","78","","","","33","","37","","16.1","","101.95","","","","-18","","Snow,Blowing Snow"
"-96.08","64.30","BAKER LAKE A","2300503","2018-05-16 19:00","2018","05","16","19:00","-8.9","","-11.4","","82","","","","33","","31","","24.1","","101.93","","","","-18","","Snow,Blowing Snow"
"-96.08","64.30","BAKER LAKE A","2300503","2018-05-16 20:00","2018","05","16","20:00","-9.4","","-12.8","","76","","","","33","","30","","40.2","","101.98","","","","-19","","Snow,Blowing Snow"
"-96.08","64.30","BAKER LAKE A","2300503","2018-05-16 21:00","2018","05","16","21:00","-9.5","","-12.7","","78","","","","32","","30","","24.1","","101.97","","","","-19","","Snow,Blowing Snow"
"-96.08","64.30","BAKER LAKE A","2300503","2018-05-16 22:00","2018","05","16","22:00","-9.7","","-12.8","","78","","","","32","","30","","24.1","","101.98","","","","-19","","Snow,Blowing Snow"
"-96.08","64.30","BAKER LAKE A","2300503","2018-05-16 23:00","2018","05","16","23:00","-9.9","","-13.0","","79","","","","32","","29","","24.1","","101.97","","","","-19","","Blowing Snow"
"-96.08","64.30","BAKER LAKE A","2300503","2018-05-17 00:00","2018","05","17","00:00","-10.2","","-13.2","","79","","","","31","","29","","24.1","","101.98","","","","-20","","Blowing Snow"
"-96.08","64.30","BAKER LAKE A","2300503","2018-05-17 01:00","2018","05","17","01:00","-10.3","","-13.3","","79","","","","31","","27","","24.1","","101.98","","","","-19","","Blowing Snow"
"-96.08","64.30","BAKER LAKE A","2300503","2018-05-17 02:00","2018","05","17","02:00","-10.4","","-13.3","","80","","","","32","","25","","24.1","","102.01","","","","-19","","Blowing Snow"
"-96.08","64.30","BAKER LAKE A","2300503","2018-05-17 03:00","2018","05","17","03:00","-10.5","","-13.4","","80","","","","31","","23","","24.1","","102.03","","","","-19","","Blowing Snow"
"-96.08","64.30","BAKER LAKE A","2300503","2018-05-17 04:00","2018","05","17","04:00","-10.7","","-13.5","","80","","","","32","","27","","24.1","","102.02","","","","-20","","Blowing Snow"
"-96.08","64.30","BAKER LAKE A","2300503","2018-05-17 05:00","2018","05","17","05:00","-10.6","","-13.8","","78","","","","32","","27","","24.1","","102.05","","","","-20","","Blowing Snow"
"-96.08","64.30","BAKER LAKE A","2300503","2018-05-17 06:00","2018","05","17","06:00","-10.5","","-13.7","","78","","","","33","","27","","24.1","","102.05","","","","-20","","Blowing Snow"
"-96.08","64.30","BAKER LAKE A","2300503","2018-05-17 07:00","2018","05","17","07:00","-10.1","","-13.4","","77","","","","33","","27","","24.1","","102.07","","","","-19","","Blowing Snow"
"-96.08","64.30","BAKER LAKE A","2300503","2018-05-17 08:00","2018","05","17","08:00","-9.8","","-13.2","","76","","","","33","","30","","32.2","","102.05","","","","-19","","Snow,Blowing Snow"
"-96.08","64.30","BAKER LAKE A","2300503","2018-05-17 09:00","2018","05","17","09:00","-9.4","","-12.7","","77","","","","31","","30","","16.1","","102.06","","","","-19","","Snow,Blowing Snow"
"-96.08","64.30","BAKER LAKE A","2300503","2018-05-17 10:00","2018","05","17","10:00","-9.3","","-13.5","","72","","","","32","","33","","16.1","","102.07","","","","-19","","Snow,Blowing Snow"
"-96.08","64.30","BAKER LAKE A","2300503","2018-05-17 11:00","2018","05","17","11:00","-8.7","","-12.8","","73","","","","32","","31","","16.1","","102.07","","","","-18","","Snow,Blowing Snow"
"-96.08","64.30","BAKER LAKE A","2300503","2018-05-17 12:00","2018","05","17","12:00","-7.9","","-11.7","","75","","","","31","","31","","24.1","","102.07","","","","-17","","Snow,Blowing Snow"
"-96.08","64.30","BAKER LAKE A","2300503","2018-05-17 13:00","2018","05","17","13:00","-8.0","","-12.0","","73","","","","31","","32","","24.1","","102.10","","","","-17","","Snow"
"-96.08","64.30","BAKER LAKE A","2300503","2018-05-17 14:00","2018","05","17","14:00","-7.9","","-12.2","","72","","","","32","","34","","24.1","","102.11","","","","-17","","Snow"
"-96.08","64.30","BAKER LAKE A","2300503","2018-05-17 15:00","2018","05","17","15:00","-8.0","","-11.9","","74","","","","33","","30","","24.1","","102.13","","","","-17","","Snow"
"-96.08","64.30","BAKER LAKE A","2300503","2018-05-17 16:00","2018","05","17","16:00","-7.9","","-11.4","","76","","","","32","","29","","24.1","","102.12","","","","-17","","Snow"
"-96.08","64.30","BAKER LAKE A","2300503","2018-05-17 17:00","2018","05","17","17:00","-8.1","","-11.7","","75","","","","32","","28","","24.1","","102.12","","","","-17","","Snow"
"-96.08","64.30","BAKER LAKE A","2300503","2018-05-17 18:00","2018","05","17","18:00","-8.1","","-11.2","","78","","","","32","","27","","24.1","","102.12","","","","-17","","Snow"
"-96.08","64.30","BAKER LAKE A","2300503","2018-05-17 19:00","2018","05","17","19:00","-8.3","","-11.4","","78","","","","31","","23","","24.1","","102.14","","","","-16","","Snow"
"-96.08","64.30","BAKER LAKE A","2300503","2018-05-17 20:00","2018","05","17","20:00","-8.6","","-11.7","","79","","","","31","","27","","16.1","","102.13","","","","-17","","Snow"
"-96.08","64.30","BAKER LAKE A","2300503","2018-05-17 21:00","2018","05","17","21:00","-8.9","","-11.7","","81","","","","31","","27","","24.1","","102.13","","","","-18","","Snow"
"-96.08","64.30","BAKER LAKE A","2300503","2018-05-17 22:00","2018","05","17","22:00","-9.4","","-12.1","","81","","","","31","","19","","24.1","","102.13","","","","-17","","Snow"
"-96.08","64.30","BAKER LAKE A","2300503","2018-05-17 23:00","2018","05","17","23:00","-10.5","","-12.9","","82","","","","31","","11","","24.1","","102.11","","","","-16","","Ice Crystals"
"-96.08","64.30","BAKER LAKE A","2300503","2018-05-18 00:00","2018","05","18","00:00","-10.7","","-13.0","","83","","","","29","","17","","24.1","","102.12","","","","-18","","Mostly Cloudy"
"-96.08","64.30","BAKER LAKE A","2300503","2018-05-18 01:00","2018","05","18","01:00","-11.2","","-13.3","","84","","","","28","","19","","24.1","","102.12","","","","-19","","NA"
"-96.08","64.30","BAKER LAKE A","2300503","2018-05-18 02:00","2018","05","18","02:00","-12.3","","-14.3","","85","","","","28","","16","","24.1","","102.12","","","","-20","","NA"
"-96.08","64.30","BAKER LAKE A","2300503","2018-05-18 03:00","2018","05","18","03:00","-13.2","","-15.2","","85","","","","28","","21","","24.1","","102.11","","","","-22","","Clear"
"-96.08","64.30","BAKER LAKE A","2300503","2018-05-18 04:00","2018","05","18","04:00","-12.7","","-14.9","","84","","","","29","","22","","24.1","","102.09","","","","-22","","NA"
"-96.08","64.30","BAKER LAKE A","2300503","2018-05-18 05:00","2018","05","18","05:00","-12.4","","-14.8","","82","","","","29","","19","","32.2","","102.11","","","","-21","","NA"
"-96.08","64.30","BAKER LAKE A","2300503","2018-05-18 06:00","2018","05","18","06:00","-12.6","","-15.2","","81","","","","29","","11","","24.1","","102.14","","","","-19","","Mainly Clear"
"-96.08","64.30","BAKER LAKE A","2300503","2018-05-18 07:00","2018","05","18","07:00","-12.0","","-14.7","","80","","","","33","","5","","24.1","","102.13","","","","-15","","NA"
"-96.08","64.30","BAKER LAKE A","2300503","2018-05-18 08:00","2018","05","18","08:00","-11.5","","-14.4","","79","","","","12","","4","","32.2","","102.10","","","","-14","","NA"
"-96.08","64.30","BAKER LAKE A","2300503","2018-05-18 09:00","2018","05","18","09:00","-11.4","","-14.2","","80","","","","18","","7","","32.2","","102.09","","","","-16","","Mainly Clear"
"-96.08","64.30","BAKER LAKE A","2300503","2018-05-18 10:00","2018","05","18","10:00","-9.0","","-12.3","","77","","","","26","","7","","32.2","","102.02","","","","-13","","NA"
"-96.08","64.30","BAKER LAKE A","2300503","2018-05-18 11:00","2018","05","18","11:00","-8.3","","-11.6","","77","","","","23","","11","","32.2","","102.02","","","","-14","","NA"
"-96.08","64.30","BAKER LAKE A","2300503","2018-05-18 12:00","2018","05","18","12:00","-6.2","","-9.7","","77","","","","25","","16","","32.2","","101.99","","","","-12","","Mainly Clear"
"-96.08","64.30","BAKER LAKE A","2300503","2018-05-18 13:00","2018","05","18","13:00","-5.1","","-8.8","","75","","","","29","","12","","32.2","","101.97","","","","-10","","NA"
"-96.08","64.30","BAKER LAKE A","2300503","2018-05-18 14:00","2018","05","18","14:00","-3.8","","-7.6","","75","","","","27","","9","","32.2","","101.94","","","","-8","","NA"
"-96.08","64.30","BAKER LAKE A","2300503","2018-05-18 15:00","2018","05","18","15:00","-3.3","","-7.3","","74","","","","26","","12","","32.2","","101.92","","","","-8","","Mainly Clear"
"-96.08","64.30","BAKER LAKE A","2300503","2018-05-18 16:00","2018","05","18","16:00","-2.9","","-6.8","","74","","","","24","","11","","32.2","","101.85","","","","-7","","NA"
"-96.08","64.30","BAKER LAKE A","2300503","2018-05-18 17:00","2018","05","18","17:00","-2.2","","-5.4","","79","","","","23","","17","","32.2","","101.78","","","","-8","","NA"
"-96.08","64.30","BAKER LAKE A","2300503","2018-05-18 18:00","2018","05","18","18:00","-2.0","","-5.5","","77","","","","22","","18","","32.2","","101.72","","","","-7","","Mainly Clear"
"-96.08","64.30","BAKER LAKE A","2300503","2018-05-18 19:00","2018","05","18","19:00","-2.1","","-6.2","","73","","","","24","","27","","32.2","","101.62","","","","-9","","NA"
"-96.08","64.30","BAKER LAKE A","2300503","2018-05-18 20:00","2018","05","18","20:00","-3.5","","-6.7","","78","","","","24","","23","","32.2","","101.58","","","","-10","","NA"
"-96.08","64.30","BAKER LAKE A","2300503","2018-05-18 21:00","2018","05","18","21:00","-5.0","","-8.0","","79","","","","24","","23","","32.2","","101.50","","","","-12","","Mainly Clear"
"-96.08","64.30","BAKER LAKE A","2300503","2018-05-18 22:00","2018","05","18","22:00","-5.0","","-8.6","","76","","","","20","","18","","32.2","","101.45","","","","-11","","NA"
"-96.08","64.30","BAKER LAKE A","2300503","2018-05-18 23:00","2018","05","18","23:00","-5.5","","-9.3","","75","","","","22","","20","","32.2","","101.36","","","","-12","","NA"
"-96.08","64.30","BAKER LAKE A","2300503","2018-05-19 00:00","2018","05","19","00:00","-4.6","","-8.2","","76","","","","24","","18","","32.2","","101.29","","","","-11","","Cloudy"
"-96.08","64.30","BAKER LAKE A","2300503","2018-05-19 01:00","2018","05","19","01:00","-2.9","","-7.2","","72","","","","24","","25","","32.2","","101.21","","","","-10","","NA"
"-96.08","64.30","BAKER LAKE A","2300503","2018-05-19 02:00","2018","05","19","02:00","-2.5","","-6.1","","77","","","","26","","25","","32.2","","101.12","","","","-9","","Snow"
"-96.08","64.30","BAKER LAKE A","2300503","2018-05-19 03:00","2018","05","19","03:00","-2.8","","-5.2","","84","","","","24","","13","","9.7","","101.09","","","","-7","","Snow"
"-96.08","64.30","BAKER LAKE A","2300503","2018-05-19 04:00","2018","05","19","04:00","-3.2","","-4.3","","92","","","","23","","15","","1.2","","100.95","","","","-8","","Snow"
"-96.08","64.30","BAKER LAKE A","2300503","2018-05-19 05:00","2018","05","19","05:00","-4.3","","-5.2","","93","","","","16","","3","","1.2","","100.85","","","","-6","","Snow"
"-96.08","64.30","BAKER LAKE A","2300503","2018-05-19 06:00","2018","05","19","06:00","-4.0","","-5.0","","93","","","","21","","10","","1.2","","100.75","","","","-8","","Snow"
"-96.08","64.30","BAKER LAKE A","2300503","2018-05-19 07:00","2018","05","19","07:00","-3.7","","-5.0","","91","","","","22","","6","","3.2","","100.72","","","","-6","","Snow"
"-96.08","64.30","BAKER LAKE A","2300503","2018-05-19 08:00","2018","05","19","08:00","-3.2","","-4.7","","89","","","","24","","4","","6.4","","100.71","","","","-5","","Snow"
"-96.08","64.30","BAKER LAKE A","2300503","2018-05-19 09:00","2018","05","19","09:00","-1.5","","-3.3","","87","","","","31","","4","","2.0","","100.71","","","","-3","","Snow"
"-96.08","64.30","BAKER LAKE A","2300503","2018-05-19 10:00","2018","05","19","10:00","-0.4","","-2.5","","86","","","","32","","24","","24.1","","100.68","","","","-6","","Snow"
"-96.08","64.30","BAKER LAKE A","2300503","2018-05-19 11:00","2018","05","19","11:00","-4.5","","-6.5","","86","","","","35","","52","","4.8","","100.77","","","","-14","","Snow,Blowing Snow"
"-96.08","64.30","BAKER LAKE A","2300503","2018-05-19 12:00","2018","05","19","12:00","-6.9","","-9.2","","84","","","","35","","61","","0.8","","100.86","","","","-18","","Freezing Rain,Snow,Blowing Snow"
"-96.08","64.30","BAKER LAKE A","2300503","2018-05-19 13:00","2018","05","19","13:00","-7.9","","-10.0","","85","","","","34","","48","","0.8","","101.02","","","","-19","","Freezing Rain,Snow,Blowing Snow"
"-96.08","64.30","BAKER LAKE A","2300503","2018-05-19 14:00","2018","05","19","14:00","-8.0","","-10.3","","84","","","","34","","59","","0.8","","101.05","","","","-20","","Freezing Rain,Snow,Blowing Snow"
"-96.08","64.30","BAKER LAKE A","2300503","2018-05-19 15:00","2018","05","19","15:00","-7.6","","-10.2","","81","","","","34","","56","","0.8","","101.12","","","","-19","","Freezing Rain,Snow,Blowing Snow"
"-96.08","64.30","BAKER LAKE A","2300503","2018-05-19 16:00","2018","05","19","16:00","-8.2","","-11.0","","80","","","","34","","42","","8.1","","101.25","","","","-19","","Snow,Blowing Snow"
"-96.08","64.30","BAKER LAKE A","2300503","2018-05-19 17:00","2018","05","19","17:00","-8.4","","-11.7","","78","","","","34","","44","","14.5","","101.30","","","","-19","","Blowing Snow"
"-96.08","64.30","BAKER LAKE A","2300503","2018-05-19 18:00","2018","05","19","18:00","-8.5","","-11.4","","80","","","","34","","36","","24.1","","101.34","","","","-18","","Blowing Snow"
"-96.08","64.30","BAKER LAKE A","2300503","2018-05-19 19:00","2018","05","19","19:00","-9.1","","-12.1","","79","","","","34","","36","","32.2","","101.37","","","","-19","","Blowing Snow"
"-96.08","64.30","BAKER LAKE A","2300503","2018-05-19 20:00","2018","05","19","20:00","-9.3","","-12.2","","79","","","","34","","29","","9.7","","101.40","","","","-18","","Snow,Blowing Snow"
"-96.08","64.30","BAKER LAKE A","2300503","2018-05-19 21:00","2018","05","19","21:00","-9.1","","-11.8","","81","","","","32","","30","","24.1","","101.40","","","","-18","","Snow,Blowing Snow"
"-96.08","64.30","BAKER LAKE A","2300503","2018-05-19 22:00","2018","05","19","22:00","-10.1","","-13.2","","78","","","","33","","33","","32.2","","101.44","","","","-20","","Snow,Blowing Snow"
"-96.08","64.30","BAKER LAKE A","2300503","2018-05-19 23:00","2018","05","19","23:00","-10.3","","-12.9","","82","","","","33","","39","","24.1","","101.46","","","","-21","","Snow,Blowing Snow"
"-96.08","64.30","BAKER LAKE A","2300503","2018-05-20 00:00","2018","05","20","00:00","-10.6","","-13.7","","78","","","","33","","34","","24.1","","101.49","","","","-21","","Snow,Blowing Snow"
"-96.08","64.30","BAKER LAKE A","2300503","2018-05-20 01:00","2018","05","20","01:00","-10.8","","-13.8","","78","","","","33","","25","","24.1","","101.52","","","","-20","","Snow,Blowing Snow"
"-96.08","64.30","BAKER LAKE A","2300503","2018-05-20 02:00","2018","05","20","02:00","-11.0","","-14.0","","79","","","","32","","34","","24.1","","101.52","","","","-21","","Snow,Blowing Snow"
"-96.08","64.30","BAKER LAKE A","2300503","2018-05-20 03:00","2018","05","20","03:00","-10.9","","-13.7","","80","","","","31","","28","","32.2","","101.50","","","","-20","","Snow,Blowing Snow"
"-96.08","64.30","BAKER LAKE A","2300503","2018-05-20 04:00","2018","05","20","04:00","-10.8","","-13.6","","80","","","","31","","29","","32.2","","101.48","","","","-20","","Snow,Blowing Snow"
"-96.08","64.30","BAKER LAKE A","2300503","2018-05-20 05:00","2018","05","20","05:00","-10.7","","-13.8","","78","","","","32","","19","","32.2","","101.49","","","","-19","","NA"
"-96.08","64.30","BAKER LAKE A","2300503","2018-05-20 06:00","2018","05","20","06:00","-10.4","","-13.2","","81","","","","32","","27","","24.1","","101.47","","","","-20","","Snow"
"-96.08","64.30","BAKER LAKE A","2300503","2018-05-20 07:00","2018","05","20","07:00","-9.9","","-12.7","","81","","","","31","","28","","24.1","","101.47","","","","-19","","Snow"
"-96.08","64.30","BAKER LAKE A","2300503","2018-05-20 08:00","2018","05","20","08:00","-9.5","","-12.4","","80","","","","31","","37","","16.1","","101.46","","","","-20","","Snow"
"-96.08","64.30","BAKER LAKE A","2300503","2018-05-20 09:00","2018","05","20","09:00","-9.2","","-12.0","","80","","","","31","","37","","8.1","","101.47","","","","-19","","Snow,Blowing Snow"
"-96.08","64.30","BAKER LAKE A","2300503","2018-05-20 10:00","2018","05","20","10:00","-8.7","","-11.8","","79","","","","31","","35","","19.3","","101.45","","","","-18","","Snow,Blowing Snow"
"-96.08","64.30","BAKER LAKE A","2300503","2018-05-20 11:00","2018","05","20","11:00","-8.2","","-11.2","","79","","","","30","","34","","20.9","","101.45","","","","-18","","Snow,Blowing Snow"
"-96.08","64.30","BAKER LAKE A","2300503","2018-05-20 12:00","2018","05","20","12:00","-7.8","","-11.0","","78","","","","31","","33","","32.2","","101.45","","","","-17","","Snow,Blowing Snow"
"-96.08","64.30","BAKER LAKE A","2300503","2018-05-20 13:00","2018","05","20","13:00","-7.0","","-10.6","","76","","","","31","","35","","40.2","","101.46","","","","-16","","Snow,Blowing Snow"
"-96.08","64.30","BAKER LAKE A","2300503","2018-05-20 14:00","2018","05","20","14:00","-6.8","","-10.6","","75","","","","31","","36","","40.2","","101.49","","","","-16","","NA"
"-96.08","64.30","BAKER LAKE A","2300503","2018-05-20 15:00","2018","05","20","15:00","-6.2","","-9.9","","75","","","","31","","30","","40.2","","101.49","","","","-15","","Mostly Cloudy"
"-96.08","64.30","BAKER LAKE A","2300503","2018-05-20 16:00","2018","05","20","16:00","-6.3","","-9.7","","77","","","","32","","32","","40.2","","101.49","","","","-15","","NA"
"-96.08","64.30","BAKER LAKE A","2300503","2018-05-20 17:00","2018","05","20","17:00","-6.6","","-9.8","","78","","","","32","","30","","40.2","","101.51","","","","-15","","NA"
"-96.08","64.30","BAKER LAKE A","2300503","2018-05-20 18:00","2018","05","20","18:00","-6.7","","-9.9","","78","","","","30","","27","","40.2","","101.52","","","","-15","","Mostly Cloudy"
"-96.08","64.30","BAKER LAKE A","2300503","2018-05-20 19:00","2018","05","20","19:00","-7.3","","-10.2","","80","","","","32","","30","","40.2","","101.51","","","","-16","","Snow,Blowing Snow"
"-96.08","64.30","BAKER LAKE A","2300503","2018-05-20 20:00","2018","05","20","20:00","-7.9","","-10.7","","81","","","","32","","28","","32.2","","101.50","","","","-17","","Snow,Blowing Snow"
"-96.08","64.30","BAKER LAKE A","2300503","2018-05-20 21:00","2018","05","20","21:00","-7.7","","-10.5","","80","","","","29","","22","","32.2","","101.46","","","","-15","","Snow,Blowing Snow"
"-96.08","64.30","BAKER LAKE A","2300503","2018-05-20 22:00","2018","05","20","22:00","-7.5","","-9.8","","83","","","","31","","25","","16.1","","101.47","","","","-16","","Snow,Blowing Snow"
"-96.08","64.30","BAKER LAKE A","2300503","2018-05-20 23:00","2018","05","20","23:00","-8.1","","-10.6","","82","","","","31","","27","","24.1","","101.47","","","","-17","","Snow,Blowing Snow"
"-96.08","64.30","BAKER LAKE A","2300503","2018-05-21 00:00","2018","05","21","00:00","-8.1","","-10.7","","82","","","","31","","18","","24.1","","101.51","","","","-15","","Snow"
"-96.08","64.30","BAKER LAKE A","2300503","2018-05-21 01:00","2018","05","21","01:00","-8.4","","-11.0","","82","","","","32","","23","","24.1","","101.52","","","","-16","","Snow"
"-96.08","64.30","BAKER LAKE A","2300503","2018-05-21 02:00","2018","05","21","02:00","-8.6","","-10.9","","84","","","","31","","23","","32.2","","101.55","","","","-17","","Snow"
"-96.08","64.30","BAKER LAKE A","2300503","2018-05-21 03:00","2018","05","21","03:00","-8.6","","-11.0","","83","","","","32","","22","","32.2","","101.58","","","","-16","","Snow"
"-96.08","64.30","BAKER LAKE A","2300503","2018-05-21 04:00","2018","05","21","04:00","-8.6","","-10.8","","84","","","","31","","18","","32.2","","101.63","","","","-16","","Snow"
"-96.08","64.30","BAKER LAKE A","2300503","2018-05-21 05:00","2018","05","21","05:00","-8.3","","-10.6","","83","","","","31","","15","","32.2","","101.66","","","","-15","","Snow"
"-96.08","64.30","BAKER LAKE A","2300503","2018-05-21 06:00","2018","05","21","06:00","-8.0","","-10.5","","82","","","","33","","21","","32.2","","101.70","","","","-16","","Snow"
"-96.08","64.30","BAKER LAKE A","2300503","2018-05-21 07:00","2018","05","21","07:00","-7.6","","-10.2","","81","","","","33","","21","","24.1","","101.72","","","","-15","","Snow"
"-96.08","64.30","BAKER LAKE A","2300503","2018-05-21 08:00","2018","05","21","08:00","-6.9","","-9.8","","80","","","","33","","18","","24.1","","101.77","","","","-14","","Snow"
"-96.08","64.30","BAKER LAKE A","2300503","2018-05-21 09:00","2018","05","21","09:00","-6.4","","-9.5","","79","","","","34","","16","","40.2","","101.79","","","","-13","","Snow"
"-96.08","64.30","BAKER LAKE A","2300503","2018-05-21 10:00","2018","05","21","10:00","-5.5","","-8.8","","78","","","","32","","20","","40.2","","101.82","","","","-12","","Snow"
"-96.08","64.30","BAKER LAKE A","2300503","2018-05-21 11:00","2018","05","21","11:00","-4.9","","-8.4","","76","","","","35","","17","","40.2","","101.83","","","","-11","","Snow"
"-96.08","64.30","BAKER LAKE A","2300503","2018-05-21 12:00","2018","05","21","12:00","-4.5","","-8.5","","74","","","","34","","16","","40.2","","101.87","","","","-10","","Snow"
"-96.08","64.30","BAKER LAKE A","2300503","2018-05-21 13:00","2018","05","21","13:00","-4.0","","-7.9","","74","","","","34","","19","","40.2","","101.92","","","","-10","","Snow"
"-96.08","64.30","BAKER LAKE A","2300503","2018-05-21 14:00","2018","05","21","14:00","-3.7","","-7.8","","73","","","","35","","15","","40.2","","101.93","","","","-9","","Snow"
"-96.08","64.30","BAKER LAKE A","2300503","2018-05-21 15:00","2018","05","21","15:00","-3.6","","-8.6","","69","","","","34","","20","","40.2","","101.96","","","","-10","","Snow"
"-96.08","64.30","BAKER LAKE A","2300503","2018-05-21 16:00","2018","05","21","16:00","-3.8","","-8.4","","70","","","","34","","22","","40.2","","101.98","","","","-10","","Snow"
"-96.08","64.30","BAKER LAKE A","2300503","2018-05-21 17:00","2018","05","21","17:00","-4.2","","-9.9","","65","","","","34","","23","","40.2","","101.98","","","","-11","","NA"
"-96.08","64.30","BAKER LAKE A","2300503","2018-05-21 18:00","2018","05","21","18:00","-4.5","","-9.5","","68","","","","34","","18","","40.2","","101.99","","","","-11","","Mostly Cloudy"
"-96.08","64.30","BAKER LAKE A","2300503","2018-05-21 19:00","2018","05","21","19:00","-4.7","","-9.0","","72","","","","31","","15","","40.2","","102.02","","","","-10","","NA"
"-96.08","64.30","BAKER LAKE A","2300503","2018-05-21 20:00","2018","05","21","20:00","-5.0","","-8.9","","74","","","","31","","8","","32.2","","102.05","","","","-9","","NA"
"-96.08","64.30","BAKER LAKE A","2300503","2018-05-21 21:00","2018","05","21","21:00","-5.3","","-8.8","","76","","","","30","","9","","32.2","","102.04","","","","-9","","Snow"
"-96.08","64.30","BAKER LAKE A","2300503","2018-05-21 22:00","2018","05","21","22:00","-5.7","","-8.7","","79","","","","27","","7","","32.2","","102.04","","","","-9","","Snow"
"-96.08","64.30","BAKER LAKE A","2300503","2018-05-21 23:00","2018","05","21","23:00","-5.6","","-8.8","","78","","","","26","","10","","32.2","","102.07","","","","-10","","Snow"
"-96.08","64.30","BAKER LAKE A","2300503","2018-05-22 00:00","2018","05","22","00:00","-5.9","","-8.6","","81","","","","27","","10","","32.2","","102.08","","","","-10","","Snow"
"-96.08","64.30","BAKER LAKE A","2300503","2018-05-22 01:00","2018","05","22","01:00","-6.1","","-8.3","","84","","","","28","","13","","32.2","","102.09","","","","-11","","Snow"
"-96.08","64.30","BAKER LAKE A","2300503","2018-05-22 02:00","2018","05","22","02:00","-6.2","","-9.2","","79","","","","27","","13","","32.2","","102.09","","","","-12","","Snow"
"-96.08","64.30","BAKER LAKE A","2300503","2018-05-22 03:00","2018","05","22","03:00","-6.4","","-9.5","","79","","","","28","","12","","32.2","","102.09","","","","-12","","Snow"
"-96.08","64.30","BAKER LAKE A","2300503","2018-05-22 04:00","2018","05","22","04:00","-6.2","","-9.5","","77","","","","27","","10","","32.2","","102.12","","","","-11","","Snow"
"-96.08","64.30","BAKER LAKE A","2300503","2018-05-22 05:00","2018","05","22","05:00","-5.9","","-9.8","","74","","","","26","","10","","32.2","","102.11","","","","-10","","Snow"
"-96.08","64.30","BAKER LAKE A","2300503","2018-05-22 06:00","2018","05","22","06:00","-5.7","","-9.6","","74","","","","25","","9","","32.2","","102.13","","","","-10","","Snow"
"-96.08","64.30","BAKER LAKE A","2300503","2018-05-22 07:00","2018","05","22","07:00","-5.4","","-9.8","","72","","","","24","","12","","32.2","","102.15","","","","-10","","Snow"
"-96.08","64.30","BAKER LAKE A","2300503","2018-05-22 08:00","2018","05","22","08:00","-5.5","","-8.8","","78","","","","22","","9","","32.2","","102.12","","","","-10","","Snow"
"-96.08","64.30","BAKER LAKE A","2300503","2018-05-22 09:00","2018","05","22","09:00","-4.9","","-8.9","","74","","","","23","","13","","32.2","","102.07","","","","-10","","Snow"
"-96.08","64.30","BAKER LAKE A","2300503","2018-05-22 10:00","2018","05","22","10:00","-4.8","","-8.8","","73","","","","20","","15","","40.2","","102.00","","","","-10","","Snow"
"-96.08","64.30","BAKER LAKE A","2300503","2018-05-22 11:00","2018","05","22","11:00","-4.5","","-8.8","","72","","","","21","","15","","40.2","","101.99","","","","-10","","Snow"
"-96.08","64.30","BAKER LAKE A","2300503","2018-05-22 12:00","2018","05","22","12:00","-4.5","","-9.0","","71","","","","20","","13","","40.2","","101.96","","","","-10","","Snow"
"-96.08","64.30","BAKER LAKE A","2300503","2018-05-22 13:00","2018","05","22","13:00","-4.5","","-8.2","","75","","","","17","","17","","40.2","","101.89","","","","-10","","Snow"
"-96.08","64.30","BAKER LAKE A","2300503","2018-05-22 14:00","2018","05","22","14:00","-4.1","","-7.9","","75","","","","18","","19","","40.2","","101.85","","","","-10","","Snow"
"-96.08","64.30","BAKER LAKE A","2300503","2018-05-22 15:00","2018","05","22","15:00","-4.2","","-8.0","","75","","","","17","","20","","40.2","","101.80","","","","-11","","Cloudy"
"-96.08","64.30","BAKER LAKE A","2300503","2018-05-22 16:00","2018","05","22","16:00","-4.2","","-7.4","","78","","","","17","","22","","40.2","","101.71","","","","-11","","NA"
"-96.08","64.30","BAKER LAKE A","2300503","2018-05-22 17:00","2018","05","22","17:00","-4.9","","-6.4","","89","","","","15","","26","","1.6","","101.61","","","","-12","","Snow"
"-96.08","64.30","BAKER LAKE A","2300503","2018-05-22 18:00","2018","05","22","18:00","-5.1","","-6.5","","90","","","","15","","27","","1.6","","101.53","","","","-13","","Snow,Blowing Snow"
"-96.08","64.30","BAKER LAKE A","2300503","2018-05-22 19:00","2018","05","22","19:00","-5.2","","-6.3","","92","","","","14","","27","","1.2","","101.48","","","","-13","","Snow,Blowing Snow"
"-96.08","64.30","BAKER LAKE A","2300503","2018-05-22 20:00","2018","05","22","20:00","-5.2","","-6.3","","92","","","","14","","27","","2.4","","101.41","","","","-13","","Snow,Blowing Snow"
"-96.08","64.30","BAKER LAKE A","2300503","2018-05-22 21:00","2018","05","22","21:00","-5.3","","-6.3","","93","","","","12","","30","","2.4","","101.29","","","","-13","","Snow,Blowing Snow"
"-96.08","64.30","BAKER LAKE A","2300503","2018-05-22 22:00","2018","05","22","22:00","-5.3","","-6.3","","93","","","","12","","28","","1.0","","101.24","","","","-13","","Snow,Blowing Snow"
"-96.08","64.30","BAKER LAKE A","2300503","2018-05-22 23:00","2018","05","22","23:00","-5.3","","-6.4","","92","","","","12","","33","","16.1","","101.17","","","","-14","","Snow,Blowing Snow"
"-96.08","64.30","BAKER LAKE A","2300503","2018-05-23 00:00","2018","05","23","00:00","-5.2","","-6.4","","91","","","","11","","35","","16.1","","101.03","","","","-14","","Snow,Blowing Snow"
"-96.08","64.30","BAKER LAKE A","2300503","2018-05-23 01:00","2018","05","23","01:00","-5.0","","-6.2","","91","","","","12","","39","","16.1","","100.95","","","","-14","","Snow,Blowing Snow"
"-96.08","64.30","BAKER LAKE A","2300503","2018-05-23 02:00","2018","05","23","02:00","-5.0","","-6.1","","92","","","","11","","40","","16.1","","100.83","","","","-14","","Snow,Blowing Snow"
"-96.08","64.30","BAKER LAKE A","2300503","2018-05-23 03:00","2018","05","23","03:00","-4.9","","-6.0","","92","","","","11","","36","","16.1","","100.76","","","","-14","","Snow,Blowing Snow"
"-96.08","64.30","BAKER LAKE A","2300503","2018-05-23 04:00","2018","05","23","04:00","-4.8","","-5.8","","92","","","","11","","39","","24.1","","100.70","","","","-14","","Snow,Blowing Snow"
"-96.08","64.30","BAKER LAKE A","2300503","2018-05-23 05:00","2018","05","23","05:00","-4.6","","-5.6","","92","","","","11","","36","","24.1","","100.63","","","","-13","","Snow,Blowing Snow"
"-96.08","64.30","BAKER LAKE A","2300503","2018-05-23 06:00","2018","05","23","06:00","-4.0","","-5.1","","92","","","","11","","38","","32.2","","100.61","","","","-13","","Snow,Blowing Snow"
"-96.08","64.30","BAKER LAKE A","2300503","2018-05-23 07:00","2018","05","23","07:00","-3.5","","-4.7","","92","","","","11","","37","","32.2","","100.55","","","","-12","","Snow,Blowing Snow"
"-96.08","64.30","BAKER LAKE A","2300503","2018-05-23 08:00","2018","05","23","08:00","-3.0","","-4.2","","91","","","","10","","35","","24.1","","100.51","","","","-11","","Snow,Blowing Snow"
"-96.08","64.30","BAKER LAKE A","2300503","2018-05-23 09:00","2018","05","23","09:00","-2.3","","-3.7","","90","","","","11","","32","","24.1","","100.49","","","","-10","","Snow,Blowing Snow"
"-96.08","64.30","BAKER LAKE A","2300503","2018-05-23 10:00","2018","05","23","10:00","-1.8","","-3.2","","90","","","","12","","33","","24.1","","100.46","","","","-9","","Snow,Blowing Snow"
"-96.08","64.30","BAKER LAKE A","2300503","2018-05-23 11:00","2018","05","23","11:00","-1.3","","-2.8","","90","","","","12","","31","","24.1","","100.47","","","","-8","","Blowing Snow"
"-96.08","64.30","BAKER LAKE A","2300503","2018-05-23 12:00","2018","05","23","12:00","-0.9","","-2.5","","89","","","","12","","31","","24.1","","100.45","","","","-8","","Cloudy"
"-96.08","64.30","BAKER LAKE A","2300503","2018-05-23 13:00","2018","05","23","13:00","-0.4","","-1.9","","90","","","","12","","25","","24.1","","100.45","","","","-6","","NA"
"-96.08","64.30","BAKER LAKE A","2300503","2018-05-23 14:00","2018","05","23","14:00","-0.3","","-1.8","","89","","","","12","","26","","24.1","","100.46","","","","-6","","NA"
"-96.08","64.30","BAKER LAKE A","2300503","2018-05-23 15:00","2018","05","23","15:00","-0.3","","-1.6","","91","","","","10","","18","","8.1","","100.52","","","","-5","","Snow"
"-96.08","64.30","BAKER LAKE A","2300503","2018-05-23 16:00","2018","05","23","16:00","-0.4","","-1.4","","93","","","","10","","21","","24.1","","100.48","","","","-6","","Freezing Rain"
"-96.08","64.30","BAKER LAKE A","2300503","2018-05-23 17:00","2018","05","23","17:00","-0.3","","-1.6","","91","","","","11","","26","","24.1","","100.42","","","","-6","","NA"
"-96.08","64.30","BAKER LAKE A","2300503","2018-05-23 18:00","2018","05","23","18:00","-0.3","","-1.6","","91","","","","10","","11","","40.2","","100.56","","","","-4","","Mostly Cloudy"
"-96.08","64.30","BAKER LAKE A","2300503","2018-05-23 19:00","2018","05","23","19:00","-0.3","","-1.4","","92","","","","13","","10","","24.1","","100.56","","","","-4","","NA"
"-96.08","64.30","BAKER LAKE A","2300503","2018-05-23 20:00","2018","05","23","20:00","-0.4","","-1.5","","92","","","","11","","9","","32.2","","100.54","","","","-4","","NA"
"-96.08","64.30","BAKER LAKE A","2300503","2018-05-23 21:00","2018","05","23","21:00","-0.4","","-1.4","","93","","","","9","","8","","32.2","","100.57","","","","-3","","Cloudy"
"-96.08","64.30","BAKER LAKE A","2300503","2018-05-23 22:00","2018","05","23","22:00","-0.7","","-1.3","","95","","","","10","","12","","32.2","","100.55","","","","-5","","NA"
"-96.08","64.30","BAKER LAKE A","2300503","2018-05-23 23:00","2018","05","23","23:00","-0.8","","-1.5","","95","","","","9","","8","","32.2","","100.61","","","","-4","","NA"
"-96.08","64.30","BAKER LAKE A","2300503","2018-05-24 00:00","2018","05","24","00:00","-1.0","","-1.6","","95","","","","9","","8","","24.1","","100.63","","","","-4","","Cloudy"
"-96.08","64.30","BAKER LAKE A","2300503","2018-05-24 01:00","2018","05","24","01:00","-1.1","","-1.9","","94","","","","2","","6","","24.1","","100.68","","","","-3","","NA"
"-96.08","64.30","BAKER LAKE A","2300503","2018-05-24 02:00","2018","05","24","02:00","-1.3","","-2.2","","94","","","","4","","4","","32.2","","100.73","","","","-3","","NA"
"-96.08","64.30","BAKER LAKE A","2300503","2018-05-24 03:00","2018","05","24","03:00","-1.3","","-2.4","","93","","","","36","","2","","32.2","","100.77","","","","-2","","Cloudy"
"-96.08","64.30","BAKER LAKE A","2300503","2018-05-24 04:00","2018","05","24","04:00","-1.2","","-2.4","","91","","","","35","","4","","32.2","","100.82","","","","-3","","NA"
"-96.08","64.30","BAKER LAKE A","2300503","2018-05-24 05:00","2018","05","24","05:00","-1.4","","-2.4","","93","","","","33","","7","","16.1","","100.88","","","","-4","","NA"
"-96.08","64.30","BAKER LAKE A","2300503","2018-05-24 06:00","2018","05","24","06:00","-1.3","","-2.2","","93","","","","35","","9","","16.1","","100.96","","","","-5","","Freezing Drizzle"
"-96.08","64.30","BAKER LAKE A","2300503","2018-05-24 07:00","2018","05","24","07:00","-0.6","","-1.7","","92","","","","35","","11","","24.1","","100.99","","","","-4","","Snow Grains"
"-96.08","64.30","BAKER LAKE A","2300503","2018-05-24 08:00","2018","05","24","08:00","-0.2","","-1.8","","89","","","","34","","17","","40.2","","101.07","","","","-5","","NA"
"-96.08","64.30","BAKER LAKE A","2300503","2018-05-24 09:00","2018","05","24","09:00","0.1","","-1.7","","88","","","","35","","21","","40.2","","101.12","","","","","","Cloudy"
"-96.08","64.30","BAKER LAKE A","2300503","2018-05-24 10:00","2018","05","24","10:00","0.6","","-1.3","","87","","","","36","","22","","40.2","","101.18","","","","","","NA"
"-96.08","64.30","BAKER LAKE A","2300503","2018-05-24 11:00","2018","05","24","11:00","1.4","","-1.8","","79","","","","1","","21","","40.2","","101.28","","","","","","NA"
"-96.08","64.30","BAKER LAKE A","2300503","2018-05-24 12:00","2018","05","24","12:00","0.8","","-2.5","","79","","","","36","","22","","40.2","","101.40","","","","","","Cloudy"
"-96.08","64.30","BAKER LAKE A","2300503","2018-05-24 13:00","2018","05","24","13:00","0.5","","-2.4","","81","","","","36","","30","","40.2","","101.46","","","","","","NA"
"-96.08","64.30","BAKER LAKE A","2300503","2018-05-24 14:00","2018","05","24","14:00","0.2","","-2.3","","83","","","","35","","35","","40.2","","101.56","","","","","","NA"
"-96.08","64.30","BAKER LAKE A","2300503","2018-05-24 15:00","2018","05","24","15:00","-1.0","","-3.8","","81","","","","36","","34","","40.2","","101.66","","","","-8","","Mostly Cloudy"
"-96.08","64.30","BAKER LAKE A","2300503","2018-05-24 16:00","2018","05","24","16:00","-1.8","","-4.9","","80","","","","36","","38","","40.2","","101.72","","","","-10","","NA"
"-96.08","64.30","BAKER LAKE A","2300503","2018-05-24 17:00","2018","05","24","17:00","-2.5","","-5.4","","80","","","","36","","32","","40.2","","101.82","","","","-10","","NA"
"-96.08","64.30","BAKER LAKE A","2300503","2018-05-24 18:00","2018","05","24","18:00","-4.4","","-7.5","","79","","","","36","","32","","40.2","","101.86","","","","-12","","Mostly Cloudy"
"-96.08","64.30","BAKER LAKE A","2300503","2018-05-24 19:00","2018","05","24","19:00","-5.2","","-8.5","","78","","","","36","","35","","40.2","","101.91","","","","-14","","NA"
"-96.08","64.30","BAKER LAKE A","2300503","2018-05-24 20:00","2018","05","24","20:00","-5.8","","-9.0","","79","","","","1","","25","","24.1","","101.97","","","","-13","","NA"
"-96.08","64.30","BAKER LAKE A","2300503","2018-05-24 21:00","2018","05","24","21:00","-6.3","","-9.4","","78","","","","2","","25","","24.1","","102.01","","","","-14","","Mostly Cloudy"
"-96.08","64.30","BAKER LAKE A","2300503","2018-05-24 22:00","2018","05","24","22:00","-7.2","","-9.9","","81","","","","35","","21","","24.1","","102.07","","","","-15","","NA"
"-96.08","64.30","BAKER LAKE A","2300503","2018-05-24 23:00","2018","05","24","23:00","-8.0","","-10.6","","82","","","","36","","18","","16.1","","102.13","","","","-15","","NA"
"-96.08","64.30","BAKER LAKE A","2300503","2018-05-25 00:00","2018","05","25","00:00","-9.2","","-11.6","","83","","","","34","","21","","16.1","","102.18","","","","-17","","Mainly Clear"
"-96.08","64.30","BAKER LAKE A","2300503","2018-05-25 01:00","2018","05","25","01:00","-11.2","","-13.5","","83","","","","34","","19","","16.1","","102.20","","","","-19","","NA"
"-96.08","64.30","BAKER LAKE A","2300503","2018-05-25 02:00","2018","05","25","02:00","-11.9","","-14.1","","84","","","","35","","26","","24.1","","102.20","","","","-21","","NA"
"-96.08","64.30","BAKER LAKE A","2300503","2018-05-25 03:00","2018","05","25","03:00","-13.0","","-15.4","","82","","","","36","","26","","24.1","","102.12","","","","-23","","Clear"
"-96.08","64.30","BAKER LAKE A","2300503","2018-05-25 04:00","2018","05","25","04:00","-13.0","","-15.6","","81","","","","35","","18","","24.1","","102.18","","","","-21","","NA"
"-96.08","64.30","BAKER LAKE A","2300503","2018-05-25 05:00","2018","05","25","05:00","-12.1","","-14.9","","80","","","","34","","19","","24.1","","102.21","","","","-20","","NA"
"-96.08","64.30","BAKER LAKE A","2300503","2018-05-25 06:00","2018","05","25","06:00","-11.7","","-14.8","","78","","","","34","","21","","24.1","","102.25","","","","-20","","Clear"
"-96.08","64.30","BAKER LAKE A","2300503","2018-05-25 07:00","2018","05","25","07:00","-10.8","","-14.3","","76","","","","36","","19","","24.1","","102.23","","","","-19","","NA"
"-96.08","64.30","BAKER LAKE A","2300503","2018-05-25 08:00","2018","05","25","08:00","-9.9","","-13.4","","76","","","","36","","11","","40.2","","102.19","","","","-15","","NA"
"-96.08","64.30","BAKER LAKE A","2300503","2018-05-25 09:00","2018","05","25","09:00","-8.3","","-12.2","","74","","","","5","","8","","40.2","","102.16","","","","-12","","Clear"
"-96.08","64.30","BAKER LAKE A","2300503","2018-05-25 10:00","2018","05","25","10:00","-7.9","","-11.5","","75","","","","12","","3","","40.2","","102.12","","","","-9","","NA"
"-96.08","64.30","BAKER LAKE A","2300503","2018-05-25 11:00","2018","05","25","11:00","-7.3","","-10.7","","77","","","","14","","11","","40.2","","102.09","","","","-12","","NA"
"-96.08","64.30","BAKER LAKE A","2300503","2018-05-25 12:00","2018","05","25","12:00","-7.0","","-10.3","","77","","","","9","","4","","40.2","","102.08","","","","-9","","Mostly Cloudy"
"-96.08","64.30","BAKER LAKE A","2300503","2018-05-25 13:00","2018","05","25","13:00","-6.0","","-8.8","","81","","","","9","","9","","40.2","","102.01","","","","-10","","NA"
"-96.08","64.30","BAKER LAKE A","2300503","2018-05-25 14:00","2018","05","25","14:00","-5.4","","-8.4","","79","","","","13","","10","","40.2","","101.96","","","","-10","","NA"
"-96.08","64.30","BAKER LAKE A","2300503","2018-05-25 15:00","2018","05","25","15:00","-4.9","","-7.8","","80","","","","13","","18","","40.2","","101.88","","","","-11","","Cloudy"
"-96.08","64.30","BAKER LAKE A","2300503","2018-05-25 16:00","2018","05","25","16:00","-4.6","","-7.2","","82","","","","13","","17","","40.2","","101.84","","","","-10","","NA"
"-96.08","64.30","BAKER LAKE A","2300503","2018-05-25 17:00","2018","05","25","17:00","-3.8","","-6.1","","84","","","","12","","21","","40.2","","101.69","","","","-10","","NA"
"-96.08","64.30","BAKER LAKE A","2300503","2018-05-25 18:00","2018","05","25","18:00","-3.1","","-5.2","","85","","","","12","","18","","40.2","","101.67","","","","-9","","Cloudy"
"-96.08","64.30","BAKER LAKE A","2300503","2018-05-25 19:00","2018","05","25","19:00","-2.8","","-4.4","","89","","","","12","","22","","40.2","","101.65","","","","-9","","NA"
"-96.08","64.30","BAKER LAKE A","2300503","2018-05-25 20:00","2018","05","25","20:00","-2.2","","-3.6","","90","","","","13","","24","","40.2","","101.57","","","","-9","","NA"
"-96.08","64.30","BAKER LAKE A","2300503","2018-05-25 21:00","2018","05","25","21:00","-2.4","","-3.9","","90","","","","13","","28","","24.1","","101.48","","","","-9","","Cloudy"
"-96.08","64.30","BAKER LAKE A","2300503","2018-05-25 22:00","2018","05","25","22:00","-2.7","","-3.9","","91","","","","11","","26","","40.2","","101.36","","","","-10","","NA"
"-96.08","64.30","BAKER LAKE A","2300503","2018-05-25 23:00","2018","05","25","23:00","-3.0","","-3.8","","94","","","","12","","31","","1.2","","101.30","","","","-11","","Snow,Snow Grains,Blowing Snow"
"-96.08","64.30","BAKER LAKE A","2300503","2018-05-26 00:00","2018","05","26","00:00","-3.4","","-4.0","","95","","","","11","","30","","1.2","","101.15","","","","-11","","Snow,Snow Grains,Blowing Snow"
"-96.08","64.30","BAKER LAKE A","2300503","2018-05-26 01:00","2018","05","26","01:00","-2.6","","-3.3","","95","","","","14","","35","","1.2","","101.11","","","","-10","","Snow,Snow Grains,Blowing Snow"
"-96.08","64.30","BAKER LAKE A","2300503","2018-05-26 02:00","2018","05","26","02:00","-2.8","","-3.4","","95","","","","13","","36","","1.2","","101.01","","","","-11","","Snow,Snow Grains,Blowing Snow"
"-96.08","64.30","BAKER LAKE A","2300503","2018-05-26 03:00","2018","05","26","03:00","-2.9","","-3.6","","94","","","","13","","39","","1.2","","100.91","","","","-11","","Snow,Snow Grains,Blowing Snow"
"-96.08","64.30","BAKER LAKE A","2300503","2018-05-26 04:00","2018","05","26","04:00","-2.4","","-3.2","","94","","","","14","","44","","12.9","","100.78","","","","-11","","Freezing Rain,Snow Pellets"
"-96.08","64.30","BAKER LAKE A","2300503","2018-05-26 05:00","2018","05","26","05:00","-2.6","","-3.6","","93","","","","14","","44","","14.5","","100.69","","","","-11","","Freezing Rain,Snow Pellets"
"-96.08","64.30","BAKER LAKE A","2300503","2018-05-26 06:00","2018","05","26","06:00","-2.5","","-3.4","","94","","","","14","","33","","6.4","","100.63","","","","-10","","Freezing Rain,Snow Grains,Blowing Snow"
"-96.08","64.30","BAKER LAKE A","2300503","2018-05-26 07:00","2018","05","26","07:00","-1.9","","-2.9","","93","","","","14","","33","","6.4","","100.50","","","","-9","","Freezing Drizzle"
"-96.08","64.30","BAKER LAKE A","2300503","2018-05-26 08:00","2018","05","26","08:00","-1.4","","-2.5","","92","","","","14","","30","","9.7","","100.43","","","","-8","","Freezing Drizzle"
"-96.08","64.30","BAKER LAKE A","2300503","2018-05-26 09:00","2018","05","26","09:00","-0.7","","-2.0","","91","","","","15","","26","","32.2","","100.33","","","","-7","","Cloudy"
"-96.08","64.30","BAKER LAKE A","2300503","2018-05-26 10:00","2018","05","26","10:00","0.0","","-1.3","","91","","","","15","","23","","32.2","","100.22","","","","-6","","NA"
"-96.08","64.30","BAKER LAKE A","2300503","2018-05-26 11:00","2018","05","26","11:00","0.1","","-1.0","","92","","","","16","","28","","24.1","","100.15","","","","","","NA"
"-96.08","64.30","BAKER LAKE A","2300503","2018-05-26 12:00","2018","05","26","12:00","0.5","","-1.0","","90","","","","16","","31","","24.1","","100.07","","","","","","Cloudy"
"-96.08","64.30","BAKER LAKE A","2300503","2018-05-26 13:00","2018","05","26","13:00","0.5","","-0.8","","91","","","","16","","26","","24.1","","100.06","","","","","","NA"
"-96.08","64.30","BAKER LAKE A","2300503","2018-05-26 14:00","2018","05","26","14:00","0.6","","-0.7","","91","","","","16","","22","","24.1","","99.98","","","","","","NA"
"-96.08","64.30","BAKER LAKE A","2300503","2018-05-26 15:00","2018","05","26","15:00","0.6","","-0.5","","92","","","","16","","22","","24.1","","99.95","","","","","","Cloudy"
"-96.08","64.30","BAKER LAKE A","2300503","2018-05-26 16:00","2018","05","26","16:00","0.4","","-0.4","","95","","","","16","","19","","24.1","","99.92","","","","","","NA"
"-96.08","64.30","BAKER LAKE A","2300503","2018-05-26 17:00","2018","05","26","17:00","0.4","","-0.3","","95","","","","15","","14","","24.1","","99.87","","","","","","Freezing Drizzle"
"-96.08","64.30","BAKER LAKE A","2300503","2018-05-26 18:00","2018","05","26","18:00","0.3","","-0.2","","96","","","","14","","14","","24.1","","99.83","","","","","","Cloudy"
"-96.08","64.30","BAKER LAKE A","2300503","2018-05-26 19:00","2018","05","26","19:00","0.2","","-0.2","","97","","","","14","","13","","24.1","","99.81","","","","","","NA"
"-96.08","64.30","BAKER LAKE A","2300503","2018-05-26 20:00","2018","05","26","20:00","0.2","","-0.1","","98","","","","13","","12","","1.0","","99.72","","","","","","Drizzle,Fog"
"-96.08","64.30","BAKER LAKE A","2300503","2018-05-26 21:00","2018","05","26","21:00","0.1","","-0.2","","98","","","","10","","5","","1.0","","99.72","","","","","","Drizzle,Fog"
"-96.08","64.30","BAKER LAKE A","2300503","2018-05-26 22:00","2018","05","26","22:00","0.1","","-0.1","","99","","","","36","","3","","1.0","","99.69","","","","","","Drizzle,Fog"
"-96.08","64.30","BAKER LAKE A","2300503","2018-05-26 23:00","2018","05","26","23:00","0.2","","0.0","","99","","","","4","","4","","1.0","","99.68","","","","","","Drizzle,Fog"
"-96.08","64.30","BAKER LAKE A","2300503","2018-05-27 00:00","2018","05","27","00:00","0.3","","0.1","","99","","","","1","","7","","3.6","","99.66","","","","","","Fog"
"-96.08","64.30","BAKER LAKE A","2300503","2018-05-27 01:00","2018","05","27","01:00","0.3","","0.0","","98","","","","1","","8","","16.1","","99.63","","","","","","NA"
"-96.08","64.30","BAKER LAKE A","2300503","2018-05-27 02:00","2018","05","27","02:00","0.5","","0.0","","96","","","","35","","15","","16.1","","99.66","","","","","","NA"
"-96.08","64.30","BAKER LAKE A","2300503","2018-05-27 03:00","2018","05","27","03:00","0.4","","-0.1","","96","","","","36","","21","","6.4","","99.64","","","","","","Fog"
"-96.08","64.30","BAKER LAKE A","2300503","2018-05-27 04:00","2018","05","27","04:00","0.4","","-0.2","","96","","","","36","","26","","6.4","","99.66","","","","","","Fog"
"-96.08","64.30","BAKER LAKE A","2300503","2018-05-27 05:00","2018","05","27","05:00","0.2","","-0.7","","94","","","","36","","27","","40.2","","99.71","","","","","","NA"
"-96.08","64.30","BAKER LAKE A","2300503","2018-05-27 06:00","2018","05","27","06:00","0.2","","-0.9","","92","","","","36","","28","","40.2","","99.74","","","","","","Cloudy"
"-96.08","64.30","BAKER LAKE A","2300503","2018-05-27 07:00","2018","05","27","07:00","0.2","","-1.2","","91","","","","36","","32","","40.2","","99.76","","","","","","NA"
"-96.08","64.30","BAKER LAKE A","2300503","2018-05-27 08:00","2018","05","27","08:00","0.3","","-1.4","","88","","","","36","","35","","32.2","","99.83","","","","","","NA"
"-96.08","64.30","BAKER LAKE A","2300503","2018-05-27 09:00","2018","05","27","09:00","0.5","","-1.6","","86","","","","36","","35","","32.2","","99.87","","","","","","Cloudy"
"-96.08","64.30","BAKER LAKE A","2300503","2018-05-27 10:00","2018","05","27","10:00","0.8","","-1.6","","84","","","","36","","39","","32.2","","99.93","","","","","","NA"
"-96.08","64.30","BAKER LAKE A","2300503","2018-05-27 11:00","2018","05","27","11:00","0.6","","-1.8","","83","","","","35","","39","","32.2","","100.01","","","","","","NA"
"-96.08","64.30","BAKER LAKE A","2300503","2018-05-27 12:00","2018","05","27","12:00","0.9","","-2.0","","81","","","","35","","37","","32.2","","100.12","","","","","","Cloudy"
"-96.08","64.30","BAKER LAKE A","2300503","2018-05-27 13:00","2018","05","27","13:00","-0.1","","-2.9","","81","","","","35","","44","","32.2","","100.25","","","","-8","","NA"
"-96.08","64.30","BAKER LAKE A","2300503","2018-05-27 14:00","2018","05","27","14:00","-0.4","","-3.4","","80","","","","35","","48","","32.2","","100.36","","","","-9","","NA"
"-96.08","64.30","BAKER LAKE A","2300503","2018-05-27 15:00","2018","05","27","15:00","-0.5","","-3.7","","79","","","","34","","38","","32.2","","100.51","","","","-8","","Mostly Cloudy"
"-96.08","64.30","BAKER LAKE A","2300503","2018-05-27 16:00","2018","05","27","16:00","-0.6","","-3.6","","81","","","","35","","44","","32.2","","100.59","","","","-9","","NA"
"-96.08","64.30","BAKER LAKE A","2300503","2018-05-27 17:00","2018","05","27","17:00","-1.0","","-4.3","","79","","","","34","","48","","32.2","","100.68","","","","-9","","NA"
"-96.08","64.30","BAKER LAKE A","2300503","2018-05-27 18:00","2018","05","27","18:00","-1.4","","-3.8","","84","","","","35","","40","","32.2","","100.76","","","","-9","","Cloudy"
"-96.08","64.30","BAKER LAKE A","2300503","2018-05-27 19:00","2018","05","27","19:00","-1.5","","-3.9","","84","","","","34","","36","","32.2","","100.89","","","","-9","","NA"
"-96.08","64.30","BAKER LAKE A","2300503","2018-05-27 20:00","2018","05","27","20:00","-1.4","","-3.6","","85","","","","34","","31","","40.2","","100.93","","","","-8","","NA"
"-96.08","64.30","BAKER LAKE A","2300503","2018-05-27 21:00","2018","05","27","21:00","-2.1","","-4.2","","85","","","","34","","31","","40.2","","101.02","","","","-9","","Mostly Cloudy"
"-96.08","64.30","BAKER LAKE A","2300503","2018-05-27 22:00","2018","05","27","22:00","-2.7","","-4.8","","85","","","","33","","30","","40.2","","101.06","","","","-10","","NA"
"-96.08","64.30","BAKER LAKE A","2300503","2018-05-27 23:00","2018","05","27","23:00","-2.8","","-5.4","","82","","","","32","","27","","40.2","","101.09","","","","-10","","NA"
"-96.08","64.30","BAKER LAKE A","2300503","2018-05-28 00:00","2018","05","28","00:00","-4.2","","-6.5","","84","","","","33","","33","","24.1","","101.11","","","","-12","","Cloudy"
"-96.08","64.30","BAKER LAKE A","2300503","2018-05-28 01:00","2018","05","28","01:00","-5.1","","-7.2","","85","","","","32","","31","","24.1","","101.17","","","","-13","","NA"
"-96.08","64.30","BAKER LAKE A","2300503","2018-05-28 02:00","2018","05","28","02:00","-6.0","","-7.7","","88","","","","32","","31","","24.1","","101.21","","","","-14","","NA"
"-96.08","64.30","BAKER LAKE A","2300503","2018-05-28 03:00","2018","05","28","03:00","-7.0","","-8.5","","89","","","","34","","23","","40.2","","101.23","","","","-15","","Cloudy"
"-96.08","64.30","BAKER LAKE A","2300503","2018-05-28 04:00","2018","05","28","04:00","-8.0","","-9.6","","88","","","","35","","18","","40.2","","101.32","","","","-15","","NA"
"-96.08","64.30","BAKER LAKE A","2300503","2018-05-28 05:00","2018","05","28","05:00","-8.6","","-10.5","","86","","","","34","","15","","40.2","","101.34","","","","-15","","NA"
"-96.08","64.30","BAKER LAKE A","2300503","2018-05-28 06:00","2018","05","28","06:00","-8.2","","-10.7","","82","","","","35","","17","","40.2","","101.34","","","","-15","","Mostly Cloudy"
"-96.08","64.30","BAKER LAKE A","2300503","2018-05-28 07:00","2018","05","28","07:00","-7.7","","-10.2","","82","","","","32","","17","","40.2","","101.32","","","","-14","","NA"
"-96.08","64.30","BAKER LAKE A","2300503","2018-05-28 08:00","2018","05","28","08:00","-7.4","","-10.3","","80","","","","31","","13","","32.2","","101.33","","","","-13","","NA"
"-96.08","64.30","BAKER LAKE A","2300503","2018-05-28 09:00","2018","05","28","09:00","-7.2","","-10.9","","75","","","","33","","5","","32.2","","101.32","","","","-10","","Mainly Clear"
"-96.08","64.30","BAKER LAKE A","2300503","2018-05-28 10:00","2018","05","28","10:00","-6.5","","-9.8","","78","","","","29","","16","","32.2","","101.32","","","","-13","","NA"
"-96.08","64.30","BAKER LAKE A","2300503","2018-05-28 11:00","2018","05","28","11:00","-6.1","","-9.7","","76","","","","28","","6","","32.2","","101.31","","","","-9","","NA"
"-96.08","64.30","BAKER LAKE A","2300503","2018-05-28 12:00","2018","05","28","12:00","-4.7","","-7.9","","79","","","","30","","9","","32.2","","101.24","","","","-9","","Mostly Cloudy"
"-96.08","64.30","BAKER LAKE A","2300503","2018-05-28 13:00","2018","05","28","13:00","-4.1","","-7.8","","75","","","","24","","3","","32.2","","101.22","","","","-5","","NA"
"-96.08","64.30","BAKER LAKE A","2300503","2018-05-28 14:00","2018","05","28","14:00","-4.0","","-7.3","","78","","","","18","","9","","32.2","","101.19","","","","-8","","NA"
"-96.08","64.30","BAKER LAKE A","2300503","2018-05-28 15:00","2018","05","28","15:00","-3.7","","-6.9","","78","","","","19","","4","","32.2","","101.14","","","","-5","","Mostly Cloudy"
"-96.08","64.30","BAKER LAKE A","2300503","2018-05-28 16:00","2018","05","28","16:00","-3.3","","-6.8","","77","","","","13","","7","","32.2","","101.10","","","","-6","","NA"
"-96.08","64.30","BAKER LAKE A","2300503","2018-05-28 17:00","2018","05","28","17:00","-3.1","","-6.4","","78","","","","12","","7","","32.2","","101.04","","","","-6","","NA"
"-96.08","64.30","BAKER LAKE A","2300503","2018-05-28 18:00","2018","05","28","18:00","-2.6","","-6.0","","78","","","","9","","9","","32.2","","101.00","","","","-6","","Cloudy"
"-96.08","64.30","BAKER LAKE A","2300503","2018-05-28 19:00","2018","05","28","19:00","-2.6","","-5.4","","81","","","","9","","10","","32.2","","100.96","","","","-6","","NA"
"-96.08","64.30","BAKER LAKE A","2300503","2018-05-28 20:00","2018","05","28","20:00","-2.4","","-4.5","","86","","","","8","","10","","40.2","","100.93","","","","-6","","NA"
"-96.08","64.30","BAKER LAKE A","2300503","2018-05-28 21:00","2018","05","28","21:00","-2.3","","-3.8","","89","","","","11","","21","","40.2","","100.87","","","","-8","","Cloudy"
"-96.08","64.30","BAKER LAKE A","2300503","2018-05-28 22:00","2018","05","28","22:00","-2.0","","-3.4","","90","","","","11","","20","","40.2","","100.82","","","","-8","","NA"
"-96.08","64.30","BAKER LAKE A","2300503","2018-05-28 23:00","2018","05","28","23:00","-1.8","","-3.0","","91","","","","10","","20","","40.2","","100.74","","","","-8","","NA"
"-96.08","64.30","BAKER LAKE A","2300503","2018-05-29 00:00","2018","05","29","00:00","-2.1","","-3.2","","92","","","","10","","21","","24.1","","100.69","","","","-8","","Cloudy"
"-96.08","64.30","BAKER LAKE A","2300503","2018-05-29 01:00","2018","05","29","01:00","-2.1","","-3.1","","93","","","","10","","23","","24.1","","100.61","","","","-8","","NA"
"-96.08","64.30","BAKER LAKE A","2300503","2018-05-29 02:00","2018","05","29","02:00","-1.8","","-2.7","","94","","","","9","","18","","24.1","","100.53","","","","-7","","NA"
"-96.08","64.30","BAKER LAKE A","2300503","2018-05-29 03:00","2018","05","29","03:00","-1.8","","-2.6","","94","","","","9","","17","","24.1","","100.49","","","","-7","","Cloudy"
"-96.08","64.30","BAKER LAKE A","2300503","2018-05-29 04:00","2018","05","29","04:00","-1.4","","-2.3","","94","","","","10","","21","","24.1","","100.38","","","","-7","","NA"
"-96.08","64.30","BAKER LAKE A","2300503","2018-05-29 05:00","2018","05","29","05:00","-1.3","","-2.2","","94","","","","9","","22","","40.2","","100.30","","","","-7","","NA"
"-96.08","64.30","BAKER LAKE A","2300503","2018-05-29 06:00","2018","05","29","06:00","-1.3","","-2.1","","95","","","","10","","23","","8.1","","100.22","","","","-7","","Freezing Rain"
"-96.08","64.30","BAKER LAKE A","2300503","2018-05-29 07:00","2018","05","29","07:00","-1.0","","-1.9","","94","","","","9","","22","","24.1","","100.15","","","","-7","","NA"
"-96.08","64.30","BAKER LAKE A","2300503","2018-05-29 08:00","2018","05","29","08:00","-1.3","","-2.2","","93","","","","9","","23","","16.1","","100.09","","","","-7","","Ice Pellets"
"-96.08","64.30","BAKER LAKE A","2300503","2018-05-29 09:00","2018","05","29","09:00","-1.4","","-2.5","","92","","","","9","","24","","1.6","","100.02","","","","-8","","Snow"
"-96.08","64.30","BAKER LAKE A","2300503","2018-05-29 10:00","2018","05","29","10:00","-1.2","","-2.1","","94","","","","7","","17","","1.6","","99.96","","","","-6","","Snow"
"-96.08","64.30","BAKER LAKE A","2300503","2018-05-29 11:00","2018","05","29","11:00","-1.6","","-2.7","","92","","","","7","","22","","1.2","","99.89","","","","-8","","Snow"
"-96.08","64.30","BAKER LAKE A","2300503","2018-05-29 12:00","2018","05","29","12:00","-1.7","","-3.1","","90","","","","7","","26","","1.2","","99.80","","","","-8","","Snow"
"-96.08","64.30","BAKER LAKE A","2300503","2018-05-29 13:00","2018","05","29","13:00","-1.6","","-3.4","","88","","","","8","","28","","1.2","","99.73","","","","-8","","Snow"
"-96.08","64.30","BAKER LAKE A","2300503","2018-05-29 14:00","2018","05","29","14:00","-1.6","","-3.4","","88","","","","7","","16","","4.0","","99.77","","","","-7","","Snow"
"-96.08","64.30","BAKER LAKE A","2300503","2018-05-29 15:00","2018","05","29","15:00","-1.6","","-3.0","","90","","","","2","","13","","2.4","","99.81","","","","-6","","Snow"
"-96.08","64.30","BAKER LAKE A","2300503","2018-05-29 16:00","2018","05","29","16:00","-1.5","","-3.1","","89","","","","2","","14","","4.0","","99.81","","","","-6","","Snow"
"-96.08","64.30","BAKER LAKE A","2300503","2018-05-29 17:00","2018","05","29","17:00","-1.0","","-3.0","","86","","","","36","","18","","24.1","","99.83","","","","-6","","Snow"
"-96.08","64.30","BAKER LAKE A","2300503","2018-05-29 18:00","2018","05","29","18:00","-1.1","","-3.3","","85","","","","35","","14","","32.2","","99.85","","","","-6","","Snow"
"-96.08","64.30","BAKER LAKE A","2300503","2018-05-29 19:00","2018","05","29","19:00","-1.5","","-3.6","","86","","","","35","","13","","32.2","","99.84","","","","-6","","NA"
"-96.08","64.30","BAKER LAKE A","2300503","2018-05-29 20:00","2018","05","29","20:00","-1.5","","-3.2","","88","","","","34","","5","","24.1","","99.84","","","","-3","","NA"
"-96.08","64.30","BAKER LAKE A","2300503","2018-05-29 21:00","2018","05","29","21:00","-2.1","","-3.2","","92","","","","31","","10","","11.3","","99.84","","","","-6","","Snow"
"-96.08","64.30","BAKER LAKE A","2300503","2018-05-29 22:00","2018","05","29","22:00","-1.7","","-2.7","","92","","","","29","","13","","11.3","","99.86","","","","-6","","Snow"
"-96.08","64.30","BAKER LAKE A","2300503","2018-05-29 23:00","2018","05","29","23:00","-1.8","","-3.1","","91","","","","29","","15","","24.1","","99.82","","","","-7","","NA"
"-96.08","64.30","BAKER LAKE A","2300503","2018-05-30 00:00","2018","05","30","00:00","-2.2","","-3.2","","93","","","","24","","13","","24.1","","99.77","","","","-7","","Snow"
"-96.08","64.30","BAKER LAKE A","2300503","2018-05-30 01:00","2018","05","30","01:00","-3.2","","-4.6","","90","","","","29","","21","","24.1","","99.73","","","","-9","","Snow"
"-96.08","64.30","BAKER LAKE A","2300503","2018-05-30 02:00","2018","05","30","02:00","-2.8","","-4.2","","90","","","","30","","27","","24.1","","99.81","","","","-10","","NA"
"-96.08","64.30","BAKER LAKE A","2300503","2018-05-30 03:00","2018","05","30","03:00","-4.2","","-5.8","","88","","","","28","","26","","24.1","","99.82","","","","-11","","Mainly Clear"
"-96.08","64.30","BAKER LAKE A","2300503","2018-05-30 04:00","2018","05","30","04:00","-3.7","","-5.6","","87","","","","29","","36","","24.1","","99.83","","","","-12","","NA"
"-96.08","64.30","BAKER LAKE A","2300503","2018-05-30 05:00","2018","05","30","05:00","-3.7","","-5.7","","86","","","","30","","36","","24.1","","99.87","","","","-12","","NA"
"-96.08","64.30","BAKER LAKE A","2300503","2018-05-30 06:00","2018","05","30","06:00","-3.7","","-5.7","","86","","","","29","","35","","24.1","","99.91","","","","-12","","Mainly Clear"
"-96.08","64.30","BAKER LAKE A","2300503","2018-05-30 07:00","2018","05","30","07:00","-3.2","","-5.6","","84","","","","30","","35","","40.2","","99.98","","","","-11","","Blowing Snow"
"-96.08","64.30","BAKER LAKE A","2300503","2018-05-30 08:00","2018","05","30","08:00","-2.3","","-4.9","","82","","","","30","","45","","32.2","","100.05","","","","-11","","Blowing Snow"
"-96.08","64.30","BAKER LAKE A","2300503","2018-05-30 09:00","2018","05","30","09:00","-2.4","","-5.2","","81","","","","31","","48","","32.2","","100.07","","","","-11","","Snow,Blowing Snow"
"-96.08","64.30","BAKER LAKE A","2300503","2018-05-30 10:00","2018","05","30","10:00","-2.2","","-4.8","","82","","","","31","","44","","32.2","","100.14","","","","-11","","Snow,Blowing Snow"
"-96.08","64.30","BAKER LAKE A","2300503","2018-05-30 11:00","2018","05","30","11:00","-1.9","","-4.8","","80","","","","30","","40","","32.2","","100.22","","","","-10","","Snow,Blowing Snow"
"-96.08","64.30","BAKER LAKE A","2300503","2018-05-30 12:00","2018","05","30","12:00","-1.5","","-4.5","","80","","","","29","","43","","32.2","","100.27","","","","-10","","Snow,Blowing Snow"
"-96.08","64.30","BAKER LAKE A","2300503","2018-05-30 13:00","2018","05","30","13:00","-1.4","","-4.5","","79","","","","30","","42","","32.2","","100.33","","","","-9","","Snow,Blowing Snow"
"-96.08","64.30","BAKER LAKE A","2300503","2018-05-30 14:00","2018","05","30","14:00","-1.5","","-4.8","","78","","","","31","","42","","32.2","","100.37","","","","-10","","Snow,Blowing Snow"
"-96.08","64.30","BAKER LAKE A","2300503","2018-05-30 15:00","2018","05","30","15:00","-2.1","","-5.3","","79","","","","33","","42","","24.1","","100.44","","","","-10","","Snow,Blowing Snow"
"-96.08","64.30","BAKER LAKE A","2300503","2018-05-30 16:00","2018","05","30","16:00","-2.1","","-5.5","","78","","","","32","","45","","32.2","","100.50","","","","-11","","Snow,Blowing Snow"
"-96.08","64.30","BAKER LAKE A","2300503","2018-05-30 17:00","2018","05","30","17:00","-3.1","","-6.6","","76","","","","32","","46","","32.2","","100.59","","","","-12","","Snow,Blowing Snow"
"-96.08","64.30","BAKER LAKE A","2300503","2018-05-30 18:00","2018","05","30","18:00","-3.4","","-6.4","","80","","","","32","","43","","32.2","","100.67","","","","-12","","Snow,Blowing Snow"
"-96.08","64.30","BAKER LAKE A","2300503","2018-05-30 19:00","2018","05","30","19:00","-3.9","","-6.7","","81","","","","32","","41","","32.2","","100.76","","","","-13","","Moderate Snow,Blowing Snow"
"-96.08","64.30","BAKER LAKE A","2300503","2018-05-30 20:00","2018","05","30","20:00","-4.4","","-7.0","","83","","","","32","","42","","32.2","","100.85","","","","-13","","Snow,Blowing Snow"
"-96.08","64.30","BAKER LAKE A","2300503","2018-05-30 21:00","2018","05","30","21:00","-4.9","","-7.8","","80","","","","32","","35","","40.2","","100.90","","","","-13","","Blowing Snow"
"-96.08","64.30","BAKER LAKE A","2300503","2018-05-30 22:00","2018","05","30","22:00","-5.2","","-7.6","","84","","","","30","","35","","40.2","","100.96","","","","-14","","Snow,Blowing Snow"
"-96.08","64.30","BAKER LAKE A","2300503","2018-05-30 23:00","2018","05","30","23:00","-5.5","","-7.6","","85","","","","31","","41","","32.2","","101.01","","","","-15","","Snow,Blowing Snow"
"-96.08","64.30","BAKER LAKE A","2300503","2018-05-31 00:00","2018","05","31","00:00","-5.4","","-7.5","","85","","","","31","","40","","24.1","","101.10","","","","-15","","Blowing Snow"
"-96.08","64.30","BAKER LAKE A","2300503","2018-05-31 01:00","2018","05","31","01:00","-5.4","","-8.0","","82","","","","30","","35","","24.1","","101.18","","","","-14","","Blowing Snow"
"-96.08","64.30","BAKER LAKE A","2300503","2018-05-31 02:00","2018","05","31","02:00","-5.5","","-7.9","","84","","","","29","","35","","40.2","","101.22","","","","-14","","Blowing Snow"
"-96.08","64.30","BAKER LAKE A","2300503","2018-05-31 03:00","2018","05","31","03:00","-5.7","","-7.5","","87","","","","30","","41","","11.3","","101.27","","","","-15","","Snow,Blowing Snow"
"-96.08","64.30","BAKER LAKE A","2300503","2018-05-31 04:00","2018","05","31","04:00","-5.4","","-7.0","","89","","","","30","","39","","8.1","","101.31","","","","-15","","Snow,Blowing Snow"
"-96.08","64.30","BAKER LAKE A","2300503","2018-05-31 05:00","2018","05","31","05:00","-5.0","","-6.7","","88","","","","31","","41","","8.1","","101.36","","","","-14","","Snow,Blowing Snow"
"-96.08","64.30","BAKER LAKE A","2300503","2018-05-31 06:00","2018","05","31","06:00"
"-96.08","64.30","BAKER LAKE A","2300503","2018-05-31 07:00","2018","05","31","07:00","-4.8","","-6.6","","87","","","","31","","43","","4.8","","101.47","","","","-14","","Snow,Blowing Snow"
"-96.08","64.30","BAKER LAKE A","2300503","2018-05-31 08:00","2018","05","31","08:00","-4.8","","-6.7","","87","","","","31","","44","","6.4","","101.53","","","","-14","","Snow,Blowing Snow"
"-96.08","64.30","BAKER LAKE A","2300503","2018-05-31 09:00","2018","05","31","09:00","-4.9","","-7.0","","85","","","","32","","49","","9.7","","101.59","","","","-15","","Blowing Snow"
"-96.08","64.30","BAKER LAKE A","2300503","2018-05-31 10:00","2018","05","31","10:00","-4.9","","-7.2","","84","","","","30","","49","","8.1","","101.67","","","","-15","","Blowing Snow"
"-96.08","64.30","BAKER LAKE A","2300503","2018-05-31 11:00","2018","05","31","11:00","-5.0","","-7.8","","81","","","","31","","46","","32.2","","101.76","","","","-15","","Blowing Snow"
"-96.08","64.30","BAKER LAKE A","2300503","2018-05-31 12:00","2018","05","31","12:00","-4.2","","-7.0","","81","","","","31","","40","","32.2","","101.81","","","","-13","","Blowing Snow"
"-96.08","64.30","BAKER LAKE A","2300503","2018-05-31 13:00","2018","05","31","13:00","-4.1","","-7.0","","80","","","","31","","43","","32.2","","101.89","","","","-13","","Blowing Snow"
"-96.08","64.30","BAKER LAKE A","2300503","2018-05-31 14:00","2018","05","31","14:00","-3.6","","-6.8","","78","","","","30","","38","","32.2","","101.92","","","","-12","","Blowing Snow"
"-96.08","64.30","BAKER LAKE A","2300503","2018-05-31 15:00","2018","05","31","15:00","-3.5","","-6.5","","80","","","","30","","44","","32.2","","101.91","","","","-12","","Blowing Snow"
"-96.08","64.30","BAKER LAKE A","2300503","2018-05-31 16:00","2018","05","31","16:00","-3.0","","-6.4","","77","","","","31","","39","","32.2","","101.97","","","","-11","","NA"
"-96.08","64.30","BAKER LAKE A","2300503","2018-05-31 17:00","2018","05","31","17:00","-2.9","","-6.0","","79","","","","31","","30","","32.2","","102.01","","","","-10","","NA"
"-96.08","64.30","BAKER LAKE A","2300503","2018-05-31 18:00","2018","05","31","18:00","-3.3","","-6.5","","78","","","","32","","32","","32.2","","102.05","","","","-11","","Snow"
"-96.08","64.30","BAKER LAKE A","2300503","2018-05-31 19:00","2018","05","31","19:00","-3.7","","-7.2","","77","","","","33","","27","","32.2","","102.06","","","","-11","","NA"
"-96.08","64.30","BAKER LAKE A","2300503","2018-05-31 20:00","2018","05","31","20:00","-4.0","","-7.5","","77","","","","31","","25","","32.2","","102.08","","","","-11","","NA"
"-96.08","64.30","BAKER LAKE A","2300503","2018-05-31 21:00","2018","05","31","21:00","-4.1","","-7.7","","76","","","","30","","20","","32.2","","102.10","","","","-10","","Cloudy"
"-96.08","64.30","BAKER LAKE A","2300503","2018-05-31 22:00","2018","05","31","22:00","-4.3","","-7.8","","77","","","","29","","22","","32.2","","102.09","","","","-11","","NA"
"-96.08","64.30","BAKER LAKE A","2300503","2018-05-31 23:00","2018","05","31","23:00","-4.3","","-7.5","","79","","","","29","","17","","32.2","","102.09","","","","-10","","NA"
