"Longitude (x)","Latitude (y)","Station Name","Climate ID","Date/Time (LST)","Year","Month","Day","Time (LST)","Temp (°C)","Temp Flag","Dew Point Temp (°C)","Dew Point Temp Flag","Rel Hum (%)","Rel Hum Flag","Precip. Amount (mm)","Precip. Amount Flag","Wind Dir (10s deg)","Wind Dir Flag","Wind Spd (km/h)","Wind Spd Flag","Visibility (km)","Visibility Flag","Stn Press (kPa)","Stn Press Flag","Hmdx","Hmdx Flag","Wind Chill","Wind Chill Flag","Weather"
"-78.15","60.82","AKULIVIK A","7100071","2022-05-01 00:00","2022","05","01","00:00"
"-78.15","60.82","AKULIVIK A","7100071","2022-05-01 01:00","2022","05","01","01:00"
"-78.15","60.82","AKULIVIK A","7100071","2022-05-01 02:00","2022","05","01","02:00"
"-78.15","60.82","AKULIVIK A","7100071","2022-05-01 03:00","2022","05","01","03:00"
"-78.15","60.82","AKULIVIK A","7100071","2022-05-01 04:00","2022","05","01","04:00"
"-78.15","60.82","AKULIVIK A","7100071","2022-05-01 05:00","2022","05","01","05:00"
"-78.15","60.82","AKULIVIK A","7100071","2022-05-01 06:00","2022","05","01","06:00"
"-78.15","60.82","AKULIVIK A","7100071","2022-05-01 07:00","2022","05","01","07:00","-6.6","","-7.5","","93","","","","12","","8","","0.2","","102.33","","","","-10","","Freezing Fog"
"-78.15","60.82","AKULIVIK A","7100071","2022-05-01 08:00","2022","05","01","08:00","-6.1","","-7.0","","93","","","","14","","15","","0.2","","102.35","","","","-12","","Freezing Fog"
"-78.15","60.82","AKULIVIK A","7100071","2022-05-01 09:00","2022","05","01","09:00","-5.4","","-6.3","","93","","","","14","","13","","0.2","","102.38","","","","-11","","Freezing Fog"
"-78.15","60.82","AKULIVIK A","7100071","2022-05-01 10:00","2022","05","01","10:00","-4.6","","-5.5","","94","","","","14","","9","","0.2","","102.34","","","","-8","","Freezing Fog"
"-78.15","60.82","AKULIVIK A","7100071","2022-05-01 11:00","2022","05","01","11:00","-4.3","","-5.2","","93","","","","16","","10","","0.8","","102.36","","","","-8","","Freezing Fog"
"-78.15","60.82","AKULIVIK A","7100071","2022-05-01 12:00","2022","05","01","12:00","-3.7","","-4.6","","93","","","","18","","7","","0.8","","102.38","","","","-7","","Freezing Fog"
"-78.15","60.82","AKULIVIK A","7100071","2022-05-01 13:00","2022","05","01","13:00","-3.0","","-4.0","","93","","","","36","","3","","1.2","","102.37","","","","-4","","Fog"
"-78.15","60.82","AKULIVIK A","7100071","2022-05-01 14:00","2022","05","01","14:00","-2.3","","-3.3","","93","","","","31","","16","","1.2","","102.38","","","","-7","","Fog"
"-78.15","60.82","AKULIVIK A","7100071","2022-05-01 15:00","2022","05","01","15:00","-2.0","","-3.4","","90","","","","33","","19","","2.4","","102.38","","","","-8","","Fog"
"-78.15","60.82","AKULIVIK A","7100071","2022-05-01 16:00","2022","05","01","16:00","-1.9","","-3.5","","89","","","","32","","19","","3.2","","102.39","","","","-7","","Fog"
"-78.15","60.82","AKULIVIK A","7100071","2022-05-01 17:00","2022","05","01","17:00"
"-78.15","60.82","AKULIVIK A","7100071","2022-05-01 18:00","2022","05","01","18:00"
"-78.15","60.82","AKULIVIK A","7100071","2022-05-01 19:00","2022","05","01","19:00"
"-78.15","60.82","AKULIVIK A","7100071","2022-05-01 20:00","2022","05","01","20:00"
"-78.15","60.82","AKULIVIK A","7100071","2022-05-01 21:00","2022","05","01","21:00"
"-78.15","60.82","AKULIVIK A","7100071","2022-05-01 22:00","2022","05","01","22:00"
"-78.15","60.82","AKULIVIK A","7100071","2022-05-01 23:00","2022","05","01","23:00"
"-78.15","60.82","AKULIVIK A","7100071","2022-05-02 00:00","2022","05","02","00:00"
"-78.15","60.82","AKULIVIK A","7100071","2022-05-02 01:00","2022","05","02","01:00"
"-78.15","60.82","AKULIVIK A","7100071","2022-05-02 02:00","2022","05","02","02:00"
"-78.15","60.82","AKULIVIK A","7100071","2022-05-02 03:00","2022","05","02","03:00"
"-78.15","60.82","AKULIVIK A","7100071","2022-05-02 04:00","2022","05","02","04:00"
"-78.15","60.82","AKULIVIK A","7100071","2022-05-02 05:00","2022","05","02","05:00"
"-78.15","60.82","AKULIVIK A","7100071","2022-05-02 06:00","2022","05","02","06:00"
"-78.15","60.82","AKULIVIK A","7100071","2022-05-02 07:00","2022","05","02","07:00","-5.9","","-8.8","","80","","","","4","","29","","16.1","","102.41","","","","-14","","Cloudy"
"-78.15","60.82","AKULIVIK A","7100071","2022-05-02 08:00","2022","05","02","08:00","-6.4","","-9.3","","80","","","","3","","34","","16.1","","102.43","","","","-15","","NA"
"-78.15","60.82","AKULIVIK A","7100071","2022-05-02 09:00","2022","05","02","09:00","-6.4","","-9.5","","79","","","","2","","35","","16.1","","102.42","","","","-15","","NA"
"-78.15","60.82","AKULIVIK A","7100071","2022-05-02 10:00","2022","05","02","10:00","-6.7","","-10.8","","73","","","","2","","40","","19.3","","102.40","","","","-16","","Mostly Cloudy"
"-78.15","60.82","AKULIVIK A","7100071","2022-05-02 11:00","2022","05","02","11:00","-6.1","","-9.6","","76","","","","3","","30","","16.1","","102.41","","","","-14","","NA"
"-78.15","60.82","AKULIVIK A","7100071","2022-05-02 12:00","2022","05","02","12:00","-5.9","","-10.2","","72","","","","2","","28","","24.1","","102.40","","","","-14","","NA"
"-78.15","60.82","AKULIVIK A","7100071","2022-05-02 13:00","2022","05","02","13:00","-6.2","","-10.2","","73","","","","1","","41","","24.1","","102.36","","","","-16","","Mostly Cloudy"
"-78.15","60.82","AKULIVIK A","7100071","2022-05-02 14:00","2022","05","02","14:00","-6.6","","-10.3","","75","","","","1","","39","","24.1","","102.33","","","","-16","","NA"
"-78.15","60.82","AKULIVIK A","7100071","2022-05-02 15:00","2022","05","02","15:00","-6.1","","-9.6","","77","","","","2","","38","","24.1","","102.35","","","","-15","","NA"
"-78.15","60.82","AKULIVIK A","7100071","2022-05-02 16:00","2022","05","02","16:00","-6.8","","-10.1","","77","","","","3","","39","","24.1","","102.38","","","","-16","","Cloudy"
"-78.15","60.82","AKULIVIK A","7100071","2022-05-02 17:00","2022","05","02","17:00"
"-78.15","60.82","AKULIVIK A","7100071","2022-05-02 18:00","2022","05","02","18:00"
"-78.15","60.82","AKULIVIK A","7100071","2022-05-02 19:00","2022","05","02","19:00"
"-78.15","60.82","AKULIVIK A","7100071","2022-05-02 20:00","2022","05","02","20:00"
"-78.15","60.82","AKULIVIK A","7100071","2022-05-02 21:00","2022","05","02","21:00"
"-78.15","60.82","AKULIVIK A","7100071","2022-05-02 22:00","2022","05","02","22:00"
"-78.15","60.82","AKULIVIK A","7100071","2022-05-02 23:00","2022","05","02","23:00"
"-78.15","60.82","AKULIVIK A","7100071","2022-05-03 00:00","2022","05","03","00:00"
"-78.15","60.82","AKULIVIK A","7100071","2022-05-03 01:00","2022","05","03","01:00"
"-78.15","60.82","AKULIVIK A","7100071","2022-05-03 02:00","2022","05","03","02:00"
"-78.15","60.82","AKULIVIK A","7100071","2022-05-03 03:00","2022","05","03","03:00"
"-78.15","60.82","AKULIVIK A","7100071","2022-05-03 04:00","2022","05","03","04:00"
"-78.15","60.82","AKULIVIK A","7100071","2022-05-03 05:00","2022","05","03","05:00"
"-78.15","60.82","AKULIVIK A","7100071","2022-05-03 06:00","2022","05","03","06:00"
"-78.15","60.82","AKULIVIK A","7100071","2022-05-03 07:00","2022","05","03","07:00","-10.2","","-13.5","","77","","","","7","","13","","24.1","","102.35","","","","-16","","Mostly Cloudy"
"-78.15","60.82","AKULIVIK A","7100071","2022-05-03 08:00","2022","05","03","08:00","-8.3","","-11.3","","79","","","","3","","27","","24.1","","102.33","","","","-17","","NA"
"-78.15","60.82","AKULIVIK A","7100071","2022-05-03 09:00","2022","05","03","09:00","-7.3","","-10.2","","80","","","","3","","26","","24.1","","102.31","","","","-15","","NA"
"-78.15","60.82","AKULIVIK A","7100071","2022-05-03 10:00","2022","05","03","10:00","-6.8","","-9.7","","80","","","","3","","28","","24.1","","102.28","","","","-15","","Mostly Cloudy"
"-78.15","60.82","AKULIVIK A","7100071","2022-05-03 11:00","2022","05","03","11:00","-5.8","","-8.7","","80","","","","4","","29","","24.1","","102.24","","","","-14","","NA"
"-78.15","60.82","AKULIVIK A","7100071","2022-05-03 12:00","2022","05","03","12:00","-4.4","","-7.4","","79","","","","5","","25","","24.1","","102.19","","","","-12","","NA"
"-78.15","60.82","AKULIVIK A","7100071","2022-05-03 13:00","2022","05","03","13:00","-4.2","","-8.6","","72","","","","6","","30","","24.1","","102.13","","","","-12","","Mostly Cloudy"
"-78.15","60.82","AKULIVIK A","7100071","2022-05-03 14:00","2022","05","03","14:00","-4.1","","-8.5","","72","","","","7","","34","","24.1","","102.08","","","","-12","","NA"
"-78.15","60.82","AKULIVIK A","7100071","2022-05-03 15:00","2022","05","03","15:00","-4.3","","-8.7","","72","","","","6","","36","","24.1","","102.05","","","","-13","","NA"
"-78.15","60.82","AKULIVIK A","7100071","2022-05-03 16:00","2022","05","03","16:00","-4.2","","-8.5","","72","","","","7","","34","","24.1","","102.01","","","","-12","","Cloudy"
"-78.15","60.82","AKULIVIK A","7100071","2022-05-03 17:00","2022","05","03","17:00"
"-78.15","60.82","AKULIVIK A","7100071","2022-05-03 18:00","2022","05","03","18:00"
"-78.15","60.82","AKULIVIK A","7100071","2022-05-03 19:00","2022","05","03","19:00"
"-78.15","60.82","AKULIVIK A","7100071","2022-05-03 20:00","2022","05","03","20:00"
"-78.15","60.82","AKULIVIK A","7100071","2022-05-03 21:00","2022","05","03","21:00"
"-78.15","60.82","AKULIVIK A","7100071","2022-05-03 22:00","2022","05","03","22:00"
"-78.15","60.82","AKULIVIK A","7100071","2022-05-03 23:00","2022","05","03","23:00"
"-78.15","60.82","AKULIVIK A","7100071","2022-05-04 00:00","2022","05","04","00:00"
"-78.15","60.82","AKULIVIK A","7100071","2022-05-04 01:00","2022","05","04","01:00"
"-78.15","60.82","AKULIVIK A","7100071","2022-05-04 02:00","2022","05","04","02:00"
"-78.15","60.82","AKULIVIK A","7100071","2022-05-04 03:00","2022","05","04","03:00"
"-78.15","60.82","AKULIVIK A","7100071","2022-05-04 04:00","2022","05","04","04:00"
"-78.15","60.82","AKULIVIK A","7100071","2022-05-04 05:00","2022","05","04","05:00"
"-78.15","60.82","AKULIVIK A","7100071","2022-05-04 06:00","2022","05","04","06:00"
"-78.15","60.82","AKULIVIK A","7100071","2022-05-04 07:00","2022","05","04","07:00","-11.3","","-14.7","","76","","","","4","","33","","24.1","","101.73","","","","-22","","Mainly Clear"
"-78.15","60.82","AKULIVIK A","7100071","2022-05-04 08:00","2022","05","04","08:00","-10.5","","-13.7","","77","","","","3","","34","","24.1","","101.74","","","","-21","","NA"
"-78.15","60.82","AKULIVIK A","7100071","2022-05-04 09:00","2022","05","04","09:00","-9.3","","-12.7","","76","","","","2","","34","","24.1","","101.75","","","","-19","","NA"
"-78.15","60.82","AKULIVIK A","7100071","2022-05-04 10:00","2022","05","04","10:00","-8.7","","-12.1","","76","","","","2","","40","","24.1","","101.77","","","","-19","","Mostly Cloudy"
"-78.15","60.82","AKULIVIK A","7100071","2022-05-04 11:00","2022","05","04","11:00","-8.0","","-11.6","","76","","","","3","","40","","24.1","","101.78","","","","-18","","NA"
"-78.15","60.82","AKULIVIK A","7100071","2022-05-04 12:00","2022","05","04","12:00","-7.5","","-11.4","","74","","","","3","","41","","24.1","","101.79","","","","-18","","NA"
"-78.15","60.82","AKULIVIK A","7100071","2022-05-04 13:00","2022","05","04","13:00","-6.8","","-10.8","","73","","","","2","","34","","24.1","","101.82","","","","-16","","Mainly Clear"
"-78.15","60.82","AKULIVIK A","7100071","2022-05-04 14:00","2022","05","04","14:00","-6.3","","-10.1","","75","","","","2","","33","","24.1","","101.84","","","","-15","","NA"
"-78.15","60.82","AKULIVIK A","7100071","2022-05-04 15:00","2022","05","04","15:00","-6.0","","-10.0","","73","","","","3","","35","","24.1","","101.84","","","","-15","","NA"
"-78.15","60.82","AKULIVIK A","7100071","2022-05-04 16:00","2022","05","04","16:00","-5.8","","-9.8","","73","","","","2","","32","","24.1","","101.87","","","","-14","","Mainly Clear"
"-78.15","60.82","AKULIVIK A","7100071","2022-05-04 17:00","2022","05","04","17:00"
"-78.15","60.82","AKULIVIK A","7100071","2022-05-04 18:00","2022","05","04","18:00"
"-78.15","60.82","AKULIVIK A","7100071","2022-05-04 19:00","2022","05","04","19:00"
"-78.15","60.82","AKULIVIK A","7100071","2022-05-04 20:00","2022","05","04","20:00"
"-78.15","60.82","AKULIVIK A","7100071","2022-05-04 21:00","2022","05","04","21:00"
"-78.15","60.82","AKULIVIK A","7100071","2022-05-04 22:00","2022","05","04","22:00"
"-78.15","60.82","AKULIVIK A","7100071","2022-05-04 23:00","2022","05","04","23:00"
"-78.15","60.82","AKULIVIK A","7100071","2022-05-05 00:00","2022","05","05","00:00"
"-78.15","60.82","AKULIVIK A","7100071","2022-05-05 01:00","2022","05","05","01:00"
"-78.15","60.82","AKULIVIK A","7100071","2022-05-05 02:00","2022","05","05","02:00"
"-78.15","60.82","AKULIVIK A","7100071","2022-05-05 03:00","2022","05","05","03:00"
"-78.15","60.82","AKULIVIK A","7100071","2022-05-05 04:00","2022","05","05","04:00"
"-78.15","60.82","AKULIVIK A","7100071","2022-05-05 05:00","2022","05","05","05:00"
"-78.15","60.82","AKULIVIK A","7100071","2022-05-05 06:00","2022","05","05","06:00"
"-78.15","60.82","AKULIVIK A","7100071","2022-05-05 07:00","2022","05","05","07:00","-10.4","","-13.3","","80","","","","3","","19","","24.1","","102.14","","","","-18","","Mostly Cloudy"
"-78.15","60.82","AKULIVIK A","7100071","2022-05-05 08:00","2022","05","05","08:00","-9.7","","-11.9","","84","","","","3","","20","","16.1","","102.12","","","","-17","","NA"
"-78.15","60.82","AKULIVIK A","7100071","2022-05-05 09:00","2022","05","05","09:00","-8.5","","-10.6","","85","","","","6","","14","","16.1","","102.13","","","","-15","","NA"
"-78.15","60.82","AKULIVIK A","7100071","2022-05-05 10:00","2022","05","05","10:00","-8.0","","-10.0","","86","","","","1","","14","","16.1","","102.13","","","","-14","","Mostly Cloudy"
"-78.15","60.82","AKULIVIK A","7100071","2022-05-05 11:00","2022","05","05","11:00","-7.0","","-8.7","","87","","","","34","","8","","16.1","","102.10","","","","-11","","NA"
"-78.15","60.82","AKULIVIK A","7100071","2022-05-05 12:00","2022","05","05","12:00","-5.8","","-8.5","","82","","","","33","","25","","16.1","","102.13","","","","-13","","NA"
"-78.15","60.82","AKULIVIK A","7100071","2022-05-05 13:00","2022","05","05","13:00","-5.7","","-8.6","","80","","","","34","","26","","24.1","","102.13","","","","-13","","Mostly Cloudy"
"-78.15","60.82","AKULIVIK A","7100071","2022-05-05 14:00","2022","05","05","14:00","-5.3","","-8.0","","81","","","","34","","31","","24.1","","102.11","","","","-14","","NA"
"-78.15","60.82","AKULIVIK A","7100071","2022-05-05 15:00","2022","05","05","15:00","-4.5","","-7.8","","78","","","","34","","25","","24.1","","102.12","","","","-12","","NA"
"-78.15","60.82","AKULIVIK A","7100071","2022-05-05 16:00","2022","05","05","16:00","-4.2","","-7.6","","77","","","","34","","26","","24.1","","102.13","","","","-11","","Mainly Clear"
"-78.15","60.82","AKULIVIK A","7100071","2022-05-05 17:00","2022","05","05","17:00"
"-78.15","60.82","AKULIVIK A","7100071","2022-05-05 18:00","2022","05","05","18:00"
"-78.15","60.82","AKULIVIK A","7100071","2022-05-05 19:00","2022","05","05","19:00"
"-78.15","60.82","AKULIVIK A","7100071","2022-05-05 20:00","2022","05","05","20:00"
"-78.15","60.82","AKULIVIK A","7100071","2022-05-05 21:00","2022","05","05","21:00"
"-78.15","60.82","AKULIVIK A","7100071","2022-05-05 22:00","2022","05","05","22:00"
"-78.15","60.82","AKULIVIK A","7100071","2022-05-05 23:00","2022","05","05","23:00"
"-78.15","60.82","AKULIVIK A","7100071","2022-05-06 00:00","2022","05","06","00:00"
"-78.15","60.82","AKULIVIK A","7100071","2022-05-06 01:00","2022","05","06","01:00"
"-78.15","60.82","AKULIVIK A","7100071","2022-05-06 02:00","2022","05","06","02:00"
"-78.15","60.82","AKULIVIK A","7100071","2022-05-06 03:00","2022","05","06","03:00"
"-78.15","60.82","AKULIVIK A","7100071","2022-05-06 04:00","2022","05","06","04:00"
"-78.15","60.82","AKULIVIK A","7100071","2022-05-06 05:00","2022","05","06","05:00"
"-78.15","60.82","AKULIVIK A","7100071","2022-05-06 06:00","2022","05","06","06:00"
"-78.15","60.82","AKULIVIK A","7100071","2022-05-06 07:00","2022","05","06","07:00","-6.8","","-8.2","","90","","","","3","","8","","12.9","","102.23","","","","-11","","Mostly Cloudy"
"-78.15","60.82","AKULIVIK A","7100071","2022-05-06 08:00","2022","05","06","08:00","-5.7","","-7.4","","88","","","","5","","10","","16.1","","102.23","","","","-10","","NA"
"-78.15","60.82","AKULIVIK A","7100071","2022-05-06 09:00","2022","05","06","09:00","-4.9","","-6.8","","87","","","","2","","8","","16.1","","102.24","","","","-8","","NA"
"-78.15","60.82","AKULIVIK A","7100071","2022-05-06 10:00","2022","05","06","10:00","-4.7","","-6.6","","87","","","","3","","9","","16.1","","102.21","","","","-9","","Mainly Clear"
"-78.15","60.82","AKULIVIK A","7100071","2022-05-06 11:00","2022","05","06","11:00","-4.7","","-6.5","","87","","","","36","","9","","24.1","","102.20","","","","-9","","NA"
"-78.15","60.82","AKULIVIK A","7100071","2022-05-06 12:00","2022","05","06","12:00","-3.7","","-6.2","","83","","","","33","","13","","24.1","","102.17","","","","-9","","NA"
"-78.15","60.82","AKULIVIK A","7100071","2022-05-06 13:00","2022","05","06","13:00","-3.6","","-5.7","","85","","","","33","","10","","24.1","","102.16","","","","-8","","Mostly Cloudy"
"-78.15","60.82","AKULIVIK A","7100071","2022-05-06 14:00","2022","05","06","14:00","-3.7","","-8.2","","71","","","","32","","13","","24.1","","102.15","","","","-9","","NA"
"-78.15","60.82","AKULIVIK A","7100071","2022-05-06 15:00","2022","05","06","15:00","-3.5","","-8.2","","70","","","","33","","11","","24.1","","102.12","","","","-8","","NA"
"-78.15","60.82","AKULIVIK A","7100071","2022-05-06 16:00","2022","05","06","16:00","-3.4","","-9.8","","62","","","","31","","8","","24.1","","102.12","","","","-7","","Mainly Clear"
"-78.15","60.82","AKULIVIK A","7100071","2022-05-06 17:00","2022","05","06","17:00"
"-78.15","60.82","AKULIVIK A","7100071","2022-05-06 18:00","2022","05","06","18:00"
"-78.15","60.82","AKULIVIK A","7100071","2022-05-06 19:00","2022","05","06","19:00"
"-78.15","60.82","AKULIVIK A","7100071","2022-05-06 20:00","2022","05","06","20:00"
"-78.15","60.82","AKULIVIK A","7100071","2022-05-06 21:00","2022","05","06","21:00"
"-78.15","60.82","AKULIVIK A","7100071","2022-05-06 22:00","2022","05","06","22:00"
"-78.15","60.82","AKULIVIK A","7100071","2022-05-06 23:00","2022","05","06","23:00"
"-78.15","60.82","AKULIVIK A","7100071","2022-05-07 00:00","2022","05","07","00:00"
"-78.15","60.82","AKULIVIK A","7100071","2022-05-07 01:00","2022","05","07","01:00"
"-78.15","60.82","AKULIVIK A","7100071","2022-05-07 02:00","2022","05","07","02:00"
"-78.15","60.82","AKULIVIK A","7100071","2022-05-07 03:00","2022","05","07","03:00"
"-78.15","60.82","AKULIVIK A","7100071","2022-05-07 04:00","2022","05","07","04:00"
"-78.15","60.82","AKULIVIK A","7100071","2022-05-07 05:00","2022","05","07","05:00"
"-78.15","60.82","AKULIVIK A","7100071","2022-05-07 06:00","2022","05","07","06:00"
"-78.15","60.82","AKULIVIK A","7100071","2022-05-07 07:00","2022","05","07","07:00","-7.5","","-10.2","","82","","","","13","","29","","16.1","","101.85","","","","-16","","Cloudy"
"-78.15","60.82","AKULIVIK A","7100071","2022-05-07 08:00","2022","05","07","08:00","-6.9","","-8.9","","86","","","","14","","30","","19.3","","101.80","","","","-15","","NA"
"-78.15","60.82","AKULIVIK A","7100071","2022-05-07 09:00","2022","05","07","09:00","-5.3","","-7.0","","88","","","","14","","33","","16.1","","101.73","","","","-14","","NA"
"-78.15","60.82","AKULIVIK A","7100071","2022-05-07 10:00","2022","05","07","10:00","-3.8","","-5.2","","90","","","","15","","36","","16.1","","101.68","","","","-12","","Mostly Cloudy"
"-78.15","60.82","AKULIVIK A","7100071","2022-05-07 11:00","2022","05","07","11:00","-3.4","","-4.8","","90","","","","16","","31","","16.1","","101.63","","","","-11","","NA"
"-78.15","60.82","AKULIVIK A","7100071","2022-05-07 12:00","2022","05","07","12:00","-1.6","","-3.2","","89","","","","17","","35","","16.1","","101.57","","","","-9","","NA"
"-78.15","60.82","AKULIVIK A","7100071","2022-05-07 13:00","2022","05","07","13:00","-1.6","","-4.0","","84","","","","17","","39","","16.1","","101.50","","","","-9","","Cloudy"
"-78.15","60.82","AKULIVIK A","7100071","2022-05-07 14:00","2022","05","07","14:00","-1.8","","-3.9","","86","","","","17","","37","","16.1","","101.49","","","","-10","","NA"
"-78.15","60.82","AKULIVIK A","7100071","2022-05-07 15:00","2022","05","07","15:00","-1.4","","-3.6","","85","","","","17","","31","","16.1","","101.52","","","","-8","","NA"
"-78.15","60.82","AKULIVIK A","7100071","2022-05-07 16:00","2022","05","07","16:00","-1.3","","-3.3","","87","","","","16","","33","","16.1","","101.45","","","","-8","","Cloudy"
"-78.15","60.82","AKULIVIK A","7100071","2022-05-07 17:00","2022","05","07","17:00"
"-78.15","60.82","AKULIVIK A","7100071","2022-05-07 18:00","2022","05","07","18:00"
"-78.15","60.82","AKULIVIK A","7100071","2022-05-07 19:00","2022","05","07","19:00"
"-78.15","60.82","AKULIVIK A","7100071","2022-05-07 20:00","2022","05","07","20:00"
"-78.15","60.82","AKULIVIK A","7100071","2022-05-07 21:00","2022","05","07","21:00"
"-78.15","60.82","AKULIVIK A","7100071","2022-05-07 22:00","2022","05","07","22:00"
"-78.15","60.82","AKULIVIK A","7100071","2022-05-07 23:00","2022","05","07","23:00"
"-78.15","60.82","AKULIVIK A","7100071","2022-05-08 00:00","2022","05","08","00:00"
"-78.15","60.82","AKULIVIK A","7100071","2022-05-08 01:00","2022","05","08","01:00"
"-78.15","60.82","AKULIVIK A","7100071","2022-05-08 02:00","2022","05","08","02:00"
"-78.15","60.82","AKULIVIK A","7100071","2022-05-08 03:00","2022","05","08","03:00"
"-78.15","60.82","AKULIVIK A","7100071","2022-05-08 04:00","2022","05","08","04:00"
"-78.15","60.82","AKULIVIK A","7100071","2022-05-08 05:00","2022","05","08","05:00"
"-78.15","60.82","AKULIVIK A","7100071","2022-05-08 06:00","2022","05","08","06:00"
"-78.15","60.82","AKULIVIK A","7100071","2022-05-08 07:00","2022","05","08","07:00","-3.4","","-4.9","","90","","","","15","","29","","16.1","","101.05","","","","-11","","Mostly Cloudy"
"-78.15","60.82","AKULIVIK A","7100071","2022-05-08 08:00","2022","05","08","08:00","-2.4","","-3.7","","90","","","","15","","27","","16.1","","101.01","","","","-9","","NA"
"-78.15","60.82","AKULIVIK A","7100071","2022-05-08 09:00","2022","05","08","09:00","-1.2","","-2.6","","90","","","","16","","28","","16.1","","101.01","","","","-8","","NA"
"-78.15","60.82","AKULIVIK A","7100071","2022-05-08 10:00","2022","05","08","10:00","0.1","","-1.6","","88","","","","16","","28","","16.1","","101.01","","","","","","Cloudy"
"-78.15","60.82","AKULIVIK A","7100071","2022-05-08 11:00","2022","05","08","11:00","0.6","","-1.6","","85","","","","16","","35","","16.1","","100.99","","","","","","NA"
"-78.15","60.82","AKULIVIK A","7100071","2022-05-08 12:00","2022","05","08","12:00","0.8","","-1.5","","85","","","","15","","27","","24.1","","100.98","","","","","","NA"
"-78.15","60.82","AKULIVIK A","7100071","2022-05-08 13:00","2022","05","08","13:00","1.0","","-1.2","","85","","","","15","","25","","24.1","","100.96","","","","","","Mainly Clear"
"-78.15","60.82","AKULIVIK A","7100071","2022-05-08 14:00","2022","05","08","14:00","0.9","","-1.3","","85","","","","15","","23","","24.1","","100.99","","","","","","NA"
"-78.15","60.82","AKULIVIK A","7100071","2022-05-08 15:00","2022","05","08","15:00","1.1","","-1.5","","83","","","","15","","30","","24.1","","100.95","","","","","","NA"
"-78.15","60.82","AKULIVIK A","7100071","2022-05-08 16:00","2022","05","08","16:00","1.0","","-1.2","","85","","","","15","","30","","24.1","","100.96","","","","","","Mainly Clear"
"-78.15","60.82","AKULIVIK A","7100071","2022-05-08 17:00","2022","05","08","17:00"
"-78.15","60.82","AKULIVIK A","7100071","2022-05-08 18:00","2022","05","08","18:00"
"-78.15","60.82","AKULIVIK A","7100071","2022-05-08 19:00","2022","05","08","19:00"
"-78.15","60.82","AKULIVIK A","7100071","2022-05-08 20:00","2022","05","08","20:00"
"-78.15","60.82","AKULIVIK A","7100071","2022-05-08 21:00","2022","05","08","21:00"
"-78.15","60.82","AKULIVIK A","7100071","2022-05-08 22:00","2022","05","08","22:00"
"-78.15","60.82","AKULIVIK A","7100071","2022-05-08 23:00","2022","05","08","23:00"
"-78.15","60.82","AKULIVIK A","7100071","2022-05-09 00:00","2022","05","09","00:00"
"-78.15","60.82","AKULIVIK A","7100071","2022-05-09 01:00","2022","05","09","01:00"
"-78.15","60.82","AKULIVIK A","7100071","2022-05-09 02:00","2022","05","09","02:00"
"-78.15","60.82","AKULIVIK A","7100071","2022-05-09 03:00","2022","05","09","03:00"
"-78.15","60.82","AKULIVIK A","7100071","2022-05-09 04:00","2022","05","09","04:00"
"-78.15","60.82","AKULIVIK A","7100071","2022-05-09 05:00","2022","05","09","05:00"
"-78.15","60.82","AKULIVIK A","7100071","2022-05-09 06:00","2022","05","09","06:00"
"-78.15","60.82","AKULIVIK A","7100071","2022-05-09 07:00","2022","05","09","07:00","-1.2","","-3.1","","87","","","","15","","28","","24.1","","100.92","","","","-8","","Cloudy"
"-78.15","60.82","AKULIVIK A","7100071","2022-05-09 08:00","2022","05","09","08:00","-0.5","","-2.3","","88","","","","15","","30","","24.1","","100.89","","","","-7","","NA"
"-78.15","60.82","AKULIVIK A","7100071","2022-05-09 09:00","2022","05","09","09:00","0.7","","-1.3","","86","","","","15","","31","","24.1","","100.86","","","","","","NA"
"-78.15","60.82","AKULIVIK A","7100071","2022-05-09 10:00","2022","05","09","10:00","1.2","","-1.1","","85","","","","15","","37","","24.1","","100.83","","","","","","Mostly Cloudy"
"-78.15","60.82","AKULIVIK A","7100071","2022-05-09 11:00","2022","05","09","11:00","1.4","","-0.8","","85","","","","15","","35","","24.1","","100.80","","","","","","NA"
"-78.15","60.82","AKULIVIK A","7100071","2022-05-09 12:00","2022","05","09","12:00","1.3","","-0.9","","85","","","","15","","35","","24.1","","100.76","","","","","","NA"
"-78.15","60.82","AKULIVIK A","7100071","2022-05-09 13:00","2022","05","09","13:00","1.0","","-0.7","","89","","","","16","","32","","16.1","","100.81","","","","","","Rain"
"-78.15","60.82","AKULIVIK A","7100071","2022-05-09 14:00","2022","05","09","14:00","0.5","","-0.6","","92","","","","15","","19","","8.1","","100.71","","","","","","Rain,Fog"
"-78.15","60.82","AKULIVIK A","7100071","2022-05-09 15:00","2022","05","09","15:00","0.4","","-0.4","","94","","","","17","","23","","4.0","","100.72","","","","","","Rain,Fog"
"-78.15","60.82","AKULIVIK A","7100071","2022-05-09 16:00","2022","05","09","16:00","0.5","","-0.2","","95","","","","19","","20","","3.2","","100.76","","","","","","Rain,Fog"
"-78.15","60.82","AKULIVIK A","7100071","2022-05-09 17:00","2022","05","09","17:00"
"-78.15","60.82","AKULIVIK A","7100071","2022-05-09 18:00","2022","05","09","18:00"
"-78.15","60.82","AKULIVIK A","7100071","2022-05-09 19:00","2022","05","09","19:00"
"-78.15","60.82","AKULIVIK A","7100071","2022-05-09 20:00","2022","05","09","20:00"
"-78.15","60.82","AKULIVIK A","7100071","2022-05-09 21:00","2022","05","09","21:00"
"-78.15","60.82","AKULIVIK A","7100071","2022-05-09 22:00","2022","05","09","22:00"
"-78.15","60.82","AKULIVIK A","7100071","2022-05-09 23:00","2022","05","09","23:00"
"-78.15","60.82","AKULIVIK A","7100071","2022-05-10 00:00","2022","05","10","00:00"
"-78.15","60.82","AKULIVIK A","7100071","2022-05-10 01:00","2022","05","10","01:00"
"-78.15","60.82","AKULIVIK A","7100071","2022-05-10 02:00","2022","05","10","02:00"
"-78.15","60.82","AKULIVIK A","7100071","2022-05-10 03:00","2022","05","10","03:00"
"-78.15","60.82","AKULIVIK A","7100071","2022-05-10 04:00","2022","05","10","04:00"
"-78.15","60.82","AKULIVIK A","7100071","2022-05-10 05:00","2022","05","10","05:00"
"-78.15","60.82","AKULIVIK A","7100071","2022-05-10 06:00","2022","05","10","06:00"
"-78.15","60.82","AKULIVIK A","7100071","2022-05-10 07:00","2022","05","10","07:00","-0.6","","-1.0","","97","","","","12","","39","","2.8","","100.62","","","","-8","","Freezing Rain,Fog"
"-78.15","60.82","AKULIVIK A","7100071","2022-05-10 08:00","2022","05","10","08:00","0.0","","-0.4","","97","","","","11","","35","","0.6","","100.40","","","","-7","","Fog"
"-78.15","60.82","AKULIVIK A","7100071","2022-05-10 09:00","2022","05","10","09:00","0.9","","0.4","","97","","","","12","","51","","3.6","","100.17","","","","","","Fog"
"-78.15","60.82","AKULIVIK A","7100071","2022-05-10 10:00","2022","05","10","10:00","1.3","","0.8","","96","","","","12","","58","","16.1","","100.01","","","","","","Cloudy"
"-78.15","60.82","AKULIVIK A","7100071","2022-05-10 11:00","2022","05","10","11:00","2.5","","1.1","","90","","","","10","","55","","16.1","","99.74","","","","","","Rain"
"-78.15","60.82","AKULIVIK A","7100071","2022-05-10 12:00","2022","05","10","12:00","2.4","","0.3","","86","","","","9","","52","","11.3","","99.55","","","","","","Rain"
"-78.15","60.82","AKULIVIK A","7100071","2022-05-10 13:00","2022","05","10","13:00","2.3","","0.4","","87","","","","9","","38","","16.1","","99.45","","","","","","Rain"
"-78.15","60.82","AKULIVIK A","7100071","2022-05-10 14:00","2022","05","10","14:00","2.4","","0.1","","85","","","","10","","34","","16.1","","99.28","","","","","","Rain Showers"
"-78.15","60.82","AKULIVIK A","7100071","2022-05-10 15:00","2022","05","10","15:00","2.3","","0.2","","86","","","","12","","39","","12.9","","99.01","","","","","","Rain Showers"
"-78.15","60.82","AKULIVIK A","7100071","2022-05-10 16:00","2022","05","10","16:00","2.1","","0.1","","86","","","","13","","35","","19.3","","98.94","","","","","","Cloudy"
"-78.15","60.82","AKULIVIK A","7100071","2022-05-10 17:00","2022","05","10","17:00"
"-78.15","60.82","AKULIVIK A","7100071","2022-05-10 18:00","2022","05","10","18:00"
"-78.15","60.82","AKULIVIK A","7100071","2022-05-10 19:00","2022","05","10","19:00"
"-78.15","60.82","AKULIVIK A","7100071","2022-05-10 20:00","2022","05","10","20:00"
"-78.15","60.82","AKULIVIK A","7100071","2022-05-10 21:00","2022","05","10","21:00"
"-78.15","60.82","AKULIVIK A","7100071","2022-05-10 22:00","2022","05","10","22:00"
"-78.15","60.82","AKULIVIK A","7100071","2022-05-10 23:00","2022","05","10","23:00"
"-78.15","60.82","AKULIVIK A","7100071","2022-05-11 00:00","2022","05","11","00:00"
"-78.15","60.82","AKULIVIK A","7100071","2022-05-11 01:00","2022","05","11","01:00"
"-78.15","60.82","AKULIVIK A","7100071","2022-05-11 02:00","2022","05","11","02:00"
"-78.15","60.82","AKULIVIK A","7100071","2022-05-11 03:00","2022","05","11","03:00"
"-78.15","60.82","AKULIVIK A","7100071","2022-05-11 04:00","2022","05","11","04:00"
"-78.15","60.82","AKULIVIK A","7100071","2022-05-11 05:00","2022","05","11","05:00"
"-78.15","60.82","AKULIVIK A","7100071","2022-05-11 06:00","2022","05","11","06:00"
"-78.15","60.82","AKULIVIK A","7100071","2022-05-11 07:00","2022","05","11","07:00","-1.8","","-3.1","","91","","","","34","","56","","12.9","","99.91","","","","-11","","Cloudy"
"-78.15","60.82","AKULIVIK A","7100071","2022-05-11 08:00","2022","05","11","08:00","-2.2","","-3.7","","90","","","","34","","53","","16.1","","100.07","","","","-11","","NA"
"-78.15","60.82","AKULIVIK A","7100071","2022-05-11 09:00","2022","05","11","09:00","-2.2","","-3.7","","89","","","","34","","42","","12.9","","100.28","","","","-11","","NA"
"-78.15","60.82","AKULIVIK A","7100071","2022-05-11 10:00","2022","05","11","10:00","-2.1","","-3.7","","89","","","","33","","44","","12.9","","100.45","","","","-11","","Cloudy"
"-78.15","60.82","AKULIVIK A","7100071","2022-05-11 11:00","2022","05","11","11:00","-2.2","","-4.1","","87","","","","33","","47","","12.9","","100.62","","","","-11","","NA"
"-78.15","60.82","AKULIVIK A","7100071","2022-05-11 12:00","2022","05","11","12:00","-2.2","","-4.3","","86","","","","34","","44","","16.1","","100.81","","","","-11","","NA"
"-78.15","60.82","AKULIVIK A","7100071","2022-05-11 13:00","2022","05","11","13:00","-2.2","","-4.3","","85","","","","34","","44","","16.1","","100.95","","","","-11","","Cloudy"
"-78.15","60.82","AKULIVIK A","7100071","2022-05-11 14:00","2022","05","11","14:00","-2.0","","-4.0","","86","","","","32","","42","","16.1","","101.12","","","","-10","","NA"
"-78.15","60.82","AKULIVIK A","7100071","2022-05-11 15:00","2022","05","11","15:00","-2.1","","-4.2","","86","","","","33","","46","","16.1","","101.26","","","","-11","","NA"
"-78.15","60.82","AKULIVIK A","7100071","2022-05-11 16:00","2022","05","11","16:00","-2.2","","-4.2","","86","","","","34","","44","","16.1","","101.39","","","","-11","","Cloudy"
"-78.15","60.82","AKULIVIK A","7100071","2022-05-11 17:00","2022","05","11","17:00"
"-78.15","60.82","AKULIVIK A","7100071","2022-05-11 18:00","2022","05","11","18:00"
"-78.15","60.82","AKULIVIK A","7100071","2022-05-11 19:00","2022","05","11","19:00"
"-78.15","60.82","AKULIVIK A","7100071","2022-05-11 20:00","2022","05","11","20:00"
"-78.15","60.82","AKULIVIK A","7100071","2022-05-11 21:00","2022","05","11","21:00"
"-78.15","60.82","AKULIVIK A","7100071","2022-05-11 22:00","2022","05","11","22:00"
"-78.15","60.82","AKULIVIK A","7100071","2022-05-11 23:00","2022","05","11","23:00"
"-78.15","60.82","AKULIVIK A","7100071","2022-05-12 00:00","2022","05","12","00:00"
"-78.15","60.82","AKULIVIK A","7100071","2022-05-12 01:00","2022","05","12","01:00"
"-78.15","60.82","AKULIVIK A","7100071","2022-05-12 02:00","2022","05","12","02:00"
"-78.15","60.82","AKULIVIK A","7100071","2022-05-12 03:00","2022","05","12","03:00"
"-78.15","60.82","AKULIVIK A","7100071","2022-05-12 04:00","2022","05","12","04:00"
"-78.15","60.82","AKULIVIK A","7100071","2022-05-12 05:00","2022","05","12","05:00"
"-78.15","60.82","AKULIVIK A","7100071","2022-05-12 06:00","2022","05","12","06:00"
"-78.15","60.82","AKULIVIK A","7100071","2022-05-12 07:00","2022","05","12","07:00","-3.1","","-4.5","","90","","","","22","","8","","24.1","","102.31","","","","-6","","Mostly Cloudy"
"-78.15","60.82","AKULIVIK A","7100071","2022-05-12 08:00","2022","05","12","08:00","-2.6","","-4.3","","88","","","","20","","11","","24.1","","102.32","","","","-7","","NA"
"-78.15","60.82","AKULIVIK A","7100071","2022-05-12 09:00","2022","05","12","09:00","-1.8","","-3.9","","86","","","","21","","13","","24.1","","102.25","","","","-6","","NA"
"-78.15","60.82","AKULIVIK A","7100071","2022-05-12 10:00","2022","05","12","10:00","-1.0","","-3.6","","83","","","","19","","12","","24.1","","102.17","","","","-5","","Mostly Cloudy"
"-78.15","60.82","AKULIVIK A","7100071","2022-05-12 11:00","2022","05","12","11:00","-0.8","","-3.0","","85","","","","20","","26","","24.1","","102.24","","","","-7","","NA"
"-78.15","60.82","AKULIVIK A","7100071","2022-05-12 12:00","2022","05","12","12:00","-0.3","","-2.5","","85","","","","19","","22","","24.1","","102.22","","","","-6","","NA"
"-78.15","60.82","AKULIVIK A","7100071","2022-05-12 13:00","2022","05","12","13:00","0.2","","-2.3","","83","","","","17","","21","","24.1","","102.18","","","","","","Cloudy"
"-78.15","60.82","AKULIVIK A","7100071","2022-05-12 14:00","2022","05","12","14:00","0.1","","-2.3","","84","","","","17","","31","","24.1","","102.16","","","","","","NA"
"-78.15","60.82","AKULIVIK A","7100071","2022-05-12 15:00","2022","05","12","15:00","0.3","","-1.7","","86","","","","16","","29","","24.1","","102.11","","","","","","NA"
"-78.15","60.82","AKULIVIK A","7100071","2022-05-12 16:00","2022","05","12","16:00","0.1","","-1.9","","86","","","","15","","32","","24.1","","101.96","","","","","","Mostly Cloudy"
"-78.15","60.82","AKULIVIK A","7100071","2022-05-12 17:00","2022","05","12","17:00"
"-78.15","60.82","AKULIVIK A","7100071","2022-05-12 18:00","2022","05","12","18:00"
"-78.15","60.82","AKULIVIK A","7100071","2022-05-12 19:00","2022","05","12","19:00"
"-78.15","60.82","AKULIVIK A","7100071","2022-05-12 20:00","2022","05","12","20:00"
"-78.15","60.82","AKULIVIK A","7100071","2022-05-12 21:00","2022","05","12","21:00"
"-78.15","60.82","AKULIVIK A","7100071","2022-05-12 22:00","2022","05","12","22:00"
"-78.15","60.82","AKULIVIK A","7100071","2022-05-12 23:00","2022","05","12","23:00"
"-78.15","60.82","AKULIVIK A","7100071","2022-05-13 00:00","2022","05","13","00:00"
"-78.15","60.82","AKULIVIK A","7100071","2022-05-13 01:00","2022","05","13","01:00"
"-78.15","60.82","AKULIVIK A","7100071","2022-05-13 02:00","2022","05","13","02:00"
"-78.15","60.82","AKULIVIK A","7100071","2022-05-13 03:00","2022","05","13","03:00"
"-78.15","60.82","AKULIVIK A","7100071","2022-05-13 04:00","2022","05","13","04:00"
"-78.15","60.82","AKULIVIK A","7100071","2022-05-13 05:00","2022","05","13","05:00"
"-78.15","60.82","AKULIVIK A","7100071","2022-05-13 06:00","2022","05","13","06:00"
"-78.15","60.82","AKULIVIK A","7100071","2022-05-13 07:00","2022","05","13","07:00","-0.4","","-1.0","","96","","","","23","","20","","1.2","","101.36","","","","-6","","Snow"
"-78.15","60.82","AKULIVIK A","7100071","2022-05-13 08:00","2022","05","13","08:00","-0.3","","-0.8","","96","","","","23","","15","","1.0","","101.38","","","","-5","","Snow"
"-78.15","60.82","AKULIVIK A","7100071","2022-05-13 09:00","2022","05","13","09:00","0.0","","-0.6","","96","","","","28","","13","","4.0","","101.38","","","","-4","","Snow Showers"
"-78.15","60.82","AKULIVIK A","7100071","2022-05-13 10:00","2022","05","13","10:00","0.2","","-0.9","","92","","","","29","","17","","9.7","","101.46","","","","","","Snow"
"-78.15","60.82","AKULIVIK A","7100071","2022-05-13 11:00","2022","05","13","11:00","0.2","","-1.0","","92","","","","32","","14","","8.1","","101.58","","","","","","Fog"
"-78.15","60.82","AKULIVIK A","7100071","2022-05-13 12:00","2022","05","13","12:00","0.3","","-0.8","","92","","","","34","","20","","2.8","","101.62","","","","","","Fog"
"-78.15","60.82","AKULIVIK A","7100071","2022-05-13 13:00","2022","05","13","13:00","0.2","","-0.9","","92","","","","36","","21","","3.2","","101.67","","","","","","Fog"
"-78.15","60.82","AKULIVIK A","7100071","2022-05-13 14:00","2022","05","13","14:00","0.1","","-0.8","","94","","","","36","","26","","1.6","","101.72","","","","","","Fog"
"-78.15","60.82","AKULIVIK A","7100071","2022-05-13 15:00","2022","05","13","15:00","0.1","","-0.8","","94","","","","1","","23","","1.6","","101.80","","","","","","Fog"
"-78.15","60.82","AKULIVIK A","7100071","2022-05-13 16:00","2022","05","13","16:00","0.5","","-0.8","","91","","","","36","","27","","24.1","","101.85","","","","","","Mainly Clear"
"-78.15","60.82","AKULIVIK A","7100071","2022-05-13 17:00","2022","05","13","17:00"
"-78.15","60.82","AKULIVIK A","7100071","2022-05-13 18:00","2022","05","13","18:00"
"-78.15","60.82","AKULIVIK A","7100071","2022-05-13 19:00","2022","05","13","19:00"
"-78.15","60.82","AKULIVIK A","7100071","2022-05-13 20:00","2022","05","13","20:00"
"-78.15","60.82","AKULIVIK A","7100071","2022-05-13 21:00","2022","05","13","21:00"
"-78.15","60.82","AKULIVIK A","7100071","2022-05-13 22:00","2022","05","13","22:00"
"-78.15","60.82","AKULIVIK A","7100071","2022-05-13 23:00","2022","05","13","23:00"
"-78.15","60.82","AKULIVIK A","7100071","2022-05-14 00:00","2022","05","14","00:00"
"-78.15","60.82","AKULIVIK A","7100071","2022-05-14 01:00","2022","05","14","01:00"
"-78.15","60.82","AKULIVIK A","7100071","2022-05-14 02:00","2022","05","14","02:00"
"-78.15","60.82","AKULIVIK A","7100071","2022-05-14 03:00","2022","05","14","03:00"
"-78.15","60.82","AKULIVIK A","7100071","2022-05-14 04:00","2022","05","14","04:00"
"-78.15","60.82","AKULIVIK A","7100071","2022-05-14 05:00","2022","05","14","05:00"
"-78.15","60.82","AKULIVIK A","7100071","2022-05-14 06:00","2022","05","14","06:00"
"-78.15","60.82","AKULIVIK A","7100071","2022-05-14 07:00","2022","05","14","07:00","-5.3","","-6.7","","90","","","","35","","14","","12.9","","102.56","","","","-11","","Mostly Cloudy"
"-78.15","60.82","AKULIVIK A","7100071","2022-05-14 08:00","2022","05","14","08:00","-4.3","","-6.2","","87","","","","36","","10","","24.1","","102.58","","","","-8","","NA"
"-78.15","60.82","AKULIVIK A","7100071","2022-05-14 09:00","2022","05","14","09:00","-3.6","","-5.6","","86","","","","2","","17","","24.1","","102.53","","","","-9","","NA"
"-78.15","60.82","AKULIVIK A","7100071","2022-05-14 10:00","2022","05","14","10:00","-3.0","","-5.2","","85","","","","4","","22","","24.1","","102.51","","","","-9","","Mainly Clear"
"-78.15","60.82","AKULIVIK A","7100071","2022-05-14 11:00","2022","05","14","11:00","-1.2","","-4.6","","78","","","","5","","20","","24.1","","102.44","","","","-7","","NA"
"-78.15","60.82","AKULIVIK A","7100071","2022-05-14 12:00","2022","05","14","12:00","0.2","","-4.1","","73","","","","12","","7","","24.1","","102.49","","","","","","NA"
"-78.15","60.82","AKULIVIK A","7100071","2022-05-14 13:00","2022","05","14","13:00","-0.5","","-3.5","","81","","","","2","","9","","24.1","","102.49","","","","-4","","Mainly Clear"
"-78.15","60.82","AKULIVIK A","7100071","2022-05-14 14:00","2022","05","14","14:00","-0.2","","-3.9","","76","","","","1","","7","","24.1","","102.46","","","","-3","","NA"
"-78.15","60.82","AKULIVIK A","7100071","2022-05-14 15:00","2022","05","14","15:00","0.0","","-3.3","","78","","","","2","","10","","24.1","","102.46","","","","-3","","NA"
"-78.15","60.82","AKULIVIK A","7100071","2022-05-14 16:00","2022","05","14","16:00","0.9","","-3.9","","71","","","","9","","19","","24.1","","102.40","","","","","","Mainly Clear"
"-78.15","60.82","AKULIVIK A","7100071","2022-05-14 17:00","2022","05","14","17:00"
"-78.15","60.82","AKULIVIK A","7100071","2022-05-14 18:00","2022","05","14","18:00"
"-78.15","60.82","AKULIVIK A","7100071","2022-05-14 19:00","2022","05","14","19:00"
"-78.15","60.82","AKULIVIK A","7100071","2022-05-14 20:00","2022","05","14","20:00"
"-78.15","60.82","AKULIVIK A","7100071","2022-05-14 21:00","2022","05","14","21:00"
"-78.15","60.82","AKULIVIK A","7100071","2022-05-14 22:00","2022","05","14","22:00"
"-78.15","60.82","AKULIVIK A","7100071","2022-05-14 23:00","2022","05","14","23:00"
"-78.15","60.82","AKULIVIK A","7100071","2022-05-15 00:00","2022","05","15","00:00"
"-78.15","60.82","AKULIVIK A","7100071","2022-05-15 01:00","2022","05","15","01:00"
"-78.15","60.82","AKULIVIK A","7100071","2022-05-15 02:00","2022","05","15","02:00"
"-78.15","60.82","AKULIVIK A","7100071","2022-05-15 03:00","2022","05","15","03:00"
"-78.15","60.82","AKULIVIK A","7100071","2022-05-15 04:00","2022","05","15","04:00"
"-78.15","60.82","AKULIVIK A","7100071","2022-05-15 05:00","2022","05","15","05:00"
"-78.15","60.82","AKULIVIK A","7100071","2022-05-15 06:00","2022","05","15","06:00"
"-78.15","60.82","AKULIVIK A","7100071","2022-05-15 07:00","2022","05","15","07:00","-2.5","","-5.4","","81","","","","9","","35","","24.1","","101.71","","","","-10","","Cloudy"
"-78.15","60.82","AKULIVIK A","7100071","2022-05-15 08:00","2022","05","15","08:00","-2.2","","-5.3","","79","","","","10","","43","","24.1","","101.60","","","","-11","","NA"
"-78.15","60.82","AKULIVIK A","7100071","2022-05-15 09:00","2022","05","15","09:00","-1.9","","-5.6","","76","","","","11","","49","","24.1","","101.50","","","","-11","","NA"
"-78.15","60.82","AKULIVIK A","7100071","2022-05-15 10:00","2022","05","15","10:00","-1.6","","-5.6","","74","","","","10","","48","","24.1","","101.37","","","","-10","","Cloudy"
"-78.15","60.82","AKULIVIK A","7100071","2022-05-15 11:00","2022","05","15","11:00","-1.0","","-5.5","","72","","","","11","","55","","24.1","","101.20","","","","-10","","NA"
"-78.15","60.82","AKULIVIK A","7100071","2022-05-15 12:00","2022","05","15","12:00","-0.4","","-5.8","","67","","","","12","","54","","24.1","","101.20","","","","-9","","NA"
"-78.15","60.82","AKULIVIK A","7100071","2022-05-15 13:00","2022","05","15","13:00","0.4","","-5.2","","66","","","","11","","40","","24.1","","101.14","","","","","","Cloudy"
"-78.15","60.82","AKULIVIK A","7100071","2022-05-15 14:00","2022","05","15","14:00","0.6","","-4.4","","69","","","","10","","35","","24.1","","101.06","","","","","","NA"
"-78.15","60.82","AKULIVIK A","7100071","2022-05-15 15:00","2022","05","15","15:00","0.7","","-4.6","","68","","","","10","","46","","24.1","","100.96","","","","","","NA"
"-78.15","60.82","AKULIVIK A","7100071","2022-05-15 16:00","2022","05","15","16:00","0.7","","-4.1","","70","","","","10","","24","","24.1","","100.97","","","","","","Cloudy"
"-78.15","60.82","AKULIVIK A","7100071","2022-05-15 17:00","2022","05","15","17:00"
"-78.15","60.82","AKULIVIK A","7100071","2022-05-15 18:00","2022","05","15","18:00"
"-78.15","60.82","AKULIVIK A","7100071","2022-05-15 19:00","2022","05","15","19:00"
"-78.15","60.82","AKULIVIK A","7100071","2022-05-15 20:00","2022","05","15","20:00"
"-78.15","60.82","AKULIVIK A","7100071","2022-05-15 21:00","2022","05","15","21:00"
"-78.15","60.82","AKULIVIK A","7100071","2022-05-15 22:00","2022","05","15","22:00"
"-78.15","60.82","AKULIVIK A","7100071","2022-05-15 23:00","2022","05","15","23:00"
"-78.15","60.82","AKULIVIK A","7100071","2022-05-16 00:00","2022","05","16","00:00"
"-78.15","60.82","AKULIVIK A","7100071","2022-05-16 01:00","2022","05","16","01:00"
"-78.15","60.82","AKULIVIK A","7100071","2022-05-16 02:00","2022","05","16","02:00"
"-78.15","60.82","AKULIVIK A","7100071","2022-05-16 03:00","2022","05","16","03:00"
"-78.15","60.82","AKULIVIK A","7100071","2022-05-16 04:00","2022","05","16","04:00"
"-78.15","60.82","AKULIVIK A","7100071","2022-05-16 05:00","2022","05","16","05:00"
"-78.15","60.82","AKULIVIK A","7100071","2022-05-16 06:00","2022","05","16","06:00"
"-78.15","60.82","AKULIVIK A","7100071","2022-05-16 07:00","2022","05","16","07:00","-2.2","","-3.5","","91","","","","8","","49","","0.6","","100.13","","","","-11","","Snow,Blowing Snow"
"-78.15","60.82","AKULIVIK A","7100071","2022-05-16 08:00","2022","05","16","08:00","-2.0","","-3.4","","91","","","","9","","52","","0.6","","100.04","","","","-11","","Snow,Blowing Snow"
"-78.15","60.82","AKULIVIK A","7100071","2022-05-16 09:00","2022","05","16","09:00","-1.8","","-3.0","","91","","","","10","","56","","0.6","","100.00","","","","-11","","Snow,Blowing Snow"
"-78.15","60.82","AKULIVIK A","7100071","2022-05-16 10:00","2022","05","16","10:00","-1.7","","-2.9","","92","","","","10","","55","","0.2","","99.94","","","","-11","","Moderate Snow,Blowing Snow"
"-78.15","60.82","AKULIVIK A","7100071","2022-05-16 11:00","2022","05","16","11:00","-1.5","","-2.6","","92","","","","10","","52","","0.2","","99.88","","","","-10","","Moderate Snow,Blowing Snow"
"-78.15","60.82","AKULIVIK A","7100071","2022-05-16 12:00","2022","05","16","12:00","-1.2","","-2.4","","92","","","","10","","52","","0.2","","99.88","","","","-10","","Moderate Snow,Blowing Snow"
"-78.15","60.82","AKULIVIK A","7100071","2022-05-16 13:00","2022","05","16","13:00","-0.8","","-2.1","","91","","","","11","","57","","1.0","","99.89","","","","-10","","Freezing Rain,Blowing Snow"
"-78.15","60.82","AKULIVIK A","7100071","2022-05-16 14:00","2022","05","16","14:00","-0.9","","-2.2","","91","","","","10","","52","","1.0","","99.85","","","","-10","","Freezing Rain,Snow"
"-78.15","60.82","AKULIVIK A","7100071","2022-05-16 15:00","2022","05","16","15:00","-0.8","","-1.9","","92","","","","10","","51","","1.6","","99.82","","","","-9","","Freezing Rain,Snow,Fog"
"-78.15","60.82","AKULIVIK A","7100071","2022-05-16 16:00","2022","05","16","16:00","-0.5","","-1.6","","92","","","","10","","50","","2.0","","99.80","","","","-9","","Freezing Rain,Snow,Fog"
"-78.15","60.82","AKULIVIK A","7100071","2022-05-16 17:00","2022","05","16","17:00"
"-78.15","60.82","AKULIVIK A","7100071","2022-05-16 18:00","2022","05","16","18:00"
"-78.15","60.82","AKULIVIK A","7100071","2022-05-16 19:00","2022","05","16","19:00"
"-78.15","60.82","AKULIVIK A","7100071","2022-05-16 20:00","2022","05","16","20:00"
"-78.15","60.82","AKULIVIK A","7100071","2022-05-16 21:00","2022","05","16","21:00"
"-78.15","60.82","AKULIVIK A","7100071","2022-05-16 22:00","2022","05","16","22:00"
"-78.15","60.82","AKULIVIK A","7100071","2022-05-16 23:00","2022","05","16","23:00"
"-78.15","60.82","AKULIVIK A","7100071","2022-05-17 00:00","2022","05","17","00:00"
"-78.15","60.82","AKULIVIK A","7100071","2022-05-17 01:00","2022","05","17","01:00"
"-78.15","60.82","AKULIVIK A","7100071","2022-05-17 02:00","2022","05","17","02:00"
"-78.15","60.82","AKULIVIK A","7100071","2022-05-17 03:00","2022","05","17","03:00"
"-78.15","60.82","AKULIVIK A","7100071","2022-05-17 04:00","2022","05","17","04:00"
"-78.15","60.82","AKULIVIK A","7100071","2022-05-17 05:00","2022","05","17","05:00"
"-78.15","60.82","AKULIVIK A","7100071","2022-05-17 06:00","2022","05","17","06:00"
"-78.15","60.82","AKULIVIK A","7100071","2022-05-17 07:00","2022","05","17","07:00","0.3","","-0.2","","96","","","","11","","15","","0.8","","99.67","","","","","","Rain,Fog"
"-78.15","60.82","AKULIVIK A","7100071","2022-05-17 08:00","2022","05","17","08:00","0.0","","-0.5","","96","","","","14","","33","","1.0","","99.66","","","","-7","","Rain,Snow,Fog"
"-78.15","60.82","AKULIVIK A","7100071","2022-05-17 09:00","2022","05","17","09:00","0.4","","-0.2","","96","","","","13","","29","","16.1","","99.62","","","","","","Rain"
"-78.15","60.82","AKULIVIK A","7100071","2022-05-17 10:00","2022","05","17","10:00","0.9","","-0.8","","88","","","","13","","35","","24.1","","99.62","","","","","","Mostly Cloudy"
"-78.15","60.82","AKULIVIK A","7100071","2022-05-17 11:00","2022","05","17","11:00","0.8","","-0.7","","90","","","","13","","36","","3.2","","99.64","","","","","","Snow Showers"
"-78.15","60.82","AKULIVIK A","7100071","2022-05-17 12:00","2022","05","17","12:00","0.5","","-1.2","","88","","","","15","","41","","16.1","","99.64","","","","","","Rain Showers,Snow Showers"
"-78.15","60.82","AKULIVIK A","7100071","2022-05-17 13:00","2022","05","17","13:00","0.1","","-1.6","","88","","","","15","","44","","4.0","","99.66","","","","","","Fog"
"-78.15","60.82","AKULIVIK A","7100071","2022-05-17 14:00","2022","05","17","14:00","-0.1","","-2.5","","84","","","","15","","43","","16.1","","99.66","","","","-8","","NA"
"-78.15","60.82","AKULIVIK A","7100071","2022-05-17 15:00","2022","05","17","15:00","-0.2","","-2.8","","83","","","","15","","45","","16.1","","99.71","","","","-8","","NA"
"-78.15","60.82","AKULIVIK A","7100071","2022-05-17 16:00","2022","05","17","16:00","-0.3","","-3.0","","83","","","","15","","39","","16.1","","99.75","","","","-8","","Cloudy"
"-78.15","60.82","AKULIVIK A","7100071","2022-05-17 17:00","2022","05","17","17:00"
"-78.15","60.82","AKULIVIK A","7100071","2022-05-17 18:00","2022","05","17","18:00"
"-78.15","60.82","AKULIVIK A","7100071","2022-05-17 19:00","2022","05","17","19:00"
"-78.15","60.82","AKULIVIK A","7100071","2022-05-17 20:00","2022","05","17","20:00"
"-78.15","60.82","AKULIVIK A","7100071","2022-05-17 21:00","2022","05","17","21:00"
"-78.15","60.82","AKULIVIK A","7100071","2022-05-17 22:00","2022","05","17","22:00"
"-78.15","60.82","AKULIVIK A","7100071","2022-05-17 23:00","2022","05","17","23:00"
"-78.15","60.82","AKULIVIK A","7100071","2022-05-18 00:00","2022","05","18","00:00"
"-78.15","60.82","AKULIVIK A","7100071","2022-05-18 01:00","2022","05","18","01:00"
"-78.15","60.82","AKULIVIK A","7100071","2022-05-18 02:00","2022","05","18","02:00"
"-78.15","60.82","AKULIVIK A","7100071","2022-05-18 03:00","2022","05","18","03:00"
"-78.15","60.82","AKULIVIK A","7100071","2022-05-18 04:00","2022","05","18","04:00"
"-78.15","60.82","AKULIVIK A","7100071","2022-05-18 05:00","2022","05","18","05:00"
"-78.15","60.82","AKULIVIK A","7100071","2022-05-18 06:00","2022","05","18","06:00"
"-78.15","60.82","AKULIVIK A","7100071","2022-05-18 07:00","2022","05","18","07:00","-0.7","","-4.0","","78","","","","10","","29","","24.1","","99.59","","","","-7","","Mostly Cloudy"
"-78.15","60.82","AKULIVIK A","7100071","2022-05-18 08:00","2022","05","18","08:00","-0.3","","-3.5","","79","","","","11","","26","","24.1","","99.58","","","","-6","","NA"
"-78.15","60.82","AKULIVIK A","7100071","2022-05-18 09:00","2022","05","18","09:00","-0.1","","-3.4","","78","","","","10","","23","","16.1","","99.53","","","","-6","","NA"
"-78.15","60.82","AKULIVIK A","7100071","2022-05-18 10:00","2022","05","18","10:00","-0.4","","-2.7","","84","","","","9","","23","","2.8","","99.47","","","","-6","","Snow"
"-78.15","60.82","AKULIVIK A","7100071","2022-05-18 11:00","2022","05","18","11:00","-0.1","","-1.5","","90","","","","9","","22","","1.6","","99.45","","","","-6","","Snow"
"-78.15","60.82","AKULIVIK A","7100071","2022-05-18 12:00","2022","05","18","12:00","-0.2","","-1.8","","88","","","","10","","23","","4.0","","99.38","","","","-6","","Snow"
"-78.15","60.82","AKULIVIK A","7100071","2022-05-18 13:00","2022","05","18","13:00","-0.3","","-2.0","","88","","","","12","","22","","8.1","","99.35","","","","-6","","Snow"
"-78.15","60.82","AKULIVIK A","7100071","2022-05-18 14:00","2022","05","18","14:00","0.2","","-2.5","","82","","","","12","","19","","16.1","","99.32","","","","","","NA"
"-78.15","60.82","AKULIVIK A","7100071","2022-05-18 15:00","2022","05","18","15:00","0.7","","-2.4","","80","","","","11","","21","","16.1","","99.30","","","","","","NA"
"-78.15","60.82","AKULIVIK A","7100071","2022-05-18 16:00","2022","05","18","16:00","1.1","","-2.6","","77","","","","11","","26","","24.1","","99.28","","","","","","Mostly Cloudy"
"-78.15","60.82","AKULIVIK A","7100071","2022-05-18 17:00","2022","05","18","17:00"
"-78.15","60.82","AKULIVIK A","7100071","2022-05-18 18:00","2022","05","18","18:00"
"-78.15","60.82","AKULIVIK A","7100071","2022-05-18 19:00","2022","05","18","19:00"
"-78.15","60.82","AKULIVIK A","7100071","2022-05-18 20:00","2022","05","18","20:00"
"-78.15","60.82","AKULIVIK A","7100071","2022-05-18 21:00","2022","05","18","21:00"
"-78.15","60.82","AKULIVIK A","7100071","2022-05-18 22:00","2022","05","18","22:00"
"-78.15","60.82","AKULIVIK A","7100071","2022-05-18 23:00","2022","05","18","23:00"
"-78.15","60.82","AKULIVIK A","7100071","2022-05-19 00:00","2022","05","19","00:00"
"-78.15","60.82","AKULIVIK A","7100071","2022-05-19 01:00","2022","05","19","01:00"
"-78.15","60.82","AKULIVIK A","7100071","2022-05-19 02:00","2022","05","19","02:00"
"-78.15","60.82","AKULIVIK A","7100071","2022-05-19 03:00","2022","05","19","03:00"
"-78.15","60.82","AKULIVIK A","7100071","2022-05-19 04:00","2022","05","19","04:00"
"-78.15","60.82","AKULIVIK A","7100071","2022-05-19 05:00","2022","05","19","05:00"
"-78.15","60.82","AKULIVIK A","7100071","2022-05-19 06:00","2022","05","19","06:00"
"-78.15","60.82","AKULIVIK A","7100071","2022-05-19 07:00","2022","05","19","07:00","-1.9","","-4.6","","82","","","","12","","30","","24.1","","99.56","","","","-9","","Mostly Cloudy"
"-78.15","60.82","AKULIVIK A","7100071","2022-05-19 08:00","2022","05","19","08:00","-1.4","","-4.2","","81","","","","12","","32","","24.1","","99.60","","","","-9","","NA"
"-78.15","60.82","AKULIVIK A","7100071","2022-05-19 09:00","2022","05","19","09:00","-0.5","","-4.0","","77","","","","12","","37","","24.1","","99.61","","","","-8","","NA"
"-78.15","60.82","AKULIVIK A","7100071","2022-05-19 10:00","2022","05","19","10:00","0.4","","-3.2","","77","","","","12","","32","","24.1","","99.63","","","","","","Mostly Cloudy"
"-78.15","60.82","AKULIVIK A","7100071","2022-05-19 11:00","2022","05","19","11:00","0.8","","-2.7","","78","","","","11","","27","","24.1","","99.67","","","","","","NA"
"-78.15","60.82","AKULIVIK A","7100071","2022-05-19 12:00","2022","05","19","12:00","1.5","","-3.1","","72","","","","13","","22","","24.1","","99.71","","","","","","NA"
"-78.15","60.82","AKULIVIK A","7100071","2022-05-19 13:00","2022","05","19","13:00","1.6","","-4.1","","66","","","","13","","22","","16.1","","99.76","","","","","","Mostly Cloudy"
"-78.15","60.82","AKULIVIK A","7100071","2022-05-19 14:00","2022","05","19","14:00","1.7","","-3.3","","69","","","","13","","18","","16.1","","99.79","","","","","","NA"
"-78.15","60.82","AKULIVIK A","7100071","2022-05-19 15:00","2022","05","19","15:00","1.8","","-3.1","","70","","","","10","","18","","16.1","","99.79","","","","","","NA"
"-78.15","60.82","AKULIVIK A","7100071","2022-05-19 16:00","2022","05","19","16:00","2.1","","-2.9","","70","","","","10","","18","","16.1","","99.80","","","","","","Mostly Cloudy"
"-78.15","60.82","AKULIVIK A","7100071","2022-05-19 17:00","2022","05","19","17:00"
"-78.15","60.82","AKULIVIK A","7100071","2022-05-19 18:00","2022","05","19","18:00"
"-78.15","60.82","AKULIVIK A","7100071","2022-05-19 19:00","2022","05","19","19:00"
"-78.15","60.82","AKULIVIK A","7100071","2022-05-19 20:00","2022","05","19","20:00"
"-78.15","60.82","AKULIVIK A","7100071","2022-05-19 21:00","2022","05","19","21:00"
"-78.15","60.82","AKULIVIK A","7100071","2022-05-19 22:00","2022","05","19","22:00"
"-78.15","60.82","AKULIVIK A","7100071","2022-05-19 23:00","2022","05","19","23:00"
"-78.15","60.82","AKULIVIK A","7100071","2022-05-20 00:00","2022","05","20","00:00"
"-78.15","60.82","AKULIVIK A","7100071","2022-05-20 01:00","2022","05","20","01:00"
"-78.15","60.82","AKULIVIK A","7100071","2022-05-20 02:00","2022","05","20","02:00"
"-78.15","60.82","AKULIVIK A","7100071","2022-05-20 03:00","2022","05","20","03:00"
"-78.15","60.82","AKULIVIK A","7100071","2022-05-20 04:00","2022","05","20","04:00"
"-78.15","60.82","AKULIVIK A","7100071","2022-05-20 05:00","2022","05","20","05:00"
"-78.15","60.82","AKULIVIK A","7100071","2022-05-20 06:00","2022","05","20","06:00"
"-78.15","60.82","AKULIVIK A","7100071","2022-05-20 07:00","2022","05","20","07:00","-0.4","","-1.6","","92","","","","10","","39","","1.6","","99.69","","","","-8","","Snow"
"-78.15","60.82","AKULIVIK A","7100071","2022-05-20 08:00","2022","05","20","08:00","-1.2","","-2.2","","93","","","","18","","23","","1.6","","99.78","","","","-7","","Snow"
"-78.15","60.82","AKULIVIK A","7100071","2022-05-20 09:00","2022","05","20","09:00","-1.2","","-2.3","","92","","","","15","","24","","4.0","","99.82","","","","-7","","Snow"
"-78.15","60.82","AKULIVIK A","7100071","2022-05-20 10:00","2022","05","20","10:00","-0.4","","-1.8","","90","","","","14","","21","","12.9","","99.82","","","","-6","","Cloudy"
"-78.15","60.82","AKULIVIK A","7100071","2022-05-20 11:00","2022","05","20","11:00","-0.1","","-1.8","","88","","","","14","","23","","16.1","","99.81","","","","-6","","Snow"
"-78.15","60.82","AKULIVIK A","7100071","2022-05-20 12:00","2022","05","20","12:00","0.5","","-1.6","","86","","","","15","","23","","16.1","","99.80","","","","","","NA"
"-78.15","60.82","AKULIVIK A","7100071","2022-05-20 13:00","2022","05","20","13:00","0.8","","-1.8","","83","","","","14","","26","","24.1","","99.80","","","","","","Mostly Cloudy"
"-78.15","60.82","AKULIVIK A","7100071","2022-05-20 14:00","2022","05","20","14:00","0.8","","-1.3","","86","","","","14","","23","","16.1","","99.83","","","","","","Snow"
"-78.15","60.82","AKULIVIK A","7100071","2022-05-20 15:00","2022","05","20","15:00","0.5","","-2.4","","81","","","","17","","20","","16.1","","99.81","","","","","","NA"
"-78.15","60.82","AKULIVIK A","7100071","2022-05-20 16:00","2022","05","20","16:00","0.4","","-2.5","","81","","","","14","","20","","16.1","","99.77","","","","","","Mostly Cloudy"
"-78.15","60.82","AKULIVIK A","7100071","2022-05-20 17:00","2022","05","20","17:00"
"-78.15","60.82","AKULIVIK A","7100071","2022-05-20 18:00","2022","05","20","18:00"
"-78.15","60.82","AKULIVIK A","7100071","2022-05-20 19:00","2022","05","20","19:00"
"-78.15","60.82","AKULIVIK A","7100071","2022-05-20 20:00","2022","05","20","20:00"
"-78.15","60.82","AKULIVIK A","7100071","2022-05-20 21:00","2022","05","20","21:00"
"-78.15","60.82","AKULIVIK A","7100071","2022-05-20 22:00","2022","05","20","22:00"
"-78.15","60.82","AKULIVIK A","7100071","2022-05-20 23:00","2022","05","20","23:00"
"-78.15","60.82","AKULIVIK A","7100071","2022-05-21 00:00","2022","05","21","00:00"
"-78.15","60.82","AKULIVIK A","7100071","2022-05-21 01:00","2022","05","21","01:00"
"-78.15","60.82","AKULIVIK A","7100071","2022-05-21 02:00","2022","05","21","02:00"
"-78.15","60.82","AKULIVIK A","7100071","2022-05-21 03:00","2022","05","21","03:00"
"-78.15","60.82","AKULIVIK A","7100071","2022-05-21 04:00","2022","05","21","04:00"
"-78.15","60.82","AKULIVIK A","7100071","2022-05-21 05:00","2022","05","21","05:00"
"-78.15","60.82","AKULIVIK A","7100071","2022-05-21 06:00","2022","05","21","06:00"
"-78.15","60.82","AKULIVIK A","7100071","2022-05-21 07:00","2022","05","21","07:00","0.1","","-0.5","","96","","","","36","","28","","0.2","","98.12","","","","","","Moderate Snow,Fog"
"-78.15","60.82","AKULIVIK A","7100071","2022-05-21 08:00","2022","05","21","08:00","0.1","","-0.5","","96","","","","1","","25","","0.2","","98.04","","","","","","Moderate Snow,Fog"
"-78.15","60.82","AKULIVIK A","7100071","2022-05-21 09:00","2022","05","21","09:00","0.2","","-0.5","","95","","","","3","","26","","0.2","","97.98","","","","","","Moderate Snow,Fog"
"-78.15","60.82","AKULIVIK A","7100071","2022-05-21 10:00","2022","05","21","10:00","-0.3","","-1.3","","93","","","","3","","50","","0.2","","97.93","","","","-9","","Moderate Snow,Freezing Fog"
"-78.15","60.82","AKULIVIK A","7100071","2022-05-21 11:00","2022","05","21","11:00","-0.9","","-2.2","","91","","","","2","","51","","0.2","","97.95","","","","-9","","Moderate Snow,Blowing Snow,Freezing Fog"
"-78.15","60.82","AKULIVIK A","7100071","2022-05-21 12:00","2022","05","21","12:00","-0.8","","-2.1","","91","","","","36","","53","","0.2","","97.98","","","","-9","","Moderate Snow,Blowing Snow,Freezing Fog"
"-78.15","60.82","AKULIVIK A","7100071","2022-05-21 13:00","2022","05","21","13:00","-0.9","","-2.1","","92","","","","35","","52","","0.2","","98.01","","","","-10","","Moderate Snow,Blowing Snow,Freezing Fog"
"-78.15","60.82","AKULIVIK A","7100071","2022-05-21 14:00","2022","05","21","14:00","-0.8","","-2.0","","92","","","","34","","57","","0.2","","98.06","","","","-10","","Moderate Snow,Blowing Snow"
"-78.15","60.82","AKULIVIK A","7100071","2022-05-21 15:00","2022","05","21","15:00","-0.9","","-2.1","","92","","","","34","","58","","0.2","","98.15","","","","-10","","Moderate Snow,Blowing Snow"
"-78.15","60.82","AKULIVIK A","7100071","2022-05-21 16:00","2022","05","21","16:00","-0.9","","-2.0","","92","","","","34","","61","","0.2","","98.28","","","","-10","","Moderate Snow,Blowing Snow"
"-78.15","60.82","AKULIVIK A","7100071","2022-05-21 17:00","2022","05","21","17:00"
"-78.15","60.82","AKULIVIK A","7100071","2022-05-21 18:00","2022","05","21","18:00"
"-78.15","60.82","AKULIVIK A","7100071","2022-05-21 19:00","2022","05","21","19:00"
"-78.15","60.82","AKULIVIK A","7100071","2022-05-21 20:00","2022","05","21","20:00"
"-78.15","60.82","AKULIVIK A","7100071","2022-05-21 21:00","2022","05","21","21:00"
"-78.15","60.82","AKULIVIK A","7100071","2022-05-21 22:00","2022","05","21","22:00"
"-78.15","60.82","AKULIVIK A","7100071","2022-05-21 23:00","2022","05","21","23:00"
"-78.15","60.82","AKULIVIK A","7100071","2022-05-22 00:00","2022","05","22","00:00"
"-78.15","60.82","AKULIVIK A","7100071","2022-05-22 01:00","2022","05","22","01:00"
"-78.15","60.82","AKULIVIK A","7100071","2022-05-22 02:00","2022","05","22","02:00"
"-78.15","60.82","AKULIVIK A","7100071","2022-05-22 03:00","2022","05","22","03:00"
"-78.15","60.82","AKULIVIK A","7100071","2022-05-22 04:00","2022","05","22","04:00"
"-78.15","60.82","AKULIVIK A","7100071","2022-05-22 05:00","2022","05","22","05:00"
"-78.15","60.82","AKULIVIK A","7100071","2022-05-22 06:00","2022","05","22","06:00"
"-78.15","60.82","AKULIVIK A","7100071","2022-05-22 07:00","2022","05","22","07:00","-1.1","","-2.7","","89","","","","29","","24","","2.4","","100.00","","","","-7","","Snow"
"-78.15","60.82","AKULIVIK A","7100071","2022-05-22 08:00","2022","05","22","08:00","-0.9","","-2.6","","88","","","","29","","32","","4.0","","100.05","","","","-8","","Snow"
"-78.15","60.82","AKULIVIK A","7100071","2022-05-22 09:00","2022","05","22","09:00","-0.9","","-3.0","","86","","","","30","","36","","9.7","","100.11","","","","-8","","Snow"
"-78.15","60.82","AKULIVIK A","7100071","2022-05-22 10:00","2022","05","22","10:00","-1.5","","-3.8","","84","","","","31","","35","","11.3","","100.15","","","","-9","","Cloudy"
"-78.15","60.82","AKULIVIK A","7100071","2022-05-22 11:00","2022","05","22","11:00","-2.5","","-4.4","","87","","","","30","","34","","6.4","","100.21","","","","-10","","Snow"
"-78.15","60.82","AKULIVIK A","7100071","2022-05-22 12:00","2022","05","22","12:00","-3.0","","-5.1","","86","","","","31","","40","","6.4","","100.29","","","","-11","","Snow"
"-78.15","60.82","AKULIVIK A","7100071","2022-05-22 13:00","2022","05","22","13:00","-3.5","","-5.9","","83","","","","31","","37","","12.9","","100.36","","","","-12","","Snow"
"-78.15","60.82","AKULIVIK A","7100071","2022-05-22 14:00","2022","05","22","14:00","-3.9","","-6.8","","81","","","","30","","40","","9.7","","100.42","","","","-13","","Snow"
"-78.15","60.82","AKULIVIK A","7100071","2022-05-22 15:00","2022","05","22","15:00","-4.3","","-7.2","","80","","","","31","","35","","12.9","","100.51","","","","-13","","Snow"
"-78.15","60.82","AKULIVIK A","7100071","2022-05-22 16:00","2022","05","22","16:00","-4.9","","-8.0","","79","","","","31","","29","","9.7","","100.60","","","","-13","","Snow"
"-78.15","60.82","AKULIVIK A","7100071","2022-05-22 17:00","2022","05","22","17:00"
"-78.15","60.82","AKULIVIK A","7100071","2022-05-22 18:00","2022","05","22","18:00"
"-78.15","60.82","AKULIVIK A","7100071","2022-05-22 19:00","2022","05","22","19:00"
"-78.15","60.82","AKULIVIK A","7100071","2022-05-22 20:00","2022","05","22","20:00"
"-78.15","60.82","AKULIVIK A","7100071","2022-05-22 21:00","2022","05","22","21:00"
"-78.15","60.82","AKULIVIK A","7100071","2022-05-22 22:00","2022","05","22","22:00"
"-78.15","60.82","AKULIVIK A","7100071","2022-05-22 23:00","2022","05","22","23:00"
"-78.15","60.82","AKULIVIK A","7100071","2022-05-23 00:00","2022","05","23","00:00"
"-78.15","60.82","AKULIVIK A","7100071","2022-05-23 01:00","2022","05","23","01:00"
"-78.15","60.82","AKULIVIK A","7100071","2022-05-23 02:00","2022","05","23","02:00"
"-78.15","60.82","AKULIVIK A","7100071","2022-05-23 03:00","2022","05","23","03:00"
"-78.15","60.82","AKULIVIK A","7100071","2022-05-23 04:00","2022","05","23","04:00"
"-78.15","60.82","AKULIVIK A","7100071","2022-05-23 05:00","2022","05","23","05:00"
"-78.15","60.82","AKULIVIK A","7100071","2022-05-23 06:00","2022","05","23","06:00"
"-78.15","60.82","AKULIVIK A","7100071","2022-05-23 07:00","2022","05","23","07:00"
"-78.15","60.82","AKULIVIK A","7100071","2022-05-23 08:00","2022","05","23","08:00","-6.0","","-10.1","","73","","","","27","","14","","12.9","","101.41","","","","-12","","Snow"
"-78.15","60.82","AKULIVIK A","7100071","2022-05-23 09:00","2022","05","23","09:00","-6.0","","-10.9","","68","","","","27","","15","","12.9","","101.44","","","","-12","","NA"
"-78.15","60.82","AKULIVIK A","7100071","2022-05-23 10:00","2022","05","23","10:00","-5.9","","-10.8","","68","","","","28","","20","","12.9","","101.44","","","","-13","","Snow"
"-78.15","60.82","AKULIVIK A","7100071","2022-05-23 11:00","2022","05","23","11:00","-5.4","","-10.2","","69","","","","27","","16","","12.9","","101.48","","","","-11","","NA"
"-78.15","60.82","AKULIVIK A","7100071","2022-05-23 12:00","2022","05","23","12:00","-5.0","","-10.1","","68","","","","29","","16","","16.1","","101.51","","","","-11","","NA"
"-78.15","60.82","AKULIVIK A","7100071","2022-05-23 13:00","2022","05","23","13:00","-5.4","","-10.4","","68","","","","29","","14","","16.1","","101.51","","","","-11","","Mostly Cloudy"
"-78.15","60.82","AKULIVIK A","7100071","2022-05-23 14:00","2022","05","23","14:00","-5.2","","-10.6","","66","","","","29","","16","","16.1","","101.54","","","","-11","","NA"
"-78.15","60.82","AKULIVIK A","7100071","2022-05-23 15:00","2022","05","23","15:00","-4.6","","-9.8","","67","","","","26","","17","","16.1","","101.54","","","","-10","","NA"
"-78.15","60.82","AKULIVIK A","7100071","2022-05-23 16:00","2022","05","23","16:00","-5.0","","-9.5","","71","","","","28","","10","","16.1","","101.54","","","","-9","","Cloudy"
"-78.15","60.82","AKULIVIK A","7100071","2022-05-23 17:00","2022","05","23","17:00"
"-78.15","60.82","AKULIVIK A","7100071","2022-05-23 18:00","2022","05","23","18:00"
"-78.15","60.82","AKULIVIK A","7100071","2022-05-23 19:00","2022","05","23","19:00"
"-78.15","60.82","AKULIVIK A","7100071","2022-05-23 20:00","2022","05","23","20:00"
"-78.15","60.82","AKULIVIK A","7100071","2022-05-23 21:00","2022","05","23","21:00"
"-78.15","60.82","AKULIVIK A","7100071","2022-05-23 22:00","2022","05","23","22:00"
"-78.15","60.82","AKULIVIK A","7100071","2022-05-23 23:00","2022","05","23","23:00"
"-78.15","60.82","AKULIVIK A","7100071","2022-05-24 00:00","2022","05","24","00:00"
"-78.15","60.82","AKULIVIK A","7100071","2022-05-24 01:00","2022","05","24","01:00"
"-78.15","60.82","AKULIVIK A","7100071","2022-05-24 02:00","2022","05","24","02:00"
"-78.15","60.82","AKULIVIK A","7100071","2022-05-24 03:00","2022","05","24","03:00"
"-78.15","60.82","AKULIVIK A","7100071","2022-05-24 04:00","2022","05","24","04:00"
"-78.15","60.82","AKULIVIK A","7100071","2022-05-24 05:00","2022","05","24","05:00"
"-78.15","60.82","AKULIVIK A","7100071","2022-05-24 06:00","2022","05","24","06:00"
"-78.15","60.82","AKULIVIK A","7100071","2022-05-24 07:00","2022","05","24","07:00","-3.0","","-4.7","","88","","","","15","","39","","12.9","","100.40","","","","-11","","Freezing Rain"
"-78.15","60.82","AKULIVIK A","7100071","2022-05-24 08:00","2022","05","24","08:00","-1.5","","-3.1","","89","","","","13","","50","","16.1","","100.07","","","","-10","","Freezing Rain"
"-78.15","60.82","AKULIVIK A","7100071","2022-05-24 09:00","2022","05","24","09:00","0.1","","-1.5","","89","","","","15","","47","","16.1","","99.95","","","","","","NA"
"-78.15","60.82","AKULIVIK A","7100071","2022-05-24 10:00","2022","05","24","10:00","1.2","","-0.6","","88","","","","17","","44","","16.1","","99.80","","","","","","Mostly Cloudy"
"-78.15","60.82","AKULIVIK A","7100071","2022-05-24 11:00","2022","05","24","11:00","1.5","","-0.3","","88","","","","18","","38","","16.1","","99.71","","","","","","NA"
"-78.15","60.82","AKULIVIK A","7100071","2022-05-24 12:00","2022","05","24","12:00","1.4","","-0.2","","89","","","","18","","30","","16.1","","99.63","","","","","","Rain Showers"
"-78.15","60.82","AKULIVIK A","7100071","2022-05-24 13:00","2022","05","24","13:00","1.0","","-0.3","","91","","","","19","","33","","12.9","","99.58","","","","","","Rain Showers"
"-78.15","60.82","AKULIVIK A","7100071","2022-05-24 14:00","2022","05","24","14:00","0.7","","-0.2","","94","","","","21","","31","","3.2","","99.56","","","","","","Rain,Fog"
"-78.15","60.82","AKULIVIK A","7100071","2022-05-24 15:00","2022","05","24","15:00","0.5","","-0.2","","95","","","","22","","23","","2.4","","99.55","","","","","","Rain,Fog"
"-78.15","60.82","AKULIVIK A","7100071","2022-05-24 16:00","2022","05","24","16:00","0.4","","-0.2","","96","","","","24","","23","","2.4","","99.53","","","","","","Snow,Fog"
"-78.15","60.82","AKULIVIK A","7100071","2022-05-24 17:00","2022","05","24","17:00"
"-78.15","60.82","AKULIVIK A","7100071","2022-05-24 18:00","2022","05","24","18:00"
"-78.15","60.82","AKULIVIK A","7100071","2022-05-24 19:00","2022","05","24","19:00"
"-78.15","60.82","AKULIVIK A","7100071","2022-05-24 20:00","2022","05","24","20:00"
"-78.15","60.82","AKULIVIK A","7100071","2022-05-24 21:00","2022","05","24","21:00"
"-78.15","60.82","AKULIVIK A","7100071","2022-05-24 22:00","2022","05","24","22:00"
"-78.15","60.82","AKULIVIK A","7100071","2022-05-24 23:00","2022","05","24","23:00"
"-78.15","60.82","AKULIVIK A","7100071","2022-05-25 00:00","2022","05","25","00:00"
"-78.15","60.82","AKULIVIK A","7100071","2022-05-25 01:00","2022","05","25","01:00"
"-78.15","60.82","AKULIVIK A","7100071","2022-05-25 02:00","2022","05","25","02:00"
"-78.15","60.82","AKULIVIK A","7100071","2022-05-25 03:00","2022","05","25","03:00"
"-78.15","60.82","AKULIVIK A","7100071","2022-05-25 04:00","2022","05","25","04:00"
"-78.15","60.82","AKULIVIK A","7100071","2022-05-25 05:00","2022","05","25","05:00"
"-78.15","60.82","AKULIVIK A","7100071","2022-05-25 06:00","2022","05","25","06:00"
"-78.15","60.82","AKULIVIK A","7100071","2022-05-25 07:00","2022","05","25","07:00","-3.6","","-6.4","","81","","","","29","","21","","12.9","","101.08","","","","-10","","Snow"
"-78.15","60.82","AKULIVIK A","7100071","2022-05-25 08:00","2022","05","25","08:00","-3.2","","-4.9","","88","","","","27","","21","","4.8","","101.14","","","","-9","","Snow"
"-78.15","60.82","AKULIVIK A","7100071","2022-05-25 09:00","2022","05","25","09:00","-2.7","","-5.1","","83","","","","27","","27","","4.8","","101.18","","","","-10","","Snow"
"-78.15","60.82","AKULIVIK A","7100071","2022-05-25 10:00","2022","05","25","10:00","-2.6","","-5.3","","82","","","","27","","37","","3.2","","101.22","","","","-11","","Snow Showers"
"-78.15","60.82","AKULIVIK A","7100071","2022-05-25 11:00","2022","05","25","11:00","-2.4","","-5.4","","80","","","","26","","31","","12.9","","101.25","","","","-10","","Snow Showers"
"-78.15","60.82","AKULIVIK A","7100071","2022-05-25 12:00","2022","05","25","12:00","-2.2","","-5.0","","81","","","","25","","28","","4.8","","101.25","","","","-9","","Snow Showers"
"-78.15","60.82","AKULIVIK A","7100071","2022-05-25 13:00","2022","05","25","13:00","-2.3","","-4.6","","85","","","","24","","30","","3.6","","101.25","","","","-9","","Snow"
"-78.15","60.82","AKULIVIK A","7100071","2022-05-25 14:00","2022","05","25","14:00","-2.5","","-4.3","","87","","","","24","","33","","3.2","","101.24","","","","-10","","Snow"
"-78.15","60.82","AKULIVIK A","7100071","2022-05-25 15:00","2022","05","25","15:00","-2.1","","-4.8","","81","","","","26","","26","","4.0","","101.23","","","","-9","","Snow"
"-78.15","60.82","AKULIVIK A","7100071","2022-05-25 16:00","2022","05","25","16:00","-1.5","","-3.8","","84","","","","25","","23","","12.9","","101.25","","","","-8","","Snow"
"-78.15","60.82","AKULIVIK A","7100071","2022-05-25 17:00","2022","05","25","17:00"
"-78.15","60.82","AKULIVIK A","7100071","2022-05-25 18:00","2022","05","25","18:00"
"-78.15","60.82","AKULIVIK A","7100071","2022-05-25 19:00","2022","05","25","19:00"
"-78.15","60.82","AKULIVIK A","7100071","2022-05-25 20:00","2022","05","25","20:00"
"-78.15","60.82","AKULIVIK A","7100071","2022-05-25 21:00","2022","05","25","21:00"
"-78.15","60.82","AKULIVIK A","7100071","2022-05-25 22:00","2022","05","25","22:00"
"-78.15","60.82","AKULIVIK A","7100071","2022-05-25 23:00","2022","05","25","23:00"
"-78.15","60.82","AKULIVIK A","7100071","2022-05-26 00:00","2022","05","26","00:00"
"-78.15","60.82","AKULIVIK A","7100071","2022-05-26 01:00","2022","05","26","01:00"
"-78.15","60.82","AKULIVIK A","7100071","2022-05-26 02:00","2022","05","26","02:00"
"-78.15","60.82","AKULIVIK A","7100071","2022-05-26 03:00","2022","05","26","03:00"
"-78.15","60.82","AKULIVIK A","7100071","2022-05-26 04:00","2022","05","26","04:00"
"-78.15","60.82","AKULIVIK A","7100071","2022-05-26 05:00","2022","05","26","05:00"
"-78.15","60.82","AKULIVIK A","7100071","2022-05-26 06:00","2022","05","26","06:00"
"-78.15","60.82","AKULIVIK A","7100071","2022-05-26 07:00","2022","05","26","07:00","-4.1","","-8.0","","75","","","","30","","24","","12.9","","101.79","","","","-11","","Cloudy"
"-78.15","60.82","AKULIVIK A","7100071","2022-05-26 08:00","2022","05","26","08:00","-4.0","","-8.2","","72","","","","29","","17","","12.9","","101.79","","","","-10","","NA"
"-78.15","60.82","AKULIVIK A","7100071","2022-05-26 09:00","2022","05","26","09:00","-3.8","","-8.0","","73","","","","28","","16","","12.9","","101.82","","","","-9","","Snow"
"-78.15","60.82","AKULIVIK A","7100071","2022-05-26 10:00","2022","05","26","10:00","-3.6","","-8.1","","72","","","","30","","22","","12.9","","101.83","","","","-10","","Snow"
"-78.15","60.82","AKULIVIK A","7100071","2022-05-26 11:00","2022","05","26","11:00","-3.3","","-7.9","","70","","","","33","","17","","12.9","","101.83","","","","-9","","NA"
"-78.15","60.82","AKULIVIK A","7100071","2022-05-26 12:00","2022","05","26","12:00","-3.5","","-8.3","","70","","","","31","","11","","12.9","","101.85","","","","-8","","Snow"
"-78.15","60.82","AKULIVIK A","7100071","2022-05-26 13:00","2022","05","26","13:00","-3.5","","-7.0","","77","","","","29","","10","","9.7","","101.84","","","","-7","","Snow"
"-78.15","60.82","AKULIVIK A","7100071","2022-05-26 14:00","2022","05","26","14:00","-2.9","","-5.6","","82","","","","25","","13","","4.8","","101.86","","","","-8","","Snow"
"-78.15","60.82","AKULIVIK A","7100071","2022-05-26 15:00","2022","05","26","15:00","-3.0","","-6.1","","79","","","","29","","14","","12.9","","101.84","","","","-8","","Snow"
"-78.15","60.82","AKULIVIK A","7100071","2022-05-26 16:00","2022","05","26","16:00","-2.9","","-6.7","","75","","","","29","","17","","16.1","","101.83","","","","-8","","Cloudy"
"-78.15","60.82","AKULIVIK A","7100071","2022-05-26 17:00","2022","05","26","17:00"
"-78.15","60.82","AKULIVIK A","7100071","2022-05-26 18:00","2022","05","26","18:00"
"-78.15","60.82","AKULIVIK A","7100071","2022-05-26 19:00","2022","05","26","19:00"
"-78.15","60.82","AKULIVIK A","7100071","2022-05-26 20:00","2022","05","26","20:00"
"-78.15","60.82","AKULIVIK A","7100071","2022-05-26 21:00","2022","05","26","21:00"
"-78.15","60.82","AKULIVIK A","7100071","2022-05-26 22:00","2022","05","26","22:00"
"-78.15","60.82","AKULIVIK A","7100071","2022-05-26 23:00","2022","05","26","23:00"
"-78.15","60.82","AKULIVIK A","7100071","2022-05-27 00:00","2022","05","27","00:00"
"-78.15","60.82","AKULIVIK A","7100071","2022-05-27 01:00","2022","05","27","01:00"
"-78.15","60.82","AKULIVIK A","7100071","2022-05-27 02:00","2022","05","27","02:00"
"-78.15","60.82","AKULIVIK A","7100071","2022-05-27 03:00","2022","05","27","03:00"
"-78.15","60.82","AKULIVIK A","7100071","2022-05-27 04:00","2022","05","27","04:00"
"-78.15","60.82","AKULIVIK A","7100071","2022-05-27 05:00","2022","05","27","05:00"
"-78.15","60.82","AKULIVIK A","7100071","2022-05-27 06:00","2022","05","27","06:00"
"-78.15","60.82","AKULIVIK A","7100071","2022-05-27 07:00","2022","05","27","07:00","-3.9","","-8.1","","73","","","","11","","10","","24.1","","101.65","","","","-8","","Mainly Clear"
"-78.15","60.82","AKULIVIK A","7100071","2022-05-27 08:00","2022","05","27","08:00","-3.2","","-7.3","","73","","","","10","","18","","24.1","","101.61","","","","-9","","NA"
"-78.15","60.82","AKULIVIK A","7100071","2022-05-27 09:00","2022","05","27","09:00","-2.9","","-6.8","","74","","","","12","","20","","24.1","","101.58","","","","-9","","NA"
"-78.15","60.82","AKULIVIK A","7100071","2022-05-27 10:00","2022","05","27","10:00","-2.4","","-6.1","","76","","","","13","","23","","24.1","","101.53","","","","-9","","Mostly Cloudy"
"-78.15","60.82","AKULIVIK A","7100071","2022-05-27 11:00","2022","05","27","11:00","-1.6","","-5.3","","76","","","","12","","23","","24.1","","101.50","","","","-8","","NA"
"-78.15","60.82","AKULIVIK A","7100071","2022-05-27 12:00","2022","05","27","12:00","-1.0","","-5.1","","74","","","","12","","30","","24.1","","101.44","","","","-8","","NA"
"-78.15","60.82","AKULIVIK A","7100071","2022-05-27 13:00","2022","05","27","13:00","-0.2","","-4.3","","74","","","","12","","27","","24.1","","101.40","","","","-6","","Mostly Cloudy"
"-78.15","60.82","AKULIVIK A","7100071","2022-05-27 14:00","2022","05","27","14:00","0.0","","-4.0","","74","","","","11","","32","","24.1","","101.35","","","","-7","","NA"
"-78.15","60.82","AKULIVIK A","7100071","2022-05-27 15:00","2022","05","27","15:00","0.3","","-3.6","","75","","","","11","","32","","24.1","","101.31","","","","","","NA"
"-78.15","60.82","AKULIVIK A","7100071","2022-05-27 16:00","2022","05","27","16:00","0.4","","-3.2","","77","","","","10","","32","","24.1","","101.24","","","","","","Mostly Cloudy"
"-78.15","60.82","AKULIVIK A","7100071","2022-05-27 17:00","2022","05","27","17:00"
"-78.15","60.82","AKULIVIK A","7100071","2022-05-27 18:00","2022","05","27","18:00"
"-78.15","60.82","AKULIVIK A","7100071","2022-05-27 19:00","2022","05","27","19:00"
"-78.15","60.82","AKULIVIK A","7100071","2022-05-27 20:00","2022","05","27","20:00"
"-78.15","60.82","AKULIVIK A","7100071","2022-05-27 21:00","2022","05","27","21:00"
"-78.15","60.82","AKULIVIK A","7100071","2022-05-27 22:00","2022","05","27","22:00"
"-78.15","60.82","AKULIVIK A","7100071","2022-05-27 23:00","2022","05","27","23:00"
"-78.15","60.82","AKULIVIK A","7100071","2022-05-28 00:00","2022","05","28","00:00"
"-78.15","60.82","AKULIVIK A","7100071","2022-05-28 01:00","2022","05","28","01:00"
"-78.15","60.82","AKULIVIK A","7100071","2022-05-28 02:00","2022","05","28","02:00"
"-78.15","60.82","AKULIVIK A","7100071","2022-05-28 03:00","2022","05","28","03:00"
"-78.15","60.82","AKULIVIK A","7100071","2022-05-28 04:00","2022","05","28","04:00"
"-78.15","60.82","AKULIVIK A","7100071","2022-05-28 05:00","2022","05","28","05:00"
"-78.15","60.82","AKULIVIK A","7100071","2022-05-28 06:00","2022","05","28","06:00"
"-78.15","60.82","AKULIVIK A","7100071","2022-05-28 07:00","2022","05","28","07:00","0.9","","-0.3","","92","","","","9","","35","","6.4","","100.61","","","","","","Rain"
"-78.15","60.82","AKULIVIK A","7100071","2022-05-28 08:00","2022","05","28","08:00","0.5","","-0.4","","94","","","","9","","35","","1.0","","100.57","","","","","","Snow"
"-78.15","60.82","AKULIVIK A","7100071","2022-05-28 09:00","2022","05","28","09:00","0.5","","-0.5","","93","","","","9","","36","","1.0","","100.53","","","","","","Snow,Fog"
"-78.15","60.82","AKULIVIK A","7100071","2022-05-28 10:00","2022","05","28","10:00","0.6","","-0.5","","93","","","","9","","34","","2.0","","100.52","","","","","","Snow,Fog"
"-78.15","60.82","AKULIVIK A","7100071","2022-05-28 11:00","2022","05","28","11:00","0.8","","-0.3","","92","","","","8","","34","","2.8","","100.49","","","","","","Snow Showers"
"-78.15","60.82","AKULIVIK A","7100071","2022-05-28 12:00","2022","05","28","12:00","1.2","","0.0","","92","","","","9","","31","","9.7","","100.46","","","","","","Rain Showers"
"-78.15","60.82","AKULIVIK A","7100071","2022-05-28 13:00","2022","05","28","13:00","1.8","","0.5","","91","","","","8","","22","","16.1","","100.46","","","","","","Rain Showers"
"-78.15","60.82","AKULIVIK A","7100071","2022-05-28 14:00","2022","05","28","14:00","1.6","","-0.4","","87","","","","10","","41","","12.9","","100.38","","","","","","Rain Showers"
"-78.15","60.82","AKULIVIK A","7100071","2022-05-28 15:00","2022","05","28","15:00","1.5","","-0.4","","87","","","","10","","34","","9.7","","100.41","","","","","","Rain Showers,Fog"
"-78.15","60.82","AKULIVIK A","7100071","2022-05-28 16:00","2022","05","28","16:00","1.8","","0.0","","87","","","","10","","32","","6.4","","100.44","","","","","","Rain Showers,Fog"
"-78.15","60.82","AKULIVIK A","7100071","2022-05-28 17:00","2022","05","28","17:00"
"-78.15","60.82","AKULIVIK A","7100071","2022-05-28 18:00","2022","05","28","18:00"
"-78.15","60.82","AKULIVIK A","7100071","2022-05-28 19:00","2022","05","28","19:00"
"-78.15","60.82","AKULIVIK A","7100071","2022-05-28 20:00","2022","05","28","20:00"
"-78.15","60.82","AKULIVIK A","7100071","2022-05-28 21:00","2022","05","28","21:00"
"-78.15","60.82","AKULIVIK A","7100071","2022-05-28 22:00","2022","05","28","22:00"
"-78.15","60.82","AKULIVIK A","7100071","2022-05-28 23:00","2022","05","28","23:00"
"-78.15","60.82","AKULIVIK A","7100071","2022-05-29 00:00","2022","05","29","00:00"
"-78.15","60.82","AKULIVIK A","7100071","2022-05-29 01:00","2022","05","29","01:00"
"-78.15","60.82","AKULIVIK A","7100071","2022-05-29 02:00","2022","05","29","02:00"
"-78.15","60.82","AKULIVIK A","7100071","2022-05-29 03:00","2022","05","29","03:00"
"-78.15","60.82","AKULIVIK A","7100071","2022-05-29 04:00","2022","05","29","04:00"
"-78.15","60.82","AKULIVIK A","7100071","2022-05-29 05:00","2022","05","29","05:00"
"-78.15","60.82","AKULIVIK A","7100071","2022-05-29 06:00","2022","05","29","06:00"
"-78.15","60.82","AKULIVIK A","7100071","2022-05-29 07:00","2022","05","29","07:00","1.9","","-0.2","","86","","","","3","","7","","16.1","","101.20","","","","","","Cloudy"
"-78.15","60.82","AKULIVIK A","7100071","2022-05-29 08:00","2022","05","29","08:00","1.3","","-0.3","","89","","","","34","","13","","12.9","","101.28","","","","","","NA"
"-78.15","60.82","AKULIVIK A","7100071","2022-05-29 09:00","2022","05","29","09:00","2.5","","1.4","","93","","","","8","","10","","12.9","","101.38","","","","","","Rain"
"-78.15","60.82","AKULIVIK A","7100071","2022-05-29 10:00","2022","05","29","10:00","4.3","","2.5","","88","","","","10","","13","","16.1","","101.44","","","","","","Mostly Cloudy"
"-78.15","60.82","AKULIVIK A","7100071","2022-05-29 11:00","2022","05","29","11:00","5.0","","2.4","","83","","","","6","","10","","16.1","","101.54","","","","","","NA"
"-78.15","60.82","AKULIVIK A","7100071","2022-05-29 12:00","2022","05","29","12:00","5.2","","2.6","","84","","","","6","","11","","16.1","","101.63","","","","","","NA"
"-78.15","60.82","AKULIVIK A","7100071","2022-05-29 13:00","2022","05","29","13:00","5.5","","2.4","","81","","","","6","","12","","24.1","","101.71","","","","","","Mostly Cloudy"
"-78.15","60.82","AKULIVIK A","7100071","2022-05-29 14:00","2022","05","29","14:00","5.1","","2.4","","83","","","","3","","10","","24.1","","101.82","","","","","","NA"
"-78.15","60.82","AKULIVIK A","7100071","2022-05-29 15:00","2022","05","29","15:00","6.0","","2.5","","78","","","","4","","9","","24.1","","101.92","","","","","","NA"
"-78.15","60.82","AKULIVIK A","7100071","2022-05-29 16:00","2022","05","29","16:00","5.1","","2.1","","81","","","","5","","13","","24.1","","102.00","","","","","","Mostly Cloudy"
"-78.15","60.82","AKULIVIK A","7100071","2022-05-29 17:00","2022","05","29","17:00"
"-78.15","60.82","AKULIVIK A","7100071","2022-05-29 18:00","2022","05","29","18:00"
"-78.15","60.82","AKULIVIK A","7100071","2022-05-29 19:00","2022","05","29","19:00"
"-78.15","60.82","AKULIVIK A","7100071","2022-05-29 20:00","2022","05","29","20:00"
"-78.15","60.82","AKULIVIK A","7100071","2022-05-29 21:00","2022","05","29","21:00"
"-78.15","60.82","AKULIVIK A","7100071","2022-05-29 22:00","2022","05","29","22:00"
"-78.15","60.82","AKULIVIK A","7100071","2022-05-29 23:00","2022","05","29","23:00"
"-78.15","60.82","AKULIVIK A","7100071","2022-05-30 00:00","2022","05","30","00:00"
"-78.15","60.82","AKULIVIK A","7100071","2022-05-30 01:00","2022","05","30","01:00"
"-78.15","60.82","AKULIVIK A","7100071","2022-05-30 02:00","2022","05","30","02:00"
"-78.15","60.82","AKULIVIK A","7100071","2022-05-30 03:00","2022","05","30","03:00"
"-78.15","60.82","AKULIVIK A","7100071","2022-05-30 04:00","2022","05","30","04:00"
"-78.15","60.82","AKULIVIK A","7100071","2022-05-30 05:00","2022","05","30","05:00"
"-78.15","60.82","AKULIVIK A","7100071","2022-05-30 06:00","2022","05","30","06:00"
"-78.15","60.82","AKULIVIK A","7100071","2022-05-30 07:00","2022","05","30","07:00","4.5","","1.6","","81","","","","11","","28","","24.1","","102.82","","","","","","Mainly Clear"
"-78.15","60.82","AKULIVIK A","7100071","2022-05-30 08:00","2022","05","30","08:00","4.5","","0.8","","77","","","","12","","22","","24.1","","102.86","","","","","","NA"
"-78.15","60.82","AKULIVIK A","7100071","2022-05-30 09:00","2022","05","30","09:00","4.5","","0.6","","75","","","","12","","23","","24.1","","102.87","","","","","","NA"
"-78.15","60.82","AKULIVIK A","7100071","2022-05-30 10:00","2022","05","30","10:00","4.7","","0.0","","72","","","","10","","13","","24.1","","102.92","","","","","","Mainly Clear"
"-78.15","60.82","AKULIVIK A","7100071","2022-05-30 11:00","2022","05","30","11:00","4.8","","-0.2","","70","","","","11","","25","","24.1","","102.92","","","","","","NA"
"-78.15","60.82","AKULIVIK A","7100071","2022-05-30 12:00","2022","05","30","12:00","5.5","","-0.1","","67","","","","11","","22","","24.1","","102.96","","","","","","NA"
"-78.15","60.82","AKULIVIK A","7100071","2022-05-30 13:00","2022","05","30","13:00","5.7","","-0.7","","64","","","","12","","30","","24.1","","102.96","","","","","","Mainly Clear"
"-78.15","60.82","AKULIVIK A","7100071","2022-05-30 14:00","2022","05","30","14:00","5.7","","-0.4","","65","","","","11","","27","","24.1","","102.97","","","","","","NA"
"-78.15","60.82","AKULIVIK A","7100071","2022-05-30 15:00","2022","05","30","15:00","6.1","","-0.7","","62","","","","10","","22","","24.1","","103.01","","","","","","NA"
"-78.15","60.82","AKULIVIK A","7100071","2022-05-30 16:00","2022","05","30","16:00","6.0","","-0.5","","63","","","","9","","21","","24.1","","103.04","","","","","","Mainly Clear"
"-78.15","60.82","AKULIVIK A","7100071","2022-05-30 17:00","2022","05","30","17:00"
"-78.15","60.82","AKULIVIK A","7100071","2022-05-30 18:00","2022","05","30","18:00"
"-78.15","60.82","AKULIVIK A","7100071","2022-05-30 19:00","2022","05","30","19:00"
"-78.15","60.82","AKULIVIK A","7100071","2022-05-30 20:00","2022","05","30","20:00"
"-78.15","60.82","AKULIVIK A","7100071","2022-05-30 21:00","2022","05","30","21:00"
"-78.15","60.82","AKULIVIK A","7100071","2022-05-30 22:00","2022","05","30","22:00"
"-78.15","60.82","AKULIVIK A","7100071","2022-05-30 23:00","2022","05","30","23:00"
"-78.15","60.82","AKULIVIK A","7100071","2022-05-31 00:00","2022","05","31","00:00"
"-78.15","60.82","AKULIVIK A","7100071","2022-05-31 01:00","2022","05","31","01:00"
"-78.15","60.82","AKULIVIK A","7100071","2022-05-31 02:00","2022","05","31","02:00"
"-78.15","60.82","AKULIVIK A","7100071","2022-05-31 03:00","2022","05","31","03:00"
"-78.15","60.82","AKULIVIK A","7100071","2022-05-31 04:00","2022","05","31","04:00"
"-78.15","60.82","AKULIVIK A","7100071","2022-05-31 05:00","2022","05","31","05:00"
"-78.15","60.82","AKULIVIK A","7100071","2022-05-31 06:00","2022","05","31","06:00"
"-78.15","60.82","AKULIVIK A","7100071","2022-05-31 07:00","2022","05","31","07:00","2.8","","-0.7","","78","","","","12","","26","","24.1","","103.06","","","","","","Mostly Cloudy"
"-78.15","60.82","AKULIVIK A","7100071","2022-05-31 08:00","2022","05","31","08:00","3.5","","-0.2","","76","","","","10","","28","","24.1","","102.98","","","","","","NA"
"-78.15","60.82","AKULIVIK A","7100071","2022-05-31 09:00","2022","05","31","09:00","4.0","","0.0","","75","","","","12","","34","","24.1","","102.92","","","","","","NA"
"-78.15","60.82","AKULIVIK A","7100071","2022-05-31 10:00","2022","05","31","10:00","4.4","","0.4","","75","","","","12","","32","","24.1","","102.89","","","","","","Cloudy"
"-78.15","60.82","AKULIVIK A","7100071","2022-05-31 11:00","2022","05","31","11:00","5.3","","1.2","","75","","","","11","","30","","24.1","","102.84","","","","","","NA"
"-78.15","60.82","AKULIVIK A","7100071","2022-05-31 12:00","2022","05","31","12:00","5.9","","0.8","","70","","","","11","","37","","24.1","","102.78","","","","","","NA"
"-78.15","60.82","AKULIVIK A","7100071","2022-05-31 13:00","2022","05","31","13:00","6.5","","1.2","","69","","","","11","","35","","24.1","","102.73","","","","","","Mostly Cloudy"
"-78.15","60.82","AKULIVIK A","7100071","2022-05-31 14:00","2022","05","31","14:00","6.5","","1.6","","71","","","","10","","36","","24.1","","102.74","","","","","","NA"
"-78.15","60.82","AKULIVIK A","7100071","2022-05-31 15:00","2022","05","31","15:00","6.7","","1.4","","69","","","","9","","36","","24.1","","102.71","","","","","","NA"
"-78.15","60.82","AKULIVIK A","7100071","2022-05-31 16:00","2022","05","31","16:00","6.7","","1.5","","69","","","","9","","37","","24.1","","102.65","","","","","","Cloudy"
"-78.15","60.82","AKULIVIK A","7100071","2022-05-31 17:00","2022","05","31","17:00"
"-78.15","60.82","AKULIVIK A","7100071","2022-05-31 18:00","2022","05","31","18:00"
"-78.15","60.82","AKULIVIK A","7100071","2022-05-31 19:00","2022","05","31","19:00"
"-78.15","60.82","AKULIVIK A","7100071","2022-05-31 20:00","2022","05","31","20:00"
"-78.15","60.82","AKULIVIK A","7100071","2022-05-31 21:00","2022","05","31","21:00"
"-78.15","60.82","AKULIVIK A","7100071","2022-05-31 22:00","2022","05","31","22:00"
"-78.15","60.82","AKULIVIK A","7100071","2022-05-31 23:00","2022","05","31","23:00"
