"Longitude (x)","Latitude (y)","Station Name","Climate ID","Date/Time (LST)","Year","Month","Day","Time (LST)","Temp (°C)","Temp Flag","Dew Point Temp (°C)","Dew Point Temp Flag","Rel Hum (%)","Rel Hum Flag","Precip. Amount (mm)","Precip. Amount Flag","Wind Dir (10s deg)","Wind Dir Flag","Wind Spd (km/h)","Wind Spd Flag","Visibility (km)","Visibility Flag","Stn Press (kPa)","Stn Press Flag","Hmdx","Hmdx Flag","Wind Chill","Wind Chill Flag","Weather"
"-62.33","44.82","BEAVER ISLAND (AUT)","8200558","2020-03-01 00:00","2020","03","01","00:00","0.0","","-0.2","","99","","","","12","","29","","","","100.27","","","","-6","","NA"
"-62.33","44.82","BEAVER ISLAND (AUT)","8200558","2020-03-01 01:00","2020","03","01","01:00","0.0","","-0.1","","99","","","","13","","29","","","","100.16","","","","-6","","NA"
"-62.33","44.82","BEAVER ISLAND (AUT)","8200558","2020-03-01 02:00","2020","03","01","02:00","0.1","","0.0","","99","","","","16","","34","","","","100.12","","","","","","NA"
"-62.33","44.82","BEAVER ISLAND (AUT)","8200558","2020-03-01 03:00","2020","03","01","03:00","0.0","","0.0","","99","","","","17","","33","","","","100.05","","","","-7","","NA"
"-62.33","44.82","BEAVER ISLAND (AUT)","8200558","2020-03-01 04:00","2020","03","01","04:00","0.0","","-0.1","","100","","","","16","","27","","","","100.02","","","","-6","","NA"
"-62.33","44.82","BEAVER ISLAND (AUT)","8200558","2020-03-01 05:00","2020","03","01","05:00","-0.1","","-0.2","","100","","","","21","","19","","","","100.01","","","","-5","","NA"
"-62.33","44.82","BEAVER ISLAND (AUT)","8200558","2020-03-01 06:00","2020","03","01","06:00","-0.7","","-0.8","","100","","","","27","","21","","","","100.03","","","","-6","","NA"
"-62.33","44.82","BEAVER ISLAND (AUT)","8200558","2020-03-01 07:00","2020","03","01","07:00","-1.3","","-1.4","","99","","","","29","","20","","","","100.03","","","","-7","","NA"
"-62.33","44.82","BEAVER ISLAND (AUT)","8200558","2020-03-01 08:00","2020","03","01","08:00","-1.5","","-1.6","","99","","","","30","","19","","","","100.05","","","","-7","","NA"
"-62.33","44.82","BEAVER ISLAND (AUT)","8200558","2020-03-01 09:00","2020","03","01","09:00","-1.3","","-1.5","","98","","","","30","","20","","","","100.06","","","","-7","","NA"
"-62.33","44.82","BEAVER ISLAND (AUT)","8200558","2020-03-01 10:00","2020","03","01","10:00","-1.2","","-1.6","","97","","","","32","","24","","","","100.09","","","","-7","","NA"
"-62.33","44.82","BEAVER ISLAND (AUT)","8200558","2020-03-01 11:00","2020","03","01","11:00","-0.6","","-1.8","","92","","","","32","","24","","","","100.06","","","","-7","","NA"
"-62.33","44.82","BEAVER ISLAND (AUT)","8200558","2020-03-01 12:00","2020","03","01","12:00","-0.4","","-1.6","","92","","","","30","","20","","","","100.04","","","","-6","","NA"
"-62.33","44.82","BEAVER ISLAND (AUT)","8200558","2020-03-01 13:00","2020","03","01","13:00","-0.2","","-1.8","","89","","","","31","","24","","","","100.00","","","","-6","","NA"
"-62.33","44.82","BEAVER ISLAND (AUT)","8200558","2020-03-01 14:00","2020","03","01","14:00","-0.2","","-1.4","","92","","","","32","","19","","","","99.98","","","","-5","","NA"
"-62.33","44.82","BEAVER ISLAND (AUT)","8200558","2020-03-01 15:00","2020","03","01","15:00","-0.6","","-1.0","","98","","","","33","","19","","","","100.05","","","","-6","","NA"
"-62.33","44.82","BEAVER ISLAND (AUT)","8200558","2020-03-01 16:00","2020","03","01","16:00","-1.0","","-1.2","","99","","","","2","","4","","","","100.14","","","","-2","","NA"
"-62.33","44.82","BEAVER ISLAND (AUT)","8200558","2020-03-01 17:00","2020","03","01","17:00","-1.1","","-1.2","","99","","","","9","","7","","","","100.19","","","","-4","","NA"
"-62.33","44.82","BEAVER ISLAND (AUT)","8200558","2020-03-01 18:00","2020","03","01","18:00","-1.5","","-1.6","","99","","","","9","","8","","","","100.27","","","","-5","","NA"
"-62.33","44.82","BEAVER ISLAND (AUT)","8200558","2020-03-01 19:00","2020","03","01","19:00","-1.4","","-1.5","","99","","","","10","","15","","","","100.36","","","","-6","","NA"
"-62.33","44.82","BEAVER ISLAND (AUT)","8200558","2020-03-01 20:00","2020","03","01","20:00","-1.5","","-1.6","","99","","","","7","","23","","","","100.42","","","","-8","","NA"
"-62.33","44.82","BEAVER ISLAND (AUT)","8200558","2020-03-01 21:00","2020","03","01","21:00","-1.5","","-1.7","","99","","","","5","","22","","","","100.51","","","","-7","","NA"
"-62.33","44.82","BEAVER ISLAND (AUT)","8200558","2020-03-01 22:00","2020","03","01","22:00","-1.7","","-1.8","","99","","","","4","","22","","","","100.60","","","","-8","","NA"
"-62.33","44.82","BEAVER ISLAND (AUT)","8200558","2020-03-01 23:00","2020","03","01","23:00","-1.8","","-2.1","","98","","","","2","","24","","","","100.68","","","","-8","","NA"
"-62.33","44.82","BEAVER ISLAND (AUT)","8200558","2020-03-02 00:00","2020","03","02","00:00","-1.9","","-2.3","","97","","","","1","","23","","","","100.74","","","","-8","","NA"
"-62.33","44.82","BEAVER ISLAND (AUT)","8200558","2020-03-02 01:00","2020","03","02","01:00","-2.2","","-2.7","","96","","","","36","","24","","","","100.82","","","","-9","","NA"
"-62.33","44.82","BEAVER ISLAND (AUT)","8200558","2020-03-02 02:00","2020","03","02","02:00","-2.0","","-2.8","","94","","","","34","","27","","","","100.88","","","","-9","","NA"
"-62.33","44.82","BEAVER ISLAND (AUT)","8200558","2020-03-02 03:00","2020","03","02","03:00","-2.3","","-3.1","","94","","","","35","","26","","","","100.91","","","","-9","","NA"
"-62.33","44.82","BEAVER ISLAND (AUT)","8200558","2020-03-02 04:00","2020","03","02","04:00","-2.0","","-3.2","","92","","","","33","","29","","","","101.03","","","","-9","","NA"
"-62.33","44.82","BEAVER ISLAND (AUT)","8200558","2020-03-02 05:00","2020","03","02","05:00","-2.1","","-3.7","","89","","","","35","","40","","","","101.14","","","","-10","","NA"
"-62.33","44.82","BEAVER ISLAND (AUT)","8200558","2020-03-02 06:00","2020","03","02","06:00","-3.0","","-4.8","","87","","","","34","","39","","","","101.25","","","","-11","","NA"
"-62.33","44.82","BEAVER ISLAND (AUT)","8200558","2020-03-02 07:00","2020","03","02","07:00","-3.2","","-5.1","","87","","","","33","","35","","","","101.32","","","","-11","","NA"
"-62.33","44.82","BEAVER ISLAND (AUT)","8200558","2020-03-02 08:00","2020","03","02","08:00","-3.1","","-5.5","","84","","","","35","","31","","","","101.45","","","","-11","","NA"
"-62.33","44.82","BEAVER ISLAND (AUT)","8200558","2020-03-02 09:00","2020","03","02","09:00","-2.4","","-5.1","","82","","","","34","","18","","","","101.57","","","","-8","","NA"
"-62.33","44.82","BEAVER ISLAND (AUT)","8200558","2020-03-02 10:00","2020","03","02","10:00","-1.7","","-4.9","","79","","","","34","","15","","","","101.69","","","","-7","","NA"
"-62.33","44.82","BEAVER ISLAND (AUT)","8200558","2020-03-02 11:00","2020","03","02","11:00","-0.8","","-5.4","","71","","","","35","","8","","","","101.72","","","","-4","","NA"
"-62.33","44.82","BEAVER ISLAND (AUT)","8200558","2020-03-02 12:00","2020","03","02","12:00","0.3","","-5.0","","68","","","","30","","3","","","","101.75","","","","","","NA"
"-62.33","44.82","BEAVER ISLAND (AUT)","8200558","2020-03-02 13:00","2020","03","02","13:00","-0.5","","-4.6","","74","","","","20","","10","","","","101.70","","","","-4","","NA"
"-62.33","44.82","BEAVER ISLAND (AUT)","8200558","2020-03-02 14:00","2020","03","02","14:00","-0.9","","-4.7","","75","","","","20","","18","","","","101.69","","","","-6","","NA"
"-62.33","44.82","BEAVER ISLAND (AUT)","8200558","2020-03-02 15:00","2020","03","02","15:00","-0.5","","-4.1","","77","","","","21","","25","","","","101.72","","","","-7","","NA"
"-62.33","44.82","BEAVER ISLAND (AUT)","8200558","2020-03-02 16:00","2020","03","02","16:00","-0.4","","-4.3","","75","","","","22","","27","","","","101.70","","","","-7","","NA"
"-62.33","44.82","BEAVER ISLAND (AUT)","8200558","2020-03-02 17:00","2020","03","02","17:00","-0.5","","-3.7","","79","","","","22","","27","","","","101.73","","","","-7","","NA"
"-62.33","44.82","BEAVER ISLAND (AUT)","8200558","2020-03-02 18:00","2020","03","02","18:00","-0.8","","-4.0","","79","","","","21","","29","","","","101.75","","","","-7","","NA"
"-62.33","44.82","BEAVER ISLAND (AUT)","8200558","2020-03-02 19:00","2020","03","02","19:00","-0.7","","-2.8","","85","","","","21","","32","","","","101.74","","","","-8","","NA"
"-62.33","44.82","BEAVER ISLAND (AUT)","8200558","2020-03-02 20:00","2020","03","02","20:00","-0.4","","-2.8","","84","","","","21","","32","","","","101.68","","","","-7","","NA"
"-62.33","44.82","BEAVER ISLAND (AUT)","8200558","2020-03-02 21:00","2020","03","02","21:00","-0.1","","-2.3","","86","","","","21","","39","","","","101.67","","","","-7","","NA"
"-62.33","44.82","BEAVER ISLAND (AUT)","8200558","2020-03-02 22:00","2020","03","02","22:00","-0.1","","-1.9","","88","","","","22","","36","","","","101.67","","","","-7","","NA"
"-62.33","44.82","BEAVER ISLAND (AUT)","8200558","2020-03-02 23:00","2020","03","02","23:00","0.1","","-1.7","","87","","","","21","","36","","","","101.56","","","","","","NA"
"-62.33","44.82","BEAVER ISLAND (AUT)","8200558","2020-03-03 00:00","2020","03","03","00:00","0.1","","-1.1","","91","","","","19","","24","","","","101.50","","","","","","NA"
"-62.33","44.82","BEAVER ISLAND (AUT)","8200558","2020-03-03 01:00","2020","03","03","01:00","0.5","","-0.8","","91","","","","18","","28","","","","101.39","","","","","","NA"
"-62.33","44.82","BEAVER ISLAND (AUT)","8200558","2020-03-03 02:00","2020","03","03","02:00","0.9","","-0.6","","90","","","","19","","30","","","","101.33","","","","","","NA"
"-62.33","44.82","BEAVER ISLAND (AUT)","8200558","2020-03-03 03:00","2020","03","03","03:00","1.0","","-0.2","","92","","","","20","","12","","","","101.24","","","","","","NA"
"-62.33","44.82","BEAVER ISLAND (AUT)","8200558","2020-03-03 04:00","2020","03","03","04:00","1.3","","-0.1","","91","","","","18","","32","","","","101.04","","","","","","NA"
"-62.33","44.82","BEAVER ISLAND (AUT)","8200558","2020-03-03 05:00","2020","03","03","05:00","1.5","","0.3","","92","","","","21","","8","","","","100.96","","","","","","NA"
"-62.33","44.82","BEAVER ISLAND (AUT)","8200558","2020-03-03 06:00","2020","03","03","06:00","1.9","","0.9","","93","","","","19","","18","","","","100.80","","","","","","NA"
"-62.33","44.82","BEAVER ISLAND (AUT)","8200558","2020-03-03 07:00","2020","03","03","07:00","2.5","","1.9","","96","","","","19","","45","","","","100.66","","","","","","NA"
"-62.33","44.82","BEAVER ISLAND (AUT)","8200558","2020-03-03 08:00","2020","03","03","08:00","2.9","","2.7","","98","","","","20","","47","","","","100.64","","","","","","NA"
"-62.33","44.82","BEAVER ISLAND (AUT)","8200558","2020-03-03 09:00","2020","03","03","09:00","2.6","","2.3","","97","","","","21","","39","","","","100.69","","","","","","NA"
"-62.33","44.82","BEAVER ISLAND (AUT)","8200558","2020-03-03 10:00","2020","03","03","10:00","2.2","","1.9","","98","","","","22","","37","","","","100.70","","","","","","NA"
"-62.33","44.82","BEAVER ISLAND (AUT)","8200558","2020-03-03 11:00","2020","03","03","11:00","1.8","","1.6","","98","","","","24","","21","","","","100.74","","","","","","NA"
"-62.33","44.82","BEAVER ISLAND (AUT)","8200558","2020-03-03 12:00","2020","03","03","12:00","1.7","","1.5","","99","","","","22","","23","","","","100.67","","","","","","NA"
"-62.33","44.82","BEAVER ISLAND (AUT)","8200558","2020-03-03 13:00","2020","03","03","13:00","1.8","","1.7","","99","","","","22","","26","","","","100.64","","","","","","NA"
"-62.33","44.82","BEAVER ISLAND (AUT)","8200558","2020-03-03 14:00","2020","03","03","14:00","1.7","","1.6","","99","","","","22","","20","","","","100.60","","","","","","NA"
"-62.33","44.82","BEAVER ISLAND (AUT)","8200558","2020-03-03 15:00","2020","03","03","15:00","1.9","","1.8","","99","","","","23","","20","","","","100.57","","","","","","NA"
"-62.33","44.82","BEAVER ISLAND (AUT)","8200558","2020-03-03 16:00","2020","03","03","16:00","1.8","","1.8","","100","","","","23","","22","","","","100.54","","","","","","NA"
"-62.33","44.82","BEAVER ISLAND (AUT)","8200558","2020-03-03 17:00","2020","03","03","17:00","1.7","","1.7","","100","","","","24","","18","","","","100.60","","","","","","NA"
"-62.33","44.82","BEAVER ISLAND (AUT)","8200558","2020-03-03 18:00","2020","03","03","18:00","1.6","","1.6","","100","","","","23","","18","","","","100.63","","","","","","NA"
"-62.33","44.82","BEAVER ISLAND (AUT)","8200558","2020-03-03 19:00","2020","03","03","19:00","1.5","","1.4","","100","","","","23","","9","","","","100.65","","","","","","NA"
"-62.33","44.82","BEAVER ISLAND (AUT)","8200558","2020-03-03 20:00","2020","03","03","20:00","1.5","","1.5","","100","","","","20","","20","","","","100.59","","","","","","NA"
"-62.33","44.82","BEAVER ISLAND (AUT)","8200558","2020-03-03 21:00","2020","03","03","21:00","1.7","","1.6","","100","","","","21","","22","","","","100.61","","","","","","NA"
"-62.33","44.82","BEAVER ISLAND (AUT)","8200558","2020-03-03 22:00","2020","03","03","22:00","1.2","","1.2","","100","","","","19","","12","","","","100.54","","","","","","NA"
"-62.33","44.82","BEAVER ISLAND (AUT)","8200558","2020-03-03 23:00","2020","03","03","23:00","1.1","","1.1","","100","","","","21","","13","","","","100.53","","","","","","NA"
"-62.33","44.82","BEAVER ISLAND (AUT)","8200558","2020-03-04 00:00","2020","03","04","00:00","1.0","","1.0","","100","","","","15","","5","","","","100.45","","","","","","NA"
"-62.33","44.82","BEAVER ISLAND (AUT)","8200558","2020-03-04 01:00","2020","03","04","01:00","1.0","","0.9","","100","","","","9","","10","","","","100.28","","","","","","NA"
"-62.33","44.82","BEAVER ISLAND (AUT)","8200558","2020-03-04 02:00","2020","03","04","02:00","0.9","","0.9","","100","","","","10","","17","","","","100.18","","","","","","NA"
"-62.33","44.82","BEAVER ISLAND (AUT)","8200558","2020-03-04 03:00","2020","03","04","03:00","1.3","","1.3","","100","","","","11","","23","","","","99.94","","","","","","NA"
"-62.33","44.82","BEAVER ISLAND (AUT)","8200558","2020-03-04 04:00","2020","03","04","04:00","1.7","","1.6","","100","","","","9","","21","","","","99.72","","","","","","NA"
"-62.33","44.82","BEAVER ISLAND (AUT)","8200558","2020-03-04 05:00","2020","03","04","05:00","2.0","","2.0","","100","","","","9","","23","","","","99.47","","","","","","NA"
"-62.33","44.82","BEAVER ISLAND (AUT)","8200558","2020-03-04 06:00","2020","03","04","06:00","3.5","","3.5","","100","","","","12","","33","","","","99.12","","","","","","NA"
"-62.33","44.82","BEAVER ISLAND (AUT)","8200558","2020-03-04 07:00","2020","03","04","07:00","3.7","","3.7","","100","","","","17","","47","","","","98.84","","","","","","NA"
"-62.33","44.82","BEAVER ISLAND (AUT)","8200558","2020-03-04 08:00","2020","03","04","08:00","3.6","","3.6","","100","","","","18","","44","","","","98.70","","","","","","NA"
"-62.33","44.82","BEAVER ISLAND (AUT)","8200558","2020-03-04 09:00","2020","03","04","09:00","3.6","","3.5","","100","","","","19","","43","","","","98.52","","","","","","NA"
"-62.33","44.82","BEAVER ISLAND (AUT)","8200558","2020-03-04 10:00","2020","03","04","10:00","3.4","","3.4","","100","","","","21","","45","","","","98.46","","","","","","NA"
"-62.33","44.82","BEAVER ISLAND (AUT)","8200558","2020-03-04 11:00","2020","03","04","11:00","3.3","","3.3","","100","","","","21","","49","","","","98.31","","","","","","NA"
"-62.33","44.82","BEAVER ISLAND (AUT)","8200558","2020-03-04 12:00","2020","03","04","12:00","2.8","","2.7","","100","","","","22","","51","","","","98.28","","","","","","NA"
"-62.33","44.82","BEAVER ISLAND (AUT)","8200558","2020-03-04 13:00","2020","03","04","13:00","3.1","","2.9","","99","","","","22","","61","","","","98.20","","","","","","NA"
"-62.33","44.82","BEAVER ISLAND (AUT)","8200558","2020-03-04 14:00","2020","03","04","14:00","3.1","","2.3","","95","","","","22","","74","","","","98.19","","","","","","NA"
"-62.33","44.82","BEAVER ISLAND (AUT)","8200558","2020-03-04 15:00","2020","03","04","15:00","3.0","","1.8","","92","","","","23","","70","","","","98.31","","","","","","NA"
"-62.33","44.82","BEAVER ISLAND (AUT)","8200558","2020-03-04 16:00","2020","03","04","16:00","3.6","","1.4","","86","","","","23","","64","","","","98.42","","","","","","NA"
"-62.33","44.82","BEAVER ISLAND (AUT)","8200558","2020-03-04 17:00","2020","03","04","17:00","2.8","","1.3","","90","","","","24","","63","","","","98.58","","","","","","NA"
"-62.33","44.82","BEAVER ISLAND (AUT)","8200558","2020-03-04 18:00","2020","03","04","18:00","2.7","","0.7","","87","","","","23","","52","","","","98.72","","","","","","NA"
"-62.33","44.82","BEAVER ISLAND (AUT)","8200558","2020-03-04 19:00","2020","03","04","19:00","2.9","","0.3","","83","","","","23","","58","","","","98.81","","","","","","NA"
"-62.33","44.82","BEAVER ISLAND (AUT)","8200558","2020-03-04 20:00","2020","03","04","20:00","3.0","","-0.1","","80","","","","23","","55","","","","98.89","","","","","","NA"
"-62.33","44.82","BEAVER ISLAND (AUT)","8200558","2020-03-04 21:00","2020","03","04","21:00","2.9","","-0.8","","76","","","","23","","48","","","","98.96","","","","","","NA"
"-62.33","44.82","BEAVER ISLAND (AUT)","8200558","2020-03-04 22:00","2020","03","04","22:00","3.0","","-1.4","","73","","","","24","","51","","","","99.04","","","","","","NA"
"-62.33","44.82","BEAVER ISLAND (AUT)","8200558","2020-03-04 23:00","2020","03","04","23:00","2.9","","-1.6","","72","","","","24","","47","","","","99.05","","","","","","NA"
"-62.33","44.82","BEAVER ISLAND (AUT)","8200558","2020-03-05 00:00","2020","03","05","00:00","2.5","","-1.8","","73","","","","24","","47","","","","99.08","","","","","","NA"
"-62.33","44.82","BEAVER ISLAND (AUT)","8200558","2020-03-05 01:00","2020","03","05","01:00","2.5","","-2.0","","72","","","","24","","49","","","","99.14","","","","","","NA"
"-62.33","44.82","BEAVER ISLAND (AUT)","8200558","2020-03-05 02:00","2020","03","05","02:00","2.7","","-2.5","","68","","","","25","","44","","","","99.19","","","","","","NA"
"-62.33","44.82","BEAVER ISLAND (AUT)","8200558","2020-03-05 03:00","2020","03","05","03:00","2.6","","-2.6","","69","","","","25","","34","","","","99.21","","","","","","NA"
"-62.33","44.82","BEAVER ISLAND (AUT)","8200558","2020-03-05 04:00","2020","03","05","04:00","2.3","","-2.1","","73","","","","26","","33","","","","99.27","","","","","","NA"
"-62.33","44.82","BEAVER ISLAND (AUT)","8200558","2020-03-05 05:00","2020","03","05","05:00","2.2","","-3.6","","65","","","","26","","38","","","","99.32","","","","","","NA"
"-62.33","44.82","BEAVER ISLAND (AUT)","8200558","2020-03-05 06:00","2020","03","05","06:00","1.8","","-3.7","","67","","","","27","","29","","","","99.39","","","","","","NA"
"-62.33","44.82","BEAVER ISLAND (AUT)","8200558","2020-03-05 07:00","2020","03","05","07:00","1.5","","-3.9","","67","","","","27","","36","","","","99.48","","","","","","NA"
"-62.33","44.82","BEAVER ISLAND (AUT)","8200558","2020-03-05 08:00","2020","03","05","08:00","1.8","","-3.9","","66","","","","27","","33","","","","99.59","","","","","","NA"
"-62.33","44.82","BEAVER ISLAND (AUT)","8200558","2020-03-05 09:00","2020","03","05","09:00","2.1","","-4.0","","64","","","","27","","38","","","","99.63","","","","","","NA"
"-62.33","44.82","BEAVER ISLAND (AUT)","8200558","2020-03-05 10:00","2020","03","05","10:00","2.5","","-4.1","","62","","","","27","","39","","","","99.68","","","","","","NA"
"-62.33","44.82","BEAVER ISLAND (AUT)","8200558","2020-03-05 11:00","2020","03","05","11:00","3.0","","-4.1","","59","","","","27","","35","","","","99.74","","","","","","NA"
"-62.33","44.82","BEAVER ISLAND (AUT)","8200558","2020-03-05 12:00","2020","03","05","12:00","2.0","","-4.1","","64","","","","29","","39","","","","99.81","","","","","","NA"
"-62.33","44.82","BEAVER ISLAND (AUT)","8200558","2020-03-05 13:00","2020","03","05","13:00","2.6","","-4.7","","59","","","","29","","38","","","","99.83","","","","","","NA"
"-62.33","44.82","BEAVER ISLAND (AUT)","8200558","2020-03-05 14:00","2020","03","05","14:00","2.0","","-4.7","","61","","","","30","","40","","","","99.89","","","","","","NA"
"-62.33","44.82","BEAVER ISLAND (AUT)","8200558","2020-03-05 15:00","2020","03","05","15:00","1.7","","-4.9","","61","","","","30","","40","","","","100.00","","","","","","NA"
"-62.33","44.82","BEAVER ISLAND (AUT)","8200558","2020-03-05 16:00","2020","03","05","16:00","1.7","","-4.4","","64","","","","30","","38","","","","100.13","","","","","","NA"
"-62.33","44.82","BEAVER ISLAND (AUT)","8200558","2020-03-05 17:00","2020","03","05","17:00","1.9","","-5.0","","60","","","","31","","36","","","","100.25","","","","","","NA"
"-62.33","44.82","BEAVER ISLAND (AUT)","8200558","2020-03-05 18:00","2020","03","05","18:00","1.2","","-4.8","","64","","","","30","","35","","","","100.42","","","","","","NA"
"-62.33","44.82","BEAVER ISLAND (AUT)","8200558","2020-03-05 19:00","2020","03","05","19:00","0.7","","-4.2","","69","","","","30","","19","","","","100.58","","","","","","NA"
"-62.33","44.82","BEAVER ISLAND (AUT)","8200558","2020-03-05 20:00","2020","03","05","20:00","1.1","","-4.2","","68","","","","28","","26","","","","100.68","","","","","","NA"
"-62.33","44.82","BEAVER ISLAND (AUT)","8200558","2020-03-05 21:00","2020","03","05","21:00","1.3","","-5.0","","63","","","","30","","34","","","","100.83","","","","","","NA"
"-62.33","44.82","BEAVER ISLAND (AUT)","8200558","2020-03-05 22:00","2020","03","05","22:00","0.7","","-4.5","","68","","","","29","","21","","","","100.94","","","","","","NA"
"-62.33","44.82","BEAVER ISLAND (AUT)","8200558","2020-03-05 23:00","2020","03","05","23:00","0.6","","-5.6","","63","","","","30","","33","","","","101.02","","","","","","NA"
"-62.33","44.82","BEAVER ISLAND (AUT)","8200558","2020-03-06 00:00","2020","03","06","00:00","-0.2","","-6.1","","64","","","","31","","34","","","","101.07","","","","-7","","NA"
"-62.33","44.82","BEAVER ISLAND (AUT)","8200558","2020-03-06 01:00","2020","03","06","01:00","-0.7","","-6.6","","64","","","","31","","28","","","","101.20","","","","-7","","NA"
"-62.33","44.82","BEAVER ISLAND (AUT)","8200558","2020-03-06 02:00","2020","03","06","02:00","-1.0","","-7.0","","64","","","","30","","29","","","","101.26","","","","-8","","NA"
"-62.33","44.82","BEAVER ISLAND (AUT)","8200558","2020-03-06 03:00","2020","03","06","03:00","-1.4","","-6.5","","68","","","","29","","19","","","","101.35","","","","-7","","NA"
"-62.33","44.82","BEAVER ISLAND (AUT)","8200558","2020-03-06 04:00","2020","03","06","04:00","-1.8","","-7.5","","65","","","","30","","26","","","","101.37","","","","-8","","NA"
"-62.33","44.82","BEAVER ISLAND (AUT)","8200558","2020-03-06 05:00","2020","03","06","05:00","-2.2","","-7.7","","66","","","","30","","22","","","","101.44","","","","-8","","NA"
"-62.33","44.82","BEAVER ISLAND (AUT)","8200558","2020-03-06 06:00","2020","03","06","06:00","-2.6","","-8.1","","66","","","","30","","19","","","","101.53","","","","-8","","NA"
"-62.33","44.82","BEAVER ISLAND (AUT)","8200558","2020-03-06 07:00","2020","03","06","07:00","-2.6","","-8.0","","66","","","","31","","17","","","","101.56","","","","-8","","NA"
"-62.33","44.82","BEAVER ISLAND (AUT)","8200558","2020-03-06 08:00","2020","03","06","08:00","-2.4","","-8.4","","63","","","","31","","20","","","","101.65","","","","-8","","NA"
"-62.33","44.82","BEAVER ISLAND (AUT)","8200558","2020-03-06 09:00","2020","03","06","09:00","-1.4","","-8.1","","61","","","","33","","25","","","","101.64","","","","-8","","NA"
"-62.33","44.82","BEAVER ISLAND (AUT)","8200558","2020-03-06 10:00","2020","03","06","10:00","-0.2","","-8.3","","54","","","","33","","20","","","","101.66","","","","-5","","NA"
"-62.33","44.82","BEAVER ISLAND (AUT)","8200558","2020-03-06 11:00","2020","03","06","11:00","0.9","","-8.6","","49","","","","34","","13","","","","101.66","","","","","","NA"
"-62.33","44.82","BEAVER ISLAND (AUT)","8200558","2020-03-06 12:00","2020","03","06","12:00","2.0","","-8.7","","45","","","","33","","11","","","","101.68","","","","","","NA"
"-62.33","44.82","BEAVER ISLAND (AUT)","8200558","2020-03-06 13:00","2020","03","06","13:00","3.5","","-7.0","","46","","","","20","","3","","","","101.63","","","","","","NA"
"-62.33","44.82","BEAVER ISLAND (AUT)","8200558","2020-03-06 14:00","2020","03","06","14:00","1.9","","-5.8","","57","","","","22","","15","","","","101.62","","","","","","NA"
"-62.33","44.82","BEAVER ISLAND (AUT)","8200558","2020-03-06 15:00","2020","03","06","15:00","0.9","","-5.4","","63","","","","21","","18","","","","101.60","","","","","","NA"
"-62.33","44.82","BEAVER ISLAND (AUT)","8200558","2020-03-06 16:00","2020","03","06","16:00","0.8","","-5.3","","64","","","","22","","17","","","","101.59","","","","","","NA"
"-62.33","44.82","BEAVER ISLAND (AUT)","8200558","2020-03-06 17:00","2020","03","06","17:00","0.2","","-4.8","","69","","","","22","","17","","","","101.69","","","","","","NA"
"-62.33","44.82","BEAVER ISLAND (AUT)","8200558","2020-03-06 18:00","2020","03","06","18:00","-0.4","","-4.9","","71","","","","28","","8","","","","101.64","","","","-3","","NA"
"-62.33","44.82","BEAVER ISLAND (AUT)","8200558","2020-03-06 19:00","2020","03","06","19:00","0.2","","-7.0","","59","","","","3","","21","","","","101.61","","","","","","NA"
"-62.33","44.82","BEAVER ISLAND (AUT)","8200558","2020-03-06 20:00","2020","03","06","20:00","-0.6","","-7.4","","60","","","","4","","28","","","","101.63","","","","-7","","NA"
"-62.33","44.82","BEAVER ISLAND (AUT)","8200558","2020-03-06 21:00","2020","03","06","21:00","-1.4","","-6.6","","68","","","","4","","32","","","","101.69","","","","-9","","NA"
"-62.33","44.82","BEAVER ISLAND (AUT)","8200558","2020-03-06 22:00","2020","03","06","22:00","-1.9","","-6.0","","73","","","","3","","32","","","","101.56","","","","-9","","NA"
"-62.33","44.82","BEAVER ISLAND (AUT)","8200558","2020-03-06 23:00","2020","03","06","23:00","-2.7","","-6.3","","77","","","","5","","33","","","","101.53","","","","-10","","NA"
"-62.33","44.82","BEAVER ISLAND (AUT)","8200558","2020-03-07 00:00","2020","03","07","00:00","-2.9","","-6.8","","75","","","","4","","40","","","","101.50","","","","-11","","NA"
"-62.33","44.82","BEAVER ISLAND (AUT)","8200558","2020-03-07 01:00","2020","03","07","01:00","-3.4","","-6.9","","77","","","","4","","44","","","","101.46","","","","-12","","NA"
"-62.33","44.82","BEAVER ISLAND (AUT)","8200558","2020-03-07 02:00","2020","03","07","02:00","-3.2","","-6.2","","80","","","","4","","50","","","","101.22","","","","-13","","NA"
"-62.33","44.82","BEAVER ISLAND (AUT)","8200558","2020-03-07 03:00","2020","03","07","03:00","-3.5","","-7.2","","76","","","","4","","53","","","","101.07","","","","-13","","NA"
"-62.33","44.82","BEAVER ISLAND (AUT)","8200558","2020-03-07 04:00","2020","03","07","04:00","-4.2","","-8.4","","72","","","","4","","61","","","","100.90","","","","-15","","NA"
"-62.33","44.82","BEAVER ISLAND (AUT)","8200558","2020-03-07 05:00","2020","03","07","05:00","-4.1","","-8.4","","72","","","","4","","61","","","","100.76","","","","-15","","NA"
"-62.33","44.82","BEAVER ISLAND (AUT)","8200558","2020-03-07 06:00","2020","03","07","06:00","-4.3","","-9.3","","68","","","","4","","65","","","","100.69","","","","-15","","NA"
"-62.33","44.82","BEAVER ISLAND (AUT)","8200558","2020-03-07 07:00","2020","03","07","07:00","-4.2","","-9.0","","69","","","","4","","69","","","","100.51","","","","-15","","NA"
"-62.33","44.82","BEAVER ISLAND (AUT)","8200558","2020-03-07 08:00","2020","03","07","08:00","-4.2","","-9.0","","69","","","","4","","72","","","","100.36","","","","-15","","NA"
"-62.33","44.82","BEAVER ISLAND (AUT)","8200558","2020-03-07 09:00","2020","03","07","09:00","-4.2","","-8.7","","71","","","","4","","68","","","","100.37","","","","-15","","NA"
"-62.33","44.82","BEAVER ISLAND (AUT)","8200558","2020-03-07 10:00","2020","03","07","10:00","-5.3","","-8.0","","81","","","","3","","68","","","","100.34","","","","-17","","NA"
"-62.33","44.82","BEAVER ISLAND (AUT)","8200558","2020-03-07 11:00","2020","03","07","11:00","-5.2","","-6.0","","95","","","","2","","64","","","","100.25","","","","-16","","NA"
"-62.33","44.82","BEAVER ISLAND (AUT)","8200558","2020-03-07 12:00","2020","03","07","12:00","-5.1","","-5.9","","95","","","","2","","58","","","","100.14","","","","-16","","NA"
"-62.33","44.82","BEAVER ISLAND (AUT)","8200558","2020-03-07 13:00","2020","03","07","13:00","-4.6","","-5.8","","91","","","","2","","63","","","","100.00","","","","-15","","NA"
"-62.33","44.82","BEAVER ISLAND (AUT)","8200558","2020-03-07 14:00","2020","03","07","14:00","-4.3","","-5.4","","92","","","","2","","60","","","","99.96","","","","-15","","NA"
"-62.33","44.82","BEAVER ISLAND (AUT)","8200558","2020-03-07 15:00","2020","03","07","15:00","-4.1","","-5.7","","89","","","","2","","60","","","","99.97","","","","-14","","NA"
"-62.33","44.82","BEAVER ISLAND (AUT)","8200558","2020-03-07 16:00","2020","03","07","16:00","-3.5","","-5.6","","86","","","","2","","62","","","","99.98","","","","-14","","NA"
"-62.33","44.82","BEAVER ISLAND (AUT)","8200558","2020-03-07 17:00","2020","03","07","17:00","-3.1","","-5.8","","82","","","","2","","58","","","","100.02","","","","-13","","NA"
"-62.33","44.82","BEAVER ISLAND (AUT)","8200558","2020-03-07 18:00","2020","03","07","18:00","-2.8","","-5.7","","81","","","","1","","64","","","","100.08","","","","-13","","NA"
"-62.33","44.82","BEAVER ISLAND (AUT)","8200558","2020-03-07 19:00","2020","03","07","19:00","-3.1","","-5.4","","84","","","","36","","60","","","","100.22","","","","-13","","NA"
"-62.33","44.82","BEAVER ISLAND (AUT)","8200558","2020-03-07 20:00","2020","03","07","20:00","-3.3","","-5.4","","85","","","","36","","62","","","","100.34","","","","-13","","NA"
"-62.33","44.82","BEAVER ISLAND (AUT)","8200558","2020-03-07 21:00","2020","03","07","21:00","-3.1","","-5.8","","82","","","","35","","57","","","","100.39","","","","-13","","NA"
"-62.33","44.82","BEAVER ISLAND (AUT)","8200558","2020-03-07 22:00","2020","03","07","22:00","-3.1","","-5.7","","82","","","","35","","60","","","","100.43","","","","-13","","NA"
"-62.33","44.82","BEAVER ISLAND (AUT)","8200558","2020-03-07 23:00","2020","03","07","23:00","-2.9","","-5.4","","83","","","","35","","59","","","","100.53","","","","-13","","NA"
"-62.33","44.82","BEAVER ISLAND (AUT)","8200558","2020-03-08 00:00","2020","03","08","00:00","-2.9","","-5.9","","79","","","","36","","57","","","","100.64","","","","-13","","NA"
"-62.33","44.82","BEAVER ISLAND (AUT)","8200558","2020-03-08 01:00","2020","03","08","01:00","-3.0","","-6.5","","76","","","","35","","55","","","","100.75","","","","-13","","NA"
"-62.33","44.82","BEAVER ISLAND (AUT)","8200558","2020-03-08 02:00","2020","03","08","02:00","-3.3","","-7.6","","72","","","","34","","54","","","","100.86","","","","-13","","NA"
"-62.33","44.82","BEAVER ISLAND (AUT)","8200558","2020-03-08 03:00","2020","03","08","03:00","-3.7","","-7.6","","75","","","","33","","40","","","","100.96","","","","-12","","NA"
"-62.33","44.82","BEAVER ISLAND (AUT)","8200558","2020-03-08 04:00","2020","03","08","04:00","-4.3","","-6.9","","82","","","","33","","42","","","","101.05","","","","-13","","NA"
"-62.33","44.82","BEAVER ISLAND (AUT)","8200558","2020-03-08 05:00","2020","03","08","05:00","-4.5","","-7.0","","83","","","","33","","44","","","","101.14","","","","-14","","NA"
"-62.33","44.82","BEAVER ISLAND (AUT)","8200558","2020-03-08 06:00","2020","03","08","06:00","-5.2","","-8.5","","78","","","","32","","36","","","","101.27","","","","-14","","NA"
"-62.33","44.82","BEAVER ISLAND (AUT)","8200558","2020-03-08 07:00","2020","03","08","07:00","-5.7","","-9.1","","77","","","","31","","25","","","","101.38","","","","-13","","NA"
"-62.33","44.82","BEAVER ISLAND (AUT)","8200558","2020-03-08 08:00","2020","03","08","08:00","-5.4","","-9.7","","72","","","","30","","26","","","","101.45","","","","-13","","NA"
"-62.33","44.82","BEAVER ISLAND (AUT)","8200558","2020-03-08 09:00","2020","03","08","09:00","-4.4","","-9.6","","67","","","","31","","28","","","","101.49","","","","-12","","NA"
"-62.33","44.82","BEAVER ISLAND (AUT)","8200558","2020-03-08 10:00","2020","03","08","10:00","-3.9","","-10.0","","62","","","","30","","24","","","","101.51","","","","-11","","NA"
"-62.33","44.82","BEAVER ISLAND (AUT)","8200558","2020-03-08 11:00","2020","03","08","11:00","-2.3","","-10.7","","53","","","","29","","20","","","","101.47","","","","-8","","NA"
"-62.33","44.82","BEAVER ISLAND (AUT)","8200558","2020-03-08 12:00","2020","03","08","12:00","-1.0","","-10.4","","49","","","","30","","24","","","","101.47","","","","-7","","NA"
"-62.33","44.82","BEAVER ISLAND (AUT)","8200558","2020-03-08 13:00","2020","03","08","13:00","0.7","","-9.1","","48","","","","27","","20","","","","101.43","","","","","","NA"
"-62.33","44.82","BEAVER ISLAND (AUT)","8200558","2020-03-08 14:00","2020","03","08","14:00","2.4","","-8.4","","45","","","","27","","17","","","","101.38","","","","","","NA"
"-62.33","44.82","BEAVER ISLAND (AUT)","8200558","2020-03-08 15:00","2020","03","08","15:00","2.0","","-6.2","","55","","","","27","","22","","","","101.41","","","","","","NA"
"-62.33","44.82","BEAVER ISLAND (AUT)","8200558","2020-03-08 16:00","2020","03","08","16:00","2.1","","-7.7","","48","","","","31","","32","","","","101.44","","","","","","NA"
"-62.33","44.82","BEAVER ISLAND (AUT)","8200558","2020-03-08 17:00","2020","03","08","17:00","1.7","","-6.2","","56","","","","31","","28","","","","101.55","","","","","","NA"
"-62.33","44.82","BEAVER ISLAND (AUT)","8200558","2020-03-08 18:00","2020","03","08","18:00","1.0","","-6.0","","60","","","","30","","24","","","","101.64","","","","","","NA"
"-62.33","44.82","BEAVER ISLAND (AUT)","8200558","2020-03-08 19:00","2020","03","08","19:00","0.2","","-5.2","","67","","","","28","","14","","","","101.77","","","","","","NA"
"-62.33","44.82","BEAVER ISLAND (AUT)","8200558","2020-03-08 20:00","2020","03","08","20:00","0.2","","-4.7","","70","","","","25","","16","","","","101.82","","","","","","NA"
"-62.33","44.82","BEAVER ISLAND (AUT)","8200558","2020-03-08 21:00","2020","03","08","21:00","0.2","","-3.7","","75","","","","25","","18","","","","101.91","","","","","","NA"
"-62.33","44.82","BEAVER ISLAND (AUT)","8200558","2020-03-08 22:00","2020","03","08","22:00","0.1","","-4.1","","73","","","","26","","18","","","","101.98","","","","","","NA"
"-62.33","44.82","BEAVER ISLAND (AUT)","8200558","2020-03-08 23:00","2020","03","08","23:00","-0.2","","-4.4","","73","","","","26","","17","","","","102.00","","","","-5","","NA"
"-62.33","44.82","BEAVER ISLAND (AUT)","8200558","2020-03-09 00:00","2020","03","09","00:00","0.0","","-4.4","","72","","","","26","","18","","","","101.99","","","","-5","","NA"
"-62.33","44.82","BEAVER ISLAND (AUT)","8200558","2020-03-09 01:00","2020","03","09","01:00","0.1","","-3.4","","77","","","","26","","20","","","","102.03","","","","","","NA"
"-62.33","44.82","BEAVER ISLAND (AUT)","8200558","2020-03-09 02:00","2020","03","09","02:00","-0.7","","-5.0","","72","","","","27","","17","","","","102.04","","","","-6","","NA"
"-62.33","44.82","BEAVER ISLAND (AUT)","8200558","2020-03-09 03:00","2020","03","09","03:00","-0.5","","-5.1","","71","","","","28","","16","","","","102.05","","","","-5","","NA"
"-62.33","44.82","BEAVER ISLAND (AUT)","8200558","2020-03-09 04:00","2020","03","09","04:00","-0.9","","-5.2","","72","","","","31","","7","","","","102.05","","","","-3","","NA"
"-62.33","44.82","BEAVER ISLAND (AUT)","8200558","2020-03-09 05:00","2020","03","09","05:00","-1.1","","-4.8","","76","","","","26","","10","","","","102.12","","","","-5","","NA"
"-62.33","44.82","BEAVER ISLAND (AUT)","8200558","2020-03-09 06:00","2020","03","09","06:00","-1.2","","-4.8","","77","","","","32","","9","","","","102.18","","","","-4","","NA"
"-62.33","44.82","BEAVER ISLAND (AUT)","8200558","2020-03-09 07:00","2020","03","09","07:00","-1.0","","-3.9","","81","","","","35","","10","","","","102.24","","","","-5","","NA"
"-62.33","44.82","BEAVER ISLAND (AUT)","8200558","2020-03-09 08:00","2020","03","09","08:00","-1.0","","-4.1","","80","","","","3","","9","","","","102.27","","","","-4","","NA"
"-62.33","44.82","BEAVER ISLAND (AUT)","8200558","2020-03-09 09:00","2020","03","09","09:00","-0.6","","-4.1","","77","","","","8","","10","","","","102.28","","","","-4","","NA"
"-62.33","44.82","BEAVER ISLAND (AUT)","8200558","2020-03-09 10:00","2020","03","09","10:00","0.0","","-5.5","","66","","","","8","","13","","","","102.31","","","","-4","","NA"
"-62.33","44.82","BEAVER ISLAND (AUT)","8200558","2020-03-09 11:00","2020","03","09","11:00","0.1","","-4.5","","71","","","","9","","17","","","","102.26","","","","","","NA"
"-62.33","44.82","BEAVER ISLAND (AUT)","8200558","2020-03-09 12:00","2020","03","09","12:00","0.4","","-3.6","","75","","","","8","","20","","","","102.22","","","","","","NA"
"-62.33","44.82","BEAVER ISLAND (AUT)","8200558","2020-03-09 13:00","2020","03","09","13:00","-0.2","","-3.5","","79","","","","9","","22","","","","102.17","","","","-6","","NA"
"-62.33","44.82","BEAVER ISLAND (AUT)","8200558","2020-03-09 14:00","2020","03","09","14:00","-0.7","","-3.6","","80","","","","8","","28","","","","102.11","","","","-7","","NA"
"-62.33","44.82","BEAVER ISLAND (AUT)","8200558","2020-03-09 15:00","2020","03","09","15:00","-0.5","","-3.7","","79","","","","7","","33","","","","102.17","","","","-7","","NA"
"-62.33","44.82","BEAVER ISLAND (AUT)","8200558","2020-03-09 16:00","2020","03","09","16:00","-0.5","","-4.4","","75","","","","7","","30","","","","102.15","","","","-7","","NA"
"-62.33","44.82","BEAVER ISLAND (AUT)","8200558","2020-03-09 17:00","2020","03","09","17:00","-0.7","","-4.4","","76","","","","9","","25","","","","102.16","","","","-7","","NA"
"-62.33","44.82","BEAVER ISLAND (AUT)","8200558","2020-03-09 18:00","2020","03","09","18:00","-0.7","","-3.5","","81","","","","7","","34","","","","102.21","","","","-8","","NA"
"-62.33","44.82","BEAVER ISLAND (AUT)","8200558","2020-03-09 19:00","2020","03","09","19:00","-1.6","","-5.1","","77","","","","4","","35","","","","102.29","","","","-9","","NA"
"-62.33","44.82","BEAVER ISLAND (AUT)","8200558","2020-03-09 20:00","2020","03","09","20:00","-2.5","","-5.4","","80","","","","3","","32","","","","102.43","","","","-10","","NA"
"-62.33","44.82","BEAVER ISLAND (AUT)","8200558","2020-03-09 21:00","2020","03","09","21:00","-3.4","","-6.4","","80","","","","3","","31","","","","102.45","","","","-11","","NA"
"-62.33","44.82","BEAVER ISLAND (AUT)","8200558","2020-03-09 22:00","2020","03","09","22:00","-3.2","","-5.9","","81","","","","3","","31","","","","102.51","","","","-11","","NA"
"-62.33","44.82","BEAVER ISLAND (AUT)","8200558","2020-03-09 23:00","2020","03","09","23:00","-3.3","","-6.3","","80","","","","3","","28","","","","102.54","","","","-11","","NA"
"-62.33","44.82","BEAVER ISLAND (AUT)","8200558","2020-03-10 00:00","2020","03","10","00:00","-3.8","","-5.3","","90","","","","4","","29","","","","102.54","","","","-11","","NA"
"-62.33","44.82","BEAVER ISLAND (AUT)","8200558","2020-03-10 01:00","2020","03","10","01:00","-3.8","","-5.2","","90","","","","5","","34","","","","102.50","","","","-12","","NA"
"-62.33","44.82","BEAVER ISLAND (AUT)","8200558","2020-03-10 02:00","2020","03","10","02:00","-3.9","","-5.1","","92","","","","4","","31","","","","102.52","","","","-12","","NA"
"-62.33","44.82","BEAVER ISLAND (AUT)","8200558","2020-03-10 03:00","2020","03","10","03:00","-4.1","","-5.2","","92","","","","5","","27","","","","102.48","","","","-11","","NA"
"-62.33","44.82","BEAVER ISLAND (AUT)","8200558","2020-03-10 04:00","2020","03","10","04:00","-3.7","","-4.5","","94","","","","7","","29","","","","102.42","","","","-11","","NA"
"-62.33","44.82","BEAVER ISLAND (AUT)","8200558","2020-03-10 05:00","2020","03","10","05:00","-2.4","","-4.4","","86","","","","9","","27","","","","102.46","","","","-9","","NA"
"-62.33","44.82","BEAVER ISLAND (AUT)","8200558","2020-03-10 06:00","2020","03","10","06:00","-2.2","","-3.9","","88","","","","9","","32","","","","102.40","","","","-10","","NA"
"-62.33","44.82","BEAVER ISLAND (AUT)","8200558","2020-03-10 07:00","2020","03","10","07:00","-2.2","","-3.9","","88","","","","10","","35","","","","102.30","","","","-10","","NA"
"-62.33","44.82","BEAVER ISLAND (AUT)","8200558","2020-03-10 08:00","2020","03","10","08:00","-1.7","","-3.1","","90","","","","10","","35","","","","102.27","","","","-9","","NA"
"-62.33","44.82","BEAVER ISLAND (AUT)","8200558","2020-03-10 09:00","2020","03","10","09:00","-1.2","","-2.6","","90","","","","12","","36","","","","102.27","","","","-9","","NA"
"-62.33","44.82","BEAVER ISLAND (AUT)","8200558","2020-03-10 10:00","2020","03","10","10:00","-0.8","","-2.1","","91","","","","12","","33","","","","102.24","","","","-8","","NA"
"-62.33","44.82","BEAVER ISLAND (AUT)","8200558","2020-03-10 11:00","2020","03","10","11:00","-0.4","","-1.3","","94","","","","12","","36","","","","102.04","","","","-8","","NA"
"-62.33","44.82","BEAVER ISLAND (AUT)","8200558","2020-03-10 12:00","2020","03","10","12:00","-0.3","","-0.7","","97","","","","11","","26","","","","102.02","","","","-6","","NA"
"-62.33","44.82","BEAVER ISLAND (AUT)","8200558","2020-03-10 13:00","2020","03","10","13:00","-0.1","","-0.4","","98","","","","10","","25","","","","101.83","","","","-6","","NA"
"-62.33","44.82","BEAVER ISLAND (AUT)","8200558","2020-03-10 14:00","2020","03","10","14:00","0.0","","-0.1","","99","","","","9","","25","","","","101.70","","","","-6","","NA"
"-62.33","44.82","BEAVER ISLAND (AUT)","8200558","2020-03-10 15:00","2020","03","10","15:00","0.2","","0.1","","99","","","","9","","26","","","","101.56","","","","","","NA"
"-62.33","44.82","BEAVER ISLAND (AUT)","8200558","2020-03-10 16:00","2020","03","10","16:00","0.2","","0.1","","99","","","","8","","22","","","","101.46","","","","","","NA"
"-62.33","44.82","BEAVER ISLAND (AUT)","8200558","2020-03-10 17:00","2020","03","10","17:00","0.3","","0.2","","99","","","","8","","19","","","","101.33","","","","","","NA"
"-62.33","44.82","BEAVER ISLAND (AUT)","8200558","2020-03-10 18:00","2020","03","10","18:00","0.2","","0.2","","100","","","","9","","18","","","","101.23","","","","","","NA"
"-62.33","44.82","BEAVER ISLAND (AUT)","8200558","2020-03-10 19:00","2020","03","10","19:00","0.7","","0.7","","100","","","","14","","19","","","","101.12","","","","","","NA"
"-62.33","44.82","BEAVER ISLAND (AUT)","8200558","2020-03-10 20:00","2020","03","10","20:00","1.0","","0.9","","100","","","","19","","14","","","","101.07","","","","","","NA"
"-62.33","44.82","BEAVER ISLAND (AUT)","8200558","2020-03-10 21:00","2020","03","10","21:00","1.0","","0.9","","100","","","","19","","17","","","","100.97","","","","","","NA"
"-62.33","44.82","BEAVER ISLAND (AUT)","8200558","2020-03-10 22:00","2020","03","10","22:00","1.4","","1.4","","100","","","","19","","20","","","","100.87","","","","","","NA"
"-62.33","44.82","BEAVER ISLAND (AUT)","8200558","2020-03-10 23:00","2020","03","10","23:00","1.9","","1.9","","100","","","","21","","31","","","","100.78","","","","","","NA"
"-62.33","44.82","BEAVER ISLAND (AUT)","8200558","2020-03-11 00:00","2020","03","11","00:00","1.7","","1.7","","100","","","","22","","31","","","","100.74","","","","","","NA"
"-62.33","44.82","BEAVER ISLAND (AUT)","8200558","2020-03-11 01:00","2020","03","11","01:00","1.4","","1.4","","100","","","","23","","27","","","","100.69","","","","","","NA"
"-62.33","44.82","BEAVER ISLAND (AUT)","8200558","2020-03-11 02:00","2020","03","11","02:00","1.4","","1.3","","100","","","","23","","26","","","","100.64","","","","","","NA"
"-62.33","44.82","BEAVER ISLAND (AUT)","8200558","2020-03-11 03:00","2020","03","11","03:00","1.4","","1.4","","100","","","","23","","28","","","","100.57","","","","","","NA"
"-62.33","44.82","BEAVER ISLAND (AUT)","8200558","2020-03-11 04:00","2020","03","11","04:00","1.3","","1.3","","100","","","","24","","24","","","","100.53","","","","","","NA"
"-62.33","44.82","BEAVER ISLAND (AUT)","8200558","2020-03-11 05:00","2020","03","11","05:00","1.5","","1.4","","100","","","","24","","23","","","","100.54","","","","","","NA"
"-62.33","44.82","BEAVER ISLAND (AUT)","8200558","2020-03-11 06:00","2020","03","11","06:00","1.7","","1.6","","100","","","","25","","20","","","","100.59","","","","","","NA"
"-62.33","44.82","BEAVER ISLAND (AUT)","8200558","2020-03-11 07:00","2020","03","11","07:00","0.9","","0.8","","100","","","","23","","21","","","","100.62","","","","","","NA"
"-62.33","44.82","BEAVER ISLAND (AUT)","8200558","2020-03-11 08:00","2020","03","11","08:00","1.0","","1.0","","100","","","","23","","20","","","","100.69","","","","","","NA"
"-62.33","44.82","BEAVER ISLAND (AUT)","8200558","2020-03-11 09:00","2020","03","11","09:00","0.9","","0.9","","100","","","","24","","17","","","","100.76","","","","","","NA"
"-62.33","44.82","BEAVER ISLAND (AUT)","8200558","2020-03-11 10:00","2020","03","11","10:00","1.9","","1.9","","100","","","","27","","15","","","","100.84","","","","","","NA"
"-62.33","44.82","BEAVER ISLAND (AUT)","8200558","2020-03-11 11:00","2020","03","11","11:00","1.6","","1.5","","100","","","","34","","32","","","","100.94","","","","","","NA"
"-62.33","44.82","BEAVER ISLAND (AUT)","8200558","2020-03-11 12:00","2020","03","11","12:00","1.2","","0.5","","95","","","","34","","31","","","","101.08","","","","","","NA"
"-62.33","44.82","BEAVER ISLAND (AUT)","8200558","2020-03-11 13:00","2020","03","11","13:00","1.5","","0.0","","89","","","","34","","27","","","","101.08","","","","","","NA"
"-62.33","44.82","BEAVER ISLAND (AUT)","8200558","2020-03-11 14:00","2020","03","11","14:00","0.9","","-1.5","","84","","","","33","","30","","","","101.16","","","","","","NA"
"-62.33","44.82","BEAVER ISLAND (AUT)","8200558","2020-03-11 15:00","2020","03","11","15:00","0.5","","-2.6","","80","","","","35","","30","","","","101.24","","","","","","NA"
"-62.33","44.82","BEAVER ISLAND (AUT)","8200558","2020-03-11 16:00","2020","03","11","16:00","-0.1","","-3.5","","78","","","","33","","30","","","","101.41","","","","-7","","NA"
"-62.33","44.82","BEAVER ISLAND (AUT)","8200558","2020-03-11 17:00","2020","03","11","17:00","-0.8","","-3.8","","80","","","","34","","29","","","","101.53","","","","-7","","NA"
"-62.33","44.82","BEAVER ISLAND (AUT)","8200558","2020-03-11 18:00","2020","03","11","18:00","-1.7","","-4.6","","81","","","","35","","24","","","","101.57","","","","-8","","NA"
"-62.33","44.82","BEAVER ISLAND (AUT)","8200558","2020-03-11 19:00","2020","03","11","19:00","-2.2","","-4.9","","81","","","","35","","26","","","","101.65","","","","-9","","NA"
"-62.33","44.82","BEAVER ISLAND (AUT)","8200558","2020-03-11 20:00","2020","03","11","20:00","-2.8","","-5.7","","80","","","","36","","24","","","","101.79","","","","-9","","NA"
"-62.33","44.82","BEAVER ISLAND (AUT)","8200558","2020-03-11 21:00","2020","03","11","21:00","-3.2","","-6.2","","79","","","","2","","13","","","","101.78","","","","-8","","NA"
"-62.33","44.82","BEAVER ISLAND (AUT)","8200558","2020-03-11 22:00","2020","03","11","22:00","-3.2","","-6.3","","79","","","","2","","10","","","","101.86","","","","-7","","NA"
"-62.33","44.82","BEAVER ISLAND (AUT)","8200558","2020-03-11 23:00","2020","03","11","23:00","-3.4","","-6.6","","78","","","","2","","16","","","","101.83","","","","-9","","NA"
"-62.33","44.82","BEAVER ISLAND (AUT)","8200558","2020-03-12 00:00","2020","03","12","00:00","-3.4","","-6.5","","79","","","","2","","19","","","","101.75","","","","-9","","NA"
"-62.33","44.82","BEAVER ISLAND (AUT)","8200558","2020-03-12 01:00","2020","03","12","01:00","-3.6","","-7.2","","76","","","","3","","15","","","","101.78","","","","-9","","NA"
"-62.33","44.82","BEAVER ISLAND (AUT)","8200558","2020-03-12 02:00","2020","03","12","02:00","-3.6","","-7.3","","76","","","","32","","12","","","","101.91","","","","-8","","NA"
"-62.33","44.82","BEAVER ISLAND (AUT)","8200558","2020-03-12 03:00","2020","03","12","03:00","-3.4","","-7.2","","75","","","","32","","11","","","","101.87","","","","-8","","NA"
"-62.33","44.82","BEAVER ISLAND (AUT)","8200558","2020-03-12 04:00","2020","03","12","04:00","-3.3","","-7.6","","72","","","","1","","16","","","","101.77","","","","-9","","NA"
"-62.33","44.82","BEAVER ISLAND (AUT)","8200558","2020-03-12 05:00","2020","03","12","05:00","-3.3","","-7.2","","74","","","","1","","17","","","","101.86","","","","-9","","NA"
"-62.33","44.82","BEAVER ISLAND (AUT)","8200558","2020-03-12 06:00","2020","03","12","06:00","-3.5","","-7.1","","76","","","","34","","8","","","","101.95","","","","-7","","NA"
"-62.33","44.82","BEAVER ISLAND (AUT)","8200558","2020-03-12 07:00","2020","03","12","07:00","-3.3","","-7.4","","73","","","","1","","13","","","","101.94","","","","-8","","NA"
"-62.33","44.82","BEAVER ISLAND (AUT)","8200558","2020-03-12 08:00","2020","03","12","08:00","-2.5","","-5.9","","78","","","","33","","14","","","","102.02","","","","-7","","NA"
"-62.33","44.82","BEAVER ISLAND (AUT)","8200558","2020-03-12 09:00","2020","03","12","09:00","-1.2","","-6.6","","67","","","","34","","9","","","","102.09","","","","-4","","NA"
"-62.33","44.82","BEAVER ISLAND (AUT)","8200558","2020-03-12 10:00","2020","03","12","10:00","-0.4","","-6.9","","61","","","","34","","3","","","","102.10","","","","-1","","NA"
"-62.33","44.82","BEAVER ISLAND (AUT)","8200558","2020-03-12 11:00","2020","03","12","11:00","-0.4","","-6.3","","64","","","","21","","8","","","","102.10","","","","-3","","NA"
"-62.33","44.82","BEAVER ISLAND (AUT)","8200558","2020-03-12 12:00","2020","03","12","12:00","-0.2","","-5.3","","68","","","","20","","14","","","","102.10","","","","-4","","NA"
"-62.33","44.82","BEAVER ISLAND (AUT)","8200558","2020-03-12 13:00","2020","03","12","13:00","-0.2","","-4.9","","70","","","","21","","16","","","","102.07","","","","-5","","NA"
"-62.33","44.82","BEAVER ISLAND (AUT)","8200558","2020-03-12 14:00","2020","03","12","14:00","0.1","","-4.1","","73","","","","21","","20","","","","102.04","","","","","","NA"
"-62.33","44.82","BEAVER ISLAND (AUT)","8200558","2020-03-12 15:00","2020","03","12","15:00","0.1","","-3.9","","74","","","","22","","27","","","","102.09","","","","","","NA"
"-62.33","44.82","BEAVER ISLAND (AUT)","8200558","2020-03-12 16:00","2020","03","12","16:00","0.2","","-3.4","","77","","","","21","","26","","","","102.14","","","","","","NA"
"-62.33","44.82","BEAVER ISLAND (AUT)","8200558","2020-03-12 17:00","2020","03","12","17:00","-0.1","","-3.0","","81","","","","22","","30","","","","102.20","","","","-7","","NA"
"-62.33","44.82","BEAVER ISLAND (AUT)","8200558","2020-03-12 18:00","2020","03","12","18:00","-0.3","","-2.9","","83","","","","24","","24","","","","102.33","","","","-6","","NA"
"-62.33","44.82","BEAVER ISLAND (AUT)","8200558","2020-03-12 19:00","2020","03","12","19:00","-0.1","","-2.1","","86","","","","24","","22","","","","102.42","","","","-6","","NA"
"-62.33","44.82","BEAVER ISLAND (AUT)","8200558","2020-03-12 20:00","2020","03","12","20:00","-0.2","","-2.3","","85","","","","26","","21","","","","102.49","","","","-6","","NA"
"-62.33","44.82","BEAVER ISLAND (AUT)","8200558","2020-03-12 21:00","2020","03","12","21:00","-0.1","","-2.1","","86","","","","26","","19","","","","102.58","","","","-5","","NA"
"-62.33","44.82","BEAVER ISLAND (AUT)","8200558","2020-03-12 22:00","2020","03","12","22:00","-0.8","","-2.8","","87","","","","35","","11","","","","102.63","","","","-5","","NA"
"-62.33","44.82","BEAVER ISLAND (AUT)","8200558","2020-03-12 23:00","2020","03","12","23:00","-1.1","","-4.8","","76","","","","5","","10","","","","102.66","","","","-5","","NA"
"-62.33","44.82","BEAVER ISLAND (AUT)","8200558","2020-03-13 00:00","2020","03","13","00:00","-1.2","","-5.0","","75","","","","6","","10","","","","102.68","","","","-5","","NA"
"-62.33","44.82","BEAVER ISLAND (AUT)","8200558","2020-03-13 01:00","2020","03","13","01:00","-1.1","","-4.6","","77","","","","9","","11","","","","102.71","","","","-5","","NA"
"-62.33","44.82","BEAVER ISLAND (AUT)","8200558","2020-03-13 02:00","2020","03","13","02:00","-1.0","","-4.3","","78","","","","10","","12","","","","102.75","","","","-5","","NA"
"-62.33","44.82","BEAVER ISLAND (AUT)","8200558","2020-03-13 03:00","2020","03","13","03:00","-1.2","","-3.6","","84","","","","7","","11","","","","102.78","","","","-5","","NA"
"-62.33","44.82","BEAVER ISLAND (AUT)","8200558","2020-03-13 04:00","2020","03","13","04:00","-1.6","","-3.1","","89","","","","7","","12","","","","102.83","","","","-6","","NA"
"-62.33","44.82","BEAVER ISLAND (AUT)","8200558","2020-03-13 05:00","2020","03","13","05:00","-1.1","","-2.4","","91","","","","9","","16","","","","102.82","","","","-6","","NA"
"-62.33","44.82","BEAVER ISLAND (AUT)","8200558","2020-03-13 06:00","2020","03","13","06:00","-1.0","","-2.3","","91","","","","8","","19","","","","102.88","","","","-6","","NA"
"-62.33","44.82","BEAVER ISLAND (AUT)","8200558","2020-03-13 07:00","2020","03","13","07:00","-0.5","","-1.7","","92","","","","10","","18","","","","102.90","","","","-6","","NA"
"-62.33","44.82","BEAVER ISLAND (AUT)","8200558","2020-03-13 08:00","2020","03","13","08:00","0.1","","-1.5","","89","","","","12","","19","","","","102.87","","","","","","NA"
"-62.33","44.82","BEAVER ISLAND (AUT)","8200558","2020-03-13 09:00","2020","03","13","09:00","0.6","","-1.3","","87","","","","12","","20","","","","102.85","","","","","","NA"
"-62.33","44.82","BEAVER ISLAND (AUT)","8200558","2020-03-13 10:00","2020","03","13","10:00","0.8","","-0.9","","89","","","","13","","18","","","","102.91","","","","","","NA"
"-62.33","44.82","BEAVER ISLAND (AUT)","8200558","2020-03-13 11:00","2020","03","13","11:00","1.6","","0.0","","89","","","","13","","19","","","","102.86","","","","","","NA"
"-62.33","44.82","BEAVER ISLAND (AUT)","8200558","2020-03-13 12:00","2020","03","13","12:00","1.3","","-0.9","","85","","","","13","","24","","","","102.76","","","","","","NA"
"-62.33","44.82","BEAVER ISLAND (AUT)","8200558","2020-03-13 13:00","2020","03","13","13:00","0.9","","-1.1","","87","","","","13","","30","","","","102.62","","","","","","NA"
"-62.33","44.82","BEAVER ISLAND (AUT)","8200558","2020-03-13 14:00","2020","03","13","14:00","1.0","","-1.0","","87","","","","14","","36","","","","102.47","","","","","","NA"
"-62.33","44.82","BEAVER ISLAND (AUT)","8200558","2020-03-13 15:00","2020","03","13","15:00","1.0","","-1.0","","87","","","","14","","41","","","","102.32","","","","","","NA"
"-62.33","44.82","BEAVER ISLAND (AUT)","8200558","2020-03-13 16:00","2020","03","13","16:00","0.8","","-0.6","","90","","","","13","","43","","","","102.08","","","","","","NA"
"-62.33","44.82","BEAVER ISLAND (AUT)","8200558","2020-03-13 17:00","2020","03","13","17:00","0.9","","-0.5","","91","","","","13","","46","","","","101.88","","","","","","NA"
"-62.33","44.82","BEAVER ISLAND (AUT)","8200558","2020-03-13 18:00","2020","03","13","18:00","1.1","","-0.2","","91","","","","13","","56","","","","101.53","","","","","","NA"
"-62.33","44.82","BEAVER ISLAND (AUT)","8200558","2020-03-13 19:00","2020","03","13","19:00","1.0","","0.4","","96","","","","14","","65","","","","101.24","","","","","","NA"
"-62.33","44.82","BEAVER ISLAND (AUT)","8200558","2020-03-13 20:00","2020","03","13","20:00","1.7","","1.2","","97","","","","14","","67","","","","100.86","","","","","","NA"
"-62.33","44.82","BEAVER ISLAND (AUT)","8200558","2020-03-13 21:00","2020","03","13","21:00","2.8","","2.4","","98","","","","16","","69","","","","100.56","","","","","","NA"
"-62.33","44.82","BEAVER ISLAND (AUT)","8200558","2020-03-13 22:00","2020","03","13","22:00","3.9","","3.7","","99","","","","16","","76","","","","100.17","","","","","","NA"
"-62.33","44.82","BEAVER ISLAND (AUT)","8200558","2020-03-13 23:00","2020","03","13","23:00","5.6","","5.6","","100","","","","18","","72","","","","100.01","","","","","","NA"
"-62.33","44.82","BEAVER ISLAND (AUT)","8200558","2020-03-14 00:00","2020","03","14","00:00","4.9","","4.9","","100","","","","21","","53","","","","100.15","","","","","","NA"
"-62.33","44.82","BEAVER ISLAND (AUT)","8200558","2020-03-14 01:00","2020","03","14","01:00","2.9","","2.8","","100","","","","23","","42","","","","100.24","","","","","","NA"
"-62.33","44.82","BEAVER ISLAND (AUT)","8200558","2020-03-14 02:00","2020","03","14","02:00","2.6","","2.4","","99","","","","24","","28","","","","100.39","","","","","","NA"
"-62.33","44.82","BEAVER ISLAND (AUT)","8200558","2020-03-14 03:00","2020","03","14","03:00","2.1","","1.5","","96","","","","24","","19","","","","100.41","","","","","","NA"
"-62.33","44.82","BEAVER ISLAND (AUT)","8200558","2020-03-14 04:00","2020","03","14","04:00","2.3","","0.5","","88","","","","24","","26","","","","100.46","","","","","","NA"
"-62.33","44.82","BEAVER ISLAND (AUT)","8200558","2020-03-14 05:00","2020","03","14","05:00","1.5","","0.3","","92","","","","24","","23","","","","100.54","","","","","","NA"
"-62.33","44.82","BEAVER ISLAND (AUT)","8200558","2020-03-14 06:00","2020","03","14","06:00","1.6","","0.6","","93","","","","24","","29","","","","100.59","","","","","","NA"
"-62.33","44.82","BEAVER ISLAND (AUT)","8200558","2020-03-14 07:00","2020","03","14","07:00","1.6","","0.6","","94","","","","25","","24","","","","100.62","","","","","","NA"
"-62.33","44.82","BEAVER ISLAND (AUT)","8200558","2020-03-14 08:00","2020","03","14","08:00","2.1","","0.8","","91","","","","24","","27","","","","100.63","","","","","","NA"
"-62.33","44.82","BEAVER ISLAND (AUT)","8200558","2020-03-14 09:00","2020","03","14","09:00","2.7","","1.1","","89","","","","24","","34","","","","100.68","","","","","","NA"
"-62.33","44.82","BEAVER ISLAND (AUT)","8200558","2020-03-14 10:00","2020","03","14","10:00","2.5","","0.7","","88","","","","24","","30","","","","100.66","","","","","","NA"
"-62.33","44.82","BEAVER ISLAND (AUT)","8200558","2020-03-14 11:00","2020","03","14","11:00","2.1","","0.1","","87","","","","23","","45","","","","100.60","","","","","","NA"
"-62.33","44.82","BEAVER ISLAND (AUT)","8200558","2020-03-14 12:00","2020","03","14","12:00","1.9","","0.0","","87","","","","23","","41","","","","100.61","","","","","","NA"
"-62.33","44.82","BEAVER ISLAND (AUT)","8200558","2020-03-14 13:00","2020","03","14","13:00","1.8","","-0.2","","86","","","","23","","45","","","","100.56","","","","","","NA"
"-62.33","44.82","BEAVER ISLAND (AUT)","8200558","2020-03-14 14:00","2020","03","14","14:00","2.2","","-0.3","","84","","","","23","","42","","","","100.49","","","","","","NA"
"-62.33","44.82","BEAVER ISLAND (AUT)","8200558","2020-03-14 15:00","2020","03","14","15:00","2.2","","-0.4","","82","","","","24","","35","","","","100.51","","","","","","NA"
"-62.33","44.82","BEAVER ISLAND (AUT)","8200558","2020-03-14 16:00","2020","03","14","16:00","5.1","","-3.6","","53","","","","28","","41","","","","100.53","","","","","","NA"
"-62.33","44.82","BEAVER ISLAND (AUT)","8200558","2020-03-14 17:00","2020","03","14","17:00","4.7","","-3.8","","54","","","","29","","34","","","","100.67","","","","","","NA"
"-62.33","44.82","BEAVER ISLAND (AUT)","8200558","2020-03-14 18:00","2020","03","14","18:00","4.3","","-4.2","","54","","","","29","","36","","","","100.77","","","","","","NA"
"-62.33","44.82","BEAVER ISLAND (AUT)","8200558","2020-03-14 19:00","2020","03","14","19:00","3.9","","-4.1","","56","","","","30","","35","","","","100.88","","","","","","NA"
"-62.33","44.82","BEAVER ISLAND (AUT)","8200558","2020-03-14 20:00","2020","03","14","20:00","2.8","","-4.3","","60","","","","30","","36","","","","101.01","","","","","","NA"
"-62.33","44.82","BEAVER ISLAND (AUT)","8200558","2020-03-14 21:00","2020","03","14","21:00","1.9","","-5.8","","56","","","","30","","34","","","","101.17","","","","","","NA"
"-62.33","44.82","BEAVER ISLAND (AUT)","8200558","2020-03-14 22:00","2020","03","14","22:00","1.4","","-6.0","","58","","","","29","","28","","","","101.23","","","","","","NA"
"-62.33","44.82","BEAVER ISLAND (AUT)","8200558","2020-03-14 23:00","2020","03","14","23:00","0.9","","-6.4","","58","","","","31","","34","","","","101.30","","","","","","NA"
"-62.33","44.82","BEAVER ISLAND (AUT)","8200558","2020-03-15 00:00","2020","03","15","00:00","0.5","","-7.5","","55","","","","30","","35","","","","101.38","","","","","","NA"
"-62.33","44.82","BEAVER ISLAND (AUT)","8200558","2020-03-15 01:00","2020","03","15","01:00","-0.7","","-7.7","","59","","","","32","","31","","","","101.50","","","","-7","","NA"
"-62.33","44.82","BEAVER ISLAND (AUT)","8200558","2020-03-15 02:00","2020","03","15","02:00","-1.6","","-9.7","","54","","","","32","","39","","","","101.57","","","","-9","","NA"
"-62.33","44.82","BEAVER ISLAND (AUT)","8200558","2020-03-15 03:00","2020","03","15","03:00","-2.1","","-9.7","","56","","","","31","","44","","","","101.53","","","","-11","","NA"
"-62.33","44.82","BEAVER ISLAND (AUT)","8200558","2020-03-15 04:00","2020","03","15","04:00","-2.7","","-9.7","","58","","","","31","","36","","","","101.62","","","","-11","","NA"
"-62.33","44.82","BEAVER ISLAND (AUT)","8200558","2020-03-15 05:00","2020","03","15","05:00","-3.1","","-10.0","","59","","","","31","","32","","","","101.76","","","","-11","","NA"
"-62.33","44.82","BEAVER ISLAND (AUT)","8200558","2020-03-15 06:00","2020","03","15","06:00","-3.5","","-9.6","","63","","","","32","","30","","","","101.84","","","","-11","","NA"
"-62.33","44.82","BEAVER ISLAND (AUT)","8200558","2020-03-15 07:00","2020","03","15","07:00","-4.0","","-10.3","","61","","","","32","","29","","","","101.92","","","","-12","","NA"
"-62.33","44.82","BEAVER ISLAND (AUT)","8200558","2020-03-15 08:00","2020","03","15","08:00","-3.5","","-9.6","","63","","","","32","","28","","","","102.02","","","","-11","","NA"
"-62.33","44.82","BEAVER ISLAND (AUT)","8200558","2020-03-15 09:00","2020","03","15","09:00","-2.9","","-10.0","","58","","","","33","","34","","","","102.06","","","","-11","","NA"
"-62.33","44.82","BEAVER ISLAND (AUT)","8200558","2020-03-15 10:00","2020","03","15","10:00","-1.6","","-9.2","","56","","","","33","","26","","","","102.12","","","","-8","","NA"
"-62.33","44.82","BEAVER ISLAND (AUT)","8200558","2020-03-15 11:00","2020","03","15","11:00","-0.6","","-8.8","","54","","","","34","","23","","","","102.15","","","","-6","","NA"
"-62.33","44.82","BEAVER ISLAND (AUT)","8200558","2020-03-15 12:00","2020","03","15","12:00","0.5","","-8.2","","52","","","","34","","23","","","","102.16","","","","","","NA"
"-62.33","44.82","BEAVER ISLAND (AUT)","8200558","2020-03-15 13:00","2020","03","15","13:00","1.2","","-8.4","","49","","","","34","","18","","","","102.18","","","","","","NA"
"-62.33","44.82","BEAVER ISLAND (AUT)","8200558","2020-03-15 14:00","2020","03","15","14:00","1.4","","-8.8","","47","","","","34","","15","","","","102.16","","","","","","NA"
"-62.33","44.82","BEAVER ISLAND (AUT)","8200558","2020-03-15 15:00","2020","03","15","15:00","1.9","","-7.5","","49","","","","35","","15","","","","102.19","","","","","","NA"
"-62.33","44.82","BEAVER ISLAND (AUT)","8200558","2020-03-15 16:00","2020","03","15","16:00","1.9","","-6.9","","52","","","","34","","11","","","","102.22","","","","","","NA"
"-62.33","44.82","BEAVER ISLAND (AUT)","8200558","2020-03-15 17:00","2020","03","15","17:00","0.7","","-6.1","","60","","","","25","","5","","","","102.25","","","","","","NA"
"-62.33","44.82","BEAVER ISLAND (AUT)","8200558","2020-03-15 18:00","2020","03","15","18:00","-0.2","","-5.9","","65","","","","28","","5","","","","102.34","","","","-2","","NA"
"-62.33","44.82","BEAVER ISLAND (AUT)","8200558","2020-03-15 19:00","2020","03","15","19:00","-1.3","","-7.1","","65","","","","1","","27","","","","102.42","","","","-8","","NA"
"-62.33","44.82","BEAVER ISLAND (AUT)","8200558","2020-03-15 20:00","2020","03","15","20:00","-2.0","","-7.5","","66","","","","2","","21","","","","102.49","","","","-8","","NA"
"-62.33","44.82","BEAVER ISLAND (AUT)","8200558","2020-03-15 21:00","2020","03","15","21:00","-2.4","","-7.7","","67","","","","3","","18","","","","102.55","","","","-8","","NA"
"-62.33","44.82","BEAVER ISLAND (AUT)","8200558","2020-03-15 22:00","2020","03","15","22:00","-2.7","","-7.8","","68","","","","3","","13","","","","102.57","","","","-7","","NA"
"-62.33","44.82","BEAVER ISLAND (AUT)","8200558","2020-03-15 23:00","2020","03","15","23:00","-3.0","","-7.7","","70","","","","4","","10","","","","102.55","","","","-7","","NA"
"-62.33","44.82","BEAVER ISLAND (AUT)","8200558","2020-03-16 00:00","2020","03","16","00:00","-3.2","","-7.5","","72","","","","3","","13","","","","102.56","","","","-8","","NA"
"-62.33","44.82","BEAVER ISLAND (AUT)","8200558","2020-03-16 01:00","2020","03","16","01:00","-3.3","","-7.1","","75","","","","1","","17","","","","102.61","","","","-9","","NA"
"-62.33","44.82","BEAVER ISLAND (AUT)","8200558","2020-03-16 02:00","2020","03","16","02:00","-3.4","","-6.5","","79","","","","35","","18","","","","102.65","","","","-9","","NA"
"-62.33","44.82","BEAVER ISLAND (AUT)","8200558","2020-03-16 03:00","2020","03","16","03:00","-3.9","","-7.3","","77","","","","35","","29","","","","102.65","","","","-11","","NA"
"-62.33","44.82","BEAVER ISLAND (AUT)","8200558","2020-03-16 04:00","2020","03","16","04:00","-4.0","","-9.8","","64","","","","34","","30","","","","102.67","","","","-12","","NA"
"-62.33","44.82","BEAVER ISLAND (AUT)","8200558","2020-03-16 05:00","2020","03","16","05:00","-4.5","","-9.7","","67","","","","34","","29","","","","102.72","","","","-12","","NA"
"-62.33","44.82","BEAVER ISLAND (AUT)","8200558","2020-03-16 06:00","2020","03","16","06:00","-4.7","","-9.5","","69","","","","34","","26","","","","102.77","","","","-12","","NA"
"-62.33","44.82","BEAVER ISLAND (AUT)","8200558","2020-03-16 07:00","2020","03","16","07:00","-4.8","","-9.6","","69","","","","33","","30","","","","102.83","","","","-13","","NA"
"-62.33","44.82","BEAVER ISLAND (AUT)","8200558","2020-03-16 08:00","2020","03","16","08:00","-4.4","","-9.0","","70","","","","34","","29","","","","102.93","","","","-12","","NA"
"-62.33","44.82","BEAVER ISLAND (AUT)","8200558","2020-03-16 09:00","2020","03","16","09:00","-4.0","","-9.7","","65","","","","34","","30","","","","102.97","","","","-12","","NA"
"-62.33","44.82","BEAVER ISLAND (AUT)","8200558","2020-03-16 10:00","2020","03","16","10:00","-2.7","","-10.5","","55","","","","34","","22","","","","103.00","","","","-9","","NA"
"-62.33","44.82","BEAVER ISLAND (AUT)","8200558","2020-03-16 11:00","2020","03","16","11:00","-1.8","","-11.4","","48","","","","33","","22","","","","102.96","","","","-8","","NA"
"-62.33","44.82","BEAVER ISLAND (AUT)","8200558","2020-03-16 12:00","2020","03","16","12:00","-1.8","","-11.5","","47","","","","34","","22","","","","102.97","","","","-8","","NA"
"-62.33","44.82","BEAVER ISLAND (AUT)","8200558","2020-03-16 13:00","2020","03","16","13:00","-1.5","","-12.5","","43","","","","34","","18","","","","103.01","","","","-7","","NA"
"-62.33","44.82","BEAVER ISLAND (AUT)","8200558","2020-03-16 14:00","2020","03","16","14:00","-0.7","","-12.5","","41","","","","31","","14","","","","102.99","","","","-5","","NA"
"-62.33","44.82","BEAVER ISLAND (AUT)","8200558","2020-03-16 15:00","2020","03","16","15:00","-0.5","","-12.7","","39","","","","1","","10","","","","103.02","","","","-4","","NA"
"-62.33","44.82","BEAVER ISLAND (AUT)","8200558","2020-03-16 16:00","2020","03","16","16:00","0.5","","-11.4","","40","","","","9","","7","","","","103.01","","","","","","NA"
"-62.33","44.82","BEAVER ISLAND (AUT)","8200558","2020-03-16 17:00","2020","03","16","17:00","-0.8","","-10.5","","48","","","","35","","18","","","","103.07","","","","-6","","NA"
"-62.33","44.82","BEAVER ISLAND (AUT)","8200558","2020-03-16 18:00","2020","03","16","18:00","-0.9","","-10.2","","50","","","","36","","25","","","","103.10","","","","-7","","NA"
"-62.33","44.82","BEAVER ISLAND (AUT)","8200558","2020-03-16 19:00","2020","03","16","19:00","-1.5","","-9.9","","53","","","","1","","25","","","","103.16","","","","-8","","NA"
"-62.33","44.82","BEAVER ISLAND (AUT)","8200558","2020-03-16 20:00","2020","03","16","20:00","-2.1","","-7.8","","65","","","","35","","25","","","","103.21","","","","-9","","NA"
"-62.33","44.82","BEAVER ISLAND (AUT)","8200558","2020-03-16 21:00","2020","03","16","21:00","-2.8","","-6.6","","75","","","","36","","21","","","","103.25","","","","-9","","NA"
"-62.33","44.82","BEAVER ISLAND (AUT)","8200558","2020-03-16 22:00","2020","03","16","22:00","-3.2","","-7.5","","72","","","","2","","19","","","","103.27","","","","-9","","NA"
"-62.33","44.82","BEAVER ISLAND (AUT)","8200558","2020-03-16 23:00","2020","03","16","23:00","-3.4","","-7.0","","76","","","","3","","18","","","","103.29","","","","-9","","NA"
"-62.33","44.82","BEAVER ISLAND (AUT)","8200558","2020-03-17 00:00","2020","03","17","00:00","-3.9","","-6.7","","81","","","","1","","16","","","","103.30","","","","-9","","NA"
"-62.33","44.82","BEAVER ISLAND (AUT)","8200558","2020-03-17 01:00","2020","03","17","01:00","-3.7","","-6.2","","82","","","","3","","15","","","","103.29","","","","-9","","NA"
"-62.33","44.82","BEAVER ISLAND (AUT)","8200558","2020-03-17 02:00","2020","03","17","02:00","-3.6","","-5.8","","85","","","","6","","13","","","","103.26","","","","-8","","NA"
"-62.33","44.82","BEAVER ISLAND (AUT)","8200558","2020-03-17 03:00","2020","03","17","03:00","-3.3","","-5.5","","85","","","","9","","11","","","","103.19","","","","-8","","NA"
"-62.33","44.82","BEAVER ISLAND (AUT)","8200558","2020-03-17 04:00","2020","03","17","04:00","-3.2","","-5.1","","87","","","","9","","10","","","","103.15","","","","-7","","NA"
"-62.33","44.82","BEAVER ISLAND (AUT)","8200558","2020-03-17 05:00","2020","03","17","05:00","-2.6","","-4.6","","86","","","","12","","14","","","","103.12","","","","-7","","NA"
"-62.33","44.82","BEAVER ISLAND (AUT)","8200558","2020-03-17 06:00","2020","03","17","06:00","-2.2","","-5.7","","77","","","","13","","16","","","","103.13","","","","-7","","NA"
"-62.33","44.82","BEAVER ISLAND (AUT)","8200558","2020-03-17 07:00","2020","03","17","07:00","-1.8","","-5.8","","74","","","","14","","17","","","","103.15","","","","-7","","NA"
"-62.33","44.82","BEAVER ISLAND (AUT)","8200558","2020-03-17 08:00","2020","03","17","08:00","-0.8","","-5.1","","72","","","","15","","18","","","","103.12","","","","-6","","NA"
"-62.33","44.82","BEAVER ISLAND (AUT)","8200558","2020-03-17 09:00","2020","03","17","09:00","-0.7","","-4.9","","73","","","","14","","23","","","","103.06","","","","-7","","NA"
"-62.33","44.82","BEAVER ISLAND (AUT)","8200558","2020-03-17 10:00","2020","03","17","10:00","0.4","","-3.6","","75","","","","14","","28","","","","102.99","","","","","","NA"
"-62.33","44.82","BEAVER ISLAND (AUT)","8200558","2020-03-17 11:00","2020","03","17","11:00","0.9","","-3.8","","71","","","","16","","27","","","","102.92","","","","","","NA"
"-62.33","44.82","BEAVER ISLAND (AUT)","8200558","2020-03-17 12:00","2020","03","17","12:00","1.1","","-3.7","","70","","","","16","","31","","","","102.81","","","","","","NA"
"-62.33","44.82","BEAVER ISLAND (AUT)","8200558","2020-03-17 13:00","2020","03","17","13:00","1.9","","-3.4","","68","","","","17","","30","","","","102.69","","","","","","NA"
"-62.33","44.82","BEAVER ISLAND (AUT)","8200558","2020-03-17 14:00","2020","03","17","14:00","1.2","","-3.5","","71","","","","18","","32","","","","102.56","","","","","","NA"
"-62.33","44.82","BEAVER ISLAND (AUT)","8200558","2020-03-17 15:00","2020","03","17","15:00","1.2","","-2.7","","75","","","","17","","32","","","","102.43","","","","","","NA"
"-62.33","44.82","BEAVER ISLAND (AUT)","8200558","2020-03-17 16:00","2020","03","17","16:00","0.6","","-2.4","","80","","","","17","","32","","","","102.31","","","","","","NA"
"-62.33","44.82","BEAVER ISLAND (AUT)","8200558","2020-03-17 17:00","2020","03","17","17:00","0.7","","-1.4","","86","","","","17","","29","","","","102.20","","","","","","NA"
"-62.33","44.82","BEAVER ISLAND (AUT)","8200558","2020-03-17 18:00","2020","03","17","18:00","0.7","","-0.9","","89","","","","16","","27","","","","102.10","","","","","","NA"
"-62.33","44.82","BEAVER ISLAND (AUT)","8200558","2020-03-17 19:00","2020","03","17","19:00","1.1","","-0.2","","91","","","","18","","26","","","","101.96","","","","","","NA"
"-62.33","44.82","BEAVER ISLAND (AUT)","8200558","2020-03-17 20:00","2020","03","17","20:00","1.9","","1.3","","96","","","","20","","45","","","","101.83","","","","","","NA"
"-62.33","44.82","BEAVER ISLAND (AUT)","8200558","2020-03-17 21:00","2020","03","17","21:00","0.6","","0.2","","97","","","","20","","41","","","","101.73","","","","","","NA"
"-62.33","44.82","BEAVER ISLAND (AUT)","8200558","2020-03-17 22:00","2020","03","17","22:00","0.8","","0.7","","99","","","","18","","14","","","","101.61","","","","","","NA"
"-62.33","44.82","BEAVER ISLAND (AUT)","8200558","2020-03-17 23:00","2020","03","17","23:00","0.5","","0.3","","99","","","","4","","18","","","","101.37","","","","","","NA"
"-62.33","44.82","BEAVER ISLAND (AUT)","8200558","2020-03-18 00:00","2020","03","18","00:00","1.6","","1.5","","100","","","","9","","22","","","","101.14","","","","","","NA"
"-62.33","44.82","BEAVER ISLAND (AUT)","8200558","2020-03-18 01:00","2020","03","18","01:00","3.6","","3.5","","100","","","","19","","24","","","","101.03","","","","","","NA"
"-62.33","44.82","BEAVER ISLAND (AUT)","8200558","2020-03-18 02:00","2020","03","18","02:00","2.8","","2.7","","100","","","","25","","16","","","","100.98","","","","","","NA"
"-62.33","44.82","BEAVER ISLAND (AUT)","8200558","2020-03-18 03:00","2020","03","18","03:00","2.6","","2.6","","100","","","","30","","27","","","","101.02","","","","","","NA"
"-62.33","44.82","BEAVER ISLAND (AUT)","8200558","2020-03-18 04:00","2020","03","18","04:00","1.5","","1.3","","98","","","","34","","24","","","","101.13","","","","","","NA"
"-62.33","44.82","BEAVER ISLAND (AUT)","8200558","2020-03-18 05:00","2020","03","18","05:00","2.0","","1.4","","96","","","","31","","26","","","","101.28","","","","","","NA"
"-62.33","44.82","BEAVER ISLAND (AUT)","8200558","2020-03-18 06:00","2020","03","18","06:00","1.4","","0.7","","95","","","","30","","25","","","","101.42","","","","","","NA"
"-62.33","44.82","BEAVER ISLAND (AUT)","8200558","2020-03-18 07:00","2020","03","18","07:00","1.4","","0.5","","93","","","","30","","25","","","","101.57","","","","","","NA"
"-62.33","44.82","BEAVER ISLAND (AUT)","8200558","2020-03-18 08:00","2020","03","18","08:00","2.1","","-0.4","","84","","","","32","","34","","","","101.70","","","","","","NA"
"-62.33","44.82","BEAVER ISLAND (AUT)","8200558","2020-03-18 09:00","2020","03","18","09:00","2.0","","-3.3","","68","","","","32","","42","","","","101.88","","","","","","NA"
"-62.33","44.82","BEAVER ISLAND (AUT)","8200558","2020-03-18 10:00","2020","03","18","10:00","2.5","","-3.9","","63","","","","32","","38","","","","101.98","","","","","","NA"
"-62.33","44.82","BEAVER ISLAND (AUT)","8200558","2020-03-18 11:00","2020","03","18","11:00","3.3","","-4.7","","56","","","","32","","30","","","","102.07","","","","","","NA"
"-62.33","44.82","BEAVER ISLAND (AUT)","8200558","2020-03-18 12:00","2020","03","18","12:00","4.0","","-4.3","","55","","","","31","","27","","","","102.15","","","","","","NA"
"-62.33","44.82","BEAVER ISLAND (AUT)","8200558","2020-03-18 13:00","2020","03","18","13:00","4.5","","-4.2","","53","","","","30","","24","","","","102.21","","","","","","NA"
"-62.33","44.82","BEAVER ISLAND (AUT)","8200558","2020-03-18 14:00","2020","03","18","14:00","5.0","","-4.1","","52","","","","29","","21","","","","102.28","","","","","","NA"
"-62.33","44.82","BEAVER ISLAND (AUT)","8200558","2020-03-18 15:00","2020","03","18","15:00","5.0","","-5.0","","48","","","","30","","26","","","","102.34","","","","","","NA"
"-62.33","44.82","BEAVER ISLAND (AUT)","8200558","2020-03-18 16:00","2020","03","18","16:00","4.7","","-6.7","","43","","","","30","","25","","","","102.37","","","","","","NA"
"-62.33","44.82","BEAVER ISLAND (AUT)","8200558","2020-03-18 17:00","2020","03","18","17:00","3.7","","-6.6","","47","","","","32","","23","","","","102.47","","","","","","NA"
"-62.33","44.82","BEAVER ISLAND (AUT)","8200558","2020-03-18 18:00","2020","03","18","18:00","3.1","","-7.5","","46","","","","30","","23","","","","102.62","","","","","","NA"
"-62.33","44.82","BEAVER ISLAND (AUT)","8200558","2020-03-18 19:00","2020","03","18","19:00","1.7","","-5.6","","58","","","","29","","15","","","","102.76","","","","","","NA"
"-62.33","44.82","BEAVER ISLAND (AUT)","8200558","2020-03-18 20:00","2020","03","18","20:00","0.9","","-5.7","","61","","","","36","","11","","","","102.90","","","","","","NA"
"-62.33","44.82","BEAVER ISLAND (AUT)","8200558","2020-03-18 21:00","2020","03","18","21:00","0.3","","-6.6","","60","","","","34","","5","","","","103.00","","","","","","NA"
"-62.33","44.82","BEAVER ISLAND (AUT)","8200558","2020-03-18 22:00","2020","03","18","22:00","0.4","","-8.4","","51","","","","29","","8","","","","103.09","","","","","","NA"
"-62.33","44.82","BEAVER ISLAND (AUT)","8200558","2020-03-18 23:00","2020","03","18","23:00","0.2","","-7.5","","56","","","","32","","13","","","","103.13","","","","","","NA"
"-62.33","44.82","BEAVER ISLAND (AUT)","8200558","2020-03-19 00:00","2020","03","19","00:00","-0.5","","-7.2","","61","","","","33","","8","","","","103.15","","","","-3","","NA"
"-62.33","44.82","BEAVER ISLAND (AUT)","8200558","2020-03-19 01:00","2020","03","19","01:00","-1.1","","-6.4","","67","","","","33","","7","","","","103.22","","","","-4","","NA"
"-62.33","44.82","BEAVER ISLAND (AUT)","8200558","2020-03-19 02:00","2020","03","19","02:00","-1.0","","-6.3","","67","","","","31","","3","","","","103.27","","","","-2","","NA"
"-62.33","44.82","BEAVER ISLAND (AUT)","8200558","2020-03-19 03:00","2020","03","19","03:00","-1.3","","-4.9","","77","","","","31","","8","","","","103.28","","","","-4","","NA"
"-62.33","44.82","BEAVER ISLAND (AUT)","8200558","2020-03-19 04:00","2020","03","19","04:00","-1.6","","-5.4","","75","","","","35","","5","","","","103.30","","","","-3","","NA"
"-62.33","44.82","BEAVER ISLAND (AUT)","8200558","2020-03-19 05:00","2020","03","19","05:00","-1.5","","-5.2","","76","","","","0","","1","","","","103.36","","","","-2","","NA"
"-62.33","44.82","BEAVER ISLAND (AUT)","8200558","2020-03-19 06:00","2020","03","19","06:00","-1.7","","-4.9","","79","","","","1","","5","","","","103.42","","","","-4","","NA"
"-62.33","44.82","BEAVER ISLAND (AUT)","8200558","2020-03-19 07:00","2020","03","19","07:00","-1.4","","-5.0","","76","","","","2","","5","","","","103.50","","","","-3","","NA"
"-62.33","44.82","BEAVER ISLAND (AUT)","8200558","2020-03-19 08:00","2020","03","19","08:00","-0.6","","-4.5","","75","","","","3","","5","","","","103.55","","","","-2","","NA"
"-62.33","44.82","BEAVER ISLAND (AUT)","8200558","2020-03-19 09:00","2020","03","19","09:00","-0.2","","-5.7","","67","","","","7","","7","","","","103.65","","","","-3","","NA"
"-62.33","44.82","BEAVER ISLAND (AUT)","8200558","2020-03-19 10:00","2020","03","19","10:00","0.8","","-5.2","","64","","","","8","","9","","","","103.66","","","","","","NA"
"-62.33","44.82","BEAVER ISLAND (AUT)","8200558","2020-03-19 11:00","2020","03","19","11:00","2.9","","-3.8","","61","","","","9","","8","","","","103.65","","","","","","NA"
"-62.33","44.82","BEAVER ISLAND (AUT)","8200558","2020-03-19 12:00","2020","03","19","12:00","2.7","","-1.8","","72","","","","14","","8","","","","103.61","","","","","","NA"
"-62.33","44.82","BEAVER ISLAND (AUT)","8200558","2020-03-19 13:00","2020","03","19","13:00","2.6","","-1.8","","73","","","","14","","10","","","","103.56","","","","","","NA"
"-62.33","44.82","BEAVER ISLAND (AUT)","8200558","2020-03-19 14:00","2020","03","19","14:00","3.7","","-1.1","","71","","","","12","","6","","","","103.55","","","","","","NA"
"-62.33","44.82","BEAVER ISLAND (AUT)","8200558","2020-03-19 15:00","2020","03","19","15:00","3.3","","-0.2","","78","","","","14","","11","","","","103.52","","","","","","NA"
"-62.33","44.82","BEAVER ISLAND (AUT)","8200558","2020-03-19 16:00","2020","03","19","16:00","2.2","","0.1","","86","","","","13","","14","","","","103.42","","","","","","NA"
"-62.33","44.82","BEAVER ISLAND (AUT)","8200558","2020-03-19 17:00","2020","03","19","17:00","1.7","","-1.1","","82","","","","14","","16","","","","103.42","","","","","","NA"
"-62.33","44.82","BEAVER ISLAND (AUT)","8200558","2020-03-19 18:00","2020","03","19","18:00","1.3","","-1.0","","85","","","","12","","17","","","","103.34","","","","","","NA"
"-62.33","44.82","BEAVER ISLAND (AUT)","8200558","2020-03-19 19:00","2020","03","19","19:00","1.4","","-0.6","","86","","","","12","","17","","","","103.41","","","","","","NA"
"-62.33","44.82","BEAVER ISLAND (AUT)","8200558","2020-03-19 20:00","2020","03","19","20:00","1.6","","0.2","","91","","","","11","","18","","","","103.45","","","","","","NA"
"-62.33","44.82","BEAVER ISLAND (AUT)","8200558","2020-03-19 21:00","2020","03","19","21:00","1.7","","0.3","","91","","","","11","","21","","","","103.41","","","","","","NA"
"-62.33","44.82","BEAVER ISLAND (AUT)","8200558","2020-03-19 22:00","2020","03","19","22:00","1.7","","0.4","","91","","","","13","","27","","","","103.31","","","","","","NA"
"-62.33","44.82","BEAVER ISLAND (AUT)","8200558","2020-03-19 23:00","2020","03","19","23:00","1.9","","0.7","","92","","","","14","","31","","","","103.23","","","","","","NA"
"-62.33","44.82","BEAVER ISLAND (AUT)","8200558","2020-03-20 00:00","2020","03","20","00:00","2.0","","0.9","","92","","","","14","","32","","","","103.14","","","","","","NA"
"-62.33","44.82","BEAVER ISLAND (AUT)","8200558","2020-03-20 01:00","2020","03","20","01:00","2.1","","1.0","","93","","","","15","","39","","","","103.00","","","","","","NA"
"-62.33","44.82","BEAVER ISLAND (AUT)","8200558","2020-03-20 02:00","2020","03","20","02:00","1.9","","0.9","","93","","","","15","","38","","","","102.87","","","","","","NA"
"-62.33","44.82","BEAVER ISLAND (AUT)","8200558","2020-03-20 03:00","2020","03","20","03:00","2.0","","1.0","","93","","","","14","","37","","","","102.73","","","","","","NA"
"-62.33","44.82","BEAVER ISLAND (AUT)","8200558","2020-03-20 04:00","2020","03","20","04:00","2.2","","1.2","","93","","","","15","","42","","","","102.56","","","","","","NA"
"-62.33","44.82","BEAVER ISLAND (AUT)","8200558","2020-03-20 05:00","2020","03","20","05:00","2.5","","1.7","","95","","","","14","","45","","","","102.39","","","","","","NA"
"-62.33","44.82","BEAVER ISLAND (AUT)","8200558","2020-03-20 06:00","2020","03","20","06:00","2.6","","2.3","","98","","","","15","","45","","","","102.22","","","","","","NA"
"-62.33","44.82","BEAVER ISLAND (AUT)","8200558","2020-03-20 07:00","2020","03","20","07:00","3.1","","3.0","","99","","","","14","","44","","","","102.04","","","","","","NA"
"-62.33","44.82","BEAVER ISLAND (AUT)","8200558","2020-03-20 08:00","2020","03","20","08:00","3.4","","3.3","","99","","","","14","","51","","","","101.76","","","","","","NA"
"-62.33","44.82","BEAVER ISLAND (AUT)","8200558","2020-03-20 09:00","2020","03","20","09:00","3.9","","3.8","","99","","","","16","","59","","","","101.48","","","","","","NA"
"-62.33","44.82","BEAVER ISLAND (AUT)","8200558","2020-03-20 10:00","2020","03","20","10:00","4.0","","4.0","","100","","","","17","","57","","","","101.26","","","","","","NA"
"-62.33","44.82","BEAVER ISLAND (AUT)","8200558","2020-03-20 11:00","2020","03","20","11:00","4.2","","4.1","","100","","","","18","","51","","","","101.13","","","","","","NA"
"-62.33","44.82","BEAVER ISLAND (AUT)","8200558","2020-03-20 12:00","2020","03","20","12:00","3.9","","3.9","","100","","","","19","","48","","","","101.06","","","","","","NA"
"-62.33","44.82","BEAVER ISLAND (AUT)","8200558","2020-03-20 13:00","2020","03","20","13:00","3.7","","3.6","","100","","","","20","","49","","","","100.93","","","","","","NA"
"-62.33","44.82","BEAVER ISLAND (AUT)","8200558","2020-03-20 14:00","2020","03","20","14:00","3.0","","2.9","","100","","","","21","","38","","","","100.90","","","","","","NA"
"-62.33","44.82","BEAVER ISLAND (AUT)","8200558","2020-03-20 15:00","2020","03","20","15:00","2.1","","2.1","","100","","","","21","","23","","","","100.81","","","","","","NA"
"-62.33","44.82","BEAVER ISLAND (AUT)","8200558","2020-03-20 16:00","2020","03","20","16:00","2.7","","2.7","","100","","","","21","","31","","","","100.59","","","","","","NA"
"-62.33","44.82","BEAVER ISLAND (AUT)","8200558","2020-03-20 17:00","2020","03","20","17:00","2.9","","2.9","","100","","","","20","","32","","","","100.49","","","","","","NA"
"-62.33","44.82","BEAVER ISLAND (AUT)","8200558","2020-03-20 18:00","2020","03","20","18:00","3.1","","3.0","","100","","","","20","","35","","","","100.33","","","","","","NA"
"-62.33","44.82","BEAVER ISLAND (AUT)","8200558","2020-03-20 19:00","2020","03","20","19:00","3.4","","3.3","","100","","","","21","","36","","","","100.23","","","","","","NA"
"-62.33","44.82","BEAVER ISLAND (AUT)","8200558","2020-03-20 20:00","2020","03","20","20:00","3.5","","3.5","","100","","","","22","","39","","","","100.09","","","","","","NA"
"-62.33","44.82","BEAVER ISLAND (AUT)","8200558","2020-03-20 21:00","2020","03","20","21:00","3.6","","3.6","","100","","","","22","","41","","","","99.93","","","","","","NA"
"-62.33","44.82","BEAVER ISLAND (AUT)","8200558","2020-03-20 22:00","2020","03","20","22:00","4.0","","3.9","","100","","","","23","","50","","","","99.93","","","","","","NA"
"-62.33","44.82","BEAVER ISLAND (AUT)","8200558","2020-03-20 23:00","2020","03","20","23:00","3.3","","3.3","","100","","","","23","","47","","","","99.91","","","","","","NA"
"-62.33","44.82","BEAVER ISLAND (AUT)","8200558","2020-03-21 00:00","2020","03","21","00:00","3.2","","3.2","","100","","","","24","","43","","","","99.85","","","","","","NA"
"-62.33","44.82","BEAVER ISLAND (AUT)","8200558","2020-03-21 01:00","2020","03","21","01:00","3.0","","3.0","","100","","","","24","","37","","","","99.87","","","","","","NA"
"-62.33","44.82","BEAVER ISLAND (AUT)","8200558","2020-03-21 02:00","2020","03","21","02:00","2.7","","2.7","","100","","","","24","","35","","","","99.84","","","","","","NA"
"-62.33","44.82","BEAVER ISLAND (AUT)","8200558","2020-03-21 03:00","2020","03","21","03:00","2.5","","2.5","","100","","","","24","","36","","","","99.85","","","","","","NA"
"-62.33","44.82","BEAVER ISLAND (AUT)","8200558","2020-03-21 04:00","2020","03","21","04:00","2.3","","2.3","","100","","","","24","","34","","","","99.94","","","","","","NA"
"-62.33","44.82","BEAVER ISLAND (AUT)","8200558","2020-03-21 05:00","2020","03","21","05:00","2.2","","2.2","","100","","","","24","","33","","","","100.06","","","","","","NA"
"-62.33","44.82","BEAVER ISLAND (AUT)","8200558","2020-03-21 06:00","2020","03","21","06:00","2.0","","1.9","","100","","","","24","","18","","","","100.19","","","","","","NA"
"-62.33","44.82","BEAVER ISLAND (AUT)","8200558","2020-03-21 07:00","2020","03","21","07:00","5.1","","2.8","","85","","","","30","","46","","","","100.37","","","","","","NA"
"-62.33","44.82","BEAVER ISLAND (AUT)","8200558","2020-03-21 08:00","2020","03","21","08:00","4.4","","0.3","","75","","","","30","","36","","","","100.55","","","","","","NA"
"-62.33","44.82","BEAVER ISLAND (AUT)","8200558","2020-03-21 09:00","2020","03","21","09:00","4.9","","-0.7","","67","","","","31","","45","","","","100.71","","","","","","NA"
"-62.33","44.82","BEAVER ISLAND (AUT)","8200558","2020-03-21 10:00","2020","03","21","10:00","5.1","","-1.9","","60","","","","32","","40","","","","100.89","","","","","","NA"
"-62.33","44.82","BEAVER ISLAND (AUT)","8200558","2020-03-21 11:00","2020","03","21","11:00","5.4","","-2.8","","55","","","","32","","35","","","","101.00","","","","","","NA"
"-62.33","44.82","BEAVER ISLAND (AUT)","8200558","2020-03-21 12:00","2020","03","21","12:00","5.4","","-5.5","","45","","","","33","","39","","","","101.16","","","","","","NA"
"-62.33","44.82","BEAVER ISLAND (AUT)","8200558","2020-03-21 13:00","2020","03","21","13:00","5.6","","-6.5","","41","","","","32","","36","","","","101.27","","","","","","NA"
"-62.33","44.82","BEAVER ISLAND (AUT)","8200558","2020-03-21 14:00","2020","03","21","14:00","6.0","","-6.0","","42","","","","32","","27","","","","101.34","","","","","","NA"
"-62.33","44.82","BEAVER ISLAND (AUT)","8200558","2020-03-21 15:00","2020","03","21","15:00","5.6","","-5.6","","44","","","","32","","28","","","","101.43","","","","","","NA"
"-62.33","44.82","BEAVER ISLAND (AUT)","8200558","2020-03-21 16:00","2020","03","21","16:00","5.3","","-8.8","","36","","","","31","","29","","","","101.48","","","","","","NA"
"-62.33","44.82","BEAVER ISLAND (AUT)","8200558","2020-03-21 17:00","2020","03","21","17:00","4.0","","-6.5","","46","","","","33","","26","","","","101.61","","","","","","NA"
"-62.33","44.82","BEAVER ISLAND (AUT)","8200558","2020-03-21 18:00","2020","03","21","18:00","2.3","","-8.7","","44","","","","1","","25","","","","101.74","","","","","","NA"
"-62.33","44.82","BEAVER ISLAND (AUT)","8200558","2020-03-21 19:00","2020","03","21","19:00","1.4","","-7.4","","52","","","","35","","19","","","","101.85","","","","","","NA"
"-62.33","44.82","BEAVER ISLAND (AUT)","8200558","2020-03-21 20:00","2020","03","21","20:00","0.7","","-9.9","","45","","","","35","","22","","","","102.00","","","","","","NA"
"-62.33","44.82","BEAVER ISLAND (AUT)","8200558","2020-03-21 21:00","2020","03","21","21:00","-0.2","","-9.2","","51","","","","34","","22","","","","102.09","","","","-6","","NA"
"-62.33","44.82","BEAVER ISLAND (AUT)","8200558","2020-03-21 22:00","2020","03","21","22:00","-0.6","","-9.2","","52","","","","33","","25","","","","102.17","","","","-7","","NA"
"-62.33","44.82","BEAVER ISLAND (AUT)","8200558","2020-03-21 23:00","2020","03","21","23:00","-1.2","","-8.8","","56","","","","33","","23","","","","102.27","","","","-7","","NA"
"-62.33","44.82","BEAVER ISLAND (AUT)","8200558","2020-03-22 00:00","2020","03","22","00:00","-1.9","","-10.2","","53","","","","35","","25","","","","102.33","","","","-8","","NA"
"-62.33","44.82","BEAVER ISLAND (AUT)","8200558","2020-03-22 01:00","2020","03","22","01:00","-2.3","","-10.0","","55","","","","34","","33","","","","102.38","","","","-10","","NA"
"-62.33","44.82","BEAVER ISLAND (AUT)","8200558","2020-03-22 02:00","2020","03","22","02:00","-3.2","","-11.1","","54","","","","35","","32","","","","102.41","","","","-11","","NA"
"-62.33","44.82","BEAVER ISLAND (AUT)","8200558","2020-03-22 03:00","2020","03","22","03:00","-4.2","","-11.2","","58","","","","35","","32","","","","102.47","","","","-12","","NA"
"-62.33","44.82","BEAVER ISLAND (AUT)","8200558","2020-03-22 04:00","2020","03","22","04:00","-5.2","","-12.1","","58","","","","35","","36","","","","102.56","","","","-14","","NA"
"-62.33","44.82","BEAVER ISLAND (AUT)","8200558","2020-03-22 05:00","2020","03","22","05:00","-5.9","","-11.7","","64","","","","35","","37","","","","102.65","","","","-15","","NA"
"-62.33","44.82","BEAVER ISLAND (AUT)","8200558","2020-03-22 06:00","2020","03","22","06:00","-6.6","","-12.3","","64","","","","34","","31","","","","102.75","","","","-15","","NA"
"-62.33","44.82","BEAVER ISLAND (AUT)","8200558","2020-03-22 07:00","2020","03","22","07:00","-6.2","","-12.1","","63","","","","34","","27","","","","102.85","","","","-14","","NA"
"-62.33","44.82","BEAVER ISLAND (AUT)","8200558","2020-03-22 08:00","2020","03","22","08:00","-6.5","","-13.5","","58","","","","35","","32","","","","102.93","","","","-15","","NA"
"-62.33","44.82","BEAVER ISLAND (AUT)","8200558","2020-03-22 09:00","2020","03","22","09:00","-6.5","","-14.0","","55","","","","32","","23","","","","102.99","","","","-14","","NA"
"-62.33","44.82","BEAVER ISLAND (AUT)","8200558","2020-03-22 10:00","2020","03","22","10:00","-5.2","","-13.5","","52","","","","34","","27","","","","103.00","","","","-13","","NA"
"-62.33","44.82","BEAVER ISLAND (AUT)","8200558","2020-03-22 11:00","2020","03","22","11:00","-4.4","","-13.0","","51","","","","33","","23","","","","103.01","","","","-11","","NA"
"-62.33","44.82","BEAVER ISLAND (AUT)","8200558","2020-03-22 12:00","2020","03","22","12:00","-4.0","","-13.7","","47","","","","34","","30","","","","103.02","","","","-12","","NA"
"-62.33","44.82","BEAVER ISLAND (AUT)","8200558","2020-03-22 13:00","2020","03","22","13:00","-3.4","","-14.7","","41","","","","32","","29","","","","103.03","","","","-11","","NA"
"-62.33","44.82","BEAVER ISLAND (AUT)","8200558","2020-03-22 14:00","2020","03","22","14:00","-3.0","","-14.5","","41","","","","33","","23","","","","103.05","","","","-9","","NA"
"-62.33","44.82","BEAVER ISLAND (AUT)","8200558","2020-03-22 15:00","2020","03","22","15:00","-2.9","","-15.4","","37","","","","33","","28","","","","103.09","","","","-10","","NA"
"-62.33","44.82","BEAVER ISLAND (AUT)","8200558","2020-03-22 16:00","2020","03","22","16:00","-2.6","","-16.3","","34","","","","33","","29","","","","103.15","","","","-10","","NA"
"-62.33","44.82","BEAVER ISLAND (AUT)","8200558","2020-03-22 17:00","2020","03","22","17:00","-3.2","","-15.6","","38","","","","34","","32","","","","103.22","","","","-11","","NA"
"-62.33","44.82","BEAVER ISLAND (AUT)","8200558","2020-03-22 18:00","2020","03","22","18:00","-3.8","","-14.9","","42","","","","35","","34","","","","103.31","","","","-12","","NA"
"-62.33","44.82","BEAVER ISLAND (AUT)","8200558","2020-03-22 19:00","2020","03","22","19:00","-4.6","","-14.8","","45","","","","35","","30","","","","103.43","","","","-12","","NA"
"-62.33","44.82","BEAVER ISLAND (AUT)","8200558","2020-03-22 20:00","2020","03","22","20:00","-5.3","","-15.1","","46","","","","35","","27","","","","103.51","","","","-13","","NA"
"-62.33","44.82","BEAVER ISLAND (AUT)","8200558","2020-03-22 21:00","2020","03","22","21:00","-5.9","","-14.6","","50","","","","35","","21","","","","103.64","","","","-13","","NA"
"-62.33","44.82","BEAVER ISLAND (AUT)","8200558","2020-03-22 22:00","2020","03","22","22:00","-5.8","","-13.2","","56","","","","34","","17","","","","103.71","","","","-12","","NA"
"-62.33","44.82","BEAVER ISLAND (AUT)","8200558","2020-03-22 23:00","2020","03","22","23:00","-6.1","","-13.2","","57","","","","32","","14","","","","103.75","","","","-12","","NA"
"-62.33","44.82","BEAVER ISLAND (AUT)","8200558","2020-03-23 00:00","2020","03","23","00:00","-6.3","","-13.2","","58","","","","31","","12","","","","103.79","","","","-11","","NA"
"-62.33","44.82","BEAVER ISLAND (AUT)","8200558","2020-03-23 01:00","2020","03","23","01:00","-6.0","","-12.4","","61","","","","28","","14","","","","103.82","","","","-12","","NA"
"-62.33","44.82","BEAVER ISLAND (AUT)","8200558","2020-03-23 02:00","2020","03","23","02:00","-5.8","","-11.9","","62","","","","30","","16","","","","103.83","","","","-12","","NA"
"-62.33","44.82","BEAVER ISLAND (AUT)","8200558","2020-03-23 03:00","2020","03","23","03:00","-6.2","","-11.2","","67","","","","30","","17","","","","103.83","","","","-12","","NA"
"-62.33","44.82","BEAVER ISLAND (AUT)","8200558","2020-03-23 04:00","2020","03","23","04:00","-6.2","","-10.8","","70","","","","30","","13","","","","103.90","","","","-12","","NA"
"-62.33","44.82","BEAVER ISLAND (AUT)","8200558","2020-03-23 05:00","2020","03","23","05:00","-6.1","","-10.6","","70","","","","34","","20","","","","103.87","","","","-13","","NA"
"-62.33","44.82","BEAVER ISLAND (AUT)","8200558","2020-03-23 06:00","2020","03","23","06:00","-6.7","","-11.5","","69","","","","32","","18","","","","103.94","","","","-13","","NA"
"-62.33","44.82","BEAVER ISLAND (AUT)","8200558","2020-03-23 07:00","2020","03","23","07:00","-6.0","","-10.9","","68","","","","36","","18","","","","103.96","","","","-12","","NA"
"-62.33","44.82","BEAVER ISLAND (AUT)","8200558","2020-03-23 08:00","2020","03","23","08:00","-4.6","","-9.7","","67","","","","33","","8","","","","104.06","","","","-8","","NA"
"-62.33","44.82","BEAVER ISLAND (AUT)","8200558","2020-03-23 09:00","2020","03","23","09:00","-3.3","","-8.8","","66","","","","4","","8","","","","104.01","","","","-7","","NA"
"-62.33","44.82","BEAVER ISLAND (AUT)","8200558","2020-03-23 10:00","2020","03","23","10:00","-1.6","","-8.5","","59","","","","8","","8","","","","103.97","","","","-5","","NA"
"-62.33","44.82","BEAVER ISLAND (AUT)","8200558","2020-03-23 11:00","2020","03","23","11:00","-2.9","","-9.2","","62","","","","19","","12","","","","103.95","","","","-7","","NA"
"-62.33","44.82","BEAVER ISLAND (AUT)","8200558","2020-03-23 12:00","2020","03","23","12:00","-1.9","","-8.0","","63","","","","21","","22","","","","103.92","","","","-8","","NA"
"-62.33","44.82","BEAVER ISLAND (AUT)","8200558","2020-03-23 13:00","2020","03","23","13:00","-2.2","","-8.0","","64","","","","20","","16","","","","103.79","","","","-7","","NA"
"-62.33","44.82","BEAVER ISLAND (AUT)","8200558","2020-03-23 14:00","2020","03","23","14:00","-2.4","","-8.6","","62","","","","20","","19","","","","103.76","","","","-8","","NA"
"-62.33","44.82","BEAVER ISLAND (AUT)","8200558","2020-03-23 15:00","2020","03","23","15:00","-1.7","","-9.2","","57","","","","22","","24","","","","103.75","","","","-8","","NA"
"-62.33","44.82","BEAVER ISLAND (AUT)","8200558","2020-03-23 16:00","2020","03","23","16:00","-1.6","","-8.4","","60","","","","20","","17","","","","103.63","","","","-7","","NA"
"-62.33","44.82","BEAVER ISLAND (AUT)","8200558","2020-03-23 17:00","2020","03","23","17:00","-1.7","","-7.9","","62","","","","20","","22","","","","103.55","","","","-8","","NA"
"-62.33","44.82","BEAVER ISLAND (AUT)","8200558","2020-03-23 18:00","2020","03","23","18:00","-1.4","","-6.4","","69","","","","20","","31","","","","103.52","","","","-8","","NA"
"-62.33","44.82","BEAVER ISLAND (AUT)","8200558","2020-03-23 19:00","2020","03","23","19:00","-1.4","","-6.2","","70","","","","19","","24","","","","103.39","","","","-8","","NA"
"-62.33","44.82","BEAVER ISLAND (AUT)","8200558","2020-03-23 20:00","2020","03","23","20:00","-1.3","","-5.9","","71","","","","18","","28","","","","103.29","","","","-8","","NA"
"-62.33","44.82","BEAVER ISLAND (AUT)","8200558","2020-03-23 21:00","2020","03","23","21:00","-1.3","","-5.3","","74","","","","16","","28","","","","103.21","","","","-8","","NA"
"-62.33","44.82","BEAVER ISLAND (AUT)","8200558","2020-03-23 22:00","2020","03","23","22:00","-0.9","","-3.7","","81","","","","16","","26","","","","103.08","","","","-7","","NA"
"-62.33","44.82","BEAVER ISLAND (AUT)","8200558","2020-03-23 23:00","2020","03","23","23:00","-0.4","","-2.6","","85","","","","15","","31","","","","102.92","","","","-7","","NA"
"-62.33","44.82","BEAVER ISLAND (AUT)","8200558","2020-03-24 00:00","2020","03","24","00:00","-0.2","","-1.9","","88","","","","14","","30","","","","102.76","","","","-7","","NA"
"-62.33","44.82","BEAVER ISLAND (AUT)","8200558","2020-03-24 01:00","2020","03","24","01:00","0.0","","-1.9","","87","","","","14","","42","","","","102.58","","","","-8","","NA"
"-62.33","44.82","BEAVER ISLAND (AUT)","8200558","2020-03-24 02:00","2020","03","24","02:00","0.1","","-1.4","","89","","","","13","","39","","","","102.42","","","","","","NA"
"-62.33","44.82","BEAVER ISLAND (AUT)","8200558","2020-03-24 03:00","2020","03","24","03:00","0.3","","-0.9","","92","","","","13","","38","","","","102.22","","","","","","NA"
"-62.33","44.82","BEAVER ISLAND (AUT)","8200558","2020-03-24 04:00","2020","03","24","04:00","0.3","","-0.8","","92","","","","11","","36","","","","102.05","","","","","","NA"
"-62.33","44.82","BEAVER ISLAND (AUT)","8200558","2020-03-24 05:00","2020","03","24","05:00","0.4","","-0.4","","94","","","","9","","36","","","","101.80","","","","","","NA"
"-62.33","44.82","BEAVER ISLAND (AUT)","8200558","2020-03-24 06:00","2020","03","24","06:00","0.4","","0.0","","97","","","","8","","35","","","","101.67","","","","","","NA"
"-62.33","44.82","BEAVER ISLAND (AUT)","8200558","2020-03-24 07:00","2020","03","24","07:00","0.5","","0.4","","99","","","","6","","39","","","","101.38","","","","","","NA"
"-62.33","44.82","BEAVER ISLAND (AUT)","8200558","2020-03-24 08:00","2020","03","24","08:00","0.8","","0.6","","99","","","","6","","44","","","","101.18","","","","","","NA"
"-62.33","44.82","BEAVER ISLAND (AUT)","8200558","2020-03-24 09:00","2020","03","24","09:00","1.1","","1.0","","99","","","","6","","44","","","","101.06","","","","","","NA"
"-62.33","44.82","BEAVER ISLAND (AUT)","8200558","2020-03-24 10:00","2020","03","24","10:00","1.6","","1.5","","99","","","","5","","54","","","","100.67","","","","","","NA"
"-62.33","44.82","BEAVER ISLAND (AUT)","8200558","2020-03-24 11:00","2020","03","24","11:00","2.0","","1.8","","99","","","","5","","69","","","","100.19","","","","","","NA"
"-62.33","44.82","BEAVER ISLAND (AUT)","8200558","2020-03-24 12:00","2020","03","24","12:00","2.3","","2.1","","99","","","","5","","72","","","","99.92","","","","","","NA"
"-62.33","44.82","BEAVER ISLAND (AUT)","8200558","2020-03-24 13:00","2020","03","24","13:00","1.8","","1.6","","99","","","","1","","43","","","","99.99","","","","","","NA"
"-62.33","44.82","BEAVER ISLAND (AUT)","8200558","2020-03-24 14:00","2020","03","24","14:00","1.5","","0.9","","96","","","","2","","60","","","","99.79","","","","","","NA"
"-62.33","44.82","BEAVER ISLAND (AUT)","8200558","2020-03-24 15:00","2020","03","24","15:00","2.3","","1.4","","94","","","","1","","56","","","","99.76","","","","","","NA"
"-62.33","44.82","BEAVER ISLAND (AUT)","8200558","2020-03-24 16:00","2020","03","24","16:00","2.0","","0.4","","89","","","","36","","63","","","","99.79","","","","","","NA"
"-62.33","44.82","BEAVER ISLAND (AUT)","8200558","2020-03-24 17:00","2020","03","24","17:00","2.5","","0.7","","88","","","","35","","54","","","","99.99","","","","","","NA"
"-62.33","44.82","BEAVER ISLAND (AUT)","8200558","2020-03-24 18:00","2020","03","24","18:00","2.2","","0.5","","88","","","","34","","47","","","","100.24","","","","","","NA"
"-62.33","44.82","BEAVER ISLAND (AUT)","8200558","2020-03-24 19:00","2020","03","24","19:00","1.5","","0.0","","90","","","","34","","52","","","","100.44","","","","","","NA"
"-62.33","44.82","BEAVER ISLAND (AUT)","8200558","2020-03-24 20:00","2020","03","24","20:00","1.2","","-0.4","","89","","","","35","","54","","","","100.55","","","","","","NA"
"-62.33","44.82","BEAVER ISLAND (AUT)","8200558","2020-03-24 21:00","2020","03","24","21:00","0.7","","-1.0","","88","","","","34","","51","","","","100.71","","","","","","NA"
"-62.33","44.82","BEAVER ISLAND (AUT)","8200558","2020-03-24 22:00","2020","03","24","22:00","0.3","","-1.0","","91","","","","34","","48","","","","100.88","","","","","","NA"
"-62.33","44.82","BEAVER ISLAND (AUT)","8200558","2020-03-24 23:00","2020","03","24","23:00","0.1","","-1.5","","89","","","","34","","47","","","","101.00","","","","","","NA"
"-62.33","44.82","BEAVER ISLAND (AUT)","8200558","2020-03-25 00:00","2020","03","25","00:00","-0.2","","-1.9","","88","","","","34","","47","","","","101.16","","","","-8","","NA"
"-62.33","44.82","BEAVER ISLAND (AUT)","8200558","2020-03-25 01:00","2020","03","25","01:00","-0.8","","-2.6","","87","","","","34","","42","","","","101.28","","","","-9","","NA"
"-62.33","44.82","BEAVER ISLAND (AUT)","8200558","2020-03-25 02:00","2020","03","25","02:00","-1.0","","-3.9","","81","","","","35","","47","","","","101.36","","","","-9","","NA"
"-62.33","44.82","BEAVER ISLAND (AUT)","8200558","2020-03-25 03:00","2020","03","25","03:00","-1.3","","-3.9","","82","","","","34","","44","","","","101.44","","","","-9","","NA"
"-62.33","44.82","BEAVER ISLAND (AUT)","8200558","2020-03-25 04:00","2020","03","25","04:00","-1.4","","-3.9","","83","","","","34","","41","","","","101.50","","","","-9","","NA"
"-62.33","44.82","BEAVER ISLAND (AUT)","8200558","2020-03-25 05:00","2020","03","25","05:00","-1.6","","-4.1","","83","","","","35","","39","","","","101.60","","","","-9","","NA"
"-62.33","44.82","BEAVER ISLAND (AUT)","8200558","2020-03-25 06:00","2020","03","25","06:00","-1.8","","-4.2","","83","","","","1","","27","","","","101.70","","","","-8","","NA"
"-62.33","44.82","BEAVER ISLAND (AUT)","8200558","2020-03-25 07:00","2020","03","25","07:00","-1.3","","-4.2","","81","","","","35","","20","","","","101.85","","","","-7","","NA"
"-62.33","44.82","BEAVER ISLAND (AUT)","8200558","2020-03-25 08:00","2020","03","25","08:00","-0.4","","-3.5","","80","","","","35","","26","","","","101.93","","","","-7","","NA"
"-62.33","44.82","BEAVER ISLAND (AUT)","8200558","2020-03-25 09:00","2020","03","25","09:00","0.7","","-3.2","","75","","","","34","","24","","","","102.01","","","","","","NA"
"-62.33","44.82","BEAVER ISLAND (AUT)","8200558","2020-03-25 10:00","2020","03","25","10:00","2.0","","-2.9","","70","","","","1","","25","","","","102.00","","","","","","NA"
"-62.33","44.82","BEAVER ISLAND (AUT)","8200558","2020-03-25 11:00","2020","03","25","11:00","3.6","","-1.8","","67","","","","1","","15","","","","102.10","","","","","","NA"
"-62.33","44.82","BEAVER ISLAND (AUT)","8200558","2020-03-25 12:00","2020","03","25","12:00","4.6","","-1.5","","65","","","","3","","15","","","","102.15","","","","","","NA"
"-62.33","44.82","BEAVER ISLAND (AUT)","8200558","2020-03-25 13:00","2020","03","25","13:00","5.1","","-0.9","","65","","","","3","","17","","","","102.14","","","","","","NA"
"-62.33","44.82","BEAVER ISLAND (AUT)","8200558","2020-03-25 14:00","2020","03","25","14:00","5.4","","-1.1","","63","","","","4","","20","","","","102.10","","","","","","NA"
"-62.33","44.82","BEAVER ISLAND (AUT)","8200558","2020-03-25 15:00","2020","03","25","15:00","4.3","","-3.1","","58","","","","5","","27","","","","102.05","","","","","","NA"
"-62.33","44.82","BEAVER ISLAND (AUT)","8200558","2020-03-25 16:00","2020","03","25","16:00","4.3","","-1.8","","65","","","","7","","12","","","","102.10","","","","","","NA"
"-62.33","44.82","BEAVER ISLAND (AUT)","8200558","2020-03-25 17:00","2020","03","25","17:00","2.2","","-1.1","","79","","","","17","","4","","","","102.20","","","","","","NA"
"-62.33","44.82","BEAVER ISLAND (AUT)","8200558","2020-03-25 18:00","2020","03","25","18:00","2.6","","-3.1","","66","","","","4","","22","","","","102.20","","","","","","NA"
"-62.33","44.82","BEAVER ISLAND (AUT)","8200558","2020-03-25 19:00","2020","03","25","19:00","1.6","","-3.3","","70","","","","4","","19","","","","102.19","","","","","","NA"
"-62.33","44.82","BEAVER ISLAND (AUT)","8200558","2020-03-25 20:00","2020","03","25","20:00","1.2","","-3.8","","69","","","","5","","17","","","","102.20","","","","","","NA"
"-62.33","44.82","BEAVER ISLAND (AUT)","8200558","2020-03-25 21:00","2020","03","25","21:00","0.7","","-2.5","","79","","","","7","","17","","","","102.21","","","","","","NA"
"-62.33","44.82","BEAVER ISLAND (AUT)","8200558","2020-03-25 22:00","2020","03","25","22:00","0.7","","-1.9","","83","","","","6","","19","","","","102.20","","","","","","NA"
"-62.33","44.82","BEAVER ISLAND (AUT)","8200558","2020-03-25 23:00","2020","03","25","23:00","0.8","","-1.6","","84","","","","7","","20","","","","102.15","","","","","","NA"
"-62.33","44.82","BEAVER ISLAND (AUT)","8200558","2020-03-26 00:00","2020","03","26","00:00","0.6","","-2.8","","77","","","","8","","23","","","","102.10","","","","","","NA"
"-62.33","44.82","BEAVER ISLAND (AUT)","8200558","2020-03-26 01:00","2020","03","26","01:00","0.4","","-2.3","","82","","","","7","","32","","","","102.03","","","","","","NA"
"-62.33","44.82","BEAVER ISLAND (AUT)","8200558","2020-03-26 02:00","2020","03","26","02:00","0.1","","-1.6","","89","","","","7","","37","","","","101.93","","","","","","NA"
"-62.33","44.82","BEAVER ISLAND (AUT)","8200558","2020-03-26 03:00","2020","03","26","03:00","-0.1","","-1.3","","92","","","","7","","38","","","","101.87","","","","-7","","NA"
"-62.33","44.82","BEAVER ISLAND (AUT)","8200558","2020-03-26 04:00","2020","03","26","04:00","-0.1","","-1.1","","93","","","","7","","44","","","","101.76","","","","-8","","NA"
"-62.33","44.82","BEAVER ISLAND (AUT)","8200558","2020-03-26 05:00","2020","03","26","05:00","-0.1","","-1.0","","94","","","","8","","38","","","","101.78","","","","-7","","NA"
"-62.33","44.82","BEAVER ISLAND (AUT)","8200558","2020-03-26 06:00","2020","03","26","06:00","-0.1","","-0.8","","95","","","","8","","39","","","","101.76","","","","-7","","NA"
"-62.33","44.82","BEAVER ISLAND (AUT)","8200558","2020-03-26 07:00","2020","03","26","07:00","0.1","","-0.6","","95","","","","7","","44","","","","101.69","","","","","","NA"
"-62.33","44.82","BEAVER ISLAND (AUT)","8200558","2020-03-26 08:00","2020","03","26","08:00","0.4","","-0.6","","94","","","","7","","41","","","","101.69","","","","","","NA"
"-62.33","44.82","BEAVER ISLAND (AUT)","8200558","2020-03-26 09:00","2020","03","26","09:00","-0.1","","-0.4","","98","","","","7","","46","","","","101.60","","","","-8","","NA"
"-62.33","44.82","BEAVER ISLAND (AUT)","8200558","2020-03-26 10:00","2020","03","26","10:00","-0.2","","-0.3","","99","","","","6","","51","","","","101.51","","","","-8","","NA"
"-62.33","44.82","BEAVER ISLAND (AUT)","8200558","2020-03-26 11:00","2020","03","26","11:00","-0.4","","-0.5","","99","","","","6","","55","","","","101.32","","","","-9","","NA"
"-62.33","44.82","BEAVER ISLAND (AUT)","8200558","2020-03-26 12:00","2020","03","26","12:00","-0.4","","-0.5","","99","","","","6","","61","","","","101.20","","","","-9","","NA"
"-62.33","44.82","BEAVER ISLAND (AUT)","8200558","2020-03-26 13:00","2020","03","26","13:00","-0.3","","-0.4","","99","","","","6","","64","","","","100.95","","","","-9","","NA"
"-62.33","44.82","BEAVER ISLAND (AUT)","8200558","2020-03-26 14:00","2020","03","26","14:00","-0.2","","-0.3","","100","","","","5","","68","","","","100.72","","","","-9","","NA"
"-62.33","44.82","BEAVER ISLAND (AUT)","8200558","2020-03-26 15:00","2020","03","26","15:00","-0.2","","-0.3","","100","","","","5","","72","","","","100.44","","","","-10","","NA"
"-62.33","44.82","BEAVER ISLAND (AUT)","8200558","2020-03-26 16:00","2020","03","26","16:00","-0.2","","-0.2","","100","","","","5","","69","","","","100.25","","","","-10","","NA"
"-62.33","44.82","BEAVER ISLAND (AUT)","8200558","2020-03-26 17:00","2020","03","26","17:00","0.0","","-0.1","","100","","","","4","","60","","","","100.18","","","","-9","","NA"
"-62.33","44.82","BEAVER ISLAND (AUT)","8200558","2020-03-26 18:00","2020","03","26","18:00","0.1","","0.1","","100","","","","4","","59","","","","100.08","","","","","","NA"
"-62.33","44.82","BEAVER ISLAND (AUT)","8200558","2020-03-26 19:00","2020","03","26","19:00","0.1","","0.0","","100","","","","4","","57","","","","100.00","","","","","","NA"
"-62.33","44.82","BEAVER ISLAND (AUT)","8200558","2020-03-26 20:00","2020","03","26","20:00","0.1","","0.1","","100","","","","4","","56","","","","99.89","","","","","","NA"
"-62.33","44.82","BEAVER ISLAND (AUT)","8200558","2020-03-26 21:00","2020","03","26","21:00","0.1","","0.1","","100","","","","4","","49","","","","99.85","","","","","","NA"
"-62.33","44.82","BEAVER ISLAND (AUT)","8200558","2020-03-26 22:00","2020","03","26","22:00","-0.2","","-0.3","","100","","","","2","","41","","","","99.71","","","","-8","","NA"
"-62.33","44.82","BEAVER ISLAND (AUT)","8200558","2020-03-26 23:00","2020","03","26","23:00","-0.5","","-0.5","","100","","","","2","","46","","","","99.56","","","","-9","","NA"
"-62.33","44.82","BEAVER ISLAND (AUT)","8200558","2020-03-27 00:00","2020","03","27","00:00","-0.4","","-0.5","","100","","","","2","","41","","","","99.43","","","","-8","","NA"
"-62.33","44.82","BEAVER ISLAND (AUT)","8200558","2020-03-27 01:00","2020","03","27","01:00","-0.2","","-0.2","","100","","","","1","","42","","","","99.34","","","","-8","","NA"
"-62.33","44.82","BEAVER ISLAND (AUT)","8200558","2020-03-27 02:00","2020","03","27","02:00","0.2","","0.1","","100","","","","35","","35","","","","99.37","","","","","","NA"
"-62.33","44.82","BEAVER ISLAND (AUT)","8200558","2020-03-27 03:00","2020","03","27","03:00","0.2","","0.1","","100","","","","35","","44","","","","99.25","","","","","","NA"
"-62.33","44.82","BEAVER ISLAND (AUT)","8200558","2020-03-27 04:00","2020","03","27","04:00","0.3","","0.3","","100","","","","35","","43","","","","99.17","","","","","","NA"
"-62.33","44.82","BEAVER ISLAND (AUT)","8200558","2020-03-27 05:00","2020","03","27","05:00","0.1","","0.0","","100","","","","32","","33","","","","99.34","","","","","","NA"
"-62.33","44.82","BEAVER ISLAND (AUT)","8200558","2020-03-27 06:00","2020","03","27","06:00","-0.3","","-0.4","","99","","","","31","","38","","","","99.37","","","","-8","","NA"
"-62.33","44.82","BEAVER ISLAND (AUT)","8200558","2020-03-27 07:00","2020","03","27","07:00","-0.3","","-0.4","","99","","","","32","","40","","","","99.37","","","","-8","","NA"
"-62.33","44.82","BEAVER ISLAND (AUT)","8200558","2020-03-27 08:00","2020","03","27","08:00","0.2","","-0.1","","98","","","","32","","46","","","","99.39","","","","","","NA"
"-62.33","44.82","BEAVER ISLAND (AUT)","8200558","2020-03-27 09:00","2020","03","27","09:00","0.5","","0.0","","97","","","","32","","46","","","","99.50","","","","","","NA"
"-62.33","44.82","BEAVER ISLAND (AUT)","8200558","2020-03-27 10:00","2020","03","27","10:00","1.0","","0.4","","96","","","","32","","39","","","","99.52","","","","","","NA"
"-62.33","44.82","BEAVER ISLAND (AUT)","8200558","2020-03-27 11:00","2020","03","27","11:00","1.3","","-0.3","","89","","","","31","","30","","","","99.58","","","","","","NA"
"-62.33","44.82","BEAVER ISLAND (AUT)","8200558","2020-03-27 12:00","2020","03","27","12:00","2.2","","-0.5","","83","","","","31","","25","","","","99.62","","","","","","NA"
"-62.33","44.82","BEAVER ISLAND (AUT)","8200558","2020-03-27 13:00","2020","03","27","13:00","2.1","","-0.2","","85","","","","29","","23","","","","99.68","","","","","","NA"
"-62.33","44.82","BEAVER ISLAND (AUT)","8200558","2020-03-27 14:00","2020","03","27","14:00","2.2","","0.2","","87","","","","29","","23","","","","99.75","","","","","","NA"
"-62.33","44.82","BEAVER ISLAND (AUT)","8200558","2020-03-27 15:00","2020","03","27","15:00","2.2","","0.3","","88","","","","30","","28","","","","99.75","","","","","","NA"
"-62.33","44.82","BEAVER ISLAND (AUT)","8200558","2020-03-27 16:00","2020","03","27","16:00","1.8","","0.0","","88","","","","30","","23","","","","99.82","","","","","","NA"
"-62.33","44.82","BEAVER ISLAND (AUT)","8200558","2020-03-27 17:00","2020","03","27","17:00","1.3","","-0.2","","89","","","","31","","24","","","","99.93","","","","","","NA"
"-62.33","44.82","BEAVER ISLAND (AUT)","8200558","2020-03-27 18:00","2020","03","27","18:00","0.7","","-0.5","","92","","","","32","","24","","","","100.04","","","","","","NA"
"-62.33","44.82","BEAVER ISLAND (AUT)","8200558","2020-03-27 19:00","2020","03","27","19:00","0.7","","-1.4","","86","","","","31","","17","","","","100.14","","","","","","NA"
"-62.33","44.82","BEAVER ISLAND (AUT)","8200558","2020-03-27 20:00","2020","03","27","20:00","0.6","","-1.3","","87","","","","30","","19","","","","100.23","","","","","","NA"
"-62.33","44.82","BEAVER ISLAND (AUT)","8200558","2020-03-27 21:00","2020","03","27","21:00","0.4","","-0.8","","92","","","","26","","17","","","","100.31","","","","","","NA"
"-62.33","44.82","BEAVER ISLAND (AUT)","8200558","2020-03-27 22:00","2020","03","27","22:00","0.4","","-0.3","","95","","","","26","","19","","","","100.35","","","","","","NA"
"-62.33","44.82","BEAVER ISLAND (AUT)","8200558","2020-03-27 23:00","2020","03","27","23:00","0.6","","-0.1","","96","","","","27","","19","","","","100.42","","","","","","NA"
"-62.33","44.82","BEAVER ISLAND (AUT)","8200558","2020-03-28 00:00","2020","03","28","00:00","0.4","","-0.2","","96","","","","27","","19","","","","100.46","","","","","","NA"
"-62.33","44.82","BEAVER ISLAND (AUT)","8200558","2020-03-28 01:00","2020","03","28","01:00","0.6","","-0.1","","95","","","","28","","22","","","","100.53","","","","","","NA"
"-62.33","44.82","BEAVER ISLAND (AUT)","8200558","2020-03-28 02:00","2020","03","28","02:00","0.7","","-0.3","","93","","","","29","","25","","","","100.57","","","","","","NA"
"-62.33","44.82","BEAVER ISLAND (AUT)","8200558","2020-03-28 03:00","2020","03","28","03:00","0.8","","-1.1","","87","","","","29","","27","","","","100.64","","","","","","NA"
"-62.33","44.82","BEAVER ISLAND (AUT)","8200558","2020-03-28 04:00","2020","03","28","04:00","0.6","","-1.5","","86","","","","29","","27","","","","100.75","","","","","","NA"
"-62.33","44.82","BEAVER ISLAND (AUT)","8200558","2020-03-28 05:00","2020","03","28","05:00","0.4","","-1.6","","87","","","","29","","25","","","","100.83","","","","","","NA"
"-62.33","44.82","BEAVER ISLAND (AUT)","8200558","2020-03-28 06:00","2020","03","28","06:00","0.1","","-1.8","","87","","","","29","","26","","","","100.93","","","","","","NA"
"-62.33","44.82","BEAVER ISLAND (AUT)","8200558","2020-03-28 07:00","2020","03","28","07:00","0.5","","-2.2","","82","","","","30","","24","","","","101.03","","","","","","NA"
"-62.33","44.82","BEAVER ISLAND (AUT)","8200558","2020-03-28 08:00","2020","03","28","08:00","1.1","","-3.3","","73","","","","31","","30","","","","101.14","","","","","","NA"
"-62.33","44.82","BEAVER ISLAND (AUT)","8200558","2020-03-28 09:00","2020","03","28","09:00","2.1","","-3.2","","68","","","","32","","31","","","","101.20","","","","","","NA"
"-62.33","44.82","BEAVER ISLAND (AUT)","8200558","2020-03-28 10:00","2020","03","28","10:00","3.0","","-3.5","","62","","","","32","","29","","","","101.22","","","","","","NA"
"-62.33","44.82","BEAVER ISLAND (AUT)","8200558","2020-03-28 11:00","2020","03","28","11:00","4.3","","-3.5","","57","","","","31","","29","","","","101.22","","","","","","NA"
"-62.33","44.82","BEAVER ISLAND (AUT)","8200558","2020-03-28 12:00","2020","03","28","12:00","5.2","","-3.6","","53","","","","31","","29","","","","101.24","","","","","","NA"
"-62.33","44.82","BEAVER ISLAND (AUT)","8200558","2020-03-28 13:00","2020","03","28","13:00","5.9","","-4.7","","46","","","","31","","31","","","","101.29","","","","","","NA"
"-62.33","44.82","BEAVER ISLAND (AUT)","8200558","2020-03-28 14:00","2020","03","28","14:00","6.6","","-3.9","","47","","","","30","","28","","","","101.38","","","","","","NA"
"-62.33","44.82","BEAVER ISLAND (AUT)","8200558","2020-03-28 15:00","2020","03","28","15:00","7.0","","-5.8","","39","","","","32","","27","","","","101.39","","","","","","NA"
"-62.33","44.82","BEAVER ISLAND (AUT)","8200558","2020-03-28 16:00","2020","03","28","16:00","6.3","","-4.9","","44","","","","33","","20","","","","101.48","","","","","","NA"
"-62.33","44.82","BEAVER ISLAND (AUT)","8200558","2020-03-28 17:00","2020","03","28","17:00","5.6","","-5.8","","44","","","","35","","21","","","","101.54","","","","","","NA"
"-62.33","44.82","BEAVER ISLAND (AUT)","8200558","2020-03-28 18:00","2020","03","28","18:00","5.3","","-6.5","","42","","","","35","","17","","","","101.65","","","","","","NA"
"-62.33","44.82","BEAVER ISLAND (AUT)","8200558","2020-03-28 19:00","2020","03","28","19:00","2.8","","-3.0","","66","","","","2","","14","","","","101.73","","","","","","NA"
"-62.33","44.82","BEAVER ISLAND (AUT)","8200558","2020-03-28 20:00","2020","03","28","20:00","2.8","","-6.0","","53","","","","2","","18","","","","101.80","","","","","","NA"
"-62.33","44.82","BEAVER ISLAND (AUT)","8200558","2020-03-28 21:00","2020","03","28","21:00","2.0","","-6.4","","54","","","","1","","6","","","","101.87","","","","","","NA"
"-62.33","44.82","BEAVER ISLAND (AUT)","8200558","2020-03-28 22:00","2020","03","28","22:00","1.4","","-5.7","","59","","","","1","","11","","","","101.90","","","","","","NA"
"-62.33","44.82","BEAVER ISLAND (AUT)","8200558","2020-03-28 23:00","2020","03","28","23:00","0.5","","-4.4","","69","","","","31","","14","","","","101.99","","","","","","NA"
"-62.33","44.82","BEAVER ISLAND (AUT)","8200558","2020-03-29 00:00","2020","03","29","00:00","0.0","","-5.1","","69","","","","30","","11","","","","102.02","","","","-4","","NA"
"-62.33","44.82","BEAVER ISLAND (AUT)","8200558","2020-03-29 01:00","2020","03","29","01:00","-0.3","","-5.5","","68","","","","31","","6","","","","102.02","","","","-2","","NA"
"-62.33","44.82","BEAVER ISLAND (AUT)","8200558","2020-03-29 02:00","2020","03","29","02:00","0.0","","-4.9","","69","","","","6","","3","","","","102.02","","","","-1","","NA"
"-62.33","44.82","BEAVER ISLAND (AUT)","8200558","2020-03-29 03:00","2020","03","29","03:00","-0.1","","-2.8","","82","","","","34","","2","","","","102.07","","","","-1","","NA"
"-62.33","44.82","BEAVER ISLAND (AUT)","8200558","2020-03-29 04:00","2020","03","29","04:00","-0.9","","-5.2","","72","","","","34","","9","","","","102.09","","","","-4","","NA"
"-62.33","44.82","BEAVER ISLAND (AUT)","8200558","2020-03-29 05:00","2020","03","29","05:00","-1.2","","-6.5","","67","","","","35","","13","","","","102.13","","","","-5","","NA"
"-62.33","44.82","BEAVER ISLAND (AUT)","8200558","2020-03-29 06:00","2020","03","29","06:00","-1.3","","-6.5","","68","","","","35","","14","","","","102.23","","","","-6","","NA"
"-62.33","44.82","BEAVER ISLAND (AUT)","8200558","2020-03-29 07:00","2020","03","29","07:00","-0.2","","-7.4","","58","","","","35","","16","","","","102.27","","","","-5","","NA"
"-62.33","44.82","BEAVER ISLAND (AUT)","8200558","2020-03-29 08:00","2020","03","29","08:00","0.8","","-7.0","","56","","","","1","","11","","","","102.31","","","","","","NA"
"-62.33","44.82","BEAVER ISLAND (AUT)","8200558","2020-03-29 09:00","2020","03","29","09:00","1.9","","-6.6","","53","","","","36","","7","","","","102.37","","","","","","NA"
"-62.33","44.82","BEAVER ISLAND (AUT)","8200558","2020-03-29 10:00","2020","03","29","10:00","4.3","","-6.3","","46","","","","5","","6","","","","102.39","","","","","","NA"
"-62.33","44.82","BEAVER ISLAND (AUT)","8200558","2020-03-29 11:00","2020","03","29","11:00","4.8","","-4.5","","51","","","","14","","6","","","","102.37","","","","","","NA"
"-62.33","44.82","BEAVER ISLAND (AUT)","8200558","2020-03-29 12:00","2020","03","29","12:00","4.5","","-2.3","","61","","","","14","","11","","","","102.35","","","","","","NA"
"-62.33","44.82","BEAVER ISLAND (AUT)","8200558","2020-03-29 13:00","2020","03","29","13:00","4.2","","-1.2","","68","","","","17","","14","","","","102.32","","","","","","NA"
"-62.33","44.82","BEAVER ISLAND (AUT)","8200558","2020-03-29 14:00","2020","03","29","14:00","3.9","","-2.8","","62","","","","20","","14","","","","102.30","","","","","","NA"
"-62.33","44.82","BEAVER ISLAND (AUT)","8200558","2020-03-29 15:00","2020","03","29","15:00","4.6","","-0.5","","70","","","","22","","13","","","","102.27","","","","","","NA"
"-62.33","44.82","BEAVER ISLAND (AUT)","8200558","2020-03-29 16:00","2020","03","29","16:00","4.0","","-1.8","","66","","","","21","","12","","","","102.26","","","","","","NA"
"-62.33","44.82","BEAVER ISLAND (AUT)","8200558","2020-03-29 17:00","2020","03","29","17:00","4.0","","-2.5","","63","","","","25","","11","","","","102.30","","","","","","NA"
"-62.33","44.82","BEAVER ISLAND (AUT)","8200558","2020-03-29 18:00","2020","03","29","18:00","3.2","","-3.0","","64","","","","27","","10","","","","102.29","","","","","","NA"
"-62.33","44.82","BEAVER ISLAND (AUT)","8200558","2020-03-29 19:00","2020","03","29","19:00","3.0","","-4.2","","59","","","","1","","6","","","","102.30","","","","","","NA"
"-62.33","44.82","BEAVER ISLAND (AUT)","8200558","2020-03-29 20:00","2020","03","29","20:00","2.9","","-4.3","","59","","","","2","","21","","","","102.30","","","","","","NA"
"-62.33","44.82","BEAVER ISLAND (AUT)","8200558","2020-03-29 21:00","2020","03","29","21:00","2.2","","-3.2","","67","","","","2","","12","","","","102.30","","","","","","NA"
"-62.33","44.82","BEAVER ISLAND (AUT)","8200558","2020-03-29 22:00","2020","03","29","22:00","1.6","","-4.9","","62","","","","2","","19","","","","102.23","","","","","","NA"
"-62.33","44.82","BEAVER ISLAND (AUT)","8200558","2020-03-29 23:00","2020","03","29","23:00","0.9","","-5.9","","61","","","","3","","25","","","","102.16","","","","","","NA"
"-62.33","44.82","BEAVER ISLAND (AUT)","8200558","2020-03-30 00:00","2020","03","30","00:00","0.7","","-5.9","","61","","","","3","","23","","","","102.19","","","","","","NA"
"-62.33","44.82","BEAVER ISLAND (AUT)","8200558","2020-03-30 01:00","2020","03","30","01:00","0.4","","-4.7","","69","","","","4","","24","","","","102.13","","","","","","NA"
"-62.33","44.82","BEAVER ISLAND (AUT)","8200558","2020-03-30 02:00","2020","03","30","02:00","0.0","","-4.0","","74","","","","4","","24","","","","102.10","","","","-6","","NA"
"-62.33","44.82","BEAVER ISLAND (AUT)","8200558","2020-03-30 03:00","2020","03","30","03:00","-0.3","","-3.9","","76","","","","4","","24","","","","102.00","","","","-6","","NA"
"-62.33","44.82","BEAVER ISLAND (AUT)","8200558","2020-03-30 04:00","2020","03","30","04:00","-0.3","","-4.4","","74","","","","5","","25","","","","101.98","","","","-6","","NA"
"-62.33","44.82","BEAVER ISLAND (AUT)","8200558","2020-03-30 05:00","2020","03","30","05:00","-0.4","","-4.2","","76","","","","4","","29","","","","102.02","","","","-7","","NA"
"-62.33","44.82","BEAVER ISLAND (AUT)","8200558","2020-03-30 06:00","2020","03","30","06:00","-0.3","","-3.9","","76","","","","4","","36","","","","102.00","","","","-7","","NA"
"-62.33","44.82","BEAVER ISLAND (AUT)","8200558","2020-03-30 07:00","2020","03","30","07:00","-0.3","","-3.9","","76","","","","6","","33","","","","101.92","","","","-7","","NA"
"-62.33","44.82","BEAVER ISLAND (AUT)","8200558","2020-03-30 08:00","2020","03","30","08:00","0.0","","-3.5","","78","","","","6","","29","","","","101.92","","","","-6","","NA"
"-62.33","44.82","BEAVER ISLAND (AUT)","8200558","2020-03-30 09:00","2020","03","30","09:00","0.5","","-3.0","","77","","","","6","","25","","","","101.89","","","","","","NA"
"-62.33","44.82","BEAVER ISLAND (AUT)","8200558","2020-03-30 10:00","2020","03","30","10:00","0.9","","-2.6","","78","","","","8","","27","","","","101.85","","","","","","NA"
"-62.33","44.82","BEAVER ISLAND (AUT)","8200558","2020-03-30 11:00","2020","03","30","11:00","1.3","","-2.4","","77","","","","10","","22","","","","101.85","","","","","","NA"
"-62.33","44.82","BEAVER ISLAND (AUT)","8200558","2020-03-30 12:00","2020","03","30","12:00","1.0","","-1.7","","82","","","","9","","26","","","","101.77","","","","","","NA"
"-62.33","44.82","BEAVER ISLAND (AUT)","8200558","2020-03-30 13:00","2020","03","30","13:00","0.4","","-2.0","","84","","","","9","","28","","","","101.69","","","","","","NA"
"-62.33","44.82","BEAVER ISLAND (AUT)","8200558","2020-03-30 14:00","2020","03","30","14:00","0.5","","-2.0","","83","","","","9","","28","","","","101.68","","","","","","NA"
"-62.33","44.82","BEAVER ISLAND (AUT)","8200558","2020-03-30 15:00","2020","03","30","15:00","0.2","","-2.2","","84","","","","10","","27","","","","101.63","","","","","","NA"
"-62.33","44.82","BEAVER ISLAND (AUT)","8200558","2020-03-30 16:00","2020","03","30","16:00","0.1","","-2.3","","84","","","","9","","29","","","","101.54","","","","","","NA"
"-62.33","44.82","BEAVER ISLAND (AUT)","8200558","2020-03-30 17:00","2020","03","30","17:00","-0.6","","-2.7","","86","","","","8","","28","","","","101.48","","","","-7","","NA"
"-62.33","44.82","BEAVER ISLAND (AUT)","8200558","2020-03-30 18:00","2020","03","30","18:00","-0.8","","-2.5","","89","","","","9","","24","","","","101.48","","","","-7","","NA"
"-62.33","44.82","BEAVER ISLAND (AUT)","8200558","2020-03-30 19:00","2020","03","30","19:00","-0.8","","-2.3","","90","","","","7","","28","","","","101.45","","","","-7","","NA"
"-62.33","44.82","BEAVER ISLAND (AUT)","8200558","2020-03-30 20:00","2020","03","30","20:00","-0.5","","-1.8","","91","","","","6","","26","","","","101.50","","","","-7","","NA"
"-62.33","44.82","BEAVER ISLAND (AUT)","8200558","2020-03-30 21:00","2020","03","30","21:00","-0.8","","-2.8","","87","","","","2","","22","","","","101.47","","","","-7","","NA"
"-62.33","44.82","BEAVER ISLAND (AUT)","8200558","2020-03-30 22:00","2020","03","30","22:00","-1.0","","-2.9","","87","","","","1","","29","","","","101.44","","","","-8","","NA"
"-62.33","44.82","BEAVER ISLAND (AUT)","8200558","2020-03-30 23:00","2020","03","30","23:00","-0.6","","-2.9","","84","","","","2","","30","","","","101.37","","","","-7","","NA"
"-62.33","44.82","BEAVER ISLAND (AUT)","8200558","2020-03-31 00:00","2020","03","31","00:00","-0.7","","-2.0","","91","","","","2","","29","","","","101.30","","","","-7","","NA"
"-62.33","44.82","BEAVER ISLAND (AUT)","8200558","2020-03-31 01:00","2020","03","31","01:00","-0.3","","-2.4","","86","","","","2","","28","","","","101.24","","","","-7","","NA"
"-62.33","44.82","BEAVER ISLAND (AUT)","8200558","2020-03-31 02:00","2020","03","31","02:00","-0.3","","-2.5","","85","","","","2","","32","","","","101.14","","","","-7","","NA"
"-62.33","44.82","BEAVER ISLAND (AUT)","8200558","2020-03-31 03:00","2020","03","31","03:00","-0.2","","-2.3","","86","","","","1","","33","","","","101.07","","","","-7","","NA"
"-62.33","44.82","BEAVER ISLAND (AUT)","8200558","2020-03-31 04:00","2020","03","31","04:00","-0.2","","-2.2","","86","","","","1","","30","","","","101.04","","","","-7","","NA"
"-62.33","44.82","BEAVER ISLAND (AUT)","8200558","2020-03-31 05:00","2020","03","31","05:00","-0.2","","-2.0","","87","","","","1","","30","","","","101.01","","","","-7","","NA"
"-62.33","44.82","BEAVER ISLAND (AUT)","8200558","2020-03-31 06:00","2020","03","31","06:00","-0.1","","-1.9","","87","","","","1","","29","","","","101.02","","","","-6","","NA"
"-62.33","44.82","BEAVER ISLAND (AUT)","8200558","2020-03-31 07:00","2020","03","31","07:00","0.1","","-1.8","","87","","","","1","","31","","","","100.98","","","","","","NA"
"-62.33","44.82","BEAVER ISLAND (AUT)","8200558","2020-03-31 08:00","2020","03","31","08:00","0.6","","-1.6","","86","","","","1","","31","","","","100.95","","","","","","NA"
"-62.33","44.82","BEAVER ISLAND (AUT)","8200558","2020-03-31 09:00","2020","03","31","09:00","1.4","","-1.2","","83","","","","2","","25","","","","100.95","","","","","","NA"
"-62.33","44.82","BEAVER ISLAND (AUT)","8200558","2020-03-31 10:00","2020","03","31","10:00","2.2","","-0.9","","80","","","","2","","26","","","","100.91","","","","","","NA"
"-62.33","44.82","BEAVER ISLAND (AUT)","8200558","2020-03-31 11:00","2020","03","31","11:00","3.0","","-0.8","","76","","","","3","","24","","","","100.88","","","","","","NA"
"-62.33","44.82","BEAVER ISLAND (AUT)","8200558","2020-03-31 12:00","2020","03","31","12:00","2.7","","-0.5","","79","","","","4","","18","","","","100.86","","","","","","NA"
"-62.33","44.82","BEAVER ISLAND (AUT)","8200558","2020-03-31 13:00","2020","03","31","13:00","2.4","","0.1","","85","","","","1","","20","","","","100.84","","","","","","NA"
"-62.33","44.82","BEAVER ISLAND (AUT)","8200558","2020-03-31 14:00","2020","03","31","14:00","2.0","","0.4","","89","","","","36","","26","","","","100.80","","","","","","NA"
"-62.33","44.82","BEAVER ISLAND (AUT)","8200558","2020-03-31 15:00","2020","03","31","15:00","2.6","","-0.4","","81","","","","1","","29","","","","100.80","","","","","","NA"
"-62.33","44.82","BEAVER ISLAND (AUT)","8200558","2020-03-31 16:00","2020","03","31","16:00","2.4","","-0.3","","82","","","","2","","30","","","","100.83","","","","","","NA"
"-62.33","44.82","BEAVER ISLAND (AUT)","8200558","2020-03-31 17:00","2020","03","31","17:00","1.9","","-0.1","","87","","","","2","","27","","","","100.86","","","","","","NA"
"-62.33","44.82","BEAVER ISLAND (AUT)","8200558","2020-03-31 18:00","2020","03","31","18:00","1.6","","-0.5","","86","","","","2","","28","","","","100.91","","","","","","NA"
"-62.33","44.82","BEAVER ISLAND (AUT)","8200558","2020-03-31 19:00","2020","03","31","19:00","1.3","","-0.5","","88","","","","1","","25","","","","100.97","","","","","","NA"
"-62.33","44.82","BEAVER ISLAND (AUT)","8200558","2020-03-31 20:00","2020","03","31","20:00","0.9","","-0.3","","92","","","","3","","20","","","","101.01","","","","","","NA"
"-62.33","44.82","BEAVER ISLAND (AUT)","8200558","2020-03-31 21:00","2020","03","31","21:00","0.5","","0.3","","98","","","","2","","19","","","","101.00","","","","","","NA"
"-62.33","44.82","BEAVER ISLAND (AUT)","8200558","2020-03-31 22:00","2020","03","31","22:00","0.8","","0.3","","97","","","","2","","23","","","","100.97","","","","","","NA"
"-62.33","44.82","BEAVER ISLAND (AUT)","8200558","2020-03-31 23:00","2020","03","31","23:00","0.9","","0.4","","97","","","","2","","21","","","","100.93","","","","","","NA"
