"Longitude (x)","Latitude (y)","Station Name","Climate ID","Date/Time (LST)","Year","Month","Day","Time (LST)","Temp (°C)","Temp Flag","Dew Point Temp (°C)","Dew Point Temp Flag","Rel Hum (%)","Rel Hum Flag","Precip. Amount (mm)","Precip. Amount Flag","Wind Dir (10s deg)","Wind Dir Flag","Wind Spd (km/h)","Wind Spd Flag","Visibility (km)","Visibility Flag","Stn Press (kPa)","Stn Press Flag","Hmdx","Hmdx Flag","Wind Chill","Wind Chill Flag","Weather"
"-90.73","63.35","CHESTERFIELD INLET A","2300710","2023-02-01 00:00","2023","02","01","00:00","-42.3","","-46.3","","66","","0.0","","29","","20","","","M","100.60","","","","-59","","NA"
"-90.73","63.35","CHESTERFIELD INLET A","2300710","2023-02-01 01:00","2023","02","01","01:00","-42.7","","-46.7","","66","","0.0","","31","","19","","","M","100.60","","","","-59","","NA"
"-90.73","63.35","CHESTERFIELD INLET A","2300710","2023-02-01 02:00","2023","02","01","02:00","-42.6","","-46.6","","66","","0.0","","31","","21","","","M","100.59","","","","-59","","NA"
"-90.73","63.35","CHESTERFIELD INLET A","2300710","2023-02-01 03:00","2023","02","01","03:00","-43.0","","-47.0","","66","","0.0","","31","","18","","","M","100.60","","","","-59","","NA"
"-90.73","63.35","CHESTERFIELD INLET A","2300710","2023-02-01 04:00","2023","02","01","04:00","-43.1","","-47.0","","66","","0.0","","31","","19","","","M","100.62","","","","-59","","NA"
"-90.73","63.35","CHESTERFIELD INLET A","2300710","2023-02-01 05:00","2023","02","01","05:00","-43.1","","-47.0","","66","","0.0","","31","","21","","","M","100.62","","","","-60","","NA"
"-90.73","63.35","CHESTERFIELD INLET A","2300710","2023-02-01 06:00","2023","02","01","06:00","-43.1","","-47.0","","66","","0.0","","30","","19","","","M","100.62","","","","-59","","NA"
"-90.73","63.35","CHESTERFIELD INLET A","2300710","2023-02-01 07:00","2023","02","01","07:00","-42.6","","-46.6","","67","","","M","30","","18","","","M","100.61","","","","-58","","NA"
"-90.73","63.35","CHESTERFIELD INLET A","2300710","2023-02-01 08:00","2023","02","01","08:00","-41.8","","-45.7","","67","","0.0","","31","","23","","","M","100.62","","","","-59","","NA"
"-90.73","63.35","CHESTERFIELD INLET A","2300710","2023-02-01 09:00","2023","02","01","09:00","-41.7","","-45.7","","66","","0.0","","30","","21","","","M","100.63","","","","-58","","NA"
"-90.73","63.35","CHESTERFIELD INLET A","2300710","2023-02-01 10:00","2023","02","01","10:00","-40.5","","-44.6","","66","","0.0","","31","","19","","","M","100.64","","","","-56","","NA"
"-90.73","63.35","CHESTERFIELD INLET A","2300710","2023-02-01 11:00","2023","02","01","11:00","-40.2","","-44.2","","66","","0.0","","30","","22","","","M","100.67","","","","-57","","NA"
"-90.73","63.35","CHESTERFIELD INLET A","2300710","2023-02-01 12:00","2023","02","01","12:00","-39.5","","-43.5","","67","","0.0","","31","","22","","","M","100.67","","","","-56","","NA"
"-90.73","63.35","CHESTERFIELD INLET A","2300710","2023-02-01 13:00","2023","02","01","13:00","-39.2","","-43.3","","66","","0.0","","30","","22","","","M","100.68","","","","-55","","NA"
"-90.73","63.35","CHESTERFIELD INLET A","2300710","2023-02-01 14:00","2023","02","01","14:00","-39.4","","-43.7","","65","","0.0","","31","","27","","","M","100.72","","","","-57","","NA"
"-90.73","63.35","CHESTERFIELD INLET A","2300710","2023-02-01 15:00","2023","02","01","15:00","-39.7","","-44.0","","65","","0.0","","31","","27","","","M","100.76","","","","-57","","NA"
"-90.73","63.35","CHESTERFIELD INLET A","2300710","2023-02-01 16:00","2023","02","01","16:00","-40.4","","-44.6","","65","","0.0","","29","","23","","","M","100.81","","","","-57","","NA"
"-90.73","63.35","CHESTERFIELD INLET A","2300710","2023-02-01 17:00","2023","02","01","17:00","-40.9","","-44.9","","66","","0.0","","30","","18","","","M","100.84","","","","-56","","NA"
"-90.73","63.35","CHESTERFIELD INLET A","2300710","2023-02-01 18:00","2023","02","01","18:00","-41.1","","-45.2","","65","","0.0","","30","","25","","","M","100.89","","","","-59","","NA"
"-90.73","63.35","CHESTERFIELD INLET A","2300710","2023-02-01 19:00","2023","02","01","19:00","-40.4","","-44.5","","66","","0.0","","30","","28","","","M","100.90","","","","-59","","NA"
"-90.73","63.35","CHESTERFIELD INLET A","2300710","2023-02-01 20:00","2023","02","01","20:00","-41.2","","-45.4","","66","","0.0","","30","","26","","","M","100.94","","","","-59","","NA"
"-90.73","63.35","CHESTERFIELD INLET A","2300710","2023-02-01 21:00","2023","02","01","21:00","-41.6","","-45.8","","65","","0.0","","30","","30","","","M","100.95","","","","-61","","NA"
"-90.73","63.35","CHESTERFIELD INLET A","2300710","2023-02-01 22:00","2023","02","01","22:00","-41.1","","-45.4","","65","","0.0","","31","","24","","","M","100.95","","","","-58","","NA"
"-90.73","63.35","CHESTERFIELD INLET A","2300710","2023-02-01 23:00","2023","02","01","23:00","-41.1","","-45.3","","65","","0.0","","30","","30","","","M","100.97","","","","-60","","NA"
"-90.73","63.35","CHESTERFIELD INLET A","2300710","2023-02-02 00:00","2023","02","02","00:00","-41.0","","-45.1","","66","","0.0","","31","","30","","","M","101.04","","","","-60","","NA"
"-90.73","63.35","CHESTERFIELD INLET A","2300710","2023-02-02 01:00","2023","02","02","01:00","-41.3","","-45.4","","65","","0.0","","30","","30","","","M","101.05","","","","-60","","NA"
"-90.73","63.35","CHESTERFIELD INLET A","2300710","2023-02-02 02:00","2023","02","02","02:00","-40.8","","-45.0","","65","","0.0","","29","","30","","","M","101.11","","","","-60","","NA"
"-90.73","63.35","CHESTERFIELD INLET A","2300710","2023-02-02 03:00","2023","02","02","03:00","-41.2","","-45.4","","65","","0.0","","30","","28","","","M","101.11","","","","-60","","NA"
"-90.73","63.35","CHESTERFIELD INLET A","2300710","2023-02-02 04:00","2023","02","02","04:00","-40.3","","-44.5","","66","","0.0","","31","","27","","","M","101.13","","","","-58","","NA"
"-90.73","63.35","CHESTERFIELD INLET A","2300710","2023-02-02 05:00","2023","02","02","05:00","-40.2","","-44.4","","66","","0.0","","29","","26","","","M","101.17","","","","-58","","NA"
"-90.73","63.35","CHESTERFIELD INLET A","2300710","2023-02-02 06:00","2023","02","02","06:00","-39.6","","-43.7","","66","","0.0","","30","","28","","","M","101.25","","","","-58","","NA"
"-90.73","63.35","CHESTERFIELD INLET A","2300710","2023-02-02 07:00","2023","02","02","07:00","-39.3","","-43.5","","66","","","M","30","","27","","","M","101.29","","","","-57","","NA"
"-90.73","63.35","CHESTERFIELD INLET A","2300710","2023-02-02 08:00","2023","02","02","08:00","-38.3","","-42.5","","66","","","M","30","","35","","","M","101.34","","","","-58","","NA"
"-90.73","63.35","CHESTERFIELD INLET A","2300710","2023-02-02 09:00","2023","02","02","09:00","-39.2","","-43.3","","66","","","M","30","","35","","","M","101.40","","","","-59","","NA"
"-90.73","63.35","CHESTERFIELD INLET A","2300710","2023-02-02 10:00","2023","02","02","10:00","-38.1","","-42.4","","66","","","M","31","","30","","","M","101.45","","","","-56","","NA"
"-90.73","63.35","CHESTERFIELD INLET A","2300710","2023-02-02 11:00","2023","02","02","11:00","-38.5","","-42.8","","65","","","M","30","","32","","","M","101.49","","","","-57","","NA"
"-90.73","63.35","CHESTERFIELD INLET A","2300710","2023-02-02 12:00","2023","02","02","12:00","-37.7","","-42.0","","65","","","M","31","","30","","","M","101.51","","","","-56","","NA"
"-90.73","63.35","CHESTERFIELD INLET A","2300710","2023-02-02 13:00","2023","02","02","13:00","-37.1","","-41.6","","64","","","M","30","","29","","","M","101.57","","","","-55","","NA"
"-90.73","63.35","CHESTERFIELD INLET A","2300710","2023-02-02 14:00","2023","02","02","14:00","-37.1","","-41.7","","64","","0.0","","30","","33","","","M","101.65","","","","-56","","NA"
"-90.73","63.35","CHESTERFIELD INLET A","2300710","2023-02-02 15:00","2023","02","02","15:00","-37.8","","-42.1","","65","","0.0","","29","","21","","","M","101.65","","","","-53","","NA"
"-90.73","63.35","CHESTERFIELD INLET A","2300710","2023-02-02 16:00","2023","02","02","16:00","-37.1","","-41.3","","66","","0.0","","29","","36","","","M","101.70","","","","-56","","NA"
"-90.73","63.35","CHESTERFIELD INLET A","2300710","2023-02-02 17:00","2023","02","02","17:00","-36.2","","-40.2","","68","","0.0","","29","","31","","","M","101.74","","","","-54","","NA"
"-90.73","63.35","CHESTERFIELD INLET A","2300710","2023-02-02 18:00","2023","02","02","18:00","-36.1","","-40.0","","68","","0.0","","29","","39","","","M","101.70","","","","-55","","NA"
"-90.73","63.35","CHESTERFIELD INLET A","2300710","2023-02-02 19:00","2023","02","02","19:00","-37.2","","-41.2","","67","","0.0","","29","","41","","","M","101.70","","","","-57","","NA"
"-90.73","63.35","CHESTERFIELD INLET A","2300710","2023-02-02 20:00","2023","02","02","20:00","-37.1","","-41.0","","68","","0.0","","29","","39","","","M","101.68","","","","-57","","NA"
"-90.73","63.35","CHESTERFIELD INLET A","2300710","2023-02-02 21:00","2023","02","02","21:00","-37.2","","-41.2","","67","","0.0","","30","","27","","","M","101.66","","","","-54","","NA"
"-90.73","63.35","CHESTERFIELD INLET A","2300710","2023-02-02 22:00","2023","02","02","22:00","-38.2","","-42.3","","67","","0.0","","29","","32","","","M","101.59","","","","-57","","NA"
"-90.73","63.35","CHESTERFIELD INLET A","2300710","2023-02-02 23:00","2023","02","02","23:00","-38.3","","-42.3","","67","","0.0","","29","","39","","","M","101.54","","","","-58","","NA"
"-90.73","63.35","CHESTERFIELD INLET A","2300710","2023-02-03 00:00","2023","02","03","00:00","-37.9","","-41.9","","67","","0.0","","30","","35","","","M","101.51","","","","-57","","NA"
"-90.73","63.35","CHESTERFIELD INLET A","2300710","2023-02-03 01:00","2023","02","03","01:00","-37.8","","-41.9","","67","","0.0","","30","","46","","","M","101.46","","","","-59","","NA"
"-90.73","63.35","CHESTERFIELD INLET A","2300710","2023-02-03 02:00","2023","02","03","02:00","-37.7","","-41.7","","67","","0.0","","31","","41","","","M","101.45","","","","-58","","NA"
"-90.73","63.35","CHESTERFIELD INLET A","2300710","2023-02-03 03:00","2023","02","03","03:00","-36.9","","-40.9","","67","","0.0","","30","","39","","","M","101.45","","","","-57","","NA"
"-90.73","63.35","CHESTERFIELD INLET A","2300710","2023-02-03 04:00","2023","02","03","04:00","-36.9","","-40.9","","67","","0.0","","30","","35","","","M","101.46","","","","-56","","NA"
"-90.73","63.35","CHESTERFIELD INLET A","2300710","2023-02-03 05:00","2023","02","03","05:00","-36.9","","-40.9","","67","","0.0","","29","","37","","","M","101.41","","","","-56","","NA"
"-90.73","63.35","CHESTERFIELD INLET A","2300710","2023-02-03 06:00","2023","02","03","06:00","-37.3","","-41.4","","67","","0.0","","30","","34","","","M","101.39","","","","-56","","NA"
"-90.73","63.35","CHESTERFIELD INLET A","2300710","2023-02-03 07:00","2023","02","03","07:00","-37.2","","-41.3","","67","","","M","29","","36","","","M","101.40","","","","-56","","NA"
"-90.73","63.35","CHESTERFIELD INLET A","2300710","2023-02-03 08:00","2023","02","03","08:00","-37.2","","-41.2","","67","","0.0","","29","","30","","","M","101.36","","","","-55","","NA"
"-90.73","63.35","CHESTERFIELD INLET A","2300710","2023-02-03 09:00","2023","02","03","09:00","-37.1","","-41.1","","67","","0.0","","28","","31","","","M","101.32","","","","-55","","NA"
"-90.73","63.35","CHESTERFIELD INLET A","2300710","2023-02-03 10:00","2023","02","03","10:00","-36.5","","-40.5","","68","","","M","30","","30","","","M","101.28","","","","-54","","NA"
"-90.73","63.35","CHESTERFIELD INLET A","2300710","2023-02-03 11:00","2023","02","03","11:00","-36.1","","-40.1","","67","","","M","30","","30","","","M","101.25","","","","-54","","NA"
"-90.73","63.35","CHESTERFIELD INLET A","2300710","2023-02-03 12:00","2023","02","03","12:00","-35.8","","-39.8","","67","","","M","29","","33","","","M","101.19","","","","-54","","NA"
"-90.73","63.35","CHESTERFIELD INLET A","2300710","2023-02-03 13:00","2023","02","03","13:00","-35.5","","-39.7","","67","","","M","29","","31","","","M","101.18","","","","-53","","NA"
"-90.73","63.35","CHESTERFIELD INLET A","2300710","2023-02-03 14:00","2023","02","03","14:00","-35.7","","-39.9","","66","","","M","28","","29","","","M","101.16","","","","-53","","NA"
"-90.73","63.35","CHESTERFIELD INLET A","2300710","2023-02-03 15:00","2023","02","03","15:00","-36.0","","-40.2","","67","","","M","31","","23","","","M","101.17","","","","-52","","NA"
"-90.73","63.35","CHESTERFIELD INLET A","2300710","2023-02-03 16:00","2023","02","03","16:00","-36.7","","-40.8","","67","","","M","30","","27","","","M","101.15","","","","-54","","NA"
"-90.73","63.35","CHESTERFIELD INLET A","2300710","2023-02-03 17:00","2023","02","03","17:00","-37.4","","-41.5","","67","","0.0","","30","","28","","","M","101.13","","","","-55","","NA"
"-90.73","63.35","CHESTERFIELD INLET A","2300710","2023-02-03 18:00","2023","02","03","18:00","-37.8","","-41.9","","67","","0.0","","30","","23","","","M","101.12","","","","-54","","NA"
"-90.73","63.35","CHESTERFIELD INLET A","2300710","2023-02-03 19:00","2023","02","03","19:00","-38.1","","-42.2","","67","","0.0","","29","","24","","","M","101.09","","","","-55","","NA"
"-90.73","63.35","CHESTERFIELD INLET A","2300710","2023-02-03 20:00","2023","02","03","20:00","-38.3","","-42.3","","67","","0.0","","30","","21","","","M","101.07","","","","-54","","NA"
"-90.73","63.35","CHESTERFIELD INLET A","2300710","2023-02-03 21:00","2023","02","03","21:00","-38.4","","-42.4","","67","","0.0","","29","","18","","","M","101.05","","","","-53","","NA"
"-90.73","63.35","CHESTERFIELD INLET A","2300710","2023-02-03 22:00","2023","02","03","22:00","-38.5","","-42.6","","67","","0.0","","30","","18","","","M","101.06","","","","-53","","NA"
"-90.73","63.35","CHESTERFIELD INLET A","2300710","2023-02-03 23:00","2023","02","03","23:00","-38.8","","-43.0","","66","","0.0","","30","","21","","","M","101.07","","","","-55","","NA"
"-90.73","63.35","CHESTERFIELD INLET A","2300710","2023-02-04 00:00","2023","02","04","00:00","-39.2","","-43.3","","66","","0.0","","31","","20","","","M","101.07","","","","-55","","NA"
"-90.73","63.35","CHESTERFIELD INLET A","2300710","2023-02-04 01:00","2023","02","04","01:00","-39.9","","-43.9","","67","","0.0","","31","","16","","","M","101.09","","","","-54","","NA"
"-90.73","63.35","CHESTERFIELD INLET A","2300710","2023-02-04 02:00","2023","02","04","02:00","-39.8","","-43.8","","67","","0.0","","30","","18","","","M","101.13","","","","-55","","NA"
"-90.73","63.35","CHESTERFIELD INLET A","2300710","2023-02-04 03:00","2023","02","04","03:00","-40.1","","-44.2","","66","","0.0","","30","","20","","","M","101.16","","","","-56","","NA"
"-90.73","63.35","CHESTERFIELD INLET A","2300710","2023-02-04 04:00","2023","02","04","04:00","-40.4","","-44.5","","66","","0.0","","31","","18","","","M","101.19","","","","-55","","NA"
"-90.73","63.35","CHESTERFIELD INLET A","2300710","2023-02-04 05:00","2023","02","04","05:00","-40.4","","-44.4","","66","","0.0","","31","","20","","","M","101.19","","","","-56","","NA"
"-90.73","63.35","CHESTERFIELD INLET A","2300710","2023-02-04 06:00","2023","02","04","06:00","-40.4","","-44.4","","66","","0.0","","31","","21","","","M","101.22","","","","-57","","NA"
"-90.73","63.35","CHESTERFIELD INLET A","2300710","2023-02-04 07:00","2023","02","04","07:00","-40.5","","-44.6","","66","","0.0","","31","","18","","","M","101.25","","","","-56","","NA"
"-90.73","63.35","CHESTERFIELD INLET A","2300710","2023-02-04 08:00","2023","02","04","08:00","-40.6","","-44.6","","66","","0.0","","31","","21","","","M","101.27","","","","-57","","NA"
"-90.73","63.35","CHESTERFIELD INLET A","2300710","2023-02-04 09:00","2023","02","04","09:00","-40.4","","-44.5","","66","","","M","31","","18","","","M","101.28","","","","-55","","NA"
"-90.73","63.35","CHESTERFIELD INLET A","2300710","2023-02-04 10:00","2023","02","04","10:00","-39.9","","-44.0","","66","","","M","31","","18","","","M","101.28","","","","-55","","NA"
"-90.73","63.35","CHESTERFIELD INLET A","2300710","2023-02-04 11:00","2023","02","04","11:00","-39.3","","-43.5","","66","","","M","31","","18","","","M","101.29","","","","-54","","NA"
"-90.73","63.35","CHESTERFIELD INLET A","2300710","2023-02-04 12:00","2023","02","04","12:00","-38.8","","-43.0","","66","","","M","31","","22","","","M","101.32","","","","-55","","NA"
"-90.73","63.35","CHESTERFIELD INLET A","2300710","2023-02-04 13:00","2023","02","04","13:00","-38.8","","-43.1","","65","","","M","31","","23","","","M","101.31","","","","-55","","NA"
"-90.73","63.35","CHESTERFIELD INLET A","2300710","2023-02-04 14:00","2023","02","04","14:00","-38.6","","-42.9","","65","","","M","31","","21","","","M","101.34","","","","-54","","NA"
"-90.73","63.35","CHESTERFIELD INLET A","2300710","2023-02-04 15:00","2023","02","04","15:00","-38.9","","-43.1","","65","","0.0","","31","","20","","","M","101.37","","","","-54","","NA"
"-90.73","63.35","CHESTERFIELD INLET A","2300710","2023-02-04 16:00","2023","02","04","16:00","-39.4","","-43.5","","66","","0.0","","30","","18","","","M","101.40","","","","-54","","NA"
"-90.73","63.35","CHESTERFIELD INLET A","2300710","2023-02-04 17:00","2023","02","04","17:00","-40.1","","-44.2","","66","","0.0","","31","","14","","","M","101.39","","","","-53","","NA"
"-90.73","63.35","CHESTERFIELD INLET A","2300710","2023-02-04 18:00","2023","02","04","18:00","-40.4","","-44.4","","66","","0.0","","31","","14","","","M","101.38","","","","-54","","NA"
"-90.73","63.35","CHESTERFIELD INLET A","2300710","2023-02-04 19:00","2023","02","04","19:00","-40.5","","-44.5","","66","","0.0","","31","","12","","","M","101.37","","","","-53","","NA"
"-90.73","63.35","CHESTERFIELD INLET A","2300710","2023-02-04 20:00","2023","02","04","20:00","-40.6","","-44.6","","66","","0.0","","31","","17","","","M","101.35","","","","-55","","NA"
"-90.73","63.35","CHESTERFIELD INLET A","2300710","2023-02-04 21:00","2023","02","04","21:00","-40.9","","-44.9","","67","","0.0","","31","","13","","","M","101.33","","","","-54","","NA"
"-90.73","63.35","CHESTERFIELD INLET A","2300710","2023-02-04 22:00","2023","02","04","22:00","-41.1","","-45.1","","67","","0.0","","30","","14","","","M","101.30","","","","-55","","NA"
"-90.73","63.35","CHESTERFIELD INLET A","2300710","2023-02-04 23:00","2023","02","04","23:00","-40.8","","-44.8","","67","","0.0","","30","","15","","","M","101.28","","","","-55","","NA"
"-90.73","63.35","CHESTERFIELD INLET A","2300710","2023-02-05 00:00","2023","02","05","00:00","-40.1","","-44.1","","67","","0.0","","30","","10","","","M","101.25","","","","-51","","NA"
"-90.73","63.35","CHESTERFIELD INLET A","2300710","2023-02-05 01:00","2023","02","05","01:00","-40.5","","-44.7","","66","","0.0","","30","","13","","","M","101.21","","","","-53","","NA"
"-90.73","63.35","CHESTERFIELD INLET A","2300710","2023-02-05 02:00","2023","02","05","02:00","-40.8","","-45.0","","65","","0.0","","31","","14","","","M","101.20","","","","-54","","NA"
"-90.73","63.35","CHESTERFIELD INLET A","2300710","2023-02-05 03:00","2023","02","05","03:00","-40.9","","-45.1","","66","","0.0","","32","","10","","","M","101.19","","","","-52","","NA"
"-90.73","63.35","CHESTERFIELD INLET A","2300710","2023-02-05 04:00","2023","02","05","04:00","-41.0","","-45.1","","66","","0.0","","32","","9","","","M","101.17","","","","-52","","NA"
"-90.73","63.35","CHESTERFIELD INLET A","2300710","2023-02-05 05:00","2023","02","05","05:00","-40.9","","-45.0","","66","","0.0","","32","","8","","","M","101.13","","","","-51","","NA"
"-90.73","63.35","CHESTERFIELD INLET A","2300710","2023-02-05 06:00","2023","02","05","06:00","-40.9","","-45.0","","66","","0.0","","31","","8","","","M","101.08","","","","-51","","NA"
"-90.73","63.35","CHESTERFIELD INLET A","2300710","2023-02-05 07:00","2023","02","05","07:00","-41.1","","-45.2","","66","","0.0","","28","","9","","","M","101.08","","","","-52","","NA"
"-90.73","63.35","CHESTERFIELD INLET A","2300710","2023-02-05 08:00","2023","02","05","08:00","-40.2","","-44.3","","66","","0.0","","26","","4","","","M","101.02","","","","-46","","NA"
"-90.73","63.35","CHESTERFIELD INLET A","2300710","2023-02-05 09:00","2023","02","05","09:00","-39.2","","-43.1","","68","","","M","26","","4","","","M","100.97","","","","-45","","NA"
"-90.73","63.35","CHESTERFIELD INLET A","2300710","2023-02-05 10:00","2023","02","05","10:00","-37.6","","-41.2","","70","","0.0","","29","","4","","","M","100.96","","","","-43","","NA"
"-90.73","63.35","CHESTERFIELD INLET A","2300710","2023-02-05 11:00","2023","02","05","11:00","-36.8","","-40.8","","68","","0.0","","25","","2","","","M","100.95","","","","-39","","NA"
"-90.73","63.35","CHESTERFIELD INLET A","2300710","2023-02-05 12:00","2023","02","05","12:00","-37.7","","-41.7","","67","","","M","33","","3","","","M","100.95","","","","-42","","NA"
"-90.73","63.35","CHESTERFIELD INLET A","2300710","2023-02-05 13:00","2023","02","05","13:00","-37.9","","-41.9","","67","","","M","28","","5","","","M","100.94","","","","-45","","NA"
"-90.73","63.35","CHESTERFIELD INLET A","2300710","2023-02-05 14:00","2023","02","05","14:00","-37.4","","-41.4","","68","","","M","18","","2","","","M","100.93","","","","-40","","NA"
"-90.73","63.35","CHESTERFIELD INLET A","2300710","2023-02-05 15:00","2023","02","05","15:00","-37.6","","-41.5","","68","","","M","34","","3","","","M","100.94","","","","-42","","NA"
"-90.73","63.35","CHESTERFIELD INLET A","2300710","2023-02-05 16:00","2023","02","05","16:00","-37.5","","-41.4","","68","","0.0","","29","","4","","","M","100.94","","","","-43","","NA"
"-90.73","63.35","CHESTERFIELD INLET A","2300710","2023-02-05 17:00","2023","02","05","17:00","-38.7","","-42.5","","68","","0.0","","21","","9","","","M","100.91","","","","-49","","NA"
"-90.73","63.35","CHESTERFIELD INLET A","2300710","2023-02-05 18:00","2023","02","05","18:00","-36.1","","-39.6","","71","","0.0","","24","","3","","","M","100.92","","","","-40","","NA"
"-90.73","63.35","CHESTERFIELD INLET A","2300710","2023-02-05 19:00","2023","02","05","19:00","-39.0","","-42.8","","68","","0.0","","26","","6","","","M","100.93","","","","-47","","NA"
"-90.73","63.35","CHESTERFIELD INLET A","2300710","2023-02-05 20:00","2023","02","05","20:00","-39.1","","-43.0","","68","","0.0","","33","","7","","","M","100.93","","","","-48","","NA"
"-90.73","63.35","CHESTERFIELD INLET A","2300710","2023-02-05 21:00","2023","02","05","21:00","-39.0","","-42.9","","68","","0.0","","33","","5","","","M","100.94","","","","-46","","NA"
"-90.73","63.35","CHESTERFIELD INLET A","2300710","2023-02-05 22:00","2023","02","05","22:00","-38.8","","-42.7","","68","","0.0","","31","","6","","","M","100.90","","","","-47","","NA"
"-90.73","63.35","CHESTERFIELD INLET A","2300710","2023-02-05 23:00","2023","02","05","23:00","-39.2","","-43.0","","68","","0.0","","33","","4","","","M","100.92","","","","-45","","NA"
"-90.73","63.35","CHESTERFIELD INLET A","2300710","2023-02-06 00:00","2023","02","06","00:00","-40.0","","-43.9","","67","","0.0","","31","","4","","","M","100.93","","","","-46","","NA"
"-90.73","63.35","CHESTERFIELD INLET A","2300710","2023-02-06 01:00","2023","02","06","01:00","-39.4","","-43.3","","68","","0.0","","32","","6","","","M","100.94","","","","-47","","NA"
"-90.73","63.35","CHESTERFIELD INLET A","2300710","2023-02-06 02:00","2023","02","06","02:00","-39.3","","-43.2","","68","","0.0","","34","","5","","","M","100.94","","","","-46","","NA"
"-90.73","63.35","CHESTERFIELD INLET A","2300710","2023-02-06 03:00","2023","02","06","03:00","-39.7","","-43.6","","67","","0.0","","30","","4","","","M","100.92","","","","-45","","NA"
"-90.73","63.35","CHESTERFIELD INLET A","2300710","2023-02-06 04:00","2023","02","06","04:00","-39.3","","-43.2","","68","","0.0","","34","","3","","","M","100.90","","","","-43","","NA"
"-90.73","63.35","CHESTERFIELD INLET A","2300710","2023-02-06 05:00","2023","02","06","05:00","-38.4","","-42.3","","68","","0.0","","32","","4","","","M","100.93","","","","-44","","NA"
"-90.73","63.35","CHESTERFIELD INLET A","2300710","2023-02-06 06:00","2023","02","06","06:00","-37.6","","-41.5","","68","","0.0","","5","","3","","","M","100.94","","","","-42","","NA"
"-90.73","63.35","CHESTERFIELD INLET A","2300710","2023-02-06 07:00","2023","02","06","07:00","-35.6","","-39.5","","69","","","M","32","","5","","","M","100.90","","","","-42","","NA"
"-90.73","63.35","CHESTERFIELD INLET A","2300710","2023-02-06 08:00","2023","02","06","08:00","-34.9","","-38.7","","69","","0.0","","35","","4","","","M","100.83","","","","-40","","NA"
"-90.73","63.35","CHESTERFIELD INLET A","2300710","2023-02-06 09:00","2023","02","06","09:00","-35.2","","-39.0","","69","","0.0","","30","","9","","","M","100.84","","","","-45","","NA"
"-90.73","63.35","CHESTERFIELD INLET A","2300710","2023-02-06 10:00","2023","02","06","10:00","-35.4","","-39.2","","69","","","M","30","","4","","","M","100.87","","","","-40","","NA"
"-90.73","63.35","CHESTERFIELD INLET A","2300710","2023-02-06 11:00","2023","02","06","11:00","-34.5","","-38.3","","69","","","M","33","","4","","","M","100.85","","","","-39","","NA"
"-90.73","63.35","CHESTERFIELD INLET A","2300710","2023-02-06 12:00","2023","02","06","12:00","-34.7","","-38.6","","69","","","M","33","","4","","","M","100.84","","","","-40","","NA"
"-90.73","63.35","CHESTERFIELD INLET A","2300710","2023-02-06 13:00","2023","02","06","13:00","-33.9","","-37.7","","69","","","M","31","","3","","","M","100.80","","","","-38","","NA"
"-90.73","63.35","CHESTERFIELD INLET A","2300710","2023-02-06 14:00","2023","02","06","14:00","-33.2","","-37.0","","70","","","M","34","","4","","","M","100.79","","","","-38","","NA"
"-90.73","63.35","CHESTERFIELD INLET A","2300710","2023-02-06 15:00","2023","02","06","15:00","-33.4","","-37.1","","70","","","M","1","","4","","","M","100.79","","","","-38","","NA"
"-90.73","63.35","CHESTERFIELD INLET A","2300710","2023-02-06 16:00","2023","02","06","16:00","-35.0","","-38.8","","69","","","M","31","","9","","","M","100.82","","","","-45","","NA"
"-90.73","63.35","CHESTERFIELD INLET A","2300710","2023-02-06 17:00","2023","02","06","17:00","-34.0","","-37.7","","70","","","M","10","","13","","","M","100.77","","","","-45","","NA"
"-90.73","63.35","CHESTERFIELD INLET A","2300710","2023-02-06 18:00","2023","02","06","18:00","-33.9","","-37.6","","70","","0.0","","32","","7","","","M","100.81","","","","-42","","NA"
"-90.73","63.35","CHESTERFIELD INLET A","2300710","2023-02-06 19:00","2023","02","06","19:00","-32.5","","-36.1","","71","","0.0","","32","","4","","","M","100.80","","","","-37","","NA"
"-90.73","63.35","CHESTERFIELD INLET A","2300710","2023-02-06 20:00","2023","02","06","20:00","-34.0","","-37.7","","70","","0.0","","30","","9","","","M","100.79","","","","-43","","NA"
"-90.73","63.35","CHESTERFIELD INLET A","2300710","2023-02-06 21:00","2023","02","06","21:00","-34.2","","-37.9","","70","","0.0","","31","","7","","","M","100.74","","","","-42","","NA"
"-90.73","63.35","CHESTERFIELD INLET A","2300710","2023-02-06 22:00","2023","02","06","22:00","-35.4","","-39.2","","69","","0.0","","31","","11","","","M","100.73","","","","-46","","NA"
"-90.73","63.35","CHESTERFIELD INLET A","2300710","2023-02-06 23:00","2023","02","06","23:00","-35.7","","-39.4","","69","","0.0","","31","","10","","","M","100.73","","","","-46","","NA"
"-90.73","63.35","CHESTERFIELD INLET A","2300710","2023-02-07 00:00","2023","02","07","00:00","-35.1","","-38.9","","70","","0.0","","30","","13","","","M","100.72","","","","-47","","NA"
"-90.73","63.35","CHESTERFIELD INLET A","2300710","2023-02-07 01:00","2023","02","07","01:00","-35.4","","-39.1","","69","","0.0","","31","","11","","","M","100.71","","","","-46","","NA"
"-90.73","63.35","CHESTERFIELD INLET A","2300710","2023-02-07 02:00","2023","02","07","02:00","-36.0","","-39.8","","69","","0.0","","31","","14","","","M","100.75","","","","-48","","NA"
"-90.73","63.35","CHESTERFIELD INLET A","2300710","2023-02-07 03:00","2023","02","07","03:00","-36.4","","-40.2","","69","","0.0","","31","","14","","","M","100.74","","","","-49","","NA"
"-90.73","63.35","CHESTERFIELD INLET A","2300710","2023-02-07 04:00","2023","02","07","04:00","-36.6","","-40.3","","69","","0.0","","31","","15","","","M","100.74","","","","-50","","NA"
"-90.73","63.35","CHESTERFIELD INLET A","2300710","2023-02-07 05:00","2023","02","07","05:00","-37.3","","-41.1","","69","","0.0","","31","","14","","","M","100.74","","","","-50","","NA"
"-90.73","63.35","CHESTERFIELD INLET A","2300710","2023-02-07 06:00","2023","02","07","06:00","-37.2","","-41.0","","69","","0.0","","30","","16","","","M","100.75","","","","-51","","NA"
"-90.73","63.35","CHESTERFIELD INLET A","2300710","2023-02-07 07:00","2023","02","07","07:00","-37.8","","-41.7","","68","","","M","31","","14","","","M","100.75","","","","-51","","NA"
"-90.73","63.35","CHESTERFIELD INLET A","2300710","2023-02-07 08:00","2023","02","07","08:00","-37.6","","-41.4","","69","","0.0","","31","","13","","","M","100.75","","","","-50","","NA"
"-90.73","63.35","CHESTERFIELD INLET A","2300710","2023-02-07 09:00","2023","02","07","09:00","-37.7","","-41.5","","68","","","M","31","","14","","","M","100.76","","","","-50","","NA"
"-90.73","63.35","CHESTERFIELD INLET A","2300710","2023-02-07 10:00","2023","02","07","10:00","-37.4","","-41.2","","68","","","M","31","","12","","","M","100.80","","","","-49","","NA"
"-90.73","63.35","CHESTERFIELD INLET A","2300710","2023-02-07 11:00","2023","02","07","11:00","-36.2","","-40.1","","69","","","M","31","","22","","","M","100.83","","","","-52","","NA"
"-90.73","63.35","CHESTERFIELD INLET A","2300710","2023-02-07 12:00","2023","02","07","12:00","-36.2","","-40.0","","69","","","M","32","","14","","","M","100.82","","","","-49","","NA"
"-90.73","63.35","CHESTERFIELD INLET A","2300710","2023-02-07 13:00","2023","02","07","13:00","-35.3","","-39.1","","69","","","M","30","","15","","","M","100.84","","","","-48","","NA"
"-90.73","63.35","CHESTERFIELD INLET A","2300710","2023-02-07 14:00","2023","02","07","14:00","-35.2","","-39.0","","69","","","M","32","","16","","","M","100.87","","","","-48","","NA"
"-90.73","63.35","CHESTERFIELD INLET A","2300710","2023-02-07 15:00","2023","02","07","15:00","-35.6","","-39.4","","69","","","M","32","","14","","","M","100.89","","","","-48","","NA"
"-90.73","63.35","CHESTERFIELD INLET A","2300710","2023-02-07 16:00","2023","02","07","16:00","-35.8","","-39.5","","69","","","M","32","","16","","","M","100.90","","","","-49","","NA"
"-90.73","63.35","CHESTERFIELD INLET A","2300710","2023-02-07 17:00","2023","02","07","17:00","-36.0","","-39.8","","69","","","M","32","","18","","","M","100.94","","","","-50","","NA"
"-90.73","63.35","CHESTERFIELD INLET A","2300710","2023-02-07 18:00","2023","02","07","18:00","-36.3","","-40.1","","69","","0.0","","31","","14","","","M","100.99","","","","-49","","NA"
"-90.73","63.35","CHESTERFIELD INLET A","2300710","2023-02-07 19:00","2023","02","07","19:00","-36.8","","-40.7","","69","","0.0","","31","","13","","","M","100.98","","","","-49","","NA"
"-90.73","63.35","CHESTERFIELD INLET A","2300710","2023-02-07 20:00","2023","02","07","20:00","-36.5","","-40.3","","69","","0.0","","31","","14","","","M","101.01","","","","-49","","NA"
"-90.73","63.35","CHESTERFIELD INLET A","2300710","2023-02-07 21:00","2023","02","07","21:00","-36.3","","-40.1","","69","","0.0","","31","","11","","","M","101.02","","","","-47","","NA"
"-90.73","63.35","CHESTERFIELD INLET A","2300710","2023-02-07 22:00","2023","02","07","22:00","-36.1","","-40.0","","69","","0.0","","32","","11","","","M","101.02","","","","-47","","NA"
"-90.73","63.35","CHESTERFIELD INLET A","2300710","2023-02-07 23:00","2023","02","07","23:00","-36.6","","-40.5","","69","","0.0","","31","","11","","","M","101.07","","","","-48","","NA"
"-90.73","63.35","CHESTERFIELD INLET A","2300710","2023-02-08 00:00","2023","02","08","00:00","-37.0","","-40.8","","68","","0.0","","32","","12","","","M","101.10","","","","-49","","NA"
"-90.73","63.35","CHESTERFIELD INLET A","2300710","2023-02-08 01:00","2023","02","08","01:00","-37.1","","-41.0","","68","","0.0","","33","","14","","","M","101.13","","","","-50","","NA"
"-90.73","63.35","CHESTERFIELD INLET A","2300710","2023-02-08 02:00","2023","02","08","02:00","-37.4","","-41.3","","68","","0.0","","31","","14","","","M","101.16","","","","-50","","NA"
"-90.73","63.35","CHESTERFIELD INLET A","2300710","2023-02-08 03:00","2023","02","08","03:00","-37.6","","-41.5","","68","","0.0","","33","","9","","","M","101.25","","","","-48","","NA"
"-90.73","63.35","CHESTERFIELD INLET A","2300710","2023-02-08 04:00","2023","02","08","04:00","-37.7","","-41.6","","68","","0.0","","31","","8","","","M","101.28","","","","-47","","NA"
"-90.73","63.35","CHESTERFIELD INLET A","2300710","2023-02-08 05:00","2023","02","08","05:00","-38.4","","-42.3","","68","","0.0","","30","","9","","","M","101.33","","","","-49","","NA"
"-90.73","63.35","CHESTERFIELD INLET A","2300710","2023-02-08 06:00","2023","02","08","06:00","-38.4","","-42.3","","68","","0.0","","31","","10","","","M","101.38","","","","-49","","NA"
"-90.73","63.35","CHESTERFIELD INLET A","2300710","2023-02-08 07:00","2023","02","08","07:00","-37.8","","-41.6","","68","","","M","30","","8","","","M","101.42","","","","-47","","NA"
"-90.73","63.35","CHESTERFIELD INLET A","2300710","2023-02-08 08:00","2023","02","08","08:00","-38.5","","-42.4","","68","","0.0","","31","","9","","","M","101.44","","","","-49","","NA"
"-90.73","63.35","CHESTERFIELD INLET A","2300710","2023-02-08 09:00","2023","02","08","09:00","-39.1","","-43.1","","67","","0.0","","31","","9","","","M","101.51","","","","-49","","NA"
"-90.73","63.35","CHESTERFIELD INLET A","2300710","2023-02-08 10:00","2023","02","08","10:00","-38.4","","-42.3","","68","","0.0","","30","","12","","","M","101.58","","","","-50","","NA"
"-90.73","63.35","CHESTERFIELD INLET A","2300710","2023-02-08 11:00","2023","02","08","11:00","-37.4","","-41.3","","68","","","M","34","","12","","","M","101.62","","","","-49","","NA"
"-90.73","63.35","CHESTERFIELD INLET A","2300710","2023-02-08 12:00","2023","02","08","12:00","-36.3","","-40.1","","69","","","M","30","","11","","","M","101.65","","","","-47","","NA"
"-90.73","63.35","CHESTERFIELD INLET A","2300710","2023-02-08 13:00","2023","02","08","13:00","-33.5","","-37.2","","70","","","M","31","","16","","","M","101.71","","","","-46","","NA"
"-90.73","63.35","CHESTERFIELD INLET A","2300710","2023-02-08 14:00","2023","02","08","14:00","-31.9","","-35.6","","71","","","M","30","","9","","","M","101.76","","","","-41","","NA"
"-90.73","63.35","CHESTERFIELD INLET A","2300710","2023-02-08 15:00","2023","02","08","15:00","-30.8","","-34.4","","71","","","M","24","","6","","","M","101.79","","","","-37","","NA"
"-90.73","63.35","CHESTERFIELD INLET A","2300710","2023-02-08 16:00","2023","02","08","16:00","-31.4","","-35.0","","71","","","M","25","","5","","","M","101.82","","","","-37","","NA"
"-90.73","63.35","CHESTERFIELD INLET A","2300710","2023-02-08 17:00","2023","02","08","17:00","-31.9","","-35.5","","71","","","M","33","","3","","","M","101.86","","","","-35","","NA"
"-90.73","63.35","CHESTERFIELD INLET A","2300710","2023-02-08 18:00","2023","02","08","18:00","-30.3","","-33.9","","72","","0.0","","31","","22","","","M","101.94","","","","-44","","NA"
"-90.73","63.35","CHESTERFIELD INLET A","2300710","2023-02-08 19:00","2023","02","08","19:00","-31.1","","-34.7","","71","","0.0","","31","","16","","","M","101.99","","","","-43","","NA"
"-90.73","63.35","CHESTERFIELD INLET A","2300710","2023-02-08 20:00","2023","02","08","20:00","-31.8","","-35.4","","71","","0.0","","29","","18","","","M","101.99","","","","-45","","NA"
"-90.73","63.35","CHESTERFIELD INLET A","2300710","2023-02-08 21:00","2023","02","08","21:00","-31.1","","-34.7","","71","","0.0","","30","","29","","","M","102.01","","","","-47","","NA"
"-90.73","63.35","CHESTERFIELD INLET A","2300710","2023-02-08 22:00","2023","02","08","22:00","-32.3","","-35.9","","71","","0.0","","29","","26","","","M","102.04","","","","-48","","NA"
"-90.73","63.35","CHESTERFIELD INLET A","2300710","2023-02-08 23:00","2023","02","08","23:00","-30.9","","-34.5","","71","","0.0","","30","","28","","","M","102.05","","","","-46","","NA"
"-90.73","63.35","CHESTERFIELD INLET A","2300710","2023-02-09 00:00","2023","02","09","00:00","-30.6","","-34.2","","71","","0.0","","30","","27","","","M","102.10","","","","-46","","NA"
"-90.73","63.35","CHESTERFIELD INLET A","2300710","2023-02-09 01:00","2023","02","09","01:00","-30.7","","-34.3","","71","","0.0","","30","","26","","","M","102.13","","","","-46","","NA"
"-90.73","63.35","CHESTERFIELD INLET A","2300710","2023-02-09 02:00","2023","02","09","02:00","-32.0","","-35.6","","71","","0.0","","31","","18","","","M","102.16","","","","-45","","NA"
"-90.73","63.35","CHESTERFIELD INLET A","2300710","2023-02-09 03:00","2023","02","09","03:00","-32.2","","-35.9","","71","","0.0","","30","","18","","","M","102.19","","","","-45","","NA"
"-90.73","63.35","CHESTERFIELD INLET A","2300710","2023-02-09 04:00","2023","02","09","04:00","-32.0","","-35.7","","71","","0.0","","29","","15","","","M","102.22","","","","-44","","NA"
"-90.73","63.35","CHESTERFIELD INLET A","2300710","2023-02-09 05:00","2023","02","09","05:00","-32.2","","-35.9","","71","","0.0","","30","","16","","","M","102.21","","","","-45","","NA"
"-90.73","63.35","CHESTERFIELD INLET A","2300710","2023-02-09 06:00","2023","02","09","06:00","-33.1","","-36.8","","70","","0.0","","30","","15","","","M","102.25","","","","-45","","NA"
"-90.73","63.35","CHESTERFIELD INLET A","2300710","2023-02-09 07:00","2023","02","09","07:00","-32.0","","-35.6","","71","","","M","27","","11","","","M","102.24","","","","-42","","NA"
"-90.73","63.35","CHESTERFIELD INLET A","2300710","2023-02-09 08:00","2023","02","09","08:00","-32.4","","-36.0","","71","","0.0","","30","","8","","","M","102.24","","","","-41","","NA"
"-90.73","63.35","CHESTERFIELD INLET A","2300710","2023-02-09 09:00","2023","02","09","09:00","-31.3","","-34.9","","71","","0.0","","0","","1","","","M","102.23","","","","-32","","NA"
"-90.73","63.35","CHESTERFIELD INLET A","2300710","2023-02-09 10:00","2023","02","09","10:00","-30.6","","-34.2","","71","","0.0","","28","","5","","","M","102.16","","","","-36","","NA"
"-90.73","63.35","CHESTERFIELD INLET A","2300710","2023-02-09 11:00","2023","02","09","11:00","-29.4","","-32.9","","72","","","M","30","","8","","","M","102.15","","","","-37","","NA"
"-90.73","63.35","CHESTERFIELD INLET A","2300710","2023-02-09 12:00","2023","02","09","12:00","-28.9","","-32.4","","72","","","M","32","","8","","","M","102.13","","","","-37","","NA"
"-90.73","63.35","CHESTERFIELD INLET A","2300710","2023-02-09 13:00","2023","02","09","13:00","-28.4","","-31.9","","72","","","M","33","","6","","","M","102.08","","","","-35","","NA"
"-90.73","63.35","CHESTERFIELD INLET A","2300710","2023-02-09 14:00","2023","02","09","14:00","-28.1","","-31.6","","73","","","M","30","","6","","","M","102.06","","","","-34","","NA"
"-90.73","63.35","CHESTERFIELD INLET A","2300710","2023-02-09 15:00","2023","02","09","15:00","-28.2","","-31.8","","72","","","M","32","","3","","","M","102.06","","","","-31","","NA"
"-90.73","63.35","CHESTERFIELD INLET A","2300710","2023-02-09 16:00","2023","02","09","16:00","-29.2","","-32.7","","72","","","M","5","","5","","","M","102.04","","","","-35","","NA"
"-90.73","63.35","CHESTERFIELD INLET A","2300710","2023-02-09 17:00","2023","02","09","17:00","-31.7","","-35.3","","72","","","M","5","","11","","","M","102.01","","","","-42","","NA"
"-90.73","63.35","CHESTERFIELD INLET A","2300710","2023-02-09 18:00","2023","02","09","18:00","-31.2","","-34.8","","71","","0.0","","1","","8","","","M","102.00","","","","-39","","NA"
"-90.73","63.35","CHESTERFIELD INLET A","2300710","2023-02-09 19:00","2023","02","09","19:00","-32.5","","-36.0","","71","","0.0","","35","","6","","","M","101.95","","","","-39","","NA"
"-90.73","63.35","CHESTERFIELD INLET A","2300710","2023-02-09 20:00","2023","02","09","20:00","-31.4","","-34.9","","72","","0.0","","34","","7","","","M","101.88","","","","-39","","NA"
"-90.73","63.35","CHESTERFIELD INLET A","2300710","2023-02-09 21:00","2023","02","09","21:00","-29.9","","-33.5","","72","","0.0","","35","","7","","","M","101.79","","","","-37","","NA"
"-90.73","63.35","CHESTERFIELD INLET A","2300710","2023-02-09 22:00","2023","02","09","22:00","-29.8","","-33.3","","72","","0.0","","34","","8","","","M","101.72","","","","-38","","NA"
"-90.73","63.35","CHESTERFIELD INLET A","2300710","2023-02-09 23:00","2023","02","09","23:00","-29.5","","-33.0","","72","","0.0","","33","","8","","","M","101.67","","","","-37","","NA"
"-90.73","63.35","CHESTERFIELD INLET A","2300710","2023-02-10 00:00","2023","02","10","00:00","-29.4","","-32.9","","72","","0.0","","32","","11","","","M","101.63","","","","-39","","NA"
"-90.73","63.35","CHESTERFIELD INLET A","2300710","2023-02-10 01:00","2023","02","10","01:00","-29.2","","-32.6","","73","","0.0","","32","","11","","","M","101.57","","","","-39","","NA"
"-90.73","63.35","CHESTERFIELD INLET A","2300710","2023-02-10 02:00","2023","02","10","02:00","-28.9","","-32.3","","73","","0.0","","32","","10","","","M","101.53","","","","-38","","NA"
"-90.73","63.35","CHESTERFIELD INLET A","2300710","2023-02-10 03:00","2023","02","10","03:00","-28.5","","-32.0","","73","","0.0","","31","","6","","","M","101.46","","","","-35","","NA"
"-90.73","63.35","CHESTERFIELD INLET A","2300710","2023-02-10 04:00","2023","02","10","04:00","-29.1","","-32.6","","73","","0.0","","31","","8","","","M","101.38","","","","-37","","NA"
"-90.73","63.35","CHESTERFIELD INLET A","2300710","2023-02-10 05:00","2023","02","10","05:00","-29.4","","-32.9","","73","","0.0","","30","","8","","","M","101.30","","","","-37","","NA"
"-90.73","63.35","CHESTERFIELD INLET A","2300710","2023-02-10 06:00","2023","02","10","06:00","-27.9","","-31.2","","74","","0.0","","30","","12","","","M","101.28","","","","-38","","NA"
"-90.73","63.35","CHESTERFIELD INLET A","2300710","2023-02-10 07:00","2023","02","10","07:00","-27.3","","-30.6","","74","","","M","32","","12","","","M","101.25","","","","-37","","NA"
"-90.73","63.35","CHESTERFIELD INLET A","2300710","2023-02-10 08:00","2023","02","10","08:00","-27.0","","-30.3","","74","","0.0","","32","","12","","","M","101.22","","","","-37","","NA"
"-90.73","63.35","CHESTERFIELD INLET A","2300710","2023-02-10 09:00","2023","02","10","09:00","-26.8","","-30.2","","74","","0.0","","31","","14","","","M","101.17","","","","-37","","NA"
"-90.73","63.35","CHESTERFIELD INLET A","2300710","2023-02-10 10:00","2023","02","10","10:00","-27.0","","-30.4","","73","","0.0","","33","","14","","","M","101.12","","","","-37","","NA"
"-90.73","63.35","CHESTERFIELD INLET A","2300710","2023-02-10 11:00","2023","02","10","11:00","-26.7","","-30.1","","73","","","M","33","","16","","","M","101.08","","","","-38","","NA"
"-90.73","63.35","CHESTERFIELD INLET A","2300710","2023-02-10 12:00","2023","02","10","12:00","-26.2","","-29.7","","73","","","M","32","","18","","","M","101.08","","","","-38","","NA"
"-90.73","63.35","CHESTERFIELD INLET A","2300710","2023-02-10 13:00","2023","02","10","13:00","-25.9","","-29.4","","73","","","M","31","","20","","","M","101.05","","","","-38","","NA"
"-90.73","63.35","CHESTERFIELD INLET A","2300710","2023-02-10 14:00","2023","02","10","14:00","-25.6","","-29.1","","73","","","M","32","","21","","","M","101.03","","","","-38","","NA"
"-90.73","63.35","CHESTERFIELD INLET A","2300710","2023-02-10 15:00","2023","02","10","15:00","-25.8","","-29.3","","73","","","M","33","","23","","","M","101.05","","","","-39","","NA"
"-90.73","63.35","CHESTERFIELD INLET A","2300710","2023-02-10 16:00","2023","02","10","16:00","-26.4","","-29.9","","73","","","M","34","","27","","","M","101.06","","","","-40","","NA"
"-90.73","63.35","CHESTERFIELD INLET A","2300710","2023-02-10 17:00","2023","02","10","17:00","-26.5","","-30.0","","73","","","M","33","","22","","","M","101.10","","","","-39","","NA"
"-90.73","63.35","CHESTERFIELD INLET A","2300710","2023-02-10 18:00","2023","02","10","18:00","-26.9","","-30.5","","72","","0.0","","33","","21","","","M","101.09","","","","-39","","NA"
"-90.73","63.35","CHESTERFIELD INLET A","2300710","2023-02-10 19:00","2023","02","10","19:00","-31.4","","-35.1","","71","","0.0","","30","","25","","","M","101.11","","","","-46","","NA"
"-90.73","63.35","CHESTERFIELD INLET A","2300710","2023-02-10 20:00","2023","02","10","20:00","-33.4","","-37.1","","70","","0.0","","30","","26","","","M","101.12","","","","-49","","NA"
"-90.73","63.35","CHESTERFIELD INLET A","2300710","2023-02-10 21:00","2023","02","10","21:00","-33.4","","-37.2","","69","","0.0","","34","","22","","","M","101.11","","","","-48","","NA"
"-90.73","63.35","CHESTERFIELD INLET A","2300710","2023-02-10 22:00","2023","02","10","22:00","-34.6","","-38.6","","68","","0.0","","33","","25","","","M","101.08","","","","-50","","NA"
"-90.73","63.35","CHESTERFIELD INLET A","2300710","2023-02-10 23:00","2023","02","10","23:00","-35.0","","-38.9","","68","","0.0","","31","","26","","","M","101.10","","","","-51","","NA"
"-90.73","63.35","CHESTERFIELD INLET A","2300710","2023-02-11 00:00","2023","02","11","00:00","-35.8","","-39.7","","68","","0.0","","31","","24","","","M","101.09","","","","-52","","NA"
"-90.73","63.35","CHESTERFIELD INLET A","2300710","2023-02-11 01:00","2023","02","11","01:00","-36.3","","-40.2","","68","","0.0","","30","","27","","","M","101.09","","","","-53","","NA"
"-90.73","63.35","CHESTERFIELD INLET A","2300710","2023-02-11 02:00","2023","02","11","02:00","-37.0","","-40.9","","68","","0.0","","30","","27","","","M","101.09","","","","-54","","NA"
"-90.73","63.35","CHESTERFIELD INLET A","2300710","2023-02-11 03:00","2023","02","11","03:00","-36.8","","-40.7","","68","","0.0","","31","","31","","","M","101.09","","","","-55","","NA"
"-90.73","63.35","CHESTERFIELD INLET A","2300710","2023-02-11 04:00","2023","02","11","04:00","-37.0","","-41.0","","67","","0.0","","30","","29","","","M","101.12","","","","-55","","NA"
"-90.73","63.35","CHESTERFIELD INLET A","2300710","2023-02-11 05:00","2023","02","11","05:00","-37.6","","-41.6","","68","","0.0","","30","","27","","","M","101.11","","","","-55","","NA"
"-90.73","63.35","CHESTERFIELD INLET A","2300710","2023-02-11 06:00","2023","02","11","06:00","-37.6","","-41.6","","67","","0.0","","30","","24","","","M","101.10","","","","-54","","NA"
"-90.73","63.35","CHESTERFIELD INLET A","2300710","2023-02-11 07:00","2023","02","11","07:00","-38.1","","-42.0","","67","","0.0","","30","","26","","","M","101.09","","","","-55","","NA"
"-90.73","63.35","CHESTERFIELD INLET A","2300710","2023-02-11 08:00","2023","02","11","08:00","-38.1","","-42.0","","67","","0.0","","30","","30","","","M","101.10","","","","-56","","NA"
"-90.73","63.35","CHESTERFIELD INLET A","2300710","2023-02-11 09:00","2023","02","11","09:00","-38.1","","-42.1","","67","","","M","30","","31","","","M","101.08","","","","-56","","NA"
"-90.73","63.35","CHESTERFIELD INLET A","2300710","2023-02-11 10:00","2023","02","11","10:00","-37.5","","-41.7","","66","","","M","30","","26","","","M","101.09","","","","-54","","NA"
"-90.73","63.35","CHESTERFIELD INLET A","2300710","2023-02-11 11:00","2023","02","11","11:00","-37.7","","-42.0","","65","","","M","30","","24","","","M","101.10","","","","-54","","NA"
"-90.73","63.35","CHESTERFIELD INLET A","2300710","2023-02-11 12:00","2023","02","11","12:00","-37.6","","-41.9","","65","","","M","29","","25","","","M","101.09","","","","-54","","NA"
"-90.73","63.35","CHESTERFIELD INLET A","2300710","2023-02-11 13:00","2023","02","11","13:00","-37.3","","-41.6","","65","","","M","29","","26","","","M","101.09","","","","-54","","NA"
"-90.73","63.35","CHESTERFIELD INLET A","2300710","2023-02-11 14:00","2023","02","11","14:00","-37.2","","-41.6","","65","","","M","30","","29","","","M","101.09","","","","-55","","NA"
"-90.73","63.35","CHESTERFIELD INLET A","2300710","2023-02-11 15:00","2023","02","11","15:00","-37.5","","-41.8","","65","","","M","29","","28","","","M","101.09","","","","-55","","NA"
"-90.73","63.35","CHESTERFIELD INLET A","2300710","2023-02-11 16:00","2023","02","11","16:00","-37.7","","-41.9","","66","","0.0","","30","","25","","","M","101.10","","","","-54","","NA"
"-90.73","63.35","CHESTERFIELD INLET A","2300710","2023-02-11 17:00","2023","02","11","17:00","-38.0","","-42.0","","67","","0.0","","30","","29","","","M","101.11","","","","-56","","NA"
"-90.73","63.35","CHESTERFIELD INLET A","2300710","2023-02-11 18:00","2023","02","11","18:00","-38.4","","-42.5","","67","","0.0","","30","","23","","","M","101.08","","","","-55","","NA"
"-90.73","63.35","CHESTERFIELD INLET A","2300710","2023-02-11 19:00","2023","02","11","19:00","-38.3","","-42.3","","67","","0.0","","30","","32","","","M","101.04","","","","-57","","NA"
"-90.73","63.35","CHESTERFIELD INLET A","2300710","2023-02-11 20:00","2023","02","11","20:00","-38.5","","-42.6","","67","","0.0","","30","","17","","","M","101.03","","","","-53","","NA"
"-90.73","63.35","CHESTERFIELD INLET A","2300710","2023-02-11 21:00","2023","02","11","21:00","-38.6","","-42.7","","66","","0.0","","30","","20","","","M","101.00","","","","-54","","NA"
"-90.73","63.35","CHESTERFIELD INLET A","2300710","2023-02-11 22:00","2023","02","11","22:00","-38.7","","-42.8","","66","","0.0","","29","","26","","","M","100.98","","","","-56","","NA"
"-90.73","63.35","CHESTERFIELD INLET A","2300710","2023-02-11 23:00","2023","02","11","23:00","-38.9","","-43.0","","66","","0.0","","29","","21","","","M","100.96","","","","-55","","NA"
"-90.73","63.35","CHESTERFIELD INLET A","2300710","2023-02-12 00:00","2023","02","12","00:00","-39.3","","-43.4","","66","","0.0","","30","","21","","","M","100.96","","","","-55","","NA"
"-90.73","63.35","CHESTERFIELD INLET A","2300710","2023-02-12 01:00","2023","02","12","01:00","-39.1","","-43.2","","67","","0.0","","31","","17","","","M","100.93","","","","-53","","NA"
"-90.73","63.35","CHESTERFIELD INLET A","2300710","2023-02-12 02:00","2023","02","12","02:00","-38.8","","-42.8","","67","","0.0","","31","","10","","","M","100.90","","","","-50","","NA"
"-90.73","63.35","CHESTERFIELD INLET A","2300710","2023-02-12 03:00","2023","02","12","03:00","-39.1","","-43.0","","68","","0.0","","33","","10","","","M","100.90","","","","-50","","NA"
"-90.73","63.35","CHESTERFIELD INLET A","2300710","2023-02-12 04:00","2023","02","12","04:00","-38.8","","-42.8","","67","","0.0","","31","","9","","","M","100.88","","","","-49","","NA"
"-90.73","63.35","CHESTERFIELD INLET A","2300710","2023-02-12 05:00","2023","02","12","05:00","-38.4","","-42.4","","67","","0.0","","29","","12","","","M","100.87","","","","-50","","NA"
"-90.73","63.35","CHESTERFIELD INLET A","2300710","2023-02-12 06:00","2023","02","12","06:00","-39.1","","-43.0","","67","","0.0","","30","","8","","","M","100.85","","","","-49","","NA"
"-90.73","63.35","CHESTERFIELD INLET A","2300710","2023-02-12 07:00","2023","02","12","07:00","-38.4","","-42.3","","67","","0.0","","30","","7","","","M","100.82","","","","-47","","NA"
"-90.73","63.35","CHESTERFIELD INLET A","2300710","2023-02-12 08:00","2023","02","12","08:00","-37.9","","-41.9","","67","","0.0","","31","","9","","","M","100.76","","","","-48","","NA"
"-90.73","63.35","CHESTERFIELD INLET A","2300710","2023-02-12 09:00","2023","02","12","09:00","-36.8","","-40.8","","67","","","M","31","","4","","","M","100.73","","","","-42","","NA"
"-90.73","63.35","CHESTERFIELD INLET A","2300710","2023-02-12 10:00","2023","02","12","10:00","-35.6","","-39.6","","68","","","M","3","","3","","","M","100.70","","","","-39","","NA"
"-90.73","63.35","CHESTERFIELD INLET A","2300710","2023-02-12 11:00","2023","02","12","11:00","-34.6","","-38.5","","69","","","M","1","","4","","","M","100.63","","","","-40","","NA"
"-90.73","63.35","CHESTERFIELD INLET A","2300710","2023-02-12 12:00","2023","02","12","12:00","-34.5","","-38.3","","69","","","M","36","","8","","","M","100.62","","","","-43","","NA"
"-90.73","63.35","CHESTERFIELD INLET A","2300710","2023-02-12 13:00","2023","02","12","13:00","-34.0","","-37.9","","69","","","M","34","","8","","","M","100.57","","","","-43","","NA"
"-90.73","63.35","CHESTERFIELD INLET A","2300710","2023-02-12 14:00","2023","02","12","14:00","-33.2","","-36.9","","71","","","M","34","","6","","","M","100.54","","","","-40","","NA"
"-90.73","63.35","CHESTERFIELD INLET A","2300710","2023-02-12 15:00","2023","02","12","15:00","-32.5","","-36.0","","72","","","M","35","","7","","","M","100.50","","","","-40","","NA"
"-90.73","63.35","CHESTERFIELD INLET A","2300710","2023-02-12 16:00","2023","02","12","16:00","-30.8","","-34.0","","74","","0.0","","35","","6","","","M","100.46","","","","-37","","NA"
"-90.73","63.35","CHESTERFIELD INLET A","2300710","2023-02-12 17:00","2023","02","12","17:00","-30.1","","-33.5","","73","","0.0","","34","","5","","","M","100.46","","","","-36","","NA"
"-90.73","63.35","CHESTERFIELD INLET A","2300710","2023-02-12 18:00","2023","02","12","18:00","-29.2","","-32.6","","73","","0.0","","26","","2","","","M","100.40","","","","-31","","NA"
"-90.73","63.35","CHESTERFIELD INLET A","2300710","2023-02-12 19:00","2023","02","12","19:00","-25.8","","-29.0","","75","","0.0","","12","","14","","","M","100.35","","","","-36","","NA"
"-90.73","63.35","CHESTERFIELD INLET A","2300710","2023-02-12 20:00","2023","02","12","20:00","-25.9","","-29.2","","74","","0.0","","11","","17","","","M","100.27","","","","-37","","NA"
"-90.73","63.35","CHESTERFIELD INLET A","2300710","2023-02-12 21:00","2023","02","12","21:00","-25.4","","-28.9","","74","","0.0","","12","","20","","","M","100.22","","","","-37","","NA"
"-90.73","63.35","CHESTERFIELD INLET A","2300710","2023-02-12 22:00","2023","02","12","22:00","-25.2","","-28.7","","73","","0.0","","11","","21","","","M","100.16","","","","-37","","NA"
"-90.73","63.35","CHESTERFIELD INLET A","2300710","2023-02-12 23:00","2023","02","12","23:00","-25.2","","-28.8","","73","","0.0","","12","","21","","","M","100.15","","","","-37","","NA"
"-90.73","63.35","CHESTERFIELD INLET A","2300710","2023-02-13 00:00","2023","02","13","00:00","-25.1","","-28.6","","73","","0.0","","12","","22","","","M","100.07","","","","-37","","NA"
"-90.73","63.35","CHESTERFIELD INLET A","2300710","2023-02-13 01:00","2023","02","13","01:00","-24.9","","-28.4","","73","","0.0","","11","","24","","","M","100.00","","","","-38","","NA"
"-90.73","63.35","CHESTERFIELD INLET A","2300710","2023-02-13 02:00","2023","02","13","02:00","-24.6","","-28.1","","73","","0.0","","12","","23","","","M","99.94","","","","-37","","NA"
"-90.73","63.35","CHESTERFIELD INLET A","2300710","2023-02-13 03:00","2023","02","13","03:00","-24.5","","-28.0","","73","","0.0","","11","","21","","","M","99.91","","","","-36","","NA"
"-90.73","63.35","CHESTERFIELD INLET A","2300710","2023-02-13 04:00","2023","02","13","04:00","-24.2","","-27.9","","72","","0.0","","11","","21","","","M","99.85","","","","-36","","NA"
"-90.73","63.35","CHESTERFIELD INLET A","2300710","2023-02-13 05:00","2023","02","13","05:00","-24.0","","-27.5","","73","","0.0","","11","","21","","","M","99.83","","","","-36","","NA"
"-90.73","63.35","CHESTERFIELD INLET A","2300710","2023-02-13 06:00","2023","02","13","06:00","-23.9","","-27.5","","73","","0.0","","11","","18","","","M","99.81","","","","-35","","NA"
"-90.73","63.35","CHESTERFIELD INLET A","2300710","2023-02-13 07:00","2023","02","13","07:00","-23.8","","-27.4","","73","","","M","11","","19","","","M","99.75","","","","-35","","NA"
"-90.73","63.35","CHESTERFIELD INLET A","2300710","2023-02-13 08:00","2023","02","13","08:00","-23.8","","-27.4","","73","","","M","11","","20","","","M","99.68","","","","-35","","NA"
"-90.73","63.35","CHESTERFIELD INLET A","2300710","2023-02-13 09:00","2023","02","13","09:00","-23.9","","-27.4","","74","","","M","11","","18","","","M","99.70","","","","-35","","NA"
"-90.73","63.35","CHESTERFIELD INLET A","2300710","2023-02-13 10:00","2023","02","13","10:00","-23.7","","-27.3","","72","","","M","9","","17","","","M","99.65","","","","-34","","NA"
"-90.73","63.35","CHESTERFIELD INLET A","2300710","2023-02-13 11:00","2023","02","13","11:00","-23.5","","-27.4","","71","","","M","8","","17","","","M","99.60","","","","-34","","NA"
"-90.73","63.35","CHESTERFIELD INLET A","2300710","2023-02-13 12:00","2023","02","13","12:00","-23.3","","-27.2","","71","","","M","8","","16","","","M","99.56","","","","-33","","NA"
"-90.73","63.35","CHESTERFIELD INLET A","2300710","2023-02-13 13:00","2023","02","13","13:00","-23.2","","-27.2","","70","","","M","6","","14","","","M","99.53","","","","-33","","NA"
"-90.73","63.35","CHESTERFIELD INLET A","2300710","2023-02-13 14:00","2023","02","13","14:00","-23.1","","-27.0","","71","","","M","5","","13","","","M","99.54","","","","-32","","NA"
"-90.73","63.35","CHESTERFIELD INLET A","2300710","2023-02-13 15:00","2023","02","13","15:00","-23.1","","-26.5","","74","","","M","4","","19","","","M","99.54","","","","-34","","NA"
"-90.73","63.35","CHESTERFIELD INLET A","2300710","2023-02-13 16:00","2023","02","13","16:00","-24.6","","-27.8","","75","","","M","2","","31","","","M","99.55","","","","-39","","NA"
"-90.73","63.35","CHESTERFIELD INLET A","2300710","2023-02-13 17:00","2023","02","13","17:00","-24.9","","-28.1","","75","","","M","2","","31","","","M","99.60","","","","-39","","NA"
"-90.73","63.35","CHESTERFIELD INLET A","2300710","2023-02-13 18:00","2023","02","13","18:00","-25.6","","-28.9","","75","","0.0","","1","","27","","","M","99.63","","","","-39","","NA"
"-90.73","63.35","CHESTERFIELD INLET A","2300710","2023-02-13 19:00","2023","02","13","19:00","-25.7","","-29.0","","74","","0.0","","1","","28","","","M","99.64","","","","-40","","NA"
"-90.73","63.35","CHESTERFIELD INLET A","2300710","2023-02-13 20:00","2023","02","13","20:00","-25.9","","-29.3","","74","","0.0","","1","","31","","","M","99.66","","","","-40","","NA"
"-90.73","63.35","CHESTERFIELD INLET A","2300710","2023-02-13 21:00","2023","02","13","21:00","-26.3","","-29.7","","74","","0.0","","35","","28","","","M","99.69","","","","-40","","NA"
"-90.73","63.35","CHESTERFIELD INLET A","2300710","2023-02-13 22:00","2023","02","13","22:00","-26.9","","-30.3","","73","","0.0","","35","","28","","","M","99.73","","","","-41","","NA"
"-90.73","63.35","CHESTERFIELD INLET A","2300710","2023-02-13 23:00","2023","02","13","23:00","-28.1","","-31.5","","73","","0.0","","33","","23","","","M","99.79","","","","-42","","NA"
"-90.73","63.35","CHESTERFIELD INLET A","2300710","2023-02-14 00:00","2023","02","14","00:00","-29.9","","-33.6","","71","","0.0","","34","","28","","","M","99.85","","","","-45","","NA"
"-90.73","63.35","CHESTERFIELD INLET A","2300710","2023-02-14 01:00","2023","02","14","01:00","-30.7","","-34.3","","71","","0.0","","34","","26","","","M","99.91","","","","-46","","NA"
"-90.73","63.35","CHESTERFIELD INLET A","2300710","2023-02-14 02:00","2023","02","14","02:00","-31.1","","-34.7","","71","","0.0","","33","","22","","","M","99.96","","","","-45","","NA"
"-90.73","63.35","CHESTERFIELD INLET A","2300710","2023-02-14 03:00","2023","02","14","03:00","-32.3","","-36.0","","71","","0.0","","31","","26","","","M","100.02","","","","-48","","NA"
"-90.73","63.35","CHESTERFIELD INLET A","2300710","2023-02-14 04:00","2023","02","14","04:00","-32.6","","-36.3","","70","","0.0","","31","","28","","","M","100.08","","","","-49","","NA"
"-90.73","63.35","CHESTERFIELD INLET A","2300710","2023-02-14 05:00","2023","02","14","05:00","-33.7","","-37.5","","70","","0.0","","30","","21","","","M","100.14","","","","-48","","NA"
"-90.73","63.35","CHESTERFIELD INLET A","2300710","2023-02-14 06:00","2023","02","14","06:00","-34.0","","-37.7","","70","","0.0","","30","","24","","","M","100.21","","","","-49","","NA"
"-90.73","63.35","CHESTERFIELD INLET A","2300710","2023-02-14 07:00","2023","02","14","07:00","-34.3","","-38.1","","70","","","M","31","","29","","","M","100.27","","","","-51","","NA"
"-90.73","63.35","CHESTERFIELD INLET A","2300710","2023-02-14 08:00","2023","02","14","08:00","-34.6","","-38.3","","70","","","M","30","","27","","","M","100.33","","","","-51","","NA"
"-90.73","63.35","CHESTERFIELD INLET A","2300710","2023-02-14 09:00","2023","02","14","09:00","-33.9","","-37.8","","69","","","M","30","","25","","","M","100.39","","","","-49","","NA"
"-90.73","63.35","CHESTERFIELD INLET A","2300710","2023-02-14 10:00","2023","02","14","10:00","-33.6","","-37.6","","68","","","M","31","","21","","","M","100.43","","","","-48","","NA"
"-90.73","63.35","CHESTERFIELD INLET A","2300710","2023-02-14 11:00","2023","02","14","11:00","-33.3","","-37.4","","67","","","M","29","","27","","","M","100.50","","","","-49","","NA"
"-90.73","63.35","CHESTERFIELD INLET A","2300710","2023-02-14 12:00","2023","02","14","12:00","-33.4","","-37.6","","67","","","M","29","","26","","","M","100.55","","","","-49","","NA"
"-90.73","63.35","CHESTERFIELD INLET A","2300710","2023-02-14 13:00","2023","02","14","13:00","-33.4","","-37.6","","67","","","M","30","","25","","","M","100.58","","","","-49","","NA"
"-90.73","63.35","CHESTERFIELD INLET A","2300710","2023-02-14 14:00","2023","02","14","14:00","-33.8","","-38.0","","67","","","M","29","","25","","","M","100.62","","","","-49","","NA"
"-90.73","63.35","CHESTERFIELD INLET A","2300710","2023-02-14 15:00","2023","02","14","15:00","-34.3","","-38.5","","67","","","M","29","","26","","","M","100.66","","","","-50","","NA"
"-90.73","63.35","CHESTERFIELD INLET A","2300710","2023-02-14 16:00","2023","02","14","16:00","-34.9","","-39.1","","67","","","M","29","","28","","","M","100.75","","","","-52","","NA"
"-90.73","63.35","CHESTERFIELD INLET A","2300710","2023-02-14 17:00","2023","02","14","17:00","-35.5","","-39.5","","68","","","M","30","","29","","","M","100.80","","","","-53","","NA"
"-90.73","63.35","CHESTERFIELD INLET A","2300710","2023-02-14 18:00","2023","02","14","18:00","-36.6","","-40.6","","68","","0.0","","30","","29","","","M","100.85","","","","-54","","NA"
"-90.73","63.35","CHESTERFIELD INLET A","2300710","2023-02-14 19:00","2023","02","14","19:00","-36.5","","-40.4","","68","","0.0","","31","","22","","","M","100.87","","","","-52","","NA"
"-90.73","63.35","CHESTERFIELD INLET A","2300710","2023-02-14 20:00","2023","02","14","20:00","-36.4","","-40.4","","68","","0.0","","29","","27","","","M","100.90","","","","-53","","NA"
"-90.73","63.35","CHESTERFIELD INLET A","2300710","2023-02-14 21:00","2023","02","14","21:00","-36.7","","-40.6","","68","","0.0","","29","","27","","","M","100.88","","","","-54","","NA"
"-90.73","63.35","CHESTERFIELD INLET A","2300710","2023-02-14 22:00","2023","02","14","22:00","-36.6","","-40.5","","68","","0.0","","30","","27","","","M","100.87","","","","-53","","NA"
"-90.73","63.35","CHESTERFIELD INLET A","2300710","2023-02-14 23:00","2023","02","14","23:00","-36.7","","-40.6","","68","","0.0","","29","","27","","","M","100.89","","","","-54","","NA"
"-90.73","63.35","CHESTERFIELD INLET A","2300710","2023-02-15 00:00","2023","02","15","00:00","-36.4","","-40.2","","69","","0.0","","30","","30","","","M","100.88","","","","-54","","NA"
"-90.73","63.35","CHESTERFIELD INLET A","2300710","2023-02-15 01:00","2023","02","15","01:00","-36.1","","-40.0","","68","","0.0","","30","","28","","","M","100.91","","","","-53","","NA"
"-90.73","63.35","CHESTERFIELD INLET A","2300710","2023-02-15 02:00","2023","02","15","02:00","-37.1","","-41.0","","68","","0.0","","29","","23","","","M","100.91","","","","-53","","NA"
"-90.73","63.35","CHESTERFIELD INLET A","2300710","2023-02-15 03:00","2023","02","15","03:00","-37.2","","-41.0","","68","","0.0","","29","","20","","","M","100.91","","","","-52","","NA"
"-90.73","63.35","CHESTERFIELD INLET A","2300710","2023-02-15 04:00","2023","02","15","04:00","-37.7","","-41.6","","68","","0.0","","29","","26","","","M","100.92","","","","-55","","NA"
"-90.73","63.35","CHESTERFIELD INLET A","2300710","2023-02-15 05:00","2023","02","15","05:00","-37.9","","-41.8","","68","","0.0","","30","","30","","","M","100.94","","","","-56","","NA"
"-90.73","63.35","CHESTERFIELD INLET A","2300710","2023-02-15 06:00","2023","02","15","06:00","-38.4","","-42.3","","68","","0.0","","29","","30","","","M","100.94","","","","-57","","NA"
"-90.73","63.35","CHESTERFIELD INLET A","2300710","2023-02-15 07:00","2023","02","15","07:00","-38.8","","-42.7","","67","","","M","29","","26","","","M","100.92","","","","-56","","NA"
"-90.73","63.35","CHESTERFIELD INLET A","2300710","2023-02-15 08:00","2023","02","15","08:00","-39.1","","-43.1","","67","","","M","29","","28","","","M","100.94","","","","-57","","NA"
"-90.73","63.35","CHESTERFIELD INLET A","2300710","2023-02-15 09:00","2023","02","15","09:00","-39.1","","-43.1","","67","","","M","29","","29","","","M","100.89","","","","-57","","NA"
"-90.73","63.35","CHESTERFIELD INLET A","2300710","2023-02-15 10:00","2023","02","15","10:00","-39.0","","-43.1","","66","","","M","28","","32","","","M","100.90","","","","-58","","NA"
"-90.73","63.35","CHESTERFIELD INLET A","2300710","2023-02-15 11:00","2023","02","15","11:00","-38.8","","-42.9","","66","","","M","29","","40","","","M","100.88","","","","-59","","NA"
"-90.73","63.35","CHESTERFIELD INLET A","2300710","2023-02-15 12:00","2023","02","15","12:00","-38.7","","-42.9","","66","","","M","29","","44","","","M","100.86","","","","-60","","NA"
"-90.73","63.35","CHESTERFIELD INLET A","2300710","2023-02-15 13:00","2023","02","15","13:00","-38.0","","-42.2","","66","","","M","28","","38","","","M","100.84","","","","-58","","NA"
"-90.73","63.35","CHESTERFIELD INLET A","2300710","2023-02-15 14:00","2023","02","15","14:00","-37.8","","-42.0","","66","","","M","28","","40","","","M","100.83","","","","-58","","NA"
"-90.73","63.35","CHESTERFIELD INLET A","2300710","2023-02-15 15:00","2023","02","15","15:00","-37.9","","-42.0","","67","","","M","29","","41","","","M","100.86","","","","-58","","NA"
"-90.73","63.35","CHESTERFIELD INLET A","2300710","2023-02-15 16:00","2023","02","15","16:00","-38.1","","-42.2","","67","","","M","28","","32","","","M","100.87","","","","-57","","NA"
"-90.73","63.35","CHESTERFIELD INLET A","2300710","2023-02-15 17:00","2023","02","15","17:00","-38.7","","-42.8","","66","","","M","28","","32","","","M","100.88","","","","-57","","NA"
"-90.73","63.35","CHESTERFIELD INLET A","2300710","2023-02-15 18:00","2023","02","15","18:00","-38.9","","-42.9","","67","","0.0","","28","","33","","","M","100.88","","","","-58","","NA"
"-90.73","63.35","CHESTERFIELD INLET A","2300710","2023-02-15 19:00","2023","02","15","19:00","-39.0","","-43.1","","67","","0.0","","28","","36","","","M","100.85","","","","-59","","NA"
"-90.73","63.35","CHESTERFIELD INLET A","2300710","2023-02-15 20:00","2023","02","15","20:00","-39.1","","-43.2","","66","","0.0","","28","","27","","","M","100.84","","","","-57","","NA"
"-90.73","63.35","CHESTERFIELD INLET A","2300710","2023-02-15 21:00","2023","02","15","21:00","-37.7","","-41.8","","67","","0.0","","28","","34","","","M","100.77","","","","-57","","NA"
"-90.73","63.35","CHESTERFIELD INLET A","2300710","2023-02-15 22:00","2023","02","15","22:00","-38.1","","-42.2","","67","","0.0","","27","","30","","","M","100.73","","","","-56","","NA"
"-90.73","63.35","CHESTERFIELD INLET A","2300710","2023-02-15 23:00","2023","02","15","23:00","-38.3","","-42.4","","67","","0.0","","29","","30","","","M","100.71","","","","-56","","NA"
"-90.73","63.35","CHESTERFIELD INLET A","2300710","2023-02-16 00:00","2023","02","16","00:00","-38.8","","-42.8","","67","","0.0","","29","","32","","","M","100.69","","","","-58","","NA"
"-90.73","63.35","CHESTERFIELD INLET A","2300710","2023-02-16 01:00","2023","02","16","01:00","-38.7","","-42.8","","66","","0.0","","28","","33","","","M","100.67","","","","-58","","NA"
"-90.73","63.35","CHESTERFIELD INLET A","2300710","2023-02-16 02:00","2023","02","16","02:00","-39.2","","-43.3","","66","","0.0","","29","","37","","","M","100.68","","","","-59","","NA"
"-90.73","63.35","CHESTERFIELD INLET A","2300710","2023-02-16 03:00","2023","02","16","03:00","-39.8","","-43.8","","67","","0.0","","29","","33","","","M","100.70","","","","-59","","NA"
"-90.73","63.35","CHESTERFIELD INLET A","2300710","2023-02-16 04:00","2023","02","16","04:00","-40.0","","-44.1","","67","","0.0","","29","","37","","","M","100.71","","","","-60","","NA"
"-90.73","63.35","CHESTERFIELD INLET A","2300710","2023-02-16 05:00","2023","02","16","05:00","-40.1","","-44.1","","67","","0.0","","30","","37","","","M","100.74","","","","-60","","NA"
"-90.73","63.35","CHESTERFIELD INLET A","2300710","2023-02-16 06:00","2023","02","16","06:00","-40.3","","-44.3","","67","","0.0","","29","","41","","","M","100.74","","","","-61","","NA"
"-90.73","63.35","CHESTERFIELD INLET A","2300710","2023-02-16 07:00","2023","02","16","07:00","-40.6","","-44.6","","66","","","M","30","","38","","","M","100.78","","","","-61","","NA"
"-90.73","63.35","CHESTERFIELD INLET A","2300710","2023-02-16 08:00","2023","02","16","08:00","-40.9","","-45.0","","66","","","M","30","","31","","","M","100.83","","","","-60","","NA"
"-90.73","63.35","CHESTERFIELD INLET A","2300710","2023-02-16 09:00","2023","02","16","09:00","-40.7","","-44.9","","65","","","M","29","","33","","","M","100.82","","","","-60","","NA"
"-90.73","63.35","CHESTERFIELD INLET A","2300710","2023-02-16 10:00","2023","02","16","10:00","-40.5","","-44.7","","65","","","M","29","","37","","","M","100.82","","","","-61","","NA"
"-90.73","63.35","CHESTERFIELD INLET A","2300710","2023-02-16 11:00","2023","02","16","11:00","-40.0","","-44.2","","65","","","M","29","","40","","","M","100.82","","","","-61","","NA"
"-90.73","63.35","CHESTERFIELD INLET A","2300710","2023-02-16 12:00","2023","02","16","12:00","-39.3","","-43.6","","65","","","M","30","","39","","","M","100.83","","","","-60","","NA"
"-90.73","63.35","CHESTERFIELD INLET A","2300710","2023-02-16 13:00","2023","02","16","13:00","-38.8","","-43.1","","65","","","M","30","","34","","","M","100.85","","","","-58","","NA"
"-90.73","63.35","CHESTERFIELD INLET A","2300710","2023-02-16 14:00","2023","02","16","14:00","-38.4","","-42.6","","66","","","M","29","","41","","","M","100.88","","","","-59","","NA"
"-90.73","63.35","CHESTERFIELD INLET A","2300710","2023-02-16 15:00","2023","02","16","15:00","-38.2","","-42.4","","66","","","M","29","","36","","","M","100.89","","","","-58","","NA"
"-90.73","63.35","CHESTERFIELD INLET A","2300710","2023-02-16 16:00","2023","02","16","16:00","-38.1","","-42.3","","66","","","M","29","","31","","","M","100.90","","","","-56","","NA"
"-90.73","63.35","CHESTERFIELD INLET A","2300710","2023-02-16 17:00","2023","02","16","17:00","-38.8","","-43.0","","66","","","M","28","","32","","","M","100.96","","","","-58","","NA"
"-90.73","63.35","CHESTERFIELD INLET A","2300710","2023-02-16 18:00","2023","02","16","18:00","-39.2","","-43.3","","66","","0.0","","28","","34","","","M","100.94","","","","-59","","NA"
"-90.73","63.35","CHESTERFIELD INLET A","2300710","2023-02-16 19:00","2023","02","16","19:00","-39.4","","-43.4","","66","","0.0","","29","","25","","","M","100.95","","","","-57","","NA"
"-90.73","63.35","CHESTERFIELD INLET A","2300710","2023-02-16 20:00","2023","02","16","20:00","-39.8","","-43.8","","66","","0.0","","29","","30","","","M","100.92","","","","-58","","NA"
"-90.73","63.35","CHESTERFIELD INLET A","2300710","2023-02-16 21:00","2023","02","16","21:00","-40.3","","-44.4","","66","","0.0","","29","","32","","","M","100.91","","","","-60","","NA"
"-90.73","63.35","CHESTERFIELD INLET A","2300710","2023-02-16 22:00","2023","02","16","22:00","-40.8","","-44.9","","66","","0.0","","30","","37","","","M","100.88","","","","-61","","NA"
"-90.73","63.35","CHESTERFIELD INLET A","2300710","2023-02-16 23:00","2023","02","16","23:00","-41.2","","-45.2","","66","","0.0","","30","","31","","","M","100.91","","","","-60","","NA"
"-90.73","63.35","CHESTERFIELD INLET A","2300710","2023-02-17 00:00","2023","02","17","00:00","-41.4","","-45.5","","66","","0.0","","29","","36","","","M","100.91","","","","-62","","NA"
"-90.73","63.35","CHESTERFIELD INLET A","2300710","2023-02-17 01:00","2023","02","17","01:00","-41.7","","-45.9","","65","","0.0","","29","","25","","","M","100.97","","","","-59","","NA"
"-90.73","63.35","CHESTERFIELD INLET A","2300710","2023-02-17 02:00","2023","02","17","02:00","-42.1","","-46.3","","65","","0.0","","30","","23","","","M","100.99","","","","-59","","NA"
"-90.73","63.35","CHESTERFIELD INLET A","2300710","2023-02-17 03:00","2023","02","17","03:00","-42.2","","-46.4","","65","","0.0","","30","","21","","","M","101.02","","","","-59","","NA"
"-90.73","63.35","CHESTERFIELD INLET A","2300710","2023-02-17 04:00","2023","02","17","04:00","-42.3","","-46.5","","65","","0.0","","30","","25","","","M","101.02","","","","-60","","NA"
"-90.73","63.35","CHESTERFIELD INLET A","2300710","2023-02-17 05:00","2023","02","17","05:00","-42.7","","-46.9","","65","","0.0","","29","","22","","","M","101.02","","","","-60","","NA"
"-90.73","63.35","CHESTERFIELD INLET A","2300710","2023-02-17 06:00","2023","02","17","06:00","-42.7","","-46.9","","64","","0.0","","28","","12","","","M","101.00","","","","-56","","NA"
"-90.73","63.35","CHESTERFIELD INLET A","2300710","2023-02-17 07:00","2023","02","17","07:00","-42.3","","-46.5","","65","","","M","29","","26","","","M","100.99","","","","-61","","NA"
"-90.73","63.35","CHESTERFIELD INLET A","2300710","2023-02-17 08:00","2023","02","17","08:00","-42.3","","-46.5","","65","","","M","28","","26","","","M","100.98","","","","-61","","NA"
"-90.73","63.35","CHESTERFIELD INLET A","2300710","2023-02-17 09:00","2023","02","17","09:00","-41.8","","-46.0","","65","","","M","30","","26","","","M","100.94","","","","-60","","NA"
"-90.73","63.35","CHESTERFIELD INLET A","2300710","2023-02-17 10:00","2023","02","17","10:00","-41.5","","-45.8","","64","","","M","30","","30","","","M","100.95","","","","-61","","NA"
"-90.73","63.35","CHESTERFIELD INLET A","2300710","2023-02-17 11:00","2023","02","17","11:00","-41.1","","-45.5","","64","","0.0","","30","","35","","","M","100.90","","","","-61","","NA"
"-90.73","63.35","CHESTERFIELD INLET A","2300710","2023-02-17 12:00","2023","02","17","12:00","-40.7","","-45.1","","64","","0.0","","30","","37","","","M","100.86","","","","-61","","NA"
"-90.73","63.35","CHESTERFIELD INLET A","2300710","2023-02-17 13:00","2023","02","17","13:00","-39.8","","-44.3","","64","","0.0","","30","","32","","","M","100.88","","","","-59","","NA"
"-90.73","63.35","CHESTERFIELD INLET A","2300710","2023-02-17 14:00","2023","02","17","14:00","-39.3","","-43.7","","64","","0.0","","29","","30","","","M","100.85","","","","-58","","NA"
"-90.73","63.35","CHESTERFIELD INLET A","2300710","2023-02-17 15:00","2023","02","17","15:00","-39.5","","-43.9","","64","","0.0","","29","","30","","","M","100.84","","","","-58","","NA"
"-90.73","63.35","CHESTERFIELD INLET A","2300710","2023-02-17 16:00","2023","02","17","16:00","-39.8","","-44.1","","65","","0.0","","29","","25","","","M","100.85","","","","-57","","NA"
"-90.73","63.35","CHESTERFIELD INLET A","2300710","2023-02-17 17:00","2023","02","17","17:00","-40.5","","-44.6","","65","","0.0","","29","","24","","","M","100.85","","","","-58","","NA"
"-90.73","63.35","CHESTERFIELD INLET A","2300710","2023-02-17 18:00","2023","02","17","18:00","-40.3","","-44.4","","66","","0.0","","29","","26","","","M","100.83","","","","-58","","NA"
"-90.73","63.35","CHESTERFIELD INLET A","2300710","2023-02-17 19:00","2023","02","17","19:00","-40.7","","-44.8","","66","","0.0","","29","","23","","","M","100.85","","","","-58","","NA"
"-90.73","63.35","CHESTERFIELD INLET A","2300710","2023-02-17 20:00","2023","02","17","20:00","-41.0","","-45.1","","66","","0.0","","29","","26","","","M","100.78","","","","-59","","NA"
"-90.73","63.35","CHESTERFIELD INLET A","2300710","2023-02-17 21:00","2023","02","17","21:00","-40.9","","-45.0","","66","","0.0","","30","","27","","","M","100.72","","","","-59","","NA"
"-90.73","63.35","CHESTERFIELD INLET A","2300710","2023-02-17 22:00","2023","02","17","22:00","-41.5","","-45.7","","65","","0.0","","30","","31","","","M","100.68","","","","-61","","NA"
"-90.73","63.35","CHESTERFIELD INLET A","2300710","2023-02-17 23:00","2023","02","17","23:00","-41.7","","-45.9","","65","","0.0","","29","","24","","","M","100.64","","","","-59","","NA"
"-90.73","63.35","CHESTERFIELD INLET A","2300710","2023-02-18 00:00","2023","02","18","00:00","-41.7","","-45.9","","65","","0.0","","30","","22","","","M","100.62","","","","-59","","NA"
"-90.73","63.35","CHESTERFIELD INLET A","2300710","2023-02-18 01:00","2023","02","18","01:00","-42.2","","-46.4","","65","","0.0","","29","","23","","","M","100.58","","","","-60","","NA"
"-90.73","63.35","CHESTERFIELD INLET A","2300710","2023-02-18 02:00","2023","02","18","02:00","-42.5","","-46.8","","64","","0.0","","29","","28","","","M","100.56","","","","-61","","NA"
"-90.73","63.35","CHESTERFIELD INLET A","2300710","2023-02-18 03:00","2023","02","18","03:00","-42.1","","-46.3","","65","","0.0","","30","","31","","","M","100.55","","","","-62","","NA"
"-90.73","63.35","CHESTERFIELD INLET A","2300710","2023-02-18 04:00","2023","02","18","04:00","-42.3","","-46.5","","65","","0.0","","30","","28","","","M","100.56","","","","-61","","NA"
"-90.73","63.35","CHESTERFIELD INLET A","2300710","2023-02-18 05:00","2023","02","18","05:00","-42.5","","-46.7","","64","","0.0","","31","","31","","","M","100.52","","","","-62","","NA"
"-90.73","63.35","CHESTERFIELD INLET A","2300710","2023-02-18 06:00","2023","02","18","06:00","-42.1","","-46.4","","64","","0.0","","30","","28","","","M","100.51","","","","-61","","NA"
"-90.73","63.35","CHESTERFIELD INLET A","2300710","2023-02-18 07:00","2023","02","18","07:00","-42.0","","-46.3","","64","","0.0","","31","","28","","","M","100.53","","","","-61","","NA"
"-90.73","63.35","CHESTERFIELD INLET A","2300710","2023-02-18 08:00","2023","02","18","08:00","-42.3","","-46.6","","64","","0.0","","29","","22","","","M","100.55","","","","-59","","NA"
"-90.73","63.35","CHESTERFIELD INLET A","2300710","2023-02-18 09:00","2023","02","18","09:00","-42.5","","-46.9","","63","","","M","30","","24","","","M","100.54","","","","-60","","NA"
"-90.73","63.35","CHESTERFIELD INLET A","2300710","2023-02-18 10:00","2023","02","18","10:00","-42.0","","-46.5","","63","","","M","30","","20","","","M","100.54","","","","-58","","NA"
"-90.73","63.35","CHESTERFIELD INLET A","2300710","2023-02-18 11:00","2023","02","18","11:00","-41.0","","-45.5","","63","","","M","30","","24","","","M","100.53","","","","-58","","NA"
"-90.73","63.35","CHESTERFIELD INLET A","2300710","2023-02-18 12:00","2023","02","18","12:00","-40.6","","-45.1","","63","","","M","31","","23","","","M","100.53","","","","-57","","NA"
"-90.73","63.35","CHESTERFIELD INLET A","2300710","2023-02-18 13:00","2023","02","18","13:00","-39.9","","-44.5","","63","","","M","31","","20","","","M","100.54","","","","-56","","NA"
"-90.73","63.35","CHESTERFIELD INLET A","2300710","2023-02-18 14:00","2023","02","18","14:00","-39.6","","-44.2","","63","","0.0","","31","","18","","","M","100.56","","","","-54","","NA"
"-90.73","63.35","CHESTERFIELD INLET A","2300710","2023-02-18 15:00","2023","02","18","15:00","-39.7","","-44.2","","63","","0.0","","31","","23","","","M","100.57","","","","-56","","NA"
"-90.73","63.35","CHESTERFIELD INLET A","2300710","2023-02-18 16:00","2023","02","18","16:00","-40.4","","-44.8","","64","","0.0","","30","","21","","","M","100.61","","","","-57","","NA"
"-90.73","63.35","CHESTERFIELD INLET A","2300710","2023-02-18 17:00","2023","02","18","17:00","-41.5","","-45.7","","65","","0.0","","29","","21","","","M","100.63","","","","-58","","NA"
"-90.73","63.35","CHESTERFIELD INLET A","2300710","2023-02-18 18:00","2023","02","18","18:00","-42.0","","-46.2","","65","","0.0","","30","","24","","","M","100.64","","","","-60","","NA"
"-90.73","63.35","CHESTERFIELD INLET A","2300710","2023-02-18 19:00","2023","02","18","19:00","-42.5","","-46.7","","64","","0.0","","30","","21","","","M","100.65","","","","-59","","NA"
"-90.73","63.35","CHESTERFIELD INLET A","2300710","2023-02-18 20:00","2023","02","18","20:00","-42.5","","-46.7","","65","","0.0","","30","","25","","","M","100.64","","","","-61","","NA"
"-90.73","63.35","CHESTERFIELD INLET A","2300710","2023-02-18 21:00","2023","02","18","21:00","-42.6","","-46.9","","64","","0.0","","29","","30","","","M","100.62","","","","-62","","NA"
"-90.73","63.35","CHESTERFIELD INLET A","2300710","2023-02-18 22:00","2023","02","18","22:00","-42.7","","-46.9","","64","","0.0","","29","","30","","","M","100.61","","","","-62","","NA"
"-90.73","63.35","CHESTERFIELD INLET A","2300710","2023-02-18 23:00","2023","02","18","23:00","-42.7","","-46.8","","65","","0.0","","29","","31","","","M","100.60","","","","-62","","NA"
"-90.73","63.35","CHESTERFIELD INLET A","2300710","2023-02-19 00:00","2023","02","19","00:00","-42.8","","-47.0","","65","","0.0","","29","","33","","","M","100.54","","","","-63","","NA"
"-90.73","63.35","CHESTERFIELD INLET A","2300710","2023-02-19 01:00","2023","02","19","01:00","-43.2","","-47.3","","65","","0.0","","29","","31","","","M","100.55","","","","-63","","NA"
"-90.73","63.35","CHESTERFIELD INLET A","2300710","2023-02-19 02:00","2023","02","19","02:00","-42.9","","-47.0","","65","","0.0","","29","","34","","","M","100.53","","","","-63","","NA"
"-90.73","63.35","CHESTERFIELD INLET A","2300710","2023-02-19 03:00","2023","02","19","03:00","-42.0","","-46.1","","65","","0.0","","29","","34","","","M","100.54","","","","-62","","NA"
"-90.73","63.35","CHESTERFIELD INLET A","2300710","2023-02-19 04:00","2023","02","19","04:00","-41.4","","-45.6","","65","","0.0","","29","","32","","","M","100.52","","","","-61","","NA"
"-90.73","63.35","CHESTERFIELD INLET A","2300710","2023-02-19 05:00","2023","02","19","05:00","-40.9","","-45.0","","65","","0.0","","30","","26","","","M","100.51","","","","-59","","NA"
"-90.73","63.35","CHESTERFIELD INLET A","2300710","2023-02-19 06:00","2023","02","19","06:00","-39.6","","-43.8","","66","","0.0","","29","","27","","","M","100.45","","","","-57","","NA"
"-90.73","63.35","CHESTERFIELD INLET A","2300710","2023-02-19 07:00","2023","02","19","07:00","-39.1","","-43.3","","65","","0.0","","29","","27","","","M","100.39","","","","-57","","NA"
"-90.73","63.35","CHESTERFIELD INLET A","2300710","2023-02-19 08:00","2023","02","19","08:00","-38.7","","-42.9","","66","","0.0","","29","","22","","","M","100.35","","","","-55","","NA"
"-90.73","63.35","CHESTERFIELD INLET A","2300710","2023-02-19 09:00","2023","02","19","09:00","-37.9","","-42.2","","65","","","M","28","","33","","","M","100.29","","","","-57","","NA"
"-90.73","63.35","CHESTERFIELD INLET A","2300710","2023-02-19 10:00","2023","02","19","10:00","-37.5","","-41.8","","65","","","M","29","","25","","","M","100.28","","","","-54","","NA"
"-90.73","63.35","CHESTERFIELD INLET A","2300710","2023-02-19 11:00","2023","02","19","11:00","-36.9","","-41.4","","64","","","M","29","","28","","","M","100.23","","","","-54","","NA"
"-90.73","63.35","CHESTERFIELD INLET A","2300710","2023-02-19 12:00","2023","02","19","12:00","-37.0","","-41.4","","64","","","M","29","","25","","","M","100.23","","","","-53","","NA"
"-90.73","63.35","CHESTERFIELD INLET A","2300710","2023-02-19 13:00","2023","02","19","13:00","-36.7","","-41.1","","64","","","M","28","","28","","","M","100.20","","","","-54","","NA"
"-90.73","63.35","CHESTERFIELD INLET A","2300710","2023-02-19 14:00","2023","02","19","14:00","-36.6","","-41.1","","64","","","M","29","","22","","","M","100.19","","","","-52","","NA"
"-90.73","63.35","CHESTERFIELD INLET A","2300710","2023-02-19 15:00","2023","02","19","15:00","-37.0","","-41.4","","65","","","M","29","","23","","","M","100.14","","","","-53","","NA"
"-90.73","63.35","CHESTERFIELD INLET A","2300710","2023-02-19 16:00","2023","02","19","16:00","-38.0","","-42.4","","65","","0.0","","29","","14","","","M","100.16","","","","-51","","NA"
"-90.73","63.35","CHESTERFIELD INLET A","2300710","2023-02-19 17:00","2023","02","19","17:00","-39.0","","-43.1","","66","","0.0","","30","","18","","","M","100.18","","","","-54","","NA"
"-90.73","63.35","CHESTERFIELD INLET A","2300710","2023-02-19 18:00","2023","02","19","18:00","-40.1","","-44.3","","66","","0.0","","29","","27","","","M","100.14","","","","-58","","NA"
"-90.73","63.35","CHESTERFIELD INLET A","2300710","2023-02-19 19:00","2023","02","19","19:00","-40.8","","-45.0","","65","","0.0","","30","","20","","","M","100.13","","","","-57","","NA"
"-90.73","63.35","CHESTERFIELD INLET A","2300710","2023-02-19 20:00","2023","02","19","20:00","-40.6","","-44.8","","66","","0.0","","30","","26","","","M","100.11","","","","-58","","NA"
"-90.73","63.35","CHESTERFIELD INLET A","2300710","2023-02-19 21:00","2023","02","19","21:00","-41.2","","-45.4","","65","","0.0","","30","","30","","","M","100.09","","","","-60","","NA"
"-90.73","63.35","CHESTERFIELD INLET A","2300710","2023-02-19 22:00","2023","02","19","22:00","-42.0","","-46.2","","65","","0.0","","30","","23","","","M","100.09","","","","-59","","NA"
"-90.73","63.35","CHESTERFIELD INLET A","2300710","2023-02-19 23:00","2023","02","19","23:00","-42.4","","-46.7","","64","","0.0","","29","","23","","","M","100.06","","","","-60","","NA"
"-90.73","63.35","CHESTERFIELD INLET A","2300710","2023-02-20 00:00","2023","02","20","00:00","-42.7","","-47.0","","64","","0.0","","30","","28","","","M","100.07","","","","-62","","NA"
"-90.73","63.35","CHESTERFIELD INLET A","2300710","2023-02-20 01:00","2023","02","20","01:00","-43.5","","-47.8","","64","","0.0","","29","","24","","","M","100.04","","","","-62","","NA"
"-90.73","63.35","CHESTERFIELD INLET A","2300710","2023-02-20 02:00","2023","02","20","02:00","-43.9","","-48.2","","64","","0.0","","29","","27","","","M","100.04","","","","-63","","NA"
"-90.73","63.35","CHESTERFIELD INLET A","2300710","2023-02-20 03:00","2023","02","20","03:00","-44.0","","-48.3","","64","","0.0","","30","","29","","","M","100.05","","","","-64","","NA"
"-90.73","63.35","CHESTERFIELD INLET A","2300710","2023-02-20 04:00","2023","02","20","04:00","-44.0","","-48.3","","64","","0.0","","30","","26","","","M","100.06","","","","-63","","NA"
"-90.73","63.35","CHESTERFIELD INLET A","2300710","2023-02-20 05:00","2023","02","20","05:00","-44.2","","-48.4","","64","","0.0","","30","","25","","","M","100.05","","","","-63","","NA"
"-90.73","63.35","CHESTERFIELD INLET A","2300710","2023-02-20 06:00","2023","02","20","06:00","-44.2","","-48.5","","64","","0.0","","29","","25","","","M","100.09","","","","-63","","NA"
"-90.73","63.35","CHESTERFIELD INLET A","2300710","2023-02-20 07:00","2023","02","20","07:00","-44.5","","-48.8","","64","","","M","29","","23","","","M","100.11","","","","-62","","NA"
"-90.73","63.35","CHESTERFIELD INLET A","2300710","2023-02-20 08:00","2023","02","20","08:00","-44.3","","-48.5","","64","","","M","29","","23","","","M","100.10","","","","-62","","NA"
"-90.73","63.35","CHESTERFIELD INLET A","2300710","2023-02-20 09:00","2023","02","20","09:00","-43.2","","-47.6","","64","","","M","30","","22","","","M","100.12","","","","-60","","NA"
"-90.73","63.35","CHESTERFIELD INLET A","2300710","2023-02-20 10:00","2023","02","20","10:00","-42.5","","-47.0","","63","","","M","29","","22","","","M","100.14","","","","-60","","NA"
"-90.73","63.35","CHESTERFIELD INLET A","2300710","2023-02-20 11:00","2023","02","20","11:00","-41.7","","-46.2","","63","","","M","30","","25","","","M","100.14","","","","-59","","NA"
"-90.73","63.35","CHESTERFIELD INLET A","2300710","2023-02-20 12:00","2023","02","20","12:00","-41.0","","-45.4","","64","","","M","31","","21","","","M","100.16","","","","-57","","NA"
"-90.73","63.35","CHESTERFIELD INLET A","2300710","2023-02-20 13:00","2023","02","20","13:00","-40.4","","-44.9","","64","","","M","31","","20","","","M","100.16","","","","-56","","NA"
"-90.73","63.35","CHESTERFIELD INLET A","2300710","2023-02-20 14:00","2023","02","20","14:00","-40.0","","-44.4","","64","","","M","31","","18","","","M","100.18","","","","-55","","NA"
"-90.73","63.35","CHESTERFIELD INLET A","2300710","2023-02-20 15:00","2023","02","20","15:00","-40.0","","-44.3","","65","","","M","31","","17","","","M","100.22","","","","-55","","NA"
"-90.73","63.35","CHESTERFIELD INLET A","2300710","2023-02-20 16:00","2023","02","20","16:00","-40.0","","-44.2","","65","","","M","31","","21","","","M","100.24","","","","-56","","NA"
"-90.73","63.35","CHESTERFIELD INLET A","2300710","2023-02-20 17:00","2023","02","20","17:00","-40.3","","-44.4","","66","","","M","31","","19","","","M","100.25","","","","-56","","NA"
"-90.73","63.35","CHESTERFIELD INLET A","2300710","2023-02-20 18:00","2023","02","20","18:00","-40.5","","-44.5","","66","","0.0","","30","","22","","","M","100.29","","","","-57","","NA"
"-90.73","63.35","CHESTERFIELD INLET A","2300710","2023-02-20 19:00","2023","02","20","19:00","-40.2","","-44.2","","66","","0.0","","31","","17","","","M","100.31","","","","-55","","NA"
"-90.73","63.35","CHESTERFIELD INLET A","2300710","2023-02-20 20:00","2023","02","20","20:00","-38.1","","-42.1","","67","","0.0","","35","","22","","","M","100.30","","","","-54","","NA"
"-90.73","63.35","CHESTERFIELD INLET A","2300710","2023-02-20 21:00","2023","02","20","21:00","-38.4","","-42.5","","67","","0.0","","36","","28","","","M","100.32","","","","-56","","NA"
"-90.73","63.35","CHESTERFIELD INLET A","2300710","2023-02-20 22:00","2023","02","20","22:00","-39.2","","-43.3","","66","","0.0","","36","","25","","","M","100.32","","","","-56","","NA"
"-90.73","63.35","CHESTERFIELD INLET A","2300710","2023-02-20 23:00","2023","02","20","23:00","-39.2","","-43.3","","66","","0.0","","36","","24","","","M","100.34","","","","-56","","NA"
"-90.73","63.35","CHESTERFIELD INLET A","2300710","2023-02-21 00:00","2023","02","21","00:00","-39.2","","-43.3","","66","","0.0","","36","","25","","","M","100.36","","","","-56","","NA"
"-90.73","63.35","CHESTERFIELD INLET A","2300710","2023-02-21 01:00","2023","02","21","01:00","-39.1","","-43.2","","66","","0.0","","36","","28","","","M","100.40","","","","-57","","NA"
"-90.73","63.35","CHESTERFIELD INLET A","2300710","2023-02-21 02:00","2023","02","21","02:00","-39.4","","-43.4","","66","","0.0","","36","","25","","","M","100.44","","","","-57","","NA"
"-90.73","63.35","CHESTERFIELD INLET A","2300710","2023-02-21 03:00","2023","02","21","03:00","-39.4","","-43.5","","66","","0.0","","36","","25","","","M","100.50","","","","-57","","NA"
"-90.73","63.35","CHESTERFIELD INLET A","2300710","2023-02-21 04:00","2023","02","21","04:00","-39.6","","-43.7","","66","","0.0","","35","","23","","","M","100.51","","","","-56","","NA"
"-90.73","63.35","CHESTERFIELD INLET A","2300710","2023-02-21 05:00","2023","02","21","05:00","-40.3","","-44.5","","66","","0.0","","34","","18","","","M","100.57","","","","-55","","NA"
"-90.73","63.35","CHESTERFIELD INLET A","2300710","2023-02-21 06:00","2023","02","21","06:00","-40.4","","-44.6","","65","","0.0","","34","","27","","","M","100.59","","","","-58","","NA"
"-90.73","63.35","CHESTERFIELD INLET A","2300710","2023-02-21 07:00","2023","02","21","07:00","-40.4","","-44.6","","65","","","M","33","","26","","","M","100.64","","","","-58","","NA"
"-90.73","63.35","CHESTERFIELD INLET A","2300710","2023-02-21 08:00","2023","02","21","08:00","-40.1","","-44.4","","65","","","M","33","","17","","","M","100.69","","","","-55","","NA"
"-90.73","63.35","CHESTERFIELD INLET A","2300710","2023-02-21 09:00","2023","02","21","09:00","-39.3","","-43.5","","65","","","M","34","","22","","","M","100.72","","","","-56","","NA"
"-90.73","63.35","CHESTERFIELD INLET A","2300710","2023-02-21 10:00","2023","02","21","10:00","-38.7","","-43.1","","64","","","M","29","","14","","","M","100.77","","","","-52","","NA"
"-90.73","63.35","CHESTERFIELD INLET A","2300710","2023-02-21 11:00","2023","02","21","11:00","-38.5","","-43.0","","64","","","M","29","","18","","","M","100.77","","","","-53","","NA"
"-90.73","63.35","CHESTERFIELD INLET A","2300710","2023-02-21 12:00","2023","02","21","12:00","-38.9","","-43.3","","64","","","M","30","","23","","","M","100.78","","","","-55","","NA"
"-90.73","63.35","CHESTERFIELD INLET A","2300710","2023-02-21 13:00","2023","02","21","13:00","-39.3","","-43.8","","63","","","M","29","","26","","","M","100.80","","","","-57","","NA"
"-90.73","63.35","CHESTERFIELD INLET A","2300710","2023-02-21 14:00","2023","02","21","14:00","-39.8","","-44.2","","64","","","M","30","","25","","","M","100.82","","","","-57","","NA"
"-90.73","63.35","CHESTERFIELD INLET A","2300710","2023-02-21 15:00","2023","02","21","15:00","-39.8","","-44.3","","63","","","M","30","","25","","","M","100.85","","","","-57","","NA"
"-90.73","63.35","CHESTERFIELD INLET A","2300710","2023-02-21 16:00","2023","02","21","16:00","-40.8","","-45.2","","64","","","M","30","","23","","","M","100.90","","","","-58","","NA"
"-90.73","63.35","CHESTERFIELD INLET A","2300710","2023-02-21 17:00","2023","02","21","17:00","-42.1","","-46.5","","64","","0.0","","29","","24","","","M","100.91","","","","-60","","NA"
"-90.73","63.35","CHESTERFIELD INLET A","2300710","2023-02-21 18:00","2023","02","21","18:00","-43.0","","-47.4","","63","","0.0","","29","","21","","","M","100.91","","","","-60","","NA"
"-90.73","63.35","CHESTERFIELD INLET A","2300710","2023-02-21 19:00","2023","02","21","19:00","-43.6","","-48.0","","64","","0.0","","30","","22","","","M","100.90","","","","-61","","NA"
"-90.73","63.35","CHESTERFIELD INLET A","2300710","2023-02-21 20:00","2023","02","21","20:00","-43.8","","-48.1","","64","","0.0","","30","","23","","","M","100.89","","","","-62","","NA"
"-90.73","63.35","CHESTERFIELD INLET A","2300710","2023-02-21 21:00","2023","02","21","21:00","-44.1","","-48.3","","64","","0.0","","30","","23","","","M","100.90","","","","-62","","NA"
"-90.73","63.35","CHESTERFIELD INLET A","2300710","2023-02-21 22:00","2023","02","21","22:00","-44.0","","-48.3","","64","","0.0","","29","","23","","","M","100.94","","","","-62","","NA"
"-90.73","63.35","CHESTERFIELD INLET A","2300710","2023-02-21 23:00","2023","02","21","23:00","-44.6","","-48.9","","64","","0.0","","30","","20","","","M","100.94","","","","-62","","NA"
"-90.73","63.35","CHESTERFIELD INLET A","2300710","2023-02-22 00:00","2023","02","22","00:00","-44.7","","-49.0","","64","","0.0","","29","","22","","","M","100.94","","","","-62","","NA"
"-90.73","63.35","CHESTERFIELD INLET A","2300710","2023-02-22 01:00","2023","02","22","01:00","-45.0","","-49.3","","63","","0.0","","29","","17","","","M","100.96","","","","-61","","NA"
"-90.73","63.35","CHESTERFIELD INLET A","2300710","2023-02-22 02:00","2023","02","22","02:00","-45.3","","-49.6","","63","","0.0","","30","","21","","","M","100.96","","","","-63","","NA"
"-90.73","63.35","CHESTERFIELD INLET A","2300710","2023-02-22 03:00","2023","02","22","03:00","-45.3","","-49.6","","63","","0.0","","30","","24","","","M","101.00","","","","-64","","NA"
"-90.73","63.35","CHESTERFIELD INLET A","2300710","2023-02-22 04:00","2023","02","22","04:00","-45.2","","-49.5","","63","","0.0","","29","","22","","","M","101.02","","","","-63","","NA"
"-90.73","63.35","CHESTERFIELD INLET A","2300710","2023-02-22 05:00","2023","02","22","05:00","-45.0","","-49.2","","63","","0.0","","30","","18","","","M","101.08","","","","-61","","NA"
"-90.73","63.35","CHESTERFIELD INLET A","2300710","2023-02-22 06:00","2023","02","22","06:00","-45.5","","-49.8","","63","","0.0","","29","","24","","","M","101.08","","","","-64","","NA"
"-90.73","63.35","CHESTERFIELD INLET A","2300710","2023-02-22 07:00","2023","02","22","07:00","-45.4","","-49.8","","63","","","M","29","","27","","","M","101.14","","","","-65","","NA"
"-90.73","63.35","CHESTERFIELD INLET A","2300710","2023-02-22 08:00","2023","02","22","08:00","-45.6","","-49.9","","63","","","M","29","","26","","","M","101.19","","","","-65","","NA"
"-90.73","63.35","CHESTERFIELD INLET A","2300710","2023-02-22 09:00","2023","02","22","09:00","-44.8","","-49.2","","62","","","M","29","","20","","","M","101.24","","","","-62","","NA"
"-90.73","63.35","CHESTERFIELD INLET A","2300710","2023-02-22 10:00","2023","02","22","10:00","-43.5","","-48.0","","63","","","M","29","","31","","","M","101.29","","","","-63","","NA"
"-90.73","63.35","CHESTERFIELD INLET A","2300710","2023-02-22 11:00","2023","02","22","11:00","-42.1","","-46.6","","63","","","M","30","","27","","","M","101.32","","","","-61","","NA"
"-90.73","63.35","CHESTERFIELD INLET A","2300710","2023-02-22 12:00","2023","02","22","12:00","-41.1","","-45.5","","64","","","M","30","","32","","","M","101.35","","","","-61","","NA"
"-90.73","63.35","CHESTERFIELD INLET A","2300710","2023-02-22 13:00","2023","02","22","13:00","-40.2","","-44.6","","64","","","M","29","","30","","","M","101.43","","","","-59","","NA"
"-90.73","63.35","CHESTERFIELD INLET A","2300710","2023-02-22 14:00","2023","02","22","14:00","-39.3","","-43.7","","64","","","M","29","","29","","","M","101.47","","","","-57","","NA"
"-90.73","63.35","CHESTERFIELD INLET A","2300710","2023-02-22 15:00","2023","02","22","15:00","-38.7","","-42.9","","66","","","M","30","","38","","","M","101.51","","","","-59","","NA"
"-90.73","63.35","CHESTERFIELD INLET A","2300710","2023-02-22 16:00","2023","02","22","16:00","-38.2","","-42.4","","66","","","M","30","","32","","","M","101.57","","","","-57","","NA"
"-90.73","63.35","CHESTERFIELD INLET A","2300710","2023-02-22 17:00","2023","02","22","17:00","-38.4","","-42.5","","66","","","M","29","","30","","","M","101.63","","","","-57","","NA"
"-90.73","63.35","CHESTERFIELD INLET A","2300710","2023-02-22 18:00","2023","02","22","18:00","-38.9","","-43.0","","66","","0.0","","29","","34","","","M","101.65","","","","-58","","NA"
"-90.73","63.35","CHESTERFIELD INLET A","2300710","2023-02-22 19:00","2023","02","22","19:00","-38.9","","-42.9","","67","","0.0","","30","","30","","","M","101.69","","","","-57","","NA"
"-90.73","63.35","CHESTERFIELD INLET A","2300710","2023-02-22 20:00","2023","02","22","20:00","-39.3","","-43.4","","66","","0.0","","29","","25","","","M","101.77","","","","-56","","NA"
"-90.73","63.35","CHESTERFIELD INLET A","2300710","2023-02-22 21:00","2023","02","22","21:00","-39.6","","-43.7","","66","","0.0","","29","","32","","","M","101.78","","","","-59","","NA"
"-90.73","63.35","CHESTERFIELD INLET A","2300710","2023-02-22 22:00","2023","02","22","22:00","-39.4","","-43.6","","66","","0.0","","30","","33","","","M","101.80","","","","-59","","NA"
"-90.73","63.35","CHESTERFIELD INLET A","2300710","2023-02-22 23:00","2023","02","22","23:00","-39.2","","-43.3","","66","","0.0","","30","","28","","","M","101.86","","","","-57","","NA"
"-90.73","63.35","CHESTERFIELD INLET A","2300710","2023-02-23 00:00","2023","02","23","00:00","-39.1","","-43.2","","66","","0.0","","29","","33","","","M","101.88","","","","-58","","NA"
"-90.73","63.35","CHESTERFIELD INLET A","2300710","2023-02-23 01:00","2023","02","23","01:00","-39.2","","-43.4","","66","","0.0","","30","","34","","","M","101.90","","","","-59","","NA"
"-90.73","63.35","CHESTERFIELD INLET A","2300710","2023-02-23 02:00","2023","02","23","02:00","-38.5","","-42.6","","66","","0.0","","29","","34","","","M","101.93","","","","-58","","NA"
"-90.73","63.35","CHESTERFIELD INLET A","2300710","2023-02-23 03:00","2023","02","23","03:00","-38.8","","-42.9","","66","","0.0","","30","","27","","","M","101.96","","","","-56","","NA"
"-90.73","63.35","CHESTERFIELD INLET A","2300710","2023-02-23 04:00","2023","02","23","04:00","-38.4","","-42.5","","67","","0.0","","29","","25","","","M","101.97","","","","-55","","NA"
"-90.73","63.35","CHESTERFIELD INLET A","2300710","2023-02-23 05:00","2023","02","23","05:00","-38.6","","-42.7","","67","","0.0","","29","","25","","","M","101.98","","","","-56","","NA"
"-90.73","63.35","CHESTERFIELD INLET A","2300710","2023-02-23 06:00","2023","02","23","06:00","-38.6","","-42.6","","67","","0.0","","30","","35","","","M","101.96","","","","-58","","NA"
"-90.73","63.35","CHESTERFIELD INLET A","2300710","2023-02-23 07:00","2023","02","23","07:00","-38.9","","-42.9","","67","","","M","30","","37","","","M","101.90","","","","-59","","NA"
"-90.73","63.35","CHESTERFIELD INLET A","2300710","2023-02-23 08:00","2023","02","23","08:00","-39.3","","-43.3","","66","","","M","29","","43","","","M","101.87","","","","-61","","NA"
"-90.73","63.35","CHESTERFIELD INLET A","2300710","2023-02-23 09:00","2023","02","23","09:00","-38.9","","-43.0","","66","","","M","30","","36","","","M","101.90","","","","-59","","NA"
"-90.73","63.35","CHESTERFIELD INLET A","2300710","2023-02-23 10:00","2023","02","23","10:00","-38.2","","-42.4","","66","","","M","30","","38","","","M","101.86","","","","-58","","NA"
"-90.73","63.35","CHESTERFIELD INLET A","2300710","2023-02-23 11:00","2023","02","23","11:00","-37.1","","-41.3","","66","","","M","30","","45","","","M","101.81","","","","-58","","NA"
"-90.73","63.35","CHESTERFIELD INLET A","2300710","2023-02-23 12:00","2023","02","23","12:00","-36.2","","-40.4","","66","","0.0","","30","","47","","","M","101.78","","","","-57","","NA"
"-90.73","63.35","CHESTERFIELD INLET A","2300710","2023-02-23 13:00","2023","02","23","13:00","-35.7","","-39.9","","66","","0.0","","30","","47","","","M","101.72","","","","-56","","NA"
"-90.73","63.35","CHESTERFIELD INLET A","2300710","2023-02-23 14:00","2023","02","23","14:00","-35.3","","-39.5","","66","","0.0","","30","","39","","","M","101.74","","","","-54","","NA"
"-90.73","63.35","CHESTERFIELD INLET A","2300710","2023-02-23 15:00","2023","02","23","15:00","-35.0","","-39.2","","67","","0.0","","30","","37","","","M","101.69","","","","-54","","NA"
"-90.73","63.35","CHESTERFIELD INLET A","2300710","2023-02-23 16:00","2023","02","23","16:00","-34.8","","-38.8","","68","","0.0","","30","","30","","","M","101.66","","","","-52","","NA"
"-90.73","63.35","CHESTERFIELD INLET A","2300710","2023-02-23 17:00","2023","02","23","17:00","-34.7","","-38.7","","68","","0.0","","29","","35","","","M","101.59","","","","-53","","NA"
"-90.73","63.35","CHESTERFIELD INLET A","2300710","2023-02-23 18:00","2023","02","23","18:00","-34.1","","-38.0","","69","","0.0","","29","","36","","","M","101.51","","","","-52","","NA"
"-90.73","63.35","CHESTERFIELD INLET A","2300710","2023-02-23 19:00","2023","02","23","19:00","-33.4","","-37.2","","69","","0.0","","29","","43","","","M","101.41","","","","-53","","NA"
"-90.73","63.35","CHESTERFIELD INLET A","2300710","2023-02-23 20:00","2023","02","23","20:00","-32.4","","-36.2","","70","","0.0","","30","","39","","","M","101.35","","","","-51","","NA"
"-90.73","63.35","CHESTERFIELD INLET A","2300710","2023-02-23 21:00","2023","02","23","21:00","-31.4","","-35.1","","70","","0.0","","30","","42","","","M","101.25","","","","-50","","NA"
"-90.73","63.35","CHESTERFIELD INLET A","2300710","2023-02-23 22:00","2023","02","23","22:00","-31.4","","-35.2","","70","","0.0","","30","","43","","","M","101.24","","","","-50","","NA"
"-90.73","63.35","CHESTERFIELD INLET A","2300710","2023-02-23 23:00","2023","02","23","23:00","-32.0","","-35.8","","70","","0.0","","30","","41","","","M","101.20","","","","-50","","NA"
"-90.73","63.35","CHESTERFIELD INLET A","2300710","2023-02-24 00:00","2023","02","24","00:00","-32.4","","-36.2","","70","","0.0","","30","","35","","","M","101.15","","","","-50","","NA"
"-90.73","63.35","CHESTERFIELD INLET A","2300710","2023-02-24 01:00","2023","02","24","01:00","-32.9","","-36.7","","70","","0.0","","29","","35","","","M","101.10","","","","-50","","NA"
"-90.73","63.35","CHESTERFIELD INLET A","2300710","2023-02-24 02:00","2023","02","24","02:00","-33.0","","-36.7","","70","","0.0","","29","","41","","","M","100.99","","","","-52","","NA"
"-90.73","63.35","CHESTERFIELD INLET A","2300710","2023-02-24 03:00","2023","02","24","03:00","-32.6","","-36.4","","70","","0.0","","30","","39","","","M","100.94","","","","-51","","NA"
"-90.73","63.35","CHESTERFIELD INLET A","2300710","2023-02-24 04:00","2023","02","24","04:00","-32.4","","-36.2","","70","","0.0","","29","","37","","","M","100.87","","","","-50","","NA"
"-90.73","63.35","CHESTERFIELD INLET A","2300710","2023-02-24 05:00","2023","02","24","05:00","-33.0","","-36.8","","70","","0.0","","30","","28","","","M","100.83","","","","-49","","NA"
"-90.73","63.35","CHESTERFIELD INLET A","2300710","2023-02-24 06:00","2023","02","24","06:00","-32.6","","-36.4","","70","","0.0","","28","","40","","","M","100.71","","","","-51","","NA"
"-90.73","63.35","CHESTERFIELD INLET A","2300710","2023-02-24 07:00","2023","02","24","07:00","-33.3","","-37.1","","69","","","M","29","","35","","","M","100.67","","","","-51","","NA"
"-90.73","63.35","CHESTERFIELD INLET A","2300710","2023-02-24 08:00","2023","02","24","08:00","-33.9","","-37.7","","69","","","M","29","","32","","","M","100.57","","","","-51","","NA"
"-90.73","63.35","CHESTERFIELD INLET A","2300710","2023-02-24 09:00","2023","02","24","09:00","-33.7","","-37.7","","69","","","M","28","","32","","","M","100.52","","","","-51","","NA"
"-90.73","63.35","CHESTERFIELD INLET A","2300710","2023-02-24 10:00","2023","02","24","10:00","-32.9","","-36.8","","69","","","M","29","","29","","","M","100.46","","","","-49","","NA"
"-90.73","63.35","CHESTERFIELD INLET A","2300710","2023-02-24 11:00","2023","02","24","11:00","-32.5","","-36.6","","68","","","M","30","","32","","","M","100.40","","","","-49","","NA"
"-90.73","63.35","CHESTERFIELD INLET A","2300710","2023-02-24 12:00","2023","02","24","12:00","-32.3","","-36.4","","68","","","M","30","","45","","","M","100.33","","","","-51","","NA"
"-90.73","63.35","CHESTERFIELD INLET A","2300710","2023-02-24 13:00","2023","02","24","13:00","-32.6","","-36.6","","68","","","M","30","","45","","","M","100.29","","","","-52","","NA"
"-90.73","63.35","CHESTERFIELD INLET A","2300710","2023-02-24 14:00","2023","02","24","14:00","-32.7","","-36.8","","68","","","M","30","","45","","","M","100.28","","","","-52","","NA"
"-90.73","63.35","CHESTERFIELD INLET A","2300710","2023-02-24 15:00","2023","02","24","15:00","-33.2","","-37.3","","68","","","M","30","","39","","","M","100.30","","","","-52","","NA"
"-90.73","63.35","CHESTERFIELD INLET A","2300710","2023-02-24 16:00","2023","02","24","16:00","-33.5","","-37.5","","68","","","M","31","","35","","","M","100.28","","","","-51","","NA"
"-90.73","63.35","CHESTERFIELD INLET A","2300710","2023-02-24 17:00","2023","02","24","17:00","-34.0","","-38.0","","68","","","M","30","","23","","","M","100.35","","","","-49","","NA"
"-90.73","63.35","CHESTERFIELD INLET A","2300710","2023-02-24 18:00","2023","02","24","18:00","-34.7","","-38.8","","68","","0.0","","29","","23","","","M","100.33","","","","-50","","NA"
"-90.73","63.35","CHESTERFIELD INLET A","2300710","2023-02-24 19:00","2023","02","24","19:00","-35.5","","-39.5","","68","","0.0","","30","","23","","","M","100.28","","","","-51","","NA"
"-90.73","63.35","CHESTERFIELD INLET A","2300710","2023-02-24 20:00","2023","02","24","20:00","-35.9","","-39.9","","68","","0.0","","30","","19","","","M","100.25","","","","-50","","NA"
"-90.73","63.35","CHESTERFIELD INLET A","2300710","2023-02-24 21:00","2023","02","24","21:00","-35.3","","-39.4","","68","","0.0","","29","","28","","","M","100.18","","","","-52","","NA"
"-90.73","63.35","CHESTERFIELD INLET A","2300710","2023-02-24 22:00","2023","02","24","22:00","-35.7","","-39.6","","68","","0.0","","29","","27","","","M","100.14","","","","-52","","NA"
"-90.73","63.35","CHESTERFIELD INLET A","2300710","2023-02-24 23:00","2023","02","24","23:00","-36.0","","-39.8","","69","","0.0","","30","","24","","","M","100.08","","","","-52","","NA"
"-90.73","63.35","CHESTERFIELD INLET A","2300710","2023-02-25 00:00","2023","02","25","00:00","-35.6","","-39.4","","69","","0.0","","29","","27","","","M","100.04","","","","-52","","NA"
"-90.73","63.35","CHESTERFIELD INLET A","2300710","2023-02-25 01:00","2023","02","25","01:00","-36.0","","-39.8","","69","","0.0","","30","","21","","","M","100.01","","","","-51","","NA"
"-90.73","63.35","CHESTERFIELD INLET A","2300710","2023-02-25 02:00","2023","02","25","02:00","-36.4","","-40.2","","69","","0.0","","29","","20","","","M","99.99","","","","-51","","NA"
"-90.73","63.35","CHESTERFIELD INLET A","2300710","2023-02-25 03:00","2023","02","25","03:00","-36.6","","-40.3","","69","","0.0","","28","","20","","","M","99.98","","","","-51","","NA"
"-90.73","63.35","CHESTERFIELD INLET A","2300710","2023-02-25 04:00","2023","02","25","04:00","-37.1","","-40.8","","69","","0.0","","28","","16","","","M","99.95","","","","-51","","NA"
"-90.73","63.35","CHESTERFIELD INLET A","2300710","2023-02-25 05:00","2023","02","25","05:00","-37.0","","-40.6","","70","","0.0","","29","","12","","","M","99.92","","","","-49","","NA"
"-90.73","63.35","CHESTERFIELD INLET A","2300710","2023-02-25 06:00","2023","02","25","06:00","-37.2","","-40.8","","70","","0.0","","20","","1","","","M","99.88","","","","-39","","NA"
"-90.73","63.35","CHESTERFIELD INLET A","2300710","2023-02-25 07:00","2023","02","25","07:00","-37.4","","-41.0","","70","","0.0","","31","","5","","","M","99.86","","","","-44","","NA"
"-90.73","63.35","CHESTERFIELD INLET A","2300710","2023-02-25 08:00","2023","02","25","08:00","-37.5","","-41.2","","69","","0.0","","30","","6","","","M","99.80","","","","-45","","NA"
"-90.73","63.35","CHESTERFIELD INLET A","2300710","2023-02-25 09:00","2023","02","25","09:00","-36.6","","-40.3","","69","","","M","1","","5","","","M","99.77","","","","-43","","NA"
"-90.73","63.35","CHESTERFIELD INLET A","2300710","2023-02-25 10:00","2023","02","25","10:00","-35.4","","-39.1","","69","","","M","34","","4","","","M","99.74","","","","-40","","NA"
"-90.73","63.35","CHESTERFIELD INLET A","2300710","2023-02-25 11:00","2023","02","25","11:00","-32.6","","-36.3","","70","","","M","30","","10","","","M","99.73","","","","-42","","NA"
"-90.73","63.35","CHESTERFIELD INLET A","2300710","2023-02-25 12:00","2023","02","25","12:00","-32.5","","-36.2","","70","","","M","33","","5","","","M","99.71","","","","-38","","NA"
"-90.73","63.35","CHESTERFIELD INLET A","2300710","2023-02-25 13:00","2023","02","25","13:00","-31.4","","-35.1","","70","","","M","32","","7","","","M","99.70","","","","-39","","NA"
"-90.73","63.35","CHESTERFIELD INLET A","2300710","2023-02-25 14:00","2023","02","25","14:00","-31.2","","-35.0","","70","","","M","30","","9","","","M","99.67","","","","-40","","NA"
"-90.73","63.35","CHESTERFIELD INLET A","2300710","2023-02-25 15:00","2023","02","25","15:00","-31.1","","-35.0","","70","","","M","33","","12","","","M","99.64","","","","-41","","NA"
"-90.73","63.35","CHESTERFIELD INLET A","2300710","2023-02-25 16:00","2023","02","25","16:00","-32.2","","-36.0","","70","","0.0","","30","","12","","","M","99.61","","","","-43","","NA"
"-90.73","63.35","CHESTERFIELD INLET A","2300710","2023-02-25 17:00","2023","02","25","17:00","-34.1","","-37.9","","70","","0.0","","32","","10","","","M","99.63","","","","-44","","NA"
"-90.73","63.35","CHESTERFIELD INLET A","2300710","2023-02-25 18:00","2023","02","25","18:00","-35.0","","-38.7","","70","","0.0","","29","","16","","","M","99.63","","","","-48","","NA"
"-90.73","63.35","CHESTERFIELD INLET A","2300710","2023-02-25 19:00","2023","02","25","19:00","-35.6","","-39.4","","69","","0.0","","28","","19","","","M","99.63","","","","-50","","NA"
"-90.73","63.35","CHESTERFIELD INLET A","2300710","2023-02-25 20:00","2023","02","25","20:00","-36.2","","-40.0","","69","","0.0","","30","","11","","","M","99.65","","","","-47","","NA"
"-90.73","63.35","CHESTERFIELD INLET A","2300710","2023-02-25 21:00","2023","02","25","21:00","-36.4","","-40.1","","69","","0.0","","29","","16","","","M","99.62","","","","-50","","NA"
"-90.73","63.35","CHESTERFIELD INLET A","2300710","2023-02-25 22:00","2023","02","25","22:00","-36.6","","-40.4","","69","","0.0","","30","","14","","","M","99.62","","","","-49","","NA"
"-90.73","63.35","CHESTERFIELD INLET A","2300710","2023-02-25 23:00","2023","02","25","23:00","-37.0","","-40.8","","69","","0.0","","29","","18","","","M","99.64","","","","-51","","NA"
"-90.73","63.35","CHESTERFIELD INLET A","2300710","2023-02-26 00:00","2023","02","26","00:00","-36.4","","-40.2","","69","","0.0","","29","","19","","","M","99.65","","","","-51","","NA"
"-90.73","63.35","CHESTERFIELD INLET A","2300710","2023-02-26 01:00","2023","02","26","01:00","-36.9","","-40.6","","69","","0.0","","30","","16","","","M","99.68","","","","-50","","NA"
"-90.73","63.35","CHESTERFIELD INLET A","2300710","2023-02-26 02:00","2023","02","26","02:00","-36.8","","-40.6","","69","","0.0","","30","","13","","","M","99.73","","","","-49","","NA"
"-90.73","63.35","CHESTERFIELD INLET A","2300710","2023-02-26 03:00","2023","02","26","03:00","-36.5","","-40.3","","69","","0.0","","29","","21","","","M","99.75","","","","-52","","NA"
"-90.73","63.35","CHESTERFIELD INLET A","2300710","2023-02-26 04:00","2023","02","26","04:00","-36.1","","-39.9","","69","","0.0","","31","","16","","","M","99.81","","","","-49","","NA"
"-90.73","63.35","CHESTERFIELD INLET A","2300710","2023-02-26 05:00","2023","02","26","05:00","-35.8","","-39.6","","69","","0.0","","29","","19","","","M","99.82","","","","-50","","NA"
"-90.73","63.35","CHESTERFIELD INLET A","2300710","2023-02-26 06:00","2023","02","26","06:00","-36.6","","-40.4","","69","","0.0","","31","","15","","","M","99.88","","","","-50","","NA"
"-90.73","63.35","CHESTERFIELD INLET A","2300710","2023-02-26 07:00","2023","02","26","07:00","-37.1","","-41.0","","69","","0.0","","30","","14","","","M","99.94","","","","-50","","NA"
"-90.73","63.35","CHESTERFIELD INLET A","2300710","2023-02-26 08:00","2023","02","26","08:00","-36.4","","-40.2","","69","","0.0","","30","","21","","","M","100.01","","","","-51","","NA"
"-90.73","63.35","CHESTERFIELD INLET A","2300710","2023-02-26 09:00","2023","02","26","09:00","-35.5","","-39.3","","69","","","M","30","","21","","","M","100.05","","","","-50","","NA"
"-90.73","63.35","CHESTERFIELD INLET A","2300710","2023-02-26 10:00","2023","02","26","10:00","-34.7","","-38.5","","69","","","M","30","","13","","","M","100.12","","","","-46","","NA"
"-90.73","63.35","CHESTERFIELD INLET A","2300710","2023-02-26 11:00","2023","02","26","11:00","-33.4","","-37.3","","69","","","M","31","","14","","","M","100.16","","","","-45","","NA"
"-90.73","63.35","CHESTERFIELD INLET A","2300710","2023-02-26 12:00","2023","02","26","12:00","-32.9","","-36.8","","69","","","M","31","","13","","","M","100.23","","","","-44","","NA"
"-90.73","63.35","CHESTERFIELD INLET A","2300710","2023-02-26 13:00","2023","02","26","13:00","-32.6","","-36.5","","69","","","M","31","","19","","","M","100.29","","","","-46","","NA"
"-90.73","63.35","CHESTERFIELD INLET A","2300710","2023-02-26 14:00","2023","02","26","14:00","-32.9","","-36.9","","68","","","M","31","","23","","","M","100.38","","","","-48","","NA"
"-90.73","63.35","CHESTERFIELD INLET A","2300710","2023-02-26 15:00","2023","02","26","15:00","-33.0","","-37.0","","68","","","M","31","","19","","","M","100.46","","","","-47","","NA"
"-90.73","63.35","CHESTERFIELD INLET A","2300710","2023-02-26 16:00","2023","02","26","16:00","-33.6","","-37.6","","68","","0.0","","31","","17","","","M","100.49","","","","-47","","NA"
"-90.73","63.35","CHESTERFIELD INLET A","2300710","2023-02-26 17:00","2023","02","26","17:00","-35.0","","-39.0","","68","","0.0","","31","","18","","","M","100.53","","","","-49","","NA"
"-90.73","63.35","CHESTERFIELD INLET A","2300710","2023-02-26 18:00","2023","02","26","18:00","-35.6","","-39.5","","68","","0.0","","31","","12","","","M","100.58","","","","-47","","NA"
"-90.73","63.35","CHESTERFIELD INLET A","2300710","2023-02-26 19:00","2023","02","26","19:00","-36.1","","-40.0","","69","","0.0","","31","","11","","","M","100.59","","","","-47","","NA"
"-90.73","63.35","CHESTERFIELD INLET A","2300710","2023-02-26 20:00","2023","02","26","20:00","-36.0","","-39.9","","69","","0.0","","33","","8","","","M","100.65","","","","-45","","NA"
"-90.73","63.35","CHESTERFIELD INLET A","2300710","2023-02-26 21:00","2023","02","26","21:00","-36.2","","-40.0","","69","","0.0","","33","","9","","","M","100.67","","","","-46","","NA"
"-90.73","63.35","CHESTERFIELD INLET A","2300710","2023-02-26 22:00","2023","02","26","22:00","-36.8","","-40.6","","69","","0.0","","31","","9","","","M","100.70","","","","-47","","NA"
"-90.73","63.35","CHESTERFIELD INLET A","2300710","2023-02-26 23:00","2023","02","26","23:00","-37.4","","-41.2","","69","","0.0","","30","","8","","","M","100.74","","","","-47","","NA"
"-90.73","63.35","CHESTERFIELD INLET A","2300710","2023-02-27 00:00","2023","02","27","00:00","-36.3","","-40.1","","69","","0.0","","30","","8","","","M","100.73","","","","-45","","NA"
"-90.73","63.35","CHESTERFIELD INLET A","2300710","2023-02-27 01:00","2023","02","27","01:00","-38.0","","-41.8","","68","","0.0","","31","","7","","","M","100.78","","","","-47","","NA"
"-90.73","63.35","CHESTERFIELD INLET A","2300710","2023-02-27 02:00","2023","02","27","02:00","-38.8","","-42.6","","68","","0.0","","31","","8","","","M","100.78","","","","-48","","NA"
"-90.73","63.35","CHESTERFIELD INLET A","2300710","2023-02-27 03:00","2023","02","27","03:00","-37.7","","-41.4","","69","","0.0","","32","","9","","","M","100.77","","","","-48","","NA"
"-90.73","63.35","CHESTERFIELD INLET A","2300710","2023-02-27 04:00","2023","02","27","04:00","-39.1","","-42.9","","69","","0.0","","31","","10","","","M","100.79","","","","-50","","NA"
"-90.73","63.35","CHESTERFIELD INLET A","2300710","2023-02-27 05:00","2023","02","27","05:00","-38.4","","-42.2","","68","","0.0","","31","","9","","","M","100.77","","","","-49","","NA"
"-90.73","63.35","CHESTERFIELD INLET A","2300710","2023-02-27 06:00","2023","02","27","06:00","-39.1","","-42.9","","68","","0.0","","33","","8","","","M","100.77","","","","-49","","NA"
"-90.73","63.35","CHESTERFIELD INLET A","2300710","2023-02-27 07:00","2023","02","27","07:00","-39.0","","-42.8","","68","","","M","30","","10","","","M","100.78","","","","-50","","NA"
"-90.73","63.35","CHESTERFIELD INLET A","2300710","2023-02-27 08:00","2023","02","27","08:00","-38.9","","-42.6","","69","","","M","31","","13","","","M","100.79","","","","-51","","NA"
"-90.73","63.35","CHESTERFIELD INLET A","2300710","2023-02-27 09:00","2023","02","27","09:00","-38.4","","-42.2","","68","","","M","32","","10","","","M","100.80","","","","-49","","NA"
"-90.73","63.35","CHESTERFIELD INLET A","2300710","2023-02-27 10:00","2023","02","27","10:00","-36.9","","-40.7","","68","","","M","31","","12","","","M","100.79","","","","-49","","NA"
"-90.73","63.35","CHESTERFIELD INLET A","2300710","2023-02-27 11:00","2023","02","27","11:00","-35.6","","-39.5","","69","","","M","31","","10","","","M","100.77","","","","-46","","NA"
"-90.73","63.35","CHESTERFIELD INLET A","2300710","2023-02-27 12:00","2023","02","27","12:00","-34.5","","-38.4","","69","","","M","31","","11","","","M","100.77","","","","-45","","NA"
"-90.73","63.35","CHESTERFIELD INLET A","2300710","2023-02-27 13:00","2023","02","27","13:00","-33.5","","-37.6","","68","","","M","32","","18","","","M","100.76","","","","-47","","NA"
"-90.73","63.35","CHESTERFIELD INLET A","2300710","2023-02-27 14:00","2023","02","27","14:00","-32.6","","-36.6","","68","","","M","31","","20","","","M","100.76","","","","-46","","NA"
"-90.73","63.35","CHESTERFIELD INLET A","2300710","2023-02-27 15:00","2023","02","27","15:00","-32.7","","-36.9","","67","","","M","30","","17","","","M","100.76","","","","-45","","NA"
"-90.73","63.35","CHESTERFIELD INLET A","2300710","2023-02-27 16:00","2023","02","27","16:00","-33.7","","-37.6","","69","","","M","30","","17","","","M","100.80","","","","-47","","NA"
"-90.73","63.35","CHESTERFIELD INLET A","2300710","2023-02-27 17:00","2023","02","27","17:00","-33.6","","-37.5","","69","","","M","30","","16","","","M","100.84","","","","-46","","NA"
"-90.73","63.35","CHESTERFIELD INLET A","2300710","2023-02-27 18:00","2023","02","27","18:00","-32.7","","-36.5","","69","","0.0","","31","","17","","","M","100.84","","","","-45","","NA"
"-90.73","63.35","CHESTERFIELD INLET A","2300710","2023-02-27 19:00","2023","02","27","19:00","-32.7","","-36.6","","69","","0.0","","29","","16","","","M","100.88","","","","-45","","NA"
"-90.73","63.35","CHESTERFIELD INLET A","2300710","2023-02-27 20:00","2023","02","27","20:00","-34.3","","-38.2","","68","","0.0","","30","","17","","","M","100.86","","","","-47","","NA"
"-90.73","63.35","CHESTERFIELD INLET A","2300710","2023-02-27 21:00","2023","02","27","21:00","-35.4","","-39.3","","68","","0.0","","29","","19","","","M","100.87","","","","-50","","NA"
"-90.73","63.35","CHESTERFIELD INLET A","2300710","2023-02-27 22:00","2023","02","27","22:00","-36.0","","-39.9","","69","","0.0","","31","","19","","","M","100.87","","","","-50","","NA"
"-90.73","63.35","CHESTERFIELD INLET A","2300710","2023-02-27 23:00","2023","02","27","23:00","-36.6","","-40.5","","68","","0.0","","29","","19","","","M","100.87","","","","-51","","NA"
"-90.73","63.35","CHESTERFIELD INLET A","2300710","2023-02-28 00:00","2023","02","28","00:00","-36.7","","-40.5","","69","","0.0","","30","","17","","","M","100.89","","","","-50","","NA"
"-90.73","63.35","CHESTERFIELD INLET A","2300710","2023-02-28 01:00","2023","02","28","01:00","-37.0","","-40.7","","69","","0.0","","30","","19","","","M","100.87","","","","-52","","NA"
"-90.73","63.35","CHESTERFIELD INLET A","2300710","2023-02-28 02:00","2023","02","28","02:00","-37.4","","-41.0","","70","","0.0","","30","","19","","","M","100.90","","","","-52","","NA"
"-90.73","63.35","CHESTERFIELD INLET A","2300710","2023-02-28 03:00","2023","02","28","03:00","-37.4","","-41.0","","70","","0.0","","31","","19","","","M","100.91","","","","-52","","NA"
"-90.73","63.35","CHESTERFIELD INLET A","2300710","2023-02-28 04:00","2023","02","28","04:00","-37.7","","-41.3","","70","","0.0","","31","","18","","","M","100.90","","","","-52","","NA"
"-90.73","63.35","CHESTERFIELD INLET A","2300710","2023-02-28 05:00","2023","02","28","05:00","-36.4","","-40.0","","71","","0.0","","30","","17","","","M","100.94","","","","-50","","NA"
"-90.73","63.35","CHESTERFIELD INLET A","2300710","2023-02-28 06:00","2023","02","28","06:00","-35.0","","-38.6","","70","","0.0","","31","","19","","","M","100.95","","","","-49","","NA"
"-90.73","63.35","CHESTERFIELD INLET A","2300710","2023-02-28 07:00","2023","02","28","07:00","-34.5","","-38.2","","70","","","M","31","","21","","","M","101.00","","","","-49","","NA"
"-90.73","63.35","CHESTERFIELD INLET A","2300710","2023-02-28 08:00","2023","02","28","08:00","-33.6","","-37.2","","71","","","M","32","","19","","","M","101.07","","","","-47","","NA"
"-90.73","63.35","CHESTERFIELD INLET A","2300710","2023-02-28 09:00","2023","02","28","09:00","-33.5","","-37.1","","70","","","M","31","","17","","","M","101.12","","","","-46","","NA"
"-90.73","63.35","CHESTERFIELD INLET A","2300710","2023-02-28 10:00","2023","02","28","10:00","-33.7","","-37.3","","70","","","M","30","","19","","","M","101.15","","","","-47","","NA"
"-90.73","63.35","CHESTERFIELD INLET A","2300710","2023-02-28 11:00","2023","02","28","11:00","-32.7","","-36.4","","70","","","M","31","","17","","","M","101.19","","","","-45","","NA"
"-90.73","63.35","CHESTERFIELD INLET A","2300710","2023-02-28 12:00","2023","02","28","12:00","-32.4","","-36.1","","70","","","M","32","","21","","","M","101.22","","","","-46","","NA"
"-90.73","63.35","CHESTERFIELD INLET A","2300710","2023-02-28 13:00","2023","02","28","13:00","-31.7","","-35.4","","70","","","M","31","","18","","","M","101.27","","","","-45","","NA"
"-90.73","63.35","CHESTERFIELD INLET A","2300710","2023-02-28 14:00","2023","02","28","14:00","-31.5","","-35.3","","70","","","M","31","","19","","","M","101.32","","","","-45","","NA"
"-90.73","63.35","CHESTERFIELD INLET A","2300710","2023-02-28 15:00","2023","02","28","15:00","-31.8","","-35.6","","69","","","M","32","","20","","","M","101.38","","","","-45","","NA"
"-90.73","63.35","CHESTERFIELD INLET A","2300710","2023-02-28 16:00","2023","02","28","16:00","-32.4","","-36.2","","70","","","M","31","","19","","","M","101.45","","","","-46","","NA"
"-90.73","63.35","CHESTERFIELD INLET A","2300710","2023-02-28 17:00","2023","02","28","17:00","-33.3","","-37.1","","70","","","M","31","","19","","","M","101.55","","","","-47","","NA"
"-90.73","63.35","CHESTERFIELD INLET A","2300710","2023-02-28 18:00","2023","02","28","18:00","-34.3","","-38.0","","70","","0.0","","30","","19","","","M","101.63","","","","-48","","NA"
"-90.73","63.35","CHESTERFIELD INLET A","2300710","2023-02-28 19:00","2023","02","28","19:00","-34.8","","-38.4","","70","","0.0","","32","","21","","","M","101.69","","","","-49","","NA"
"-90.73","63.35","CHESTERFIELD INLET A","2300710","2023-02-28 20:00","2023","02","28","20:00","-35.0","","-38.7","","70","","0.0","","31","","16","","","M","101.74","","","","-48","","NA"
"-90.73","63.35","CHESTERFIELD INLET A","2300710","2023-02-28 21:00","2023","02","28","21:00","-35.1","","-38.7","","71","","0.0","","32","","16","","","M","101.83","","","","-48","","NA"
"-90.73","63.35","CHESTERFIELD INLET A","2300710","2023-02-28 22:00","2023","02","28","22:00","-34.9","","-38.4","","71","","0.0","","33","","15","","","M","101.85","","","","-47","","NA"
"-90.73","63.35","CHESTERFIELD INLET A","2300710","2023-02-28 23:00","2023","02","28","23:00","-35.6","","-39.2","","70","","0.0","","31","","14","","","M","101.89","","","","-48","","NA"
