"Longitude (x)","Latitude (y)","Station Name","Climate ID","Date/Time (LST)","Year","Month","Day","Time (LST)","Temp (°C)","Temp Flag","Dew Point Temp (°C)","Dew Point Temp Flag","Rel Hum (%)","Rel Hum Flag","Precip. Amount (mm)","Precip. Amount Flag","Wind Dir (10s deg)","Wind Dir Flag","Wind Spd (km/h)","Wind Spd Flag","Visibility (km)","Visibility Flag","Stn Press (kPa)","Stn Press Flag","Hmdx","Hmdx Flag","Wind Chill","Wind Chill Flag","Weather"
"-57.10","51.02","FEROLLE POINT (AUT)","8401565","2023-02-01 00:30","2023","02","01","00:30","-13.8","","-17.3","","75","","","M","31","","24","","","","101.17","","","","-23","","NA"
"-57.10","51.02","FEROLLE POINT (AUT)","8401565","2023-02-01 01:30","2023","02","01","01:30","-14.5","","-17.3","","80","","","M","32","","29","","","","101.20","","","","-25","","NA"
"-57.10","51.02","FEROLLE POINT (AUT)","8401565","2023-02-01 02:30","2023","02","01","02:30","-15.6","","-18.5","","78","","","M","34","","25","","","","101.27","","","","-26","","NA"
"-57.10","51.02","FEROLLE POINT (AUT)","8401565","2023-02-01 03:30","2023","02","01","03:30","-16.3","","-19.9","","74","","","M","33","","25","","","","101.32","","","","-27","","NA"
"-57.10","51.02","FEROLLE POINT (AUT)","8401565","2023-02-01 04:30","2023","02","01","04:30","-16.0","","-19.2","","76","","","M","34","","26","","","","101.34","","","","-27","","NA"
"-57.10","51.02","FEROLLE POINT (AUT)","8401565","2023-02-01 05:30","2023","02","01","05:30","-15.8","","-19.4","","74","","","M","33","","27","","","","101.40","","","","-27","","NA"
"-57.10","51.02","FEROLLE POINT (AUT)","8401565","2023-02-01 06:30","2023","02","01","06:30","-15.9","","-20.2","","70","","","M","30","","22","","","","101.40","","","","-26","","NA"
"-57.10","51.02","FEROLLE POINT (AUT)","8401565","2023-02-01 07:30","2023","02","01","07:30","-15.8","","-20.0","","70","","","M","30","","26","","","","101.39","","","","-26","","NA"
"-57.10","51.02","FEROLLE POINT (AUT)","8401565","2023-02-01 08:30","2023","02","01","08:30","-15.4","","-19.0","","74","","","M","28","","26","","","","101.38","","","","-26","","NA"
"-57.10","51.02","FEROLLE POINT (AUT)","8401565","2023-02-01 09:30","2023","02","01","09:30","-15.2","","-18.6","","75","","","M","28","","26","","","","101.43","","","","-26","","NA"
"-57.10","51.02","FEROLLE POINT (AUT)","8401565","2023-02-01 10:30","2023","02","01","10:30","-16.1","","-19.7","","73","","","M","29","","24","","","","101.47","","","","-26","","NA"
"-57.10","51.02","FEROLLE POINT (AUT)","8401565","2023-02-01 11:30","2023","02","01","11:30","-16.1","","-19.9","","73","","","M","29","","26","","","","101.50","","","","-27","","NA"
"-57.10","51.02","FEROLLE POINT (AUT)","8401565","2023-02-01 12:30","2023","02","01","12:30","-16.1","","-20.1","","71","","","M","30","","28","","","","101.43","","","","-27","","NA"
"-57.10","51.02","FEROLLE POINT (AUT)","8401565","2023-02-01 13:30","2023","02","01","13:30","-15.8","","-19.4","","74","","","M","29","","29","","","","101.40","","","","-27","","NA"
"-57.10","51.02","FEROLLE POINT (AUT)","8401565","2023-02-01 14:30","2023","02","01","14:30","-15.4","","-19.4","","71","","","M","29","","29","","","","101.38","","","","-26","","NA"
"-57.10","51.02","FEROLLE POINT (AUT)","8401565","2023-02-01 15:30","2023","02","01","15:30","-14.8","","-18.8","","72","","","M","29","","28","","","","101.41","","","","-25","","NA"
"-57.10","51.02","FEROLLE POINT (AUT)","8401565","2023-02-01 16:30","2023","02","01","16:30","-14.4","","-18.1","","73","","","M","29","","27","","","","101.40","","","","-25","","NA"
"-57.10","51.02","FEROLLE POINT (AUT)","8401565","2023-02-01 17:30","2023","02","01","17:30","-14.3","","-18.3","","72","","","M","29","","24","","","","101.42","","","","-24","","NA"
"-57.10","51.02","FEROLLE POINT (AUT)","8401565","2023-02-01 18:30","2023","02","01","18:30","-14.0","","-18.4","","69","","","M","29","","20","","","","101.42","","","","-23","","NA"
"-57.10","51.02","FEROLLE POINT (AUT)","8401565","2023-02-01 19:30","2023","02","01","19:30","-13.7","","-18.7","","66","","","M","29","","22","","","","101.45","","","","-23","","NA"
"-57.10","51.02","FEROLLE POINT (AUT)","8401565","2023-02-01 20:30","2023","02","01","20:30","-13.5","","-18.0","","69","","","M","31","","27","","","","101.48","","","","-24","","NA"
"-57.10","51.02","FEROLLE POINT (AUT)","8401565","2023-02-01 21:30","2023","02","01","21:30","-13.5","","-17.4","","72","","","M","33","","25","","","","101.52","","","","-23","","NA"
"-57.10","51.02","FEROLLE POINT (AUT)","8401565","2023-02-01 22:30","2023","02","01","22:30","-13.9","","-18.1","","71","","","M","34","","23","","","","101.52","","","","-23","","NA"
"-57.10","51.02","FEROLLE POINT (AUT)","8401565","2023-02-01 23:30","2023","02","01","23:30","-13.3","","-16.8","","75","","","M","32","","24","","","","101.51","","","","-23","","NA"
"-57.10","51.02","FEROLLE POINT (AUT)","8401565","2023-02-02 00:30","2023","02","02","00:30","-13.8","","-19.1","","64","","","M","32","","26","","","","101.50","","","","-24","","NA"
"-57.10","51.02","FEROLLE POINT (AUT)","8401565","2023-02-02 01:30","2023","02","02","01:30","-13.9","","-19.4","","63","","","M","32","","24","","","","101.48","","","","-24","","NA"
"-57.10","51.02","FEROLLE POINT (AUT)","8401565","2023-02-02 02:30","2023","02","02","02:30","-14.1","","-19.2","","65","","","M","34","","17","","","","101.47","","","","-22","","NA"
"-57.10","51.02","FEROLLE POINT (AUT)","8401565","2023-02-02 03:30","2023","02","02","03:30","-14.3","","-19.1","","67","","","M","33","","13","","","","101.45","","","","-21","","NA"
"-57.10","51.02","FEROLLE POINT (AUT)","8401565","2023-02-02 04:30","2023","02","02","04:30","-14.7","","-20.1","","64","","","M","36","","10","","","","101.46","","","","-21","","NA"
"-57.10","51.02","FEROLLE POINT (AUT)","8401565","2023-02-02 05:30","2023","02","02","05:30","-14.7","","-19.6","","66","","","M","1","","9","","","","101.45","","","","-20","","NA"
"-57.10","51.02","FEROLLE POINT (AUT)","8401565","2023-02-02 06:30","2023","02","02","06:30","-16.2","","-18.5","","83","","","M","11","","12","","","","101.42","","","","-23","","NA"
"-57.10","51.02","FEROLLE POINT (AUT)","8401565","2023-02-02 07:30","2023","02","02","07:30","-16.9","","-19.2","","82","","","M","11","","12","","","","101.43","","","","-24","","NA"
"-57.10","51.02","FEROLLE POINT (AUT)","8401565","2023-02-02 08:30","2023","02","02","08:30","-16.9","","-19.7","","79","","","M","11","","15","","","","101.42","","","","-25","","NA"
"-57.10","51.02","FEROLLE POINT (AUT)","8401565","2023-02-02 09:30","2023","02","02","09:30","-16.3","","-20.3","","71","","","M","11","","15","","","","101.40","","","","-25","","NA"
"-57.10","51.02","FEROLLE POINT (AUT)","8401565","2023-02-02 10:30","2023","02","02","10:30","-14.9","","-19.4","","69","","","M","9","","10","","","","101.37","","","","-21","","NA"
"-57.10","51.02","FEROLLE POINT (AUT)","8401565","2023-02-02 11:30","2023","02","02","11:30","-14.4","","-18.9","","69","","","M","7","","11","","","","101.30","","","","-21","","NA"
"-57.10","51.02","FEROLLE POINT (AUT)","8401565","2023-02-02 12:30","2023","02","02","12:30","-14.1","","-18.5","","69","","","M","7","","13","","","","101.18","","","","-21","","NA"
"-57.10","51.02","FEROLLE POINT (AUT)","8401565","2023-02-02 13:30","2023","02","02","13:30","-13.4","","-18.0","","68","","","M","8","","10","","","","101.12","","","","-19","","NA"
"-57.10","51.02","FEROLLE POINT (AUT)","8401565","2023-02-02 14:30","2023","02","02","14:30","-12.9","","-17.8","","67","","","M","8","","8","","","","101.06","","","","-18","","NA"
"-57.10","51.02","FEROLLE POINT (AUT)","8401565","2023-02-02 15:30","2023","02","02","15:30","-12.8","","-17.6","","67","","","M","6","","8","","","","101.01","","","","-18","","NA"
"-57.10","51.02","FEROLLE POINT (AUT)","8401565","2023-02-02 16:30","2023","02","02","16:30","-12.8","","-17.5","","68","","","M","9","","7","","","","100.99","","","","-17","","NA"
"-57.10","51.02","FEROLLE POINT (AUT)","8401565","2023-02-02 17:30","2023","02","02","17:30","-12.7","","-17.2","","69","","","M","","","0","","","","101.01","","","","","","NA"
"-57.10","51.02","FEROLLE POINT (AUT)","8401565","2023-02-02 18:30","2023","02","02","18:30","-12.2","","-15.6","","76","","","M","8","","7","","","","100.95","","","","-17","","NA"
"-57.10","51.02","FEROLLE POINT (AUT)","8401565","2023-02-02 19:30","2023","02","02","19:30","-14.4","","-17.1","","80","","","M","9","","15","","","","100.90","","","","-22","","NA"
"-57.10","51.02","FEROLLE POINT (AUT)","8401565","2023-02-02 20:30","2023","02","02","20:30","-14.6","","-17.4","","79","","","M","10","","13","","","","100.84","","","","-22","","NA"
"-57.10","51.02","FEROLLE POINT (AUT)","8401565","2023-02-02 21:30","2023","02","02","21:30","-14.3","","-16.9","","81","","","M","10","","14","","","","100.80","","","","-22","","NA"
"-57.10","51.02","FEROLLE POINT (AUT)","8401565","2023-02-02 22:30","2023","02","02","22:30","-13.6","","-16.5","","78","","","M","11","","13","","","","100.74","","","","-21","","NA"
"-57.10","51.02","FEROLLE POINT (AUT)","8401565","2023-02-02 23:30","2023","02","02","23:30","-12.7","","-15.6","","79","","","M","10","","15","","","","100.65","","","","-20","","NA"
"-57.10","51.02","FEROLLE POINT (AUT)","8401565","2023-02-03 00:30","2023","02","03","00:30","-11.9","","-14.8","","79","","","M","12","","14","","","","100.57","","","","-19","","NA"
"-57.10","51.02","FEROLLE POINT (AUT)","8401565","2023-02-03 01:30","2023","02","03","01:30","-10.4","","-13.3","","79","","","M","12","","15","","","","100.46","","","","-17","","NA"
"-57.10","51.02","FEROLLE POINT (AUT)","8401565","2023-02-03 02:30","2023","02","03","02:30","-9.7","","-12.2","","82","","","M","11","","15","","","","100.38","","","","-16","","NA"
"-57.10","51.02","FEROLLE POINT (AUT)","8401565","2023-02-03 03:30","2023","02","03","03:30","-9.5","","-11.0","","88","","","M","11","","16","","","","100.29","","","","-16","","NA"
"-57.10","51.02","FEROLLE POINT (AUT)","8401565","2023-02-03 04:30","2023","02","03","04:30","-8.2","","-9.4","","91","","","M","13","","22","","","","100.22","","","","-16","","NA"
"-57.10","51.02","FEROLLE POINT (AUT)","8401565","2023-02-03 05:30","2023","02","03","05:30","-6.5","","-7.1","","96","","","M","15","","24","","","","100.16","","","","-14","","NA"
"-57.10","51.02","FEROLLE POINT (AUT)","8401565","2023-02-03 06:30","2023","02","03","06:30","-7.8","","-10.0","","84","","","M","13","","25","","","","100.03","","","","-16","","NA"
"-57.10","51.02","FEROLLE POINT (AUT)","8401565","2023-02-03 07:30","2023","02","03","07:30","-7.7","","-10.8","","78","","","M","12","","18","","","","99.93","","","","-15","","NA"
"-57.10","51.02","FEROLLE POINT (AUT)","8401565","2023-02-03 08:30","2023","02","03","08:30","-6.3","","-9.4","","78","","","M","15","","42","","","","99.81","","","","-16","","NA"
"-57.10","51.02","FEROLLE POINT (AUT)","8401565","2023-02-03 09:30","2023","02","03","09:30","-6.3","","-9.3","","79","","","M","14","","36","","","","99.64","","","","-15","","NA"
"-57.10","51.02","FEROLLE POINT (AUT)","8401565","2023-02-03 10:30","2023","02","03","10:30","-6.3","","-8.4","","85","","","M","13","","33","","","","99.37","","","","-15","","NA"
"-57.10","51.02","FEROLLE POINT (AUT)","8401565","2023-02-03 11:30","2023","02","03","11:30","-5.7","","-8.3","","82","","","M","12","","43","","","","99.08","","","","-15","","NA"
"-57.10","51.02","FEROLLE POINT (AUT)","8401565","2023-02-03 12:30","2023","02","03","12:30","-4.5","","-7.4","","80","","","M","12","","37","","","","98.81","","","","-13","","NA"
"-57.10","51.02","FEROLLE POINT (AUT)","8401565","2023-02-03 13:30","2023","02","03","13:30","-4.1","","-5.5","","90","","","M","13","","46","","","","98.54","","","","-13","","NA"
"-57.10","51.02","FEROLLE POINT (AUT)","8401565","2023-02-03 14:30","2023","02","03","14:30","-2.8","","-6.1","","78","","","M","14","","43","","","","98.27","","","","-11","","NA"
"-57.10","51.02","FEROLLE POINT (AUT)","8401565","2023-02-03 15:30","2023","02","03","15:30","-2.4","","-5.3","","80","","","M","13","","30","","","","98.06","","","","-10","","NA"
"-57.10","51.02","FEROLLE POINT (AUT)","8401565","2023-02-03 16:30","2023","02","03","16:30","-1.3","","-4.1","","81","","","M","14","","31","","","","97.83","","","","-8","","NA"
"-57.10","51.02","FEROLLE POINT (AUT)","8401565","2023-02-03 17:30","2023","02","03","17:30","-1.0","","-3.1","","86","","","M","14","","24","","","","97.62","","","","-7","","NA"
"-57.10","51.02","FEROLLE POINT (AUT)","8401565","2023-02-03 18:30","2023","02","03","18:30","-1.3","","-1.3","","100","","","M","19","","30","","","","97.44","","","","-8","","NA"
"-57.10","51.02","FEROLLE POINT (AUT)","8401565","2023-02-03 19:30","2023","02","03","19:30","-2.5","","-2.6","","100","","","M","27","","24","","","","97.34","","","","-9","","NA"
"-57.10","51.02","FEROLLE POINT (AUT)","8401565","2023-02-03 20:30","2023","02","03","20:30","-4.3","","-4.3","","100","","","M","26","","46","","","","97.18","","","","-14","","NA"
"-57.10","51.02","FEROLLE POINT (AUT)","8401565","2023-02-03 21:30","2023","02","03","21:30","-7.2","","-7.7","","96","","","M","25","","53","","","","97.20","","","","-18","","NA"
"-57.10","51.02","FEROLLE POINT (AUT)","8401565","2023-02-03 22:30","2023","02","03","22:30","-8.7","","-10.6","","86","","","M","26","","50","","","","97.24","","","","-20","","NA"
"-57.10","51.02","FEROLLE POINT (AUT)","8401565","2023-02-03 23:30","2023","02","03","23:30","-10.4","","-13.2","","80","","","M","27","","53","","","","97.21","","","","-23","","NA"
"-57.10","51.02","FEROLLE POINT (AUT)","8401565","2023-02-04 00:30","2023","02","04","00:30","-10.5","","-12.2","","87","","","M","26","","51","","","","97.12","","","","-23","","NA"
"-57.10","51.02","FEROLLE POINT (AUT)","8401565","2023-02-04 01:30","2023","02","04","01:30","-11.4","","-12.6","","91","","","M","23","","65","","","","97.01","","","","-25","","NA"
"-57.10","51.02","FEROLLE POINT (AUT)","8401565","2023-02-04 02:30","2023","02","04","02:30","-12.0","","-13.3","","90","","","M","23","","70","","","","96.83","","","","-26","","NA"
"-57.10","51.02","FEROLLE POINT (AUT)","8401565","2023-02-04 03:30","2023","02","04","03:30","-12.2","","-13.6","","90","","","M","24","","65","","","","96.78","","","","-26","","NA"
"-57.10","51.02","FEROLLE POINT (AUT)","8401565","2023-02-04 04:30","2023","02","04","04:30","-13.3","","-14.8","","88","","","M","23","","77","","","","96.65","","","","-28","","NA"
"-57.10","51.02","FEROLLE POINT (AUT)","8401565","2023-02-04 05:30","2023","02","04","05:30","-13.9","","-15.6","","87","","","M","23","","81","","","","96.64","","","","-30","","NA"
"-57.10","51.02","FEROLLE POINT (AUT)","8401565","2023-02-04 06:30","2023","02","04","06:30","-14.1","","-17.7","","74","","","M","22","","81","","","","96.49","","","","-30","","NA"
"-57.10","51.02","FEROLLE POINT (AUT)","8401565","2023-02-04 07:30","2023","02","04","07:30","-14.1","","-18.3","","70","","","M","22","","75","","","","96.46","","","","-29","","NA"
"-57.10","51.02","FEROLLE POINT (AUT)","8401565","2023-02-04 08:30","2023","02","04","08:30","-12.3","","-13.4","","91","","","M","22","","77","","","","96.56","","","","-27","","NA"
"-57.10","51.02","FEROLLE POINT (AUT)","8401565","2023-02-04 09:30","2023","02","04","09:30","-13.6","","-15.1","","88","","","M","22","","83","","","","96.30","","","","-29","","NA"
"-57.10","51.02","FEROLLE POINT (AUT)","8401565","2023-02-04 10:30","2023","02","04","10:30","-13.3","","-14.9","","88","","","M","22","","75","","","","96.14","","","","-28","","NA"
"-57.10","51.02","FEROLLE POINT (AUT)","8401565","2023-02-04 11:30","2023","02","04","11:30","-12.7","","-14.1","","89","","","M","24","","69","","","","96.19","","","","-27","","NA"
"-57.10","51.02","FEROLLE POINT (AUT)","8401565","2023-02-04 12:30","2023","02","04","12:30","-12.8","","-14.8","","85","","","M","24","","70","","","","96.20","","","","-27","","NA"
"-57.10","51.02","FEROLLE POINT (AUT)","8401565","2023-02-04 13:30","2023","02","04","13:30","-12.0","","-13.4","","89","","","M","24","","64","","","","96.16","","","","-26","","NA"
"-57.10","51.02","FEROLLE POINT (AUT)","8401565","2023-02-04 14:30","2023","02","04","14:30","-12.1","","-14.2","","84","","","M","23","","66","","","","96.14","","","","-26","","NA"
"-57.10","51.02","FEROLLE POINT (AUT)","8401565","2023-02-04 15:30","2023","02","04","15:30","-11.7","","-13.0","","90","","","M","24","","56","","","","96.32","","","","-25","","NA"
"-57.10","51.02","FEROLLE POINT (AUT)","8401565","2023-02-04 16:30","2023","02","04","16:30","-11.2","","-12.8","","88","","","M","25","","47","","","","96.45","","","","-23","","NA"
"-57.10","51.02","FEROLLE POINT (AUT)","8401565","2023-02-04 17:30","2023","02","04","17:30","-10.6","","-11.8","","91","","","M","25","","43","","","","96.64","","","","-22","","NA"
"-57.10","51.02","FEROLLE POINT (AUT)","8401565","2023-02-04 18:30","2023","02","04","18:30","-10.4","","-11.8","","90","","","M","32","","45","","","","96.91","","","","-22","","NA"
"-57.10","51.02","FEROLLE POINT (AUT)","8401565","2023-02-04 19:30","2023","02","04","19:30","-11.6","","-14.7","","78","","","M","34","","46","","","","97.30","","","","-24","","NA"
"-57.10","51.02","FEROLLE POINT (AUT)","8401565","2023-02-04 20:30","2023","02","04","20:30","-10.2","","-13.2","","79","","","M","33","","38","","","","97.59","","","","-21","","NA"
"-57.10","51.02","FEROLLE POINT (AUT)","8401565","2023-02-04 21:30","2023","02","04","21:30","-7.8","","-9.4","","89","","","M","32","","42","","","","97.81","","","","-18","","NA"
"-57.10","51.02","FEROLLE POINT (AUT)","8401565","2023-02-04 22:30","2023","02","04","22:30","-6.9","","-10.7","","74","","","M","33","","66","","","","98.08","","","","-19","","NA"
"-57.10","51.02","FEROLLE POINT (AUT)","8401565","2023-02-04 23:30","2023","02","04","23:30","-7.7","","-11.4","","75","","","M","32","","62","","","","98.53","","","","-20","","NA"
"-57.10","51.02","FEROLLE POINT (AUT)","8401565","2023-02-05 00:30","2023","02","05","00:30","-8.3","","-12.1","","74","","","M","32","","61","","","","99.02","","","","-20","","NA"
"-57.10","51.02","FEROLLE POINT (AUT)","8401565","2023-02-05 01:30","2023","02","05","01:30","-9.1","","-13.0","","73","","","M","33","","59","","","","99.39","","","","-21","","NA"
"-57.10","51.02","FEROLLE POINT (AUT)","8401565","2023-02-05 02:30","2023","02","05","02:30","-9.6","","-13.4","","74","","","M","33","","52","","","","99.75","","","","-21","","NA"
"-57.10","51.02","FEROLLE POINT (AUT)","8401565","2023-02-05 03:30","2023","02","05","03:30","-9.4","","-12.7","","76","","","M","32","","48","","","","99.93","","","","-21","","NA"
"-57.10","51.02","FEROLLE POINT (AUT)","8401565","2023-02-05 04:30","2023","02","05","04:30","-10.2","","-13.6","","76","","","M","30","","34","","","","100.25","","","","-20","","NA"
"-57.10","51.02","FEROLLE POINT (AUT)","8401565","2023-02-05 05:30","2023","02","05","05:30","-11.4","","-14.4","","78","","","M","28","","26","","","","100.50","","","","-21","","NA"
"-57.10","51.02","FEROLLE POINT (AUT)","8401565","2023-02-05 06:30","2023","02","05","06:30","-11.9","","-14.9","","78","","","M","29","","30","","","","100.68","","","","-22","","NA"
"-57.10","51.02","FEROLLE POINT (AUT)","8401565","2023-02-05 07:30","2023","02","05","07:30","-12.3","","-15.2","","79","","","M","26","","25","","","","100.92","","","","-22","","NA"
"-57.10","51.02","FEROLLE POINT (AUT)","8401565","2023-02-05 08:30","2023","02","05","08:30","-12.2","","-14.9","","81","","","M","27","","28","","","","101.06","","","","-22","","NA"
"-57.10","51.02","FEROLLE POINT (AUT)","8401565","2023-02-05 09:30","2023","02","05","09:30","-13.3","","-15.2","","86","","","M","26","","28","","","","101.13","","","","-24","","NA"
"-57.10","51.02","FEROLLE POINT (AUT)","8401565","2023-02-05 10:30","2023","02","05","10:30","-13.5","","-15.3","","86","","","M","24","","27","","","","101.22","","","","-24","","NA"
"-57.10","51.02","FEROLLE POINT (AUT)","8401565","2023-02-05 11:30","2023","02","05","11:30","-13.0","","-14.7","","87","","","M","26","","27","","","","101.28","","","","-23","","NA"
"-57.10","51.02","FEROLLE POINT (AUT)","8401565","2023-02-05 12:30","2023","02","05","12:30","-12.9","","-14.6","","87","","","M","25","","29","","","","101.26","","","","-23","","NA"
"-57.10","51.02","FEROLLE POINT (AUT)","8401565","2023-02-05 13:30","2023","02","05","13:30","-12.6","","-14.6","","85","","","M","25","","28","","","","101.28","","","","-23","","NA"
"-57.10","51.02","FEROLLE POINT (AUT)","8401565","2023-02-05 14:30","2023","02","05","14:30","-12.0","","-14.7","","80","","","M","25","","32","","","","101.29","","","","-22","","NA"
"-57.10","51.02","FEROLLE POINT (AUT)","8401565","2023-02-05 15:30","2023","02","05","15:30","-10.3","","-14.0","","74","","","M","26","","32","","","","101.27","","","","-20","","NA"
"-57.10","51.02","FEROLLE POINT (AUT)","8401565","2023-02-05 16:30","2023","02","05","16:30","-9.1","","-14.0","","67","","","M","24","","34","","","","101.25","","","","-19","","NA"
"-57.10","51.02","FEROLLE POINT (AUT)","8401565","2023-02-05 17:30","2023","02","05","17:30","-8.6","","-12.0","","76","","","M","25","","27","","","","101.20","","","","-17","","NA"
"-57.10","51.02","FEROLLE POINT (AUT)","8401565","2023-02-05 18:30","2023","02","05","18:30","-7.9","","-10.1","","84","","","M","25","","15","","","","101.11","","","","-14","","NA"
"-57.10","51.02","FEROLLE POINT (AUT)","8401565","2023-02-05 19:30","2023","02","05","19:30","-7.7","","-8.3","","95","","","M","16","","31","","","","101.08","","","","-17","","NA"
"-57.10","51.02","FEROLLE POINT (AUT)","8401565","2023-02-05 20:30","2023","02","05","20:30","-5.1","","-5.1","","100","","","M","23","","54","","","","100.80","","","","-15","","NA"
"-57.10","51.02","FEROLLE POINT (AUT)","8401565","2023-02-05 21:30","2023","02","05","21:30","-5.5","","-5.6","","99","","","M","31","","33","","","","100.90","","","","-14","","NA"
"-57.10","51.02","FEROLLE POINT (AUT)","8401565","2023-02-05 22:30","2023","02","05","22:30","-6.5","","-6.7","","98","","","M","30","","34","","","","100.92","","","","-15","","NA"
"-57.10","51.02","FEROLLE POINT (AUT)","8401565","2023-02-05 23:30","2023","02","05","23:30","-8.2","","-8.8","","95","","","M","31","","34","","","","100.98","","","","-18","","NA"
"-57.10","51.02","FEROLLE POINT (AUT)","8401565","2023-02-06 00:30","2023","02","06","00:30","-9.3","","-10.1","","93","","","M","31","","30","","","","101.05","","","","-19","","NA"
"-57.10","51.02","FEROLLE POINT (AUT)","8401565","2023-02-06 01:30","2023","02","06","01:30","-10.2","","-11.5","","90","","","M","32","","26","","","","101.09","","","","-19","","NA"
"-57.10","51.02","FEROLLE POINT (AUT)","8401565","2023-02-06 02:30","2023","02","06","02:30","-10.4","","-12.2","","86","","","M","33","","20","","","","101.16","","","","-18","","NA"
"-57.10","51.02","FEROLLE POINT (AUT)","8401565","2023-02-06 03:30","2023","02","06","03:30","-11.4","","-14.0","","81","","","M","34","","23","","","","101.20","","","","-20","","NA"
"-57.10","51.02","FEROLLE POINT (AUT)","8401565","2023-02-06 04:30","2023","02","06","04:30","-11.5","","-14.9","","76","","","M","34","","18","","","","101.25","","","","-19","","NA"
"-57.10","51.02","FEROLLE POINT (AUT)","8401565","2023-02-06 05:30","2023","02","06","05:30","-12.1","","-16.6","","69","","","M","34","","13","","","","101.33","","","","-19","","NA"
"-57.10","51.02","FEROLLE POINT (AUT)","8401565","2023-02-06 06:30","2023","02","06","06:30","-12.3","","-16.9","","69","","","M","34","","10","","","","101.39","","","","-18","","NA"
"-57.10","51.02","FEROLLE POINT (AUT)","8401565","2023-02-06 07:30","2023","02","06","07:30","-12.2","","-16.1","","73","","","M","36","","10","","","","101.45","","","","-18","","NA"
"-57.10","51.02","FEROLLE POINT (AUT)","8401565","2023-02-06 08:30","2023","02","06","08:30","-12.7","","-16.3","","74","","","M","1","","15","","","","101.52","","","","-20","","NA"
"-57.10","51.02","FEROLLE POINT (AUT)","8401565","2023-02-06 09:30","2023","02","06","09:30","-12.7","","-16.8","","71","","","M","2","","4","","","","101.57","","","","-15","","NA"
"-57.10","51.02","FEROLLE POINT (AUT)","8401565","2023-02-06 10:30","2023","02","06","10:30","-12.0","","-15.6","","74","","","M","","","0","","","","101.60","","","","","","NA"
"-57.10","51.02","FEROLLE POINT (AUT)","8401565","2023-02-06 11:30","2023","02","06","11:30","-12.1","","-14.7","","81","","","M","36","","13","","","","101.65","","","","-19","","NA"
"-57.10","51.02","FEROLLE POINT (AUT)","8401565","2023-02-06 12:30","2023","02","06","12:30","-12.0","","-15.2","","78","","","M","35","","7","","","","101.69","","","","-16","","NA"
"-57.10","51.02","FEROLLE POINT (AUT)","8401565","2023-02-06 13:30","2023","02","06","13:30","-12.1","","-16.4","","70","","","M","33","","11","","","","101.65","","","","-18","","NA"
"-57.10","51.02","FEROLLE POINT (AUT)","8401565","2023-02-06 14:30","2023","02","06","14:30","-11.5","","-16.0","","70","","","M","2","","7","","","","101.65","","","","-16","","NA"
"-57.10","51.02","FEROLLE POINT (AUT)","8401565","2023-02-06 15:30","2023","02","06","15:30","-11.9","","-15.9","","72","","","M","34","","13","","","","101.72","","","","-19","","NA"
"-57.10","51.02","FEROLLE POINT (AUT)","8401565","2023-02-06 16:30","2023","02","06","16:30","-12.0","","-15.8","","73","","","M","36","","13","","","","101.76","","","","-19","","NA"
"-57.10","51.02","FEROLLE POINT (AUT)","8401565","2023-02-06 17:30","2023","02","06","17:30","-11.7","","-16.1","","70","","","M","34","","9","","","","101.87","","","","-17","","NA"
"-57.10","51.02","FEROLLE POINT (AUT)","8401565","2023-02-06 18:30","2023","02","06","18:30","-11.4","","-15.9","","69","","","M","32","","12","","","","101.96","","","","-18","","NA"
"-57.10","51.02","FEROLLE POINT (AUT)","8401565","2023-02-06 19:30","2023","02","06","19:30","-11.3","","-16.1","","67","","","M","33","","17","","","","102.03","","","","-19","","NA"
"-57.10","51.02","FEROLLE POINT (AUT)","8401565","2023-02-06 20:30","2023","02","06","20:30","-12.0","","-16.6","","68","","","M","34","","24","","","","102.12","","","","-21","","NA"
"-57.10","51.02","FEROLLE POINT (AUT)","8401565","2023-02-06 21:30","2023","02","06","21:30","-12.8","","-18.2","","64","","","M","34","","22","","","","102.17","","","","-22","","NA"
"-57.10","51.02","FEROLLE POINT (AUT)","8401565","2023-02-06 22:30","2023","02","06","22:30","-13.1","","-18.4","","64","","","M","35","","18","","","","102.24","","","","-21","","NA"
"-57.10","51.02","FEROLLE POINT (AUT)","8401565","2023-02-06 23:30","2023","02","06","23:30","-13.4","","-18.9","","63","","","M","35","","18","","","","102.31","","","","-22","","NA"
"-57.10","51.02","FEROLLE POINT (AUT)","8401565","2023-02-07 00:30","2023","02","07","00:30","-14.2","","-19.5","","64","","","M","35","","19","","","","102.41","","","","-23","","NA"
"-57.10","51.02","FEROLLE POINT (AUT)","8401565","2023-02-07 01:30","2023","02","07","01:30","-14.0","","-18.6","","68","","","M","35","","17","","","","102.43","","","","-22","","NA"
"-57.10","51.02","FEROLLE POINT (AUT)","8401565","2023-02-07 02:30","2023","02","07","02:30","-13.8","","-17.8","","72","","","M","34","","16","","","","102.51","","","","-22","","NA"
"-57.10","51.02","FEROLLE POINT (AUT)","8401565","2023-02-07 03:30","2023","02","07","03:30","-14.7","","-20.4","","62","","","M","36","","19","","","","102.54","","","","-24","","NA"
"-57.10","51.02","FEROLLE POINT (AUT)","8401565","2023-02-07 04:30","2023","02","07","04:30","-14.7","","-20.6","","61","","","M","36","","16","","","","102.60","","","","-23","","NA"
"-57.10","51.02","FEROLLE POINT (AUT)","8401565","2023-02-07 05:30","2023","02","07","05:30","-14.7","","-20.5","","62","","","M","36","","14","","","","102.67","","","","-22","","NA"
"-57.10","51.02","FEROLLE POINT (AUT)","8401565","2023-02-07 06:30","2023","02","07","06:30","-15.9","","-21.1","","64","","","M","4","","5","","","","102.77","","","","-20","","NA"
"-57.10","51.02","FEROLLE POINT (AUT)","8401565","2023-02-07 07:30","2023","02","07","07:30","-14.4","","-21.0","","57","","","M","35","","10","","","","102.80","","","","-21","","NA"
"-57.10","51.02","FEROLLE POINT (AUT)","8401565","2023-02-07 08:30","2023","02","07","08:30","-13.8","","-20.3","","58","","","M","36","","16","","","","102.78","","","","-22","","NA"
"-57.10","51.02","FEROLLE POINT (AUT)","8401565","2023-02-07 09:30","2023","02","07","09:30","-13.7","","-21.0","","54","","","M","1","","13","","","","102.86","","","","-21","","NA"
"-57.10","51.02","FEROLLE POINT (AUT)","8401565","2023-02-07 10:30","2023","02","07","10:30","-13.8","","-19.3","","63","","","M","4","","10","","","","102.91","","","","-20","","NA"
"-57.10","51.02","FEROLLE POINT (AUT)","8401565","2023-02-07 11:30","2023","02","07","11:30","-13.4","","-19.3","","61","","","M","5","","6","","","","102.91","","","","-17","","NA"
"-57.10","51.02","FEROLLE POINT (AUT)","8401565","2023-02-07 12:30","2023","02","07","12:30","-12.6","","-19.4","","57","","","M","36","","4","","","","102.85","","","","-15","","NA"
"-57.10","51.02","FEROLLE POINT (AUT)","8401565","2023-02-07 13:30","2023","02","07","13:30","-11.5","","-19.6","","51","","","M","13","","5","","","","102.88","","","","-15","","NA"
"-57.10","51.02","FEROLLE POINT (AUT)","8401565","2023-02-07 14:30","2023","02","07","14:30","-11.4","","-17.4","","61","","","M","14","","6","","","","102.81","","","","-15","","NA"
"-57.10","51.02","FEROLLE POINT (AUT)","8401565","2023-02-07 15:30","2023","02","07","15:30","-11.0","","-17.7","","58","","","M","16","","4","","","","102.80","","","","-13","","NA"
"-57.10","51.02","FEROLLE POINT (AUT)","8401565","2023-02-07 16:30","2023","02","07","16:30","-10.0","","-19.0","","48","","","M","","","0","","","","102.82","","","","","","NA"
"-57.10","51.02","FEROLLE POINT (AUT)","8401565","2023-02-07 17:30","2023","02","07","17:30","-11.7","","-21.6","","44","","","M","9","","4","","","","102.73","","","","-14","","NA"
"-57.10","51.02","FEROLLE POINT (AUT)","8401565","2023-02-07 18:30","2023","02","07","18:30","-14.1","","-18.5","","69","","","M","10","","12","","","","102.64","","","","-21","","NA"
"-57.10","51.02","FEROLLE POINT (AUT)","8401565","2023-02-07 19:30","2023","02","07","19:30","-14.7","","-19.1","","69","","","M","8","","13","","","","102.58","","","","-22","","NA"
"-57.10","51.02","FEROLLE POINT (AUT)","8401565","2023-02-07 20:30","2023","02","07","20:30","-12.7","","-18.2","","64","","","M","7","","12","","","","102.45","","","","-19","","NA"
"-57.10","51.02","FEROLLE POINT (AUT)","8401565","2023-02-07 21:30","2023","02","07","21:30","-15.3","","-19.6","","69","","","M","11","","11","","","","102.34","","","","-22","","NA"
"-57.10","51.02","FEROLLE POINT (AUT)","8401565","2023-02-07 22:30","2023","02","07","22:30","-11.9","","-17.4","","63","","","M","","","0","","","","102.23","","","","","","NA"
"-57.10","51.02","FEROLLE POINT (AUT)","8401565","2023-02-07 23:30","2023","02","07","23:30","-14.5","","-20.0","","63","","","M","9","","10","","","","102.11","","","","-21","","NA"
"-57.10","51.02","FEROLLE POINT (AUT)","8401565","2023-02-08 00:30","2023","02","08","00:30","-13.4","","-17.1","","74","","","M","8","","13","","","","101.93","","","","-20","","NA"
"-57.10","51.02","FEROLLE POINT (AUT)","8401565","2023-02-08 01:30","2023","02","08","01:30","-13.8","","-17.2","","75","","","M","11","","13","","","","101.79","","","","-21","","NA"
"-57.10","51.02","FEROLLE POINT (AUT)","8401565","2023-02-08 02:30","2023","02","08","02:30","-12.0","","-16.0","","72","","","M","11","","8","","","","101.65","","","","-17","","NA"
"-57.10","51.02","FEROLLE POINT (AUT)","8401565","2023-02-08 03:30","2023","02","08","03:30","-11.3","","-15.2","","73","","","M","10","","6","","","","101.58","","","","-15","","NA"
"-57.10","51.02","FEROLLE POINT (AUT)","8401565","2023-02-08 04:30","2023","02","08","04:30","-10.5","","-16.0","","64","","","M","10","","9","","","","101.48","","","","-15","","NA"
"-57.10","51.02","FEROLLE POINT (AUT)","8401565","2023-02-08 05:30","2023","02","08","05:30","-12.6","","-16.9","","71","","","M","11","","12","","","","101.36","","","","-19","","NA"
"-57.10","51.02","FEROLLE POINT (AUT)","8401565","2023-02-08 06:30","2023","02","08","06:30","-13.1","","-17.2","","71","","","M","10","","14","","","","101.25","","","","-20","","NA"
"-57.10","51.02","FEROLLE POINT (AUT)","8401565","2023-02-08 07:30","2023","02","08","07:30","-12.0","","-16.4","","69","","","M","11","","17","","","","101.12","","","","-20","","NA"
"-57.10","51.02","FEROLLE POINT (AUT)","8401565","2023-02-08 08:30","2023","02","08","08:30","-11.9","","-16.5","","69","","","M","10","","14","","","","100.99","","","","-19","","NA"
"-57.10","51.02","FEROLLE POINT (AUT)","8401565","2023-02-08 09:30","2023","02","08","09:30","-8.9","","-14.5","","64","","","M","12","","8","","","","100.91","","","","-13","","NA"
"-57.10","51.02","FEROLLE POINT (AUT)","8401565","2023-02-08 10:30","2023","02","08","10:30","-6.0","","-13.0","","58","","","M","16","","11","","","","100.80","","","","-11","","NA"
"-57.10","51.02","FEROLLE POINT (AUT)","8401565","2023-02-08 11:30","2023","02","08","11:30","-5.4","","-13.1","","55","","","M","17","","23","","","","100.67","","","","-13","","NA"
"-57.10","51.02","FEROLLE POINT (AUT)","8401565","2023-02-08 12:30","2023","02","08","12:30","-4.9","","-11.4","","60","","","M","18","","23","","","","100.53","","","","-12","","NA"
"-57.10","51.02","FEROLLE POINT (AUT)","8401565","2023-02-08 13:30","2023","02","08","13:30","-4.8","","-10.6","","64","","","M","20","","24","","","","100.36","","","","-12","","NA"
"-57.10","51.02","FEROLLE POINT (AUT)","8401565","2023-02-08 14:30","2023","02","08","14:30","-4.4","","-9.0","","71","","","M","19","","28","","","","100.24","","","","-12","","NA"
"-57.10","51.02","FEROLLE POINT (AUT)","8401565","2023-02-08 15:30","2023","02","08","15:30","-4.1","","-7.7","","76","","","M","18","","26","","","","100.15","","","","-11","","NA"
"-57.10","51.02","FEROLLE POINT (AUT)","8401565","2023-02-08 16:30","2023","02","08","16:30","-4.1","","-7.5","","78","","","M","19","","24","","","","100.06","","","","-11","","NA"
"-57.10","51.02","FEROLLE POINT (AUT)","8401565","2023-02-08 17:30","2023","02","08","17:30","-4.4","","-7.6","","79","","","M","19","","28","","","","100.02","","","","-12","","NA"
"-57.10","51.02","FEROLLE POINT (AUT)","8401565","2023-02-08 18:30","2023","02","08","18:30","-4.7","","-7.8","","79","","","M","19","","28","","","","99.97","","","","-12","","NA"
"-57.10","51.02","FEROLLE POINT (AUT)","8401565","2023-02-08 19:30","2023","02","08","19:30","-4.7","","-7.5","","81","","","M","19","","30","","","","99.94","","","","-13","","NA"
"-57.10","51.02","FEROLLE POINT (AUT)","8401565","2023-02-08 20:30","2023","02","08","20:30","-3.9","","-5.9","","86","","","M","18","","30","","","","99.86","","","","-12","","NA"
"-57.10","51.02","FEROLLE POINT (AUT)","8401565","2023-02-08 21:30","2023","02","08","21:30","-3.8","","-4.5","","95","","","M","18","","28","","","","99.80","","","","-11","","NA"
"-57.10","51.02","FEROLLE POINT (AUT)","8401565","2023-02-08 22:30","2023","02","08","22:30","-3.0","","-3.0","","100","","","M","29","","23","","","","99.75","","","","-9","","NA"
"-57.10","51.02","FEROLLE POINT (AUT)","8401565","2023-02-08 23:30","2023","02","08","23:30","-3.5","","-6.6","","79","","","M","33","","27","","","","99.77","","","","-11","","NA"
"-57.10","51.02","FEROLLE POINT (AUT)","8401565","2023-02-09 00:30","2023","02","09","00:30","-3.1","","-6.4","","78","","","M","33","","21","","","","99.76","","","","-9","","NA"
"-57.10","51.02","FEROLLE POINT (AUT)","8401565","2023-02-09 01:30","2023","02","09","01:30","-3.0","","-7.0","","74","","","M","32","","27","","","","99.77","","","","-10","","NA"
"-57.10","51.02","FEROLLE POINT (AUT)","8401565","2023-02-09 02:30","2023","02","09","02:30","-3.4","","-6.8","","77","","","M","32","","39","","","","99.80","","","","-12","","NA"
"-57.10","51.02","FEROLLE POINT (AUT)","8401565","2023-02-09 03:30","2023","02","09","03:30","-5.6","","-8.4","","80","","","M","33","","49","","","","99.92","","","","-16","","NA"
"-57.10","51.02","FEROLLE POINT (AUT)","8401565","2023-02-09 04:30","2023","02","09","04:30","-7.4","","-10.2","","80","","","M","33","","44","","","","100.01","","","","-18","","NA"
"-57.10","51.02","FEROLLE POINT (AUT)","8401565","2023-02-09 05:30","2023","02","09","05:30","-9.6","","-12.4","","80","","","M","34","","41","","","","100.08","","","","-20","","NA"
"-57.10","51.02","FEROLLE POINT (AUT)","8401565","2023-02-09 06:30","2023","02","09","06:30","-11.2","","-14.2","","78","","","M","33","","37","","","","100.23","","","","-22","","NA"
"-57.10","51.02","FEROLLE POINT (AUT)","8401565","2023-02-09 07:30","2023","02","09","07:30","-11.9","","-15.1","","77","","","M","32","","32","","","","100.36","","","","-22","","NA"
"-57.10","51.02","FEROLLE POINT (AUT)","8401565","2023-02-09 08:30","2023","02","09","08:30","-12.6","","-15.8","","77","","","M","32","","37","","","","100.49","","","","-24","","NA"
"-57.10","51.02","FEROLLE POINT (AUT)","8401565","2023-02-09 09:30","2023","02","09","09:30","-13.6","","-17.1","","75","","","M","30","","33","","","","100.57","","","","-25","","NA"
"-57.10","51.02","FEROLLE POINT (AUT)","8401565","2023-02-09 10:30","2023","02","09","10:30","-14.3","","-17.9","","74","","","M","30","","30","","","","100.62","","","","-25","","NA"
"-57.10","51.02","FEROLLE POINT (AUT)","8401565","2023-02-09 11:30","2023","02","09","11:30","-14.2","","-17.4","","76","","","M","30","","34","","","","100.68","","","","-26","","NA"
"-57.10","51.02","FEROLLE POINT (AUT)","8401565","2023-02-09 12:30","2023","02","09","12:30","-14.1","","-17.0","","79","","","M","30","","34","","","","100.69","","","","-25","","NA"
"-57.10","51.02","FEROLLE POINT (AUT)","8401565","2023-02-09 13:30","2023","02","09","13:30","-13.9","","-17.3","","75","","","M","30","","32","","","","100.77","","","","-25","","NA"
"-57.10","51.02","FEROLLE POINT (AUT)","8401565","2023-02-09 14:30","2023","02","09","14:30","-13.2","","-17.1","","72","","","M","30","","34","","","","100.85","","","","-24","","NA"
"-57.10","51.02","FEROLLE POINT (AUT)","8401565","2023-02-09 15:30","2023","02","09","15:30","-12.4","","-17.1","","68","","","M","30","","29","","","","100.94","","","","-23","","NA"
"-57.10","51.02","FEROLLE POINT (AUT)","8401565","2023-02-09 16:30","2023","02","09","16:30","-11.4","","-16.3","","67","","","M","31","","29","","","","101.03","","","","-21","","NA"
"-57.10","51.02","FEROLLE POINT (AUT)","8401565","2023-02-09 17:30","2023","02","09","17:30","-10.3","","-15.1","","68","","","M","29","","31","","","","101.14","","","","-20","","NA"
"-57.10","51.02","FEROLLE POINT (AUT)","8401565","2023-02-09 18:30","2023","02","09","18:30","-9.8","","-14.7","","67","","","M","30","","30","","","","101.25","","","","-19","","NA"
"-57.10","51.02","FEROLLE POINT (AUT)","8401565","2023-02-09 19:30","2023","02","09","19:30","-10.0","","-15.1","","66","","","M","31","","34","","","","101.34","","","","-20","","NA"
"-57.10","51.02","FEROLLE POINT (AUT)","8401565","2023-02-09 20:30","2023","02","09","20:30","-10.5","","-14.7","","71","","","M","33","","32","","","","101.48","","","","-20","","NA"
"-57.10","51.02","FEROLLE POINT (AUT)","8401565","2023-02-09 21:30","2023","02","09","21:30","-11.4","","-15.7","","70","","","M","33","","32","","","","101.57","","","","-22","","NA"
"-57.10","51.02","FEROLLE POINT (AUT)","8401565","2023-02-09 22:30","2023","02","09","22:30","-11.6","","-16.3","","68","","","M","34","","25","","","","101.64","","","","-21","","NA"
"-57.10","51.02","FEROLLE POINT (AUT)","8401565","2023-02-09 23:30","2023","02","09","23:30","-11.4","","-15.7","","70","","","M","34","","19","","","","101.63","","","","-19","","NA"
"-57.10","51.02","FEROLLE POINT (AUT)","8401565","2023-02-10 00:30","2023","02","10","00:30","-11.6","","-16.4","","67","","","M","33","","15","","","","101.68","","","","-19","","NA"
"-57.10","51.02","FEROLLE POINT (AUT)","8401565","2023-02-10 01:30","2023","02","10","01:30","-11.3","","-15.3","","72","","","M","32","","14","","","","101.71","","","","-18","","NA"
"-57.10","51.02","FEROLLE POINT (AUT)","8401565","2023-02-10 02:30","2023","02","10","02:30","-10.8","","-14.8","","72","","","M","30","","16","","","","101.74","","","","-18","","NA"
"-57.10","51.02","FEROLLE POINT (AUT)","8401565","2023-02-10 03:30","2023","02","10","03:30","-10.9","","-14.8","","73","","","M","29","","16","","","","101.72","","","","-18","","NA"
"-57.10","51.02","FEROLLE POINT (AUT)","8401565","2023-02-10 04:30","2023","02","10","04:30","-10.7","","-14.3","","75","","","M","28","","13","","","","101.72","","","","-17","","NA"
"-57.10","51.02","FEROLLE POINT (AUT)","8401565","2023-02-10 05:30","2023","02","10","05:30","-10.7","","-13.7","","78","","","M","27","","17","","","","101.73","","","","-18","","NA"
"-57.10","51.02","FEROLLE POINT (AUT)","8401565","2023-02-10 06:30","2023","02","10","06:30","-10.6","","-13.6","","79","","","M","26","","18","","","","101.76","","","","-18","","NA"
"-57.10","51.02","FEROLLE POINT (AUT)","8401565","2023-02-10 07:30","2023","02","10","07:30","-10.6","","-13.5","","79","","","M","25","","17","","","","101.79","","","","-18","","NA"
"-57.10","51.02","FEROLLE POINT (AUT)","8401565","2023-02-10 08:30","2023","02","10","08:30","-10.4","","-13.5","","78","","","M","26","","20","","","","101.80","","","","-18","","NA"
"-57.10","51.02","FEROLLE POINT (AUT)","8401565","2023-02-10 09:30","2023","02","10","09:30","-10.3","","-13.5","","78","","","M","23","","16","","","","101.75","","","","-17","","NA"
"-57.10","51.02","FEROLLE POINT (AUT)","8401565","2023-02-10 10:30","2023","02","10","10:30","-10.2","","-13.3","","78","","","M","25","","14","","","","101.70","","","","-17","","NA"
"-57.10","51.02","FEROLLE POINT (AUT)","8401565","2023-02-10 11:30","2023","02","10","11:30","-10.2","","-13.2","","78","","","M","26","","12","","","","101.64","","","","-16","","NA"
"-57.10","51.02","FEROLLE POINT (AUT)","8401565","2023-02-10 12:30","2023","02","10","12:30","-10.0","","-13.5","","76","","","M","27","","11","","","","101.51","","","","-16","","NA"
"-57.10","51.02","FEROLLE POINT (AUT)","8401565","2023-02-10 13:30","2023","02","10","13:30","-9.6","","-12.9","","77","","","M","29","","10","","","","101.39","","","","-15","","NA"
"-57.10","51.02","FEROLLE POINT (AUT)","8401565","2023-02-10 14:30","2023","02","10","14:30","-9.6","","-12.8","","77","","","M","26","","4","","","","101.32","","","","-12","","NA"
"-57.10","51.02","FEROLLE POINT (AUT)","8401565","2023-02-10 15:30","2023","02","10","15:30","-9.5","","-13.0","","75","","","M","","","0","","","","101.27","","","","","","NA"
"-57.10","51.02","FEROLLE POINT (AUT)","8401565","2023-02-10 16:30","2023","02","10","16:30","-9.9","","-12.8","","79","","","M","5","","7","","","","101.17","","","","-14","","NA"
"-57.10","51.02","FEROLLE POINT (AUT)","8401565","2023-02-10 17:30","2023","02","10","17:30","-9.4","","-12.1","","81","","","M","7","","15","","","","101.07","","","","-16","","NA"
"-57.10","51.02","FEROLLE POINT (AUT)","8401565","2023-02-10 18:30","2023","02","10","18:30","-8.9","","-12.2","","77","","","M","8","","22","","","","100.94","","","","-17","","NA"
"-57.10","51.02","FEROLLE POINT (AUT)","8401565","2023-02-10 19:30","2023","02","10","19:30","-8.7","","-12.1","","77","","","M","9","","26","","","","100.76","","","","-17","","NA"
"-57.10","51.02","FEROLLE POINT (AUT)","8401565","2023-02-10 20:30","2023","02","10","20:30","-8.5","","-11.8","","77","","","M","9","","17","","","","100.72","","","","-15","","NA"
"-57.10","51.02","FEROLLE POINT (AUT)","8401565","2023-02-10 21:30","2023","02","10","21:30","-8.0","","-11.0","","79","","","M","8","","20","","","","100.58","","","","-15","","NA"
"-57.10","51.02","FEROLLE POINT (AUT)","8401565","2023-02-10 22:30","2023","02","10","22:30","-8.0","","-9.3","","91","","","M","6","","24","","","","100.41","","","","-16","","NA"
"-57.10","51.02","FEROLLE POINT (AUT)","8401565","2023-02-10 23:30","2023","02","10","23:30","-7.9","","-9.0","","92","","","M","6","","33","","","","100.28","","","","-17","","NA"
"-57.10","51.02","FEROLLE POINT (AUT)","8401565","2023-02-11 00:30","2023","02","11","00:30","-7.8","","-8.5","","95","","","M","6","","35","","","","100.10","","","","-17","","NA"
"-57.10","51.02","FEROLLE POINT (AUT)","8401565","2023-02-11 01:30","2023","02","11","01:30","-7.6","","-8.2","","95","","","M","5","","40","","","","99.93","","","","-18","","NA"
"-57.10","51.02","FEROLLE POINT (AUT)","8401565","2023-02-11 02:30","2023","02","11","02:30","-8.8","","-9.7","","94","","","M","5","","51","","","","99.76","","","","-20","","NA"
"-57.10","51.02","FEROLLE POINT (AUT)","8401565","2023-02-11 03:30","2023","02","11","03:30","-9.4","","-10.4","","93","","","M","5","","56","","","","99.68","","","","-21","","NA"
"-57.10","51.02","FEROLLE POINT (AUT)","8401565","2023-02-11 04:30","2023","02","11","04:30","-10.5","","-11.7","","91","","","M","5","","59","","","","99.66","","","","-23","","NA"
"-57.10","51.02","FEROLLE POINT (AUT)","8401565","2023-02-11 05:30","2023","02","11","05:30","-10.7","","-11.9","","91","","","M","5","","61","","","","99.67","","","","-24","","NA"
"-57.10","51.02","FEROLLE POINT (AUT)","8401565","2023-02-11 06:30","2023","02","11","06:30","-10.6","","-11.9","","90","","","M","5","","60","","","","99.72","","","","-23","","NA"
"-57.10","51.02","FEROLLE POINT (AUT)","8401565","2023-02-11 07:30","2023","02","11","07:30","-11.0","","-12.4","","89","","","M","5","","58","","","","99.73","","","","-24","","NA"
"-57.10","51.02","FEROLLE POINT (AUT)","8401565","2023-02-11 08:30","2023","02","11","08:30","-11.2","","-12.7","","89","","","M","5","","47","","","","99.81","","","","-23","","NA"
"-57.10","51.02","FEROLLE POINT (AUT)","8401565","2023-02-11 09:30","2023","02","11","09:30","-12.3","","-13.9","","88","","","M","5","","45","","","","99.90","","","","-24","","NA"
"-57.10","51.02","FEROLLE POINT (AUT)","8401565","2023-02-11 10:30","2023","02","11","10:30","-12.1","","-13.6","","88","","","M","4","","43","","","","99.92","","","","-24","","NA"
"-57.10","51.02","FEROLLE POINT (AUT)","8401565","2023-02-11 11:30","2023","02","11","11:30","-11.6","","-13.1","","89","","","M","3","","40","","","","99.95","","","","-23","","NA"
"-57.10","51.02","FEROLLE POINT (AUT)","8401565","2023-02-11 12:30","2023","02","11","12:30","-12.0","","-14.2","","84","","","M","3","","32","","","","99.99","","","","-22","","NA"
"-57.10","51.02","FEROLLE POINT (AUT)","8401565","2023-02-11 13:30","2023","02","11","13:30","-12.2","","-14.3","","84","","","M","1","","24","","","","99.98","","","","-21","","NA"
"-57.10","51.02","FEROLLE POINT (AUT)","8401565","2023-02-11 14:30","2023","02","11","14:30","-11.9","","-14.2","","83","","","M","36","","21","","","","99.99","","","","-20","","NA"
"-57.10","51.02","FEROLLE POINT (AUT)","8401565","2023-02-11 15:30","2023","02","11","15:30","-12.4","","-14.6","","83","","","M","35","","29","","","","100.04","","","","-23","","NA"
"-57.10","51.02","FEROLLE POINT (AUT)","8401565","2023-02-11 16:30","2023","02","11","16:30","-12.1","","-15.2","","78","","","M","35","","30","","","","100.09","","","","-22","","NA"
"-57.10","51.02","FEROLLE POINT (AUT)","8401565","2023-02-11 17:30","2023","02","11","17:30","-11.8","","-15.7","","73","","","M","33","","32","","","","100.15","","","","-22","","NA"
"-57.10","51.02","FEROLLE POINT (AUT)","8401565","2023-02-11 18:30","2023","02","11","18:30","-12.0","","-16.0","","72","","","M","33","","33","","","","100.28","","","","-23","","NA"
"-57.10","51.02","FEROLLE POINT (AUT)","8401565","2023-02-11 19:30","2023","02","11","19:30","-13.1","","-17.6","","69","","","M","33","","40","","","","100.35","","","","-25","","NA"
"-57.10","51.02","FEROLLE POINT (AUT)","8401565","2023-02-11 20:30","2023","02","11","20:30","-13.8","","-17.7","","72","","","M","33","","36","","","","100.41","","","","-25","","NA"
"-57.10","51.02","FEROLLE POINT (AUT)","8401565","2023-02-11 21:30","2023","02","11","21:30","-15.4","","-19.0","","74","","","M","32","","39","","","","100.45","","","","-28","","NA"
"-57.10","51.02","FEROLLE POINT (AUT)","8401565","2023-02-11 22:30","2023","02","11","22:30","-16.0","","-19.8","","72","","","M","32","","37","","","","100.48","","","","-28","","NA"
"-57.10","51.02","FEROLLE POINT (AUT)","8401565","2023-02-11 23:30","2023","02","11","23:30","-16.1","","-19.9","","73","","","M","32","","37","","","","100.52","","","","-29","","NA"
"-57.10","51.02","FEROLLE POINT (AUT)","8401565","2023-02-12 00:30","2023","02","12","00:30","-16.1","","-19.7","","74","","","M","32","","35","","","","100.49","","","","-28","","NA"
"-57.10","51.02","FEROLLE POINT (AUT)","8401565","2023-02-12 01:30","2023","02","12","01:30","-16.7","","-20.5","","73","","","M","31","","35","","","","100.54","","","","-29","","NA"
"-57.10","51.02","FEROLLE POINT (AUT)","8401565","2023-02-12 02:30","2023","02","12","02:30","-16.5","","-20.1","","74","","","M","30","","33","","","","100.58","","","","-28","","NA"
"-57.10","51.02","FEROLLE POINT (AUT)","8401565","2023-02-12 03:30","2023","02","12","03:30","-16.2","","-19.6","","75","","","M","30","","32","","","","100.60","","","","-28","","NA"
"-57.10","51.02","FEROLLE POINT (AUT)","8401565","2023-02-12 04:30","2023","02","12","04:30","-16.0","","-19.3","","76","","","M","30","","32","","","","100.65","","","","-28","","NA"
"-57.10","51.02","FEROLLE POINT (AUT)","8401565","2023-02-12 05:30","2023","02","12","05:30","-15.4","","-18.6","","77","","","M","30","","32","","","","100.66","","","","-27","","NA"
"-57.10","51.02","FEROLLE POINT (AUT)","8401565","2023-02-12 06:30","2023","02","12","06:30","-14.9","","-17.9","","78","","","M","30","","26","","","","100.68","","","","-25","","NA"
"-57.10","51.02","FEROLLE POINT (AUT)","8401565","2023-02-12 07:30","2023","02","12","07:30","-14.1","","-17.2","","78","","","M","29","","28","","","","100.70","","","","-25","","NA"
"-57.10","51.02","FEROLLE POINT (AUT)","8401565","2023-02-12 08:30","2023","02","12","08:30","-13.4","","-16.7","","76","","","M","28","","30","","","","100.71","","","","-24","","NA"
"-57.10","51.02","FEROLLE POINT (AUT)","8401565","2023-02-12 09:30","2023","02","12","09:30","-12.6","","-15.8","","77","","","M","29","","30","","","","100.67","","","","-23","","NA"
"-57.10","51.02","FEROLLE POINT (AUT)","8401565","2023-02-12 10:30","2023","02","12","10:30","-12.1","","-15.3","","77","","","M","29","","28","","","","100.63","","","","-22","","NA"
"-57.10","51.02","FEROLLE POINT (AUT)","8401565","2023-02-12 11:30","2023","02","12","11:30","-11.9","","-16.0","","71","","","M","27","","27","","","","100.62","","","","-22","","NA"
"-57.10","51.02","FEROLLE POINT (AUT)","8401565","2023-02-12 12:30","2023","02","12","12:30","-11.1","","-15.1","","72","","","M","27","","25","","","","100.59","","","","-20","","NA"
"-57.10","51.02","FEROLLE POINT (AUT)","8401565","2023-02-12 13:30","2023","02","12","13:30","-10.4","","-14.4","","73","","","M","27","","25","","","","100.50","","","","-19","","NA"
"-57.10","51.02","FEROLLE POINT (AUT)","8401565","2023-02-12 14:30","2023","02","12","14:30","-9.7","","-12.8","","78","","","M","26","","22","","","","100.47","","","","-18","","NA"
"-57.10","51.02","FEROLLE POINT (AUT)","8401565","2023-02-12 15:30","2023","02","12","15:30","-9.0","","-11.7","","81","","","M","25","","17","","","","100.42","","","","-16","","NA"
"-57.10","51.02","FEROLLE POINT (AUT)","8401565","2023-02-12 16:30","2023","02","12","16:30","-8.7","","-11.2","","82","","","M","25","","15","","","","100.35","","","","-15","","NA"
"-57.10","51.02","FEROLLE POINT (AUT)","8401565","2023-02-12 17:30","2023","02","12","17:30","-7.9","","-10.6","","81","","","M","23","","17","","","","100.33","","","","-15","","NA"
"-57.10","51.02","FEROLLE POINT (AUT)","8401565","2023-02-12 18:30","2023","02","12","18:30","-7.3","","-9.5","","84","","","M","23","","12","","","","100.33","","","","-13","","NA"
"-57.10","51.02","FEROLLE POINT (AUT)","8401565","2023-02-12 19:30","2023","02","12","19:30","-7.2","","-8.8","","89","","","M","17","","21","","","","100.33","","","","-15","","NA"
"-57.10","51.02","FEROLLE POINT (AUT)","8401565","2023-02-12 20:30","2023","02","12","20:30","-6.9","","-8.1","","91","","","M","18","","19","","","","100.30","","","","-14","","NA"
"-57.10","51.02","FEROLLE POINT (AUT)","8401565","2023-02-12 21:30","2023","02","12","21:30","-6.0","","-7.6","","89","","","M","19","","25","","","","100.24","","","","-14","","NA"
"-57.10","51.02","FEROLLE POINT (AUT)","8401565","2023-02-12 22:30","2023","02","12","22:30","-6.7","","-7.1","","97","","","M","33","","16","","","","100.29","","","","-13","","NA"
"-57.10","51.02","FEROLLE POINT (AUT)","8401565","2023-02-12 23:30","2023","02","12","23:30","-7.8","","-8.5","","95","","","M","32","","12","","","","100.30","","","","-13","","NA"
"-57.10","51.02","FEROLLE POINT (AUT)","8401565","2023-02-13 00:30","2023","02","13","00:30","-7.3","","-8.4","","92","","","M","31","","18","","","","100.30","","","","-14","","NA"
"-57.10","51.02","FEROLLE POINT (AUT)","8401565","2023-02-13 01:30","2023","02","13","01:30","-8.1","","-10.7","","81","","","M","32","","31","","","","100.34","","","","-17","","NA"
"-57.10","51.02","FEROLLE POINT (AUT)","8401565","2023-02-13 02:30","2023","02","13","02:30","-9.7","","-12.8","","78","","","M","32","","27","","","","100.41","","","","-19","","NA"
"-57.10","51.02","FEROLLE POINT (AUT)","8401565","2023-02-13 03:30","2023","02","13","03:30","-10.1","","-12.5","","82","","","M","31","","31","","","","100.47","","","","-20","","NA"
"-57.10","51.02","FEROLLE POINT (AUT)","8401565","2023-02-13 04:30","2023","02","13","04:30","-11.1","","-13.7","","81","","","M","31","","34","","","","100.55","","","","-22","","NA"
"-57.10","51.02","FEROLLE POINT (AUT)","8401565","2023-02-13 05:30","2023","02","13","05:30","-12.8","","-16.7","","73","","","M","32","","36","","","","100.65","","","","-24","","NA"
"-57.10","51.02","FEROLLE POINT (AUT)","8401565","2023-02-13 06:30","2023","02","13","06:30","-13.5","","-17.5","","72","","","M","32","","28","","","","100.78","","","","-24","","NA"
"-57.10","51.02","FEROLLE POINT (AUT)","8401565","2023-02-13 07:30","2023","02","13","07:30","-14.3","","-18.4","","71","","","M","31","","23","","","","100.88","","","","-24","","NA"
"-57.10","51.02","FEROLLE POINT (AUT)","8401565","2023-02-13 08:30","2023","02","13","08:30","-14.2","","-18.1","","72","","","M","33","","22","","","","100.94","","","","-24","","NA"
"-57.10","51.02","FEROLLE POINT (AUT)","8401565","2023-02-13 09:30","2023","02","13","09:30","-14.0","","-17.8","","73","","","M","33","","22","","","","100.99","","","","-23","","NA"
"-57.10","51.02","FEROLLE POINT (AUT)","8401565","2023-02-13 10:30","2023","02","13","10:30","-14.0","","-17.4","","75","","","M","32","","23","","","","101.04","","","","-24","","NA"
"-57.10","51.02","FEROLLE POINT (AUT)","8401565","2023-02-13 11:30","2023","02","13","11:30","-14.1","","-18.3","","71","","","M","32","","20","","","","101.05","","","","-23","","NA"
"-57.10","51.02","FEROLLE POINT (AUT)","8401565","2023-02-13 12:30","2023","02","13","12:30","-13.4","","-18.1","","68","","","M","33","","13","","","","101.03","","","","-20","","NA"
"-57.10","51.02","FEROLLE POINT (AUT)","8401565","2023-02-13 13:30","2023","02","13","13:30","-12.6","","-18.1","","63","","","M","34","","12","","","","101.02","","","","-19","","NA"
"-57.10","51.02","FEROLLE POINT (AUT)","8401565","2023-02-13 14:30","2023","02","13","14:30","-11.9","","-17.4","","63","","","M","32","","15","","","","101.05","","","","-19","","NA"
"-57.10","51.02","FEROLLE POINT (AUT)","8401565","2023-02-13 15:30","2023","02","13","15:30","-11.6","","-16.2","","69","","","M","33","","13","","","","101.01","","","","-18","","NA"
"-57.10","51.02","FEROLLE POINT (AUT)","8401565","2023-02-13 16:30","2023","02","13","16:30","-12.5","","-17.3","","67","","","M","4","","6","","","","101.06","","","","-16","","NA"
"-57.10","51.02","FEROLLE POINT (AUT)","8401565","2023-02-13 17:30","2023","02","13","17:30","-14.5","","-18.9","","69","","","M","","","0","","","","101.12","","","","","","NA"
"-57.10","51.02","FEROLLE POINT (AUT)","8401565","2023-02-13 18:30","2023","02","13","18:30","-16.0","","-20.3","","70","","","M","","","0","","","","101.07","","","","","","NA"
"-57.10","51.02","FEROLLE POINT (AUT)","8401565","2023-02-13 19:30","2023","02","13","19:30","-15.5","","-19.6","","71","","","M","","","0","","","","101.14","","","","","","NA"
"-57.10","51.02","FEROLLE POINT (AUT)","8401565","2023-02-13 20:30","2023","02","13","20:30","-15.3","","-18.3","","77","","","M","","","0","","","","101.15","","","","","","NA"
"-57.10","51.02","FEROLLE POINT (AUT)","8401565","2023-02-13 21:30","2023","02","13","21:30","-14.3","","-18.5","","70","","","M","","","0","","","","101.11","","","","","","NA"
"-57.10","51.02","FEROLLE POINT (AUT)","8401565","2023-02-13 22:30","2023","02","13","22:30","-16.6","","-19.5","","78","","","M","","","0","","","","101.06","","","","","","NA"
"-57.10","51.02","FEROLLE POINT (AUT)","8401565","2023-02-13 23:30","2023","02","13","23:30","-15.2","","-17.8","","81","","","M","6","","15","","","","100.98","","","","-23","","NA"
"-57.10","51.02","FEROLLE POINT (AUT)","8401565","2023-02-14 00:30","2023","02","14","00:30","-14.6","","-18.0","","75","","","M","6","","21","","","","100.88","","","","-24","","NA"
"-57.10","51.02","FEROLLE POINT (AUT)","8401565","2023-02-14 01:30","2023","02","14","01:30","-15.2","","-18.5","","76","","","M","6","","20","","","","100.82","","","","-24","","NA"
"-57.10","51.02","FEROLLE POINT (AUT)","8401565","2023-02-14 02:30","2023","02","14","02:30","-15.8","","-18.9","","76","","","M","7","","18","","","","100.81","","","","-25","","NA"
"-57.10","51.02","FEROLLE POINT (AUT)","8401565","2023-02-14 03:30","2023","02","14","03:30","-15.0","","-18.4","","75","","","M","6","","24","","","","100.72","","","","-25","","NA"
"-57.10","51.02","FEROLLE POINT (AUT)","8401565","2023-02-14 04:30","2023","02","14","04:30","-15.2","","-18.3","","77","","","M","7","","27","","","","100.71","","","","-26","","NA"
"-57.10","51.02","FEROLLE POINT (AUT)","8401565","2023-02-14 05:30","2023","02","14","05:30","-14.5","","-17.3","","80","","","M","6","","33","","","","100.65","","","","-26","","NA"
"-57.10","51.02","FEROLLE POINT (AUT)","8401565","2023-02-14 06:30","2023","02","14","06:30","-13.8","","-16.1","","82","","","M","6","","32","","","","100.66","","","","-25","","NA"
"-57.10","51.02","FEROLLE POINT (AUT)","8401565","2023-02-14 07:30","2023","02","14","07:30","-13.6","","-15.7","","84","","","M","6","","32","","","","100.70","","","","-25","","NA"
"-57.10","51.02","FEROLLE POINT (AUT)","8401565","2023-02-14 08:30","2023","02","14","08:30","-12.9","","-14.8","","86","","","M","6","","41","","","","100.74","","","","-25","","NA"
"-57.10","51.02","FEROLLE POINT (AUT)","8401565","2023-02-14 09:30","2023","02","14","09:30","-13.0","","-15.0","","85","","","M","6","","37","","","","100.84","","","","-24","","NA"
"-57.10","51.02","FEROLLE POINT (AUT)","8401565","2023-02-14 10:30","2023","02","14","10:30","-12.5","","-14.4","","85","","","M","5","","40","","","","100.74","","","","-24","","NA"
"-57.10","51.02","FEROLLE POINT (AUT)","8401565","2023-02-14 11:30","2023","02","14","11:30","-11.6","","-13.8","","84","","","M","6","","39","","","","100.70","","","","-23","","NA"
"-57.10","51.02","FEROLLE POINT (AUT)","8401565","2023-02-14 12:30","2023","02","14","12:30","-11.4","","-13.9","","81","","","M","6","","37","","","","100.69","","","","-22","","NA"
"-57.10","51.02","FEROLLE POINT (AUT)","8401565","2023-02-14 13:30","2023","02","14","13:30","-11.0","","-14.1","","78","","","M","6","","33","","","","100.69","","","","-21","","NA"
"-57.10","51.02","FEROLLE POINT (AUT)","8401565","2023-02-14 14:30","2023","02","14","14:30","-10.9","","-13.9","","79","","","M","5","","31","","","","100.73","","","","-21","","NA"
"-57.10","51.02","FEROLLE POINT (AUT)","8401565","2023-02-14 15:30","2023","02","14","15:30","-10.5","","-13.4","","80","","","M","7","","30","","","","100.78","","","","-20","","NA"
"-57.10","51.02","FEROLLE POINT (AUT)","8401565","2023-02-14 16:30","2023","02","14","16:30","-10.1","","-12.6","","82","","","M","5","","32","","","","100.81","","","","-20","","NA"
"-57.10","51.02","FEROLLE POINT (AUT)","8401565","2023-02-14 17:30","2023","02","14","17:30","-10.1","","-12.7","","81","","","M","5","","30","","","","100.87","","","","-20","","NA"
"-57.10","51.02","FEROLLE POINT (AUT)","8401565","2023-02-14 18:30","2023","02","14","18:30","-9.8","","-12.1","","84","","","M","5","","27","","","","100.93","","","","-19","","NA"
"-57.10","51.02","FEROLLE POINT (AUT)","8401565","2023-02-14 19:30","2023","02","14","19:30","-10.0","","-12.4","","83","","","M","5","","27","","","","101.00","","","","-19","","NA"
"-57.10","51.02","FEROLLE POINT (AUT)","8401565","2023-02-14 20:30","2023","02","14","20:30","-9.0","","-11.1","","85","","","M","4","","23","","","","101.01","","","","-17","","NA"
"-57.10","51.02","FEROLLE POINT (AUT)","8401565","2023-02-14 21:30","2023","02","14","21:30","-8.4","","-10.8","","83","","","M","1","","28","","","","101.06","","","","-17","","NA"
"-57.10","51.02","FEROLLE POINT (AUT)","8401565","2023-02-14 22:30","2023","02","14","22:30","-8.2","","-10.8","","82","","","M","3","","25","","","","101.10","","","","-16","","NA"
"-57.10","51.02","FEROLLE POINT (AUT)","8401565","2023-02-14 23:30","2023","02","14","23:30","-7.9","","-10.5","","82","","","M","3","","19","","","","101.12","","","","-15","","NA"
"-57.10","51.02","FEROLLE POINT (AUT)","8401565","2023-02-15 00:30","2023","02","15","00:30","-8.7","","-11.1","","83","","","M","5","","19","","","","101.11","","","","-16","","NA"
"-57.10","51.02","FEROLLE POINT (AUT)","8401565","2023-02-15 01:30","2023","02","15","01:30","-8.7","","-10.7","","85","","","M","4","","17","","","","101.11","","","","-16","","NA"
"-57.10","51.02","FEROLLE POINT (AUT)","8401565","2023-02-15 02:30","2023","02","15","02:30","-9.3","","-11.4","","85","","","M","10","","10","","","","101.12","","","","-14","","NA"
"-57.10","51.02","FEROLLE POINT (AUT)","8401565","2023-02-15 03:30","2023","02","15","03:30","-9.6","","-11.4","","87","","","M","10","","10","","","","101.16","","","","-15","","NA"
"-57.10","51.02","FEROLLE POINT (AUT)","8401565","2023-02-15 04:30","2023","02","15","04:30","-9.2","","-10.9","","87","","","M","","","0","","","","101.16","","","","","","NA"
"-57.10","51.02","FEROLLE POINT (AUT)","8401565","2023-02-15 05:30","2023","02","15","05:30","-8.9","","-10.7","","87","","","M","","","0","","","","101.19","","","","","","NA"
"-57.10","51.02","FEROLLE POINT (AUT)","8401565","2023-02-15 06:30","2023","02","15","06:30","-8.9","","-10.7","","87","","","M","25","","8","","","","101.18","","","","-13","","NA"
"-57.10","51.02","FEROLLE POINT (AUT)","8401565","2023-02-15 07:30","2023","02","15","07:30","-8.6","","-10.7","","85","","","M","24","","14","","","","101.24","","","","-15","","NA"
"-57.10","51.02","FEROLLE POINT (AUT)","8401565","2023-02-15 08:30","2023","02","15","08:30","-8.2","","-10.7","","82","","","M","23","","17","","","","101.26","","","","-15","","NA"
"-57.10","51.02","FEROLLE POINT (AUT)","8401565","2023-02-15 09:30","2023","02","15","09:30","-7.5","","-9.2","","87","","","M","20","","29","","","","101.29","","","","-16","","NA"
"-57.10","51.02","FEROLLE POINT (AUT)","8401565","2023-02-15 10:30","2023","02","15","10:30","-7.0","","-8.7","","88","","","M","20","","29","","","","101.31","","","","-15","","NA"
"-57.10","51.02","FEROLLE POINT (AUT)","8401565","2023-02-15 11:30","2023","02","15","11:30","-6.3","","-8.4","","85","","","M","20","","31","","","","101.24","","","","-15","","NA"
"-57.10","51.02","FEROLLE POINT (AUT)","8401565","2023-02-15 12:30","2023","02","15","12:30","-4.7","","-8.4","","75","","","M","22","","33","","","","101.06","","","","-13","","NA"
"-57.10","51.02","FEROLLE POINT (AUT)","8401565","2023-02-15 13:30","2023","02","15","13:30","-4.0","","-8.6","","70","","","M","22","","38","","","","100.98","","","","-13","","NA"
"-57.10","51.02","FEROLLE POINT (AUT)","8401565","2023-02-15 14:30","2023","02","15","14:30","-3.6","","-8.4","","69","","","M","22","","42","","","","100.92","","","","-12","","NA"
"-57.10","51.02","FEROLLE POINT (AUT)","8401565","2023-02-15 15:30","2023","02","15","15:30","-3.0","","-7.4","","72","","","M","21","","45","","","","100.88","","","","-12","","NA"
"-57.10","51.02","FEROLLE POINT (AUT)","8401565","2023-02-15 16:30","2023","02","15","16:30","-2.6","","-5.6","","79","","","M","21","","47","","","","100.83","","","","-11","","NA"
"-57.10","51.02","FEROLLE POINT (AUT)","8401565","2023-02-15 17:30","2023","02","15","17:30","-2.0","","-4.5","","83","","","M","22","","49","","","","100.82","","","","-11","","NA"
"-57.10","51.02","FEROLLE POINT (AUT)","8401565","2023-02-15 18:30","2023","02","15","18:30","-2.3","","-4.2","","87","","","M","22","","48","","","","100.78","","","","-11","","NA"
"-57.10","51.02","FEROLLE POINT (AUT)","8401565","2023-02-15 19:30","2023","02","15","19:30","-2.0","","-3.9","","87","","","M","22","","43","","","","100.83","","","","-10","","NA"
"-57.10","51.02","FEROLLE POINT (AUT)","8401565","2023-02-15 20:30","2023","02","15","20:30","-1.7","","-3.6","","86","","","M","23","","39","","","","100.85","","","","-10","","NA"
"-57.10","51.02","FEROLLE POINT (AUT)","8401565","2023-02-15 21:30","2023","02","15","21:30","-1.4","","-3.3","","87","","","M","23","","36","","","","100.84","","","","-9","","NA"
"-57.10","51.02","FEROLLE POINT (AUT)","8401565","2023-02-15 22:30","2023","02","15","22:30","-1.2","","-3.3","","86","","","M","22","","38","","","","100.80","","","","-9","","NA"
"-57.10","51.02","FEROLLE POINT (AUT)","8401565","2023-02-15 23:30","2023","02","15","23:30","-1.1","","-3.0","","87","","","M","22","","34","","","","100.78","","","","-8","","NA"
"-57.10","51.02","FEROLLE POINT (AUT)","8401565","2023-02-16 00:30","2023","02","16","00:30","-1.0","","-2.3","","91","","","M","21","","39","","","","100.70","","","","-9","","NA"
"-57.10","51.02","FEROLLE POINT (AUT)","8401565","2023-02-16 01:30","2023","02","16","01:30","-1.1","","-2.2","","93","","","M","20","","38","","","","100.65","","","","-9","","NA"
"-57.10","51.02","FEROLLE POINT (AUT)","8401565","2023-02-16 02:30","2023","02","16","02:30","-1.0","","-2.4","","90","","","M","20","","39","","","","100.56","","","","-9","","NA"
"-57.10","51.02","FEROLLE POINT (AUT)","8401565","2023-02-16 03:30","2023","02","16","03:30","-1.1","","-2.4","","91","","","M","20","","38","","","","100.50","","","","-9","","NA"
"-57.10","51.02","FEROLLE POINT (AUT)","8401565","2023-02-16 04:30","2023","02","16","04:30","-1.3","","-3.0","","88","","","M","19","","27","","","","100.41","","","","-8","","NA"
"-57.10","51.02","FEROLLE POINT (AUT)","8401565","2023-02-16 05:30","2023","02","16","05:30","-1.3","","-3.7","","83","","","M","19","","21","","","","100.30","","","","-7","","NA"
"-57.10","51.02","FEROLLE POINT (AUT)","8401565","2023-02-16 06:30","2023","02","16","06:30","-1.1","","-3.8","","82","","","M","19","","15","","","","100.22","","","","-6","","NA"
"-57.10","51.02","FEROLLE POINT (AUT)","8401565","2023-02-16 07:30","2023","02","16","07:30","-0.8","","-3.3","","83","","","M","17","","12","","","","100.17","","","","-5","","NA"
"-57.10","51.02","FEROLLE POINT (AUT)","8401565","2023-02-16 08:30","2023","02","16","08:30","0.3","","-3.1","","78","","","M","18","","19","","","","100.10","","","","","","NA"
"-57.10","51.02","FEROLLE POINT (AUT)","8401565","2023-02-16 09:30","2023","02","16","09:30","-0.6","","-0.6","","100","","","M","17","","19","","","","100.03","","","","-6","","NA"
"-57.10","51.02","FEROLLE POINT (AUT)","8401565","2023-02-16 10:30","2023","02","16","10:30","-0.1","","-0.1","","100","","","M","9","","10","","","","99.88","","","","-3","","NA"
"-57.10","51.02","FEROLLE POINT (AUT)","8401565","2023-02-16 11:30","2023","02","16","11:30","0.3","","0.2","","100","","","M","14","","8","","","","99.76","","","","","","NA"
"-57.10","51.02","FEROLLE POINT (AUT)","8401565","2023-02-16 12:30","2023","02","16","12:30","-0.2","","-0.6","","97","","","M","16","","15","","","","99.63","","","","-5","","NA"
"-57.10","51.02","FEROLLE POINT (AUT)","8401565","2023-02-16 13:30","2023","02","16","13:30","0.1","","-0.4","","97","","","M","15","","13","","","","99.50","","","","","","NA"
"-57.10","51.02","FEROLLE POINT (AUT)","8401565","2023-02-16 14:30","2023","02","16","14:30","0.3","","-0.2","","96","","","M","16","","16","","","","99.41","","","","","","NA"
"-57.10","51.02","FEROLLE POINT (AUT)","8401565","2023-02-16 15:30","2023","02","16","15:30","0.2","","-0.2","","97","","","M","16","","18","","","","99.37","","","","","","NA"
"-57.10","51.02","FEROLLE POINT (AUT)","8401565","2023-02-16 16:30","2023","02","16","16:30","0.8","","0.8","","100","","","M","17","","21","","","","99.30","","","","","","NA"
"-57.10","51.02","FEROLLE POINT (AUT)","8401565","2023-02-16 17:30","2023","02","16","17:30","0.6","","0.6","","100","","","M","20","","39","","","","99.26","","","","","","NA"
"-57.10","51.02","FEROLLE POINT (AUT)","8401565","2023-02-16 18:30","2023","02","16","18:30","-0.1","","-0.2","","100","","","M","20","","38","","","","99.28","","","","-7","","NA"
"-57.10","51.02","FEROLLE POINT (AUT)","8401565","2023-02-16 19:30","2023","02","16","19:30","-0.3","","-0.3","","100","","","M","21","","43","","","","99.29","","","","-8","","NA"
"-57.10","51.02","FEROLLE POINT (AUT)","8401565","2023-02-16 20:30","2023","02","16","20:30","-0.3","","-0.3","","100","","","M","21","","39","","","","99.30","","","","-8","","NA"
"-57.10","51.02","FEROLLE POINT (AUT)","8401565","2023-02-16 21:30","2023","02","16","21:30","-1.0","","-1.0","","100","","","M","21","","48","","","","99.32","","","","-9","","NA"
"-57.10","51.02","FEROLLE POINT (AUT)","8401565","2023-02-16 22:30","2023","02","16","22:30","-0.6","","-0.6","","100","","","M","21","","39","","","","99.30","","","","-8","","NA"
"-57.10","51.02","FEROLLE POINT (AUT)","8401565","2023-02-16 23:30","2023","02","16","23:30","-0.8","","-0.8","","100","","","M","21","","56","","","","99.22","","","","-10","","NA"
"-57.10","51.02","FEROLLE POINT (AUT)","8401565","2023-02-17 00:30","2023","02","17","00:30","-0.9","","-1.8","","94","","","M","22","","51","","","","99.22","","","","-9","","NA"
"-57.10","51.02","FEROLLE POINT (AUT)","8401565","2023-02-17 01:30","2023","02","17","01:30","-1.1","","-3.0","","87","","","M","20","","59","","","","99.12","","","","-10","","NA"
"-57.10","51.02","FEROLLE POINT (AUT)","8401565","2023-02-17 02:30","2023","02","17","02:30","-3.1","","-5.1","","86","","","M","30","","47","","","","99.30","","","","-12","","NA"
"-57.10","51.02","FEROLLE POINT (AUT)","8401565","2023-02-17 03:30","2023","02","17","03:30","-5.9","","-9.9","","73","","","M","29","","62","","","","99.55","","","","-17","","NA"
"-57.10","51.02","FEROLLE POINT (AUT)","8401565","2023-02-17 04:30","2023","02","17","04:30","-7.2","","-11.6","","71","","","M","28","","53","","","","99.82","","","","-18","","NA"
"-57.10","51.02","FEROLLE POINT (AUT)","8401565","2023-02-17 05:30","2023","02","17","05:30","-8.6","","-12.4","","74","","","M","28","","48","","","","99.98","","","","-20","","NA"
"-57.10","51.02","FEROLLE POINT (AUT)","8401565","2023-02-17 06:30","2023","02","17","06:30","-9.3","","-13.5","","71","","","M","29","","44","","","","100.09","","","","-20","","NA"
"-57.10","51.02","FEROLLE POINT (AUT)","8401565","2023-02-17 07:30","2023","02","17","07:30","-9.6","","-13.7","","72","","","M","28","","44","","","","100.20","","","","-21","","NA"
"-57.10","51.02","FEROLLE POINT (AUT)","8401565","2023-02-17 08:30","2023","02","17","08:30","-9.5","","-13.4","","73","","","M","28","","44","","","","100.24","","","","-21","","NA"
"-57.10","51.02","FEROLLE POINT (AUT)","8401565","2023-02-17 09:30","2023","02","17","09:30","-10.1","","-14.3","","72","","","M","28","","51","","","","100.20","","","","-22","","NA"
"-57.10","51.02","FEROLLE POINT (AUT)","8401565","2023-02-17 10:30","2023","02","17","10:30","-10.4","","-14.9","","70","","","M","28","","44","","","","100.26","","","","-22","","NA"
"-57.10","51.02","FEROLLE POINT (AUT)","8401565","2023-02-17 11:30","2023","02","17","11:30","-10.7","","-14.7","","72","","","M","27","","41","","","","100.31","","","","-22","","NA"
"-57.10","51.02","FEROLLE POINT (AUT)","8401565","2023-02-17 12:30","2023","02","17","12:30","-10.6","","-14.6","","72","","","M","28","","45","","","","100.25","","","","-22","","NA"
"-57.10","51.02","FEROLLE POINT (AUT)","8401565","2023-02-17 13:30","2023","02","17","13:30","-10.3","","-14.2","","73","","","M","27","","38","","","","100.24","","","","-21","","NA"
"-57.10","51.02","FEROLLE POINT (AUT)","8401565","2023-02-17 14:30","2023","02","17","14:30","-9.6","","-13.6","","73","","","M","28","","37","","","","100.26","","","","-20","","NA"
"-57.10","51.02","FEROLLE POINT (AUT)","8401565","2023-02-17 15:30","2023","02","17","15:30","-9.2","","-13.9","","69","","","M","27","","35","","","","100.27","","","","-19","","NA"
"-57.10","51.02","FEROLLE POINT (AUT)","8401565","2023-02-17 16:30","2023","02","17","16:30","-8.8","","-13.8","","67","","","M","28","","36","","","","100.26","","","","-19","","NA"
"-57.10","51.02","FEROLLE POINT (AUT)","8401565","2023-02-17 17:30","2023","02","17","17:30","-8.9","","-14.2","","66","","","M","29","","32","","","","100.20","","","","-18","","NA"
"-57.10","51.02","FEROLLE POINT (AUT)","8401565","2023-02-17 18:30","2023","02","17","18:30","-9.0","","-15.0","","62","","","M","29","","25","","","","100.21","","","","-17","","NA"
"-57.10","51.02","FEROLLE POINT (AUT)","8401565","2023-02-17 19:30","2023","02","17","19:30","-9.4","","-14.9","","64","","","M","31","","23","","","","100.24","","","","-18","","NA"
"-57.10","51.02","FEROLLE POINT (AUT)","8401565","2023-02-17 20:30","2023","02","17","20:30","-10.0","","-15.3","","65","","","M","32","","24","","","","100.35","","","","-19","","NA"
"-57.10","51.02","FEROLLE POINT (AUT)","8401565","2023-02-17 21:30","2023","02","17","21:30","-10.2","","-15.4","","66","","","M","33","","22","","","","100.39","","","","-18","","NA"
"-57.10","51.02","FEROLLE POINT (AUT)","8401565","2023-02-17 22:30","2023","02","17","22:30","-11.3","","-16.1","","68","","","M","34","","26","","","","100.38","","","","-21","","NA"
"-57.10","51.02","FEROLLE POINT (AUT)","8401565","2023-02-17 23:30","2023","02","17","23:30","-12.1","","-16.4","","70","","","M","34","","27","","","","100.35","","","","-22","","NA"
"-57.10","51.02","FEROLLE POINT (AUT)","8401565","2023-02-18 00:30","2023","02","18","00:30","-12.9","","-16.9","","72","","","M","34","","22","","","","100.26","","","","-22","","NA"
"-57.10","51.02","FEROLLE POINT (AUT)","8401565","2023-02-18 01:30","2023","02","18","01:30","-13.3","","-16.7","","75","","","M","34","","20","","","","100.30","","","","-22","","NA"
"-57.10","51.02","FEROLLE POINT (AUT)","8401565","2023-02-18 02:30","2023","02","18","02:30","-13.5","","-16.8","","77","","","M","34","","18","","","","100.27","","","","-22","","NA"
"-57.10","51.02","FEROLLE POINT (AUT)","8401565","2023-02-18 03:30","2023","02","18","03:30","-13.7","","-17.2","","74","","","M","35","","15","","","","100.28","","","","-21","","NA"
"-57.10","51.02","FEROLLE POINT (AUT)","8401565","2023-02-18 04:30","2023","02","18","04:30","-14.0","","-17.9","","73","","","M","34","","13","","","","100.33","","","","-21","","NA"
"-57.10","51.02","FEROLLE POINT (AUT)","8401565","2023-02-18 05:30","2023","02","18","05:30","-14.2","","-18.0","","73","","","M","34","","17","","","","100.33","","","","-22","","NA"
"-57.10","51.02","FEROLLE POINT (AUT)","8401565","2023-02-18 06:30","2023","02","18","06:30","-14.4","","-17.5","","77","","","M","33","","17","","","","100.41","","","","-23","","NA"
"-57.10","51.02","FEROLLE POINT (AUT)","8401565","2023-02-18 07:30","2023","02","18","07:30","-14.8","","-17.8","","78","","","M","33","","13","","","","100.46","","","","-22","","NA"
"-57.10","51.02","FEROLLE POINT (AUT)","8401565","2023-02-18 08:30","2023","02","18","08:30","-14.8","","-18.3","","75","","","M","35","","4","","","","100.48","","","","-18","","NA"
"-57.10","51.02","FEROLLE POINT (AUT)","8401565","2023-02-18 09:30","2023","02","18","09:30","-14.4","","-18.8","","70","","","M","33","","10","","","","100.52","","","","-21","","NA"
"-57.10","51.02","FEROLLE POINT (AUT)","8401565","2023-02-18 10:30","2023","02","18","10:30","-14.3","","-18.6","","70","","","M","35","","8","","","","100.54","","","","-20","","NA"
"-57.10","51.02","FEROLLE POINT (AUT)","8401565","2023-02-18 11:30","2023","02","18","11:30","-14.3","","-18.6","","70","","","M","34","","12","","","","100.59","","","","-21","","NA"
"-57.10","51.02","FEROLLE POINT (AUT)","8401565","2023-02-18 12:30","2023","02","18","12:30","-13.6","","-17.4","","73","","","M","30","","17","","","","100.62","","","","-22","","NA"
"-57.10","51.02","FEROLLE POINT (AUT)","8401565","2023-02-18 13:30","2023","02","18","13:30","-13.3","","-17.0","","74","","","M","30","","17","","","","100.61","","","","-21","","NA"
"-57.10","51.02","FEROLLE POINT (AUT)","8401565","2023-02-18 14:30","2023","02","18","14:30","-13.1","","-17.0","","72","","","M","29","","19","","","","100.63","","","","-22","","NA"
"-57.10","51.02","FEROLLE POINT (AUT)","8401565","2023-02-18 15:30","2023","02","18","15:30","-12.4","","-16.3","","72","","","M","28","","17","","","","100.65","","","","-20","","NA"
"-57.10","51.02","FEROLLE POINT (AUT)","8401565","2023-02-18 16:30","2023","02","18","16:30","-11.8","","-16.3","","69","","","M","26","","18","","","","100.72","","","","-20","","NA"
"-57.10","51.02","FEROLLE POINT (AUT)","8401565","2023-02-18 17:30","2023","02","18","17:30","-11.1","","-16.0","","67","","","M","25","","17","","","","100.75","","","","-19","","NA"
"-57.10","51.02","FEROLLE POINT (AUT)","8401565","2023-02-18 18:30","2023","02","18","18:30","-10.0","","-15.1","","66","","","M","26","","25","","","","100.83","","","","-19","","NA"
"-57.10","51.02","FEROLLE POINT (AUT)","8401565","2023-02-18 19:30","2023","02","18","19:30","-9.0","","-14.6","","64","","","M","25","","28","","","","100.87","","","","-18","","NA"
"-57.10","51.02","FEROLLE POINT (AUT)","8401565","2023-02-18 20:30","2023","02","18","20:30","-8.6","","-13.5","","67","","","M","24","","30","","","","100.90","","","","-18","","NA"
"-57.10","51.02","FEROLLE POINT (AUT)","8401565","2023-02-18 21:30","2023","02","18","21:30","-7.8","","-12.2","","71","","","M","24","","33","","","","100.90","","","","-17","","NA"
"-57.10","51.02","FEROLLE POINT (AUT)","8401565","2023-02-18 22:30","2023","02","18","22:30","-7.3","","-11.9","","69","","","M","24","","37","","","","100.92","","","","-17","","NA"
"-57.10","51.02","FEROLLE POINT (AUT)","8401565","2023-02-18 23:30","2023","02","18","23:30","-7.2","","-12.6","","66","","","M","25","","35","","","","100.97","","","","-16","","NA"
"-57.10","51.02","FEROLLE POINT (AUT)","8401565","2023-02-19 00:30","2023","02","19","00:30","-7.4","","-12.2","","68","","","M","26","","48","","","","100.94","","","","-18","","NA"
"-57.10","51.02","FEROLLE POINT (AUT)","8401565","2023-02-19 01:30","2023","02","19","01:30","-6.7","","-11.1","","71","","","M","25","","42","","","","100.97","","","","-17","","NA"
"-57.10","51.02","FEROLLE POINT (AUT)","8401565","2023-02-19 02:30","2023","02","19","02:30","-7.0","","-10.5","","76","","","M","26","","43","","","","100.97","","","","-17","","NA"
"-57.10","51.02","FEROLLE POINT (AUT)","8401565","2023-02-19 03:30","2023","02","19","03:30","-6.2","","-9.8","","76","","","M","26","","42","","","","100.98","","","","-16","","NA"
"-57.10","51.02","FEROLLE POINT (AUT)","8401565","2023-02-19 04:30","2023","02","19","04:30","-6.4","","-9.8","","77","","","M","28","","44","","","","101.03","","","","-16","","NA"
"-57.10","51.02","FEROLLE POINT (AUT)","8401565","2023-02-19 05:30","2023","02","19","05:30","-6.1","","-9.0","","80","","","M","27","","43","","","","101.09","","","","-16","","NA"
"-57.10","51.02","FEROLLE POINT (AUT)","8401565","2023-02-19 06:30","2023","02","19","06:30","-7.2","","-9.5","","84","","","M","29","","38","","","","101.13","","","","-17","","NA"
"-57.10","51.02","FEROLLE POINT (AUT)","8401565","2023-02-19 07:30","2023","02","19","07:30","-7.8","","-11.1","","77","","","M","29","","31","","","","101.21","","","","-17","","NA"
"-57.10","51.02","FEROLLE POINT (AUT)","8401565","2023-02-19 08:30","2023","02","19","08:30","-8.4","","-12.3","","74","","","M","30","","28","","","","101.33","","","","-17","","NA"
"-57.10","51.02","FEROLLE POINT (AUT)","8401565","2023-02-19 09:30","2023","02","19","09:30","-9.3","","-13.5","","72","","","M","30","","31","","","","101.45","","","","-19","","NA"
"-57.10","51.02","FEROLLE POINT (AUT)","8401565","2023-02-19 10:30","2023","02","19","10:30","-9.6","","-14.5","","68","","","M","30","","27","","","","101.53","","","","-19","","NA"
"-57.10","51.02","FEROLLE POINT (AUT)","8401565","2023-02-19 11:30","2023","02","19","11:30","-9.3","","-14.1","","68","","","M","30","","24","","","","101.58","","","","-18","","NA"
"-57.10","51.02","FEROLLE POINT (AUT)","8401565","2023-02-19 12:30","2023","02","19","12:30","-8.9","","-14.4","","64","","","M","28","","28","","","","101.66","","","","-18","","NA"
"-57.10","51.02","FEROLLE POINT (AUT)","8401565","2023-02-19 13:30","2023","02","19","13:30","-8.2","","-13.3","","67","","","M","27","","21","","","","101.65","","","","-16","","NA"
"-57.10","51.02","FEROLLE POINT (AUT)","8401565","2023-02-19 14:30","2023","02","19","14:30","-7.8","","-13.1","","66","","","M","27","","23","","","","101.67","","","","-16","","NA"
"-57.10","51.02","FEROLLE POINT (AUT)","8401565","2023-02-19 15:30","2023","02","19","15:30","-7.1","","-12.9","","63","","","M","27","","22","","","","101.72","","","","-15","","NA"
"-57.10","51.02","FEROLLE POINT (AUT)","8401565","2023-02-19 16:30","2023","02","19","16:30","-6.6","","-12.4","","64","","","M","28","","28","","","","101.78","","","","-15","","NA"
"-57.10","51.02","FEROLLE POINT (AUT)","8401565","2023-02-19 17:30","2023","02","19","17:30","-6.7","","-12.4","","64","","","M","28","","24","","","","101.87","","","","-14","","NA"
"-57.10","51.02","FEROLLE POINT (AUT)","8401565","2023-02-19 18:30","2023","02","19","18:30","-6.5","","-13.2","","59","","","M","29","","24","","","","101.97","","","","-14","","NA"
"-57.10","51.02","FEROLLE POINT (AUT)","8401565","2023-02-19 19:30","2023","02","19","19:30","-6.1","","-12.0","","63","","","M","29","","21","","","","102.04","","","","-13","","NA"
"-57.10","51.02","FEROLLE POINT (AUT)","8401565","2023-02-19 20:30","2023","02","19","20:30","-5.6","","-13.4","","55","","","M","29","","23","","","","102.08","","","","-13","","NA"
"-57.10","51.02","FEROLLE POINT (AUT)","8401565","2023-02-19 21:30","2023","02","19","21:30","-6.3","","-13.0","","59","","","M","33","","18","","","","102.19","","","","-13","","NA"
"-57.10","51.02","FEROLLE POINT (AUT)","8401565","2023-02-19 22:30","2023","02","19","22:30","-7.0","","-13.2","","61","","","M","34","","14","","","","102.20","","","","-13","","NA"
"-57.10","51.02","FEROLLE POINT (AUT)","8401565","2023-02-19 23:30","2023","02","19","23:30","-7.4","","-14.0","","59","","","M","2","","9","","","","102.22","","","","-12","","NA"
"-57.10","51.02","FEROLLE POINT (AUT)","8401565","2023-02-20 00:30","2023","02","20","00:30","-10.2","","-13.7","","75","","","M","12","","16","","","","102.28","","","","-17","","NA"
"-57.10","51.02","FEROLLE POINT (AUT)","8401565","2023-02-20 01:30","2023","02","20","01:30","-11.3","","-14.2","","79","","","M","10","","15","","","","102.20","","","","-18","","NA"
"-57.10","51.02","FEROLLE POINT (AUT)","8401565","2023-02-20 02:30","2023","02","20","02:30","-12.3","","-14.8","","82","","","M","12","","13","","","","102.17","","","","-19","","NA"
"-57.10","51.02","FEROLLE POINT (AUT)","8401565","2023-02-20 03:30","2023","02","20","03:30","-10.8","","-12.9","","84","","","M","13","","14","","","","102.07","","","","-17","","NA"
"-57.10","51.02","FEROLLE POINT (AUT)","8401565","2023-02-20 04:30","2023","02","20","04:30","-5.4","","-9.2","","74","","","M","19","","27","","","","102.00","","","","-13","","NA"
"-57.10","51.02","FEROLLE POINT (AUT)","8401565","2023-02-20 05:30","2023","02","20","05:30","-4.9","","-8.8","","74","","","M","17","","31","","","","101.98","","","","-13","","NA"
"-57.10","51.02","FEROLLE POINT (AUT)","8401565","2023-02-20 06:30","2023","02","20","06:30","-4.7","","-8.7","","73","","","M","17","","32","","","","101.90","","","","-13","","NA"
"-57.10","51.02","FEROLLE POINT (AUT)","8401565","2023-02-20 07:30","2023","02","20","07:30","-4.7","","-9.2","","71","","","M","17","","33","","","","101.81","","","","-13","","NA"
"-57.10","51.02","FEROLLE POINT (AUT)","8401565","2023-02-20 08:30","2023","02","20","08:30","-4.1","","-9.4","","66","","","M","16","","31","","","","101.58","","","","-12","","NA"
"-57.10","51.02","FEROLLE POINT (AUT)","8401565","2023-02-20 09:30","2023","02","20","09:30","-2.7","","-7.0","","72","","","M","16","","36","","","","101.39","","","","-11","","NA"
"-57.10","51.02","FEROLLE POINT (AUT)","8401565","2023-02-20 10:30","2023","02","20","10:30","-2.0","","-6.3","","73","","","M","17","","40","","","","101.27","","","","-10","","NA"
"-57.10","51.02","FEROLLE POINT (AUT)","8401565","2023-02-20 11:30","2023","02","20","11:30","-0.9","","-5.2","","73","","","M","17","","43","","","","101.05","","","","-9","","NA"
"-57.10","51.02","FEROLLE POINT (AUT)","8401565","2023-02-20 12:30","2023","02","20","12:30","-0.5","","-4.3","","75","","","M","17","","39","","","","100.87","","","","-8","","NA"
"-57.10","51.02","FEROLLE POINT (AUT)","8401565","2023-02-20 13:30","2023","02","20","13:30","-0.1","","-4.1","","74","","","M","17","","45","","","","100.77","","","","-8","","NA"
"-57.10","51.02","FEROLLE POINT (AUT)","8401565","2023-02-20 14:30","2023","02","20","14:30","0.2","","-3.2","","78","","","M","16","","42","","","","100.63","","","","","","NA"
"-57.10","51.02","FEROLLE POINT (AUT)","8401565","2023-02-20 15:30","2023","02","20","15:30","0.6","","-2.4","","80","","","M","17","","35","","","","100.49","","","","","","NA"
"-57.10","51.02","FEROLLE POINT (AUT)","8401565","2023-02-20 16:30","2023","02","20","16:30","0.6","","-0.5","","93","","","M","17","","35","","","","100.35","","","","","","NA"
"-57.10","51.02","FEROLLE POINT (AUT)","8401565","2023-02-20 17:30","2023","02","20","17:30","0.7","","-0.9","","89","","","M","17","","31","","","","100.24","","","","","","NA"
"-57.10","51.02","FEROLLE POINT (AUT)","8401565","2023-02-20 18:30","2023","02","20","18:30","0.9","","-0.3","","92","","","M","17","","34","","","","100.11","","","","","","NA"
"-57.10","51.02","FEROLLE POINT (AUT)","8401565","2023-02-20 19:30","2023","02","20","19:30","1.0","","-0.3","","91","","","M","17","","38","","","","99.96","","","","","","NA"
"-57.10","51.02","FEROLLE POINT (AUT)","8401565","2023-02-20 20:30","2023","02","20","20:30","1.7","","0.1","","89","","","M","17","","45","","","","99.80","","","","","","NA"
"-57.10","51.02","FEROLLE POINT (AUT)","8401565","2023-02-20 21:30","2023","02","20","21:30","1.7","","0.8","","94","","","M","17","","39","","","","99.61","","","","","","NA"
"-57.10","51.02","FEROLLE POINT (AUT)","8401565","2023-02-20 22:30","2023","02","20","22:30","1.6","","0.8","","95","","","M","18","","34","","","","99.43","","","","","","NA"
"-57.10","51.02","FEROLLE POINT (AUT)","8401565","2023-02-20 23:30","2023","02","20","23:30","1.7","","1.0","","95","","","M","17","","29","","","","99.26","","","","","","NA"
"-57.10","51.02","FEROLLE POINT (AUT)","8401565","2023-02-21 00:30","2023","02","21","00:30","1.8","","1.2","","96","","","M","17","","32","","","","99.12","","","","","","NA"
"-57.10","51.02","FEROLLE POINT (AUT)","8401565","2023-02-21 01:30","2023","02","21","01:30","1.4","","0.5","","94","","","M","20","","19","","","","98.93","","","","","","NA"
"-57.10","51.02","FEROLLE POINT (AUT)","8401565","2023-02-21 02:30","2023","02","21","02:30","2.6","","1.0","","89","","","M","18","","33","","","","98.83","","","","","","NA"
"-57.10","51.02","FEROLLE POINT (AUT)","8401565","2023-02-21 03:30","2023","02","21","03:30","0.5","","0.3","","99","","","M","29","","10","","","","98.84","","","","","","NA"
"-57.10","51.02","FEROLLE POINT (AUT)","8401565","2023-02-21 04:30","2023","02","21","04:30","0.7","","0.6","","100","","","M","21","","18","","","","98.81","","","","","","NA"
"-57.10","51.02","FEROLLE POINT (AUT)","8401565","2023-02-21 05:30","2023","02","21","05:30","0.0","","0.0","","100","","","M","21","","29","","","","98.87","","","","-6","","NA"
"-57.10","51.02","FEROLLE POINT (AUT)","8401565","2023-02-21 06:30","2023","02","21","06:30","-0.2","","-0.2","","100","","","M","21","","28","","","","98.91","","","","-7","","NA"
"-57.10","51.02","FEROLLE POINT (AUT)","8401565","2023-02-21 07:30","2023","02","21","07:30","-0.3","","-0.3","","100","","","M","20","","30","","","","98.96","","","","-7","","NA"
"-57.10","51.02","FEROLLE POINT (AUT)","8401565","2023-02-21 08:30","2023","02","21","08:30","-0.3","","-0.3","","100","","","M","21","","33","","","","99.04","","","","-7","","NA"
"-57.10","51.02","FEROLLE POINT (AUT)","8401565","2023-02-21 09:30","2023","02","21","09:30","-0.4","","-0.4","","100","","","M","20","","30","","","","99.14","","","","-7","","NA"
"-57.10","51.02","FEROLLE POINT (AUT)","8401565","2023-02-21 10:30","2023","02","21","10:30","-0.4","","-0.4","","100","","","M","19","","25","","","","99.21","","","","-6","","NA"
"-57.10","51.02","FEROLLE POINT (AUT)","8401565","2023-02-21 11:30","2023","02","21","11:30","-0.4","","-0.4","","100","","","M","22","","23","","","","99.23","","","","-6","","NA"
"-57.10","51.02","FEROLLE POINT (AUT)","8401565","2023-02-21 12:30","2023","02","21","12:30","-0.7","","-0.7","","100","","","M","21","","19","","","","99.28","","","","-6","","NA"
"-57.10","51.02","FEROLLE POINT (AUT)","8401565","2023-02-21 13:30","2023","02","21","13:30","-1.6","","-1.6","","100","","","M","23","","17","","","","99.34","","","","-7","","NA"
"-57.10","51.02","FEROLLE POINT (AUT)","8401565","2023-02-21 14:30","2023","02","21","14:30","-2.0","","-2.0","","100","","","M","23","","23","","","","99.45","","","","-8","","NA"
"-57.10","51.02","FEROLLE POINT (AUT)","8401565","2023-02-21 15:30","2023","02","21","15:30","-2.5","","-2.5","","100","","","M","22","","22","","","","99.54","","","","-9","","NA"
"-57.10","51.02","FEROLLE POINT (AUT)","8401565","2023-02-21 16:30","2023","02","21","16:30","-2.7","","-2.7","","100","","","M","23","","26","","","","99.67","","","","-10","","NA"
"-57.10","51.02","FEROLLE POINT (AUT)","8401565","2023-02-21 17:30","2023","02","21","17:30","-3.8","","-3.8","","100","","","M","26","","23","","","","99.82","","","","-11","","NA"
"-57.10","51.02","FEROLLE POINT (AUT)","8401565","2023-02-21 18:30","2023","02","21","18:30","-3.9","","-3.9","","100","","","M","25","","23","","","","99.91","","","","-11","","NA"
"-57.10","51.02","FEROLLE POINT (AUT)","8401565","2023-02-21 19:30","2023","02","21","19:30","-5.1","","-6.8","","88","","","M","25","","27","","","","100.02","","","","-13","","NA"
"-57.10","51.02","FEROLLE POINT (AUT)","8401565","2023-02-21 20:30","2023","02","21","20:30","-6.2","","-8.6","","83","","","M","27","","35","","","","100.17","","","","-15","","NA"
"-57.10","51.02","FEROLLE POINT (AUT)","8401565","2023-02-21 21:30","2023","02","21","21:30","-6.3","","-9.7","","77","","","M","27","","34","","","","100.27","","","","-15","","NA"
"-57.10","51.02","FEROLLE POINT (AUT)","8401565","2023-02-21 22:30","2023","02","21","22:30","-6.1","","-9.5","","77","","","M","27","","31","","","","100.35","","","","-15","","NA"
"-57.10","51.02","FEROLLE POINT (AUT)","8401565","2023-02-21 23:30","2023","02","21","23:30","-6.7","","-9.7","","79","","","M","25","","20","","","","100.41","","","","-14","","NA"
"-57.10","51.02","FEROLLE POINT (AUT)","8401565","2023-02-22 00:30","2023","02","22","00:30","-6.6","","-10.4","","74","","","M","20","","24","","","","100.45","","","","-14","","NA"
"-57.10","51.02","FEROLLE POINT (AUT)","8401565","2023-02-22 01:30","2023","02","22","01:30","-6.5","","-10.0","","77","","","M","16","","19","","","","100.54","","","","-13","","NA"
"-57.10","51.02","FEROLLE POINT (AUT)","8401565","2023-02-22 02:30","2023","02","22","02:30","-6.5","","-9.4","","80","","","M","14","","10","","","","100.64","","","","-11","","NA"
"-57.10","51.02","FEROLLE POINT (AUT)","8401565","2023-02-22 03:30","2023","02","22","03:30","-8.3","","-10.1","","87","","","M","7","","25","","","","100.65","","","","-17","","NA"
"-57.10","51.02","FEROLLE POINT (AUT)","8401565","2023-02-22 04:30","2023","02","22","04:30","-8.7","","-10.7","","86","","","M","7","","29","","","","100.66","","","","-18","","NA"
"-57.10","51.02","FEROLLE POINT (AUT)","8401565","2023-02-22 05:30","2023","02","22","05:30","-8.7","","-10.8","","85","","","M","6","","29","","","","100.71","","","","-18","","NA"
"-57.10","51.02","FEROLLE POINT (AUT)","8401565","2023-02-22 06:30","2023","02","22","06:30","-9.3","","-11.3","","85","","","M","8","","23","","","","100.79","","","","-18","","NA"
"-57.10","51.02","FEROLLE POINT (AUT)","8401565","2023-02-22 07:30","2023","02","22","07:30","-10.6","","-12.7","","85","","","M","6","","29","","","","100.87","","","","-20","","NA"
"-57.10","51.02","FEROLLE POINT (AUT)","8401565","2023-02-22 08:30","2023","02","22","08:30","-10.7","","-13.0","","83","","","M","9","","23","","","","100.90","","","","-19","","NA"
"-57.10","51.02","FEROLLE POINT (AUT)","8401565","2023-02-22 09:30","2023","02","22","09:30","-10.4","","-13.0","","82","","","M","8","","22","","","","100.94","","","","-19","","NA"
"-57.10","51.02","FEROLLE POINT (AUT)","8401565","2023-02-22 10:30","2023","02","22","10:30","-9.8","","-12.4","","81","","","M","6","","21","","","","100.83","","","","-18","","NA"
"-57.10","51.02","FEROLLE POINT (AUT)","8401565","2023-02-22 11:30","2023","02","22","11:30","-8.9","","-11.6","","81","","","M","7","","23","","","","100.70","","","","-17","","NA"
"-57.10","51.02","FEROLLE POINT (AUT)","8401565","2023-02-22 12:30","2023","02","22","12:30","-8.2","","-11.0","","81","","","M","6","","21","","","","100.57","","","","-16","","NA"
"-57.10","51.02","FEROLLE POINT (AUT)","8401565","2023-02-22 13:30","2023","02","22","13:30","-7.6","","-10.1","","83","","","M","4","","17","","","","100.47","","","","-14","","NA"
"-57.10","51.02","FEROLLE POINT (AUT)","8401565","2023-02-22 14:30","2023","02","22","14:30","-7.4","","-9.5","","85","","","M","3","","15","","","","100.42","","","","-14","","NA"
"-57.10","51.02","FEROLLE POINT (AUT)","8401565","2023-02-22 15:30","2023","02","22","15:30","-7.2","","-9.2","","86","","","M","1","","9","","","","100.40","","","","-12","","NA"
"-57.10","51.02","FEROLLE POINT (AUT)","8401565","2023-02-22 16:30","2023","02","22","16:30","-7.3","","-9.2","","86","","","M","35","","10","","","","100.38","","","","-12","","NA"
"-57.10","51.02","FEROLLE POINT (AUT)","8401565","2023-02-22 17:30","2023","02","22","17:30","-7.4","","-9.5","","85","","","M","29","","10","","","","100.37","","","","-12","","NA"
"-57.10","51.02","FEROLLE POINT (AUT)","8401565","2023-02-22 18:30","2023","02","22","18:30","-7.3","","-9.5","","84","","","M","29","","11","","","","100.32","","","","-12","","NA"
"-57.10","51.02","FEROLLE POINT (AUT)","8401565","2023-02-22 19:30","2023","02","22","19:30","-6.8","","-8.9","","85","","","M","27","","14","","","","100.26","","","","-13","","NA"
"-57.10","51.02","FEROLLE POINT (AUT)","8401565","2023-02-22 20:30","2023","02","22","20:30","-6.2","","-9.0","","81","","","M","30","","21","","","","100.19","","","","-13","","NA"
"-57.10","51.02","FEROLLE POINT (AUT)","8401565","2023-02-22 21:30","2023","02","22","21:30","-5.4","","-9.2","","75","","","M","31","","30","","","","100.15","","","","-14","","NA"
"-57.10","51.02","FEROLLE POINT (AUT)","8401565","2023-02-22 22:30","2023","02","22","22:30","-5.5","","-10.5","","68","","","M","30","","39","","","","100.06","","","","-15","","NA"
"-57.10","51.02","FEROLLE POINT (AUT)","8401565","2023-02-22 23:30","2023","02","22","23:30","-5.8","","-10.3","","71","","","M","30","","37","","","","99.99","","","","-15","","NA"
"-57.10","51.02","FEROLLE POINT (AUT)","8401565","2023-02-23 00:30","2023","02","23","00:30","-6.0","","-9.5","","77","","","M","31","","38","","","","99.95","","","","-15","","NA"
"-57.10","51.02","FEROLLE POINT (AUT)","8401565","2023-02-23 01:30","2023","02","23","01:30","-7.1","","-9.9","","80","","","M","31","","42","","","","100.00","","","","-17","","NA"
"-57.10","51.02","FEROLLE POINT (AUT)","8401565","2023-02-23 02:30","2023","02","23","02:30","-9.4","","-12.8","","76","","","M","33","","51","","","","100.06","","","","-21","","NA"
"-57.10","51.02","FEROLLE POINT (AUT)","8401565","2023-02-23 03:30","2023","02","23","03:30","-10.8","","-13.9","","78","","","M","32","","52","","","","100.15","","","","-23","","NA"
"-57.10","51.02","FEROLLE POINT (AUT)","8401565","2023-02-23 04:30","2023","02","23","04:30","-12.3","","-15.1","","79","","","M","31","","49","","","","100.26","","","","-25","","NA"
"-57.10","51.02","FEROLLE POINT (AUT)","8401565","2023-02-23 05:30","2023","02","23","05:30","-13.6","","-16.6","","78","","","M","31","","48","","","","100.35","","","","-26","","NA"
"-57.10","51.02","FEROLLE POINT (AUT)","8401565","2023-02-23 06:30","2023","02","23","06:30","-14.2","","-17.3","","77","","","M","32","","50","","","","100.37","","","","-27","","NA"
"-57.10","51.02","FEROLLE POINT (AUT)","8401565","2023-02-23 07:30","2023","02","23","07:30","-15.1","","-18.0","","79","","","M","31","","52","","","","100.43","","","","-29","","NA"
"-57.10","51.02","FEROLLE POINT (AUT)","8401565","2023-02-23 08:30","2023","02","23","08:30","-15.9","","-18.4","","81","","","M","31","","48","","","","100.45","","","","-30","","NA"
"-57.10","51.02","FEROLLE POINT (AUT)","8401565","2023-02-23 09:30","2023","02","23","09:30","-17.0","","-19.7","","80","","","M","31","","51","","","","100.49","","","","-31","","NA"
"-57.10","51.02","FEROLLE POINT (AUT)","8401565","2023-02-23 10:30","2023","02","23","10:30","-17.8","","-20.6","","79","","","M","31","","45","","","","100.53","","","","-32","","NA"
"-57.10","51.02","FEROLLE POINT (AUT)","8401565","2023-02-23 11:30","2023","02","23","11:30","-18.0","","-21.2","","76","","","M","30","","48","","","","100.55","","","","-32","","NA"
"-57.10","51.02","FEROLLE POINT (AUT)","8401565","2023-02-23 12:30","2023","02","23","12:30","-18.0","","-21.1","","76","","","M","29","","50","","","","100.50","","","","-33","","NA"
"-57.10","51.02","FEROLLE POINT (AUT)","8401565","2023-02-23 13:30","2023","02","23","13:30","-18.0","","-21.3","","76","","","M","30","","41","","","","100.60","","","","-32","","NA"
"-57.10","51.02","FEROLLE POINT (AUT)","8401565","2023-02-23 14:30","2023","02","23","14:30","-17.4","","-21.0","","73","","","M","30","","41","","","","100.61","","","","-31","","NA"
"-57.10","51.02","FEROLLE POINT (AUT)","8401565","2023-02-23 15:30","2023","02","23","15:30","-17.4","","-21.4","","70","","","M","30","","42","","","","100.63","","","","-31","","NA"
"-57.10","51.02","FEROLLE POINT (AUT)","8401565","2023-02-23 16:30","2023","02","23","16:30","-17.0","","-21.4","","69","","","M","30","","43","","","","100.70","","","","-31","","NA"
"-57.10","51.02","FEROLLE POINT (AUT)","8401565","2023-02-23 17:30","2023","02","23","17:30","-17.1","","-21.1","","71","","","M","31","","44","","","","100.71","","","","-31","","NA"
"-57.10","51.02","FEROLLE POINT (AUT)","8401565","2023-02-23 18:30","2023","02","23","18:30","-17.1","","-20.7","","74","","","M","31","","43","","","","100.78","","","","-31","","NA"
"-57.10","51.02","FEROLLE POINT (AUT)","8401565","2023-02-23 19:30","2023","02","23","19:30","-17.8","","-21.5","","72","","","M","31","","45","","","","100.84","","","","-32","","NA"
"-57.10","51.02","FEROLLE POINT (AUT)","8401565","2023-02-23 20:30","2023","02","23","20:30","-18.4","","-21.7","","75","","","M","32","","45","","","","100.86","","","","-33","","NA"
"-57.10","51.02","FEROLLE POINT (AUT)","8401565","2023-02-23 21:30","2023","02","23","21:30","-19.3","","-22.3","","77","","","M","31","","42","","","","100.93","","","","-33","","NA"
"-57.10","51.02","FEROLLE POINT (AUT)","8401565","2023-02-23 22:30","2023","02","23","22:30","-19.9","","-22.4","","80","","","M","33","","38","","","","100.93","","","","-34","","NA"
"-57.10","51.02","FEROLLE POINT (AUT)","8401565","2023-02-23 23:30","2023","02","23","23:30","-20.5","","-22.7","","83","","","M","32","","34","","","","101.01","","","","-34","","NA"
"-57.10","51.02","FEROLLE POINT (AUT)","8401565","2023-02-24 00:30","2023","02","24","00:30","-21.2","","-23.5","","82","","","M","32","","36","","","","100.99","","","","-35","","NA"
"-57.10","51.02","FEROLLE POINT (AUT)","8401565","2023-02-24 01:30","2023","02","24","01:30","-21.8","","-24.1","","81","","","M","32","","29","","","","101.01","","","","-35","","NA"
"-57.10","51.02","FEROLLE POINT (AUT)","8401565","2023-02-24 02:30","2023","02","24","02:30","-21.9","","-24.2","","81","","","M","31","","37","","","","101.04","","","","-36","","NA"
"-57.10","51.02","FEROLLE POINT (AUT)","8401565","2023-02-24 03:30","2023","02","24","03:30","-22.3","","-24.8","","80","","","M","31","","32","","","","101.05","","","","-36","","NA"
"-57.10","51.02","FEROLLE POINT (AUT)","8401565","2023-02-24 04:30","2023","02","24","04:30","-22.4","","-24.8","","81","","","M","31","","34","","","","101.02","","","","-36","","NA"
"-57.10","51.02","FEROLLE POINT (AUT)","8401565","2023-02-24 05:30","2023","02","24","05:30","-22.6","","-25.1","","80","","","M","34","","29","","","","101.04","","","","-36","","NA"
"-57.10","51.02","FEROLLE POINT (AUT)","8401565","2023-02-24 06:30","2023","02","24","06:30","-22.5","","-25.0","","80","","","M","33","","27","","","","101.03","","","","-35","","NA"
"-57.10","51.02","FEROLLE POINT (AUT)","8401565","2023-02-24 07:30","2023","02","24","07:30","-22.3","","-24.8","","81","","","M","32","","32","","","","101.07","","","","-36","","NA"
"-57.10","51.02","FEROLLE POINT (AUT)","8401565","2023-02-24 08:30","2023","02","24","08:30","-22.7","","-25.2","","80","","","M","32","","30","","","","101.14","","","","-36","","NA"
"-57.10","51.02","FEROLLE POINT (AUT)","8401565","2023-02-24 09:30","2023","02","24","09:30","-22.2","","-24.7","","81","","","M","32","","37","","","","101.13","","","","-37","","NA"
"-57.10","51.02","FEROLLE POINT (AUT)","8401565","2023-02-24 10:30","2023","02","24","10:30","-22.3","","-24.8","","80","","","M","31","","28","","","","101.19","","","","-35","","NA"
"-57.10","51.02","FEROLLE POINT (AUT)","8401565","2023-02-24 11:30","2023","02","24","11:30","-22.8","","-25.4","","80","","","M","30","","20","","","","101.21","","","","-34","","NA"
"-57.10","51.02","FEROLLE POINT (AUT)","8401565","2023-02-24 12:30","2023","02","24","12:30","-22.6","","-25.1","","80","","","M","26","","19","","","","101.16","","","","-33","","NA"
"-57.10","51.02","FEROLLE POINT (AUT)","8401565","2023-02-24 13:30","2023","02","24","13:30","-22.3","","-24.8","","80","","","M","27","","19","","","","101.15","","","","-33","","NA"
"-57.10","51.02","FEROLLE POINT (AUT)","8401565","2023-02-24 14:30","2023","02","24","14:30","-21.7","","-24.1","","81","","","M","27","","21","","","","101.13","","","","-33","","NA"
"-57.10","51.02","FEROLLE POINT (AUT)","8401565","2023-02-24 15:30","2023","02","24","15:30","-21.2","","-23.6","","81","","","M","26","","20","","","","101.16","","","","-32","","NA"
"-57.10","51.02","FEROLLE POINT (AUT)","8401565","2023-02-24 16:30","2023","02","24","16:30","-20.5","","-22.8","","81","","","M","28","","23","","","","101.16","","","","-32","","NA"
"-57.10","51.02","FEROLLE POINT (AUT)","8401565","2023-02-24 17:30","2023","02","24","17:30","-19.8","","-22.3","","81","","","M","30","","25","","","","101.18","","","","-31","","NA"
"-57.10","51.02","FEROLLE POINT (AUT)","8401565","2023-02-24 18:30","2023","02","24","18:30","-19.6","","-22.4","","78","","","M","29","","26","","","","101.26","","","","-31","","NA"
"-57.10","51.02","FEROLLE POINT (AUT)","8401565","2023-02-24 19:30","2023","02","24","19:30","-19.1","","-23.1","","71","","","M","29","","25","","","","101.30","","","","-30","","NA"
"-57.10","51.02","FEROLLE POINT (AUT)","8401565","2023-02-24 20:30","2023","02","24","20:30","-19.1","","-24.5","","62","","","M","31","","25","","","","101.37","","","","-30","","NA"
"-57.10","51.02","FEROLLE POINT (AUT)","8401565","2023-02-24 21:30","2023","02","24","21:30","-19.2","","-25.6","","57","","","M","32","","24","","","","101.43","","","","-30","","NA"
"-57.10","51.02","FEROLLE POINT (AUT)","8401565","2023-02-24 22:30","2023","02","24","22:30","-19.3","","-25.7","","57","","","M","32","","36","","","","101.40","","","","-33","","NA"
"-57.10","51.02","FEROLLE POINT (AUT)","8401565","2023-02-24 23:30","2023","02","24","23:30","-19.6","","-26.3","","55","","","M","33","","29","","","","101.48","","","","-32","","NA"
"-57.10","51.02","FEROLLE POINT (AUT)","8401565","2023-02-25 00:30","2023","02","25","00:30","-20.4","","-27.1","","55","","","M","34","","32","","","","101.51","","","","-33","","NA"
"-57.10","51.02","FEROLLE POINT (AUT)","8401565","2023-02-25 01:30","2023","02","25","01:30","-20.6","","-26.7","","58","","","M","33","","26","","","","101.51","","","","-33","","NA"
"-57.10","51.02","FEROLLE POINT (AUT)","8401565","2023-02-25 02:30","2023","02","25","02:30","-20.8","","-26.9","","58","","","M","32","","24","","","","101.54","","","","-32","","NA"
"-57.10","51.02","FEROLLE POINT (AUT)","8401565","2023-02-25 03:30","2023","02","25","03:30","-21.0","","-27.0","","59","","","M","33","","21","","","","101.55","","","","-32","","NA"
"-57.10","51.02","FEROLLE POINT (AUT)","8401565","2023-02-25 04:30","2023","02","25","04:30","-21.2","","-26.5","","62","","","M","32","","21","","","","101.53","","","","-32","","NA"
"-57.10","51.02","FEROLLE POINT (AUT)","8401565","2023-02-25 05:30","2023","02","25","05:30","-21.5","","-26.4","","65","","","M","31","","24","","","","101.53","","","","-33","","NA"
"-57.10","51.02","FEROLLE POINT (AUT)","8401565","2023-02-25 06:30","2023","02","25","06:30","-21.8","","-27.0","","63","","","M","30","","24","","","","101.52","","","","-34","","NA"
"-57.10","51.02","FEROLLE POINT (AUT)","8401565","2023-02-25 07:30","2023","02","25","07:30","-22.0","","-26.8","","65","","","M","32","","27","","","","101.56","","","","-35","","NA"
"-57.10","51.02","FEROLLE POINT (AUT)","8401565","2023-02-25 08:30","2023","02","25","08:30","-22.5","","-27.5","","64","","","M","31","","21","","","","101.59","","","","-34","","NA"
"-57.10","51.02","FEROLLE POINT (AUT)","8401565","2023-02-25 09:30","2023","02","25","09:30","-22.1","","-26.7","","66","","","M","32","","24","","","","101.56","","","","-34","","NA"
"-57.10","51.02","FEROLLE POINT (AUT)","8401565","2023-02-25 10:30","2023","02","25","10:30","-22.0","","-26.9","","64","","","M","30","","25","","","","101.52","","","","-34","","NA"
"-57.10","51.02","FEROLLE POINT (AUT)","8401565","2023-02-25 11:30","2023","02","25","11:30","-21.6","","-26.0","","68","","","M","30","","24","","","","101.50","","","","-33","","NA"
"-57.10","51.02","FEROLLE POINT (AUT)","8401565","2023-02-25 12:30","2023","02","25","12:30","-21.4","","-26.3","","65","","","M","28","","21","","","","101.45","","","","-32","","NA"
"-57.10","51.02","FEROLLE POINT (AUT)","8401565","2023-02-25 13:30","2023","02","25","13:30","-20.6","","-25.2","","67","","","M","28","","20","","","","101.40","","","","-31","","NA"
"-57.10","51.02","FEROLLE POINT (AUT)","8401565","2023-02-25 14:30","2023","02","25","14:30","-20.1","","-24.8","","66","","","M","27","","19","","","","101.37","","","","-30","","NA"
"-57.10","51.02","FEROLLE POINT (AUT)","8401565","2023-02-25 15:30","2023","02","25","15:30","-19.5","","-24.2","","67","","","M","29","","21","","","","101.35","","","","-30","","NA"
"-57.10","51.02","FEROLLE POINT (AUT)","8401565","2023-02-25 16:30","2023","02","25","16:30","-18.9","","-24.0","","64","","","M","29","","21","","","","101.33","","","","-29","","NA"
"-57.10","51.02","FEROLLE POINT (AUT)","8401565","2023-02-25 17:30","2023","02","25","17:30","-18.7","","-24.2","","62","","","M","30","","21","","","","101.37","","","","-29","","NA"
"-57.10","51.02","FEROLLE POINT (AUT)","8401565","2023-02-25 18:30","2023","02","25","18:30","-18.2","","-23.6","","63","","","M","29","","13","","","","101.41","","","","-26","","NA"
"-57.10","51.02","FEROLLE POINT (AUT)","8401565","2023-02-25 19:30","2023","02","25","19:30","-17.6","","-23.3","","61","","","M","29","","11","","","","101.43","","","","-25","","NA"
"-57.10","51.02","FEROLLE POINT (AUT)","8401565","2023-02-25 20:30","2023","02","25","20:30","-17.3","","-23.5","","58","","","M","31","","16","","","","101.42","","","","-26","","NA"
"-57.10","51.02","FEROLLE POINT (AUT)","8401565","2023-02-25 21:30","2023","02","25","21:30","-16.9","","-23.6","","56","","","M","32","","19","","","","101.41","","","","-26","","NA"
"-57.10","51.02","FEROLLE POINT (AUT)","8401565","2023-02-25 22:30","2023","02","25","22:30","-17.1","","-23.7","","56","","","M","34","","17","","","","101.40","","","","-26","","NA"
"-57.10","51.02","FEROLLE POINT (AUT)","8401565","2023-02-25 23:30","2023","02","25","23:30","-17.1","","-23.9","","56","","","M","33","","21","","","","101.37","","","","-27","","NA"
"-57.10","51.02","FEROLLE POINT (AUT)","8401565","2023-02-26 00:30","2023","02","26","00:30","-17.8","","-23.9","","59","","","M","35","","20","","","","101.39","","","","-28","","NA"
"-57.10","51.02","FEROLLE POINT (AUT)","8401565","2023-02-26 01:30","2023","02","26","01:30","-18.4","","-23.9","","62","","","M","3","","13","","","","101.38","","","","-26","","NA"
"-57.10","51.02","FEROLLE POINT (AUT)","8401565","2023-02-26 02:30","2023","02","26","02:30","-19.1","","-23.8","","66","","","M","3","","7","","","","101.35","","","","-25","","NA"
"-57.10","51.02","FEROLLE POINT (AUT)","8401565","2023-02-26 03:30","2023","02","26","03:30","-18.6","","-24.7","","58","","","M","36","","14","","","","101.31","","","","-27","","NA"
"-57.10","51.02","FEROLLE POINT (AUT)","8401565","2023-02-26 04:30","2023","02","26","04:30","-18.8","","-25.7","","55","","","M","35","","22","","","","101.33","","","","-29","","NA"
"-57.10","51.02","FEROLLE POINT (AUT)","8401565","2023-02-26 05:30","2023","02","26","05:30","-19.0","","-25.0","","59","","","M","1","","15","","","","101.31","","","","-28","","NA"
"-57.10","51.02","FEROLLE POINT (AUT)","8401565","2023-02-26 06:30","2023","02","26","06:30","-19.0","","-25.1","","59","","","M","35","","18","","","","101.27","","","","-29","","NA"
"-57.10","51.02","FEROLLE POINT (AUT)","8401565","2023-02-26 07:30","2023","02","26","07:30","-19.2","","-25.1","","59","","","M","33","","17","","","","101.25","","","","-29","","NA"
"-57.10","51.02","FEROLLE POINT (AUT)","8401565","2023-02-26 08:30","2023","02","26","08:30","-19.1","","-24.7","","61","","","M","34","","20","","","","101.22","","","","-29","","NA"
"-57.10","51.02","FEROLLE POINT (AUT)","8401565","2023-02-26 09:30","2023","02","26","09:30","-19.2","","-24.5","","63","","","M","33","","21","","","","101.15","","","","-30","","NA"
"-57.10","51.02","FEROLLE POINT (AUT)","8401565","2023-02-26 10:30","2023","02","26","10:30","-19.2","","-23.9","","66","","","M","33","","20","","","","101.11","","","","-29","","NA"
"-57.10","51.02","FEROLLE POINT (AUT)","8401565","2023-02-26 11:30","2023","02","26","11:30","-18.7","","-24.0","","63","","","M","31","","20","","","","100.99","","","","-29","","NA"
"-57.10","51.02","FEROLLE POINT (AUT)","8401565","2023-02-26 12:30","2023","02","26","12:30","-17.9","","-24.1","","58","","","M","31","","21","","","","100.85","","","","-28","","NA"
"-57.10","51.02","FEROLLE POINT (AUT)","8401565","2023-02-26 13:30","2023","02","26","13:30","-16.9","","-22.7","","60","","","M","31","","20","","","","100.71","","","","-27","","NA"
"-57.10","51.02","FEROLLE POINT (AUT)","8401565","2023-02-26 14:30","2023","02","26","14:30","-16.6","","-22.3","","61","","","M","30","","23","","","","100.62","","","","-27","","NA"
"-57.10","51.02","FEROLLE POINT (AUT)","8401565","2023-02-26 15:30","2023","02","26","15:30","-15.7","","-21.4","","62","","","M","29","","20","","","","100.54","","","","-25","","NA"
"-57.10","51.02","FEROLLE POINT (AUT)","8401565","2023-02-26 16:30","2023","02","26","16:30","-15.1","","-21.8","","57","","","M","29","","22","","","","100.45","","","","-25","","NA"
"-57.10","51.02","FEROLLE POINT (AUT)","8401565","2023-02-26 17:30","2023","02","26","17:30","-14.4","","-20.8","","58","","","M","28","","21","","","","100.37","","","","-24","","NA"
"-57.10","51.02","FEROLLE POINT (AUT)","8401565","2023-02-26 18:30","2023","02","26","18:30","-13.8","","-20.7","","56","","","M","31","","23","","","","100.33","","","","-23","","NA"
"-57.10","51.02","FEROLLE POINT (AUT)","8401565","2023-02-26 19:30","2023","02","26","19:30","-14.2","","-20.7","","58","","","M","34","","28","","","","100.32","","","","-25","","NA"
"-57.10","51.02","FEROLLE POINT (AUT)","8401565","2023-02-26 20:30","2023","02","26","20:30","-14.7","","-21.1","","58","","","M","33","","32","","","","100.33","","","","-26","","NA"
"-57.10","51.02","FEROLLE POINT (AUT)","8401565","2023-02-26 21:30","2023","02","26","21:30","-15.3","","-22.1","","56","","","M","33","","38","","","","100.32","","","","-28","","NA"
"-57.10","51.02","FEROLLE POINT (AUT)","8401565","2023-02-26 22:30","2023","02","26","22:30","-15.8","","-22.1","","58","","","M","33","","32","","","","100.31","","","","-27","","NA"
"-57.10","51.02","FEROLLE POINT (AUT)","8401565","2023-02-26 23:30","2023","02","26","23:30","-16.1","","-22.0","","60","","","M","33","","27","","","","100.26","","","","-27","","NA"
"-57.10","51.02","FEROLLE POINT (AUT)","8401565","2023-02-27 00:30","2023","02","27","00:30","-16.3","","-22.3","","60","","","M","32","","24","","","","100.24","","","","-27","","NA"
"-57.10","51.02","FEROLLE POINT (AUT)","8401565","2023-02-27 01:30","2023","02","27","01:30","-16.6","","-22.6","","60","","","M","32","","23","","","","100.22","","","","-27","","NA"
"-57.10","51.02","FEROLLE POINT (AUT)","8401565","2023-02-27 02:30","2023","02","27","02:30","-17.1","","-22.7","","62","","","M","32","","22","","","","100.21","","","","-27","","NA"
"-57.10","51.02","FEROLLE POINT (AUT)","8401565","2023-02-27 03:30","2023","02","27","03:30","-17.3","","-23.1","","60","","","M","32","","25","","","","100.19","","","","-28","","NA"
"-57.10","51.02","FEROLLE POINT (AUT)","8401565","2023-02-27 04:30","2023","02","27","04:30","-17.6","","-23.3","","61","","","M","31","","26","","","","100.17","","","","-29","","NA"
"-57.10","51.02","FEROLLE POINT (AUT)","8401565","2023-02-27 05:30","2023","02","27","05:30","-18.0","","-23.4","","63","","","M","30","","27","","","","100.17","","","","-29","","NA"
"-57.10","51.02","FEROLLE POINT (AUT)","8401565","2023-02-27 06:30","2023","02","27","06:30","-18.2","","-23.4","","64","","","M","30","","31","","","","100.17","","","","-30","","NA"
"-57.10","51.02","FEROLLE POINT (AUT)","8401565","2023-02-27 07:30","2023","02","27","07:30","-18.2","","-23.4","","64","","","M","30","","29","","","","100.21","","","","-30","","NA"
"-57.10","51.02","FEROLLE POINT (AUT)","8401565","2023-02-27 08:30","2023","02","27","08:30","-18.3","","-23.4","","64","","","M","30","","28","","","","100.26","","","","-30","","NA"
"-57.10","51.02","FEROLLE POINT (AUT)","8401565","2023-02-27 09:30","2023","02","27","09:30","-18.4","","-23.8","","62","","","M","30","","22","","","","100.34","","","","-29","","NA"
"-57.10","51.02","FEROLLE POINT (AUT)","8401565","2023-02-27 10:30","2023","02","27","10:30","-18.2","","-23.8","","62","","","M","29","","22","","","","100.39","","","","-29","","NA"
"-57.10","51.02","FEROLLE POINT (AUT)","8401565","2023-02-27 11:30","2023","02","27","11:30","-17.6","","-23.5","","60","","","M","30","","20","","","","100.39","","","","-27","","NA"
"-57.10","51.02","FEROLLE POINT (AUT)","8401565","2023-02-27 12:30","2023","02","27","12:30","-16.8","","-22.6","","61","","","M","31","","19","","","","100.43","","","","-26","","NA"
"-57.10","51.02","FEROLLE POINT (AUT)","8401565","2023-02-27 13:30","2023","02","27","13:30","-15.9","","-22.4","","58","","","M","29","","19","","","","100.41","","","","-25","","NA"
"-57.10","51.02","FEROLLE POINT (AUT)","8401565","2023-02-27 14:30","2023","02","27","14:30","-14.7","","-21.5","","56","","","M","27","","18","","","","100.42","","","","-23","","NA"
"-57.10","51.02","FEROLLE POINT (AUT)","8401565","2023-02-27 15:30","2023","02","27","15:30","-13.6","","-20.9","","54","","","M","27","","21","","","","100.44","","","","-23","","NA"
"-57.10","51.02","FEROLLE POINT (AUT)","8401565","2023-02-27 16:30","2023","02","27","16:30","-12.9","","-19.5","","57","","","M","25","","18","","","","100.46","","","","-21","","NA"
"-57.10","51.02","FEROLLE POINT (AUT)","8401565","2023-02-27 17:30","2023","02","27","17:30","-11.9","","-19.2","","54","","","M","28","","17","","","","100.50","","","","-20","","NA"
"-57.10","51.02","FEROLLE POINT (AUT)","8401565","2023-02-27 18:30","2023","02","27","18:30","-12.0","","-18.3","","59","","","M","30","","20","","","","100.58","","","","-20","","NA"
"-57.10","51.02","FEROLLE POINT (AUT)","8401565","2023-02-27 19:30","2023","02","27","19:30","-12.3","","-18.4","","60","","","M","34","","19","","","","100.67","","","","-21","","NA"
"-57.10","51.02","FEROLLE POINT (AUT)","8401565","2023-02-27 20:30","2023","02","27","20:30","-12.4","","-18.0","","63","","","M","33","","22","","","","100.74","","","","-21","","NA"
"-57.10","51.02","FEROLLE POINT (AUT)","8401565","2023-02-27 21:30","2023","02","27","21:30","-12.7","","-19.5","","57","","","M","33","","28","","","","100.81","","","","-23","","NA"
"-57.10","51.02","FEROLLE POINT (AUT)","8401565","2023-02-27 22:30","2023","02","27","22:30","-13.3","","-19.1","","62","","","M","33","","15","","","","100.85","","","","-21","","NA"
"-57.10","51.02","FEROLLE POINT (AUT)","8401565","2023-02-27 23:30","2023","02","27","23:30","-13.6","","-19.3","","62","","","M","33","","18","","","","100.90","","","","-22","","NA"
"-57.10","51.02","FEROLLE POINT (AUT)","8401565","2023-02-28 00:30","2023","02","28","00:30","-13.7","","-19.7","","61","","","M","33","","17","","","","100.95","","","","-22","","NA"
"-57.10","51.02","FEROLLE POINT (AUT)","8401565","2023-02-28 01:30","2023","02","28","01:30","-14.0","","-20.3","","59","","","M","34","","23","","","","101.01","","","","-24","","NA"
"-57.10","51.02","FEROLLE POINT (AUT)","8401565","2023-02-28 02:30","2023","02","28","02:30","-14.6","","-20.5","","61","","","M","32","","19","","","","101.06","","","","-23","","NA"
"-57.10","51.02","FEROLLE POINT (AUT)","8401565","2023-02-28 03:30","2023","02","28","03:30","-14.8","","-20.4","","62","","","M","32","","19","","","","101.14","","","","-24","","NA"
"-57.10","51.02","FEROLLE POINT (AUT)","8401565","2023-02-28 04:30","2023","02","28","04:30","-15.1","","-20.2","","65","","","M","32","","18","","","","101.19","","","","-24","","NA"
"-57.10","51.02","FEROLLE POINT (AUT)","8401565","2023-02-28 05:30","2023","02","28","05:30","-15.3","","-21.0","","62","","","M","31","","19","","","","101.27","","","","-24","","NA"
"-57.10","51.02","FEROLLE POINT (AUT)","8401565","2023-02-28 06:30","2023","02","28","06:30","-15.2","","-20.4","","65","","","M","31","","19","","","","101.35","","","","-24","","NA"
"-57.10","51.02","FEROLLE POINT (AUT)","8401565","2023-02-28 07:30","2023","02","28","07:30","-15.5","","-20.8","","64","","","M","31","","18","","","","101.43","","","","-24","","NA"
"-57.10","51.02","FEROLLE POINT (AUT)","8401565","2023-02-28 08:30","2023","02","28","08:30","-15.5","","-20.8","","64","","","M","31","","20","","","","101.54","","","","-25","","NA"
"-57.10","51.02","FEROLLE POINT (AUT)","8401565","2023-02-28 09:30","2023","02","28","09:30","-15.4","","-20.7","","64","","","M","31","","16","","","","101.62","","","","-24","","NA"
"-57.10","51.02","FEROLLE POINT (AUT)","8401565","2023-02-28 10:30","2023","02","28","10:30","-15.5","","-20.6","","65","","","M","34","","11","","","","101.67","","","","-22","","NA"
"-57.10","51.02","FEROLLE POINT (AUT)","8401565","2023-02-28 11:30","2023","02","28","11:30","-15.0","","-20.3","","64","","","M","31","","9","","","","101.69","","","","-21","","NA"
"-57.10","51.02","FEROLLE POINT (AUT)","8401565","2023-02-28 12:30","2023","02","28","12:30","-14.3","","-20.7","","58","","","M","26","","9","","","","101.70","","","","-20","","NA"
"-57.10","51.02","FEROLLE POINT (AUT)","8401565","2023-02-28 13:30","2023","02","28","13:30","-13.7","","-20.1","","58","","","M","29","","8","","","","101.69","","","","-19","","NA"
"-57.10","51.02","FEROLLE POINT (AUT)","8401565","2023-02-28 14:30","2023","02","28","14:30","-13.8","","-20.0","","60","","","M","30","","11","","","","101.73","","","","-20","","NA"
"-57.10","51.02","FEROLLE POINT (AUT)","8401565","2023-02-28 15:30","2023","02","28","15:30","-13.6","","-19.6","","60","","","M","29","","10","","","","101.79","","","","-20","","NA"
"-57.10","51.02","FEROLLE POINT (AUT)","8401565","2023-02-28 16:30","2023","02","28","16:30","-13.1","","-20.2","","55","","","M","28","","5","","","","101.83","","","","-16","","NA"
"-57.10","51.02","FEROLLE POINT (AUT)","8401565","2023-02-28 17:30","2023","02","28","17:30","-13.8","","-19.8","","60","","","M","","","0","","","","101.88","","","","","","NA"
"-57.10","51.02","FEROLLE POINT (AUT)","8401565","2023-02-28 18:30","2023","02","28","18:30","-14.6","","-20.0","","63","","","M","","","0","","","","101.98","","","","","","NA"
"-57.10","51.02","FEROLLE POINT (AUT)","8401565","2023-02-28 19:30","2023","02","28","19:30","-14.1","","-20.0","","61","","","M","","","0","","","","102.03","","","","","","NA"
"-57.10","51.02","FEROLLE POINT (AUT)","8401565","2023-02-28 20:30","2023","02","28","20:30","-14.4","","-19.4","","65","","","M","20","","3","","","","102.06","","","","-17","","NA"
"-57.10","51.02","FEROLLE POINT (AUT)","8401565","2023-02-28 21:30","2023","02","28","21:30","-14.4","","-19.4","","66","","","M","","","0","","","","102.06","","","","","","NA"
"-57.10","51.02","FEROLLE POINT (AUT)","8401565","2023-02-28 22:30","2023","02","28","22:30","-17.3","","-20.1","","78","","","M","13","","5","","","","102.04","","","","-21","","NA"
"-57.10","51.02","FEROLLE POINT (AUT)","8401565","2023-02-28 23:30","2023","02","28","23:30","-18.3","","-21.0","","79","","","M","10","","7","","","","102.05","","","","-24","","NA"
