"Longitude (x)","Latitude (y)","Station Name","Climate ID","Date/Time (LST)","Year","Month","Day","Time (LST)","Temp (°C)","Temp Flag","Dew Point Temp (°C)","Dew Point Temp Flag","Rel Hum (%)","Rel Hum Flag","Precip. Amount (mm)","Precip. Amount Flag","Wind Dir (10s deg)","Wind Dir Flag","Wind Spd (km/h)","Wind Spd Flag","Visibility (km)","Visibility Flag","Stn Press (kPa)","Stn Press Flag","Hmdx","Hmdx Flag","Wind Chill","Wind Chill Flag","Weather"
"-94.97","74.72","RESOLUTE BAY A","2403498","2018-10-01 00:00","2018","10","01","00:00","-14.3","","-16.2","","86","","","","34","","22","","24.1","","99.86","","","","-24","","Ice Crystals"
"-94.97","74.72","RESOLUTE BAY A","2403498","2018-10-01 01:00","2018","10","01","01:00","-12.4","","-14.0","","88","","","","34","","26","","24.1","","99.82","","","","-22","","Ice Crystals"
"-94.97","74.72","RESOLUTE BAY A","2403498","2018-10-01 02:00","2018","10","01","02:00","-11.6","","-13.0","","89","","","","32","","19","","24.1","","99.79","","","","-20","","Ice Crystals"
"-94.97","74.72","RESOLUTE BAY A","2403498","2018-10-01 03:00","2018","10","01","03:00","-10.7","","-12.1","","90","","","","31","","18","","16.1","","99.70","","","","-18","","Snow"
"-94.97","74.72","RESOLUTE BAY A","2403498","2018-10-01 04:00","2018","10","01","04:00","-10.5","","-11.8","","90","","","","32","","13","","24.1","","99.63","","","","-17","","Snow"
"-94.97","74.72","RESOLUTE BAY A","2403498","2018-10-01 05:00","2018","10","01","05:00","-10.5","","-11.8","","90","","","","26","","14","","24.1","","99.58","","","","-17","","Snow"
"-94.97","74.72","RESOLUTE BAY A","2403498","2018-10-01 06:00","2018","10","01","06:00","-10.9","","-12.3","","90","","","","19","","14","","24.1","","99.53","","","","-18","","Snow"
"-94.97","74.72","RESOLUTE BAY A","2403498","2018-10-01 07:00","2018","10","01","07:00","-10.0","","-11.2","","91","","","","17","","15","","3.2","","99.48","","","","-17","","Freezing Drizzle,Snow,Fog"
"-94.97","74.72","RESOLUTE BAY A","2403498","2018-10-01 08:00","2018","10","01","08:00","-9.1","","-10.2","","91","","","","17","","16","","4.0","","99.44","","","","-16","","Snow,Fog"
"-94.97","74.72","RESOLUTE BAY A","2403498","2018-10-01 09:00","2018","10","01","09:00","-8.6","","-9.7","","92","","","","18","","20","","4.8","","99.45","","","","-16","","Snow,Fog"
"-94.97","74.72","RESOLUTE BAY A","2403498","2018-10-01 10:00","2018","10","01","10:00","-8.8","","-10.0","","91","","","","17","","21","","8.1","","99.50","","","","-17","","Snow,Fog"
"-94.97","74.72","RESOLUTE BAY A","2403498","2018-10-01 11:00","2018","10","01","11:00","-8.6","","-9.8","","91","","","","15","","25","","16.1","","99.55","","","","-17","","Snow"
"-94.97","74.72","RESOLUTE BAY A","2403498","2018-10-01 12:00","2018","10","01","12:00","-8.7","","-10.0","","91","","","","15","","20","","16.1","","99.63","","","","-16","","Snow"
"-94.97","74.72","RESOLUTE BAY A","2403498","2018-10-01 13:00","2018","10","01","13:00","-8.9","","-10.1","","91","","","","14","","22","","16.1","","99.74","","","","-17","","Snow"
"-94.97","74.72","RESOLUTE BAY A","2403498","2018-10-01 14:00","2018","10","01","14:00","-8.9","","-10.2","","91","","","","14","","22","","8.1","","99.85","","","","-17","","Snow"
"-94.97","74.72","RESOLUTE BAY A","2403498","2018-10-01 15:00","2018","10","01","15:00","-9.7","","-11.0","","90","","","","9","","22","","4.8","","99.95","","","","-18","","Snow"
"-94.97","74.72","RESOLUTE BAY A","2403498","2018-10-01 16:00","2018","10","01","16:00","-10.5","","-11.9","","90","","","","8","","21","","2.4","","100.07","","","","-19","","Snow"
"-94.97","74.72","RESOLUTE BAY A","2403498","2018-10-01 17:00","2018","10","01","17:00","-11.5","","-13.0","","89","","","","8","","12","","1.6","","100.17","","","","-18","","Snow"
"-94.97","74.72","RESOLUTE BAY A","2403498","2018-10-01 18:00","2018","10","01","18:00","-11.5","","-13.0","","89","","","","8","","16","","3.2","","100.25","","","","-19","","Snow"
"-94.97","74.72","RESOLUTE BAY A","2403498","2018-10-01 19:00","2018","10","01","19:00","-14.1","","-15.9","","86","","","","8","","19","","16.1","","100.35","","","","-23","","Snow"
"-94.97","74.72","RESOLUTE BAY A","2403498","2018-10-01 20:00","2018","10","01","20:00","-13.1","","-14.8","","87","","","","8","","19","","16.1","","100.43","","","","-22","","Ice Crystals"
"-94.97","74.72","RESOLUTE BAY A","2403498","2018-10-01 21:00","2018","10","01","21:00","-12.5","","-14.2","","87","","","","4","","15","","24.1","","100.51","","","","-20","","Snow"
"-94.97","74.72","RESOLUTE BAY A","2403498","2018-10-01 22:00","2018","10","01","22:00","-11.1","","-12.6","","89","","","","3","","16","","24.1","","100.57","","","","-18","","Snow"
"-94.97","74.72","RESOLUTE BAY A","2403498","2018-10-01 23:00","2018","10","01","23:00","-11.0","","-12.5","","89","","","","4","","14","","24.1","","100.62","","","","-18","","Snow"
"-94.97","74.72","RESOLUTE BAY A","2403498","2018-10-02 00:00","2018","10","02","00:00","-11.2","","-12.8","","89","","","","4","","13","","24.1","","100.68","","","","-18","","Snow"
"-94.97","74.72","RESOLUTE BAY A","2403498","2018-10-02 01:00","2018","10","02","01:00","-11.7","","-13.3","","88","","","","6","","15","","24.1","","100.73","","","","-19","","Snow"
"-94.97","74.72","RESOLUTE BAY A","2403498","2018-10-02 02:00","2018","10","02","02:00","-12.3","","-13.9","","88","","","","7","","7","","24.1","","100.75","","","","-17","","Snow"
"-94.97","74.72","RESOLUTE BAY A","2403498","2018-10-02 03:00","2018","10","02","03:00","-12.6","","-14.1","","89","","","","5","","13","","24.1","","100.78","","","","-19","","Snow"
"-94.97","74.72","RESOLUTE BAY A","2403498","2018-10-02 04:00","2018","10","02","04:00","-10.0","","-11.4","","90","","","","5","","26","","24.1","","100.84","","","","-19","","Snow"
"-94.97","74.72","RESOLUTE BAY A","2403498","2018-10-02 05:00","2018","10","02","05:00","-10.2","","-11.6","","89","","","","6","","30","","24.1","","100.88","","","","-20","","Snow"
"-94.97","74.72","RESOLUTE BAY A","2403498","2018-10-02 06:00","2018","10","02","06:00","-11.1","","-12.7","","89","","","","4","","35","","24.1","","100.92","","","","-22","","Blowing Snow"
"-94.97","74.72","RESOLUTE BAY A","2403498","2018-10-02 07:00","2018","10","02","07:00","-10.6","","-12.4","","87","","","","5","","40","","24.1","","100.95","","","","-22","","Blowing Snow"
"-94.97","74.72","RESOLUTE BAY A","2403498","2018-10-02 08:00","2018","10","02","08:00","-9.5","","-11.9","","83","","","","5","","34","","24.1","","100.99","","","","-19","","Blowing Snow"
"-94.97","74.72","RESOLUTE BAY A","2403498","2018-10-02 09:00","2018","10","02","09:00","-9.2","","-12.2","","79","","","","5","","29","","24.1","","101.02","","","","-18","","Blowing Snow"
"-94.97","74.72","RESOLUTE BAY A","2403498","2018-10-02 10:00","2018","10","02","10:00","-8.0","","-11.0","","79","","","","5","","31","","24.1","","101.05","","","","-17","","Blowing Snow"
"-94.97","74.72","RESOLUTE BAY A","2403498","2018-10-02 11:00","2018","10","02","11:00","-8.0","","-11.1","","78","","","","4","","16","","24.1","","101.09","","","","-15","","NA"
"-94.97","74.72","RESOLUTE BAY A","2403498","2018-10-02 12:00","2018","10","02","12:00","-7.9","","-11.3","","76","","","","4","","21","","24.1","","101.10","","","","-15","","Snow"
"-94.97","74.72","RESOLUTE BAY A","2403498","2018-10-02 13:00","2018","10","02","13:00","-7.6","","-11.1","","76","","","","2","","17","","24.1","","101.12","","","","-14","","Snow"
"-94.97","74.72","RESOLUTE BAY A","2403498","2018-10-02 14:00","2018","10","02","14:00","-10.4","","-12.8","","83","","","","31","","12","","24.1","","101.10","","","","-16","","NA"
"-94.97","74.72","RESOLUTE BAY A","2403498","2018-10-02 15:00","2018","10","02","15:00","-10.7","","-13.4","","81","","","","2","","21","","24.1","","101.09","","","","-19","","Mainly Clear"
"-94.97","74.72","RESOLUTE BAY A","2403498","2018-10-02 16:00","2018","10","02","16:00","-9.5","","-11.7","","84","","","","4","","41","","24.1","","101.05","","","","-20","","Blowing Snow"
"-94.97","74.72","RESOLUTE BAY A","2403498","2018-10-02 17:00","2018","10","02","17:00","-7.9","","-10.1","","85","","","","4","","34","","24.1","","101.13","","","","-17","","Blowing Snow"
"-94.97","74.72","RESOLUTE BAY A","2403498","2018-10-02 18:00","2018","10","02","18:00","-7.4","","-9.5","","85","","","","3","","30","","24.1","","101.14","","","","-16","","Blowing Snow"
"-94.97","74.72","RESOLUTE BAY A","2403498","2018-10-02 19:00","2018","10","02","19:00","-7.2","","-9.7","","83","","","","4","","33","","24.1","","101.17","","","","-16","","Blowing Snow"
"-94.97","74.72","RESOLUTE BAY A","2403498","2018-10-02 20:00","2018","10","02","20:00","-11.8","","-13.9","","85","","","","3","","29","","24.1","","101.17","","","","-22","","Blowing Snow"
"-94.97","74.72","RESOLUTE BAY A","2403498","2018-10-02 21:00","2018","10","02","21:00","-13.2","","-15.1","","86","","","","3","","41","","24.1","","101.12","","","","-25","","Blowing Snow"
"-94.97","74.72","RESOLUTE BAY A","2403498","2018-10-02 22:00","2018","10","02","22:00","-13.7","","-16.1","","83","","","","30","","14","","24.1","","101.15","","","","-21","","NA"
"-94.97","74.72","RESOLUTE BAY A","2403498","2018-10-02 23:00","2018","10","02","23:00","-13.9","","-16.4","","82","","","","29","","18","","24.1","","101.14","","","","-22","","Blowing Snow"
"-94.97","74.72","RESOLUTE BAY A","2403498","2018-10-03 00:00","2018","10","03","00:00","-11.7","","-14.9","","78","","","","3","","34","","24.1","","101.05","","","","-22","","Mainly Clear"
"-94.97","74.72","RESOLUTE BAY A","2403498","2018-10-03 01:00","2018","10","03","01:00","-10.2","","-13.2","","79","","","","3","","42","","24.1","","101.03","","","","-21","","NA"
"-94.97","74.72","RESOLUTE BAY A","2403498","2018-10-03 02:00","2018","10","03","02:00","-9.5","","-11.9","","83","","","","4","","54","","8.1","","100.95","","","","-21","","Blowing Snow"
"-94.97","74.72","RESOLUTE BAY A","2403498","2018-10-03 03:00","2018","10","03","03:00","-10.3","","-12.8","","82","","","","33","","7","","8.1","","101.07","","","","-14","","Blowing Snow"
"-94.97","74.72","RESOLUTE BAY A","2403498","2018-10-03 04:00","2018","10","03","04:00","-7.5","","-9.7","","84","","","","18","","3","","16.1","","101.06","","","","-9","","NA"
"-94.97","74.72","RESOLUTE BAY A","2403498","2018-10-03 05:00","2018","10","03","05:00","-7.0","","-8.9","","86","","","","4","","45","","16.1","","101.04","","","","-17","","Blowing Snow"
"-94.97","74.72","RESOLUTE BAY A","2403498","2018-10-03 06:00","2018","10","03","06:00","-7.9","","-9.9","","86","","","","4","","35","","24.1","","101.08","","","","-17","","Blowing Snow"
"-94.97","74.72","RESOLUTE BAY A","2403498","2018-10-03 07:00","2018","10","03","07:00","-7.4","","-9.3","","86","","","","6","","46","","24.1","","101.07","","","","-18","","Blowing Snow"
"-94.97","74.72","RESOLUTE BAY A","2403498","2018-10-03 08:00","2018","10","03","08:00","-7.2","","-9.3","","85","","","","6","","39","","24.1","","101.11","","","","-17","","Blowing Snow"
"-94.97","74.72","RESOLUTE BAY A","2403498","2018-10-03 09:00","2018","10","03","09:00","-6.8","","-9.1","","84","","","","6","","37","","24.1","","101.15","","","","-16","","Blowing Snow"
"-94.97","74.72","RESOLUTE BAY A","2403498","2018-10-03 10:00","2018","10","03","10:00","-8.1","","-10.3","","84","","","","3","","34","","24.1","","101.18","","","","-18","","Blowing Snow"
"-94.97","74.72","RESOLUTE BAY A","2403498","2018-10-03 11:00","2018","10","03","11:00","-5.7","","-7.7","","86","","","","4","","39","","24.1","","101.19","","","","-15","","Blowing Snow"
"-94.97","74.72","RESOLUTE BAY A","2403498","2018-10-03 12:00","2018","10","03","12:00","-6.9","","-9.0","","85","","","","4","","35","","24.1","","101.16","","","","-16","","Blowing Snow"
"-94.97","74.72","RESOLUTE BAY A","2403498","2018-10-03 13:00","2018","10","03","13:00","-6.5","","-8.4","","87","","","","5","","39","","24.1","","101.19","","","","-16","","Blowing Snow"
"-94.97","74.72","RESOLUTE BAY A","2403498","2018-10-03 14:00","2018","10","03","14:00","-7.2","","-8.4","","91","","","","5","","32","","24.1","","101.20","","","","-16","","Blowing Snow"
"-94.97","74.72","RESOLUTE BAY A","2403498","2018-10-03 15:00","2018","10","03","15:00","-7.2","","-8.5","","90","","","","4","","39","","24.1","","101.19","","","","-17","","Blowing Snow"
"-94.97","74.72","RESOLUTE BAY A","2403498","2018-10-03 16:00","2018","10","03","16:00","-7.7","","-9.2","","89","","","","4","","40","","24.1","","101.21","","","","-18","","Blowing Snow"
"-94.97","74.72","RESOLUTE BAY A","2403498","2018-10-03 17:00","2018","10","03","17:00","-7.6","","-9.6","","86","","","","5","","31","","24.1","","101.23","","","","-17","","Blowing Snow"
"-94.97","74.72","RESOLUTE BAY A","2403498","2018-10-03 18:00","2018","10","03","18:00","-7.4","","-9.8","","83","","","","4","","32","","24.1","","101.23","","","","-16","","Blowing Snow"
"-94.97","74.72","RESOLUTE BAY A","2403498","2018-10-03 19:00","2018","10","03","19:00","-9.4","","-11.4","","86","","","","6","","37","","24.1","","101.23","","","","-20","","Blowing Snow"
"-94.97","74.72","RESOLUTE BAY A","2403498","2018-10-03 20:00","2018","10","03","20:00","-8.1","","-10.3","","85","","","","7","","32","","24.1","","101.23","","","","-17","","Blowing Snow"
"-94.97","74.72","RESOLUTE BAY A","2403498","2018-10-03 21:00","2018","10","03","21:00","-8.5","","-11.0","","82","","","","8","","16","","24.1","","101.23","","","","-15","","Mostly Cloudy"
"-94.97","74.72","RESOLUTE BAY A","2403498","2018-10-03 22:00","2018","10","03","22:00","-10.5","","-11.9","","89","","","","35","","7","","24.1","","101.25","","","","-15","","NA"
"-94.97","74.72","RESOLUTE BAY A","2403498","2018-10-03 23:00","2018","10","03","23:00","-9.5","","-11.2","","87","","","","36","","2","","24.1","","101.24","","","","-11","","NA"
"-94.97","74.72","RESOLUTE BAY A","2403498","2018-10-04 00:00","2018","10","04","00:00"
"-94.97","74.72","RESOLUTE BAY A","2403498","2018-10-04 01:00","2018","10","04","01:00"
"-94.97","74.72","RESOLUTE BAY A","2403498","2018-10-04 02:00","2018","10","04","02:00","-8.6","","-9.8","","91","","","","36","","1","","24.1","","101.26","","","","-9","","NA"
"-94.97","74.72","RESOLUTE BAY A","2403498","2018-10-04 03:00","2018","10","04","03:00","-9.0","","-10.0","","92","","","","34","","6","","24.1","","101.25","","","","-12","","Mainly Clear"
"-94.97","74.72","RESOLUTE BAY A","2403498","2018-10-04 04:00","2018","10","04","04:00","-8.6","","-9.7","","92","","","","31","","4","","24.1","","101.26","","","","-11","","NA"
"-94.97","74.72","RESOLUTE BAY A","2403498","2018-10-04 05:00","2018","10","04","05:00","-8.4","","-9.6","","91","","","","13","","9","","24.1","","101.29","","","","-13","","NA"
"-94.97","74.72","RESOLUTE BAY A","2403498","2018-10-04 06:00","2018","10","04","06:00","-7.2","","-8.6","","90","","","","12","","9","","24.1","","101.32","","","","-12","","Mostly Cloudy"
"-94.97","74.72","RESOLUTE BAY A","2403498","2018-10-04 07:00","2018","10","04","07:00","-7.3","","-8.6","","90","","","","11","","13","","24.1","","101.34","","","","-13","","NA"
"-94.97","74.72","RESOLUTE BAY A","2403498","2018-10-04 08:00","2018","10","04","08:00","-6.9","","-8.2","","91","","","","12","","8","","24.1","","101.35","","","","-11","","NA"
"-94.97","74.72","RESOLUTE BAY A","2403498","2018-10-04 09:00","2018","10","04","09:00","-5.6","","-8.5","","80","","","","11","","8","","24.1","","101.34","","","","-9","","Cloudy"
"-94.97","74.72","RESOLUTE BAY A","2403498","2018-10-04 10:00","2018","10","04","10:00","-6.0","","-8.1","","85","","","","15","","8","","24.1","","101.37","","","","-10","","NA"
"-94.97","74.72","RESOLUTE BAY A","2403498","2018-10-04 11:00","2018","10","04","11:00","-5.2","","-8.1","","80","","","","13","","16","","24.1","","101.38","","","","-11","","NA"
"-94.97","74.72","RESOLUTE BAY A","2403498","2018-10-04 12:00","2018","10","04","12:00","-5.0","","-7.9","","80","","","","11","","16","","24.1","","101.41","","","","-11","","Cloudy"
"-94.97","74.72","RESOLUTE BAY A","2403498","2018-10-04 13:00","2018","10","04","13:00","-4.8","","-7.9","","79","","","","12","","13","","24.1","","101.44","","","","-10","","NA"
"-94.97","74.72","RESOLUTE BAY A","2403498","2018-10-04 14:00","2018","10","04","14:00","-4.6","","-8.0","","77","","","","11","","16","","24.1","","101.46","","","","-10","","NA"
"-94.97","74.72","RESOLUTE BAY A","2403498","2018-10-04 15:00","2018","10","04","15:00","-4.7","","-8.4","","76","","","","11","","21","","24.1","","101.48","","","","-11","","Mostly Cloudy"
"-94.97","74.72","RESOLUTE BAY A","2403498","2018-10-04 16:00","2018","10","04","16:00","-5.6","","-8.9","","78","","","","10","","22","","24.1","","101.52","","","","-13","","NA"
"-94.97","74.72","RESOLUTE BAY A","2403498","2018-10-04 17:00","2018","10","04","17:00","-5.3","","-8.6","","78","","","","11","","18","","24.1","","101.55","","","","-12","","NA"
"-94.97","74.72","RESOLUTE BAY A","2403498","2018-10-04 18:00","2018","10","04","18:00","-5.7","","-8.7","","80","","","","7","","26","","24.1","","101.62","","","","-13","","Mostly Cloudy"
"-94.97","74.72","RESOLUTE BAY A","2403498","2018-10-04 19:00","2018","10","04","19:00","-4.6","","-8.0","","78","","","","8","","21","","24.1","","101.64","","","","-11","","NA"
"-94.97","74.72","RESOLUTE BAY A","2403498","2018-10-04 20:00","2018","10","04","20:00","-4.7","","-8.1","","77","","","","9","","21","","19.3","","101.66","","","","-11","","NA"
"-94.97","74.72","RESOLUTE BAY A","2403498","2018-10-04 21:00","2018","10","04","21:00","-6.1","","-8.5","","83","","","","5","","25","","24.1","","101.71","","","","-14","","Mostly Cloudy"
"-94.97","74.72","RESOLUTE BAY A","2403498","2018-10-04 22:00","2018","10","04","22:00"
"-94.97","74.72","RESOLUTE BAY A","2403498","2018-10-04 23:00","2018","10","04","23:00","-6.6","","-9.1","","82","","","","5","","21","","24.1","","101.76","","","","-14","","NA"
"-94.97","74.72","RESOLUTE BAY A","2403498","2018-10-05 00:00","2018","10","05","00:00","-6.2","","-8.8","","82","","","","6","","12","","24.1","","101.76","","","","-11","","Mostly Cloudy"
"-94.97","74.72","RESOLUTE BAY A","2403498","2018-10-05 01:00","2018","10","05","01:00","-7.5","","-9.8","","84","","","","2","","25","","24.1","","101.76","","","","-16","","NA"
"-94.97","74.72","RESOLUTE BAY A","2403498","2018-10-05 02:00","2018","10","05","02:00","-8.2","","-10.2","","86","","","","2","","18","","24.1","","101.79","","","","-15","","NA"
"-94.97","74.72","RESOLUTE BAY A","2403498","2018-10-05 03:00","2018","10","05","03:00","-9.1","","-10.2","","92","","","","6","","15","","24.1","","101.79","","","","-16","","Mostly Cloudy"
"-94.97","74.72","RESOLUTE BAY A","2403498","2018-10-05 04:00","2018","10","05","04:00","-10.2","","-12.0","","86","","","","4","","12","","24.1","","101.79","","","","-16","","NA"
"-94.97","74.72","RESOLUTE BAY A","2403498","2018-10-05 05:00","2018","10","05","05:00","-12.4","","-14.3","","86","","","","35","","15","","24.1","","101.77","","","","-20","","NA"
"-94.97","74.72","RESOLUTE BAY A","2403498","2018-10-05 06:00","2018","10","05","06:00","-12.1","","-14.2","","84","","","","3","","39","","24.1","","101.70","","","","-23","","Mainly Clear"
"-94.97","74.72","RESOLUTE BAY A","2403498","2018-10-05 07:00","2018","10","05","07:00","-12.2","","-14.6","","83","","","","3","","39","","24.1","","101.69","","","","-24","","Blowing Snow"
"-94.97","74.72","RESOLUTE BAY A","2403498","2018-10-05 08:00","2018","10","05","08:00","-12.2","","-14.4","","84","","","","3","","38","","24.1","","101.67","","","","-23","","Blowing Snow"
"-94.97","74.72","RESOLUTE BAY A","2403498","2018-10-05 09:00","2018","10","05","09:00","-11.6","","-13.8","","83","","","","2","","35","","24.1","","101.63","","","","-22","","Blowing Snow"
"-94.97","74.72","RESOLUTE BAY A","2403498","2018-10-05 10:00","2018","10","05","10:00","-10.4","","-12.6","","84","","","","35","","28","","24.1","","101.62","","","","-20","","NA"
"-94.97","74.72","RESOLUTE BAY A","2403498","2018-10-05 11:00","2018","10","05","11:00","-9.8","","-11.7","","87","","","","34","","16","","24.1","","101.57","","","","-17","","NA"
"-94.97","74.72","RESOLUTE BAY A","2403498","2018-10-05 12:00","2018","10","05","12:00","-8.4","","-10.4","","86","","","","33","","22","","24.1","","101.52","","","","-16","","Mostly Cloudy"
"-94.97","74.72","RESOLUTE BAY A","2403498","2018-10-05 13:00","2018","10","05","13:00","-8.7","","-10.4","","88","","","","32","","24","","24.1","","101.46","","","","-17","","NA"
"-94.97","74.72","RESOLUTE BAY A","2403498","2018-10-05 14:00","2018","10","05","14:00","-10.3","","-12.4","","85","","","","32","","28","","24.1","","101.42","","","","-20","","NA"
"-94.97","74.72","RESOLUTE BAY A","2403498","2018-10-05 15:00","2018","10","05","15:00","-12.1","","-14.3","","84","","","","33","","31","","24.1","","101.35","","","","-22","","Mainly Clear"
"-94.97","74.72","RESOLUTE BAY A","2403498","2018-10-05 16:00","2018","10","05","16:00","-12.6","","-14.3","","87","","","","31","","28","","24.1","","101.29","","","","-23","","NA"
"-94.97","74.72","RESOLUTE BAY A","2403498","2018-10-05 17:00","2018","10","05","17:00","-13.9","","-15.8","","86","","","","32","","27","","4.8","","101.24","","","","-24","","Fog"
"-94.97","74.72","RESOLUTE BAY A","2403498","2018-10-05 18:00","2018","10","05","18:00","-13.8","","-15.5","","87","","","","33","","35","","16.1","","101.14","","","","-25","","Snow"
"-94.97","74.72","RESOLUTE BAY A","2403498","2018-10-05 19:00","2018","10","05","19:00","-13.7","","-15.4","","87","","","","34","","37","","14.5","","101.07","","","","-25","","Ice Crystals"
"-94.97","74.72","RESOLUTE BAY A","2403498","2018-10-05 20:00","2018","10","05","20:00","-13.2","","-14.8","","88","","","","34","","28","","24.1","","101.02","","","","-23","","Ice Crystals"
"-94.97","74.72","RESOLUTE BAY A","2403498","2018-10-05 21:00","2018","10","05","21:00","-12.8","","-14.4","","88","","","","32","","23","","12.9","","100.93","","","","-22","","Snow"
"-94.97","74.72","RESOLUTE BAY A","2403498","2018-10-05 22:00","2018","10","05","22:00","-10.8","","-12.3","","89","","","","31","","32","","12.9","","100.80","","","","-21","","Snow,Blowing Snow"
"-94.97","74.72","RESOLUTE BAY A","2403498","2018-10-05 23:00","2018","10","05","23:00"
"-94.97","74.72","RESOLUTE BAY A","2403498","2018-10-06 00:00","2018","10","06","00:00","-10.1","","-11.5","","89","","","","31","","41","","12.9","","100.65","","","","-21","","Snow,Blowing Snow"
"-94.97","74.72","RESOLUTE BAY A","2403498","2018-10-06 01:00","2018","10","06","01:00"
"-94.97","74.72","RESOLUTE BAY A","2403498","2018-10-06 02:00","2018","10","06","02:00","-9.5","","-11.0","","89","","","","31","","47","","12.9","","100.43","","","","-21","","Snow,Blowing Snow"
"-94.97","74.72","RESOLUTE BAY A","2403498","2018-10-06 03:00","2018","10","06","03:00","-9.2","","-10.8","","89","","","","31","","40","","16.1","","100.36","","","","-20","","Snow,Blowing Snow"
"-94.97","74.72","RESOLUTE BAY A","2403498","2018-10-06 04:00","2018","10","06","04:00","-8.8","","-10.3","","89","","","","32","","40","","12.9","","100.27","","","","-19","","Blowing Snow"
"-94.97","74.72","RESOLUTE BAY A","2403498","2018-10-06 05:00","2018","10","06","05:00","-8.8","","-10.3","","89","","","","32","","43","","12.9","","100.21","","","","-19","","Blowing Snow"
"-94.97","74.72","RESOLUTE BAY A","2403498","2018-10-06 06:00","2018","10","06","06:00","-9.5","","-11.3","","87","","","","33","","40","","12.9","","100.21","","","","-20","","Blowing Snow"
"-94.97","74.72","RESOLUTE BAY A","2403498","2018-10-06 07:00","2018","10","06","07:00","-10.2","","-12.0","","87","","","","33","","49","","12.9","","100.11","","","","-22","","Blowing Snow"
"-94.97","74.72","RESOLUTE BAY A","2403498","2018-10-06 08:00","2018","10","06","08:00","-9.6","","-11.2","","88","","","","34","","55","","4.8","","100.08","","","","-22","","Blowing Snow"
"-94.97","74.72","RESOLUTE BAY A","2403498","2018-10-06 09:00","2018","10","06","09:00","-9.0","","-10.6","","88","","","","33","","41","","8.1","","100.01","","","","-20","","Blowing Snow"
"-94.97","74.72","RESOLUTE BAY A","2403498","2018-10-06 10:00","2018","10","06","10:00","-8.9","","-10.7","","87","","","","33","","39","","8.1","","99.98","","","","-19","","Blowing Snow"
"-94.97","74.72","RESOLUTE BAY A","2403498","2018-10-06 11:00","2018","10","06","11:00","-8.6","","-10.6","","85","","","","33","","45","","19.3","","99.91","","","","-19","","Blowing Snow"
"-94.97","74.72","RESOLUTE BAY A","2403498","2018-10-06 12:00","2018","10","06","12:00","-7.9","","-10.3","","83","","","","34","","36","","19.3","","99.95","","","","-18","","Blowing Snow"
"-94.97","74.72","RESOLUTE BAY A","2403498","2018-10-06 13:00","2018","10","06","13:00","-7.3","","-9.4","","85","","","","34","","36","","19.3","","99.91","","","","-17","","Blowing Snow"
"-94.97","74.72","RESOLUTE BAY A","2403498","2018-10-06 14:00","2018","10","06","14:00","-7.4","","-9.1","","88","","","","34","","49","","19.3","","99.82","","","","-18","","Blowing Snow"
"-94.97","74.72","RESOLUTE BAY A","2403498","2018-10-06 15:00","2018","10","06","15:00","-7.1","","-8.6","","89","","","","33","","56","","11.3","","99.79","","","","-18","","Blowing Snow"
"-94.97","74.72","RESOLUTE BAY A","2403498","2018-10-06 16:00","2018","10","06","16:00","-6.5","","-8.2","","88","","","","35","","46","","19.3","","99.80","","","","-17","","Blowing Snow"
"-94.97","74.72","RESOLUTE BAY A","2403498","2018-10-06 17:00","2018","10","06","17:00","-6.8","","-8.4","","89","","","","34","","48","","9.7","","99.71","","","","-17","","Blowing Snow"
"-94.97","74.72","RESOLUTE BAY A","2403498","2018-10-06 18:00","2018","10","06","18:00","-6.9","","-8.4","","89","","","","31","","39","","6.4","","99.75","","","","-17","","Blowing Snow"
"-94.97","74.72","RESOLUTE BAY A","2403498","2018-10-06 19:00","2018","10","06","19:00","-7.1","","-8.4","","90","","","","30","","21","","6.4","","99.68","","","","-14","","Blowing Snow"
"-94.97","74.72","RESOLUTE BAY A","2403498","2018-10-06 20:00","2018","10","06","20:00","-7.3","","-9.0","","87","","","","32","","46","","16.1","","99.52","","","","-18","","Blowing Snow"
"-94.97","74.72","RESOLUTE BAY A","2403498","2018-10-06 21:00","2018","10","06","21:00","-6.6","","-8.1","","89","","","","33","","43","","8.1","","99.40","","","","-17","","Snow,Blowing Snow"
"-94.97","74.72","RESOLUTE BAY A","2403498","2018-10-06 22:00","2018","10","06","22:00","-6.0","","-7.6","","89","","","","32","","41","","12.9","","99.37","","","","-16","","Snow,Blowing Snow"
"-94.97","74.72","RESOLUTE BAY A","2403498","2018-10-06 23:00","2018","10","06","23:00","-6.6","","-8.2","","88","","","","34","","54","","8.1","","99.26","","","","-17","","Snow,Blowing Snow"
"-94.97","74.72","RESOLUTE BAY A","2403498","2018-10-07 00:00","2018","10","07","00:00","-7.4","","-9.0","","88","","","","35","","29","","16.1","","99.33","","","","-16","","Snow,Blowing Snow"
"-94.97","74.72","RESOLUTE BAY A","2403498","2018-10-07 01:00","2018","10","07","01:00","-7.4","","-9.1","","88","","","","34","","54","","9.7","","99.27","","","","-19","","Snow,Blowing Snow"
"-94.97","74.72","RESOLUTE BAY A","2403498","2018-10-07 02:00","2018","10","07","02:00","-9.4","","-11.1","","87","","","","35","","32","","16.1","","99.37","","","","-19","","Blowing Snow"
"-94.97","74.72","RESOLUTE BAY A","2403498","2018-10-07 03:00","2018","10","07","03:00","-9.4","","-11.5","","85","","","","35","","52","","16.1","","99.41","","","","-21","","Blowing Snow"
"-94.97","74.72","RESOLUTE BAY A","2403498","2018-10-07 04:00","2018","10","07","04:00","-11.3","","-13.3","","85","","","","36","","26","","24.1","","99.55","","","","-21","","NA"
"-94.97","74.72","RESOLUTE BAY A","2403498","2018-10-07 05:00","2018","10","07","05:00","-9.8","","-11.6","","87","","","","34","","39","","24.1","","99.58","","","","-20","","NA"
"-94.97","74.72","RESOLUTE BAY A","2403498","2018-10-07 06:00","2018","10","07","06:00","-10.9","","-13.0","","85","","","","34","","36","","24.1","","99.61","","","","-21","","Blowing Snow"
"-94.97","74.72","RESOLUTE BAY A","2403498","2018-10-07 07:00","2018","10","07","07:00","-11.7","","-13.7","","86","","","","32","","33","","24.1","","99.67","","","","-22","","NA"
"-94.97","74.72","RESOLUTE BAY A","2403498","2018-10-07 08:00","2018","10","07","08:00","-11.7","","-13.5","","87","","","","32","","27","","11.3","","99.66","","","","-21","","NA"
"-94.97","74.72","RESOLUTE BAY A","2403498","2018-10-07 09:00","2018","10","07","09:00","-11.4","","-13.2","","87","","","","33","","25","","4.0","","99.68","","","","-21","","Ice Crystals,Blowing Snow"
"-94.97","74.72","RESOLUTE BAY A","2403498","2018-10-07 10:00","2018","10","07","10:00","-10.7","","-12.4","","87","","","","29","","15","","4.0","","99.68","","","","-18","","Ice Crystals"
"-94.97","74.72","RESOLUTE BAY A","2403498","2018-10-07 11:00","2018","10","07","11:00","-9.9","","-11.6","","87","","","","35","","43","","4.8","","99.67","","","","-21","","Ice Crystals,Blowing Snow"
"-94.97","74.72","RESOLUTE BAY A","2403498","2018-10-07 12:00","2018","10","07","12:00","-9.3","","-11.2","","86","","","","35","","39","","6.4","","99.67","","","","-20","","Ice Crystals,Blowing Snow"
"-94.97","74.72","RESOLUTE BAY A","2403498","2018-10-07 13:00","2018","10","07","13:00","-9.0","","-10.9","","86","","","","34","","41","","12.9","","99.64","","","","-20","","Ice Crystals"
"-94.97","74.72","RESOLUTE BAY A","2403498","2018-10-07 14:00","2018","10","07","14:00","-9.0","","-10.9","","86","","","","35","","35","","12.9","","99.66","","","","-19","","Ice Crystals,Blowing Snow"
"-94.97","74.72","RESOLUTE BAY A","2403498","2018-10-07 15:00","2018","10","07","15:00","-8.8","","-10.6","","87","","","","33","","40","","12.9","","99.69","","","","-19","","Ice Crystals,Blowing Snow"
"-94.97","74.72","RESOLUTE BAY A","2403498","2018-10-07 16:00","2018","10","07","16:00","-9.4","","-11.4","","85","","","","1","","49","","8.1","","99.64","","","","-21","","Ice Crystals,Blowing Snow"
"-94.97","74.72","RESOLUTE BAY A","2403498","2018-10-07 17:00","2018","10","07","17:00","-8.9","","-10.9","","86","","","","1","","49","","9.7","","99.64","","","","-20","","Ice Crystals,Blowing Snow"
"-94.97","74.72","RESOLUTE BAY A","2403498","2018-10-07 18:00","2018","10","07","18:00","-8.6","","-10.4","","87","","","","36","","46","","8.1","","99.66","","","","-19","","Ice Crystals,Blowing Snow"
"-94.97","74.72","RESOLUTE BAY A","2403498","2018-10-07 19:00","2018","10","07","19:00","-8.8","","-10.4","","88","","","","35","","48","","6.4","","99.64","","","","-20","","Blowing Snow"
"-94.97","74.72","RESOLUTE BAY A","2403498","2018-10-07 20:00","2018","10","07","20:00","-8.2","","-9.7","","89","","","","35","","52","","9.7","","99.69","","","","-19","","Blowing Snow"
"-94.97","74.72","RESOLUTE BAY A","2403498","2018-10-07 21:00","2018","10","07","21:00","-8.0","","-9.7","","88","","","","35","","43","","16.1","","99.74","","","","-18","","Blowing Snow"
"-94.97","74.72","RESOLUTE BAY A","2403498","2018-10-07 22:00","2018","10","07","22:00","-8.7","","-10.3","","88","","","","35","","42","","24.1","","99.75","","","","-19","","Blowing Snow"
"-94.97","74.72","RESOLUTE BAY A","2403498","2018-10-07 23:00","2018","10","07","23:00","-8.6","","-10.1","","89","","","","36","","44","","4.8","","99.74","","","","-19","","Blowing Snow"
"-94.97","74.72","RESOLUTE BAY A","2403498","2018-10-08 00:00","2018","10","08","00:00","-8.7","","-10.3","","88","","","","34","","50","","9.7","","99.83","","","","-20","","Blowing Snow"
"-94.97","74.72","RESOLUTE BAY A","2403498","2018-10-08 01:00","2018","10","08","01:00","-8.5","","-10.2","","88","","","","34","","45","","16.1","","99.88","","","","-19","","Blowing Snow"
"-94.97","74.72","RESOLUTE BAY A","2403498","2018-10-08 02:00","2018","10","08","02:00","-8.7","","-10.4","","88","","","","36","","55","","4.8","","99.85","","","","-20","","Blowing Snow"
"-94.97","74.72","RESOLUTE BAY A","2403498","2018-10-08 03:00","2018","10","08","03:00","-8.5","","-10.1","","88","","","","35","","51","","12.9","","99.93","","","","-20","","Blowing Snow"
"-94.97","74.72","RESOLUTE BAY A","2403498","2018-10-08 04:00","2018","10","08","04:00","-8.8","","-10.4","","88","","","","34","","49","","16.1","","99.99","","","","-20","","Blowing Snow"
"-94.97","74.72","RESOLUTE BAY A","2403498","2018-10-08 05:00","2018","10","08","05:00","-9.3","","-11.0","","88","","","","35","","43","","16.1","","100.02","","","","-20","","Blowing Snow"
"-94.97","74.72","RESOLUTE BAY A","2403498","2018-10-08 06:00","2018","10","08","06:00","-9.6","","-11.3","","87","","","","36","","47","","24.1","","100.07","","","","-21","","Blowing Snow"
"-94.97","74.72","RESOLUTE BAY A","2403498","2018-10-08 07:00","2018","10","08","07:00","-9.5","","-11.5","","86","","","","36","","49","","24.1","","100.14","","","","-21","","Blowing Snow"
"-94.97","74.72","RESOLUTE BAY A","2403498","2018-10-08 08:00","2018","10","08","08:00","-10.3","","-12.3","","86","","","","2","","43","","24.1","","100.17","","","","-21","","Blowing Snow"
"-94.97","74.72","RESOLUTE BAY A","2403498","2018-10-08 09:00","2018","10","08","09:00"
"-94.97","74.72","RESOLUTE BAY A","2403498","2018-10-08 10:00","2018","10","08","10:00","-10.3","","-12.6","","84","","","","2","","44","","24.1","","100.24","","","","-22","","NA"
"-94.97","74.72","RESOLUTE BAY A","2403498","2018-10-08 11:00","2018","10","08","11:00","-9.3","","-11.5","","84","","","","1","","46","","24.1","","100.27","","","","-20","","NA"
"-94.97","74.72","RESOLUTE BAY A","2403498","2018-10-08 12:00","2018","10","08","12:00","-8.9","","-11.1","","84","","","","36","","35","","24.1","","100.28","","","","-19","","Mainly Clear"
"-94.97","74.72","RESOLUTE BAY A","2403498","2018-10-08 13:00","2018","10","08","13:00","-8.3","","-10.6","","84","","","","30","","23","","24.1","","100.39","","","","-16","","NA"
"-94.97","74.72","RESOLUTE BAY A","2403498","2018-10-08 14:00","2018","10","08","14:00","-9.1","","-11.4","","84","","","","32","","23","","24.1","","100.41","","","","-17","","NA"
"-94.97","74.72","RESOLUTE BAY A","2403498","2018-10-08 15:00","2018","10","08","15:00","-9.8","","-11.8","","86","","","","31","","30","","24.1","","100.43","","","","-19","","Mostly Cloudy"
"-94.97","74.72","RESOLUTE BAY A","2403498","2018-10-08 16:00","2018","10","08","16:00","-10.1","","-11.8","","87","","","","33","","23","","24.1","","100.47","","","","-19","","NA"
"-94.97","74.72","RESOLUTE BAY A","2403498","2018-10-08 17:00","2018","10","08","17:00","-9.4","","-11.0","","88","","","","33","","23","","24.1","","100.43","","","","-18","","NA"
"-94.97","74.72","RESOLUTE BAY A","2403498","2018-10-08 18:00","2018","10","08","18:00","-8.5","","-9.8","","91","","","","32","","22","","12.9","","100.44","","","","-16","","Ice Crystals"
"-94.97","74.72","RESOLUTE BAY A","2403498","2018-10-08 19:00","2018","10","08","19:00","-8.4","","-9.6","","91","","","","33","","15","","24.1","","100.38","","","","-15","","NA"
"-94.97","74.72","RESOLUTE BAY A","2403498","2018-10-08 20:00","2018","10","08","20:00","-8.3","","-9.6","","91","","","","33","","22","","24.1","","100.30","","","","-16","","NA"
"-94.97","74.72","RESOLUTE BAY A","2403498","2018-10-08 21:00","2018","10","08","21:00","-9.0","","-10.4","","89","","","","32","","21","","24.1","","100.27","","","","-17","","Cloudy"
"-94.97","74.72","RESOLUTE BAY A","2403498","2018-10-08 22:00","2018","10","08","22:00","-9.8","","-11.6","","87","","","","33","","23","","24.1","","100.24","","","","-18","","NA"
"-94.97","74.72","RESOLUTE BAY A","2403498","2018-10-08 23:00","2018","10","08","23:00","-9.4","","-11.1","","88","","","","33","","30","","24.1","","100.19","","","","-19","","NA"
"-94.97","74.72","RESOLUTE BAY A","2403498","2018-10-09 00:00","2018","10","09","00:00","-9.7","","-11.5","","86","","","","33","","34","","24.1","","100.18","","","","-20","","Snow"
"-94.97","74.72","RESOLUTE BAY A","2403498","2018-10-09 01:00","2018","10","09","01:00","-9.9","","-11.6","","87","","","","33","","31","","24.1","","100.12","","","","-20","","Snow"
"-94.97","74.72","RESOLUTE BAY A","2403498","2018-10-09 02:00","2018","10","09","02:00","-10.0","","-12.0","","85","","","","31","","31","","24.1","","100.12","","","","-20","","Snow,Blowing Snow"
"-94.97","74.72","RESOLUTE BAY A","2403498","2018-10-09 03:00","2018","10","09","03:00","-10.1","","-12.2","","85","","","","33","","30","","24.1","","100.13","","","","-20","","Snow"
"-94.97","74.72","RESOLUTE BAY A","2403498","2018-10-09 04:00","2018","10","09","04:00","-10.5","","-12.8","","83","","","","31","","26","","24.1","","100.12","","","","-20","","Snow"
"-94.97","74.72","RESOLUTE BAY A","2403498","2018-10-09 05:00","2018","10","09","05:00","-11.1","","-13.7","","81","","","","31","","28","","24.1","","100.11","","","","-21","","Snow"
"-94.97","74.72","RESOLUTE BAY A","2403498","2018-10-09 06:00","2018","10","09","06:00","-11.4","","-13.5","","85","","","","32","","27","","14.5","","100.11","","","","-21","","Snow"
"-94.97","74.72","RESOLUTE BAY A","2403498","2018-10-09 07:00","2018","10","09","07:00","-12.1","","-14.2","","84","","","","32","","32","","9.7","","100.11","","","","-23","","Snow"
"-94.97","74.72","RESOLUTE BAY A","2403498","2018-10-09 08:00","2018","10","09","08:00","-12.3","","-14.2","","86","","","","32","","28","","24.1","","100.11","","","","-22","","Snow"
"-94.97","74.72","RESOLUTE BAY A","2403498","2018-10-09 09:00","2018","10","09","09:00","-12.4","","-14.2","","87","","","","31","","27","","24.1","","100.09","","","","-22","","Snow"
"-94.97","74.72","RESOLUTE BAY A","2403498","2018-10-09 10:00","2018","10","09","10:00","-12.2","","-14.2","","86","","","","30","","29","","16.1","","100.06","","","","-22","","Snow"
"-94.97","74.72","RESOLUTE BAY A","2403498","2018-10-09 11:00","2018","10","09","11:00","-12.6","","-14.7","","84","","","","30","","31","","24.1","","100.07","","","","-23","","Snow"
"-94.97","74.72","RESOLUTE BAY A","2403498","2018-10-09 12:00","2018","10","09","12:00","-12.4","","-14.4","","85","","","","31","","26","","24.1","","100.07","","","","-22","","Snow"
"-94.97","74.72","RESOLUTE BAY A","2403498","2018-10-09 13:00","2018","10","09","13:00","-13.4","","-15.4","","85","","","","33","","20","","24.1","","100.07","","","","-22","","Snow"
"-94.97","74.72","RESOLUTE BAY A","2403498","2018-10-09 14:00","2018","10","09","14:00","-12.4","","-14.5","","84","","","","33","","26","","24.1","","100.06","","","","-22","","Snow"
"-94.97","74.72","RESOLUTE BAY A","2403498","2018-10-09 15:00","2018","10","09","15:00","-12.2","","-14.1","","86","","","","33","","26","","24.1","","100.03","","","","-22","","Mostly Cloudy"
"-94.97","74.72","RESOLUTE BAY A","2403498","2018-10-09 16:00","2018","10","09","16:00","-11.2","","-12.8","","88","","","","32","","21","","9.7","","100.04","","","","-20","","Snow"
"-94.97","74.72","RESOLUTE BAY A","2403498","2018-10-09 17:00","2018","10","09","17:00","-10.5","","-11.6","","92","","","","34","","16","","9.7","","100.01","","","","-18","","Snow"
"-94.97","74.72","RESOLUTE BAY A","2403498","2018-10-09 18:00","2018","10","09","18:00","-10.0","","-10.9","","93","","","","31","","8","","9.7","","99.99","","","","-14","","Snow"
"-94.97","74.72","RESOLUTE BAY A","2403498","2018-10-09 19:00","2018","10","09","19:00","-9.4","","-11.0","","88","","","","32","","25","","9.7","","99.96","","","","-18","","Snow,Blowing Snow"
"-94.97","74.72","RESOLUTE BAY A","2403498","2018-10-09 20:00","2018","10","09","20:00","-9.0","","-10.1","","92","","","","31","","18","","24.1","","99.93","","","","-16","","Snow"
"-94.97","74.72","RESOLUTE BAY A","2403498","2018-10-09 21:00","2018","10","09","21:00","-8.6","","-10.6","","86","","","","31","","22","","24.1","","99.90","","","","-16","","Snow"
"-94.97","74.72","RESOLUTE BAY A","2403498","2018-10-09 22:00","2018","10","09","22:00","-8.2","","-9.5","","90","","","","31","","23","","24.1","","99.86","","","","-16","","Snow"
"-94.97","74.72","RESOLUTE BAY A","2403498","2018-10-09 23:00","2018","10","09","23:00","-7.4","","-8.8","","90","","","","30","","36","","12.9","","99.86","","","","-17","","Snow,Blowing Snow"
"-94.97","74.72","RESOLUTE BAY A","2403498","2018-10-10 00:00","2018","10","10","00:00","-8.1","","-9.8","","87","","","","31","","25","","16.1","","99.87","","","","-16","","Snow,Blowing Snow"
"-94.97","74.72","RESOLUTE BAY A","2403498","2018-10-10 01:00","2018","10","10","01:00","-7.8","","-9.7","","86","","","","32","","28","","16.1","","99.88","","","","-16","","Snow"
"-94.97","74.72","RESOLUTE BAY A","2403498","2018-10-10 02:00","2018","10","10","02:00","-7.9","","-9.0","","92","","","","32","","28","","16.1","","99.89","","","","-17","","Snow"
"-94.97","74.72","RESOLUTE BAY A","2403498","2018-10-10 03:00","2018","10","10","03:00","-8.4","","-9.7","","90","","","","31","","28","","24.1","","99.93","","","","-17","","Snow"
"-94.97","74.72","RESOLUTE BAY A","2403498","2018-10-10 04:00","2018","10","10","04:00","-9.8","","-12.0","","84","","","","32","","40","","12.9","","99.93","","","","-20","","Snow,Blowing Snow"
"-94.97","74.72","RESOLUTE BAY A","2403498","2018-10-10 05:00","2018","10","10","05:00","-11.9","","-14.1","","84","","","","34","","44","","16.1","","99.98","","","","-24","","Snow,Blowing Snow"
"-94.97","74.72","RESOLUTE BAY A","2403498","2018-10-10 06:00","2018","10","10","06:00","-13.1","","-15.3","","84","","","","33","","33","","24.1","","100.06","","","","-24","","Snow"
"-94.97","74.72","RESOLUTE BAY A","2403498","2018-10-10 07:00","2018","10","10","07:00","-13.4","","-15.6","","84","","","","34","","26","","24.1","","100.07","","","","-23","","Snow"
"-94.97","74.72","RESOLUTE BAY A","2403498","2018-10-10 08:00","2018","10","10","08:00","-12.6","","-14.3","","87","","","","30","","21","","24.1","","100.09","","","","-21","","Snow"
"-94.97","74.72","RESOLUTE BAY A","2403498","2018-10-10 09:00","2018","10","10","09:00","-12.1","","-13.5","","89","","","","32","","19","","24.1","","100.11","","","","-20","","Snow"
"-94.97","74.72","RESOLUTE BAY A","2403498","2018-10-10 10:00","2018","10","10","10:00","-11.3","","-12.7","","90","","","","33","","11","","24.1","","100.10","","","","-17","","NA"
"-94.97","74.72","RESOLUTE BAY A","2403498","2018-10-10 11:00","2018","10","10","11:00","-9.7","","-11.1","","89","","","","32","","7","","24.1","","100.10","","","","-14","","NA"
"-94.97","74.72","RESOLUTE BAY A","2403498","2018-10-10 12:00","2018","10","10","12:00","-7.4","","-8.2","","94","","","","27","","26","","12.9","","100.06","","","","-16","","Cloudy"
"-94.97","74.72","RESOLUTE BAY A","2403498","2018-10-10 13:00","2018","10","10","13:00","-6.8","","-7.7","","93","","","","27","","40","","0.4","","100.04","","","","-16","","Blowing Snow"
"-94.97","74.72","RESOLUTE BAY A","2403498","2018-10-10 14:00","2018","10","10","14:00","-7.2","","-8.1","","93","","","","26","","35","","0.8","","100.00","","","","-16","","Blowing Snow"
"-94.97","74.72","RESOLUTE BAY A","2403498","2018-10-10 15:00","2018","10","10","15:00","-6.5","","-7.5","","93","","","","26","","35","","0.8","","99.98","","","","-16","","Blowing Snow"
"-94.97","74.72","RESOLUTE BAY A","2403498","2018-10-10 16:00","2018","10","10","16:00","-6.5","","-7.6","","92","","","","26","","39","","0.8","","99.93","","","","-16","","Blowing Snow"
"-94.97","74.72","RESOLUTE BAY A","2403498","2018-10-10 17:00","2018","10","10","17:00","-6.1","","-7.3","","91","","","","26","","41","","0.8","","99.88","","","","-16","","Blowing Snow"
"-94.97","74.72","RESOLUTE BAY A","2403498","2018-10-10 18:00","2018","10","10","18:00","-6.3","","-7.3","","92","","","","25","","37","","0.8","","99.82","","","","-16","","Blowing Snow"
"-94.97","74.72","RESOLUTE BAY A","2403498","2018-10-10 19:00","2018","10","10","19:00","-6.4","","-7.3","","93","","","","25","","39","","0.8","","99.72","","","","-16","","Blowing Snow"
"-94.97","74.72","RESOLUTE BAY A","2403498","2018-10-10 20:00","2018","10","10","20:00","-6.6","","-7.6","","93","","","","24","","40","","0.6","","99.63","","","","-16","","Snow,Blowing Snow"
"-94.97","74.72","RESOLUTE BAY A","2403498","2018-10-10 21:00","2018","10","10","21:00","-7.0","","-8.1","","92","","","","24","","39","","0.8","","99.55","","","","-17","","Snow,Blowing Snow"
"-94.97","74.72","RESOLUTE BAY A","2403498","2018-10-10 22:00","2018","10","10","22:00","-6.9","","-7.9","","93","","","","24","","40","","0.8","","99.45","","","","-17","","Snow,Blowing Snow"
"-94.97","74.72","RESOLUTE BAY A","2403498","2018-10-10 23:00","2018","10","10","23:00","-6.8","","-7.8","","92","","","","25","","42","","0.8","","99.36","","","","-17","","Snow,Blowing Snow"
"-94.97","74.72","RESOLUTE BAY A","2403498","2018-10-11 00:00","2018","10","11","00:00","-7.1","","-8.2","","92","","","","25","","43","","0.8","","99.30","","","","-17","","Snow,Blowing Snow"
"-94.97","74.72","RESOLUTE BAY A","2403498","2018-10-11 01:00","2018","10","11","01:00","-7.0","","-8.1","","92","","","","25","","42","","0.8","","99.22","","","","-17","","Snow,Blowing Snow"
"-94.97","74.72","RESOLUTE BAY A","2403498","2018-10-11 02:00","2018","10","11","02:00","-6.2","","-7.2","","93","","","","25","","40","","0.8","","99.17","","","","-16","","Snow,Blowing Snow"
"-94.97","74.72","RESOLUTE BAY A","2403498","2018-10-11 03:00","2018","10","11","03:00","-5.7","","-6.5","","93","","","","25","","45","","1.0","","99.11","","","","-15","","Snow,Blowing Snow"
"-94.97","74.72","RESOLUTE BAY A","2403498","2018-10-11 04:00","2018","10","11","04:00","-4.6","","-5.3","","95","","","","26","","30","","0.8","","99.10","","","","-12","","Snow,Blowing Snow"
"-94.97","74.72","RESOLUTE BAY A","2403498","2018-10-11 05:00","2018","10","11","05:00","-4.1","","-5.3","","91","","","","29","","26","","4.8","","99.08","","","","-11","","Snow,Blowing Snow"
"-94.97","74.72","RESOLUTE BAY A","2403498","2018-10-11 06:00","2018","10","11","06:00","-4.1","","-5.2","","92","","","","32","","36","","4.8","","99.12","","","","-12","","Snow,Blowing Snow"
"-94.97","74.72","RESOLUTE BAY A","2403498","2018-10-11 07:00","2018","10","11","07:00","-4.4","","-5.5","","92","","","","30","","25","","12.9","","99.13","","","","-12","","Snow,Blowing Snow"
"-94.97","74.72","RESOLUTE BAY A","2403498","2018-10-11 08:00","2018","10","11","08:00","-5.2","","-6.5","","91","","","","31","","31","","12.9","","99.17","","","","-13","","NA"
"-94.97","74.72","RESOLUTE BAY A","2403498","2018-10-11 09:00","2018","10","11","09:00","-6.0","","-7.3","","91","","","","32","","30","","12.9","","99.20","","","","-14","","Cloudy"
"-94.97","74.72","RESOLUTE BAY A","2403498","2018-10-11 10:00","2018","10","11","10:00","-5.7","","-6.9","","91","","","","31","","21","","12.9","","99.23","","","","-13","","NA"
"-94.97","74.72","RESOLUTE BAY A","2403498","2018-10-11 11:00","2018","10","11","11:00","-5.4","","-6.8","","89","","","","32","","27","","19.3","","99.24","","","","-13","","NA"
"-94.97","74.72","RESOLUTE BAY A","2403498","2018-10-11 12:00","2018","10","11","12:00","-5.6","","-7.0","","90","","","","31","","26","","19.3","","99.26","","","","-13","","Snow"
"-94.97","74.72","RESOLUTE BAY A","2403498","2018-10-11 13:00","2018","10","11","13:00","-6.3","","-7.5","","91","","","","32","","26","","12.9","","99.30","","","","-14","","Snow"
"-94.97","74.72","RESOLUTE BAY A","2403498","2018-10-11 14:00","2018","10","11","14:00","-6.7","","-7.9","","92","","","","31","","23","","12.9","","99.32","","","","-14","","NA"
"-94.97","74.72","RESOLUTE BAY A","2403498","2018-10-11 15:00","2018","10","11","15:00","-7.0","","-8.6","","89","","","","32","","27","","16.1","","99.36","","","","-15","","Cloudy"
"-94.97","74.72","RESOLUTE BAY A","2403498","2018-10-11 16:00","2018","10","11","16:00","-8.2","","-9.7","","89","","","","33","","31","","16.1","","99.37","","","","-17","","NA"
"-94.97","74.72","RESOLUTE BAY A","2403498","2018-10-11 17:00","2018","10","11","17:00","-8.9","","-10.2","","90","","","","33","","18","","12.9","","99.40","","","","-16","","NA"
"-94.97","74.72","RESOLUTE BAY A","2403498","2018-10-11 18:00","2018","10","11","18:00","-8.9","","-10.3","","90","","","","31","","27","","12.9","","99.44","","","","-18","","Cloudy"
"-94.97","74.72","RESOLUTE BAY A","2403498","2018-10-11 19:00","2018","10","11","19:00","-9.5","","-11.2","","88","","","","35","","25","","12.9","","99.45","","","","-18","","NA"
"-94.97","74.72","RESOLUTE BAY A","2403498","2018-10-11 20:00","2018","10","11","20:00","-9.7","","-11.2","","89","","","","34","","30","","16.1","","99.44","","","","-19","","NA"
"-94.97","74.72","RESOLUTE BAY A","2403498","2018-10-11 21:00","2018","10","11","21:00","-9.4","","-11.0","","88","","","","33","","27","","24.1","","99.47","","","","-18","","Snow"
"-94.97","74.72","RESOLUTE BAY A","2403498","2018-10-11 22:00","2018","10","11","22:00","-9.1","","-10.5","","89","","","","32","","29","","24.1","","99.48","","","","-18","","Snow"
"-94.97","74.72","RESOLUTE BAY A","2403498","2018-10-11 23:00","2018","10","11","23:00","-8.8","","-10.2","","90","","","","33","","30","","24.1","","99.47","","","","-18","","Snow"
"-94.97","74.72","RESOLUTE BAY A","2403498","2018-10-12 00:00","2018","10","12","00:00","-9.3","","-10.7","","89","","","","33","","29","","24.1","","99.48","","","","-18","","Snow"
"-94.97","74.72","RESOLUTE BAY A","2403498","2018-10-12 01:00","2018","10","12","01:00","-9.4","","-11.1","","87","","","","36","","26","","24.1","","99.49","","","","-18","","Snow"
"-94.97","74.72","RESOLUTE BAY A","2403498","2018-10-12 02:00","2018","10","12","02:00","-9.1","","-10.8","","87","","","","35","","28","","24.1","","99.52","","","","-18","","Snow"
"-94.97","74.72","RESOLUTE BAY A","2403498","2018-10-12 03:00","2018","10","12","03:00","-8.9","","-10.4","","89","","","","35","","22","","24.1","","99.53","","","","-17","","Snow"
"-94.97","74.72","RESOLUTE BAY A","2403498","2018-10-12 04:00","2018","10","12","04:00","-8.7","","-10.3","","88","","","","33","","14","","24.1","","99.54","","","","-15","","Snow"
"-94.97","74.72","RESOLUTE BAY A","2403498","2018-10-12 05:00","2018","10","12","05:00","-8.6","","-10.1","","89","","","","32","","8","","24.1","","99.54","","","","-13","","Snow"
"-94.97","74.72","RESOLUTE BAY A","2403498","2018-10-12 06:00","2018","10","12","06:00","-9.0","","-10.4","","89","","","","32","","13","","19.3","","99.54","","","","-15","","Snow"
"-94.97","74.72","RESOLUTE BAY A","2403498","2018-10-12 07:00","2018","10","12","07:00","-8.8","","-10.3","","89","","","","35","","25","","24.1","","99.52","","","","-17","","Snow"
"-94.97","74.72","RESOLUTE BAY A","2403498","2018-10-12 08:00","2018","10","12","08:00","-8.9","","-10.5","","88","","","","35","","23","","14.5","","99.52","","","","-17","","Snow"
"-94.97","74.72","RESOLUTE BAY A","2403498","2018-10-12 09:00","2018","10","12","09:00","-9.2","","-10.7","","89","","","","35","","21","","14.5","","99.51","","","","-17","","Snow"
"-94.97","74.72","RESOLUTE BAY A","2403498","2018-10-12 10:00","2018","10","12","10:00","-9.3","","-10.8","","89","","","","32","","11","","16.1","","99.53","","","","-15","","Snow"
"-94.97","74.72","RESOLUTE BAY A","2403498","2018-10-12 11:00","2018","10","12","11:00","-9.2","","-10.6","","90","","","","32","","17","","12.9","","99.54","","","","-16","","Snow"
"-94.97","74.72","RESOLUTE BAY A","2403498","2018-10-12 12:00","2018","10","12","12:00","-8.8","","-10.2","","90","","","","32","","13","","12.9","","99.54","","","","-15","","Snow"
"-94.97","74.72","RESOLUTE BAY A","2403498","2018-10-12 13:00","2018","10","12","13:00","-8.6","","-9.9","","90","","","","32","","27","","16.1","","99.54","","","","-17","","Snow"
"-94.97","74.72","RESOLUTE BAY A","2403498","2018-10-12 14:00","2018","10","12","14:00","-8.8","","-10.3","","89","","","","31","","21","","12.9","","99.55","","","","-17","","Snow"
"-94.97","74.72","RESOLUTE BAY A","2403498","2018-10-12 15:00","2018","10","12","15:00","-9.2","","-10.5","","90","","","","30","","16","","14.5","","99.55","","","","-16","","Snow"
"-94.97","74.72","RESOLUTE BAY A","2403498","2018-10-12 16:00","2018","10","12","16:00","-9.1","","-10.6","","89","","","","32","","26","","14.5","","99.55","","","","-18","","Snow"
"-94.97","74.72","RESOLUTE BAY A","2403498","2018-10-12 17:00","2018","10","12","17:00","-9.0","","-10.4","","90","","","","32","","26","","6.4","","99.56","","","","-18","","Snow"
"-94.97","74.72","RESOLUTE BAY A","2403498","2018-10-12 18:00","2018","10","12","18:00","-9.5","","-11.1","","89","","","","34","","30","","12.9","","99.56","","","","-19","","Snow,Blowing Snow"
"-94.97","74.72","RESOLUTE BAY A","2403498","2018-10-12 19:00","2018","10","12","19:00","-11.1","","-12.8","","87","","","","32","","27","","16.1","","99.58","","","","-21","","Snow,Blowing Snow"
"-94.97","74.72","RESOLUTE BAY A","2403498","2018-10-12 20:00","2018","10","12","20:00","-10.1","","-11.5","","89","","","","33","","32","","24.1","","99.59","","","","-20","","NA"
"-94.97","74.72","RESOLUTE BAY A","2403498","2018-10-12 21:00","2018","10","12","21:00","-9.8","","-11.9","","85","","","","33","","30","","24.1","","99.59","","","","-19","","Snow"
"-94.97","74.72","RESOLUTE BAY A","2403498","2018-10-12 22:00","2018","10","12","22:00","-11.1","","-13.0","","86","","","","33","","28","","24.1","","99.59","","","","-21","","Snow"
"-94.97","74.72","RESOLUTE BAY A","2403498","2018-10-12 23:00","2018","10","12","23:00","-11.2","","-12.9","","87","","","","33","","33","","16.1","","99.62","","","","-22","","Snow"
"-94.97","74.72","RESOLUTE BAY A","2403498","2018-10-13 00:00","2018","10","13","00:00","-12.2","","-14.1","","86","","","","31","","26","","24.1","","99.62","","","","-22","","Snow"
"-94.97","74.72","RESOLUTE BAY A","2403498","2018-10-13 01:00","2018","10","13","01:00","-11.7","","-13.7","","85","","","","33","","39","","24.1","","99.63","","","","-23","","Snow"
"-94.97","74.72","RESOLUTE BAY A","2403498","2018-10-13 02:00","2018","10","13","02:00","-12.6","","-14.6","","85","","","","33","","30","","24.1","","99.64","","","","-23","","Snow"
"-94.97","74.72","RESOLUTE BAY A","2403498","2018-10-13 03:00","2018","10","13","03:00","-12.5","","-14.7","","84","","","","34","","29","","24.1","","99.65","","","","-23","","Snow"
"-94.97","74.72","RESOLUTE BAY A","2403498","2018-10-13 04:00","2018","10","13","04:00","-12.7","","-14.7","","85","","","","32","","31","","24.1","","99.67","","","","-23","","Snow"
"-94.97","74.72","RESOLUTE BAY A","2403498","2018-10-13 05:00","2018","10","13","05:00","-13.0","","-15.0","","85","","","","33","","25","","24.1","","99.69","","","","-23","","Snow"
"-94.97","74.72","RESOLUTE BAY A","2403498","2018-10-13 06:00","2018","10","13","06:00","-13.6","","-15.2","","88","","","","33","","21","","16.1","","99.66","","","","-23","","Snow"
"-94.97","74.72","RESOLUTE BAY A","2403498","2018-10-13 07:00","2018","10","13","07:00","-13.3","","-14.9","","88","","","","35","","22","","24.1","","99.68","","","","-22","","Snow"
"-94.97","74.72","RESOLUTE BAY A","2403498","2018-10-13 08:00","2018","10","13","08:00","-14.4","","-16.3","","86","","","","34","","18","","24.1","","99.68","","","","-23","","Snow"
"-94.97","74.72","RESOLUTE BAY A","2403498","2018-10-13 09:00","2018","10","13","09:00","-15.3","","-17.3","","85","","","","35","","17","","24.1","","99.68","","","","-24","","Snow"
"-94.97","74.72","RESOLUTE BAY A","2403498","2018-10-13 10:00","2018","10","13","10:00","-14.8","","-16.6","","87","","","","34","","21","","14.5","","99.70","","","","-24","","Snow"
"-94.97","74.72","RESOLUTE BAY A","2403498","2018-10-13 11:00","2018","10","13","11:00","-13.8","","-15.5","","87","","","","36","","17","","24.1","","99.71","","","","-22","","Snow"
"-94.97","74.72","RESOLUTE BAY A","2403498","2018-10-13 12:00","2018","10","13","12:00","-13.7","","-15.7","","86","","","","33","","14","","24.1","","99.71","","","","-21","","Snow"
"-94.97","74.72","RESOLUTE BAY A","2403498","2018-10-13 13:00","2018","10","13","13:00","-13.2","","-15.1","","86","","","","33","","15","","24.1","","99.73","","","","-21","","Snow"
"-94.97","74.72","RESOLUTE BAY A","2403498","2018-10-13 14:00","2018","10","13","14:00","-13.3","","-15.5","","84","","","","34","","22","","24.1","","99.72","","","","-22","","Snow"
"-94.97","74.72","RESOLUTE BAY A","2403498","2018-10-13 15:00","2018","10","13","15:00","-13.8","","-16.3","","82","","","","33","","26","","24.1","","99.75","","","","-24","","Snow"
"-94.97","74.72","RESOLUTE BAY A","2403498","2018-10-13 16:00","2018","10","13","16:00","-13.6","","-15.7","","84","","","","33","","19","","24.1","","99.77","","","","-22","","Snow"
"-94.97","74.72","RESOLUTE BAY A","2403498","2018-10-13 17:00","2018","10","13","17:00","-14.2","","-16.2","","85","","","","33","","20","","24.1","","99.77","","","","-23","","Snow"
"-94.97","74.72","RESOLUTE BAY A","2403498","2018-10-13 18:00","2018","10","13","18:00","-15.5","","-17.6","","84","","","","32","","27","","24.1","","99.78","","","","-26","","Snow"
"-94.97","74.72","RESOLUTE BAY A","2403498","2018-10-13 19:00","2018","10","13","19:00","-16.0","","-18.1","","84","","","","32","","24","","24.1","","99.78","","","","-26","","Snow"
"-94.97","74.72","RESOLUTE BAY A","2403498","2018-10-13 20:00","2018","10","13","20:00","-16.0","","-18.2","","83","","","","35","","31","","24.1","","99.75","","","","-28","","Snow"
"-94.97","74.72","RESOLUTE BAY A","2403498","2018-10-13 21:00","2018","10","13","21:00","-14.9","","-16.9","","85","","","","30","","15","","24.1","","99.74","","","","-23","","Snow"
"-94.97","74.72","RESOLUTE BAY A","2403498","2018-10-13 22:00","2018","10","13","22:00","-13.6","","-15.5","","86","","","","32","","19","","24.1","","99.70","","","","-22","","Snow"
"-94.97","74.72","RESOLUTE BAY A","2403498","2018-10-13 23:00","2018","10","13","23:00","-11.9","","-13.8","","86","","","","32","","26","","16.1","","99.69","","","","-21","","Snow"
"-94.97","74.72","RESOLUTE BAY A","2403498","2018-10-14 00:00","2018","10","14","00:00","-13.3","","-15.2","","86","","","","33","","25","","24.1","","99.67","","","","-23","","Snow"
"-94.97","74.72","RESOLUTE BAY A","2403498","2018-10-14 01:00","2018","10","14","01:00","-13.3","","-15.2","","86","","","","31","","19","","24.1","","99.69","","","","-22","","Snow"
"-94.97","74.72","RESOLUTE BAY A","2403498","2018-10-14 02:00","2018","10","14","02:00","-12.9","","-14.6","","87","","","","31","","16","","24.1","","99.68","","","","-21","","Snow"
"-94.97","74.72","RESOLUTE BAY A","2403498","2018-10-14 03:00","2018","10","14","03:00","-11.5","","-13.1","","88","","","","32","","16","","16.1","","99.66","","","","-19","","Snow"
"-94.97","74.72","RESOLUTE BAY A","2403498","2018-10-14 04:00","2018","10","14","04:00","-10.0","","-11.4","","90","","","","30","","25","","4.0","","99.63","","","","-19","","Snow"
"-94.97","74.72","RESOLUTE BAY A","2403498","2018-10-14 05:00","2018","10","14","05:00","-10.1","","-11.5","","89","","","","31","","23","","4.0","","99.61","","","","-19","","Snow"
"-94.97","74.72","RESOLUTE BAY A","2403498","2018-10-14 06:00","2018","10","14","06:00","-9.8","","-11.1","","90","","","","31","","28","","16.1","","99.60","","","","-19","","Snow"
"-94.97","74.72","RESOLUTE BAY A","2403498","2018-10-14 07:00","2018","10","14","07:00","-10.0","","-11.6","","89","","","","31","","22","","24.1","","99.57","","","","-18","","Snow"
"-94.97","74.72","RESOLUTE BAY A","2403498","2018-10-14 08:00","2018","10","14","08:00","-9.9","","-11.3","","90","","","","31","","28","","4.8","","99.54","","","","-19","","Snow"
"-94.97","74.72","RESOLUTE BAY A","2403498","2018-10-14 09:00","2018","10","14","09:00","-10.2","","-11.6","","90","","","","31","","21","","12.9","","99.52","","","","-18","","Snow"
"-94.97","74.72","RESOLUTE BAY A","2403498","2018-10-14 10:00","2018","10","14","10:00","-10.2","","-11.6","","90","","","","32","","21","","12.9","","99.49","","","","-18","","Snow"
"-94.97","74.72","RESOLUTE BAY A","2403498","2018-10-14 11:00","2018","10","14","11:00","-10.2","","-11.7","","89","","","","33","","22","","4.8","","99.49","","","","-18","","Snow"
"-94.97","74.72","RESOLUTE BAY A","2403498","2018-10-14 12:00","2018","10","14","12:00","-10.3","","-12.0","","87","","","","32","","22","","12.9","","99.48","","","","-19","","Snow"
"-94.97","74.72","RESOLUTE BAY A","2403498","2018-10-14 13:00","2018","10","14","13:00","-11.2","","-13.0","","87","","","","33","","18","","14.5","","99.49","","","","-19","","Snow"
"-94.97","74.72","RESOLUTE BAY A","2403498","2018-10-14 14:00","2018","10","14","14:00","-11.5","","-13.4","","86","","","","35","","25","","16.1","","99.50","","","","-21","","Snow"
"-94.97","74.72","RESOLUTE BAY A","2403498","2018-10-14 15:00","2018","10","14","15:00","-13.1","","-15.0","","86","","","","35","","23","","16.1","","99.52","","","","-22","","Snow"
"-94.97","74.72","RESOLUTE BAY A","2403498","2018-10-14 16:00","2018","10","14","16:00","-12.6","","-14.8","","84","","","","36","","25","","11.3","","99.55","","","","-22","","Snow"
"-94.97","74.72","RESOLUTE BAY A","2403498","2018-10-14 17:00","2018","10","14","17:00","-13.4","","-15.4","","85","","","","35","","20","","12.9","","99.59","","","","-22","","Snow"
"-94.97","74.72","RESOLUTE BAY A","2403498","2018-10-14 18:00","2018","10","14","18:00","-16.1","","-18.7","","81","","","","2","","28","","16.1","","99.58","","","","-27","","Snow"
"-94.97","74.72","RESOLUTE BAY A","2403498","2018-10-14 19:00","2018","10","14","19:00","-16.7","","-19.4","","80","","","","2","","36","","24.1","","99.59","","","","-29","","Ice Crystals,Blowing Snow"
"-94.97","74.72","RESOLUTE BAY A","2403498","2018-10-14 20:00","2018","10","14","20:00","-17.2","","-19.8","","80","","","","3","","34","","24.1","","99.59","","","","-30","","Ice Crystals,Blowing Snow"
"-94.97","74.72","RESOLUTE BAY A","2403498","2018-10-14 21:00","2018","10","14","21:00","-18.1","","-20.7","","80","","","","1","","19","","24.1","","99.61","","","","-28","","Ice Crystals"
"-94.97","74.72","RESOLUTE BAY A","2403498","2018-10-14 22:00","2018","10","14","22:00","-19.1","","-21.4","","83","","","","1","","18","","24.1","","99.62","","","","-29","","Ice Crystals"
"-94.97","74.72","RESOLUTE BAY A","2403498","2018-10-14 23:00","2018","10","14","23:00","-17.5","","-19.8","","83","","","","2","","28","","24.1","","99.60","","","","-29","","Ice Crystals"
"-94.97","74.72","RESOLUTE BAY A","2403498","2018-10-15 00:00","2018","10","15","00:00","-18.5","","-20.7","","83","","","","3","","30","","24.1","","99.60","","","","-31","","Ice Crystals"
"-94.97","74.72","RESOLUTE BAY A","2403498","2018-10-15 01:00","2018","10","15","01:00","-19.0","","-21.2","","83","","","","3","","31","","24.1","","99.60","","","","-31","","Ice Crystals,Blowing Snow"
"-94.97","74.72","RESOLUTE BAY A","2403498","2018-10-15 02:00","2018","10","15","02:00","-17.4","","-19.6","","83","","","","3","","31","","24.1","","99.60","","","","-29","","Ice Crystals"
"-94.97","74.72","RESOLUTE BAY A","2403498","2018-10-15 03:00","2018","10","15","03:00","-15.8","","-17.8","","85","","","","2","","23","","24.1","","99.62","","","","-26","","Ice Crystals"
"-94.97","74.72","RESOLUTE BAY A","2403498","2018-10-15 04:00","2018","10","15","04:00","-14.8","","-17.1","","83","","","","35","","17","","24.1","","99.64","","","","-23","","Ice Crystals"
"-94.97","74.72","RESOLUTE BAY A","2403498","2018-10-15 05:00","2018","10","15","05:00","-14.3","","-16.7","","82","","","","1","","29","","24.1","","99.63","","","","-25","","Ice Crystals"
"-94.97","74.72","RESOLUTE BAY A","2403498","2018-10-15 06:00","2018","10","15","06:00"
"-94.97","74.72","RESOLUTE BAY A","2403498","2018-10-15 07:00","2018","10","15","07:00","-13.8","","-16.2","","82","","","","1","","25","","24.1","","99.65","","","","-24","","Ice Crystals"
"-94.97","74.72","RESOLUTE BAY A","2403498","2018-10-15 08:00","2018","10","15","08:00","-13.9","","-16.4","","82","","","","2","","27","","24.1","","99.65","","","","-24","","Snow"
"-94.97","74.72","RESOLUTE BAY A","2403498","2018-10-15 09:00","2018","10","15","09:00","-15.2","","-17.7","","81","","","","3","","29","","24.1","","99.64","","","","-26","","Snow,Blowing Snow"
"-94.97","74.72","RESOLUTE BAY A","2403498","2018-10-15 10:00","2018","10","15","10:00","-14.5","","-17.1","","81","","","","3","","27","","24.1","","99.65","","","","-25","","Snow"
"-94.97","74.72","RESOLUTE BAY A","2403498","2018-10-15 11:00","2018","10","15","11:00","-15.1","","-17.7","","81","","","","5","","5","","24.1","","99.68","","","","-19","","NA"
"-94.97","74.72","RESOLUTE BAY A","2403498","2018-10-15 12:00","2018","10","15","12:00","-13.4","","-16.1","","81","","","","1","","18","","24.1","","99.69","","","","-22","","Cloudy"
"-94.97","74.72","RESOLUTE BAY A","2403498","2018-10-15 13:00","2018","10","15","13:00","-12.8","","-15.7","","80","","","","3","","26","","24.1","","99.71","","","","-23","","NA"
"-94.97","74.72","RESOLUTE BAY A","2403498","2018-10-15 14:00","2018","10","15","14:00","-13.4","","-16.2","","80","","","","3","","20","","24.1","","99.73","","","","-22","","NA"
"-94.97","74.72","RESOLUTE BAY A","2403498","2018-10-15 15:00","2018","10","15","15:00","-12.4","","-16.3","","73","","","","2","","13","","24.1","","99.74","","","","-19","","Cloudy"
"-94.97","74.72","RESOLUTE BAY A","2403498","2018-10-15 16:00","2018","10","15","16:00","-12.5","","-16.0","","76","","","","34","","12","","24.1","","99.73","","","","-19","","NA"
"-94.97","74.72","RESOLUTE BAY A","2403498","2018-10-15 17:00","2018","10","15","17:00","-13.1","","-16.0","","79","","","","2","","17","","24.1","","99.74","","","","-21","","NA"
"-94.97","74.72","RESOLUTE BAY A","2403498","2018-10-15 18:00","2018","10","15","18:00","-13.1","","-15.2","","84","","","","36","","19","","24.1","","99.76","","","","-22","","Cloudy"
"-94.97","74.72","RESOLUTE BAY A","2403498","2018-10-15 19:00","2018","10","15","19:00","-13.1","","-15.2","","84","","","","2","","19","","24.1","","99.76","","","","-22","","Snow"
"-94.97","74.72","RESOLUTE BAY A","2403498","2018-10-15 20:00","2018","10","15","20:00","-13.6","","-15.7","","84","","","","2","","16","","16.1","","99.70","","","","-21","","Snow"
"-94.97","74.72","RESOLUTE BAY A","2403498","2018-10-15 21:00","2018","10","15","21:00","-14.1","","-15.7","","88","","","","31","","15","","16.1","","99.67","","","","-22","","Snow"
"-94.97","74.72","RESOLUTE BAY A","2403498","2018-10-15 22:00","2018","10","15","22:00","-15.1","","-17.0","","85","","","","36","","25","","16.1","","99.67","","","","-25","","Snow"
"-94.97","74.72","RESOLUTE BAY A","2403498","2018-10-15 23:00","2018","10","15","23:00","-15.8","","-17.8","","85","","","","1","","26","","24.1","","99.66","","","","-26","","Snow"
"-94.97","74.72","RESOLUTE BAY A","2403498","2018-10-16 00:00","2018","10","16","00:00","-15.9","","-17.6","","87","","","","1","","23","","24.1","","99.63","","","","-26","","Snow"
"-94.97","74.72","RESOLUTE BAY A","2403498","2018-10-16 01:00","2018","10","16","01:00"
"-94.97","74.72","RESOLUTE BAY A","2403498","2018-10-16 02:00","2018","10","16","02:00"
"-94.97","74.72","RESOLUTE BAY A","2403498","2018-10-16 03:00","2018","10","16","03:00","-14.5","","-17.1","","81","","","","36","","19","","24.1","","99.63","","","","-23","","Snow"
"-94.97","74.72","RESOLUTE BAY A","2403498","2018-10-16 04:00","2018","10","16","04:00","-14.2","","-16.4","","84","","","","35","","18","","24.1","","99.61","","","","-23","","Snow"
"-94.97","74.72","RESOLUTE BAY A","2403498","2018-10-16 05:00","2018","10","16","05:00","-14.6","","-17.1","","82","","","","34","","18","","24.1","","99.63","","","","-23","","Snow"
"-94.97","74.72","RESOLUTE BAY A","2403498","2018-10-16 06:00","2018","10","16","06:00","-14.7","","-16.9","","83","","","","34","","18","","24.1","","99.62","","","","-23","","Snow"
"-94.97","74.72","RESOLUTE BAY A","2403498","2018-10-16 07:00","2018","10","16","07:00","-14.8","","-17.1","","83","","","","33","","11","","24.1","","99.59","","","","-21","","Snow"
"-94.97","74.72","RESOLUTE BAY A","2403498","2018-10-16 08:00","2018","10","16","08:00","-14.8","","-17.1","","83","","","","34","","13","","11.3","","99.59","","","","-22","","Snow"
"-94.97","74.72","RESOLUTE BAY A","2403498","2018-10-16 09:00","2018","10","16","09:00","-14.9","","-16.9","","85","","","","30","","8","","8.1","","99.57","","","","-20","","Snow"
"-94.97","74.72","RESOLUTE BAY A","2403498","2018-10-16 10:00","2018","10","16","10:00","-14.5","","-16.8","","83","","","","34","","11","","8.1","","99.58","","","","-21","","Snow"
"-94.97","74.72","RESOLUTE BAY A","2403498","2018-10-16 11:00","2018","10","16","11:00","-14.4","","-17.1","","81","","","","34","","13","","9.7","","99.56","","","","-22","","Snow"
"-94.97","74.72","RESOLUTE BAY A","2403498","2018-10-16 12:00","2018","10","16","12:00","-14.5","","-17.2","","80","","","","1","","19","","8.1","","99.56","","","","-23","","Snow"
"-94.97","74.72","RESOLUTE BAY A","2403498","2018-10-16 13:00","2018","10","16","13:00","-14.4","","-17.4","","78","","","","36","","17","","16.1","","99.57","","","","-23","","Snow"
"-94.97","74.72","RESOLUTE BAY A","2403498","2018-10-16 14:00","2018","10","16","14:00","-14.1","","-17.2","","78","","","","34","","11","","24.1","","99.57","","","","-21","","Snow"
"-94.97","74.72","RESOLUTE BAY A","2403498","2018-10-16 15:00","2018","10","16","15:00","-14.1","","-16.9","","79","","","","31","","9","","24.1","","99.58","","","","-20","","Snow"
"-94.97","74.72","RESOLUTE BAY A","2403498","2018-10-16 16:00","2018","10","16","16:00","-14.2","","-16.9","","81","","","","32","","5","","24.1","","99.58","","","","-18","","Snow"
"-94.97","74.72","RESOLUTE BAY A","2403498","2018-10-16 17:00","2018","10","16","17:00","-13.7","","-16.5","","80","","","","1","","4","","24.1","","99.57","","","","-16","","Snow"
"-94.97","74.72","RESOLUTE BAY A","2403498","2018-10-16 18:00","2018","10","16","18:00","-13.3","","-15.6","","83","","","","1","","4","","24.1","","99.55","","","","-16","","Snow"
"-94.97","74.72","RESOLUTE BAY A","2403498","2018-10-16 19:00","2018","10","16","19:00","-12.7","","-14.8","","85","","","","7","","3","","24.1","","99.56","","","","-15","","Snow"
"-94.97","74.72","RESOLUTE BAY A","2403498","2018-10-16 20:00","2018","10","16","20:00","-13.1","","-14.9","","86","","","","36","","3","","19.3","","99.54","","","","-15","","Snow"
"-94.97","74.72","RESOLUTE BAY A","2403498","2018-10-16 21:00","2018","10","16","21:00","-12.5","","-14.3","","86","","","","36","","3","","16.1","","99.52","","","","-14","","Snow"
"-94.97","74.72","RESOLUTE BAY A","2403498","2018-10-16 22:00","2018","10","16","22:00","-12.3","","-14.2","","86","","","","11","","5","","16.1","","99.50","","","","-16","","Snow"
"-94.97","74.72","RESOLUTE BAY A","2403498","2018-10-16 23:00","2018","10","16","23:00","-12.4","","-14.2","","87","","","","11","","5","","19.3","","99.48","","","","-16","","Snow"
"-94.97","74.72","RESOLUTE BAY A","2403498","2018-10-17 00:00","2018","10","17","00:00","-12.0","","-14.1","","85","","","","11","","5","","19.3","","99.49","","","","-15","","Snow"
"-94.97","74.72","RESOLUTE BAY A","2403498","2018-10-17 01:00","2018","10","17","01:00","-11.8","","-14.1","","84","","","","9","","5","","19.3","","99.49","","","","-15","","Heavy Ice Pellet Showers"
"-94.97","74.72","RESOLUTE BAY A","2403498","2018-10-17 02:00","2018","10","17","02:00","-12.3","","-14.5","","84","","","","8","","9","","19.3","","99.47","","","","-18","","Snow"
"-94.97","74.72","RESOLUTE BAY A","2403498","2018-10-17 03:00","2018","10","17","03:00","-12.1","","-14.4","","83","","","","9","","7","","19.3","","99.46","","","","-16","","Snow"
"-94.97","74.72","RESOLUTE BAY A","2403498","2018-10-17 04:00","2018","10","17","04:00","-11.8","","-13.9","","85","","","","9","","8","","19.3","","99.46","","","","-17","","Snow"
"-94.97","74.72","RESOLUTE BAY A","2403498","2018-10-17 05:00","2018","10","17","05:00","-11.6","","-13.6","","85","","","","10","","10","","19.3","","99.45","","","","-17","","Snow"
"-94.97","74.72","RESOLUTE BAY A","2403498","2018-10-17 06:00","2018","10","17","06:00","-11.8","","-13.7","","85","","","","8","","12","","19.3","","99.42","","","","-18","","Snow"
"-94.97","74.72","RESOLUTE BAY A","2403498","2018-10-17 07:00","2018","10","17","07:00","-12.2","","-14.5","","83","","","","8","","14","","19.3","","99.41","","","","-19","","Snow"
"-94.97","74.72","RESOLUTE BAY A","2403498","2018-10-17 08:00","2018","10","17","08:00","-12.5","","-14.3","","86","","","","8","","9","","16.1","","99.39","","","","-18","","Snow"
"-94.97","74.72","RESOLUTE BAY A","2403498","2018-10-17 09:00","2018","10","17","09:00","-12.4","","-14.4","","85","","","","8","","10","","24.1","","99.37","","","","-18","","Snow"
"-94.97","74.72","RESOLUTE BAY A","2403498","2018-10-17 10:00","2018","10","17","10:00","-12.2","","-14.4","","83","","","","8","","8","","24.1","","99.35","","","","-17","","Snow"
"-94.97","74.72","RESOLUTE BAY A","2403498","2018-10-17 11:00","2018","10","17","11:00","-12.5","","-14.8","","84","","","","8","","11","","24.1","","99.33","","","","-19","","NA"
"-94.97","74.72","RESOLUTE BAY A","2403498","2018-10-17 12:00","2018","10","17","12:00","-12.2","","-14.6","","83","","","","9","","9","","24.1","","99.32","","","","-17","","Mostly Cloudy"
"-94.97","74.72","RESOLUTE BAY A","2403498","2018-10-17 13:00","2018","10","17","13:00","-11.8","","-14.3","","82","","","","7","","5","","24.1","","99.31","","","","-15","","NA"
"-94.97","74.72","RESOLUTE BAY A","2403498","2018-10-17 14:00","2018","10","17","14:00","-12.0","","-15.1","","78","","","","5","","5","","24.1","","99.30","","","","-15","","NA"
"-94.97","74.72","RESOLUTE BAY A","2403498","2018-10-17 15:00","2018","10","17","15:00","-12.5","","-15.5","","78","","","","6","","8","","24.1","","99.29","","","","-17","","Mostly Cloudy"
"-94.97","74.72","RESOLUTE BAY A","2403498","2018-10-17 16:00","2018","10","17","16:00","-11.4","","-14.7","","77","","","","9","","4","","24.1","","99.28","","","","-14","","NA"
"-94.97","74.72","RESOLUTE BAY A","2403498","2018-10-17 17:00","2018","10","17","17:00","-12.7","","-15.7","","79","","","","3","","14","","24.1","","99.27","","","","-20","","NA"
"-94.97","74.72","RESOLUTE BAY A","2403498","2018-10-17 18:00","2018","10","17","18:00","-12.5","","-15.1","","81","","","","4","","14","","24.1","","99.25","","","","-20","","Snow"
"-94.97","74.72","RESOLUTE BAY A","2403498","2018-10-17 19:00","2018","10","17","19:00","-11.3","","-13.9","","81","","","","2","","3","","24.1","","99.26","","","","-13","","Snow"
"-94.97","74.72","RESOLUTE BAY A","2403498","2018-10-17 20:00","2018","10","17","20:00","-12.2","","-14.2","","85","","","","20","","3","","19.3","","99.24","","","","-14","","Snow"
"-94.97","74.72","RESOLUTE BAY A","2403498","2018-10-17 21:00","2018","10","17","21:00","-12.5","","-14.5","","85","","","","36","","10","","19.3","","99.22","","","","-18","","Snow"
"-94.97","74.72","RESOLUTE BAY A","2403498","2018-10-17 22:00","2018","10","17","22:00","-12.5","","-14.2","","87","","","","2","","11","","19.3","","99.21","","","","-19","","Snow"
"-94.97","74.72","RESOLUTE BAY A","2403498","2018-10-17 23:00","2018","10","17","23:00","-12.6","","-14.3","","88","","","","36","","10","","19.3","","99.21","","","","-18","","Ice Crystals"
"-94.97","74.72","RESOLUTE BAY A","2403498","2018-10-18 00:00","2018","10","18","00:00","-12.7","","-14.4","","87","","","","34","","9","","19.3","","99.21","","","","-18","","Ice Crystals"
"-94.97","74.72","RESOLUTE BAY A","2403498","2018-10-18 01:00","2018","10","18","01:00","-12.6","","-14.6","","85","","","","34","","12","","12.9","","99.21","","","","-19","","Snow"
"-94.97","74.72","RESOLUTE BAY A","2403498","2018-10-18 02:00","2018","10","18","02:00","-12.7","","-14.8","","84","","","","35","","12","","12.9","","99.21","","","","-19","","Snow"
"-94.97","74.72","RESOLUTE BAY A","2403498","2018-10-18 03:00","2018","10","18","03:00"
"-94.97","74.72","RESOLUTE BAY A","2403498","2018-10-18 04:00","2018","10","18","04:00","-14.2","","-16.3","","84","","","","2","","16","","12.9","","99.27","","","","-22","","Snow"
"-94.97","74.72","RESOLUTE BAY A","2403498","2018-10-18 05:00","2018","10","18","05:00","-13.7","","-16.3","","81","","","","2","","16","","12.9","","99.28","","","","-22","","Snow"
"-94.97","74.72","RESOLUTE BAY A","2403498","2018-10-18 06:00","2018","10","18","06:00","-14.0","","-16.9","","79","","","","3","","17","","12.9","","99.30","","","","-22","","Snow"
"-94.97","74.72","RESOLUTE BAY A","2403498","2018-10-18 07:00","2018","10","18","07:00","-15.2","","-18.0","","80","","","","3","","20","","12.9","","99.33","","","","-24","","Snow"
"-94.97","74.72","RESOLUTE BAY A","2403498","2018-10-18 08:00","2018","10","18","08:00","-14.0","","-17.0","","78","","","","2","","20","","16.1","","99.36","","","","-23","","Snow"
"-94.97","74.72","RESOLUTE BAY A","2403498","2018-10-18 09:00","2018","10","18","09:00","-13.2","","-16.2","","79","","","","5","","18","","24.1","","99.39","","","","-21","","Snow"
"-94.97","74.72","RESOLUTE BAY A","2403498","2018-10-18 10:00","2018","10","18","10:00","-13.2","","-15.7","","82","","","","6","","27","","24.1","","99.42","","","","-23","","Snow"
"-94.97","74.72","RESOLUTE BAY A","2403498","2018-10-18 11:00","2018","10","18","11:00","-13.5","","-15.8","","83","","","","5","","27","","24.1","","99.49","","","","-24","","Snow"
"-94.97","74.72","RESOLUTE BAY A","2403498","2018-10-18 12:00","2018","10","18","12:00","-15.1","","-17.4","","83","","","","5","","27","","24.1","","99.56","","","","-26","","Mostly Cloudy"
"-94.97","74.72","RESOLUTE BAY A","2403498","2018-10-18 13:00","2018","10","18","13:00","-16.3","","-18.8","","82","","","","5","","33","","24.1","","99.62","","","","-28","","Blowing Snow"
"-94.97","74.72","RESOLUTE BAY A","2403498","2018-10-18 14:00","2018","10","18","14:00","-16.2","","-18.6","","82","","","","4","","34","","3.2","","99.69","","","","-28","","Blowing Snow"
"-94.97","74.72","RESOLUTE BAY A","2403498","2018-10-18 15:00","2018","10","18","15:00","-18.0","","-20.0","","85","","","","4","","36","","3.6","","99.74","","","","-31","","Blowing Snow"
"-94.97","74.72","RESOLUTE BAY A","2403498","2018-10-18 16:00","2018","10","18","16:00","-16.1","","-18.3","","84","","","","4","","39","","3.2","","99.81","","","","-29","","Blowing Snow"
"-94.97","74.72","RESOLUTE BAY A","2403498","2018-10-18 17:00","2018","10","18","17:00","-16.8","","-19.0","","83","","","","4","","37","","3.2","","99.90","","","","-29","","Blowing Snow"
"-94.97","74.72","RESOLUTE BAY A","2403498","2018-10-18 18:00","2018","10","18","18:00","-16.1","","-18.1","","85","","","","3","","41","","3.6","","99.95","","","","-29","","Blowing Snow"
"-94.97","74.72","RESOLUTE BAY A","2403498","2018-10-18 19:00","2018","10","18","19:00","-17.9","","-20.4","","82","","","","3","","37","","11.3","","99.98","","","","-31","","Blowing Snow"
"-94.97","74.72","RESOLUTE BAY A","2403498","2018-10-18 20:00","2018","10","18","20:00","-18.4","","-20.9","","81","","","","4","","35","","16.1","","100.02","","","","-31","","Blowing Snow"
"-94.97","74.72","RESOLUTE BAY A","2403498","2018-10-18 21:00","2018","10","18","21:00","-18.6","","-21.2","","81","","","","3","","35","","12.9","","100.08","","","","-32","","Ice Crystals,Blowing Snow"
"-94.97","74.72","RESOLUTE BAY A","2403498","2018-10-18 22:00","2018","10","18","22:00","-19.4","","-22.0","","80","","","","4","","39","","12.9","","100.10","","","","-33","","Ice Crystals,Blowing Snow"
"-94.97","74.72","RESOLUTE BAY A","2403498","2018-10-18 23:00","2018","10","18","23:00","-19.4","","-21.9","","81","","","","36","","5","","24.1","","100.22","","","","-24","","Ice Crystals"
"-94.97","74.72","RESOLUTE BAY A","2403498","2018-10-19 00:00","2018","10","19","00:00","-18.1","","-20.5","","81","","","","4","","9","","24.1","","100.22","","","","-24","","Ice Crystals"
"-94.97","74.72","RESOLUTE BAY A","2403498","2018-10-19 01:00","2018","10","19","01:00","-18.1","","-20.6","","82","","","","34","","14","","24.1","","100.28","","","","-26","","Snow"
"-94.97","74.72","RESOLUTE BAY A","2403498","2018-10-19 02:00","2018","10","19","02:00","-17.8","","-20.0","","83","","","","31","","11","","24.1","","100.30","","","","-25","","Snow"
"-94.97","74.72","RESOLUTE BAY A","2403498","2018-10-19 03:00","2018","10","19","03:00","-17.1","","-19.2","","84","","","","36","","9","","24.1","","100.34","","","","-23","","Snow"
"-94.97","74.72","RESOLUTE BAY A","2403498","2018-10-19 04:00","2018","10","19","04:00","-18.1","","-20.3","","83","","","","33","","17","","24.1","","100.37","","","","-27","","Snow"
"-94.97","74.72","RESOLUTE BAY A","2403498","2018-10-19 05:00","2018","10","19","05:00","-17.0","","-19.1","","84","","","","33","","17","","24.1","","100.38","","","","-26","","Snow"
"-94.97","74.72","RESOLUTE BAY A","2403498","2018-10-19 06:00","2018","10","19","06:00","-18.0","","-20.0","","84","","","","33","","15","","24.1","","100.41","","","","-27","","Mainly Clear"
"-94.97","74.72","RESOLUTE BAY A","2403498","2018-10-19 07:00","2018","10","19","07:00","-15.4","","-17.3","","85","","","","33","","16","","24.1","","100.42","","","","-24","","Snow"
"-94.97","74.72","RESOLUTE BAY A","2403498","2018-10-19 08:00","2018","10","19","08:00","-14.7","","-16.5","","86","","","","33","","13","","24.1","","100.42","","","","-22","","Snow"
"-94.97","74.72","RESOLUTE BAY A","2403498","2018-10-19 09:00","2018","10","19","09:00","-13.8","","-15.4","","88","","","","30","","15","","6.4","","100.41","","","","-21","","Snow"
"-94.97","74.72","RESOLUTE BAY A","2403498","2018-10-19 10:00","2018","10","19","10:00","-12.6","","-14.2","","88","","","","31","","24","","9.7","","100.40","","","","-22","","Snow"
"-94.97","74.72","RESOLUTE BAY A","2403498","2018-10-19 11:00","2018","10","19","11:00","-12.2","","-14.0","","86","","","","31","","25","","16.1","","100.40","","","","-22","","Snow"
"-94.97","74.72","RESOLUTE BAY A","2403498","2018-10-19 12:00","2018","10","19","12:00","-11.2","","-12.9","","87","","","","32","","27","","19.3","","100.41","","","","-21","","Snow"
"-94.97","74.72","RESOLUTE BAY A","2403498","2018-10-19 13:00","2018","10","19","13:00","-11.5","","-13.4","","86","","","","32","","37","","24.1","","100.41","","","","-22","","Snow"
"-94.97","74.72","RESOLUTE BAY A","2403498","2018-10-19 14:00","2018","10","19","14:00","-11.9","","-14.0","","85","","","","33","","48","","16.1","","100.41","","","","-24","","Snow"
"-94.97","74.72","RESOLUTE BAY A","2403498","2018-10-19 15:00","2018","10","19","15:00","-12.1","","-14.3","","84","","","","33","","35","","9.7","","100.44","","","","-23","","Snow,Blowing Snow"
"-94.97","74.72","RESOLUTE BAY A","2403498","2018-10-19 16:00","2018","10","19","16:00","-12.6","","-14.4","","86","","","","30","","30","","8.1","","100.44","","","","-23","","Snow,Blowing Snow"
"-94.97","74.72","RESOLUTE BAY A","2403498","2018-10-19 17:00","2018","10","19","17:00","-12.4","","-14.2","","87","","","","31","","32","","9.7","","100.45","","","","-23","","Snow,Blowing Snow"
"-94.97","74.72","RESOLUTE BAY A","2403498","2018-10-19 18:00","2018","10","19","18:00","-11.6","","-13.2","","88","","","","31","","28","","12.9","","100.43","","","","-21","","Snow,Blowing Snow"
"-94.97","74.72","RESOLUTE BAY A","2403498","2018-10-19 19:00","2018","10","19","19:00","-10.9","","-12.7","","87","","","","33","","33","","14.5","","100.39","","","","-21","","Snow"
"-94.97","74.72","RESOLUTE BAY A","2403498","2018-10-19 20:00","2018","10","19","20:00","-11.2","","-13.1","","86","","","","33","","35","","6.4","","100.38","","","","-22","","Snow,Blowing Snow"
"-94.97","74.72","RESOLUTE BAY A","2403498","2018-10-19 21:00","2018","10","19","21:00","-12.7","","-14.7","","85","","","","33","","23","","16.1","","100.37","","","","-22","","Snow"
"-94.97","74.72","RESOLUTE BAY A","2403498","2018-10-19 22:00","2018","10","19","22:00","-14.8","","-17.0","","84","","","","34","","23","","24.1","","100.33","","","","-25","","Ice Crystals"
"-94.97","74.72","RESOLUTE BAY A","2403498","2018-10-19 23:00","2018","10","19","23:00","-14.8","","-16.8","","85","","","","32","","32","","24.1","","100.30","","","","-26","","Ice Crystals"
"-94.97","74.72","RESOLUTE BAY A","2403498","2018-10-20 00:00","2018","10","20","00:00","-14.9","","-16.8","","86","","","","33","","32","","24.1","","100.30","","","","-26","","Ice Crystals"
"-94.97","74.72","RESOLUTE BAY A","2403498","2018-10-20 01:00","2018","10","20","01:00","-13.9","","-16.0","","84","","","","35","","25","","24.1","","100.28","","","","-24","","Ice Crystals"
"-94.97","74.72","RESOLUTE BAY A","2403498","2018-10-20 02:00","2018","10","20","02:00","-15.9","","-18.0","","85","","","","34","","14","","12.9","","100.25","","","","-24","","Ice Crystals"
"-94.97","74.72","RESOLUTE BAY A","2403498","2018-10-20 03:00","2018","10","20","03:00","-14.5","","-16.2","","88","","","","32","","20","","16.1","","100.24","","","","-24","","Snow"
"-94.97","74.72","RESOLUTE BAY A","2403498","2018-10-20 04:00","2018","10","20","04:00","-15.9","","-18.1","","83","","","","33","","17","","16.1","","100.19","","","","-25","","Ice Crystals"
"-94.97","74.72","RESOLUTE BAY A","2403498","2018-10-20 05:00","2018","10","20","05:00","-13.8","","-15.6","","86","","","","34","","27","","24.1","","100.13","","","","-24","","Ice Crystals"
"-94.97","74.72","RESOLUTE BAY A","2403498","2018-10-20 06:00","2018","10","20","06:00","-14.2","","-16.1","","85","","","","34","","26","","24.1","","100.10","","","","-24","","Ice Crystals"
"-94.97","74.72","RESOLUTE BAY A","2403498","2018-10-20 07:00","2018","10","20","07:00","-14.8","","-16.8","","85","","","","35","","16","","14.5","","100.05","","","","-23","","Snow"
"-94.97","74.72","RESOLUTE BAY A","2403498","2018-10-20 08:00","2018","10","20","08:00","-12.9","","-15.0","","85","","","","34","","20","","9.7","","100.04","","","","-22","","Snow"
"-94.97","74.72","RESOLUTE BAY A","2403498","2018-10-20 09:00","2018","10","20","09:00","-12.9","","-15.2","","83","","","","36","","18","","12.9","","100.00","","","","-21","","Snow"
"-94.97","74.72","RESOLUTE BAY A","2403498","2018-10-20 10:00","2018","10","20","10:00","-13.3","","-15.7","","82","","","","36","","16","","6.4","","99.98","","","","-21","","Snow"
"-94.97","74.72","RESOLUTE BAY A","2403498","2018-10-20 11:00","2018","10","20","11:00","-14.4","","-16.9","","82","","","","2","","17","","6.4","","99.98","","","","-23","","Snow"
"-94.97","74.72","RESOLUTE BAY A","2403498","2018-10-20 12:00","2018","10","20","12:00","-15.8","","-18.1","","83","","","","35","","13","","9.7","","99.98","","","","-23","","Snow"
"-94.97","74.72","RESOLUTE BAY A","2403498","2018-10-20 13:00","2018","10","20","13:00","-15.8","","-18.0","","83","","","","33","","9","","16.1","","100.00","","","","-22","","NA"
"-94.97","74.72","RESOLUTE BAY A","2403498","2018-10-20 14:00","2018","10","20","14:00","-15.7","","-17.8","","84","","","","34","","13","","16.1","","100.04","","","","-23","","Snow"
"-94.97","74.72","RESOLUTE BAY A","2403498","2018-10-20 15:00","2018","10","20","15:00","-15.8","","-18.2","","82","","","","36","","11","","12.9","","100.05","","","","-23","","Snow"
"-94.97","74.72","RESOLUTE BAY A","2403498","2018-10-20 16:00","2018","10","20","16:00","-15.9","","-18.4","","81","","","","35","","14","","16.1","","100.09","","","","-24","","Snow"
"-94.97","74.72","RESOLUTE BAY A","2403498","2018-10-20 17:00","2018","10","20","17:00","-17.2","","-19.2","","85","","","","35","","15","","12.9","","100.13","","","","-26","","Snow"
"-94.97","74.72","RESOLUTE BAY A","2403498","2018-10-20 18:00","2018","10","20","18:00","-16.1","","-18.2","","83","","","","2","","13","","12.9","","100.16","","","","-24","","Snow"
"-94.97","74.72","RESOLUTE BAY A","2403498","2018-10-20 19:00","2018","10","20","19:00","-16.6","","-18.8","","84","","","","2","","21","","12.9","","100.18","","","","-26","","Snow"
"-94.97","74.72","RESOLUTE BAY A","2403498","2018-10-20 20:00","2018","10","20","20:00","-16.8","","-18.9","","84","","","","36","","9","","16.1","","100.20","","","","-23","","Snow"
"-94.97","74.72","RESOLUTE BAY A","2403498","2018-10-20 21:00","2018","10","20","21:00","-14.6","","-16.7","","85","","","","35","","15","","16.1","","100.23","","","","-22","","Snow"
"-94.97","74.72","RESOLUTE BAY A","2403498","2018-10-20 22:00","2018","10","20","22:00","-16.7","","-18.9","","83","","","","29","","5","","16.1","","100.28","","","","-21","","Snow"
"-94.97","74.72","RESOLUTE BAY A","2403498","2018-10-20 23:00","2018","10","20","23:00","-14.4","","-16.4","","85","","","","36","","5","","16.1","","100.30","","","","-18","","Snow"
"-94.97","74.72","RESOLUTE BAY A","2403498","2018-10-21 00:00","2018","10","21","00:00","-14.7","","-17.0","","83","","","","2","","7","","24.1","","100.36","","","","-19","","Snow"
"-94.97","74.72","RESOLUTE BAY A","2403498","2018-10-21 01:00","2018","10","21","01:00","-15.1","","-17.4","","83","","","","3","","18","","24.1","","100.41","","","","-24","","Snow"
"-94.97","74.72","RESOLUTE BAY A","2403498","2018-10-21 02:00","2018","10","21","02:00","-15.1","","-17.3","","84","","","","1","","6","","24.1","","100.47","","","","-19","","Snow"
"-94.97","74.72","RESOLUTE BAY A","2403498","2018-10-21 03:00","2018","10","21","03:00","-15.2","","-17.5","","83","","","","2","","13","","24.1","","100.50","","","","-23","","Snow"
"-94.97","74.72","RESOLUTE BAY A","2403498","2018-10-21 04:00","2018","10","21","04:00","-15.8","","-17.7","","85","","","","2","","16","","24.1","","100.56","","","","-24","","Ice Crystals"
"-94.97","74.72","RESOLUTE BAY A","2403498","2018-10-21 05:00","2018","10","21","05:00","-17.2","","-19.1","","85","","","","35","","7","","24.1","","100.59","","","","-22","","Ice Crystals"
"-94.97","74.72","RESOLUTE BAY A","2403498","2018-10-21 06:00","2018","10","21","06:00","-17.9","","-19.6","","87","","","","35","","12","","24.1","","100.63","","","","-25","","Ice Crystals"
"-94.97","74.72","RESOLUTE BAY A","2403498","2018-10-21 07:00","2018","10","21","07:00","-17.2","","-18.5","","89","","","","34","","13","","24.1","","100.68","","","","-25","","Ice Crystals"
"-94.97","74.72","RESOLUTE BAY A","2403498","2018-10-21 08:00","2018","10","21","08:00","-14.3","","-15.9","","88","","","","34","","16","","24.1","","100.71","","","","-22","","Ice Crystals"
"-94.97","74.72","RESOLUTE BAY A","2403498","2018-10-21 09:00","2018","10","21","09:00","-14.4","","-15.9","","89","","","","33","","16","","19.3","","100.75","","","","-22","","Snow"
"-94.97","74.72","RESOLUTE BAY A","2403498","2018-10-21 10:00","2018","10","21","10:00","-14.7","","-16.4","","87","","","","33","","14","","19.3","","100.77","","","","-22","","Snow"
"-94.97","74.72","RESOLUTE BAY A","2403498","2018-10-21 11:00","2018","10","21","11:00","-16.1","","-17.9","","86","","","","33","","14","","19.3","","100.82","","","","-24","","Snow"
"-94.97","74.72","RESOLUTE BAY A","2403498","2018-10-21 12:00","2018","10","21","12:00","-15.5","","-17.4","","86","","","","34","","15","","24.1","","100.84","","","","-24","","Snow"
"-94.97","74.72","RESOLUTE BAY A","2403498","2018-10-21 13:00","2018","10","21","13:00","-14.3","","-16.1","","86","","","","33","","10","","16.1","","100.89","","","","-20","","Snow"
"-94.97","74.72","RESOLUTE BAY A","2403498","2018-10-21 14:00","2018","10","21","14:00","-14.0","","-15.8","","86","","","","35","","11","","16.1","","100.92","","","","-20","","Snow"
"-94.97","74.72","RESOLUTE BAY A","2403498","2018-10-21 15:00","2018","10","21","15:00","-14.3","","-16.1","","86","","","","33","","10","","16.1","","100.96","","","","-20","","Snow"
"-94.97","74.72","RESOLUTE BAY A","2403498","2018-10-21 16:00","2018","10","21","16:00","-14.8","","-16.7","","86","","","","32","","10","","24.1","","100.98","","","","-21","","Ice Crystals"
"-94.97","74.72","RESOLUTE BAY A","2403498","2018-10-21 17:00","2018","10","21","17:00","-14.3","","-16.2","","86","","","","34","","16","","24.1","","101.01","","","","-22","","Ice Crystals"
"-94.97","74.72","RESOLUTE BAY A","2403498","2018-10-21 18:00","2018","10","21","18:00","-14.6","","-16.6","","85","","","","34","","18","","24.1","","101.03","","","","-23","","Ice Crystals"
"-94.97","74.72","RESOLUTE BAY A","2403498","2018-10-21 19:00","2018","10","21","19:00","-14.8","","-16.9","","85","","","","34","","18","","24.1","","101.06","","","","-23","","Snow"
"-94.97","74.72","RESOLUTE BAY A","2403498","2018-10-21 20:00","2018","10","21","20:00","-14.8","","-16.9","","84","","","","35","","20","","24.1","","101.09","","","","-24","","Snow"
"-94.97","74.72","RESOLUTE BAY A","2403498","2018-10-21 21:00","2018","10","21","21:00","-15.9","","-18.2","","83","","","","33","","12","","24.1","","101.11","","","","-23","","Snow"
"-94.97","74.72","RESOLUTE BAY A","2403498","2018-10-21 22:00","2018","10","21","22:00","-16.3","","-18.5","","83","","","","31","","10","","24.1","","101.14","","","","-23","","Snow"
"-94.97","74.72","RESOLUTE BAY A","2403498","2018-10-21 23:00","2018","10","21","23:00","-16.5","","-18.7","","83","","","","31","","8","","24.1","","101.16","","","","-22","","Snow"
"-94.97","74.72","RESOLUTE BAY A","2403498","2018-10-22 00:00","2018","10","22","00:00","-18.8","","-21.0","","83","","","","34","","13","","24.1","","101.19","","","","-27","","Snow"
"-94.97","74.72","RESOLUTE BAY A","2403498","2018-10-22 01:00","2018","10","22","01:00","-18.4","","-20.4","","84","","","","36","","14","","24.1","","101.22","","","","-27","","Snow"
"-94.97","74.72","RESOLUTE BAY A","2403498","2018-10-22 02:00","2018","10","22","02:00","-17.0","","-18.9","","86","","","","35","","14","","24.1","","101.24","","","","-25","","Snow"
"-94.97","74.72","RESOLUTE BAY A","2403498","2018-10-22 03:00","2018","10","22","03:00","-18.7","","-20.9","","83","","","","32","","19","","24.1","","101.27","","","","-29","","Snow"
"-94.97","74.72","RESOLUTE BAY A","2403498","2018-10-22 04:00","2018","10","22","04:00","-20.1","","-22.5","","81","","","","34","","17","","16.1","","101.33","","","","-30","","Snow"
"-94.97","74.72","RESOLUTE BAY A","2403498","2018-10-22 05:00","2018","10","22","05:00","-20.1","","-22.3","","83","","","","33","","17","","24.1","","101.34","","","","-30","","Snow"
"-94.97","74.72","RESOLUTE BAY A","2403498","2018-10-22 06:00","2018","10","22","06:00","-18.7","","-20.9","","83","","","","33","","28","","24.1","","101.39","","","","-31","","Snow"
"-94.97","74.72","RESOLUTE BAY A","2403498","2018-10-22 07:00","2018","10","22","07:00","-18.7","","-21.0","","83","","","","32","","28","","24.1","","101.42","","","","-31","","Snow"
"-94.97","74.72","RESOLUTE BAY A","2403498","2018-10-22 08:00","2018","10","22","08:00","-18.1","","-20.3","","83","","","","31","","22","","19.3","","101.42","","","","-29","","Snow"
"-94.97","74.72","RESOLUTE BAY A","2403498","2018-10-22 09:00","2018","10","22","09:00","-18.5","","-20.6","","83","","","","32","","26","","4.8","","101.47","","","","-30","","Snow,Blowing Snow"
"-94.97","74.72","RESOLUTE BAY A","2403498","2018-10-22 10:00","2018","10","22","10:00","-18.9","","-21.1","","83","","","","30","","16","","19.3","","101.50","","","","-28","","NA"
"-94.97","74.72","RESOLUTE BAY A","2403498","2018-10-22 11:00","2018","10","22","11:00","-18.1","","-20.3","","83","","","","33","","21","","16.1","","101.51","","","","-28","","NA"
"-94.97","74.72","RESOLUTE BAY A","2403498","2018-10-22 12:00","2018","10","22","12:00","-18.2","","-20.5","","82","","","","35","","20","","19.3","","101.57","","","","-28","","Cloudy"
"-94.97","74.72","RESOLUTE BAY A","2403498","2018-10-22 13:00","2018","10","22","13:00","-18.7","","-21.1","","82","","","","32","","25","","19.3","","101.59","","","","-30","","NA"
"-94.97","74.72","RESOLUTE BAY A","2403498","2018-10-22 14:00","2018","10","22","14:00","-19.2","","-21.6","","81","","","","34","","22","","24.1","","101.64","","","","-30","","NA"
"-94.97","74.72","RESOLUTE BAY A","2403498","2018-10-22 15:00","2018","10","22","15:00","-19.8","","-22.4","","80","","","","34","","12","","19.3","","101.69","","","","-28","","Mostly Cloudy"
"-94.97","74.72","RESOLUTE BAY A","2403498","2018-10-22 16:00","2018","10","22","16:00","-18.9","","-21.3","","81","","","","33","","16","","19.3","","101.71","","","","-28","","NA"
"-94.97","74.72","RESOLUTE BAY A","2403498","2018-10-22 17:00","2018","10","22","17:00","-19.3","","-21.8","","81","","","","34","","20","","16.1","","101.74","","","","-30","","Snow"
"-94.97","74.72","RESOLUTE BAY A","2403498","2018-10-22 18:00","2018","10","22","18:00","-20.0","","-22.7","","80","","","","33","","17","","19.3","","101.80","","","","-30","","Snow"
"-94.97","74.72","RESOLUTE BAY A","2403498","2018-10-22 19:00","2018","10","22","19:00","-18.1","","-20.6","","81","","","","34","","18","","16.1","","101.81","","","","-28","","Snow"
"-94.97","74.72","RESOLUTE BAY A","2403498","2018-10-22 20:00","2018","10","22","20:00","-19.5","","-22.0","","81","","","","30","","12","","16.1","","101.85","","","","-27","","Ice Crystals"
"-94.97","74.72","RESOLUTE BAY A","2403498","2018-10-22 21:00","2018","10","22","21:00","-18.8","","-21.4","","80","","","","35","","18","","16.1","","101.84","","","","-28","","Ice Crystals"
"-94.97","74.72","RESOLUTE BAY A","2403498","2018-10-22 22:00","2018","10","22","22:00","-18.4","","-20.9","","81","","","","33","","18","","16.1","","101.87","","","","-28","","Ice Crystals"
"-94.97","74.72","RESOLUTE BAY A","2403498","2018-10-22 23:00","2018","10","22","23:00","-17.6","","-20.1","","81","","","","33","","25","","16.1","","101.86","","","","-29","","Ice Crystals"
"-94.97","74.72","RESOLUTE BAY A","2403498","2018-10-23 00:00","2018","10","23","00:00","-19.8","","-22.4","","80","","","","34","","21","","24.1","","101.90","","","","-30","","Ice Crystals"
"-94.97","74.72","RESOLUTE BAY A","2403498","2018-10-23 01:00","2018","10","23","01:00","-21.0","","-23.9","","78","","","","2","","22","","24.1","","101.96","","","","-32","","Ice Crystals"
"-94.97","74.72","RESOLUTE BAY A","2403498","2018-10-23 02:00","2018","10","23","02:00","-21.8","","-24.6","","79","","","","33","","13","","24.1","","102.01","","","","-31","","Ice Crystals"
"-94.97","74.72","RESOLUTE BAY A","2403498","2018-10-23 03:00","2018","10","23","03:00","-22.9","","-25.5","","79","","","","35","","20","","24.1","","102.04","","","","-34","","Ice Crystals"
"-94.97","74.72","RESOLUTE BAY A","2403498","2018-10-23 04:00","2018","10","23","04:00","-21.5","","-24.2","","79","","","","1","","13","","24.1","","102.05","","","","-30","","Ice Crystals"
"-94.97","74.72","RESOLUTE BAY A","2403498","2018-10-23 05:00","2018","10","23","05:00","-22.8","","-25.6","","78","","","","28","","10","","24.1","","102.05","","","","-31","","Ice Crystals"
"-94.97","74.72","RESOLUTE BAY A","2403498","2018-10-23 06:00","2018","10","23","06:00","-23.3","","-25.9","","79","","","","31","","21","","24.1","","102.08","","","","-35","","Ice Crystals"
"-94.97","74.72","RESOLUTE BAY A","2403498","2018-10-23 07:00","2018","10","23","07:00","-22.2","","-24.6","","81","","","","32","","8","","24.1","","102.08","","","","-29","","Ice Crystals"
"-94.97","74.72","RESOLUTE BAY A","2403498","2018-10-23 08:00","2018","10","23","08:00","-22.6","","-25.1","","81","","","","33","","20","","19.3","","102.09","","","","-34","","Ice Crystals"
"-94.97","74.72","RESOLUTE BAY A","2403498","2018-10-23 09:00","2018","10","23","09:00","-22.8","","-25.1","","82","","","","1","","19","","12.9","","102.10","","","","-34","","Ice Crystals"
"-94.97","74.72","RESOLUTE BAY A","2403498","2018-10-23 10:00","2018","10","23","10:00","-23.3","","-25.6","","82","","","","36","","16","","16.1","","102.12","","","","-33","","Ice Crystals"
"-94.97","74.72","RESOLUTE BAY A","2403498","2018-10-23 11:00","2018","10","23","11:00","-23.6","","-26.2","","80","","","","33","","23","","12.9","","102.11","","","","-36","","NA"
"-94.97","74.72","RESOLUTE BAY A","2403498","2018-10-23 12:00","2018","10","23","12:00","-22.6","","-24.9","","82","","","","35","","27","","12.9","","102.11","","","","-35","","Mainly Clear"
"-94.97","74.72","RESOLUTE BAY A","2403498","2018-10-23 13:00","2018","10","23","13:00","-22.7","","-25.2","","80","","","","36","","28","","3.2","","102.11","","","","-36","","Fog"
"-94.97","74.72","RESOLUTE BAY A","2403498","2018-10-23 14:00","2018","10","23","14:00","-21.8","","-24.3","","80","","","","35","","23","","4.8","","102.13","","","","-33","","Ice Crystals"
"-94.97","74.72","RESOLUTE BAY A","2403498","2018-10-23 15:00","2018","10","23","15:00","-20.9","","-23.4","","81","","","","35","","23","","1.6","","102.12","","","","-32","","Fog"
"-94.97","74.72","RESOLUTE BAY A","2403498","2018-10-23 16:00","2018","10","23","16:00","-20.4","","-22.8","","81","","","","34","","26","","1.6","","102.11","","","","-32","","Fog"
"-94.97","74.72","RESOLUTE BAY A","2403498","2018-10-23 17:00","2018","10","23","17:00","-20.2","","-22.7","","81","","","","34","","25","","3.2","","102.09","","","","-32","","Snow,Blowing Snow"
"-94.97","74.72","RESOLUTE BAY A","2403498","2018-10-23 18:00","2018","10","23","18:00","-20.0","","-22.5","","81","","","","33","","27","","3.2","","102.08","","","","-32","","Snow"
"-94.97","74.72","RESOLUTE BAY A","2403498","2018-10-23 19:00","2018","10","23","19:00","-20.4","","-22.8","","81","","","","34","","23","","3.2","","102.05","","","","-32","","Snow"
"-94.97","74.72","RESOLUTE BAY A","2403498","2018-10-23 20:00","2018","10","23","20:00","-20.3","","-22.7","","81","","","","32","","25","","3.6","","102.04","","","","-32","","Snow"
"-94.97","74.72","RESOLUTE BAY A","2403498","2018-10-23 21:00","2018","10","23","21:00","-20.9","","-23.4","","81","","","","32","","25","","4.0","","102.03","","","","-33","","Snow"
"-94.97","74.72","RESOLUTE BAY A","2403498","2018-10-23 22:00","2018","10","23","22:00","-20.4","","-22.8","","81","","","","32","","20","","3.2","","102.01","","","","-31","","Snow"
"-94.97","74.72","RESOLUTE BAY A","2403498","2018-10-23 23:00","2018","10","23","23:00","-20.2","","-22.7","","81","","","","32","","26","","4.0","","102.04","","","","-32","","Snow"
"-94.97","74.72","RESOLUTE BAY A","2403498","2018-10-24 00:00","2018","10","24","00:00","-20.0","","-22.5","","81","","","","33","","22","","3.2","","102.06","","","","-31","","Snow"
"-94.97","74.72","RESOLUTE BAY A","2403498","2018-10-24 01:00","2018","10","24","01:00","-20.3","","-22.8","","81","","","","32","","29","","4.0","","102.08","","","","-33","","Snow"
"-94.97","74.72","RESOLUTE BAY A","2403498","2018-10-24 02:00","2018","10","24","02:00","-20.7","","-23.2","","81","","","","31","","23","","4.0","","102.12","","","","-32","","Snow"
"-94.97","74.72","RESOLUTE BAY A","2403498","2018-10-24 03:00","2018","10","24","03:00","-21.6","","-24.2","","80","","","","31","","20","","3.2","","102.13","","","","-32","","Snow"
"-94.97","74.72","RESOLUTE BAY A","2403498","2018-10-24 04:00","2018","10","24","04:00","-21.5","","-24.0","","80","","","","28","","14","","4.0","","102.14","","","","-31","","Snow"
"-94.97","74.72","RESOLUTE BAY A","2403498","2018-10-24 05:00","2018","10","24","05:00","-21.2","","-23.8","","80","","","","32","","16","","4.0","","102.14","","","","-31","","Snow"
"-94.97","74.72","RESOLUTE BAY A","2403498","2018-10-24 06:00","2018","10","24","06:00","-21.5","","-24.1","","80","","","","34","","17","","4.0","","102.14","","","","-32","","Snow"
"-94.97","74.72","RESOLUTE BAY A","2403498","2018-10-24 07:00","2018","10","24","07:00","-20.7","","-23.2","","81","","","","33","","11","","4.0","","102.16","","","","-28","","Snow"
"-94.97","74.72","RESOLUTE BAY A","2403498","2018-10-24 08:00","2018","10","24","08:00","-20.4","","-22.9","","81","","","","32","","15","","12.9","","102.16","","","","-30","","Snow"
"-94.97","74.72","RESOLUTE BAY A","2403498","2018-10-24 09:00","2018","10","24","09:00","-19.1","","-21.5","","82","","","","31","","12","","0.8","","102.18","","","","-27","","Snow,Freezing Fog"
"-94.97","74.72","RESOLUTE BAY A","2403498","2018-10-24 10:00","2018","10","24","10:00","-17.4","","-19.5","","83","","","","30","","19","","14.5","","102.19","","","","-27","","NA"
"-94.97","74.72","RESOLUTE BAY A","2403498","2018-10-24 11:00","2018","10","24","11:00","-16.8","","-18.9","","84","","","","30","","21","","14.5","","102.18","","","","-27","","Snow"
"-94.97","74.72","RESOLUTE BAY A","2403498","2018-10-24 12:00","2018","10","24","12:00","-16.3","","-18.3","","84","","","","31","","17","","16.1","","102.21","","","","-25","","Snow"
"-94.97","74.72","RESOLUTE BAY A","2403498","2018-10-24 13:00","2018","10","24","13:00","-16.0","","-18.0","","84","","","","31","","16","","16.1","","102.22","","","","-24","","Snow"
"-94.97","74.72","RESOLUTE BAY A","2403498","2018-10-24 14:00","2018","10","24","14:00","-15.9","","-17.9","","85","","","","33","","24","","16.1","","102.24","","","","-26","","Snow"
"-94.97","74.72","RESOLUTE BAY A","2403498","2018-10-24 15:00","2018","10","24","15:00","-16.0","","-18.1","","85","","","","34","","17","","12.9","","102.27","","","","-25","","Snow"
"-94.97","74.72","RESOLUTE BAY A","2403498","2018-10-24 16:00","2018","10","24","16:00","-16.3","","-18.4","","84","","","","35","","21","","14.5","","102.30","","","","-26","","Snow"
"-94.97","74.72","RESOLUTE BAY A","2403498","2018-10-24 17:00","2018","10","24","17:00","-16.4","","-18.4","","84","","","","35","","16","","16.1","","102.32","","","","-25","","Snow"
"-94.97","74.72","RESOLUTE BAY A","2403498","2018-10-24 18:00","2018","10","24","18:00","-16.2","","-18.2","","84","","","","33","","13","","14.5","","102.30","","","","-24","","Snow"
"-94.97","74.72","RESOLUTE BAY A","2403498","2018-10-24 19:00","2018","10","24","19:00","-16.2","","-18.2","","84","","","","1","","14","","14.5","","102.29","","","","-24","","Snow"
"-94.97","74.72","RESOLUTE BAY A","2403498","2018-10-24 20:00","2018","10","24","20:00","-16.5","","-18.6","","84","","","","3","","12","","6.4","","102.31","","","","-24","","Snow"
"-94.97","74.72","RESOLUTE BAY A","2403498","2018-10-24 21:00","2018","10","24","21:00","-17.0","","-19.2","","84","","","","34","","3","","4.8","","102.33","","","","-19","","Snow"
"-94.97","74.72","RESOLUTE BAY A","2403498","2018-10-24 22:00","2018","10","24","22:00","-16.9","","-19.1","","84","","","","32","","8","","8.1","","102.32","","","","-23","","Snow"
"-94.97","74.72","RESOLUTE BAY A","2403498","2018-10-24 23:00","2018","10","24","23:00","-16.7","","-18.8","","84","","","","3","","7","","6.4","","102.32","","","","-22","","Snow"
"-94.97","74.72","RESOLUTE BAY A","2403498","2018-10-25 00:00","2018","10","25","00:00","-17.5","","-19.6","","83","","","","36","","2","","8.1","","102.33","","","","-19","","Snow"
"-94.97","74.72","RESOLUTE BAY A","2403498","2018-10-25 01:00","2018","10","25","01:00","-17.8","","-20.1","","83","","","","5","","7","","6.4","","102.35","","","","-23","","Snow"
"-94.97","74.72","RESOLUTE BAY A","2403498","2018-10-25 02:00","2018","10","25","02:00","-17.9","","-20.1","","83","","","","14","","7","","4.8","","102.38","","","","-23","","Snow"
"-94.97","74.72","RESOLUTE BAY A","2403498","2018-10-25 03:00","2018","10","25","03:00","-19.4","","-21.8","","82","","","","5","","19","","9.7","","102.37","","","","-29","","Snow"
"-94.97","74.72","RESOLUTE BAY A","2403498","2018-10-25 04:00","2018","10","25","04:00","-17.4","","-19.6","","84","","","","11","","9","","6.4","","102.39","","","","-24","","Snow"
"-94.97","74.72","RESOLUTE BAY A","2403498","2018-10-25 05:00","2018","10","25","05:00","-16.2","","-18.3","","85","","","","12","","13","","14.5","","102.37","","","","-24","","Snow"
"-94.97","74.72","RESOLUTE BAY A","2403498","2018-10-25 06:00","2018","10","25","06:00","-16.5","","-18.6","","84","","","","17","","22","","11.3","","102.38","","","","-27","","Snow"
"-94.97","74.72","RESOLUTE BAY A","2403498","2018-10-25 07:00","2018","10","25","07:00","-16.2","","-18.3","","84","","","","14","","16","","11.3","","102.37","","","","-25","","Snow"
"-94.97","74.72","RESOLUTE BAY A","2403498","2018-10-25 08:00","2018","10","25","08:00","-15.8","","-17.9","","85","","","","14","","31","","12.9","","102.34","","","","-27","","Snow,Blowing Snow"
"-94.97","74.72","RESOLUTE BAY A","2403498","2018-10-25 09:00","2018","10","25","09:00","-15.3","","-17.3","","85","","","","13","","30","","12.9","","102.31","","","","-26","","Snow,Blowing Snow"
"-94.97","74.72","RESOLUTE BAY A","2403498","2018-10-25 10:00","2018","10","25","10:00","-16.6","","-18.8","","84","","","","12","","30","","24.1","","102.29","","","","-28","","Snow"
"-94.97","74.72","RESOLUTE BAY A","2403498","2018-10-25 11:00","2018","10","25","11:00","-17.0","","-19.1","","84","","","","12","","29","","24.1","","102.28","","","","-28","","NA"
"-94.97","74.72","RESOLUTE BAY A","2403498","2018-10-25 12:00","2018","10","25","12:00","-16.0","","-18.1","","84","","","","11","","33","","24.1","","102.26","","","","-28","","Blowing Snow"
"-94.97","74.72","RESOLUTE BAY A","2403498","2018-10-25 13:00","2018","10","25","13:00","-16.2","","-18.4","","84","","","","11","","29","","4.8","","102.25","","","","-27","","Fog"
"-94.97","74.72","RESOLUTE BAY A","2403498","2018-10-25 14:00","2018","10","25","14:00","-17.2","","-19.3","","84","","","","12","","22","","16.1","","102.26","","","","-27","","Ice Crystals"
"-94.97","74.72","RESOLUTE BAY A","2403498","2018-10-25 15:00","2018","10","25","15:00","-15.6","","-17.6","","85","","","","13","","26","","16.1","","102.27","","","","-26","","Ice Crystals"
"-94.97","74.72","RESOLUTE BAY A","2403498","2018-10-25 16:00","2018","10","25","16:00","-15.0","","-16.9","","85","","","","12","","26","","24.1","","102.22","","","","-25","","Ice Crystals"
"-94.97","74.72","RESOLUTE BAY A","2403498","2018-10-25 17:00","2018","10","25","17:00","-14.8","","-16.7","","85","","","","12","","30","","24.1","","102.15","","","","-26","","Ice Crystals"
"-94.97","74.72","RESOLUTE BAY A","2403498","2018-10-25 18:00","2018","10","25","18:00","-16.8","","-18.9","","84","","","","13","","34","","4.8","","102.15","","","","-29","","Ice Crystals,Blowing Snow"
"-94.97","74.72","RESOLUTE BAY A","2403498","2018-10-25 19:00","2018","10","25","19:00","-17.1","","-19.3","","84","","","","13","","43","","9.7","","102.12","","","","-31","","Ice Crystals,Blowing Snow"
"-94.97","74.72","RESOLUTE BAY A","2403498","2018-10-25 20:00","2018","10","25","20:00","-17.4","","-19.5","","84","","","","12","","41","","9.7","","102.11","","","","-31","","Ice Crystals,Blowing Snow"
"-94.97","74.72","RESOLUTE BAY A","2403498","2018-10-25 21:00","2018","10","25","21:00","-17.9","","-20.1","","84","","","","12","","35","","14.5","","102.10","","","","-31","","Ice Crystals,Blowing Snow"
"-94.97","74.72","RESOLUTE BAY A","2403498","2018-10-25 22:00","2018","10","25","22:00","-17.5","","-19.7","","83","","","","11","","38","","14.5","","102.10","","","","-31","","Ice Crystals,Blowing Snow"
"-94.97","74.72","RESOLUTE BAY A","2403498","2018-10-25 23:00","2018","10","25","23:00","-17.5","","-19.7","","83","","","","12","","42","","9.7","","102.09","","","","-31","","Ice Crystals,Blowing Snow"
"-94.97","74.72","RESOLUTE BAY A","2403498","2018-10-26 00:00","2018","10","26","00:00","-16.8","","-18.9","","84","","","","12","","47","","8.1","","102.06","","","","-31","","Ice Crystals,Blowing Snow"
"-94.97","74.72","RESOLUTE BAY A","2403498","2018-10-26 01:00","2018","10","26","01:00","-16.8","","-18.9","","84","","","","13","","44","","6.4","","102.09","","","","-30","","Ice Crystals,Blowing Snow"
"-94.97","74.72","RESOLUTE BAY A","2403498","2018-10-26 02:00","2018","10","26","02:00","-17.1","","-19.2","","84","","","","13","","43","","9.7","","102.08","","","","-31","","Ice Crystals,Blowing Snow"
"-94.97","74.72","RESOLUTE BAY A","2403498","2018-10-26 03:00","2018","10","26","03:00","-16.9","","-19.1","","84","","","","12","","44","","4.8","","102.06","","","","-30","","Ice Crystals,Blowing Snow"
"-94.97","74.72","RESOLUTE BAY A","2403498","2018-10-26 04:00","2018","10","26","04:00","-16.4","","-18.5","","84","","","","12","","48","","6.4","","102.04","","","","-30","","Ice Crystals,Blowing Snow"
"-94.97","74.72","RESOLUTE BAY A","2403498","2018-10-26 05:00","2018","10","26","05:00","-15.4","","-17.3","","86","","","","12","","41","","8.1","","102.02","","","","-28","","Ice Crystals,Blowing Snow"
"-94.97","74.72","RESOLUTE BAY A","2403498","2018-10-26 06:00","2018","10","26","06:00","-13.4","","-15.2","","87","","","","13","","39","","9.7","","102.01","","","","-25","","Ice Crystals,Blowing Snow"
"-94.97","74.72","RESOLUTE BAY A","2403498","2018-10-26 07:00","2018","10","26","07:00","-12.9","","-14.7","","87","","","","13","","48","","6.4","","101.96","","","","-26","","Snow,Blowing Snow"
"-94.97","74.72","RESOLUTE BAY A","2403498","2018-10-26 08:00","2018","10","26","08:00","-12.4","","-14.1","","88","","","","12","","47","","9.7","","101.92","","","","-25","","Snow,Blowing Snow"
"-94.97","74.72","RESOLUTE BAY A","2403498","2018-10-26 09:00","2018","10","26","09:00","-11.9","","-13.5","","88","","","","12","","45","","8.1","","101.87","","","","-24","","Snow,Blowing Snow"
"-94.97","74.72","RESOLUTE BAY A","2403498","2018-10-26 10:00","2018","10","26","10:00","-11.6","","-13.2","","88","","","","14","","50","","4.0","","101.83","","","","-24","","Snow,Blowing Snow"
"-94.97","74.72","RESOLUTE BAY A","2403498","2018-10-26 11:00","2018","10","26","11:00","-11.7","","-13.2","","88","","","","14","","55","","3.6","","101.81","","","","-25","","Snow,Blowing Snow"
"-94.97","74.72","RESOLUTE BAY A","2403498","2018-10-26 12:00","2018","10","26","12:00","-11.6","","-13.2","","88","","","","15","","50","","4.8","","101.79","","","","-24","","Snow,Blowing Snow"
"-94.97","74.72","RESOLUTE BAY A","2403498","2018-10-26 13:00","2018","10","26","13:00","-11.2","","-12.8","","89","","","","14","","45","","16.1","","101.72","","","","-23","","Snow,Blowing Snow"
"-94.97","74.72","RESOLUTE BAY A","2403498","2018-10-26 14:00","2018","10","26","14:00","-11.1","","-12.6","","89","","","","15","","39","","24.1","","101.63","","","","-22","","Snow,Blowing Snow"
"-94.97","74.72","RESOLUTE BAY A","2403498","2018-10-26 15:00","2018","10","26","15:00","-10.7","","-12.1","","89","","","","14","","41","","24.1","","101.56","","","","-22","","Snow,Blowing Snow"
"-94.97","74.72","RESOLUTE BAY A","2403498","2018-10-26 16:00","2018","10","26","16:00","-11.0","","-12.5","","89","","","","14","","40","","24.1","","101.51","","","","-22","","Snow,Blowing Snow"
"-94.97","74.72","RESOLUTE BAY A","2403498","2018-10-26 17:00","2018","10","26","17:00","-11.6","","-13.2","","88","","","","14","","38","","24.1","","101.44","","","","-23","","Snow,Blowing Snow"
"-94.97","74.72","RESOLUTE BAY A","2403498","2018-10-26 18:00","2018","10","26","18:00","-11.9","","-13.5","","88","","","","14","","39","","24.1","","101.36","","","","-23","","Snow,Blowing Snow"
"-94.97","74.72","RESOLUTE BAY A","2403498","2018-10-26 19:00","2018","10","26","19:00","-13.7","","-15.4","","87","","","","12","","28","","24.1","","101.25","","","","-24","","Snow,Blowing Snow"
"-94.97","74.72","RESOLUTE BAY A","2403498","2018-10-26 20:00","2018","10","26","20:00","-13.7","","-15.4","","87","","","","13","","25","","16.1","","101.19","","","","-24","","NA"
"-94.97","74.72","RESOLUTE BAY A","2403498","2018-10-26 21:00","2018","10","26","21:00","-12.9","","-14.6","","87","","","","14","","14","","16.1","","101.09","","","","-20","","Mainly Clear"
"-94.97","74.72","RESOLUTE BAY A","2403498","2018-10-26 22:00","2018","10","26","22:00","-12.5","","-14.1","","88","","","","13","","23","","16.1","","101.02","","","","-22","","Snow"
"-94.97","74.72","RESOLUTE BAY A","2403498","2018-10-26 23:00","2018","10","26","23:00","-12.5","","-14.2","","88","","","","14","","23","","16.1","","100.92","","","","-22","","Snow"
"-94.97","74.72","RESOLUTE BAY A","2403498","2018-10-27 00:00","2018","10","27","00:00"
"-94.97","74.72","RESOLUTE BAY A","2403498","2018-10-27 01:00","2018","10","27","01:00","-15.9","","-17.9","","85","","","","12","","20","","16.1","","100.80","","","","-25","","Snow"
"-94.97","74.72","RESOLUTE BAY A","2403498","2018-10-27 02:00","2018","10","27","02:00","-16.1","","-18.1","","85","","","","12","","24","","16.1","","100.75","","","","-26","","NA"
"-94.97","74.72","RESOLUTE BAY A","2403498","2018-10-27 03:00","2018","10","27","03:00"
"-94.97","74.72","RESOLUTE BAY A","2403498","2018-10-27 04:00","2018","10","27","04:00","-15.4","","-17.4","","85","","","","11","","18","","16.1","","100.66","","","","-24","","NA"
"-94.97","74.72","RESOLUTE BAY A","2403498","2018-10-27 05:00","2018","10","27","05:00","-16.1","","-18.1","","85","","","","10","","17","","16.1","","100.61","","","","-25","","NA"
"-94.97","74.72","RESOLUTE BAY A","2403498","2018-10-27 06:00","2018","10","27","06:00","-16.2","","-18.3","","84","","","","10","","18","","16.1","","100.58","","","","-25","","Mainly Clear"
"-94.97","74.72","RESOLUTE BAY A","2403498","2018-10-27 07:00","2018","10","27","07:00","-17.0","","-19.1","","84","","","","9","","16","","16.1","","100.57","","","","-26","","NA"
"-94.97","74.72","RESOLUTE BAY A","2403498","2018-10-27 08:00","2018","10","27","08:00","-16.9","","-19.0","","84","","","","9","","17","","19.3","","100.54","","","","-26","","NA"
"-94.97","74.72","RESOLUTE BAY A","2403498","2018-10-27 09:00","2018","10","27","09:00","-16.1","","-18.1","","85","","","","11","","14","","12.9","","100.55","","","","-24","","Cloudy"
"-94.97","74.72","RESOLUTE BAY A","2403498","2018-10-27 10:00","2018","10","27","10:00","-15.9","","-17.9","","85","","","","10","","10","","0.8","","100.55","","","","-22","","Freezing Fog"
"-94.97","74.72","RESOLUTE BAY A","2403498","2018-10-27 11:00","2018","10","27","11:00","-16.9","","-18.9","","84","","","","16","","3","","3.2","","100.54","","","","-19","","Fog"
"-94.97","74.72","RESOLUTE BAY A","2403498","2018-10-27 12:00","2018","10","27","12:00","-17.2","","-19.3","","84","","","","36","","3","","3.2","","100.52","","","","-20","","Fog"
"-94.97","74.72","RESOLUTE BAY A","2403498","2018-10-27 13:00","2018","10","27","13:00","-17.5","","-19.7","","84","","","","36","","1","","4.0","","100.52","","","","-18","","Ice Crystals,Fog"
"-94.97","74.72","RESOLUTE BAY A","2403498","2018-10-27 14:00","2018","10","27","14:00","-17.4","","-19.6","","84","","","","8","","3","","14.5","","100.52","","","","-20","","Ice Crystals"
"-94.97","74.72","RESOLUTE BAY A","2403498","2018-10-27 15:00","2018","10","27","15:00","-19.0","","-21.2","","83","","","","1","","5","","1.0","","100.53","","","","-23","","Ice Crystals,Fog"
"-94.97","74.72","RESOLUTE BAY A","2403498","2018-10-27 16:00","2018","10","27","16:00","-18.9","","-21.2","","83","","","","34","","5","","1.0","","100.53","","","","-23","","Ice Crystals,Fog"
"-94.97","74.72","RESOLUTE BAY A","2403498","2018-10-27 17:00","2018","10","27","17:00","-19.1","","-21.4","","82","","","","32","","5","","3.2","","100.56","","","","-23","","Ice Crystals,Fog"
"-94.97","74.72","RESOLUTE BAY A","2403498","2018-10-27 18:00","2018","10","27","18:00","-19.4","","-21.8","","81","","","","36","","1","","4.8","","100.54","","","","-20","","Ice Crystals,Fog"
"-94.97","74.72","RESOLUTE BAY A","2403498","2018-10-27 19:00","2018","10","27","19:00","-20.3","","-22.8","","81","","","","34","","8","","0.8","","100.54","","","","-27","","Freezing Fog"
"-94.97","74.72","RESOLUTE BAY A","2403498","2018-10-27 20:00","2018","10","27","20:00","-20.6","","-23.0","","81","","","","34","","6","","0.8","","100.55","","","","-26","","Freezing Fog"
"-94.97","74.72","RESOLUTE BAY A","2403498","2018-10-27 21:00","2018","10","27","21:00","-21.8","","-24.4","","80","","","","34","","9","","2.4","","100.54","","","","-29","","Fog"
"-94.97","74.72","RESOLUTE BAY A","2403498","2018-10-27 22:00","2018","10","27","22:00","-21.7","","-24.2","","81","","","","34","","12","","2.4","","100.55","","","","-30","","Fog"
"-94.97","74.72","RESOLUTE BAY A","2403498","2018-10-27 23:00","2018","10","27","23:00","-21.2","","-23.7","","81","","","","34","","9","","2.4","","100.55","","","","-28","","Fog"
"-94.97","74.72","RESOLUTE BAY A","2403498","2018-10-28 00:00","2018","10","28","00:00","-21.1","","-23.7","","80","","","","34","","9","","3.2","","100.57","","","","-28","","Fog"
"-94.97","74.72","RESOLUTE BAY A","2403498","2018-10-28 01:00","2018","10","28","01:00","-20.2","","-22.6","","81","","","","35","","7","","2.4","","100.58","","","","-26","","Fog"
"-94.97","74.72","RESOLUTE BAY A","2403498","2018-10-28 02:00","2018","10","28","02:00","-20.8","","-23.3","","81","","","","34","","9","","2.4","","100.60","","","","-28","","Fog"
"-94.97","74.72","RESOLUTE BAY A","2403498","2018-10-28 03:00","2018","10","28","03:00","-19.2","","-21.6","","82","","","","35","","8","","2.4","","100.61","","","","-25","","Fog"
"-94.97","74.72","RESOLUTE BAY A","2403498","2018-10-28 04:00","2018","10","28","04:00","-18.1","","-20.3","","83","","","","36","","1","","2.4","","100.62","","","","-19","","Fog"
"-94.97","74.72","RESOLUTE BAY A","2403498","2018-10-28 05:00","2018","10","28","05:00","-18.3","","-20.5","","83","","","","13","","7","","1.2","","100.63","","","","-24","","Fog"
"-94.97","74.72","RESOLUTE BAY A","2403498","2018-10-28 06:00","2018","10","28","06:00"
"-94.97","74.72","RESOLUTE BAY A","2403498","2018-10-28 07:00","2018","10","28","07:00","-17.3","","-19.4","","83","","","","16","","4","","0.8","","100.64","","","","-20","","Fog"
"-94.97","74.72","RESOLUTE BAY A","2403498","2018-10-28 08:00","2018","10","28","08:00","-17.1","","-19.2","","83","","","","13","","8","","0.8","","100.65","","","","-23","","Fog"
"-94.97","74.72","RESOLUTE BAY A","2403498","2018-10-28 09:00","2018","10","28","09:00","-15.8","","-17.8","","85","","","","20","","10","","4.8","","100.65","","","","-22","","Fog"
"-94.97","74.72","RESOLUTE BAY A","2403498","2018-10-28 10:00","2018","10","28","10:00","-15.2","","-17.2","","85","","","","17","","8","","6.4","","100.65","","","","-21","","Fog"
"-94.97","74.72","RESOLUTE BAY A","2403498","2018-10-28 11:00","2018","10","28","11:00","-14.7","","-16.6","","86","","","","22","","5","","6.4","","100.68","","","","-18","","Fog"
"-94.97","74.72","RESOLUTE BAY A","2403498","2018-10-28 12:00","2018","10","28","12:00","-14.2","","-16.0","","86","","","","21","","9","","11.3","","100.70","","","","-20","","Snow"
"-94.97","74.72","RESOLUTE BAY A","2403498","2018-10-28 13:00","2018","10","28","13:00","-13.8","","-15.6","","86","","","","19","","17","","14.5","","100.70","","","","-22","","Snow"
"-94.97","74.72","RESOLUTE BAY A","2403498","2018-10-28 14:00","2018","10","28","14:00","-13.3","","-15.0","","87","","","","18","","15","","11.3","","100.71","","","","-21","","Snow"
"-94.97","74.72","RESOLUTE BAY A","2403498","2018-10-28 15:00","2018","10","28","15:00","-12.8","","-14.5","","87","","","","18","","17","","14.5","","100.73","","","","-21","","Snow"
"-94.97","74.72","RESOLUTE BAY A","2403498","2018-10-28 16:00","2018","10","28","16:00","-13.2","","-14.9","","87","","","","16","","10","","24.1","","100.76","","","","-19","","NA"
"-94.97","74.72","RESOLUTE BAY A","2403498","2018-10-28 17:00","2018","10","28","17:00","-13.1","","-14.8","","87","","","","15","","8","","24.1","","100.75","","","","-18","","NA"
"-94.97","74.72","RESOLUTE BAY A","2403498","2018-10-28 18:00","2018","10","28","18:00","-12.9","","-14.6","","87","","","","16","","14","","24.1","","100.77","","","","-20","","Mostly Cloudy"
"-94.97","74.72","RESOLUTE BAY A","2403498","2018-10-28 19:00","2018","10","28","19:00","-12.6","","-14.2","","87","","","","16","","17","","24.1","","100.82","","","","-20","","NA"
"-94.97","74.72","RESOLUTE BAY A","2403498","2018-10-28 20:00","2018","10","28","20:00","-12.7","","-14.4","","87","","","","16","","20","","16.1","","100.84","","","","-21","","NA"
"-94.97","74.72","RESOLUTE BAY A","2403498","2018-10-28 21:00","2018","10","28","21:00","-12.6","","-14.2","","87","","","","19","","17","","16.1","","100.87","","","","-20","","Snow"
"-94.97","74.72","RESOLUTE BAY A","2403498","2018-10-28 22:00","2018","10","28","22:00","-12.7","","-14.4","","87","","","","17","","16","","16.1","","100.92","","","","-20","","Snow"
"-94.97","74.72","RESOLUTE BAY A","2403498","2018-10-28 23:00","2018","10","28","23:00","-12.9","","-14.6","","87","","","","18","","20","","16.1","","100.92","","","","-22","","Snow"
"-94.97","74.72","RESOLUTE BAY A","2403498","2018-10-29 00:00","2018","10","29","00:00","-13.6","","-15.4","","87","","","","15","","14","","16.1","","100.93","","","","-21","","Snow"
"-94.97","74.72","RESOLUTE BAY A","2403498","2018-10-29 01:00","2018","10","29","01:00","-12.8","","-14.4","","87","","","","19","","20","","16.1","","100.96","","","","-21","","Snow"
"-94.97","74.72","RESOLUTE BAY A","2403498","2018-10-29 02:00","2018","10","29","02:00","-12.5","","-14.1","","88","","","","18","","20","","16.1","","100.98","","","","-21","","Snow"
"-94.97","74.72","RESOLUTE BAY A","2403498","2018-10-29 03:00","2018","10","29","03:00","-12.2","","-13.9","","88","","","","19","","13","","16.1","","101.03","","","","-19","","Snow"
"-94.97","74.72","RESOLUTE BAY A","2403498","2018-10-29 04:00","2018","10","29","04:00","-12.5","","-14.2","","88","","","","18","","20","","16.1","","101.05","","","","-21","","Snow"
"-94.97","74.72","RESOLUTE BAY A","2403498","2018-10-29 05:00","2018","10","29","05:00","-12.4","","-14.0","","88","","","","17","","22","","16.1","","101.08","","","","-21","","Snow"
"-94.97","74.72","RESOLUTE BAY A","2403498","2018-10-29 06:00","2018","10","29","06:00","-11.7","","-13.2","","88","","","","17","","26","","16.1","","101.09","","","","-21","","Snow"
"-94.97","74.72","RESOLUTE BAY A","2403498","2018-10-29 07:00","2018","10","29","07:00","-11.4","","-12.9","","89","","","","18","","32","","16.1","","101.07","","","","-22","","Snow"
"-94.97","74.72","RESOLUTE BAY A","2403498","2018-10-29 08:00","2018","10","29","08:00","-11.0","","-12.5","","89","","","","19","","36","","24.1","","101.09","","","","-22","","Snow"
"-94.97","74.72","RESOLUTE BAY A","2403498","2018-10-29 09:00","2018","10","29","09:00","-11.0","","-12.5","","89","","","","19","","34","","24.1","","101.10","","","","-21","","Snow"
"-94.97","74.72","RESOLUTE BAY A","2403498","2018-10-29 10:00","2018","10","29","10:00","-10.6","","-12.1","","89","","","","19","","36","","16.1","","101.10","","","","-21","","Snow"
"-94.97","74.72","RESOLUTE BAY A","2403498","2018-10-29 11:00","2018","10","29","11:00","-10.5","","-11.9","","89","","","","18","","28","","14.5","","101.14","","","","-20","","Snow,Blowing Snow"
"-94.97","74.72","RESOLUTE BAY A","2403498","2018-10-29 12:00","2018","10","29","12:00","-10.2","","-11.6","","90","","","","17","","28","","4.0","","101.18","","","","-19","","Snow Showers,Blowing Snow"
"-94.97","74.72","RESOLUTE BAY A","2403498","2018-10-29 13:00","2018","10","29","13:00","-10.2","","-11.6","","90","","","","18","","26","","4.0","","101.21","","","","-19","","Snow Showers,Blowing Snow"
"-94.97","74.72","RESOLUTE BAY A","2403498","2018-10-29 14:00","2018","10","29","14:00","-10.1","","-11.5","","90","","","","18","","21","","4.0","","101.26","","","","-18","","Snow Showers,Blowing Snow"
"-94.97","74.72","RESOLUTE BAY A","2403498","2018-10-29 15:00","2018","10","29","15:00","-9.9","","-11.3","","90","","","","18","","23","","8.1","","101.30","","","","-18","","Snow Showers"
"-94.97","74.72","RESOLUTE BAY A","2403498","2018-10-29 16:00","2018","10","29","16:00","-10.8","","-12.3","","89","","","","18","","17","","9.7","","101.34","","","","-18","","Snow Showers"
"-94.97","74.72","RESOLUTE BAY A","2403498","2018-10-29 17:00","2018","10","29","17:00","-10.3","","-11.7","","90","","","","18","","21","","9.7","","101.36","","","","-18","","Snow"
"-94.97","74.72","RESOLUTE BAY A","2403498","2018-10-29 18:00","2018","10","29","18:00","-10.2","","-11.6","","90","","","","18","","22","","11.3","","101.36","","","","-18","","Snow"
"-94.97","74.72","RESOLUTE BAY A","2403498","2018-10-29 19:00","2018","10","29","19:00","-10.1","","-11.5","","90","","","","18","","24","","11.3","","101.36","","","","-19","","Snow"
"-94.97","74.72","RESOLUTE BAY A","2403498","2018-10-29 20:00","2018","10","29","20:00","-10.2","","-11.6","","90","","","","18","","26","","16.1","","101.39","","","","-19","","Snow"
"-94.97","74.72","RESOLUTE BAY A","2403498","2018-10-29 21:00","2018","10","29","21:00","-10.4","","-11.8","","89","","","","19","","22","","16.1","","101.40","","","","-19","","Snow"
"-94.97","74.72","RESOLUTE BAY A","2403498","2018-10-29 22:00","2018","10","29","22:00"
"-94.97","74.72","RESOLUTE BAY A","2403498","2018-10-29 23:00","2018","10","29","23:00","-10.5","","-11.9","","89","","","","18","","21","","16.1","","101.43","","","","-19","","Snow"
"-94.97","74.72","RESOLUTE BAY A","2403498","2018-10-30 00:00","2018","10","30","00:00","-10.6","","-12.0","","89","","","","17","","20","","16.1","","101.45","","","","-19","","Snow"
"-94.97","74.72","RESOLUTE BAY A","2403498","2018-10-30 01:00","2018","10","30","01:00","-10.7","","-12.1","","89","","","","18","","23","","16.1","","101.48","","","","-19","","Snow"
"-94.97","74.72","RESOLUTE BAY A","2403498","2018-10-30 02:00","2018","10","30","02:00","-10.6","","-12.1","","89","","","","19","","21","","16.1","","101.50","","","","-19","","Snow"
"-94.97","74.72","RESOLUTE BAY A","2403498","2018-10-30 03:00","2018","10","30","03:00","-10.7","","-12.1","","89","","","","18","","20","","17.7","","101.50","","","","-19","","Snow"
"-94.97","74.72","RESOLUTE BAY A","2403498","2018-10-30 04:00","2018","10","30","04:00","-10.6","","-12.0","","89","","","","17","","22","","16.1","","101.51","","","","-19","","Snow"
"-94.97","74.72","RESOLUTE BAY A","2403498","2018-10-30 05:00","2018","10","30","05:00","-10.5","","-11.9","","89","","","","16","","19","","16.1","","101.51","","","","-18","","Snow"
"-94.97","74.72","RESOLUTE BAY A","2403498","2018-10-30 06:00","2018","10","30","06:00","-10.4","","-11.9","","89","","","","17","","14","","16.1","","101.53","","","","-17","","Snow"
"-94.97","74.72","RESOLUTE BAY A","2403498","2018-10-30 07:00","2018","10","30","07:00","-10.4","","-11.8","","89","","","","16","","18","","16.1","","101.53","","","","-18","","Snow"
"-94.97","74.72","RESOLUTE BAY A","2403498","2018-10-30 08:00","2018","10","30","08:00","-10.4","","-11.9","","89","","","","16","","19","","16.1","","101.53","","","","-18","","Snow"
"-94.97","74.72","RESOLUTE BAY A","2403498","2018-10-30 09:00","2018","10","30","09:00","-10.3","","-11.8","","90","","","","16","","18","","16.1","","101.52","","","","-18","","Snow"
"-94.97","74.72","RESOLUTE BAY A","2403498","2018-10-30 10:00","2018","10","30","10:00","-10.3","","-11.7","","90","","","","16","","20","","16.1","","101.52","","","","-18","","Snow"
"-94.97","74.72","RESOLUTE BAY A","2403498","2018-10-30 11:00","2018","10","30","11:00","-10.2","","-11.7","","90","","","","16","","18","","16.1","","101.54","","","","-18","","Snow"
"-94.97","74.72","RESOLUTE BAY A","2403498","2018-10-30 12:00","2018","10","30","12:00","-10.1","","-11.5","","90","","","","16","","16","","16.1","","101.54","","","","-17","","Snow"
"-94.97","74.72","RESOLUTE BAY A","2403498","2018-10-30 13:00","2018","10","30","13:00","-10.1","","-11.5","","90","","","","15","","17","","16.1","","101.55","","","","-17","","Snow"
"-94.97","74.72","RESOLUTE BAY A","2403498","2018-10-30 14:00","2018","10","30","14:00","-10.1","","-11.5","","90","","","","16","","15","","16.1","","101.57","","","","-17","","Snow"
"-94.97","74.72","RESOLUTE BAY A","2403498","2018-10-30 15:00","2018","10","30","15:00","-10.1","","-11.5","","90","","","","13","","15","","24.1","","101.60","","","","-17","","Snow"
"-94.97","74.72","RESOLUTE BAY A","2403498","2018-10-30 16:00","2018","10","30","16:00","-9.9","","-11.3","","90","","","","14","","12","","24.1","","101.61","","","","-16","","Snow"
"-94.97","74.72","RESOLUTE BAY A","2403498","2018-10-30 17:00","2018","10","30","17:00","-9.8","","-11.1","","90","","","","11","","9","","24.1","","101.62","","","","-15","","Snow"
"-94.97","74.72","RESOLUTE BAY A","2403498","2018-10-30 18:00","2018","10","30","18:00","-9.4","","-10.7","","90","","","","12","","7","","24.1","","101.61","","","","-13","","Snow"
"-94.97","74.72","RESOLUTE BAY A","2403498","2018-10-30 19:00","2018","10","30","19:00","-9.1","","-10.4","","91","","","","36","","2","","19.3","","101.61","","","","-10","","Snow"
"-94.97","74.72","RESOLUTE BAY A","2403498","2018-10-30 20:00","2018","10","30","20:00","-9.8","","-11.2","","90","","","","26","","9","","24.1","","101.59","","","","-15","","Snow"
"-94.97","74.72","RESOLUTE BAY A","2403498","2018-10-30 21:00","2018","10","30","21:00","-10.2","","-11.7","","90","","","","26","","7","","24.1","","101.57","","","","-14","","Snow"
"-94.97","74.72","RESOLUTE BAY A","2403498","2018-10-30 22:00","2018","10","30","22:00","-11.5","","-13.1","","88","","","","32","","6","","24.1","","101.59","","","","-15","","Snow"
"-94.97","74.72","RESOLUTE BAY A","2403498","2018-10-30 23:00","2018","10","30","23:00","-12.3","","-13.9","","88","","","","33","","7","","4.8","","101.59","","","","-17","","Snow,Fog"
"-94.97","74.72","RESOLUTE BAY A","2403498","2018-10-31 00:00","2018","10","31","00:00","-12.1","","-13.7","","88","","","","33","","9","","4.0","","101.61","","","","-17","","Snow,Fog"
"-94.97","74.72","RESOLUTE BAY A","2403498","2018-10-31 01:00","2018","10","31","01:00","-12.0","","-13.6","","88","","","","28","","11","","0.8","","101.64","","","","-18","","Snow,Freezing Fog"
"-94.97","74.72","RESOLUTE BAY A","2403498","2018-10-31 02:00","2018","10","31","02:00","-12.3","","-13.9","","88","","","","29","","5","","0.8","","101.65","","","","-16","","Snow,Freezing Fog"
"-94.97","74.72","RESOLUTE BAY A","2403498","2018-10-31 03:00","2018","10","31","03:00","-12.3","","-13.9","","88","","","","36","","3","","0.4","","101.65","","","","-14","","Snow,Freezing Fog"
"-94.97","74.72","RESOLUTE BAY A","2403498","2018-10-31 04:00","2018","10","31","04:00","-12.8","","-14.5","","87","","","","24","","6","","0.6","","101.66","","","","-17","","Snow,Freezing Fog"
"-94.97","74.72","RESOLUTE BAY A","2403498","2018-10-31 05:00","2018","10","31","05:00","-14.0","","-15.8","","86","","","","36","","2","","0.8","","101.66","","","","-15","","Snow,Freezing Fog"
"-94.97","74.72","RESOLUTE BAY A","2403498","2018-10-31 06:00","2018","10","31","06:00","-15.8","","-17.9","","84","","","","33","","4","","0.8","","101.67","","","","-19","","Snow,Freezing Fog"
"-94.97","74.72","RESOLUTE BAY A","2403498","2018-10-31 07:00","2018","10","31","07:00","-16.4","","-18.6","","84","","","","34","","8","","0.8","","101.65","","","","-22","","Snow,Freezing Fog"
"-94.97","74.72","RESOLUTE BAY A","2403498","2018-10-31 08:00","2018","10","31","08:00","-16.4","","-18.3","","85","","","","36","","9","","1.2","","101.66","","","","-22","","Ice Crystals,Fog"
"-94.97","74.72","RESOLUTE BAY A","2403498","2018-10-31 09:00","2018","10","31","09:00","-15.6","","-17.5","","85","","","","2","","7","","0.8","","101.66","","","","-21","","Ice Crystals,Freezing Fog"
"-94.97","74.72","RESOLUTE BAY A","2403498","2018-10-31 10:00","2018","10","31","10:00","-17.7","","-20.0","","82","","","","36","","9","","0.8","","101.70","","","","-24","","Ice Crystals,Freezing Fog"
"-94.97","74.72","RESOLUTE BAY A","2403498","2018-10-31 11:00","2018","10","31","11:00","-17.4","","-19.6","","83","","","","35","","8","","0.8","","101.70","","","","-23","","Ice Crystals,Freezing Fog"
"-94.97","74.72","RESOLUTE BAY A","2403498","2018-10-31 12:00","2018","10","31","12:00","-15.9","","-17.8","","85","","","","32","","10","","4.8","","101.71","","","","-22","","Ice Crystals,Fog"
"-94.97","74.72","RESOLUTE BAY A","2403498","2018-10-31 13:00","2018","10","31","13:00","-16.2","","-18.2","","84","","","","33","","13","","6.4","","101.74","","","","-24","","Ice Crystals,Fog"
"-94.97","74.72","RESOLUTE BAY A","2403498","2018-10-31 14:00","2018","10","31","14:00","-17.2","","-19.4","","83","","","","35","","13","","6.4","","101.78","","","","-25","","Ice Crystals,Fog"
"-94.97","74.72","RESOLUTE BAY A","2403498","2018-10-31 15:00","2018","10","31","15:00","-15.5","","-17.4","","86","","","","34","","14","","4.8","","101.82","","","","-23","","Ice Crystals,Fog"
"-94.97","74.72","RESOLUTE BAY A","2403498","2018-10-31 16:00","2018","10","31","16:00","-15.0","","-16.9","","85","","","","34","","11","","0.8","","101.83","","","","-22","","Ice Crystals,Freezing Fog"
"-94.97","74.72","RESOLUTE BAY A","2403498","2018-10-31 17:00","2018","10","31","17:00","-14.5","","-16.3","","86","","","","33","","5","","0.8","","101.84","","","","-18","","Ice Crystals,Freezing Fog"
"-94.97","74.72","RESOLUTE BAY A","2403498","2018-10-31 18:00","2018","10","31","18:00","-14.4","","-16.3","","86","","","","33","","8","","0.8","","101.83","","","","-20","","Ice Crystals,Freezing Fog"
"-94.97","74.72","RESOLUTE BAY A","2403498","2018-10-31 19:00","2018","10","31","19:00","-16.1","","-18.1","","85","","","","36","","7","","0.8","","101.86","","","","-21","","Ice Crystals,Freezing Fog"
"-94.97","74.72","RESOLUTE BAY A","2403498","2018-10-31 20:00","2018","10","31","20:00","-14.5","","-16.4","","86","","","","35","","13","","24.1","","101.85","","","","-22","","Snow"
"-94.97","74.72","RESOLUTE BAY A","2403498","2018-10-31 21:00","2018","10","31","21:00","-14.3","","-16.1","","86","","","","35","","12","","8.1","","101.86","","","","-21","","Snow,Fog"
"-94.97","74.72","RESOLUTE BAY A","2403498","2018-10-31 22:00","2018","10","31","22:00","-14.7","","-16.6","","86","","","","34","","11","","16.1","","101.84","","","","-21","","Snow"
"-94.97","74.72","RESOLUTE BAY A","2403498","2018-10-31 23:00","2018","10","31","23:00","-14.9","","-16.9","","85","","","","32","","10","","24.1","","101.82","","","","-21","","Snow"
