"Longitude (x)","Latitude (y)","Station Name","Climate ID","Date/Time (LST)","Year","Month","Day","Time (LST)","Temp (°C)","Temp Flag","Dew Point Temp (°C)","Dew Point Temp Flag","Rel Hum (%)","Rel Hum Flag","Precip. Amount (mm)","Precip. Amount Flag","Wind Dir (10s deg)","Wind Dir Flag","Wind Spd (km/h)","Wind Spd Flag","Visibility (km)","Visibility Flag","Stn Press (kPa)","Stn Press Flag","Hmdx","Hmdx Flag","Wind Chill","Wind Chill Flag","Weather"
"-99.95","49.91","BRANDON A","5010481","2018-12-01 00:00","2018","12","01","00:00","-5.4","","-6.4","","93","","","","12","","13","","0.8","","96.62","","","","-11","","Freezing Fog"
"-99.95","49.91","BRANDON A","5010481","2018-12-01 01:00","2018","12","01","01:00","-5.9","","-6.9","","92","","","","11","","10","","0.8","","96.60","","","","-10","","Freezing Fog"
"-99.95","49.91","BRANDON A","5010481","2018-12-01 02:00","2018","12","01","02:00","-6.5","","-7.7","","92","","","","11","","10","","1.2","","96.62","","","","-11","","Fog"
"-99.95","49.91","BRANDON A","5010481","2018-12-01 03:00","2018","12","01","03:00","-6.4","","-7.6","","91","","","","11","","10","","2.4","","96.65","","","","-11","","Fog"
"-99.95","49.91","BRANDON A","5010481","2018-12-01 04:00","2018","12","01","04:00","-6.4","","-7.5","","92","","","","10","","13","","3.2","","96.62","","","","-12","","Fog"
"-99.95","49.91","BRANDON A","5010481","2018-12-01 05:00","2018","12","01","05:00","-6.5","","-7.7","","91","","","","10","","8","","1.6","","96.63","","","","-10","","Fog"
"-99.95","49.91","BRANDON A","5010481","2018-12-01 06:00","2018","12","01","06:00","-6.8","","-8.0","","91","","","","10","","9","","2.0","","96.72","","","","-11","","Fog"
"-99.95","49.91","BRANDON A","5010481","2018-12-01 07:00","2018","12","01","07:00","-6.8","","-8.1","","91","","","","8","","17","","0.8","","96.78","","","","-13","","Freezing Fog"
"-99.95","49.91","BRANDON A","5010481","2018-12-01 08:00","2018","12","01","08:00","-7.0","","-8.3","","91","","","","7","","20","","1.2","","96.78","","","","-14","","Fog"
"-99.95","49.91","BRANDON A","5010481","2018-12-01 09:00","2018","12","01","09:00","-7.0","","-8.3","","91","","","","7","","17","","0.6","","96.79","","","","-13","","Freezing Fog"
"-99.95","49.91","BRANDON A","5010481","2018-12-01 10:00","2018","12","01","10:00","-6.7","","-7.9","","91","","","","7","","21","","0.6","","96.80","","","","-14","","Freezing Fog"
"-99.95","49.91","BRANDON A","5010481","2018-12-01 11:00","2018","12","01","11:00","-6.0","","-7.2","","91","","","","7","","19","","0.4","","96.80","","","","-13","","Freezing Fog"
"-99.95","49.91","BRANDON A","5010481","2018-12-01 12:00","2018","12","01","12:00","-5.8","","-6.9","","92","","","","6","","16","","0.6","","96.76","","","","-12","","Freezing Fog"
"-99.95","49.91","BRANDON A","5010481","2018-12-01 13:00","2018","12","01","13:00","-6.1","","-7.3","","92","","","","7","","22","","0.6","","96.74","","","","-13","","Freezing Fog"
"-99.95","49.91","BRANDON A","5010481","2018-12-01 14:00","2018","12","01","14:00","-6.3","","-7.5","","91","","","","7","","21","","0.8","","96.73","","","","-13","","Freezing Fog"
"-99.95","49.91","BRANDON A","5010481","2018-12-01 15:00","2018","12","01","15:00","-6.5","","-7.7","","91","","","","7","","23","","0.6","","96.77","","","","-14","","Freezing Fog"
"-99.95","49.91","BRANDON A","5010481","2018-12-01 16:00","2018","12","01","16:00","-6.9","","-8.1","","91","","","","7","","25","","0.6","","96.81","","","","-15","","Freezing Fog"
"-99.95","49.91","BRANDON A","5010481","2018-12-01 17:00","2018","12","01","17:00","-7.5","","-8.8","","90","","","","8","","26","","0.6","","96.87","","","","-16","","Freezing Fog"
"-99.95","49.91","BRANDON A","5010481","2018-12-01 18:00","2018","12","01","18:00","-7.6","","-8.9","","90","","","","8","","31","","0.6","","96.92","","","","-17","","Freezing Fog"
"-99.95","49.91","BRANDON A","5010481","2018-12-01 19:00","2018","12","01","19:00","-8.0","","-9.4","","90","","","","8","","25","","0.6","","96.97","","","","-16","","Freezing Fog"
"-99.95","49.91","BRANDON A","5010481","2018-12-01 20:00","2018","12","01","20:00","-8.0","","-9.4","","90","","","","8","","18","","0.6","","97.01","","","","-15","","Freezing Fog"
"-99.95","49.91","BRANDON A","5010481","2018-12-01 21:00","2018","12","01","21:00","-8.1","","-9.5","","89","","","","8","","22","","0.6","","97.02","","","","-16","","Freezing Fog"
"-99.95","49.91","BRANDON A","5010481","2018-12-01 22:00","2018","12","01","22:00","-8.3","","-9.8","","89","","","","7","","23","","0.6","","97.02","","","","-16","","Freezing Fog"
"-99.95","49.91","BRANDON A","5010481","2018-12-01 23:00","2018","12","01","23:00","-8.6","","-10.1","","89","","","","6","","28","","0.6","","97.01","","","","-17","","Freezing Fog"
"-99.95","49.91","BRANDON A","5010481","2018-12-02 00:00","2018","12","02","00:00","-8.9","","-10.5","","89","","","","7","","19","","0.8","","97.03","","","","-16","","Freezing Fog"
"-99.95","49.91","BRANDON A","5010481","2018-12-02 01:00","2018","12","02","01:00","-9.4","","-11.0","","88","","","","6","","18","","0.6","","97.02","","","","-17","","Freezing Fog"
"-99.95","49.91","BRANDON A","5010481","2018-12-02 02:00","2018","12","02","02:00","-9.5","","-11.2","","88","","","","6","","16","","0.6","","97.04","","","","-16","","Freezing Fog"
"-99.95","49.91","BRANDON A","5010481","2018-12-02 03:00","2018","12","02","03:00","-9.7","","-11.4","","88","","","","6","","25","","0.8","","97.06","","","","-18","","Freezing Fog"
"-99.95","49.91","BRANDON A","5010481","2018-12-02 04:00","2018","12","02","04:00","-9.6","","-11.2","","88","","","","6","","26","","0.6","","97.04","","","","-18","","Freezing Fog"
"-99.95","49.91","BRANDON A","5010481","2018-12-02 05:00","2018","12","02","05:00","-9.2","","-10.9","","88","","","","5","","19","","0.8","","97.06","","","","-17","","Freezing Fog"
"-99.95","49.91","BRANDON A","5010481","2018-12-02 06:00","2018","12","02","06:00","-9.0","","-10.6","","88","","","","5","","17","","1.6","","97.07","","","","-16","","Fog"
"-99.95","49.91","BRANDON A","5010481","2018-12-02 07:00","2018","12","02","07:00","-8.7","","-10.2","","89","","","","6","","18","","1.6","","97.14","","","","-16","","Fog"
"-99.95","49.91","BRANDON A","5010481","2018-12-02 08:00","2018","12","02","08:00","-8.4","","-10.0","","89","","","","7","","14","","1.6","","97.18","","","","-15","","Fog"
"-99.95","49.91","BRANDON A","5010481","2018-12-02 09:00","2018","12","02","09:00","-8.1","","-9.6","","89","","","","3","","10","","4.8","","97.21","","","","-13","","Fog"
"-99.95","49.91","BRANDON A","5010481","2018-12-02 10:00","2018","12","02","10:00","-8.7","","-10.3","","89","","","","33","","9","","8.1","","97.26","","","","-13","","Fog"
"-99.95","49.91","BRANDON A","5010481","2018-12-02 11:00","2018","12","02","11:00","-7.9","","-9.4","","89","","","","33","","7","","8.1","","97.29","","","","-12","","Fog"
"-99.95","49.91","BRANDON A","5010481","2018-12-02 12:00","2018","12","02","12:00","-7.5","","-8.9","","89","","","","34","","8","","12.9","","97.28","","","","-12","","Cloudy"
"-99.95","49.91","BRANDON A","5010481","2018-12-02 13:00","2018","12","02","13:00","-7.3","","-8.7","","90","","","","34","","7","","12.9","","97.28","","","","-11","","NA"
"-99.95","49.91","BRANDON A","5010481","2018-12-02 14:00","2018","12","02","14:00","-6.6","","-7.9","","91","","","","5","","12","","16.1","","97.27","","","","-12","","NA"
"-99.95","49.91","BRANDON A","5010481","2018-12-02 15:00","2018","12","02","15:00","-6.6","","-7.8","","91","","","","6","","15","","19.3","","97.28","","","","-13","","Cloudy"
"-99.95","49.91","BRANDON A","5010481","2018-12-02 16:00","2018","12","02","16:00","-6.6","","-7.8","","91","","","","6","","11","","19.3","","97.33","","","","-12","","NA"
"-99.95","49.91","BRANDON A","5010481","2018-12-02 17:00","2018","12","02","17:00","-6.7","","-7.9","","91","","","","6","","9","","19.3","","97.37","","","","-11","","NA"
"-99.95","49.91","BRANDON A","5010481","2018-12-02 18:00","2018","12","02","18:00","-6.7","","-8.0","","91","","","","7","","9","","19.3","","97.43","","","","-11","","Cloudy"
"-99.95","49.91","BRANDON A","5010481","2018-12-02 19:00","2018","12","02","19:00","-6.8","","-8.1","","91","","","","7","","7","","19.3","","97.47","","","","-10","","NA"
"-99.95","49.91","BRANDON A","5010481","2018-12-02 20:00","2018","12","02","20:00","-6.9","","-8.1","","91","","","","6","","5","","19.3","","97.49","","","","-9","","NA"
"-99.95","49.91","BRANDON A","5010481","2018-12-02 21:00","2018","12","02","21:00","-6.9","","-8.2","","91","","","","36","","3","","19.3","","97.50","","","","-8","","Cloudy"
"-99.95","49.91","BRANDON A","5010481","2018-12-02 22:00","2018","12","02","22:00","-7.0","","-8.2","","91","","","","36","","1","","19.3","","97.51","","","","-8","","NA"
"-99.95","49.91","BRANDON A","5010481","2018-12-02 23:00","2018","12","02","23:00","-7.0","","-8.3","","91","","","","36","","2","","19.3","","97.52","","","","-8","","NA"
"-99.95","49.91","BRANDON A","5010481","2018-12-03 00:00","2018","12","03","00:00","-7.0","","-8.3","","91","","","","36","","1","","24.1","","97.52","","","","-8","","Cloudy"
"-99.95","49.91","BRANDON A","5010481","2018-12-03 01:00","2018","12","03","01:00","-7.0","","-8.3","","91","","","","24","","5","","24.1","","97.55","","","","-10","","NA"
"-99.95","49.91","BRANDON A","5010481","2018-12-03 02:00","2018","12","03","02:00","-7.1","","-8.4","","91","","","","24","","5","","24.1","","97.53","","","","-10","","NA"
"-99.95","49.91","BRANDON A","5010481","2018-12-03 03:00","2018","12","03","03:00","-7.0","","-8.2","","91","","","","26","","8","","24.1","","97.56","","","","-11","","Cloudy"
"-99.95","49.91","BRANDON A","5010481","2018-12-03 04:00","2018","12","03","04:00","-6.7","","-8.0","","91","","","","28","","8","","19.3","","97.56","","","","-11","","NA"
"-99.95","49.91","BRANDON A","5010481","2018-12-03 05:00","2018","12","03","05:00","-6.6","","-7.8","","91","","","","26","","9","","19.3","","97.54","","","","-11","","NA"
"-99.95","49.91","BRANDON A","5010481","2018-12-03 06:00","2018","12","03","06:00","-6.6","","-7.8","","91","","","","28","","17","","19.3","","97.54","","","","-13","","Cloudy"
"-99.95","49.91","BRANDON A","5010481","2018-12-03 07:00","2018","12","03","07:00","-6.8","","-8.1","","91","","","","27","","14","","16.1","","97.55","","","","-13","","NA"
"-99.95","49.91","BRANDON A","5010481","2018-12-03 08:00","2018","12","03","08:00","-6.8","","-8.0","","91","","","","27","","14","","4.8","","97.52","","","","-13","","Fog"
"-99.95","49.91","BRANDON A","5010481","2018-12-03 09:00","2018","12","03","09:00","-6.6","","-7.8","","91","","","","27","","14","","1.6","","97.51","","","","-12","","Fog"
"-99.95","49.91","BRANDON A","5010481","2018-12-03 10:00","2018","12","03","10:00","-6.6","","-7.9","","91","","","","27","","18","","0.8","","97.50","","","","-13","","Freezing Fog"
"-99.95","49.91","BRANDON A","5010481","2018-12-03 11:00","2018","12","03","11:00","-6.5","","-7.8","","91","","","","27","","18","","0.8","","97.50","","","","-13","","Freezing Fog"
"-99.95","49.91","BRANDON A","5010481","2018-12-03 12:00","2018","12","03","12:00","-6.8","","-8.1","","91","","","","27","","18","","0.6","","97.46","","","","-13","","Freezing Fog"
"-99.95","49.91","BRANDON A","5010481","2018-12-03 13:00","2018","12","03","13:00","-7.2","","-8.5","","90","","","","29","","19","","0.6","","97.41","","","","-14","","Freezing Fog"
"-99.95","49.91","BRANDON A","5010481","2018-12-03 14:00","2018","12","03","14:00","-7.5","","-8.9","","90","","","","27","","16","","1.2","","97.38","","","","-14","","Fog"
"-99.95","49.91","BRANDON A","5010481","2018-12-03 15:00","2018","12","03","15:00","-7.3","","-8.7","","90","","","","27","","18","","1.6","","97.35","","","","-14","","Fog"
"-99.95","49.91","BRANDON A","5010481","2018-12-03 16:00","2018","12","03","16:00","-7.5","","-8.9","","90","","","","26","","20","","1.6","","97.37","","","","-15","","Fog"
"-99.95","49.91","BRANDON A","5010481","2018-12-03 17:00","2018","12","03","17:00","-7.4","","-8.7","","90","","","","26","","18","","3.2","","97.34","","","","-14","","Fog"
"-99.95","49.91","BRANDON A","5010481","2018-12-03 18:00","2018","12","03","18:00","-7.0","","-8.3","","91","","","","24","","18","","8.1","","97.30","","","","-14","","Fog"
"-99.95","49.91","BRANDON A","5010481","2018-12-03 19:00","2018","12","03","19:00","-5.8","","-6.9","","92","","","","25","","19","","12.9","","97.27","","","","-12","","NA"
"-99.95","49.91","BRANDON A","5010481","2018-12-03 20:00","2018","12","03","20:00","-4.7","","-6.6","","86","","","","25","","18","","16.1","","97.22","","","","-11","","NA"
"-99.95","49.91","BRANDON A","5010481","2018-12-03 21:00","2018","12","03","21:00","-5.6","","-7.1","","88","","","","27","","18","","12.9","","97.17","","","","-12","","Cloudy"
"-99.95","49.91","BRANDON A","5010481","2018-12-03 22:00","2018","12","03","22:00","-8.0","","-9.3","","90","","","","26","","20","","12.9","","97.12","","","","-15","","NA"
"-99.95","49.91","BRANDON A","5010481","2018-12-03 23:00","2018","12","03","23:00","-9.8","","-11.3","","89","","","","26","","18","","8.1","","97.08","","","","-17","","Fog"
"-99.95","49.91","BRANDON A","5010481","2018-12-04 00:00","2018","12","04","00:00","-14.1","","-16.2","","84","","","","29","","10","","8.1","","97.08","","","","-20","","Fog"
"-99.95","49.91","BRANDON A","5010481","2018-12-04 01:00","2018","12","04","01:00","-14.6","","-16.9","","83","","","","28","","13","","8.1","","97.05","","","","-22","","Fog"
"-99.95","49.91","BRANDON A","5010481","2018-12-04 02:00","2018","12","04","02:00","-16.4","","-18.9","","81","","","","29","","14","","0.6","","97.00","","","","-24","","Freezing Fog"
"-99.95","49.91","BRANDON A","5010481","2018-12-04 03:00","2018","12","04","03:00","-14.3","","-16.7","","82","","","","24","","14","","9.7","","96.93","","","","-22","","Fog"
"-99.95","49.91","BRANDON A","5010481","2018-12-04 04:00","2018","12","04","04:00","-11.1","","-13.1","","86","","","","25","","16","","16.1","","96.88","","","","-18","","NA"
"-99.95","49.91","BRANDON A","5010481","2018-12-04 05:00","2018","12","04","05:00","-9.7","","-11.4","","87","","","","25","","11","","19.3","","96.82","","","","-15","","NA"
"-99.95","49.91","BRANDON A","5010481","2018-12-04 06:00","2018","12","04","06:00","-9.3","","-10.9","","88","","","","25","","16","","24.1","","96.79","","","","-16","","Cloudy"
"-99.95","49.91","BRANDON A","5010481","2018-12-04 07:00","2018","12","04","07:00","-8.7","","-10.3","","88","","","","25","","17","","24.1","","96.72","","","","-16","","NA"
"-99.95","49.91","BRANDON A","5010481","2018-12-04 08:00","2018","12","04","08:00","-8.3","","-9.8","","89","","","","23","","14","","16.1","","96.67","","","","-14","","NA"
"-99.95","49.91","BRANDON A","5010481","2018-12-04 09:00","2018","12","04","09:00","-7.9","","-9.4","","89","","","","24","","17","","16.1","","96.62","","","","-15","","Cloudy"
"-99.95","49.91","BRANDON A","5010481","2018-12-04 10:00","2018","12","04","10:00","-7.1","","-8.5","","90","","","","26","","20","","8.1","","96.59","","","","-14","","Snow"
"-99.95","49.91","BRANDON A","5010481","2018-12-04 11:00","2018","12","04","11:00","-6.2","","-7.5","","91","","","","26","","22","","2.4","","96.56","","","","-13","","Snow"
"-99.95","49.91","BRANDON A","5010481","2018-12-04 12:00","2018","12","04","12:00","-6.3","","-7.5","","91","","","","29","","23","","8.1","","96.52","","","","-14","","Snow"
"-99.95","49.91","BRANDON A","5010481","2018-12-04 13:00","2018","12","04","13:00","-6.7","","-8.1","","90","","","","30","","32","","12.9","","96.47","","","","-15","","Snow"
"-99.95","49.91","BRANDON A","5010481","2018-12-04 14:00","2018","12","04","14:00","-6.9","","-8.9","","86","","","","30","","31","","9.7","","96.45","","","","-16","","Snow"
"-99.95","49.91","BRANDON A","5010481","2018-12-04 15:00","2018","12","04","15:00","-6.8","","-10.1","","77","","","","29","","23","","12.9","","96.46","","","","-14","","Snow"
"-99.95","49.91","BRANDON A","5010481","2018-12-04 16:00","2018","12","04","16:00","-7.0","","-10.3","","78","","","","29","","23","","16.1","","96.46","","","","-15","","Snow"
"-99.95","49.91","BRANDON A","5010481","2018-12-04 17:00","2018","12","04","17:00","-7.3","","-10.5","","78","","","","28","","23","","12.9","","96.46","","","","-15","","Snow"
"-99.95","49.91","BRANDON A","5010481","2018-12-04 18:00","2018","12","04","18:00","-7.7","","-10.7","","79","","","","29","","22","","12.9","","96.47","","","","-15","","Snow"
"-99.95","49.91","BRANDON A","5010481","2018-12-04 19:00","2018","12","04","19:00","-8.1","","-11.1","","79","","","","32","","33","","9.7","","96.50","","","","-17","","Snow,Blowing Snow"
"-99.95","49.91","BRANDON A","5010481","2018-12-04 20:00","2018","12","04","20:00","-8.7","","-12.8","","73","","","","29","","17","","19.3","","96.48","","","","-16","","Snow"
"-99.95","49.91","BRANDON A","5010481","2018-12-04 21:00","2018","12","04","21:00","-8.7","","-12.4","","75","","","","27","","14","","16.1","","96.45","","","","-15","","Snow"
"-99.95","49.91","BRANDON A","5010481","2018-12-04 22:00","2018","12","04","22:00","-8.7","","-11.7","","79","","","","28","","18","","16.1","","96.46","","","","-16","","Snow"
"-99.95","49.91","BRANDON A","5010481","2018-12-04 23:00","2018","12","04","23:00","-8.8","","-11.9","","79","","","","27","","21","","16.1","","96.45","","","","-17","","Snow"
"-99.95","49.91","BRANDON A","5010481","2018-12-05 00:00","2018","12","05","00:00","-8.8","","-12.0","","78","","","","28","","18","","16.1","","96.46","","","","-16","","Snow"
"-99.95","49.91","BRANDON A","5010481","2018-12-05 01:00","2018","12","05","01:00","-8.9","","-12.0","","79","","","","28","","21","","19.3","","96.43","","","","-17","","Snow"
"-99.95","49.91","BRANDON A","5010481","2018-12-05 02:00","2018","12","05","02:00","-8.8","","-11.8","","79","","","","28","","18","","19.3","","96.42","","","","-16","","Snow"
"-99.95","49.91","BRANDON A","5010481","2018-12-05 03:00","2018","12","05","03:00","-9.0","","-11.8","","80","","","","27","","13","","19.3","","96.42","","","","-15","","Snow"
"-99.95","49.91","BRANDON A","5010481","2018-12-05 04:00","2018","12","05","04:00","-9.2","","-11.8","","82","","","","27","","12","","16.1","","96.45","","","","-15","","Snow"
"-99.95","49.91","BRANDON A","5010481","2018-12-05 05:00","2018","12","05","05:00","-9.2","","-11.5","","84","","","","27","","17","","12.9","","96.51","","","","-16","","Snow"
"-99.95","49.91","BRANDON A","5010481","2018-12-05 06:00","2018","12","05","06:00","-11.4","","-13.5","","85","","","","29","","11","","19.3","","96.49","","","","-17","","Snow"
"-99.95","49.91","BRANDON A","5010481","2018-12-05 07:00","2018","12","05","07:00","-9.5","","-11.7","","84","","","","29","","14","","16.1","","96.54","","","","-16","","Snow"
"-99.95","49.91","BRANDON A","5010481","2018-12-05 08:00","2018","12","05","08:00","-9.2","","-11.5","","83","","","","30","","16","","12.9","","96.60","","","","-16","","Snow"
"-99.95","49.91","BRANDON A","5010481","2018-12-05 09:00","2018","12","05","09:00","-9.5","","-11.5","","85","","","","30","","9","","3.2","","96.66","","","","-14","","Snow"
"-99.95","49.91","BRANDON A","5010481","2018-12-05 10:00","2018","12","05","10:00","-8.3","","-10.3","","85","","","","32","","13","","4.8","","96.73","","","","-14","","Snow"
"-99.95","49.91","BRANDON A","5010481","2018-12-05 11:00","2018","12","05","11:00","-7.7","","-9.9","","84","","","","31","","13","","3.2","","96.79","","","","-13","","Snow"
"-99.95","49.91","BRANDON A","5010481","2018-12-05 12:00","2018","12","05","12:00","-7.6","","-10.4","","81","","","","31","","14","","9.7","","96.83","","","","-14","","Snow"
"-99.95","49.91","BRANDON A","5010481","2018-12-05 13:00","2018","12","05","13:00","-7.1","","-10.7","","76","","","","34","","13","","8.1","","96.89","","","","-13","","Snow"
"-99.95","49.91","BRANDON A","5010481","2018-12-05 14:00","2018","12","05","14:00","-7.7","","-11.6","","74","","","","5","","17","","9.7","","96.98","","","","-14","","Snow"
"-99.95","49.91","BRANDON A","5010481","2018-12-05 15:00","2018","12","05","15:00","-9.2","","-12.9","","75","","","","3","","24","","8.1","","97.07","","","","-18","","Snow,Blowing Snow"
"-99.95","49.91","BRANDON A","5010481","2018-12-05 16:00","2018","12","05","16:00","-10.7","","-14.5","","74","","","","2","","28","","12.9","","97.19","","","","-20","","Snow,Blowing Snow"
"-99.95","49.91","BRANDON A","5010481","2018-12-05 17:00","2018","12","05","17:00","-13.5","","-17.2","","74","","","","1","","16","","24.1","","97.29","","","","-21","","NA"
"-99.95","49.91","BRANDON A","5010481","2018-12-05 18:00","2018","12","05","18:00","-13.3","","-17.1","","74","","","","1","","18","","24.1","","97.41","","","","-22","","Cloudy"
"-99.95","49.91","BRANDON A","5010481","2018-12-05 19:00","2018","12","05","19:00","-14.3","","-18.5","","71","","","","1","","13","","24.1","","97.52","","","","-21","","NA"
"-99.95","49.91","BRANDON A","5010481","2018-12-05 20:00","2018","12","05","20:00","-16.1","","-19.9","","73","","","","2","","10","","24.1","","97.60","","","","-23","","NA"
"-99.95","49.91","BRANDON A","5010481","2018-12-05 21:00","2018","12","05","21:00","-18.5","","-21.5","","78","","","","32","","10","","24.1","","97.67","","","","-25","","Mainly Clear"
"-99.95","49.91","BRANDON A","5010481","2018-12-05 22:00","2018","12","05","22:00","-20.6","","-23.5","","78","","","","36","","3","","24.1","","97.71","","","","-23","","NA"
"-99.95","49.91","BRANDON A","5010481","2018-12-05 23:00","2018","12","05","23:00","-24.5","","-27.4","","78","","","","32","","8","","24.1","","97.76","","","","-32","","NA"
"-99.95","49.91","BRANDON A","5010481","2018-12-06 00:00","2018","12","06","00:00","-23.9","","-26.9","","77","","","","34","","7","","24.1","","97.84","","","","-30","","Clear"
"-99.95","49.91","BRANDON A","5010481","2018-12-06 01:00","2018","12","06","01:00","-24.4","","-27.6","","75","","","","27","","9","","24.1","","97.85","","","","-32","","NA"
"-99.95","49.91","BRANDON A","5010481","2018-12-06 02:00","2018","12","06","02:00","-24.0","","-27.4","","74","","","","27","","13","","24.1","","97.83","","","","-33","","NA"
"-99.95","49.91","BRANDON A","5010481","2018-12-06 03:00","2018","12","06","03:00","-20.7","","-23.9","","76","","","","28","","13","","24.1","","97.87","","","","-29","","Snow"
"-99.95","49.91","BRANDON A","5010481","2018-12-06 04:00","2018","12","06","04:00","-18.1","","-21.1","","78","","","","29","","14","","24.1","","97.86","","","","-26","","Snow"
"-99.95","49.91","BRANDON A","5010481","2018-12-06 05:00","2018","12","06","05:00","-18.2","","-21.2","","78","","","","27","","11","","24.1","","97.85","","","","-25","","Snow"
"-99.95","49.91","BRANDON A","5010481","2018-12-06 06:00","2018","12","06","06:00","-19.3","","-22.3","","77","","","","29","","13","","24.1","","97.84","","","","-28","","Snow"
"-99.95","49.91","BRANDON A","5010481","2018-12-06 07:00","2018","12","06","07:00","-17.6","","-20.5","","78","","","","28","","13","","24.1","","97.85","","","","-25","","Snow"
"-99.95","49.91","BRANDON A","5010481","2018-12-06 08:00","2018","12","06","08:00","-19.7","","-22.7","","77","","","","26","","12","","24.1","","97.82","","","","-28","","Snow"
"-99.95","49.91","BRANDON A","5010481","2018-12-06 09:00","2018","12","06","09:00","-23.5","","-26.6","","76","","","","28","","17","","24.1","","97.82","","","","-34","","Mainly Clear"
"-99.95","49.91","BRANDON A","5010481","2018-12-06 10:00","2018","12","06","10:00","-17.8","","-20.8","","78","","","","21","","10","","19.3","","97.75","","","","-25","","NA"
"-99.95","49.91","BRANDON A","5010481","2018-12-06 11:00","2018","12","06","11:00","-16.8","","-19.6","","79","","","","26","","10","","19.3","","97.75","","","","-23","","NA"
"-99.95","49.91","BRANDON A","5010481","2018-12-06 12:00","2018","12","06","12:00","-16.7","","-19.8","","77","","","","24","","10","","24.1","","97.66","","","","-23","","Mostly Cloudy"
"-99.95","49.91","BRANDON A","5010481","2018-12-06 13:00","2018","12","06","13:00","-14.3","","-18.4","","72","","","","22","","12","","24.1","","97.58","","","","-21","","NA"
"-99.95","49.91","BRANDON A","5010481","2018-12-06 14:00","2018","12","06","14:00","-14.3","","-18.7","","70","","","","22","","17","","24.1","","97.51","","","","-23","","NA"
"-99.95","49.91","BRANDON A","5010481","2018-12-06 15:00","2018","12","06","15:00","-14.9","","-18.5","","74","","","","24","","16","","24.1","","97.46","","","","-23","","Mostly Cloudy"
"-99.95","49.91","BRANDON A","5010481","2018-12-06 16:00","2018","12","06","16:00","-13.1","","-16.6","","75","","","","23","","19","","24.1","","97.44","","","","-22","","NA"
"-99.95","49.91","BRANDON A","5010481","2018-12-06 17:00","2018","12","06","17:00","-13.4","","-16.5","","78","","","","23","","13","","19.3","","97.45","","","","-20","","NA"
"-99.95","49.91","BRANDON A","5010481","2018-12-06 18:00","2018","12","06","18:00","-11.2","","-14.4","","78","","","","26","","19","","24.1","","97.42","","","","-19","","Cloudy"
"-99.95","49.91","BRANDON A","5010481","2018-12-06 19:00","2018","12","06","19:00","-11.6","","-14.8","","78","","","","28","","13","","24.1","","97.42","","","","-18","","NA"
"-99.95","49.91","BRANDON A","5010481","2018-12-06 20:00","2018","12","06","20:00","-11.3","","-14.9","","75","","","","29","","20","","24.1","","97.43","","","","-20","","NA"
"-99.95","49.91","BRANDON A","5010481","2018-12-06 21:00","2018","12","06","21:00","-11.5","","-15.5","","73","","","","28","","17","","24.1","","97.43","","","","-19","","Cloudy"
"-99.95","49.91","BRANDON A","5010481","2018-12-06 22:00","2018","12","06","22:00","-11.3","","-15.2","","74","","","","26","","11","","24.1","","97.43","","","","-17","","Snow"
"-99.95","49.91","BRANDON A","5010481","2018-12-06 23:00","2018","12","06","23:00","-11.3","","-14.8","","75","","","","26","","13","","24.1","","97.42","","","","-18","","Snow"
"-99.95","49.91","BRANDON A","5010481","2018-12-07 00:00","2018","12","07","00:00","-11.2","","-14.7","","76","","","","25","","10","","24.1","","97.41","","","","-17","","Snow"
"-99.95","49.91","BRANDON A","5010481","2018-12-07 01:00","2018","12","07","01:00","-11.0","","-14.4","","76","","","","26","","10","","24.1","","97.39","","","","-16","","Snow"
"-99.95","49.91","BRANDON A","5010481","2018-12-07 02:00","2018","12","07","02:00","-10.9","","-14.4","","75","","","","26","","14","","24.1","","97.39","","","","-18","","Snow"
"-99.95","49.91","BRANDON A","5010481","2018-12-07 03:00","2018","12","07","03:00","-10.8","","-14.4","","75","","","","25","","13","","24.1","","97.45","","","","-17","","Snow"
"-99.95","49.91","BRANDON A","5010481","2018-12-07 04:00","2018","12","07","04:00","-12.3","","-15.7","","76","","","","24","","14","","24.1","","97.46","","","","-19","","Snow"
"-99.95","49.91","BRANDON A","5010481","2018-12-07 05:00","2018","12","07","05:00","-16.0","","-18.8","","79","","","","25","","18","","24.1","","97.44","","","","-25","","NA"
"-99.95","49.91","BRANDON A","5010481","2018-12-07 06:00","2018","12","07","06:00","-15.2","","-18.0","","79","","","","25","","14","","24.1","","97.46","","","","-23","","Mostly Cloudy"
"-99.95","49.91","BRANDON A","5010481","2018-12-07 07:00","2018","12","07","07:00","-16.0","","-19.2","","77","","","","25","","10","","24.1","","97.50","","","","-22","","NA"
"-99.95","49.91","BRANDON A","5010481","2018-12-07 08:00","2018","12","07","08:00","-18.3","","-21.2","","79","","","","26","","18","","24.1","","97.52","","","","-28","","NA"
"-99.95","49.91","BRANDON A","5010481","2018-12-07 09:00","2018","12","07","09:00","-17.4","","-20.4","","78","","","","27","","14","","24.1","","97.54","","","","-26","","Clear"
"-99.95","49.91","BRANDON A","5010481","2018-12-07 10:00","2018","12","07","10:00","-17.2","","-20.5","","76","","","","27","","15","","24.1","","97.60","","","","-26","","NA"
"-99.95","49.91","BRANDON A","5010481","2018-12-07 11:00","2018","12","07","11:00","-14.5","","-18.2","","74","","","","26","","17","","24.1","","97.63","","","","-23","","NA"
"-99.95","49.91","BRANDON A","5010481","2018-12-07 12:00","2018","12","07","12:00","-13.4","","-17.5","","71","","","","26","","15","","24.1","","97.61","","","","-21","","Clear"
"-99.95","49.91","BRANDON A","5010481","2018-12-07 13:00","2018","12","07","13:00","-12.4","","-16.9","","69","","","","25","","20","","24.1","","97.61","","","","-21","","NA"
"-99.95","49.91","BRANDON A","5010481","2018-12-07 14:00","2018","12","07","14:00","-11.8","","-16.6","","68","","","","25","","20","","24.1","","97.55","","","","-20","","NA"
"-99.95","49.91","BRANDON A","5010481","2018-12-07 15:00","2018","12","07","15:00","-12.0","","-17.0","","67","","","","26","","21","","24.1","","97.55","","","","-21","","Clear"
"-99.95","49.91","BRANDON A","5010481","2018-12-07 16:00","2018","12","07","16:00","-14.4","","-18.8","","70","","","","27","","17","","24.1","","97.58","","","","-23","","NA"
"-99.95","49.91","BRANDON A","5010481","2018-12-07 17:00","2018","12","07","17:00","-16.8","","-20.5","","73","","","","27","","16","","24.1","","97.62","","","","-25","","NA"
"-99.95","49.91","BRANDON A","5010481","2018-12-07 18:00","2018","12","07","18:00","-17.2","","-20.5","","76","","","","27","","17","","24.1","","97.62","","","","-26","","Clear"
"-99.95","49.91","BRANDON A","5010481","2018-12-07 19:00","2018","12","07","19:00","-17.5","","-20.4","","79","","","","26","","15","","24.1","","97.61","","","","-26","","NA"
"-99.95","49.91","BRANDON A","5010481","2018-12-07 20:00","2018","12","07","20:00","-18.0","","-20.8","","79","","","","29","","13","","24.1","","97.59","","","","-26","","NA"
"-99.95","49.91","BRANDON A","5010481","2018-12-07 21:00","2018","12","07","21:00","-18.9","","-21.6","","80","","","","29","","14","","24.1","","97.56","","","","-27","","Clear"
"-99.95","49.91","BRANDON A","5010481","2018-12-07 22:00","2018","12","07","22:00","-19.3","","-22.0","","80","","","","29","","11","","24.1","","97.53","","","","-27","","NA"
"-99.95","49.91","BRANDON A","5010481","2018-12-07 23:00","2018","12","07","23:00","-20.8","","-23.6","","78","","","","30","","11","","24.1","","97.47","","","","-29","","NA"
"-99.95","49.91","BRANDON A","5010481","2018-12-08 00:00","2018","12","08","00:00","-21.6","","-24.5","","77","","","","31","","12","","24.1","","97.46","","","","-30","","Clear"
"-99.95","49.91","BRANDON A","5010481","2018-12-08 01:00","2018","12","08","01:00","-21.4","","-24.4","","77","","","","30","","12","","24.1","","97.44","","","","-30","","NA"
"-99.95","49.91","BRANDON A","5010481","2018-12-08 02:00","2018","12","08","02:00","-21.3","","-24.3","","77","","","","33","","8","","24.1","","97.38","","","","-28","","NA"
"-99.95","49.91","BRANDON A","5010481","2018-12-08 03:00","2018","12","08","03:00","-20.8","","-23.8","","77","","","","35","","5","","24.1","","97.36","","","","-25","","Clear"
"-99.95","49.91","BRANDON A","5010481","2018-12-08 04:00","2018","12","08","04:00","-22.0","","-25.1","","76","","","","34","","4","","1.6","","97.32","","","","-26","","Fog"
"-99.95","49.91","BRANDON A","5010481","2018-12-08 05:00","2018","12","08","05:00","-20.3","","-23.4","","76","","","","0","","1","","1.6","","97.24","","","","-21","","Fog"
"-99.95","49.91","BRANDON A","5010481","2018-12-08 06:00","2018","12","08","06:00","-22.4","","-25.6","","75","","","","36","","3","","0.6","","97.22","","","","-25","","Freezing Fog"
"-99.95","49.91","BRANDON A","5010481","2018-12-08 07:00","2018","12","08","07:00","-23.8","","-27.2","","74","","","","36","","1","","0.4","","97.18","","","","-25","","Freezing Fog"
"-99.95","49.91","BRANDON A","5010481","2018-12-08 08:00","2018","12","08","08:00","-22.3","","-25.7","","75","","","","1","","11","","0.2","","97.18","","","","-30","","Freezing Fog"
"-99.95","49.91","BRANDON A","5010481","2018-12-08 09:00","2018","12","08","09:00","-21.3","","-24.6","","75","","","","3","","9","","0.2","","97.20","","","","-28","","Freezing Fog"
"-99.95","49.91","BRANDON A","5010481","2018-12-08 10:00","2018","12","08","10:00","-21.1","","-24.3","","76","","","","1","","6","","4.8","","97.19","","","","-26","","Fog"
"-99.95","49.91","BRANDON A","5010481","2018-12-08 11:00","2018","12","08","11:00","-18.3","","-21.4","","77","","","","36","","13","","9.7","","97.26","","","","-26","","Fog"
"-99.95","49.91","BRANDON A","5010481","2018-12-08 12:00","2018","12","08","12:00","-14.7","","-17.5","","79","","","","24","","3","","19.3","","97.19","","","","-17","","Mainly Clear"
"-99.95","49.91","BRANDON A","5010481","2018-12-08 13:00","2018","12","08","13:00","-13.0","","-15.6","","81","","","","28","","7","","24.1","","97.16","","","","-18","","NA"
"-99.95","49.91","BRANDON A","5010481","2018-12-08 14:00","2018","12","08","14:00","-12.0","","-14.2","","83","","","","31","","11","","24.1","","97.14","","","","-18","","NA"
"-99.95","49.91","BRANDON A","5010481","2018-12-08 15:00","2018","12","08","15:00","-11.6","","-13.9","","83","","","","26","","17","","24.1","","97.06","","","","-19","","Mainly Clear"
"-99.95","49.91","BRANDON A","5010481","2018-12-08 16:00","2018","12","08","16:00","-13.8","","-16.2","","82","","","","27","","19","","24.1","","97.13","","","","-22","","NA"
"-99.95","49.91","BRANDON A","5010481","2018-12-08 17:00","2018","12","08","17:00","-16.3","","-18.9","","80","","","","29","","17","","24.1","","97.19","","","","-25","","NA"
"-99.95","49.91","BRANDON A","5010481","2018-12-08 18:00","2018","12","08","18:00","-18.1","","-21.0","","79","","","","30","","16","","24.1","","97.27","","","","-27","","Clear"
"-99.95","49.91","BRANDON A","5010481","2018-12-08 19:00","2018","12","08","19:00","-16.0","","-18.8","","80","","","","26","","16","","24.1","","97.26","","","","-24","","NA"
"-99.95","49.91","BRANDON A","5010481","2018-12-08 20:00","2018","12","08","20:00","-16.9","","-19.5","","80","","","","27","","19","","24.1","","97.30","","","","-26","","NA"
"-99.95","49.91","BRANDON A","5010481","2018-12-08 21:00","2018","12","08","21:00","-17.8","","-20.6","","79","","","","28","","19","","24.1","","97.31","","","","-27","","Clear"
"-99.95","49.91","BRANDON A","5010481","2018-12-08 22:00","2018","12","08","22:00","-17.6","","-20.4","","79","","","","27","","21","","24.1","","97.32","","","","-28","","NA"
"-99.95","49.91","BRANDON A","5010481","2018-12-08 23:00","2018","12","08","23:00","-17.6","","-20.4","","79","","","","26","","22","","24.1","","97.32","","","","-28","","NA"
"-99.95","49.91","BRANDON A","5010481","2018-12-09 00:00","2018","12","09","00:00","-18.4","","-21.2","","79","","","","26","","23","","24.1","","97.37","","","","-29","","Clear"
"-99.95","49.91","BRANDON A","5010481","2018-12-09 01:00","2018","12","09","01:00","-18.3","","-21.1","","78","","","","26","","22","","24.1","","97.41","","","","-29","","NA"
"-99.95","49.91","BRANDON A","5010481","2018-12-09 02:00","2018","12","09","02:00","-18.9","","-21.9","","78","","","","26","","20","","24.1","","97.40","","","","-29","","NA"
"-99.95","49.91","BRANDON A","5010481","2018-12-09 03:00","2018","12","09","03:00","-19.2","","-22.2","","78","","","","26","","21","","24.1","","97.43","","","","-30","","Clear"
"-99.95","49.91","BRANDON A","5010481","2018-12-09 04:00","2018","12","09","04:00","-17.8","","-20.7","","78","","","","26","","24","","24.1","","97.45","","","","-29","","NA"
"-99.95","49.91","BRANDON A","5010481","2018-12-09 05:00","2018","12","09","05:00","-18.4","","-21.4","","78","","","","26","","19","","24.1","","97.44","","","","-28","","NA"
"-99.95","49.91","BRANDON A","5010481","2018-12-09 06:00","2018","12","09","06:00","-17.1","","-20.0","","79","","","","27","","25","","24.1","","97.45","","","","-28","","Clear"
"-99.95","49.91","BRANDON A","5010481","2018-12-09 07:00","2018","12","09","07:00","-17.3","","-20.3","","78","","","","27","","26","","24.1","","97.49","","","","-28","","NA"
"-99.95","49.91","BRANDON A","5010481","2018-12-09 08:00","2018","12","09","08:00","-17.6","","-20.6","","78","","","","27","","23","","24.1","","97.48","","","","-28","","NA"
"-99.95","49.91","BRANDON A","5010481","2018-12-09 09:00","2018","12","09","09:00","-19.0","","-22.0","","77","","","","26","","16","","24.1","","97.49","","","","-28","","Mainly Clear"
"-99.95","49.91","BRANDON A","5010481","2018-12-09 10:00","2018","12","09","10:00","-18.0","","-21.1","","77","","","","24","","17","","24.1","","97.50","","","","-27","","NA"
"-99.95","49.91","BRANDON A","5010481","2018-12-09 11:00","2018","12","09","11:00","-16.0","","-19.3","","76","","","","25","","18","","24.1","","97.51","","","","-25","","NA"
"-99.95","49.91","BRANDON A","5010481","2018-12-09 12:00","2018","12","09","12:00","-13.4","","-17.0","","75","","","","26","","19","","24.1","","97.45","","","","-22","","Mainly Clear"
"-99.95","49.91","BRANDON A","5010481","2018-12-09 13:00","2018","12","09","13:00","-11.6","","-15.6","","72","","","","26","","18","","24.1","","97.40","","","","-19","","NA"
"-99.95","49.91","BRANDON A","5010481","2018-12-09 14:00","2018","12","09","14:00","-9.9","","-14.1","","72","","","","25","","17","","24.1","","97.34","","","","-17","","NA"
"-99.95","49.91","BRANDON A","5010481","2018-12-09 15:00","2018","12","09","15:00","-9.1","","-13.4","","72","","","","26","","18","","24.1","","97.28","","","","-16","","Mainly Clear"
"-99.95","49.91","BRANDON A","5010481","2018-12-09 16:00","2018","12","09","16:00","-10.3","","-14.3","","73","","","","28","","20","","24.1","","97.27","","","","-18","","NA"
"-99.95","49.91","BRANDON A","5010481","2018-12-09 17:00","2018","12","09","17:00","-11.4","","-15.2","","74","","","","27","","14","","24.1","","97.20","","","","-18","","NA"
"-99.95","49.91","BRANDON A","5010481","2018-12-09 18:00","2018","12","09","18:00","-14.1","","-16.9","","80","","","","29","","14","","24.1","","97.18","","","","-22","","Mainly Clear"
"-99.95","49.91","BRANDON A","5010481","2018-12-09 19:00","2018","12","09","19:00","-16.3","","-18.9","","81","","","","27","","9","","24.1","","97.13","","","","-22","","NA"
"-99.95","49.91","BRANDON A","5010481","2018-12-09 20:00","2018","12","09","20:00","-17.0","","-19.5","","81","","","","30","","13","","24.1","","97.10","","","","-25","","NA"
"-99.95","49.91","BRANDON A","5010481","2018-12-09 21:00","2018","12","09","21:00","-13.8","","-16.1","","84","","","","27","","15","","24.1","","97.01","","","","-21","","Mostly Cloudy"
"-99.95","49.91","BRANDON A","5010481","2018-12-09 22:00","2018","12","09","22:00","-11.1","","-13.4","","84","","","","27","","18","","24.1","","96.95","","","","-19","","NA"
"-99.95","49.91","BRANDON A","5010481","2018-12-09 23:00","2018","12","09","23:00","-11.6","","-14.0","","83","","","","28","","16","","24.1","","96.91","","","","-19","","NA"
"-99.95","49.91","BRANDON A","5010481","2018-12-10 00:00","2018","12","10","00:00","-11.7","","-13.9","","84","","","","27","","19","","24.1","","96.84","","","","-20","","Mostly Cloudy"
"-99.95","49.91","BRANDON A","5010481","2018-12-10 01:00","2018","12","10","01:00","-12.0","","-14.3","","83","","","","28","","19","","24.1","","96.80","","","","-20","","NA"
"-99.95","49.91","BRANDON A","5010481","2018-12-10 02:00","2018","12","10","02:00","-10.6","","-12.8","","84","","","","27","","18","","24.1","","96.74","","","","-18","","NA"
"-99.95","49.91","BRANDON A","5010481","2018-12-10 03:00","2018","12","10","03:00","-12.4","","-14.7","","83","","","","28","","17","","24.1","","96.69","","","","-20","","Mostly Cloudy"
"-99.95","49.91","BRANDON A","5010481","2018-12-10 04:00","2018","12","10","04:00","-14.9","","-17.3","","83","","","","27","","18","","24.1","","96.66","","","","-24","","NA"
"-99.95","49.91","BRANDON A","5010481","2018-12-10 05:00","2018","12","10","05:00","-13.3","","-15.5","","83","","","","27","","19","","24.1","","96.65","","","","-22","","NA"
"-99.95","49.91","BRANDON A","5010481","2018-12-10 06:00","2018","12","10","06:00","-14.3","","-16.6","","83","","","","28","","14","","24.1","","96.65","","","","-22","","Mainly Clear"
"-99.95","49.91","BRANDON A","5010481","2018-12-10 07:00","2018","12","10","07:00","-12.8","","-14.9","","84","","","","27","","24","","24.1","","96.67","","","","-22","","NA"
"-99.95","49.91","BRANDON A","5010481","2018-12-10 08:00","2018","12","10","08:00","-14.9","","-17.4","","82","","","","29","","15","","24.1","","96.67","","","","-23","","NA"
"-99.95","49.91","BRANDON A","5010481","2018-12-10 09:00","2018","12","10","09:00","-15.5","","-18.0","","81","","","","30","","10","","24.1","","96.68","","","","-22","","Mainly Clear"
"-99.95","49.91","BRANDON A","5010481","2018-12-10 10:00","2018","12","10","10:00","-13.4","","-16.0","","81","","","","26","","16","","24.1","","96.74","","","","-21","","NA"
"-99.95","49.91","BRANDON A","5010481","2018-12-10 11:00","2018","12","10","11:00","-12.7","","-15.6","","79","","","","25","","13","","24.1","","96.74","","","","-20","","NA"
"-99.95","49.91","BRANDON A","5010481","2018-12-10 12:00","2018","12","10","12:00","-11.4","","-14.8","","76","","","","28","","8","","24.1","","96.73","","","","-16","","Mainly Clear"
"-99.95","49.91","BRANDON A","5010481","2018-12-10 13:00","2018","12","10","13:00","-9.7","","-13.6","","74","","","","24","","11","","24.1","","96.67","","","","-15","","NA"
"-99.95","49.91","BRANDON A","5010481","2018-12-10 14:00","2018","12","10","14:00","-9.1","","-13.4","","72","","","","24","","8","","24.1","","96.62","","","","-13","","NA"
"-99.95","49.91","BRANDON A","5010481","2018-12-10 15:00","2018","12","10","15:00","-10.0","","-14.0","","73","","","","23","","8","","24.1","","96.62","","","","-14","","Mostly Cloudy"
"-99.95","49.91","BRANDON A","5010481","2018-12-10 16:00","2018","12","10","16:00","-11.5","","-15.1","","75","","","","24","","12","","24.1","","96.62","","","","-18","","NA"
"-99.95","49.91","BRANDON A","5010481","2018-12-10 17:00","2018","12","10","17:00","-11.8","","-14.9","","78","","","","27","","12","","24.1","","96.63","","","","-18","","NA"
"-99.95","49.91","BRANDON A","5010481","2018-12-10 18:00","2018","12","10","18:00","-14.7","","-17.7","","78","","","","27","","9","","24.1","","96.63","","","","-20","","Mostly Cloudy"
"-99.95","49.91","BRANDON A","5010481","2018-12-10 19:00","2018","12","10","19:00","-16.0","","-19.0","","78","","","","31","","4","","24.1","","96.57","","","","-19","","NA"
"-99.95","49.91","BRANDON A","5010481","2018-12-10 20:00","2018","12","10","20:00","-15.7","","-18.7","","78","","","","29","","4","","24.1","","96.56","","","","-19","","NA"
"-99.95","49.91","BRANDON A","5010481","2018-12-10 21:00","2018","12","10","21:00","-14.1","","-17.1","","78","","","","19","","5","","24.1","","96.57","","","","-18","","Cloudy"
"-99.95","49.91","BRANDON A","5010481","2018-12-10 22:00","2018","12","10","22:00","-15.7","","-18.9","","77","","","","0","","1","","24.1","","96.54","","","","-16","","NA"
"-99.95","49.91","BRANDON A","5010481","2018-12-10 23:00","2018","12","10","23:00","-14.5","","-17.5","","78","","","","36","","4","","24.1","","96.53","","","","-17","","NA"
"-99.95","49.91","BRANDON A","5010481","2018-12-11 00:00","2018","12","11","00:00","-12.8","","-15.5","","81","","","","3","","8","","24.1","","96.46","","","","-18","","Mostly Cloudy"
"-99.95","49.91","BRANDON A","5010481","2018-12-11 01:00","2018","12","11","01:00","-11.7","","-14.4","","81","","","","33","","7","","24.1","","96.42","","","","-16","","NA"
"-99.95","49.91","BRANDON A","5010481","2018-12-11 02:00","2018","12","11","02:00","-11.3","","-13.9","","81","","","","34","","4","","24.1","","96.36","","","","-14","","NA"
"-99.95","49.91","BRANDON A","5010481","2018-12-11 03:00","2018","12","11","03:00","-12.9","","-15.3","","82","","","","27","","4","","24.1","","96.35","","","","-16","","Mainly Clear"
"-99.95","49.91","BRANDON A","5010481","2018-12-11 04:00","2018","12","11","04:00","-13.2","","-15.5","","83","","","","30","","4","","24.1","","96.30","","","","-16","","NA"
"-99.95","49.91","BRANDON A","5010481","2018-12-11 05:00","2018","12","11","05:00","-12.9","","-15.5","","81","","","","26","","4","","24.1","","96.23","","","","-16","","NA"
"-99.95","49.91","BRANDON A","5010481","2018-12-11 06:00","2018","12","11","06:00","-12.5","","-14.9","","82","","","","27","","14","","24.1","","96.23","","","","-20","","Mostly Cloudy"
"-99.95","49.91","BRANDON A","5010481","2018-12-11 07:00","2018","12","11","07:00","-9.9","","-12.0","","85","","","","27","","15","","24.1","","96.18","","","","-17","","NA"
"-99.95","49.91","BRANDON A","5010481","2018-12-11 08:00","2018","12","11","08:00","-8.1","","-10.4","","84","","","","28","","17","","24.1","","96.20","","","","-15","","NA"
"-99.95","49.91","BRANDON A","5010481","2018-12-11 09:00","2018","12","11","09:00","-7.3","","-9.6","","84","","","","28","","18","","24.1","","96.14","","","","-14","","Cloudy"
"-99.95","49.91","BRANDON A","5010481","2018-12-11 10:00","2018","12","11","10:00","-6.6","","-9.1","","83","","","","28","","17","","24.1","","96.12","","","","-13","","NA"
"-99.95","49.91","BRANDON A","5010481","2018-12-11 11:00","2018","12","11","11:00","-5.8","","-8.2","","83","","","","28","","17","","24.1","","96.11","","","","-12","","NA"
"-99.95","49.91","BRANDON A","5010481","2018-12-11 12:00","2018","12","11","12:00","-4.7","","-7.4","","82","","","","27","","21","","24.1","","96.08","","","","-11","","Mostly Cloudy"
"-99.95","49.91","BRANDON A","5010481","2018-12-11 13:00","2018","12","11","13:00","-3.1","","-6.7","","76","","","","28","","27","","24.1","","96.05","","","","-10","","NA"
"-99.95","49.91","BRANDON A","5010481","2018-12-11 14:00","2018","12","11","14:00","-3.3","","-6.5","","79","","","","28","","21","","24.1","","96.01","","","","-10","","NA"
"-99.95","49.91","BRANDON A","5010481","2018-12-11 15:00","2018","12","11","15:00","-3.8","","-6.8","","79","","","","28","","18","","24.1","","96.01","","","","-10","","Mainly Clear"
"-99.95","49.91","BRANDON A","5010481","2018-12-11 16:00","2018","12","11","16:00","-5.2","","-7.7","","83","","","","27","","18","","24.1","","96.03","","","","-11","","NA"
"-99.95","49.91","BRANDON A","5010481","2018-12-11 17:00","2018","12","11","17:00","-2.5","","-4.3","","87","","","","28","","19","","19.3","","96.05","","","","-8","","NA"
"-99.95","49.91","BRANDON A","5010481","2018-12-11 18:00","2018","12","11","18:00","-2.1","","-3.5","","90","","","","29","","20","","19.3","","95.99","","","","-8","","Cloudy"
"-99.95","49.91","BRANDON A","5010481","2018-12-11 19:00","2018","12","11","19:00","-1.9","","-3.3","","90","","","","30","","20","","16.1","","96.00","","","","-8","","NA"
"-99.95","49.91","BRANDON A","5010481","2018-12-11 20:00","2018","12","11","20:00","-1.5","","-3.0","","90","","","","28","","13","","24.1","","95.95","","","","-6","","NA"
"-99.95","49.91","BRANDON A","5010481","2018-12-11 21:00","2018","12","11","21:00","-1.2","","-2.8","","89","","","","28","","16","","24.1","","95.86","","","","-6","","Cloudy"
"-99.95","49.91","BRANDON A","5010481","2018-12-11 22:00","2018","12","11","22:00","-1.7","","-3.1","","90","","","","27","","12","","16.1","","95.79","","","","-6","","NA"
"-99.95","49.91","BRANDON A","5010481","2018-12-11 23:00","2018","12","11","23:00","-2.4","","-3.4","","92","","","","27","","14","","16.1","","95.78","","","","-7","","NA"
"-99.95","49.91","BRANDON A","5010481","2018-12-12 00:00","2018","12","12","00:00","-3.7","","-4.5","","94","","","","25","","16","","0.6","","95.77","","","","-9","","Freezing Fog"
"-99.95","49.91","BRANDON A","5010481","2018-12-12 01:00","2018","12","12","01:00","-4.5","","-5.3","","94","","","","27","","13","","0.4","","95.71","","","","-10","","Freezing Fog"
"-99.95","49.91","BRANDON A","5010481","2018-12-12 02:00","2018","12","12","02:00","-4.4","","-5.2","","94","","","","36","","2","","0.4","","95.63","","","","-5","","Freezing Fog"
"-99.95","49.91","BRANDON A","5010481","2018-12-12 03:00","2018","12","12","03:00","-3.7","","-4.5","","94","","","","20","","7","","0.2","","95.56","","","","-7","","Freezing Fog"
"-99.95","49.91","BRANDON A","5010481","2018-12-12 04:00","2018","12","12","04:00","-3.6","","-4.4","","95","","","","23","","12","","0.2","","95.50","","","","-8","","Freezing Fog"
"-99.95","49.91","BRANDON A","5010481","2018-12-12 05:00","2018","12","12","05:00","-4.3","","-5.1","","94","","","","20","","7","","0.4","","95.44","","","","-7","","Freezing Fog"
"-99.95","49.91","BRANDON A","5010481","2018-12-12 06:00","2018","12","12","06:00","-4.6","","-5.4","","94","","","","13","","8","","0.4","","95.32","","","","-8","","Freezing Fog"
"-99.95","49.91","BRANDON A","5010481","2018-12-12 07:00","2018","12","12","07:00","-6.4","","-7.5","","92","","","","13","","10","","0.2","","95.30","","","","-11","","Freezing Fog"
"-99.95","49.91","BRANDON A","5010481","2018-12-12 08:00","2018","12","12","08:00","-6.4","","-7.5","","92","","","","11","","11","","0.2","","95.22","","","","-11","","Freezing Fog"
"-99.95","49.91","BRANDON A","5010481","2018-12-12 09:00","2018","12","12","09:00","-7.5","","-8.8","","91","","","","11","","14","","8.1","","95.19","","","","-13","","Fog"
"-99.95","49.91","BRANDON A","5010481","2018-12-12 10:00","2018","12","12","10:00","-6.4","","-7.6","","91","","","","13","","7","","24.1","","95.17","","","","-10","","NA"
"-99.95","49.91","BRANDON A","5010481","2018-12-12 11:00","2018","12","12","11:00","-5.0","","-6.1","","92","","","","12","","12","","24.1","","95.11","","","","-10","","NA"
"-99.95","49.91","BRANDON A","5010481","2018-12-12 12:00","2018","12","12","12:00","-3.7","","-4.6","","94","","","","11","","7","","24.1","","95.02","","","","-7","","Cloudy"
"-99.95","49.91","BRANDON A","5010481","2018-12-12 13:00","2018","12","12","13:00","-2.0","","-2.7","","95","","","","14","","12","","24.1","","94.91","","","","-6","","NA"
"-99.95","49.91","BRANDON A","5010481","2018-12-12 14:00","2018","12","12","14:00","-0.9","","-1.5","","96","","","","33","","4","","24.1","","94.95","","","","-2","","NA"
"-99.95","49.91","BRANDON A","5010481","2018-12-12 15:00","2018","12","12","15:00","-1.1","","-1.7","","95","","","","36","","3","","24.1","","94.96","","","","-2","","Cloudy"
"-99.95","49.91","BRANDON A","5010481","2018-12-12 16:00","2018","12","12","16:00","0.1","","-2.6","","82","","","","23","","9","","24.1","","95.03","","","","","","NA"
"-99.95","49.91","BRANDON A","5010481","2018-12-12 17:00","2018","12","12","17:00","0.2","","-2.9","","80","","","","22","","4","","24.1","","95.11","","","","","","NA"
"-99.95","49.91","BRANDON A","5010481","2018-12-12 18:00","2018","12","12","18:00","-0.3","","-2.8","","83","","","","23","","8","","24.1","","95.17","","","","-3","","Cloudy"
"-99.95","49.91","BRANDON A","5010481","2018-12-12 19:00","2018","12","12","19:00","-1.1","","-2.7","","89","","","","30","","11","","24.1","","95.24","","","","-5","","NA"
"-99.95","49.91","BRANDON A","5010481","2018-12-12 20:00","2018","12","12","20:00","-0.4","","-2.3","","87","","","","29","","18","","24.1","","95.33","","","","-5","","NA"
"-99.95","49.91","BRANDON A","5010481","2018-12-12 21:00","2018","12","12","21:00","-0.8","","-2.9","","86","","","","30","","18","","24.1","","95.42","","","","-6","","Cloudy"
"-99.95","49.91","BRANDON A","5010481","2018-12-12 22:00","2018","12","12","22:00","-0.8","","-3.7","","81","","","","32","","25","","24.1","","95.49","","","","-7","","NA"
"-99.95","49.91","BRANDON A","5010481","2018-12-12 23:00","2018","12","12","23:00","-0.8","","-3.8","","81","","","","31","","31","","24.1","","95.60","","","","-8","","NA"
"-99.95","49.91","BRANDON A","5010481","2018-12-13 00:00","2018","12","13","00:00","-1.8","","-4.8","","80","","","","29","","22","","24.1","","95.71","","","","-8","","Mostly Cloudy"
"-99.95","49.91","BRANDON A","5010481","2018-12-13 01:00","2018","12","13","01:00","-1.9","","-5.0","","80","","","","29","","23","","24.1","","95.81","","","","-8","","NA"
"-99.95","49.91","BRANDON A","5010481","2018-12-13 02:00","2018","12","13","02:00","-2.7","","-5.9","","79","","","","29","","23","","24.1","","95.85","","","","-9","","NA"
"-99.95","49.91","BRANDON A","5010481","2018-12-13 03:00","2018","12","13","03:00","-3.4","","-6.5","","79","","","","28","","22","","24.1","","95.98","","","","-10","","Mainly Clear"
"-99.95","49.91","BRANDON A","5010481","2018-12-13 04:00","2018","12","13","04:00","-4.7","","-7.4","","82","","","","27","","20","","24.1","","96.03","","","","-11","","NA"
"-99.95","49.91","BRANDON A","5010481","2018-12-13 05:00","2018","12","13","05:00","-6.6","","-9.2","","82","","","","28","","21","","24.1","","96.13","","","","-14","","NA"
"-99.95","49.91","BRANDON A","5010481","2018-12-13 06:00","2018","12","13","06:00","-7.7","","-10.6","","80","","","","26","","20","","24.1","","96.17","","","","-15","","Mainly Clear"
"-99.95","49.91","BRANDON A","5010481","2018-12-13 07:00","2018","12","13","07:00","-12.1","","-15.1","","79","","","","26","","11","","24.1","","96.25","","","","-18","","NA"
"-99.95","49.91","BRANDON A","5010481","2018-12-13 08:00","2018","12","13","08:00","-11.6","","-14.1","","82","","","","27","","22","","24.1","","96.28","","","","-20","","NA"
"-99.95","49.91","BRANDON A","5010481","2018-12-13 09:00","2018","12","13","09:00","-10.0","","-13.6","","76","","","","26","","21","","24.1","","96.31","","","","-18","","Mainly Clear"
"-99.95","49.91","BRANDON A","5010481","2018-12-13 10:00","2018","12","13","10:00","-9.9","","-13.5","","76","","","","25","","16","","24.1","","96.36","","","","-17","","NA"
"-99.95","49.91","BRANDON A","5010481","2018-12-13 11:00","2018","12","13","11:00","-9.0","","-12.7","","75","","","","24","","15","","24.1","","96.38","","","","-16","","NA"
"-99.95","49.91","BRANDON A","5010481","2018-12-13 12:00","2018","12","13","12:00","-7.4","","-11.2","","74","","","","23","","17","","24.1","","96.38","","","","-14","","Mainly Clear"
"-99.95","49.91","BRANDON A","5010481","2018-12-13 13:00","2018","12","13","13:00","-4.9","","-9.6","","70","","","","25","","20","","24.1","","96.31","","","","-11","","NA"
"-99.95","49.91","BRANDON A","5010481","2018-12-13 14:00","2018","12","13","14:00","-4.5","","-8.9","","71","","","","24","","13","","24.1","","96.24","","","","-10","","NA"
"-99.95","49.91","BRANDON A","5010481","2018-12-13 15:00","2018","12","13","15:00","-3.3","","-7.9","","71","","","","24","","22","","24.1","","96.21","","","","-10","","Mostly Cloudy"
"-99.95","49.91","BRANDON A","5010481","2018-12-13 16:00","2018","12","13","16:00","-3.8","","-7.5","","75","","","","23","","14","","24.1","","96.20","","","","-9","","NA"
"-99.95","49.91","BRANDON A","5010481","2018-12-13 17:00","2018","12","13","17:00","-5.0","","-8.2","","78","","","","25","","19","","24.1","","96.17","","","","-11","","NA"
"-99.95","49.91","BRANDON A","5010481","2018-12-13 18:00","2018","12","13","18:00","-3.4","","-7.1","","75","","","","23","","28","","24.1","","96.08","","","","-11","","Mostly Cloudy"
"-99.95","49.91","BRANDON A","5010481","2018-12-13 19:00","2018","12","13","19:00","-3.1","","-6.6","","76","","","","24","","26","","24.1","","96.01","","","","-10","","NA"
"-99.95","49.91","BRANDON A","5010481","2018-12-13 20:00","2018","12","13","20:00","-2.3","","-6.3","","74","","","","25","","32","","24.1","","95.95","","","","-10","","NA"
"-99.95","49.91","BRANDON A","5010481","2018-12-13 21:00","2018","12","13","21:00","-2.0","","-6.1","","74","","","","26","","32","","24.1","","95.98","","","","-9","","Mainly Clear"
"-99.95","49.91","BRANDON A","5010481","2018-12-13 22:00","2018","12","13","22:00","-2.6","","-6.4","","75","","","","26","","29","","24.1","","96.01","","","","-10","","NA"
"-99.95","49.91","BRANDON A","5010481","2018-12-13 23:00","2018","12","13","23:00","-2.6","","-6.5","","75","","","","26","","31","","24.1","","96.03","","","","-10","","NA"
"-99.95","49.91","BRANDON A","5010481","2018-12-14 00:00","2018","12","14","00:00","-2.9","","-6.4","","77","","","","27","","32","","24.1","","96.10","","","","-10","","Mainly Clear"
"-99.95","49.91","BRANDON A","5010481","2018-12-14 01:00","2018","12","14","01:00","-4.1","","-7.1","","80","","","","27","","27","","24.1","","96.18","","","","-11","","NA"
"-99.95","49.91","BRANDON A","5010481","2018-12-14 02:00","2018","12","14","02:00","-6.0","","-8.5","","83","","","","28","","21","","24.1","","96.27","","","","-13","","NA"
"-99.95","49.91","BRANDON A","5010481","2018-12-14 03:00","2018","12","14","03:00","-7.2","","-9.3","","85","","","","27","","17","","24.1","","96.33","","","","-14","","Clear"
"-99.95","49.91","BRANDON A","5010481","2018-12-14 04:00","2018","12","14","04:00","-8.8","","-10.8","","86","","","","33","","7","","24.1","","96.40","","","","-13","","NA"
"-99.95","49.91","BRANDON A","5010481","2018-12-14 05:00","2018","12","14","05:00","-9.4","","-11.0","","88","","","","23","","19","","24.1","","96.45","","","","-17","","NA"
"-99.95","49.91","BRANDON A","5010481","2018-12-14 06:00","2018","12","14","06:00","-10.4","","-12.0","","88","","","","23","","20","","24.1","","96.51","","","","-18","","Clear"
"-99.95","49.91","BRANDON A","5010481","2018-12-14 07:00","2018","12","14","07:00","-11.4","","-13.1","","88","","","","24","","15","","24.1","","96.59","","","","-18","","NA"
"-99.95","49.91","BRANDON A","5010481","2018-12-14 08:00","2018","12","14","08:00","-12.1","","-13.7","","88","","","","24","","21","","24.1","","96.66","","","","-21","","NA"
"-99.95","49.91","BRANDON A","5010481","2018-12-14 09:00","2018","12","14","09:00","-10.3","","-12.1","","87","","","","25","","16","","24.1","","96.70","","","","-17","","Mainly Clear"
"-99.95","49.91","BRANDON A","5010481","2018-12-14 10:00","2018","12","14","10:00","-9.6","","-11.3","","87","","","","26","","17","","24.1","","96.73","","","","-17","","NA"
"-99.95","49.91","BRANDON A","5010481","2018-12-14 11:00","2018","12","14","11:00","-9.3","","-11.4","","85","","","","28","","16","","24.1","","96.76","","","","-16","","NA"
"-99.95","49.91","BRANDON A","5010481","2018-12-14 12:00","2018","12","14","12:00","-6.0","","-8.6","","82","","","","27","","16","","24.1","","96.74","","","","-12","","Mainly Clear"
"-99.95","49.91","BRANDON A","5010481","2018-12-14 13:00","2018","12","14","13:00","-3.4","","-6.6","","79","","","","27","","14","","24.1","","96.69","","","","-8","","NA"
"-99.95","49.91","BRANDON A","5010481","2018-12-14 14:00","2018","12","14","14:00","-2.5","","-6.0","","77","","","","25","","9","","24.1","","96.64","","","","-6","","NA"
"-99.95","49.91","BRANDON A","5010481","2018-12-14 15:00","2018","12","14","15:00","-2.4","","-5.9","","77","","","","24","","13","","24.1","","96.55","","","","-7","","Mainly Clear"
"-99.95","49.91","BRANDON A","5010481","2018-12-14 16:00","2018","12","14","16:00","-2.3","","-6.1","","75","","","","25","","10","","24.1","","96.59","","","","-6","","NA"
"-99.95","49.91","BRANDON A","5010481","2018-12-14 17:00","2018","12","14","17:00","-6.6","","-9.0","","83","","","","36","","3","","24.1","","96.60","","","","-8","","NA"
"-99.95","49.91","BRANDON A","5010481","2018-12-14 18:00","2018","12","14","18:00","-7.4","","-9.4","","86","","","","16","","5","","24.1","","96.54","","","","-10","","Mainly Clear"
"-99.95","49.91","BRANDON A","5010481","2018-12-14 19:00","2018","12","14","19:00","-10.6","","-12.3","","87","","","","10","","6","","24.1","","96.49","","","","-14","","NA"
"-99.95","49.91","BRANDON A","5010481","2018-12-14 20:00","2018","12","14","20:00","-10.5","","-12.1","","88","","","","36","","8","","24.1","","96.43","","","","-15","","NA"
"-99.95","49.91","BRANDON A","5010481","2018-12-14 21:00","2018","12","14","21:00","-11.0","","-12.8","","87","","","","36","","2","","24.1","","96.34","","","","-12","","Mainly Clear"
"-99.95","49.91","BRANDON A","5010481","2018-12-14 22:00","2018","12","14","22:00","-9.8","","-11.5","","88","","","","32","","4","","24.1","","96.29","","","","-12","","NA"
"-99.95","49.91","BRANDON A","5010481","2018-12-14 23:00","2018","12","14","23:00","-8.6","","-10.2","","88","","","","36","","3","","24.1","","96.23","","","","-10","","NA"
"-99.95","49.91","BRANDON A","5010481","2018-12-15 00:00","2018","12","15","00:00","-10.5","","-12.3","","87","","","","36","","1","","24.1","","96.12","","","","-11","","Mainly Clear"
"-99.95","49.91","BRANDON A","5010481","2018-12-15 01:00","2018","12","15","01:00","-11.6","","-13.7","","85","","","","26","","4","","24.1","","96.09","","","","-14","","NA"
"-99.95","49.91","BRANDON A","5010481","2018-12-15 02:00","2018","12","15","02:00","-10.6","","-13.0","","83","","","","22","","4","","24.1","","96.00","","","","-13","","NA"
"-99.95","49.91","BRANDON A","5010481","2018-12-15 03:00","2018","12","15","03:00","-10.9","","-13.4","","82","","","","36","","3","","24.1","","95.95","","","","-13","","Clear"
"-99.95","49.91","BRANDON A","5010481","2018-12-15 04:00","2018","12","15","04:00","-10.4","","-12.6","","84","","","","1","","4","","24.1","","95.88","","","","-13","","NA"
"-99.95","49.91","BRANDON A","5010481","2018-12-15 05:00","2018","12","15","05:00","-11.4","","-13.7","","84","","","","31","","5","","24.1","","95.82","","","","-15","","NA"
"-99.95","49.91","BRANDON A","5010481","2018-12-15 06:00","2018","12","15","06:00","-11.1","","-13.4","","83","","","","34","","5","","24.1","","95.71","","","","-14","","Clear"
"-99.95","49.91","BRANDON A","5010481","2018-12-15 07:00","2018","12","15","07:00","-9.9","","-12.2","","84","","","","36","","1","","24.1","","95.65","","","","-10","","NA"
"-99.95","49.91","BRANDON A","5010481","2018-12-15 08:00","2018","12","15","08:00","-10.3","","-12.8","","82","","","","2","","4","","24.1","","95.59","","","","-13","","NA"
"-99.95","49.91","BRANDON A","5010481","2018-12-15 09:00","2018","12","15","09:00","-10.0","","-12.2","","84","","","","9","","7","","24.1","","95.52","","","","-14","","Mostly Cloudy"
"-99.95","49.91","BRANDON A","5010481","2018-12-15 10:00","2018","12","15","10:00","-7.7","","-10.2","","83","","","","11","","6","","24.1","","95.45","","","","-11","","NA"
"-99.95","49.91","BRANDON A","5010481","2018-12-15 11:00","2018","12","15","11:00","-5.8","","-8.9","","79","","","","32","","6","","24.1","","95.46","","","","-9","","NA"
"-99.95","49.91","BRANDON A","5010481","2018-12-15 12:00","2018","12","15","12:00","-2.3","","-6.8","","71","","","","36","","1","","24.1","","95.28","","","","-3","","Mostly Cloudy"
"-99.95","49.91","BRANDON A","5010481","2018-12-15 13:00","2018","12","15","13:00","-2.9","","-6.6","","76","","","","28","","13","","24.1","","95.25","","","","-8","","NA"
"-99.95","49.91","BRANDON A","5010481","2018-12-15 14:00","2018","12","15","14:00","-0.6","","-4.1","","77","","","","26","","20","","24.1","","95.21","","","","-6","","NA"
"-99.95","49.91","BRANDON A","5010481","2018-12-15 15:00","2018","12","15","15:00","0.6","","-3.2","","76","","","","26","","22","","24.1","","95.20","","","","","","Mostly Cloudy"
"-99.95","49.91","BRANDON A","5010481","2018-12-15 16:00","2018","12","15","16:00","0.7","","-3.0","","76","","","","25","","25","","24.1","","95.26","","","","","","NA"
"-99.95","49.91","BRANDON A","5010481","2018-12-15 17:00","2018","12","15","17:00","2.7","","-1.4","","74","","","","27","","21","","24.1","","95.32","","","","","","NA"
"-99.95","49.91","BRANDON A","5010481","2018-12-15 18:00","2018","12","15","18:00","2.2","","-1.9","","74","","","","26","","30","","24.1","","95.40","","","","","","Mostly Cloudy"
"-99.95","49.91","BRANDON A","5010481","2018-12-15 19:00","2018","12","15","19:00","2.8","","-1.2","","75","","","","27","","32","","24.1","","95.46","","","","","","NA"
"-99.95","49.91","BRANDON A","5010481","2018-12-15 20:00","2018","12","15","20:00","2.8","","-1.4","","74","","","","26","","32","","24.1","","95.54","","","","","","NA"
"-99.95","49.91","BRANDON A","5010481","2018-12-15 21:00","2018","12","15","21:00","2.1","","-1.6","","76","","","","27","","43","","24.1","","95.70","","","","","","Mainly Clear"
"-99.95","49.91","BRANDON A","5010481","2018-12-15 22:00","2018","12","15","22:00","0.9","","-2.2","","80","","","","29","","39","","24.1","","95.83","","","","","","NA"
"-99.95","49.91","BRANDON A","5010481","2018-12-15 23:00","2018","12","15","23:00","1.0","","-3.0","","75","","","","29","","44","","24.1","","95.99","","","","","","NA"
"-99.95","49.91","BRANDON A","5010481","2018-12-16 00:00","2018","12","16","00:00","0.2","","-4.3","","72","","","","29","","42","","24.1","","96.12","","","","","","Clear"
"-99.95","49.91","BRANDON A","5010481","2018-12-16 01:00","2018","12","16","01:00","-0.6","","-5.4","","70","","","","28","","39","","24.1","","96.23","","","","-8","","NA"
"-99.95","49.91","BRANDON A","5010481","2018-12-16 02:00","2018","12","16","02:00","-1.3","","-6.4","","69","","","","27","","39","","24.1","","96.35","","","","-9","","NA"
"-99.95","49.91","BRANDON A","5010481","2018-12-16 03:00","2018","12","16","03:00","-2.2","","-7.6","","67","","","","27","","37","","24.1","","96.45","","","","-10","","Clear"
"-99.95","49.91","BRANDON A","5010481","2018-12-16 04:00","2018","12","16","04:00","-2.5","","-8.2","","65","","","","28","","45","","24.1","","96.50","","","","-11","","NA"
"-99.95","49.91","BRANDON A","5010481","2018-12-16 05:00","2018","12","16","05:00","-3.4","","-8.8","","67","","","","28","","39","","24.1","","96.58","","","","-12","","NA"
"-99.95","49.91","BRANDON A","5010481","2018-12-16 06:00","2018","12","16","06:00","-4.5","","-9.4","","69","","","","28","","33","","24.1","","96.68","","","","-13","","Clear"
"-99.95","49.91","BRANDON A","5010481","2018-12-16 07:00","2018","12","16","07:00","-4.5","","-9.5","","68","","","","28","","40","","24.1","","96.80","","","","-13","","NA"
"-99.95","49.91","BRANDON A","5010481","2018-12-16 08:00","2018","12","16","08:00","-5.4","","-10.1","","70","","","","28","","37","","24.1","","96.90","","","","-14","","NA"
"-99.95","49.91","BRANDON A","5010481","2018-12-16 09:00","2018","12","16","09:00","-5.9","","-10.3","","71","","","","30","","40","","24.1","","97.02","","","","-15","","Mainly Clear"
"-99.95","49.91","BRANDON A","5010481","2018-12-16 10:00","2018","12","16","10:00","-6.5","","-10.9","","71","","","","30","","32","","24.1","","97.12","","","","-15","","NA"
"-99.95","49.91","BRANDON A","5010481","2018-12-16 11:00","2018","12","16","11:00","-6.4","","-11.1","","70","","","","29","","28","","24.1","","97.27","","","","-15","","NA"
"-99.95","49.91","BRANDON A","5010481","2018-12-16 12:00","2018","12","16","12:00","-5.9","","-10.9","","68","","","","30","","35","","24.1","","97.29","","","","-15","","Mostly Cloudy"
"-99.95","49.91","BRANDON A","5010481","2018-12-16 13:00","2018","12","16","13:00","-6.3","","-11.5","","67","","","","31","","28","","24.1","","97.31","","","","-14","","NA"
"-99.95","49.91","BRANDON A","5010481","2018-12-16 14:00","2018","12","16","14:00","-6.7","","-11.8","","68","","","","30","","28","","24.1","","97.39","","","","-15","","NA"
"-99.95","49.91","BRANDON A","5010481","2018-12-16 15:00","2018","12","16","15:00","-7.6","","-12.4","","69","","","","30","","26","","24.1","","97.39","","","","-16","","Mostly Cloudy"
"-99.95","49.91","BRANDON A","5010481","2018-12-16 16:00","2018","12","16","16:00","-9.4","","-13.4","","73","","","","30","","14","","24.1","","97.42","","","","-16","","NA"
"-99.95","49.91","BRANDON A","5010481","2018-12-16 17:00","2018","12","16","17:00","-9.5","","-13.2","","74","","","","29","","26","","24.1","","97.43","","","","-18","","NA"
"-99.95","49.91","BRANDON A","5010481","2018-12-16 18:00","2018","12","16","18:00","-9.2","","-13.2","","73","","","","29","","9","","24.1","","97.50","","","","-14","","Mostly Cloudy"
"-99.95","49.91","BRANDON A","5010481","2018-12-16 19:00","2018","12","16","19:00","-9.9","","-13.9","","73","","","","36","","10","","24.1","","97.50","","","","-15","","NA"
"-99.95","49.91","BRANDON A","5010481","2018-12-16 20:00","2018","12","16","20:00","-11.3","","-14.8","","75","","","","28","","4","","24.1","","97.59","","","","-14","","NA"
"-99.95","49.91","BRANDON A","5010481","2018-12-16 21:00","2018","12","16","21:00","-12.0","","-15.2","","78","","","","36","","2","","24.1","","97.56","","","","-13","","Mainly Clear"
"-99.95","49.91","BRANDON A","5010481","2018-12-16 22:00","2018","12","16","22:00","-12.5","","-15.4","","79","","","","13","","3","","24.1","","97.56","","","","-14","","NA"
"-99.95","49.91","BRANDON A","5010481","2018-12-16 23:00","2018","12","16","23:00","-13.4","","-15.9","","82","","","","36","","3","","24.1","","97.55","","","","-15","","NA"
"-99.95","49.91","BRANDON A","5010481","2018-12-17 00:00","2018","12","17","00:00","-14.3","","-17.0","","80","","","","5","","3","","24.1","","97.57","","","","-16","","Cloudy"
"-99.95","49.91","BRANDON A","5010481","2018-12-17 01:00","2018","12","17","01:00","-13.5","","-16.3","","80","","","","7","","5","","24.1","","97.56","","","","-17","","NA"
"-99.95","49.91","BRANDON A","5010481","2018-12-17 02:00","2018","12","17","02:00","-14.7","","-17.6","","79","","","","8","","10","","24.1","","97.53","","","","-21","","NA"
"-99.95","49.91","BRANDON A","5010481","2018-12-17 03:00","2018","12","17","03:00","-14.9","","-17.7","","79","","","","9","","14","","24.1","","97.49","","","","-22","","Mainly Clear"
"-99.95","49.91","BRANDON A","5010481","2018-12-17 04:00","2018","12","17","04:00","-15.4","","-18.1","","80","","","","8","","14","","24.1","","97.44","","","","-23","","NA"
"-99.95","49.91","BRANDON A","5010481","2018-12-17 05:00","2018","12","17","05:00","-15.6","","-18.1","","81","","","","10","","13","","24.1","","97.32","","","","-23","","NA"
"-99.95","49.91","BRANDON A","5010481","2018-12-17 06:00","2018","12","17","06:00","-15.5","","-18.0","","81","","","","9","","16","","24.1","","97.32","","","","-24","","Clear"
"-99.95","49.91","BRANDON A","5010481","2018-12-17 07:00","2018","12","17","07:00","-14.4","","-16.8","","82","","","","8","","16","","24.1","","97.27","","","","-22","","NA"
"-99.95","49.91","BRANDON A","5010481","2018-12-17 08:00","2018","12","17","08:00","-13.8","","-16.6","","80","","","","9","","20","","24.1","","97.17","","","","-23","","NA"
"-99.95","49.91","BRANDON A","5010481","2018-12-17 09:00","2018","12","17","09:00","-13.8","","-16.8","","79","","","","9","","20","","24.1","","97.14","","","","-23","","Mostly Cloudy"
"-99.95","49.91","BRANDON A","5010481","2018-12-17 10:00","2018","12","17","10:00","-11.9","","-15.4","","75","","","","11","","18","","24.1","","97.14","","","","-20","","NA"
"-99.95","49.91","BRANDON A","5010481","2018-12-17 11:00","2018","12","17","11:00","-10.9","","-15.2","","71","","","","11","","17","","24.1","","97.10","","","","-18","","NA"
"-99.95","49.91","BRANDON A","5010481","2018-12-17 12:00","2018","12","17","12:00","-9.5","","-14.2","","69","","","","12","","22","","24.1","","96.97","","","","-18","","Mostly Cloudy"
"-99.95","49.91","BRANDON A","5010481","2018-12-17 13:00","2018","12","17","13:00","-7.8","","-12.8","","67","","","","10","","18","","24.1","","96.87","","","","-15","","NA"
"-99.95","49.91","BRANDON A","5010481","2018-12-17 14:00","2018","12","17","14:00","-6.7","","-11.8","","67","","","","12","","26","","24.1","","96.70","","","","-15","","NA"
"-99.95","49.91","BRANDON A","5010481","2018-12-17 15:00","2018","12","17","15:00","-6.1","","-11.0","","69","","","","13","","24","","24.1","","96.60","","","","-14","","Mostly Cloudy"
"-99.95","49.91","BRANDON A","5010481","2018-12-17 16:00","2018","12","17","16:00","-6.4","","-11.4","","68","","","","14","","19","","24.1","","96.57","","","","-13","","NA"
"-99.95","49.91","BRANDON A","5010481","2018-12-17 17:00","2018","12","17","17:00","-6.8","","-11.6","","69","","","","13","","23","","24.1","","96.47","","","","-14","","NA"
"-99.95","49.91","BRANDON A","5010481","2018-12-17 18:00","2018","12","17","18:00","-7.5","","-11.7","","72","","","","13","","16","","24.1","","96.39","","","","-14","","Mostly Cloudy"
"-99.95","49.91","BRANDON A","5010481","2018-12-17 19:00","2018","12","17","19:00","-7.9","","-11.7","","75","","","","13","","16","","24.1","","96.31","","","","-14","","NA"
"-99.95","49.91","BRANDON A","5010481","2018-12-17 20:00","2018","12","17","20:00","-9.1","","-12.2","","78","","","","11","","10","","24.1","","96.27","","","","-14","","NA"
"-99.95","49.91","BRANDON A","5010481","2018-12-17 21:00","2018","12","17","21:00","-10.6","","-13.6","","79","","","","9","","9","","24.1","","96.21","","","","-16","","Mostly Cloudy"
"-99.95","49.91","BRANDON A","5010481","2018-12-17 22:00","2018","12","17","22:00","-10.4","","-13.1","","81","","","","8","","10","","24.1","","96.11","","","","-16","","NA"
"-99.95","49.91","BRANDON A","5010481","2018-12-17 23:00","2018","12","17","23:00","-10.1","","-12.3","","83","","","","10","","6","","24.1","","96.04","","","","-14","","NA"
"-99.95","49.91","BRANDON A","5010481","2018-12-18 00:00","2018","12","18","00:00","-10.1","","-12.2","","84","","","","4","","4","","24.1","","95.94","","","","-12","","Mostly Cloudy"
"-99.95","49.91","BRANDON A","5010481","2018-12-18 01:00","2018","12","18","01:00","-8.4","","-10.4","","85","","","","1","","6","","24.1","","95.91","","","","-12","","NA"
"-99.95","49.91","BRANDON A","5010481","2018-12-18 02:00","2018","12","18","02:00","-7.2","","-9.2","","86","","","","28","","4","","24.1","","95.87","","","","-9","","NA"
"-99.95","49.91","BRANDON A","5010481","2018-12-18 03:00","2018","12","18","03:00","-6.4","","-8.4","","86","","","","29","","10","","24.1","","95.81","","","","-11","","Cloudy"
"-99.95","49.91","BRANDON A","5010481","2018-12-18 04:00","2018","12","18","04:00","-5.7","","-7.7","","86","","","","28","","17","","24.1","","95.82","","","","-12","","NA"
"-99.95","49.91","BRANDON A","5010481","2018-12-18 05:00","2018","12","18","05:00","-6.0","","-8.0","","86","","","","27","","17","","24.1","","95.75","","","","-12","","NA"
"-99.95","49.91","BRANDON A","5010481","2018-12-18 06:00","2018","12","18","06:00","-8.1","","-9.6","","89","","","","28","","15","","24.1","","95.80","","","","-14","","Clear"
"-99.95","49.91","BRANDON A","5010481","2018-12-18 07:00","2018","12","18","07:00","-7.6","","-9.0","","89","","","","27","","17","","24.1","","95.81","","","","-14","","NA"
"-99.95","49.91","BRANDON A","5010481","2018-12-18 08:00","2018","12","18","08:00","-7.8","","-9.4","","89","","","","27","","16","","24.1","","95.82","","","","-14","","NA"
"-99.95","49.91","BRANDON A","5010481","2018-12-18 09:00","2018","12","18","09:00","-7.8","","-9.3","","88","","","","25","","19","","24.1","","95.82","","","","-15","","Mainly Clear"
"-99.95","49.91","BRANDON A","5010481","2018-12-18 10:00","2018","12","18","10:00","-5.8","","-7.6","","87","","","","26","","18","","24.1","","95.87","","","","-12","","NA"
"-99.95","49.91","BRANDON A","5010481","2018-12-18 11:00","2018","12","18","11:00","-5.5","","-7.4","","87","","","","28","","19","","24.1","","95.85","","","","-12","","NA"
"-99.95","49.91","BRANDON A","5010481","2018-12-18 12:00","2018","12","18","12:00","-3.8","","-6.1","","84","","","","26","","14","","24.1","","95.78","","","","-9","","Mostly Cloudy"
"-99.95","49.91","BRANDON A","5010481","2018-12-18 13:00","2018","12","18","13:00","-2.6","","-5.4","","81","","","","30","","15","","24.1","","95.74","","","","-8","","NA"
"-99.95","49.91","BRANDON A","5010481","2018-12-18 14:00","2018","12","18","14:00","-1.6","","-4.5","","81","","","","29","","10","","24.1","","95.68","","","","-5","","NA"
"-99.95","49.91","BRANDON A","5010481","2018-12-18 15:00","2018","12","18","15:00","-2.9","","-5.3","","83","","","","25","","7","","24.1","","95.60","","","","-6","","Mostly Cloudy"
"-99.95","49.91","BRANDON A","5010481","2018-12-18 16:00","2018","12","18","16:00","-2.3","","-4.8","","83","","","","23","","9","","24.1","","95.59","","","","-6","","NA"
"-99.95","49.91","BRANDON A","5010481","2018-12-18 17:00","2018","12","18","17:00","-3.8","","-5.8","","86","","","","25","","12","","24.1","","95.57","","","","-8","","NA"
"-99.95","49.91","BRANDON A","5010481","2018-12-18 18:00","2018","12","18","18:00","-6.8","","-8.4","","89","","","","36","","2","","24.1","","95.47","","","","-8","","Mostly Cloudy"
"-99.95","49.91","BRANDON A","5010481","2018-12-18 19:00","2018","12","18","19:00","-9.0","","-10.4","","89","","","","5","","9","","19.3","","95.34","","","","-14","","NA"
"-99.95","49.91","BRANDON A","5010481","2018-12-18 20:00","2018","12","18","20:00","-6.1","","-7.3","","91","","","","4","","10","","24.1","","95.26","","","","-11","","NA"
"-99.95","49.91","BRANDON A","5010481","2018-12-18 21:00","2018","12","18","21:00","-4.6","","-5.9","","90","","","","36","","8","","24.1","","95.23","","","","-8","","Cloudy"
"-99.95","49.91","BRANDON A","5010481","2018-12-18 22:00","2018","12","18","22:00","-3.0","","-4.5","","90","","","","31","","7","","24.1","","95.18","","","","-6","","NA"
"-99.95","49.91","BRANDON A","5010481","2018-12-18 23:00","2018","12","18","23:00","-1.3","","-3.0","","89","","","","27","","10","","24.1","","95.16","","","","-5","","NA"
"-99.95","49.91","BRANDON A","5010481","2018-12-19 00:00","2018","12","19","00:00","0.6","","-1.3","","87","","","","27","","7","","24.1","","95.07","","","","","","Rain"
"-99.95","49.91","BRANDON A","5010481","2018-12-19 01:00","2018","12","19","01:00","0.7","","-0.7","","90","","","","24","","6","","24.1","","95.04","","","","","","Rain"
"-99.95","49.91","BRANDON A","5010481","2018-12-19 02:00","2018","12","19","02:00","1.2","","-0.1","","90","","","","24","","13","","24.1","","94.99","","","","","","NA"
"-99.95","49.91","BRANDON A","5010481","2018-12-19 03:00","2018","12","19","03:00","1.2","","-0.1","","91","","","","24","","13","","24.1","","94.95","","","","","","Cloudy"
"-99.95","49.91","BRANDON A","5010481","2018-12-19 04:00","2018","12","19","04:00","1.1","","-0.3","","90","","","","26","","7","","24.1","","94.88","","","","","","NA"
"-99.95","49.91","BRANDON A","5010481","2018-12-19 05:00","2018","12","19","05:00","0.9","","-0.6","","90","","","","25","","9","","24.1","","94.85","","","","","","NA"
"-99.95","49.91","BRANDON A","5010481","2018-12-19 06:00","2018","12","19","06:00","0.5","","-0.9","","90","","","","36","","2","","24.1","","94.84","","","","","","Cloudy"
"-99.95","49.91","BRANDON A","5010481","2018-12-19 07:00","2018","12","19","07:00","-0.4","","-1.4","","93","","","","36","","1","","24.1","","94.83","","","","-1","","NA"
"-99.95","49.91","BRANDON A","5010481","2018-12-19 08:00","2018","12","19","08:00","-0.6","","-1.6","","92","","","","1","","4","","24.1","","94.82","","","","-2","","NA"
"-99.95","49.91","BRANDON A","5010481","2018-12-19 09:00","2018","12","19","09:00","-0.5","","-1.3","","95","","","","29","","12","","24.1","","94.89","","","","-4","","Mostly Cloudy"
"-99.95","49.91","BRANDON A","5010481","2018-12-19 10:00","2018","12","19","10:00","1.3","","-0.1","","90","","","","31","","11","","24.1","","94.91","","","","","","Rain"
"-99.95","49.91","BRANDON A","5010481","2018-12-19 11:00","2018","12","19","11:00","2.4","","-0.6","","80","","","","2","","8","","24.1","","94.99","","","","","","Rain"
"-99.95","49.91","BRANDON A","5010481","2018-12-19 12:00","2018","12","19","12:00","1.6","","-0.3","","87","","","","30","","7","","24.1","","95.09","","","","","","Mostly Cloudy"
"-99.95","49.91","BRANDON A","5010481","2018-12-19 13:00","2018","12","19","13:00","2.0","","-0.6","","83","","","","33","","16","","24.1","","95.20","","","","","","NA"
"-99.95","49.91","BRANDON A","5010481","2018-12-19 14:00","2018","12","19","14:00","1.7","","-1.6","","79","","","","34","","17","","24.1","","95.31","","","","","","NA"
"-99.95","49.91","BRANDON A","5010481","2018-12-19 15:00","2018","12","19","15:00","1.3","","-2.2","","78","","","","33","","22","","24.1","","95.41","","","","","","Mostly Cloudy"
"-99.95","49.91","BRANDON A","5010481","2018-12-19 16:00","2018","12","19","16:00","0.5","","-3.1","","77","","","","33","","25","","24.1","","95.58","","","","","","NA"
"-99.95","49.91","BRANDON A","5010481","2018-12-19 17:00","2018","12","19","17:00","-0.8","","-3.9","","80","","","","33","","20","","24.1","","95.75","","","","-6","","NA"
"-99.95","49.91","BRANDON A","5010481","2018-12-19 18:00","2018","12","19","18:00","-1.2","","-3.9","","82","","","","35","","28","","24.1","","95.88","","","","-8","","Cloudy"
"-99.95","49.91","BRANDON A","5010481","2018-12-19 19:00","2018","12","19","19:00","-2.0","","-4.3","","84","","","","35","","27","","24.1","","96.02","","","","-9","","NA"
"-99.95","49.91","BRANDON A","5010481","2018-12-19 20:00","2018","12","19","20:00","-2.3","","-4.7","","84","","","","35","","27","","24.1","","96.09","","","","-9","","NA"
"-99.95","49.91","BRANDON A","5010481","2018-12-19 21:00","2018","12","19","21:00","-2.8","","-5.2","","84","","","","35","","22","","24.1","","96.20","","","","-9","","Cloudy"
"-99.95","49.91","BRANDON A","5010481","2018-12-19 22:00","2018","12","19","22:00","-3.1","","-5.2","","85","","","","36","","17","","24.1","","96.25","","","","-9","","NA"
"-99.95","49.91","BRANDON A","5010481","2018-12-19 23:00","2018","12","19","23:00","-3.5","","-5.7","","85","","","","35","","17","","24.1","","96.36","","","","-9","","NA"
"-99.95","49.91","BRANDON A","5010481","2018-12-20 00:00","2018","12","20","00:00","-3.8","","-5.8","","86","","","","35","","18","","24.1","","96.41","","","","-10","","Cloudy"
"-99.95","49.91","BRANDON A","5010481","2018-12-20 01:00","2018","12","20","01:00","-4.1","","-5.9","","88","","","","34","","12","","24.1","","96.46","","","","-9","","NA"
"-99.95","49.91","BRANDON A","5010481","2018-12-20 02:00","2018","12","20","02:00","-4.6","","-6.0","","90","","","","30","","17","","24.1","","96.52","","","","-10","","NA"
"-99.95","49.91","BRANDON A","5010481","2018-12-20 03:00","2018","12","20","03:00","-5.8","","-7.0","","92","","","","29","","21","","12.9","","96.57","","","","-13","","Cloudy"
"-99.95","49.91","BRANDON A","5010481","2018-12-20 04:00","2018","12","20","04:00","-6.0","","-7.0","","92","","","","29","","17","","16.1","","96.60","","","","-12","","NA"
"-99.95","49.91","BRANDON A","5010481","2018-12-20 05:00","2018","12","20","05:00","-6.3","","-7.4","","92","","","","29","","18","","19.3","","96.64","","","","-13","","NA"
"-99.95","49.91","BRANDON A","5010481","2018-12-20 06:00","2018","12","20","06:00","-6.4","","-7.5","","92","","","","32","","19","","19.3","","96.71","","","","-13","","Cloudy"
"-99.95","49.91","BRANDON A","5010481","2018-12-20 07:00","2018","12","20","07:00","-6.2","","-7.3","","92","","","","30","","14","","8.1","","96.72","","","","-12","","Fog"
"-99.95","49.91","BRANDON A","5010481","2018-12-20 08:00","2018","12","20","08:00","-6.8","","-8.0","","92","","","","33","","14","","4.0","","96.74","","","","-13","","Fog"
"-99.95","49.91","BRANDON A","5010481","2018-12-20 09:00","2018","12","20","09:00","-7.0","","-8.2","","91","","","","34","","15","","4.0","","96.82","","","","-13","","Fog"
"-99.95","49.91","BRANDON A","5010481","2018-12-20 10:00","2018","12","20","10:00","-6.9","","-8.1","","91","","","","1","","13","","4.0","","96.85","","","","-12","","Fog"
"-99.95","49.91","BRANDON A","5010481","2018-12-20 11:00","2018","12","20","11:00","-6.8","","-8.1","","91","","","","31","","13","","4.0","","96.88","","","","-12","","Fog"
"-99.95","49.91","BRANDON A","5010481","2018-12-20 12:00","2018","12","20","12:00","-6.6","","-7.8","","91","","","","30","","12","","4.8","","96.88","","","","-12","","Fog"
"-99.95","49.91","BRANDON A","5010481","2018-12-20 13:00","2018","12","20","13:00","-6.3","","-7.5","","91","","","","31","","10","","4.8","","96.87","","","","-11","","Fog"
"-99.95","49.91","BRANDON A","5010481","2018-12-20 14:00","2018","12","20","14:00","-5.9","","-7.0","","92","","","","32","","8","","4.0","","96.81","","","","-10","","Fog"
"-99.95","49.91","BRANDON A","5010481","2018-12-20 15:00","2018","12","20","15:00","-5.7","","-6.8","","92","","","","33","","9","","4.8","","96.82","","","","-10","","Fog"
"-99.95","49.91","BRANDON A","5010481","2018-12-20 16:00","2018","12","20","16:00","-5.8","","-6.9","","92","","","","34","","4","","4.8","","96.80","","","","-8","","Fog"
"-99.95","49.91","BRANDON A","5010481","2018-12-20 17:00","2018","12","20","17:00","-6.0","","-7.0","","92","","","","33","","5","","4.0","","96.82","","","","-8","","Fog"
"-99.95","49.91","BRANDON A","5010481","2018-12-20 18:00","2018","12","20","18:00","-6.2","","-7.2","","92","","","","36","","2","","3.2","","96.81","","","","-7","","Fog"
"-99.95","49.91","BRANDON A","5010481","2018-12-20 19:00","2018","12","20","19:00","-6.4","","-7.5","","92","","","","8","","10","","1.6","","96.74","","","","-11","","Fog"
"-99.95","49.91","BRANDON A","5010481","2018-12-20 20:00","2018","12","20","20:00","-6.4","","-7.5","","92","","","","9","","6","","0.2","","96.70","","","","-9","","Freezing Fog"
"-99.95","49.91","BRANDON A","5010481","2018-12-20 21:00","2018","12","20","21:00","-6.5","","-7.7","","92","","","","9","","8","","0.2","","96.65","","","","-10","","Freezing Fog"
"-99.95","49.91","BRANDON A","5010481","2018-12-20 22:00","2018","12","20","22:00","-6.6","","-7.8","","91","","","","11","","11","","0.2","","96.58","","","","-12","","Freezing Fog"
"-99.95","49.91","BRANDON A","5010481","2018-12-20 23:00","2018","12","20","23:00","-6.6","","-7.8","","91","","","","11","","11","","0.2","","96.57","","","","-12","","Freezing Fog"
"-99.95","49.91","BRANDON A","5010481","2018-12-21 00:00","2018","12","21","00:00","-6.9","","-8.2","","91","","","","11","","13","","0.4","","96.47","","","","-12","","Freezing Fog"
"-99.95","49.91","BRANDON A","5010481","2018-12-21 01:00","2018","12","21","01:00","-6.9","","-8.2","","91","","","","11","","17","","0.4","","96.38","","","","-13","","Freezing Fog"
"-99.95","49.91","BRANDON A","5010481","2018-12-21 02:00","2018","12","21","02:00","-6.9","","-8.2","","91","","","","10","","22","","0.4","","96.29","","","","-14","","Freezing Fog"
"-99.95","49.91","BRANDON A","5010481","2018-12-21 03:00","2018","12","21","03:00","-6.8","","-8.0","","91","","","","10","","21","","0.4","","96.22","","","","-14","","Freezing Fog"
"-99.95","49.91","BRANDON A","5010481","2018-12-21 04:00","2018","12","21","04:00","-6.5","","-7.7","","91","","","","12","","17","","0.4","","96.13","","","","-13","","Freezing Fog"
"-99.95","49.91","BRANDON A","5010481","2018-12-21 05:00","2018","12","21","05:00","-6.5","","-7.8","","91","","","","12","","22","","0.8","","96.05","","","","-14","","Freezing Fog"
"-99.95","49.91","BRANDON A","5010481","2018-12-21 06:00","2018","12","21","06:00","-6.6","","-7.8","","91","","","","12","","23","","1.6","","95.96","","","","-14","","Fog"
"-99.95","49.91","BRANDON A","5010481","2018-12-21 07:00","2018","12","21","07:00","-6.8","","-8.0","","91","","","","11","","21","","4.0","","95.90","","","","-14","","Fog"
"-99.95","49.91","BRANDON A","5010481","2018-12-21 08:00","2018","12","21","08:00","-6.6","","-7.8","","91","","","","12","","23","","8.1","","95.80","","","","-14","","Fog"
"-99.95","49.91","BRANDON A","5010481","2018-12-21 09:00","2018","12","21","09:00","-6.6","","-7.8","","91","","","","12","","21","","8.1","","95.72","","","","-14","","Fog"
"-99.95","49.91","BRANDON A","5010481","2018-12-21 10:00","2018","12","21","10:00","-6.7","","-8.0","","91","","","","11","","23","","9.7","","95.71","","","","-14","","Fog"
"-99.95","49.91","BRANDON A","5010481","2018-12-21 11:00","2018","12","21","11:00","-6.7","","-8.0","","91","","","","11","","20","","12.9","","95.65","","","","-14","","NA"
"-99.95","49.91","BRANDON A","5010481","2018-12-21 12:00","2018","12","21","12:00","-6.8","","-8.0","","91","","","","11","","24","","19.3","","95.55","","","","-14","","Cloudy"
"-99.95","49.91","BRANDON A","5010481","2018-12-21 13:00","2018","12","21","13:00","-6.5","","-7.7","","91","","","","11","","23","","19.3","","95.47","","","","-14","","NA"
"-99.95","49.91","BRANDON A","5010481","2018-12-21 14:00","2018","12","21","14:00","-6.3","","-7.5","","91","","","","13","","14","","19.3","","95.42","","","","-12","","Snow"
"-99.95","49.91","BRANDON A","5010481","2018-12-21 15:00","2018","12","21","15:00","-6.0","","-7.1","","92","","","","12","","19","","6.4","","95.37","","","","-13","","Snow"
"-99.95","49.91","BRANDON A","5010481","2018-12-21 16:00","2018","12","21","16:00","-5.8","","-7.0","","92","","","","12","","19","","4.8","","95.34","","","","-12","","Snow"
"-99.95","49.91","BRANDON A","5010481","2018-12-21 17:00","2018","12","21","17:00","-5.9","","-7.0","","92","","","","11","","14","","4.8","","95.38","","","","-11","","Snow,Blowing Snow"
"-99.95","49.91","BRANDON A","5010481","2018-12-21 18:00","2018","12","21","18:00","-6.1","","-7.2","","92","","","","12","","19","","3.2","","95.35","","","","-13","","Snow,Blowing Snow"
"-99.95","49.91","BRANDON A","5010481","2018-12-21 19:00","2018","12","21","19:00","-6.3","","-7.4","","92","","","","11","","14","","1.6","","95.37","","","","-12","","Snow,Blowing Snow"
"-99.95","49.91","BRANDON A","5010481","2018-12-21 20:00","2018","12","21","20:00","-6.2","","-7.4","","92","","","","12","","16","","1.2","","95.32","","","","-12","","Snow"
"-99.95","49.91","BRANDON A","5010481","2018-12-21 21:00","2018","12","21","21:00","-6.2","","-7.3","","92","","","","11","","12","","2.0","","95.32","","","","-11","","Snow,Blowing Snow"
"-99.95","49.91","BRANDON A","5010481","2018-12-21 22:00","2018","12","21","22:00","-6.3","","-7.5","","92","","","","11","","11","","12.9","","95.34","","","","-11","","Snow"
"-99.95","49.91","BRANDON A","5010481","2018-12-21 23:00","2018","12","21","23:00","-6.5","","-7.7","","91","","","","12","","10","","19.3","","95.36","","","","-11","","Snow"
"-99.95","49.91","BRANDON A","5010481","2018-12-22 00:00","2018","12","22","00:00","-6.7","","-7.9","","91","","","","11","","8","","16.1","","95.41","","","","-11","","Snow"
"-99.95","49.91","BRANDON A","5010481","2018-12-22 01:00","2018","12","22","01:00","-6.7","","-8.0","","91","","","","9","","7","","12.9","","95.49","","","","-10","","Snow"
"-99.95","49.91","BRANDON A","5010481","2018-12-22 02:00","2018","12","22","02:00","-6.8","","-8.0","","91","","","","9","","5","","0.8","","95.53","","","","-9","","Snow"
"-99.95","49.91","BRANDON A","5010481","2018-12-22 03:00","2018","12","22","03:00","-6.8","","-8.0","","91","","","","11","","3","","2.4","","95.57","","","","-8","","Snow"
"-99.95","49.91","BRANDON A","5010481","2018-12-22 04:00","2018","12","22","04:00","-6.7","","-7.9","","91","","","","36","","3","","2.4","","95.55","","","","-8","","Snow"
"-99.95","49.91","BRANDON A","5010481","2018-12-22 05:00","2018","12","22","05:00","-6.6","","-7.8","","91","","","","26","","8","","19.3","","95.57","","","","-10","","NA"
"-99.95","49.91","BRANDON A","5010481","2018-12-22 06:00","2018","12","22","06:00","-6.3","","-7.5","","91","","","","26","","12","","19.3","","95.62","","","","-11","","Cloudy"
"-99.95","49.91","BRANDON A","5010481","2018-12-22 07:00","2018","12","22","07:00","-5.5","","-6.6","","92","","","","29","","14","","19.3","","95.66","","","","-11","","NA"
"-99.95","49.91","BRANDON A","5010481","2018-12-22 08:00","2018","12","22","08:00","-3.2","","-4.1","","93","","","","29","","25","","19.3","","95.69","","","","-10","","Snow"
"-99.95","49.91","BRANDON A","5010481","2018-12-22 09:00","2018","12","22","09:00","-3.2","","-4.9","","88","","","","30","","30","","24.1","","95.77","","","","-11","","Snow,Blowing Snow"
"-99.95","49.91","BRANDON A","5010481","2018-12-22 10:00","2018","12","22","10:00","-3.2","","-5.7","","83","","","","30","","30","","24.1","","95.82","","","","-11","","Snow,Blowing Snow"
"-99.95","49.91","BRANDON A","5010481","2018-12-22 11:00","2018","12","22","11:00","-3.0","","-5.6","","82","","","","31","","31","","24.1","","95.86","","","","-11","","Blowing Snow"
"-99.95","49.91","BRANDON A","5010481","2018-12-22 12:00","2018","12","22","12:00","-2.8","","-5.2","","83","","","","31","","29","","24.1","","95.88","","","","-10","","Blowing Snow"
"-99.95","49.91","BRANDON A","5010481","2018-12-22 13:00","2018","12","22","13:00","-3.6","","-7.3","","76","","","","31","","34","","24.1","","95.94","","","","-12","","Blowing Snow"
"-99.95","49.91","BRANDON A","5010481","2018-12-22 14:00","2018","12","22","14:00","-4.1","","-8.4","","72","","","","31","","31","","24.1","","96.01","","","","-12","","Blowing Snow"
"-99.95","49.91","BRANDON A","5010481","2018-12-22 15:00","2018","12","22","15:00","-4.5","","-8.5","","74","","","","31","","36","","24.1","","96.10","","","","-13","","Blowing Snow"
"-99.95","49.91","BRANDON A","5010481","2018-12-22 16:00","2018","12","22","16:00","-5.3","","-8.7","","77","","","","31","","39","","24.1","","96.19","","","","-14","","Blowing Snow"
"-99.95","49.91","BRANDON A","5010481","2018-12-22 17:00","2018","12","22","17:00","-6.5","","-10.4","","74","","","","31","","37","","24.1","","96.29","","","","-16","","Blowing Snow"
"-99.95","49.91","BRANDON A","5010481","2018-12-22 18:00","2018","12","22","18:00","-7.1","","-11.2","","73","","","","31","","30","","24.1","","96.37","","","","-16","","Blowing Snow"
"-99.95","49.91","BRANDON A","5010481","2018-12-22 19:00","2018","12","22","19:00","-7.7","","-11.1","","77","","","","31","","29","","24.1","","96.44","","","","-16","","Blowing Snow"
"-99.95","49.91","BRANDON A","5010481","2018-12-22 20:00","2018","12","22","20:00","-8.4","","-11.9","","76","","","","31","","33","","24.1","","96.47","","","","-18","","Blowing Snow"
"-99.95","49.91","BRANDON A","5010481","2018-12-22 21:00","2018","12","22","21:00","-9.1","","-12.9","","74","","","","30","","27","","24.1","","96.51","","","","-18","","Blowing Snow"
"-99.95","49.91","BRANDON A","5010481","2018-12-22 22:00","2018","12","22","22:00","-10.3","","-13.9","","75","","","","30","","24","","24.1","","96.58","","","","-19","","Blowing Snow"
"-99.95","49.91","BRANDON A","5010481","2018-12-22 23:00","2018","12","22","23:00","-10.8","","-14.3","","76","","","","30","","27","","24.1","","96.63","","","","-20","","Blowing Snow"
"-99.95","49.91","BRANDON A","5010481","2018-12-23 00:00","2018","12","23","00:00","-10.5","","-13.9","","76","","","","30","","19","","24.1","","96.68","","","","-18","","Blowing Snow"
"-99.95","49.91","BRANDON A","5010481","2018-12-23 01:00","2018","12","23","01:00","-9.9","","-13.9","","73","","","","32","","27","","24.1","","96.69","","","","-19","","Blowing Snow"
"-99.95","49.91","BRANDON A","5010481","2018-12-23 02:00","2018","12","23","02:00","-10.7","","-14.6","","73","","","","31","","26","","24.1","","96.74","","","","-20","","Blowing Snow"
"-99.95","49.91","BRANDON A","5010481","2018-12-23 03:00","2018","12","23","03:00","-10.8","","-14.7","","73","","","","30","","25","","24.1","","96.79","","","","-20","","Blowing Snow"
"-99.95","49.91","BRANDON A","5010481","2018-12-23 04:00","2018","12","23","04:00","-11.2","","-15.4","","72","","","","31","","23","","24.1","","96.81","","","","-20","","NA"
"-99.95","49.91","BRANDON A","5010481","2018-12-23 05:00","2018","12","23","05:00","-11.4","","-15.4","","72","","","","31","","23","","24.1","","96.80","","","","-20","","NA"
"-99.95","49.91","BRANDON A","5010481","2018-12-23 06:00","2018","12","23","06:00","-12.2","","-16.5","","71","","","","32","","19","","24.1","","96.84","","","","-20","","Mostly Cloudy"
"-99.95","49.91","BRANDON A","5010481","2018-12-23 07:00","2018","12","23","07:00","-13.8","","-17.6","","73","","","","30","","16","","24.1","","96.85","","","","-22","","NA"
"-99.95","49.91","BRANDON A","5010481","2018-12-23 08:00","2018","12","23","08:00","-15.7","","-19.0","","76","","","","30","","18","","24.1","","96.87","","","","-25","","NA"
"-99.95","49.91","BRANDON A","5010481","2018-12-23 09:00","2018","12","23","09:00","-16.5","","-19.5","","78","","","","31","","10","","24.1","","96.91","","","","-23","","Mainly Clear"
"-99.95","49.91","BRANDON A","5010481","2018-12-23 10:00","2018","12","23","10:00","-15.7","","-18.9","","77","","","","35","","7","","24.1","","96.96","","","","-21","","NA"
"-99.95","49.91","BRANDON A","5010481","2018-12-23 11:00","2018","12","23","11:00","-13.7","","-17.0","","77","","","","29","","3","","24.1","","96.96","","","","-16","","NA"
"-99.95","49.91","BRANDON A","5010481","2018-12-23 12:00","2018","12","23","12:00","-11.4","","-14.9","","76","","","","29","","7","","24.1","","96.95","","","","-16","","Snow"
"-99.95","49.91","BRANDON A","5010481","2018-12-23 13:00","2018","12","23","13:00","-9.2","","-13.4","","71","","","","30","","16","","24.1","","96.91","","","","-16","","Snow"
"-99.95","49.91","BRANDON A","5010481","2018-12-23 14:00","2018","12","23","14:00","-9.0","","-13.2","","72","","","","29","","17","","24.1","","96.91","","","","-16","","Snow"
"-99.95","49.91","BRANDON A","5010481","2018-12-23 15:00","2018","12","23","15:00","-8.8","","-13.1","","71","","","","30","","13","","24.1","","96.90","","","","-15","","Snow"
"-99.95","49.91","BRANDON A","5010481","2018-12-23 16:00","2018","12","23","16:00","-9.0","","-12.6","","75","","","","28","","8","","24.1","","96.93","","","","-13","","Snow"
"-99.95","49.91","BRANDON A","5010481","2018-12-23 17:00","2018","12","23","17:00","-9.4","","-12.3","","80","","","","26","","10","","19.3","","96.97","","","","-15","","Snow"
"-99.95","49.91","BRANDON A","5010481","2018-12-23 18:00","2018","12","23","18:00","-9.2","","-12.2","","79","","","","26","","7","","19.3","","96.98","","","","-13","","Snow"
"-99.95","49.91","BRANDON A","5010481","2018-12-23 19:00","2018","12","23","19:00","-9.4","","-12.5","","79","","","","27","","8","","19.3","","96.99","","","","-14","","Snow"
"-99.95","49.91","BRANDON A","5010481","2018-12-23 20:00","2018","12","23","20:00","-9.3","","-12.8","","76","","","","27","","5","","24.1","","96.97","","","","-12","","Snow"
"-99.95","49.91","BRANDON A","5010481","2018-12-23 21:00","2018","12","23","21:00","-11.1","","-14.2","","78","","","","8","","5","","24.1","","96.96","","","","-14","","Snow"
"-99.95","49.91","BRANDON A","5010481","2018-12-23 22:00","2018","12","23","22:00","-11.9","","-14.7","","81","","","","7","","6","","24.1","","96.99","","","","-16","","NA"
"-99.95","49.91","BRANDON A","5010481","2018-12-23 23:00","2018","12","23","23:00","-11.0","","-13.6","","82","","","","14","","8","","24.1","","97.01","","","","-16","","Snow"
"-99.95","49.91","BRANDON A","5010481","2018-12-24 00:00","2018","12","24","00:00","-11.7","","-14.4","","80","","","","14","","8","","24.1","","97.00","","","","-16","","Snow"
"-99.95","49.91","BRANDON A","5010481","2018-12-24 01:00","2018","12","24","01:00","-10.8","","-13.6","","80","","","","13","","8","","24.1","","97.01","","","","-15","","Snow"
"-99.95","49.91","BRANDON A","5010481","2018-12-24 02:00","2018","12","24","02:00","-11.1","","-13.9","","80","","","","15","","7","","24.1","","97.02","","","","-15","","NA"
"-99.95","49.91","BRANDON A","5010481","2018-12-24 03:00","2018","12","24","03:00","-10.8","","-13.4","","82","","","","13","","9","","24.1","","97.04","","","","-16","","Cloudy"
"-99.95","49.91","BRANDON A","5010481","2018-12-24 04:00","2018","12","24","04:00","-10.7","","-13.2","","82","","","","11","","10","","24.1","","97.00","","","","-16","","NA"
"-99.95","49.91","BRANDON A","5010481","2018-12-24 05:00","2018","12","24","05:00","-10.3","","-13.1","","80","","","","9","","10","","24.1","","96.97","","","","-16","","NA"
"-99.95","49.91","BRANDON A","5010481","2018-12-24 06:00","2018","12","24","06:00","-10.8","","-13.3","","82","","","","9","","12","","24.1","","96.97","","","","-17","","Cloudy"
"-99.95","49.91","BRANDON A","5010481","2018-12-24 07:00","2018","12","24","07:00","-11.7","","-14.2","","82","","","","9","","11","","24.1","","96.99","","","","-18","","NA"
"-99.95","49.91","BRANDON A","5010481","2018-12-24 08:00","2018","12","24","08:00","-11.8","","-14.3","","82","","","","8","","12","","24.1","","97.02","","","","-18","","NA"
"-99.95","49.91","BRANDON A","5010481","2018-12-24 09:00","2018","12","24","09:00","-11.3","","-13.8","","82","","","","8","","13","","24.1","","97.07","","","","-18","","Cloudy"
"-99.95","49.91","BRANDON A","5010481","2018-12-24 10:00","2018","12","24","10:00","-10.8","","-13.4","","81","","","","8","","16","","24.1","","97.10","","","","-18","","NA"
"-99.95","49.91","BRANDON A","5010481","2018-12-24 11:00","2018","12","24","11:00","-10.3","","-13.1","","80","","","","7","","16","","24.1","","97.13","","","","-17","","NA"
"-99.95","49.91","BRANDON A","5010481","2018-12-24 12:00","2018","12","24","12:00","-9.6","","-12.6","","79","","","","6","","17","","24.1","","97.11","","","","-17","","Cloudy"
"-99.95","49.91","BRANDON A","5010481","2018-12-24 13:00","2018","12","24","13:00","-9.9","","-12.8","","80","","","","7","","17","","24.1","","97.09","","","","-17","","Snow"
"-99.95","49.91","BRANDON A","5010481","2018-12-24 14:00","2018","12","24","14:00","-9.5","","-12.5","","79","","","","6","","21","","24.1","","97.10","","","","-17","","Snow"
"-99.95","49.91","BRANDON A","5010481","2018-12-24 15:00","2018","12","24","15:00","-9.4","","-12.4","","79","","","","7","","19","","24.1","","97.13","","","","-17","","Cloudy"
"-99.95","49.91","BRANDON A","5010481","2018-12-24 16:00","2018","12","24","16:00","-10.1","","-13.0","","79","","","","7","","23","","24.1","","97.17","","","","-19","","NA"
"-99.95","49.91","BRANDON A","5010481","2018-12-24 17:00","2018","12","24","17:00","-10.1","","-13.0","","80","","","","7","","22","","24.1","","97.22","","","","-18","","NA"
"-99.95","49.91","BRANDON A","5010481","2018-12-24 18:00","2018","12","24","18:00","-10.3","","-13.3","","79","","","","7","","17","","24.1","","97.28","","","","-18","","Snow"
"-99.95","49.91","BRANDON A","5010481","2018-12-24 19:00","2018","12","24","19:00","-11.1","","-14.2","","78","","","","6","","17","","24.1","","97.34","","","","-19","","Snow"
"-99.95","49.91","BRANDON A","5010481","2018-12-24 20:00","2018","12","24","20:00","-12.6","","-15.3","","80","","","","6","","14","","24.1","","97.39","","","","-20","","Snow"
"-99.95","49.91","BRANDON A","5010481","2018-12-24 21:00","2018","12","24","21:00","-14.8","","-17.3","","82","","","","6","","11","","24.1","","97.43","","","","-21","","Snow"
"-99.95","49.91","BRANDON A","5010481","2018-12-24 22:00","2018","12","24","22:00","-15.0","","-17.3","","83","","","","5","","7","","24.1","","97.47","","","","-20","","Snow"
"-99.95","49.91","BRANDON A","5010481","2018-12-24 23:00","2018","12","24","23:00","-14.3","","-16.7","","82","","","","4","","5","","24.1","","97.51","","","","-18","","Snow"
"-99.95","49.91","BRANDON A","5010481","2018-12-25 00:00","2018","12","25","00:00","-13.1","","-15.4","","83","","","","6","","7","","24.1","","97.52","","","","-18","","Snow"
"-99.95","49.91","BRANDON A","5010481","2018-12-25 01:00","2018","12","25","01:00","-12.5","","-14.9","","83","","","","4","","7","","24.1","","97.54","","","","-17","","Snow"
"-99.95","49.91","BRANDON A","5010481","2018-12-25 02:00","2018","12","25","02:00","-12.0","","-14.6","","81","","","","4","","7","","24.1","","97.60","","","","-16","","Snow"
"-99.95","49.91","BRANDON A","5010481","2018-12-25 03:00","2018","12","25","03:00","-12.0","","-14.6","","81","","","","2","","5","","24.1","","97.66","","","","-15","","Snow"
"-99.95","49.91","BRANDON A","5010481","2018-12-25 04:00","2018","12","25","04:00","-11.9","","-14.3","","82","","","","36","","3","","24.1","","97.69","","","","-14","","Snow"
"-99.95","49.91","BRANDON A","5010481","2018-12-25 05:00","2018","12","25","05:00","-11.9","","-14.3","","82","","","","36","","3","","24.1","","97.71","","","","-14","","Snow"
"-99.95","49.91","BRANDON A","5010481","2018-12-25 06:00","2018","12","25","06:00","-12.0","","-14.4","","82","","","","17","","5","","24.1","","97.73","","","","-15","","Snow"
"-99.95","49.91","BRANDON A","5010481","2018-12-25 07:00","2018","12","25","07:00","-12.2","","-14.5","","83","","","","34","","5","","24.1","","97.75","","","","-15","","Snow"
"-99.95","49.91","BRANDON A","5010481","2018-12-25 08:00","2018","12","25","08:00","-12.2","","-14.5","","83","","","","36","","5","","24.1","","97.80","","","","-15","","Snow"
"-99.95","49.91","BRANDON A","5010481","2018-12-25 09:00","2018","12","25","09:00","-12.3","","-14.6","","83","","","","6","","5","","24.1","","97.87","","","","-16","","Snow"
"-99.95","49.91","BRANDON A","5010481","2018-12-25 10:00","2018","12","25","10:00","-12.2","","-14.7","","82","","","","8","","9","","12.9","","97.94","","","","-17","","Snow"
"-99.95","49.91","BRANDON A","5010481","2018-12-25 11:00","2018","12","25","11:00","-12.7","","-15.4","","80","","","","7","","15","","16.1","","97.95","","","","-20","","Snow"
"-99.95","49.91","BRANDON A","5010481","2018-12-25 12:00","2018","12","25","12:00","-12.7","","-15.7","","79","","","","7","","9","","24.1","","97.96","","","","-18","","Cloudy"
"-99.95","49.91","BRANDON A","5010481","2018-12-25 13:00","2018","12","25","13:00","-12.7","","-15.8","","78","","","","7","","7","","24.1","","97.92","","","","-17","","Snow"
"-99.95","49.91","BRANDON A","5010481","2018-12-25 14:00","2018","12","25","14:00","-12.4","","-15.6","","77","","","","7","","4","","24.1","","97.94","","","","-15","","Snow"
"-99.95","49.91","BRANDON A","5010481","2018-12-25 15:00","2018","12","25","15:00","-12.4","","-15.6","","78","","","","7","","4","","24.1","","97.97","","","","-15","","Snow"
"-99.95","49.91","BRANDON A","5010481","2018-12-25 16:00","2018","12","25","16:00","-12.5","","-15.5","","79","","","","7","","8","","24.1","","97.98","","","","-17","","Snow"
"-99.95","49.91","BRANDON A","5010481","2018-12-25 17:00","2018","12","25","17:00","-12.8","","-15.7","","79","","","","10","","7","","24.1","","98.00","","","","-17","","Snow"
"-99.95","49.91","BRANDON A","5010481","2018-12-25 18:00","2018","12","25","18:00","-13.0","","-15.8","","79","","","","7","","7","","24.1","","98.00","","","","-18","","Snow"
"-99.95","49.91","BRANDON A","5010481","2018-12-25 19:00","2018","12","25","19:00","-13.1","","-15.9","","80","","","","6","","7","","24.1","","98.01","","","","-18","","Snow"
"-99.95","49.91","BRANDON A","5010481","2018-12-25 20:00","2018","12","25","20:00","-13.2","","-15.9","","80","","","","6","","5","","24.1","","98.04","","","","-17","","Snow"
"-99.95","49.91","BRANDON A","5010481","2018-12-25 21:00","2018","12","25","21:00","-13.4","","-16.2","","80","","","","7","","5","","24.1","","98.02","","","","-17","","Snow"
"-99.95","49.91","BRANDON A","5010481","2018-12-25 22:00","2018","12","25","22:00","-13.5","","-16.1","","80","","","","7","","3","","24.1","","98.02","","","","-16","","Snow"
"-99.95","49.91","BRANDON A","5010481","2018-12-25 23:00","2018","12","25","23:00","-13.4","","-16.1","","81","","","","9","","7","","24.1","","98.06","","","","-18","","Snow"
"-99.95","49.91","BRANDON A","5010481","2018-12-26 00:00","2018","12","26","00:00","-13.3","","-15.9","","81","","","","11","","4","","24.1","","98.06","","","","-16","","Snow"
"-99.95","49.91","BRANDON A","5010481","2018-12-26 01:00","2018","12","26","01:00","-13.3","","-15.8","","82","","","","36","","3","","24.1","","98.04","","","","-15","","Snow"
"-99.95","49.91","BRANDON A","5010481","2018-12-26 02:00","2018","12","26","02:00","-13.0","","-15.7","","81","","","","16","","4","","24.1","","98.04","","","","-16","","Snow"
"-99.95","49.91","BRANDON A","5010481","2018-12-26 03:00","2018","12","26","03:00","-12.6","","-15.8","","77","","","","14","","7","","24.1","","98.05","","","","-17","","Cloudy"
"-99.95","49.91","BRANDON A","5010481","2018-12-26 04:00","2018","12","26","04:00","-12.3","","-15.9","","75","","","","21","","10","","24.1","","98.05","","","","-18","","NA"
"-99.95","49.91","BRANDON A","5010481","2018-12-26 05:00","2018","12","26","05:00","-12.2","","-16.0","","74","","","","18","","11","","24.1","","97.99","","","","-18","","NA"
"-99.95","49.91","BRANDON A","5010481","2018-12-26 06:00","2018","12","26","06:00","-12.5","","-16.0","","75","","","","15","","7","","24.1","","97.97","","","","-17","","Cloudy"
"-99.95","49.91","BRANDON A","5010481","2018-12-26 07:00","2018","12","26","07:00","-12.5","","-15.8","","77","","","","14","","9","","24.1","","97.95","","","","-18","","NA"
"-99.95","49.91","BRANDON A","5010481","2018-12-26 08:00","2018","12","26","08:00","-12.7","","-15.8","","78","","","","12","","7","","24.1","","97.91","","","","-17","","NA"
"-99.95","49.91","BRANDON A","5010481","2018-12-26 09:00","2018","12","26","09:00","-12.9","","-16.0","","78","","","","15","","11","","24.1","","97.96","","","","-19","","Cloudy"
"-99.95","49.91","BRANDON A","5010481","2018-12-26 10:00","2018","12","26","10:00","-13.1","","-16.1","","78","","","","15","","12","","16.1","","97.92","","","","-20","","Snow"
"-99.95","49.91","BRANDON A","5010481","2018-12-26 11:00","2018","12","26","11:00","-13.1","","-16.3","","77","","","","16","","12","","19.3","","97.86","","","","-20","","Snow"
"-99.95","49.91","BRANDON A","5010481","2018-12-26 12:00","2018","12","26","12:00","-13.2","","-16.5","","77","","","","15","","10","","19.3","","97.75","","","","-19","","Snow"
"-99.95","49.91","BRANDON A","5010481","2018-12-26 13:00","2018","12","26","13:00","-13.1","","-16.3","","77","","","","13","","13","","24.1","","97.66","","","","-20","","Snow"
"-99.95","49.91","BRANDON A","5010481","2018-12-26 14:00","2018","12","26","14:00","-13.4","","-16.4","","78","","","","11","","13","","24.1","","97.62","","","","-20","","NA"
"-99.95","49.91","BRANDON A","5010481","2018-12-26 15:00","2018","12","26","15:00","-13.7","","-16.8","","78","","","","13","","14","","16.1","","97.64","","","","-21","","Snow"
"-99.95","49.91","BRANDON A","5010481","2018-12-26 16:00","2018","12","26","16:00","-13.6","","-16.7","","78","","","","12","","11","","2.4","","97.63","","","","-20","","Snow"
"-99.95","49.91","BRANDON A","5010481","2018-12-26 17:00","2018","12","26","17:00","-13.6","","-16.4","","80","","","","10","","12","","2.4","","97.56","","","","-20","","Snow"
"-99.95","49.91","BRANDON A","5010481","2018-12-26 18:00","2018","12","26","18:00","-13.6","","-16.3","","80","","","","9","","12","","2.4","","97.47","","","","-20","","Snow"
"-99.95","49.91","BRANDON A","5010481","2018-12-26 19:00","2018","12","26","19:00","-13.5","","-16.3","","80","","","","8","","10","","2.4","","97.41","","","","-19","","Snow"
"-99.95","49.91","BRANDON A","5010481","2018-12-26 20:00","2018","12","26","20:00","-13.4","","-16.2","","80","","","","9","","9","","2.4","","97.42","","","","-19","","Snow"
"-99.95","49.91","BRANDON A","5010481","2018-12-26 21:00","2018","12","26","21:00","-13.5","","-16.2","","81","","","","7","","11","","2.4","","97.36","","","","-20","","Snow"
"-99.95","49.91","BRANDON A","5010481","2018-12-26 22:00","2018","12","26","22:00","-13.5","","-16.1","","81","","","","8","","11","","2.4","","97.30","","","","-20","","Snow"
"-99.95","49.91","BRANDON A","5010481","2018-12-26 23:00","2018","12","26","23:00","-13.6","","-16.3","","80","","","","9","","11","","3.2","","97.32","","","","-20","","Snow"
"-99.95","49.91","BRANDON A","5010481","2018-12-27 00:00","2018","12","27","00:00","-13.7","","-16.4","","81","","","","6","","9","","2.4","","97.24","","","","-19","","Snow"
"-99.95","49.91","BRANDON A","5010481","2018-12-27 01:00","2018","12","27","01:00","-13.7","","-16.5","","80","","","","5","","11","","3.2","","97.19","","","","-20","","Snow"
"-99.95","49.91","BRANDON A","5010481","2018-12-27 02:00","2018","12","27","02:00","-13.6","","-16.5","","79","","","","5","","10","","4.8","","97.18","","","","-20","","Snow"
"-99.95","49.91","BRANDON A","5010481","2018-12-27 03:00","2018","12","27","03:00","-13.5","","-16.3","","79","","","","1","","11","","6.4","","97.16","","","","-20","","Snow"
"-99.95","49.91","BRANDON A","5010481","2018-12-27 04:00","2018","12","27","04:00","-13.7","","-16.6","","79","","","","35","","8","","8.1","","97.14","","","","-19","","Snow"
"-99.95","49.91","BRANDON A","5010481","2018-12-27 05:00","2018","12","27","05:00","-17.4","","-20.0","","80","","","","31","","10","","19.3","","97.10","","","","-24","","NA"
"-99.95","49.91","BRANDON A","5010481","2018-12-27 06:00","2018","12","27","06:00","-20.1","","-23.1","","78","","","","31","","9","","19.3","","97.11","","","","-27","","Mainly Clear"
"-99.95","49.91","BRANDON A","5010481","2018-12-27 07:00","2018","12","27","07:00","-21.3","","-24.4","","76","","","","32","","8","","24.1","","97.11","","","","-28","","NA"
"-99.95","49.91","BRANDON A","5010481","2018-12-27 08:00","2018","12","27","08:00","-21.4","","-24.6","","76","","","","29","","11","","24.1","","97.13","","","","-29","","NA"
"-99.95","49.91","BRANDON A","5010481","2018-12-27 09:00","2018","12","27","09:00","-22.4","","-25.8","","75","","","","31","","10","","24.1","","97.22","","","","-30","","Mainly Clear"
"-99.95","49.91","BRANDON A","5010481","2018-12-27 10:00","2018","12","27","10:00","-22.3","","-25.6","","75","","","","31","","8","","24.1","","97.25","","","","-29","","NA"
"-99.95","49.91","BRANDON A","5010481","2018-12-27 11:00","2018","12","27","11:00","-18.2","","-21.3","","77","","","","30","","18","","24.1","","97.23","","","","-28","","NA"
"-99.95","49.91","BRANDON A","5010481","2018-12-27 12:00","2018","12","27","12:00","-16.9","","-19.8","","78","","","","29","","12","","24.1","","97.15","","","","-24","","Mainly Clear"
"-99.95","49.91","BRANDON A","5010481","2018-12-27 13:00","2018","12","27","13:00","-11.4","","-15.6","","71","","","","3","","16","","24.1","","97.09","","","","-19","","NA"
"-99.95","49.91","BRANDON A","5010481","2018-12-27 14:00","2018","12","27","14:00","-10.6","","-15.6","","67","","","","1","","26","","24.1","","97.10","","","","-20","","NA"
"-99.95","49.91","BRANDON A","5010481","2018-12-27 15:00","2018","12","27","15:00","-11.8","","-16.6","","68","","","","1","","17","","24.1","","97.17","","","","-19","","Mainly Clear"
"-99.95","49.91","BRANDON A","5010481","2018-12-27 16:00","2018","12","27","16:00","-12.3","","-16.8","","69","","","","1","","18","","24.1","","97.27","","","","-20","","NA"
"-99.95","49.91","BRANDON A","5010481","2018-12-27 17:00","2018","12","27","17:00","-13.9","","-18.2","","70","","","","1","","17","","24.1","","97.33","","","","-22","","Blowing Snow"
"-99.95","49.91","BRANDON A","5010481","2018-12-27 18:00","2018","12","27","18:00","-16.3","","-20.0","","73","","","","35","","17","","24.1","","97.43","","","","-25","","Mainly Clear"
"-99.95","49.91","BRANDON A","5010481","2018-12-27 19:00","2018","12","27","19:00","-18.2","","-21.8","","74","","","","34","","14","","24.1","","97.46","","","","-27","","NA"
"-99.95","49.91","BRANDON A","5010481","2018-12-27 20:00","2018","12","27","20:00","-21.2","","-24.7","","74","","","","32","","13","","24.1","","97.49","","","","-30","","NA"
"-99.95","49.91","BRANDON A","5010481","2018-12-27 21:00","2018","12","27","21:00","-22.7","","-26.0","","75","","","","31","","19","","24.1","","97.51","","","","-34","","Mainly Clear"
"-99.95","49.91","BRANDON A","5010481","2018-12-27 22:00","2018","12","27","22:00","-23.7","","-26.9","","75","","","","30","","14","","24.1","","97.50","","","","-33","","NA"
"-99.95","49.91","BRANDON A","5010481","2018-12-27 23:00","2018","12","27","23:00","-25.6","","-29.0","","74","","","","29","","17","","24.1","","97.51","","","","-37","","NA"
"-99.95","49.91","BRANDON A","5010481","2018-12-28 00:00","2018","12","28","00:00","-24.4","","-27.9","","74","","","","30","","17","","24.1","","97.53","","","","-35","","Clear"
"-99.95","49.91","BRANDON A","5010481","2018-12-28 01:00","2018","12","28","01:00","-25.2","","-28.7","","73","","","","30","","16","","24.1","","97.57","","","","-36","","NA"
"-99.95","49.91","BRANDON A","5010481","2018-12-28 02:00","2018","12","28","02:00","-25.3","","-28.8","","73","","","","31","","21","","24.1","","97.65","","","","-37","","NA"
"-99.95","49.91","BRANDON A","5010481","2018-12-28 03:00","2018","12","28","03:00","-23.8","","-27.2","","74","","","","33","","5","","24.1","","97.73","","","","-29","","Clear"
"-99.95","49.91","BRANDON A","5010481","2018-12-28 04:00","2018","12","28","04:00","-24.7","","-28.1","","74","","","","26","","4","","24.1","","97.76","","","","-29","","NA"
"-99.95","49.91","BRANDON A","5010481","2018-12-28 05:00","2018","12","28","05:00","-27.7","","-31.2","","73","","","","28","","9","","24.1","","97.78","","","","-36","","NA"
"-99.95","49.91","BRANDON A","5010481","2018-12-28 06:00","2018","12","28","06:00","-29.2","","-32.8","","72","","","","30","","13","","24.1","","97.80","","","","-40","","Clear"
"-99.95","49.91","BRANDON A","5010481","2018-12-28 07:00","2018","12","28","07:00","-28.0","","-31.7","","71","","","","31","","21","","24.1","","97.81","","","","-41","","NA"
"-99.95","49.91","BRANDON A","5010481","2018-12-28 08:00","2018","12","28","08:00","-28.9","","-32.7","","71","","","","30","","14","","24.1","","97.83","","","","-40","","NA"
"-99.95","49.91","BRANDON A","5010481","2018-12-28 09:00","2018","12","28","09:00","-28.1","","-31.9","","71","","","","32","","8","","24.1","","97.87","","","","-36","","Mainly Clear"
"-99.95","49.91","BRANDON A","5010481","2018-12-28 10:00","2018","12","28","10:00","-27.6","","-31.4","","71","","","","23","","7","","24.1","","97.86","","","","-34","","NA"
"-99.95","49.91","BRANDON A","5010481","2018-12-28 11:00","2018","12","28","11:00","-25.7","","-29.5","","71","","","","23","","11","","24.1","","97.84","","","","-34","","NA"
"-99.95","49.91","BRANDON A","5010481","2018-12-28 12:00","2018","12","28","12:00","-23.7","","-27.4","","72","","","","25","","13","","24.1","","97.74","","","","-33","","Mainly Clear"
"-99.95","49.91","BRANDON A","5010481","2018-12-28 13:00","2018","12","28","13:00","-22.5","","-26.3","","72","","","","24","","7","","24.1","","97.65","","","","-29","","NA"
"-99.95","49.91","BRANDON A","5010481","2018-12-28 14:00","2018","12","28","14:00","-21.8","","-26.0","","70","","","","24","","13","","24.1","","97.61","","","","-31","","NA"
"-99.95","49.91","BRANDON A","5010481","2018-12-28 15:00","2018","12","28","15:00","-22.2","","-26.6","","68","","","","24","","15","","24.1","","97.63","","","","-32","","Mainly Clear"
"-99.95","49.91","BRANDON A","5010481","2018-12-28 16:00","2018","12","28","16:00","-22.4","","-26.8","","68","","","","24","","13","","24.1","","97.56","","","","-31","","NA"
"-99.95","49.91","BRANDON A","5010481","2018-12-28 17:00","2018","12","28","17:00","-24.2","","-28.1","","70","","","","21","","10","","24.1","","97.47","","","","-32","","NA"
"-99.95","49.91","BRANDON A","5010481","2018-12-28 18:00","2018","12","28","18:00","-24.6","","-28.3","","72","","","","23","","9","","24.1","","97.39","","","","-32","","Mainly Clear"
"-99.95","49.91","BRANDON A","5010481","2018-12-28 19:00","2018","12","28","19:00","-22.3","","-25.9","","73","","","","23","","17","","24.1","","97.34","","","","-33","","NA"
"-99.95","49.91","BRANDON A","5010481","2018-12-28 20:00","2018","12","28","20:00","-22.6","","-26.2","","73","","","","27","","11","","24.1","","97.29","","","","-31","","NA"
"-99.95","49.91","BRANDON A","5010481","2018-12-28 21:00","2018","12","28","21:00","-24.1","","-27.6","","74","","","","25","","10","","24.1","","97.22","","","","-32","","Mainly Clear"
"-99.95","49.91","BRANDON A","5010481","2018-12-28 22:00","2018","12","28","22:00","-21.4","","-24.9","","74","","","","25","","9","","24.1","","97.12","","","","-28","","NA"
"-99.95","49.91","BRANDON A","5010481","2018-12-28 23:00","2018","12","28","23:00","-19.9","","-23.6","","73","","","","34","","5","","24.1","","97.08","","","","-24","","Snow"
"-99.95","49.91","BRANDON A","5010481","2018-12-29 00:00","2018","12","29","00:00","-18.4","","-22.1","","73","","","","23","","7","","24.1","","96.99","","","","-24","","Snow"
"-99.95","49.91","BRANDON A","5010481","2018-12-29 01:00","2018","12","29","01:00","-16.9","","-20.6","","74","","","","22","","8","","16.1","","96.90","","","","-23","","Snow"
"-99.95","49.91","BRANDON A","5010481","2018-12-29 02:00","2018","12","29","02:00","-16.3","","-19.9","","74","","","","27","","8","","16.1","","96.86","","","","-22","","Snow"
"-99.95","49.91","BRANDON A","5010481","2018-12-29 03:00","2018","12","29","03:00","-15.9","","-19.4","","75","","","","25","","4","","16.1","","96.77","","","","-19","","Snow"
"-99.95","49.91","BRANDON A","5010481","2018-12-29 04:00","2018","12","29","04:00","-15.2","","-18.4","","76","","","","25","","4","","24.1","","96.67","","","","-18","","Snow"
"-99.95","49.91","BRANDON A","5010481","2018-12-29 05:00","2018","12","29","05:00","-14.5","","-17.6","","77","","","","30","","4","","16.1","","96.59","","","","-17","","Snow"
"-99.95","49.91","BRANDON A","5010481","2018-12-29 06:00","2018","12","29","06:00","-14.1","","-17.2","","78","","","","32","","4","","16.1","","96.51","","","","-17","","Snow"
"-99.95","49.91","BRANDON A","5010481","2018-12-29 07:00","2018","12","29","07:00","-13.7","","-16.8","","78","","","","36","","3","","24.1","","96.44","","","","-16","","Snow"
"-99.95","49.91","BRANDON A","5010481","2018-12-29 08:00","2018","12","29","08:00","-13.7","","-16.7","","79","","","","23","","12","","24.1","","96.39","","","","-20","","NA"
"-99.95","49.91","BRANDON A","5010481","2018-12-29 09:00","2018","12","29","09:00","-15.6","","-18.8","","77","","","","25","","10","","24.1","","96.35","","","","-22","","Mostly Cloudy"
"-99.95","49.91","BRANDON A","5010481","2018-12-29 10:00","2018","12","29","10:00","-14.6","","-17.8","","77","","","","21","","8","","24.1","","96.26","","","","-20","","NA"
"-99.95","49.91","BRANDON A","5010481","2018-12-29 11:00","2018","12","29","11:00","-13.4","","-16.7","","76","","","","14","","7","","24.1","","96.11","","","","-18","","NA"
"-99.95","49.91","BRANDON A","5010481","2018-12-29 12:00","2018","12","29","12:00","-12.7","","-16.1","","76","","","","14","","8","","24.1","","95.90","","","","-18","","Mostly Cloudy"
"-99.95","49.91","BRANDON A","5010481","2018-12-29 13:00","2018","12","29","13:00","-12.4","","-16.1","","74","","","","14","","7","","24.1","","95.78","","","","-17","","NA"
"-99.95","49.91","BRANDON A","5010481","2018-12-29 14:00","2018","12","29","14:00","-11.7","","-15.9","","71","","","","15","","9","","24.1","","95.64","","","","-17","","NA"
"-99.95","49.91","BRANDON A","5010481","2018-12-29 15:00","2018","12","29","15:00","-11.0","","-15.0","","72","","","","14","","5","","24.1","","95.63","","","","-14","","Mostly Cloudy"
"-99.95","49.91","BRANDON A","5010481","2018-12-29 16:00","2018","12","29","16:00","-10.7","","-14.4","","74","","","","15","","7","","24.1","","95.55","","","","-15","","NA"
"-99.95","49.91","BRANDON A","5010481","2018-12-29 17:00","2018","12","29","17:00","-11.1","","-14.5","","76","","","","2","","5","","24.1","","95.53","","","","-14","","NA"
"-99.95","49.91","BRANDON A","5010481","2018-12-29 18:00","2018","12","29","18:00","-13.4","","-16.3","","79","","","","36","","8","","24.1","","95.54","","","","-18","","Mostly Cloudy"
"-99.95","49.91","BRANDON A","5010481","2018-12-29 19:00","2018","12","29","19:00","-15.6","","-18.3","","81","","","","2","","10","","24.1","","95.47","","","","-22","","NA"
"-99.95","49.91","BRANDON A","5010481","2018-12-29 20:00","2018","12","29","20:00","-13.2","","-15.8","","81","","","","34","","10","","24.1","","95.42","","","","-19","","NA"
"-99.95","49.91","BRANDON A","5010481","2018-12-29 21:00","2018","12","29","21:00","-11.5","","-14.3","","80","","","","36","","5","","24.1","","95.39","","","","-15","","Cloudy"
"-99.95","49.91","BRANDON A","5010481","2018-12-29 22:00","2018","12","29","22:00","-11.0","","-14.3","","77","","","","4","","9","","24.1","","95.43","","","","-16","","NA"
"-99.95","49.91","BRANDON A","5010481","2018-12-29 23:00","2018","12","29","23:00","-11.5","","-14.2","","81","","","","6","","14","","24.1","","95.41","","","","-18","","NA"
"-99.95","49.91","BRANDON A","5010481","2018-12-30 00:00","2018","12","30","00:00","-12.1","","-14.4","","83","","","","6","","23","","24.1","","95.40","","","","-21","","Cloudy"
"-99.95","49.91","BRANDON A","5010481","2018-12-30 01:00","2018","12","30","01:00","-13.3","","-15.5","","83","","","","5","","23","","16.1","","95.45","","","","-23","","Snow"
"-99.95","49.91","BRANDON A","5010481","2018-12-30 02:00","2018","12","30","02:00","-13.8","","-16.4","","80","","","","6","","25","","16.1","","95.47","","","","-24","","Snow"
"-99.95","49.91","BRANDON A","5010481","2018-12-30 03:00","2018","12","30","03:00","-14.2","","-16.8","","81","","","","7","","24","","4.8","","95.50","","","","-24","","Snow"
"-99.95","49.91","BRANDON A","5010481","2018-12-30 04:00","2018","12","30","04:00","-14.4","","-16.9","","81","","","","8","","28","","3.2","","95.49","","","","-25","","Snow"
"-99.95","49.91","BRANDON A","5010481","2018-12-30 05:00","2018","12","30","05:00","-14.6","","-17.2","","81","","","","8","","26","","1.6","","95.48","","","","-25","","Snow"
"-99.95","49.91","BRANDON A","5010481","2018-12-30 06:00","2018","12","30","06:00","-14.8","","-17.6","","79","","","","7","","25","","4.8","","95.49","","","","-25","","Snow"
"-99.95","49.91","BRANDON A","5010481","2018-12-30 07:00","2018","12","30","07:00","-14.8","","-17.6","","79","","","","7","","30","","4.8","","95.55","","","","-26","","Snow"
"-99.95","49.91","BRANDON A","5010481","2018-12-30 08:00","2018","12","30","08:00","-14.7","","-17.6","","79","","","","6","","26","","6.4","","95.68","","","","-25","","Snow,Blowing Snow"
"-99.95","49.91","BRANDON A","5010481","2018-12-30 09:00","2018","12","30","09:00","-14.8","","-17.7","","79","","","","6","","32","","2.4","","95.72","","","","-26","","Snow,Blowing Snow"
"-99.95","49.91","BRANDON A","5010481","2018-12-30 10:00","2018","12","30","10:00","-14.7","","-17.7","","78","","","","6","","31","","4.0","","95.79","","","","-26","","Snow,Blowing Snow"
"-99.95","49.91","BRANDON A","5010481","2018-12-30 11:00","2018","12","30","11:00","-14.4","","-17.6","","77","","","","5","","34","","4.0","","95.83","","","","-26","","Snow,Blowing Snow"
"-99.95","49.91","BRANDON A","5010481","2018-12-30 12:00","2018","12","30","12:00","-14.3","","-17.7","","76","","","","6","","28","","4.8","","95.91","","","","-25","","Snow,Blowing Snow"
"-99.95","49.91","BRANDON A","5010481","2018-12-30 13:00","2018","12","30","13:00","-14.7","","-18.2","","75","","","","5","","31","","4.8","","95.94","","","","-26","","Snow,Blowing Snow"
"-99.95","49.91","BRANDON A","5010481","2018-12-30 14:00","2018","12","30","14:00","-14.6","","-18.2","","75","","","","4","","29","","4.8","","96.01","","","","-25","","Snow,Blowing Snow"
"-99.95","49.91","BRANDON A","5010481","2018-12-30 15:00","2018","12","30","15:00","-14.6","","-18.2","","74","","","","5","","29","","9.7","","96.16","","","","-25","","Snow,Blowing Snow"
"-99.95","49.91","BRANDON A","5010481","2018-12-30 16:00","2018","12","30","16:00","-14.1","","-17.9","","73","","","","6","","30","","24.1","","96.29","","","","-25","","Snow,Blowing Snow"
"-99.95","49.91","BRANDON A","5010481","2018-12-30 17:00","2018","12","30","17:00","-14.4","","-18.3","","73","","","","4","","36","","16.1","","96.42","","","","-26","","Snow,Blowing Snow"
"-99.95","49.91","BRANDON A","5010481","2018-12-30 18:00","2018","12","30","18:00","-14.5","","-18.3","","73","","","","5","","36","","16.1","","96.55","","","","-26","","Snow,Blowing Snow"
"-99.95","49.91","BRANDON A","5010481","2018-12-30 19:00","2018","12","30","19:00","-14.7","","-18.7","","72","","","","4","","34","","16.1","","96.68","","","","-26","","Snow,Blowing Snow"
"-99.95","49.91","BRANDON A","5010481","2018-12-30 20:00","2018","12","30","20:00","-15.1","","-21.9","","57","","","","5","","37","","16.1","","96.84","","","","-27","","Snow,Blowing Snow"
"-99.95","49.91","BRANDON A","5010481","2018-12-30 21:00","2018","12","30","21:00","-16.0","","-23.3","","54","","","","4","","16","","19.3","","96.99","","","","-24","","Snow,Blowing Snow"
"-99.95","49.91","BRANDON A","5010481","2018-12-30 22:00","2018","12","30","22:00","-17.1","","-23.6","","57","","","","5","","19","","19.3","","97.14","","","","-27","","Snow,Blowing Snow"
"-99.95","49.91","BRANDON A","5010481","2018-12-30 23:00","2018","12","30","23:00","-19.6","","-26.0","","58","","","","7","","21","","24.1","","97.29","","","","-30","","Blowing Snow"
"-99.95","49.91","BRANDON A","5010481","2018-12-31 00:00","2018","12","31","00:00","-21.8","","-26.8","","64","","","","9","","19","","24.1","","97.49","","","","-32","","Blowing Snow"
"-99.95","49.91","BRANDON A","5010481","2018-12-31 01:00","2018","12","31","01:00","-23.9","","-28.4","","68","","","","7","","15","","24.1","","97.59","","","","-34","","NA"
"-99.95","49.91","BRANDON A","5010481","2018-12-31 02:00","2018","12","31","02:00","-25.4","","-29.5","","69","","","","6","","5","","24.1","","97.72","","","","-30","","NA"
"-99.95","49.91","BRANDON A","5010481","2018-12-31 03:00","2018","12","31","03:00","-25.7","","-29.9","","68","","","","34","","7","","24.1","","97.83","","","","-32","","Clear"
"-99.95","49.91","BRANDON A","5010481","2018-12-31 04:00","2018","12","31","04:00","-28.4","","-32.3","","70","","","","27","","13","","24.1","","97.92","","","","-39","","NA"
"-99.95","49.91","BRANDON A","5010481","2018-12-31 05:00","2018","12","31","05:00","-27.8","","-32.1","","67","","","","31","","19","","24.1","","97.96","","","","-40","","NA"
"-99.95","49.91","BRANDON A","5010481","2018-12-31 06:00","2018","12","31","06:00","-28.5","","-32.9","","67","","","","31","","19","","24.1","","98.04","","","","-41","","Clear"
"-99.95","49.91","BRANDON A","5010481","2018-12-31 07:00","2018","12","31","07:00","-27.6","","-32.1","","66","","","","32","","26","","24.1","","98.10","","","","-42","","NA"
"-99.95","49.91","BRANDON A","5010481","2018-12-31 08:00","2018","12","31","08:00","-29.9","","-34.2","","67","","","","29","","17","","24.1","","98.21","","","","-42","","NA"
"-99.95","49.91","BRANDON A","5010481","2018-12-31 09:00","2018","12","31","09:00","-28.9","","-32.9","","69","","","","27","","20","","24.1","","98.27","","","","-42","","Clear"
"-99.95","49.91","BRANDON A","5010481","2018-12-31 10:00","2018","12","31","10:00","-27.6","","-31.8","","68","","","","30","","19","","24.1","","98.27","","","","-40","","NA"
"-99.95","49.91","BRANDON A","5010481","2018-12-31 11:00","2018","12","31","11:00","-26.2","","-30.8","","66","","","","29","","21","","24.1","","98.30","","","","-39","","NA"
"-99.95","49.91","BRANDON A","5010481","2018-12-31 12:00","2018","12","31","12:00","-25.0","","-30.1","","63","","","","27","","16","","24.1","","98.29","","","","-36","","Clear"
"-99.95","49.91","BRANDON A","5010481","2018-12-31 13:00","2018","12","31","13:00","-23.4","","-28.9","","61","","","","28","","18","","24.1","","98.27","","","","-34","","NA"
"-99.95","49.91","BRANDON A","5010481","2018-12-31 14:00","2018","12","31","14:00","-23.2","","-28.8","","61","","","","28","","22","","24.1","","98.31","","","","-35","","NA"
"-99.95","49.91","BRANDON A","5010481","2018-12-31 15:00","2018","12","31","15:00","-22.8","","-28.4","","61","","","","27","","19","","24.1","","98.35","","","","-34","","Clear"
"-99.95","49.91","BRANDON A","5010481","2018-12-31 16:00","2018","12","31","16:00","-24.2","","-29.7","","61","","","","26","","18","","24.1","","98.37","","","","-35","","NA"
"-99.95","49.91","BRANDON A","5010481","2018-12-31 17:00","2018","12","31","17:00","-25.4","","-30.6","","63","","","","26","","20","","24.1","","98.35","","","","-37","","NA"
"-99.95","49.91","BRANDON A","5010481","2018-12-31 18:00","2018","12","31","18:00","-27.3","","-32.1","","65","","","","28","","20","","24.1","","98.33","","","","-40","","Clear"
"-99.95","49.91","BRANDON A","5010481","2018-12-31 19:00","2018","12","31","19:00","-27.4","","-32.2","","64","","","","27","","23","","24.1","","98.33","","","","-41","","NA"
"-99.95","49.91","BRANDON A","5010481","2018-12-31 20:00","2018","12","31","20:00","-27.7","","-32.5","","65","","","","27","","21","","24.1","","98.31","","","","-40","","NA"
"-99.95","49.91","BRANDON A","5010481","2018-12-31 21:00","2018","12","31","21:00","-28.2","","-32.9","","65","","","","28","","19","","24.1","","98.30","","","","-41","","Clear"
"-99.95","49.91","BRANDON A","5010481","2018-12-31 22:00","2018","12","31","22:00","-26.9","","-31.5","","66","","","","26","","22","","24.1","","98.30","","","","-40","","NA"
"-99.95","49.91","BRANDON A","5010481","2018-12-31 23:00","2018","12","31","23:00","-28.3","","-32.9","","65","","","","27","","18","","24.1","","98.29","","","","-40","","NA"
