"Longitude (x)","Latitude (y)","Station Name","Climate ID","Date/Time (LST)","Year","Month","Day","Time (LST)","Temp (°C)","Temp Flag","Dew Point Temp (°C)","Dew Point Temp Flag","Rel Hum (%)","Rel Hum Flag","Precip. Amount (mm)","Precip. Amount Flag","Wind Dir (10s deg)","Wind Dir Flag","Wind Spd (km/h)","Wind Spd Flag","Visibility (km)","Visibility Flag","Stn Press (kPa)","Stn Press Flag","Hmdx","Hmdx Flag","Wind Chill","Wind Chill Flag","Weather"
"-64.32","48.42","CAP-D'ESPOIR","7051050","2023-01-01 00:00","2023","01","01","00:00","1.6","","1.1","","97","","","","7","","9","","","","100.51","","","","","","NA"
"-64.32","48.42","CAP-D'ESPOIR","7051050","2023-01-01 01:00","2023","01","01","01:00","1.4","","0.9","","97","","","","6","","10","","","","100.45","","","","","","NA"
"-64.32","48.42","CAP-D'ESPOIR","7051050","2023-01-01 02:00","2023","01","01","02:00","1.4","","0.9","","96","","","","7","","8","","","","100.43","","","","","","NA"
"-64.32","48.42","CAP-D'ESPOIR","7051050","2023-01-01 03:00","2023","01","01","03:00","1.4","","0.9","","97","","","","2","","5","","","","100.37","","","","","","NA"
"-64.32","48.42","CAP-D'ESPOIR","7051050","2023-01-01 04:00","2023","01","01","04:00","1.5","","1.1","","97","","","","6","","11","","","","100.25","","","","","","NA"
"-64.32","48.42","CAP-D'ESPOIR","7051050","2023-01-01 05:00","2023","01","01","05:00","1.4","","1.0","","97","","","","7","","21","","","","100.22","","","","","","NA"
"-64.32","48.42","CAP-D'ESPOIR","7051050","2023-01-01 06:00","2023","01","01","06:00","1.1","","0.5","","96","","","","6","","31","","","","100.16","","","","","","NA"
"-64.32","48.42","CAP-D'ESPOIR","7051050","2023-01-01 07:00","2023","01","01","07:00","1.9","","-0.2","","86","","","","5","","25","","","","100.13","","","","","","NA"
"-64.32","48.42","CAP-D'ESPOIR","7051050","2023-01-01 08:00","2023","01","01","08:00","2.3","","-0.7","","80","","","","3","","26","","","","100.06","","","","","","NA"
"-64.32","48.42","CAP-D'ESPOIR","7051050","2023-01-01 09:00","2023","01","01","09:00","1.5","","0.1","","90","","","","4","","30","","","","100.12","","","","","","NA"
"-64.32","48.42","CAP-D'ESPOIR","7051050","2023-01-01 10:00","2023","01","01","10:00","0.6","","-0.2","","94","","","","1","","17","","","","100.06","","","","","","NA"
"-64.32","48.42","CAP-D'ESPOIR","7051050","2023-01-01 11:00","2023","01","01","11:00","1.1","","-0.2","","91","","","","2","","17","","","","99.98","","","","","","NA"
"-64.32","48.42","CAP-D'ESPOIR","7051050","2023-01-01 12:00","2023","01","01","12:00","0.9","","-0.5","","90","","","","2","","30","","","","99.92","","","","","","NA"
"-64.32","48.42","CAP-D'ESPOIR","7051050","2023-01-01 13:00","2023","01","01","13:00","0.4","","-0.6","","93","","","","1","","26","","","","99.89","","","","","","NA"
"-64.32","48.42","CAP-D'ESPOIR","7051050","2023-01-01 14:00","2023","01","01","14:00","0.0","","-0.9","","93","","","","1","","27","","","","99.89","","","","-6","","NA"
"-64.32","48.42","CAP-D'ESPOIR","7051050","2023-01-01 15:00","2023","01","01","15:00","0.1","","-1.7","","87","","","","36","","24","","","","99.98","","","","","","NA"
"-64.32","48.42","CAP-D'ESPOIR","7051050","2023-01-01 16:00","2023","01","01","16:00","0.0","","-2.3","","85","","","","35","","19","","","","100.08","","","","-5","","NA"
"-64.32","48.42","CAP-D'ESPOIR","7051050","2023-01-01 17:00","2023","01","01","17:00","-0.3","","-2.8","","83","","","","35","","15","","","","100.16","","","","-5","","NA"
"-64.32","48.42","CAP-D'ESPOIR","7051050","2023-01-01 18:00","2023","01","01","18:00","-0.5","","-3.0","","83","","","","35","","11","","","","100.25","","","","-4","","NA"
"-64.32","48.42","CAP-D'ESPOIR","7051050","2023-01-01 19:00","2023","01","01","19:00","-0.6","","-3.7","","79","","","","35","","14","","","","100.35","","","","-5","","NA"
"-64.32","48.42","CAP-D'ESPOIR","7051050","2023-01-01 20:00","2023","01","01","20:00","-0.9","","-3.7","","81","","","","33","","11","","","","100.41","","","","-5","","NA"
"-64.32","48.42","CAP-D'ESPOIR","7051050","2023-01-01 21:00","2023","01","01","21:00","-1.0","","-5.0","","74","","","","32","","19","","","","100.43","","","","-6","","NA"
"-64.32","48.42","CAP-D'ESPOIR","7051050","2023-01-01 22:00","2023","01","01","22:00","-1.2","","-4.9","","75","","","","31","","11","","","","100.45","","","","-5","","NA"
"-64.32","48.42","CAP-D'ESPOIR","7051050","2023-01-01 23:00","2023","01","01","23:00","-1.4","","-5.1","","76","","","","31","","9","","","","100.52","","","","-5","","NA"
"-64.32","48.42","CAP-D'ESPOIR","7051050","2023-01-02 00:00","2023","01","02","00:00","-2.1","","-4.6","","83","","","","27","","7","","","","100.54","","","","-5","","NA"
"-64.32","48.42","CAP-D'ESPOIR","7051050","2023-01-02 01:00","2023","01","02","01:00","-2.0","","-4.7","","82","","","","29","","8","","","","100.59","","","","-5","","NA"
"-64.32","48.42","CAP-D'ESPOIR","7051050","2023-01-02 02:00","2023","01","02","02:00","-3.0","","-5.3","","84","","","","28","","6","","","","100.64","","","","-5","","NA"
"-64.32","48.42","CAP-D'ESPOIR","7051050","2023-01-02 03:00","2023","01","02","03:00","-3.5","","-5.9","","83","","","","28","","11","","","","100.69","","","","-8","","NA"
"-64.32","48.42","CAP-D'ESPOIR","7051050","2023-01-02 04:00","2023","01","02","04:00","-4.2","","-6.2","","85","","","","28","","10","","","","100.75","","","","-8","","NA"
"-64.32","48.42","CAP-D'ESPOIR","7051050","2023-01-02 05:00","2023","01","02","05:00","-4.7","","-7.3","","82","","","","27","","9","","","","100.83","","","","-9","","NA"
"-64.32","48.42","CAP-D'ESPOIR","7051050","2023-01-02 06:00","2023","01","02","06:00","-4.7","","-7.2","","83","","","","28","","11","","","","100.90","","","","-9","","NA"
"-64.32","48.42","CAP-D'ESPOIR","7051050","2023-01-02 07:00","2023","01","02","07:00","-4.8","","-7.5","","81","","","","29","","10","","","","100.97","","","","-9","","NA"
"-64.32","48.42","CAP-D'ESPOIR","7051050","2023-01-02 08:00","2023","01","02","08:00","-4.1","","-7.3","","78","","","","29","","9","","","","101.02","","","","-8","","NA"
"-64.32","48.42","CAP-D'ESPOIR","7051050","2023-01-02 09:00","2023","01","02","09:00","-3.5","","-6.3","","81","","","","27","","7","","","","101.04","","","","-6","","NA"
"-64.32","48.42","CAP-D'ESPOIR","7051050","2023-01-02 10:00","2023","01","02","10:00","-2.7","","-6.3","","76","","","","28","","9","","","","101.06","","","","-6","","NA"
"-64.32","48.42","CAP-D'ESPOIR","7051050","2023-01-02 11:00","2023","01","02","11:00","-2.4","","-6.5","","74","","","","27","","9","","","","101.02","","","","-6","","NA"
"-64.32","48.42","CAP-D'ESPOIR","7051050","2023-01-02 12:00","2023","01","02","12:00","-2.4","","-5.7","","78","","","","26","","11","","","","101.00","","","","-6","","NA"
"-64.32","48.42","CAP-D'ESPOIR","7051050","2023-01-02 13:00","2023","01","02","13:00","-2.2","","-5.6","","77","","","","26","","13","","","","101.02","","","","-7","","NA"
"-64.32","48.42","CAP-D'ESPOIR","7051050","2023-01-02 14:00","2023","01","02","14:00","-1.2","","-5.8","","71","","","","26","","13","","","","101.04","","","","-5","","NA"
"-64.32","48.42","CAP-D'ESPOIR","7051050","2023-01-02 15:00","2023","01","02","15:00","-2.2","","-7.1","","69","","","","30","","11","","","","101.12","","","","-6","","NA"
"-64.32","48.42","CAP-D'ESPOIR","7051050","2023-01-02 16:00","2023","01","02","16:00","-3.0","","-7.5","","71","","","","30","","11","","","","101.18","","","","-7","","NA"
"-64.32","48.42","CAP-D'ESPOIR","7051050","2023-01-02 17:00","2023","01","02","17:00","-4.0","","-8.2","","72","","","","30","","12","","","","101.26","","","","-9","","NA"
"-64.32","48.42","CAP-D'ESPOIR","7051050","2023-01-02 18:00","2023","01","02","18:00","-4.8","","-9.3","","71","","","","32","","13","","","","101.33","","","","-10","","NA"
"-64.32","48.42","CAP-D'ESPOIR","7051050","2023-01-02 19:00","2023","01","02","19:00","-5.7","","-9.4","","75","","","","30","","9","","","","101.40","","","","-10","","NA"
"-64.32","48.42","CAP-D'ESPOIR","7051050","2023-01-02 20:00","2023","01","02","20:00","-5.8","","-9.4","","76","","","","29","","10","","","","101.41","","","","-10","","NA"
"-64.32","48.42","CAP-D'ESPOIR","7051050","2023-01-02 21:00","2023","01","02","21:00","-6.5","","-10.0","","76","","","","32","","15","","","","101.45","","","","-12","","NA"
"-64.32","48.42","CAP-D'ESPOIR","7051050","2023-01-02 22:00","2023","01","02","22:00","-5.1","","-10.1","","67","","","","30","","11","","","","101.47","","","","-10","","NA"
"-64.32","48.42","CAP-D'ESPOIR","7051050","2023-01-02 23:00","2023","01","02","23:00","-6.6","","-10.2","","75","","","","28","","6","","","","101.47","","","","-10","","NA"
"-64.32","48.42","CAP-D'ESPOIR","7051050","2023-01-03 00:00","2023","01","03","00:00","-7.3","","-10.2","","79","","","","29","","12","","","","101.45","","","","-13","","NA"
"-64.32","48.42","CAP-D'ESPOIR","7051050","2023-01-03 01:00","2023","01","03","01:00","-7.2","","-9.9","","81","","","","28","","10","","","","101.43","","","","-12","","NA"
"-64.32","48.42","CAP-D'ESPOIR","7051050","2023-01-03 02:00","2023","01","03","02:00","-7.3","","-10.4","","79","","","","27","","10","","","","101.49","","","","-12","","NA"
"-64.32","48.42","CAP-D'ESPOIR","7051050","2023-01-03 03:00","2023","01","03","03:00","-7.8","","-10.9","","78","","","","30","","10","","","","101.50","","","","-13","","NA"
"-64.32","48.42","CAP-D'ESPOIR","7051050","2023-01-03 04:00","2023","01","03","04:00","-7.0","","-10.2","","78","","","","31","","4","","","","101.49","","","","-9","","NA"
"-64.32","48.42","CAP-D'ESPOIR","7051050","2023-01-03 05:00","2023","01","03","05:00","-6.5","","-9.9","","77","","","","29","","9","","","","101.48","","","","-11","","NA"
"-64.32","48.42","CAP-D'ESPOIR","7051050","2023-01-03 06:00","2023","01","03","06:00","-5.8","","-9.2","","76","","","","26","","4","","","","101.50","","","","-8","","NA"
"-64.32","48.42","CAP-D'ESPOIR","7051050","2023-01-03 07:00","2023","01","03","07:00","-5.2","","-8.4","","78","","","","25","","10","","","","101.52","","","","-10","","NA"
"-64.32","48.42","CAP-D'ESPOIR","7051050","2023-01-03 08:00","2023","01","03","08:00","-4.8","","-7.8","","80","","","","27","","10","","","","101.52","","","","-9","","NA"
"-64.32","48.42","CAP-D'ESPOIR","7051050","2023-01-03 09:00","2023","01","03","09:00","-4.6","","-7.7","","79","","","","29","","7","","","","101.50","","","","-8","","NA"
"-64.32","48.42","CAP-D'ESPOIR","7051050","2023-01-03 10:00","2023","01","03","10:00","-3.6","","-6.8","","78","","","","26","","11","","","","101.49","","","","-8","","NA"
"-64.32","48.42","CAP-D'ESPOIR","7051050","2023-01-03 11:00","2023","01","03","11:00","-2.0","","-5.1","","79","","","","26","","13","","","","101.39","","","","-6","","NA"
"-64.32","48.42","CAP-D'ESPOIR","7051050","2023-01-03 12:00","2023","01","03","12:00","-1.4","","-3.8","","83","","","","25","","12","","","","101.30","","","","-5","","NA"
"-64.32","48.42","CAP-D'ESPOIR","7051050","2023-01-03 13:00","2023","01","03","13:00","-0.9","","-3.0","","85","","","","24","","15","","","","101.20","","","","-6","","NA"
"-64.32","48.42","CAP-D'ESPOIR","7051050","2023-01-03 14:00","2023","01","03","14:00","-0.5","","-2.4","","87","","","","24","","17","","","","101.17","","","","-5","","NA"
"-64.32","48.42","CAP-D'ESPOIR","7051050","2023-01-03 15:00","2023","01","03","15:00","-0.5","","-2.3","","88","","","","24","","19","","","","101.18","","","","-6","","NA"
"-64.32","48.42","CAP-D'ESPOIR","7051050","2023-01-03 16:00","2023","01","03","16:00","-0.4","","-1.9","","90","","","","23","","22","","","","101.11","","","","-6","","NA"
"-64.32","48.42","CAP-D'ESPOIR","7051050","2023-01-03 17:00","2023","01","03","17:00","-0.3","","-1.6","","91","","","","23","","15","","","","101.04","","","","-5","","NA"
"-64.32","48.42","CAP-D'ESPOIR","7051050","2023-01-03 18:00","2023","01","03","18:00","0.2","","-1.1","","91","","","","22","","28","","","","101.04","","","","","","NA"
"-64.32","48.42","CAP-D'ESPOIR","7051050","2023-01-03 19:00","2023","01","03","19:00","0.2","","-0.8","","93","","","","23","","27","","","","101.01","","","","","","NA"
"-64.32","48.42","CAP-D'ESPOIR","7051050","2023-01-03 20:00","2023","01","03","20:00","-0.1","","-0.9","","94","","","","24","","17","","","","100.93","","","","-5","","NA"
"-64.32","48.42","CAP-D'ESPOIR","7051050","2023-01-03 21:00","2023","01","03","21:00","0.1","","-0.8","","94","","","","23","","25","","","","100.89","","","","","","NA"
"-64.32","48.42","CAP-D'ESPOIR","7051050","2023-01-03 22:00","2023","01","03","22:00","-0.1","","-0.7","","96","","","","22","","22","","","","100.84","","","","-6","","NA"
"-64.32","48.42","CAP-D'ESPOIR","7051050","2023-01-03 23:00","2023","01","03","23:00","0.2","","-0.4","","96","","","","23","","25","","","","100.79","","","","","","NA"
"-64.32","48.42","CAP-D'ESPOIR","7051050","2023-01-04 00:00","2023","01","04","00:00","0.3","","-0.4","","95","","","","24","","19","","","","100.70","","","","","","NA"
"-64.32","48.42","CAP-D'ESPOIR","7051050","2023-01-04 01:00","2023","01","04","01:00","0.4","","-0.4","","94","","","","26","","17","","","","100.70","","","","","","NA"
"-64.32","48.42","CAP-D'ESPOIR","7051050","2023-01-04 02:00","2023","01","04","02:00","0.1","","-0.9","","93","","","","25","","12","","","","100.71","","","","","","NA"
"-64.32","48.42","CAP-D'ESPOIR","7051050","2023-01-04 03:00","2023","01","04","03:00","0.0","","-1.1","","92","","","","25","","10","","","","100.64","","","","-3","","NA"
"-64.32","48.42","CAP-D'ESPOIR","7051050","2023-01-04 04:00","2023","01","04","04:00","-0.7","","-1.8","","92","","","","26","","12","","","","100.61","","","","-5","","NA"
"-64.32","48.42","CAP-D'ESPOIR","7051050","2023-01-04 05:00","2023","01","04","05:00","-1.2","","-2.2","","93","","","","27","","10","","","","100.58","","","","-5","","NA"
"-64.32","48.42","CAP-D'ESPOIR","7051050","2023-01-04 06:00","2023","01","04","06:00","-0.4","","-1.4","","93","","","","25","","13","","","","100.63","","","","-5","","NA"
"-64.32","48.42","CAP-D'ESPOIR","7051050","2023-01-04 07:00","2023","01","04","07:00","-0.9","","-1.9","","93","","","","26","","12","","","","100.66","","","","-5","","NA"
"-64.32","48.42","CAP-D'ESPOIR","7051050","2023-01-04 08:00","2023","01","04","08:00","-1.6","","-2.7","","92","","","","27","","12","","","","100.70","","","","-6","","NA"
"-64.32","48.42","CAP-D'ESPOIR","7051050","2023-01-04 09:00","2023","01","04","09:00","0.2","","-2.3","","83","","","","27","","13","","","","100.69","","","","","","NA"
"-64.32","48.42","CAP-D'ESPOIR","7051050","2023-01-04 10:00","2023","01","04","10:00","1.0","","-2.5","","78","","","","27","","8","","","","100.66","","","","","","NA"
"-64.32","48.42","CAP-D'ESPOIR","7051050","2023-01-04 11:00","2023","01","04","11:00","2.4","","-2.4","","70","","","","27","","9","","","","100.61","","","","","","NA"
"-64.32","48.42","CAP-D'ESPOIR","7051050","2023-01-04 12:00","2023","01","04","12:00","1.0","","-3.5","","72","","","","1","","10","","","","100.69","","","","","","NA"
"-64.32","48.42","CAP-D'ESPOIR","7051050","2023-01-04 13:00","2023","01","04","13:00","0.7","","-4.6","","67","","","","32","","11","","","","100.77","","","","","","NA"
"-64.32","48.42","CAP-D'ESPOIR","7051050","2023-01-04 14:00","2023","01","04","14:00","1.0","","-5.6","","62","","","","33","","16","","","","100.85","","","","","","NA"
"-64.32","48.42","CAP-D'ESPOIR","7051050","2023-01-04 15:00","2023","01","04","15:00","-0.9","","-7.7","","60","","","","35","","16","","","","101.03","","","","-6","","NA"
"-64.32","48.42","CAP-D'ESPOIR","7051050","2023-01-04 16:00","2023","01","04","16:00","-2.5","","-11.3","","51","","","","35","","16","","","","101.16","","","","-8","","NA"
"-64.32","48.42","CAP-D'ESPOIR","7051050","2023-01-04 17:00","2023","01","04","17:00","-4.2","","-11.6","","56","","","","34","","17","","","","101.34","","","","-10","","NA"
"-64.32","48.42","CAP-D'ESPOIR","7051050","2023-01-04 18:00","2023","01","04","18:00","-6.0","","-12.2","","62","","","","32","","12","","","","101.49","","","","-11","","NA"
"-64.32","48.42","CAP-D'ESPOIR","7051050","2023-01-04 19:00","2023","01","04","19:00","-6.2","","-13.7","","56","","","","32","","20","","","","101.67","","","","-13","","NA"
"-64.32","48.42","CAP-D'ESPOIR","7051050","2023-01-04 20:00","2023","01","04","20:00","-7.0","","-14.5","","55","","","","35","","25","","","","101.77","","","","-15","","NA"
"-64.32","48.42","CAP-D'ESPOIR","7051050","2023-01-04 21:00","2023","01","04","21:00","-7.9","","-15.3","","55","","","","32","","18","","","","101.92","","","","-15","","NA"
"-64.32","48.42","CAP-D'ESPOIR","7051050","2023-01-04 22:00","2023","01","04","22:00","-7.9","","-14.6","","58","","","","33","","18","","","","101.98","","","","-15","","NA"
"-64.32","48.42","CAP-D'ESPOIR","7051050","2023-01-04 23:00","2023","01","04","23:00","-8.5","","-14.8","","61","","","","36","","16","","","","102.07","","","","-15","","NA"
"-64.32","48.42","CAP-D'ESPOIR","7051050","2023-01-05 00:00","2023","01","05","00:00","-9.4","","-15.4","","62","","","","36","","18","","","","102.13","","","","-17","","NA"
"-64.32","48.42","CAP-D'ESPOIR","7051050","2023-01-05 01:00","2023","01","05","01:00","-10.4","","-15.9","","64","","","","35","","10","","","","102.23","","","","-16","","NA"
"-64.32","48.42","CAP-D'ESPOIR","7051050","2023-01-05 02:00","2023","01","05","02:00","-11.1","","-16.0","","67","","","","33","","8","","","","102.38","","","","-16","","NA"
"-64.32","48.42","CAP-D'ESPOIR","7051050","2023-01-05 03:00","2023","01","05","03:00","-10.8","","-15.8","","66","","","","35","","15","","","","102.22","","","","-18","","NA"
"-64.32","48.42","CAP-D'ESPOIR","7051050","2023-01-05 04:00","2023","01","05","04:00","-10.9","","-16.0","","66","","","","33","","7","","","","102.26","","","","-15","","NA"
"-64.32","48.42","CAP-D'ESPOIR","7051050","2023-01-05 05:00","2023","01","05","05:00","-10.8","","-15.8","","66","","","","31","","11","","","","102.28","","","","-17","","NA"
"-64.32","48.42","CAP-D'ESPOIR","7051050","2023-01-05 06:00","2023","01","05","06:00","-10.1","","-14.7","","69","","","","34","","17","","","","102.37","","","","-17","","NA"
"-64.32","48.42","CAP-D'ESPOIR","7051050","2023-01-05 07:00","2023","01","05","07:00","-10.0","","-14.7","","68","","","","36","","19","","","","102.41","","","","-18","","NA"
"-64.32","48.42","CAP-D'ESPOIR","7051050","2023-01-05 08:00","2023","01","05","08:00","-9.8","","-14.4","","69","","","","1","","16","","","","102.41","","","","-17","","NA"
"-64.32","48.42","CAP-D'ESPOIR","7051050","2023-01-05 09:00","2023","01","05","09:00","-9.2","","-13.9","","69","","","","34","","14","","","","102.43","","","","-16","","NA"
"-64.32","48.42","CAP-D'ESPOIR","7051050","2023-01-05 10:00","2023","01","05","10:00","-8.3","","-14.2","","62","","","","31","","8","","","","102.51","","","","-12","","NA"
"-64.32","48.42","CAP-D'ESPOIR","7051050","2023-01-05 11:00","2023","01","05","11:00","-7.5","","-13.8","","61","","","","27","","5","","","","102.48","","","","-10","","NA"
"-64.32","48.42","CAP-D'ESPOIR","7051050","2023-01-05 12:00","2023","01","05","12:00","-7.8","","-13.9","","62","","","","28","","4","","","","102.38","","","","-10","","NA"
"-64.32","48.42","CAP-D'ESPOIR","7051050","2023-01-05 13:00","2023","01","05","13:00","-7.8","","-13.3","","64","","","","21","","3","","","","102.37","","","","-9","","NA"
"-64.32","48.42","CAP-D'ESPOIR","7051050","2023-01-05 14:00","2023","01","05","14:00","-7.3","","-13.0","","64","","","","9","","2","","","","102.32","","","","-8","","NA"
"-64.32","48.42","CAP-D'ESPOIR","7051050","2023-01-05 15:00","2023","01","05","15:00","-7.2","","-13.2","","62","","","","18","","2","","","","102.36","","","","-8","","NA"
"-64.32","48.42","CAP-D'ESPOIR","7051050","2023-01-05 16:00","2023","01","05","16:00","-6.9","","-12.3","","66","","","","19","","5","","","","102.34","","","","-9","","NA"
"-64.32","48.42","CAP-D'ESPOIR","7051050","2023-01-05 17:00","2023","01","05","17:00","-6.8","","-12.5","","63","","","","21","","3","","","","102.36","","","","-8","","NA"
"-64.32","48.42","CAP-D'ESPOIR","7051050","2023-01-05 18:00","2023","01","05","18:00","-6.7","","-11.8","","67","","","","23","","3","","","","102.38","","","","-8","","NA"
"-64.32","48.42","CAP-D'ESPOIR","7051050","2023-01-05 19:00","2023","01","05","19:00","-7.0","","-11.4","","71","","","","31","","6","","","","102.38","","","","-10","","NA"
"-64.32","48.42","CAP-D'ESPOIR","7051050","2023-01-05 20:00","2023","01","05","20:00","-6.5","","-12.2","","64","","","","35","","4","","","","102.32","","","","-8","","NA"
"-64.32","48.42","CAP-D'ESPOIR","7051050","2023-01-05 21:00","2023","01","05","21:00","-6.7","","-11.3","","70","","","","35","","2","","","","102.29","","","","-8","","NA"
"-64.32","48.42","CAP-D'ESPOIR","7051050","2023-01-05 22:00","2023","01","05","22:00","-6.5","","-11.2","","69","","","","34","","8","","","","102.20","","","","-10","","NA"
"-64.32","48.42","CAP-D'ESPOIR","7051050","2023-01-05 23:00","2023","01","05","23:00","-6.7","","-11.2","","70","","","","33","","8","","","","102.19","","","","-11","","NA"
"-64.32","48.42","CAP-D'ESPOIR","7051050","2023-01-06 00:00","2023","01","06","00:00","-6.2","","-11.2","","67","","","","36","","7","","","","102.12","","","","-10","","NA"
"-64.32","48.42","CAP-D'ESPOIR","7051050","2023-01-06 01:00","2023","01","06","01:00","-6.0","","-10.7","","69","","","","1","","13","","","","102.05","","","","-11","","NA"
"-64.32","48.42","CAP-D'ESPOIR","7051050","2023-01-06 02:00","2023","01","06","02:00","-6.1","","-10.3","","72","","","","36","","11","","","","102.05","","","","-11","","NA"
"-64.32","48.42","CAP-D'ESPOIR","7051050","2023-01-06 03:00","2023","01","06","03:00","-6.0","","-10.0","","74","","","","35","","10","","","","102.04","","","","-10","","NA"
"-64.32","48.42","CAP-D'ESPOIR","7051050","2023-01-06 04:00","2023","01","06","04:00","-5.8","","-9.5","","75","","","","36","","14","","","","102.01","","","","-11","","NA"
"-64.32","48.42","CAP-D'ESPOIR","7051050","2023-01-06 05:00","2023","01","06","05:00","-5.6","","-9.2","","76","","","","36","","14","","","","101.96","","","","-11","","NA"
"-64.32","48.42","CAP-D'ESPOIR","7051050","2023-01-06 06:00","2023","01","06","06:00","-5.6","","-9.1","","76","","","","36","","15","","","","101.95","","","","-11","","NA"
"-64.32","48.42","CAP-D'ESPOIR","7051050","2023-01-06 07:00","2023","01","06","07:00","-5.6","","-9.1","","76","","","","35","","9","","","","101.97","","","","-10","","NA"
"-64.32","48.42","CAP-D'ESPOIR","7051050","2023-01-06 08:00","2023","01","06","08:00","-5.4","","-8.5","","79","","","","1","","17","","","","101.94","","","","-11","","NA"
"-64.32","48.42","CAP-D'ESPOIR","7051050","2023-01-06 09:00","2023","01","06","09:00","-4.9","","-7.8","","80","","","","1","","16","","","","101.90","","","","-11","","NA"
"-64.32","48.42","CAP-D'ESPOIR","7051050","2023-01-06 10:00","2023","01","06","10:00","-4.3","","-7.4","","79","","","","3","","14","","","","101.87","","","","-9","","NA"
"-64.32","48.42","CAP-D'ESPOIR","7051050","2023-01-06 11:00","2023","01","06","11:00","-3.7","","-8.1","","72","","","","7","","15","","","","101.81","","","","-9","","NA"
"-64.32","48.42","CAP-D'ESPOIR","7051050","2023-01-06 12:00","2023","01","06","12:00","-3.6","","-7.9","","72","","","","7","","12","","","","101.73","","","","-8","","NA"
"-64.32","48.42","CAP-D'ESPOIR","7051050","2023-01-06 13:00","2023","01","06","13:00","-3.5","","-7.6","","73","","","","4","","10","","","","101.67","","","","-7","","NA"
"-64.32","48.42","CAP-D'ESPOIR","7051050","2023-01-06 14:00","2023","01","06","14:00","-3.4","","-7.0","","76","","","","6","","11","","","","101.67","","","","-8","","NA"
"-64.32","48.42","CAP-D'ESPOIR","7051050","2023-01-06 15:00","2023","01","06","15:00","-3.4","","-7.0","","76","","","","5","","10","","","","101.64","","","","-7","","NA"
"-64.32","48.42","CAP-D'ESPOIR","7051050","2023-01-06 16:00","2023","01","06","16:00","-3.4","","-6.7","","78","","","","7","","11","","","","101.66","","","","-8","","NA"
"-64.32","48.42","CAP-D'ESPOIR","7051050","2023-01-06 17:00","2023","01","06","17:00","-3.3","","-6.4","","79","","","","8","","12","","","","101.63","","","","-8","","NA"
"-64.32","48.42","CAP-D'ESPOIR","7051050","2023-01-06 18:00","2023","01","06","18:00","-3.3","","-6.7","","78","","","","5","","12","","","","101.63","","","","-8","","NA"
"-64.32","48.42","CAP-D'ESPOIR","7051050","2023-01-06 19:00","2023","01","06","19:00","-3.3","","-6.9","","76","","","","8","","12","","","","101.60","","","","-8","","NA"
"-64.32","48.42","CAP-D'ESPOIR","7051050","2023-01-06 20:00","2023","01","06","20:00","-3.2","","-6.7","","77","","","","9","","13","","","","101.59","","","","-8","","NA"
"-64.32","48.42","CAP-D'ESPOIR","7051050","2023-01-06 21:00","2023","01","06","21:00","-4.2","","-7.5","","78","","","","35","","3","","","","101.55","","","","-5","","NA"
"-64.32","48.42","CAP-D'ESPOIR","7051050","2023-01-06 22:00","2023","01","06","22:00","-5.0","","-7.4","","83","","","","33","","7","","","","101.51","","","","-8","","NA"
"-64.32","48.42","CAP-D'ESPOIR","7051050","2023-01-06 23:00","2023","01","06","23:00","-4.5","","-7.1","","82","","","","32","","6","","","","101.48","","","","-7","","NA"
"-64.32","48.42","CAP-D'ESPOIR","7051050","2023-01-07 00:00","2023","01","07","00:00","-4.4","","-7.1","","82","","","","31","","6","","","","101.42","","","","-7","","NA"
"-64.32","48.42","CAP-D'ESPOIR","7051050","2023-01-07 01:00","2023","01","07","01:00","-4.5","","-7.3","","81","","","","31","","9","","","","101.35","","","","-8","","NA"
"-64.32","48.42","CAP-D'ESPOIR","7051050","2023-01-07 02:00","2023","01","07","02:00","-4.0","","-7.0","","80","","","","30","","7","","","","101.36","","","","-7","","NA"
"-64.32","48.42","CAP-D'ESPOIR","7051050","2023-01-07 03:00","2023","01","07","03:00","-4.0","","-6.9","","80","","","","29","","7","","","","101.30","","","","-7","","NA"
"-64.32","48.42","CAP-D'ESPOIR","7051050","2023-01-07 04:00","2023","01","07","04:00","-3.9","","-6.7","","81","","","","29","","7","","","","101.27","","","","-7","","NA"
"-64.32","48.42","CAP-D'ESPOIR","7051050","2023-01-07 05:00","2023","01","07","05:00","-4.1","","-6.6","","83","","","","28","","6","","","","101.23","","","","-7","","NA"
"-64.32","48.42","CAP-D'ESPOIR","7051050","2023-01-07 06:00","2023","01","07","06:00","-4.1","","-6.4","","84","","","","28","","6","","","","101.23","","","","-7","","NA"
"-64.32","48.42","CAP-D'ESPOIR","7051050","2023-01-07 07:00","2023","01","07","07:00","-4.1","","-6.3","","85","","","","27","","6","","","","101.21","","","","-7","","NA"
"-64.32","48.42","CAP-D'ESPOIR","7051050","2023-01-07 08:00","2023","01","07","08:00","-3.8","","-5.9","","86","","","","27","","7","","","","101.18","","","","-7","","NA"
"-64.32","48.42","CAP-D'ESPOIR","7051050","2023-01-07 09:00","2023","01","07","09:00","-3.6","","-5.6","","86","","","","26","","6","","","","101.17","","","","-6","","NA"
"-64.32","48.42","CAP-D'ESPOIR","7051050","2023-01-07 10:00","2023","01","07","10:00","-2.7","","-4.5","","87","","","","26","","7","","","","101.14","","","","-6","","NA"
"-64.32","48.42","CAP-D'ESPOIR","7051050","2023-01-07 11:00","2023","01","07","11:00","-2.1","","-4.0","","87","","","","25","","14","","","","101.03","","","","-7","","NA"
"-64.32","48.42","CAP-D'ESPOIR","7051050","2023-01-07 12:00","2023","01","07","12:00","-1.8","","-3.9","","85","","","","24","","20","","","","100.92","","","","-8","","NA"
"-64.32","48.42","CAP-D'ESPOIR","7051050","2023-01-07 13:00","2023","01","07","13:00","-1.7","","-3.5","","88","","","","23","","19","","","","100.84","","","","-7","","NA"
"-64.32","48.42","CAP-D'ESPOIR","7051050","2023-01-07 14:00","2023","01","07","14:00","-1.7","","-3.0","","91","","","","23","","17","","","","100.84","","","","-7","","NA"
"-64.32","48.42","CAP-D'ESPOIR","7051050","2023-01-07 15:00","2023","01","07","15:00","-1.8","","-2.8","","93","","","","24","","12","","","","100.84","","","","-6","","NA"
"-64.32","48.42","CAP-D'ESPOIR","7051050","2023-01-07 16:00","2023","01","07","16:00","-1.8","","-2.6","","94","","","","25","","12","","","","100.85","","","","-6","","NA"
"-64.32","48.42","CAP-D'ESPOIR","7051050","2023-01-07 17:00","2023","01","07","17:00","-2.0","","-2.8","","94","","","","28","","5","","","","100.85","","","","-4","","NA"
"-64.32","48.42","CAP-D'ESPOIR","7051050","2023-01-07 18:00","2023","01","07","18:00","-2.3","","-3.1","","94","","","","35","","3","","","","100.86","","","","-3","","NA"
"-64.32","48.42","CAP-D'ESPOIR","7051050","2023-01-07 19:00","2023","01","07","19:00","-2.2","","-3.0","","94","","","","36","","5","","","","100.88","","","","-4","","NA"
"-64.32","48.42","CAP-D'ESPOIR","7051050","2023-01-07 20:00","2023","01","07","20:00","-2.8","","-4.3","","90","","","","35","","11","","","","100.92","","","","-7","","NA"
"-64.32","48.42","CAP-D'ESPOIR","7051050","2023-01-07 21:00","2023","01","07","21:00","-3.8","","-7.8","","74","","","","31","","15","","","","100.92","","","","-9","","NA"
"-64.32","48.42","CAP-D'ESPOIR","7051050","2023-01-07 22:00","2023","01","07","22:00","-4.7","","-9.8","","68","","","","31","","18","","","","100.95","","","","-11","","NA"
"-64.32","48.42","CAP-D'ESPOIR","7051050","2023-01-07 23:00","2023","01","07","23:00","-6.1","","-12.4","","61","","","","32","","19","","","","100.97","","","","-13","","NA"
"-64.32","48.42","CAP-D'ESPOIR","7051050","2023-01-08 00:00","2023","01","08","00:00","-6.6","","-13.4","","59","","","","31","","27","","","","100.96","","","","-15","","NA"
"-64.32","48.42","CAP-D'ESPOIR","7051050","2023-01-08 01:00","2023","01","08","01:00","-7.2","","-13.7","","60","","","","31","","23","","","","101.03","","","","-15","","NA"
"-64.32","48.42","CAP-D'ESPOIR","7051050","2023-01-08 02:00","2023","01","08","02:00","-7.7","","-13.3","","64","","","","31","","21","","","","101.09","","","","-15","","NA"
"-64.32","48.42","CAP-D'ESPOIR","7051050","2023-01-08 03:00","2023","01","08","03:00","-7.9","","-12.7","","68","","","","31","","15","","","","101.12","","","","-14","","NA"
"-64.32","48.42","CAP-D'ESPOIR","7051050","2023-01-08 04:00","2023","01","08","04:00","-7.9","","-13.6","","64","","","","32","","29","","","","101.16","","","","-17","","NA"
"-64.32","48.42","CAP-D'ESPOIR","7051050","2023-01-08 05:00","2023","01","08","05:00","-8.3","","-14.5","","61","","","","31","","32","","","","101.28","","","","-18","","NA"
"-64.32","48.42","CAP-D'ESPOIR","7051050","2023-01-08 06:00","2023","01","08","06:00","-8.7","","-15.0","","60","","","","31","","21","","","","101.35","","","","-16","","NA"
"-64.32","48.42","CAP-D'ESPOIR","7051050","2023-01-08 07:00","2023","01","08","07:00","-8.6","","-14.8","","61","","","","32","","21","","","","101.43","","","","-16","","NA"
"-64.32","48.42","CAP-D'ESPOIR","7051050","2023-01-08 08:00","2023","01","08","08:00","-8.7","","-15.1","","60","","","","31","","22","","","","101.46","","","","-17","","NA"
"-64.32","48.42","CAP-D'ESPOIR","7051050","2023-01-08 09:00","2023","01","08","09:00","-8.6","","-14.8","","61","","","","30","","12","","","","101.50","","","","-14","","NA"
"-64.32","48.42","CAP-D'ESPOIR","7051050","2023-01-08 10:00","2023","01","08","10:00","-7.9","","-15.0","","57","","","","31","","21","","","","101.51","","","","-15","","NA"
"-64.32","48.42","CAP-D'ESPOIR","7051050","2023-01-08 11:00","2023","01","08","11:00","-7.8","","-15.4","","54","","","","33","","8","","","","101.44","","","","-12","","NA"
"-64.32","48.42","CAP-D'ESPOIR","7051050","2023-01-08 12:00","2023","01","08","12:00","-7.0","","-15.6","","50","","","","29","","15","","","","101.41","","","","-13","","NA"
"-64.32","48.42","CAP-D'ESPOIR","7051050","2023-01-08 13:00","2023","01","08","13:00","-6.4","","-15.3","","49","","","","26","","10","","","","101.36","","","","-11","","NA"
"-64.32","48.42","CAP-D'ESPOIR","7051050","2023-01-08 14:00","2023","01","08","14:00","-6.2","","-14.9","","50","","","","22","","7","","","","101.31","","","","-10","","NA"
"-64.32","48.42","CAP-D'ESPOIR","7051050","2023-01-08 15:00","2023","01","08","15:00","-6.3","","-13.1","","58","","","","22","","14","","","","101.28","","","","-12","","NA"
"-64.32","48.42","CAP-D'ESPOIR","7051050","2023-01-08 16:00","2023","01","08","16:00","-6.3","","-13.5","","57","","","","24","","18","","","","101.24","","","","-13","","NA"
"-64.32","48.42","CAP-D'ESPOIR","7051050","2023-01-08 17:00","2023","01","08","17:00","-6.9","","-14.1","","57","","","","27","","11","","","","101.18","","","","-12","","NA"
"-64.32","48.42","CAP-D'ESPOIR","7051050","2023-01-08 18:00","2023","01","08","18:00","-6.2","","-12.9","","59","","","","24","","20","","","","101.09","","","","-13","","NA"
"-64.32","48.42","CAP-D'ESPOIR","7051050","2023-01-08 19:00","2023","01","08","19:00","-6.1","","-12.9","","59","","","","24","","29","","","","101.01","","","","-14","","NA"
"-64.32","48.42","CAP-D'ESPOIR","7051050","2023-01-08 20:00","2023","01","08","20:00","-5.5","","-11.2","","64","","","","25","","35","","","","100.86","","","","-14","","NA"
"-64.32","48.42","CAP-D'ESPOIR","7051050","2023-01-08 21:00","2023","01","08","21:00","-5.1","","-10.4","","66","","","","24","","39","","","","100.74","","","","-14","","NA"
"-64.32","48.42","CAP-D'ESPOIR","7051050","2023-01-08 22:00","2023","01","08","22:00","-5.3","","-11.0","","64","","","","25","","37","","","","100.67","","","","-14","","NA"
"-64.32","48.42","CAP-D'ESPOIR","7051050","2023-01-08 23:00","2023","01","08","23:00","-6.0","","-11.0","","67","","","","25","","24","","","","100.64","","","","-13","","NA"
"-64.32","48.42","CAP-D'ESPOIR","7051050","2023-01-09 00:00","2023","01","09","00:00","-6.0","","-11.4","","65","","","","26","","17","","","","100.61","","","","-12","","NA"
"-64.32","48.42","CAP-D'ESPOIR","7051050","2023-01-09 01:00","2023","01","09","01:00","-6.3","","-11.5","","66","","","","26","","15","","","","100.58","","","","-12","","NA"
"-64.32","48.42","CAP-D'ESPOIR","7051050","2023-01-09 02:00","2023","01","09","02:00","-6.1","","-11.6","","65","","","","25","","18","","","","100.65","","","","-13","","NA"
"-64.32","48.42","CAP-D'ESPOIR","7051050","2023-01-09 03:00","2023","01","09","03:00","-6.5","","-11.5","","67","","","","26","","13","","","","100.65","","","","-12","","NA"
"-64.32","48.42","CAP-D'ESPOIR","7051050","2023-01-09 04:00","2023","01","09","04:00","-6.5","","-11.6","","67","","","","28","","15","","","","100.68","","","","-12","","NA"
"-64.32","48.42","CAP-D'ESPOIR","7051050","2023-01-09 05:00","2023","01","09","05:00","-6.6","","-11.5","","68","","","","27","","11","","","","100.75","","","","-12","","NA"
"-64.32","48.42","CAP-D'ESPOIR","7051050","2023-01-09 06:00","2023","01","09","06:00","-6.6","","-11.2","","69","","","","27","","11","","","","100.76","","","","-12","","NA"
"-64.32","48.42","CAP-D'ESPOIR","7051050","2023-01-09 07:00","2023","01","09","07:00","-7.1","","-11.3","","71","","","","29","","10","","","","100.81","","","","-12","","NA"
"-64.32","48.42","CAP-D'ESPOIR","7051050","2023-01-09 08:00","2023","01","09","08:00","-6.8","","-11.1","","71","","","","29","","10","","","","100.85","","","","-11","","NA"
"-64.32","48.42","CAP-D'ESPOIR","7051050","2023-01-09 09:00","2023","01","09","09:00","-5.6","","-11.0","","66","","","","31","","9","","","","100.91","","","","-10","","NA"
"-64.32","48.42","CAP-D'ESPOIR","7051050","2023-01-09 10:00","2023","01","09","10:00","-4.8","","-11.3","","61","","","","34","","7","","","","100.90","","","","-8","","NA"
"-64.32","48.42","CAP-D'ESPOIR","7051050","2023-01-09 11:00","2023","01","09","11:00","-4.8","","-12.1","","57","","","","36","","11","","","","100.86","","","","-9","","NA"
"-64.32","48.42","CAP-D'ESPOIR","7051050","2023-01-09 12:00","2023","01","09","12:00","-4.9","","-11.7","","59","","","","2","","7","","","","100.85","","","","-8","","NA"
"-64.32","48.42","CAP-D'ESPOIR","7051050","2023-01-09 13:00","2023","01","09","13:00","-5.1","","-11.0","","63","","","","2","","10","","","","100.84","","","","-9","","NA"
"-64.32","48.42","CAP-D'ESPOIR","7051050","2023-01-09 14:00","2023","01","09","14:00","-5.3","","-10.0","","69","","","","2","","8","","","","100.82","","","","-9","","NA"
"-64.32","48.42","CAP-D'ESPOIR","7051050","2023-01-09 15:00","2023","01","09","15:00","-5.5","","-10.7","","67","","","","1","","9","","","","100.86","","","","-10","","NA"
"-64.32","48.42","CAP-D'ESPOIR","7051050","2023-01-09 16:00","2023","01","09","16:00","-5.9","","-8.5","","82","","","","6","","8","","","","100.88","","","","-10","","NA"
"-64.32","48.42","CAP-D'ESPOIR","7051050","2023-01-09 17:00","2023","01","09","17:00","-6.1","","-8.5","","83","","","","4","","10","","","","100.87","","","","-11","","NA"
"-64.32","48.42","CAP-D'ESPOIR","7051050","2023-01-09 18:00","2023","01","09","18:00","-5.5","","-7.7","","85","","","","4","","13","","","","100.86","","","","-11","","NA"
"-64.32","48.42","CAP-D'ESPOIR","7051050","2023-01-09 19:00","2023","01","09","19:00","-5.6","","-6.9","","90","","","","5","","22","","","","100.82","","","","-13","","NA"
"-64.32","48.42","CAP-D'ESPOIR","7051050","2023-01-09 20:00","2023","01","09","20:00","-5.3","","-7.5","","84","","","","5","","27","","","","100.78","","","","-13","","NA"
"-64.32","48.42","CAP-D'ESPOIR","7051050","2023-01-09 21:00","2023","01","09","21:00","-5.8","","-7.3","","89","","","","4","","23","","","","100.75","","","","-13","","NA"
"-64.32","48.42","CAP-D'ESPOIR","7051050","2023-01-09 22:00","2023","01","09","22:00","-5.4","","-7.5","","86","","","","5","","29","","","","100.70","","","","-13","","NA"
"-64.32","48.42","CAP-D'ESPOIR","7051050","2023-01-09 23:00","2023","01","09","23:00","-5.6","","-7.1","","89","","","","5","","29","","","","100.69","","","","-14","","NA"
"-64.32","48.42","CAP-D'ESPOIR","7051050","2023-01-10 00:00","2023","01","10","00:00","-6.0","","-7.9","","86","","","","2","","17","","","","100.64","","","","-12","","NA"
"-64.32","48.42","CAP-D'ESPOIR","7051050","2023-01-10 01:00","2023","01","10","01:00","-5.6","","-6.7","","92","","","","4","","24","","","","100.60","","","","-13","","NA"
"-64.32","48.42","CAP-D'ESPOIR","7051050","2023-01-10 02:00","2023","01","10","02:00","-5.7","","-7.2","","89","","","","4","","37","","","","100.58","","","","-15","","NA"
"-64.32","48.42","CAP-D'ESPOIR","7051050","2023-01-10 03:00","2023","01","10","03:00","-6.1","","-7.9","","87","","","","4","","35","","","","100.57","","","","-15","","NA"
"-64.32","48.42","CAP-D'ESPOIR","7051050","2023-01-10 04:00","2023","01","10","04:00","-5.9","","-8.1","","85","","","","3","","24","","","","100.56","","","","-13","","NA"
"-64.32","48.42","CAP-D'ESPOIR","7051050","2023-01-10 05:00","2023","01","10","05:00","-6.6","","-8.5","","87","","","","36","","20","","","","100.54","","","","-14","","NA"
"-64.32","48.42","CAP-D'ESPOIR","7051050","2023-01-10 06:00","2023","01","10","06:00","-7.2","","-8.7","","89","","","","36","","19","","","","100.56","","","","-14","","NA"
"-64.32","48.42","CAP-D'ESPOIR","7051050","2023-01-10 07:00","2023","01","10","07:00","-7.1","","-8.7","","88","","","","1","","22","","","","100.59","","","","-15","","NA"
"-64.32","48.42","CAP-D'ESPOIR","7051050","2023-01-10 08:00","2023","01","10","08:00","-6.6","","-8.3","","88","","","","1","","20","","","","100.64","","","","-14","","NA"
"-64.32","48.42","CAP-D'ESPOIR","7051050","2023-01-10 09:00","2023","01","10","09:00","-6.3","","-9.4","","79","","","","3","","27","","","","100.71","","","","-14","","NA"
"-64.32","48.42","CAP-D'ESPOIR","7051050","2023-01-10 10:00","2023","01","10","10:00","-7.0","","-8.9","","86","","","","2","","23","","","","100.76","","","","-15","","NA"
"-64.32","48.42","CAP-D'ESPOIR","7051050","2023-01-10 11:00","2023","01","10","11:00","-7.0","","-9.5","","82","","","","1","","26","","","","100.73","","","","-15","","NA"
"-64.32","48.42","CAP-D'ESPOIR","7051050","2023-01-10 12:00","2023","01","10","12:00","-7.5","","-11.3","","74","","","","1","","26","","","","100.75","","","","-16","","NA"
"-64.32","48.42","CAP-D'ESPOIR","7051050","2023-01-10 13:00","2023","01","10","13:00","-7.8","","-12.0","","72","","","","36","","16","","","","100.79","","","","-14","","NA"
"-64.32","48.42","CAP-D'ESPOIR","7051050","2023-01-10 14:00","2023","01","10","14:00","-7.6","","-12.6","","67","","","","35","","19","","","","100.84","","","","-15","","NA"
"-64.32","48.42","CAP-D'ESPOIR","7051050","2023-01-10 15:00","2023","01","10","15:00","-7.8","","-12.3","","70","","","","35","","14","","","","100.94","","","","-14","","NA"
"-64.32","48.42","CAP-D'ESPOIR","7051050","2023-01-10 16:00","2023","01","10","16:00","-8.2","","-12.6","","71","","","","34","","12","","","","101.07","","","","-14","","NA"
"-64.32","48.42","CAP-D'ESPOIR","7051050","2023-01-10 17:00","2023","01","10","17:00","-9.1","","-13.5","","70","","","","33","","9","","","","101.15","","","","-14","","NA"
"-64.32","48.42","CAP-D'ESPOIR","7051050","2023-01-10 18:00","2023","01","10","18:00","-9.3","","-13.2","","73","","","","28","","5","","","","101.20","","","","-12","","NA"
"-64.32","48.42","CAP-D'ESPOIR","7051050","2023-01-10 19:00","2023","01","10","19:00","-9.2","","-12.8","","75","","","","27","","8","","","","101.26","","","","-14","","NA"
"-64.32","48.42","CAP-D'ESPOIR","7051050","2023-01-10 20:00","2023","01","10","20:00","-9.1","","-13.0","","73","","","","29","","8","","","","101.30","","","","-13","","NA"
"-64.32","48.42","CAP-D'ESPOIR","7051050","2023-01-10 21:00","2023","01","10","21:00","-9.9","","-13.4","","76","","","","27","","11","","","","101.35","","","","-15","","NA"
"-64.32","48.42","CAP-D'ESPOIR","7051050","2023-01-10 22:00","2023","01","10","22:00","-10.8","","-14.2","","76","","","","27","","12","","","","101.40","","","","-17","","NA"
"-64.32","48.42","CAP-D'ESPOIR","7051050","2023-01-10 23:00","2023","01","10","23:00","-11.3","","-14.5","","77","","","","28","","12","","","","101.43","","","","-17","","NA"
"-64.32","48.42","CAP-D'ESPOIR","7051050","2023-01-11 00:00","2023","01","11","00:00","-11.2","","-14.6","","76","","","","27","","14","","","","101.49","","","","-18","","NA"
"-64.32","48.42","CAP-D'ESPOIR","7051050","2023-01-11 01:00","2023","01","11","01:00","-12.1","","-15.5","","76","","","","27","","11","","","","101.55","","","","-18","","NA"
"-64.32","48.42","CAP-D'ESPOIR","7051050","2023-01-11 02:00","2023","01","11","02:00","-12.2","","-15.8","","75","","","","28","","14","","","","101.66","","","","-19","","NA"
"-64.32","48.42","CAP-D'ESPOIR","7051050","2023-01-11 03:00","2023","01","11","03:00","-12.8","","-16.3","","75","","","","27","","11","","","","101.68","","","","-19","","NA"
"-64.32","48.42","CAP-D'ESPOIR","7051050","2023-01-11 04:00","2023","01","11","04:00","-13.0","","-16.5","","75","","","","28","","14","","","","101.76","","","","-20","","NA"
"-64.32","48.42","CAP-D'ESPOIR","7051050","2023-01-11 05:00","2023","01","11","05:00","-13.2","","-16.8","","74","","","","27","","14","","","","101.79","","","","-20","","NA"
"-64.32","48.42","CAP-D'ESPOIR","7051050","2023-01-11 06:00","2023","01","11","06:00","-13.4","","-17.1","","73","","","","28","","14","","","","101.88","","","","-21","","NA"
"-64.32","48.42","CAP-D'ESPOIR","7051050","2023-01-11 07:00","2023","01","11","07:00","-13.6","","-17.4","","73","","","","28","","16","","","","101.91","","","","-21","","NA"
"-64.32","48.42","CAP-D'ESPOIR","7051050","2023-01-11 08:00","2023","01","11","08:00","-13.2","","-17.6","","69","","","","27","","14","","","","101.96","","","","-20","","NA"
"-64.32","48.42","CAP-D'ESPOIR","7051050","2023-01-11 09:00","2023","01","11","09:00","-12.1","","-17.3","","65","","","","27","","14","","","","102.00","","","","-19","","NA"
"-64.32","48.42","CAP-D'ESPOIR","7051050","2023-01-11 10:00","2023","01","11","10:00","-10.7","","-16.5","","62","","","","26","","11","","","","102.02","","","","-16","","NA"
"-64.32","48.42","CAP-D'ESPOIR","7051050","2023-01-11 11:00","2023","01","11","11:00","-9.2","","-15.5","","60","","","","26","","10","","","","101.98","","","","-14","","NA"
"-64.32","48.42","CAP-D'ESPOIR","7051050","2023-01-11 12:00","2023","01","11","12:00","-8.2","","-16.1","","53","","","","26","","7","","","","101.94","","","","-12","","NA"
"-64.32","48.42","CAP-D'ESPOIR","7051050","2023-01-11 13:00","2023","01","11","13:00","-7.3","","-15.9","","50","","","","29","","10","","","","101.93","","","","-12","","NA"
"-64.32","48.42","CAP-D'ESPOIR","7051050","2023-01-11 14:00","2023","01","11","14:00","-6.7","","-15.8","","48","","","","29","","12","","","","101.96","","","","-12","","NA"
"-64.32","48.42","CAP-D'ESPOIR","7051050","2023-01-11 15:00","2023","01","11","15:00","-7.4","","-16.0","","50","","","","34","","6","","","","102.06","","","","-11","","NA"
"-64.32","48.42","CAP-D'ESPOIR","7051050","2023-01-11 16:00","2023","01","11","16:00","-9.4","","-16.9","","54","","","","29","","7","","","","102.11","","","","-13","","NA"
"-64.32","48.42","CAP-D'ESPOIR","7051050","2023-01-11 17:00","2023","01","11","17:00","-9.4","","-16.1","","58","","","","28","","12","","","","102.14","","","","-15","","NA"
"-64.32","48.42","CAP-D'ESPOIR","7051050","2023-01-11 18:00","2023","01","11","18:00","-11.5","","-17.1","","63","","","","30","","9","","","","102.19","","","","-17","","NA"
"-64.32","48.42","CAP-D'ESPOIR","7051050","2023-01-11 19:00","2023","01","11","19:00","-12.1","","-17.2","","66","","","","25","","6","","","","102.24","","","","-16","","NA"
"-64.32","48.42","CAP-D'ESPOIR","7051050","2023-01-11 20:00","2023","01","11","20:00","-12.5","","-17.5","","66","","","","27","","12","","","","102.25","","","","-19","","NA"
"-64.32","48.42","CAP-D'ESPOIR","7051050","2023-01-11 21:00","2023","01","11","21:00","-12.3","","-17.9","","63","","","","26","","9","","","","102.29","","","","-18","","NA"
"-64.32","48.42","CAP-D'ESPOIR","7051050","2023-01-11 22:00","2023","01","11","22:00","-12.8","","-17.6","","67","","","","26","","12","","","","102.31","","","","-19","","NA"
"-64.32","48.42","CAP-D'ESPOIR","7051050","2023-01-11 23:00","2023","01","11","23:00","-12.6","","-17.0","","69","","","","25","","13","","","","102.34","","","","-19","","NA"
"-64.32","48.42","CAP-D'ESPOIR","7051050","2023-01-12 00:00","2023","01","12","00:00","-13.6","","-17.7","","71","","","","27","","11","","","","102.35","","","","-20","","NA"
"-64.32","48.42","CAP-D'ESPOIR","7051050","2023-01-12 01:00","2023","01","12","01:00","-13.6","","-17.6","","72","","","","26","","15","","","","102.35","","","","-21","","NA"
"-64.32","48.42","CAP-D'ESPOIR","7051050","2023-01-12 02:00","2023","01","12","02:00","-13.7","","-18.6","","67","","","","27","","14","","","","102.45","","","","-21","","NA"
"-64.32","48.42","CAP-D'ESPOIR","7051050","2023-01-12 03:00","2023","01","12","03:00","-13.9","","-18.9","","66","","","","29","","14","","","","102.51","","","","-21","","NA"
"-64.32","48.42","CAP-D'ESPOIR","7051050","2023-01-12 04:00","2023","01","12","04:00","-13.4","","-19.0","","63","","","","30","","14","","","","102.52","","","","-21","","NA"
"-64.32","48.42","CAP-D'ESPOIR","7051050","2023-01-12 05:00","2023","01","12","05:00","-13.5","","-19.1","","63","","","","30","","12","","","","102.55","","","","-20","","NA"
"-64.32","48.42","CAP-D'ESPOIR","7051050","2023-01-12 06:00","2023","01","12","06:00","-13.8","","-19.1","","64","","","","29","","12","","","","102.62","","","","-21","","NA"
"-64.32","48.42","CAP-D'ESPOIR","7051050","2023-01-12 07:00","2023","01","12","07:00","-13.5","","-19.3","","62","","","","30","","15","","","","102.66","","","","-21","","NA"
"-64.32","48.42","CAP-D'ESPOIR","7051050","2023-01-12 08:00","2023","01","12","08:00","-12.0","","-19.0","","56","","","","31","","13","","","","102.69","","","","-19","","NA"
"-64.32","48.42","CAP-D'ESPOIR","7051050","2023-01-12 09:00","2023","01","12","09:00","-10.9","","-18.4","","54","","","","29","","14","","","","102.74","","","","-18","","NA"
"-64.32","48.42","CAP-D'ESPOIR","7051050","2023-01-12 10:00","2023","01","12","10:00","-10.3","","-16.4","","61","","","","30","","9","","","","102.72","","","","-15","","NA"
"-64.32","48.42","CAP-D'ESPOIR","7051050","2023-01-12 11:00","2023","01","12","11:00","-8.6","","-15.1","","59","","","","30","","7","","","","102.67","","","","-12","","NA"
"-64.32","48.42","CAP-D'ESPOIR","7051050","2023-01-12 12:00","2023","01","12","12:00","-6.8","","-13.6","","58","","","","8","","2","","","","102.61","","","","-8","","NA"
"-64.32","48.42","CAP-D'ESPOIR","7051050","2023-01-12 13:00","2023","01","12","13:00","-6.9","","-14.4","","55","","","","17","","6","","","","102.58","","","","-10","","NA"
"-64.32","48.42","CAP-D'ESPOIR","7051050","2023-01-12 14:00","2023","01","12","14:00","-6.7","","-14.1","","56","","","","19","","9","","","","102.62","","","","-11","","NA"
"-64.32","48.42","CAP-D'ESPOIR","7051050","2023-01-12 15:00","2023","01","12","15:00","-7.0","","-12.9","","63","","","","21","","13","","","","102.66","","","","-13","","NA"
"-64.32","48.42","CAP-D'ESPOIR","7051050","2023-01-12 16:00","2023","01","12","16:00","-6.9","","-11.4","","70","","","","21","","8","","","","102.64","","","","-11","","NA"
"-64.32","48.42","CAP-D'ESPOIR","7051050","2023-01-12 17:00","2023","01","12","17:00","-5.7","","-10.0","","71","","","","20","","12","","","","102.55","","","","-11","","NA"
"-64.32","48.42","CAP-D'ESPOIR","7051050","2023-01-12 18:00","2023","01","12","18:00","-5.8","","-11.1","","66","","","","21","","13","","","","102.57","","","","-11","","NA"
"-64.32","48.42","CAP-D'ESPOIR","7051050","2023-01-12 19:00","2023","01","12","19:00","-8.3","","-11.8","","75","","","","26","","9","","","","102.55","","","","-13","","NA"
"-64.32","48.42","CAP-D'ESPOIR","7051050","2023-01-12 20:00","2023","01","12","20:00","-9.9","","-12.6","","81","","","","26","","10","","","","102.54","","","","-15","","NA"
"-64.32","48.42","CAP-D'ESPOIR","7051050","2023-01-12 21:00","2023","01","12","21:00","-9.8","","-12.4","","81","","","","27","","11","","","","102.55","","","","-15","","NA"
"-64.32","48.42","CAP-D'ESPOIR","7051050","2023-01-12 22:00","2023","01","12","22:00","-9.0","","-12.1","","78","","","","28","","12","","","","102.45","","","","-15","","NA"
"-64.32","48.42","CAP-D'ESPOIR","7051050","2023-01-12 23:00","2023","01","12","23:00","-8.4","","-11.4","","79","","","","28","","11","","","","102.33","","","","-14","","NA"
"-64.32","48.42","CAP-D'ESPOIR","7051050","2023-01-13 00:00","2023","01","13","00:00","-7.4","","-11.0","","76","","","","27","","10","","","","102.32","","","","-12","","NA"
"-64.32","48.42","CAP-D'ESPOIR","7051050","2023-01-13 01:00","2023","01","13","01:00","-7.1","","-11.6","","71","","","","28","","11","","","","102.30","","","","-12","","NA"
"-64.32","48.42","CAP-D'ESPOIR","7051050","2023-01-13 02:00","2023","01","13","02:00","-7.2","","-9.6","","83","","","","27","","10","","","","102.29","","","","-12","","NA"
"-64.32","48.42","CAP-D'ESPOIR","7051050","2023-01-13 03:00","2023","01","13","03:00","-7.2","","-8.8","","88","","","","28","","9","","","","102.22","","","","-12","","NA"
"-64.32","48.42","CAP-D'ESPOIR","7051050","2023-01-13 04:00","2023","01","13","04:00","-6.8","","-8.3","","89","","","","30","","6","","","","102.12","","","","-10","","NA"
"-64.32","48.42","CAP-D'ESPOIR","7051050","2023-01-13 05:00","2023","01","13","05:00","-6.5","","-7.9","","90","","","","30","","5","","","","102.04","","","","-9","","NA"
"-64.32","48.42","CAP-D'ESPOIR","7051050","2023-01-13 06:00","2023","01","13","06:00","-5.6","","-6.7","","92","","","","29","","4","","","","101.97","","","","-7","","NA"
"-64.32","48.42","CAP-D'ESPOIR","7051050","2023-01-13 07:00","2023","01","13","07:00","-3.5","","-4.2","","95","","","","18","","27","","","","101.86","","","","-11","","NA"
"-64.32","48.42","CAP-D'ESPOIR","7051050","2023-01-13 08:00","2023","01","13","08:00","-3.1","","-3.7","","95","","","","16","","25","","","","101.85","","","","-10","","NA"
"-64.32","48.42","CAP-D'ESPOIR","7051050","2023-01-13 09:00","2023","01","13","09:00","-3.1","","-3.8","","95","","","","17","","20","","","","101.81","","","","-9","","NA"
"-64.32","48.42","CAP-D'ESPOIR","7051050","2023-01-13 10:00","2023","01","13","10:00","-2.3","","-2.9","","96","","","","14","","22","","","","101.66","","","","-8","","NA"
"-64.32","48.42","CAP-D'ESPOIR","7051050","2023-01-13 11:00","2023","01","13","11:00","-2.1","","-2.6","","96","","","","10","","17","","","","101.39","","","","-7","","NA"
"-64.32","48.42","CAP-D'ESPOIR","7051050","2023-01-13 12:00","2023","01","13","12:00","-2.0","","-2.5","","97","","","","7","","26","","","","101.13","","","","-9","","NA"
"-64.32","48.42","CAP-D'ESPOIR","7051050","2023-01-13 13:00","2023","01","13","13:00","-1.5","","-1.9","","97","","","","8","","34","","","","100.93","","","","-9","","NA"
"-64.32","48.42","CAP-D'ESPOIR","7051050","2023-01-13 14:00","2023","01","13","14:00","-1.4","","-1.8","","97","","","","7","","42","","","","100.70","","","","-9","","NA"
"-64.32","48.42","CAP-D'ESPOIR","7051050","2023-01-13 15:00","2023","01","13","15:00","-1.3","","-1.7","","98","","","","6","","43","","","","100.57","","","","-9","","NA"
"-64.32","48.42","CAP-D'ESPOIR","7051050","2023-01-13 16:00","2023","01","13","16:00","-1.2","","-1.5","","98","","","","5","","46","","","","100.38","","","","-9","","NA"
"-64.32","48.42","CAP-D'ESPOIR","7051050","2023-01-13 17:00","2023","01","13","17:00","-1.0","","-1.3","","98","","","","4","","51","","","","100.22","","","","-10","","NA"
"-64.32","48.42","CAP-D'ESPOIR","7051050","2023-01-13 18:00","2023","01","13","18:00","-1.4","","-1.7","","98","","","","3","","44","","","","100.21","","","","-10","","NA"
"-64.32","48.42","CAP-D'ESPOIR","7051050","2023-01-13 19:00","2023","01","13","19:00","-1.5","","-1.8","","98","","","","3","","48","","","","100.15","","","","-10","","NA"
"-64.32","48.42","CAP-D'ESPOIR","7051050","2023-01-13 20:00","2023","01","13","20:00","-1.5","","-1.9","","97","","","","3","","54","","","","100.11","","","","-10","","NA"
"-64.32","48.42","CAP-D'ESPOIR","7051050","2023-01-13 21:00","2023","01","13","21:00","-1.5","","-1.8","","97","","","","2","","46","","","","100.26","","","","-10","","NA"
"-64.32","48.42","CAP-D'ESPOIR","7051050","2023-01-13 22:00","2023","01","13","22:00","-1.7","","-2.1","","97","","","","2","","41","","","","100.38","","","","-10","","NA"
"-64.32","48.42","CAP-D'ESPOIR","7051050","2023-01-13 23:00","2023","01","13","23:00","-2.0","","-2.5","","97","","","","2","","42","","","","100.52","","","","-10","","NA"
"-64.32","48.42","CAP-D'ESPOIR","7051050","2023-01-14 00:00","2023","01","14","00:00","-2.5","","-3.1","","96","","","","2","","44","","","","100.65","","","","-11","","NA"
"-64.32","48.42","CAP-D'ESPOIR","7051050","2023-01-14 01:00","2023","01","14","01:00","-2.7","","-3.3","","96","","","","3","","40","","","","100.76","","","","-11","","NA"
"-64.32","48.42","CAP-D'ESPOIR","7051050","2023-01-14 02:00","2023","01","14","02:00","-2.8","","-3.4","","95","","","","2","","43","","","","100.91","","","","-11","","NA"
"-64.32","48.42","CAP-D'ESPOIR","7051050","2023-01-14 03:00","2023","01","14","03:00","-3.1","","-3.7","","95","","","","3","","37","","","","101.04","","","","-11","","NA"
"-64.32","48.42","CAP-D'ESPOIR","7051050","2023-01-14 04:00","2023","01","14","04:00","-3.6","","-4.4","","95","","","","2","","43","","","","101.12","","","","-12","","NA"
"-64.32","48.42","CAP-D'ESPOIR","7051050","2023-01-14 05:00","2023","01","14","05:00","-4.1","","-4.9","","94","","","","2","","41","","","","101.29","","","","-13","","NA"
"-64.32","48.42","CAP-D'ESPOIR","7051050","2023-01-14 06:00","2023","01","14","06:00","-4.5","","-5.5","","93","","","","2","","40","","","","101.31","","","","-13","","NA"
"-64.32","48.42","CAP-D'ESPOIR","7051050","2023-01-14 07:00","2023","01","14","07:00","-4.7","","-5.8","","92","","","","2","","38","","","","101.32","","","","-13","","NA"
"-64.32","48.42","CAP-D'ESPOIR","7051050","2023-01-14 08:00","2023","01","14","08:00","-5.2","","-6.6","","90","","","","3","","40","","","","101.32","","","","-14","","NA"
"-64.32","48.42","CAP-D'ESPOIR","7051050","2023-01-14 09:00","2023","01","14","09:00","-5.6","","-7.2","","88","","","","2","","39","","","","101.42","","","","-15","","NA"
"-64.32","48.42","CAP-D'ESPOIR","7051050","2023-01-14 10:00","2023","01","14","10:00","-6.0","","-7.5","","89","","","","3","","42","","","","101.42","","","","-16","","NA"
"-64.32","48.42","CAP-D'ESPOIR","7051050","2023-01-14 11:00","2023","01","14","11:00","-6.1","","-7.5","","90","","","","2","","40","","","","101.31","","","","-16","","NA"
"-64.32","48.42","CAP-D'ESPOIR","7051050","2023-01-14 12:00","2023","01","14","12:00","-6.3","","-7.9","","88","","","","2","","41","","","","101.34","","","","-16","","NA"
"-64.32","48.42","CAP-D'ESPOIR","7051050","2023-01-14 13:00","2023","01","14","13:00","-6.5","","-7.8","","90","","","","2","","40","","","","101.25","","","","-16","","NA"
"-64.32","48.42","CAP-D'ESPOIR","7051050","2023-01-14 14:00","2023","01","14","14:00","-6.9","","-8.7","","87","","","","1","","39","","","","101.22","","","","-17","","NA"
"-64.32","48.42","CAP-D'ESPOIR","7051050","2023-01-14 15:00","2023","01","14","15:00","-7.0","","-8.9","","86","","","","1","","33","","","","101.35","","","","-16","","NA"
"-64.32","48.42","CAP-D'ESPOIR","7051050","2023-01-14 16:00","2023","01","14","16:00","-7.2","","-9.2","","86","","","","1","","33","","","","101.35","","","","-16","","NA"
"-64.32","48.42","CAP-D'ESPOIR","7051050","2023-01-14 17:00","2023","01","14","17:00","-7.4","","-9.5","","85","","","","36","","30","","","","101.43","","","","-16","","NA"
"-64.32","48.42","CAP-D'ESPOIR","7051050","2023-01-14 18:00","2023","01","14","18:00","-7.4","","-9.8","","83","","","","1","","31","","","","101.47","","","","-16","","NA"
"-64.32","48.42","CAP-D'ESPOIR","7051050","2023-01-14 19:00","2023","01","14","19:00","-7.3","","-10.1","","80","","","","36","","25","","","","101.53","","","","-15","","NA"
"-64.32","48.42","CAP-D'ESPOIR","7051050","2023-01-14 20:00","2023","01","14","20:00","-7.3","","-10.5","","78","","","","35","","22","","","","101.57","","","","-15","","NA"
"-64.32","48.42","CAP-D'ESPOIR","7051050","2023-01-14 21:00","2023","01","14","21:00","-7.1","","-10.5","","77","","","","36","","24","","","","101.59","","","","-15","","NA"
"-64.32","48.42","CAP-D'ESPOIR","7051050","2023-01-14 22:00","2023","01","14","22:00","-6.9","","-10.9","","73","","","","36","","25","","","","101.62","","","","-15","","NA"
"-64.32","48.42","CAP-D'ESPOIR","7051050","2023-01-14 23:00","2023","01","14","23:00","-6.8","","-10.8","","74","","","","35","","26","","","","101.54","","","","-15","","NA"
"-64.32","48.42","CAP-D'ESPOIR","7051050","2023-01-15 00:00","2023","01","15","00:00","-6.7","","-10.9","","72","","","","1","","21","","","","101.67","","","","-14","","NA"
"-64.32","48.42","CAP-D'ESPOIR","7051050","2023-01-15 01:00","2023","01","15","01:00","-7.0","","-11.0","","73","","","","36","","24","","","","101.62","","","","-15","","NA"
"-64.32","48.42","CAP-D'ESPOIR","7051050","2023-01-15 02:00","2023","01","15","02:00","-6.8","","-11.1","","72","","","","2","","29","","","","101.77","","","","-15","","NA"
"-64.32","48.42","CAP-D'ESPOIR","7051050","2023-01-15 03:00","2023","01","15","03:00","-7.1","","-11.6","","70","","","","1","","26","","","","101.79","","","","-15","","NA"
"-64.32","48.42","CAP-D'ESPOIR","7051050","2023-01-15 04:00","2023","01","15","04:00","-7.0","","-11.7","","69","","","","36","","32","","","","101.81","","","","-16","","NA"
"-64.32","48.42","CAP-D'ESPOIR","7051050","2023-01-15 05:00","2023","01","15","05:00","-6.7","","-11.3","","70","","","","1","","28","","","","101.90","","","","-15","","NA"
"-64.32","48.42","CAP-D'ESPOIR","7051050","2023-01-15 06:00","2023","01","15","06:00","-6.7","","-11.2","","70","","","","1","","30","","","","102.02","","","","-15","","NA"
"-64.32","48.42","CAP-D'ESPOIR","7051050","2023-01-15 07:00","2023","01","15","07:00","-6.7","","-11.3","","70","","","","1","","35","","","","102.14","","","","-16","","NA"
"-64.32","48.42","CAP-D'ESPOIR","7051050","2023-01-15 08:00","2023","01","15","08:00","-6.5","","-10.8","","72","","","","36","","28","","","","102.13","","","","-15","","NA"
"-64.32","48.42","CAP-D'ESPOIR","7051050","2023-01-15 09:00","2023","01","15","09:00","-6.1","","-10.2","","73","","","","1","","35","","","","102.28","","","","-15","","NA"
"-64.32","48.42","CAP-D'ESPOIR","7051050","2023-01-15 10:00","2023","01","15","10:00","-5.4","","-9.6","","72","","","","1","","30","","","","102.38","","","","-14","","NA"
"-64.32","48.42","CAP-D'ESPOIR","7051050","2023-01-15 11:00","2023","01","15","11:00","-4.7","","-8.9","","72","","","","1","","36","","","","102.37","","","","-13","","NA"
"-64.32","48.42","CAP-D'ESPOIR","7051050","2023-01-15 12:00","2023","01","15","12:00","-4.6","","-10.1","","66","","","","1","","35","","","","102.38","","","","-13","","NA"
"-64.32","48.42","CAP-D'ESPOIR","7051050","2023-01-15 13:00","2023","01","15","13:00","-4.5","","-11.6","","57","","","","1","","36","","","","102.44","","","","-13","","NA"
"-64.32","48.42","CAP-D'ESPOIR","7051050","2023-01-15 14:00","2023","01","15","14:00","-4.0","","-12.5","","52","","","","1","","37","","","","102.34","","","","-12","","NA"
"-64.32","48.42","CAP-D'ESPOIR","7051050","2023-01-15 15:00","2023","01","15","15:00","-4.5","","-11.8","","57","","","","2","","43","","","","102.42","","","","-14","","NA"
"-64.32","48.42","CAP-D'ESPOIR","7051050","2023-01-15 16:00","2023","01","15","16:00","-4.5","","-11.7","","57","","","","36","","42","","","","102.47","","","","-14","","NA"
"-64.32","48.42","CAP-D'ESPOIR","7051050","2023-01-15 17:00","2023","01","15","17:00","-4.8","","-10.7","","63","","","","2","","40","","","","102.57","","","","-14","","NA"
"-64.32","48.42","CAP-D'ESPOIR","7051050","2023-01-15 18:00","2023","01","15","18:00","-4.8","","-10.5","","64","","","","1","","37","","","","102.53","","","","-14","","NA"
"-64.32","48.42","CAP-D'ESPOIR","7051050","2023-01-15 19:00","2023","01","15","19:00","-3.7","","-8.9","","67","","","","3","","37","","","","102.66","","","","-12","","NA"
"-64.32","48.42","CAP-D'ESPOIR","7051050","2023-01-15 20:00","2023","01","15","20:00","-3.7","","-8.4","","70","","","","3","","46","","","","102.60","","","","-13","","NA"
"-64.32","48.42","CAP-D'ESPOIR","7051050","2023-01-15 21:00","2023","01","15","21:00","-3.4","","-7.4","","74","","","","3","","45","","","","102.61","","","","-12","","NA"
"-64.32","48.42","CAP-D'ESPOIR","7051050","2023-01-15 22:00","2023","01","15","22:00","-3.4","","-6.9","","77","","","","4","","56","","","","102.49","","","","-13","","NA"
"-64.32","48.42","CAP-D'ESPOIR","7051050","2023-01-15 23:00","2023","01","15","23:00","-3.6","","-6.8","","78","","","","4","","50","","","","102.47","","","","-13","","NA"
"-64.32","48.42","CAP-D'ESPOIR","7051050","2023-01-16 00:00","2023","01","16","00:00","-3.3","","-6.2","","81","","","","3","","46","","","","102.45","","","","-12","","NA"
"-64.32","48.42","CAP-D'ESPOIR","7051050","2023-01-16 01:00","2023","01","16","01:00","-3.6","","-6.7","","79","","","","4","","56","","","","102.38","","","","-13","","NA"
"-64.32","48.42","CAP-D'ESPOIR","7051050","2023-01-16 02:00","2023","01","16","02:00","-3.5","","-6.2","","82","","","","4","","50","","","","102.38","","","","-13","","NA"
"-64.32","48.42","CAP-D'ESPOIR","7051050","2023-01-16 03:00","2023","01","16","03:00","-3.8","","-6.4","","82","","","","3","","53","","","","102.32","","","","-14","","NA"
"-64.32","48.42","CAP-D'ESPOIR","7051050","2023-01-16 04:00","2023","01","16","04:00","-3.7","","-6.1","","84","","","","3","","50","","","","102.25","","","","-13","","NA"
"-64.32","48.42","CAP-D'ESPOIR","7051050","2023-01-16 05:00","2023","01","16","05:00","-3.6","","-5.0","","90","","","","3","","50","","","","102.23","","","","-13","","NA"
"-64.32","48.42","CAP-D'ESPOIR","7051050","2023-01-16 06:00","2023","01","16","06:00","-3.0","","-3.9","","94","","","","4","","45","","","","102.17","","","","-12","","NA"
"-64.32","48.42","CAP-D'ESPOIR","7051050","2023-01-16 07:00","2023","01","16","07:00","-2.7","","-3.4","","95","","","","4","","53","","","","102.08","","","","-12","","NA"
"-64.32","48.42","CAP-D'ESPOIR","7051050","2023-01-16 08:00","2023","01","16","08:00","-2.9","","-3.6","","95","","","","4","","49","","","","101.96","","","","-12","","NA"
"-64.32","48.42","CAP-D'ESPOIR","7051050","2023-01-16 09:00","2023","01","16","09:00","-3.2","","-4.1","","93","","","","3","","47","","","","101.89","","","","-12","","NA"
"-64.32","48.42","CAP-D'ESPOIR","7051050","2023-01-16 10:00","2023","01","16","10:00","-3.3","","-4.3","","93","","","","3","","44","","","","101.80","","","","-12","","NA"
"-64.32","48.42","CAP-D'ESPOIR","7051050","2023-01-16 11:00","2023","01","16","11:00","-3.2","","-4.2","","92","","","","3","","40","","","","101.61","","","","-12","","NA"
"-64.32","48.42","CAP-D'ESPOIR","7051050","2023-01-16 12:00","2023","01","16","12:00","-2.6","","-3.7","","93","","","","4","","43","","","","101.40","","","","-11","","NA"
"-64.32","48.42","CAP-D'ESPOIR","7051050","2023-01-16 13:00","2023","01","16","13:00","-2.8","","-3.9","","92","","","","3","","48","","","","101.13","","","","-12","","NA"
"-64.32","48.42","CAP-D'ESPOIR","7051050","2023-01-16 14:00","2023","01","16","14:00","-2.3","","-3.7","","90","","","","3","","50","","","","101.02","","","","-11","","NA"
"-64.32","48.42","CAP-D'ESPOIR","7051050","2023-01-16 15:00","2023","01","16","15:00","-2.0","","-3.2","","92","","","","3","","55","","","","100.81","","","","-11","","NA"
"-64.32","48.42","CAP-D'ESPOIR","7051050","2023-01-16 16:00","2023","01","16","16:00","-1.8","","-2.8","","92","","","","2","","53","","","","100.67","","","","-11","","NA"
"-64.32","48.42","CAP-D'ESPOIR","7051050","2023-01-16 17:00","2023","01","16","17:00","-0.9","","-2.3","","90","","","","3","","49","","","","100.47","","","","-9","","NA"
"-64.32","48.42","CAP-D'ESPOIR","7051050","2023-01-16 18:00","2023","01","16","18:00","-0.6","","-2.0","","90","","","","3","","36","","","","100.37","","","","-8","","NA"
"-64.32","48.42","CAP-D'ESPOIR","7051050","2023-01-16 19:00","2023","01","16","19:00","-0.4","","-1.9","","90","","","","2","","9","","","","100.21","","","","-4","","NA"
"-64.32","48.42","CAP-D'ESPOIR","7051050","2023-01-16 20:00","2023","01","16","20:00","0.5","","-0.8","","91","","","","3","","6","","","","100.05","","","","","","NA"
"-64.32","48.42","CAP-D'ESPOIR","7051050","2023-01-16 21:00","2023","01","16","21:00","0.7","","-0.8","","90","","","","2","","52","","","","99.90","","","","","","NA"
"-64.32","48.42","CAP-D'ESPOIR","7051050","2023-01-16 22:00","2023","01","16","22:00","0.8","","-0.6","","90","","","","3","","48","","","","99.78","","","","","","NA"
"-64.32","48.42","CAP-D'ESPOIR","7051050","2023-01-16 23:00","2023","01","16","23:00","0.8","","-0.5","","91","","","","2","","50","","","","99.68","","","","","","NA"
"-64.32","48.42","CAP-D'ESPOIR","7051050","2023-01-17 00:00","2023","01","17","00:00","0.9","","-0.2","","92","","","","2","","43","","","","99.56","","","","","","NA"
"-64.32","48.42","CAP-D'ESPOIR","7051050","2023-01-17 01:00","2023","01","17","01:00","1.1","","-0.3","","91","","","","2","","45","","","","99.44","","","","","","NA"
"-64.32","48.42","CAP-D'ESPOIR","7051050","2023-01-17 02:00","2023","01","17","02:00","1.4","","0.1","","91","","","","1","","41","","","","99.45","","","","","","NA"
"-64.32","48.42","CAP-D'ESPOIR","7051050","2023-01-17 03:00","2023","01","17","03:00","1.3","","0.3","","93","","","","3","","34","","","","99.39","","","","","","NA"
"-64.32","48.42","CAP-D'ESPOIR","7051050","2023-01-17 04:00","2023","01","17","04:00","1.4","","0.7","","95","","","","2","","24","","","","99.34","","","","","","NA"
"-64.32","48.42","CAP-D'ESPOIR","7051050","2023-01-17 05:00","2023","01","17","05:00","1.0","","0.3","","95","","","","3","","23","","","","99.34","","","","","","NA"
"-64.32","48.42","CAP-D'ESPOIR","7051050","2023-01-17 06:00","2023","01","17","06:00","1.4","","0.5","","94","","","","2","","23","","","","99.32","","","","","","NA"
"-64.32","48.42","CAP-D'ESPOIR","7051050","2023-01-17 07:00","2023","01","17","07:00","1.3","","0.4","","93","","","","2","","20","","","","99.30","","","","","","NA"
"-64.32","48.42","CAP-D'ESPOIR","7051050","2023-01-17 08:00","2023","01","17","08:00","1.4","","0.4","","93","","","","2","","21","","","","99.30","","","","","","NA"
"-64.32","48.42","CAP-D'ESPOIR","7051050","2023-01-17 09:00","2023","01","17","09:00","1.9","","0.8","","93","","","","1","","25","","","","99.27","","","","","","NA"
"-64.32","48.42","CAP-D'ESPOIR","7051050","2023-01-17 10:00","2023","01","17","10:00","2.8","","1.5","","91","","","","1","","21","","","","99.23","","","","","","NA"
"-64.32","48.42","CAP-D'ESPOIR","7051050","2023-01-17 11:00","2023","01","17","11:00","3.2","","1.8","","91","","","","1","","23","","","","99.14","","","","","","NA"
"-64.32","48.42","CAP-D'ESPOIR","7051050","2023-01-17 12:00","2023","01","17","12:00","3.7","","2.0","","89","","","","1","","25","","","","99.03","","","","","","NA"
"-64.32","48.42","CAP-D'ESPOIR","7051050","2023-01-17 13:00","2023","01","17","13:00","4.2","","2.4","","88","","","","36","","23","","","","98.99","","","","","","NA"
"-64.32","48.42","CAP-D'ESPOIR","7051050","2023-01-17 14:00","2023","01","17","14:00","4.3","","2.6","","89","","","","36","","12","","","","99.03","","","","","","NA"
"-64.32","48.42","CAP-D'ESPOIR","7051050","2023-01-17 15:00","2023","01","17","15:00","1.7","","1.0","","95","","","","26","","11","","","","99.10","","","","","","NA"
"-64.32","48.42","CAP-D'ESPOIR","7051050","2023-01-17 16:00","2023","01","17","16:00","1.8","","1.2","","96","","","","25","","8","","","","99.12","","","","","","NA"
"-64.32","48.42","CAP-D'ESPOIR","7051050","2023-01-17 17:00","2023","01","17","17:00","1.9","","1.4","","97","","","","27","","8","","","","99.14","","","","","","NA"
"-64.32","48.42","CAP-D'ESPOIR","7051050","2023-01-17 18:00","2023","01","17","18:00","1.9","","1.2","","95","","","","1","","3","","","","99.16","","","","","","NA"
"-64.32","48.42","CAP-D'ESPOIR","7051050","2023-01-17 19:00","2023","01","17","19:00","2.5","","2.1","","97","","","","28","","8","","","","99.17","","","","","","NA"
"-64.32","48.42","CAP-D'ESPOIR","7051050","2023-01-17 20:00","2023","01","17","20:00","1.9","","1.4","","97","","","","23","","1","","","","99.16","","","","","","NA"
"-64.32","48.42","CAP-D'ESPOIR","7051050","2023-01-17 21:00","2023","01","17","21:00","2.0","","1.6","","97","","","","24","","5","","","","99.17","","","","","","NA"
"-64.32","48.42","CAP-D'ESPOIR","7051050","2023-01-17 22:00","2023","01","17","22:00","1.8","","1.5","","97","","","","24","","8","","","","99.19","","","","","","NA"
"-64.32","48.42","CAP-D'ESPOIR","7051050","2023-01-17 23:00","2023","01","17","23:00","0.8","","0.4","","97","","","","24","","11","","","","99.19","","","","","","NA"
"-64.32","48.42","CAP-D'ESPOIR","7051050","2023-01-18 00:00","2023","01","18","00:00","1.8","","1.5","","98","","","","27","","7","","","","99.15","","","","","","NA"
"-64.32","48.42","CAP-D'ESPOIR","7051050","2023-01-18 01:00","2023","01","18","01:00","0.8","","0.5","","98","","","","24","","9","","","","99.17","","","","","","NA"
"-64.32","48.42","CAP-D'ESPOIR","7051050","2023-01-18 02:00","2023","01","18","02:00","1.0","","0.7","","98","","","","25","","7","","","","99.19","","","","","","NA"
"-64.32","48.42","CAP-D'ESPOIR","7051050","2023-01-18 03:00","2023","01","18","03:00","1.0","","0.7","","98","","","","27","","7","","","","99.19","","","","","","NA"
"-64.32","48.42","CAP-D'ESPOIR","7051050","2023-01-18 04:00","2023","01","18","04:00","1.6","","1.3","","98","","","","4","","7","","","","99.18","","","","","","NA"
"-64.32","48.42","CAP-D'ESPOIR","7051050","2023-01-18 05:00","2023","01","18","05:00","0.2","","-0.1","","98","","","","4","","8","","","","99.23","","","","","","NA"
"-64.32","48.42","CAP-D'ESPOIR","7051050","2023-01-18 06:00","2023","01","18","06:00","0.0","","-0.3","","98","","","","10","","14","","","","99.28","","","","-4","","NA"
"-64.32","48.42","CAP-D'ESPOIR","7051050","2023-01-18 07:00","2023","01","18","07:00","-0.2","","-0.5","","98","","","","9","","15","","","","99.30","","","","-5","","NA"
"-64.32","48.42","CAP-D'ESPOIR","7051050","2023-01-18 08:00","2023","01","18","08:00","-0.2","","-0.5","","98","","","","10","","15","","","","99.34","","","","-5","","NA"
"-64.32","48.42","CAP-D'ESPOIR","7051050","2023-01-18 09:00","2023","01","18","09:00","-0.2","","-0.5","","98","","","","10","","11","","","","99.39","","","","-4","","NA"
"-64.32","48.42","CAP-D'ESPOIR","7051050","2023-01-18 10:00","2023","01","18","10:00","-0.3","","-0.6","","98","","","","6","","10","","","","99.40","","","","-4","","NA"
"-64.32","48.42","CAP-D'ESPOIR","7051050","2023-01-18 11:00","2023","01","18","11:00","-0.1","","-0.4","","98","","","","8","","9","","","","99.37","","","","-3","","NA"
"-64.32","48.42","CAP-D'ESPOIR","7051050","2023-01-18 12:00","2023","01","18","12:00","-0.2","","-0.5","","98","","","","12","","11","","","","99.33","","","","-4","","NA"
"-64.32","48.42","CAP-D'ESPOIR","7051050","2023-01-18 13:00","2023","01","18","13:00","-0.3","","-0.6","","98","","","","12","","11","","","","99.32","","","","-4","","NA"
"-64.32","48.42","CAP-D'ESPOIR","7051050","2023-01-18 14:00","2023","01","18","14:00","-0.3","","-0.6","","98","","","","15","","7","","","","99.35","","","","-3","","NA"
"-64.32","48.42","CAP-D'ESPOIR","7051050","2023-01-18 15:00","2023","01","18","15:00","-0.3","","-0.6","","98","","","","17","","4","","","","99.36","","","","-2","","NA"
"-64.32","48.42","CAP-D'ESPOIR","7051050","2023-01-18 16:00","2023","01","18","16:00","-0.4","","-0.7","","98","","","","4","","4","","","","99.41","","","","-2","","NA"
"-64.32","48.42","CAP-D'ESPOIR","7051050","2023-01-18 17:00","2023","01","18","17:00","-0.4","","-0.7","","98","","","","1","","3","","","","99.45","","","","-1","","NA"
"-64.32","48.42","CAP-D'ESPOIR","7051050","2023-01-18 18:00","2023","01","18","18:00","-0.3","","-0.6","","98","","","","5","","2","","","","99.51","","","","-1","","NA"
"-64.32","48.42","CAP-D'ESPOIR","7051050","2023-01-18 19:00","2023","01","18","19:00","-0.1","","-0.4","","98","","","","","","0","","","","99.55","","","","","","NA"
"-64.32","48.42","CAP-D'ESPOIR","7051050","2023-01-18 20:00","2023","01","18","20:00","-0.1","","-0.3","","98","","","","26","","4","","","","99.58","","","","-1","","NA"
"-64.32","48.42","CAP-D'ESPOIR","7051050","2023-01-18 21:00","2023","01","18","21:00","0.0","","-0.2","","98","","","","27","","7","","","","99.61","","","","-2","","NA"
"-64.32","48.42","CAP-D'ESPOIR","7051050","2023-01-18 22:00","2023","01","18","22:00","-0.1","","-0.4","","98","","","","25","","11","","","","99.60","","","","-4","","NA"
"-64.32","48.42","CAP-D'ESPOIR","7051050","2023-01-18 23:00","2023","01","18","23:00","-0.1","","-0.4","","98","","","","26","","13","","","","99.61","","","","-4","","NA"
"-64.32","48.42","CAP-D'ESPOIR","7051050","2023-01-19 00:00","2023","01","19","00:00","-0.1","","-0.4","","98","","","","25","","12","","","","99.61","","","","-4","","NA"
"-64.32","48.42","CAP-D'ESPOIR","7051050","2023-01-19 01:00","2023","01","19","01:00","0.1","","-0.2","","98","","","","27","","10","","","","99.66","","","","","","NA"
"-64.32","48.42","CAP-D'ESPOIR","7051050","2023-01-19 02:00","2023","01","19","02:00","0.3","","0.0","","98","","","","28","","5","","","","99.76","","","","","","NA"
"-64.32","48.42","CAP-D'ESPOIR","7051050","2023-01-19 03:00","2023","01","19","03:00","0.6","","0.2","","98","","","","30","","9","","","","99.82","","","","","","NA"
"-64.32","48.42","CAP-D'ESPOIR","7051050","2023-01-19 04:00","2023","01","19","04:00","0.4","","-0.2","","95","","","","31","","9","","","","99.91","","","","","","NA"
"-64.32","48.42","CAP-D'ESPOIR","7051050","2023-01-19 05:00","2023","01","19","05:00","-0.3","","-0.9","","95","","","","31","","8","","","","99.99","","","","-3","","NA"
"-64.32","48.42","CAP-D'ESPOIR","7051050","2023-01-19 06:00","2023","01","19","06:00","-0.5","","-1.1","","96","","","","30","","8","","","","100.06","","","","-3","","NA"
"-64.32","48.42","CAP-D'ESPOIR","7051050","2023-01-19 07:00","2023","01","19","07:00","-0.4","","-1.4","","93","","","","33","","13","","","","100.12","","","","-5","","NA"
"-64.32","48.42","CAP-D'ESPOIR","7051050","2023-01-19 08:00","2023","01","19","08:00","0.0","","-2.1","","86","","","","34","","14","","","","100.23","","","","-4","","NA"
"-64.32","48.42","CAP-D'ESPOIR","7051050","2023-01-19 09:00","2023","01","19","09:00","-0.2","","-2.1","","87","","","","33","","16","","","","100.33","","","","-5","","NA"
"-64.32","48.42","CAP-D'ESPOIR","7051050","2023-01-19 10:00","2023","01","19","10:00","-0.3","","-2.1","","88","","","","34","","19","","","","100.43","","","","-5","","NA"
"-64.32","48.42","CAP-D'ESPOIR","7051050","2023-01-19 11:00","2023","01","19","11:00","-0.1","","-2.1","","86","","","","35","","19","","","","100.45","","","","-5","","NA"
"-64.32","48.42","CAP-D'ESPOIR","7051050","2023-01-19 12:00","2023","01","19","12:00","0.0","","-2.1","","86","","","","35","","25","","","","100.48","","","","-6","","NA"
"-64.32","48.42","CAP-D'ESPOIR","7051050","2023-01-19 13:00","2023","01","19","13:00","0.1","","-2.5","","83","","","","35","","24","","","","100.57","","","","","","NA"
"-64.32","48.42","CAP-D'ESPOIR","7051050","2023-01-19 14:00","2023","01","19","14:00","-0.2","","-2.3","","86","","","","36","","26","","","","100.71","","","","-6","","NA"
"-64.32","48.42","CAP-D'ESPOIR","7051050","2023-01-19 15:00","2023","01","19","15:00","-0.4","","-3.0","","83","","","","36","","26","","","","100.84","","","","-7","","NA"
"-64.32","48.42","CAP-D'ESPOIR","7051050","2023-01-19 16:00","2023","01","19","16:00","-0.6","","-3.5","","81","","","","1","","24","","","","100.98","","","","-7","","NA"
"-64.32","48.42","CAP-D'ESPOIR","7051050","2023-01-19 17:00","2023","01","19","17:00","-1.1","","-3.9","","81","","","","1","","29","","","","101.10","","","","-8","","NA"
"-64.32","48.42","CAP-D'ESPOIR","7051050","2023-01-19 18:00","2023","01","19","18:00","-1.5","","-3.1","","89","","","","1","","23","","","","101.16","","","","-8","","NA"
"-64.32","48.42","CAP-D'ESPOIR","7051050","2023-01-19 19:00","2023","01","19","19:00","-1.6","","-4.6","","80","","","","2","","32","","","","101.16","","","","-9","","NA"
"-64.32","48.42","CAP-D'ESPOIR","7051050","2023-01-19 20:00","2023","01","19","20:00","-1.7","","-4.9","","79","","","","3","","27","","","","101.18","","","","-8","","NA"
"-64.32","48.42","CAP-D'ESPOIR","7051050","2023-01-19 21:00","2023","01","19","21:00","-1.9","","-5.2","","78","","","","3","","25","","","","101.30","","","","-8","","NA"
"-64.32","48.42","CAP-D'ESPOIR","7051050","2023-01-19 22:00","2023","01","19","22:00","-2.4","","-6.0","","76","","","","3","","31","","","","101.29","","","","-10","","NA"
"-64.32","48.42","CAP-D'ESPOIR","7051050","2023-01-19 23:00","2023","01","19","23:00","-2.6","","-6.6","","74","","","","4","","32","","","","101.30","","","","-10","","NA"
"-64.32","48.42","CAP-D'ESPOIR","7051050","2023-01-20 00:00","2023","01","20","00:00","-2.9","","-6.1","","79","","","","3","","31","","","","101.31","","","","-10","","NA"
"-64.32","48.42","CAP-D'ESPOIR","7051050","2023-01-20 01:00","2023","01","20","01:00","-3.4","","-7.3","","74","","","","3","","24","","","","101.35","","","","-10","","NA"
"-64.32","48.42","CAP-D'ESPOIR","7051050","2023-01-20 02:00","2023","01","20","02:00","-3.8","","-7.4","","76","","","","2","","26","","","","101.34","","","","-11","","NA"
"-64.32","48.42","CAP-D'ESPOIR","7051050","2023-01-20 03:00","2023","01","20","03:00","-4.1","","-7.6","","77","","","","2","","27","","","","101.20","","","","-11","","NA"
"-64.32","48.42","CAP-D'ESPOIR","7051050","2023-01-20 04:00","2023","01","20","04:00","-4.3","","-7.9","","76","","","","3","","30","","","","101.13","","","","-12","","NA"
"-64.32","48.42","CAP-D'ESPOIR","7051050","2023-01-20 05:00","2023","01","20","05:00","-4.3","","-7.2","","80","","","","3","","23","","","","101.10","","","","-11","","NA"
"-64.32","48.42","CAP-D'ESPOIR","7051050","2023-01-20 06:00","2023","01","20","06:00","-4.0","","-7.7","","75","","","","2","","15","","","","101.21","","","","-9","","NA"
"-64.32","48.42","CAP-D'ESPOIR","7051050","2023-01-20 07:00","2023","01","20","07:00","-4.3","","-7.5","","78","","","","2","","21","","","","101.14","","","","-11","","NA"
"-64.32","48.42","CAP-D'ESPOIR","7051050","2023-01-20 08:00","2023","01","20","08:00","-4.1","","-7.3","","78","","","","4","","27","","","","101.10","","","","-11","","NA"
"-64.32","48.42","CAP-D'ESPOIR","7051050","2023-01-20 09:00","2023","01","20","09:00","-3.8","","-6.9","","79","","","","4","","37","","","","101.04","","","","-12","","NA"
"-64.32","48.42","CAP-D'ESPOIR","7051050","2023-01-20 10:00","2023","01","20","10:00","-3.7","","-7.0","","78","","","","4","","36","","","","101.06","","","","-12","","NA"
"-64.32","48.42","CAP-D'ESPOIR","7051050","2023-01-20 11:00","2023","01","20","11:00","-3.8","","-7.0","","79","","","","4","","31","","","","100.99","","","","-12","","NA"
"-64.32","48.42","CAP-D'ESPOIR","7051050","2023-01-20 12:00","2023","01","20","12:00","-3.9","","-6.5","","82","","","","4","","38","","","","100.88","","","","-12","","NA"
"-64.32","48.42","CAP-D'ESPOIR","7051050","2023-01-20 13:00","2023","01","20","13:00","-4.2","","-6.1","","86","","","","2","","35","","","","100.80","","","","-13","","NA"
"-64.32","48.42","CAP-D'ESPOIR","7051050","2023-01-20 14:00","2023","01","20","14:00","-3.8","","-6.3","","83","","","","3","","34","","","","100.78","","","","-12","","NA"
"-64.32","48.42","CAP-D'ESPOIR","7051050","2023-01-20 15:00","2023","01","20","15:00","-3.9","","-6.7","","81","","","","3","","37","","","","100.79","","","","-12","","NA"
"-64.32","48.42","CAP-D'ESPOIR","7051050","2023-01-20 16:00","2023","01","20","16:00","-4.1","","-6.1","","86","","","","2","","34","","","","100.81","","","","-12","","NA"
"-64.32","48.42","CAP-D'ESPOIR","7051050","2023-01-20 17:00","2023","01","20","17:00","-4.0","","-5.7","","88","","","","2","","35","","","","100.82","","","","-12","","NA"
"-64.32","48.42","CAP-D'ESPOIR","7051050","2023-01-20 18:00","2023","01","20","18:00","-4.0","","-5.3","","91","","","","2","","33","","","","100.83","","","","-12","","NA"
"-64.32","48.42","CAP-D'ESPOIR","7051050","2023-01-20 19:00","2023","01","20","19:00","-4.3","","-5.6","","91","","","","1","","31","","","","100.84","","","","-12","","NA"
"-64.32","48.42","CAP-D'ESPOIR","7051050","2023-01-20 20:00","2023","01","20","20:00","-4.1","","-6.2","","85","","","","1","","31","","","","100.88","","","","-12","","NA"
"-64.32","48.42","CAP-D'ESPOIR","7051050","2023-01-20 21:00","2023","01","20","21:00","-3.8","","-6.0","","85","","","","36","","23","","","","100.88","","","","-11","","NA"
"-64.32","48.42","CAP-D'ESPOIR","7051050","2023-01-20 22:00","2023","01","20","22:00","-3.5","","-5.8","","84","","","","1","","22","","","","100.88","","","","-10","","NA"
"-64.32","48.42","CAP-D'ESPOIR","7051050","2023-01-20 23:00","2023","01","20","23:00","-3.2","","-5.5","","84","","","","1","","22","","","","100.88","","","","-10","","NA"
"-64.32","48.42","CAP-D'ESPOIR","7051050","2023-01-21 00:00","2023","01","21","00:00","-3.4","","-5.9","","83","","","","1","","25","","","","100.91","","","","-10","","NA"
"-64.32","48.42","CAP-D'ESPOIR","7051050","2023-01-21 01:00","2023","01","21","01:00","-3.7","","-6.0","","84","","","","1","","24","","","","100.94","","","","-11","","NA"
"-64.32","48.42","CAP-D'ESPOIR","7051050","2023-01-21 02:00","2023","01","21","02:00","-3.9","","-6.5","","82","","","","1","","31","","","","100.98","","","","-12","","NA"
"-64.32","48.42","CAP-D'ESPOIR","7051050","2023-01-21 03:00","2023","01","21","03:00","-4.5","","-7.1","","82","","","","1","","25","","","","101.02","","","","-12","","NA"
"-64.32","48.42","CAP-D'ESPOIR","7051050","2023-01-21 04:00","2023","01","21","04:00","-5.0","","-7.6","","82","","","","36","","23","","","","101.04","","","","-12","","NA"
"-64.32","48.42","CAP-D'ESPOIR","7051050","2023-01-21 05:00","2023","01","21","05:00","-5.2","","-7.8","","82","","","","36","","22","","","","101.06","","","","-12","","NA"
"-64.32","48.42","CAP-D'ESPOIR","7051050","2023-01-21 06:00","2023","01","21","06:00","-5.5","","-8.7","","79","","","","35","","17","","","","101.14","","","","-12","","NA"
"-64.32","48.42","CAP-D'ESPOIR","7051050","2023-01-21 07:00","2023","01","21","07:00","-6.1","","-9.3","","78","","","","1","","17","","","","101.20","","","","-12","","NA"
"-64.32","48.42","CAP-D'ESPOIR","7051050","2023-01-21 08:00","2023","01","21","08:00","-6.1","","-10.0","","74","","","","34","","6","","","","101.28","","","","-9","","NA"
"-64.32","48.42","CAP-D'ESPOIR","7051050","2023-01-21 09:00","2023","01","21","09:00","-5.1","","-9.7","","70","","","","36","","8","","","","101.33","","","","-9","","NA"
"-64.32","48.42","CAP-D'ESPOIR","7051050","2023-01-21 10:00","2023","01","21","10:00","-4.5","","-10.0","","66","","","","36","","14","","","","101.33","","","","-10","","NA"
"-64.32","48.42","CAP-D'ESPOIR","7051050","2023-01-21 11:00","2023","01","21","11:00","-3.7","","-10.9","","58","","","","36","","13","","","","101.30","","","","-9","","NA"
"-64.32","48.42","CAP-D'ESPOIR","7051050","2023-01-21 12:00","2023","01","21","12:00","-3.1","","-11.9","","51","","","","36","","18","","","","101.26","","","","-9","","NA"
"-64.32","48.42","CAP-D'ESPOIR","7051050","2023-01-21 13:00","2023","01","21","13:00","-2.7","","-12.1","","48","","","","1","","18","","","","101.26","","","","-8","","NA"
"-64.32","48.42","CAP-D'ESPOIR","7051050","2023-01-21 14:00","2023","01","21","14:00","-2.4","","-11.6","","49","","","","35","","11","","","","101.28","","","","-6","","NA"
"-64.32","48.42","CAP-D'ESPOIR","7051050","2023-01-21 15:00","2023","01","21","15:00","-2.4","","-11.0","","52","","","","36","","4","","","","101.33","","","","-4","","NA"
"-64.32","48.42","CAP-D'ESPOIR","7051050","2023-01-21 16:00","2023","01","21","16:00","-3.5","","-11.1","","56","","","","33","","6","","","","101.36","","","","-6","","NA"
"-64.32","48.42","CAP-D'ESPOIR","7051050","2023-01-21 17:00","2023","01","21","17:00","-4.3","","-10.6","","62","","","","35","","5","","","","101.41","","","","-6","","NA"
"-64.32","48.42","CAP-D'ESPOIR","7051050","2023-01-21 18:00","2023","01","21","18:00","-8.4","","-12.8","","70","","","","36","","3","","","","101.42","","","","-10","","NA"
"-64.32","48.42","CAP-D'ESPOIR","7051050","2023-01-21 19:00","2023","01","21","19:00","-8.0","","-11.7","","74","","","","2","","2","","","","101.44","","","","-9","","NA"
"-64.32","48.42","CAP-D'ESPOIR","7051050","2023-01-21 20:00","2023","01","21","20:00","-8.1","","-10.8","","81","","","","34","","4","","","","101.45","","","","-10","","NA"
"-64.32","48.42","CAP-D'ESPOIR","7051050","2023-01-21 21:00","2023","01","21","21:00","-7.8","","-11.0","","78","","","","29","","2","","","","101.46","","","","-9","","NA"
"-64.32","48.42","CAP-D'ESPOIR","7051050","2023-01-21 22:00","2023","01","21","22:00","-6.9","","-10.4","","76","","","","11","","1","","","","101.46","","","","-7","","NA"
"-64.32","48.42","CAP-D'ESPOIR","7051050","2023-01-21 23:00","2023","01","21","23:00","-6.8","","-9.3","","83","","","","26","","5","","","","101.46","","","","-9","","NA"
"-64.32","48.42","CAP-D'ESPOIR","7051050","2023-01-22 00:00","2023","01","22","00:00","-8.8","","-14.8","","62","","","","30","","13","","","","101.44","","","","-15","","NA"
"-64.32","48.42","CAP-D'ESPOIR","7051050","2023-01-22 01:00","2023","01","22","01:00","-8.6","","-14.9","","60","","","","30","","13","","","","101.46","","","","-15","","NA"
"-64.32","48.42","CAP-D'ESPOIR","7051050","2023-01-22 02:00","2023","01","22","02:00","-10.5","","-15.7","","66","","","","32","","12","","","","101.46","","","","-17","","NA"
"-64.32","48.42","CAP-D'ESPOIR","7051050","2023-01-22 03:00","2023","01","22","03:00","-8.4","","-14.8","","60","","","","26","","7","","","","101.47","","","","-12","","NA"
"-64.32","48.42","CAP-D'ESPOIR","7051050","2023-01-22 04:00","2023","01","22","04:00","-8.4","","-13.1","","69","","","","30","","4","","","","101.48","","","","-11","","NA"
"-64.32","48.42","CAP-D'ESPOIR","7051050","2023-01-22 05:00","2023","01","22","05:00","-9.2","","-12.8","","76","","","","32","","3","","","","101.49","","","","-11","","NA"
"-64.32","48.42","CAP-D'ESPOIR","7051050","2023-01-22 06:00","2023","01","22","06:00","-9.5","","-12.6","","79","","","","31","","4","","","","101.49","","","","-12","","NA"
"-64.32","48.42","CAP-D'ESPOIR","7051050","2023-01-22 07:00","2023","01","22","07:00","-8.8","","-11.3","","81","","","","29","","11","","","","101.54","","","","-14","","NA"
"-64.32","48.42","CAP-D'ESPOIR","7051050","2023-01-22 08:00","2023","01","22","08:00","-7.8","","-11.6","","74","","","","29","","10","","","","101.54","","","","-13","","NA"
"-64.32","48.42","CAP-D'ESPOIR","7051050","2023-01-22 09:00","2023","01","22","09:00","-6.0","","-10.5","","71","","","","26","","11","","","","101.55","","","","-11","","NA"
"-64.32","48.42","CAP-D'ESPOIR","7051050","2023-01-22 10:00","2023","01","22","10:00","-6.1","","-11.8","","64","","","","25","","9","","","","101.51","","","","-10","","NA"
"-64.32","48.42","CAP-D'ESPOIR","7051050","2023-01-22 11:00","2023","01","22","11:00","-5.6","","-11.3","","64","","","","24","","11","","","","101.43","","","","-10","","NA"
"-64.32","48.42","CAP-D'ESPOIR","7051050","2023-01-22 12:00","2023","01","22","12:00","-3.9","","-10.0","","62","","","","24","","12","","","","101.36","","","","-9","","NA"
"-64.32","48.42","CAP-D'ESPOIR","7051050","2023-01-22 13:00","2023","01","22","13:00","-3.8","","-7.9","","73","","","","24","","21","","","","101.31","","","","-10","","NA"
"-64.32","48.42","CAP-D'ESPOIR","7051050","2023-01-22 14:00","2023","01","22","14:00","-3.8","","-6.9","","79","","","","23","","27","","","","101.31","","","","-11","","NA"
"-64.32","48.42","CAP-D'ESPOIR","7051050","2023-01-22 15:00","2023","01","22","15:00","-3.4","","-7.6","","73","","","","24","","29","","","","101.25","","","","-11","","NA"
"-64.32","48.42","CAP-D'ESPOIR","7051050","2023-01-22 16:00","2023","01","22","16:00","-3.5","","-7.9","","71","","","","24","","39","","","","101.23","","","","-12","","NA"
"-64.32","48.42","CAP-D'ESPOIR","7051050","2023-01-22 17:00","2023","01","22","17:00","-3.5","","-8.7","","67","","","","25","","37","","","","101.32","","","","-12","","NA"
"-64.32","48.42","CAP-D'ESPOIR","7051050","2023-01-22 18:00","2023","01","22","18:00","-3.9","","-9.0","","68","","","","25","","28","","","","101.36","","","","-11","","NA"
"-64.32","48.42","CAP-D'ESPOIR","7051050","2023-01-22 19:00","2023","01","22","19:00","-4.4","","-9.0","","70","","","","27","","14","","","","101.35","","","","-10","","NA"
"-64.32","48.42","CAP-D'ESPOIR","7051050","2023-01-22 20:00","2023","01","22","20:00","-4.2","","-8.4","","72","","","","27","","17","","","","101.36","","","","-10","","NA"
"-64.32","48.42","CAP-D'ESPOIR","7051050","2023-01-22 21:00","2023","01","22","21:00","-4.6","","-8.9","","72","","","","27","","11","","","","101.33","","","","-9","","NA"
"-64.32","48.42","CAP-D'ESPOIR","7051050","2023-01-22 22:00","2023","01","22","22:00","-5.2","","-9.1","","74","","","","27","","6","","","","101.29","","","","-8","","NA"
"-64.32","48.42","CAP-D'ESPOIR","7051050","2023-01-22 23:00","2023","01","22","23:00","-4.9","","-9.0","","73","","","","29","","9","","","","101.26","","","","-9","","NA"
"-64.32","48.42","CAP-D'ESPOIR","7051050","2023-01-23 00:00","2023","01","23","00:00","-4.8","","-8.0","","78","","","","29","","8","","","","101.23","","","","-8","","NA"
"-64.32","48.42","CAP-D'ESPOIR","7051050","2023-01-23 01:00","2023","01","23","01:00","-5.1","","-6.9","","87","","","","29","","10","","","","101.24","","","","-9","","NA"
"-64.32","48.42","CAP-D'ESPOIR","7051050","2023-01-23 02:00","2023","01","23","02:00","-5.0","","-6.4","","90","","","","28","","7","","","","101.21","","","","-8","","NA"
"-64.32","48.42","CAP-D'ESPOIR","7051050","2023-01-23 03:00","2023","01","23","03:00","-4.9","","-6.1","","91","","","","27","","7","","","","101.13","","","","-8","","NA"
"-64.32","48.42","CAP-D'ESPOIR","7051050","2023-01-23 04:00","2023","01","23","04:00","-5.2","","-6.4","","91","","","","29","","6","","","","101.09","","","","-8","","NA"
"-64.32","48.42","CAP-D'ESPOIR","7051050","2023-01-23 05:00","2023","01","23","05:00","-5.4","","-6.6","","91","","","","28","","9","","","","101.11","","","","-9","","NA"
"-64.32","48.42","CAP-D'ESPOIR","7051050","2023-01-23 06:00","2023","01","23","06:00","-5.1","","-6.4","","91","","","","29","","10","","","","101.08","","","","-9","","NA"
"-64.32","48.42","CAP-D'ESPOIR","7051050","2023-01-23 07:00","2023","01","23","07:00","-5.5","","-6.8","","91","","","","31","","7","","","","101.04","","","","-9","","NA"
"-64.32","48.42","CAP-D'ESPOIR","7051050","2023-01-23 08:00","2023","01","23","08:00","-5.3","","-6.9","","88","","","","29","","10","","","","101.08","","","","-10","","NA"
"-64.32","48.42","CAP-D'ESPOIR","7051050","2023-01-23 09:00","2023","01","23","09:00","-5.3","","-7.3","","86","","","","28","","6","","","","100.99","","","","-8","","NA"
"-64.32","48.42","CAP-D'ESPOIR","7051050","2023-01-23 10:00","2023","01","23","10:00","-4.1","","-6.7","","82","","","","3","","5","","","","100.90","","","","-6","","NA"
"-64.32","48.42","CAP-D'ESPOIR","7051050","2023-01-23 11:00","2023","01","23","11:00","-3.5","","-6.6","","79","","","","3","","11","","","","100.74","","","","-8","","NA"
"-64.32","48.42","CAP-D'ESPOIR","7051050","2023-01-23 12:00","2023","01","23","12:00","-2.9","","-6.7","","75","","","","5","","24","","","","100.58","","","","-10","","NA"
"-64.32","48.42","CAP-D'ESPOIR","7051050","2023-01-23 13:00","2023","01","23","13:00","-2.9","","-5.5","","83","","","","6","","34","","","","100.41","","","","-11","","NA"
"-64.32","48.42","CAP-D'ESPOIR","7051050","2023-01-23 14:00","2023","01","23","14:00","-2.8","","-5.5","","81","","","","4","","40","","","","100.34","","","","-11","","NA"
"-64.32","48.42","CAP-D'ESPOIR","7051050","2023-01-23 15:00","2023","01","23","15:00","-2.3","","-4.7","","84","","","","5","","43","","","","100.22","","","","-11","","NA"
"-64.32","48.42","CAP-D'ESPOIR","7051050","2023-01-23 16:00","2023","01","23","16:00","-2.1","","-4.4","","84","","","","4","","49","","","","100.09","","","","-11","","NA"
"-64.32","48.42","CAP-D'ESPOIR","7051050","2023-01-23 17:00","2023","01","23","17:00","-2.2","","-4.7","","83","","","","4","","48","","","","99.95","","","","-11","","NA"
"-64.32","48.42","CAP-D'ESPOIR","7051050","2023-01-23 18:00","2023","01","23","18:00","-1.8","","-4.9","","79","","","","5","","54","","","","99.85","","","","-11","","NA"
"-64.32","48.42","CAP-D'ESPOIR","7051050","2023-01-23 19:00","2023","01","23","19:00","-1.8","","-4.6","","82","","","","4","","51","","","","99.74","","","","-11","","NA"
"-64.32","48.42","CAP-D'ESPOIR","7051050","2023-01-23 20:00","2023","01","23","20:00","-2.3","","-5.3","","80","","","","2","","42","","","","99.61","","","","-11","","NA"
"-64.32","48.42","CAP-D'ESPOIR","7051050","2023-01-23 21:00","2023","01","23","21:00","-2.7","","-6.0","","78","","","","1","","46","","","","99.44","","","","-12","","NA"
"-64.32","48.42","CAP-D'ESPOIR","7051050","2023-01-23 22:00","2023","01","23","22:00","-3.1","","-6.5","","77","","","","36","","32","","","","99.32","","","","-11","","NA"
"-64.32","48.42","CAP-D'ESPOIR","7051050","2023-01-23 23:00","2023","01","23","23:00","-3.3","","-6.8","","77","","","","1","","40","","","","99.22","","","","-12","","NA"
"-64.32","48.42","CAP-D'ESPOIR","7051050","2023-01-24 00:00","2023","01","24","00:00","-3.5","","-7.1","","76","","","","35","","39","","","","99.14","","","","-12","","NA"
"-64.32","48.42","CAP-D'ESPOIR","7051050","2023-01-24 01:00","2023","01","24","01:00","-3.8","","-8.0","","73","","","","35","","37","","","","99.09","","","","-12","","NA"
"-64.32","48.42","CAP-D'ESPOIR","7051050","2023-01-24 02:00","2023","01","24","02:00","-3.8","","-8.7","","68","","","","35","","38","","","","99.05","","","","-12","","NA"
"-64.32","48.42","CAP-D'ESPOIR","7051050","2023-01-24 03:00","2023","01","24","03:00","-3.8","","-9.1","","67","","","","35","","38","","","","99.12","","","","-12","","NA"
"-64.32","48.42","CAP-D'ESPOIR","7051050","2023-01-24 04:00","2023","01","24","04:00","-3.7","","-9.5","","64","","","","35","","24","","","","99.18","","","","-11","","NA"
"-64.32","48.42","CAP-D'ESPOIR","7051050","2023-01-24 05:00","2023","01","24","05:00","-4.1","","-10.9","","59","","","","28","","7","","","","99.28","","","","-7","","NA"
"-64.32","48.42","CAP-D'ESPOIR","7051050","2023-01-24 06:00","2023","01","24","06:00","-4.5","","-10.6","","62","","","","31","","9","","","","99.35","","","","-8","","NA"
"-64.32","48.42","CAP-D'ESPOIR","7051050","2023-01-24 07:00","2023","01","24","07:00","-4.8","","-10.0","","67","","","","26","","12","","","","99.43","","","","-10","","NA"
"-64.32","48.42","CAP-D'ESPOIR","7051050","2023-01-24 08:00","2023","01","24","08:00","-3.5","","-9.4","","64","","","","26","","15","","","","99.54","","","","-9","","NA"
"-64.32","48.42","CAP-D'ESPOIR","7051050","2023-01-24 09:00","2023","01","24","09:00","-2.8","","-9.8","","58","","","","26","","14","","","","99.60","","","","-8","","NA"
"-64.32","48.42","CAP-D'ESPOIR","7051050","2023-01-24 10:00","2023","01","24","10:00","-1.6","","-10.0","","53","","","","26","","13","","","","99.64","","","","-6","","NA"
"-64.32","48.42","CAP-D'ESPOIR","7051050","2023-01-24 11:00","2023","01","24","11:00","0.2","","-9.9","","46","","","","29","","13","","","","99.58","","","","","","NA"
"-64.32","48.42","CAP-D'ESPOIR","7051050","2023-01-24 12:00","2023","01","24","12:00","-0.5","","-6.3","","65","","","","23","","14","","","","99.59","","","","-5","","NA"
"-64.32","48.42","CAP-D'ESPOIR","7051050","2023-01-24 13:00","2023","01","24","13:00","-0.4","","-7.3","","59","","","","25","","27","","","","99.62","","","","-7","","NA"
"-64.32","48.42","CAP-D'ESPOIR","7051050","2023-01-24 14:00","2023","01","24","14:00","0.0","","-8.5","","53","","","","27","","14","","","","99.71","","","","-4","","NA"
"-64.32","48.42","CAP-D'ESPOIR","7051050","2023-01-24 15:00","2023","01","24","15:00","-0.3","","-8.5","","54","","","","27","","13","","","","99.84","","","","-4","","NA"
"-64.32","48.42","CAP-D'ESPOIR","7051050","2023-01-24 16:00","2023","01","24","16:00","-0.9","","-8.4","","57","","","","27","","10","","","","99.95","","","","-4","","NA"
"-64.32","48.42","CAP-D'ESPOIR","7051050","2023-01-24 17:00","2023","01","24","17:00","-1.2","","-7.2","","64","","","","26","","18","","","","100.05","","","","-6","","NA"
"-64.32","48.42","CAP-D'ESPOIR","7051050","2023-01-24 18:00","2023","01","24","18:00","-1.4","","-7.1","","65","","","","27","","15","","","","100.15","","","","-6","","NA"
"-64.32","48.42","CAP-D'ESPOIR","7051050","2023-01-24 19:00","2023","01","24","19:00","-2.0","","-7.1","","68","","","","27","","13","","","","100.26","","","","-6","","NA"
"-64.32","48.42","CAP-D'ESPOIR","7051050","2023-01-24 20:00","2023","01","24","20:00","-2.7","","-8.3","","66","","","","27","","10","","","","100.39","","","","-7","","NA"
"-64.32","48.42","CAP-D'ESPOIR","7051050","2023-01-24 21:00","2023","01","24","21:00","-3.2","","-8.5","","67","","","","27","","14","","","","100.51","","","","-8","","NA"
"-64.32","48.42","CAP-D'ESPOIR","7051050","2023-01-24 22:00","2023","01","24","22:00","-4.1","","-8.6","","71","","","","27","","12","","","","100.62","","","","-9","","NA"
"-64.32","48.42","CAP-D'ESPOIR","7051050","2023-01-24 23:00","2023","01","24","23:00","-4.6","","-9.7","","68","","","","27","","14","","","","100.74","","","","-10","","NA"
"-64.32","48.42","CAP-D'ESPOIR","7051050","2023-01-25 00:00","2023","01","25","00:00","-5.4","","-11.0","","65","","","","29","","10","","","","100.83","","","","-10","","NA"
"-64.32","48.42","CAP-D'ESPOIR","7051050","2023-01-25 01:00","2023","01","25","01:00","-5.7","","-11.0","","66","","","","29","","10","","","","101.02","","","","-10","","NA"
"-64.32","48.42","CAP-D'ESPOIR","7051050","2023-01-25 02:00","2023","01","25","02:00","-6.2","","-13.9","","54","","","","31","","22","","","","101.27","","","","-13","","NA"
"-64.32","48.42","CAP-D'ESPOIR","7051050","2023-01-25 03:00","2023","01","25","03:00","-7.9","","-15.8","","53","","","","30","","18","","","","101.42","","","","-15","","NA"
"-64.32","48.42","CAP-D'ESPOIR","7051050","2023-01-25 04:00","2023","01","25","04:00","-9.1","","-16.3","","56","","","","30","","16","","","","101.59","","","","-16","","NA"
"-64.32","48.42","CAP-D'ESPOIR","7051050","2023-01-25 05:00","2023","01","25","05:00","-10.3","","-16.7","","59","","","","31","","10","","","","101.71","","","","-16","","NA"
"-64.32","48.42","CAP-D'ESPOIR","7051050","2023-01-25 06:00","2023","01","25","06:00","-11.6","","-17.1","","64","","","","27","","7","","","","101.83","","","","-16","","NA"
"-64.32","48.42","CAP-D'ESPOIR","7051050","2023-01-25 07:00","2023","01","25","07:00","-11.4","","-17.2","","62","","","","31","","8","","","","101.94","","","","-16","","NA"
"-64.32","48.42","CAP-D'ESPOIR","7051050","2023-01-25 08:00","2023","01","25","08:00","-10.7","","-17.8","","56","","","","30","","9","","","","102.13","","","","-16","","NA"
"-64.32","48.42","CAP-D'ESPOIR","7051050","2023-01-25 09:00","2023","01","25","09:00","-10.0","","-17.7","","53","","","","27","","13","","","","102.28","","","","-16","","NA"
"-64.32","48.42","CAP-D'ESPOIR","7051050","2023-01-25 10:00","2023","01","25","10:00","-9.2","","-17.2","","52","","","","30","","7","","","","102.28","","","","-13","","NA"
"-64.32","48.42","CAP-D'ESPOIR","7051050","2023-01-25 11:00","2023","01","25","11:00","-9.2","","-17.7","","50","","","","33","","12","","","","102.29","","","","-15","","NA"
"-64.32","48.42","CAP-D'ESPOIR","7051050","2023-01-25 12:00","2023","01","25","12:00","-7.8","","-18.6","","42","","","","23","","2","","","","102.26","","","","-9","","NA"
"-64.32","48.42","CAP-D'ESPOIR","7051050","2023-01-25 13:00","2023","01","25","13:00","-8.1","","-17.2","","48","","","","14","","10","","","","102.31","","","","-13","","NA"
"-64.32","48.42","CAP-D'ESPOIR","7051050","2023-01-25 14:00","2023","01","25","14:00","-7.8","","-15.5","","54","","","","18","","12","","","","102.43","","","","-13","","NA"
"-64.32","48.42","CAP-D'ESPOIR","7051050","2023-01-25 15:00","2023","01","25","15:00","-8.0","","-14.9","","58","","","","21","","14","","","","102.51","","","","-14","","NA"
"-64.32","48.42","CAP-D'ESPOIR","7051050","2023-01-25 16:00","2023","01","25","16:00","-8.2","","-15.2","","57","","","","21","","14","","","","102.56","","","","-14","","NA"
"-64.32","48.42","CAP-D'ESPOIR","7051050","2023-01-25 17:00","2023","01","25","17:00","-7.9","","-14.9","","57","","","","18","","10","","","","102.55","","","","-13","","NA"
"-64.32","48.42","CAP-D'ESPOIR","7051050","2023-01-25 18:00","2023","01","25","18:00","-7.6","","-14.2","","59","","","","19","","9","","","","102.57","","","","-12","","NA"
"-64.32","48.42","CAP-D'ESPOIR","7051050","2023-01-25 19:00","2023","01","25","19:00","-7.5","","-13.4","","63","","","","21","","17","","","","102.61","","","","-14","","NA"
"-64.32","48.42","CAP-D'ESPOIR","7051050","2023-01-25 20:00","2023","01","25","20:00","-7.7","","-14.3","","59","","","","20","","12","","","","102.60","","","","-13","","NA"
"-64.32","48.42","CAP-D'ESPOIR","7051050","2023-01-25 21:00","2023","01","25","21:00","-8.3","","-13.0","","69","","","","23","","12","","","","102.58","","","","-14","","NA"
"-64.32","48.42","CAP-D'ESPOIR","7051050","2023-01-25 22:00","2023","01","25","22:00","-9.5","","-14.0","","70","","","","26","","4","","","","102.52","","","","-12","","NA"
"-64.32","48.42","CAP-D'ESPOIR","7051050","2023-01-25 23:00","2023","01","25","23:00","-9.8","","-14.0","","72","","","","26","","6","","","","102.49","","","","-13","","NA"
"-64.32","48.42","CAP-D'ESPOIR","7051050","2023-01-26 00:00","2023","01","26","00:00","-9.4","","-15.4","","61","","","","29","","7","","","","102.40","","","","-13","","NA"
"-64.32","48.42","CAP-D'ESPOIR","7051050","2023-01-26 01:00","2023","01","26","01:00","-7.7","","-12.7","","67","","","","21","","6","","","","102.46","","","","-11","","NA"
"-64.32","48.42","CAP-D'ESPOIR","7051050","2023-01-26 02:00","2023","01","26","02:00","-6.7","","-12.5","","63","","","","18","","19","","","","102.45","","","","-14","","NA"
"-64.32","48.42","CAP-D'ESPOIR","7051050","2023-01-26 03:00","2023","01","26","03:00","-7.0","","-9.1","","84","","","","14","","22","","","","102.31","","","","-14","","NA"
"-64.32","48.42","CAP-D'ESPOIR","7051050","2023-01-26 04:00","2023","01","26","04:00","-6.7","","-9.0","","84","","","","12","","21","","","","102.15","","","","-14","","NA"
"-64.32","48.42","CAP-D'ESPOIR","7051050","2023-01-26 05:00","2023","01","26","05:00","-5.8","","-7.0","","91","","","","12","","21","","","","101.96","","","","-13","","NA"
"-64.32","48.42","CAP-D'ESPOIR","7051050","2023-01-26 06:00","2023","01","26","06:00","-5.2","","-6.2","","93","","","","14","","36","","","","101.79","","","","-14","","NA"
"-64.32","48.42","CAP-D'ESPOIR","7051050","2023-01-26 07:00","2023","01","26","07:00","-4.4","","-5.2","","95","","","","12","","36","","","","101.51","","","","-13","","NA"
"-64.32","48.42","CAP-D'ESPOIR","7051050","2023-01-26 08:00","2023","01","26","08:00","-3.4","","-4.0","","96","","","","11","","35","","","","101.31","","","","-11","","NA"
"-64.32","48.42","CAP-D'ESPOIR","7051050","2023-01-26 09:00","2023","01","26","09:00","-3.0","","-3.6","","96","","","","9","","45","","","","100.96","","","","-12","","NA"
"-64.32","48.42","CAP-D'ESPOIR","7051050","2023-01-26 10:00","2023","01","26","10:00","-2.5","","-3.0","","96","","","","9","","53","","","","100.54","","","","-12","","NA"
"-64.32","48.42","CAP-D'ESPOIR","7051050","2023-01-26 11:00","2023","01","26","11:00","-1.4","","-1.8","","97","","","","9","","49","","","","99.75","","","","-10","","NA"
"-64.32","48.42","CAP-D'ESPOIR","7051050","2023-01-26 12:00","2023","01","26","12:00","0.3","","0.0","","98","","","","12","","60","","","","98.97","","","","","","NA"
"-64.32","48.42","CAP-D'ESPOIR","7051050","2023-01-26 13:00","2023","01","26","13:00","1.7","","1.3","","97","","","","13","","70","","","","98.38","","","","","","NA"
"-64.32","48.42","CAP-D'ESPOIR","7051050","2023-01-26 14:00","2023","01","26","14:00","2.6","","2.0","","96","","","","14","","63","","","","97.94","","","","","","NA"
"-64.32","48.42","CAP-D'ESPOIR","7051050","2023-01-26 15:00","2023","01","26","15:00","3.6","","3.2","","98","","","","16","","69","","","","97.62","","","","","","NA"
"-64.32","48.42","CAP-D'ESPOIR","7051050","2023-01-26 16:00","2023","01","26","16:00","1.8","","1.4","","97","","","","22","","29","","","","97.78","","","","","","NA"
"-64.32","48.42","CAP-D'ESPOIR","7051050","2023-01-26 17:00","2023","01","26","17:00","0.8","","0.5","","98","","","","21","","22","","","","97.84","","","","","","NA"
"-64.32","48.42","CAP-D'ESPOIR","7051050","2023-01-26 18:00","2023","01","26","18:00","1.1","","0.7","","97","","","","21","","40","","","","97.89","","","","","","NA"
"-64.32","48.42","CAP-D'ESPOIR","7051050","2023-01-26 19:00","2023","01","26","19:00","0.4","","-0.9","","91","","","","22","","43","","","","98.01","","","","","","NA"
"-64.32","48.42","CAP-D'ESPOIR","7051050","2023-01-26 20:00","2023","01","26","20:00","-0.1","","-2.1","","86","","","","23","","47","","","","98.15","","","","-8","","NA"
"-64.32","48.42","CAP-D'ESPOIR","7051050","2023-01-26 21:00","2023","01","26","21:00","-0.7","","-2.5","","88","","","","23","","41","","","","98.32","","","","-8","","NA"
"-64.32","48.42","CAP-D'ESPOIR","7051050","2023-01-26 22:00","2023","01","26","22:00","0.3","","-2.5","","82","","","","27","","19","","","","98.54","","","","","","NA"
"-64.32","48.42","CAP-D'ESPOIR","7051050","2023-01-26 23:00","2023","01","26","23:00","-1.2","","-5.4","","73","","","","27","","22","","","","98.74","","","","-7","","NA"
"-64.32","48.42","CAP-D'ESPOIR","7051050","2023-01-27 00:00","2023","01","27","00:00","-1.8","","-6.6","","70","","","","26","","28","","","","98.93","","","","-9","","NA"
"-64.32","48.42","CAP-D'ESPOIR","7051050","2023-01-27 01:00","2023","01","27","01:00","-2.9","","-7.8","","69","","","","27","","19","","","","99.07","","","","-9","","NA"
"-64.32","48.42","CAP-D'ESPOIR","7051050","2023-01-27 02:00","2023","01","27","02:00","-4.2","","-9.6","","66","","","","26","","24","","","","99.20","","","","-11","","NA"
"-64.32","48.42","CAP-D'ESPOIR","7051050","2023-01-27 03:00","2023","01","27","03:00","-4.6","","-9.7","","67","","","","26","","27","","","","99.32","","","","-12","","NA"
"-64.32","48.42","CAP-D'ESPOIR","7051050","2023-01-27 04:00","2023","01","27","04:00","-5.3","","-10.4","","67","","","","26","","27","","","","99.46","","","","-13","","NA"
"-64.32","48.42","CAP-D'ESPOIR","7051050","2023-01-27 05:00","2023","01","27","05:00","-5.6","","-11.0","","66","","","","27","","28","","","","99.60","","","","-14","","NA"
"-64.32","48.42","CAP-D'ESPOIR","7051050","2023-01-27 06:00","2023","01","27","06:00","-5.9","","-12.0","","62","","","","28","","21","","","","99.82","","","","-13","","NA"
"-64.32","48.42","CAP-D'ESPOIR","7051050","2023-01-27 07:00","2023","01","27","07:00","-6.8","","-11.9","","67","","","","27","","15","","","","99.99","","","","-13","","NA"
"-64.32","48.42","CAP-D'ESPOIR","7051050","2023-01-27 08:00","2023","01","27","08:00","-6.7","","-12.8","","62","","","","27","","16","","","","100.21","","","","-13","","NA"
"-64.32","48.42","CAP-D'ESPOIR","7051050","2023-01-27 09:00","2023","01","27","09:00","-6.5","","-13.1","","59","","","","29","","17","","","","100.34","","","","-13","","NA"
"-64.32","48.42","CAP-D'ESPOIR","7051050","2023-01-27 10:00","2023","01","27","10:00","-5.7","","-12.5","","58","","","","26","","16","","","","100.46","","","","-12","","NA"
"-64.32","48.42","CAP-D'ESPOIR","7051050","2023-01-27 11:00","2023","01","27","11:00","-5.3","","-12.5","","57","","","","26","","19","","","","100.47","","","","-12","","NA"
"-64.32","48.42","CAP-D'ESPOIR","7051050","2023-01-27 12:00","2023","01","27","12:00","-4.7","","-12.4","","55","","","","27","","19","","","","100.52","","","","-11","","NA"
"-64.32","48.42","CAP-D'ESPOIR","7051050","2023-01-27 13:00","2023","01","27","13:00","-4.4","","-13.3","","50","","","","28","","19","","","","100.64","","","","-11","","NA"
"-64.32","48.42","CAP-D'ESPOIR","7051050","2023-01-27 14:00","2023","01","27","14:00","-4.4","","-13.1","","51","","","","26","","21","","","","100.79","","","","-11","","NA"
"-64.32","48.42","CAP-D'ESPOIR","7051050","2023-01-27 15:00","2023","01","27","15:00","-5.1","","-13.2","","53","","","","27","","17","","","","101.00","","","","-11","","NA"
"-64.32","48.42","CAP-D'ESPOIR","7051050","2023-01-27 16:00","2023","01","27","16:00","-6.4","","-15.0","","50","","","","28","","17","","","","101.18","","","","-13","","NA"
"-64.32","48.42","CAP-D'ESPOIR","7051050","2023-01-27 17:00","2023","01","27","17:00","-7.3","","-15.3","","53","","","","27","","18","","","","101.36","","","","-14","","NA"
"-64.32","48.42","CAP-D'ESPOIR","7051050","2023-01-27 18:00","2023","01","27","18:00","-8.8","","-15.6","","58","","","","28","","12","","","","101.53","","","","-14","","NA"
"-64.32","48.42","CAP-D'ESPOIR","7051050","2023-01-27 19:00","2023","01","27","19:00","-9.6","","-15.4","","63","","","","26","","10","","","","101.63","","","","-15","","NA"
"-64.32","48.42","CAP-D'ESPOIR","7051050","2023-01-27 20:00","2023","01","27","20:00","-10.0","","-15.9","","62","","","","26","","15","","","","101.79","","","","-17","","NA"
"-64.32","48.42","CAP-D'ESPOIR","7051050","2023-01-27 21:00","2023","01","27","21:00","-11.4","","-16.7","","64","","","","28","","6","","","","101.85","","","","-15","","NA"
"-64.32","48.42","CAP-D'ESPOIR","7051050","2023-01-27 22:00","2023","01","27","22:00","-11.2","","-15.9","","68","","","","26","","14","","","","101.95","","","","-18","","NA"
"-64.32","48.42","CAP-D'ESPOIR","7051050","2023-01-27 23:00","2023","01","27","23:00","-12.0","","-16.3","","71","","","","33","","5","","","","102.01","","","","-15","","NA"
"-64.32","48.42","CAP-D'ESPOIR","7051050","2023-01-28 00:00","2023","01","28","00:00","-13.0","","-17.0","","72","","","","31","","13","","","","102.03","","","","-20","","NA"
"-64.32","48.42","CAP-D'ESPOIR","7051050","2023-01-28 01:00","2023","01","28","01:00","-13.6","","-17.0","","76","","","","33","","5","","","","102.06","","","","-17","","NA"
"-64.32","48.42","CAP-D'ESPOIR","7051050","2023-01-28 02:00","2023","01","28","02:00","-13.9","","-17.8","","72","","","","25","","3","","","","102.10","","","","-16","","NA"
"-64.32","48.42","CAP-D'ESPOIR","7051050","2023-01-28 03:00","2023","01","28","03:00","-12.1","","-16.4","","70","","","","29","","6","","","","102.14","","","","-16","","NA"
"-64.32","48.42","CAP-D'ESPOIR","7051050","2023-01-28 04:00","2023","01","28","04:00","-12.7","","-17.5","","67","","","","29","","12","","","","102.13","","","","-19","","NA"
"-64.32","48.42","CAP-D'ESPOIR","7051050","2023-01-28 05:00","2023","01","28","05:00","-12.5","","-16.9","","70","","","","29","","10","","","","102.09","","","","-18","","NA"
"-64.32","48.42","CAP-D'ESPOIR","7051050","2023-01-28 06:00","2023","01","28","06:00","-11.6","","-15.1","","76","","","","28","","9","","","","102.08","","","","-17","","NA"
"-64.32","48.42","CAP-D'ESPOIR","7051050","2023-01-28 07:00","2023","01","28","07:00","-11.5","","-14.3","","80","","","","29","","7","","","","102.06","","","","-16","","NA"
"-64.32","48.42","CAP-D'ESPOIR","7051050","2023-01-28 08:00","2023","01","28","08:00","-9.0","","-11.6","","81","","","","27","","9","","","","102.09","","","","-14","","NA"
"-64.32","48.42","CAP-D'ESPOIR","7051050","2023-01-28 09:00","2023","01","28","09:00","-7.4","","-10.6","","78","","","","26","","10","","","","102.07","","","","-12","","NA"
"-64.32","48.42","CAP-D'ESPOIR","7051050","2023-01-28 10:00","2023","01","28","10:00","-6.7","","-9.8","","78","","","","26","","14","","","","102.06","","","","-12","","NA"
"-64.32","48.42","CAP-D'ESPOIR","7051050","2023-01-28 11:00","2023","01","28","11:00","-4.4","","-7.4","","80","","","","24","","17","","","","101.92","","","","-10","","NA"
"-64.32","48.42","CAP-D'ESPOIR","7051050","2023-01-28 12:00","2023","01","28","12:00","-1.9","","-6.5","","71","","","","19","","35","","","","101.72","","","","-9","","NA"
"-64.32","48.42","CAP-D'ESPOIR","7051050","2023-01-28 13:00","2023","01","28","13:00","-1.5","","-6.2","","70","","","","18","","33","","","","101.60","","","","-9","","NA"
"-64.32","48.42","CAP-D'ESPOIR","7051050","2023-01-28 14:00","2023","01","28","14:00","-1.3","","-5.8","","72","","","","19","","36","","","","101.51","","","","-9","","NA"
"-64.32","48.42","CAP-D'ESPOIR","7051050","2023-01-28 15:00","2023","01","28","15:00","-1.2","","-4.8","","76","","","","18","","38","","","","101.45","","","","-9","","NA"
"-64.32","48.42","CAP-D'ESPOIR","7051050","2023-01-28 16:00","2023","01","28","16:00","-2.0","","-2.5","","96","","","","17","","45","","","","101.35","","","","-10","","NA"
"-64.32","48.42","CAP-D'ESPOIR","7051050","2023-01-28 17:00","2023","01","28","17:00","-0.9","","-2.1","","91","","","","17","","49","","","","101.25","","","","-9","","NA"
"-64.32","48.42","CAP-D'ESPOIR","7051050","2023-01-28 18:00","2023","01","28","18:00","-0.2","","-2.4","","85","","","","19","","55","","","","101.17","","","","-9","","NA"
"-64.32","48.42","CAP-D'ESPOIR","7051050","2023-01-28 19:00","2023","01","28","19:00","-0.4","","-1.6","","91","","","","21","","46","","","","101.16","","","","-8","","NA"
"-64.32","48.42","CAP-D'ESPOIR","7051050","2023-01-28 20:00","2023","01","28","20:00","-0.3","","-1.6","","91","","","","22","","37","","","","101.18","","","","-8","","NA"
"-64.32","48.42","CAP-D'ESPOIR","7051050","2023-01-28 21:00","2023","01","28","21:00","-0.7","","-1.4","","95","","","","24","","35","","","","101.23","","","","-8","","NA"
"-64.32","48.42","CAP-D'ESPOIR","7051050","2023-01-28 22:00","2023","01","28","22:00","-1.9","","-3.8","","87","","","","25","","41","","","","101.32","","","","-10","","NA"
"-64.32","48.42","CAP-D'ESPOIR","7051050","2023-01-28 23:00","2023","01","28","23:00","-2.6","","-7.7","","68","","","","27","","23","","","","101.41","","","","-9","","NA"
"-64.32","48.42","CAP-D'ESPOIR","7051050","2023-01-29 00:00","2023","01","29","00:00","-4.0","","-9.9","","63","","","","26","","29","","","","101.54","","","","-12","","NA"
"-64.32","48.42","CAP-D'ESPOIR","7051050","2023-01-29 01:00","2023","01","29","01:00","-5.6","","-12.6","","58","","","","26","","27","","","","101.67","","","","-13","","NA"
"-64.32","48.42","CAP-D'ESPOIR","7051050","2023-01-29 02:00","2023","01","29","02:00","-7.1","","-14.2","","57","","","","27","","23","","","","101.87","","","","-15","","NA"
"-64.32","48.42","CAP-D'ESPOIR","7051050","2023-01-29 03:00","2023","01","29","03:00","-8.4","","-14.3","","62","","","","27","","16","","","","101.99","","","","-15","","NA"
"-64.32","48.42","CAP-D'ESPOIR","7051050","2023-01-29 04:00","2023","01","29","04:00","-9.5","","-15.5","","62","","","","27","","20","","","","102.14","","","","-17","","NA"
"-64.32","48.42","CAP-D'ESPOIR","7051050","2023-01-29 05:00","2023","01","29","05:00","-11.2","","-16.7","","64","","","","27","","16","","","","102.30","","","","-18","","NA"
"-64.32","48.42","CAP-D'ESPOIR","7051050","2023-01-29 06:00","2023","01","29","06:00","-12.1","","-17.2","","66","","","","26","","13","","","","102.43","","","","-19","","NA"
"-64.32","48.42","CAP-D'ESPOIR","7051050","2023-01-29 07:00","2023","01","29","07:00","-12.5","","-17.8","","64","","","","27","","14","","","","102.53","","","","-20","","NA"
"-64.32","48.42","CAP-D'ESPOIR","7051050","2023-01-29 08:00","2023","01","29","08:00","-12.5","","-18.0","","63","","","","26","","17","","","","102.67","","","","-20","","NA"
"-64.32","48.42","CAP-D'ESPOIR","7051050","2023-01-29 09:00","2023","01","29","09:00","-11.9","","-18.6","","57","","","","28","","18","","","","102.75","","","","-20","","NA"
"-64.32","48.42","CAP-D'ESPOIR","7051050","2023-01-29 10:00","2023","01","29","10:00","-11.2","","-18.0","","58","","","","32","","15","","","","102.73","","","","-18","","NA"
"-64.32","48.42","CAP-D'ESPOIR","7051050","2023-01-29 11:00","2023","01","29","11:00","-10.1","","-20.2","","43","","","","35","","3","","","","102.69","","","","-12","","NA"
"-64.32","48.42","CAP-D'ESPOIR","7051050","2023-01-29 12:00","2023","01","29","12:00","-9.4","","-18.0","","50","","","","23","","8","","","","102.64","","","","-14","","NA"
"-64.32","48.42","CAP-D'ESPOIR","7051050","2023-01-29 13:00","2023","01","29","13:00","-9.4","","-17.2","","53","","","","21","","7","","","","102.61","","","","-13","","NA"
"-64.32","48.42","CAP-D'ESPOIR","7051050","2023-01-29 14:00","2023","01","29","14:00","-9.4","","-16.8","","55","","","","16","","7","","","","102.66","","","","-13","","NA"
"-64.32","48.42","CAP-D'ESPOIR","7051050","2023-01-29 15:00","2023","01","29","15:00","-9.3","","-15.8","","59","","","","15","","12","","","","102.65","","","","-15","","NA"
"-64.32","48.42","CAP-D'ESPOIR","7051050","2023-01-29 16:00","2023","01","29","16:00","-9.0","","-15.1","","61","","","","15","","12","","","","102.58","","","","-15","","NA"
"-64.32","48.42","CAP-D'ESPOIR","7051050","2023-01-29 17:00","2023","01","29","17:00","-8.0","","-13.0","","67","","","","13","","22","","","","102.52","","","","-16","","NA"
"-64.32","48.42","CAP-D'ESPOIR","7051050","2023-01-29 18:00","2023","01","29","18:00","-7.8","","-10.1","","84","","","","12","","24","","","","102.41","","","","-16","","NA"
"-64.32","48.42","CAP-D'ESPOIR","7051050","2023-01-29 19:00","2023","01","29","19:00","-8.1","","-9.5","","90","","","","16","","20","","","","102.31","","","","-15","","NA"
"-64.32","48.42","CAP-D'ESPOIR","7051050","2023-01-29 20:00","2023","01","29","20:00","-7.5","","-8.8","","90","","","","10","","25","","","","102.08","","","","-16","","NA"
"-64.32","48.42","CAP-D'ESPOIR","7051050","2023-01-29 21:00","2023","01","29","21:00","-6.3","","-7.2","","93","","","","12","","27","","","","101.95","","","","-14","","NA"
"-64.32","48.42","CAP-D'ESPOIR","7051050","2023-01-29 22:00","2023","01","29","22:00","-6.1","","-7.2","","92","","","","11","","30","","","","101.77","","","","-14","","NA"
"-64.32","48.42","CAP-D'ESPOIR","7051050","2023-01-29 23:00","2023","01","29","23:00","-5.2","","-6.0","","94","","","","9","","33","","","","101.50","","","","-14","","NA"
"-64.32","48.42","CAP-D'ESPOIR","7051050","2023-01-30 00:00","2023","01","30","00:00","-4.6","","-5.4","","94","","","","7","","37","","","","101.31","","","","-13","","NA"
"-64.32","48.42","CAP-D'ESPOIR","7051050","2023-01-30 01:00","2023","01","30","01:00","-4.1","","-4.8","","95","","","","5","","40","","","","101.16","","","","-13","","NA"
"-64.32","48.42","CAP-D'ESPOIR","7051050","2023-01-30 02:00","2023","01","30","02:00","-4.2","","-5.1","","93","","","","3","","29","","","","101.17","","","","-12","","NA"
"-64.32","48.42","CAP-D'ESPOIR","7051050","2023-01-30 03:00","2023","01","30","03:00","-4.5","","-6.5","","86","","","","2","","30","","","","101.14","","","","-12","","NA"
"-64.32","48.42","CAP-D'ESPOIR","7051050","2023-01-30 04:00","2023","01","30","04:00","-5.4","","-7.7","","84","","","","36","","29","","","","101.21","","","","-13","","NA"
"-64.32","48.42","CAP-D'ESPOIR","7051050","2023-01-30 05:00","2023","01","30","05:00","-5.6","","-8.0","","83","","","","36","","24","","","","101.30","","","","-13","","NA"
"-64.32","48.42","CAP-D'ESPOIR","7051050","2023-01-30 06:00","2023","01","30","06:00","-6.0","","-8.5","","83","","","","36","","19","","","","101.48","","","","-13","","NA"
"-64.32","48.42","CAP-D'ESPOIR","7051050","2023-01-30 07:00","2023","01","30","07:00","-7.1","","-9.5","","83","","","","35","","17","","","","101.59","","","","-14","","NA"
"-64.32","48.42","CAP-D'ESPOIR","7051050","2023-01-30 08:00","2023","01","30","08:00","-6.7","","-10.4","","75","","","","36","","18","","","","101.70","","","","-13","","NA"
"-64.32","48.42","CAP-D'ESPOIR","7051050","2023-01-30 09:00","2023","01","30","09:00","-6.1","","-11.1","","68","","","","35","","9","","","","101.71","","","","-10","","NA"
"-64.32","48.42","CAP-D'ESPOIR","7051050","2023-01-30 10:00","2023","01","30","10:00","-5.2","","-11.1","","63","","","","30","","3","","","","101.75","","","","-7","","NA"
"-64.32","48.42","CAP-D'ESPOIR","7051050","2023-01-30 11:00","2023","01","30","11:00","-4.9","","-11.5","","60","","","","24","","4","","","","101.73","","","","-7","","NA"
"-64.32","48.42","CAP-D'ESPOIR","7051050","2023-01-30 12:00","2023","01","30","12:00","-4.8","","-10.9","","62","","","","24","","11","","","","101.64","","","","-9","","NA"
"-64.32","48.42","CAP-D'ESPOIR","7051050","2023-01-30 13:00","2023","01","30","13:00","-5.1","","-10.7","","64","","","","24","","16","","","","101.67","","","","-11","","NA"
"-64.32","48.42","CAP-D'ESPOIR","7051050","2023-01-30 14:00","2023","01","30","14:00","-5.1","","-9.4","","72","","","","21","","14","","","","101.68","","","","-10","","NA"
"-64.32","48.42","CAP-D'ESPOIR","7051050","2023-01-30 15:00","2023","01","30","15:00","-5.3","","-10.4","","67","","","","22","","12","","","","101.73","","","","-10","","NA"
"-64.32","48.42","CAP-D'ESPOIR","7051050","2023-01-30 16:00","2023","01","30","16:00","-5.3","","-9.3","","73","","","","20","","15","","","","101.77","","","","-11","","NA"
"-64.32","48.42","CAP-D'ESPOIR","7051050","2023-01-30 17:00","2023","01","30","17:00","-5.1","","-9.5","","71","","","","19","","14","","","","101.78","","","","-10","","NA"
"-64.32","48.42","CAP-D'ESPOIR","7051050","2023-01-30 18:00","2023","01","30","18:00","-4.9","","-8.9","","74","","","","14","","11","","","","101.70","","","","-9","","NA"
"-64.32","48.42","CAP-D'ESPOIR","7051050","2023-01-30 19:00","2023","01","30","19:00","-4.8","","-8.3","","77","","","","14","","9","","","","101.65","","","","-9","","NA"
"-64.32","48.42","CAP-D'ESPOIR","7051050","2023-01-30 20:00","2023","01","30","20:00","-6.5","","-8.5","","85","","","","27","","12","","","","101.67","","","","-12","","NA"
"-64.32","48.42","CAP-D'ESPOIR","7051050","2023-01-30 21:00","2023","01","30","21:00","-8.2","","-11.0","","80","","","","30","","19","","","","101.71","","","","-15","","NA"
"-64.32","48.42","CAP-D'ESPOIR","7051050","2023-01-30 22:00","2023","01","30","22:00","-9.0","","-11.6","","81","","","","30","","16","","","","101.71","","","","-16","","NA"
"-64.32","48.42","CAP-D'ESPOIR","7051050","2023-01-30 23:00","2023","01","30","23:00","-9.4","","-12.5","","78","","","","30","","13","","","","101.72","","","","-15","","NA"
"-64.32","48.42","CAP-D'ESPOIR","7051050","2023-01-31 00:00","2023","01","31","00:00","-9.4","","-13.7","","71","","","","31","","15","","","","101.67","","","","-16","","NA"
"-64.32","48.42","CAP-D'ESPOIR","7051050","2023-01-31 01:00","2023","01","31","01:00","-10.0","","-15.0","","67","","","","33","","7","","","","101.68","","","","-14","","NA"
"-64.32","48.42","CAP-D'ESPOIR","7051050","2023-01-31 02:00","2023","01","31","02:00","-11.6","","-17.3","","63","","","","32","","7","","","","101.73","","","","-16","","NA"
"-64.32","48.42","CAP-D'ESPOIR","7051050","2023-01-31 03:00","2023","01","31","03:00","-11.4","","-17.3","","62","","","","32","","4","","","","101.75","","","","-14","","NA"
"-64.32","48.42","CAP-D'ESPOIR","7051050","2023-01-31 04:00","2023","01","31","04:00","-12.1","","-18.0","","61","","","","35","","5","","","","101.75","","","","-15","","NA"
"-64.32","48.42","CAP-D'ESPOIR","7051050","2023-01-31 05:00","2023","01","31","05:00","-11.6","","-17.3","","63","","","","35","","10","","","","101.72","","","","-17","","NA"
"-64.32","48.42","CAP-D'ESPOIR","7051050","2023-01-31 06:00","2023","01","31","06:00","-11.7","","-17.1","","64","","","","36","","7","","","","101.77","","","","-16","","NA"
"-64.32","48.42","CAP-D'ESPOIR","7051050","2023-01-31 07:00","2023","01","31","07:00","-11.6","","-17.5","","62","","","","1","","10","","","","101.75","","","","-17","","NA"
"-64.32","48.42","CAP-D'ESPOIR","7051050","2023-01-31 08:00","2023","01","31","08:00","-12.2","","-17.0","","67","","","","35","","9","","","","101.72","","","","-17","","NA"
"-64.32","48.42","CAP-D'ESPOIR","7051050","2023-01-31 09:00","2023","01","31","09:00","-11.4","","-17.0","","63","","","","36","","13","","","","101.70","","","","-18","","NA"
"-64.32","48.42","CAP-D'ESPOIR","7051050","2023-01-31 10:00","2023","01","31","10:00","-10.3","","-15.7","","64","","","","36","","15","","","","101.67","","","","-17","","NA"
"-64.32","48.42","CAP-D'ESPOIR","7051050","2023-01-31 11:00","2023","01","31","11:00","-10.2","","-15.5","","65","","","","36","","16","","","","101.63","","","","-17","","NA"
"-64.32","48.42","CAP-D'ESPOIR","7051050","2023-01-31 12:00","2023","01","31","12:00","-10.2","","-15.2","","67","","","","1","","15","","","","101.57","","","","-17","","NA"
"-64.32","48.42","CAP-D'ESPOIR","7051050","2023-01-31 13:00","2023","01","31","13:00","-9.9","","-13.9","","72","","","","2","","13","","","","101.48","","","","-16","","NA"
"-64.32","48.42","CAP-D'ESPOIR","7051050","2023-01-31 14:00","2023","01","31","14:00","-9.7","","-14.1","","70","","","","1","","11","","","","101.47","","","","-15","","NA"
"-64.32","48.42","CAP-D'ESPOIR","7051050","2023-01-31 15:00","2023","01","31","15:00","-10.0","","-13.5","","76","","","","1","","10","","","","101.51","","","","-15","","NA"
"-64.32","48.42","CAP-D'ESPOIR","7051050","2023-01-31 16:00","2023","01","31","16:00","-10.0","","-13.5","","76","","","","36","","8","","","","101.57","","","","-14","","NA"
"-64.32","48.42","CAP-D'ESPOIR","7051050","2023-01-31 17:00","2023","01","31","17:00","-10.3","","-13.5","","77","","","","35","","10","","","","101.63","","","","-16","","NA"
"-64.32","48.42","CAP-D'ESPOIR","7051050","2023-01-31 18:00","2023","01","31","18:00","-10.7","","-13.5","","80","","","","1","","10","","","","101.66","","","","-16","","NA"
"-64.32","48.42","CAP-D'ESPOIR","7051050","2023-01-31 19:00","2023","01","31","19:00","-13.7","","-15.9","","83","","","","34","","9","","","","101.69","","","","-19","","NA"
"-64.32","48.42","CAP-D'ESPOIR","7051050","2023-01-31 20:00","2023","01","31","20:00","-14.7","","-17.1","","82","","","","34","","9","","","","101.71","","","","-20","","NA"
"-64.32","48.42","CAP-D'ESPOIR","7051050","2023-01-31 21:00","2023","01","31","21:00","-14.2","","-16.8","","80","","","","32","","12","","","","101.72","","","","-21","","NA"
"-64.32","48.42","CAP-D'ESPOIR","7051050","2023-01-31 22:00","2023","01","31","22:00","-13.9","","-16.5","","81","","","","30","","11","","","","101.73","","","","-20","","NA"
"-64.32","48.42","CAP-D'ESPOIR","7051050","2023-01-31 23:00","2023","01","31","23:00","-15.2","","-18.1","","78","","","","30","","12","","","","101.76","","","","-22","","NA"
