"Longitude (x)","Latitude (y)","Station Name","Climate ID","Date/Time (LST)","Year","Month","Day","Time (LST)","Temp (°C)","Temp Flag","Dew Point Temp (°C)","Dew Point Temp Flag","Rel Hum (%)","Rel Hum Flag","Precip. Amount (mm)","Precip. Amount Flag","Wind Dir (10s deg)","Wind Dir Flag","Wind Spd (km/h)","Wind Spd Flag","Visibility (km)","Visibility Flag","Stn Press (kPa)","Stn Press Flag","Hmdx","Hmdx Flag","Wind Chill","Wind Chill Flag","Weather"
"-131.81","53.25","SANDSPIT AIRPORT AUTO","1057051","2021-01-01 00:00","2021","01","01","00:00","7.7","","7.0","","95","","","M","15","","39","","","","99.33","","","","","","NA"
"-131.81","53.25","SANDSPIT AIRPORT AUTO","1057051","2021-01-01 01:00","2021","01","01","01:00","7.8","","7.1","","96","","","M","15","","33","","","","99.23","","","","","","NA"
"-131.81","53.25","SANDSPIT AIRPORT AUTO","1057051","2021-01-01 02:00","2021","01","01","02:00","7.8","","7.1","","96","","","M","15","","30","","","","99.12","","","","","","NA"
"-131.81","53.25","SANDSPIT AIRPORT AUTO","1057051","2021-01-01 03:00","2021","01","01","03:00","7.8","","7.3","","96","","","M","20","","3","","","","99.05","","","","","","NA"
"-131.81","53.25","SANDSPIT AIRPORT AUTO","1057051","2021-01-01 04:00","2021","01","01","04:00","6.3","","5.8","","97","","","M","27","","6","","","","99.02","","","","","","NA"
"-131.81","53.25","SANDSPIT AIRPORT AUTO","1057051","2021-01-01 05:00","2021","01","01","05:00","6.1","","5.6","","97","","","M","20","","2","","","","98.88","","","","","","NA"
"-131.81","53.25","SANDSPIT AIRPORT AUTO","1057051","2021-01-01 06:00","2021","01","01","06:00","5.9","","5.5","","97","","","M","0","","1","","","","98.87","","","","","","NA"
"-131.81","53.25","SANDSPIT AIRPORT AUTO","1057051","2021-01-01 07:00","2021","01","01","07:00","6.7","","6.4","","98","","","M","18","","6","","","","98.80","","","","","","NA"
"-131.81","53.25","SANDSPIT AIRPORT AUTO","1057051","2021-01-01 08:00","2021","01","01","08:00","6.2","","5.9","","98","","","M","18","","5","","","","98.75","","","","","","NA"
"-131.81","53.25","SANDSPIT AIRPORT AUTO","1057051","2021-01-01 09:00","2021","01","01","09:00","5.7","","5.4","","98","","","M","14","","2","","","","98.77","","","","","","NA"
"-131.81","53.25","SANDSPIT AIRPORT AUTO","1057051","2021-01-01 10:00","2021","01","01","10:00","5.6","","5.3","","98","","","M","","","0","","","","98.79","","","","","","NA"
"-131.81","53.25","SANDSPIT AIRPORT AUTO","1057051","2021-01-01 11:00","2021","01","01","11:00","6.1","","5.7","","97","","","M","7","","1","","","","98.76","","","","","","NA"
"-131.81","53.25","SANDSPIT AIRPORT AUTO","1057051","2021-01-01 12:00","2021","01","01","12:00","7.7","","5.8","","88","","","M","13","","6","","","","98.65","","","","","","NA"
"-131.81","53.25","SANDSPIT AIRPORT AUTO","1057051","2021-01-01 13:00","2021","01","01","13:00","8.0","","5.7","","85","","","M","16","","10","","","","98.53","","","","","","NA"
"-131.81","53.25","SANDSPIT AIRPORT AUTO","1057051","2021-01-01 14:00","2021","01","01","14:00","8.2","","6.7","","90","","","M","15","","22","","","","98.45","","","","","","NA"
"-131.81","53.25","SANDSPIT AIRPORT AUTO","1057051","2021-01-01 15:00","2021","01","01","15:00","7.9","","6.8","","93","","","M","14","","31","","","","98.35","","","","","","NA"
"-131.81","53.25","SANDSPIT AIRPORT AUTO","1057051","2021-01-01 16:00","2021","01","01","16:00","7.6","","6.7","","94","","","M","14","","26","","","","98.28","","","","","","NA"
"-131.81","53.25","SANDSPIT AIRPORT AUTO","1057051","2021-01-01 17:00","2021","01","01","17:00","7.6","","6.7","","94","","","M","15","","30","","","","98.16","","","","","","NA"
"-131.81","53.25","SANDSPIT AIRPORT AUTO","1057051","2021-01-01 18:00","2021","01","01","18:00","7.2","","5.3","","88","","","M","14","","33","","","","98.01","","","","","","NA"
"-131.81","53.25","SANDSPIT AIRPORT AUTO","1057051","2021-01-01 19:00","2021","01","01","19:00","6.7","","5.5","","92","","","M","17","","10","","","","97.96","","","","","","NA"
"-131.81","53.25","SANDSPIT AIRPORT AUTO","1057051","2021-01-01 20:00","2021","01","01","20:00","5.8","","4.9","","94","","","M","16","","7","","","","97.97","","","","","","NA"
"-131.81","53.25","SANDSPIT AIRPORT AUTO","1057051","2021-01-01 21:00","2021","01","01","21:00","4.7","","3.2","","90","","","M","16","","10","","","","98.00","","","","","","NA"
"-131.81","53.25","SANDSPIT AIRPORT AUTO","1057051","2021-01-01 22:00","2021","01","01","22:00","5.6","","4.4","","92","","","M","17","","9","","","","98.03","","","","","","NA"
"-131.81","53.25","SANDSPIT AIRPORT AUTO","1057051","2021-01-01 23:00","2021","01","01","23:00","5.5","","4.7","","94","","","M","18","","10","","","","98.06","","","","","","NA"
"-131.81","53.25","SANDSPIT AIRPORT AUTO","1057051","2021-01-02 00:00","2021","01","02","00:00","5.5","","4.6","","94","","","M","16","","9","","","","98.02","","","","","","NA"
"-131.81","53.25","SANDSPIT AIRPORT AUTO","1057051","2021-01-02 01:00","2021","01","02","01:00","6.0","","4.7","","91","","","M","16","","13","","","","97.98","","","","","","NA"
"-131.81","53.25","SANDSPIT AIRPORT AUTO","1057051","2021-01-02 02:00","2021","01","02","02:00","6.2","","4.6","","89","","","M","15","","33","","","","97.82","","","","","","NA"
"-131.81","53.25","SANDSPIT AIRPORT AUTO","1057051","2021-01-02 03:00","2021","01","02","03:00","6.3","","5.4","","93","","","M","15","","32","","","","97.65","","","","","","NA"
"-131.81","53.25","SANDSPIT AIRPORT AUTO","1057051","2021-01-02 04:00","2021","01","02","04:00","5.9","","5.0","","93","","","M","18","","9","","","","97.52","","","","","","NA"
"-131.81","53.25","SANDSPIT AIRPORT AUTO","1057051","2021-01-02 05:00","2021","01","02","05:00","5.8","","4.9","","94","","","M","18","","10","","","","97.39","","","","","","NA"
"-131.81","53.25","SANDSPIT AIRPORT AUTO","1057051","2021-01-02 06:00","2021","01","02","06:00","6.7","","5.8","","94","","","M","25","","4","","","","97.45","","","","","","NA"
"-131.81","53.25","SANDSPIT AIRPORT AUTO","1057051","2021-01-02 07:00","2021","01","02","07:00","6.2","","4.8","","91","","","M","18","","8","","","","97.50","","","","","","NA"
"-131.81","53.25","SANDSPIT AIRPORT AUTO","1057051","2021-01-02 08:00","2021","01","02","08:00","5.4","","4.1","","91","","","M","19","","6","","","","97.52","","","","","","NA"
"-131.81","53.25","SANDSPIT AIRPORT AUTO","1057051","2021-01-02 09:00","2021","01","02","09:00","4.9","","3.3","","89","","","M","16","","14","","","","97.55","","","","","","NA"
"-131.81","53.25","SANDSPIT AIRPORT AUTO","1057051","2021-01-02 10:00","2021","01","02","10:00","5.1","","4.1","","94","","","M","16","","15","","","","97.59","","","","","","NA"
"-131.81","53.25","SANDSPIT AIRPORT AUTO","1057051","2021-01-02 11:00","2021","01","02","11:00","5.6","","4.4","","92","","","M","15","","17","","","","97.61","","","","","","NA"
"-131.81","53.25","SANDSPIT AIRPORT AUTO","1057051","2021-01-02 12:00","2021","01","02","12:00","5.7","","4.5","","92","","","M","16","","14","","","","97.61","","","","","","NA"
"-131.81","53.25","SANDSPIT AIRPORT AUTO","1057051","2021-01-02 13:00","2021","01","02","13:00","5.8","","4.6","","92","","","M","16","","12","","","","97.58","","","","","","NA"
"-131.81","53.25","SANDSPIT AIRPORT AUTO","1057051","2021-01-02 14:00","2021","01","02","14:00","5.2","","3.9","","91","","","M","17","","9","","","","97.56","","","","","","NA"
"-131.81","53.25","SANDSPIT AIRPORT AUTO","1057051","2021-01-02 15:00","2021","01","02","15:00","5.1","","3.9","","92","","","M","17","","13","","","","97.53","","","","","","NA"
"-131.81","53.25","SANDSPIT AIRPORT AUTO","1057051","2021-01-02 16:00","2021","01","02","16:00","5.1","","3.9","","92","","","M","18","","13","","","","97.56","","","","","","NA"
"-131.81","53.25","SANDSPIT AIRPORT AUTO","1057051","2021-01-02 17:00","2021","01","02","17:00","5.3","","3.9","","91","","","M","18","","10","","","","97.63","","","","","","NA"
"-131.81","53.25","SANDSPIT AIRPORT AUTO","1057051","2021-01-02 18:00","2021","01","02","18:00","5.1","","3.9","","92","","","M","19","","9","","","","97.70","","","","","","NA"
"-131.81","53.25","SANDSPIT AIRPORT AUTO","1057051","2021-01-02 19:00","2021","01","02","19:00","5.2","","3.7","","90","","","M","20","","14","","","","97.72","","","","","","NA"
"-131.81","53.25","SANDSPIT AIRPORT AUTO","1057051","2021-01-02 20:00","2021","01","02","20:00","5.3","","3.7","","90","","","M","19","","13","","","","97.82","","","","","","NA"
"-131.81","53.25","SANDSPIT AIRPORT AUTO","1057051","2021-01-02 21:00","2021","01","02","21:00","5.8","","3.8","","87","","","M","20","","15","","","","97.94","","","","","","NA"
"-131.81","53.25","SANDSPIT AIRPORT AUTO","1057051","2021-01-02 22:00","2021","01","02","22:00","6.1","","3.6","","84","","","M","21","","21","","","","97.99","","","","","","NA"
"-131.81","53.25","SANDSPIT AIRPORT AUTO","1057051","2021-01-02 23:00","2021","01","02","23:00","5.7","","3.4","","85","","","M","22","","17","","","","98.11","","","","","","NA"
"-131.81","53.25","SANDSPIT AIRPORT AUTO","1057051","2021-01-03 00:00","2021","01","03","00:00","5.6","","3.1","","84","","","M","21","","16","","","","98.36","","","","","","NA"
"-131.81","53.25","SANDSPIT AIRPORT AUTO","1057051","2021-01-03 01:00","2021","01","03","01:00","5.2","","3.0","","86","","","M","19","","8","","","","98.52","","","","","","NA"
"-131.81","53.25","SANDSPIT AIRPORT AUTO","1057051","2021-01-03 02:00","2021","01","03","02:00","4.9","","2.7","","86","","","M","22","","14","","","","98.62","","","","","","NA"
"-131.81","53.25","SANDSPIT AIRPORT AUTO","1057051","2021-01-03 03:00","2021","01","03","03:00","5.5","","2.8","","83","","","M","17","","9","","","","98.81","","","","","","NA"
"-131.81","53.25","SANDSPIT AIRPORT AUTO","1057051","2021-01-03 04:00","2021","01","03","04:00","5.4","","2.9","","84","","","M","21","","13","","","","98.93","","","","","","NA"
"-131.81","53.25","SANDSPIT AIRPORT AUTO","1057051","2021-01-03 05:00","2021","01","03","05:00","4.8","","3.3","","90","","","M","18","","7","","","","99.06","","","","","","NA"
"-131.81","53.25","SANDSPIT AIRPORT AUTO","1057051","2021-01-03 06:00","2021","01","03","06:00","5.2","","3.1","","86","","","M","21","","10","","","","99.22","","","","","","NA"
"-131.81","53.25","SANDSPIT AIRPORT AUTO","1057051","2021-01-03 07:00","2021","01","03","07:00","5.0","","3.3","","89","","","M","19","","8","","","","99.37","","","","","","NA"
"-131.81","53.25","SANDSPIT AIRPORT AUTO","1057051","2021-01-03 08:00","2021","01","03","08:00","4.9","","2.8","","86","","","M","23","","8","","","","99.52","","","","","","NA"
"-131.81","53.25","SANDSPIT AIRPORT AUTO","1057051","2021-01-03 09:00","2021","01","03","09:00","4.4","","2.8","","90","","","M","19","","10","","","","99.63","","","","","","NA"
"-131.81","53.25","SANDSPIT AIRPORT AUTO","1057051","2021-01-03 10:00","2021","01","03","10:00","4.4","","2.9","","90","","","M","18","","11","","","","99.75","","","","","","NA"
"-131.81","53.25","SANDSPIT AIRPORT AUTO","1057051","2021-01-03 11:00","2021","01","03","11:00","5.4","","2.0","","79","","","M","19","","6","","","","99.85","","","","","","NA"
"-131.81","53.25","SANDSPIT AIRPORT AUTO","1057051","2021-01-03 12:00","2021","01","03","12:00","6.1","","2.9","","80","","","M","18","","7","","","","99.97","","","","","","NA"
"-131.81","53.25","SANDSPIT AIRPORT AUTO","1057051","2021-01-03 13:00","2021","01","03","13:00","6.8","","3.0","","77","","","M","15","","9","","","","100.01","","","","","","NA"
"-131.81","53.25","SANDSPIT AIRPORT AUTO","1057051","2021-01-03 14:00","2021","01","03","14:00","6.2","","2.4","","76","","","M","16","","15","","","","100.04","","","","","","NA"
"-131.81","53.25","SANDSPIT AIRPORT AUTO","1057051","2021-01-03 15:00","2021","01","03","15:00","6.2","","2.8","","79","","","M","15","","16","","","","100.06","","","","","","NA"
"-131.81","53.25","SANDSPIT AIRPORT AUTO","1057051","2021-01-03 16:00","2021","01","03","16:00","5.6","","3.2","","84","","","M","16","","7","","","","100.03","","","","","","NA"
"-131.81","53.25","SANDSPIT AIRPORT AUTO","1057051","2021-01-03 17:00","2021","01","03","17:00","6.2","","3.4","","83","","","M","16","","18","","","","99.96","","","","","","NA"
"-131.81","53.25","SANDSPIT AIRPORT AUTO","1057051","2021-01-03 18:00","2021","01","03","18:00","6.8","","3.7","","80","","","M","15","","32","","","","99.85","","","","","","NA"
"-131.81","53.25","SANDSPIT AIRPORT AUTO","1057051","2021-01-03 19:00","2021","01","03","19:00","6.9","","3.5","","79","","","M","15","","34","","","","99.74","","","","","","NA"
"-131.81","53.25","SANDSPIT AIRPORT AUTO","1057051","2021-01-03 20:00","2021","01","03","20:00","6.7","","4.1","","83","","","M","15","","41","","","","99.62","","","","","","NA"
"-131.81","53.25","SANDSPIT AIRPORT AUTO","1057051","2021-01-03 21:00","2021","01","03","21:00","7.0","","4.2","","82","","","M","14","","53","","","","99.51","","","","","","NA"
"-131.81","53.25","SANDSPIT AIRPORT AUTO","1057051","2021-01-03 22:00","2021","01","03","22:00","7.2","","4.3","","82","","","M","14","","52","","","","99.37","","","","","","NA"
"-131.81","53.25","SANDSPIT AIRPORT AUTO","1057051","2021-01-03 23:00","2021","01","03","23:00","6.8","","4.6","","86","","","M","14","","62","","","","99.21","","","","","","NA"
"-131.81","53.25","SANDSPIT AIRPORT AUTO","1057051","2021-01-04 00:00","2021","01","04","00:00","7.0","","4.1","","82","","","M","13","","56","","","","99.07","","","","","","NA"
"-131.81","53.25","SANDSPIT AIRPORT AUTO","1057051","2021-01-04 01:00","2021","01","04","01:00","6.5","","3.3","","80","","","M","13","","61","","","","98.85","","","","","","NA"
"-131.81","53.25","SANDSPIT AIRPORT AUTO","1057051","2021-01-04 02:00","2021","01","04","02:00","6.4","","2.4","","76","","","M","13","","65","","","","98.71","","","","","","NA"
"-131.81","53.25","SANDSPIT AIRPORT AUTO","1057051","2021-01-04 03:00","2021","01","04","03:00","5.2","","3.1","","87","","","M","13","","65","","","","98.52","","","","","","NA"
"-131.81","53.25","SANDSPIT AIRPORT AUTO","1057051","2021-01-04 04:00","2021","01","04","04:00","5.0","","3.3","","89","","","M","12","","64","","","","98.30","","","","","","NA"
"-131.81","53.25","SANDSPIT AIRPORT AUTO","1057051","2021-01-04 05:00","2021","01","04","05:00","5.1","","3.5","","89","","","M","12","","68","","","","98.06","","","","","","NA"
"-131.81","53.25","SANDSPIT AIRPORT AUTO","1057051","2021-01-04 06:00","2021","01","04","06:00","5.5","","3.4","","86","","","M","18","","7","","","","98.04","","","","","","NA"
"-131.81","53.25","SANDSPIT AIRPORT AUTO","1057051","2021-01-04 07:00","2021","01","04","07:00","4.3","","1.7","","83","","","M","18","","6","","","","98.25","","","","","","NA"
"-131.81","53.25","SANDSPIT AIRPORT AUTO","1057051","2021-01-04 08:00","2021","01","04","08:00","4.3","","2.4","","88","","","M","15","","22","","","","98.35","","","","","","NA"
"-131.81","53.25","SANDSPIT AIRPORT AUTO","1057051","2021-01-04 09:00","2021","01","04","09:00","4.3","","2.4","","87","","","M","17","","12","","","","98.47","","","","","","NA"
"-131.81","53.25","SANDSPIT AIRPORT AUTO","1057051","2021-01-04 10:00","2021","01","04","10:00","4.2","","2.5","","88","","","M","16","","26","","","","98.49","","","","","","NA"
"-131.81","53.25","SANDSPIT AIRPORT AUTO","1057051","2021-01-04 11:00","2021","01","04","11:00","4.4","","2.7","","89","","","M","16","","32","","","","98.53","","","","","","NA"
"-131.81","53.25","SANDSPIT AIRPORT AUTO","1057051","2021-01-04 12:00","2021","01","04","12:00","3.7","","2.4","","91","","","M","17","","21","","","","98.62","","","","","","NA"
"-131.81","53.25","SANDSPIT AIRPORT AUTO","1057051","2021-01-04 13:00","2021","01","04","13:00","4.0","","2.9","","93","","","M","17","","15","","","","98.66","","","","","","NA"
"-131.81","53.25","SANDSPIT AIRPORT AUTO","1057051","2021-01-04 14:00","2021","01","04","14:00","4.0","","3.0","","93","","","M","17","","4","","","","98.78","","","","","","NA"
"-131.81","53.25","SANDSPIT AIRPORT AUTO","1057051","2021-01-04 15:00","2021","01","04","15:00","3.3","","2.2","","92","","","M","17","","10","","","","98.95","","","","","","NA"
"-131.81","53.25","SANDSPIT AIRPORT AUTO","1057051","2021-01-04 16:00","2021","01","04","16:00","3.5","","2.3","","92","","","M","18","","11","","","","99.08","","","","","","NA"
"-131.81","53.25","SANDSPIT AIRPORT AUTO","1057051","2021-01-04 17:00","2021","01","04","17:00","3.8","","2.2","","89","","","M","18","","9","","","","99.16","","","","","","NA"
"-131.81","53.25","SANDSPIT AIRPORT AUTO","1057051","2021-01-04 18:00","2021","01","04","18:00","3.9","","2.0","","87","","","M","20","","14","","","","99.27","","","","","","NA"
"-131.81","53.25","SANDSPIT AIRPORT AUTO","1057051","2021-01-04 19:00","2021","01","04","19:00","3.2","","1.4","","88","","","M","16","","8","","","","99.36","","","","","","NA"
"-131.81","53.25","SANDSPIT AIRPORT AUTO","1057051","2021-01-04 20:00","2021","01","04","20:00","3.3","","1.7","","89","","","M","23","","5","","","","99.45","","","","","","NA"
"-131.81","53.25","SANDSPIT AIRPORT AUTO","1057051","2021-01-04 21:00","2021","01","04","21:00","3.6","","1.5","","86","","","M","18","","11","","","","99.46","","","","","","NA"
"-131.81","53.25","SANDSPIT AIRPORT AUTO","1057051","2021-01-04 22:00","2021","01","04","22:00","4.2","","2.3","","87","","","M","17","","16","","","","99.48","","","","","","NA"
"-131.81","53.25","SANDSPIT AIRPORT AUTO","1057051","2021-01-04 23:00","2021","01","04","23:00","4.3","","2.3","","87","","","M","18","","10","","","","99.52","","","","","","NA"
"-131.81","53.25","SANDSPIT AIRPORT AUTO","1057051","2021-01-05 00:00","2021","01","05","00:00","4.1","","2.1","","87","","","M","18","","10","","","","99.49","","","","","","NA"
"-131.81","53.25","SANDSPIT AIRPORT AUTO","1057051","2021-01-05 01:00","2021","01","05","01:00","4.2","","2.4","","88","","","M","19","","7","","","","99.38","","","","","","NA"
"-131.81","53.25","SANDSPIT AIRPORT AUTO","1057051","2021-01-05 02:00","2021","01","05","02:00","5.8","","3.0","","83","","","M","16","","25","","","","99.23","","","","","","NA"
"-131.81","53.25","SANDSPIT AIRPORT AUTO","1057051","2021-01-05 03:00","2021","01","05","03:00","7.2","","3.6","","78","","","M","15","","49","","","","99.00","","","","","","NA"
"-131.81","53.25","SANDSPIT AIRPORT AUTO","1057051","2021-01-05 04:00","2021","01","05","04:00","6.7","","4.6","","86","","","M","16","","39","","","","98.81","","","","","","NA"
"-131.81","53.25","SANDSPIT AIRPORT AUTO","1057051","2021-01-05 05:00","2021","01","05","05:00","6.5","","4.6","","88","","","M","15","","74","","","","98.47","","","","","","NA"
"-131.81","53.25","SANDSPIT AIRPORT AUTO","1057051","2021-01-05 06:00","2021","01","05","06:00","6.0","","5.6","","97","","","M","15","","89","","","","98.27","","","","","","NA"
"-131.81","53.25","SANDSPIT AIRPORT AUTO","1057051","2021-01-05 07:00","2021","01","05","07:00","6.3","","6.0","","98","","","M","15","","88","","","","98.12","","","","","","NA"
"-131.81","53.25","SANDSPIT AIRPORT AUTO","1057051","2021-01-05 08:00","2021","01","05","08:00","6.6","","6.4","","99","","","M","15","","85","","","","97.97","","","","","","NA"
"-131.81","53.25","SANDSPIT AIRPORT AUTO","1057051","2021-01-05 09:00","2021","01","05","09:00","6.9","","6.7","","99","","","M","14","","80","","","","97.91","","","","","","NA"
"-131.81","53.25","SANDSPIT AIRPORT AUTO","1057051","2021-01-05 10:00","2021","01","05","10:00","7.4","","7.2","","99","","","M","15","","70","","","","97.91","","","","","","NA"
"-131.81","53.25","SANDSPIT AIRPORT AUTO","1057051","2021-01-05 11:00","2021","01","05","11:00","7.9","","7.5","","98","","","M","20","","15","","","","98.07","","","","","","NA"
"-131.81","53.25","SANDSPIT AIRPORT AUTO","1057051","2021-01-05 12:00","2021","01","05","12:00","5.8","","5.0","","94","","","M","23","","3","","","","98.14","","","","","","NA"
"-131.81","53.25","SANDSPIT AIRPORT AUTO","1057051","2021-01-05 13:00","2021","01","05","13:00","5.6","","4.7","","94","","","M","25","","4","","","","98.13","","","","","","NA"
"-131.81","53.25","SANDSPIT AIRPORT AUTO","1057051","2021-01-05 14:00","2021","01","05","14:00","5.9","","5.0","","94","","","M","18","","3","","","","98.22","","","","","","NA"
"-131.81","53.25","SANDSPIT AIRPORT AUTO","1057051","2021-01-05 15:00","2021","01","05","15:00","5.9","","5.1","","94","","","M","32","","3","","","","98.20","","","","","","NA"
"-131.81","53.25","SANDSPIT AIRPORT AUTO","1057051","2021-01-05 16:00","2021","01","05","16:00","5.4","","5.0","","97","","","M","18","","2","","","","98.34","","","","","","NA"
"-131.81","53.25","SANDSPIT AIRPORT AUTO","1057051","2021-01-05 17:00","2021","01","05","17:00","5.2","","4.9","","98","","","M","0","","1","","","","98.40","","","","","","NA"
"-131.81","53.25","SANDSPIT AIRPORT AUTO","1057051","2021-01-05 18:00","2021","01","05","18:00","5.0","","4.8","","98","","","M","26","","3","","","","98.46","","","","","","NA"
"-131.81","53.25","SANDSPIT AIRPORT AUTO","1057051","2021-01-05 19:00","2021","01","05","19:00","4.1","","3.9","","98","","","M","21","","2","","","","98.54","","","","","","NA"
"-131.81","53.25","SANDSPIT AIRPORT AUTO","1057051","2021-01-05 20:00","2021","01","05","20:00","4.6","","4.3","","98","","","M","27","","4","","","","98.65","","","","","","NA"
"-131.81","53.25","SANDSPIT AIRPORT AUTO","1057051","2021-01-05 21:00","2021","01","05","21:00","4.6","","4.0","","96","","","M","18","","5","","","","98.72","","","","","","NA"
"-131.81","53.25","SANDSPIT AIRPORT AUTO","1057051","2021-01-05 22:00","2021","01","05","22:00","4.6","","4.1","","97","","","M","17","","2","","","","98.78","","","","","","NA"
"-131.81","53.25","SANDSPIT AIRPORT AUTO","1057051","2021-01-05 23:00","2021","01","05","23:00","4.6","","4.2","","97","","","M","26","","5","","","","98.88","","","","","","NA"
"-131.81","53.25","SANDSPIT AIRPORT AUTO","1057051","2021-01-06 00:00","2021","01","06","00:00","4.4","","3.8","","95","","","M","24","","3","","","","99.02","","","","","","NA"
"-131.81","53.25","SANDSPIT AIRPORT AUTO","1057051","2021-01-06 01:00","2021","01","06","01:00","5.0","","2.0","","81","","","M","23","","4","","","","99.18","","","","","","NA"
"-131.81","53.25","SANDSPIT AIRPORT AUTO","1057051","2021-01-06 02:00","2021","01","06","02:00","5.0","","1.6","","78","","","M","23","","10","","","","99.36","","","","","","NA"
"-131.81","53.25","SANDSPIT AIRPORT AUTO","1057051","2021-01-06 03:00","2021","01","06","03:00","4.5","","2.8","","89","","","M","17","","10","","","","99.52","","","","","","NA"
"-131.81","53.25","SANDSPIT AIRPORT AUTO","1057051","2021-01-06 04:00","2021","01","06","04:00","3.6","","2.5","","92","","","M","18","","6","","","","99.66","","","","","","NA"
"-131.81","53.25","SANDSPIT AIRPORT AUTO","1057051","2021-01-06 05:00","2021","01","06","05:00","3.8","","2.1","","89","","","M","18","","6","","","","99.77","","","","","","NA"
"-131.81","53.25","SANDSPIT AIRPORT AUTO","1057051","2021-01-06 06:00","2021","01","06","06:00","4.1","","2.2","","87","","","M","24","","6","","","","99.89","","","","","","NA"
"-131.81","53.25","SANDSPIT AIRPORT AUTO","1057051","2021-01-06 07:00","2021","01","06","07:00","3.8","","2.4","","91","","","M","19","","7","","","","100.08","","","","","","NA"
"-131.81","53.25","SANDSPIT AIRPORT AUTO","1057051","2021-01-06 08:00","2021","01","06","08:00","2.7","","1.6","","92","","","M","17","","10","","","","100.10","","","","","","NA"
"-131.81","53.25","SANDSPIT AIRPORT AUTO","1057051","2021-01-06 09:00","2021","01","06","09:00","3.2","","1.6","","89","","","M","17","","8","","","","100.20","","","","","","NA"
"-131.81","53.25","SANDSPIT AIRPORT AUTO","1057051","2021-01-06 10:00","2021","01","06","10:00","3.2","","1.8","","91","","","M","17","","9","","","","100.32","","","","","","NA"
"-131.81","53.25","SANDSPIT AIRPORT AUTO","1057051","2021-01-06 11:00","2021","01","06","11:00","3.7","","2.1","","89","","","M","18","","9","","","","100.45","","","","","","NA"
"-131.81","53.25","SANDSPIT AIRPORT AUTO","1057051","2021-01-06 12:00","2021","01","06","12:00","5.3","","2.9","","84","","","M","18","","10","","","","100.46","","","","","","NA"
"-131.81","53.25","SANDSPIT AIRPORT AUTO","1057051","2021-01-06 13:00","2021","01","06","13:00","4.8","","3.0","","88","","","M","19","","8","","","","100.54","","","","","","NA"
"-131.81","53.25","SANDSPIT AIRPORT AUTO","1057051","2021-01-06 14:00","2021","01","06","14:00","5.3","","3.1","","86","","","M","18","","8","","","","100.56","","","","","","NA"
"-131.81","53.25","SANDSPIT AIRPORT AUTO","1057051","2021-01-06 15:00","2021","01","06","15:00","4.9","","3.3","","89","","","M","17","","14","","","","100.61","","","","","","NA"
"-131.81","53.25","SANDSPIT AIRPORT AUTO","1057051","2021-01-06 16:00","2021","01","06","16:00","4.2","","3.0","","91","","","M","17","","12","","","","100.69","","","","","","NA"
"-131.81","53.25","SANDSPIT AIRPORT AUTO","1057051","2021-01-06 17:00","2021","01","06","17:00","3.3","","2.4","","94","","","M","12","","6","","","","100.71","","","","","","NA"
"-131.81","53.25","SANDSPIT AIRPORT AUTO","1057051","2021-01-06 18:00","2021","01","06","18:00","3.6","","2.7","","94","","","M","18","","4","","","","100.79","","","","","","NA"
"-131.81","53.25","SANDSPIT AIRPORT AUTO","1057051","2021-01-06 19:00","2021","01","06","19:00","2.9","","2.4","","96","","","M","23","","3","","","","100.83","","","","","","NA"
"-131.81","53.25","SANDSPIT AIRPORT AUTO","1057051","2021-01-06 20:00","2021","01","06","20:00","1.8","","0.3","","90","","","M","16","","7","","","","100.81","","","","","","NA"
"-131.81","53.25","SANDSPIT AIRPORT AUTO","1057051","2021-01-06 21:00","2021","01","06","21:00","3.2","","2.1","","93","","","M","19","","6","","","","100.79","","","","","","NA"
"-131.81","53.25","SANDSPIT AIRPORT AUTO","1057051","2021-01-06 22:00","2021","01","06","22:00","5.5","","3.2","","86","","","M","15","","13","","","","100.80","","","","","","NA"
"-131.81","53.25","SANDSPIT AIRPORT AUTO","1057051","2021-01-06 23:00","2021","01","06","23:00","6.7","","4.0","","83","","","M","16","","24","","","","100.76","","","","","","NA"
"-131.81","53.25","SANDSPIT AIRPORT AUTO","1057051","2021-01-07 00:00","2021","01","07","00:00","7.1","","4.7","","84","","","M","15","","31","","","","100.73","","","","","","NA"
"-131.81","53.25","SANDSPIT AIRPORT AUTO","1057051","2021-01-07 01:00","2021","01","07","01:00","7.8","","5.6","","86","","","M","15","","44","","","","100.67","","","","","","NA"
"-131.81","53.25","SANDSPIT AIRPORT AUTO","1057051","2021-01-07 02:00","2021","01","07","02:00","7.9","","5.8","","86","","","M","15","","50","","","","100.55","","","","","","NA"
"-131.81","53.25","SANDSPIT AIRPORT AUTO","1057051","2021-01-07 03:00","2021","01","07","03:00","8.1","","5.7","","85","","","M","15","","61","","","","100.49","","","","","","NA"
"-131.81","53.25","SANDSPIT AIRPORT AUTO","1057051","2021-01-07 04:00","2021","01","07","04:00","8.3","","5.9","","85","","","M","15","","62","","","","100.32","","","","","","NA"
"-131.81","53.25","SANDSPIT AIRPORT AUTO","1057051","2021-01-07 05:00","2021","01","07","05:00","6.7","","5.2","","90","","","M","15","","72","","","","100.25","","","","","","NA"
"-131.81","53.25","SANDSPIT AIRPORT AUTO","1057051","2021-01-07 06:00","2021","01","07","06:00","5.8","","4.5","","91","","","M","17","","11","","","","100.46","","","","","","NA"
"-131.81","53.25","SANDSPIT AIRPORT AUTO","1057051","2021-01-07 07:00","2021","01","07","07:00","5.4","","4.4","","93","","","M","16","","11","","","","100.51","","","","","","NA"
"-131.81","53.25","SANDSPIT AIRPORT AUTO","1057051","2021-01-07 08:00","2021","01","07","08:00","5.5","","4.4","","92","","","M","18","","7","","","","100.60","","","","","","NA"
"-131.81","53.25","SANDSPIT AIRPORT AUTO","1057051","2021-01-07 09:00","2021","01","07","09:00","6.1","","3.8","","85","","","M","17","","9","","","","100.70","","","","","","NA"
"-131.81","53.25","SANDSPIT AIRPORT AUTO","1057051","2021-01-07 10:00","2021","01","07","10:00","6.1","","4.0","","86","","","M","17","","8","","","","100.76","","","","","","NA"
"-131.81","53.25","SANDSPIT AIRPORT AUTO","1057051","2021-01-07 11:00","2021","01","07","11:00","7.3","","5.0","","85","","","M","16","","14","","","","100.75","","","","","","NA"
"-131.81","53.25","SANDSPIT AIRPORT AUTO","1057051","2021-01-07 12:00","2021","01","07","12:00","8.1","","6.4","","89","","","M","15","","27","","","","100.73","","","","","","NA"
"-131.81","53.25","SANDSPIT AIRPORT AUTO","1057051","2021-01-07 13:00","2021","01","07","13:00","8.2","","6.9","","91","","","M","15","","44","","","","100.68","","","","","","NA"
"-131.81","53.25","SANDSPIT AIRPORT AUTO","1057051","2021-01-07 14:00","2021","01","07","14:00","8.2","","7.2","","93","","","M","14","","42","","","","100.62","","","","","","NA"
"-131.81","53.25","SANDSPIT AIRPORT AUTO","1057051","2021-01-07 15:00","2021","01","07","15:00","8.1","","7.2","","94","","","M","14","","52","","","","100.48","","","","","","NA"
"-131.81","53.25","SANDSPIT AIRPORT AUTO","1057051","2021-01-07 16:00","2021","01","07","16:00","8.0","","6.5","","90","","","M","15","","63","","","","100.38","","","","","","NA"
"-131.81","53.25","SANDSPIT AIRPORT AUTO","1057051","2021-01-07 17:00","2021","01","07","17:00","8.7","","5.6","","81","","","M","14","","68","","","","100.31","","","","","","NA"
"-131.81","53.25","SANDSPIT AIRPORT AUTO","1057051","2021-01-07 18:00","2021","01","07","18:00","8.4","","6.4","","87","","","M","15","","62","","","","100.28","","","","","","NA"
"-131.81","53.25","SANDSPIT AIRPORT AUTO","1057051","2021-01-07 19:00","2021","01","07","19:00","7.9","","6.6","","92","","","M","14","","56","","","","100.19","","","","","","NA"
"-131.81","53.25","SANDSPIT AIRPORT AUTO","1057051","2021-01-07 20:00","2021","01","07","20:00","8.2","","5.7","","84","","","M","14","","54","","","","100.13","","","","","","NA"
"-131.81","53.25","SANDSPIT AIRPORT AUTO","1057051","2021-01-07 21:00","2021","01","07","21:00","8.3","","5.4","","82","","","M","15","","54","","","","100.04","","","","","","NA"
"-131.81","53.25","SANDSPIT AIRPORT AUTO","1057051","2021-01-07 22:00","2021","01","07","22:00","8.3","","4.8","","79","","","M","15","","47","","","","100.00","","","","","","NA"
"-131.81","53.25","SANDSPIT AIRPORT AUTO","1057051","2021-01-07 23:00","2021","01","07","23:00","8.3","","5.2","","81","","","M","14","","44","","","","99.87","","","","","","NA"
"-131.81","53.25","SANDSPIT AIRPORT AUTO","1057051","2021-01-08 00:00","2021","01","08","00:00","8.5","","4.4","","75","","","M","13","","42","","","","99.77","","","","","","NA"
"-131.81","53.25","SANDSPIT AIRPORT AUTO","1057051","2021-01-08 01:00","2021","01","08","01:00","8.1","","4.9","","80","","","M","14","","65","","","","99.57","","","","","","NA"
"-131.81","53.25","SANDSPIT AIRPORT AUTO","1057051","2021-01-08 02:00","2021","01","08","02:00","8.5","","5.0","","79","","","M","14","","46","","","","99.50","","","","","","NA"
"-131.81","53.25","SANDSPIT AIRPORT AUTO","1057051","2021-01-08 03:00","2021","01","08","03:00","9.0","","3.9","","70","","","M","14","","57","","","","99.40","","","","","","NA"
"-131.81","53.25","SANDSPIT AIRPORT AUTO","1057051","2021-01-08 04:00","2021","01","08","04:00","8.1","","4.7","","79","","","M","13","","77","","","","99.16","","","","","","NA"
"-131.81","53.25","SANDSPIT AIRPORT AUTO","1057051","2021-01-08 05:00","2021","01","08","05:00","7.6","","4.6","","82","","","M","13","","88","","","","98.82","","","","","","NA"
"-131.81","53.25","SANDSPIT AIRPORT AUTO","1057051","2021-01-08 06:00","2021","01","08","06:00","7.4","","5.7","","89","","","M","13","","78","","","","98.69","","","","","","NA"
"-131.81","53.25","SANDSPIT AIRPORT AUTO","1057051","2021-01-08 07:00","2021","01","08","07:00","7.4","","4.2","","80","","","M","15","","46","","","","98.93","","","","","","NA"
"-131.81","53.25","SANDSPIT AIRPORT AUTO","1057051","2021-01-08 08:00","2021","01","08","08:00","7.2","","3.9","","80","","","M","17","","23","","","","99.28","","","","","","NA"
"-131.81","53.25","SANDSPIT AIRPORT AUTO","1057051","2021-01-08 09:00","2021","01","08","09:00","7.1","","3.7","","79","","","M","18","","16","","","","99.75","","","","","","NA"
"-131.81","53.25","SANDSPIT AIRPORT AUTO","1057051","2021-01-08 10:00","2021","01","08","10:00","5.4","","2.5","","82","","","M","17","","17","","","","100.34","","","","","","NA"
"-131.81","53.25","SANDSPIT AIRPORT AUTO","1057051","2021-01-08 11:00","2021","01","08","11:00","5.7","","2.7","","81","","","M","17","","16","","","","100.77","","","","","","NA"
"-131.81","53.25","SANDSPIT AIRPORT AUTO","1057051","2021-01-08 12:00","2021","01","08","12:00","4.8","","2.6","","86","","","M","17","","15","","","","101.12","","","","","","NA"
"-131.81","53.25","SANDSPIT AIRPORT AUTO","1057051","2021-01-08 13:00","2021","01","08","13:00","4.2","","2.8","","90","","","M","19","","9","","","","101.36","","","","","","NA"
"-131.81","53.25","SANDSPIT AIRPORT AUTO","1057051","2021-01-08 14:00","2021","01","08","14:00","4.7","","2.8","","88","","","M","20","","6","","","","101.51","","","","","","NA"
"-131.81","53.25","SANDSPIT AIRPORT AUTO","1057051","2021-01-08 15:00","2021","01","08","15:00","4.9","","2.6","","85","","","M","17","","7","","","","101.60","","","","","","NA"
"-131.81","53.25","SANDSPIT AIRPORT AUTO","1057051","2021-01-08 16:00","2021","01","08","16:00","4.2","","2.7","","90","","","M","18","","5","","","","101.70","","","","","","NA"
"-131.81","53.25","SANDSPIT AIRPORT AUTO","1057051","2021-01-08 17:00","2021","01","08","17:00","3.7","","2.3","","91","","","M","20","","6","","","","101.79","","","","","","NA"
"-131.81","53.25","SANDSPIT AIRPORT AUTO","1057051","2021-01-08 18:00","2021","01","08","18:00","3.1","","1.6","","90","","","M","18","","6","","","","101.87","","","","","","NA"
"-131.81","53.25","SANDSPIT AIRPORT AUTO","1057051","2021-01-08 19:00","2021","01","08","19:00","1.7","","0.5","","92","","","M","16","","3","","","","101.96","","","","","","NA"
"-131.81","53.25","SANDSPIT AIRPORT AUTO","1057051","2021-01-08 20:00","2021","01","08","20:00","2.2","","1.2","","93","","","M","28","","2","","","","102.02","","","","","","NA"
"-131.81","53.25","SANDSPIT AIRPORT AUTO","1057051","2021-01-08 21:00","2021","01","08","21:00","2.7","","1.9","","94","","","M","18","","7","","","","101.98","","","","","","NA"
"-131.81","53.25","SANDSPIT AIRPORT AUTO","1057051","2021-01-08 22:00","2021","01","08","22:00","2.6","","1.2","","90","","","M","16","","7","","","","101.94","","","","","","NA"
"-131.81","53.25","SANDSPIT AIRPORT AUTO","1057051","2021-01-08 23:00","2021","01","08","23:00","4.0","","2.6","","91","","","M","17","","6","","","","101.92","","","","","","NA"
"-131.81","53.25","SANDSPIT AIRPORT AUTO","1057051","2021-01-09 00:00","2021","01","09","00:00","5.7","","3.7","","87","","","M","15","","20","","","","101.84","","","","","","NA"
"-131.81","53.25","SANDSPIT AIRPORT AUTO","1057051","2021-01-09 01:00","2021","01","09","01:00","6.9","","5.3","","90","","","M","15","","34","","","","101.75","","","","","","NA"
"-131.81","53.25","SANDSPIT AIRPORT AUTO","1057051","2021-01-09 02:00","2021","01","09","02:00","7.5","","5.7","","88","","","M","14","","43","","","","101.63","","","","","","NA"
"-131.81","53.25","SANDSPIT AIRPORT AUTO","1057051","2021-01-09 03:00","2021","01","09","03:00","7.6","","5.7","","88","","","M","14","","49","","","","101.50","","","","","","NA"
"-131.81","53.25","SANDSPIT AIRPORT AUTO","1057051","2021-01-09 04:00","2021","01","09","04:00","7.7","","5.8","","88","","","M","14","","60","","","","101.33","","","","","","NA"
"-131.81","53.25","SANDSPIT AIRPORT AUTO","1057051","2021-01-09 05:00","2021","01","09","05:00","7.7","","5.7","","87","","","M","14","","67","","","","101.18","","","","","","NA"
"-131.81","53.25","SANDSPIT AIRPORT AUTO","1057051","2021-01-09 06:00","2021","01","09","06:00","7.7","","5.3","","84","","","M","14","","67","","","","101.05","","","","","","NA"
"-131.81","53.25","SANDSPIT AIRPORT AUTO","1057051","2021-01-09 07:00","2021","01","09","07:00","7.6","","4.7","","82","","","M","14","","69","","","","100.89","","","","","","NA"
"-131.81","53.25","SANDSPIT AIRPORT AUTO","1057051","2021-01-09 08:00","2021","01","09","08:00","7.2","","4.5","","83","","","M","14","","77","","","","100.69","","","","","","NA"
"-131.81","53.25","SANDSPIT AIRPORT AUTO","1057051","2021-01-09 09:00","2021","01","09","09:00","6.7","","4.4","","85","","","M","14","","77","","","","100.61","","","","","","NA"
"-131.81","53.25","SANDSPIT AIRPORT AUTO","1057051","2021-01-09 10:00","2021","01","09","10:00","6.2","","4.5","","89","","","M","14","","76","","","","100.49","","","","","","NA"
"-131.81","53.25","SANDSPIT AIRPORT AUTO","1057051","2021-01-09 11:00","2021","01","09","11:00","5.4","","4.4","","93","","","M","14","","82","","","","100.48","","","","","","NA"
"-131.81","53.25","SANDSPIT AIRPORT AUTO","1057051","2021-01-09 12:00","2021","01","09","12:00","5.8","","4.5","","91","","","M","14","","81","","","","100.32","","","","","","NA"
"-131.81","53.25","SANDSPIT AIRPORT AUTO","1057051","2021-01-09 13:00","2021","01","09","13:00","5.9","","5.4","","97","","","M","14","","76","","","","100.21","","","","","","NA"
"-131.81","53.25","SANDSPIT AIRPORT AUTO","1057051","2021-01-09 14:00","2021","01","09","14:00","5.6","","5.2","","97","","","M","14","","81","","","","100.06","","","","","","NA"
"-131.81","53.25","SANDSPIT AIRPORT AUTO","1057051","2021-01-09 15:00","2021","01","09","15:00","5.8","","5.4","","97","","","M","14","","80","","","","99.88","","","","","","NA"
"-131.81","53.25","SANDSPIT AIRPORT AUTO","1057051","2021-01-09 16:00","2021","01","09","16:00","6.0","","5.0","","94","","","M","14","","82","","","","99.71","","","","","","NA"
"-131.81","53.25","SANDSPIT AIRPORT AUTO","1057051","2021-01-09 17:00","2021","01","09","17:00","6.1","","5.3","","95","","","M","14","","79","","","","99.62","","","","","","NA"
"-131.81","53.25","SANDSPIT AIRPORT AUTO","1057051","2021-01-09 18:00","2021","01","09","18:00","6.4","","5.5","","94","","","M","14","","75","","","","99.45","","","","","","NA"
"-131.81","53.25","SANDSPIT AIRPORT AUTO","1057051","2021-01-09 19:00","2021","01","09","19:00","6.8","","6.3","","97","","","M","14","","76","","","","99.37","","","","","","NA"
"-131.81","53.25","SANDSPIT AIRPORT AUTO","1057051","2021-01-09 20:00","2021","01","09","20:00","7.0","","6.0","","93","","","M","14","","76","","","","99.28","","","","","","NA"
"-131.81","53.25","SANDSPIT AIRPORT AUTO","1057051","2021-01-09 21:00","2021","01","09","21:00","7.2","","5.9","","92","","","M","15","","76","","","","99.28","","","","","","NA"
"-131.81","53.25","SANDSPIT AIRPORT AUTO","1057051","2021-01-09 22:00","2021","01","09","22:00","7.5","","6.7","","95","","","M","15","","74","","","","99.20","","","","","","NA"
"-131.81","53.25","SANDSPIT AIRPORT AUTO","1057051","2021-01-09 23:00","2021","01","09","23:00","7.9","","7.0","","94","","","M","15","","54","","","","99.26","","","","","","NA"
"-131.81","53.25","SANDSPIT AIRPORT AUTO","1057051","2021-01-10 00:00","2021","01","10","00:00","7.9","","7.0","","94","","","M","17","","9","","","","99.41","","","","","","NA"
"-131.81","53.25","SANDSPIT AIRPORT AUTO","1057051","2021-01-10 01:00","2021","01","10","01:00","8.0","","6.9","","93","","","M","17","","18","","","","99.49","","","","","","NA"
"-131.81","53.25","SANDSPIT AIRPORT AUTO","1057051","2021-01-10 02:00","2021","01","10","02:00","7.6","","6.6","","93","","","M","18","","10","","","","99.60","","","","","","NA"
"-131.81","53.25","SANDSPIT AIRPORT AUTO","1057051","2021-01-10 03:00","2021","01","10","03:00","7.6","","5.9","","89","","","M","17","","12","","","","99.71","","","","","","NA"
"-131.81","53.25","SANDSPIT AIRPORT AUTO","1057051","2021-01-10 04:00","2021","01","10","04:00","7.2","","6.1","","93","","","M","16","","4","","","","99.85","","","","","","NA"
"-131.81","53.25","SANDSPIT AIRPORT AUTO","1057051","2021-01-10 05:00","2021","01","10","05:00","6.9","","5.7","","92","","","M","18","","7","","","","99.96","","","","","","NA"
"-131.81","53.25","SANDSPIT AIRPORT AUTO","1057051","2021-01-10 06:00","2021","01","10","06:00","5.9","","4.6","","92","","","M","17","","5","","","","100.00","","","","","","NA"
"-131.81","53.25","SANDSPIT AIRPORT AUTO","1057051","2021-01-10 07:00","2021","01","10","07:00","6.6","","5.0","","89","","","M","15","","19","","","","100.02","","","","","","NA"
"-131.81","53.25","SANDSPIT AIRPORT AUTO","1057051","2021-01-10 08:00","2021","01","10","08:00","7.1","","5.3","","88","","","M","15","","24","","","","100.02","","","","","","NA"
"-131.81","53.25","SANDSPIT AIRPORT AUTO","1057051","2021-01-10 09:00","2021","01","10","09:00","7.1","","5.3","","88","","","M","15","","27","","","","100.04","","","","","","NA"
"-131.81","53.25","SANDSPIT AIRPORT AUTO","1057051","2021-01-10 10:00","2021","01","10","10:00","6.8","","5.4","","91","","","M","16","","19","","","","100.07","","","","","","NA"
"-131.81","53.25","SANDSPIT AIRPORT AUTO","1057051","2021-01-10 11:00","2021","01","10","11:00","7.1","","5.1","","87","","","M","16","","37","","","","99.99","","","","","","NA"
"-131.81","53.25","SANDSPIT AIRPORT AUTO","1057051","2021-01-10 12:00","2021","01","10","12:00","7.3","","5.1","","85","","","M","15","","40","","","","99.90","","","","","","NA"
"-131.81","53.25","SANDSPIT AIRPORT AUTO","1057051","2021-01-10 13:00","2021","01","10","13:00","7.4","","5.8","","89","","","M","15","","39","","","","99.82","","","","","","NA"
"-131.81","53.25","SANDSPIT AIRPORT AUTO","1057051","2021-01-10 14:00","2021","01","10","14:00","7.7","","6.4","","91","","","M","15","","42","","","","99.67","","","","","","NA"
"-131.81","53.25","SANDSPIT AIRPORT AUTO","1057051","2021-01-10 15:00","2021","01","10","15:00","7.9","","6.6","","92","","","M","15","","36","","","","99.58","","","","","","NA"
"-131.81","53.25","SANDSPIT AIRPORT AUTO","1057051","2021-01-10 16:00","2021","01","10","16:00","8.0","","6.4","","90","","","M","16","","38","","","","99.51","","","","","","NA"
"-131.81","53.25","SANDSPIT AIRPORT AUTO","1057051","2021-01-10 17:00","2021","01","10","17:00","8.0","","7.2","","94","","","M","15","","42","","","","99.43","","","","","","NA"
"-131.81","53.25","SANDSPIT AIRPORT AUTO","1057051","2021-01-10 18:00","2021","01","10","18:00","8.2","","7.6","","96","","","M","15","","45","","","","99.35","","","","","","NA"
"-131.81","53.25","SANDSPIT AIRPORT AUTO","1057051","2021-01-10 19:00","2021","01","10","19:00","8.4","","7.8","","96","","","M","15","","44","","","","99.24","","","","","","NA"
"-131.81","53.25","SANDSPIT AIRPORT AUTO","1057051","2021-01-10 20:00","2021","01","10","20:00","8.6","","8.0","","96","","","M","16","","34","","","","99.21","","","","","","NA"
"-131.81","53.25","SANDSPIT AIRPORT AUTO","1057051","2021-01-10 21:00","2021","01","10","21:00","7.7","","7.1","","96","","","M","30","","6","","","","99.21","","","","","","NA"
"-131.81","53.25","SANDSPIT AIRPORT AUTO","1057051","2021-01-10 22:00","2021","01","10","22:00","7.5","","7.0","","97","","","M","35","","1","","","","99.25","","","","","","NA"
"-131.81","53.25","SANDSPIT AIRPORT AUTO","1057051","2021-01-10 23:00","2021","01","10","23:00","7.1","","6.6","","96","","","M","13","","2","","","","99.26","","","","","","NA"
"-131.81","53.25","SANDSPIT AIRPORT AUTO","1057051","2021-01-11 00:00","2021","01","11","00:00","6.8","","5.7","","93","","","M","18","","8","","","","99.28","","","","","","NA"
"-131.81","53.25","SANDSPIT AIRPORT AUTO","1057051","2021-01-11 01:00","2021","01","11","01:00","6.3","","5.3","","93","","","M","22","","2","","","","99.33","","","","","","NA"
"-131.81","53.25","SANDSPIT AIRPORT AUTO","1057051","2021-01-11 02:00","2021","01","11","02:00","6.1","","5.3","","94","","","M","15","","6","","","","99.37","","","","","","NA"
"-131.81","53.25","SANDSPIT AIRPORT AUTO","1057051","2021-01-11 03:00","2021","01","11","03:00","6.0","","5.0","","93","","","M","14","","4","","","","99.37","","","","","","NA"
"-131.81","53.25","SANDSPIT AIRPORT AUTO","1057051","2021-01-11 04:00","2021","01","11","04:00","5.3","","4.7","","96","","","M","17","","5","","","","99.36","","","","","","NA"
"-131.81","53.25","SANDSPIT AIRPORT AUTO","1057051","2021-01-11 05:00","2021","01","11","05:00","5.7","","4.5","","92","","","M","22","","6","","","","99.49","","","","","","NA"
"-131.81","53.25","SANDSPIT AIRPORT AUTO","1057051","2021-01-11 06:00","2021","01","11","06:00","4.7","","3.5","","92","","","M","16","","7","","","","99.46","","","","","","NA"
"-131.81","53.25","SANDSPIT AIRPORT AUTO","1057051","2021-01-11 07:00","2021","01","11","07:00","4.8","","3.6","","92","","","M","18","","9","","","","99.60","","","","","","NA"
"-131.81","53.25","SANDSPIT AIRPORT AUTO","1057051","2021-01-11 08:00","2021","01","11","08:00","4.9","","3.2","","89","","","M","18","","6","","","","99.72","","","","","","NA"
"-131.81","53.25","SANDSPIT AIRPORT AUTO","1057051","2021-01-11 09:00","2021","01","11","09:00","4.7","","3.0","","88","","","M","18","","7","","","","99.82","","","","","","NA"
"-131.81","53.25","SANDSPIT AIRPORT AUTO","1057051","2021-01-11 10:00","2021","01","11","10:00","4.7","","2.6","","86","","","M","18","","7","","","","99.97","","","","","","NA"
"-131.81","53.25","SANDSPIT AIRPORT AUTO","1057051","2021-01-11 11:00","2021","01","11","11:00","5.2","","2.9","","85","","","M","18","","7","","","","99.98","","","","","","NA"
"-131.81","53.25","SANDSPIT AIRPORT AUTO","1057051","2021-01-11 12:00","2021","01","11","12:00","5.8","","3.2","","83","","","M","19","","9","","","","99.99","","","","","","NA"
"-131.81","53.25","SANDSPIT AIRPORT AUTO","1057051","2021-01-11 13:00","2021","01","11","13:00","6.2","","3.7","","84","","","M","14","","9","","","","99.96","","","","","","NA"
"-131.81","53.25","SANDSPIT AIRPORT AUTO","1057051","2021-01-11 14:00","2021","01","11","14:00","6.4","","4.7","","89","","","M","16","","17","","","","99.85","","","","","","NA"
"-131.81","53.25","SANDSPIT AIRPORT AUTO","1057051","2021-01-11 15:00","2021","01","11","15:00","7.2","","5.1","","87","","","M","16","","24","","","","99.81","","","","","","NA"
"-131.81","53.25","SANDSPIT AIRPORT AUTO","1057051","2021-01-11 16:00","2021","01","11","16:00","6.8","","5.4","","91","","","M","16","","20","","","","99.71","","","","","","NA"
"-131.81","53.25","SANDSPIT AIRPORT AUTO","1057051","2021-01-11 17:00","2021","01","11","17:00","6.9","","4.8","","86","","","M","16","","33","","","","99.61","","","","","","NA"
"-131.81","53.25","SANDSPIT AIRPORT AUTO","1057051","2021-01-11 18:00","2021","01","11","18:00","7.2","","4.5","","83","","","M","15","","23","","","","99.42","","","","","","NA"
"-131.81","53.25","SANDSPIT AIRPORT AUTO","1057051","2021-01-11 19:00","2021","01","11","19:00","7.8","","5.7","","87","","","M","14","","52","","","","99.10","","","","","","NA"
"-131.81","53.25","SANDSPIT AIRPORT AUTO","1057051","2021-01-11 20:00","2021","01","11","20:00","7.6","","5.9","","89","","","M","14","","70","","","","98.70","","","","","","NA"
"-131.81","53.25","SANDSPIT AIRPORT AUTO","1057051","2021-01-11 21:00","2021","01","11","21:00","7.8","","5.8","","87","","","M","13","","76","","","","98.47","","","","","","NA"
"-131.81","53.25","SANDSPIT AIRPORT AUTO","1057051","2021-01-11 22:00","2021","01","11","22:00","7.7","","6.4","","91","","","M","13","","74","","","","98.20","","","","","","NA"
"-131.81","53.25","SANDSPIT AIRPORT AUTO","1057051","2021-01-11 23:00","2021","01","11","23:00","8.1","","7.7","","98","","","M","14","","78","","","","97.87","","","","","","NA"
"-131.81","53.25","SANDSPIT AIRPORT AUTO","1057051","2021-01-12 00:00","2021","01","12","00:00","8.2","","7.8","","97","","","M","16","","31","","","","97.94","","","","","","NA"
"-131.81","53.25","SANDSPIT AIRPORT AUTO","1057051","2021-01-12 01:00","2021","01","12","01:00","6.6","","3.8","","82","","","M","18","","20","","","","98.05","","","","","","NA"
"-131.81","53.25","SANDSPIT AIRPORT AUTO","1057051","2021-01-12 02:00","2021","01","12","02:00","5.3","","3.0","","85","","","M","17","","15","","","","98.24","","","","","","NA"
"-131.81","53.25","SANDSPIT AIRPORT AUTO","1057051","2021-01-12 03:00","2021","01","12","03:00","5.3","","2.5","","82","","","M","21","","12","","","","98.40","","","","","","NA"
"-131.81","53.25","SANDSPIT AIRPORT AUTO","1057051","2021-01-12 04:00","2021","01","12","04:00","4.5","","2.2","","84","","","M","19","","10","","","","98.57","","","","","","NA"
"-131.81","53.25","SANDSPIT AIRPORT AUTO","1057051","2021-01-12 05:00","2021","01","12","05:00","5.2","","1.1","","75","","","M","19","","8","","","","98.75","","","","","","NA"
"-131.81","53.25","SANDSPIT AIRPORT AUTO","1057051","2021-01-12 06:00","2021","01","12","06:00","3.6","","1.5","","86","","","M","15","","5","","","","98.89","","","","","","NA"
"-131.81","53.25","SANDSPIT AIRPORT AUTO","1057051","2021-01-12 07:00","2021","01","12","07:00","4.4","","1.7","","82","","","M","23","","8","","","","99.03","","","","","","NA"
"-131.81","53.25","SANDSPIT AIRPORT AUTO","1057051","2021-01-12 08:00","2021","01","12","08:00","3.4","","2.0","","91","","","M","17","","13","","","","99.17","","","","","","NA"
"-131.81","53.25","SANDSPIT AIRPORT AUTO","1057051","2021-01-12 09:00","2021","01","12","09:00","3.0","","1.9","","93","","","M","19","","5","","","","99.34","","","","","","NA"
"-131.81","53.25","SANDSPIT AIRPORT AUTO","1057051","2021-01-12 10:00","2021","01","12","10:00","3.4","","1.3","","86","","","M","18","","9","","","","99.44","","","","","","NA"
"-131.81","53.25","SANDSPIT AIRPORT AUTO","1057051","2021-01-12 11:00","2021","01","12","11:00","3.6","","1.9","","88","","","M","17","","9","","","","99.55","","","","","","NA"
"-131.81","53.25","SANDSPIT AIRPORT AUTO","1057051","2021-01-12 12:00","2021","01","12","12:00","4.6","","2.4","","86","","","M","19","","6","","","","99.61","","","","","","NA"
"-131.81","53.25","SANDSPIT AIRPORT AUTO","1057051","2021-01-12 13:00","2021","01","12","13:00","4.2","","2.3","","87","","","M","17","","8","","","","99.68","","","","","","NA"
"-131.81","53.25","SANDSPIT AIRPORT AUTO","1057051","2021-01-12 14:00","2021","01","12","14:00","4.4","","2.2","","85","","","M","17","","11","","","","99.72","","","","","","NA"
"-131.81","53.25","SANDSPIT AIRPORT AUTO","1057051","2021-01-12 15:00","2021","01","12","15:00","4.3","","2.4","","88","","","M","17","","15","","","","99.69","","","","","","NA"
"-131.81","53.25","SANDSPIT AIRPORT AUTO","1057051","2021-01-12 16:00","2021","01","12","16:00","3.9","","2.3","","89","","","M","18","","9","","","","99.71","","","","","","NA"
"-131.81","53.25","SANDSPIT AIRPORT AUTO","1057051","2021-01-12 17:00","2021","01","12","17:00","3.6","","1.7","","87","","","M","18","","9","","","","99.72","","","","","","NA"
"-131.81","53.25","SANDSPIT AIRPORT AUTO","1057051","2021-01-12 18:00","2021","01","12","18:00","3.2","","1.8","","91","","","M","21","","6","","","","99.71","","","","","","NA"
"-131.81","53.25","SANDSPIT AIRPORT AUTO","1057051","2021-01-12 19:00","2021","01","12","19:00","2.8","","1.9","","94","","","M","18","","6","","","","99.66","","","","","","NA"
"-131.81","53.25","SANDSPIT AIRPORT AUTO","1057051","2021-01-12 20:00","2021","01","12","20:00","3.2","","2.0","","92","","","M","20","","7","","","","99.64","","","","","","NA"
"-131.81","53.25","SANDSPIT AIRPORT AUTO","1057051","2021-01-12 21:00","2021","01","12","21:00","3.6","","2.3","","92","","","M","26","","5","","","","99.69","","","","","","NA"
"-131.81","53.25","SANDSPIT AIRPORT AUTO","1057051","2021-01-12 22:00","2021","01","12","22:00","3.5","","1.7","","88","","","M","29","","7","","","","99.74","","","","","","NA"
"-131.81","53.25","SANDSPIT AIRPORT AUTO","1057051","2021-01-12 23:00","2021","01","12","23:00","3.5","","0.2","","79","","","M","18","","13","","","","99.73","","","","","","NA"
"-131.81","53.25","SANDSPIT AIRPORT AUTO","1057051","2021-01-13 00:00","2021","01","13","00:00","3.2","","1.6","","89","","","M","26","","4","","","","99.84","","","","","","NA"
"-131.81","53.25","SANDSPIT AIRPORT AUTO","1057051","2021-01-13 01:00","2021","01","13","01:00","3.3","","1.4","","87","","","M","27","","4","","","","99.96","","","","","","NA"
"-131.81","53.25","SANDSPIT AIRPORT AUTO","1057051","2021-01-13 02:00","2021","01","13","02:00","3.7","","0.8","","82","","","M","22","","3","","","","100.16","","","","","","NA"
"-131.81","53.25","SANDSPIT AIRPORT AUTO","1057051","2021-01-13 03:00","2021","01","13","03:00","2.1","","1.3","","94","","","M","18","","2","","","","100.35","","","","","","NA"
"-131.81","53.25","SANDSPIT AIRPORT AUTO","1057051","2021-01-13 04:00","2021","01","13","04:00","3.2","","0.9","","85","","","M","19","","4","","","","100.48","","","","","","NA"
"-131.81","53.25","SANDSPIT AIRPORT AUTO","1057051","2021-01-13 05:00","2021","01","13","05:00","3.6","","0.7","","82","","","M","20","","7","","","","100.65","","","","","","NA"
"-131.81","53.25","SANDSPIT AIRPORT AUTO","1057051","2021-01-13 06:00","2021","01","13","06:00","2.8","","1.4","","91","","","M","21","","1","","","","100.85","","","","","","NA"
"-131.81","53.25","SANDSPIT AIRPORT AUTO","1057051","2021-01-13 07:00","2021","01","13","07:00","3.1","","1.7","","90","","","M","21","","5","","","","100.98","","","","","","NA"
"-131.81","53.25","SANDSPIT AIRPORT AUTO","1057051","2021-01-13 08:00","2021","01","13","08:00","2.7","","1.4","","91","","","M","18","","7","","","","101.22","","","","","","NA"
"-131.81","53.25","SANDSPIT AIRPORT AUTO","1057051","2021-01-13 09:00","2021","01","13","09:00","2.6","","1.7","","94","","","M","17","","6","","","","101.47","","","","","","NA"
"-131.81","53.25","SANDSPIT AIRPORT AUTO","1057051","2021-01-13 10:00","2021","01","13","10:00","3.0","","1.9","","92","","","M","17","","8","","","","101.62","","","","","","NA"
"-131.81","53.25","SANDSPIT AIRPORT AUTO","1057051","2021-01-13 11:00","2021","01","13","11:00","4.1","","2.6","","90","","","M","18","","4","","","","101.74","","","","","","NA"
"-131.81","53.25","SANDSPIT AIRPORT AUTO","1057051","2021-01-13 12:00","2021","01","13","12:00","4.6","","2.5","","86","","","M","18","","5","","","","101.83","","","","","","NA"
"-131.81","53.25","SANDSPIT AIRPORT AUTO","1057051","2021-01-13 13:00","2021","01","13","13:00","4.5","","1.7","","82","","","M","20","","8","","","","101.93","","","","","","NA"
"-131.81","53.25","SANDSPIT AIRPORT AUTO","1057051","2021-01-13 14:00","2021","01","13","14:00","6.0","","1.6","","74","","","M","19","","7","","","","102.06","","","","","","NA"
"-131.81","53.25","SANDSPIT AIRPORT AUTO","1057051","2021-01-13 15:00","2021","01","13","15:00","4.9","","1.2","","77","","","M","18","","9","","","","102.15","","","","","","NA"
"-131.81","53.25","SANDSPIT AIRPORT AUTO","1057051","2021-01-13 16:00","2021","01","13","16:00","4.2","","2.0","","86","","","M","17","","9","","","","102.16","","","","","","NA"
"-131.81","53.25","SANDSPIT AIRPORT AUTO","1057051","2021-01-13 17:00","2021","01","13","17:00","3.9","","1.9","","86","","","M","18","","7","","","","102.29","","","","","","NA"
"-131.81","53.25","SANDSPIT AIRPORT AUTO","1057051","2021-01-13 18:00","2021","01","13","18:00","2.9","","1.3","","90","","","M","16","","8","","","","102.30","","","","","","NA"
"-131.81","53.25","SANDSPIT AIRPORT AUTO","1057051","2021-01-13 19:00","2021","01","13","19:00","2.7","","1.2","","90","","","M","16","","5","","","","102.30","","","","","","NA"
"-131.81","53.25","SANDSPIT AIRPORT AUTO","1057051","2021-01-13 20:00","2021","01","13","20:00","2.2","","0.9","","91","","","M","17","","4","","","","102.30","","","","","","NA"
"-131.81","53.25","SANDSPIT AIRPORT AUTO","1057051","2021-01-13 21:00","2021","01","13","21:00","3.0","","1.1","","87","","","M","16","","8","","","","102.30","","","","","","NA"
"-131.81","53.25","SANDSPIT AIRPORT AUTO","1057051","2021-01-13 22:00","2021","01","13","22:00","4.6","","1.5","","80","","","M","16","","14","","","","102.25","","","","","","NA"
"-131.81","53.25","SANDSPIT AIRPORT AUTO","1057051","2021-01-13 23:00","2021","01","13","23:00","6.9","","4.1","","82","","","M","14","","34","","","","102.14","","","","","","NA"
"-131.81","53.25","SANDSPIT AIRPORT AUTO","1057051","2021-01-14 00:00","2021","01","14","00:00","7.0","","5.1","","88","","","M","14","","44","","","","102.06","","","","","","NA"
"-131.81","53.25","SANDSPIT AIRPORT AUTO","1057051","2021-01-14 01:00","2021","01","14","01:00","7.2","","6.2","","93","","","M","13","","43","","","","101.92","","","","","","NA"
"-131.81","53.25","SANDSPIT AIRPORT AUTO","1057051","2021-01-14 02:00","2021","01","14","02:00","6.9","","4.6","","85","","","M","15","","58","","","","101.78","","","","","","NA"
"-131.81","53.25","SANDSPIT AIRPORT AUTO","1057051","2021-01-14 03:00","2021","01","14","03:00","6.7","","4.8","","87","","","M","14","","60","","","","101.65","","","","","","NA"
"-131.81","53.25","SANDSPIT AIRPORT AUTO","1057051","2021-01-14 04:00","2021","01","14","04:00","6.5","","4.9","","89","","","M","14","","70","","","","101.46","","","","","","NA"
"-131.81","53.25","SANDSPIT AIRPORT AUTO","1057051","2021-01-14 05:00","2021","01","14","05:00","6.4","","5.6","","94","","","M","14","","63","","","","101.26","","","","","","NA"
"-131.81","53.25","SANDSPIT AIRPORT AUTO","1057051","2021-01-14 06:00","2021","01","14","06:00","6.0","","5.6","","97","","","M","14","","77","","","","101.07","","","","","","NA"
"-131.81","53.25","SANDSPIT AIRPORT AUTO","1057051","2021-01-14 07:00","2021","01","14","07:00","6.3","","5.8","","96","","","M","14","","76","","","","100.95","","","","","","NA"
"-131.81","53.25","SANDSPIT AIRPORT AUTO","1057051","2021-01-14 08:00","2021","01","14","08:00","6.5","","6.1","","98","","","M","14","","80","","","","100.75","","","","","","NA"
"-131.81","53.25","SANDSPIT AIRPORT AUTO","1057051","2021-01-14 09:00","2021","01","14","09:00","6.7","","6.0","","96","","","M","14","","73","","","","100.62","","","","","","NA"
"-131.81","53.25","SANDSPIT AIRPORT AUTO","1057051","2021-01-14 10:00","2021","01","14","10:00","7.2","","6.3","","94","","","M","14","","78","","","","100.51","","","","","","NA"
"-131.81","53.25","SANDSPIT AIRPORT AUTO","1057051","2021-01-14 11:00","2021","01","14","11:00","7.3","","6.2","","93","","","M","14","","78","","","","100.41","","","","","","NA"
"-131.81","53.25","SANDSPIT AIRPORT AUTO","1057051","2021-01-14 12:00","2021","01","14","12:00","7.4","","6.6","","95","","","M","14","","77","","","","100.23","","","","","","NA"
"-131.81","53.25","SANDSPIT AIRPORT AUTO","1057051","2021-01-14 13:00","2021","01","14","13:00","7.5","","7.0","","96","","","M","14","","83","","","","99.96","","","","","","NA"
"-131.81","53.25","SANDSPIT AIRPORT AUTO","1057051","2021-01-14 14:00","2021","01","14","14:00","7.6","","7.4","","98","","","M","14","","78","","","","99.79","","","","","","NA"
"-131.81","53.25","SANDSPIT AIRPORT AUTO","1057051","2021-01-14 15:00","2021","01","14","15:00","7.8","","7.3","","97","","","M","14","","72","","","","99.65","","","","","","NA"
"-131.81","53.25","SANDSPIT AIRPORT AUTO","1057051","2021-01-14 16:00","2021","01","14","16:00","7.5","","7.1","","97","","","M","14","","75","","","","99.33","","","","","","NA"
"-131.81","53.25","SANDSPIT AIRPORT AUTO","1057051","2021-01-14 17:00","2021","01","14","17:00","7.9","","7.6","","98","","","M","14","","73","","","","99.13","","","","","","NA"
"-131.81","53.25","SANDSPIT AIRPORT AUTO","1057051","2021-01-14 18:00","2021","01","14","18:00","8.6","","8.4","","98","","","M","15","","77","","","","98.83","","","","","","NA"
"-131.81","53.25","SANDSPIT AIRPORT AUTO","1057051","2021-01-14 19:00","2021","01","14","19:00","7.0","","6.2","","95","","","M","22","","20","","","","99.05","","","","","","NA"
"-131.81","53.25","SANDSPIT AIRPORT AUTO","1057051","2021-01-14 20:00","2021","01","14","20:00","6.1","","4.0","","86","","","M","17","","10","","","","99.55","","","","","","NA"
"-131.81","53.25","SANDSPIT AIRPORT AUTO","1057051","2021-01-14 21:00","2021","01","14","21:00","6.1","","4.7","","91","","","M","16","","14","","","","99.88","","","","","","NA"
"-131.81","53.25","SANDSPIT AIRPORT AUTO","1057051","2021-01-14 22:00","2021","01","14","22:00","6.4","","5.2","","92","","","M","17","","13","","","","100.07","","","","","","NA"
"-131.81","53.25","SANDSPIT AIRPORT AUTO","1057051","2021-01-14 23:00","2021","01","14","23:00","6.5","","5.4","","93","","","M","19","","7","","","","100.26","","","","","","NA"
"-131.81","53.25","SANDSPIT AIRPORT AUTO","1057051","2021-01-15 00:00","2021","01","15","00:00","6.4","","5.1","","91","","","M","19","","9","","","","100.38","","","","","","NA"
"-131.81","53.25","SANDSPIT AIRPORT AUTO","1057051","2021-01-15 01:00","2021","01","15","01:00","6.4","","4.9","","90","","","M","19","","5","","","","100.50","","","","","","NA"
"-131.81","53.25","SANDSPIT AIRPORT AUTO","1057051","2021-01-15 02:00","2021","01","15","02:00","6.6","","4.8","","88","","","M","18","","8","","","","100.60","","","","","","NA"
"-131.81","53.25","SANDSPIT AIRPORT AUTO","1057051","2021-01-15 03:00","2021","01","15","03:00","6.6","","4.6","","87","","","M","20","","11","","","","100.76","","","","","","NA"
"-131.81","53.25","SANDSPIT AIRPORT AUTO","1057051","2021-01-15 04:00","2021","01","15","04:00","6.8","","4.6","","86","","","M","23","","13","","","","100.92","","","","","","NA"
"-131.81","53.25","SANDSPIT AIRPORT AUTO","1057051","2021-01-15 05:00","2021","01","15","05:00","7.1","","3.9","","80","","","M","21","","13","","","","100.92","","","","","","NA"
"-131.81","53.25","SANDSPIT AIRPORT AUTO","1057051","2021-01-15 06:00","2021","01","15","06:00","6.9","","4.1","","82","","","M","21","","8","","","","101.11","","","","","","NA"
"-131.81","53.25","SANDSPIT AIRPORT AUTO","1057051","2021-01-15 07:00","2021","01","15","07:00","6.7","","3.7","","81","","","M","22","","16","","","","101.15","","","","","","NA"
"-131.81","53.25","SANDSPIT AIRPORT AUTO","1057051","2021-01-15 08:00","2021","01","15","08:00","6.8","","3.5","","80","","","M","21","","12","","","","101.29","","","","","","NA"
"-131.81","53.25","SANDSPIT AIRPORT AUTO","1057051","2021-01-15 09:00","2021","01","15","09:00","7.4","","2.4","","70","","","M","21","","17","","","","101.41","","","","","","NA"
"-131.81","53.25","SANDSPIT AIRPORT AUTO","1057051","2021-01-15 10:00","2021","01","15","10:00","7.5","","2.0","","68","","","M","21","","13","","","","101.57","","","","","","NA"
"-131.81","53.25","SANDSPIT AIRPORT AUTO","1057051","2021-01-15 11:00","2021","01","15","11:00","7.9","","2.1","","67","","","M","19","","8","","","","101.72","","","","","","NA"
"-131.81","53.25","SANDSPIT AIRPORT AUTO","1057051","2021-01-15 12:00","2021","01","15","12:00","6.9","","3.9","","81","","","M","15","","10","","","","101.86","","","","","","NA"
"-131.81","53.25","SANDSPIT AIRPORT AUTO","1057051","2021-01-15 13:00","2021","01","15","13:00","7.1","","4.5","","84","","","M","17","","12","","","","101.97","","","","","","NA"
"-131.81","53.25","SANDSPIT AIRPORT AUTO","1057051","2021-01-15 14:00","2021","01","15","14:00","6.7","","4.5","","86","","","M","17","","7","","","","102.01","","","","","","NA"
"-131.81","53.25","SANDSPIT AIRPORT AUTO","1057051","2021-01-15 15:00","2021","01","15","15:00","6.3","","4.3","","87","","","M","18","","9","","","","102.01","","","","","","NA"
"-131.81","53.25","SANDSPIT AIRPORT AUTO","1057051","2021-01-15 16:00","2021","01","15","16:00","6.1","","4.3","","88","","","M","21","","7","","","","102.09","","","","","","NA"
"-131.81","53.25","SANDSPIT AIRPORT AUTO","1057051","2021-01-15 17:00","2021","01","15","17:00","5.8","","3.7","","87","","","M","17","","9","","","","102.15","","","","","","NA"
"-131.81","53.25","SANDSPIT AIRPORT AUTO","1057051","2021-01-15 18:00","2021","01","15","18:00","5.6","","3.8","","88","","","M","20","","7","","","","102.17","","","","","","NA"
"-131.81","53.25","SANDSPIT AIRPORT AUTO","1057051","2021-01-15 19:00","2021","01","15","19:00","5.3","","3.3","","87","","","M","17","","10","","","","102.20","","","","","","NA"
"-131.81","53.25","SANDSPIT AIRPORT AUTO","1057051","2021-01-15 20:00","2021","01","15","20:00","5.5","","3.3","","86","","","M","18","","6","","","","102.20","","","","","","NA"
"-131.81","53.25","SANDSPIT AIRPORT AUTO","1057051","2021-01-15 21:00","2021","01","15","21:00","5.9","","3.2","","83","","","M","19","","8","","","","102.23","","","","","","NA"
"-131.81","53.25","SANDSPIT AIRPORT AUTO","1057051","2021-01-15 22:00","2021","01","15","22:00","6.2","","3.0","","80","","","M","17","","10","","","","102.20","","","","","","NA"
"-131.81","53.25","SANDSPIT AIRPORT AUTO","1057051","2021-01-15 23:00","2021","01","15","23:00","5.4","","3.4","","87","","","M","17","","7","","","","102.18","","","","","","NA"
"-131.81","53.25","SANDSPIT AIRPORT AUTO","1057051","2021-01-16 00:00","2021","01","16","00:00","5.1","","3.4","","89","","","M","18","","5","","","","102.10","","","","","","NA"
"-131.81","53.25","SANDSPIT AIRPORT AUTO","1057051","2021-01-16 01:00","2021","01","16","01:00","6.5","","4.4","","87","","","M","18","","8","","","","102.08","","","","","","NA"
"-131.81","53.25","SANDSPIT AIRPORT AUTO","1057051","2021-01-16 02:00","2021","01","16","02:00","7.6","","5.5","","87","","","M","15","","28","","","","101.96","","","","","","NA"
"-131.81","53.25","SANDSPIT AIRPORT AUTO","1057051","2021-01-16 03:00","2021","01","16","03:00","7.4","","5.2","","86","","","M","16","","12","","","","101.91","","","","","","NA"
"-131.81","53.25","SANDSPIT AIRPORT AUTO","1057051","2021-01-16 04:00","2021","01","16","04:00","7.8","","5.9","","88","","","M","15","","31","","","","101.79","","","","","","NA"
"-131.81","53.25","SANDSPIT AIRPORT AUTO","1057051","2021-01-16 05:00","2021","01","16","05:00","7.8","","6.1","","89","","","M","15","","29","","","","101.68","","","","","","NA"
"-131.81","53.25","SANDSPIT AIRPORT AUTO","1057051","2021-01-16 06:00","2021","01","16","06:00","7.7","","6.5","","92","","","M","15","","28","","","","101.57","","","","","","NA"
"-131.81","53.25","SANDSPIT AIRPORT AUTO","1057051","2021-01-16 07:00","2021","01","16","07:00","7.6","","5.7","","88","","","M","15","","35","","","","101.44","","","","","","NA"
"-131.81","53.25","SANDSPIT AIRPORT AUTO","1057051","2021-01-16 08:00","2021","01","16","08:00","7.3","","5.9","","91","","","M","15","","42","","","","101.31","","","","","","NA"
"-131.81","53.25","SANDSPIT AIRPORT AUTO","1057051","2021-01-16 09:00","2021","01","16","09:00","7.3","","5.6","","89","","","M","15","","52","","","","101.15","","","","","","NA"
"-131.81","53.25","SANDSPIT AIRPORT AUTO","1057051","2021-01-16 10:00","2021","01","16","10:00","7.8","","6.7","","93","","","M","15","","51","","","","101.06","","","","","","NA"
"-131.81","53.25","SANDSPIT AIRPORT AUTO","1057051","2021-01-16 11:00","2021","01","16","11:00","8.1","","7.0","","93","","","M","15","","62","","","","100.88","","","","","","NA"
"-131.81","53.25","SANDSPIT AIRPORT AUTO","1057051","2021-01-16 12:00","2021","01","16","12:00","8.4","","7.4","","94","","","M","15","","57","","","","100.75","","","","","","NA"
"-131.81","53.25","SANDSPIT AIRPORT AUTO","1057051","2021-01-16 13:00","2021","01","16","13:00","8.7","","7.9","","95","","","M","15","","44","","","","100.66","","","","","","NA"
"-131.81","53.25","SANDSPIT AIRPORT AUTO","1057051","2021-01-16 14:00","2021","01","16","14:00","9.2","","8.3","","94","","","M","15","","21","","","","100.65","","","","","","NA"
"-131.81","53.25","SANDSPIT AIRPORT AUTO","1057051","2021-01-16 15:00","2021","01","16","15:00","8.7","","8.1","","96","","","M","17","","8","","","","100.66","","","","","","NA"
"-131.81","53.25","SANDSPIT AIRPORT AUTO","1057051","2021-01-16 16:00","2021","01","16","16:00","8.0","","7.5","","96","","","M","17","","3","","","","100.75","","","","","","NA"
"-131.81","53.25","SANDSPIT AIRPORT AUTO","1057051","2021-01-16 17:00","2021","01","16","17:00","7.5","","7.1","","97","","","M","16","","4","","","","100.78","","","","","","NA"
"-131.81","53.25","SANDSPIT AIRPORT AUTO","1057051","2021-01-16 18:00","2021","01","16","18:00","7.8","","7.0","","94","","","M","16","","11","","","","100.80","","","","","","NA"
"-131.81","53.25","SANDSPIT AIRPORT AUTO","1057051","2021-01-16 19:00","2021","01","16","19:00","8.0","","7.3","","95","","","M","16","","10","","","","100.82","","","","","","NA"
"-131.81","53.25","SANDSPIT AIRPORT AUTO","1057051","2021-01-16 20:00","2021","01","16","20:00","8.2","","7.5","","95","","","M","18","","5","","","","100.89","","","","","","NA"
"-131.81","53.25","SANDSPIT AIRPORT AUTO","1057051","2021-01-16 21:00","2021","01","16","21:00","7.9","","7.1","","94","","","M","26","","3","","","","100.98","","","","","","NA"
"-131.81","53.25","SANDSPIT AIRPORT AUTO","1057051","2021-01-16 22:00","2021","01","16","22:00","8.0","","6.9","","93","","","M","18","","9","","","","101.03","","","","","","NA"
"-131.81","53.25","SANDSPIT AIRPORT AUTO","1057051","2021-01-16 23:00","2021","01","16","23:00","7.6","","6.6","","94","","","M","18","","6","","","","101.10","","","","","","NA"
"-131.81","53.25","SANDSPIT AIRPORT AUTO","1057051","2021-01-17 00:00","2021","01","17","00:00","7.2","","6.2","","93","","","M","26","","2","","","","101.25","","","","","","NA"
"-131.81","53.25","SANDSPIT AIRPORT AUTO","1057051","2021-01-17 01:00","2021","01","17","01:00","7.1","","5.2","","88","","","M","29","","4","","","","101.33","","","","","","NA"
"-131.81","53.25","SANDSPIT AIRPORT AUTO","1057051","2021-01-17 02:00","2021","01","17","02:00","6.3","","4.8","","90","","","M","20","","6","","","","101.46","","","","","","NA"
"-131.81","53.25","SANDSPIT AIRPORT AUTO","1057051","2021-01-17 03:00","2021","01","17","03:00","6.6","","5.3","","91","","","M","19","","2","","","","101.64","","","","","","NA"
"-131.81","53.25","SANDSPIT AIRPORT AUTO","1057051","2021-01-17 04:00","2021","01","17","04:00","6.6","","5.4","","92","","","M","24","","5","","","","101.75","","","","","","NA"
"-131.81","53.25","SANDSPIT AIRPORT AUTO","1057051","2021-01-17 05:00","2021","01","17","05:00","7.0","","5.7","","91","","","M","21","","5","","","","101.85","","","","","","NA"
"-131.81","53.25","SANDSPIT AIRPORT AUTO","1057051","2021-01-17 06:00","2021","01","17","06:00","7.2","","5.4","","88","","","M","22","","7","","","","101.99","","","","","","NA"
"-131.81","53.25","SANDSPIT AIRPORT AUTO","1057051","2021-01-17 07:00","2021","01","17","07:00","6.7","","4.2","","84","","","M","24","","7","","","","102.11","","","","","","NA"
"-131.81","53.25","SANDSPIT AIRPORT AUTO","1057051","2021-01-17 08:00","2021","01","17","08:00","6.6","","3.2","","79","","","M","24","","8","","","","102.20","","","","","","NA"
"-131.81","53.25","SANDSPIT AIRPORT AUTO","1057051","2021-01-17 09:00","2021","01","17","09:00","6.3","","3.3","","81","","","M","22","","6","","","","102.36","","","","","","NA"
"-131.81","53.25","SANDSPIT AIRPORT AUTO","1057051","2021-01-17 10:00","2021","01","17","10:00","6.7","","3.3","","79","","","M","26","","6","","","","102.51","","","","","","NA"
"-131.81","53.25","SANDSPIT AIRPORT AUTO","1057051","2021-01-17 11:00","2021","01","17","11:00","7.1","","3.1","","75","","","M","28","","6","","","","102.67","","","","","","NA"
"-131.81","53.25","SANDSPIT AIRPORT AUTO","1057051","2021-01-17 12:00","2021","01","17","12:00","7.8","","3.4","","74","","","M","24","","6","","","","102.73","","","","","","NA"
"-131.81","53.25","SANDSPIT AIRPORT AUTO","1057051","2021-01-17 13:00","2021","01","17","13:00","7.5","","3.6","","76","","","M","20","","6","","","","102.81","","","","","","NA"
"-131.81","53.25","SANDSPIT AIRPORT AUTO","1057051","2021-01-17 14:00","2021","01","17","14:00","7.7","","4.2","","79","","","M","19","","7","","","","102.83","","","","","","NA"
"-131.81","53.25","SANDSPIT AIRPORT AUTO","1057051","2021-01-17 15:00","2021","01","17","15:00","7.8","","4.7","","81","","","M","17","","7","","","","102.89","","","","","","NA"
"-131.81","53.25","SANDSPIT AIRPORT AUTO","1057051","2021-01-17 16:00","2021","01","17","16:00","7.8","","5.2","","83","","","M","15","","4","","","","102.93","","","","","","NA"
"-131.81","53.25","SANDSPIT AIRPORT AUTO","1057051","2021-01-17 17:00","2021","01","17","17:00","7.3","","5.4","","87","","","M","17","","7","","","","102.98","","","","","","NA"
"-131.81","53.25","SANDSPIT AIRPORT AUTO","1057051","2021-01-17 18:00","2021","01","17","18:00","6.8","","5.5","","92","","","M","16","","8","","","","103.04","","","","","","NA"
"-131.81","53.25","SANDSPIT AIRPORT AUTO","1057051","2021-01-17 19:00","2021","01","17","19:00","6.3","","5.3","","94","","","M","17","","10","","","","103.07","","","","","","NA"
"-131.81","53.25","SANDSPIT AIRPORT AUTO","1057051","2021-01-17 20:00","2021","01","17","20:00","5.6","","4.8","","94","","","M","13","","4","","","","103.14","","","","","","NA"
"-131.81","53.25","SANDSPIT AIRPORT AUTO","1057051","2021-01-17 21:00","2021","01","17","21:00","6.0","","5.3","","95","","","M","16","","3","","","","103.18","","","","","","NA"
"-131.81","53.25","SANDSPIT AIRPORT AUTO","1057051","2021-01-17 22:00","2021","01","17","22:00","6.2","","5.2","","93","","","M","15","","5","","","","103.24","","","","","","NA"
"-131.81","53.25","SANDSPIT AIRPORT AUTO","1057051","2021-01-17 23:00","2021","01","17","23:00","7.4","","4.7","","83","","","M","19","","4","","","","103.26","","","","","","NA"
"-131.81","53.25","SANDSPIT AIRPORT AUTO","1057051","2021-01-18 00:00","2021","01","18","00:00","6.3","","4.3","","87","","","M","22","","4","","","","103.25","","","","","","NA"
"-131.81","53.25","SANDSPIT AIRPORT AUTO","1057051","2021-01-18 01:00","2021","01","18","01:00","6.6","","5.1","","90","","","M","19","","9","","","","103.28","","","","","","NA"
"-131.81","53.25","SANDSPIT AIRPORT AUTO","1057051","2021-01-18 02:00","2021","01","18","02:00","5.5","","4.8","","95","","","M","14","","4","","","","103.32","","","","","","NA"
"-131.81","53.25","SANDSPIT AIRPORT AUTO","1057051","2021-01-18 03:00","2021","01","18","03:00","4.4","","3.8","","96","","","M","16","","7","","","","103.34","","","","","","NA"
"-131.81","53.25","SANDSPIT AIRPORT AUTO","1057051","2021-01-18 04:00","2021","01","18","04:00","5.6","","5.2","","97","","","M","20","","6","","","","103.35","","","","","","NA"
"-131.81","53.25","SANDSPIT AIRPORT AUTO","1057051","2021-01-18 05:00","2021","01","18","05:00","5.2","","4.7","","97","","","M","22","","3","","","","103.33","","","","","","NA"
"-131.81","53.25","SANDSPIT AIRPORT AUTO","1057051","2021-01-18 06:00","2021","01","18","06:00","5.2","","4.9","","98","","","M","17","","6","","","","103.27","","","","","","NA"
"-131.81","53.25","SANDSPIT AIRPORT AUTO","1057051","2021-01-18 07:00","2021","01","18","07:00","4.7","","3.9","","95","","","M","11","","5","","","","103.20","","","","","","NA"
"-131.81","53.25","SANDSPIT AIRPORT AUTO","1057051","2021-01-18 08:00","2021","01","18","08:00","5.7","","4.9","","94","","","M","17","","9","","","","103.15","","","","","","NA"
"-131.81","53.25","SANDSPIT AIRPORT AUTO","1057051","2021-01-18 09:00","2021","01","18","09:00","6.1","","5.1","","93","","","M","16","","6","","","","103.13","","","","","","NA"
"-131.81","53.25","SANDSPIT AIRPORT AUTO","1057051","2021-01-18 10:00","2021","01","18","10:00","5.9","","4.9","","93","","","M","15","","11","","","","103.16","","","","","","NA"
"-131.81","53.25","SANDSPIT AIRPORT AUTO","1057051","2021-01-18 11:00","2021","01","18","11:00","6.9","","5.8","","93","","","M","15","","13","","","","103.14","","","","","","NA"
"-131.81","53.25","SANDSPIT AIRPORT AUTO","1057051","2021-01-18 12:00","2021","01","18","12:00","7.6","","6.2","","91","","","M","16","","20","","","","103.10","","","","","","NA"
"-131.81","53.25","SANDSPIT AIRPORT AUTO","1057051","2021-01-18 13:00","2021","01","18","13:00","7.6","","6.2","","91","","","M","16","","31","","","","103.00","","","","","","NA"
"-131.81","53.25","SANDSPIT AIRPORT AUTO","1057051","2021-01-18 14:00","2021","01","18","14:00","7.8","","5.8","","88","","","M","14","","17","","","","102.97","","","","","","NA"
"-131.81","53.25","SANDSPIT AIRPORT AUTO","1057051","2021-01-18 15:00","2021","01","18","15:00","7.6","","6.2","","91","","","M","15","","35","","","","102.82","","","","","","NA"
"-131.81","53.25","SANDSPIT AIRPORT AUTO","1057051","2021-01-18 16:00","2021","01","18","16:00","7.7","","6.4","","92","","","M","15","","35","","","","102.67","","","","","","NA"
"-131.81","53.25","SANDSPIT AIRPORT AUTO","1057051","2021-01-18 17:00","2021","01","18","17:00","7.8","","6.6","","92","","","M","15","","43","","","","102.56","","","","","","NA"
"-131.81","53.25","SANDSPIT AIRPORT AUTO","1057051","2021-01-18 18:00","2021","01","18","18:00","7.8","","5.5","","85","","","M","15","","27","","","","102.47","","","","","","NA"
"-131.81","53.25","SANDSPIT AIRPORT AUTO","1057051","2021-01-18 19:00","2021","01","18","19:00","7.9","","5.1","","83","","","M","14","","34","","","","102.28","","","","","","NA"
"-131.81","53.25","SANDSPIT AIRPORT AUTO","1057051","2021-01-18 20:00","2021","01","18","20:00","8.0","","5.2","","83","","","M","16","","31","","","","102.17","","","","","","NA"
"-131.81","53.25","SANDSPIT AIRPORT AUTO","1057051","2021-01-18 21:00","2021","01","18","21:00","8.1","","5.8","","85","","","M","16","","31","","","","102.05","","","","","","NA"
"-131.81","53.25","SANDSPIT AIRPORT AUTO","1057051","2021-01-18 22:00","2021","01","18","22:00","8.1","","6.5","","90","","","M","16","","37","","","","101.93","","","","","","NA"
"-131.81","53.25","SANDSPIT AIRPORT AUTO","1057051","2021-01-18 23:00","2021","01","18","23:00","8.0","","7.2","","95","","","M","16","","35","","","","101.86","","","","","","NA"
"-131.81","53.25","SANDSPIT AIRPORT AUTO","1057051","2021-01-19 00:00","2021","01","19","00:00","8.3","","7.6","","95","","","M","15","","30","","","","101.72","","","","","","NA"
"-131.81","53.25","SANDSPIT AIRPORT AUTO","1057051","2021-01-19 01:00","2021","01","19","01:00","8.6","","7.9","","95","","","M","17","","16","","","","101.64","","","","","","NA"
"-131.81","53.25","SANDSPIT AIRPORT AUTO","1057051","2021-01-19 02:00","2021","01","19","02:00","9.3","","8.2","","93","","","M","17","","8","","","","101.58","","","","","","NA"
"-131.81","53.25","SANDSPIT AIRPORT AUTO","1057051","2021-01-19 03:00","2021","01","19","03:00","8.9","","7.9","","94","","","M","23","","3","","","","101.61","","","","","","NA"
"-131.81","53.25","SANDSPIT AIRPORT AUTO","1057051","2021-01-19 04:00","2021","01","19","04:00","7.5","","5.7","","89","","","M","24","","8","","","","101.69","","","","","","NA"
"-131.81","53.25","SANDSPIT AIRPORT AUTO","1057051","2021-01-19 05:00","2021","01","19","05:00","5.9","","4.1","","88","","","M","25","","8","","","","101.77","","","","","","NA"
"-131.81","53.25","SANDSPIT AIRPORT AUTO","1057051","2021-01-19 06:00","2021","01","19","06:00","4.8","","2.6","","86","","","M","23","","5","","","","101.87","","","","","","NA"
"-131.81","53.25","SANDSPIT AIRPORT AUTO","1057051","2021-01-19 07:00","2021","01","19","07:00","4.5","","2.8","","89","","","M","30","","3","","","","101.94","","","","","","NA"
"-131.81","53.25","SANDSPIT AIRPORT AUTO","1057051","2021-01-19 08:00","2021","01","19","08:00","4.7","","2.6","","86","","","M","26","","3","","","","102.04","","","","","","NA"
"-131.81","53.25","SANDSPIT AIRPORT AUTO","1057051","2021-01-19 09:00","2021","01","19","09:00","3.3","","1.9","","91","","","M","19","","2","","","","102.16","","","","","","NA"
"-131.81","53.25","SANDSPIT AIRPORT AUTO","1057051","2021-01-19 10:00","2021","01","19","10:00","4.1","","1.8","","85","","","M","23","","3","","","","102.28","","","","","","NA"
"-131.81","53.25","SANDSPIT AIRPORT AUTO","1057051","2021-01-19 11:00","2021","01","19","11:00","5.3","","1.6","","77","","","M","26","","4","","","","102.41","","","","","","NA"
"-131.81","53.25","SANDSPIT AIRPORT AUTO","1057051","2021-01-19 12:00","2021","01","19","12:00","4.8","","1.2","","78","","","M","24","","2","","","","102.46","","","","","","NA"
"-131.81","53.25","SANDSPIT AIRPORT AUTO","1057051","2021-01-19 13:00","2021","01","19","13:00","5.9","","3.5","","84","","","M","22","","1","","","","102.49","","","","","","NA"
"-131.81","53.25","SANDSPIT AIRPORT AUTO","1057051","2021-01-19 14:00","2021","01","19","14:00","5.1","","1.8","","79","","","M","29","","3","","","","102.51","","","","","","NA"
"-131.81","53.25","SANDSPIT AIRPORT AUTO","1057051","2021-01-19 15:00","2021","01","19","15:00","5.0","","2.7","","85","","","M","20","","3","","","","102.55","","","","","","NA"
"-131.81","53.25","SANDSPIT AIRPORT AUTO","1057051","2021-01-19 16:00","2021","01","19","16:00","4.6","","1.4","","80","","","M","24","","4","","","","102.61","","","","","","NA"
"-131.81","53.25","SANDSPIT AIRPORT AUTO","1057051","2021-01-19 17:00","2021","01","19","17:00","4.1","","1.2","","81","","","M","22","","5","","","","102.61","","","","","","NA"
"-131.81","53.25","SANDSPIT AIRPORT AUTO","1057051","2021-01-19 18:00","2021","01","19","18:00","4.0","","1.8","","86","","","M","25","","3","","","","102.65","","","","","","NA"
"-131.81","53.25","SANDSPIT AIRPORT AUTO","1057051","2021-01-19 19:00","2021","01","19","19:00","4.0","","0.9","","80","","","M","24","","7","","","","102.65","","","","","","NA"
"-131.81","53.25","SANDSPIT AIRPORT AUTO","1057051","2021-01-19 20:00","2021","01","19","20:00","3.6","","1.4","","85","","","M","24","","3","","","","102.66","","","","","","NA"
"-131.81","53.25","SANDSPIT AIRPORT AUTO","1057051","2021-01-19 21:00","2021","01","19","21:00","3.5","","1.0","","84","","","M","0","","1","","","","102.67","","","","","","NA"
"-131.81","53.25","SANDSPIT AIRPORT AUTO","1057051","2021-01-19 22:00","2021","01","19","22:00","3.8","","0.9","","81","","","M","31","","2","","","","102.69","","","","","","NA"
"-131.81","53.25","SANDSPIT AIRPORT AUTO","1057051","2021-01-19 23:00","2021","01","19","23:00","3.5","","0.9","","83","","","M","25","","2","","","","102.68","","","","","","NA"
"-131.81","53.25","SANDSPIT AIRPORT AUTO","1057051","2021-01-20 00:00","2021","01","20","00:00","3.4","","1.0","","84","","","M","23","","4","","","","102.67","","","","","","NA"
"-131.81","53.25","SANDSPIT AIRPORT AUTO","1057051","2021-01-20 01:00","2021","01","20","01:00","3.7","","1.7","","87","","","M","24","","3","","","","102.64","","","","","","NA"
"-131.81","53.25","SANDSPIT AIRPORT AUTO","1057051","2021-01-20 02:00","2021","01","20","02:00","3.6","","2.1","","90","","","M","26","","4","","","","102.65","","","","","","NA"
"-131.81","53.25","SANDSPIT AIRPORT AUTO","1057051","2021-01-20 03:00","2021","01","20","03:00","3.2","","1.4","","88","","","M","27","","3","","","","102.62","","","","","","NA"
"-131.81","53.25","SANDSPIT AIRPORT AUTO","1057051","2021-01-20 04:00","2021","01","20","04:00","3.4","","1.7","","89","","","M","23","","3","","","","102.62","","","","","","NA"
"-131.81","53.25","SANDSPIT AIRPORT AUTO","1057051","2021-01-20 05:00","2021","01","20","05:00","3.7","","1.5","","85","","","M","26","","3","","","","102.58","","","","","","NA"
"-131.81","53.25","SANDSPIT AIRPORT AUTO","1057051","2021-01-20 06:00","2021","01","20","06:00","3.3","","1.5","","88","","","M","26","","2","","","","102.56","","","","","","NA"
"-131.81","53.25","SANDSPIT AIRPORT AUTO","1057051","2021-01-20 07:00","2021","01","20","07:00","3.5","","1.4","","86","","","M","25","","4","","","","102.51","","","","","","NA"
"-131.81","53.25","SANDSPIT AIRPORT AUTO","1057051","2021-01-20 08:00","2021","01","20","08:00","3.5","","1.2","","85","","","M","25","","3","","","","102.48","","","","","","NA"
"-131.81","53.25","SANDSPIT AIRPORT AUTO","1057051","2021-01-20 09:00","2021","01","20","09:00","3.6","","1.1","","84","","","M","25","","4","","","","102.47","","","","","","NA"
"-131.81","53.25","SANDSPIT AIRPORT AUTO","1057051","2021-01-20 10:00","2021","01","20","10:00","3.9","","0.8","","80","","","M","26","","3","","","","102.47","","","","","","NA"
"-131.81","53.25","SANDSPIT AIRPORT AUTO","1057051","2021-01-20 11:00","2021","01","20","11:00","4.1","","1.1","","81","","","M","26","","4","","","","102.47","","","","","","NA"
"-131.81","53.25","SANDSPIT AIRPORT AUTO","1057051","2021-01-20 12:00","2021","01","20","12:00","4.7","","1.7","","81","","","M","27","","4","","","","102.44","","","","","","NA"
"-131.81","53.25","SANDSPIT AIRPORT AUTO","1057051","2021-01-20 13:00","2021","01","20","13:00","4.8","","1.4","","78","","","M","29","","3","","","","102.40","","","","","","NA"
"-131.81","53.25","SANDSPIT AIRPORT AUTO","1057051","2021-01-20 14:00","2021","01","20","14:00","5.1","","0.6","","72","","","M","33","","12","","","","102.35","","","","","","NA"
"-131.81","53.25","SANDSPIT AIRPORT AUTO","1057051","2021-01-20 15:00","2021","01","20","15:00","5.0","","1.2","","76","","","M","33","","14","","","","102.33","","","","","","NA"
"-131.81","53.25","SANDSPIT AIRPORT AUTO","1057051","2021-01-20 16:00","2021","01","20","16:00","4.9","","1.7","","80","","","M","33","","11","","","","102.31","","","","","","NA"
"-131.81","53.25","SANDSPIT AIRPORT AUTO","1057051","2021-01-20 17:00","2021","01","20","17:00","4.6","","1.8","","82","","","M","33","","13","","","","102.30","","","","","","NA"
"-131.81","53.25","SANDSPIT AIRPORT AUTO","1057051","2021-01-20 18:00","2021","01","20","18:00","4.2","","1.5","","83","","","M","32","","12","","","","102.30","","","","","","NA"
"-131.81","53.25","SANDSPIT AIRPORT AUTO","1057051","2021-01-20 19:00","2021","01","20","19:00","4.1","","1.7","","84","","","M","33","","13","","","","102.31","","","","","","NA"
"-131.81","53.25","SANDSPIT AIRPORT AUTO","1057051","2021-01-20 20:00","2021","01","20","20:00","4.1","","1.6","","84","","","M","33","","13","","","","102.32","","","","","","NA"
"-131.81","53.25","SANDSPIT AIRPORT AUTO","1057051","2021-01-20 21:00","2021","01","20","21:00","3.8","","1.2","","83","","","M","33","","12","","","","102.33","","","","","","NA"
"-131.81","53.25","SANDSPIT AIRPORT AUTO","1057051","2021-01-20 22:00","2021","01","20","22:00","3.6","","0.2","","78","","","M","32","","13","","","","102.35","","","","","","NA"
"-131.81","53.25","SANDSPIT AIRPORT AUTO","1057051","2021-01-20 23:00","2021","01","20","23:00","3.6","","-0.5","","74","","","M","32","","12","","","","102.37","","","","","","NA"
"-131.81","53.25","SANDSPIT AIRPORT AUTO","1057051","2021-01-21 00:00","2021","01","21","00:00","3.6","","-0.4","","75","","","M","32","","12","","","","102.38","","","","","","NA"
"-131.81","53.25","SANDSPIT AIRPORT AUTO","1057051","2021-01-21 01:00","2021","01","21","01:00","3.4","","0.2","","79","","","M","32","","12","","","","102.39","","","","","","NA"
"-131.81","53.25","SANDSPIT AIRPORT AUTO","1057051","2021-01-21 02:00","2021","01","21","02:00","3.2","","0.4","","82","","","M","33","","12","","","","102.40","","","","","","NA"
"-131.81","53.25","SANDSPIT AIRPORT AUTO","1057051","2021-01-21 03:00","2021","01","21","03:00","3.2","","0.2","","81","","","M","32","","12","","","","102.41","","","","","","NA"
"-131.81","53.25","SANDSPIT AIRPORT AUTO","1057051","2021-01-21 04:00","2021","01","21","04:00","3.3","","0.0","","79","","","M","32","","13","","","","102.42","","","","","","NA"
"-131.81","53.25","SANDSPIT AIRPORT AUTO","1057051","2021-01-21 05:00","2021","01","21","05:00","3.4","","0.2","","79","","","M","33","","14","","","","102.41","","","","","","NA"
"-131.81","53.25","SANDSPIT AIRPORT AUTO","1057051","2021-01-21 06:00","2021","01","21","06:00","3.5","","0.5","","81","","","M","33","","16","","","","102.40","","","","","","NA"
"-131.81","53.25","SANDSPIT AIRPORT AUTO","1057051","2021-01-21 07:00","2021","01","21","07:00","3.7","","0.6","","81","","","M","34","","19","","","","102.41","","","","","","NA"
"-131.81","53.25","SANDSPIT AIRPORT AUTO","1057051","2021-01-21 08:00","2021","01","21","08:00","3.2","","0.7","","83","","","M","33","","13","","","","102.44","","","","","","NA"
"-131.81","53.25","SANDSPIT AIRPORT AUTO","1057051","2021-01-21 09:00","2021","01","21","09:00","3.2","","0.4","","82","","","M","32","","10","","","","102.44","","","","","","NA"
"-131.81","53.25","SANDSPIT AIRPORT AUTO","1057051","2021-01-21 10:00","2021","01","21","10:00","3.7","","0.7","","81","","","M","33","","13","","","","102.45","","","","","","NA"
"-131.81","53.25","SANDSPIT AIRPORT AUTO","1057051","2021-01-21 11:00","2021","01","21","11:00","4.1","","1.1","","81","","","M","33","","12","","","","102.46","","","","","","NA"
"-131.81","53.25","SANDSPIT AIRPORT AUTO","1057051","2021-01-21 12:00","2021","01","21","12:00","4.5","","1.4","","80","","","M","33","","15","","","","102.45","","","","","","NA"
"-131.81","53.25","SANDSPIT AIRPORT AUTO","1057051","2021-01-21 13:00","2021","01","21","13:00","4.7","","1.9","","82","","","M","33","","15","","","","102.44","","","","","","NA"
"-131.81","53.25","SANDSPIT AIRPORT AUTO","1057051","2021-01-21 14:00","2021","01","21","14:00","5.1","","2.0","","81","","","M","34","","19","","","","102.40","","","","","","NA"
"-131.81","53.25","SANDSPIT AIRPORT AUTO","1057051","2021-01-21 15:00","2021","01","21","15:00","5.4","","2.5","","81","","","M","34","","17","","","","102.40","","","","","","NA"
"-131.81","53.25","SANDSPIT AIRPORT AUTO","1057051","2021-01-21 16:00","2021","01","21","16:00","5.6","","2.6","","81","","","M","34","","17","","","","102.36","","","","","","NA"
"-131.81","53.25","SANDSPIT AIRPORT AUTO","1057051","2021-01-21 17:00","2021","01","21","17:00","5.2","","2.8","","85","","","M","33","","16","","","","102.37","","","","","","NA"
"-131.81","53.25","SANDSPIT AIRPORT AUTO","1057051","2021-01-21 18:00","2021","01","21","18:00","5.3","","2.9","","84","","","M","34","","24","","","","102.36","","","","","","NA"
"-131.81","53.25","SANDSPIT AIRPORT AUTO","1057051","2021-01-21 19:00","2021","01","21","19:00","5.3","","1.6","","77","","","M","32","","18","","","","102.37","","","","","","NA"
"-131.81","53.25","SANDSPIT AIRPORT AUTO","1057051","2021-01-21 20:00","2021","01","21","20:00","4.9","","2.7","","86","","","M","34","","21","","","","102.39","","","","","","NA"
"-131.81","53.25","SANDSPIT AIRPORT AUTO","1057051","2021-01-21 21:00","2021","01","21","21:00","4.8","","2.1","","83","","","M","33","","17","","","","102.39","","","","","","NA"
"-131.81","53.25","SANDSPIT AIRPORT AUTO","1057051","2021-01-21 22:00","2021","01","21","22:00","4.1","","2.6","","90","","","M","33","","15","","","","102.41","","","","","","NA"
"-131.81","53.25","SANDSPIT AIRPORT AUTO","1057051","2021-01-21 23:00","2021","01","21","23:00","4.5","","2.4","","86","","","M","33","","13","","","","102.42","","","","","","NA"
"-131.81","53.25","SANDSPIT AIRPORT AUTO","1057051","2021-01-22 00:00","2021","01","22","00:00","4.7","","2.0","","83","","","M","33","","17","","","","102.41","","","","","","NA"
"-131.81","53.25","SANDSPIT AIRPORT AUTO","1057051","2021-01-22 01:00","2021","01","22","01:00","4.5","","1.7","","82","","","M","33","","16","","","","102.41","","","","","","NA"
"-131.81","53.25","SANDSPIT AIRPORT AUTO","1057051","2021-01-22 02:00","2021","01","22","02:00","4.3","","1.7","","83","","","M","33","","13","","","","102.43","","","","","","NA"
"-131.81","53.25","SANDSPIT AIRPORT AUTO","1057051","2021-01-22 03:00","2021","01","22","03:00","4.5","","1.2","","79","","","M","33","","19","","","","102.43","","","","","","NA"
"-131.81","53.25","SANDSPIT AIRPORT AUTO","1057051","2021-01-22 04:00","2021","01","22","04:00","4.5","","0.8","","77","","","M","33","","19","","","","102.42","","","","","","NA"
"-131.81","53.25","SANDSPIT AIRPORT AUTO","1057051","2021-01-22 05:00","2021","01","22","05:00","4.5","","1.4","","80","","","M","34","","21","","","","102.40","","","","","","NA"
"-131.81","53.25","SANDSPIT AIRPORT AUTO","1057051","2021-01-22 06:00","2021","01","22","06:00","4.5","","1.1","","79","","","M","33","","16","","","","102.38","","","","","","NA"
"-131.81","53.25","SANDSPIT AIRPORT AUTO","1057051","2021-01-22 07:00","2021","01","22","07:00","4.5","","0.9","","77","","","M","33","","19","","","","102.39","","","","","","NA"
"-131.81","53.25","SANDSPIT AIRPORT AUTO","1057051","2021-01-22 08:00","2021","01","22","08:00","4.6","","0.6","","75","","","M","33","","17","","","","102.40","","","","","","NA"
"-131.81","53.25","SANDSPIT AIRPORT AUTO","1057051","2021-01-22 09:00","2021","01","22","09:00","4.5","","0.7","","76","","","M","33","","11","","","","102.42","","","","","","NA"
"-131.81","53.25","SANDSPIT AIRPORT AUTO","1057051","2021-01-22 10:00","2021","01","22","10:00","4.0","","1.3","","83","","","M","31","","4","","","","102.44","","","","","","NA"
"-131.81","53.25","SANDSPIT AIRPORT AUTO","1057051","2021-01-22 11:00","2021","01","22","11:00","4.6","","0.7","","76","","","M","32","","5","","","","102.43","","","","","","NA"
"-131.81","53.25","SANDSPIT AIRPORT AUTO","1057051","2021-01-22 12:00","2021","01","22","12:00","5.4","","1.2","","74","","","M","33","","12","","","","102.41","","","","","","NA"
"-131.81","53.25","SANDSPIT AIRPORT AUTO","1057051","2021-01-22 13:00","2021","01","22","13:00","5.5","","0.7","","71","","","M","33","","17","","","","102.37","","","","","","NA"
"-131.81","53.25","SANDSPIT AIRPORT AUTO","1057051","2021-01-22 14:00","2021","01","22","14:00","5.6","","0.8","","71","","","M","34","","26","","","","102.33","","","","","","NA"
"-131.81","53.25","SANDSPIT AIRPORT AUTO","1057051","2021-01-22 15:00","2021","01","22","15:00","5.8","","0.9","","71","","","M","34","","21","","","","102.32","","","","","","NA"
"-131.81","53.25","SANDSPIT AIRPORT AUTO","1057051","2021-01-22 16:00","2021","01","22","16:00","5.7","","1.4","","74","","","M","34","","18","","","","102.34","","","","","","NA"
"-131.81","53.25","SANDSPIT AIRPORT AUTO","1057051","2021-01-22 17:00","2021","01","22","17:00","5.0","","1.1","","76","","","M","33","","16","","","","102.35","","","","","","NA"
"-131.81","53.25","SANDSPIT AIRPORT AUTO","1057051","2021-01-22 18:00","2021","01","22","18:00","4.3","","1.5","","82","","","M","33","","12","","","","102.34","","","","","","NA"
"-131.81","53.25","SANDSPIT AIRPORT AUTO","1057051","2021-01-22 19:00","2021","01","22","19:00","3.8","","1.3","","84","","","M","33","","12","","","","102.32","","","","","","NA"
"-131.81","53.25","SANDSPIT AIRPORT AUTO","1057051","2021-01-22 20:00","2021","01","22","20:00","3.4","","1.5","","87","","","M","33","","10","","","","102.32","","","","","","NA"
"-131.81","53.25","SANDSPIT AIRPORT AUTO","1057051","2021-01-22 21:00","2021","01","22","21:00","3.2","","1.5","","88","","","M","33","","10","","","","102.32","","","","","","NA"
"-131.81","53.25","SANDSPIT AIRPORT AUTO","1057051","2021-01-22 22:00","2021","01","22","22:00","2.5","","1.2","","91","","","M","32","","7","","","","102.33","","","","","","NA"
"-131.81","53.25","SANDSPIT AIRPORT AUTO","1057051","2021-01-22 23:00","2021","01","22","23:00","1.6","","0.8","","94","","","M","28","","2","","","","102.27","","","","","","NA"
"-131.81","53.25","SANDSPIT AIRPORT AUTO","1057051","2021-01-23 00:00","2021","01","23","00:00","2.0","","1.5","","96","","","M","26","","4","","","","102.23","","","","","","NA"
"-131.81","53.25","SANDSPIT AIRPORT AUTO","1057051","2021-01-23 01:00","2021","01","23","01:00","2.5","","1.9","","96","","","M","25","","3","","","","102.20","","","","","","NA"
"-131.81","53.25","SANDSPIT AIRPORT AUTO","1057051","2021-01-23 02:00","2021","01","23","02:00","2.3","","1.7","","95","","","M","28","","2","","","","102.19","","","","","","NA"
"-131.81","53.25","SANDSPIT AIRPORT AUTO","1057051","2021-01-23 03:00","2021","01","23","03:00","1.8","","1.2","","96","","","M","28","","4","","","","102.18","","","","","","NA"
"-131.81","53.25","SANDSPIT AIRPORT AUTO","1057051","2021-01-23 04:00","2021","01","23","04:00","1.5","","0.7","","95","","","M","27","","6","","","","102.09","","","","","","NA"
"-131.81","53.25","SANDSPIT AIRPORT AUTO","1057051","2021-01-23 05:00","2021","01","23","05:00","1.0","","0.3","","95","","","M","27","","6","","","","102.02","","","","","","NA"
"-131.81","53.25","SANDSPIT AIRPORT AUTO","1057051","2021-01-23 06:00","2021","01","23","06:00","0.4","","-0.2","","96","","","M","22","","6","","","","101.93","","","","","","NA"
"-131.81","53.25","SANDSPIT AIRPORT AUTO","1057051","2021-01-23 07:00","2021","01","23","07:00","-1.1","","-1.9","","95","","","M","31","","2","","","","101.87","","","","-2","","NA"
"-131.81","53.25","SANDSPIT AIRPORT AUTO","1057051","2021-01-23 08:00","2021","01","23","08:00","-0.2","","-0.6","","97","","","M","16","","7","","","","101.75","","","","-3","","NA"
"-131.81","53.25","SANDSPIT AIRPORT AUTO","1057051","2021-01-23 09:00","2021","01","23","09:00","0.7","","-0.1","","95","","","M","17","","10","","","","101.64","","","","","","NA"
"-131.81","53.25","SANDSPIT AIRPORT AUTO","1057051","2021-01-23 10:00","2021","01","23","10:00","1.2","","0.1","","93","","","M","17","","9","","","","101.58","","","","","","NA"
"-131.81","53.25","SANDSPIT AIRPORT AUTO","1057051","2021-01-23 11:00","2021","01","23","11:00","2.0","","0.8","","92","","","M","16","","8","","","","101.45","","","","","","NA"
"-131.81","53.25","SANDSPIT AIRPORT AUTO","1057051","2021-01-23 12:00","2021","01","23","12:00","2.1","","1.2","","94","","","M","16","","11","","","","101.32","","","","","","NA"
"-131.81","53.25","SANDSPIT AIRPORT AUTO","1057051","2021-01-23 13:00","2021","01","23","13:00","2.6","","1.8","","94","","","M","19","","3","","","","101.16","","","","","","NA"
"-131.81","53.25","SANDSPIT AIRPORT AUTO","1057051","2021-01-23 14:00","2021","01","23","14:00","3.1","","2.4","","95","","","M","16","","12","","","","100.97","","","","","","NA"
"-131.81","53.25","SANDSPIT AIRPORT AUTO","1057051","2021-01-23 15:00","2021","01","23","15:00","3.2","","2.3","","94","","","M","17","","6","","","","100.85","","","","","","NA"
"-131.81","53.25","SANDSPIT AIRPORT AUTO","1057051","2021-01-23 16:00","2021","01","23","16:00","4.2","","3.3","","94","","","M","17","","12","","","","100.70","","","","","","NA"
"-131.81","53.25","SANDSPIT AIRPORT AUTO","1057051","2021-01-23 17:00","2021","01","23","17:00","4.8","","4.0","","94","","","M","17","","15","","","","100.57","","","","","","NA"
"-131.81","53.25","SANDSPIT AIRPORT AUTO","1057051","2021-01-23 18:00","2021","01","23","18:00","4.4","","3.7","","95","","","M","24","","4","","","","100.52","","","","","","NA"
"-131.81","53.25","SANDSPIT AIRPORT AUTO","1057051","2021-01-23 19:00","2021","01","23","19:00","3.9","","3.3","","96","","","M","28","","6","","","","100.51","","","","","","NA"
"-131.81","53.25","SANDSPIT AIRPORT AUTO","1057051","2021-01-23 20:00","2021","01","23","20:00","4.5","","3.8","","96","","","M","31","","3","","","","100.49","","","","","","NA"
"-131.81","53.25","SANDSPIT AIRPORT AUTO","1057051","2021-01-23 21:00","2021","01","23","21:00","4.9","","3.8","","93","","","M","31","","4","","","","100.53","","","","","","NA"
"-131.81","53.25","SANDSPIT AIRPORT AUTO","1057051","2021-01-23 22:00","2021","01","23","22:00","4.9","","3.8","","93","","","M","29","","4","","","","100.56","","","","","","NA"
"-131.81","53.25","SANDSPIT AIRPORT AUTO","1057051","2021-01-23 23:00","2021","01","23","23:00","4.8","","3.0","","88","","","M","35","","4","","","","100.58","","","","","","NA"
"-131.81","53.25","SANDSPIT AIRPORT AUTO","1057051","2021-01-24 00:00","2021","01","24","00:00","4.6","","2.7","","87","","","M","29","","5","","","","100.60","","","","","","NA"
"-131.81","53.25","SANDSPIT AIRPORT AUTO","1057051","2021-01-24 01:00","2021","01","24","01:00","4.5","","1.6","","81","","","M","15","","4","","","","100.61","","","","","","NA"
"-131.81","53.25","SANDSPIT AIRPORT AUTO","1057051","2021-01-24 02:00","2021","01","24","02:00","4.3","","1.5","","82","","","M","25","","4","","","","100.64","","","","","","NA"
"-131.81","53.25","SANDSPIT AIRPORT AUTO","1057051","2021-01-24 03:00","2021","01","24","03:00","4.3","","1.2","","80","","","M","29","","5","","","","100.66","","","","","","NA"
"-131.81","53.25","SANDSPIT AIRPORT AUTO","1057051","2021-01-24 04:00","2021","01","24","04:00","3.5","","1.2","","85","","","M","29","","6","","","","100.68","","","","","","NA"
"-131.81","53.25","SANDSPIT AIRPORT AUTO","1057051","2021-01-24 05:00","2021","01","24","05:00","3.6","","1.0","","83","","","M","28","","5","","","","100.66","","","","","","NA"
"-131.81","53.25","SANDSPIT AIRPORT AUTO","1057051","2021-01-24 06:00","2021","01","24","06:00","3.3","","0.9","","85","","","M","32","","4","","","","100.66","","","","","","NA"
"-131.81","53.25","SANDSPIT AIRPORT AUTO","1057051","2021-01-24 07:00","2021","01","24","07:00","3.3","","0.8","","84","","","M","32","","3","","","","100.64","","","","","","NA"
"-131.81","53.25","SANDSPIT AIRPORT AUTO","1057051","2021-01-24 08:00","2021","01","24","08:00","3.2","","0.9","","84","","","M","25","","4","","","","100.63","","","","","","NA"
"-131.81","53.25","SANDSPIT AIRPORT AUTO","1057051","2021-01-24 09:00","2021","01","24","09:00","2.9","","0.7","","85","","","M","22","","5","","","","100.63","","","","","","NA"
"-131.81","53.25","SANDSPIT AIRPORT AUTO","1057051","2021-01-24 10:00","2021","01","24","10:00","3.7","","0.5","","79","","","M","21","","3","","","","100.65","","","","","","NA"
"-131.81","53.25","SANDSPIT AIRPORT AUTO","1057051","2021-01-24 11:00","2021","01","24","11:00","4.3","","1.0","","79","","","M","24","","4","","","","100.67","","","","","","NA"
"-131.81","53.25","SANDSPIT AIRPORT AUTO","1057051","2021-01-24 12:00","2021","01","24","12:00","4.9","","0.5","","73","","","M","25","","3","","","","100.67","","","","","","NA"
"-131.81","53.25","SANDSPIT AIRPORT AUTO","1057051","2021-01-24 13:00","2021","01","24","13:00","5.1","","1.1","","75","","","M","26","","3","","","","100.66","","","","","","NA"
"-131.81","53.25","SANDSPIT AIRPORT AUTO","1057051","2021-01-24 14:00","2021","01","24","14:00","5.2","","1.0","","74","","","M","29","","4","","","","100.64","","","","","","NA"
"-131.81","53.25","SANDSPIT AIRPORT AUTO","1057051","2021-01-24 15:00","2021","01","24","15:00","5.6","","0.8","","72","","","M","27","","4","","","","100.65","","","","","","NA"
"-131.81","53.25","SANDSPIT AIRPORT AUTO","1057051","2021-01-24 16:00","2021","01","24","16:00","4.8","","1.1","","77","","","M","23","","1","","","","100.68","","","","","","NA"
"-131.81","53.25","SANDSPIT AIRPORT AUTO","1057051","2021-01-24 17:00","2021","01","24","17:00","3.7","","1.0","","83","","","M","25","","2","","","","100.70","","","","","","NA"
"-131.81","53.25","SANDSPIT AIRPORT AUTO","1057051","2021-01-24 18:00","2021","01","24","18:00","3.4","","1.1","","85","","","M","25","","3","","","","100.73","","","","","","NA"
"-131.81","53.25","SANDSPIT AIRPORT AUTO","1057051","2021-01-24 19:00","2021","01","24","19:00","2.7","","0.9","","88","","","M","23","","2","","","","100.74","","","","","","NA"
"-131.81","53.25","SANDSPIT AIRPORT AUTO","1057051","2021-01-24 20:00","2021","01","24","20:00","2.1","","0.5","","89","","","M","25","","3","","","","100.76","","","","","","NA"
"-131.81","53.25","SANDSPIT AIRPORT AUTO","1057051","2021-01-24 21:00","2021","01","24","21:00","1.8","","0.2","","89","","","M","22","","3","","","","100.77","","","","","","NA"
"-131.81","53.25","SANDSPIT AIRPORT AUTO","1057051","2021-01-24 22:00","2021","01","24","22:00","1.9","","0.3","","89","","","M","26","","4","","","","100.80","","","","","","NA"
"-131.81","53.25","SANDSPIT AIRPORT AUTO","1057051","2021-01-24 23:00","2021","01","24","23:00","1.9","","0.1","","88","","","M","24","","4","","","","100.83","","","","","","NA"
"-131.81","53.25","SANDSPIT AIRPORT AUTO","1057051","2021-01-25 00:00","2021","01","25","00:00","1.7","","0.3","","90","","","M","24","","4","","","","100.87","","","","","","NA"
"-131.81","53.25","SANDSPIT AIRPORT AUTO","1057051","2021-01-25 01:00","2021","01","25","01:00","1.5","","0.1","","90","","","M","25","","4","","","","100.89","","","","","","NA"
"-131.81","53.25","SANDSPIT AIRPORT AUTO","1057051","2021-01-25 02:00","2021","01","25","02:00","1.4","","0.2","","91","","","M","24","","4","","","","100.90","","","","","","NA"
"-131.81","53.25","SANDSPIT AIRPORT AUTO","1057051","2021-01-25 03:00","2021","01","25","03:00","1.5","","0.2","","91","","","M","24","","5","","","","100.96","","","","","","NA"
"-131.81","53.25","SANDSPIT AIRPORT AUTO","1057051","2021-01-25 04:00","2021","01","25","04:00","1.4","","0.2","","92","","","M","25","","4","","","","101.01","","","","","","NA"
"-131.81","53.25","SANDSPIT AIRPORT AUTO","1057051","2021-01-25 05:00","2021","01","25","05:00","1.4","","0.4","","93","","","M","24","","3","","","","101.02","","","","","","NA"
"-131.81","53.25","SANDSPIT AIRPORT AUTO","1057051","2021-01-25 06:00","2021","01","25","06:00","1.4","","0.5","","94","","","M","23","","2","","","","101.05","","","","","","NA"
"-131.81","53.25","SANDSPIT AIRPORT AUTO","1057051","2021-01-25 07:00","2021","01","25","07:00","1.4","","0.2","","92","","","M","25","","3","","","","101.09","","","","","","NA"
"-131.81","53.25","SANDSPIT AIRPORT AUTO","1057051","2021-01-25 08:00","2021","01","25","08:00","1.5","","0.1","","90","","","M","25","","3","","","","101.11","","","","","","NA"
"-131.81","53.25","SANDSPIT AIRPORT AUTO","1057051","2021-01-25 09:00","2021","01","25","09:00","2.2","","-0.2","","84","","","M","24","","4","","","","101.11","","","","","","NA"
"-131.81","53.25","SANDSPIT AIRPORT AUTO","1057051","2021-01-25 10:00","2021","01","25","10:00","2.5","","-0.2","","82","","","M","26","","1","","","","101.10","","","","","","NA"
"-131.81","53.25","SANDSPIT AIRPORT AUTO","1057051","2021-01-25 11:00","2021","01","25","11:00","2.4","","-0.4","","82","","","M","25","","2","","","","101.09","","","","","","NA"
"-131.81","53.25","SANDSPIT AIRPORT AUTO","1057051","2021-01-25 12:00","2021","01","25","12:00","3.7","","-0.1","","76","","","M","29","","3","","","","101.04","","","","","","NA"
"-131.81","53.25","SANDSPIT AIRPORT AUTO","1057051","2021-01-25 13:00","2021","01","25","13:00","4.1","","-0.9","","70","","","M","30","","4","","","","100.97","","","","","","NA"
"-131.81","53.25","SANDSPIT AIRPORT AUTO","1057051","2021-01-25 14:00","2021","01","25","14:00","4.3","","-1.0","","68","","","M","7","","4","","","","100.87","","","","","","NA"
"-131.81","53.25","SANDSPIT AIRPORT AUTO","1057051","2021-01-25 15:00","2021","01","25","15:00","4.4","","-0.5","","70","","","M","11","","7","","","","100.80","","","","","","NA"
"-131.81","53.25","SANDSPIT AIRPORT AUTO","1057051","2021-01-25 16:00","2021","01","25","16:00","3.6","","-0.3","","75","","","M","12","","9","","","","100.72","","","","","","NA"
"-131.81","53.25","SANDSPIT AIRPORT AUTO","1057051","2021-01-25 17:00","2021","01","25","17:00","2.8","","-0.4","","80","","","M","13","","14","","","","100.61","","","","","","NA"
"-131.81","53.25","SANDSPIT AIRPORT AUTO","1057051","2021-01-25 18:00","2021","01","25","18:00","2.7","","-0.3","","81","","","M","17","","11","","","","100.53","","","","","","NA"
"-131.81","53.25","SANDSPIT AIRPORT AUTO","1057051","2021-01-25 19:00","2021","01","25","19:00","2.0","","-0.8","","82","","","M","17","","8","","","","100.42","","","","","","NA"
"-131.81","53.25","SANDSPIT AIRPORT AUTO","1057051","2021-01-25 20:00","2021","01","25","20:00","1.3","","-0.3","","89","","","M","21","","2","","","","100.33","","","","","","NA"
"-131.81","53.25","SANDSPIT AIRPORT AUTO","1057051","2021-01-25 21:00","2021","01","25","21:00","2.0","","0.5","","90","","","M","18","","6","","","","100.24","","","","","","NA"
"-131.81","53.25","SANDSPIT AIRPORT AUTO","1057051","2021-01-25 22:00","2021","01","25","22:00","1.9","","0.6","","91","","","M","19","","7","","","","100.17","","","","","","NA"
"-131.81","53.25","SANDSPIT AIRPORT AUTO","1057051","2021-01-25 23:00","2021","01","25","23:00","3.6","","0.7","","81","","","M","14","","23","","","","100.10","","","","","","NA"
"-131.81","53.25","SANDSPIT AIRPORT AUTO","1057051","2021-01-26 00:00","2021","01","26","00:00","3.1","","1.3","","88","","","M","12","","30","","","","100.07","","","","","","NA"
"-131.81","53.25","SANDSPIT AIRPORT AUTO","1057051","2021-01-26 01:00","2021","01","26","01:00","3.5","","1.1","","84","","","M","12","","30","","","","100.02","","","","","","NA"
"-131.81","53.25","SANDSPIT AIRPORT AUTO","1057051","2021-01-26 02:00","2021","01","26","02:00","2.7","","1.4","","91","","","M","11","","31","","","","100.02","","","","","","NA"
"-131.81","53.25","SANDSPIT AIRPORT AUTO","1057051","2021-01-26 03:00","2021","01","26","03:00","4.1","","-0.4","","72","","","M","12","","38","","","","99.98","","","","","","NA"
"-131.81","53.25","SANDSPIT AIRPORT AUTO","1057051","2021-01-26 04:00","2021","01","26","04:00","3.7","","1.0","","82","","","M","11","","40","","","","99.99","","","","","","NA"
"-131.81","53.25","SANDSPIT AIRPORT AUTO","1057051","2021-01-26 05:00","2021","01","26","05:00","3.4","","0.3","","80","","","M","10","","36","","","","100.01","","","","","","NA"
"-131.81","53.25","SANDSPIT AIRPORT AUTO","1057051","2021-01-26 06:00","2021","01","26","06:00","3.1","","-0.1","","80","","","M","10","","30","","","","100.05","","","","","","NA"
"-131.81","53.25","SANDSPIT AIRPORT AUTO","1057051","2021-01-26 07:00","2021","01","26","07:00","2.6","","0.9","","88","","","M","10","","20","","","","100.07","","","","","","NA"
"-131.81","53.25","SANDSPIT AIRPORT AUTO","1057051","2021-01-26 08:00","2021","01","26","08:00","3.2","","0.1","","80","","","M","7","","23","","","","100.09","","","","","","NA"
"-131.81","53.25","SANDSPIT AIRPORT AUTO","1057051","2021-01-26 09:00","2021","01","26","09:00","3.4","","-0.3","","77","","","M","7","","25","","","","100.13","","","","","","NA"
"-131.81","53.25","SANDSPIT AIRPORT AUTO","1057051","2021-01-26 10:00","2021","01","26","10:00","3.8","","-0.6","","73","","","M","6","","15","","","","100.16","","","","","","NA"
"-131.81","53.25","SANDSPIT AIRPORT AUTO","1057051","2021-01-26 11:00","2021","01","26","11:00","3.5","","-0.5","","75","","","M","3","","20","","","","100.20","","","","","","NA"
"-131.81","53.25","SANDSPIT AIRPORT AUTO","1057051","2021-01-26 12:00","2021","01","26","12:00","3.4","","-1.7","","69","","","M","2","","17","","","","100.22","","","","","","NA"
"-131.81","53.25","SANDSPIT AIRPORT AUTO","1057051","2021-01-26 13:00","2021","01","26","13:00","3.9","","-0.7","","72","","","M","35","","17","","","","100.21","","","","","","NA"
"-131.81","53.25","SANDSPIT AIRPORT AUTO","1057051","2021-01-26 14:00","2021","01","26","14:00","3.4","","-0.6","","75","","","M","33","","15","","","","100.19","","","","","","NA"
"-131.81","53.25","SANDSPIT AIRPORT AUTO","1057051","2021-01-26 15:00","2021","01","26","15:00","3.4","","-2.3","","66","","","M","36","","18","","","","100.18","","","","","","NA"
"-131.81","53.25","SANDSPIT AIRPORT AUTO","1057051","2021-01-26 16:00","2021","01","26","16:00","3.1","","-2.4","","67","","","M","36","","19","","","","100.18","","","","","","NA"
"-131.81","53.25","SANDSPIT AIRPORT AUTO","1057051","2021-01-26 17:00","2021","01","26","17:00","2.7","","-2.0","","72","","","M","36","","25","","","","100.17","","","","","","NA"
"-131.81","53.25","SANDSPIT AIRPORT AUTO","1057051","2021-01-26 18:00","2021","01","26","18:00","1.9","","-1.8","","77","","","M","33","","18","","","","100.19","","","","","","NA"
"-131.81","53.25","SANDSPIT AIRPORT AUTO","1057051","2021-01-26 19:00","2021","01","26","19:00","1.4","","-2.3","","76","","","M","33","","16","","","","100.21","","","","","","NA"
"-131.81","53.25","SANDSPIT AIRPORT AUTO","1057051","2021-01-26 20:00","2021","01","26","20:00","1.1","","-2.8","","75","","","M","33","","18","","","","100.22","","","","","","NA"
"-131.81","53.25","SANDSPIT AIRPORT AUTO","1057051","2021-01-26 21:00","2021","01","26","21:00","0.9","","-2.8","","76","","","M","33","","18","","","","100.21","","","","","","NA"
"-131.81","53.25","SANDSPIT AIRPORT AUTO","1057051","2021-01-26 22:00","2021","01","26","22:00","1.0","","-3.0","","74","","","M","32","","16","","","","100.21","","","","","","NA"
"-131.81","53.25","SANDSPIT AIRPORT AUTO","1057051","2021-01-26 23:00","2021","01","26","23:00","1.0","","-3.2","","74","","","M","33","","15","","","","100.21","","","","","","NA"
"-131.81","53.25","SANDSPIT AIRPORT AUTO","1057051","2021-01-27 00:00","2021","01","27","00:00","0.8","","-3.2","","75","","","M","33","","14","","","","100.20","","","","","","NA"
"-131.81","53.25","SANDSPIT AIRPORT AUTO","1057051","2021-01-27 01:00","2021","01","27","01:00","0.8","","-3.5","","73","","","M","33","","14","","","","100.19","","","","","","NA"
"-131.81","53.25","SANDSPIT AIRPORT AUTO","1057051","2021-01-27 02:00","2021","01","27","02:00","0.8","","-3.7","","72","","","M","33","","16","","","","100.17","","","","","","NA"
"-131.81","53.25","SANDSPIT AIRPORT AUTO","1057051","2021-01-27 03:00","2021","01","27","03:00","1.1","","-4.0","","69","","","M","33","","18","","","","100.19","","","","","","NA"
"-131.81","53.25","SANDSPIT AIRPORT AUTO","1057051","2021-01-27 04:00","2021","01","27","04:00","1.2","","-4.3","","67","","","M","32","","17","","","","100.16","","","","","","NA"
"-131.81","53.25","SANDSPIT AIRPORT AUTO","1057051","2021-01-27 05:00","2021","01","27","05:00","0.9","","-5.7","","61","","","M","32","","14","","","","100.17","","","","","","NA"
"-131.81","53.25","SANDSPIT AIRPORT AUTO","1057051","2021-01-27 06:00","2021","01","27","06:00","1.1","","-4.6","","66","","","M","33","","14","","","","100.16","","","","","","NA"
"-131.81","53.25","SANDSPIT AIRPORT AUTO","1057051","2021-01-27 07:00","2021","01","27","07:00","1.0","","-4.8","","65","","","M","33","","12","","","","100.15","","","","","","NA"
"-131.81","53.25","SANDSPIT AIRPORT AUTO","1057051","2021-01-27 08:00","2021","01","27","08:00","1.0","","-4.8","","65","","","M","34","","15","","","","100.11","","","","","","NA"
"-131.81","53.25","SANDSPIT AIRPORT AUTO","1057051","2021-01-27 09:00","2021","01","27","09:00","0.6","","-5.9","","62","","","M","34","","11","","","","100.09","","","","","","NA"
"-131.81","53.25","SANDSPIT AIRPORT AUTO","1057051","2021-01-27 10:00","2021","01","27","10:00","0.9","","-5.0","","65","","","M","32","","8","","","","100.10","","","","","","NA"
"-131.81","53.25","SANDSPIT AIRPORT AUTO","1057051","2021-01-27 11:00","2021","01","27","11:00","1.3","","-5.5","","61","","","M","32","","10","","","","100.13","","","","","","NA"
"-131.81","53.25","SANDSPIT AIRPORT AUTO","1057051","2021-01-27 12:00","2021","01","27","12:00","1.5","","-5.8","","58","","","M","33","","15","","","","100.14","","","","","","NA"
"-131.81","53.25","SANDSPIT AIRPORT AUTO","1057051","2021-01-27 13:00","2021","01","27","13:00","1.7","","-5.9","","57","","","M","33","","15","","","","100.15","","","","","","NA"
"-131.81","53.25","SANDSPIT AIRPORT AUTO","1057051","2021-01-27 14:00","2021","01","27","14:00","2.0","","-5.7","","57","","","M","34","","17","","","","100.17","","","","","","NA"
"-131.81","53.25","SANDSPIT AIRPORT AUTO","1057051","2021-01-27 15:00","2021","01","27","15:00","2.1","","-4.5","","62","","","M","33","","15","","","","100.21","","","","","","NA"
"-131.81","53.25","SANDSPIT AIRPORT AUTO","1057051","2021-01-27 16:00","2021","01","27","16:00","1.8","","-3.0","","70","","","M","33","","15","","","","100.26","","","","","","NA"
"-131.81","53.25","SANDSPIT AIRPORT AUTO","1057051","2021-01-27 17:00","2021","01","27","17:00","2.2","","-3.7","","65","","","M","33","","19","","","","100.32","","","","","","NA"
"-131.81","53.25","SANDSPIT AIRPORT AUTO","1057051","2021-01-27 18:00","2021","01","27","18:00","2.2","","-2.5","","71","","","M","33","","14","","","","100.38","","","","","","NA"
"-131.81","53.25","SANDSPIT AIRPORT AUTO","1057051","2021-01-27 19:00","2021","01","27","19:00","1.9","","-2.6","","72","","","M","33","","16","","","","100.43","","","","","","NA"
"-131.81","53.25","SANDSPIT AIRPORT AUTO","1057051","2021-01-27 20:00","2021","01","27","20:00","1.7","","-2.5","","74","","","M","33","","14","","","","100.49","","","","","","NA"
"-131.81","53.25","SANDSPIT AIRPORT AUTO","1057051","2021-01-27 21:00","2021","01","27","21:00","1.8","","-2.5","","73","","","M","33","","14","","","","100.56","","","","","","NA"
"-131.81","53.25","SANDSPIT AIRPORT AUTO","1057051","2021-01-27 22:00","2021","01","27","22:00","1.4","","-2.5","","75","","","M","33","","16","","","","100.63","","","","","","NA"
"-131.81","53.25","SANDSPIT AIRPORT AUTO","1057051","2021-01-27 23:00","2021","01","27","23:00","1.6","","-2.0","","77","","","M","34","","19","","","","100.68","","","","","","NA"
"-131.81","53.25","SANDSPIT AIRPORT AUTO","1057051","2021-01-28 00:00","2021","01","28","00:00","1.6","","-2.1","","77","","","M","33","","19","","","","100.72","","","","","","NA"
"-131.81","53.25","SANDSPIT AIRPORT AUTO","1057051","2021-01-28 01:00","2021","01","28","01:00","1.9","","-1.6","","78","","","M","33","","18","","","","100.73","","","","","","NA"
"-131.81","53.25","SANDSPIT AIRPORT AUTO","1057051","2021-01-28 02:00","2021","01","28","02:00","1.8","","-2.0","","76","","","M","34","","20","","","","100.85","","","","","","NA"
"-131.81","53.25","SANDSPIT AIRPORT AUTO","1057051","2021-01-28 03:00","2021","01","28","03:00","1.3","","-3.4","","71","","","M","33","","21","","","","100.93","","","","","","NA"
"-131.81","53.25","SANDSPIT AIRPORT AUTO","1057051","2021-01-28 04:00","2021","01","28","04:00","0.6","","-4.2","","70","","","M","33","","16","","","","100.94","","","","","","NA"
"-131.81","53.25","SANDSPIT AIRPORT AUTO","1057051","2021-01-28 05:00","2021","01","28","05:00","0.8","","-3.4","","74","","","M","32","","13","","","","100.96","","","","","","NA"
"-131.81","53.25","SANDSPIT AIRPORT AUTO","1057051","2021-01-28 06:00","2021","01","28","06:00","0.4","","-4.1","","72","","","M","32","","13","","","","100.96","","","","","","NA"
"-131.81","53.25","SANDSPIT AIRPORT AUTO","1057051","2021-01-28 07:00","2021","01","28","07:00","0.3","","-4.1","","72","","","M","32","","11","","","","100.97","","","","","","NA"
"-131.81","53.25","SANDSPIT AIRPORT AUTO","1057051","2021-01-28 08:00","2021","01","28","08:00","0.1","","-4.6","","71","","","M","32","","12","","","","100.97","","","","","","NA"
"-131.81","53.25","SANDSPIT AIRPORT AUTO","1057051","2021-01-28 09:00","2021","01","28","09:00","0.3","","-4.1","","72","","","M","32","","12","","","","101.00","","","","","","NA"
"-131.81","53.25","SANDSPIT AIRPORT AUTO","1057051","2021-01-28 10:00","2021","01","28","10:00","0.9","","-3.8","","71","","","M","32","","10","","","","101.00","","","","","","NA"
"-131.81","53.25","SANDSPIT AIRPORT AUTO","1057051","2021-01-28 11:00","2021","01","28","11:00","1.4","","-4.0","","68","","","M","32","","9","","","","101.00","","","","","","NA"
"-131.81","53.25","SANDSPIT AIRPORT AUTO","1057051","2021-01-28 12:00","2021","01","28","12:00","1.5","","-3.9","","67","","","M","33","","10","","","","101.00","","","","","","NA"
"-131.81","53.25","SANDSPIT AIRPORT AUTO","1057051","2021-01-28 13:00","2021","01","28","13:00","1.9","","-4.0","","65","","","M","33","","7","","","","100.94","","","","","","NA"
"-131.81","53.25","SANDSPIT AIRPORT AUTO","1057051","2021-01-28 14:00","2021","01","28","14:00","2.0","","-4.6","","62","","","M","35","","7","","","","100.93","","","","","","NA"
"-131.81","53.25","SANDSPIT AIRPORT AUTO","1057051","2021-01-28 15:00","2021","01","28","15:00","2.1","","-4.4","","62","","","M","7","","4","","","","100.90","","","","","","NA"
"-131.81","53.25","SANDSPIT AIRPORT AUTO","1057051","2021-01-28 16:00","2021","01","28","16:00","1.7","","-4.1","","65","","","M","8","","7","","","","100.85","","","","","","NA"
"-131.81","53.25","SANDSPIT AIRPORT AUTO","1057051","2021-01-28 17:00","2021","01","28","17:00","0.6","","-3.7","","73","","","M","17","","2","","","","100.85","","","","","","NA"
"-131.81","53.25","SANDSPIT AIRPORT AUTO","1057051","2021-01-28 18:00","2021","01","28","18:00","0.1","","-3.6","","76","","","M","18","","6","","","","100.79","","","","","","NA"
"-131.81","53.25","SANDSPIT AIRPORT AUTO","1057051","2021-01-28 19:00","2021","01","28","19:00","0.6","","-3.3","","75","","","M","18","","8","","","","100.69","","","","","","NA"
"-131.81","53.25","SANDSPIT AIRPORT AUTO","1057051","2021-01-28 20:00","2021","01","28","20:00","0.7","","-3.2","","75","","","M","18","","12","","","","100.65","","","","","","NA"
"-131.81","53.25","SANDSPIT AIRPORT AUTO","1057051","2021-01-28 21:00","2021","01","28","21:00","0.9","","-3.0","","75","","","M","18","","12","","","","100.62","","","","","","NA"
"-131.81","53.25","SANDSPIT AIRPORT AUTO","1057051","2021-01-28 22:00","2021","01","28","22:00","-0.3","","-3.9","","77","","","M","18","","5","","","","100.58","","","","-2","","NA"
"-131.81","53.25","SANDSPIT AIRPORT AUTO","1057051","2021-01-28 23:00","2021","01","28","23:00","-0.2","","-3.0","","81","","","M","16","","10","","","","100.51","","","","-4","","NA"
"-131.81","53.25","SANDSPIT AIRPORT AUTO","1057051","2021-01-29 00:00","2021","01","29","00:00","-0.8","","-4.1","","79","","","M","17","","7","","","","100.45","","","","-3","","NA"
"-131.81","53.25","SANDSPIT AIRPORT AUTO","1057051","2021-01-29 01:00","2021","01","29","01:00","0.6","","-2.3","","80","","","M","21","","4","","","","100.37","","","","","","NA"
"-131.81","53.25","SANDSPIT AIRPORT AUTO","1057051","2021-01-29 02:00","2021","01","29","02:00","2.4","","-1.5","","75","","","M","16","","14","","","","100.30","","","","","","NA"
"-131.81","53.25","SANDSPIT AIRPORT AUTO","1057051","2021-01-29 03:00","2021","01","29","03:00","2.9","","-1.8","","71","","","M","16","","23","","","","100.21","","","","","","NA"
"-131.81","53.25","SANDSPIT AIRPORT AUTO","1057051","2021-01-29 04:00","2021","01","29","04:00","2.4","","-1.9","","74","","","M","16","","17","","","","100.10","","","","","","NA"
"-131.81","53.25","SANDSPIT AIRPORT AUTO","1057051","2021-01-29 05:00","2021","01","29","05:00","2.4","","-1.7","","74","","","M","18","","9","","","","99.99","","","","","","NA"
"-131.81","53.25","SANDSPIT AIRPORT AUTO","1057051","2021-01-29 06:00","2021","01","29","06:00","3.9","","1.4","","83","","","M","14","","35","","","","99.82","","","","","","NA"
"-131.81","53.25","SANDSPIT AIRPORT AUTO","1057051","2021-01-29 07:00","2021","01","29","07:00","3.6","","0.7","","81","","","M","17","","14","","","","99.75","","","","","","NA"
"-131.81","53.25","SANDSPIT AIRPORT AUTO","1057051","2021-01-29 08:00","2021","01","29","08:00","3.4","","1.1","","85","","","M","17","","10","","","","99.70","","","","","","NA"
"-131.81","53.25","SANDSPIT AIRPORT AUTO","1057051","2021-01-29 09:00","2021","01","29","09:00","3.4","","-0.1","","78","","","M","16","","23","","","","99.65","","","","","","NA"
"-131.81","53.25","SANDSPIT AIRPORT AUTO","1057051","2021-01-29 10:00","2021","01","29","10:00","3.5","","1.5","","87","","","M","15","","39","","","","99.57","","","","","","NA"
"-131.81","53.25","SANDSPIT AIRPORT AUTO","1057051","2021-01-29 11:00","2021","01","29","11:00","4.1","","0.9","","80","","","M","15","","44","","","","99.51","","","","","","NA"
"-131.81","53.25","SANDSPIT AIRPORT AUTO","1057051","2021-01-29 12:00","2021","01","29","12:00","4.4","","1.8","","83","","","M","15","","47","","","","99.43","","","","","","NA"
"-131.81","53.25","SANDSPIT AIRPORT AUTO","1057051","2021-01-29 13:00","2021","01","29","13:00","4.7","","1.9","","82","","","M","15","","39","","","","99.35","","","","","","NA"
"-131.81","53.25","SANDSPIT AIRPORT AUTO","1057051","2021-01-29 14:00","2021","01","29","14:00","5.3","","3.3","","87","","","M","15","","36","","","","99.27","","","","","","NA"
"-131.81","53.25","SANDSPIT AIRPORT AUTO","1057051","2021-01-29 15:00","2021","01","29","15:00","5.2","","3.4","","88","","","M","15","","35","","","","99.21","","","","","","NA"
"-131.81","53.25","SANDSPIT AIRPORT AUTO","1057051","2021-01-29 16:00","2021","01","29","16:00","5.3","","3.3","","86","","","M","15","","37","","","","99.15","","","","","","NA"
"-131.81","53.25","SANDSPIT AIRPORT AUTO","1057051","2021-01-29 17:00","2021","01","29","17:00","5.3","","3.6","","89","","","M","15","","41","","","","99.09","","","","","","NA"
"-131.81","53.25","SANDSPIT AIRPORT AUTO","1057051","2021-01-29 18:00","2021","01","29","18:00","5.0","","3.2","","88","","","M","14","","54","","","","99.01","","","","","","NA"
"-131.81","53.25","SANDSPIT AIRPORT AUTO","1057051","2021-01-29 19:00","2021","01","29","19:00","4.8","","3.7","","93","","","M","12","","46","","","","98.93","","","","","","NA"
"-131.81","53.25","SANDSPIT AIRPORT AUTO","1057051","2021-01-29 20:00","2021","01","29","20:00","4.6","","3.8","","95","","","M","12","","52","","","","98.77","","","","","","NA"
"-131.81","53.25","SANDSPIT AIRPORT AUTO","1057051","2021-01-29 21:00","2021","01","29","21:00","5.3","","3.7","","89","","","M","14","","37","","","","98.71","","","","","","NA"
"-131.81","53.25","SANDSPIT AIRPORT AUTO","1057051","2021-01-29 22:00","2021","01","29","22:00","2.5","","1.3","","92","","","M","25","","12","","","","98.79","","","","","","NA"
"-131.81","53.25","SANDSPIT AIRPORT AUTO","1057051","2021-01-29 23:00","2021","01","29","23:00","2.6","","0.9","","88","","","M","24","","13","","","","99.00","","","","","","NA"
"-131.81","53.25","SANDSPIT AIRPORT AUTO","1057051","2021-01-30 00:00","2021","01","30","00:00","2.8","","0.9","","87","","","M","22","","9","","","","99.34","","","","","","NA"
"-131.81","53.25","SANDSPIT AIRPORT AUTO","1057051","2021-01-30 01:00","2021","01","30","01:00","2.4","","0.7","","89","","","M","16","","11","","","","99.55","","","","","","NA"
"-131.81","53.25","SANDSPIT AIRPORT AUTO","1057051","2021-01-30 02:00","2021","01","30","02:00","2.2","","0.8","","91","","","M","18","","10","","","","99.66","","","","","","NA"
"-131.81","53.25","SANDSPIT AIRPORT AUTO","1057051","2021-01-30 03:00","2021","01","30","03:00","2.1","","0.7","","90","","","M","20","","6","","","","99.80","","","","","","NA"
"-131.81","53.25","SANDSPIT AIRPORT AUTO","1057051","2021-01-30 04:00","2021","01","30","04:00","2.4","","0.9","","90","","","M","22","","5","","","","99.86","","","","","","NA"
"-131.81","53.25","SANDSPIT AIRPORT AUTO","1057051","2021-01-30 05:00","2021","01","30","05:00","1.5","","0.6","","94","","","M","","","0","","","","99.91","","","","","","NA"
"-131.81","53.25","SANDSPIT AIRPORT AUTO","1057051","2021-01-30 06:00","2021","01","30","06:00","1.6","","1.0","","96","","","M","18","","4","","","","99.96","","","","","","NA"
"-131.81","53.25","SANDSPIT AIRPORT AUTO","1057051","2021-01-30 07:00","2021","01","30","07:00","1.8","","1.1","","95","","","M","","","0","","","","100.00","","","","","","NA"
"-131.81","53.25","SANDSPIT AIRPORT AUTO","1057051","2021-01-30 08:00","2021","01","30","08:00","1.8","","1.2","","96","","","M","18","","3","","","","100.00","","","","","","NA"
"-131.81","53.25","SANDSPIT AIRPORT AUTO","1057051","2021-01-30 09:00","2021","01","30","09:00","2.0","","1.3","","95","","","M","18","","4","","","","100.05","","","","","","NA"
"-131.81","53.25","SANDSPIT AIRPORT AUTO","1057051","2021-01-30 10:00","2021","01","30","10:00","2.8","","1.5","","91","","","M","15","","16","","","","100.08","","","","","","NA"
"-131.81","53.25","SANDSPIT AIRPORT AUTO","1057051","2021-01-30 11:00","2021","01","30","11:00","4.3","","2.5","","88","","","M","15","","15","","","","100.09","","","","","","NA"
"-131.81","53.25","SANDSPIT AIRPORT AUTO","1057051","2021-01-30 12:00","2021","01","30","12:00","5.0","","2.9","","86","","","M","14","","19","","","","100.11","","","","","","NA"
"-131.81","53.25","SANDSPIT AIRPORT AUTO","1057051","2021-01-30 13:00","2021","01","30","13:00","4.4","","2.1","","85","","","M","12","","32","","","","100.08","","","","","","NA"
"-131.81","53.25","SANDSPIT AIRPORT AUTO","1057051","2021-01-30 14:00","2021","01","30","14:00","4.2","","3.1","","93","","","M","14","","19","","","","100.04","","","","","","NA"
"-131.81","53.25","SANDSPIT AIRPORT AUTO","1057051","2021-01-30 15:00","2021","01","30","15:00","5.5","","3.5","","87","","","M","11","","39","","","","100.00","","","","","","NA"
"-131.81","53.25","SANDSPIT AIRPORT AUTO","1057051","2021-01-30 16:00","2021","01","30","16:00","5.8","","3.7","","86","","","M","11","","44","","","","99.96","","","","","","NA"
"-131.81","53.25","SANDSPIT AIRPORT AUTO","1057051","2021-01-30 17:00","2021","01","30","17:00","5.5","","3.7","","89","","","M","10","","46","","","","99.96","","","","","","NA"
"-131.81","53.25","SANDSPIT AIRPORT AUTO","1057051","2021-01-30 18:00","2021","01","30","18:00","5.1","","3.1","","87","","","M","11","","50","","","","99.93","","","","","","NA"
"-131.81","53.25","SANDSPIT AIRPORT AUTO","1057051","2021-01-30 19:00","2021","01","30","19:00","5.3","","2.8","","84","","","M","10","","49","","","","99.92","","","","","","NA"
"-131.81","53.25","SANDSPIT AIRPORT AUTO","1057051","2021-01-30 20:00","2021","01","30","20:00","4.3","","2.8","","90","","","M","13","","37","","","","99.93","","","","","","NA"
"-131.81","53.25","SANDSPIT AIRPORT AUTO","1057051","2021-01-30 21:00","2021","01","30","21:00","3.8","","2.7","","93","","","M","10","","31","","","","99.94","","","","","","NA"
"-131.81","53.25","SANDSPIT AIRPORT AUTO","1057051","2021-01-30 22:00","2021","01","30","22:00","4.0","","2.8","","92","","","M","16","","18","","","","99.92","","","","","","NA"
"-131.81","53.25","SANDSPIT AIRPORT AUTO","1057051","2021-01-30 23:00","2021","01","30","23:00","4.5","","2.8","","89","","","M","15","","27","","","","99.99","","","","","","NA"
"-131.81","53.25","SANDSPIT AIRPORT AUTO","1057051","2021-01-31 00:00","2021","01","31","00:00","5.0","","3.2","","88","","","M","15","","38","","","","100.04","","","","","","NA"
"-131.81","53.25","SANDSPIT AIRPORT AUTO","1057051","2021-01-31 01:00","2021","01","31","01:00","4.6","","3.0","","89","","","M","16","","28","","","","100.02","","","","","","NA"
"-131.81","53.25","SANDSPIT AIRPORT AUTO","1057051","2021-01-31 02:00","2021","01","31","02:00","5.3","","3.6","","88","","","M","13","","21","","","","100.03","","","","","","NA"
"-131.81","53.25","SANDSPIT AIRPORT AUTO","1057051","2021-01-31 03:00","2021","01","31","03:00","5.1","","3.6","","90","","","M","11","","37","","","","100.02","","","","","","NA"
"-131.81","53.25","SANDSPIT AIRPORT AUTO","1057051","2021-01-31 04:00","2021","01","31","04:00","5.4","","3.4","","87","","","M","10","","32","","","","99.99","","","","","","NA"
"-131.81","53.25","SANDSPIT AIRPORT AUTO","1057051","2021-01-31 05:00","2021","01","31","05:00","5.7","","3.7","","87","","","M","11","","34","","","","99.98","","","","","","NA"
"-131.81","53.25","SANDSPIT AIRPORT AUTO","1057051","2021-01-31 06:00","2021","01","31","06:00","5.7","","2.8","","82","","","M","11","","35","","","","99.99","","","","","","NA"
"-131.81","53.25","SANDSPIT AIRPORT AUTO","1057051","2021-01-31 07:00","2021","01","31","07:00","5.4","","3.2","","86","","","M","11","","37","","","","100.01","","","","","","NA"
"-131.81","53.25","SANDSPIT AIRPORT AUTO","1057051","2021-01-31 08:00","2021","01","31","08:00","4.8","","3.2","","89","","","M","11","","42","","","","100.04","","","","","","NA"
"-131.81","53.25","SANDSPIT AIRPORT AUTO","1057051","2021-01-31 09:00","2021","01","31","09:00","4.6","","3.1","","91","","","M","11","","43","","","","100.08","","","","","","NA"
"-131.81","53.25","SANDSPIT AIRPORT AUTO","1057051","2021-01-31 10:00","2021","01","31","10:00","4.8","","3.3","","90","","","M","11","","36","","","","100.14","","","","","","NA"
"-131.81","53.25","SANDSPIT AIRPORT AUTO","1057051","2021-01-31 11:00","2021","01","31","11:00","4.5","","3.0","","90","","","M","11","","31","","","","100.19","","","","","","NA"
"-131.81","53.25","SANDSPIT AIRPORT AUTO","1057051","2021-01-31 12:00","2021","01","31","12:00","5.1","","3.4","","88","","","M","14","","9","","","","100.25","","","","","","NA"
"-131.81","53.25","SANDSPIT AIRPORT AUTO","1057051","2021-01-31 13:00","2021","01","31","13:00","5.5","","3.5","","87","","","M","14","","18","","","","100.32","","","","","","NA"
"-131.81","53.25","SANDSPIT AIRPORT AUTO","1057051","2021-01-31 14:00","2021","01","31","14:00","5.9","","3.5","","84","","","M","14","","21","","","","100.29","","","","","","NA"
"-131.81","53.25","SANDSPIT AIRPORT AUTO","1057051","2021-01-31 15:00","2021","01","31","15:00","6.8","","4.2","","83","","","M","15","","28","","","","100.31","","","","","","NA"
"-131.81","53.25","SANDSPIT AIRPORT AUTO","1057051","2021-01-31 16:00","2021","01","31","16:00","6.2","","3.7","","84","","","M","15","","24","","","","100.35","","","","","","NA"
"-131.81","53.25","SANDSPIT AIRPORT AUTO","1057051","2021-01-31 17:00","2021","01","31","17:00","5.5","","2.8","","83","","","M","15","","15","","","","100.43","","","","","","NA"
"-131.81","53.25","SANDSPIT AIRPORT AUTO","1057051","2021-01-31 18:00","2021","01","31","18:00","3.8","","1.7","","86","","","M","15","","9","","","","100.51","","","","","","NA"
"-131.81","53.25","SANDSPIT AIRPORT AUTO","1057051","2021-01-31 19:00","2021","01","31","19:00","3.8","","2.1","","89","","","M","19","","4","","","","100.55","","","","","","NA"
"-131.81","53.25","SANDSPIT AIRPORT AUTO","1057051","2021-01-31 20:00","2021","01","31","20:00","2.7","","1.5","","92","","","M","16","","3","","","","100.60","","","","","","NA"
"-131.81","53.25","SANDSPIT AIRPORT AUTO","1057051","2021-01-31 21:00","2021","01","31","21:00","3.4","","1.7","","89","","","M","21","","6","","","","100.66","","","","","","NA"
"-131.81","53.25","SANDSPIT AIRPORT AUTO","1057051","2021-01-31 22:00","2021","01","31","22:00","2.4","","1.6","","94","","","M","28","","6","","","","100.71","","","","","","NA"
"-131.81","53.25","SANDSPIT AIRPORT AUTO","1057051","2021-01-31 23:00","2021","01","31","23:00","1.8","","1.1","","95","","","M","29","","6","","","","100.77","","","","","","NA"
