"Longitude (x)","Latitude (y)","Station Name","Climate ID","Date/Time (LST)","Year","Month","Day","Time (LST)","Temp (°C)","Temp Flag","Dew Point Temp (°C)","Dew Point Temp Flag","Rel Hum (%)","Rel Hum Flag","Precip. Amount (mm)","Precip. Amount Flag","Wind Dir (10s deg)","Wind Dir Flag","Wind Spd (km/h)","Wind Spd Flag","Visibility (km)","Visibility Flag","Stn Press (kPa)","Stn Press Flag","Hmdx","Hmdx Flag","Wind Chill","Wind Chill Flag","Weather"
"-105.27","55.15","LA RONGE A","4064155","2018-11-01 00:00","2018","11","01","00:00","-0.7","","-1.4","","95","","","","8","","11","","16.1","","96.42","","","","-4","","Cloudy"
"-105.27","55.15","LA RONGE A","4064155","2018-11-01 01:00","2018","11","01","01:00","-0.9","","-1.5","","96","","","","7","","8","","16.1","","96.45","","","","-4","","Snow"
"-105.27","55.15","LA RONGE A","4064155","2018-11-01 02:00","2018","11","01","02:00","-1.0","","-1.5","","97","","","","8","","14","","16.1","","96.42","","","","-5","","Freezing Drizzle"
"-105.27","55.15","LA RONGE A","4064155","2018-11-01 03:00","2018","11","01","03:00","-1.0","","-1.9","","94","","","","10","","11","","16.1","","96.44","","","","-5","","Snow"
"-105.27","55.15","LA RONGE A","4064155","2018-11-01 04:00","2018","11","01","04:00","-1.2","","-2.2","","93","","","","8","","11","","12.9","","96.48","","","","-5","","Snow"
"-105.27","55.15","LA RONGE A","4064155","2018-11-01 05:00","2018","11","01","05:00","-1.7","","-2.5","","94","","","","6","","11","","3.2","","96.53","","","","-6","","Snow"
"-105.27","55.15","LA RONGE A","4064155","2018-11-01 06:00","2018","11","01","06:00","-1.9","","-2.6","","95","","","","8","","14","","2.4","","96.59","","","","-7","","Snow"
"-105.27","55.15","LA RONGE A","4064155","2018-11-01 07:00","2018","11","01","07:00","-1.9","","-2.9","","93","","","","8","","12","","3.2","","96.68","","","","-6","","Snow"
"-105.27","55.15","LA RONGE A","4064155","2018-11-01 08:00","2018","11","01","08:00","-2.1","","-3.2","","93","","","","7","","15","","1.2","","96.79","","","","-7","","Snow"
"-105.27","55.15","LA RONGE A","4064155","2018-11-01 09:00","2018","11","01","09:00","-2.0","","-3.6","","89","","","","8","","16","","9.7","","96.86","","","","-7","","Snow"
"-105.27","55.15","LA RONGE A","4064155","2018-11-01 10:00","2018","11","01","10:00","-1.9","","-3.5","","89","","","","6","","11","","9.7","","96.93","","","","-6","","Snow"
"-105.27","55.15","LA RONGE A","4064155","2018-11-01 11:00","2018","11","01","11:00","-2.1","","-3.7","","89","","","","1","","13","","9.7","","97.01","","","","-7","","Snow"
"-105.27","55.15","LA RONGE A","4064155","2018-11-01 12:00","2018","11","01","12:00","-2.2","","-4.3","","86","","","","1","","13","","19.3","","97.09","","","","-7","","Snow"
"-105.27","55.15","LA RONGE A","4064155","2018-11-01 13:00","2018","11","01","13:00","-2.2","","-4.0","","87","","","","35","","11","","24.1","","97.14","","","","-6","","Snow"
"-105.27","55.15","LA RONGE A","4064155","2018-11-01 14:00","2018","11","01","14:00","-2.4","","-4.3","","86","","","","33","","12","","24.1","","97.21","","","","-7","","Snow"
"-105.27","55.15","LA RONGE A","4064155","2018-11-01 15:00","2018","11","01","15:00","-2.4","","-4.6","","85","","","","35","","10","","24.1","","97.24","","","","-6","","Snow"
"-105.27","55.15","LA RONGE A","4064155","2018-11-01 16:00","2018","11","01","16:00","-2.7","","-4.9","","84","","","","35","","11","","19.3","","97.29","","","","-7","","Snow"
"-105.27","55.15","LA RONGE A","4064155","2018-11-01 17:00","2018","11","01","17:00","-3.4","","-5.0","","89","","","","36","","13","","24.1","","97.36","","","","-8","","Snow"
"-105.27","55.15","LA RONGE A","4064155","2018-11-01 18:00","2018","11","01","18:00","-3.7","","-6.7","","80","","","","36","","11","","24.1","","97.41","","","","-8","","Snow"
"-105.27","55.15","LA RONGE A","4064155","2018-11-01 19:00","2018","11","01","19:00","-3.8","","-6.7","","81","","","","35","","14","","24.1","","97.44","","","","-9","","Snow"
"-105.27","55.15","LA RONGE A","4064155","2018-11-01 20:00","2018","11","01","20:00","-4.9","","-7.8","","80","","","","35","","9","","24.1","","97.44","","","","-9","","Snow"
"-105.27","55.15","LA RONGE A","4064155","2018-11-01 21:00","2018","11","01","21:00","-7.9","","-9.5","","89","","","","31","","6","","24.1","","97.46","","","","-11","","Snow"
"-105.27","55.15","LA RONGE A","4064155","2018-11-01 22:00","2018","11","01","22:00","-8.1","","-8.9","","94","","","","26","","4","","24.1","","97.43","","","","-10","","NA"
"-105.27","55.15","LA RONGE A","4064155","2018-11-01 23:00","2018","11","01","23:00","-8.8","","-9.7","","93","","","","36","","1","","24.1","","97.43","","","","-9","","NA"
"-105.27","55.15","LA RONGE A","4064155","2018-11-02 00:00","2018","11","02","00:00","-8.7","","-9.6","","93","","","","36","","2","","24.1","","97.39","","","","-10","","Cloudy"
"-105.27","55.15","LA RONGE A","4064155","2018-11-02 01:00","2018","11","02","01:00","-8.1","","-9.2","","92","","","","28","","3","","24.1","","97.38","","","","-10","","NA"
"-105.27","55.15","LA RONGE A","4064155","2018-11-02 02:00","2018","11","02","02:00","-7.2","","-8.2","","93","","","","36","","1","","24.1","","97.36","","","","-8","","NA"
"-105.27","55.15","LA RONGE A","4064155","2018-11-02 03:00","2018","11","02","03:00","-6.6","","-7.5","","94","","","","36","","1","","24.1","","97.35","","","","-7","","Cloudy"
"-105.27","55.15","LA RONGE A","4064155","2018-11-02 04:00","2018","11","02","04:00","-5.7","","-6.5","","94","","","","23","","5","","9.7","","97.35","","","","-8","","Snow"
"-105.27","55.15","LA RONGE A","4064155","2018-11-02 05:00","2018","11","02","05:00","-5.5","","-6.8","","90","","","","22","","6","","24.1","","97.32","","","","-8","","Snow"
"-105.27","55.15","LA RONGE A","4064155","2018-11-02 06:00","2018","11","02","06:00","-5.5","","-6.5","","93","","","","17","","4","","24.1","","97.27","","","","-7","","Cloudy"
"-105.27","55.15","LA RONGE A","4064155","2018-11-02 07:00","2018","11","02","07:00","-4.3","","-7.0","","82","","","","11","","8","","24.1","","97.21","","","","-8","","NA"
"-105.27","55.15","LA RONGE A","4064155","2018-11-02 08:00","2018","11","02","08:00","-4.2","","-7.6","","77","","","","9","","11","","24.1","","97.21","","","","-9","","NA"
"-105.27","55.15","LA RONGE A","4064155","2018-11-02 09:00","2018","11","02","09:00","-4.0","","-7.8","","75","","","","8","","12","","24.1","","97.21","","","","-9","","Cloudy"
"-105.27","55.15","LA RONGE A","4064155","2018-11-02 10:00","2018","11","02","10:00","-3.6","","-7.6","","74","","","","9","","14","","24.1","","97.18","","","","-9","","NA"
"-105.27","55.15","LA RONGE A","4064155","2018-11-02 11:00","2018","11","02","11:00","-3.2","","-7.2","","74","","","","11","","10","","24.1","","97.15","","","","-7","","NA"
"-105.27","55.15","LA RONGE A","4064155","2018-11-02 12:00","2018","11","02","12:00","-3.1","","-7.1","","74","","","","15","","8","","24.1","","97.13","","","","-6","","Snow"
"-105.27","55.15","LA RONGE A","4064155","2018-11-02 13:00","2018","11","02","13:00","-3.2","","-7.5","","72","","","","9","","4","","24.1","","97.14","","","","-5","","Snow"
"-105.27","55.15","LA RONGE A","4064155","2018-11-02 14:00","2018","11","02","14:00","-3.1","","-6.5","","77","","","","9","","8","","24.1","","97.15","","","","-6","","Snow"
"-105.27","55.15","LA RONGE A","4064155","2018-11-02 15:00","2018","11","02","15:00","-3.2","","-7.3","","74","","","","7","","9","","24.1","","97.15","","","","-7","","Snow"
"-105.27","55.15","LA RONGE A","4064155","2018-11-02 16:00","2018","11","02","16:00","-3.2","","-7.3","","74","","","","12","","14","","24.1","","97.19","","","","-8","","Snow"
"-105.27","55.15","LA RONGE A","4064155","2018-11-02 17:00","2018","11","02","17:00","-3.6","","-7.1","","77","","","","16","","11","","24.1","","97.23","","","","-8","","Snow"
"-105.27","55.15","LA RONGE A","4064155","2018-11-02 18:00","2018","11","02","18:00","-3.6","","-7.1","","77","","","","16","","9","","24.1","","97.27","","","","-7","","Snow"
"-105.27","55.15","LA RONGE A","4064155","2018-11-02 19:00","2018","11","02","19:00","-3.7","","-7.3","","77","","","","12","","8","","24.1","","97.32","","","","-7","","Snow"
"-105.27","55.15","LA RONGE A","4064155","2018-11-02 20:00","2018","11","02","20:00","-3.9","","-7.1","","78","","","","16","","8","","24.1","","97.37","","","","-7","","Snow"
"-105.27","55.15","LA RONGE A","4064155","2018-11-02 21:00","2018","11","02","21:00","-3.7","","-7.5","","75","","","","17","","17","","24.1","","97.41","","","","-9","","Snow"
"-105.27","55.15","LA RONGE A","4064155","2018-11-02 22:00","2018","11","02","22:00","-3.8","","-7.1","","78","","","","14","","7","","24.1","","97.42","","","","-7","","Snow"
"-105.27","55.15","LA RONGE A","4064155","2018-11-02 23:00","2018","11","02","23:00","-4.3","","-6.9","","82","","","","22","","7","","24.1","","97.46","","","","-7","","Snow"
"-105.27","55.15","LA RONGE A","4064155","2018-11-03 00:00","2018","11","03","00:00","-4.3","","-7.0","","82","","","","20","","12","","24.1","","97.48","","","","-9","","Snow"
"-105.27","55.15","LA RONGE A","4064155","2018-11-03 01:00","2018","11","03","01:00","-4.6","","-7.5","","80","","","","21","","16","","24.1","","97.49","","","","-10","","Snow"
"-105.27","55.15","LA RONGE A","4064155","2018-11-03 02:00","2018","11","03","02:00","-4.7","","-7.3","","82","","","","21","","8","","24.1","","97.48","","","","-8","","Snow"
"-105.27","55.15","LA RONGE A","4064155","2018-11-03 03:00","2018","11","03","03:00","-4.7","","-7.3","","82","","","","14","","5","","24.1","","97.48","","","","-7","","Snow"
"-105.27","55.15","LA RONGE A","4064155","2018-11-03 04:00","2018","11","03","04:00","-4.4","","-7.1","","82","","","","20","","6","","24.1","","97.46","","","","-7","","Snow"
"-105.27","55.15","LA RONGE A","4064155","2018-11-03 05:00","2018","11","03","05:00","-3.9","","-6.8","","81","","","","19","","12","","24.1","","97.42","","","","-9","","Snow"
"-105.27","55.15","LA RONGE A","4064155","2018-11-03 06:00","2018","11","03","06:00","-3.7","","-6.3","","83","","","","18","","16","","24.1","","97.42","","","","-9","","Snow"
"-105.27","55.15","LA RONGE A","4064155","2018-11-03 07:00","2018","11","03","07:00","-4.0","","-6.0","","86","","","","19","","11","","24.1","","97.44","","","","-8","","Snow"
"-105.27","55.15","LA RONGE A","4064155","2018-11-03 08:00","2018","11","03","08:00","-3.8","","-5.5","","88","","","","18","","12","","24.1","","97.42","","","","-8","","Snow"
"-105.27","55.15","LA RONGE A","4064155","2018-11-03 09:00","2018","11","03","09:00","-3.3","","-5.0","","88","","","","18","","14","","24.1","","97.35","","","","-8","","Snow"
"-105.27","55.15","LA RONGE A","4064155","2018-11-03 10:00","2018","11","03","10:00","-2.7","","-4.4","","88","","","","17","","19","","24.1","","97.28","","","","-8","","Snow"
"-105.27","55.15","LA RONGE A","4064155","2018-11-03 11:00","2018","11","03","11:00","-2.1","","-4.1","","87","","","","17","","24","","24.1","","97.21","","","","-8","","Snow"
"-105.27","55.15","LA RONGE A","4064155","2018-11-03 12:00","2018","11","03","12:00","-1.7","","-3.8","","85","","","","18","","21","","24.1","","97.16","","","","-8","","Snow"
"-105.27","55.15","LA RONGE A","4064155","2018-11-03 13:00","2018","11","03","13:00","-0.8","","-3.4","","83","","","","19","","20","","24.1","","97.09","","","","-6","","Snow"
"-105.27","55.15","LA RONGE A","4064155","2018-11-03 14:00","2018","11","03","14:00","-0.6","","-2.8","","85","","","","18","","22","","24.1","","97.01","","","","-6","","Snow"
"-105.27","55.15","LA RONGE A","4064155","2018-11-03 15:00","2018","11","03","15:00","-0.3","","-2.6","","85","","","","18","","21","","24.1","","96.88","","","","-6","","Snow"
"-105.27","55.15","LA RONGE A","4064155","2018-11-03 16:00","2018","11","03","16:00","-0.2","","-2.5","","84","","","","18","","28","","24.1","","96.81","","","","-7","","Snow"
"-105.27","55.15","LA RONGE A","4064155","2018-11-03 17:00","2018","11","03","17:00","-0.3","","-2.2","","87","","","","18","","22","","8.1","","96.75","","","","-6","","Snow"
"-105.27","55.15","LA RONGE A","4064155","2018-11-03 18:00","2018","11","03","18:00","-0.6","","-1.8","","91","","","","18","","14","","4.8","","96.71","","","","-5","","Snow"
"-105.27","55.15","LA RONGE A","4064155","2018-11-03 19:00","2018","11","03","19:00","-0.7","","-1.4","","95","","","","18","","12","","4.8","","96.66","","","","-5","","Snow"
"-105.27","55.15","LA RONGE A","4064155","2018-11-03 20:00","2018","11","03","20:00","-0.4","","-1.2","","95","","","","18","","14","","9.7","","96.61","","","","-5","","Snow"
"-105.27","55.15","LA RONGE A","4064155","2018-11-03 21:00","2018","11","03","21:00","-0.4","","-1.1","","95","","","","19","","14","","9.7","","96.56","","","","-5","","Snow"
"-105.27","55.15","LA RONGE A","4064155","2018-11-03 22:00","2018","11","03","22:00","-0.5","","-1.2","","95","","","","18","","13","","12.9","","96.46","","","","-5","","Snow"
"-105.27","55.15","LA RONGE A","4064155","2018-11-03 23:00","2018","11","03","23:00","-0.5","","-1.2","","95","","","","19","","9","","12.9","","96.42","","","","-4","","Snow"
"-105.27","55.15","LA RONGE A","4064155","2018-11-04 00:00","2018","11","04","00:00","-0.4","","-1.2","","95","","","","18","","9","","9.7","","96.36","","","","-4","","Snow"
"-105.27","55.15","LA RONGE A","4064155","2018-11-04 01:00","2018","11","04","01:00","-0.4","","-1.0","","96","","","","19","","10","","3.2","","96.29","","","","-4","","Snow"
"-105.27","55.15","LA RONGE A","4064155","2018-11-04 02:00","2018","11","04","02:00","-0.3","","-0.8","","96","","","","19","","9","","2.4","","96.23","","","","-3","","Snow"
"-105.27","55.15","LA RONGE A","4064155","2018-11-04 03:00","2018","11","04","03:00","-0.3","","-0.8","","97","","","","18","","7","","6.4","","96.18","","","","-3","","Snow"
"-105.27","55.15","LA RONGE A","4064155","2018-11-04 04:00","2018","11","04","04:00","0.0","","-0.5","","97","","","","18","","8","","2.4","","96.12","","","","-3","","Snow"
"-105.27","55.15","LA RONGE A","4064155","2018-11-04 05:00","2018","11","04","05:00","0.0","","-0.3","","98","","","","16","","6","","1.6","","96.02","","","","-2","","Snow"
"-105.27","55.15","LA RONGE A","4064155","2018-11-04 06:00","2018","11","04","06:00","0.2","","-0.1","","98","","","","15","","9","","2.4","","95.98","","","","","","Snow"
"-105.27","55.15","LA RONGE A","4064155","2018-11-04 07:00","2018","11","04","07:00","0.3","","-0.2","","96","","","","13","","8","","4.8","","95.91","","","","","","Snow"
"-105.27","55.15","LA RONGE A","4064155","2018-11-04 08:00","2018","11","04","08:00","0.5","","-0.4","","94","","","","11","","8","","16.1","","95.83","","","","","","Snow"
"-105.27","55.15","LA RONGE A","4064155","2018-11-04 09:00","2018","11","04","09:00","0.5","","-0.4","","94","","","","12","","13","","16.1","","95.77","","","","","","Snow"
"-105.27","55.15","LA RONGE A","4064155","2018-11-04 10:00","2018","11","04","10:00","0.7","","-0.5","","92","","","","13","","14","","19.3","","95.76","","","","","","Snow"
"-105.27","55.15","LA RONGE A","4064155","2018-11-04 11:00","2018","11","04","11:00","0.8","","-0.3","","93","","","","9","","9","","19.3","","95.71","","","","","","Snow"
"-105.27","55.15","LA RONGE A","4064155","2018-11-04 12:00","2018","11","04","12:00","0.9","","-0.2","","92","","","","8","","8","","19.3","","95.66","","","","","","Snow"
"-105.27","55.15","LA RONGE A","4064155","2018-11-04 13:00","2018","11","04","13:00","0.8","","-0.2","","94","","","","8","","12","","16.1","","95.60","","","","","","Snow"
"-105.27","55.15","LA RONGE A","4064155","2018-11-04 14:00","2018","11","04","14:00","0.8","","-0.1","","94","","","","8","","11","","16.1","","95.55","","","","","","Snow"
"-105.27","55.15","LA RONGE A","4064155","2018-11-04 15:00","2018","11","04","15:00","1.0","","0.1","","94","","","","10","","12","","16.1","","95.55","","","","","","Snow"
"-105.27","55.15","LA RONGE A","4064155","2018-11-04 16:00","2018","11","04","16:00","0.4","","-0.1","","97","","","","7","","7","","4.8","","95.58","","","","","","Snow"
"-105.27","55.15","LA RONGE A","4064155","2018-11-04 17:00","2018","11","04","17:00","0.5","","0.1","","98","","","","6","","12","","4.8","","95.59","","","","","","Rain,Snow"
"-105.27","55.15","LA RONGE A","4064155","2018-11-04 18:00","2018","11","04","18:00","0.6","","0.2","","97","","","","7","","11","","4.8","","95.59","","","","","","Rain,Snow"
"-105.27","55.15","LA RONGE A","4064155","2018-11-04 19:00","2018","11","04","19:00","0.6","","0.2","","97","","","","5","","16","","4.8","","95.58","","","","","","Snow"
"-105.27","55.15","LA RONGE A","4064155","2018-11-04 20:00","2018","11","04","20:00","0.5","","0.1","","97","","","","6","","16","","3.2","","95.60","","","","","","Snow"
"-105.27","55.15","LA RONGE A","4064155","2018-11-04 21:00","2018","11","04","21:00","0.4","","0.1","","98","","","","4","","22","","3.2","","95.64","","","","","","Snow"
"-105.27","55.15","LA RONGE A","4064155","2018-11-04 22:00","2018","11","04","22:00","-1.2","","-1.8","","96","","","","3","","33","","2.4","","95.70","","","","-8","","Snow"
"-105.27","55.15","LA RONGE A","4064155","2018-11-04 23:00","2018","11","04","23:00","-2.4","","-3.2","","94","","","","3","","26","","2.4","","95.74","","","","-9","","Snow"
"-105.27","55.15","LA RONGE A","4064155","2018-11-05 00:00","2018","11","05","00:00","-3.1","","-4.2","","92","","","","2","","33","","2.0","","95.77","","","","-11","","Snow"
"-105.27","55.15","LA RONGE A","4064155","2018-11-05 01:00","2018","11","05","01:00","-3.7","","-5.0","","91","","","","3","","31","","2.0","","95.83","","","","-11","","Snow,Blowing Snow"
"-105.27","55.15","LA RONGE A","4064155","2018-11-05 02:00","2018","11","05","02:00","-4.3","","-5.9","","89","","","","3","","39","","2.4","","95.90","","","","-13","","Snow,Blowing Snow"
"-105.27","55.15","LA RONGE A","4064155","2018-11-05 03:00","2018","11","05","03:00","-5.0","","-6.3","","90","","","","2","","31","","24.1","","95.98","","","","-13","","Snow,Blowing Snow"
"-105.27","55.15","LA RONGE A","4064155","2018-11-05 04:00","2018","11","05","04:00","-5.5","","-6.8","","91","","","","2","","34","","1.6","","96.06","","","","-14","","Snow,Blowing Snow"
"-105.27","55.15","LA RONGE A","4064155","2018-11-05 05:00","2018","11","05","05:00","-6.1","","-7.5","","90","","","","1","","30","","1.6","","96.12","","","","-14","","Snow,Blowing Snow"
"-105.27","55.15","LA RONGE A","4064155","2018-11-05 06:00","2018","11","05","06:00","-6.2","","-7.8","","88","","","","36","","29","","1.6","","96.21","","","","-14","","Snow,Blowing Snow"
"-105.27","55.15","LA RONGE A","4064155","2018-11-05 07:00","2018","11","05","07:00","-7.0","","-8.7","","88","","","","36","","32","","1.6","","96.33","","","","-16","","Snow,Blowing Snow"
"-105.27","55.15","LA RONGE A","4064155","2018-11-05 08:00","2018","11","05","08:00","-7.9","","-9.5","","88","","","","35","","27","","0.8","","96.44","","","","-16","","Moderate Snow"
"-105.27","55.15","LA RONGE A","4064155","2018-11-05 09:00","2018","11","05","09:00","-8.3","","-10.2","","86","","","","35","","28","","0.8","","96.54","","","","-17","","Moderate Snow"
"-105.27","55.15","LA RONGE A","4064155","2018-11-05 10:00","2018","11","05","10:00","-8.4","","-10.5","","85","","","","36","","23","","1.6","","96.64","","","","-16","","Snow"
"-105.27","55.15","LA RONGE A","4064155","2018-11-05 11:00","2018","11","05","11:00","-8.6","","-10.8","","84","","","","36","","30","","1.6","","96.74","","","","-18","","Snow"
"-105.27","55.15","LA RONGE A","4064155","2018-11-05 12:00","2018","11","05","12:00","-8.6","","-10.8","","84","","","","35","","24","","1.6","","96.82","","","","-17","","Snow"
"-105.27","55.15","LA RONGE A","4064155","2018-11-05 13:00","2018","11","05","13:00","-8.9","","-11.3","","83","","","","36","","28","","1.6","","96.85","","","","-18","","Snow"
"-105.27","55.15","LA RONGE A","4064155","2018-11-05 14:00","2018","11","05","14:00","-9.0","","-11.6","","81","","","","35","","26","","2.4","","96.89","","","","-18","","Snow"
"-105.27","55.15","LA RONGE A","4064155","2018-11-05 15:00","2018","11","05","15:00","-9.1","","-12.3","","78","","","","34","","19","","24.1","","96.94","","","","-17","","Snow"
"-105.27","55.15","LA RONGE A","4064155","2018-11-05 16:00","2018","11","05","16:00","-9.3","","-12.6","","77","","","","34","","25","","24.1","","97.03","","","","-18","","Snow"
"-105.27","55.15","LA RONGE A","4064155","2018-11-05 17:00","2018","11","05","17:00","-9.2","","-12.1","","80","","","","34","","21","","24.1","","97.13","","","","-17","","Snow"
"-105.27","55.15","LA RONGE A","4064155","2018-11-05 18:00","2018","11","05","18:00","-9.6","","-12.5","","80","","","","33","","18","","24.1","","97.21","","","","-17","","Snow"
"-105.27","55.15","LA RONGE A","4064155","2018-11-05 19:00","2018","11","05","19:00","-9.8","","-12.8","","79","","","","34","","19","","24.1","","97.26","","","","-17","","Snow"
"-105.27","55.15","LA RONGE A","4064155","2018-11-05 20:00","2018","11","05","20:00","-10.2","","-12.8","","81","","","","34","","17","","24.1","","97.34","","","","-17","","Snow"
"-105.27","55.15","LA RONGE A","4064155","2018-11-05 21:00","2018","11","05","21:00","-10.2","","-13.2","","79","","","","36","","26","","24.1","","97.41","","","","-19","","Snow"
"-105.27","55.15","LA RONGE A","4064155","2018-11-05 22:00","2018","11","05","22:00","-10.4","","-13.3","","80","","","","34","","17","","24.1","","97.47","","","","-18","","Snow"
"-105.27","55.15","LA RONGE A","4064155","2018-11-05 23:00","2018","11","05","23:00","-10.2","","-12.9","","81","","","","35","","14","","19.3","","97.52","","","","-17","","Snow"
"-105.27","55.15","LA RONGE A","4064155","2018-11-06 00:00","2018","11","06","00:00","-10.2","","-13.0","","80","","","","36","","20","","19.3","","97.57","","","","-18","","Snow"
"-105.27","55.15","LA RONGE A","4064155","2018-11-06 01:00","2018","11","06","01:00","-10.5","","-13.1","","82","","","","35","","17","","19.3","","97.61","","","","-18","","Snow"
"-105.27","55.15","LA RONGE A","4064155","2018-11-06 02:00","2018","11","06","02:00","-11.3","","-13.6","","83","","","","33","","13","","24.1","","97.66","","","","-18","","NA"
"-105.27","55.15","LA RONGE A","4064155","2018-11-06 03:00","2018","11","06","03:00","-11.9","","-13.9","","85","","","","33","","10","","24.1","","97.71","","","","-18","","Mainly Clear"
"-105.27","55.15","LA RONGE A","4064155","2018-11-06 04:00","2018","11","06","04:00","-11.2","","-13.8","","81","","","","33","","16","","24.1","","97.74","","","","-18","","NA"
"-105.27","55.15","LA RONGE A","4064155","2018-11-06 05:00","2018","11","06","05:00","-10.5","","-13.0","","82","","","","32","","14","","24.1","","97.78","","","","-17","","NA"
"-105.27","55.15","LA RONGE A","4064155","2018-11-06 06:00","2018","11","06","06:00","-10.3","","-12.8","","82","","","","33","","11","","8.1","","97.83","","","","-16","","Snow"
"-105.27","55.15","LA RONGE A","4064155","2018-11-06 07:00","2018","11","06","07:00","-10.3","","-12.9","","81","","","","33","","13","","16.1","","97.86","","","","-17","","Snow"
"-105.27","55.15","LA RONGE A","4064155","2018-11-06 08:00","2018","11","06","08:00","-10.4","","-13.4","","79","","","","33","","14","","24.1","","97.90","","","","-17","","Snow"
"-105.27","55.15","LA RONGE A","4064155","2018-11-06 09:00","2018","11","06","09:00","-10.4","","-13.4","","79","","","","33","","14","","24.1","","97.95","","","","-17","","Snow"
"-105.27","55.15","LA RONGE A","4064155","2018-11-06 10:00","2018","11","06","10:00","-9.8","","-13.0","","78","","","","33","","10","","24.1","","97.98","","","","-15","","Snow"
"-105.27","55.15","LA RONGE A","4064155","2018-11-06 11:00","2018","11","06","11:00","-9.3","","-12.6","","77","","","","31","","17","","24.1","","98.00","","","","-16","","Snow"
"-105.27","55.15","LA RONGE A","4064155","2018-11-06 12:00","2018","11","06","12:00","-8.4","","-12.6","","72","","","","34","","17","","24.1","","98.02","","","","-15","","Snow"
"-105.27","55.15","LA RONGE A","4064155","2018-11-06 13:00","2018","11","06","13:00","-8.8","","-12.5","","75","","","","31","","20","","24.1","","98.02","","","","-16","","Snow"
"-105.27","55.15","LA RONGE A","4064155","2018-11-06 14:00","2018","11","06","14:00","-9.2","","-12.9","","75","","","","31","","15","","24.1","","98.02","","","","-16","","Snow"
"-105.27","55.15","LA RONGE A","4064155","2018-11-06 15:00","2018","11","06","15:00","-9.0","","-12.4","","76","","","","30","","22","","24.1","","98.07","","","","-17","","Snow"
"-105.27","55.15","LA RONGE A","4064155","2018-11-06 16:00","2018","11","06","16:00","-9.8","","-12.8","","79","","","","29","","16","","24.1","","98.07","","","","-17","","Snow"
"-105.27","55.15","LA RONGE A","4064155","2018-11-06 17:00","2018","11","06","17:00","-10.3","","-13.4","","78","","","","29","","18","","24.1","","98.12","","","","-18","","Snow"
"-105.27","55.15","LA RONGE A","4064155","2018-11-06 18:00","2018","11","06","18:00","-10.0","","-12.8","","80","","","","30","","14","","19.3","","98.15","","","","-16","","Snow"
"-105.27","55.15","LA RONGE A","4064155","2018-11-06 19:00","2018","11","06","19:00","-10.2","","-12.8","","82","","","","29","","15","","12.9","","98.15","","","","-17","","Snow"
"-105.27","55.15","LA RONGE A","4064155","2018-11-06 20:00","2018","11","06","20:00","-10.4","","-12.9","","82","","","","31","","16","","16.1","","98.16","","","","-17","","Snow"
"-105.27","55.15","LA RONGE A","4064155","2018-11-06 21:00","2018","11","06","21:00","-10.8","","-13.4","","81","","","","29","","16","","16.1","","98.17","","","","-18","","Snow"
"-105.27","55.15","LA RONGE A","4064155","2018-11-06 22:00","2018","11","06","22:00","-11.0","","-13.5","","82","","","","28","","12","","24.1","","98.17","","","","-17","","Snow"
"-105.27","55.15","LA RONGE A","4064155","2018-11-06 23:00","2018","11","06","23:00","-11.3","","-13.6","","83","","","","29","","11","","24.1","","98.18","","","","-17","","Snow"
"-105.27","55.15","LA RONGE A","4064155","2018-11-07 00:00","2018","11","07","00:00","-11.3","","-13.5","","84","","","","28","","13","","24.1","","98.17","","","","-18","","Snow"
"-105.27","55.15","LA RONGE A","4064155","2018-11-07 01:00","2018","11","07","01:00","-11.6","","-13.5","","85","","","","28","","14","","24.1","","98.17","","","","-18","","Snow"
"-105.27","55.15","LA RONGE A","4064155","2018-11-07 02:00","2018","11","07","02:00","-11.6","","-13.5","","86","","","","28","","13","","24.1","","98.18","","","","-18","","Snow"
"-105.27","55.15","LA RONGE A","4064155","2018-11-07 03:00","2018","11","07","03:00","-11.8","","-13.7","","86","","","","28","","13","","24.1","","98.16","","","","-18","","Snow"
"-105.27","55.15","LA RONGE A","4064155","2018-11-07 04:00","2018","11","07","04:00","-11.8","","-13.8","","85","","","","29","","12","","24.1","","98.15","","","","-18","","Snow"
"-105.27","55.15","LA RONGE A","4064155","2018-11-07 05:00","2018","11","07","05:00","-12.2","","-14.1","","86","","","","29","","11","","24.1","","98.14","","","","-18","","Snow"
"-105.27","55.15","LA RONGE A","4064155","2018-11-07 06:00","2018","11","07","06:00","-11.8","","-14.1","","83","","","","29","","11","","24.1","","98.15","","","","-18","","Moderate Snow"
"-105.27","55.15","LA RONGE A","4064155","2018-11-07 07:00","2018","11","07","07:00","-12.4","","-14.4","","85","","","","28","","12","","24.1","","98.14","","","","-19","","Snow"
"-105.27","55.15","LA RONGE A","4064155","2018-11-07 08:00","2018","11","07","08:00","-12.8","","-14.7","","86","","","","28","","10","","24.1","","98.13","","","","-19","","Snow"
"-105.27","55.15","LA RONGE A","4064155","2018-11-07 09:00","2018","11","07","09:00","-12.7","","-14.6","","86","","","","27","","8","","16.1","","98.16","","","","-18","","Snow"
"-105.27","55.15","LA RONGE A","4064155","2018-11-07 10:00","2018","11","07","10:00","-12.4","","-14.8","","82","","","","29","","14","","24.1","","98.17","","","","-19","","Snow"
"-105.27","55.15","LA RONGE A","4064155","2018-11-07 11:00","2018","11","07","11:00","-11.9","","-14.7","","80","","","","28","","17","","24.1","","98.18","","","","-20","","Snow"
"-105.27","55.15","LA RONGE A","4064155","2018-11-07 12:00","2018","11","07","12:00","-11.7","","-14.5","","79","","","","29","","13","","24.1","","98.18","","","","-18","","Snow"
"-105.27","55.15","LA RONGE A","4064155","2018-11-07 13:00","2018","11","07","13:00","-11.0","","-14.3","","77","","","","28","","19","","24.1","","98.16","","","","-19","","Snow"
"-105.27","55.15","LA RONGE A","4064155","2018-11-07 14:00","2018","11","07","14:00","-10.5","","-13.9","","76","","","","28","","15","","19.3","","98.15","","","","-17","","Snow"
"-105.27","55.15","LA RONGE A","4064155","2018-11-07 15:00","2018","11","07","15:00","-10.6","","-14.1","","75","","","","29","","20","","24.1","","98.16","","","","-19","","Snow"
"-105.27","55.15","LA RONGE A","4064155","2018-11-07 16:00","2018","11","07","16:00","-11.2","","-14.9","","74","","","","27","","16","","24.1","","98.18","","","","-18","","Snow"
"-105.27","55.15","LA RONGE A","4064155","2018-11-07 17:00","2018","11","07","17:00","-12.1","","-15.0","","79","","","","26","","7","","24.1","","98.18","","","","-16","","Snow"
"-105.27","55.15","LA RONGE A","4064155","2018-11-07 18:00","2018","11","07","18:00","-12.4","","-14.8","","82","","","","26","","9","","24.1","","98.18","","","","-18","","Snow"
"-105.27","55.15","LA RONGE A","4064155","2018-11-07 19:00","2018","11","07","19:00","-12.6","","-14.9","","83","","","","26","","9","","19.3","","98.17","","","","-18","","Snow"
"-105.27","55.15","LA RONGE A","4064155","2018-11-07 20:00","2018","11","07","20:00","-12.8","","-14.9","","84","","","","27","","8","","16.1","","98.18","","","","-18","","Snow"
"-105.27","55.15","LA RONGE A","4064155","2018-11-07 21:00","2018","11","07","21:00","-13.6","","-15.5","","86","","","","26","","7","","16.1","","98.17","","","","-18","","Snow"
"-105.27","55.15","LA RONGE A","4064155","2018-11-07 22:00","2018","11","07","22:00","-14.5","","-16.3","","86","","","","27","","9","","16.1","","98.17","","","","-20","","Snow"
"-105.27","55.15","LA RONGE A","4064155","2018-11-07 23:00","2018","11","07","23:00","-15.5","","-17.2","","87","","","","26","","5","","12.9","","98.17","","","","-19","","Snow"
"-105.27","55.15","LA RONGE A","4064155","2018-11-08 00:00","2018","11","08","00:00","-15.2","","-17.0","","86","","","","26","","7","","16.1","","98.19","","","","-20","","Snow"
"-105.27","55.15","LA RONGE A","4064155","2018-11-08 01:00","2018","11","08","01:00","-16.3","","-18.0","","87","","","","29","","5","","16.1","","98.20","","","","-20","","Snow"
"-105.27","55.15","LA RONGE A","4064155","2018-11-08 02:00","2018","11","08","02:00","-17.8","","-19.6","","86","","","","26","","5","","16.1","","98.21","","","","-22","","NA"
"-105.27","55.15","LA RONGE A","4064155","2018-11-08 03:00","2018","11","08","03:00","-16.6","","-18.2","","87","","","","31","","7","","16.1","","98.23","","","","-22","","Snow"
"-105.27","55.15","LA RONGE A","4064155","2018-11-08 04:00","2018","11","08","04:00","-13.5","","-15.2","","87","","","","35","","12","","24.1","","98.25","","","","-20","","Snow"
"-105.27","55.15","LA RONGE A","4064155","2018-11-08 05:00","2018","11","08","05:00","-13.4","","-15.2","","87","","","","35","","16","","24.1","","98.29","","","","-21","","Snow"
"-105.27","55.15","LA RONGE A","4064155","2018-11-08 06:00","2018","11","08","06:00","-14.9","","-16.6","","87","","","","35","","11","","24.1","","98.37","","","","-21","","Snow"
"-105.27","55.15","LA RONGE A","4064155","2018-11-08 07:00","2018","11","08","07:00","-16.2","","-18.0","","87","","","","34","","13","","24.1","","98.42","","","","-24","","NA"
"-105.27","55.15","LA RONGE A","4064155","2018-11-08 08:00","2018","11","08","08:00","-16.1","","-18.0","","86","","","","35","","10","","24.1","","98.47","","","","-23","","NA"
"-105.27","55.15","LA RONGE A","4064155","2018-11-08 09:00","2018","11","08","09:00","-16.6","","-18.4","","86","","","","34","","10","","24.1","","98.55","","","","-23","","Mainly Clear"
"-105.27","55.15","LA RONGE A","4064155","2018-11-08 10:00","2018","11","08","10:00","-16.3","","-18.2","","86","","","","32","","5","","24.1","","98.60","","","","-20","","NA"
"-105.27","55.15","LA RONGE A","4064155","2018-11-08 11:00","2018","11","08","11:00","-13.7","","-15.9","","84","","","","34","","11","","24.1","","98.67","","","","-20","","NA"
"-105.27","55.15","LA RONGE A","4064155","2018-11-08 12:00","2018","11","08","12:00","-13.3","","-16.0","","80","","","","1","","14","","24.1","","98.74","","","","-21","","Mainly Clear"
"-105.27","55.15","LA RONGE A","4064155","2018-11-08 13:00","2018","11","08","13:00","-12.7","","-16.5","","73","","","","1","","11","","24.1","","98.75","","","","-19","","NA"
"-105.27","55.15","LA RONGE A","4064155","2018-11-08 14:00","2018","11","08","14:00","-11.9","","-16.4","","70","","","","35","","10","","24.1","","98.77","","","","-18","","NA"
"-105.27","55.15","LA RONGE A","4064155","2018-11-08 15:00","2018","11","08","15:00","-11.7","","-16.9","","66","","","","34","","9","","24.1","","98.81","","","","-17","","Mainly Clear"
"-105.27","55.15","LA RONGE A","4064155","2018-11-08 16:00","2018","11","08","16:00","-11.8","","-16.2","","70","","","","33","","10","","24.1","","98.83","","","","-17","","NA"
"-105.27","55.15","LA RONGE A","4064155","2018-11-08 17:00","2018","11","08","17:00","-13.5","","-17.0","","75","","","","33","","6","","24.1","","98.87","","","","-18","","NA"
"-105.27","55.15","LA RONGE A","4064155","2018-11-08 18:00","2018","11","08","18:00","-17.9","","-19.6","","87","","","","33","","6","","24.1","","98.89","","","","-23","","Mainly Clear"
"-105.27","55.15","LA RONGE A","4064155","2018-11-08 19:00","2018","11","08","19:00","-18.7","","-20.1","","89","","","","36","","1","","24.1","","98.92","","","","-20","","NA"
"-105.27","55.15","LA RONGE A","4064155","2018-11-08 20:00","2018","11","08","20:00","-21.6","","-23.3","","86","","","","25","","4","","24.1","","98.94","","","","-25","","NA"
"-105.27","55.15","LA RONGE A","4064155","2018-11-08 21:00","2018","11","08","21:00","-22.1","","-24.1","","84","","","","18","","3","","24.1","","98.91","","","","-25","","Mainly Clear"
"-105.27","55.15","LA RONGE A","4064155","2018-11-08 22:00","2018","11","08","22:00","-24.1","","-26.2","","83","","","","25","","5","","24.1","","98.87","","","","-29","","NA"
"-105.27","55.15","LA RONGE A","4064155","2018-11-08 23:00","2018","11","08","23:00","-24.1","","-26.4","","82","","","","24","","3","","24.1","","98.87","","","","-27","","NA"
"-105.27","55.15","LA RONGE A","4064155","2018-11-09 00:00","2018","11","09","00:00","-21.8","","-23.8","","84","","","","0","","1","","24.1","","98.82","","","","-23","","Mainly Clear"
"-105.27","55.15","LA RONGE A","4064155","2018-11-09 01:00","2018","11","09","01:00","-19.9","","-21.9","","85","","","","20","","4","","24.1","","98.75","","","","-23","","NA"
"-105.27","55.15","LA RONGE A","4064155","2018-11-09 02:00","2018","11","09","02:00","-17.9","","-20.0","","84","","","","20","","10","","24.1","","98.69","","","","-25","","NA"
"-105.27","55.15","LA RONGE A","4064155","2018-11-09 03:00","2018","11","09","03:00","-17.6","","-19.5","","85","","","","20","","9","","24.1","","98.63","","","","-24","","Clear"
"-105.27","55.15","LA RONGE A","4064155","2018-11-09 04:00","2018","11","09","04:00","-18.2","","-20.4","","84","","","","21","","11","","24.1","","98.54","","","","-25","","NA"
"-105.27","55.15","LA RONGE A","4064155","2018-11-09 05:00","2018","11","09","05:00","-17.9","","-20.0","","84","","","","20","","13","","24.1","","98.46","","","","-26","","NA"
"-105.27","55.15","LA RONGE A","4064155","2018-11-09 06:00","2018","11","09","06:00","-17.5","","-19.5","","84","","","","18","","13","","24.1","","98.34","","","","-25","","Mainly Clear"
"-105.27","55.15","LA RONGE A","4064155","2018-11-09 07:00","2018","11","09","07:00","-16.5","","-18.5","","85","","","","17","","17","","24.1","","98.18","","","","-25","","NA"
"-105.27","55.15","LA RONGE A","4064155","2018-11-09 08:00","2018","11","09","08:00","-17.3","","-19.4","","84","","","","17","","16","","24.1","","98.04","","","","-26","","NA"
"-105.27","55.15","LA RONGE A","4064155","2018-11-09 09:00","2018","11","09","09:00","-16.8","","-18.9","","84","","","","17","","22","","24.1","","97.92","","","","-27","","Mainly Clear"
"-105.27","55.15","LA RONGE A","4064155","2018-11-09 10:00","2018","11","09","10:00","-15.8","","-17.8","","84","","","","17","","24","","24.1","","97.81","","","","-26","","Blowing Snow"
"-105.27","55.15","LA RONGE A","4064155","2018-11-09 11:00","2018","11","09","11:00","-14.2","","-16.6","","83","","","","18","","23","","24.1","","97.71","","","","-24","","Blowing Snow"
"-105.27","55.15","LA RONGE A","4064155","2018-11-09 12:00","2018","11","09","12:00","-12.9","","-16.4","","75","","","","17","","21","","24.1","","97.58","","","","-22","","Blowing Snow"
"-105.27","55.15","LA RONGE A","4064155","2018-11-09 13:00","2018","11","09","13:00","-11.4","","-15.5","","72","","","","17","","23","","24.1","","97.41","","","","-20","","Blowing Snow"
"-105.27","55.15","LA RONGE A","4064155","2018-11-09 14:00","2018","11","09","14:00","-11.1","","-15.0","","73","","","","17","","25","","22.5","","97.28","","","","-20","","Blowing Snow"
"-105.27","55.15","LA RONGE A","4064155","2018-11-09 15:00","2018","11","09","15:00","-10.1","","-14.1","","73","","","","16","","24","","24.1","","97.13","","","","-19","","Blowing Snow"
"-105.27","55.15","LA RONGE A","4064155","2018-11-09 16:00","2018","11","09","16:00","-10.3","","-14.5","","71","","","","16","","35","","24.1","","96.98","","","","-21","","Blowing Snow"
"-105.27","55.15","LA RONGE A","4064155","2018-11-09 17:00","2018","11","09","17:00","-10.3","","-14.2","","74","","","","17","","19","","24.1","","96.90","","","","-18","","Blowing Snow"
"-105.27","55.15","LA RONGE A","4064155","2018-11-09 18:00","2018","11","09","18:00","-10.7","","-14.8","","72","","","","18","","20","","24.1","","96.87","","","","-19","","Blowing Snow"
"-105.27","55.15","LA RONGE A","4064155","2018-11-09 19:00","2018","11","09","19:00","-11.1","","-14.7","","75","","","","18","","21","","24.1","","96.83","","","","-19","","Blowing Snow"
"-105.27","55.15","LA RONGE A","4064155","2018-11-09 20:00","2018","11","09","20:00","-11.3","","-14.5","","78","","","","17","","22","","16.1","","96.76","","","","-20","","Snow"
"-105.27","55.15","LA RONGE A","4064155","2018-11-09 21:00","2018","11","09","21:00","-11.3","","-14.4","","78","","","","17","","21","","9.7","","96.72","","","","-20","","Snow"
"-105.27","55.15","LA RONGE A","4064155","2018-11-09 22:00","2018","11","09","22:00","-11.0","","-14.4","","76","","","","17","","21","","19.3","","96.69","","","","-19","","Snow"
"-105.27","55.15","LA RONGE A","4064155","2018-11-09 23:00","2018","11","09","23:00","-10.8","","-13.6","","80","","","","17","","17","","9.7","","96.68","","","","-18","","Snow"
"-105.27","55.15","LA RONGE A","4064155","2018-11-10 00:00","2018","11","10","00:00","-10.6","","-13.0","","83","","","","18","","10","","9.7","","96.68","","","","-16","","Snow"
"-105.27","55.15","LA RONGE A","4064155","2018-11-10 01:00","2018","11","10","01:00","-11.1","","-13.2","","85","","","","20","","5","","12.9","","96.68","","","","-14","","Snow"
"-105.27","55.15","LA RONGE A","4064155","2018-11-10 02:00","2018","11","10","02:00","-11.2","","-13.2","","86","","","","19","","5","","9.7","","96.69","","","","-14","","Snow"
"-105.27","55.15","LA RONGE A","4064155","2018-11-10 03:00","2018","11","10","03:00","-11.9","","-13.5","","88","","","","26","","5","","9.7","","96.71","","","","-15","","Snow"
"-105.27","55.15","LA RONGE A","4064155","2018-11-10 04:00","2018","11","10","04:00","-13.7","","-15.0","","90","","","","31","","3","","9.7","","96.73","","","","-16","","Snow"
"-105.27","55.15","LA RONGE A","4064155","2018-11-10 05:00","2018","11","10","05:00","-13.1","","-14.5","","89","","","","33","","7","","16.1","","96.79","","","","-18","","Snow"
"-105.27","55.15","LA RONGE A","4064155","2018-11-10 06:00","2018","11","10","06:00","-13.3","","-14.7","","89","","","","32","","6","","16.1","","96.83","","","","-17","","Snow"
"-105.27","55.15","LA RONGE A","4064155","2018-11-10 07:00","2018","11","10","07:00","-12.5","","-14.1","","88","","","","29","","4","","12.9","","96.88","","","","-15","","Snow"
"-105.27","55.15","LA RONGE A","4064155","2018-11-10 08:00","2018","11","10","08:00","-12.0","","-13.7","","87","","","","30","","9","","9.7","","96.91","","","","-17","","Snow"
"-105.27","55.15","LA RONGE A","4064155","2018-11-10 09:00","2018","11","10","09:00","-11.9","","-13.6","","87","","","","29","","14","","9.7","","96.99","","","","-19","","Snow"
"-105.27","55.15","LA RONGE A","4064155","2018-11-10 10:00","2018","11","10","10:00","-11.5","","-13.3","","87","","","","28","","11","","16.1","","97.05","","","","-17","","Snow"
"-105.27","55.15","LA RONGE A","4064155","2018-11-10 11:00","2018","11","10","11:00","-9.9","","-12.2","","84","","","","28","","16","","9.7","","97.09","","","","-17","","Snow"
"-105.27","55.15","LA RONGE A","4064155","2018-11-10 12:00","2018","11","10","12:00","-9.0","","-11.1","","85","","","","30","","17","","9.7","","97.13","","","","-16","","Snow"
"-105.27","55.15","LA RONGE A","4064155","2018-11-10 13:00","2018","11","10","13:00","-8.1","","-10.9","","81","","","","31","","21","","9.7","","97.14","","","","-16","","Snow"
"-105.27","55.15","LA RONGE A","4064155","2018-11-10 14:00","2018","11","10","14:00","-8.9","","-12.1","","78","","","","29","","24","","9.7","","97.18","","","","-17","","Snow"
"-105.27","55.15","LA RONGE A","4064155","2018-11-10 15:00","2018","11","10","15:00","-9.0","","-13.1","","73","","","","31","","22","","9.7","","97.22","","","","-17","","Snow,Blowing Snow"
"-105.27","55.15","LA RONGE A","4064155","2018-11-10 16:00","2018","11","10","16:00","-8.8","","-12.3","","76","","","","29","","16","","9.7","","97.24","","","","-16","","Snow,Blowing Snow"
"-105.27","55.15","LA RONGE A","4064155","2018-11-10 17:00","2018","11","10","17:00","-8.8","","-11.5","","81","","","","25","","8","","6.4","","97.27","","","","-13","","Snow,Blowing Snow"
"-105.27","55.15","LA RONGE A","4064155","2018-11-10 18:00","2018","11","10","18:00","-8.6","","-11.1","","82","","","","28","","18","","9.7","","97.27","","","","-16","","Snow"
"-105.27","55.15","LA RONGE A","4064155","2018-11-10 19:00","2018","11","10","19:00","-9.3","","-13.4","","72","","","","32","","27","","6.4","","97.35","","","","-18","","Snow"
"-105.27","55.15","LA RONGE A","4064155","2018-11-10 20:00","2018","11","10","20:00","-9.5","","-13.9","","70","","","","32","","19","","8.1","","97.40","","","","-17","","Snow"
"-105.27","55.15","LA RONGE A","4064155","2018-11-10 21:00","2018","11","10","21:00","-9.6","","-13.3","","74","","","","30","","18","","8.1","","97.43","","","","-17","","Snow"
"-105.27","55.15","LA RONGE A","4064155","2018-11-10 22:00","2018","11","10","22:00","-9.6","","-13.7","","73","","","","29","","17","","12.9","","97.46","","","","-17","","Snow"
"-105.27","55.15","LA RONGE A","4064155","2018-11-10 23:00","2018","11","10","23:00","-10.1","","-13.8","","75","","","","28","","14","","24.1","","97.50","","","","-17","","NA"
"-105.27","55.15","LA RONGE A","4064155","2018-11-11 00:00","2018","11","11","00:00","-9.8","","-13.0","","77","","","","28","","18","","24.1","","97.52","","","","-17","","Cloudy"
"-105.27","55.15","LA RONGE A","4064155","2018-11-11 01:00","2018","11","11","01:00","-9.5","","-12.7","","78","","","","28","","23","","24.1","","97.57","","","","-18","","NA"
"-105.27","55.15","LA RONGE A","4064155","2018-11-11 02:00","2018","11","11","02:00","-9.4","","-12.6","","78","","","","29","","25","","19.3","","97.61","","","","-18","","Snow"
"-105.27","55.15","LA RONGE A","4064155","2018-11-11 03:00","2018","11","11","03:00","-9.3","","-12.6","","77","","","","29","","25","","19.3","","97.66","","","","-18","","Snow"
"-105.27","55.15","LA RONGE A","4064155","2018-11-11 04:00","2018","11","11","04:00","-9.3","","-14.1","","68","","","","31","","26","","19.3","","97.74","","","","-18","","Snow"
"-105.27","55.15","LA RONGE A","4064155","2018-11-11 05:00","2018","11","11","05:00","-9.6","","-14.3","","69","","","","32","","18","","19.3","","97.80","","","","-17","","Snow"
"-105.27","55.15","LA RONGE A","4064155","2018-11-11 06:00","2018","11","11","06:00","-10.1","","-14.8","","69","","","","31","","32","","6.4","","97.86","","","","-20","","Snow,Blowing Snow"
"-105.27","55.15","LA RONGE A","4064155","2018-11-11 07:00","2018","11","11","07:00","-10.2","","-14.5","","71","","","","31","","21","","9.7","","97.92","","","","-18","","Snow,Blowing Snow"
"-105.27","55.15","LA RONGE A","4064155","2018-11-11 08:00","2018","11","11","08:00","-10.3","","-14.4","","72","","","","31","","24","","19.3","","98.01","","","","-19","","Snow,Blowing Snow"
"-105.27","55.15","LA RONGE A","4064155","2018-11-11 09:00","2018","11","11","09:00","-10.9","","-14.1","","78","","","","32","","19","","9.7","","98.14","","","","-19","","Snow,Blowing Snow"
"-105.27","55.15","LA RONGE A","4064155","2018-11-11 10:00","2018","11","11","10:00","-11.0","","-14.7","","74","","","","32","","26","","9.7","","98.24","","","","-20","","Snow,Blowing Snow"
"-105.27","55.15","LA RONGE A","4064155","2018-11-11 11:00","2018","11","11","11:00","-10.7","","-16.2","","64","","","","30","","25","","19.3","","98.32","","","","-20","","Snow,Blowing Snow"
"-105.27","55.15","LA RONGE A","4064155","2018-11-11 12:00","2018","11","11","12:00","-11.4","","-17.5","","61","","","","32","","30","","16.1","","98.45","","","","-21","","Snow,Blowing Snow"
"-105.27","55.15","LA RONGE A","4064155","2018-11-11 13:00","2018","11","11","13:00","-11.8","","-16.3","","69","","","","34","","18","","16.1","","98.55","","","","-20","","Snow,Blowing Snow"
"-105.27","55.15","LA RONGE A","4064155","2018-11-11 14:00","2018","11","11","14:00","-12.0","","-17.4","","65","","","","32","","26","","16.1","","98.63","","","","-22","","Snow,Blowing Snow"
"-105.27","55.15","LA RONGE A","4064155","2018-11-11 15:00","2018","11","11","15:00","-11.7","","-17.1","","65","","","","33","","20","","12.9","","98.71","","","","-20","","Snow,Blowing Snow"
"-105.27","55.15","LA RONGE A","4064155","2018-11-11 16:00","2018","11","11","16:00","-11.5","","-16.9","","65","","","","34","","10","","19.3","","98.78","","","","-17","","Snow"
"-105.27","55.15","LA RONGE A","4064155","2018-11-11 17:00","2018","11","11","17:00","-12.3","","-17.3","","66","","","","28","","15","","24.1","","98.80","","","","-20","","NA"
"-105.27","55.15","LA RONGE A","4064155","2018-11-11 18:00","2018","11","11","18:00","-13.0","","-17.1","","72","","","","26","","12","","24.1","","98.82","","","","-20","","Mainly Clear"
"-105.27","55.15","LA RONGE A","4064155","2018-11-11 19:00","2018","11","11","19:00","-13.2","","-16.6","","75","","","","27","","16","","24.1","","98.85","","","","-21","","NA"
"-105.27","55.15","LA RONGE A","4064155","2018-11-11 20:00","2018","11","11","20:00","-12.3","","-16.1","","74","","","","27","","9","","24.1","","98.85","","","","-18","","Snow"
"-105.27","55.15","LA RONGE A","4064155","2018-11-11 21:00","2018","11","11","21:00","-11.7","","-15.4","","74","","","","27","","14","","19.3","","98.84","","","","-19","","Snow"
"-105.27","55.15","LA RONGE A","4064155","2018-11-11 22:00","2018","11","11","22:00","-11.9","","-15.5","","74","","","","27","","14","","9.7","","98.86","","","","-19","","Snow"
"-105.27","55.15","LA RONGE A","4064155","2018-11-11 23:00","2018","11","11","23:00","-12.3","","-15.9","","74","","","","27","","14","","24.1","","98.84","","","","-19","","NA"
"-105.27","55.15","LA RONGE A","4064155","2018-11-12 00:00","2018","11","12","00:00","-12.6","","-16.1","","75","","","","27","","14","","24.1","","98.87","","","","-20","","Cloudy"
"-105.27","55.15","LA RONGE A","4064155","2018-11-12 01:00","2018","11","12","01:00","-12.6","","-16.2","","74","","","","27","","18","","24.1","","98.84","","","","-21","","NA"
"-105.27","55.15","LA RONGE A","4064155","2018-11-12 02:00","2018","11","12","02:00","-12.6","","-16.1","","75","","","","27","","13","","24.1","","98.85","","","","-19","","NA"
"-105.27","55.15","LA RONGE A","4064155","2018-11-12 03:00","2018","11","12","03:00","-12.4","","-16.3","","73","","","","26","","11","","24.1","","98.86","","","","-18","","Cloudy"
"-105.27","55.15","LA RONGE A","4064155","2018-11-12 04:00","2018","11","12","04:00","-12.5","","-16.3","","74","","","","25","","8","","24.1","","98.80","","","","-17","","NA"
"-105.27","55.15","LA RONGE A","4064155","2018-11-12 05:00","2018","11","12","05:00","-12.5","","-16.2","","74","","","","27","","7","","12.9","","98.77","","","","-17","","Snow"
"-105.27","55.15","LA RONGE A","4064155","2018-11-12 06:00","2018","11","12","06:00","-12.7","","-15.8","","77","","","","26","","4","","24.1","","98.71","","","","-15","","Snow"
"-105.27","55.15","LA RONGE A","4064155","2018-11-12 07:00","2018","11","12","07:00","-13.1","","-15.5","","82","","","","36","","2","","24.1","","98.63","","","","-14","","Snow"
"-105.27","55.15","LA RONGE A","4064155","2018-11-12 08:00","2018","11","12","08:00","-12.7","","-15.1","","83","","","","20","","8","","24.1","","98.59","","","","-18","","Snow"
"-105.27","55.15","LA RONGE A","4064155","2018-11-12 09:00","2018","11","12","09:00","-12.8","","-15.4","","81","","","","20","","9","","24.1","","98.57","","","","-18","","Snow"
"-105.27","55.15","LA RONGE A","4064155","2018-11-12 10:00","2018","11","12","10:00","-12.4","","-15.3","","79","","","","20","","8","","24.1","","98.56","","","","-17","","Snow"
"-105.27","55.15","LA RONGE A","4064155","2018-11-12 11:00","2018","11","12","11:00","-11.6","","-14.9","","77","","","","20","","8","","24.1","","98.53","","","","-16","","Snow"
"-105.27","55.15","LA RONGE A","4064155","2018-11-12 12:00","2018","11","12","12:00","-11.0","","-15.0","","73","","","","19","","6","","24.1","","98.47","","","","-15","","Cloudy"
"-105.27","55.15","LA RONGE A","4064155","2018-11-12 13:00","2018","11","12","13:00","-10.9","","-14.9","","72","","","","14","","4","","24.1","","98.42","","","","-13","","Snow"
"-105.27","55.15","LA RONGE A","4064155","2018-11-12 14:00","2018","11","12","14:00","-10.6","","-14.7","","72","","","","36","","3","","24.1","","98.37","","","","-12","","Snow"
"-105.27","55.15","LA RONGE A","4064155","2018-11-12 15:00","2018","11","12","15:00","-10.0","","-14.0","","73","","","","20","","7","","19.3","","98.32","","","","-14","","Snow"
"-105.27","55.15","LA RONGE A","4064155","2018-11-12 16:00","2018","11","12","16:00","-10.1","","-13.6","","76","","","","18","","7","","19.3","","98.26","","","","-14","","Snow"
"-105.27","55.15","LA RONGE A","4064155","2018-11-12 17:00","2018","11","12","17:00","-10.0","","-13.2","","77","","","","20","","8","","19.3","","98.25","","","","-14","","Snow"
"-105.27","55.15","LA RONGE A","4064155","2018-11-12 18:00","2018","11","12","18:00","-9.9","","-12.9","","79","","","","17","","14","","24.1","","98.17","","","","-16","","Cloudy"
"-105.27","55.15","LA RONGE A","4064155","2018-11-12 19:00","2018","11","12","19:00","-10.1","","-13.0","","79","","","","16","","10","","24.1","","98.11","","","","-15","","NA"
"-105.27","55.15","LA RONGE A","4064155","2018-11-12 20:00","2018","11","12","20:00","-9.8","","-12.5","","81","","","","18","","14","","24.1","","98.05","","","","-16","","NA"
"-105.27","55.15","LA RONGE A","4064155","2018-11-12 21:00","2018","11","12","21:00","-9.8","","-12.6","","80","","","","17","","13","","24.1","","98.01","","","","-16","","Cloudy"
"-105.27","55.15","LA RONGE A","4064155","2018-11-12 22:00","2018","11","12","22:00","-9.6","","-12.2","","81","","","","16","","9","","24.1","","97.99","","","","-14","","NA"
"-105.27","55.15","LA RONGE A","4064155","2018-11-12 23:00","2018","11","12","23:00","-9.5","","-12.1","","82","","","","16","","8","","24.1","","97.97","","","","-14","","NA"
"-105.27","55.15","LA RONGE A","4064155","2018-11-13 00:00","2018","11","13","00:00","-9.6","","-12.0","","82","","","","16","","7","","16.1","","97.94","","","","-14","","Snow"
"-105.27","55.15","LA RONGE A","4064155","2018-11-13 01:00","2018","11","13","01:00","-9.2","","-11.6","","83","","","","16","","6","","19.3","","97.93","","","","-13","","Snow"
"-105.27","55.15","LA RONGE A","4064155","2018-11-13 02:00","2018","11","13","02:00","-9.2","","-11.5","","83","","","","18","","9","","19.3","","97.90","","","","-14","","Snow"
"-105.27","55.15","LA RONGE A","4064155","2018-11-13 03:00","2018","11","13","03:00","-9.1","","-11.5","","83","","","","36","","2","","24.1","","97.89","","","","-10","","Snow"
"-105.27","55.15","LA RONGE A","4064155","2018-11-13 04:00","2018","11","13","04:00","-8.8","","-11.0","","84","","","","8","","6","","19.3","","97.84","","","","-12","","Snow"
"-105.27","55.15","LA RONGE A","4064155","2018-11-13 05:00","2018","11","13","05:00","-8.8","","-10.9","","85","","","","12","","10","","24.1","","97.82","","","","-14","","Snow"
"-105.27","55.15","LA RONGE A","4064155","2018-11-13 06:00","2018","11","13","06:00","-8.9","","-11.0","","85","","","","9","","7","","24.1","","97.81","","","","-13","","Snow"
"-105.27","55.15","LA RONGE A","4064155","2018-11-13 07:00","2018","11","13","07:00","-8.9","","-11.0","","85","","","","9","","7","","9.7","","97.78","","","","-13","","Snow"
"-105.27","55.15","LA RONGE A","4064155","2018-11-13 08:00","2018","11","13","08:00","-8.9","","-10.9","","86","","","","8","","5","","12.9","","97.78","","","","-12","","Snow"
"-105.27","55.15","LA RONGE A","4064155","2018-11-13 09:00","2018","11","13","09:00","-9.1","","-11.1","","85","","","","7","","8","","9.7","","97.75","","","","-13","","Snow"
"-105.27","55.15","LA RONGE A","4064155","2018-11-13 10:00","2018","11","13","10:00","-9.0","","-11.2","","85","","","","9","","8","","9.7","","97.76","","","","-13","","Snow"
"-105.27","55.15","LA RONGE A","4064155","2018-11-13 11:00","2018","11","13","11:00","-9.1","","-11.3","","84","","","","11","","11","","19.3","","97.77","","","","-15","","Snow"
"-105.27","55.15","LA RONGE A","4064155","2018-11-13 12:00","2018","11","13","12:00","-9.2","","-11.5","","84","","","","11","","11","","24.1","","97.73","","","","-15","","Snow"
"-105.27","55.15","LA RONGE A","4064155","2018-11-13 13:00","2018","11","13","13:00","-8.9","","-11.5","","81","","","","11","","12","","9.7","","97.66","","","","-15","","Snow"
"-105.27","55.15","LA RONGE A","4064155","2018-11-13 14:00","2018","11","13","14:00","-8.8","","-11.4","","82","","","","12","","12","","19.3","","97.60","","","","-14","","Snow"
"-105.27","55.15","LA RONGE A","4064155","2018-11-13 15:00","2018","11","13","15:00","-8.4","","-11.0","","82","","","","9","","13","","24.1","","97.56","","","","-14","","Snow"
"-105.27","55.15","LA RONGE A","4064155","2018-11-13 16:00","2018","11","13","16:00","-8.9","","-11.3","","83","","","","10","","12","","24.1","","97.50","","","","-15","","NA"
"-105.27","55.15","LA RONGE A","4064155","2018-11-13 17:00","2018","11","13","17:00","-8.5","","-11.0","","83","","","","10","","16","","24.1","","97.48","","","","-15","","NA"
"-105.27","55.15","LA RONGE A","4064155","2018-11-13 18:00","2018","11","13","18:00","-8.7","","-11.0","","83","","","","10","","14","","24.1","","97.45","","","","-15","","Cloudy"
"-105.27","55.15","LA RONGE A","4064155","2018-11-13 19:00","2018","11","13","19:00","-8.8","","-11.0","","84","","","","10","","14","","24.1","","97.38","","","","-15","","NA"
"-105.27","55.15","LA RONGE A","4064155","2018-11-13 20:00","2018","11","13","20:00","-8.8","","-11.5","","81","","","","13","","22","","24.1","","97.27","","","","-17","","NA"
"-105.27","55.15","LA RONGE A","4064155","2018-11-13 21:00","2018","11","13","21:00","-8.9","","-11.5","","82","","","","14","","19","","24.1","","97.21","","","","-16","","Cloudy"
"-105.27","55.15","LA RONGE A","4064155","2018-11-13 22:00","2018","11","13","22:00","-9.1","","-11.5","","83","","","","15","","18","","24.1","","97.19","","","","-16","","NA"
"-105.27","55.15","LA RONGE A","4064155","2018-11-13 23:00","2018","11","13","23:00","-9.4","","-11.8","","83","","","","14","","19","","24.1","","97.15","","","","-17","","NA"
"-105.27","55.15","LA RONGE A","4064155","2018-11-14 00:00","2018","11","14","00:00","-9.5","","-11.6","","85","","","","14","","17","","24.1","","97.07","","","","-17","","Cloudy"
"-105.27","55.15","LA RONGE A","4064155","2018-11-14 01:00","2018","11","14","01:00","-9.4","","-11.1","","88","","","","13","","20","","24.1","","96.92","","","","-17","","NA"
"-105.27","55.15","LA RONGE A","4064155","2018-11-14 02:00","2018","11","14","02:00","-9.0","","-10.7","","87","","","","13","","17","","24.1","","96.88","","","","-16","","NA"
"-105.27","55.15","LA RONGE A","4064155","2018-11-14 03:00","2018","11","14","03:00","-8.7","","-10.3","","88","","","","14","","17","","24.1","","96.76","","","","-16","","Cloudy"
"-105.27","55.15","LA RONGE A","4064155","2018-11-14 04:00","2018","11","14","04:00","-8.2","","-10.0","","87","","","","14","","21","","24.1","","96.62","","","","-16","","NA"
"-105.27","55.15","LA RONGE A","4064155","2018-11-14 05:00","2018","11","14","05:00","-7.8","","-9.6","","87","","","","15","","19","","24.1","","96.46","","","","-15","","NA"
"-105.27","55.15","LA RONGE A","4064155","2018-11-14 06:00","2018","11","14","06:00","-7.3","","-9.2","","87","","","","15","","17","","24.1","","96.36","","","","-14","","Mostly Cloudy"
"-105.27","55.15","LA RONGE A","4064155","2018-11-14 07:00","2018","11","14","07:00","-7.1","","-8.9","","87","","","","17","","17","","24.1","","96.31","","","","-14","","NA"
"-105.27","55.15","LA RONGE A","4064155","2018-11-14 08:00","2018","11","14","08:00","-7.2","","-9.0","","87","","","","16","","13","","24.1","","96.24","","","","-13","","NA"
"-105.27","55.15","LA RONGE A","4064155","2018-11-14 09:00","2018","11","14","09:00","-7.6","","-9.1","","89","","","","17","","11","","24.1","","96.19","","","","-13","","Mostly Cloudy"
"-105.27","55.15","LA RONGE A","4064155","2018-11-14 10:00","2018","11","14","10:00","-6.4","","-8.4","","86","","","","20","","5","","24.1","","96.18","","","","-9","","NA"
"-105.27","55.15","LA RONGE A","4064155","2018-11-14 11:00","2018","11","14","11:00","-3.8","","-6.2","","83","","","","22","","9","","24.1","","96.11","","","","-8","","NA"
"-105.27","55.15","LA RONGE A","4064155","2018-11-14 12:00","2018","11","14","12:00","-2.9","","-5.5","","82","","","","23","","7","","24.1","","96.12","","","","-6","","Mostly Cloudy"
"-105.27","55.15","LA RONGE A","4064155","2018-11-14 13:00","2018","11","14","13:00","0.0","","-3.2","","80","","","","22","","10","","24.1","","96.09","","","","-3","","NA"
"-105.27","55.15","LA RONGE A","4064155","2018-11-14 14:00","2018","11","14","14:00","2.5","","-1.8","","73","","","","25","","9","","24.1","","96.01","","","","","","NA"
"-105.27","55.15","LA RONGE A","4064155","2018-11-14 15:00","2018","11","14","15:00","3.6","","-1.1","","72","","","","26","","11","","24.1","","95.99","","","","","","Mainly Clear"
"-105.27","55.15","LA RONGE A","4064155","2018-11-14 16:00","2018","11","14","16:00","3.2","","-1.2","","73","","","","29","","14","","24.1","","96.03","","","","","","NA"
"-105.27","55.15","LA RONGE A","4064155","2018-11-14 17:00","2018","11","14","17:00","0.9","","-1.3","","85","","","","29","","5","","24.1","","96.07","","","","","","NA"
"-105.27","55.15","LA RONGE A","4064155","2018-11-14 18:00","2018","11","14","18:00","-1.4","","-2.6","","91","","","","26","","5","","24.1","","96.19","","","","-3","","Clear"
"-105.27","55.15","LA RONGE A","4064155","2018-11-14 19:00","2018","11","14","19:00","-2.1","","-3.8","","88","","","","31","","8","","24.1","","96.29","","","","-5","","NA"
"-105.27","55.15","LA RONGE A","4064155","2018-11-14 20:00","2018","11","14","20:00","0.0","","-2.4","","84","","","","32","","11","","24.1","","96.36","","","","-4","","NA"
"-105.27","55.15","LA RONGE A","4064155","2018-11-14 21:00","2018","11","14","21:00","-0.5","","-3.4","","81","","","","32","","15","","24.1","","96.42","","","","-5","","Cloudy"
"-105.27","55.15","LA RONGE A","4064155","2018-11-14 22:00","2018","11","14","22:00","-1.2","","-3.9","","82","","","","35","","9","","24.1","","96.44","","","","-4","","NA"
"-105.27","55.15","LA RONGE A","4064155","2018-11-14 23:00","2018","11","14","23:00","-2.1","","-4.7","","82","","","","35","","13","","24.1","","96.52","","","","-7","","NA"
"-105.27","55.15","LA RONGE A","4064155","2018-11-15 00:00","2018","11","15","00:00","-2.4","","-5.1","","82","","","","33","","12","","24.1","","96.64","","","","-7","","Cloudy"
"-105.27","55.15","LA RONGE A","4064155","2018-11-15 01:00","2018","11","15","01:00","-2.8","","-5.4","","82","","","","33","","9","","24.1","","96.73","","","","-6","","NA"
"-105.27","55.15","LA RONGE A","4064155","2018-11-15 02:00","2018","11","15","02:00","-3.7","","-5.3","","89","","","","34","","10","","24.1","","96.85","","","","-8","","NA"
"-105.27","55.15","LA RONGE A","4064155","2018-11-15 03:00","2018","11","15","03:00","-5.2","","-6.1","","94","","","","2","","17","","24.1","","96.93","","","","-11","","Cloudy"
"-105.27","55.15","LA RONGE A","4064155","2018-11-15 04:00","2018","11","15","04:00","-6.9","","-8.0","","92","","","","36","","19","","24.1","","97.02","","","","-14","","NA"
"-105.27","55.15","LA RONGE A","4064155","2018-11-15 05:00","2018","11","15","05:00","-7.6","","-8.8","","92","","","","36","","12","","16.1","","97.11","","","","-13","","Freezing Drizzle"
"-105.27","55.15","LA RONGE A","4064155","2018-11-15 06:00","2018","11","15","06:00","-9.0","","-10.9","","86","","","","1","","20","","9.7","","97.20","","","","-17","","Snow"
"-105.27","55.15","LA RONGE A","4064155","2018-11-15 07:00","2018","11","15","07:00","-10.0","","-12.3","","83","","","","1","","18","","9.7","","97.29","","","","-17","","Snow"
"-105.27","55.15","LA RONGE A","4064155","2018-11-15 08:00","2018","11","15","08:00","-10.6","","-13.1","","82","","","","3","","14","","24.1","","97.36","","","","-17","","Snow"
"-105.27","55.15","LA RONGE A","4064155","2018-11-15 09:00","2018","11","15","09:00","-11.4","","-14.2","","80","","","","3","","18","","19.3","","97.41","","","","-19","","Snow"
"-105.27","55.15","LA RONGE A","4064155","2018-11-15 10:00","2018","11","15","10:00","-12.2","","-14.7","","82","","","","3","","16","","16.1","","97.49","","","","-20","","Snow"
"-105.27","55.15","LA RONGE A","4064155","2018-11-15 11:00","2018","11","15","11:00","-13.1","","-16.2","","78","","","","1","","14","","8.1","","97.58","","","","-20","","Snow"
"-105.27","55.15","LA RONGE A","4064155","2018-11-15 12:00","2018","11","15","12:00","-13.3","","-16.7","","76","","","","1","","17","","16.1","","97.59","","","","-21","","Snow"
"-105.27","55.15","LA RONGE A","4064155","2018-11-15 13:00","2018","11","15","13:00","-13.2","","-16.8","","75","","","","1","","13","","24.1","","97.61","","","","-20","","Snow"
"-105.27","55.15","LA RONGE A","4064155","2018-11-15 14:00","2018","11","15","14:00","-12.8","","-16.3","","75","","","","3","","10","","24.1","","97.62","","","","-19","","Snow"
"-105.27","55.15","LA RONGE A","4064155","2018-11-15 15:00","2018","11","15","15:00","-13.3","","-17.3","","72","","","","2","","12","","24.1","","97.62","","","","-20","","Snow"
"-105.27","55.15","LA RONGE A","4064155","2018-11-15 16:00","2018","11","15","16:00","-13.4","","-17.3","","73","","","","3","","14","","24.1","","97.66","","","","-21","","Snow"
"-105.27","55.15","LA RONGE A","4064155","2018-11-15 17:00","2018","11","15","17:00","-14.5","","-17.8","","76","","","","1","","13","","24.1","","97.74","","","","-22","","NA"
"-105.27","55.15","LA RONGE A","4064155","2018-11-15 18:00","2018","11","15","18:00","-15.5","","-18.7","","77","","","","1","","14","","24.1","","97.77","","","","-23","","Mostly Cloudy"
"-105.27","55.15","LA RONGE A","4064155","2018-11-15 19:00","2018","11","15","19:00","-16.2","","-19.5","","76","","","","1","","17","","24.1","","97.79","","","","-25","","NA"
"-105.27","55.15","LA RONGE A","4064155","2018-11-15 20:00","2018","11","15","20:00","-16.7","","-19.9","","77","","","","1","","18","","24.1","","97.83","","","","-26","","Snow"
"-105.27","55.15","LA RONGE A","4064155","2018-11-15 21:00","2018","11","15","21:00","-16.6","","-19.3","","80","","","","1","","16","","24.1","","97.85","","","","-25","","Snow"
"-105.27","55.15","LA RONGE A","4064155","2018-11-15 22:00","2018","11","15","22:00","-16.9","","-19.3","","82","","","","36","","16","","19.3","","97.89","","","","-26","","Snow"
"-105.27","55.15","LA RONGE A","4064155","2018-11-15 23:00","2018","11","15","23:00","-15.9","","-18.0","","84","","","","3","","14","","19.3","","97.95","","","","-24","","Snow"
"-105.27","55.15","LA RONGE A","4064155","2018-11-16 00:00","2018","11","16","00:00","-16.9","","-19.4","","82","","","","1","","18","","19.3","","98.02","","","","-26","","Snow"
"-105.27","55.15","LA RONGE A","4064155","2018-11-16 01:00","2018","11","16","01:00","-17.9","","-20.3","","82","","","","36","","18","","24.1","","98.10","","","","-27","","Snow"
"-105.27","55.15","LA RONGE A","4064155","2018-11-16 02:00","2018","11","16","02:00","-18.4","","-21.0","","80","","","","35","","12","","24.1","","98.18","","","","-26","","Snow"
"-105.27","55.15","LA RONGE A","4064155","2018-11-16 03:00","2018","11","16","03:00","-18.9","","-21.1","","83","","","","36","","11","","24.1","","98.23","","","","-26","","Snow"
"-105.27","55.15","LA RONGE A","4064155","2018-11-16 04:00","2018","11","16","04:00","-19.3","","-21.6","","82","","","","34","","9","","24.1","","98.34","","","","-26","","Snow"
"-105.27","55.15","LA RONGE A","4064155","2018-11-16 05:00","2018","11","16","05:00","-19.9","","-22.2","","82","","","","34","","8","","24.1","","98.39","","","","-26","","Snow"
"-105.27","55.15","LA RONGE A","4064155","2018-11-16 06:00","2018","11","16","06:00","-20.4","","-22.9","","81","","","","35","","12","","24.1","","98.48","","","","-29","","Clear"
"-105.27","55.15","LA RONGE A","4064155","2018-11-16 07:00","2018","11","16","07:00","-20.7","","-23.4","","79","","","","34","","8","","24.1","","98.59","","","","-27","","NA"
"-105.27","55.15","LA RONGE A","4064155","2018-11-16 08:00","2018","11","16","08:00","-21.1","","-23.8","","79","","","","33","","10","","24.1","","98.70","","","","-29","","NA"
"-105.27","55.15","LA RONGE A","4064155","2018-11-16 09:00","2018","11","16","09:00","-22.3","","-25.0","","79","","","","32","","9","","24.1","","98.80","","","","-29","","Mainly Clear"
"-105.27","55.15","LA RONGE A","4064155","2018-11-16 10:00","2018","11","16","10:00","-21.8","","-24.5","","79","","","","29","","12","","24.1","","98.84","","","","-30","","NA"
"-105.27","55.15","LA RONGE A","4064155","2018-11-16 11:00","2018","11","16","11:00","-20.9","","-24.0","","77","","","","29","","16","","24.1","","98.90","","","","-31","","NA"
"-105.27","55.15","LA RONGE A","4064155","2018-11-16 12:00","2018","11","16","12:00","-19.9","","-23.7","","72","","","","28","","13","","24.1","","98.94","","","","-28","","Mainly Clear"
"-105.27","55.15","LA RONGE A","4064155","2018-11-16 13:00","2018","11","16","13:00","-18.6","","-23.1","","68","","","","29","","14","","24.1","","98.93","","","","-27","","NA"
"-105.27","55.15","LA RONGE A","4064155","2018-11-16 14:00","2018","11","16","14:00","-17.4","","-22.5","","65","","","","29","","12","","24.1","","98.91","","","","-25","","NA"
"-105.27","55.15","LA RONGE A","4064155","2018-11-16 15:00","2018","11","16","15:00","-16.3","","-22.1","","62","","","","27","","15","","24.1","","98.92","","","","-25","","Mainly Clear"
"-105.27","55.15","LA RONGE A","4064155","2018-11-16 16:00","2018","11","16","16:00","-15.6","","-21.3","","62","","","","26","","14","","24.1","","98.90","","","","-23","","NA"
"-105.27","55.15","LA RONGE A","4064155","2018-11-16 17:00","2018","11","16","17:00","-16.1","","-20.6","","69","","","","24","","12","","24.1","","98.90","","","","-23","","NA"
"-105.27","55.15","LA RONGE A","4064155","2018-11-16 18:00","2018","11","16","18:00","-17.0","","-21.6","","68","","","","27","","9","","24.1","","98.88","","","","-23","","Mainly Clear"
"-105.27","55.15","LA RONGE A","4064155","2018-11-16 19:00","2018","11","16","19:00","-18.0","","-21.9","","72","","","","25","","10","","24.1","","98.84","","","","-25","","NA"
"-105.27","55.15","LA RONGE A","4064155","2018-11-16 20:00","2018","11","16","20:00","-18.1","","-21.7","","74","","","","24","","10","","24.1","","98.78","","","","-25","","NA"
"-105.27","55.15","LA RONGE A","4064155","2018-11-16 21:00","2018","11","16","21:00","-17.9","","-21.1","","76","","","","25","","12","","24.1","","98.77","","","","-25","","Clear"
"-105.27","55.15","LA RONGE A","4064155","2018-11-16 22:00","2018","11","16","22:00","-18.1","","-21.2","","77","","","","25","","9","","24.1","","98.66","","","","-24","","NA"
"-105.27","55.15","LA RONGE A","4064155","2018-11-16 23:00","2018","11","16","23:00","-17.9","","-20.8","","79","","","","24","","11","","24.1","","98.57","","","","-25","","NA"
"-105.27","55.15","LA RONGE A","4064155","2018-11-17 00:00","2018","11","17","00:00","-18.7","","-21.1","","82","","","","22","","11","","24.1","","98.46","","","","-26","","Mainly Clear"
"-105.27","55.15","LA RONGE A","4064155","2018-11-17 01:00","2018","11","17","01:00","-18.7","","-21.1","","82","","","","22","","11","","24.1","","98.38","","","","-26","","NA"
"-105.27","55.15","LA RONGE A","4064155","2018-11-17 02:00","2018","11","17","02:00","-18.1","","-20.6","","81","","","","23","","15","","24.1","","98.26","","","","-27","","NA"
"-105.27","55.15","LA RONGE A","4064155","2018-11-17 03:00","2018","11","17","03:00","-18.3","","-20.5","","83","","","","23","","12","","24.1","","98.14","","","","-26","","Clear"
"-105.27","55.15","LA RONGE A","4064155","2018-11-17 04:00","2018","11","17","04:00","-17.6","","-19.9","","83","","","","22","","10","","24.1","","98.06","","","","-24","","NA"
"-105.27","55.15","LA RONGE A","4064155","2018-11-17 05:00","2018","11","17","05:00","-16.1","","-19.0","","79","","","","24","","16","","24.1","","97.94","","","","-25","","NA"
"-105.27","55.15","LA RONGE A","4064155","2018-11-17 06:00","2018","11","17","06:00","-16.2","","-19.2","","78","","","","25","","13","","24.1","","97.87","","","","-24","","Mainly Clear"
"-105.27","55.15","LA RONGE A","4064155","2018-11-17 07:00","2018","11","17","07:00","-16.7","","-19.4","","80","","","","25","","11","","24.1","","97.78","","","","-24","","NA"
"-105.27","55.15","LA RONGE A","4064155","2018-11-17 08:00","2018","11","17","08:00","-16.5","","-19.1","","80","","","","26","","15","","24.1","","97.71","","","","-25","","NA"
"-105.27","55.15","LA RONGE A","4064155","2018-11-17 09:00","2018","11","17","09:00","-16.5","","-19.1","","81","","","","26","","14","","24.1","","97.67","","","","-24","","Mostly Cloudy"
"-105.27","55.15","LA RONGE A","4064155","2018-11-17 10:00","2018","11","17","10:00","-15.6","","-18.2","","80","","","","27","","15","","24.1","","97.64","","","","-24","","NA"
"-105.27","55.15","LA RONGE A","4064155","2018-11-17 11:00","2018","11","17","11:00","-15.0","","-17.8","","80","","","","27","","21","","24.1","","97.58","","","","-24","","NA"
"-105.27","55.15","LA RONGE A","4064155","2018-11-17 12:00","2018","11","17","12:00","-14.5","","-17.4","","78","","","","28","","20","","24.1","","97.55","","","","-24","","Mostly Cloudy"
"-105.27","55.15","LA RONGE A","4064155","2018-11-17 13:00","2018","11","17","13:00","-14.2","","-17.4","","77","","","","26","","16","","24.1","","97.48","","","","-22","","NA"
"-105.27","55.15","LA RONGE A","4064155","2018-11-17 14:00","2018","11","17","14:00","-13.2","","-17.0","","73","","","","29","","17","","24.1","","97.48","","","","-21","","NA"
"-105.27","55.15","LA RONGE A","4064155","2018-11-17 15:00","2018","11","17","15:00","-13.3","","-17.3","","73","","","","32","","20","","24.1","","97.49","","","","-22","","Mostly Cloudy"
"-105.27","55.15","LA RONGE A","4064155","2018-11-17 16:00","2018","11","17","16:00","-13.3","","-17.0","","74","","","","32","","15","","24.1","","97.47","","","","-21","","NA"
"-105.27","55.15","LA RONGE A","4064155","2018-11-17 17:00","2018","11","17","17:00","-14.4","","-17.4","","79","","","","1","","14","","24.1","","97.52","","","","-22","","NA"
"-105.27","55.15","LA RONGE A","4064155","2018-11-17 18:00","2018","11","17","18:00","-14.9","","-17.7","","79","","","","36","","13","","19.3","","97.54","","","","-22","","Snow"
"-105.27","55.15","LA RONGE A","4064155","2018-11-17 19:00","2018","11","17","19:00","-15.2","","-18.0","","79","","","","36","","13","","19.3","","97.54","","","","-23","","Snow"
"-105.27","55.15","LA RONGE A","4064155","2018-11-17 20:00","2018","11","17","20:00","-15.8","","-19.1","","76","","","","1","","13","","19.3","","97.54","","","","-23","","Snow"
"-105.27","55.15","LA RONGE A","4064155","2018-11-17 21:00","2018","11","17","21:00","-15.9","","-19.3","","76","","","","36","","10","","19.3","","97.49","","","","-22","","Cloudy"
"-105.27","55.15","LA RONGE A","4064155","2018-11-17 22:00","2018","11","17","22:00","-15.8","","-19.2","","76","","","","33","","8","","24.1","","97.48","","","","-21","","Snow"
"-105.27","55.15","LA RONGE A","4064155","2018-11-17 23:00","2018","11","17","23:00","-15.9","","-19.0","","78","","","","29","","9","","19.3","","97.48","","","","-22","","Snow"
"-105.27","55.15","LA RONGE A","4064155","2018-11-18 00:00","2018","11","18","00:00","-15.6","","-18.8","","77","","","","0","","1","","19.3","","97.45","","","","-16","","Snow"
"-105.27","55.15","LA RONGE A","4064155","2018-11-18 01:00","2018","11","18","01:00","-15.6","","-18.4","","79","","","","36","","2","","12.9","","97.46","","","","-17","","Snow"
"-105.27","55.15","LA RONGE A","4064155","2018-11-18 02:00","2018","11","18","02:00","-15.2","","-18.4","","77","","","","2","","5","","12.9","","97.42","","","","-19","","Snow"
"-105.27","55.15","LA RONGE A","4064155","2018-11-18 03:00","2018","11","18","03:00","-14.8","","-18.0","","77","","","","7","","8","","12.9","","97.39","","","","-20","","Snow"
"-105.27","55.15","LA RONGE A","4064155","2018-11-18 04:00","2018","11","18","04:00","-14.6","","-18.1","","75","","","","6","","10","","12.9","","97.39","","","","-21","","Snow"
"-105.27","55.15","LA RONGE A","4064155","2018-11-18 05:00","2018","11","18","05:00","-15.0","","-17.7","","80","","","","16","","4","","9.7","","97.38","","","","-18","","Snow"
"-105.27","55.15","LA RONGE A","4064155","2018-11-18 06:00","2018","11","18","06:00","-15.0","","-17.6","","81","","","","12","","5","","9.7","","97.40","","","","-19","","Snow"
"-105.27","55.15","LA RONGE A","4064155","2018-11-18 07:00","2018","11","18","07:00","-14.8","","-18.0","","77","","","","13","","12","","9.7","","97.39","","","","-22","","Snow"
"-105.27","55.15","LA RONGE A","4064155","2018-11-18 08:00","2018","11","18","08:00","-14.9","","-18.2","","76","","","","10","","13","","24.1","","97.42","","","","-22","","Snow"
"-105.27","55.15","LA RONGE A","4064155","2018-11-18 09:00","2018","11","18","09:00","-15.0","","-18.1","","78","","","","14","","13","","24.1","","97.44","","","","-22","","Snow"
"-105.27","55.15","LA RONGE A","4064155","2018-11-18 10:00","2018","11","18","10:00","-14.9","","-18.0","","78","","","","12","","11","","24.1","","97.45","","","","-21","","Snow"
"-105.27","55.15","LA RONGE A","4064155","2018-11-18 11:00","2018","11","18","11:00","-14.6","","-18.1","","75","","","","11","","14","","24.1","","97.51","","","","-22","","Snow"
"-105.27","55.15","LA RONGE A","4064155","2018-11-18 12:00","2018","11","18","12:00","-14.5","","-17.8","","76","","","","10","","12","","24.1","","97.55","","","","-21","","Snow"
"-105.27","55.15","LA RONGE A","4064155","2018-11-18 13:00","2018","11","18","13:00","-14.4","","-18.1","","74","","","","11","","10","","24.1","","97.59","","","","-21","","Snow"
"-105.27","55.15","LA RONGE A","4064155","2018-11-18 14:00","2018","11","18","14:00","-14.3","","-18.2","","72","","","","10","","11","","19.3","","97.60","","","","-21","","Snow"
"-105.27","55.15","LA RONGE A","4064155","2018-11-18 15:00","2018","11","18","15:00","-14.3","","-17.9","","75","","","","6","","10","","19.3","","97.65","","","","-20","","Snow"
"-105.27","55.15","LA RONGE A","4064155","2018-11-18 16:00","2018","11","18","16:00","-14.9","","-18.7","","73","","","","6","","13","","19.3","","97.72","","","","-22","","Snow"
"-105.27","55.15","LA RONGE A","4064155","2018-11-18 17:00","2018","11","18","17:00","-14.9","","-18.4","","75","","","","8","","9","","19.3","","97.77","","","","-21","","Snow"
"-105.27","55.15","LA RONGE A","4064155","2018-11-18 18:00","2018","11","18","18:00","-15.3","","-18.8","","75","","","","8","","9","","19.3","","97.84","","","","-21","","Snow"
"-105.27","55.15","LA RONGE A","4064155","2018-11-18 19:00","2018","11","18","19:00","-15.4","","-18.9","","74","","","","6","","13","","19.3","","97.87","","","","-23","","Snow"
"-105.27","55.15","LA RONGE A","4064155","2018-11-18 20:00","2018","11","18","20:00","-15.5","","-19.1","","75","","","","7","","10","","19.3","","97.94","","","","-22","","Snow"
"-105.27","55.15","LA RONGE A","4064155","2018-11-18 21:00","2018","11","18","21:00","-15.7","","-19.0","","76","","","","5","","18","","19.3","","97.96","","","","-25","","Snow"
"-105.27","55.15","LA RONGE A","4064155","2018-11-18 22:00","2018","11","18","22:00","-15.8","","-19.1","","76","","","","7","","10","","24.1","","97.98","","","","-22","","Snow"
"-105.27","55.15","LA RONGE A","4064155","2018-11-18 23:00","2018","11","18","23:00","-15.7","","-19.1","","75","","","","11","","7","","19.3","","98.05","","","","-21","","Snow"
"-105.27","55.15","LA RONGE A","4064155","2018-11-19 00:00","2018","11","19","00:00","-15.9","","-19.1","","76","","","","12","","9","","16.1","","98.07","","","","-22","","Snow"
"-105.27","55.15","LA RONGE A","4064155","2018-11-19 01:00","2018","11","19","01:00","-15.9","","-18.8","","79","","","","13","","9","","16.1","","98.08","","","","-22","","Snow"
"-105.27","55.15","LA RONGE A","4064155","2018-11-19 02:00","2018","11","19","02:00","-16.1","","-18.8","","80","","","","20","","9","","6.4","","98.09","","","","-22","","Snow"
"-105.27","55.15","LA RONGE A","4064155","2018-11-19 03:00","2018","11","19","03:00","-16.2","","-18.8","","81","","","","22","","7","","8.1","","98.09","","","","-21","","Snow"
"-105.27","55.15","LA RONGE A","4064155","2018-11-19 04:00","2018","11","19","04:00","-16.2","","-18.9","","80","","","","19","","10","","9.7","","98.08","","","","-23","","Snow"
"-105.27","55.15","LA RONGE A","4064155","2018-11-19 05:00","2018","11","19","05:00","-16.2","","-18.8","","81","","","","21","","10","","9.7","","98.02","","","","-23","","Snow"
"-105.27","55.15","LA RONGE A","4064155","2018-11-19 06:00","2018","11","19","06:00","-16.1","","-18.6","","81","","","","20","","11","","9.7","","97.95","","","","-23","","Snow"
"-105.27","55.15","LA RONGE A","4064155","2018-11-19 07:00","2018","11","19","07:00","-16.0","","-18.5","","82","","","","19","","13","","9.7","","97.91","","","","-24","","Snow"
"-105.27","55.15","LA RONGE A","4064155","2018-11-19 08:00","2018","11","19","08:00","-15.7","","-18.1","","82","","","","19","","15","","16.1","","97.82","","","","-24","","Snow"
"-105.27","55.15","LA RONGE A","4064155","2018-11-19 09:00","2018","11","19","09:00","-15.5","","-18.4","","79","","","","18","","12","","19.3","","97.78","","","","-23","","Snow"
"-105.27","55.15","LA RONGE A","4064155","2018-11-19 10:00","2018","11","19","10:00","-15.6","","-18.5","","79","","","","16","","16","","24.1","","97.69","","","","-24","","Snow"
"-105.27","55.15","LA RONGE A","4064155","2018-11-19 11:00","2018","11","19","11:00","-15.1","","-18.1","","78","","","","17","","19","","19.3","","97.65","","","","-24","","Snow"
"-105.27","55.15","LA RONGE A","4064155","2018-11-19 12:00","2018","11","19","12:00","-14.5","","-17.7","","77","","","","17","","19","","9.7","","97.51","","","","-23","","Snow"
"-105.27","55.15","LA RONGE A","4064155","2018-11-19 13:00","2018","11","19","13:00","-13.5","","-16.3","","80","","","","17","","16","","9.7","","97.31","","","","-21","","Snow"
"-105.27","55.15","LA RONGE A","4064155","2018-11-19 14:00","2018","11","19","14:00","-12.8","","-15.5","","80","","","","16","","20","","4.8","","97.17","","","","-21","","Snow"
"-105.27","55.15","LA RONGE A","4064155","2018-11-19 15:00","2018","11","19","15:00","-12.2","","-14.9","","81","","","","17","","21","","4.8","","97.01","","","","-21","","Snow"
"-105.27","55.15","LA RONGE A","4064155","2018-11-19 16:00","2018","11","19","16:00","-11.8","","-14.1","","83","","","","14","","10","","4.8","","96.94","","","","-17","","Snow"
"-105.27","55.15","LA RONGE A","4064155","2018-11-19 17:00","2018","11","19","17:00","-11.4","","-13.4","","86","","","","15","","10","","3.2","","96.89","","","","-17","","Snow"
"-105.27","55.15","LA RONGE A","4064155","2018-11-19 18:00","2018","11","19","18:00","-11.1","","-13.0","","86","","","","15","","13","","4.8","","96.80","","","","-18","","Snow"
"-105.27","55.15","LA RONGE A","4064155","2018-11-19 19:00","2018","11","19","19:00","-10.8","","-12.7","","86","","","","16","","8","","12.9","","96.78","","","","-15","","Snow"
"-105.27","55.15","LA RONGE A","4064155","2018-11-19 20:00","2018","11","19","20:00","-10.8","","-13.0","","84","","","","18","","9","","24.1","","96.73","","","","-16","","Snow"
"-105.27","55.15","LA RONGE A","4064155","2018-11-19 21:00","2018","11","19","21:00","-11.4","","-13.2","","86","","","","29","","4","","24.1","","96.74","","","","-14","","Snow"
"-105.27","55.15","LA RONGE A","4064155","2018-11-19 22:00","2018","11","19","22:00","-10.9","","-12.9","","85","","","","34","","4","","24.1","","96.73","","","","-13","","NA"
"-105.27","55.15","LA RONGE A","4064155","2018-11-19 23:00","2018","11","19","23:00","-10.9","","-12.7","","86","","","","1","","5","","24.1","","96.77","","","","-14","","NA"
"-105.27","55.15","LA RONGE A","4064155","2018-11-20 00:00","2018","11","20","00:00","-11.3","","-13.0","","87","","","","1","","8","","24.1","","96.82","","","","-16","","Cloudy"
"-105.27","55.15","LA RONGE A","4064155","2018-11-20 01:00","2018","11","20","01:00","-11.5","","-13.4","","86","","","","2","","9","","24.1","","96.86","","","","-17","","NA"
"-105.27","55.15","LA RONGE A","4064155","2018-11-20 02:00","2018","11","20","02:00","-11.7","","-13.8","","84","","","","1","","8","","24.1","","96.92","","","","-16","","NA"
"-105.27","55.15","LA RONGE A","4064155","2018-11-20 03:00","2018","11","20","03:00","-12.1","","-14.5","","82","","","","3","","13","","24.1","","96.94","","","","-19","","Cloudy"
"-105.27","55.15","LA RONGE A","4064155","2018-11-20 04:00","2018","11","20","04:00","-12.4","","-15.2","","80","","","","2","","12","","19.3","","97.05","","","","-19","","Snow"
"-105.27","55.15","LA RONGE A","4064155","2018-11-20 05:00","2018","11","20","05:00","-12.9","","-15.7","","79","","","","3","","14","","12.9","","97.12","","","","-20","","Snow"
"-105.27","55.15","LA RONGE A","4064155","2018-11-20 06:00","2018","11","20","06:00","-13.3","","-16.2","","79","","","","5","","15","","12.9","","97.13","","","","-21","","Snow"
"-105.27","55.15","LA RONGE A","4064155","2018-11-20 07:00","2018","11","20","07:00","-13.7","","-16.7","","78","","","","4","","15","","12.9","","97.21","","","","-21","","Snow"
"-105.27","55.15","LA RONGE A","4064155","2018-11-20 08:00","2018","11","20","08:00","-14.2","","-17.3","","78","","","","5","","17","","12.9","","97.27","","","","-22","","Snow"
"-105.27","55.15","LA RONGE A","4064155","2018-11-20 09:00","2018","11","20","09:00","-14.5","","-17.6","","78","","","","5","","18","","24.1","","97.35","","","","-23","","Snow"
"-105.27","55.15","LA RONGE A","4064155","2018-11-20 10:00","2018","11","20","10:00","-14.7","","-17.6","","79","","","","6","","16","","24.1","","97.48","","","","-23","","Snow"
"-105.27","55.15","LA RONGE A","4064155","2018-11-20 11:00","2018","11","20","11:00","-15.2","","-18.1","","79","","","","6","","15","","24.1","","97.54","","","","-23","","Snow"
"-105.27","55.15","LA RONGE A","4064155","2018-11-20 12:00","2018","11","20","12:00","-15.8","","-18.9","","77","","","","6","","21","","24.1","","97.59","","","","-25","","Snow"
"-105.27","55.15","LA RONGE A","4064155","2018-11-20 13:00","2018","11","20","13:00","-16.2","","-19.7","","75","","","","6","","19","","24.1","","97.59","","","","-25","","Snow"
"-105.27","55.15","LA RONGE A","4064155","2018-11-20 14:00","2018","11","20","14:00","-16.9","","-20.2","","76","","","","5","","21","","24.1","","97.62","","","","-27","","Snow"
"-105.27","55.15","LA RONGE A","4064155","2018-11-20 15:00","2018","11","20","15:00","-17.0","","-20.5","","75","","","","5","","19","","24.1","","97.61","","","","-26","","Snow"
"-105.27","55.15","LA RONGE A","4064155","2018-11-20 16:00","2018","11","20","16:00","-17.1","","-20.4","","76","","","","8","","16","","24.1","","97.64","","","","-26","","Snow"
"-105.27","55.15","LA RONGE A","4064155","2018-11-20 17:00","2018","11","20","17:00","-17.0","","-20.3","","76","","","","7","","18","","24.1","","97.68","","","","-26","","Snow"
"-105.27","55.15","LA RONGE A","4064155","2018-11-20 18:00","2018","11","20","18:00","-16.8","","-19.9","","77","","","","8","","14","","24.1","","97.69","","","","-25","","Snow"
"-105.27","55.15","LA RONGE A","4064155","2018-11-20 19:00","2018","11","20","19:00","-16.9","","-20.3","","76","","","","8","","16","","24.1","","97.69","","","","-26","","NA"
"-105.27","55.15","LA RONGE A","4064155","2018-11-20 20:00","2018","11","20","20:00","-17.3","","-20.6","","76","","","","9","","21","","24.1","","97.69","","","","-27","","NA"
"-105.27","55.15","LA RONGE A","4064155","2018-11-20 21:00","2018","11","20","21:00","-17.5","","-20.6","","77","","","","10","","18","","12.9","","97.67","","","","-27","","Snow"
"-105.27","55.15","LA RONGE A","4064155","2018-11-20 22:00","2018","11","20","22:00","-17.7","","-20.6","","78","","","","10","","20","","16.1","","97.61","","","","-28","","Snow"
"-105.27","55.15","LA RONGE A","4064155","2018-11-20 23:00","2018","11","20","23:00","-17.5","","-20.3","","79","","","","10","","17","","4.8","","97.62","","","","-27","","Snow"
"-105.27","55.15","LA RONGE A","4064155","2018-11-21 00:00","2018","11","21","00:00","-17.3","","-20.2","","78","","","","10","","21","","4.8","","97.56","","","","-27","","Snow"
"-105.27","55.15","LA RONGE A","4064155","2018-11-21 01:00","2018","11","21","01:00","-17.0","","-19.7","","80","","","","11","","16","","4.0","","97.54","","","","-26","","Snow"
"-105.27","55.15","LA RONGE A","4064155","2018-11-21 02:00","2018","11","21","02:00","-16.5","","-19.1","","81","","","","11","","14","","4.8","","97.49","","","","-24","","Snow"
"-105.27","55.15","LA RONGE A","4064155","2018-11-21 03:00","2018","11","21","03:00","-16.1","","-19.3","","77","","","","13","","21","","12.9","","97.44","","","","-26","","Snow"
"-105.27","55.15","LA RONGE A","4064155","2018-11-21 04:00","2018","11","21","04:00","-16.4","","-18.5","","84","","","","11","","16","","9.7","","97.37","","","","-25","","Snow"
"-105.27","55.15","LA RONGE A","4064155","2018-11-21 05:00","2018","11","21","05:00","-16.3","","-18.4","","84","","","","12","","17","","6.4","","97.33","","","","-25","","Snow"
"-105.27","55.15","LA RONGE A","4064155","2018-11-21 06:00","2018","11","21","06:00","-16.1","","-18.3","","84","","","","11","","12","","2.4","","97.25","","","","-23","","Snow"
"-105.27","55.15","LA RONGE A","4064155","2018-11-21 07:00","2018","11","21","07:00","-15.4","","-17.6","","84","","","","13","","20","","1.6","","97.19","","","","-25","","Snow"
"-105.27","55.15","LA RONGE A","4064155","2018-11-21 08:00","2018","11","21","08:00","-15.5","","-17.6","","84","","","","13","","19","","2.4","","97.14","","","","-25","","Snow,Blowing Snow"
"-105.27","55.15","LA RONGE A","4064155","2018-11-21 09:00","2018","11","21","09:00","-15.5","","-17.6","","84","","","","12","","16","","3.2","","97.09","","","","-24","","Snow,Blowing Snow"
"-105.27","55.15","LA RONGE A","4064155","2018-11-21 10:00","2018","11","21","10:00","-15.2","","-17.4","","84","","","","12","","18","","2.4","","97.05","","","","-24","","Snow,Blowing Snow"
"-105.27","55.15","LA RONGE A","4064155","2018-11-21 11:00","2018","11","21","11:00","-14.6","","-16.8","","84","","","","13","","14","","3.2","","96.99","","","","-22","","Snow,Blowing Snow"
"-105.27","55.15","LA RONGE A","4064155","2018-11-21 12:00","2018","11","21","12:00","-13.7","","-15.8","","84","","","","13","","18","","3.2","","96.92","","","","-22","","Snow,Blowing Snow"
"-105.27","55.15","LA RONGE A","4064155","2018-11-21 13:00","2018","11","21","13:00","-13.1","","-15.2","","85","","","","12","","16","","3.2","","96.81","","","","-21","","Snow,Blowing Snow"
"-105.27","55.15","LA RONGE A","4064155","2018-11-21 14:00","2018","11","21","14:00","-12.4","","-14.4","","86","","","","11","","14","","9.7","","96.78","","","","-19","","Snow,Blowing Snow"
"-105.27","55.15","LA RONGE A","4064155","2018-11-21 15:00","2018","11","21","15:00","-11.6","","-13.6","","85","","","","12","","18","","16.1","","96.70","","","","-19","","Snow,Blowing Snow"
"-105.27","55.15","LA RONGE A","4064155","2018-11-21 16:00","2018","11","21","16:00","-11.1","","-13.1","","85","","","","12","","19","","24.1","","96.64","","","","-19","","Snow"
"-105.27","55.15","LA RONGE A","4064155","2018-11-21 17:00","2018","11","21","17:00","-10.8","","-12.8","","85","","","","12","","17","","24.1","","96.57","","","","-18","","Snow"
"-105.27","55.15","LA RONGE A","4064155","2018-11-21 18:00","2018","11","21","18:00","-10.9","","-12.8","","86","","","","12","","19","","24.1","","96.53","","","","-19","","Snow"
"-105.27","55.15","LA RONGE A","4064155","2018-11-21 19:00","2018","11","21","19:00","-10.7","","-12.6","","86","","","","12","","17","","24.1","","96.43","","","","-18","","Snow"
"-105.27","55.15","LA RONGE A","4064155","2018-11-21 20:00","2018","11","21","20:00","-10.4","","-12.2","","87","","","","12","","15","","24.1","","96.34","","","","-17","","Snow"
"-105.27","55.15","LA RONGE A","4064155","2018-11-21 21:00","2018","11","21","21:00","-10.0","","-11.9","","86","","","","12","","18","","24.1","","96.27","","","","-17","","Snow"
"-105.27","55.15","LA RONGE A","4064155","2018-11-21 22:00","2018","11","21","22:00","-9.7","","-11.6","","86","","","","13","","18","","24.1","","96.21","","","","-17","","Snow"
"-105.27","55.15","LA RONGE A","4064155","2018-11-21 23:00","2018","11","21","23:00","-9.4","","-11.2","","87","","","","12","","13","","24.1","","96.14","","","","-15","","Snow"
"-105.27","55.15","LA RONGE A","4064155","2018-11-22 00:00","2018","11","22","00:00","-8.9","","-10.6","","88","","","","11","","13","","24.1","","96.01","","","","-15","","Snow"
"-105.27","55.15","LA RONGE A","4064155","2018-11-22 01:00","2018","11","22","01:00","-9.1","","-10.6","","88","","","","12","","12","","24.1","","95.95","","","","-15","","Snow"
"-105.27","55.15","LA RONGE A","4064155","2018-11-22 02:00","2018","11","22","02:00","-8.9","","-10.3","","89","","","","11","","12","","24.1","","95.87","","","","-15","","NA"
"-105.27","55.15","LA RONGE A","4064155","2018-11-22 03:00","2018","11","22","03:00","-8.8","","-10.3","","89","","","","11","","14","","24.1","","95.82","","","","-15","","Cloudy"
"-105.27","55.15","LA RONGE A","4064155","2018-11-22 04:00","2018","11","22","04:00","-8.5","","-10.1","","89","","","","11","","14","","24.1","","95.74","","","","-15","","NA"
"-105.27","55.15","LA RONGE A","4064155","2018-11-22 05:00","2018","11","22","05:00","-8.9","","-10.5","","88","","","","11","","13","","24.1","","95.64","","","","-15","","NA"
"-105.27","55.15","LA RONGE A","4064155","2018-11-22 06:00","2018","11","22","06:00","-8.7","","-10.4","","88","","","","12","","12","","24.1","","95.59","","","","-14","","Cloudy"
"-105.27","55.15","LA RONGE A","4064155","2018-11-22 07:00","2018","11","22","07:00","-8.5","","-10.1","","88","","","","11","","10","","24.1","","95.51","","","","-13","","NA"
"-105.27","55.15","LA RONGE A","4064155","2018-11-22 08:00","2018","11","22","08:00","-8.6","","-10.2","","88","","","","11","","9","","24.1","","95.44","","","","-13","","NA"
"-105.27","55.15","LA RONGE A","4064155","2018-11-22 09:00","2018","11","22","09:00","-8.5","","-9.9","","90","","","","10","","7","","12.9","","95.36","","","","-12","","Cloudy"
"-105.27","55.15","LA RONGE A","4064155","2018-11-22 10:00","2018","11","22","10:00","-8.2","","-9.0","","94","","","","10","","9","","3.2","","95.32","","","","-13","","Fog"
"-105.27","55.15","LA RONGE A","4064155","2018-11-22 11:00","2018","11","22","11:00","-7.6","","-8.3","","95","","","","12","","5","","1.6","","95.34","","","","-10","","Fog"
"-105.27","55.15","LA RONGE A","4064155","2018-11-22 12:00","2018","11","22","12:00","-7.2","","-7.9","","95","","","","36","","1","","2.0","","95.31","","","","-8","","Fog"
"-105.27","55.15","LA RONGE A","4064155","2018-11-22 13:00","2018","11","22","13:00","-6.4","","-7.1","","95","","","","2","","3","","2.4","","95.23","","","","-8","","Freezing Drizzle,Fog"
"-105.27","55.15","LA RONGE A","4064155","2018-11-22 14:00","2018","11","22","14:00","-6.0","","-6.7","","95","","","","36","","3","","2.4","","95.27","","","","-7","","Freezing Drizzle,Fog"
"-105.27","55.15","LA RONGE A","4064155","2018-11-22 15:00","2018","11","22","15:00","-5.6","","-6.2","","95","","","","9","","4","","2.4","","95.19","","","","-7","","Freezing Drizzle,Fog"
"-105.27","55.15","LA RONGE A","4064155","2018-11-22 16:00","2018","11","22","16:00","-5.2","","-5.8","","95","","","","29","","4","","3.2","","95.23","","","","-7","","Freezing Drizzle"
"-105.27","55.15","LA RONGE A","4064155","2018-11-22 17:00","2018","11","22","17:00","-4.9","","-5.5","","95","","","","22","","5","","3.2","","95.28","","","","-7","","Fog"
"-105.27","55.15","LA RONGE A","4064155","2018-11-22 18:00","2018","11","22","18:00","-4.8","","-5.5","","95","","","","19","","5","","3.2","","95.25","","","","-7","","Fog"
"-105.27","55.15","LA RONGE A","4064155","2018-11-22 19:00","2018","11","22","19:00","-4.5","","-5.2","","95","","","","24","","4","","3.2","","95.25","","","","-6","","Fog"
"-105.27","55.15","LA RONGE A","4064155","2018-11-22 20:00","2018","11","22","20:00","-4.0","","-4.6","","96","","","","27","","11","","4.8","","95.23","","","","-8","","Fog"
"-105.27","55.15","LA RONGE A","4064155","2018-11-22 21:00","2018","11","22","21:00","-3.6","","-4.2","","96","","","","25","","8","","8.1","","95.24","","","","-7","","Fog"
"-105.27","55.15","LA RONGE A","4064155","2018-11-22 22:00","2018","11","22","22:00","-3.6","","-4.2","","96","","","","24","","9","","4.8","","95.25","","","","-7","","Fog"
"-105.27","55.15","LA RONGE A","4064155","2018-11-22 23:00","2018","11","22","23:00","-3.8","","-4.3","","96","","","","24","","10","","3.2","","95.26","","","","-8","","Fog"
"-105.27","55.15","LA RONGE A","4064155","2018-11-23 00:00","2018","11","23","00:00","-4.8","","-5.4","","95","","","","22","","7","","19.3","","95.24","","","","-8","","Mostly Cloudy"
"-105.27","55.15","LA RONGE A","4064155","2018-11-23 01:00","2018","11","23","01:00","-6.1","","-6.8","","95","","","","21","","6","","24.1","","95.24","","","","-9","","NA"
"-105.27","55.15","LA RONGE A","4064155","2018-11-23 02:00","2018","11","23","02:00","-5.8","","-6.5","","94","","","","26","","7","","24.1","","95.26","","","","-9","","NA"
"-105.27","55.15","LA RONGE A","4064155","2018-11-23 03:00","2018","11","23","03:00","-5.5","","-6.2","","94","","","","27","","12","","24.1","","95.27","","","","-10","","Mainly Clear"
"-105.27","55.15","LA RONGE A","4064155","2018-11-23 04:00","2018","11","23","04:00","-4.8","","-5.4","","95","","","","31","","16","","24.1","","95.30","","","","-11","","NA"
"-105.27","55.15","LA RONGE A","4064155","2018-11-23 05:00","2018","11","23","05:00","-4.2","","-4.8","","96","","","","26","","7","","4.8","","95.36","","","","-7","","Fog"
"-105.27","55.15","LA RONGE A","4064155","2018-11-23 06:00","2018","11","23","06:00","-3.6","","-4.1","","96","","","","26","","8","","16.1","","95.40","","","","-7","","Cloudy"
"-105.27","55.15","LA RONGE A","4064155","2018-11-23 07:00","2018","11","23","07:00","-3.1","","-3.5","","97","","","","28","","14","","3.2","","95.45","","","","-8","","Fog"
"-105.27","55.15","LA RONGE A","4064155","2018-11-23 08:00","2018","11","23","08:00","-3.1","","-3.6","","96","","","","30","","17","","8.1","","95.51","","","","-9","","Fog"
"-105.27","55.15","LA RONGE A","4064155","2018-11-23 09:00","2018","11","23","09:00","-3.3","","-4.0","","94","","","","30","","18","","8.1","","95.58","","","","-9","","Fog"
"-105.27","55.15","LA RONGE A","4064155","2018-11-23 10:00","2018","11","23","10:00","-3.2","","-4.0","","94","","","","30","","17","","12.9","","95.64","","","","-9","","NA"
"-105.27","55.15","LA RONGE A","4064155","2018-11-23 11:00","2018","11","23","11:00","-3.7","","-4.7","","93","","","","29","","28","","12.9","","95.70","","","","-11","","NA"
"-105.27","55.15","LA RONGE A","4064155","2018-11-23 12:00","2018","11","23","12:00","-4.8","","-5.8","","93","","","","30","","22","","4.8","","95.75","","","","-12","","Freezing Drizzle,Fog"
"-105.27","55.15","LA RONGE A","4064155","2018-11-23 13:00","2018","11","23","13:00","-5.7","","-6.8","","91","","","","28","","20","","16.1","","95.83","","","","-12","","Freezing Drizzle"
"-105.27","55.15","LA RONGE A","4064155","2018-11-23 14:00","2018","11","23","14:00","-6.1","","-8.0","","87","","","","29","","26","","24.1","","95.90","","","","-14","","NA"
"-105.27","55.15","LA RONGE A","4064155","2018-11-23 15:00","2018","11","23","15:00","-6.6","","-8.8","","84","","","","30","","28","","24.1","","95.96","","","","-15","","Cloudy"
"-105.27","55.15","LA RONGE A","4064155","2018-11-23 16:00","2018","11","23","16:00","-6.8","","-8.9","","85","","","","31","","16","","24.1","","96.02","","","","-13","","NA"
"-105.27","55.15","LA RONGE A","4064155","2018-11-23 17:00","2018","11","23","17:00","-7.0","","-9.1","","85","","","","31","","15","","24.1","","96.10","","","","-13","","NA"
"-105.27","55.15","LA RONGE A","4064155","2018-11-23 18:00","2018","11","23","18:00","-7.1","","-9.4","","84","","","","31","","17","","24.1","","96.16","","","","-14","","Snow"
"-105.27","55.15","LA RONGE A","4064155","2018-11-23 19:00","2018","11","23","19:00","-7.5","","-9.9","","83","","","","31","","16","","24.1","","96.22","","","","-14","","Snow"
"-105.27","55.15","LA RONGE A","4064155","2018-11-23 20:00","2018","11","23","20:00","-7.8","","-10.4","","81","","","","32","","15","","24.1","","96.26","","","","-14","","Snow"
"-105.27","55.15","LA RONGE A","4064155","2018-11-23 21:00","2018","11","23","21:00","-8.0","","-10.7","","82","","","","32","","10","","24.1","","96.31","","","","-13","","Snow"
"-105.27","55.15","LA RONGE A","4064155","2018-11-23 22:00","2018","11","23","22:00","-8.4","","-11.1","","81","","","","33","","14","","24.1","","96.37","","","","-15","","Snow"
"-105.27","55.15","LA RONGE A","4064155","2018-11-23 23:00","2018","11","23","23:00","-8.8","","-11.3","","82","","","","33","","16","","19.3","","96.42","","","","-16","","Snow"
"-105.27","55.15","LA RONGE A","4064155","2018-11-24 00:00","2018","11","24","00:00","-9.5","","-11.7","","84","","","","34","","11","","19.3","","96.48","","","","-15","","Snow"
"-105.27","55.15","LA RONGE A","4064155","2018-11-24 01:00","2018","11","24","01:00","-9.7","","-12.1","","83","","","","33","","12","","24.1","","96.53","","","","-16","","Snow"
"-105.27","55.15","LA RONGE A","4064155","2018-11-24 02:00","2018","11","24","02:00","-10.2","","-13.3","","78","","","","35","","13","","24.1","","96.59","","","","-16","","Snow"
"-105.27","55.15","LA RONGE A","4064155","2018-11-24 03:00","2018","11","24","03:00","-10.9","","-13.8","","79","","","","36","","16","","24.1","","96.70","","","","-18","","Snow"
"-105.27","55.15","LA RONGE A","4064155","2018-11-24 04:00","2018","11","24","04:00","-11.1","","-14.5","","76","","","","33","","13","","24.1","","96.76","","","","-18","","Snow"
"-105.27","55.15","LA RONGE A","4064155","2018-11-24 05:00","2018","11","24","05:00","-11.6","","-14.8","","77","","","","36","","14","","24.1","","96.81","","","","-18","","Snow"
"-105.27","55.15","LA RONGE A","4064155","2018-11-24 06:00","2018","11","24","06:00","-12.0","","-15.5","","75","","","","35","","11","","24.1","","96.89","","","","-18","","Cloudy"
"-105.27","55.15","LA RONGE A","4064155","2018-11-24 07:00","2018","11","24","07:00","-12.3","","-15.8","","75","","","","36","","13","","24.1","","96.96","","","","-19","","Snow"
"-105.27","55.15","LA RONGE A","4064155","2018-11-24 08:00","2018","11","24","08:00","-12.7","","-15.8","","78","","","","36","","10","","19.3","","97.06","","","","-18","","Snow"
"-105.27","55.15","LA RONGE A","4064155","2018-11-24 09:00","2018","11","24","09:00","-13.7","","-16.9","","77","","","","1","","15","","24.1","","97.12","","","","-21","","Mainly Clear"
"-105.27","55.15","LA RONGE A","4064155","2018-11-24 10:00","2018","11","24","10:00","-14.2","","-17.7","","76","","","","36","","10","","24.1","","97.22","","","","-20","","NA"
"-105.27","55.15","LA RONGE A","4064155","2018-11-24 11:00","2018","11","24","11:00","-14.6","","-17.9","","76","","","","1","","10","","24.1","","97.30","","","","-21","","NA"
"-105.27","55.15","LA RONGE A","4064155","2018-11-24 12:00","2018","11","24","12:00","-14.6","","-17.9","","76","","","","6","","13","","24.1","","97.37","","","","-22","","Mostly Cloudy"
"-105.27","55.15","LA RONGE A","4064155","2018-11-24 13:00","2018","11","24","13:00","-14.2","","-17.9","","74","","","","3","","7","","24.1","","97.40","","","","-19","","NA"
"-105.27","55.15","LA RONGE A","4064155","2018-11-24 14:00","2018","11","24","14:00","-13.3","","-17.4","","71","","","","2","","11","","24.1","","97.45","","","","-20","","NA"
"-105.27","55.15","LA RONGE A","4064155","2018-11-24 15:00","2018","11","24","15:00","-13.2","","-17.6","","70","","","","36","","10","","24.1","","97.48","","","","-19","","Mostly Cloudy"
"-105.27","55.15","LA RONGE A","4064155","2018-11-24 16:00","2018","11","24","16:00","-13.2","","-17.6","","70","","","","35","","8","","24.1","","97.56","","","","-18","","NA"
"-105.27","55.15","LA RONGE A","4064155","2018-11-24 17:00","2018","11","24","17:00","-13.8","","-17.6","","73","","","","36","","8","","24.1","","97.63","","","","-19","","NA"
"-105.27","55.15","LA RONGE A","4064155","2018-11-24 18:00","2018","11","24","18:00","-13.8","","-17.2","","75","","","","4","","7","","24.1","","97.66","","","","-18","","Mostly Cloudy"
"-105.27","55.15","LA RONGE A","4064155","2018-11-24 19:00","2018","11","24","19:00","-13.7","","-16.6","","79","","","","4","","7","","24.1","","97.73","","","","-18","","Snow"
"-105.27","55.15","LA RONGE A","4064155","2018-11-24 20:00","2018","11","24","20:00","-13.8","","-16.7","","79","","","","7","","7","","24.1","","97.80","","","","-18","","Snow"
"-105.27","55.15","LA RONGE A","4064155","2018-11-24 21:00","2018","11","24","21:00","-13.9","","-16.7","","79","","","","7","","8","","24.1","","97.82","","","","-19","","Cloudy"
"-105.27","55.15","LA RONGE A","4064155","2018-11-24 22:00","2018","11","24","22:00","-14.1","","-16.9","","80","","","","9","","9","","24.1","","97.86","","","","-20","","NA"
"-105.27","55.15","LA RONGE A","4064155","2018-11-24 23:00","2018","11","24","23:00","-14.1","","-16.8","","80","","","","10","","6","","24.1","","97.88","","","","-18","","NA"
"-105.27","55.15","LA RONGE A","4064155","2018-11-25 00:00","2018","11","25","00:00","-13.8","","-16.6","","80","","","","11","","7","","24.1","","97.93","","","","-18","","Cloudy"
"-105.27","55.15","LA RONGE A","4064155","2018-11-25 01:00","2018","11","25","01:00","-13.8","","-16.6","","79","","","","9","","7","","24.1","","97.99","","","","-18","","NA"
"-105.27","55.15","LA RONGE A","4064155","2018-11-25 02:00","2018","11","25","02:00","-14.2","","-16.6","","82","","","","9","","6","","24.1","","98.00","","","","-18","","NA"
"-105.27","55.15","LA RONGE A","4064155","2018-11-25 03:00","2018","11","25","03:00","-13.7","","-16.2","","82","","","","9","","6","","24.1","","98.04","","","","-18","","Cloudy"
"-105.27","55.15","LA RONGE A","4064155","2018-11-25 04:00","2018","11","25","04:00","-13.1","","-16.1","","79","","","","15","","8","","24.1","","98.05","","","","-18","","NA"
"-105.27","55.15","LA RONGE A","4064155","2018-11-25 05:00","2018","11","25","05:00","-13.4","","-15.8","","83","","","","13","","9","","24.1","","98.03","","","","-19","","NA"
"-105.27","55.15","LA RONGE A","4064155","2018-11-25 06:00","2018","11","25","06:00","-13.2","","-15.7","","82","","","","12","","7","","24.1","","98.06","","","","-18","","Cloudy"
"-105.27","55.15","LA RONGE A","4064155","2018-11-25 07:00","2018","11","25","07:00","-12.8","","-15.8","","79","","","","14","","8","","24.1","","98.11","","","","-18","","NA"
"-105.27","55.15","LA RONGE A","4064155","2018-11-25 08:00","2018","11","25","08:00","-13.2","","-15.5","","83","","","","10","","8","","24.1","","98.11","","","","-18","","NA"
"-105.27","55.15","LA RONGE A","4064155","2018-11-25 09:00","2018","11","25","09:00","-13.1","","-15.5","","83","","","","11","","11","","24.1","","98.13","","","","-19","","Mostly Cloudy"
"-105.27","55.15","LA RONGE A","4064155","2018-11-25 10:00","2018","11","25","10:00","-12.9","","-15.4","","82","","","","11","","11","","24.1","","98.19","","","","-19","","NA"
"-105.27","55.15","LA RONGE A","4064155","2018-11-25 11:00","2018","11","25","11:00","-12.7","","-15.4","","80","","","","13","","14","","24.1","","98.20","","","","-20","","NA"
"-105.27","55.15","LA RONGE A","4064155","2018-11-25 12:00","2018","11","25","12:00","-12.4","","-15.3","","79","","","","14","","12","","24.1","","98.24","","","","-19","","Mostly Cloudy"
"-105.27","55.15","LA RONGE A","4064155","2018-11-25 13:00","2018","11","25","13:00","-12.1","","-15.1","","79","","","","14","","10","","24.1","","98.26","","","","-18","","NA"
"-105.27","55.15","LA RONGE A","4064155","2018-11-25 14:00","2018","11","25","14:00","-11.7","","-14.6","","79","","","","12","","12","","24.1","","98.27","","","","-18","","NA"
"-105.27","55.15","LA RONGE A","4064155","2018-11-25 15:00","2018","11","25","15:00","-11.8","","-14.8","","78","","","","11","","12","","24.1","","98.28","","","","-18","","Mostly Cloudy"
"-105.27","55.15","LA RONGE A","4064155","2018-11-25 16:00","2018","11","25","16:00","-11.8","","-15.0","","77","","","","11","","8","","24.1","","98.30","","","","-17","","NA"
"-105.27","55.15","LA RONGE A","4064155","2018-11-25 17:00","2018","11","25","17:00","-12.9","","-15.6","","81","","","","9","","7","","24.1","","98.30","","","","-17","","NA"
"-105.27","55.15","LA RONGE A","4064155","2018-11-25 18:00","2018","11","25","18:00","-13.9","","-16.1","","83","","","","7","","7","","24.1","","98.31","","","","-19","","Mainly Clear"
"-105.27","55.15","LA RONGE A","4064155","2018-11-25 19:00","2018","11","25","19:00","-14.0","","-15.9","","86","","","","7","","7","","24.1","","98.31","","","","-19","","NA"
"-105.27","55.15","LA RONGE A","4064155","2018-11-25 20:00","2018","11","25","20:00","-13.3","","-15.3","","85","","","","11","","6","","24.1","","98.31","","","","-17","","NA"
"-105.27","55.15","LA RONGE A","4064155","2018-11-25 21:00","2018","11","25","21:00","-14.9","","-16.6","","87","","","","12","","5","","24.1","","98.30","","","","-18","","Mainly Clear"
"-105.27","55.15","LA RONGE A","4064155","2018-11-25 22:00","2018","11","25","22:00","-14.2","","-15.9","","88","","","","36","","3","","24.1","","98.31","","","","-16","","NA"
"-105.27","55.15","LA RONGE A","4064155","2018-11-25 23:00","2018","11","25","23:00","-14.7","","-16.8","","84","","","","12","","8","","24.1","","98.28","","","","-20","","NA"
"-105.27","55.15","LA RONGE A","4064155","2018-11-26 00:00","2018","11","26","00:00","-13.0","","-15.5","","82","","","","13","","13","","24.1","","98.28","","","","-20","","Cloudy"
"-105.27","55.15","LA RONGE A","4064155","2018-11-26 01:00","2018","11","26","01:00","-12.6","","-15.7","","78","","","","15","","17","","24.1","","98.28","","","","-20","","NA"
"-105.27","55.15","LA RONGE A","4064155","2018-11-26 02:00","2018","11","26","02:00","-12.7","","-15.6","","79","","","","13","","16","","24.1","","98.27","","","","-20","","NA"
"-105.27","55.15","LA RONGE A","4064155","2018-11-26 03:00","2018","11","26","03:00","-12.7","","-15.9","","77","","","","14","","18","","24.1","","98.22","","","","-21","","Cloudy"
"-105.27","55.15","LA RONGE A","4064155","2018-11-26 04:00","2018","11","26","04:00","-12.6","","-15.9","","77","","","","13","","16","","24.1","","98.17","","","","-20","","NA"
"-105.27","55.15","LA RONGE A","4064155","2018-11-26 05:00","2018","11","26","05:00","-12.4","","-15.7","","77","","","","13","","16","","24.1","","98.13","","","","-20","","NA"
"-105.27","55.15","LA RONGE A","4064155","2018-11-26 06:00","2018","11","26","06:00","-12.0","","-15.4","","76","","","","13","","17","","24.1","","98.09","","","","-20","","Cloudy"
"-105.27","55.15","LA RONGE A","4064155","2018-11-26 07:00","2018","11","26","07:00","-11.6","","-15.2","","75","","","","13","","16","","24.1","","98.08","","","","-19","","NA"
"-105.27","55.15","LA RONGE A","4064155","2018-11-26 08:00","2018","11","26","08:00","-11.4","","-15.0","","75","","","","13","","18","","24.1","","98.02","","","","-19","","Snow"
"-105.27","55.15","LA RONGE A","4064155","2018-11-26 09:00","2018","11","26","09:00","-11.0","","-14.6","","75","","","","14","","22","","24.1","","97.99","","","","-20","","Cloudy"
"-105.27","55.15","LA RONGE A","4064155","2018-11-26 10:00","2018","11","26","10:00","-10.7","","-14.4","","74","","","","14","","25","","24.1","","97.94","","","","-20","","NA"
"-105.27","55.15","LA RONGE A","4064155","2018-11-26 11:00","2018","11","26","11:00","-10.4","","-14.2","","74","","","","14","","18","","24.1","","97.98","","","","-18","","NA"
"-105.27","55.15","LA RONGE A","4064155","2018-11-26 12:00","2018","11","26","12:00","-10.3","","-14.0","","75","","","","15","","21","","24.1","","97.93","","","","-18","","Cloudy"
"-105.27","55.15","LA RONGE A","4064155","2018-11-26 13:00","2018","11","26","13:00","-10.2","","-13.7","","76","","","","14","","15","","24.1","","97.89","","","","-17","","NA"
"-105.27","55.15","LA RONGE A","4064155","2018-11-26 14:00","2018","11","26","14:00","-9.5","","-13.2","","75","","","","13","","18","","24.1","","97.83","","","","-17","","NA"
"-105.27","55.15","LA RONGE A","4064155","2018-11-26 15:00","2018","11","26","15:00","-9.3","","-12.7","","77","","","","15","","19","","24.1","","97.80","","","","-17","","Cloudy"
"-105.27","55.15","LA RONGE A","4064155","2018-11-26 16:00","2018","11","26","16:00","-8.9","","-12.2","","77","","","","14","","24","","24.1","","97.74","","","","-17","","NA"
"-105.27","55.15","LA RONGE A","4064155","2018-11-26 17:00","2018","11","26","17:00","-9.2","","-12.3","","78","","","","13","","21","","24.1","","97.69","","","","-17","","NA"
"-105.27","55.15","LA RONGE A","4064155","2018-11-26 18:00","2018","11","26","18:00","-9.5","","-12.3","","80","","","","14","","17","","24.1","","97.68","","","","-17","","Cloudy"
"-105.27","55.15","LA RONGE A","4064155","2018-11-26 19:00","2018","11","26","19:00","-9.6","","-12.6","","79","","","","13","","15","","24.1","","97.60","","","","-16","","NA"
"-105.27","55.15","LA RONGE A","4064155","2018-11-26 20:00","2018","11","26","20:00","-9.9","","-12.8","","80","","","","13","","18","","24.1","","97.57","","","","-17","","NA"
"-105.27","55.15","LA RONGE A","4064155","2018-11-26 21:00","2018","11","26","21:00","-10.0","","-13.0","","78","","","","13","","15","","24.1","","97.48","","","","-17","","Cloudy"
"-105.27","55.15","LA RONGE A","4064155","2018-11-26 22:00","2018","11","26","22:00","-10.0","","-13.1","","79","","","","14","","15","","24.1","","97.41","","","","-17","","NA"
"-105.27","55.15","LA RONGE A","4064155","2018-11-26 23:00","2018","11","26","23:00","-10.2","","-13.2","","79","","","","14","","17","","24.1","","97.37","","","","-17","","NA"
"-105.27","55.15","LA RONGE A","4064155","2018-11-27 00:00","2018","11","27","00:00","-10.5","","-13.4","","80","","","","13","","19","","24.1","","97.30","","","","-18","","Cloudy"
"-105.27","55.15","LA RONGE A","4064155","2018-11-27 01:00","2018","11","27","01:00","-10.7","","-13.4","","81","","","","12","","25","","24.1","","97.23","","","","-20","","NA"
"-105.27","55.15","LA RONGE A","4064155","2018-11-27 02:00","2018","11","27","02:00","-10.9","","-13.4","","82","","","","12","","21","","24.1","","97.17","","","","-19","","NA"
"-105.27","55.15","LA RONGE A","4064155","2018-11-27 03:00","2018","11","27","03:00","-10.9","","-13.6","","81","","","","11","","18","","24.1","","97.09","","","","-19","","Cloudy"
"-105.27","55.15","LA RONGE A","4064155","2018-11-27 04:00","2018","11","27","04:00","-11.5","","-14.0","","82","","","","10","","18","","24.1","","97.06","","","","-19","","NA"
"-105.27","55.15","LA RONGE A","4064155","2018-11-27 05:00","2018","11","27","05:00","-11.3","","-13.8","","82","","","","10","","18","","19.3","","97.02","","","","-19","","Snow"
"-105.27","55.15","LA RONGE A","4064155","2018-11-27 06:00","2018","11","27","06:00","-11.4","","-13.9","","82","","","","9","","14","","19.3","","96.97","","","","-18","","Snow"
"-105.27","55.15","LA RONGE A","4064155","2018-11-27 07:00","2018","11","27","07:00","-11.4","","-13.8","","82","","","","8","","14","","19.3","","96.87","","","","-18","","Snow"
"-105.27","55.15","LA RONGE A","4064155","2018-11-27 08:00","2018","11","27","08:00","-11.2","","-13.7","","82","","","","10","","17","","19.3","","96.82","","","","-19","","Snow"
"-105.27","55.15","LA RONGE A","4064155","2018-11-27 09:00","2018","11","27","09:00","-11.4","","-13.9","","82","","","","10","","14","","24.1","","96.76","","","","-18","","Cloudy"
"-105.27","55.15","LA RONGE A","4064155","2018-11-27 10:00","2018","11","27","10:00","-11.7","","-14.1","","83","","","","10","","18","","24.1","","96.74","","","","-20","","NA"
"-105.27","55.15","LA RONGE A","4064155","2018-11-27 11:00","2018","11","27","11:00","-11.4","","-13.9","","82","","","","10","","18","","24.1","","96.67","","","","-19","","NA"
"-105.27","55.15","LA RONGE A","4064155","2018-11-27 12:00","2018","11","27","12:00","-11.1","","-13.8","","81","","","","8","","15","","24.1","","96.60","","","","-18","","Cloudy"
"-105.27","55.15","LA RONGE A","4064155","2018-11-27 13:00","2018","11","27","13:00","-11.3","","-14.2","","80","","","","7","","16","","24.1","","96.54","","","","-19","","NA"
"-105.27","55.15","LA RONGE A","4064155","2018-11-27 14:00","2018","11","27","14:00","-10.9","","-14.0","","78","","","","8","","18","","24.1","","96.48","","","","-19","","NA"
"-105.27","55.15","LA RONGE A","4064155","2018-11-27 15:00","2018","11","27","15:00","-10.7","","-14.0","","77","","","","7","","19","","24.1","","96.42","","","","-19","","Cloudy"
"-105.27","55.15","LA RONGE A","4064155","2018-11-27 16:00","2018","11","27","16:00","-10.9","","-14.0","","78","","","","8","","17","","24.1","","96.44","","","","-18","","NA"
"-105.27","55.15","LA RONGE A","4064155","2018-11-27 17:00","2018","11","27","17:00","-11.0","","-13.9","","79","","","","8","","17","","24.1","","96.44","","","","-18","","NA"
"-105.27","55.15","LA RONGE A","4064155","2018-11-27 18:00","2018","11","27","18:00","-11.1","","-14.1","","79","","","","9","","15","","24.1","","96.40","","","","-18","","Cloudy"
"-105.27","55.15","LA RONGE A","4064155","2018-11-27 19:00","2018","11","27","19:00","-11.2","","-14.1","","79","","","","9","","18","","24.1","","96.37","","","","-19","","NA"
"-105.27","55.15","LA RONGE A","4064155","2018-11-27 20:00","2018","11","27","20:00","-11.3","","-14.2","","80","","","","9","","18","","24.1","","96.36","","","","-19","","NA"
"-105.27","55.15","LA RONGE A","4064155","2018-11-27 21:00","2018","11","27","21:00","-11.3","","-14.0","","80","","","","9","","18","","24.1","","96.34","","","","-19","","Cloudy"
"-105.27","55.15","LA RONGE A","4064155","2018-11-27 22:00","2018","11","27","22:00","-11.4","","-14.1","","81","","","","9","","16","","24.1","","96.33","","","","-19","","NA"
"-105.27","55.15","LA RONGE A","4064155","2018-11-27 23:00","2018","11","27","23:00","-11.9","","-14.3","","82","","","","9","","16","","24.1","","96.31","","","","-19","","NA"
"-105.27","55.15","LA RONGE A","4064155","2018-11-28 00:00","2018","11","28","00:00","-12.1","","-14.4","","83","","","","8","","15","","19.3","","96.29","","","","-19","","Snow"
"-105.27","55.15","LA RONGE A","4064155","2018-11-28 01:00","2018","11","28","01:00","-11.9","","-14.2","","83","","","","7","","16","","19.3","","96.23","","","","-19","","Snow"
"-105.27","55.15","LA RONGE A","4064155","2018-11-28 02:00","2018","11","28","02:00","-12.3","","-14.6","","83","","","","7","","17","","19.3","","96.25","","","","-20","","Snow"
"-105.27","55.15","LA RONGE A","4064155","2018-11-28 03:00","2018","11","28","03:00","-12.5","","-14.8","","83","","","","6","","18","","19.3","","96.23","","","","-21","","Snow"
"-105.27","55.15","LA RONGE A","4064155","2018-11-28 04:00","2018","11","28","04:00","-12.7","","-15.0","","83","","","","6","","13","","19.3","","96.24","","","","-20","","Snow"
"-105.27","55.15","LA RONGE A","4064155","2018-11-28 05:00","2018","11","28","05:00","-12.5","","-14.7","","84","","","","6","","14","","9.7","","96.20","","","","-20","","Snow"
"-105.27","55.15","LA RONGE A","4064155","2018-11-28 06:00","2018","11","28","06:00","-12.7","","-14.9","","84","","","","7","","14","","9.7","","96.20","","","","-20","","Snow"
"-105.27","55.15","LA RONGE A","4064155","2018-11-28 07:00","2018","11","28","07:00","-12.7","","-15.0","","83","","","","8","","18","","9.7","","96.17","","","","-21","","Snow,Blowing Snow"
"-105.27","55.15","LA RONGE A","4064155","2018-11-28 08:00","2018","11","28","08:00","-12.7","","-15.1","","83","","","","9","","14","","6.4","","96.16","","","","-20","","Snow"
"-105.27","55.15","LA RONGE A","4064155","2018-11-28 09:00","2018","11","28","09:00","-12.5","","-14.8","","83","","","","7","","13","","6.4","","96.17","","","","-19","","Snow"
"-105.27","55.15","LA RONGE A","4064155","2018-11-28 10:00","2018","11","28","10:00","-12.2","","-14.3","","85","","","","7","","14","","1.6","","96.21","","","","-19","","Snow"
"-105.27","55.15","LA RONGE A","4064155","2018-11-28 11:00","2018","11","28","11:00","-11.7","","-13.9","","84","","","","8","","14","","4.8","","96.19","","","","-19","","Snow"
"-105.27","55.15","LA RONGE A","4064155","2018-11-28 12:00","2018","11","28","12:00","-11.2","","-13.4","","83","","","","9","","14","","4.8","","96.16","","","","-18","","Snow"
"-105.27","55.15","LA RONGE A","4064155","2018-11-28 13:00","2018","11","28","13:00","-10.6","","-13.1","","82","","","","8","","13","","19.3","","96.15","","","","-17","","Snow"
"-105.27","55.15","LA RONGE A","4064155","2018-11-28 14:00","2018","11","28","14:00","-10.0","","-12.6","","81","","","","9","","10","","19.3","","96.13","","","","-15","","Snow"
"-105.27","55.15","LA RONGE A","4064155","2018-11-28 15:00","2018","11","28","15:00","-9.5","","-12.2","","81","","","","8","","11","","19.3","","96.12","","","","-15","","Snow"
"-105.27","55.15","LA RONGE A","4064155","2018-11-28 16:00","2018","11","28","16:00","-9.2","","-11.5","","84","","","","9","","10","","24.1","","96.13","","","","-14","","Snow"
"-105.27","55.15","LA RONGE A","4064155","2018-11-28 17:00","2018","11","28","17:00","-9.2","","-11.3","","85","","","","8","","9","","24.1","","96.14","","","","-14","","Snow"
"-105.27","55.15","LA RONGE A","4064155","2018-11-28 18:00","2018","11","28","18:00","-9.2","","-11.3","","85","","","","9","","14","","24.1","","96.14","","","","-16","","Snow"
"-105.27","55.15","LA RONGE A","4064155","2018-11-28 19:00","2018","11","28","19:00","-9.0","","-11.1","","85","","","","9","","14","","24.1","","96.14","","","","-15","","Snow"
"-105.27","55.15","LA RONGE A","4064155","2018-11-28 20:00","2018","11","28","20:00","-9.0","","-11.0","","86","","","","10","","17","","19.3","","96.15","","","","-16","","Snow"
"-105.27","55.15","LA RONGE A","4064155","2018-11-28 21:00","2018","11","28","21:00","-8.9","","-10.8","","87","","","","8","","15","","6.4","","96.15","","","","-15","","Snow"
"-105.27","55.15","LA RONGE A","4064155","2018-11-28 22:00","2018","11","28","22:00","-9.1","","-10.8","","87","","","","9","","14","","9.7","","96.16","","","","-15","","Snow"
"-105.27","55.15","LA RONGE A","4064155","2018-11-28 23:00","2018","11","28","23:00","-9.1","","-10.9","","87","","","","9","","12","","9.7","","96.16","","","","-15","","Snow"
"-105.27","55.15","LA RONGE A","4064155","2018-11-29 00:00","2018","11","29","00:00","-8.9","","-10.8","","87","","","","9","","14","","12.9","","96.17","","","","-15","","Snow"
"-105.27","55.15","LA RONGE A","4064155","2018-11-29 01:00","2018","11","29","01:00","-8.9","","-10.6","","88","","","","10","","14","","4.8","","96.16","","","","-15","","Snow"
"-105.27","55.15","LA RONGE A","4064155","2018-11-29 02:00","2018","11","29","02:00","-8.8","","-10.4","","88","","","","11","","12","","4.8","","96.17","","","","-14","","Snow"
"-105.27","55.15","LA RONGE A","4064155","2018-11-29 03:00","2018","11","29","03:00","-8.9","","-10.4","","89","","","","10","","11","","8.1","","96.18","","","","-14","","Snow"
"-105.27","55.15","LA RONGE A","4064155","2018-11-29 04:00","2018","11","29","04:00","-8.9","","-10.3","","89","","","","11","","13","","16.1","","96.16","","","","-15","","Snow"
"-105.27","55.15","LA RONGE A","4064155","2018-11-29 05:00","2018","11","29","05:00","-8.8","","-10.3","","88","","","","9","","13","","16.1","","96.15","","","","-15","","Snow"
"-105.27","55.15","LA RONGE A","4064155","2018-11-29 06:00","2018","11","29","06:00","-8.8","","-10.5","","88","","","","11","","14","","12.9","","96.17","","","","-15","","Snow"
"-105.27","55.15","LA RONGE A","4064155","2018-11-29 07:00","2018","11","29","07:00","-8.8","","-10.7","","86","","","","11","","16","","16.1","","96.17","","","","-16","","Snow"
"-105.27","55.15","LA RONGE A","4064155","2018-11-29 08:00","2018","11","29","08:00","-8.7","","-10.7","","86","","","","11","","15","","19.3","","96.14","","","","-15","","Snow"
"-105.27","55.15","LA RONGE A","4064155","2018-11-29 09:00","2018","11","29","09:00","-8.7","","-10.6","","86","","","","12","","16","","24.1","","96.15","","","","-15","","Cloudy"
"-105.27","55.15","LA RONGE A","4064155","2018-11-29 10:00","2018","11","29","10:00","-8.5","","-10.6","","85","","","","12","","13","","24.1","","96.20","","","","-14","","NA"
"-105.27","55.15","LA RONGE A","4064155","2018-11-29 11:00","2018","11","29","11:00","-8.4","","-10.4","","85","","","","11","","14","","9.7","","96.18","","","","-15","","Snow"
"-105.27","55.15","LA RONGE A","4064155","2018-11-29 12:00","2018","11","29","12:00","-8.1","","-10.4","","84","","","","12","","14","","19.3","","96.14","","","","-14","","Snow"
"-105.27","55.15","LA RONGE A","4064155","2018-11-29 13:00","2018","11","29","13:00","-7.9","","-10.1","","84","","","","11","","15","","24.1","","96.11","","","","-14","","NA"
"-105.27","55.15","LA RONGE A","4064155","2018-11-29 14:00","2018","11","29","14:00","-7.4","","-9.8","","83","","","","11","","14","","19.3","","96.10","","","","-13","","Snow"
"-105.27","55.15","LA RONGE A","4064155","2018-11-29 15:00","2018","11","29","15:00","-7.2","","-9.3","","85","","","","10","","12","","19.3","","96.08","","","","-13","","Snow"
"-105.27","55.15","LA RONGE A","4064155","2018-11-29 16:00","2018","11","29","16:00","-7.0","","-8.9","","87","","","","11","","17","","24.1","","96.07","","","","-13","","Snow"
"-105.27","55.15","LA RONGE A","4064155","2018-11-29 17:00","2018","11","29","17:00","-6.9","","-8.8","","86","","","","11","","13","","24.1","","96.10","","","","-12","","Snow"
"-105.27","55.15","LA RONGE A","4064155","2018-11-29 18:00","2018","11","29","18:00","-6.6","","-8.4","","87","","","","12","","20","","6.4","","96.11","","","","-14","","Snow"
"-105.27","55.15","LA RONGE A","4064155","2018-11-29 19:00","2018","11","29","19:00","-6.8","","-8.7","","87","","","","12","","17","","9.7","","96.11","","","","-13","","Snow"
"-105.27","55.15","LA RONGE A","4064155","2018-11-29 20:00","2018","11","29","20:00","-7.0","","-8.8","","88","","","","13","","15","","9.7","","96.08","","","","-13","","Snow"
"-105.27","55.15","LA RONGE A","4064155","2018-11-29 21:00","2018","11","29","21:00","-7.1","","-8.8","","88","","","","13","","15","","12.9","","96.09","","","","-13","","Snow"
"-105.27","55.15","LA RONGE A","4064155","2018-11-29 22:00","2018","11","29","22:00","-7.2","","-9.0","","87","","","","13","","14","","19.3","","96.08","","","","-13","","Snow"
"-105.27","55.15","LA RONGE A","4064155","2018-11-29 23:00","2018","11","29","23:00","-7.6","","-9.3","","88","","","","13","","14","","16.1","","96.06","","","","-14","","Snow"
"-105.27","55.15","LA RONGE A","4064155","2018-11-30 00:00","2018","11","30","00:00","-7.3","","-9.1","","87","","","","13","","14","","24.1","","96.06","","","","-13","","Snow"
"-105.27","55.15","LA RONGE A","4064155","2018-11-30 01:00","2018","11","30","01:00","-7.3","","-9.1","","87","","","","13","","10","","24.1","","96.08","","","","-12","","Snow"
"-105.27","55.15","LA RONGE A","4064155","2018-11-30 02:00","2018","11","30","02:00","-7.1","","-8.9","","87","","","","13","","11","","19.3","","96.07","","","","-12","","Snow"
"-105.27","55.15","LA RONGE A","4064155","2018-11-30 03:00","2018","11","30","03:00","-6.8","","-8.7","","86","","","","14","","10","","24.1","","96.10","","","","-11","","Snow"
"-105.27","55.15","LA RONGE A","4064155","2018-11-30 04:00","2018","11","30","04:00","-7.0","","-8.3","","91","","","","13","","10","","3.2","","96.13","","","","-12","","Snow"
"-105.27","55.15","LA RONGE A","4064155","2018-11-30 05:00","2018","11","30","05:00","-6.9","","-8.2","","90","","","","12","","8","","16.1","","96.12","","","","-11","","Snow"
"-105.27","55.15","LA RONGE A","4064155","2018-11-30 06:00","2018","11","30","06:00","-6.7","","-8.1","","90","","","","14","","8","","19.3","","96.14","","","","-11","","Snow"
"-105.27","55.15","LA RONGE A","4064155","2018-11-30 07:00","2018","11","30","07:00","-6.5","","-8.0","","89","","","","12","","7","","19.3","","96.15","","","","-10","","Snow"
"-105.27","55.15","LA RONGE A","4064155","2018-11-30 08:00","2018","11","30","08:00","-6.4","","-8.0","","88","","","","14","","9","","24.1","","96.19","","","","-11","","Snow"
"-105.27","55.15","LA RONGE A","4064155","2018-11-30 09:00","2018","11","30","09:00","-6.3","","-7.9","","89","","","","13","","6","","24.1","","96.23","","","","-9","","Snow"
"-105.27","55.15","LA RONGE A","4064155","2018-11-30 10:00","2018","11","30","10:00","-6.0","","-7.5","","89","","","","15","","7","","24.1","","96.26","","","","-9","","NA"
"-105.27","55.15","LA RONGE A","4064155","2018-11-30 11:00","2018","11","30","11:00","-5.7","","-7.3","","88","","","","12","","8","","24.1","","96.31","","","","-9","","NA"
"-105.27","55.15","LA RONGE A","4064155","2018-11-30 12:00","2018","11","30","12:00","-5.2","","-7.0","","87","","","","17","","4","","24.1","","96.35","","","","-7","","Cloudy"
"-105.27","55.15","LA RONGE A","4064155","2018-11-30 13:00","2018","11","30","13:00","-4.8","","-6.6","","87","","","","36","","2","","24.1","","96.38","","","","-6","","NA"
"-105.27","55.15","LA RONGE A","4064155","2018-11-30 14:00","2018","11","30","14:00","-4.6","","-6.2","","88","","","","36","","2","","24.1","","96.43","","","","-5","","NA"
"-105.27","55.15","LA RONGE A","4064155","2018-11-30 15:00","2018","11","30","15:00","-4.7","","-6.1","","90","","","","4","","4","","19.3","","96.47","","","","-6","","Cloudy"
"-105.27","55.15","LA RONGE A","4064155","2018-11-30 16:00","2018","11","30","16:00","-4.7","","-6.1","","90","","","","5","","7","","24.1","","96.53","","","","-8","","NA"
"-105.27","55.15","LA RONGE A","4064155","2018-11-30 17:00","2018","11","30","17:00","-4.7","","-6.0","","91","","","","2","","4","","16.1","","96.61","","","","-6","","Fog"
"-105.27","55.15","LA RONGE A","4064155","2018-11-30 18:00","2018","11","30","18:00","-4.7","","-5.9","","91","","","","4","","5","","16.1","","96.67","","","","-7","","Cloudy"
"-105.27","55.15","LA RONGE A","4064155","2018-11-30 19:00","2018","11","30","19:00","-4.6","","-5.8","","91","","","","4","","5","","16.1","","96.70","","","","-7","","NA"
"-105.27","55.15","LA RONGE A","4064155","2018-11-30 20:00","2018","11","30","20:00","-4.7","","-5.7","","92","","","","4","","5","","16.1","","96.75","","","","-7","","NA"
"-105.27","55.15","LA RONGE A","4064155","2018-11-30 21:00","2018","11","30","21:00","-4.9","","-5.8","","93","","","","6","","4","","8.1","","96.79","","","","-7","","Fog"
"-105.27","55.15","LA RONGE A","4064155","2018-11-30 22:00","2018","11","30","22:00","-5.0","","-5.5","","96","","","","5","","3","","1.6","","96.86","","","","-6","","Fog"
"-105.27","55.15","LA RONGE A","4064155","2018-11-30 23:00","2018","11","30","23:00","-4.8","","-5.4","","96","","","","36","","1","","1.2","","96.91","","","","-5","","Fog"
