"Longitude (x)","Latitude (y)","Station Name","Climate ID","Date/Time (LST)","Year","Month","Day","Time (LST)","Temp (°C)","Temp Flag","Dew Point Temp (°C)","Dew Point Temp Flag","Rel Hum (%)","Rel Hum Flag","Precip. Amount (mm)","Precip. Amount Flag","Wind Dir (10s deg)","Wind Dir Flag","Wind Spd (km/h)","Wind Spd Flag","Visibility (km)","Visibility Flag","Stn Press (kPa)","Stn Press Flag","Hmdx","Hmdx Flag","Wind Chill","Wind Chill Flag","Weather"
"-97.86","55.80","THOMPSON A","5062921","2023-04-01 00:00","2023","04","01","00:00","-12.3","","-14.4","","85","","","","8","","7","","16.1","","98.83","","","","-17","","Snow"
"-97.86","55.80","THOMPSON A","5062921","2023-04-01 01:00","2023","04","01","01:00","-12.4","","-14.7","","83","","","","8","","5","","9.7","","98.82","","","","-16","","Snow"
"-97.86","55.80","THOMPSON A","5062921","2023-04-01 02:00","2023","04","01","02:00","-12.6","","-15.0","","83","","","","8","","4","","8.1","","98.82","","","","-15","","Snow"
"-97.86","55.80","THOMPSON A","5062921","2023-04-01 03:00","2023","04","01","03:00","-13.1","","-15.8","","81","","","","6","","9","","16.1","","98.80","","","","-19","","Snow"
"-97.86","55.80","THOMPSON A","5062921","2023-04-01 04:00","2023","04","01","04:00","-15.0","","-18.3","","76","","","","5","","10","","24.1","","98.81","","","","-21","","Snow"
"-97.86","55.80","THOMPSON A","5062921","2023-04-01 05:00","2023","04","01","05:00","-17.0","","-20.2","","76","","","","5","","10","","24.1","","98.83","","","","-24","","NA"
"-97.86","55.80","THOMPSON A","5062921","2023-04-01 06:00","2023","04","01","06:00","-19.2","","-22.4","","76","","","","5","","10","","24.1","","98.83","","","","-26","","Mainly Clear"
"-97.86","55.80","THOMPSON A","5062921","2023-04-01 07:00","2023","04","01","07:00","-19.6","","-23.2","","73","","","","5","","11","","24.1","","98.87","","","","-27","","NA"
"-97.86","55.80","THOMPSON A","5062921","2023-04-01 08:00","2023","04","01","08:00","-17.5","","-22.2","","67","","","","5","","9","","24.1","","98.88","","","","-24","","NA"
"-97.86","55.80","THOMPSON A","5062921","2023-04-01 09:00","2023","04","01","09:00","-14.2","","-20.3","","60","","","","6","","12","","24.1","","98.84","","","","-21","","Mainly Clear"
"-97.86","55.80","THOMPSON A","5062921","2023-04-01 10:00","2023","04","01","10:00","-12.1","","-18.6","","59","","","","5","","14","","24.1","","98.82","","","","-19","","NA"
"-97.86","55.80","THOMPSON A","5062921","2023-04-01 11:00","2023","04","01","11:00","-10.7","","-19.7","","48","","","","8","","13","","24.1","","98.80","","","","-17","","NA"
"-97.86","55.80","THOMPSON A","5062921","2023-04-01 12:00","2023","04","01","12:00","-9.3","","-19.4","","44","","","","9","","7","","24.1","","98.74","","","","-13","","Mainly Clear"
"-97.86","55.80","THOMPSON A","5062921","2023-04-01 13:00","2023","04","01","13:00","-8.4","","-20.2","","39","","","","5","","10","","24.1","","98.69","","","","-13","","NA"
"-97.86","55.80","THOMPSON A","5062921","2023-04-01 14:00","2023","04","01","14:00","-7.6","","-20.8","","35","","","","36","","2","","24.1","","98.65","","","","-9","","NA"
"-97.86","55.80","THOMPSON A","5062921","2023-04-01 15:00","2023","04","01","15:00","-6.6","","-22.0","","29","","","","9","","12","","24.1","","98.62","","","","-12","","Mostly Cloudy"
"-97.86","55.80","THOMPSON A","5062921","2023-04-01 16:00","2023","04","01","16:00","-6.7","","-21.4","","31","","","","6","","9","","24.1","","98.61","","","","-11","","NA"
"-97.86","55.80","THOMPSON A","5062921","2023-04-01 17:00","2023","04","01","17:00","-7.3","","-20.4","","35","","","","3","","19","","24.1","","98.59","","","","-14","","NA"
"-97.86","55.80","THOMPSON A","5062921","2023-04-01 18:00","2023","04","01","18:00","-7.9","","-21.4","","34","","","","4","","15","","24.1","","98.60","","","","-14","","Mostly Cloudy"
"-97.86","55.80","THOMPSON A","5062921","2023-04-01 19:00","2023","04","01","19:00","-8.9","","-21.5","","36","","","","5","","15","","24.1","","98.62","","","","-15","","NA"
"-97.86","55.80","THOMPSON A","5062921","2023-04-01 20:00","2023","04","01","20:00","-11.6","","-22.2","","41","","","","4","","13","","24.1","","98.66","","","","-18","","NA"
"-97.86","55.80","THOMPSON A","5062921","2023-04-01 21:00","2023","04","01","21:00","-13.6","","-23.1","","45","","","","6","","9","","24.1","","98.72","","","","-19","","Mainly Clear"
"-97.86","55.80","THOMPSON A","5062921","2023-04-01 22:00","2023","04","01","22:00","-14.8","","-23.6","","48","","","","6","","11","","24.1","","98.71","","","","-21","","NA"
"-97.86","55.80","THOMPSON A","5062921","2023-04-01 23:00","2023","04","01","23:00","-14.9","","-23.3","","49","","","","5","","17","","24.1","","98.70","","","","-23","","NA"
"-97.86","55.80","THOMPSON A","5062921","2023-04-02 00:00","2023","04","02","00:00","-16.1","","-22.2","","60","","","","7","","16","","24.1","","98.73","","","","-25","","Mainly Clear"
"-97.86","55.80","THOMPSON A","5062921","2023-04-02 01:00","2023","04","02","01:00","-17.1","","-22.5","","63","","","","7","","16","","24.1","","98.77","","","","-26","","NA"
"-97.86","55.80","THOMPSON A","5062921","2023-04-02 02:00","2023","04","02","02:00","-18.6","","-23.1","","69","","","","6","","19","","24.1","","98.82","","","","-28","","NA"
"-97.86","55.80","THOMPSON A","5062921","2023-04-02 03:00","2023","04","02","03:00","-19.9","","-23.5","","74","","","","6","","16","","24.1","","98.84","","","","-29","","Mainly Clear"
"-97.86","55.80","THOMPSON A","5062921","2023-04-02 04:00","2023","04","02","04:00","-20.3","","-23.4","","77","","","","6","","16","","24.1","","98.86","","","","-30","","NA"
"-97.86","55.80","THOMPSON A","5062921","2023-04-02 05:00","2023","04","02","05:00","-20.8","","-23.4","","79","","","","7","","14","","24.1","","98.89","","","","-30","","NA"
"-97.86","55.80","THOMPSON A","5062921","2023-04-02 06:00","2023","04","02","06:00","-20.3","","-22.9","","80","","","","7","","15","","24.1","","98.94","","","","-29","","Snow"
"-97.86","55.80","THOMPSON A","5062921","2023-04-02 07:00","2023","04","02","07:00","-19.9","","-22.7","","79","","","","7","","13","","24.1","","98.97","","","","-28","","Snow"
"-97.86","55.80","THOMPSON A","5062921","2023-04-02 08:00","2023","04","02","08:00","-19.1","","-22.1","","77","","","","6","","17","","24.1","","98.99","","","","-29","","Snow"
"-97.86","55.80","THOMPSON A","5062921","2023-04-02 09:00","2023","04","02","09:00","-18.0","","-21.6","","73","","","","7","","13","","19.3","","98.99","","","","-26","","Snow,Blowing Snow"
"-97.86","55.80","THOMPSON A","5062921","2023-04-02 10:00","2023","04","02","10:00","-16.9","","-21.8","","66","","","","4","","24","","24.1","","98.97","","","","-27","","NA"
"-97.86","55.80","THOMPSON A","5062921","2023-04-02 11:00","2023","04","02","11:00","-15.2","","-22.1","","56","","","","6","","23","","24.1","","98.98","","","","-25","","NA"
"-97.86","55.80","THOMPSON A","5062921","2023-04-02 12:00","2023","04","02","12:00","-14.2","","-21.9","","53","","","","7","","20","","24.1","","98.96","","","","-23","","Mainly Clear"
"-97.86","55.80","THOMPSON A","5062921","2023-04-02 13:00","2023","04","02","13:00","-12.8","","-20.5","","53","","","","4","","18","","24.1","","98.96","","","","-21","","NA"
"-97.86","55.80","THOMPSON A","5062921","2023-04-02 14:00","2023","04","02","14:00","-12.7","","-20.8","","51","","","","4","","21","","24.1","","98.93","","","","-21","","NA"
"-97.86","55.80","THOMPSON A","5062921","2023-04-02 15:00","2023","04","02","15:00","-12.3","","-20.8","","50","","","","4","","24","","24.1","","98.91","","","","-22","","Mainly Clear"
"-97.86","55.80","THOMPSON A","5062921","2023-04-02 16:00","2023","04","02","16:00","-12.0","","-20.8","","48","","","","5","","19","","24.1","","98.93","","","","-20","","NA"
"-97.86","55.80","THOMPSON A","5062921","2023-04-02 17:00","2023","04","02","17:00","-12.6","","-20.9","","50","","","","4","","25","","24.1","","98.94","","","","-22","","NA"
"-97.86","55.80","THOMPSON A","5062921","2023-04-02 18:00","2023","04","02","18:00","-13.1","","-21.9","","49","","","","4","","21","","24.1","","98.99","","","","-22","","Mainly Clear"
"-97.86","55.80","THOMPSON A","5062921","2023-04-02 19:00","2023","04","02","19:00","-14.9","","-22.4","","53","","","","4","","18","","24.1","","99.05","","","","-24","","NA"
"-97.86","55.80","THOMPSON A","5062921","2023-04-02 20:00","2023","04","02","20:00","-16.5","","-23.0","","58","","","","5","","12","","24.1","","99.11","","","","-24","","NA"
"-97.86","55.80","THOMPSON A","5062921","2023-04-02 21:00","2023","04","02","21:00","-18.0","","-23.8","","61","","","","5","","12","","24.1","","99.16","","","","-26","","Clear"
"-97.86","55.80","THOMPSON A","5062921","2023-04-02 22:00","2023","04","02","22:00","-19.7","","-24.8","","65","","","","4","","11","","24.1","","99.21","","","","-27","","NA"
"-97.86","55.80","THOMPSON A","5062921","2023-04-02 23:00","2023","04","02","23:00","-20.7","","-25.2","","68","","","","5","","11","","24.1","","99.23","","","","-28","","NA"
"-97.86","55.80","THOMPSON A","5062921","2023-04-03 00:00","2023","04","03","00:00","-21.8","","-25.8","","71","","","","5","","13","","24.1","","99.26","","","","-31","","Clear"
"-97.86","55.80","THOMPSON A","5062921","2023-04-03 01:00","2023","04","03","01:00","-22.8","","-26.2","","74","","","","5","","10","","24.1","","99.29","","","","-31","","NA"
"-97.86","55.80","THOMPSON A","5062921","2023-04-03 02:00","2023","04","03","02:00","-23.4","","-26.5","","77","","","","5","","8","","24.1","","99.33","","","","-30","","NA"
"-97.86","55.80","THOMPSON A","5062921","2023-04-03 03:00","2023","04","03","03:00","-26.8","","-29.5","","78","","","","5","","8","","24.1","","99.34","","","","-34","","Clear"
"-97.86","55.80","THOMPSON A","5062921","2023-04-03 04:00","2023","04","03","04:00","-28.0","","-30.8","","78","","","","5","","5","","24.1","","99.38","","","","-33","","NA"
"-97.86","55.80","THOMPSON A","5062921","2023-04-03 05:00","2023","04","03","05:00","-29.4","","-32.4","","76","","","","2","","5","","24.1","","99.45","","","","-35","","NA"
"-97.86","55.80","THOMPSON A","5062921","2023-04-03 06:00","2023","04","03","06:00","-29.9","","-32.9","","76","","","","3","","4","","24.1","","99.53","","","","-34","","Mostly Cloudy"
"-97.86","55.80","THOMPSON A","5062921","2023-04-03 07:00","2023","04","03","07:00","-25.9","","-28.9","","77","","","","0","","1","","24.1","","99.60","","","","-27","","Snow"
"-97.86","55.80","THOMPSON A","5062921","2023-04-03 08:00","2023","04","03","08:00","-22.6","","-25.1","","81","","","","4","","8","","24.1","","99.63","","","","-29","","Snow"
"-97.86","55.80","THOMPSON A","5062921","2023-04-03 09:00","2023","04","03","09:00","-20.9","","-23.4","","80","","","","5","","6","","24.1","","99.67","","","","-26","","Snow Showers"
"-97.86","55.80","THOMPSON A","5062921","2023-04-03 10:00","2023","04","03","10:00","-18.7","","-22.6","","72","","","","","","0","","24.1","","99.66","","","","","","NA"
"-97.86","55.80","THOMPSON A","5062921","2023-04-03 11:00","2023","04","03","11:00","-16.4","","-21.2","","66","","","","23","","8","","24.1","","99.66","","","","-22","","NA"
"-97.86","55.80","THOMPSON A","5062921","2023-04-03 12:00","2023","04","03","12:00","-14.1","","-21.0","","56","","","","36","","3","","24.1","","99.64","","","","-16","","Mainly Clear"
"-97.86","55.80","THOMPSON A","5062921","2023-04-03 13:00","2023","04","03","13:00","-12.2","","-20.3","","51","","","","32","","4","","24.1","","99.64","","","","-15","","NA"
"-97.86","55.80","THOMPSON A","5062921","2023-04-03 14:00","2023","04","03","14:00","-10.7","","-20.2","","46","","","","29","","3","","24.1","","99.62","","","","-13","","NA"
"-97.86","55.80","THOMPSON A","5062921","2023-04-03 15:00","2023","04","03","15:00","-9.4","","-20.7","","40","","","","24","","4","","24.1","","99.60","","","","-12","","Mainly Clear"
"-97.86","55.80","THOMPSON A","5062921","2023-04-03 16:00","2023","04","03","16:00","-8.7","","-20.8","","37","","","","36","","2","","24.1","","99.58","","","","-10","","NA"
"-97.86","55.80","THOMPSON A","5062921","2023-04-03 17:00","2023","04","03","17:00","-8.4","","-21.9","","33","","","","17","","7","","24.1","","99.59","","","","-12","","NA"
"-97.86","55.80","THOMPSON A","5062921","2023-04-03 18:00","2023","04","03","18:00","-8.5","","-21.5","","35","","","","18","","3","","24.1","","99.57","","","","-10","","Mainly Clear"
"-97.86","55.80","THOMPSON A","5062921","2023-04-03 19:00","2023","04","03","19:00","-9.8","","-21.7","","38","","","","8","","5","","24.1","","99.61","","","","-13","","NA"
"-97.86","55.80","THOMPSON A","5062921","2023-04-03 20:00","2023","04","03","20:00","-11.6","","-22.6","","40","","","","36","","3","","24.1","","99.65","","","","-13","","NA"
"-97.86","55.80","THOMPSON A","5062921","2023-04-03 21:00","2023","04","03","21:00","-16.1","","-22.6","","58","","","","22","","3","","24.1","","99.69","","","","-18","","Mostly Cloudy"
"-97.86","55.80","THOMPSON A","5062921","2023-04-03 22:00","2023","04","03","22:00","-18.7","","-23.6","","66","","","","36","","2","","24.1","","99.71","","","","-20","","NA"
"-97.86","55.80","THOMPSON A","5062921","2023-04-03 23:00","2023","04","03","23:00","-21.4","","-26.5","","64","","","","12","","3","","24.1","","99.74","","","","-24","","NA"
"-97.86","55.80","THOMPSON A","5062921","2023-04-04 00:00","2023","04","04","00:00","-21.3","","-25.9","","67","","","","15","","4","","24.1","","99.74","","","","-25","","Mainly Clear"
"-97.86","55.80","THOMPSON A","5062921","2023-04-04 01:00","2023","04","04","01:00","-22.7","","-27.3","","67","","","","0","","1","","32.2","","99.77","","","","-24","","NA"
"-97.86","55.80","THOMPSON A","5062921","2023-04-04 02:00","2023","04","04","02:00","-24.6","","-28.9","","68","","","","36","","3","","24.1","","99.80","","","","-28","","NA"
"-97.86","55.80","THOMPSON A","5062921","2023-04-04 03:00","2023","04","04","03:00","-24.2","","-28.1","","71","","","","36","","2","","24.1","","99.81","","","","-26","","Clear"
"-97.86","55.80","THOMPSON A","5062921","2023-04-04 04:00","2023","04","04","04:00","-25.4","","-29.1","","72","","","","36","","3","","24.1","","99.80","","","","-28","","NA"
"-97.86","55.80","THOMPSON A","5062921","2023-04-04 05:00","2023","04","04","05:00","-26.2","","-29.6","","74","","","","36","","2","","24.1","","99.82","","","","-28","","NA"
"-97.86","55.80","THOMPSON A","5062921","2023-04-04 06:00","2023","04","04","06:00","-26.1","","-29.1","","76","","","","36","","2","","24.1","","99.86","","","","-28","","Clear"
"-97.86","55.80","THOMPSON A","5062921","2023-04-04 07:00","2023","04","04","07:00","-25.8","","-29.6","","71","","","","0","","1","","24.1","","99.88","","","","-27","","NA"
"-97.86","55.80","THOMPSON A","5062921","2023-04-04 08:00","2023","04","04","08:00","-21.2","","-25.5","","69","","","","20","","3","","24.1","","99.91","","","","-24","","NA"
"-97.86","55.80","THOMPSON A","5062921","2023-04-04 09:00","2023","04","04","09:00","-13.8","","-21.5","","53","","","","22","","7","","24.1","","99.94","","","","-18","","Mainly Clear"
"-97.86","55.80","THOMPSON A","5062921","2023-04-04 10:00","2023","04","04","10:00","-9.2","","-19.5","","43","","","","29","","6","","24.1","","99.95","","","","-13","","NA"
"-97.86","55.80","THOMPSON A","5062921","2023-04-04 11:00","2023","04","04","11:00","-6.6","","-20.0","","34","","","","22","","11","","24.1","","99.92","","","","-12","","NA"
"-97.86","55.80","THOMPSON A","5062921","2023-04-04 12:00","2023","04","04","12:00","-4.7","","-19.5","","31","","","","17","","9","","24.1","","99.87","","","","-9","","Mainly Clear"
"-97.86","55.80","THOMPSON A","5062921","2023-04-04 13:00","2023","04","04","13:00","-3.8","","-20.3","","27","","","","18","","7","","24.1","","99.85","","","","-7","","NA"
"-97.86","55.80","THOMPSON A","5062921","2023-04-04 14:00","2023","04","04","14:00","-2.6","","-19.6","","26","","","","20","","17","","24.1","","99.84","","","","-8","","NA"
"-97.86","55.80","THOMPSON A","5062921","2023-04-04 15:00","2023","04","04","15:00","-2.1","","-19.9","","24","","","","19","","10","","24.1","","99.78","","","","-6","","Mainly Clear"
"-97.86","55.80","THOMPSON A","5062921","2023-04-04 16:00","2023","04","04","16:00","-1.5","","-20.3","","23","","","","16","","7","","24.1","","99.74","","","","-4","","NA"
"-97.86","55.80","THOMPSON A","5062921","2023-04-04 17:00","2023","04","04","17:00","-1.0","","-21.0","","21","","","","18","","9","","24.1","","99.74","","","","-4","","NA"
"-97.86","55.80","THOMPSON A","5062921","2023-04-04 18:00","2023","04","04","18:00","-1.2","","-20.3","","22","","","","16","","7","","24.1","","99.73","","","","-4","","Mainly Clear"
"-97.86","55.80","THOMPSON A","5062921","2023-04-04 19:00","2023","04","04","19:00","-2.7","","-20.1","","25","","","","16","","4","","24.1","","99.75","","","","-4","","NA"
"-97.86","55.80","THOMPSON A","5062921","2023-04-04 20:00","2023","04","04","20:00","-4.7","","-20.9","","27","","","","13","","4","","24.1","","99.80","","","","-6","","NA"
"-97.86","55.80","THOMPSON A","5062921","2023-04-04 21:00","2023","04","04","21:00","-6.1","","-20.5","","32","","","","14","","3","","24.1","","99.83","","","","-8","","Mainly Clear"
"-97.86","55.80","THOMPSON A","5062921","2023-04-04 22:00","2023","04","04","22:00","-12.3","","-20.8","","50","","","","36","","2","","24.1","","99.82","","","","-14","","NA"
"-97.86","55.80","THOMPSON A","5062921","2023-04-04 23:00","2023","04","04","23:00","-14.8","","-21.9","","56","","","","8","","4","","24.1","","99.79","","","","-18","","NA"
"-97.86","55.80","THOMPSON A","5062921","2023-04-05 00:00","2023","04","05","00:00","-16.4","","-23.0","","57","","","","4","","4","","24.1","","99.79","","","","-19","","Clear"
"-97.86","55.80","THOMPSON A","5062921","2023-04-05 01:00","2023","04","05","01:00","-17.2","","-22.4","","65","","","","11","","4","","24.1","","99.78","","","","-20","","NA"
"-97.86","55.80","THOMPSON A","5062921","2023-04-05 02:00","2023","04","05","02:00","-18.2","","-23.9","","61","","","","9","","3","","24.1","","99.76","","","","-21","","NA"
"-97.86","55.80","THOMPSON A","5062921","2023-04-05 03:00","2023","04","05","03:00","-18.5","","-24.3","","61","","","","4","","4","","24.1","","99.72","","","","-22","","Clear"
"-97.86","55.80","THOMPSON A","5062921","2023-04-05 04:00","2023","04","05","04:00","-18.3","","-23.5","","64","","","","4","","7","","24.1","","99.69","","","","-24","","NA"
"-97.86","55.80","THOMPSON A","5062921","2023-04-05 05:00","2023","04","05","05:00","-18.9","","-23.1","","70","","","","36","","2","","24.1","","99.72","","","","-21","","NA"
"-97.86","55.80","THOMPSON A","5062921","2023-04-05 06:00","2023","04","05","06:00","-20.0","","-24.3","","69","","","","36","","1","","24.1","","99.72","","","","-21","","Mainly Clear"
"-97.86","55.80","THOMPSON A","5062921","2023-04-05 07:00","2023","04","05","07:00","-19.8","","-24.5","","66","","","","3","","4","","24.1","","99.70","","","","-23","","NA"
"-97.86","55.80","THOMPSON A","5062921","2023-04-05 08:00","2023","04","05","08:00","-13.8","","-20.4","","58","","","","4","","8","","24.1","","99.67","","","","-19","","NA"
"-97.86","55.80","THOMPSON A","5062921","2023-04-05 09:00","2023","04","05","09:00","-7.5","","-17.2","","46","","","","5","","8","","24.1","","99.64","","","","-12","","Mainly Clear"
"-97.86","55.80","THOMPSON A","5062921","2023-04-05 10:00","2023","04","05","10:00","-4.2","","-16.9","","37","","","","6","","17","","24.1","","99.57","","","","-10","","NA"
"-97.86","55.80","THOMPSON A","5062921","2023-04-05 11:00","2023","04","05","11:00","-2.6","","-16.7","","33","","","","5","","21","","24.1","","99.51","","","","-9","","NA"
"-97.86","55.80","THOMPSON A","5062921","2023-04-05 12:00","2023","04","05","12:00","-1.3","","-16.5","","31","","","","8","","17","","24.1","","99.42","","","","-6","","Mostly Cloudy"
"-97.86","55.80","THOMPSON A","5062921","2023-04-05 13:00","2023","04","05","13:00","-0.6","","-17.0","","28","","","","6","","12","","24.1","","99.35","","","","-5","","NA"
"-97.86","55.80","THOMPSON A","5062921","2023-04-05 14:00","2023","04","05","14:00","-0.5","","-15.5","","31","","","","4","","21","","24.1","","99.27","","","","-6","","NA"
"-97.86","55.80","THOMPSON A","5062921","2023-04-05 15:00","2023","04","05","15:00","0.2","","-16.9","","27","","","","7","","18","","24.1","","99.26","","","","","","Mostly Cloudy"
"-97.86","55.80","THOMPSON A","5062921","2023-04-05 16:00","2023","04","05","16:00","-0.7","","-14.1","","36","","","","4","","23","","24.1","","99.22","","","","-7","","NA"
"-97.86","55.80","THOMPSON A","5062921","2023-04-05 17:00","2023","04","05","17:00","-1.0","","-14.4","","36","","","","4","","27","","24.1","","99.22","","","","-7","","NA"
"-97.86","55.80","THOMPSON A","5062921","2023-04-05 18:00","2023","04","05","18:00","-1.7","","-15.4","","35","","","","5","","20","","24.1","","99.24","","","","-7","","Cloudy"
"-97.86","55.80","THOMPSON A","5062921","2023-04-05 19:00","2023","04","05","19:00","-2.9","","-14.7","","40","","","","4","","18","","24.1","","99.24","","","","-9","","NA"
"-97.86","55.80","THOMPSON A","5062921","2023-04-05 20:00","2023","04","05","20:00","-4.5","","-15.7","","42","","","","5","","8","","24.1","","99.26","","","","-8","","NA"
"-97.86","55.80","THOMPSON A","5062921","2023-04-05 21:00","2023","04","05","21:00","-6.9","","-16.3","","47","","","","5","","9","","24.1","","99.25","","","","-11","","Mostly Cloudy"
"-97.86","55.80","THOMPSON A","5062921","2023-04-05 22:00","2023","04","05","22:00","-6.5","","-15.9","","48","","","","5","","14","","24.1","","99.25","","","","-12","","NA"
"-97.86","55.80","THOMPSON A","5062921","2023-04-05 23:00","2023","04","05","23:00","-8.4","","-16.2","","54","","","","4","","9","","24.1","","99.26","","","","-13","","NA"
"-97.86","55.80","THOMPSON A","5062921","2023-04-06 00:00","2023","04","06","00:00","-8.6","","-16.1","","55","","","","4","","9","","24.1","","99.27","","","","-13","","Mostly Cloudy"
"-97.86","55.80","THOMPSON A","5062921","2023-04-06 01:00","2023","04","06","01:00","-9.0","","-16.0","","57","","","","4","","12","","24.1","","99.29","","","","-15","","NA"
"-97.86","55.80","THOMPSON A","5062921","2023-04-06 02:00","2023","04","06","02:00","-10.0","","-15.9","","62","","","","3","","14","","24.1","","99.30","","","","-16","","NA"
"-97.86","55.80","THOMPSON A","5062921","2023-04-06 03:00","2023","04","06","03:00","-11.3","","-16.7","","65","","","","35","","10","","24.1","","99.35","","","","-17","","Mostly Cloudy"
"-97.86","55.80","THOMPSON A","5062921","2023-04-06 04:00","2023","04","06","04:00","-12.8","","-17.7","","67","","","","1","","12","","24.1","","99.42","","","","-19","","NA"
"-97.86","55.80","THOMPSON A","5062921","2023-04-06 05:00","2023","04","06","05:00","-12.9","","-17.6","","68","","","","1","","13","","24.1","","99.45","","","","-20","","NA"
"-97.86","55.80","THOMPSON A","5062921","2023-04-06 06:00","2023","04","06","06:00","-14.4","","-18.5","","71","","","","1","","11","","24.1","","99.50","","","","-21","","Mostly Cloudy"
"-97.86","55.80","THOMPSON A","5062921","2023-04-06 07:00","2023","04","06","07:00","-13.7","","-17.8","","71","","","","1","","8","","24.1","","99.54","","","","-19","","NA"
"-97.86","55.80","THOMPSON A","5062921","2023-04-06 08:00","2023","04","06","08:00","-11.1","","-16.5","","65","","","","36","","1","","24.1","","99.59","","","","-12","","NA"
"-97.86","55.80","THOMPSON A","5062921","2023-04-06 09:00","2023","04","06","09:00","-9.1","","-16.5","","56","","","","4","","8","","24.1","","99.64","","","","-13","","Mainly Clear"
"-97.86","55.80","THOMPSON A","5062921","2023-04-06 10:00","2023","04","06","10:00","-4.8","","-16.4","","40","","","","3","","7","","24.1","","99.67","","","","-8","","NA"
"-97.86","55.80","THOMPSON A","5062921","2023-04-06 11:00","2023","04","06","11:00","-3.6","","-13.3","","47","","","","25","","5","","24.1","","99.69","","","","-6","","NA"
"-97.86","55.80","THOMPSON A","5062921","2023-04-06 12:00","2023","04","06","12:00","-1.4","","-13.3","","40","","","","23","","9","","24.1","","99.69","","","","-5","","Mainly Clear"
"-97.86","55.80","THOMPSON A","5062921","2023-04-06 13:00","2023","04","06","13:00","0.1","","-13.6","","35","","","","21","","13","","24.1","","99.68","","","","","","NA"
"-97.86","55.80","THOMPSON A","5062921","2023-04-06 14:00","2023","04","06","14:00","0.6","","-12.6","","37","","","","24","","8","","24.1","","99.69","","","","","","NA"
"-97.86","55.80","THOMPSON A","5062921","2023-04-06 15:00","2023","04","06","15:00","1.0","","-12.2","","37","","","","23","","9","","24.1","","99.68","","","","","","Mainly Clear"
"-97.86","55.80","THOMPSON A","5062921","2023-04-06 16:00","2023","04","06","16:00","1.4","","-11.9","","37","","","","26","","5","","24.1","","99.69","","","","","","NA"
"-97.86","55.80","THOMPSON A","5062921","2023-04-06 17:00","2023","04","06","17:00","1.7","","-12.6","","34","","","","22","","13","","24.1","","99.71","","","","","","NA"
"-97.86","55.80","THOMPSON A","5062921","2023-04-06 18:00","2023","04","06","18:00","1.8","","-13.1","","32","","","","21","","12","","24.1","","99.70","","","","","","Mainly Clear"
"-97.86","55.80","THOMPSON A","5062921","2023-04-06 19:00","2023","04","06","19:00","0.4","","-12.8","","37","","","","22","","11","","24.1","","99.69","","","","","","NA"
"-97.86","55.80","THOMPSON A","5062921","2023-04-06 20:00","2023","04","06","20:00","-1.6","","-13.4","","41","","","","19","","10","","24.1","","99.70","","","","-5","","NA"
"-97.86","55.80","THOMPSON A","5062921","2023-04-06 21:00","2023","04","06","21:00","-2.7","","-13.9","","42","","","","20","","11","","24.1","","99.72","","","","-7","","Mainly Clear"
"-97.86","55.80","THOMPSON A","5062921","2023-04-06 22:00","2023","04","06","22:00","-6.3","","-14.0","","55","","","","20","","3","","24.1","","99.73","","","","-8","","NA"
"-97.86","55.80","THOMPSON A","5062921","2023-04-06 23:00","2023","04","06","23:00","-6.1","","-14.8","","51","","","","36","","2","","24.1","","99.74","","","","-7","","NA"
"-97.86","55.80","THOMPSON A","5062921","2023-04-07 00:00","2023","04","07","00:00","-6.7","","-15.4","","51","","","","18","","3","","24.1","","99.76","","","","-8","","Clear"
"-97.86","55.80","THOMPSON A","5062921","2023-04-07 01:00","2023","04","07","01:00","-8.8","","-16.2","","55","","","","36","","3","","24.1","","99.77","","","","-10","","NA"
"-97.86","55.80","THOMPSON A","5062921","2023-04-07 02:00","2023","04","07","02:00","-9.0","","-15.6","","59","","","","23","","6","","24.1","","99.79","","","","-12","","NA"
"-97.86","55.80","THOMPSON A","5062921","2023-04-07 03:00","2023","04","07","03:00","-9.2","","-16.4","","57","","","","22","","7","","24.1","","99.80","","","","-13","","Clear"
"-97.86","55.80","THOMPSON A","5062921","2023-04-07 04:00","2023","04","07","04:00","-9.6","","-15.8","","61","","","","23","","7","","24.1","","99.81","","","","-14","","NA"
"-97.86","55.80","THOMPSON A","5062921","2023-04-07 05:00","2023","04","07","05:00","-13.2","","-18.5","","65","","","","36","","2","","24.1","","99.82","","","","-15","","NA"
"-97.86","55.80","THOMPSON A","5062921","2023-04-07 06:00","2023","04","07","06:00","-10.7","","-16.3","","64","","","","18","","3","","24.1","","99.84","","","","-13","","Clear"
"-97.86","55.80","THOMPSON A","5062921","2023-04-07 07:00","2023","04","07","07:00","-11.0","","-16.1","","67","","","","20","","4","","24.1","","99.88","","","","-13","","NA"
"-97.86","55.80","THOMPSON A","5062921","2023-04-07 08:00","2023","04","07","08:00","-6.5","","-15.1","","51","","","","23","","6","","24.1","","99.90","","","","-9","","NA"
"-97.86","55.80","THOMPSON A","5062921","2023-04-07 09:00","2023","04","07","09:00","-3.1","","-13.6","","45","","","","23","","10","","24.1","","99.88","","","","-7","","Clear"
"-97.86","55.80","THOMPSON A","5062921","2023-04-07 10:00","2023","04","07","10:00","0.6","","-12.3","","38","","","","23","","14","","24.1","","99.86","","","","","","NA"
"-97.86","55.80","THOMPSON A","5062921","2023-04-07 11:00","2023","04","07","11:00","3.5","","-12.5","","30","","","","21","","20","","24.1","","99.82","","","","","","NA"
"-97.86","55.80","THOMPSON A","5062921","2023-04-07 12:00","2023","04","07","12:00","3.6","","-10.6","","35","","","","23","","23","","24.1","","99.78","","","","","","Mainly Clear"
"-97.86","55.80","THOMPSON A","5062921","2023-04-07 13:00","2023","04","07","13:00","5.2","","-11.5","","29","","","","21","","21","","24.1","","99.71","","","","","","NA"
"-97.86","55.80","THOMPSON A","5062921","2023-04-07 14:00","2023","04","07","14:00","5.8","","-12.3","","26","","","","20","","23","","24.1","","99.66","","","","","","NA"
"-97.86","55.80","THOMPSON A","5062921","2023-04-07 15:00","2023","04","07","15:00","6.2","","-12.7","","25","","","","19","","16","","24.1","","99.59","","","","","","Mainly Clear"
"-97.86","55.80","THOMPSON A","5062921","2023-04-07 16:00","2023","04","07","16:00","5.6","","-11.8","","27","","","","21","","21","","24.1","","99.52","","","","","","NA"
"-97.86","55.80","THOMPSON A","5062921","2023-04-07 17:00","2023","04","07","17:00","5.8","","-11.9","","27","","","","20","","21","","24.1","","99.48","","","","","","NA"
"-97.86","55.80","THOMPSON A","5062921","2023-04-07 18:00","2023","04","07","18:00","5.0","","-11.5","","29","","","","20","","18","","24.1","","99.42","","","","","","Mainly Clear"
"-97.86","55.80","THOMPSON A","5062921","2023-04-07 19:00","2023","04","07","19:00","3.5","","-11.5","","33","","","","20","","12","","24.1","","99.37","","","","","","NA"
"-97.86","55.80","THOMPSON A","5062921","2023-04-07 20:00","2023","04","07","20:00","1.7","","-11.8","","36","","","","19","","13","","24.1","","99.34","","","","","","NA"
"-97.86","55.80","THOMPSON A","5062921","2023-04-07 21:00","2023","04","07","21:00","-0.2","","-10.8","","45","","","","19","","10","","24.1","","99.34","","","","-4","","Mainly Clear"
"-97.86","55.80","THOMPSON A","5062921","2023-04-07 22:00","2023","04","07","22:00","-1.3","","-10.0","","52","","","","20","","16","","24.1","","99.34","","","","-6","","NA"
"-97.86","55.80","THOMPSON A","5062921","2023-04-07 23:00","2023","04","07","23:00","-2.7","","-9.7","","59","","","","20","","13","","24.1","","99.33","","","","-7","","NA"
"-97.86","55.80","THOMPSON A","5062921","2023-04-08 00:00","2023","04","08","00:00","-3.4","","-9.6","","63","","","","21","","13","","24.1","","99.30","","","","-8","","Mainly Clear"
"-97.86","55.80","THOMPSON A","5062921","2023-04-08 01:00","2023","04","08","01:00","-3.8","","-9.8","","63","","","","20","","13","","24.1","","99.26","","","","-9","","NA"
"-97.86","55.80","THOMPSON A","5062921","2023-04-08 02:00","2023","04","08","02:00","-4.2","","-10.2","","63","","","","20","","13","","24.1","","99.24","","","","-9","","NA"
"-97.86","55.80","THOMPSON A","5062921","2023-04-08 03:00","2023","04","08","03:00","-4.6","","-10.5","","64","","","","20","","13","","24.1","","99.19","","","","-10","","Clear"
"-97.86","55.80","THOMPSON A","5062921","2023-04-08 04:00","2023","04","08","04:00","-5.8","","-10.7","","68","","","","20","","9","","24.1","","99.17","","","","-10","","NA"
"-97.86","55.80","THOMPSON A","5062921","2023-04-08 05:00","2023","04","08","05:00","-7.0","","-11.0","","73","","","","18","","3","","24.1","","99.14","","","","-9","","NA"
"-97.86","55.80","THOMPSON A","5062921","2023-04-08 06:00","2023","04","08","06:00","-7.2","","-11.0","","74","","","","18","","7","","24.1","","99.11","","","","-11","","Clear"
"-97.86","55.80","THOMPSON A","5062921","2023-04-08 07:00","2023","04","08","07:00","-5.5","","-10.1","","70","","","","19","","16","","24.1","","99.07","","","","-11","","NA"
"-97.86","55.80","THOMPSON A","5062921","2023-04-08 08:00","2023","04","08","08:00","-3.8","","-9.3","","66","","","","20","","18","","24.1","","99.02","","","","-10","","NA"
"-97.86","55.80","THOMPSON A","5062921","2023-04-08 09:00","2023","04","08","09:00","-1.6","","-8.5","","59","","","","19","","18","","24.1","","98.92","","","","-7","","Clear"
"-97.86","55.80","THOMPSON A","5062921","2023-04-08 10:00","2023","04","08","10:00","0.3","","-8.0","","54","","","","19","","20","","24.1","","98.85","","","","","","NA"
"-97.86","55.80","THOMPSON A","5062921","2023-04-08 11:00","2023","04","08","11:00","2.5","","-7.5","","48","","","","19","","22","","24.1","","98.80","","","","","","NA"
"-97.86","55.80","THOMPSON A","5062921","2023-04-08 12:00","2023","04","08","12:00","4.6","","-6.9","","43","","","","18","","13","","24.1","","98.76","","","","","","Clear"
"-97.86","55.80","THOMPSON A","5062921","2023-04-08 13:00","2023","04","08","13:00","6.3","","-7.1","","38","","","","20","","26","","24.1","","98.68","","","","","","NA"
"-97.86","55.80","THOMPSON A","5062921","2023-04-08 14:00","2023","04","08","14:00","8.0","","-6.8","","34","","","","19","","23","","24.1","","98.64","","","","","","NA"
"-97.86","55.80","THOMPSON A","5062921","2023-04-08 15:00","2023","04","08","15:00","8.9","","-6.2","","34","","","","19","","19","","24.1","","98.61","","","","","","Clear"
"-97.86","55.80","THOMPSON A","5062921","2023-04-08 16:00","2023","04","08","16:00","9.2","","-6.0","","34","","","","20","","21","","24.1","","98.55","","","","","","NA"
"-97.86","55.80","THOMPSON A","5062921","2023-04-08 17:00","2023","04","08","17:00","8.8","","-6.0","","34","","","","19","","21","","24.1","","98.50","","","","","","NA"
"-97.86","55.80","THOMPSON A","5062921","2023-04-08 18:00","2023","04","08","18:00","7.8","","-5.7","","38","","","","19","","19","","24.1","","98.43","","","","","","Clear"
"-97.86","55.80","THOMPSON A","5062921","2023-04-08 19:00","2023","04","08","19:00","6.5","","-5.3","","43","","","","19","","19","","24.1","","98.39","","","","","","NA"
"-97.86","55.80","THOMPSON A","5062921","2023-04-08 20:00","2023","04","08","20:00","5.0","","-5.2","","48","","","","19","","19","","24.1","","98.37","","","","","","NA"
"-97.86","55.80","THOMPSON A","5062921","2023-04-08 21:00","2023","04","08","21:00","4.2","","-5.2","","50","","","","20","","21","","24.1","","98.36","","","","","","Mainly Clear"
"-97.86","55.80","THOMPSON A","5062921","2023-04-08 22:00","2023","04","08","22:00","3.4","","-5.1","","54","","","","19","","14","","24.1","","98.30","","","","","","NA"
"-97.86","55.80","THOMPSON A","5062921","2023-04-08 23:00","2023","04","08","23:00","3.0","","-5.2","","55","","","","19","","16","","24.1","","98.25","","","","","","NA"
"-97.86","55.80","THOMPSON A","5062921","2023-04-09 00:00","2023","04","09","00:00","2.8","","-5.3","","55","","","","19","","13","","24.1","","98.23","","","","","","Mainly Clear"
"-97.86","55.80","THOMPSON A","5062921","2023-04-09 01:00","2023","04","09","01:00","2.8","","-5.5","","55","","","","20","","15","","24.1","","98.20","","","","","","NA"
"-97.86","55.80","THOMPSON A","5062921","2023-04-09 02:00","2023","04","09","02:00","2.2","","-5.7","","56","","","","20","","12","","24.1","","98.16","","","","","","NA"
"-97.86","55.80","THOMPSON A","5062921","2023-04-09 03:00","2023","04","09","03:00","1.9","","-5.0","","60","","","","21","","11","","24.1","","98.08","","","","","","Mostly Cloudy"
"-97.86","55.80","THOMPSON A","5062921","2023-04-09 04:00","2023","04","09","04:00","1.8","","-4.6","","63","","","","20","","7","","24.1","","98.02","","","","","","NA"
"-97.86","55.80","THOMPSON A","5062921","2023-04-09 05:00","2023","04","09","05:00","0.9","","-4.9","","65","","","","20","","9","","24.1","","97.97","","","","","","NA"
"-97.86","55.80","THOMPSON A","5062921","2023-04-09 06:00","2023","04","09","06:00","0.4","","-5.1","","66","","","","20","","10","","24.1","","97.96","","","","","","Mostly Cloudy"
"-97.86","55.80","THOMPSON A","5062921","2023-04-09 07:00","2023","04","09","07:00","0.3","","-5.1","","67","","","","20","","7","","24.1","","97.92","","","","","","NA"
"-97.86","55.80","THOMPSON A","5062921","2023-04-09 08:00","2023","04","09","08:00","1.6","","-3.8","","67","","","","23","","22","","24.1","","97.89","","","","","","NA"
"-97.86","55.80","THOMPSON A","5062921","2023-04-09 09:00","2023","04","09","09:00","2.7","","-2.5","","68","","","","25","","12","","24.1","","97.82","","","","","","Mainly Clear"
"-97.86","55.80","THOMPSON A","5062921","2023-04-09 10:00","2023","04","09","10:00","4.3","","-2.3","","63","","","","25","","10","","24.1","","97.82","","","","","","NA"
"-97.86","55.80","THOMPSON A","5062921","2023-04-09 11:00","2023","04","09","11:00","5.7","","-2.0","","57","","","","23","","14","","24.1","","97.83","","","","","","NA"
"-97.86","55.80","THOMPSON A","5062921","2023-04-09 12:00","2023","04","09","12:00","6.8","","-1.7","","54","","","","26","","21","","24.1","","97.87","","","","","","Mainly Clear"
"-97.86","55.80","THOMPSON A","5062921","2023-04-09 13:00","2023","04","09","13:00","7.8","","-1.3","","53","","","","25","","16","","24.1","","97.87","","","","","","NA"
"-97.86","55.80","THOMPSON A","5062921","2023-04-09 14:00","2023","04","09","14:00","10.1","","-1.0","","46","","","","26","","16","","24.1","","97.88","","","","","","NA"
"-97.86","55.80","THOMPSON A","5062921","2023-04-09 15:00","2023","04","09","15:00","9.4","","-0.6","","50","","","","25","","16","","24.1","","97.89","","","","","","Mostly Cloudy"
"-97.86","55.80","THOMPSON A","5062921","2023-04-09 16:00","2023","04","09","16:00","9.4","","-0.9","","48","","","","25","","16","","24.1","","97.89","","","","","","NA"
"-97.86","55.80","THOMPSON A","5062921","2023-04-09 17:00","2023","04","09","17:00","10.4","","-1.9","","42","","","","25","","16","","24.1","","97.88","","","","","","NA"
"-97.86","55.80","THOMPSON A","5062921","2023-04-09 18:00","2023","04","09","18:00","11.6","","-0.4","","43","","","","25","","27","","24.1","","97.90","","","","","","Mainly Clear"
"-97.86","55.80","THOMPSON A","5062921","2023-04-09 19:00","2023","04","09","19:00","8.4","","-0.8","","52","","","","25","","12","","24.1","","97.92","","","","","","NA"
"-97.86","55.80","THOMPSON A","5062921","2023-04-09 20:00","2023","04","09","20:00","6.3","","-2.1","","55","","","","27","","3","","24.1","","97.94","","","","","","NA"
"-97.86","55.80","THOMPSON A","5062921","2023-04-09 21:00","2023","04","09","21:00","6.7","","-2.2","","53","","","","27","","4","","24.1","","97.98","","","","","","Mainly Clear"
"-97.86","55.80","THOMPSON A","5062921","2023-04-09 22:00","2023","04","09","22:00","5.2","","-2.6","","57","","","","36","","1","","24.1","","98.01","","","","","","NA"
"-97.86","55.80","THOMPSON A","5062921","2023-04-09 23:00","2023","04","09","23:00","4.5","","-3.2","","57","","","","29","","3","","24.1","","98.01","","","","","","NA"
"-97.86","55.80","THOMPSON A","5062921","2023-04-10 00:00","2023","04","10","00:00","-1.8","","-4.8","","80","","","","36","","1","","24.1","","98.00","","","","-2","","Mainly Clear"
"-97.86","55.80","THOMPSON A","5062921","2023-04-10 01:00","2023","04","10","01:00","1.6","","-3.9","","67","","","","24","","6","","24.1","","98.04","","","","","","NA"
"-97.86","55.80","THOMPSON A","5062921","2023-04-10 02:00","2023","04","10","02:00","1.4","","-4.4","","65","","","","36","","2","","24.1","","98.03","","","","","","NA"
"-97.86","55.80","THOMPSON A","5062921","2023-04-10 03:00","2023","04","10","03:00","-1.9","","-4.9","","80","","","","36","","2","","24.1","","98.05","","","","-3","","Mainly Clear"
"-97.86","55.80","THOMPSON A","5062921","2023-04-10 04:00","2023","04","10","04:00","-2.6","","-5.2","","82","","","","","","0","","24.1","","98.03","","","","","","NA"
"-97.86","55.80","THOMPSON A","5062921","2023-04-10 05:00","2023","04","10","05:00","-3.4","","-6.0","","82","","","","18","","3","","24.1","","97.99","","","","-5","","NA"
"-97.86","55.80","THOMPSON A","5062921","2023-04-10 06:00","2023","04","10","06:00","-4.0","","-6.0","","86","","","","36","","1","","24.1","","97.94","","","","-4","","Mostly Cloudy"
"-97.86","55.80","THOMPSON A","5062921","2023-04-10 07:00","2023","04","10","07:00","-1.5","","-4.3","","81","","","","19","","4","","24.1","","97.89","","","","-3","","NA"
"-97.86","55.80","THOMPSON A","5062921","2023-04-10 08:00","2023","04","10","08:00","2.4","","-3.4","","66","","","","17","","4","","24.1","","97.80","","","","","","NA"
"-97.86","55.80","THOMPSON A","5062921","2023-04-10 09:00","2023","04","10","09:00","3.9","","-2.7","","62","","","","17","","4","","24.1","","97.67","","","","","","Mostly Cloudy"
"-97.86","55.80","THOMPSON A","5062921","2023-04-10 10:00","2023","04","10","10:00","6.5","","-2.3","","53","","","","17","","5","","24.1","","97.58","","","","","","NA"
"-97.86","55.80","THOMPSON A","5062921","2023-04-10 11:00","2023","04","10","11:00","10.3","","-1.6","","43","","","","16","","11","","24.1","","97.43","","","","","","NA"
"-97.86","55.80","THOMPSON A","5062921","2023-04-10 12:00","2023","04","10","12:00","11.3","","-1.6","","41","","","","14","","12","","24.1","","97.26","","","","","","Mostly Cloudy"
"-97.86","55.80","THOMPSON A","5062921","2023-04-10 13:00","2023","04","10","13:00","13.7","","-2.3","","33","","","","18","","16","","24.1","","97.10","","","","","","NA"
"-97.86","55.80","THOMPSON A","5062921","2023-04-10 14:00","2023","04","10","14:00","14.4","","-2.5","","31","","","","21","","21","","24.1","","96.99","","","","","","NA"
"-97.86","55.80","THOMPSON A","5062921","2023-04-10 15:00","2023","04","10","15:00","12.3","","-0.6","","41","","","","25","","45","","24.1","","97.03","","","","","","Mainly Clear"
"-97.86","55.80","THOMPSON A","5062921","2023-04-10 16:00","2023","04","10","16:00","11.5","","-0.6","","43","","","","28","","27","","24.1","","97.22","","","","","","NA"
"-97.86","55.80","THOMPSON A","5062921","2023-04-10 17:00","2023","04","10","17:00","10.4","","-0.6","","46","","","","28","","31","","24.1","","97.33","","","","","","NA"
"-97.86","55.80","THOMPSON A","5062921","2023-04-10 18:00","2023","04","10","18:00","9.9","","-1.9","","44","","","","30","","21","","24.1","","97.50","","","","","","Mainly Clear"
"-97.86","55.80","THOMPSON A","5062921","2023-04-10 19:00","2023","04","10","19:00","8.6","","-2.7","","45","","","","30","","16","","24.1","","97.53","","","","","","NA"
"-97.86","55.80","THOMPSON A","5062921","2023-04-10 20:00","2023","04","10","20:00","6.5","","-2.3","","54","","","","26","","15","","24.1","","97.62","","","","","","NA"
"-97.86","55.80","THOMPSON A","5062921","2023-04-10 21:00","2023","04","10","21:00","7.8","","-5.1","","40","","","","29","","23","","24.1","","97.76","","","","","","Clear"
"-97.86","55.80","THOMPSON A","5062921","2023-04-10 22:00","2023","04","10","22:00","4.1","","-4.5","","54","","","","25","","12","","24.1","","97.85","","","","","","NA"
"-97.86","55.80","THOMPSON A","5062921","2023-04-10 23:00","2023","04","10","23:00","5.0","","-6.7","","43","","","","32","","6","","24.1","","97.89","","","","","","NA"
"-97.86","55.80","THOMPSON A","5062921","2023-04-11 00:00","2023","04","11","00:00","1.4","","-5.7","","59","","","","24","","9","","24.1","","97.93","","","","","","Clear"
"-97.86","55.80","THOMPSON A","5062921","2023-04-11 01:00","2023","04","11","01:00","1.0","","-6.4","","58","","","","24","","7","","24.1","","97.95","","","","","","NA"
"-97.86","55.80","THOMPSON A","5062921","2023-04-11 02:00","2023","04","11","02:00","0.4","","-6.8","","59","","","","25","","7","","24.1","","97.99","","","","","","NA"
"-97.86","55.80","THOMPSON A","5062921","2023-04-11 03:00","2023","04","11","03:00","0.2","","-7.1","","58","","","","25","","9","","24.1","","98.04","","","","","","Clear"
"-97.86","55.80","THOMPSON A","5062921","2023-04-11 04:00","2023","04","11","04:00","0.1","","-7.4","","57","","","","23","","5","","24.1","","98.07","","","","","","NA"
"-97.86","55.80","THOMPSON A","5062921","2023-04-11 05:00","2023","04","11","05:00","-0.6","","-7.9","","58","","","","24","","5","","24.1","","98.13","","","","-2","","NA"
"-97.86","55.80","THOMPSON A","5062921","2023-04-11 06:00","2023","04","11","06:00","-1.3","","-7.4","","63","","","","24","","4","","24.1","","98.11","","","","-3","","Mainly Clear"
"-97.86","55.80","THOMPSON A","5062921","2023-04-11 07:00","2023","04","11","07:00","-1.6","","-7.7","","63","","","","36","","2","","24.1","","98.14","","","","-2","","NA"
"-97.86","55.80","THOMPSON A","5062921","2023-04-11 08:00","2023","04","11","08:00","2.4","","-7.8","","47","","","","0","","1","","24.1","","98.17","","","","","","NA"
"-97.86","55.80","THOMPSON A","5062921","2023-04-11 09:00","2023","04","11","09:00","3.9","","-5.6","","50","","","","25","","8","","24.1","","98.17","","","","","","Mostly Cloudy"
"-97.86","55.80","THOMPSON A","5062921","2023-04-11 10:00","2023","04","11","10:00","6.4","","-5.9","","41","","","","24","","5","","24.1","","98.16","","","","","","NA"
"-97.86","55.80","THOMPSON A","5062921","2023-04-11 11:00","2023","04","11","11:00","10.1","","-7.4","","28","","","","36","","3","","24.1","","98.14","","","","","","NA"
"-97.86","55.80","THOMPSON A","5062921","2023-04-11 12:00","2023","04","11","12:00","10.2","","-7.0","","29","","","","18","","6","","24.1","","98.15","","","","","","Mostly Cloudy"
"-97.86","55.80","THOMPSON A","5062921","2023-04-11 13:00","2023","04","11","13:00","11.0","","-7.5","","26","","","","16","","8","","24.1","","98.07","","","","","","NA"
"-97.86","55.80","THOMPSON A","5062921","2023-04-11 14:00","2023","04","11","14:00","11.3","","-7.9","","25","","","","16","","8","","24.1","","98.05","","","","","","NA"
"-97.86","55.80","THOMPSON A","5062921","2023-04-11 15:00","2023","04","11","15:00","11.1","","-7.3","","27","","","","17","","8","","24.1","","98.00","","","","","","Cloudy"
"-97.86","55.80","THOMPSON A","5062921","2023-04-11 16:00","2023","04","11","16:00","10.7","","-7.6","","27","","","","16","","7","","24.1","","97.96","","","","","","NA"
"-97.86","55.80","THOMPSON A","5062921","2023-04-11 17:00","2023","04","11","17:00","6.9","","-1.0","","57","","","","20","","17","","24.1","","98.08","","","","","","NA"
"-97.86","55.80","THOMPSON A","5062921","2023-04-11 18:00","2023","04","11","18:00","6.1","","-0.7","","62","","","","21","","7","","24.1","","97.99","","","","","","Cloudy"
"-97.86","55.80","THOMPSON A","5062921","2023-04-11 19:00","2023","04","11","19:00","6.0","","-0.9","","61","","","","15","","3","","24.1","","97.92","","","","","","NA"
"-97.86","55.80","THOMPSON A","5062921","2023-04-11 20:00","2023","04","11","20:00","3.1","","-1.0","","74","","","","1","","8","","24.1","","97.92","","","","","","NA"
"-97.86","55.80","THOMPSON A","5062921","2023-04-11 21:00","2023","04","11","21:00","4.3","","-0.4","","72","","","","16","","4","","24.1","","98.00","","","","","","Rain"
"-97.86","55.80","THOMPSON A","5062921","2023-04-11 22:00","2023","04","11","22:00","3.3","","1.8","","90","","","","17","","5","","24.1","","98.07","","","","","","Rain"
"-97.86","55.80","THOMPSON A","5062921","2023-04-11 23:00","2023","04","11","23:00","2.8","","1.9","","94","","","","9","","4","","24.1","","97.94","","","","","","Rain"
"-97.86","55.80","THOMPSON A","5062921","2023-04-12 00:00","2023","04","12","00:00","2.6","","2.0","","95","","","","8","","6","","24.1","","97.86","","","","","","Rain"
"-97.86","55.80","THOMPSON A","5062921","2023-04-12 01:00","2023","04","12","01:00","2.4","","1.8","","96","","","","8","","15","","24.1","","97.64","","","","","","Rain"
"-97.86","55.80","THOMPSON A","5062921","2023-04-12 02:00","2023","04","12","02:00","2.4","","1.6","","94","","","","7","","10","","24.1","","97.61","","","","","","Rain"
"-97.86","55.80","THOMPSON A","5062921","2023-04-12 03:00","2023","04","12","03:00","2.2","","1.5","","95","","","","7","","8","","24.1","","97.66","","","","","","Rain"
"-97.86","55.80","THOMPSON A","5062921","2023-04-12 04:00","2023","04","12","04:00","1.8","","1.0","","94","","","","8","","14","","24.1","","97.59","","","","","","Rain"
"-97.86","55.80","THOMPSON A","5062921","2023-04-12 05:00","2023","04","12","05:00","1.1","","0.4","","95","","","","8","","17","","24.1","","97.48","","","","","","Drizzle"
"-97.86","55.80","THOMPSON A","5062921","2023-04-12 06:00","2023","04","12","06:00","0.8","","-0.2","","93","","","","6","","14","","24.1","","97.41","","","","","","Drizzle"
"-97.86","55.80","THOMPSON A","5062921","2023-04-12 07:00","2023","04","12","07:00","0.4","","-0.8","","91","","","","6","","12","","24.1","","97.37","","","","","","Drizzle"
"-97.86","55.80","THOMPSON A","5062921","2023-04-12 08:00","2023","04","12","08:00","-0.3","","-1.2","","94","","","","5","","21","","3.2","","97.29","","","","-6","","Snow,Blowing Snow"
"-97.86","55.80","THOMPSON A","5062921","2023-04-12 09:00","2023","04","12","09:00","-1.6","","-2.4","","94","","","","5","","21","","3.2","","97.21","","","","-7","","Snow,Blowing Snow"
"-97.86","55.80","THOMPSON A","5062921","2023-04-12 10:00","2023","04","12","10:00","-1.9","","-3.0","","92","","","","5","","21","","2.4","","97.20","","","","-8","","Snow,Blowing Snow"
"-97.86","55.80","THOMPSON A","5062921","2023-04-12 11:00","2023","04","12","11:00","-2.0","","-3.3","","91","","","","7","","16","","2.4","","97.26","","","","-7","","Snow,Blowing Snow"
"-97.86","55.80","THOMPSON A","5062921","2023-04-12 12:00","2023","04","12","12:00","-1.8","","-4.0","","85","","","","6","","18","","8.1","","97.33","","","","-7","","Snow,Blowing Snow"
"-97.86","55.80","THOMPSON A","5062921","2023-04-12 13:00","2023","04","12","13:00","-1.6","","-3.1","","89","","","","6","","10","","4.8","","97.41","","","","-5","","Snow"
"-97.86","55.80","THOMPSON A","5062921","2023-04-12 14:00","2023","04","12","14:00","-0.7","","-2.8","","86","","","","3","","20","","9.7","","97.48","","","","-6","","Snow,Blowing Snow"
"-97.86","55.80","THOMPSON A","5062921","2023-04-12 15:00","2023","04","12","15:00","-0.7","","-2.8","","86","","","","3","","16","","16.1","","97.59","","","","-5","","Cloudy"
"-97.86","55.80","THOMPSON A","5062921","2023-04-12 16:00","2023","04","12","16:00","-0.6","","-3.1","","83","","","","35","","18","","16.1","","97.71","","","","-6","","Snow"
"-97.86","55.80","THOMPSON A","5062921","2023-04-12 17:00","2023","04","12","17:00","-0.8","","-3.1","","84","","","","1","","14","","24.1","","97.82","","","","-5","","Snow"
"-97.86","55.80","THOMPSON A","5062921","2023-04-12 18:00","2023","04","12","18:00","-1.1","","-3.3","","85","","","","2","","13","","24.1","","97.93","","","","-5","","Snow"
"-97.86","55.80","THOMPSON A","5062921","2023-04-12 19:00","2023","04","12","19:00","-1.2","","-3.3","","86","","","","36","","7","","24.1","","98.04","","","","-4","","NA"
"-97.86","55.80","THOMPSON A","5062921","2023-04-12 20:00","2023","04","12","20:00","-1.4","","-3.1","","88","","","","3","","10","","24.1","","98.09","","","","-5","","NA"
"-97.86","55.80","THOMPSON A","5062921","2023-04-12 21:00","2023","04","12","21:00","-1.6","","-3.1","","89","","","","36","","1","","24.1","","98.16","","","","-2","","Cloudy"
"-97.86","55.80","THOMPSON A","5062921","2023-04-12 22:00","2023","04","12","22:00","-2.6","","-3.5","","93","","","","7","","3","","24.1","","98.21","","","","-4","","NA"
"-97.86","55.80","THOMPSON A","5062921","2023-04-12 23:00","2023","04","12","23:00","-2.2","","-3.7","","90","","","","8","","6","","24.1","","98.24","","","","-5","","NA"
"-97.86","55.80","THOMPSON A","5062921","2023-04-13 00:00","2023","04","13","00:00","-2.3","","-3.6","","91","","","","8","","6","","24.1","","98.27","","","","-5","","Snow"
"-97.86","55.80","THOMPSON A","5062921","2023-04-13 01:00","2023","04","13","01:00","-2.6","","-3.5","","93","","","","6","","3","","24.1","","98.31","","","","-4","","Snow"
"-97.86","55.80","THOMPSON A","5062921","2023-04-13 02:00","2023","04","13","02:00","-2.2","","-3.6","","90","","","","9","","3","","24.1","","98.39","","","","-3","","NA"
"-97.86","55.80","THOMPSON A","5062921","2023-04-13 03:00","2023","04","13","03:00","-2.4","","-3.7","","91","","","","10","","4","","24.1","","98.41","","","","-4","","Cloudy"
"-97.86","55.80","THOMPSON A","5062921","2023-04-13 04:00","2023","04","13","04:00","-2.7","","-3.9","","92","","","","13","","3","","24.1","","98.45","","","","-4","","NA"
"-97.86","55.80","THOMPSON A","5062921","2023-04-13 05:00","2023","04","13","05:00","-2.8","","-3.9","","92","","","","13","","5","","24.1","","98.47","","","","-5","","Snow Showers"
"-97.86","55.80","THOMPSON A","5062921","2023-04-13 06:00","2023","04","13","06:00","-2.6","","-3.7","","92","","","","14","","5","","24.1","","98.49","","","","-5","","Snow Showers"
"-97.86","55.80","THOMPSON A","5062921","2023-04-13 07:00","2023","04","13","07:00","-2.3","","-3.8","","89","","","","16","","10","","24.1","","98.52","","","","-6","","Snow Showers"
"-97.86","55.80","THOMPSON A","5062921","2023-04-13 08:00","2023","04","13","08:00","-1.7","","-3.2","","89","","","","15","","4","","24.1","","98.53","","","","-3","","Snow Showers"
"-97.86","55.80","THOMPSON A","5062921","2023-04-13 09:00","2023","04","13","09:00","-0.9","","-3.1","","85","","","","12","","5","","24.1","","98.57","","","","-3","","Snow"
"-97.86","55.80","THOMPSON A","5062921","2023-04-13 10:00","2023","04","13","10:00","-0.1","","-3.1","","80","","","","19","","4","","24.1","","98.57","","","","-1","","Snow"
"-97.86","55.80","THOMPSON A","5062921","2023-04-13 11:00","2023","04","13","11:00","1.4","","-2.1","","78","","","","29","","4","","24.1","","98.55","","","","","","NA"
"-97.86","55.80","THOMPSON A","5062921","2023-04-13 12:00","2023","04","13","12:00","3.1","","-2.0","","69","","","","26","","3","","24.1","","98.58","","","","","","Mostly Cloudy"
"-97.86","55.80","THOMPSON A","5062921","2023-04-13 13:00","2023","04","13","13:00","4.4","","-1.9","","64","","","","31","","7","","24.1","","98.56","","","","","","NA"
"-97.86","55.80","THOMPSON A","5062921","2023-04-13 14:00","2023","04","13","14:00","6.0","","-4.5","","47","","","","21","","3","","24.1","","98.57","","","","","","NA"
"-97.86","55.80","THOMPSON A","5062921","2023-04-13 15:00","2023","04","13","15:00","6.2","","-3.2","","51","","","","4","","12","","24.1","","98.56","","","","","","Mostly Cloudy"
"-97.86","55.80","THOMPSON A","5062921","2023-04-13 16:00","2023","04","13","16:00","6.8","","-3.6","","47","","","","10","","9","","24.1","","98.56","","","","","","NA"
"-97.86","55.80","THOMPSON A","5062921","2023-04-13 17:00","2023","04","13","17:00","6.0","","-2.9","","53","","","","7","","12","","24.1","","98.61","","","","","","NA"
"-97.86","55.80","THOMPSON A","5062921","2023-04-13 18:00","2023","04","13","18:00","6.2","","-2.9","","52","","","","9","","9","","24.1","","98.61","","","","","","Mostly Cloudy"
"-97.86","55.80","THOMPSON A","5062921","2023-04-13 19:00","2023","04","13","19:00","5.6","","-2.9","","55","","","","8","","8","","24.1","","98.62","","","","","","NA"
"-97.86","55.80","THOMPSON A","5062921","2023-04-13 20:00","2023","04","13","20:00","4.0","","-3.0","","60","","","","8","","7","","24.1","","98.64","","","","","","NA"
"-97.86","55.80","THOMPSON A","5062921","2023-04-13 21:00","2023","04","13","21:00","2.5","","-3.1","","66","","","","9","","6","","24.1","","98.69","","","","","","Mostly Cloudy"
"-97.86","55.80","THOMPSON A","5062921","2023-04-13 22:00","2023","04","13","22:00","2.1","","-3.7","","65","","","","8","","9","","24.1","","98.70","","","","","","NA"
"-97.86","55.80","THOMPSON A","5062921","2023-04-13 23:00","2023","04","13","23:00","1.5","","-4.0","","67","","","","9","","9","","24.1","","98.71","","","","","","NA"
"-97.86","55.80","THOMPSON A","5062921","2023-04-14 00:00","2023","04","14","00:00","0.7","","-4.3","","69","","","","8","","6","","24.1","","98.71","","","","","","Mostly Cloudy"
"-97.86","55.80","THOMPSON A","5062921","2023-04-14 01:00","2023","04","14","01:00","0.5","","-4.2","","71","","","","7","","6","","24.1","","98.75","","","","","","NA"
"-97.86","55.80","THOMPSON A","5062921","2023-04-14 02:00","2023","04","14","02:00","0.4","","-4.4","","70","","","","8","","9","","24.1","","98.74","","","","","","NA"
"-97.86","55.80","THOMPSON A","5062921","2023-04-14 03:00","2023","04","14","03:00","0.2","","-3.9","","74","","","","6","","8","","24.1","","98.77","","","","","","Cloudy"
"-97.86","55.80","THOMPSON A","5062921","2023-04-14 04:00","2023","04","14","04:00","0.3","","-4.5","","70","","","","9","","8","","24.1","","98.76","","","","","","NA"
"-97.86","55.80","THOMPSON A","5062921","2023-04-14 05:00","2023","04","14","05:00","0.2","","-4.6","","70","","","","8","","8","","24.1","","98.71","","","","","","NA"
"-97.86","55.80","THOMPSON A","5062921","2023-04-14 06:00","2023","04","14","06:00","0.2","","-4.7","","70","","","","10","","5","","24.1","","98.74","","","","","","Mostly Cloudy"
"-97.86","55.80","THOMPSON A","5062921","2023-04-14 07:00","2023","04","14","07:00","0.5","","-4.5","","69","","","","7","","3","","24.1","","98.78","","","","","","NA"
"-97.86","55.80","THOMPSON A","5062921","2023-04-14 08:00","2023","04","14","08:00","1.8","","-4.5","","63","","","","9","","9","","24.1","","98.80","","","","","","NA"
"-97.86","55.80","THOMPSON A","5062921","2023-04-14 09:00","2023","04","14","09:00","3.7","","-4.2","","56","","","","7","","9","","24.1","","98.78","","","","","","Mostly Cloudy"
"-97.86","55.80","THOMPSON A","5062921","2023-04-14 10:00","2023","04","14","10:00","6.0","","-3.9","","49","","","","14","","6","","24.1","","98.80","","","","","","NA"
"-97.86","55.80","THOMPSON A","5062921","2023-04-14 11:00","2023","04","14","11:00","6.6","","-4.7","","44","","","","15","","10","","24.1","","98.81","","","","","","NA"
"-97.86","55.80","THOMPSON A","5062921","2023-04-14 12:00","2023","04","14","12:00","6.8","","-4.4","","45","","","","15","","9","","24.1","","98.84","","","","","","Cloudy"
"-97.86","55.80","THOMPSON A","5062921","2023-04-14 13:00","2023","04","14","13:00","7.4","","-4.9","","41","","","","16","","9","","24.1","","98.85","","","","","","NA"
"-97.86","55.80","THOMPSON A","5062921","2023-04-14 14:00","2023","04","14","14:00","7.3","","-4.7","","42","","","","8","","7","","24.1","","98.86","","","","","","NA"
"-97.86","55.80","THOMPSON A","5062921","2023-04-14 15:00","2023","04","14","15:00","7.9","","-5.5","","38","","","","11","","5","","24.1","","98.87","","","","","","Cloudy"
"-97.86","55.80","THOMPSON A","5062921","2023-04-14 16:00","2023","04","14","16:00","7.3","","-5.1","","41","","","","7","","10","","24.1","","98.89","","","","","","NA"
"-97.86","55.80","THOMPSON A","5062921","2023-04-14 17:00","2023","04","14","17:00","7.2","","-5.7","","40","","","","8","","10","","24.1","","98.95","","","","","","NA"
"-97.86","55.80","THOMPSON A","5062921","2023-04-14 18:00","2023","04","14","18:00","6.4","","-5.5","","42","","","","9","","8","","24.1","","99.02","","","","","","Mostly Cloudy"
"-97.86","55.80","THOMPSON A","5062921","2023-04-14 19:00","2023","04","14","19:00","5.3","","-5.7","","45","","","","8","","8","","24.1","","99.07","","","","","","NA"
"-97.86","55.80","THOMPSON A","5062921","2023-04-14 20:00","2023","04","14","20:00","3.8","","-4.6","","54","","","","6","","12","","24.1","","99.13","","","","","","NA"
"-97.86","55.80","THOMPSON A","5062921","2023-04-14 21:00","2023","04","14","21:00","2.2","","-4.5","","61","","","","6","","11","","24.1","","99.18","","","","","","Mostly Cloudy"
"-97.86","55.80","THOMPSON A","5062921","2023-04-14 22:00","2023","04","14","22:00","1.0","","-4.9","","65","","","","7","","12","","24.1","","99.24","","","","","","NA"
"-97.86","55.80","THOMPSON A","5062921","2023-04-14 23:00","2023","04","14","23:00","-0.3","","-5.9","","66","","","","5","","10","","24.1","","99.32","","","","-4","","NA"
"-97.86","55.80","THOMPSON A","5062921","2023-04-15 00:00","2023","04","15","00:00","-2.2","","-5.9","","76","","","","5","","10","","24.1","","99.37","","","","-6","","Mainly Clear"
"-97.86","55.80","THOMPSON A","5062921","2023-04-15 01:00","2023","04","15","01:00","-2.9","","-6.3","","77","","","","5","","10","","24.1","","99.42","","","","-7","","NA"
"-97.86","55.80","THOMPSON A","5062921","2023-04-15 02:00","2023","04","15","02:00","-3.2","","-6.5","","78","","","","6","","12","","24.1","","99.46","","","","-8","","NA"
"-97.86","55.80","THOMPSON A","5062921","2023-04-15 03:00","2023","04","15","03:00","-3.9","","-6.8","","80","","","","6","","12","","24.1","","99.50","","","","-9","","Clear"
"-97.86","55.80","THOMPSON A","5062921","2023-04-15 04:00","2023","04","15","04:00","-4.5","","-7.4","","80","","","","6","","11","","24.1","","99.56","","","","-9","","NA"
"-97.86","55.80","THOMPSON A","5062921","2023-04-15 05:00","2023","04","15","05:00","-5.0","","-8.4","","77","","","","6","","12","","24.1","","99.61","","","","-10","","NA"
"-97.86","55.80","THOMPSON A","5062921","2023-04-15 06:00","2023","04","15","06:00","-5.5","","-9.0","","77","","","","7","","9","","24.1","","99.70","","","","-10","","Mainly Clear"
"-97.86","55.80","THOMPSON A","5062921","2023-04-15 07:00","2023","04","15","07:00","-5.1","","-9.3","","73","","","","5","","10","","24.1","","99.76","","","","-9","","NA"
"-97.86","55.80","THOMPSON A","5062921","2023-04-15 08:00","2023","04","15","08:00","-3.8","","-9.6","","64","","","","8","","8","","24.1","","99.79","","","","-7","","NA"
"-97.86","55.80","THOMPSON A","5062921","2023-04-15 09:00","2023","04","15","09:00","-1.9","","-9.3","","57","","","","10","","7","","24.1","","99.81","","","","-5","","Mainly Clear"
"-97.86","55.80","THOMPSON A","5062921","2023-04-15 10:00","2023","04","15","10:00","0.5","","-9.0","","49","","","","8","","5","","24.1","","99.82","","","","","","NA"
"-97.86","55.80","THOMPSON A","5062921","2023-04-15 11:00","2023","04","15","11:00","1.9","","-10.6","","39","","","","9","","10","","24.1","","99.79","","","","","","NA"
"-97.86","55.80","THOMPSON A","5062921","2023-04-15 12:00","2023","04","15","12:00","3.3","","-9.4","","39","","","","6","","14","","24.1","","99.78","","","","","","Mainly Clear"
"-97.86","55.80","THOMPSON A","5062921","2023-04-15 13:00","2023","04","15","13:00","4.0","","-9.8","","36","","","","11","","13","","24.1","","99.77","","","","","","NA"
"-97.86","55.80","THOMPSON A","5062921","2023-04-15 14:00","2023","04","15","14:00","4.2","","-7.5","","42","","","","3","","10","","24.1","","99.74","","","","","","NA"
"-97.86","55.80","THOMPSON A","5062921","2023-04-15 15:00","2023","04","15","15:00","4.5","","-8.1","","40","","","","4","","10","","24.1","","99.72","","","","","","Mainly Clear"
"-97.86","55.80","THOMPSON A","5062921","2023-04-15 16:00","2023","04","15","16:00","5.5","","-9.5","","33","","","","8","","10","","24.1","","99.73","","","","","","NA"
"-97.86","55.80","THOMPSON A","5062921","2023-04-15 17:00","2023","04","15","17:00","5.3","","-8.8","","35","","","","7","","14","","24.1","","99.76","","","","","","NA"
"-97.86","55.80","THOMPSON A","5062921","2023-04-15 18:00","2023","04","15","18:00","4.6","","-8.4","","38","","","","8","","8","","24.1","","99.79","","","","","","Mainly Clear"
"-97.86","55.80","THOMPSON A","5062921","2023-04-15 19:00","2023","04","15","19:00","3.8","","-8.9","","39","","","","9","","7","","24.1","","99.80","","","","","","NA"
"-97.86","55.80","THOMPSON A","5062921","2023-04-15 20:00","2023","04","15","20:00","1.4","","-9.3","","45","","","","6","","7","","24.1","","99.83","","","","","","NA"
"-97.86","55.80","THOMPSON A","5062921","2023-04-15 21:00","2023","04","15","21:00","-0.2","","-9.4","","50","","","","7","","11","","24.1","","99.85","","","","-4","","Mainly Clear"
"-97.86","55.80","THOMPSON A","5062921","2023-04-15 22:00","2023","04","15","22:00","-1.6","","-10.0","","53","","","","8","","9","","24.1","","99.87","","","","-5","","NA"
"-97.86","55.80","THOMPSON A","5062921","2023-04-15 23:00","2023","04","15","23:00","-2.3","","-10.6","","53","","","","9","","9","","24.1","","99.87","","","","-6","","NA"
"-97.86","55.80","THOMPSON A","5062921","2023-04-16 00:00","2023","04","16","00:00","-2.9","","-11.2","","53","","","","8","","9","","24.1","","99.87","","","","-6","","Mainly Clear"
"-97.86","55.80","THOMPSON A","5062921","2023-04-16 01:00","2023","04","16","01:00","-3.3","","-11.7","","52","","","","8","","8","","24.1","","99.90","","","","-7","","NA"
"-97.86","55.80","THOMPSON A","5062921","2023-04-16 02:00","2023","04","16","02:00","-4.1","","-11.8","","55","","","","9","","5","","24.1","","99.93","","","","-6","","NA"
"-97.86","55.80","THOMPSON A","5062921","2023-04-16 03:00","2023","04","16","03:00","-4.6","","-11.7","","58","","","","9","","8","","24.1","","99.96","","","","-8","","Mostly Cloudy"
"-97.86","55.80","THOMPSON A","5062921","2023-04-16 04:00","2023","04","16","04:00","-5.0","","-11.8","","60","","","","9","","7","","24.1","","99.99","","","","-8","","NA"
"-97.86","55.80","THOMPSON A","5062921","2023-04-16 05:00","2023","04","16","05:00","-5.7","","-11.5","","64","","","","9","","8","","24.1","","100.01","","","","-9","","NA"
"-97.86","55.80","THOMPSON A","5062921","2023-04-16 06:00","2023","04","16","06:00","-6.4","","-11.9","","65","","","","5","","5","","24.1","","100.02","","","","-9","","Mainly Clear"
"-97.86","55.80","THOMPSON A","5062921","2023-04-16 07:00","2023","04","16","07:00","-5.9","","-12.2","","62","","","","7","","9","","24.1","","100.00","","","","-10","","NA"
"-97.86","55.80","THOMPSON A","5062921","2023-04-16 08:00","2023","04","16","08:00","-4.9","","-12.9","","54","","","","10","","8","","24.1","","100.01","","","","-8","","NA"
"-97.86","55.80","THOMPSON A","5062921","2023-04-16 09:00","2023","04","16","09:00","-3.0","","-13.2","","46","","","","12","","4","","24.1","","100.00","","","","-5","","Mainly Clear"
"-97.86","55.80","THOMPSON A","5062921","2023-04-16 10:00","2023","04","16","10:00","-1.2","","-14.2","","37","","","","9","","6","","24.1","","99.97","","","","-3","","NA"
"-97.86","55.80","THOMPSON A","5062921","2023-04-16 11:00","2023","04","16","11:00","0.8","","-12.8","","36","","","","6","","9","","24.1","","99.92","","","","","","NA"
"-97.86","55.80","THOMPSON A","5062921","2023-04-16 12:00","2023","04","16","12:00","2.2","","-12.6","","33","","","","9","","9","","24.1","","99.88","","","","","","Mainly Clear"
"-97.86","55.80","THOMPSON A","5062921","2023-04-16 13:00","2023","04","16","13:00","2.8","","-12.6","","31","","","","36","","7","","24.1","","99.83","","","","","","NA"
"-97.86","55.80","THOMPSON A","5062921","2023-04-16 14:00","2023","04","16","14:00","3.6","","-10.4","","35","","","","5","","7","","24.1","","99.79","","","","","","NA"
"-97.86","55.80","THOMPSON A","5062921","2023-04-16 15:00","2023","04","16","15:00","4.2","","-11.3","","32","","","","8","","11","","24.1","","99.74","","","","","","Mainly Clear"
"-97.86","55.80","THOMPSON A","5062921","2023-04-16 16:00","2023","04","16","16:00","4.9","","-10.2","","33","","","","11","","7","","24.1","","99.70","","","","","","NA"
"-97.86","55.80","THOMPSON A","5062921","2023-04-16 17:00","2023","04","16","17:00","4.3","","-9.7","","36","","","","7","","7","","24.1","","99.68","","","","","","NA"
"-97.86","55.80","THOMPSON A","5062921","2023-04-16 18:00","2023","04","16","18:00","4.1","","-10.2","","35","","","","6","","10","","24.1","","99.68","","","","","","Mainly Clear"
"-97.86","55.80","THOMPSON A","5062921","2023-04-16 19:00","2023","04","16","19:00","2.4","","-9.9","","40","","","","7","","10","","24.1","","99.67","","","","","","NA"
"-97.86","55.80","THOMPSON A","5062921","2023-04-16 20:00","2023","04","16","20:00","-0.2","","-8.9","","52","","","","5","","10","","24.1","","99.67","","","","-4","","NA"
"-97.86","55.80","THOMPSON A","5062921","2023-04-16 21:00","2023","04","16","21:00","-0.5","","-9.7","","50","","","","7","","12","","24.1","","99.65","","","","-4","","Mainly Clear"
"-97.86","55.80","THOMPSON A","5062921","2023-04-16 22:00","2023","04","16","22:00","-2.3","","-11.1","","51","","","","6","","10","","24.1","","99.66","","","","-6","","NA"
"-97.86","55.80","THOMPSON A","5062921","2023-04-16 23:00","2023","04","16","23:00","-3.2","","-12.1","","50","","","","8","","7","","24.1","","99.63","","","","-6","","NA"
"-97.86","55.80","THOMPSON A","5062921","2023-04-17 00:00","2023","04","17","00:00","-4.0","","-11.8","","55","","","","8","","8","","24.1","","99.59","","","","-7","","Mainly Clear"
"-97.86","55.80","THOMPSON A","5062921","2023-04-17 01:00","2023","04","17","01:00","-5.0","","-11.4","","61","","","","8","","6","","24.1","","99.58","","","","-8","","NA"
"-97.86","55.80","THOMPSON A","5062921","2023-04-17 02:00","2023","04","17","02:00","-5.8","","-11.2","","66","","","","7","","8","","24.1","","99.58","","","","-10","","NA"
"-97.86","55.80","THOMPSON A","5062921","2023-04-17 03:00","2023","04","17","03:00","-6.8","","-11.4","","70","","","","7","","5","","24.1","","99.60","","","","-9","","Mainly Clear"
"-97.86","55.80","THOMPSON A","5062921","2023-04-17 04:00","2023","04","17","04:00","-7.8","","-11.7","","74","","","","6","","5","","24.1","","99.64","","","","-10","","NA"
"-97.86","55.80","THOMPSON A","5062921","2023-04-17 05:00","2023","04","17","05:00","-8.6","","-11.9","","77","","","","7","","7","","24.1","","99.66","","","","-12","","NA"
"-97.86","55.80","THOMPSON A","5062921","2023-04-17 06:00","2023","04","17","06:00","-9.5","","-12.2","","81","","","","5","","12","","24.1","","99.70","","","","-15","","Mainly Clear"
"-97.86","55.80","THOMPSON A","5062921","2023-04-17 07:00","2023","04","17","07:00","-8.9","","-12.4","","76","","","","7","","9","","24.1","","99.70","","","","-14","","NA"
"-97.86","55.80","THOMPSON A","5062921","2023-04-17 08:00","2023","04","17","08:00","-7.6","","-12.5","","68","","","","7","","12","","24.1","","99.68","","","","-13","","NA"
"-97.86","55.80","THOMPSON A","5062921","2023-04-17 09:00","2023","04","17","09:00","-6.3","","-12.3","","63","","","","5","","10","","24.1","","99.66","","","","-11","","Clear"
"-97.86","55.80","THOMPSON A","5062921","2023-04-17 10:00","2023","04","17","10:00","-4.8","","-13.2","","52","","","","6","","14","","24.1","","99.61","","","","-10","","NA"
"-97.86","55.80","THOMPSON A","5062921","2023-04-17 11:00","2023","04","17","11:00","-2.9","","-13.0","","46","","","","8","","9","","24.1","","99.56","","","","-6","","NA"
"-97.86","55.80","THOMPSON A","5062921","2023-04-17 12:00","2023","04","17","12:00","-1.6","","-13.5","","40","","","","5","","8","","24.1","","99.50","","","","-5","","Clear"
"-97.86","55.80","THOMPSON A","5062921","2023-04-17 13:00","2023","04","17","13:00","-0.6","","-14.0","","36","","","","8","","8","","24.1","","99.45","","","","-3","","NA"
"-97.86","55.80","THOMPSON A","5062921","2023-04-17 14:00","2023","04","17","14:00","0.4","","-13.3","","35","","","","7","","13","","24.1","","99.42","","","","","","NA"
"-97.86","55.80","THOMPSON A","5062921","2023-04-17 15:00","2023","04","17","15:00","0.7","","-11.4","","40","","","","5","","17","","24.1","","99.40","","","","","","Clear"
"-97.86","55.80","THOMPSON A","5062921","2023-04-17 16:00","2023","04","17","16:00","0.7","","-11.6","","39","","","","5","","14","","24.1","","99.35","","","","","","NA"
"-97.86","55.80","THOMPSON A","5062921","2023-04-17 17:00","2023","04","17","17:00","0.6","","-11.5","","40","","","","6","","16","","24.1","","99.35","","","","","","NA"
"-97.86","55.80","THOMPSON A","5062921","2023-04-17 18:00","2023","04","17","18:00","-0.8","","-10.7","","47","","","","4","","20","","24.1","","99.35","","","","-6","","Clear"
"-97.86","55.80","THOMPSON A","5062921","2023-04-17 19:00","2023","04","17","19:00","-1.9","","-12.1","","46","","","","6","","9","","24.1","","99.36","","","","-5","","NA"
"-97.86","55.80","THOMPSON A","5062921","2023-04-17 20:00","2023","04","17","20:00","-3.2","","-13.3","","46","","","","6","","11","","24.1","","99.38","","","","-7","","NA"
"-97.86","55.80","THOMPSON A","5062921","2023-04-17 21:00","2023","04","17","21:00","-4.3","","-13.4","","49","","","","6","","13","","24.1","","99.41","","","","-9","","Clear"
"-97.86","55.80","THOMPSON A","5062921","2023-04-17 22:00","2023","04","17","22:00","-5.5","","-13.6","","53","","","","6","","14","","24.1","","99.43","","","","-11","","NA"
"-97.86","55.80","THOMPSON A","5062921","2023-04-17 23:00","2023","04","17","23:00","-6.7","","-14.1","","56","","","","6","","12","","24.1","","99.47","","","","-12","","NA"
"-97.86","55.80","THOMPSON A","5062921","2023-04-18 00:00","2023","04","18","00:00","-7.9","","-14.5","","60","","","","6","","15","","24.1","","99.47","","","","-14","","Clear"
"-97.86","55.80","THOMPSON A","5062921","2023-04-18 01:00","2023","04","18","01:00","-8.8","","-15.3","","60","","","","7","","12","","24.1","","99.51","","","","-14","","NA"
"-97.86","55.80","THOMPSON A","5062921","2023-04-18 02:00","2023","04","18","02:00","-10.0","","-15.7","","63","","","","7","","11","","24.1","","99.51","","","","-16","","NA"
"-97.86","55.80","THOMPSON A","5062921","2023-04-18 03:00","2023","04","18","03:00","-11.0","","-16.6","","64","","","","7","","7","","24.1","","99.56","","","","-15","","Clear"
"-97.86","55.80","THOMPSON A","5062921","2023-04-18 04:00","2023","04","18","04:00","-12.0","","-17.1","","66","","","","7","","4","","24.1","","99.61","","","","-15","","NA"
"-97.86","55.80","THOMPSON A","5062921","2023-04-18 05:00","2023","04","18","05:00","-12.8","","-16.6","","73","","","","6","","13","","24.1","","99.59","","","","-20","","NA"
"-97.86","55.80","THOMPSON A","5062921","2023-04-18 06:00","2023","04","18","06:00","-12.8","","-16.0","","77","","","","8","","14","","24.1","","99.62","","","","-20","","Mainly Clear"
"-97.86","55.80","THOMPSON A","5062921","2023-04-18 07:00","2023","04","18","07:00","-11.9","","-16.0","","72","","","","8","","15","","24.1","","99.71","","","","-19","","NA"
"-97.86","55.80","THOMPSON A","5062921","2023-04-18 08:00","2023","04","18","08:00","-10.6","","-16.7","","61","","","","5","","12","","24.1","","99.82","","","","-17","","NA"
"-97.86","55.80","THOMPSON A","5062921","2023-04-18 09:00","2023","04","18","09:00","-8.7","","-17.4","","50","","","","9","","13","","24.1","","99.79","","","","-15","","Mainly Clear"
"-97.86","55.80","THOMPSON A","5062921","2023-04-18 10:00","2023","04","18","10:00","-6.4","","-16.3","","46","","","","6","","13","","24.1","","99.77","","","","-12","","NA"
"-97.86","55.80","THOMPSON A","5062921","2023-04-18 11:00","2023","04","18","11:00","-4.4","","-17.2","","36","","","","6","","21","","24.1","","99.72","","","","-11","","NA"
"-97.86","55.80","THOMPSON A","5062921","2023-04-18 12:00","2023","04","18","12:00","-2.6","","-17.5","","31","","","","6","","22","","24.1","","99.69","","","","-9","","Mainly Clear"
"-97.86","55.80","THOMPSON A","5062921","2023-04-18 13:00","2023","04","18","13:00","-0.9","","-16.9","","29","","","","6","","11","","24.1","","99.68","","","","-5","","NA"
"-97.86","55.80","THOMPSON A","5062921","2023-04-18 14:00","2023","04","18","14:00","-0.1","","-15.6","","30","","","","7","","16","","24.1","","99.70","","","","-5","","NA"
"-97.86","55.80","THOMPSON A","5062921","2023-04-18 15:00","2023","04","18","15:00","0.7","","-15.0","","30","","","","5","","19","","24.1","","99.70","","","","","","Mainly Clear"
"-97.86","55.80","THOMPSON A","5062921","2023-04-18 16:00","2023","04","18","16:00","1.4","","-15.1","","28","","","","7","","18","","24.1","","99.70","","","","","","NA"
"-97.86","55.80","THOMPSON A","5062921","2023-04-18 17:00","2023","04","18","17:00","1.2","","-14.4","","30","","","","6","","16","","24.1","","99.71","","","","","","NA"
"-97.86","55.80","THOMPSON A","5062921","2023-04-18 18:00","2023","04","18","18:00","0.5","","-14.4","","32","","","","9","","12","","24.1","","99.76","","","","","","Mostly Cloudy"
"-97.86","55.80","THOMPSON A","5062921","2023-04-18 19:00","2023","04","18","19:00","-0.8","","-13.7","","37","","","","7","","13","","24.1","","99.86","","","","-5","","NA"
"-97.86","55.80","THOMPSON A","5062921","2023-04-18 20:00","2023","04","18","20:00","-2.2","","-13.0","","43","","","","6","","13","","24.1","","99.89","","","","-7","","NA"
"-97.86","55.80","THOMPSON A","5062921","2023-04-18 21:00","2023","04","18","21:00","-2.9","","-13.0","","46","","","","6","","16","","24.1","","99.95","","","","-8","","Mostly Cloudy"
"-97.86","55.80","THOMPSON A","5062921","2023-04-18 22:00","2023","04","18","22:00","-3.5","","-13.7","","46","","","","7","","13","","24.1","","100.02","","","","-8","","NA"
"-97.86","55.80","THOMPSON A","5062921","2023-04-18 23:00","2023","04","18","23:00","-4.4","","-13.4","","50","","","","6","","11","","24.1","","100.07","","","","-9","","NA"
"-97.86","55.80","THOMPSON A","5062921","2023-04-19 00:00","2023","04","19","00:00","-5.1","","-13.8","","51","","","","6","","15","","24.1","","100.09","","","","-11","","Mostly Cloudy"
"-97.86","55.80","THOMPSON A","5062921","2023-04-19 01:00","2023","04","19","01:00","-6.0","","-15.0","","49","","","","6","","14","","24.1","","100.11","","","","-12","","NA"
"-97.86","55.80","THOMPSON A","5062921","2023-04-19 02:00","2023","04","19","02:00","-6.9","","-15.8","","50","","","","8","","12","","24.1","","100.15","","","","-12","","NA"
"-97.86","55.80","THOMPSON A","5062921","2023-04-19 03:00","2023","04","19","03:00","-7.9","","-15.7","","54","","","","6","","16","","24.1","","100.19","","","","-14","","Mostly Cloudy"
"-97.86","55.80","THOMPSON A","5062921","2023-04-19 04:00","2023","04","19","04:00","-8.9","","-15.5","","59","","","","6","","10","","24.1","","100.22","","","","-14","","NA"
"-97.86","55.80","THOMPSON A","5062921","2023-04-19 05:00","2023","04","19","05:00","-9.9","","-15.6","","63","","","","7","","11","","24.1","","100.27","","","","-15","","NA"
"-97.86","55.80","THOMPSON A","5062921","2023-04-19 06:00","2023","04","19","06:00","-10.4","","-15.1","","69","","","","5","","18","","24.1","","100.26","","","","-18","","Mostly Cloudy"
"-97.86","55.80","THOMPSON A","5062921","2023-04-19 07:00","2023","04","19","07:00","-10.1","","-14.7","","69","","","","6","","16","","24.1","","100.27","","","","-17","","NA"
"-97.86","55.80","THOMPSON A","5062921","2023-04-19 08:00","2023","04","19","08:00","-8.9","","-14.4","","65","","","","6","","11","","24.1","","100.37","","","","-14","","NA"
"-97.86","55.80","THOMPSON A","5062921","2023-04-19 09:00","2023","04","19","09:00","-6.9","","-13.4","","60","","","","6","","14","","24.1","","100.41","","","","-13","","Mostly Cloudy"
"-97.86","55.80","THOMPSON A","5062921","2023-04-19 10:00","2023","04","19","10:00","-5.2","","-12.7","","56","","","","5","","13","","24.1","","100.39","","","","-10","","NA"
"-97.86","55.80","THOMPSON A","5062921","2023-04-19 11:00","2023","04","19","11:00","-2.9","","-12.2","","49","","","","7","","13","","24.1","","100.36","","","","-8","","NA"
"-97.86","55.80","THOMPSON A","5062921","2023-04-19 12:00","2023","04","19","12:00","-1.2","","-12.4","","42","","","","5","","21","","24.1","","100.33","","","","-7","","Mostly Cloudy"
"-97.86","55.80","THOMPSON A","5062921","2023-04-19 13:00","2023","04","19","13:00","-0.6","","-9.8","","50","","","","3","","23","","24.1","","100.33","","","","-6","","NA"
"-97.86","55.80","THOMPSON A","5062921","2023-04-19 14:00","2023","04","19","14:00","0.2","","-10.1","","46","","","","3","","22","","24.1","","100.35","","","","","","NA"
"-97.86","55.80","THOMPSON A","5062921","2023-04-19 15:00","2023","04","19","15:00","0.6","","-9.4","","47","","","","4","","23","","24.1","","100.35","","","","","","Mostly Cloudy"
"-97.86","55.80","THOMPSON A","5062921","2023-04-19 16:00","2023","04","19","16:00","1.5","","-9.8","","43","","","","6","","20","","24.1","","100.35","","","","","","NA"
"-97.86","55.80","THOMPSON A","5062921","2023-04-19 17:00","2023","04","19","17:00","0.8","","-9.3","","47","","","","4","","21","","24.1","","100.35","","","","","","NA"
"-97.86","55.80","THOMPSON A","5062921","2023-04-19 18:00","2023","04","19","18:00","0.4","","-9.1","","49","","","","4","","20","","24.1","","100.42","","","","","","Mostly Cloudy"
"-97.86","55.80","THOMPSON A","5062921","2023-04-19 19:00","2023","04","19","19:00","-0.6","","-8.8","","54","","","","5","","19","","24.1","","100.43","","","","-6","","NA"
"-97.86","55.80","THOMPSON A","5062921","2023-04-19 20:00","2023","04","19","20:00","-1.1","","-8.0","","60","","","","5","","22","","24.1","","100.44","","","","-7","","NA"
"-97.86","55.80","THOMPSON A","5062921","2023-04-19 21:00","2023","04","19","21:00","-1.6","","-7.5","","64","","","","5","","15","","24.1","","100.50","","","","-6","","Mostly Cloudy"
"-97.86","55.80","THOMPSON A","5062921","2023-04-19 22:00","2023","04","19","22:00","-1.9","","-8.1","","63","","","","5","","27","","24.1","","100.50","","","","-9","","NA"
"-97.86","55.80","THOMPSON A","5062921","2023-04-19 23:00","2023","04","19","23:00","-2.4","","-8.0","","66","","","","6","","23","","24.1","","100.50","","","","-9","","NA"
"-97.86","55.80","THOMPSON A","5062921","2023-04-20 00:00","2023","04","20","00:00","-2.9","","-7.7","","69","","","","7","","18","","24.1","","100.57","","","","-9","","Mostly Cloudy"
"-97.86","55.80","THOMPSON A","5062921","2023-04-20 01:00","2023","04","20","01:00","-3.3","","-7.9","","70","","","","6","","18","","24.1","","100.58","","","","-9","","NA"
"-97.86","55.80","THOMPSON A","5062921","2023-04-20 02:00","2023","04","20","02:00","-3.9","","-8.6","","70","","","","6","","21","","24.1","","100.58","","","","-10","","NA"
"-97.86","55.80","THOMPSON A","5062921","2023-04-20 03:00","2023","04","20","03:00","-4.8","","-8.7","","74","","","","5","","14","","24.1","","100.62","","","","-10","","Mainly Clear"
"-97.86","55.80","THOMPSON A","5062921","2023-04-20 04:00","2023","04","20","04:00","-5.7","","-9.5","","75","","","","5","","13","","24.1","","100.68","","","","-11","","NA"
"-97.86","55.80","THOMPSON A","5062921","2023-04-20 05:00","2023","04","20","05:00","-6.3","","-9.7","","77","","","","6","","13","","24.1","","100.71","","","","-12","","NA"
"-97.86","55.80","THOMPSON A","5062921","2023-04-20 06:00","2023","04","20","06:00","-6.5","","-9.7","","78","","","","4","","19","","24.1","","100.65","","","","-13","","Mostly Cloudy"
"-97.86","55.80","THOMPSON A","5062921","2023-04-20 07:00","2023","04","20","07:00","-6.1","","-10.1","","73","","","","5","","24","","24.1","","100.62","","","","-14","","NA"
"-97.86","55.80","THOMPSON A","5062921","2023-04-20 08:00","2023","04","20","08:00","-4.8","","-9.6","","70","","","","6","","18","","24.1","","100.68","","","","-11","","NA"
"-97.86","55.80","THOMPSON A","5062921","2023-04-20 09:00","2023","04","20","09:00","-3.3","","-9.1","","65","","","","4","","15","","24.1","","100.68","","","","-8","","Cloudy"
"-97.86","55.80","THOMPSON A","5062921","2023-04-20 10:00","2023","04","20","10:00","-2.0","","-8.0","","64","","","","2","","20","","24.1","","100.70","","","","-8","","NA"
"-97.86","55.80","THOMPSON A","5062921","2023-04-20 11:00","2023","04","20","11:00","-1.0","","-8.6","","57","","","","4","","26","","24.1","","100.67","","","","-7","","NA"
"-97.86","55.80","THOMPSON A","5062921","2023-04-20 12:00","2023","04","20","12:00","0.7","","-8.7","","50","","","","6","","16","","24.1","","100.69","","","","","","Mostly Cloudy"
"-97.86","55.80","THOMPSON A","5062921","2023-04-20 13:00","2023","04","20","13:00","1.5","","-7.3","","52","","","","3","","23","","24.1","","100.63","","","","","","NA"
"-97.86","55.80","THOMPSON A","5062921","2023-04-20 14:00","2023","04","20","14:00","2.5","","-8.1","","46","","","","4","","25","","24.1","","100.55","","","","","","NA"
"-97.86","55.80","THOMPSON A","5062921","2023-04-20 15:00","2023","04","20","15:00","3.9","","-8.5","","40","","","","5","","20","","24.1","","100.48","","","","","","Mostly Cloudy"
"-97.86","55.80","THOMPSON A","5062921","2023-04-20 16:00","2023","04","20","16:00","3.9","","-7.8","","42","","","","4","","30","","24.1","","100.42","","","","","","NA"
"-97.86","55.80","THOMPSON A","5062921","2023-04-20 17:00","2023","04","20","17:00","3.6","","-7.4","","44","","","","3","","23","","24.1","","100.40","","","","","","NA"
"-97.86","55.80","THOMPSON A","5062921","2023-04-20 18:00","2023","04","20","18:00","3.1","","-8.8","","42","","","","2","","21","","24.1","","100.43","","","","","","Mainly Clear"
"-97.86","55.80","THOMPSON A","5062921","2023-04-20 19:00","2023","04","20","19:00","1.5","","-9.9","","42","","","","3","","19","","24.1","","100.43","","","","","","NA"
"-97.86","55.80","THOMPSON A","5062921","2023-04-20 20:00","2023","04","20","20:00","-0.1","","-10.5","","46","","","","3","","16","","24.1","","100.45","","","","-5","","NA"
"-97.86","55.80","THOMPSON A","5062921","2023-04-20 21:00","2023","04","20","21:00","-1.6","","-10.9","","50","","","","4","","15","","24.1","","100.43","","","","-6","","Mostly Cloudy"
"-97.86","55.80","THOMPSON A","5062921","2023-04-20 22:00","2023","04","20","22:00","-2.1","","-11.0","","51","","","","5","","13","","24.1","","100.42","","","","-7","","NA"
"-97.86","55.80","THOMPSON A","5062921","2023-04-20 23:00","2023","04","20","23:00","-3.3","","-11.5","","53","","","","4","","12","","24.1","","100.41","","","","-8","","NA"
"-97.86","55.80","THOMPSON A","5062921","2023-04-21 00:00","2023","04","21","00:00","-3.8","","-12.2","","52","","","","4","","8","","24.1","","100.39","","","","-7","","Clear"
"-97.86","55.80","THOMPSON A","5062921","2023-04-21 01:00","2023","04","21","01:00","-4.1","","-12.9","","50","","","","4","","7","","24.1","","100.36","","","","-7","","NA"
"-97.86","55.80","THOMPSON A","5062921","2023-04-21 02:00","2023","04","21","02:00","-7.2","","-12.8","","65","","","","1","","12","","24.1","","100.34","","","","-13","","NA"
"-97.86","55.80","THOMPSON A","5062921","2023-04-21 03:00","2023","04","21","03:00","-7.6","","-12.7","","67","","","","1","","13","","24.1","","100.30","","","","-13","","Clear"
"-97.86","55.80","THOMPSON A","5062921","2023-04-21 04:00","2023","04","21","04:00","-7.7","","-12.7","","67","","","","1","","13","","24.1","","100.25","","","","-13","","NA"
"-97.86","55.80","THOMPSON A","5062921","2023-04-21 05:00","2023","04","21","05:00","-7.8","","-13.0","","66","","","","1","","10","","24.1","","100.23","","","","-13","","NA"
"-97.86","55.80","THOMPSON A","5062921","2023-04-21 06:00","2023","04","21","06:00","-8.9","","-13.3","","71","","","","36","","12","","24.1","","100.22","","","","-15","","Mainly Clear"
"-97.86","55.80","THOMPSON A","5062921","2023-04-21 07:00","2023","04","21","07:00","-5.8","","-11.9","","62","","","","36","","10","","24.1","","100.21","","","","-10","","NA"
"-97.86","55.80","THOMPSON A","5062921","2023-04-21 08:00","2023","04","21","08:00","-3.9","","-12.1","","53","","","","1","","13","","24.1","","100.17","","","","-9","","NA"
"-97.86","55.80","THOMPSON A","5062921","2023-04-21 09:00","2023","04","21","09:00","-2.2","","-12.1","","47","","","","1","","22","","24.1","","100.12","","","","-8","","Clear"
"-97.86","55.80","THOMPSON A","5062921","2023-04-21 10:00","2023","04","21","10:00","-0.4","","-12.4","","40","","","","36","","23","","24.1","","100.06","","","","-6","","NA"
"-97.86","55.80","THOMPSON A","5062921","2023-04-21 11:00","2023","04","21","11:00","1.1","","-11.9","","37","","","","1","","17","","24.1","","99.99","","","","","","NA"
"-97.86","55.80","THOMPSON A","5062921","2023-04-21 12:00","2023","04","21","12:00","1.6","","-10.0","","42","","","","36","","27","","24.1","","99.95","","","","","","Mainly Clear"
"-97.86","55.80","THOMPSON A","5062921","2023-04-21 13:00","2023","04","21","13:00","2.2","","-9.6","","42","","","","2","","19","","24.1","","99.94","","","","","","NA"
"-97.86","55.80","THOMPSON A","5062921","2023-04-21 14:00","2023","04","21","14:00","2.3","","-10.6","","38","","","","4","","28","","24.1","","99.91","","","","","","NA"
"-97.86","55.80","THOMPSON A","5062921","2023-04-21 15:00","2023","04","21","15:00","2.8","","-9.8","","39","","","","1","","20","","24.1","","99.91","","","","","","Mainly Clear"
"-97.86","55.80","THOMPSON A","5062921","2023-04-21 16:00","2023","04","21","16:00","3.0","","-9.0","","41","","","","3","","19","","24.1","","99.87","","","","","","NA"
"-97.86","55.80","THOMPSON A","5062921","2023-04-21 17:00","2023","04","21","17:00","3.3","","-8.9","","40","","","","35","","25","","24.1","","99.85","","","","","","NA"
"-97.86","55.80","THOMPSON A","5062921","2023-04-21 18:00","2023","04","21","18:00","2.7","","-8.7","","43","","","","4","","26","","24.1","","99.82","","","","","","Mainly Clear"
"-97.86","55.80","THOMPSON A","5062921","2023-04-21 19:00","2023","04","21","19:00","1.8","","-8.5","","47","","","","3","","15","","24.1","","99.83","","","","","","NA"
"-97.86","55.80","THOMPSON A","5062921","2023-04-21 20:00","2023","04","21","20:00","-0.4","","-8.5","","54","","","","5","","11","","24.1","","99.82","","","","-4","","NA"
"-97.86","55.80","THOMPSON A","5062921","2023-04-21 21:00","2023","04","21","21:00","-1.3","","-8.7","","57","","","","6","","12","","24.1","","99.82","","","","-5","","Mainly Clear"
"-97.86","55.80","THOMPSON A","5062921","2023-04-21 22:00","2023","04","21","22:00","-2.8","","-8.8","","64","","","","6","","12","","24.1","","99.83","","","","-7","","NA"
"-97.86","55.80","THOMPSON A","5062921","2023-04-21 23:00","2023","04","21","23:00","-3.8","","-8.9","","68","","","","8","","4","","24.1","","99.80","","","","-5","","NA"
"-97.86","55.80","THOMPSON A","5062921","2023-04-22 00:00","2023","04","22","00:00","-4.5","","-9.7","","67","","","","6","","7","","24.1","","99.80","","","","-8","","Mainly Clear"
"-97.86","55.80","THOMPSON A","5062921","2023-04-22 01:00","2023","04","22","01:00","-7.2","","-10.2","","79","","","","2","","5","","24.1","","99.79","","","","-10","","NA"
"-97.86","55.80","THOMPSON A","5062921","2023-04-22 02:00","2023","04","22","02:00","-7.0","","-10.1","","79","","","","2","","4","","24.1","","99.75","","","","-9","","NA"
"-97.86","55.80","THOMPSON A","5062921","2023-04-22 03:00","2023","04","22","03:00","-8.6","","-11.1","","82","","","","1","","8","","24.1","","99.72","","","","-13","","Mainly Clear"
"-97.86","55.80","THOMPSON A","5062921","2023-04-22 04:00","2023","04","22","04:00","-9.3","","-11.7","","83","","","","36","","1","","24.1","","99.72","","","","-10","","NA"
"-97.86","55.80","THOMPSON A","5062921","2023-04-22 05:00","2023","04","22","05:00","-9.5","","-11.5","","85","","","","3","","3","","24.1","","99.69","","","","-11","","NA"
"-97.86","55.80","THOMPSON A","5062921","2023-04-22 06:00","2023","04","22","06:00","-8.7","","-11.1","","83","","","","1","","4","","24.1","","99.70","","","","-11","","Mostly Cloudy"
"-97.86","55.80","THOMPSON A","5062921","2023-04-22 07:00","2023","04","22","07:00","-6.7","","-10.3","","76","","","","2","","4","","24.1","","99.68","","","","-9","","NA"
"-97.86","55.80","THOMPSON A","5062921","2023-04-22 08:00","2023","04","22","08:00","-4.2","","-10.9","","60","","","","8","","7","","24.1","","99.65","","","","-7","","NA"
"-97.86","55.80","THOMPSON A","5062921","2023-04-22 09:00","2023","04","22","09:00","-2.9","","-10.2","","57","","","","6","","5","","24.1","","99.62","","","","-5","","Mainly Clear"
"-97.86","55.80","THOMPSON A","5062921","2023-04-22 10:00","2023","04","22","10:00","-1.2","","-9.0","","55","","","","36","","17","","24.1","","99.60","","","","-6","","NA"
"-97.86","55.80","THOMPSON A","5062921","2023-04-22 11:00","2023","04","22","11:00","0.0","","-8.7","","52","","","","4","","12","","24.1","","99.55","","","","-4","","NA"
"-97.86","55.80","THOMPSON A","5062921","2023-04-22 12:00","2023","04","22","12:00","0.8","","-8.7","","49","","","","1","","19","","24.1","","99.54","","","","","","Mainly Clear"
"-97.86","55.80","THOMPSON A","5062921","2023-04-22 13:00","2023","04","22","13:00","2.0","","-8.4","","46","","","","3","","17","","24.1","","99.50","","","","","","NA"
"-97.86","55.80","THOMPSON A","5062921","2023-04-22 14:00","2023","04","22","14:00","2.2","","-9.1","","43","","","","35","","22","","24.1","","99.48","","","","","","NA"
"-97.86","55.80","THOMPSON A","5062921","2023-04-22 15:00","2023","04","22","15:00","2.8","","-10.1","","38","","","","2","","19","","24.1","","99.47","","","","","","Mainly Clear"
"-97.86","55.80","THOMPSON A","5062921","2023-04-22 16:00","2023","04","22","16:00","2.6","","-10.0","","39","","","","5","","18","","24.1","","99.48","","","","","","NA"
"-97.86","55.80","THOMPSON A","5062921","2023-04-22 17:00","2023","04","22","17:00","2.2","","-8.7","","45","","","","1","","16","","24.1","","99.48","","","","","","NA"
"-97.86","55.80","THOMPSON A","5062921","2023-04-22 18:00","2023","04","22","18:00","1.7","","-9.7","","43","","","","6","","18","","24.1","","99.51","","","","","","Mostly Cloudy"
"-97.86","55.80","THOMPSON A","5062921","2023-04-22 19:00","2023","04","22","19:00","0.0","","-10.9","","44","","","","5","","16","","24.1","","99.55","","","","-5","","NA"
"-97.86","55.80","THOMPSON A","5062921","2023-04-22 20:00","2023","04","22","20:00","-1.7","","-11.5","","47","","","","4","","7","","24.1","","99.56","","","","-4","","NA"
"-97.86","55.80","THOMPSON A","5062921","2023-04-22 21:00","2023","04","22","21:00","-3.4","","-11.6","","53","","","","5","","9","","24.1","","99.57","","","","-7","","Mainly Clear"
"-97.86","55.80","THOMPSON A","5062921","2023-04-22 22:00","2023","04","22","22:00","-4.3","","-12.1","","55","","","","3","","8","","24.1","","99.58","","","","-8","","NA"
"-97.86","55.80","THOMPSON A","5062921","2023-04-22 23:00","2023","04","22","23:00","-5.1","","-12.6","","56","","","","5","","9","","24.1","","99.57","","","","-9","","NA"
"-97.86","55.80","THOMPSON A","5062921","2023-04-23 00:00","2023","04","23","00:00","-5.8","","-14.0","","53","","","","6","","6","","24.1","","99.55","","","","-9","","Mainly Clear"
"-97.86","55.80","THOMPSON A","5062921","2023-04-23 01:00","2023","04","23","01:00","-9.5","","-13.8","","71","","","","6","","4","","24.1","","99.57","","","","-12","","NA"
"-97.86","55.80","THOMPSON A","5062921","2023-04-23 02:00","2023","04","23","02:00","-8.1","","-14.2","","62","","","","5","","9","","24.1","","99.59","","","","-13","","NA"
"-97.86","55.80","THOMPSON A","5062921","2023-04-23 03:00","2023","04","23","03:00","-8.1","","-14.2","","62","","","","4","","5","","24.1","","99.60","","","","-11","","Mainly Clear"
"-97.86","55.80","THOMPSON A","5062921","2023-04-23 04:00","2023","04","23","04:00","-9.1","","-14.6","","65","","","","4","","6","","24.1","","99.62","","","","-12","","NA"
"-97.86","55.80","THOMPSON A","5062921","2023-04-23 05:00","2023","04","23","05:00","-9.8","","-14.0","","72","","","","36","","1","","24.1","","99.62","","","","-10","","NA"
"-97.86","55.80","THOMPSON A","5062921","2023-04-23 06:00","2023","04","23","06:00","-10.4","","-14.5","","72","","","","1","","8","","24.1","","99.64","","","","-15","","Mainly Clear"
"-97.86","55.80","THOMPSON A","5062921","2023-04-23 07:00","2023","04","23","07:00","-7.8","","-13.4","","64","","","","5","","7","","24.1","","99.64","","","","-11","","NA"
"-97.86","55.80","THOMPSON A","5062921","2023-04-23 08:00","2023","04","23","08:00","-5.8","","-12.3","","60","","","","2","","7","","24.1","","99.65","","","","-9","","NA"
"-97.86","55.80","THOMPSON A","5062921","2023-04-23 09:00","2023","04","23","09:00","-4.1","","-11.6","","56","","","","5","","13","","24.1","","99.63","","","","-9","","Mainly Clear"
"-97.86","55.80","THOMPSON A","5062921","2023-04-23 10:00","2023","04","23","10:00","-2.0","","-10.7","","52","","","","4","","13","","24.1","","99.62","","","","-6","","NA"
"-97.86","55.80","THOMPSON A","5062921","2023-04-23 11:00","2023","04","23","11:00","-1.1","","-10.1","","50","","","","6","","14","","24.1","","99.62","","","","-6","","NA"
"-97.86","55.80","THOMPSON A","5062921","2023-04-23 12:00","2023","04","23","12:00","-0.4","","-8.3","","55","","","","5","","22","","24.1","","99.61","","","","-6","","Clear"
"-97.86","55.80","THOMPSON A","5062921","2023-04-23 13:00","2023","04","23","13:00","0.5","","-8.6","","51","","","","6","","13","","24.1","","99.58","","","","","","NA"
"-97.86","55.80","THOMPSON A","5062921","2023-04-23 14:00","2023","04","23","14:00","1.1","","-9.7","","45","","","","6","","13","","24.1","","99.58","","","","","","NA"
"-97.86","55.80","THOMPSON A","5062921","2023-04-23 15:00","2023","04","23","15:00","1.6","","-8.4","","47","","","","4","","14","","24.1","","99.55","","","","","","Mainly Clear"
"-97.86","55.80","THOMPSON A","5062921","2023-04-23 16:00","2023","04","23","16:00","2.0","","-7.7","","49","","","","5","","14","","24.1","","99.52","","","","","","NA"
"-97.86","55.80","THOMPSON A","5062921","2023-04-23 17:00","2023","04","23","17:00","2.5","","-6.8","","51","","","","2","","13","","24.1","","99.53","","","","","","NA"
"-97.86","55.80","THOMPSON A","5062921","2023-04-23 18:00","2023","04","23","18:00","2.5","","-8.5","","44","","","","5","","4","","24.1","","99.55","","","","","","Mainly Clear"
"-97.86","55.80","THOMPSON A","5062921","2023-04-23 19:00","2023","04","23","19:00","2.0","","-9.0","","44","","","","8","","9","","24.1","","99.54","","","","","","NA"
"-97.86","55.80","THOMPSON A","5062921","2023-04-23 20:00","2023","04","23","20:00","0.0","","-9.4","","50","","","","9","","5","","24.1","","99.56","","","","-2","","NA"
"-97.86","55.80","THOMPSON A","5062921","2023-04-23 21:00","2023","04","23","21:00","-1.3","","-9.4","","54","","","","9","","5","","24.1","","99.58","","","","-3","","Mainly Clear"
"-97.86","55.80","THOMPSON A","5062921","2023-04-23 22:00","2023","04","23","22:00","-2.5","","-9.1","","61","","","","9","","3","","24.1","","99.60","","","","-4","","NA"
"-97.86","55.80","THOMPSON A","5062921","2023-04-23 23:00","2023","04","23","23:00","-3.3","","-8.9","","65","","","","9","","4","","22.5","","99.62","","","","-5","","NA"
"-97.86","55.80","THOMPSON A","5062921","2023-04-24 00:00","2023","04","24","00:00","-5.1","","-9.1","","74","","","","9","","4","","24.1","","99.65","","","","-7","","Mainly Clear"
"-97.86","55.80","THOMPSON A","5062921","2023-04-24 01:00","2023","04","24","01:00","-6.8","","-9.9","","79","","","","9","","3","","24.1","","99.68","","","","-8","","NA"
"-97.86","55.80","THOMPSON A","5062921","2023-04-24 02:00","2023","04","24","02:00","-7.8","","-9.8","","86","","","","7","","5","","24.1","","99.70","","","","-10","","NA"
"-97.86","55.80","THOMPSON A","5062921","2023-04-24 03:00","2023","04","24","03:00","-7.6","","-9.9","","83","","","","6","","6","","24.1","","99.73","","","","-11","","Clear"
"-97.86","55.80","THOMPSON A","5062921","2023-04-24 04:00","2023","04","24","04:00","-7.9","","-9.8","","86","","","","1","","4","","24.1","","99.76","","","","-10","","NA"
"-97.86","55.80","THOMPSON A","5062921","2023-04-24 05:00","2023","04","24","05:00","-9.7","","-11.4","","87","","","","6","","4","","24.1","","99.80","","","","-12","","NA"
"-97.86","55.80","THOMPSON A","5062921","2023-04-24 06:00","2023","04","24","06:00","-9.1","","-10.7","","88","","","","4","","4","","24.1","","99.83","","","","-11","","Mainly Clear"
"-97.86","55.80","THOMPSON A","5062921","2023-04-24 07:00","2023","04","24","07:00","-5.1","","-9.1","","74","","","","9","","5","","24.1","","99.86","","","","-7","","NA"
"-97.86","55.80","THOMPSON A","5062921","2023-04-24 08:00","2023","04","24","08:00","-3.5","","-8.2","","70","","","","36","","1","","24.1","","99.88","","","","-4","","NA"
"-97.86","55.80","THOMPSON A","5062921","2023-04-24 09:00","2023","04","24","09:00","-0.7","","-7.9","","58","","","","24","","5","","24.1","","99.87","","","","-2","","Mainly Clear"
"-97.86","55.80","THOMPSON A","5062921","2023-04-24 10:00","2023","04","24","10:00","0.9","","-8.1","","51","","","","36","","3","","24.1","","99.86","","","","","","NA"
"-97.86","55.80","THOMPSON A","5062921","2023-04-24 11:00","2023","04","24","11:00","2.2","","-8.3","","46","","","","23","","3","","24.1","","99.85","","","","","","NA"
"-97.86","55.80","THOMPSON A","5062921","2023-04-24 12:00","2023","04","24","12:00","3.3","","-7.9","","44","","","","25","","7","","24.1","","99.83","","","","","","Mainly Clear"
"-97.86","55.80","THOMPSON A","5062921","2023-04-24 13:00","2023","04","24","13:00","4.3","","-7.4","","43","","","","34","","7","","24.1","","99.80","","","","","","NA"
"-97.86","55.80","THOMPSON A","5062921","2023-04-24 14:00","2023","04","24","14:00","4.8","","-8.2","","38","","","","36","","2","","24.1","","99.78","","","","","","NA"
"-97.86","55.80","THOMPSON A","5062921","2023-04-24 15:00","2023","04","24","15:00","5.3","","-8.1","","37","","","","5","","8","","24.1","","99.79","","","","","","Mainly Clear"
"-97.86","55.80","THOMPSON A","5062921","2023-04-24 16:00","2023","04","24","16:00","6.0","","-8.9","","33","","","","8","","7","","24.1","","99.79","","","","","","NA"
"-97.86","55.80","THOMPSON A","5062921","2023-04-24 17:00","2023","04","24","17:00","6.0","","-8.6","","34","","","","18","","5","","24.1","","99.77","","","","","","NA"
"-97.86","55.80","THOMPSON A","5062921","2023-04-24 18:00","2023","04","24","18:00","6.0","","-9.0","","33","","","","10","","5","","24.1","","99.77","","","","","","Mainly Clear"
"-97.86","55.80","THOMPSON A","5062921","2023-04-24 19:00","2023","04","24","19:00","5.7","","-9.0","","34","","","","9","","3","","24.1","","99.77","","","","","","NA"
"-97.86","55.80","THOMPSON A","5062921","2023-04-24 20:00","2023","04","24","20:00","2.5","","-7.8","","47","","","","7","","7","","24.1","","99.82","","","","","","NA"
"-97.86","55.80","THOMPSON A","5062921","2023-04-24 21:00","2023","04","24","21:00","0.5","","-7.7","","54","","","","7","","10","","24.1","","99.88","","","","","","Mainly Clear"
"-97.86","55.80","THOMPSON A","5062921","2023-04-24 22:00","2023","04","24","22:00","-0.9","","-8.0","","58","","","","7","","8","","24.1","","99.92","","","","-4","","NA"
"-97.86","55.80","THOMPSON A","5062921","2023-04-24 23:00","2023","04","24","23:00","-2.1","","-8.1","","63","","","","7","","7","","24.1","","99.93","","","","-5","","NA"
"-97.86","55.80","THOMPSON A","5062921","2023-04-25 00:00","2023","04","25","00:00","-2.5","","-8.4","","64","","","","8","","7","","24.1","","99.97","","","","-5","","Clear"
"-97.86","55.80","THOMPSON A","5062921","2023-04-25 01:00","2023","04","25","01:00","-3.1","","-8.7","","65","","","","7","","7","","24.1","","99.98","","","","-6","","NA"
"-97.86","55.80","THOMPSON A","5062921","2023-04-25 02:00","2023","04","25","02:00","-3.7","","-9.1","","66","","","","8","","3","","24.1","","99.99","","","","-5","","NA"
"-97.86","55.80","THOMPSON A","5062921","2023-04-25 03:00","2023","04","25","03:00","-4.3","","-9.3","","69","","","","8","","4","","24.1","","99.97","","","","-6","","Clear"
"-97.86","55.80","THOMPSON A","5062921","2023-04-25 04:00","2023","04","25","04:00","-4.8","","-9.7","","69","","","","8","","5","","24.1","","99.99","","","","-7","","NA"
"-97.86","55.80","THOMPSON A","5062921","2023-04-25 05:00","2023","04","25","05:00","-6.6","","-10.0","","77","","","","36","","1","","24.1","","100.02","","","","-7","","NA"
"-97.86","55.80","THOMPSON A","5062921","2023-04-25 06:00","2023","04","25","06:00","-5.2","","-9.6","","71","","","","8","","5","","24.1","","100.03","","","","-7","","Mainly Clear"
"-97.86","55.80","THOMPSON A","5062921","2023-04-25 07:00","2023","04","25","07:00","-2.8","","-9.4","","61","","","","12","","4","","24.1","","100.03","","","","-4","","NA"
"-97.86","55.80","THOMPSON A","5062921","2023-04-25 08:00","2023","04","25","08:00","-0.6","","-8.4","","56","","","","22","","3","","24.1","","100.04","","","","-2","","NA"
"-97.86","55.80","THOMPSON A","5062921","2023-04-25 09:00","2023","04","25","09:00","2.5","","-7.9","","46","","","","18","","6","","24.1","","100.01","","","","","","Mainly Clear"
"-97.86","55.80","THOMPSON A","5062921","2023-04-25 10:00","2023","04","25","10:00","4.7","","-8.4","","38","","","","20","","8","","24.1","","99.96","","","","","","NA"
"-97.86","55.80","THOMPSON A","5062921","2023-04-25 11:00","2023","04","25","11:00","5.7","","-8.0","","37","","","","20","","7","","24.1","","99.91","","","","","","NA"
"-97.86","55.80","THOMPSON A","5062921","2023-04-25 12:00","2023","04","25","12:00","6.7","","-8.1","","34","","","","13","","4","","24.1","","99.88","","","","","","Clear"
"-97.86","55.80","THOMPSON A","5062921","2023-04-25 13:00","2023","04","25","13:00","7.3","","-8.3","","32","","","","14","","11","","24.1","","99.83","","","","","","NA"
"-97.86","55.80","THOMPSON A","5062921","2023-04-25 14:00","2023","04","25","14:00","7.5","","-8.6","","31","","","","18","","9","","24.1","","99.78","","","","","","NA"
"-97.86","55.80","THOMPSON A","5062921","2023-04-25 15:00","2023","04","25","15:00","8.5","","-8.4","","29","","","","16","","9","","24.1","","99.73","","","","","","Mainly Clear"
"-97.86","55.80","THOMPSON A","5062921","2023-04-25 16:00","2023","04","25","16:00","8.6","","-8.3","","29","","","","16","","9","","24.1","","99.67","","","","","","NA"
"-97.86","55.80","THOMPSON A","5062921","2023-04-25 17:00","2023","04","25","17:00","8.5","","-8.1","","30","","","","16","","10","","24.1","","99.61","","","","","","NA"
"-97.86","55.80","THOMPSON A","5062921","2023-04-25 18:00","2023","04","25","18:00","8.3","","-8.2","","30","","","","17","","10","","24.1","","99.56","","","","","","Mainly Clear"
"-97.86","55.80","THOMPSON A","5062921","2023-04-25 19:00","2023","04","25","19:00","7.6","","-7.6","","33","","","","17","","9","","24.1","","99.53","","","","","","NA"
"-97.86","55.80","THOMPSON A","5062921","2023-04-25 20:00","2023","04","25","20:00","5.7","","-7.8","","37","","","","14","","4","","24.1","","99.51","","","","","","NA"
"-97.86","55.80","THOMPSON A","5062921","2023-04-25 21:00","2023","04","25","21:00","2.4","","-7.5","","48","","","","15","","4","","24.1","","99.52","","","","","","Mainly Clear"
"-97.86","55.80","THOMPSON A","5062921","2023-04-25 22:00","2023","04","25","22:00","2.9","","-7.9","","45","","","","10","","5","","24.1","","99.49","","","","","","NA"
"-97.86","55.80","THOMPSON A","5062921","2023-04-25 23:00","2023","04","25","23:00","1.5","","-7.8","","50","","","","10","","3","","24.1","","99.48","","","","","","NA"
"-97.86","55.80","THOMPSON A","5062921","2023-04-26 00:00","2023","04","26","00:00","0.7","","-8.0","","52","","","","9","","6","","24.1","","99.44","","","","","","Mainly Clear"
"-97.86","55.80","THOMPSON A","5062921","2023-04-26 01:00","2023","04","26","01:00","0.4","","-8.2","","52","","","","10","","6","","24.1","","99.39","","","","","","NA"
"-97.86","55.80","THOMPSON A","5062921","2023-04-26 02:00","2023","04","26","02:00","-0.2","","-8.0","","56","","","","10","","5","","24.1","","99.33","","","","-2","","NA"
"-97.86","55.80","THOMPSON A","5062921","2023-04-26 03:00","2023","04","26","03:00","-0.4","","-7.9","","57","","","","9","","7","","24.1","","99.25","","","","-3","","Mainly Clear"
"-97.86","55.80","THOMPSON A","5062921","2023-04-26 04:00","2023","04","26","04:00","-0.9","","-7.6","","61","","","","8","","7","","24.1","","99.22","","","","-3","","NA"
"-97.86","55.80","THOMPSON A","5062921","2023-04-26 05:00","2023","04","26","05:00","-0.8","","-7.6","","60","","","","9","","6","","24.1","","99.15","","","","-3","","NA"
"-97.86","55.80","THOMPSON A","5062921","2023-04-26 06:00","2023","04","26","06:00","-0.8","","-7.5","","61","","","","9","","7","","24.1","","99.07","","","","-3","","Mostly Cloudy"
"-97.86","55.80","THOMPSON A","5062921","2023-04-26 07:00","2023","04","26","07:00","1.8","","-7.2","","51","","","","10","","7","","24.1","","98.99","","","","","","NA"
"-97.86","55.80","THOMPSON A","5062921","2023-04-26 08:00","2023","04","26","08:00","4.3","","-6.9","","44","","","","15","","7","","24.1","","98.90","","","","","","NA"
"-97.86","55.80","THOMPSON A","5062921","2023-04-26 09:00","2023","04","26","09:00","6.3","","-6.7","","39","","","","13","","15","","24.1","","98.80","","","","","","Mainly Clear"
"-97.86","55.80","THOMPSON A","5062921","2023-04-26 10:00","2023","04","26","10:00","7.5","","-7.1","","35","","","","14","","12","","24.1","","98.71","","","","","","NA"
"-97.86","55.80","THOMPSON A","5062921","2023-04-26 11:00","2023","04","26","11:00","8.6","","-7.3","","32","","","","13","","18","","24.1","","98.64","","","","","","NA"
"-97.86","55.80","THOMPSON A","5062921","2023-04-26 12:00","2023","04","26","12:00","9.6","","-7.2","","30","","","","14","","19","","24.1","","98.55","","","","","","Mainly Clear"
"-97.86","55.80","THOMPSON A","5062921","2023-04-26 13:00","2023","04","26","13:00","10.2","","-6.8","","30","","","","11","","14","","24.1","","98.50","","","","","","NA"
"-97.86","55.80","THOMPSON A","5062921","2023-04-26 14:00","2023","04","26","14:00","10.4","","-6.9","","29","","","","14","","18","","24.1","","98.46","","","","","","NA"
"-97.86","55.80","THOMPSON A","5062921","2023-04-26 15:00","2023","04","26","15:00","10.8","","-7.0","","28","","","","14","","13","","24.1","","98.40","","","","","","Mostly Cloudy"
"-97.86","55.80","THOMPSON A","5062921","2023-04-26 16:00","2023","04","26","16:00","9.2","","-6.7","","32","","","","8","","16","","24.1","","98.38","","","","","","NA"
"-97.86","55.80","THOMPSON A","5062921","2023-04-26 17:00","2023","04","26","17:00","9.1","","-7.3","","31","","","","9","","15","","24.1","","98.36","","","","","","NA"
"-97.86","55.80","THOMPSON A","5062921","2023-04-26 18:00","2023","04","26","18:00","8.4","","-7.1","","33","","","","8","","16","","24.1","","98.37","","","","","","Mostly Cloudy"
"-97.86","55.80","THOMPSON A","5062921","2023-04-26 19:00","2023","04","26","19:00","7.7","","-7.0","","34","","","","8","","15","","24.1","","98.38","","","","","","NA"
"-97.86","55.80","THOMPSON A","5062921","2023-04-26 20:00","2023","04","26","20:00","6.1","","-7.5","","37","","","","8","","11","","24.1","","98.42","","","","","","NA"
"-97.86","55.80","THOMPSON A","5062921","2023-04-26 21:00","2023","04","26","21:00","4.6","","-7.1","","42","","","","6","","10","","24.1","","98.44","","","","","","Mostly Cloudy"
"-97.86","55.80","THOMPSON A","5062921","2023-04-26 22:00","2023","04","26","22:00","3.2","","-6.0","","51","","","","5","","17","","24.1","","98.44","","","","","","NA"
"-97.86","55.80","THOMPSON A","5062921","2023-04-26 23:00","2023","04","26","23:00","2.3","","-5.2","","58","","","","6","","16","","24.1","","98.45","","","","","","NA"
"-97.86","55.80","THOMPSON A","5062921","2023-04-27 00:00","2023","04","27","00:00","1.4","","-5.1","","62","","","","6","","17","","24.1","","98.45","","","","","","Clear"
"-97.86","55.80","THOMPSON A","5062921","2023-04-27 01:00","2023","04","27","01:00","0.0","","-5.1","","68","","","","6","","16","","24.1","","98.47","","","","-5","","NA"
"-97.86","55.80","THOMPSON A","5062921","2023-04-27 02:00","2023","04","27","02:00","-0.4","","-5.2","","70","","","","6","","14","","24.1","","98.49","","","","-5","","NA"
"-97.86","55.80","THOMPSON A","5062921","2023-04-27 03:00","2023","04","27","03:00","-1.3","","-5.3","","74","","","","6","","21","","24.1","","98.51","","","","-7","","Clear"
"-97.86","55.80","THOMPSON A","5062921","2023-04-27 04:00","2023","04","27","04:00","-1.8","","-5.5","","76","","","","5","","22","","24.1","","98.56","","","","-8","","NA"
"-97.86","55.80","THOMPSON A","5062921","2023-04-27 05:00","2023","04","27","05:00","-2.2","","-5.5","","78","","","","6","","16","","24.1","","98.64","","","","-7","","NA"
"-97.86","55.80","THOMPSON A","5062921","2023-04-27 06:00","2023","04","27","06:00","-2.3","","-5.5","","78","","","","5","","13","","24.1","","98.72","","","","-7","","Clear"
"-97.86","55.80","THOMPSON A","5062921","2023-04-27 07:00","2023","04","27","07:00","-1.5","","-5.4","","75","","","","4","","17","","24.1","","98.82","","","","-7","","NA"
"-97.86","55.80","THOMPSON A","5062921","2023-04-27 08:00","2023","04","27","08:00","-0.5","","-5.1","","71","","","","5","","15","","24.1","","98.87","","","","-5","","NA"
"-97.86","55.80","THOMPSON A","5062921","2023-04-27 09:00","2023","04","27","09:00","0.7","","-4.8","","67","","","","4","","24","","24.1","","98.88","","","","","","Clear"
"-97.86","55.80","THOMPSON A","5062921","2023-04-27 10:00","2023","04","27","10:00","2.6","","-4.9","","58","","","","5","","19","","24.1","","98.92","","","","","","NA"
"-97.86","55.80","THOMPSON A","5062921","2023-04-27 11:00","2023","04","27","11:00","3.3","","-4.9","","55","","","","5","","25","","24.1","","98.97","","","","","","NA"
"-97.86","55.80","THOMPSON A","5062921","2023-04-27 12:00","2023","04","27","12:00","4.1","","-5.6","","49","","","","8","","16","","24.1","","99.01","","","","","","Clear"
"-97.86","55.80","THOMPSON A","5062921","2023-04-27 13:00","2023","04","27","13:00","4.5","","-4.5","","52","","","","4","","21","","24.1","","99.03","","","","","","NA"
"-97.86","55.80","THOMPSON A","5062921","2023-04-27 14:00","2023","04","27","14:00","4.4","","-4.8","","51","","","","3","","19","","24.1","","99.07","","","","","","NA"
"-97.86","55.80","THOMPSON A","5062921","2023-04-27 15:00","2023","04","27","15:00","4.8","","-4.9","","49","","","","1","","14","","24.1","","99.08","","","","","","Mainly Clear"
"-97.86","55.80","THOMPSON A","5062921","2023-04-27 16:00","2023","04","27","16:00","4.7","","-5.0","","50","","","","3","","21","","24.1","","99.11","","","","","","NA"
"-97.86","55.80","THOMPSON A","5062921","2023-04-27 17:00","2023","04","27","17:00","5.1","","-5.6","","46","","","","5","","15","","24.1","","99.15","","","","","","NA"
"-97.86","55.80","THOMPSON A","5062921","2023-04-27 18:00","2023","04","27","18:00","4.1","","-5.2","","51","","","","3","","17","","24.1","","99.21","","","","","","Mainly Clear"
"-97.86","55.80","THOMPSON A","5062921","2023-04-27 19:00","2023","04","27","19:00","3.4","","-5.1","","54","","","","4","","18","","24.1","","99.25","","","","","","NA"
"-97.86","55.80","THOMPSON A","5062921","2023-04-27 20:00","2023","04","27","20:00","1.8","","-5.2","","60","","","","4","","12","","24.1","","99.31","","","","","","NA"
"-97.86","55.80","THOMPSON A","5062921","2023-04-27 21:00","2023","04","27","21:00","0.1","","-5.1","","68","","","","5","","12","","24.1","","99.33","","","","","","Clear"
"-97.86","55.80","THOMPSON A","5062921","2023-04-27 22:00","2023","04","27","22:00","-0.4","","-5.4","","69","","","","6","","10","","24.1","","99.33","","","","-4","","NA"
"-97.86","55.80","THOMPSON A","5062921","2023-04-27 23:00","2023","04","27","23:00","-1.9","","-5.6","","76","","","","6","","11","","24.1","","99.32","","","","-6","","NA"
"-97.86","55.80","THOMPSON A","5062921","2023-04-28 00:00","2023","04","28","00:00","-2.3","","-5.9","","77","","","","7","","7","","24.1","","99.32","","","","-5","","Clear"
"-97.86","55.80","THOMPSON A","5062921","2023-04-28 01:00","2023","04","28","01:00","-3.1","","-6.1","","80","","","","6","","6","","24.1","","99.33","","","","-6","","NA"
"-97.86","55.80","THOMPSON A","5062921","2023-04-28 02:00","2023","04","28","02:00","-3.8","","-6.2","","84","","","","7","","4","","24.1","","99.34","","","","-5","","NA"
"-97.86","55.80","THOMPSON A","5062921","2023-04-28 03:00","2023","04","28","03:00","-4.5","","-6.4","","87","","","","7","","5","","24.1","","99.32","","","","-7","","Clear"
"-97.86","55.80","THOMPSON A","5062921","2023-04-28 04:00","2023","04","28","04:00","-5.3","","-6.8","","90","","","","6","","5","","24.1","","99.31","","","","-8","","NA"
"-97.86","55.80","THOMPSON A","5062921","2023-04-28 05:00","2023","04","28","05:00","-6.2","","-7.2","","93","","","","5","","5","","24.1","","99.32","","","","-9","","NA"
"-97.86","55.80","THOMPSON A","5062921","2023-04-28 06:00","2023","04","28","06:00","-5.0","","-6.4","","90","","","","7","","7","","24.1","","99.32","","","","-8","","Mostly Cloudy"
"-97.86","55.80","THOMPSON A","5062921","2023-04-28 07:00","2023","04","28","07:00","-3.6","","-6.1","","83","","","","10","","4","","24.1","","99.28","","","","-5","","NA"
"-97.86","55.80","THOMPSON A","5062921","2023-04-28 08:00","2023","04","28","08:00","-1.8","","-5.8","","74","","","","13","","3","","24.1","","99.23","","","","-3","","NA"
"-97.86","55.80","THOMPSON A","5062921","2023-04-28 09:00","2023","04","28","09:00","0.5","","-5.6","","64","","","","11","","3","","24.1","","99.20","","","","","","Mostly Cloudy"
"-97.86","55.80","THOMPSON A","5062921","2023-04-28 10:00","2023","04","28","10:00","2.2","","-5.8","","56","","","","16","","9","","24.1","","99.14","","","","","","NA"
"-97.86","55.80","THOMPSON A","5062921","2023-04-28 11:00","2023","04","28","11:00","3.6","","-5.8","","50","","","","36","","2","","24.1","","99.07","","","","","","NA"
"-97.86","55.80","THOMPSON A","5062921","2023-04-28 12:00","2023","04","28","12:00","5.1","","-5.8","","45","","","","16","","9","","24.1","","98.99","","","","","","Mostly Cloudy"
"-97.86","55.80","THOMPSON A","5062921","2023-04-28 13:00","2023","04","28","13:00","6.0","","-5.4","","44","","","","13","","4","","24.1","","98.90","","","","","","NA"
"-97.86","55.80","THOMPSON A","5062921","2023-04-28 14:00","2023","04","28","14:00","6.7","","-5.5","","41","","","","18","","10","","24.1","","98.84","","","","","","NA"
"-97.86","55.80","THOMPSON A","5062921","2023-04-28 15:00","2023","04","28","15:00","7.7","","-5.6","","38","","","","18","","5","","24.1","","98.81","","","","","","Mostly Cloudy"
"-97.86","55.80","THOMPSON A","5062921","2023-04-28 16:00","2023","04","28","16:00","8.2","","-5.8","","37","","","","11","","5","","24.1","","98.78","","","","","","NA"
"-97.86","55.80","THOMPSON A","5062921","2023-04-28 17:00","2023","04","28","17:00","8.2","","-5.9","","36","","","","15","","4","","24.1","","98.76","","","","","","NA"
"-97.86","55.80","THOMPSON A","5062921","2023-04-28 18:00","2023","04","28","18:00","8.1","","-5.8","","37","","","","12","","8","","24.1","","98.75","","","","","","Cloudy"
"-97.86","55.80","THOMPSON A","5062921","2023-04-28 19:00","2023","04","28","19:00","7.6","","-5.7","","38","","","","10","","3","","24.1","","98.75","","","","","","NA"
"-97.86","55.80","THOMPSON A","5062921","2023-04-28 20:00","2023","04","28","20:00","6.6","","-5.9","","40","","","","10","","5","","24.1","","98.77","","","","","","NA"
"-97.86","55.80","THOMPSON A","5062921","2023-04-28 21:00","2023","04","28","21:00","5.1","","-6.5","","43","","","","11","","3","","24.1","","98.76","","","","","","Mostly Cloudy"
"-97.86","55.80","THOMPSON A","5062921","2023-04-28 22:00","2023","04","28","22:00","4.5","","-6.8","","44","","","","36","","3","","24.1","","98.75","","","","","","NA"
"-97.86","55.80","THOMPSON A","5062921","2023-04-28 23:00","2023","04","28","23:00","2.8","","-4.0","","61","","","","36","","2","","24.1","","98.75","","","","","","NA"
"-97.86","55.80","THOMPSON A","5062921","2023-04-29 00:00","2023","04","29","00:00","2.4","","-6.0","","54","","","","6","","5","","24.1","","98.77","","","","","","Cloudy"
"-97.86","55.80","THOMPSON A","5062921","2023-04-29 01:00","2023","04","29","01:00","1.4","","-4.7","","64","","","","36","","3","","24.1","","98.78","","","","","","NA"
"-97.86","55.80","THOMPSON A","5062921","2023-04-29 02:00","2023","04","29","02:00","0.8","","-3.4","","73","","","","36","","3","","24.1","","98.79","","","","","","NA"
"-97.86","55.80","THOMPSON A","5062921","2023-04-29 03:00","2023","04","29","03:00","2.0","","-5.9","","56","","","","9","","7","","24.1","","98.78","","","","","","Mostly Cloudy"
"-97.86","55.80","THOMPSON A","5062921","2023-04-29 04:00","2023","04","29","04:00","1.4","","-5.7","","59","","","","8","","6","","24.1","","98.79","","","","","","NA"
"-97.86","55.80","THOMPSON A","5062921","2023-04-29 05:00","2023","04","29","05:00","-0.6","","-4.4","","76","","","","5","","7","","24.1","","98.81","","","","-3","","NA"
"-97.86","55.80","THOMPSON A","5062921","2023-04-29 06:00","2023","04","29","06:00","0.7","","-5.2","","65","","","","7","","8","","24.1","","98.86","","","","","","Mostly Cloudy"
"-97.86","55.80","THOMPSON A","5062921","2023-04-29 07:00","2023","04","29","07:00","1.9","","-4.3","","64","","","","5","","4","","24.1","","98.92","","","","","","NA"
"-97.86","55.80","THOMPSON A","5062921","2023-04-29 08:00","2023","04","29","08:00","4.6","","-3.5","","56","","","","36","","2","","24.1","","98.97","","","","","","NA"
"-97.86","55.80","THOMPSON A","5062921","2023-04-29 09:00","2023","04","29","09:00","6.5","","-2.0","","54","","","","35","","5","","24.1","","98.99","","","","","","Mostly Cloudy"
"-97.86","55.80","THOMPSON A","5062921","2023-04-29 10:00","2023","04","29","10:00","7.4","","-1.9","","52","","","","7","","10","","24.1","","99.02","","","","","","NA"
"-97.86","55.80","THOMPSON A","5062921","2023-04-29 11:00","2023","04","29","11:00","8.0","","-1.9","","50","","","","4","","13","","24.1","","99.04","","","","","","NA"
"-97.86","55.80","THOMPSON A","5062921","2023-04-29 12:00","2023","04","29","12:00","8.9","","-4.5","","38","","","","10","","4","","24.1","","99.07","","","","","","Mostly Cloudy"
"-97.86","55.80","THOMPSON A","5062921","2023-04-29 13:00","2023","04","29","13:00","8.8","","-4.9","","38","","","","8","","7","","24.1","","99.12","","","","","","NA"
"-97.86","55.80","THOMPSON A","5062921","2023-04-29 14:00","2023","04","29","14:00","8.7","","-3.4","","42","","","","3","","16","","24.1","","99.13","","","","","","NA"
"-97.86","55.80","THOMPSON A","5062921","2023-04-29 15:00","2023","04","29","15:00","10.2","","-4.5","","35","","","","7","","8","","24.1","","99.16","","","","","","Mainly Clear"
"-97.86","55.80","THOMPSON A","5062921","2023-04-29 16:00","2023","04","29","16:00","10.2","","-4.5","","35","","","","3","","6","","24.1","","99.19","","","","","","NA"
"-97.86","55.80","THOMPSON A","5062921","2023-04-29 17:00","2023","04","29","17:00","8.6","","-2.9","","44","","","","6","","15","","24.1","","99.25","","","","","","NA"
"-97.86","55.80","THOMPSON A","5062921","2023-04-29 18:00","2023","04","29","18:00","9.3","","-3.3","","41","","","","8","","8","","24.1","","99.29","","","","","","Mostly Cloudy"
"-97.86","55.80","THOMPSON A","5062921","2023-04-29 19:00","2023","04","29","19:00","7.4","","-1.4","","54","","","","35","","10","","24.1","","99.35","","","","","","NA"
"-97.86","55.80","THOMPSON A","5062921","2023-04-29 20:00","2023","04","29","20:00","5.9","","-0.4","","64","","","","35","","10","","24.1","","99.41","","","","","","NA"
"-97.86","55.80","THOMPSON A","5062921","2023-04-29 21:00","2023","04","29","21:00","5.4","","0.4","","71","","","","34","","12","","24.1","","99.47","","","","","","Mostly Cloudy"
"-97.86","55.80","THOMPSON A","5062921","2023-04-29 22:00","2023","04","29","22:00","3.9","","0.0","","76","","","","34","","10","","24.1","","99.48","","","","","","NA"
"-97.86","55.80","THOMPSON A","5062921","2023-04-29 23:00","2023","04","29","23:00","2.1","","-0.5","","83","","","","3","","3","","24.1","","99.50","","","","","","NA"
"-97.86","55.80","THOMPSON A","5062921","2023-04-30 00:00","2023","04","30","00:00","-0.2","","-1.4","","91","","","","1","","3","","24.1","","99.48","","","","-1","","Mainly Clear"
"-97.86","55.80","THOMPSON A","5062921","2023-04-30 01:00","2023","04","30","01:00","-0.3","","-1.7","","90","","","","34","","7","","24.1","","99.47","","","","-3","","NA"
"-97.86","55.80","THOMPSON A","5062921","2023-04-30 02:00","2023","04","30","02:00","-0.8","","-1.9","","92","","","","34","","5","","24.1","","99.48","","","","-2","","NA"
"-97.86","55.80","THOMPSON A","5062921","2023-04-30 03:00","2023","04","30","03:00","0.5","","-1.1","","89","","","","35","","6","","24.1","","99.49","","","","","","Mostly Cloudy"
"-97.86","55.80","THOMPSON A","5062921","2023-04-30 04:00","2023","04","30","04:00","1.0","","-0.9","","87","","","","2","","7","","24.1","","99.50","","","","","","NA"
"-97.86","55.80","THOMPSON A","5062921","2023-04-30 05:00","2023","04","30","05:00","0.3","","-1.2","","90","","","","36","","6","","24.1","","99.53","","","","","","NA"
"-97.86","55.80","THOMPSON A","5062921","2023-04-30 06:00","2023","04","30","06:00","0.0","","-1.4","","90","","","","1","","9","","24.1","","99.59","","","","-3","","Mainly Clear"
"-97.86","55.80","THOMPSON A","5062921","2023-04-30 07:00","2023","04","30","07:00","1.4","","-0.9","","85","","","","2","","12","","24.1","","99.60","","","","","","NA"
"-97.86","55.80","THOMPSON A","5062921","2023-04-30 08:00","2023","04","30","08:00","2.5","","-0.7","","79","","","","36","","16","","24.1","","99.63","","","","","","NA"
"-97.86","55.80","THOMPSON A","5062921","2023-04-30 09:00","2023","04","30","09:00","4.4","","-1.5","","65","","","","1","","14","","24.1","","99.61","","","","","","Mostly Cloudy"
"-97.86","55.80","THOMPSON A","5062921","2023-04-30 10:00","2023","04","30","10:00","5.9","","-1.6","","59","","","","35","","17","","24.1","","99.59","","","","","","NA"
"-97.86","55.80","THOMPSON A","5062921","2023-04-30 11:00","2023","04","30","11:00","5.3","","-2.1","","59","","","","34","","23","","24.1","","99.57","","","","","","Rain Showers"
"-97.86","55.80","THOMPSON A","5062921","2023-04-30 12:00","2023","04","30","12:00","5.8","","-1.5","","59","","","","34","","19","","24.1","","99.58","","","","","","Mostly Cloudy"
"-97.86","55.80","THOMPSON A","5062921","2023-04-30 13:00","2023","04","30","13:00","5.5","","-1.4","","61","","","","2","","21","","24.1","","99.58","","","","","","NA"
"-97.86","55.80","THOMPSON A","5062921","2023-04-30 14:00","2023","04","30","14:00","5.9","","-2.2","","56","","","","3","","17","","24.1","","99.54","","","","","","Rain Showers"
"-97.86","55.80","THOMPSON A","5062921","2023-04-30 15:00","2023","04","30","15:00","6.6","","-3.5","","48","","","","36","","15","","24.1","","99.52","","","","","","Mostly Cloudy"
"-97.86","55.80","THOMPSON A","5062921","2023-04-30 16:00","2023","04","30","16:00","7.1","","-4.9","","42","","","","36","","10","","24.1","","99.51","","","","","","NA"
"-97.86","55.80","THOMPSON A","5062921","2023-04-30 17:00","2023","04","30","17:00","6.6","","-4.8","","44","","","","2","","14","","24.1","","99.52","","","","","","NA"
"-97.86","55.80","THOMPSON A","5062921","2023-04-30 18:00","2023","04","30","18:00","6.6","","-3.5","","49","","","","2","","10","","24.1","","99.49","","","","","","Mostly Cloudy"
"-97.86","55.80","THOMPSON A","5062921","2023-04-30 19:00","2023","04","30","19:00","5.6","","-4.5","","48","","","","6","","9","","24.1","","99.46","","","","","","NA"
"-97.86","55.80","THOMPSON A","5062921","2023-04-30 20:00","2023","04","30","20:00","4.1","","-3.0","","60","","","","4","","8","","24.1","","99.47","","","","","","NA"
"-97.86","55.80","THOMPSON A","5062921","2023-04-30 21:00","2023","04","30","21:00","3.3","","-3.5","","61","","","","5","","10","","24.1","","99.46","","","","","","Mostly Cloudy"
"-97.86","55.80","THOMPSON A","5062921","2023-04-30 22:00","2023","04","30","22:00","1.7","","-3.6","","68","","","","6","","8","","24.1","","99.45","","","","","","NA"
"-97.86","55.80","THOMPSON A","5062921","2023-04-30 23:00","2023","04","30","23:00","-1.7","","-4.3","","83","","","","3","","6","","24.1","","99.46","","","","-4","","NA"
