"Longitude (x)","Latitude (y)","Station Name","Climate ID","Date/Time (LST)","Year","Month","Day","Time (LST)","Temp (°C)","Temp Flag","Dew Point Temp (°C)","Dew Point Temp Flag","Rel Hum (%)","Rel Hum Flag","Precip. Amount (mm)","Precip. Amount Flag","Wind Dir (10s deg)","Wind Dir Flag","Wind Spd (km/h)","Wind Spd Flag","Visibility (km)","Visibility Flag","Stn Press (kPa)","Stn Press Flag","Hmdx","Hmdx Flag","Wind Chill","Wind Chill Flag","Weather"
"-135.01","68.22","AKLAVIK A","2200105","2020-02-01 00:00","2020","02","01","00:00","-29.8","","-34.0","","68","","","M","33","","10","","","M","101.11","","","","-39","","NA"
"-135.01","68.22","AKLAVIK A","2200105","2020-02-01 01:00","2020","02","01","01:00","-29.7","","-33.9","","67","","","M","32","","12","","","M","101.13","","","","-40","","NA"
"-135.01","68.22","AKLAVIK A","2200105","2020-02-01 02:00","2020","02","01","02:00","-29.6","","-33.8","","68","","","M","33","","15","","","M","101.17","","","","-41","","NA"
"-135.01","68.22","AKLAVIK A","2200105","2020-02-01 03:00","2020","02","01","03:00","-29.5","","-33.7","","68","","","M","32","","11","","","M","101.19","","","","-39","","NA"
"-135.01","68.22","AKLAVIK A","2200105","2020-02-01 04:00","2020","02","01","04:00","-29.4","","-33.6","","67","","","M","33","","15","","","M","101.22","","","","-41","","NA"
"-135.01","68.22","AKLAVIK A","2200105","2020-02-01 05:00","2020","02","01","05:00","-29.2","","-33.3","","69","","","M","32","","16","","","M","101.25","","","","-41","","NA"
"-135.01","68.22","AKLAVIK A","2200105","2020-02-01 06:00","2020","02","01","06:00","-29.1","","-33.3","","67","","","M","32","","13","","","M","101.28","","","","-39","","NA"
"-135.01","68.22","AKLAVIK A","2200105","2020-02-01 07:00","2020","02","01","07:00","-29.1","","-33.2","","69","","","M","32","","13","","","M","101.31","","","","-39","","NA"
"-135.01","68.22","AKLAVIK A","2200105","2020-02-01 08:00","2020","02","01","08:00","-29.1","","-33.2","","69","","","M","32","","10","","","M","101.37","","","","-38","","NA"
"-135.01","68.22","AKLAVIK A","2200105","2020-02-01 09:00","2020","02","01","09:00","-28.9","","-33.1","","68","","","M","31","","13","","","M","101.44","","","","-39","","NA"
"-135.01","68.22","AKLAVIK A","2200105","2020-02-01 10:00","2020","02","01","10:00","-29.5","","-33.5","","69","","","M","32","","9","","","M","101.50","","","","-38","","NA"
"-135.01","68.22","AKLAVIK A","2200105","2020-02-01 11:00","2020","02","01","11:00","-29.9","","-34.2","","67","","","M","31","","13","","","M","101.58","","","","-40","","NA"
"-135.01","68.22","AKLAVIK A","2200105","2020-02-01 12:00","2020","02","01","12:00","-30.8","","-34.9","","68","","","M","28","","6","","","M","101.63","","","","-37","","NA"
"-135.01","68.22","AKLAVIK A","2200105","2020-02-01 13:00","2020","02","01","13:00","-30.4","","-35.0","","65","","","M","29","","10","","","M","101.68","","","","-40","","NA"
"-135.01","68.22","AKLAVIK A","2200105","2020-02-01 14:00","2020","02","01","14:00","-29.5","","-35.1","","59","","","M","30","","8","","","M","101.73","","","","-37","","NA"
"-135.01","68.22","AKLAVIK A","2200105","2020-02-01 15:00","2020","02","01","15:00","-29.5","","-35.4","","58","","","M","27","","3","","","M","101.77","","","","-33","","NA"
"-135.01","68.22","AKLAVIK A","2200105","2020-02-01 16:00","2020","02","01","16:00","-30.4","","-35.3","","63","","","M","20","","7","","","M","101.80","","","","-38","","NA"
"-135.01","68.22","AKLAVIK A","2200105","2020-02-01 17:00","2020","02","01","17:00","-30.4","","-34.9","","66","","","M","13","","7","","","M","101.85","","","","-38","","NA"
"-135.01","68.22","AKLAVIK A","2200105","2020-02-01 18:00","2020","02","01","18:00","-30.9","","-35.2","","67","","","M","14","","7","","","M","101.90","","","","-38","","NA"
"-135.01","68.22","AKLAVIK A","2200105","2020-02-01 19:00","2020","02","01","19:00","-31.1","","-35.3","","67","","","M","19","","2","","","M","101.96","","","","-33","","NA"
"-135.01","68.22","AKLAVIK A","2200105","2020-02-01 20:00","2020","02","01","20:00","-31.8","","-35.6","","70","","","M","12","","7","","","M","102.01","","","","-39","","NA"
"-135.01","68.22","AKLAVIK A","2200105","2020-02-01 21:00","2020","02","01","21:00","-32.2","","-35.8","","71","","","M","10","","7","","","M","102.06","","","","-40","","NA"
"-135.01","68.22","AKLAVIK A","2200105","2020-02-01 22:00","2020","02","01","22:00","-32.1","","-35.7","","71","","","M","10","","7","","","M","102.08","","","","-40","","NA"
"-135.01","68.22","AKLAVIK A","2200105","2020-02-01 23:00","2020","02","01","23:00","-32.2","","-35.8","","71","","","M","15","","1","","","M","102.11","","","","-33","","NA"
"-135.01","68.22","AKLAVIK A","2200105","2020-02-02 00:00","2020","02","02","00:00","-33.0","","-36.5","","72","","","M","36","","5","","","M","102.13","","","","-39","","NA"
"-135.01","68.22","AKLAVIK A","2200105","2020-02-02 01:00","2020","02","02","01:00","-32.9","","-36.4","","72","","","M","6","","4","","","M","102.16","","","","-38","","NA"
"-135.01","68.22","AKLAVIK A","2200105","2020-02-02 02:00","2020","02","02","02:00","-32.7","","-36.2","","72","","","M","13","","3","","","M","102.17","","","","-36","","NA"
"-135.01","68.22","AKLAVIK A","2200105","2020-02-02 03:00","2020","02","02","03:00","-31.9","","-35.5","","71","","","M","15","","4","","","M","102.20","","","","-37","","NA"
"-135.01","68.22","AKLAVIK A","2200105","2020-02-02 04:00","2020","02","02","04:00","-31.8","","-35.4","","71","","","M","13","","5","","","M","102.19","","","","-38","","NA"
"-135.01","68.22","AKLAVIK A","2200105","2020-02-02 05:00","2020","02","02","05:00","-33.0","","-36.4","","72","","","M","17","","8","","","M","102.20","","","","-41","","NA"
"-135.01","68.22","AKLAVIK A","2200105","2020-02-02 06:00","2020","02","02","06:00","-34.3","","-37.6","","72","","","M","16","","4","","","M","102.20","","","","-39","","NA"
"-135.01","68.22","AKLAVIK A","2200105","2020-02-02 07:00","2020","02","02","07:00","-34.6","","-37.8","","74","","","M","15","","5","","","M","102.18","","","","-41","","NA"
"-135.01","68.22","AKLAVIK A","2200105","2020-02-02 08:00","2020","02","02","08:00","-35.3","","-38.5","","73","","","M","15","","5","","","M","102.19","","","","-42","","NA"
"-135.01","68.22","AKLAVIK A","2200105","2020-02-02 09:00","2020","02","02","09:00","-36.9","","-40.4","","71","","","M","16","","7","","","M","102.12","","","","-45","","NA"
"-135.01","68.22","AKLAVIK A","2200105","2020-02-02 10:00","2020","02","02","10:00","-39.0","","-42.6","","70","","","M","13","","7","","","M","102.07","","","","-48","","NA"
"-135.01","68.22","AKLAVIK A","2200105","2020-02-02 11:00","2020","02","02","11:00","-38.7","","-42.3","","70","","","M","7","","5","","","M","102.04","","","","-45","","NA"
"-135.01","68.22","AKLAVIK A","2200105","2020-02-02 12:00","2020","02","02","12:00","-38.8","","-42.6","","68","","","M","11","","8","","","M","102.00","","","","-48","","NA"
"-135.01","68.22","AKLAVIK A","2200105","2020-02-02 13:00","2020","02","02","13:00","-35.4","","-38.9","","72","","","M","17","","6","","","M","101.96","","","","-43","","NA"
"-135.01","68.22","AKLAVIK A","2200105","2020-02-02 14:00","2020","02","02","14:00","-35.4","","-38.9","","71","","","M","13","","6","","","M","101.88","","","","-43","","NA"
"-135.01","68.22","AKLAVIK A","2200105","2020-02-02 15:00","2020","02","02","15:00","-35.3","","-38.9","","71","","","M","11","","9","","","M","101.85","","","","-45","","NA"
"-135.01","68.22","AKLAVIK A","2200105","2020-02-02 16:00","2020","02","02","16:00","-34.9","","-38.5","","70","","","M","12","","7","","","M","101.81","","","","-43","","NA"
"-135.01","68.22","AKLAVIK A","2200105","2020-02-02 17:00","2020","02","02","17:00","-35.6","","-39.3","","70","","","M","14","","5","","","M","101.78","","","","-42","","NA"
"-135.01","68.22","AKLAVIK A","2200105","2020-02-02 18:00","2020","02","02","18:00","-35.7","","-39.3","","71","","","M","14","","8","","","M","101.66","","","","-45","","NA"
"-135.01","68.22","AKLAVIK A","2200105","2020-02-02 19:00","2020","02","02","19:00","-36.5","","-40.2","","70","","","M","14","","10","","","M","101.60","","","","-47","","NA"
"-135.01","68.22","AKLAVIK A","2200105","2020-02-02 20:00","2020","02","02","20:00","-36.9","","-40.6","","69","","","M","12","","9","","","M","101.53","","","","-47","","NA"
"-135.01","68.22","AKLAVIK A","2200105","2020-02-02 21:00","2020","02","02","21:00","-35.5","","-39.2","","70","","","M","14","","9","","","M","101.47","","","","-45","","NA"
"-135.01","68.22","AKLAVIK A","2200105","2020-02-02 22:00","2020","02","02","22:00","-35.3","","-39.0","","70","","","M","9","","7","","","M","101.44","","","","-43","","NA"
"-135.01","68.22","AKLAVIK A","2200105","2020-02-02 23:00","2020","02","02","23:00","-35.9","","-39.6","","70","","","M","8","","7","","","M","101.43","","","","-44","","NA"
"-135.01","68.22","AKLAVIK A","2200105","2020-02-03 00:00","2020","02","03","00:00","-35.1","","-38.8","","70","","","M","13","","2","","","M","101.41","","","","-38","","NA"
"-135.01","68.22","AKLAVIK A","2200105","2020-02-03 01:00","2020","02","03","01:00","-35.4","","-39.1","","70","","","M","12","","4","","","M","101.37","","","","-40","","NA"
"-135.01","68.22","AKLAVIK A","2200105","2020-02-03 02:00","2020","02","03","02:00","-37.0","","-40.7","","69","","","M","29","","3","","","M","101.38","","","","-41","","NA"
"-135.01","68.22","AKLAVIK A","2200105","2020-02-03 03:00","2020","02","03","03:00","-37.5","","-41.3","","69","","","M","31","","4","","","M","101.39","","","","-43","","NA"
"-135.01","68.22","AKLAVIK A","2200105","2020-02-03 04:00","2020","02","03","04:00","-38.2","","-42.0","","68","","","M","33","","2","","","M","101.39","","","","-41","","NA"
"-135.01","68.22","AKLAVIK A","2200105","2020-02-03 05:00","2020","02","03","05:00","-38.9","","-42.7","","68","","","M","2","","3","","","M","101.40","","","","-43","","NA"
"-135.01","68.22","AKLAVIK A","2200105","2020-02-03 06:00","2020","02","03","06:00","-39.4","","-43.3","","67","","","M","19","","1","","","M","101.38","","","","-41","","NA"
"-135.01","68.22","AKLAVIK A","2200105","2020-02-03 07:00","2020","02","03","07:00","-39.8","","-43.7","","67","","","M","18","","2","","","M","101.36","","","","-43","","NA"
"-135.01","68.22","AKLAVIK A","2200105","2020-02-03 08:00","2020","02","03","08:00","-39.8","","-43.8","","67","","","M","19","","7","","","M","101.37","","","","-49","","NA"
"-135.01","68.22","AKLAVIK A","2200105","2020-02-03 09:00","2020","02","03","09:00","-40.5","","-44.5","","67","","","M","9","","5","","","M","101.35","","","","-48","","NA"
"-135.01","68.22","AKLAVIK A","2200105","2020-02-03 10:00","2020","02","03","10:00","-39.6","","-43.5","","67","","","M","14","","8","","","M","101.32","","","","-49","","NA"
"-135.01","68.22","AKLAVIK A","2200105","2020-02-03 11:00","2020","02","03","11:00","-39.2","","-43.2","","67","","","M","14","","9","","","M","101.30","","","","-49","","NA"
"-135.01","68.22","AKLAVIK A","2200105","2020-02-03 12:00","2020","02","03","12:00","-36.6","","-40.3","","70","","","M","15","","7","","","M","101.26","","","","-45","","NA"
"-135.01","68.22","AKLAVIK A","2200105","2020-02-03 13:00","2020","02","03","13:00","-36.4","","-40.2","","69","","","M","18","","9","","","M","101.25","","","","-46","","NA"
"-135.01","68.22","AKLAVIK A","2200105","2020-02-03 14:00","2020","02","03","14:00","-36.8","","-40.5","","69","","","M","14","","9","","","M","101.21","","","","-47","","NA"
"-135.01","68.22","AKLAVIK A","2200105","2020-02-03 15:00","2020","02","03","15:00","-36.2","","-39.9","","69","","","M","14","","10","","","M","101.18","","","","-47","","NA"
"-135.01","68.22","AKLAVIK A","2200105","2020-02-03 16:00","2020","02","03","16:00","-35.5","","-39.2","","70","","","M","14","","10","","","M","101.12","","","","-46","","NA"
"-135.01","68.22","AKLAVIK A","2200105","2020-02-03 17:00","2020","02","03","17:00","-35.3","","-38.9","","70","","","M","15","","7","","","M","101.05","","","","-43","","NA"
"-135.01","68.22","AKLAVIK A","2200105","2020-02-03 18:00","2020","02","03","18:00","-34.5","","-38.2","","70","","","M","12","","6","","","M","100.98","","","","-42","","NA"
"-135.01","68.22","AKLAVIK A","2200105","2020-02-03 19:00","2020","02","03","19:00","-34.2","","-37.8","","71","","","M","13","","7","","","M","100.93","","","","-42","","NA"
"-135.01","68.22","AKLAVIK A","2200105","2020-02-03 20:00","2020","02","03","20:00","-32.5","","-36.0","","72","","","M","15","","8","","","M","100.85","","","","-41","","NA"
"-135.01","68.22","AKLAVIK A","2200105","2020-02-03 21:00","2020","02","03","21:00","-33.4","","-36.9","","71","","","M","12","","7","","","M","100.76","","","","-41","","NA"
"-135.01","68.22","AKLAVIK A","2200105","2020-02-03 22:00","2020","02","03","22:00","-31.6","","-35.0","","73","","","M","13","","12","","","M","100.69","","","","-42","","NA"
"-135.01","68.22","AKLAVIK A","2200105","2020-02-03 23:00","2020","02","03","23:00","-29.0","","-32.2","","75","","","M","16","","10","","","M","100.63","","","","-38","","NA"
"-135.01","68.22","AKLAVIK A","2200105","2020-02-04 00:00","2020","02","04","00:00","-27.4","","-30.6","","75","","","M","15","","13","","","M","100.57","","","","-37","","NA"
"-135.01","68.22","AKLAVIK A","2200105","2020-02-04 01:00","2020","02","04","01:00","-26.9","","-30.0","","76","","","M","15","","14","","","M","100.54","","","","-37","","NA"
"-135.01","68.22","AKLAVIK A","2200105","2020-02-04 02:00","2020","02","04","02:00","-26.5","","-29.5","","76","","","M","16","","12","","","M","100.47","","","","-36","","NA"
"-135.01","68.22","AKLAVIK A","2200105","2020-02-04 03:00","2020","02","04","03:00","-26.3","","-29.4","","76","","","M","16","","12","","","M","100.43","","","","-36","","NA"
"-135.01","68.22","AKLAVIK A","2200105","2020-02-04 04:00","2020","02","04","04:00","-26.8","","-29.9","","76","","","M","15","","9","","","M","100.36","","","","-35","","NA"
"-135.01","68.22","AKLAVIK A","2200105","2020-02-04 05:00","2020","02","04","05:00","-26.6","","-29.6","","76","","","M","15","","8","","","M","100.32","","","","-34","","NA"
"-135.01","68.22","AKLAVIK A","2200105","2020-02-04 06:00","2020","02","04","06:00","-26.0","","-29.0","","76","","","M","15","","9","","","M","100.25","","","","-34","","NA"
"-135.01","68.22","AKLAVIK A","2200105","2020-02-04 07:00","2020","02","04","07:00","-26.1","","-29.1","","76","","","M","15","","10","","","M","100.20","","","","-34","","NA"
"-135.01","68.22","AKLAVIK A","2200105","2020-02-04 08:00","2020","02","04","08:00","-25.9","","-29.0","","76","","","M","15","","11","","","M","100.13","","","","-35","","NA"
"-135.01","68.22","AKLAVIK A","2200105","2020-02-04 09:00","2020","02","04","09:00","-25.5","","-28.6","","76","","","M","14","","13","","","M","100.08","","","","-35","","NA"
"-135.01","68.22","AKLAVIK A","2200105","2020-02-04 10:00","2020","02","04","10:00","-25.2","","-28.3","","76","","","M","16","","10","","","M","100.06","","","","-33","","NA"
"-135.01","68.22","AKLAVIK A","2200105","2020-02-04 11:00","2020","02","04","11:00","-24.7","","-27.9","","75","","","M","18","","6","","","M","100.05","","","","-30","","NA"
"-135.01","68.22","AKLAVIK A","2200105","2020-02-04 12:00","2020","02","04","12:00","-24.5","","-27.8","","74","","","M","19","","8","","","M","100.06","","","","-32","","NA"
"-135.01","68.22","AKLAVIK A","2200105","2020-02-04 13:00","2020","02","04","13:00","-24.4","","-27.7","","75","","","M","27","","3","","","M","100.08","","","","-27","","NA"
"-135.01","68.22","AKLAVIK A","2200105","2020-02-04 14:00","2020","02","04","14:00","-27.2","","-30.5","","74","","","M","33","","10","","","M","100.11","","","","-36","","NA"
"-135.01","68.22","AKLAVIK A","2200105","2020-02-04 15:00","2020","02","04","15:00","-27.2","","-30.6","","74","","","M","34","","10","","","M","100.12","","","","-36","","NA"
"-135.01","68.22","AKLAVIK A","2200105","2020-02-04 16:00","2020","02","04","16:00","-27.3","","-30.9","","72","","","M","34","","10","","","M","100.14","","","","-36","","NA"
"-135.01","68.22","AKLAVIK A","2200105","2020-02-04 17:00","2020","02","04","17:00","-27.8","","-31.6","","70","","","M","33","","10","","","M","100.14","","","","-37","","NA"
"-135.01","68.22","AKLAVIK A","2200105","2020-02-04 18:00","2020","02","04","18:00","-28.6","","-32.6","","70","","","M","34","","7","","","M","100.15","","","","-36","","NA"
"-135.01","68.22","AKLAVIK A","2200105","2020-02-04 19:00","2020","02","04","19:00","-29.2","","-32.7","","73","","","M","32","","5","","","M","100.16","","","","-35","","NA"
"-135.01","68.22","AKLAVIK A","2200105","2020-02-04 20:00","2020","02","04","20:00","-29.2","","-32.6","","73","","","M","33","","4","","","M","100.15","","","","-34","","NA"
"-135.01","68.22","AKLAVIK A","2200105","2020-02-04 21:00","2020","02","04","21:00","-29.1","","-32.3","","74","","","M","31","","5","","","M","100.14","","","","-35","","NA"
"-135.01","68.22","AKLAVIK A","2200105","2020-02-04 22:00","2020","02","04","22:00","-27.7","","-31.1","","73","","","M","36","","8","","","M","100.11","","","","-35","","NA"
"-135.01","68.22","AKLAVIK A","2200105","2020-02-04 23:00","2020","02","04","23:00","-28.1","","-31.4","","74","","","M","32","","4","","","M","100.12","","","","-32","","NA"
"-135.01","68.22","AKLAVIK A","2200105","2020-02-05 00:00","2020","02","05","00:00","-28.2","","-31.4","","74","","","M","28","","2","","","M","100.12","","","","-30","","NA"
"-135.01","68.22","AKLAVIK A","2200105","2020-02-05 01:00","2020","02","05","01:00","-28.0","","-31.2","","75","","","M","26","","3","","","M","100.14","","","","-31","","NA"
"-135.01","68.22","AKLAVIK A","2200105","2020-02-05 02:00","2020","02","05","02:00","-27.4","","-30.6","","74","","","M","29","","5","","","M","100.15","","","","-33","","NA"
"-135.01","68.22","AKLAVIK A","2200105","2020-02-05 03:00","2020","02","05","03:00","-26.7","","-30.1","","73","","","M","30","","7","","","M","100.15","","","","-33","","NA"
"-135.01","68.22","AKLAVIK A","2200105","2020-02-05 04:00","2020","02","05","04:00","-26.4","","-30.0","","72","","","M","29","","6","","","M","100.17","","","","-32","","NA"
"-135.01","68.22","AKLAVIK A","2200105","2020-02-05 05:00","2020","02","05","05:00","-26.2","","-29.6","","74","","","M","32","","5","","","M","100.17","","","","-31","","NA"
"-135.01","68.22","AKLAVIK A","2200105","2020-02-05 06:00","2020","02","05","06:00","-26.1","","-29.3","","75","","","M","35","","8","","","M","100.17","","","","-33","","NA"
"-135.01","68.22","AKLAVIK A","2200105","2020-02-05 07:00","2020","02","05","07:00","-26.1","","-29.6","","73","","","M","35","","12","","","M","100.17","","","","-35","","NA"
"-135.01","68.22","AKLAVIK A","2200105","2020-02-05 08:00","2020","02","05","08:00","-26.2","","-30.0","","71","","","M","34","","14","","","M","100.17","","","","-36","","NA"
"-135.01","68.22","AKLAVIK A","2200105","2020-02-05 09:00","2020","02","05","09:00","-26.0","","-30.1","","69","","","M","34","","15","","","M","100.20","","","","-36","","NA"
"-135.01","68.22","AKLAVIK A","2200105","2020-02-05 10:00","2020","02","05","10:00","-26.1","","-30.0","","71","","","M","34","","10","","","M","100.24","","","","-34","","NA"
"-135.01","68.22","AKLAVIK A","2200105","2020-02-05 11:00","2020","02","05","11:00","-26.2","","-30.1","","70","","","M","34","","13","","","M","100.27","","","","-36","","NA"
"-135.01","68.22","AKLAVIK A","2200105","2020-02-05 12:00","2020","02","05","12:00","-26.1","","-30.1","","70","","","M","33","","13","","","M","100.33","","","","-36","","NA"
"-135.01","68.22","AKLAVIK A","2200105","2020-02-05 13:00","2020","02","05","13:00","-25.7","","-29.8","","70","","","M","34","","14","","","M","100.35","","","","-36","","NA"
"-135.01","68.22","AKLAVIK A","2200105","2020-02-05 14:00","2020","02","05","14:00","-25.5","","-29.6","","69","","","M","34","","14","","","M","100.40","","","","-35","","NA"
"-135.01","68.22","AKLAVIK A","2200105","2020-02-05 15:00","2020","02","05","15:00","-25.7","","-29.8","","69","","","M","33","","14","","","M","100.46","","","","-36","","NA"
"-135.01","68.22","AKLAVIK A","2200105","2020-02-05 16:00","2020","02","05","16:00","-26.1","","-30.5","","67","","","M","33","","16","","","M","100.52","","","","-37","","NA"
"-135.01","68.22","AKLAVIK A","2200105","2020-02-05 17:00","2020","02","05","17:00","-26.0","","-30.3","","68","","","M","33","","9","","","M","100.56","","","","-34","","NA"
"-135.01","68.22","AKLAVIK A","2200105","2020-02-05 18:00","2020","02","05","18:00","-26.4","","-30.5","","69","","","M","34","","13","","","M","100.58","","","","-36","","NA"
"-135.01","68.22","AKLAVIK A","2200105","2020-02-05 19:00","2020","02","05","19:00","-27.7","","-31.5","","71","","","M","35","","7","","","M","100.64","","","","-35","","NA"
"-135.01","68.22","AKLAVIK A","2200105","2020-02-05 20:00","2020","02","05","20:00","-27.7","","-31.2","","73","","","M","34","","6","","","M","100.68","","","","-34","","NA"
"-135.01","68.22","AKLAVIK A","2200105","2020-02-05 21:00","2020","02","05","21:00","-27.5","","-31.2","","72","","","M","33","","5","","","M","100.70","","","","-33","","NA"
"-135.01","68.22","AKLAVIK A","2200105","2020-02-05 22:00","2020","02","05","22:00","-27.4","","-30.9","","72","","","M","35","","9","","","M","100.72","","","","-36","","NA"
"-135.01","68.22","AKLAVIK A","2200105","2020-02-05 23:00","2020","02","05","23:00","-27.0","","-30.8","","71","","","M","35","","5","","","M","100.73","","","","-32","","NA"
"-135.01","68.22","AKLAVIK A","2200105","2020-02-06 00:00","2020","02","06","00:00","-27.2","","-30.9","","71","","","M","35","","7","","","M","100.75","","","","-34","","NA"
"-135.01","68.22","AKLAVIK A","2200105","2020-02-06 01:00","2020","02","06","01:00","-27.1","","-30.9","","70","","","M","32","","8","","","M","100.78","","","","-35","","NA"
"-135.01","68.22","AKLAVIK A","2200105","2020-02-06 02:00","2020","02","06","02:00","-27.1","","-31.0","","70","","","M","33","","7","","","M","100.81","","","","-34","","NA"
"-135.01","68.22","AKLAVIK A","2200105","2020-02-06 03:00","2020","02","06","03:00","-26.9","","-31.0","","69","","","M","35","","7","","","M","100.84","","","","-34","","NA"
"-135.01","68.22","AKLAVIK A","2200105","2020-02-06 04:00","2020","02","06","04:00","-26.8","","-30.6","","71","","","M","33","","7","","","M","100.88","","","","-34","","NA"
"-135.01","68.22","AKLAVIK A","2200105","2020-02-06 05:00","2020","02","06","05:00","-26.7","","-30.3","","72","","","M","31","","8","","","M","100.88","","","","-34","","NA"
"-135.01","68.22","AKLAVIK A","2200105","2020-02-06 06:00","2020","02","06","06:00","-26.7","","-30.4","","71","","","M","33","","9","","","M","100.88","","","","-35","","NA"
"-135.01","68.22","AKLAVIK A","2200105","2020-02-06 07:00","2020","02","06","07:00","-27.0","","-30.7","","71","","","M","32","","14","","","M","100.88","","","","-37","","NA"
"-135.01","68.22","AKLAVIK A","2200105","2020-02-06 08:00","2020","02","06","08:00","-27.4","","-31.2","","70","","","M","34","","15","","","M","100.91","","","","-38","","NA"
"-135.01","68.22","AKLAVIK A","2200105","2020-02-06 09:00","2020","02","06","09:00","-27.7","","-31.5","","71","","","M","34","","14","","","M","100.94","","","","-38","","NA"
"-135.01","68.22","AKLAVIK A","2200105","2020-02-06 10:00","2020","02","06","10:00","-27.8","","-31.7","","70","","","M","34","","17","","","M","101.00","","","","-39","","NA"
"-135.01","68.22","AKLAVIK A","2200105","2020-02-06 11:00","2020","02","06","11:00","-28.2","","-31.9","","71","","","M","33","","10","","","M","101.04","","","","-37","","NA"
"-135.01","68.22","AKLAVIK A","2200105","2020-02-06 12:00","2020","02","06","12:00","-28.1","","-32.1","","70","","","M","33","","14","","","M","101.09","","","","-39","","NA"
"-135.01","68.22","AKLAVIK A","2200105","2020-02-06 13:00","2020","02","06","13:00","-28.1","","-32.2","","69","","","M","33","","10","","","M","101.13","","","","-37","","NA"
"-135.01","68.22","AKLAVIK A","2200105","2020-02-06 14:00","2020","02","06","14:00","-28.4","","-32.5","","69","","","M","32","","12","","","M","101.18","","","","-38","","NA"
"-135.01","68.22","AKLAVIK A","2200105","2020-02-06 15:00","2020","02","06","15:00","-28.4","","-32.8","","67","","","M","34","","11","","","M","101.19","","","","-38","","NA"
"-135.01","68.22","AKLAVIK A","2200105","2020-02-06 16:00","2020","02","06","16:00","-28.6","","-32.8","","68","","","M","34","","8","","","M","101.23","","","","-36","","NA"
"-135.01","68.22","AKLAVIK A","2200105","2020-02-06 17:00","2020","02","06","17:00","-28.9","","-32.8","","69","","","M","34","","8","","","M","101.26","","","","-37","","NA"
"-135.01","68.22","AKLAVIK A","2200105","2020-02-06 18:00","2020","02","06","18:00","-28.8","","-32.7","","70","","","M","34","","11","","","M","101.30","","","","-38","","NA"
"-135.01","68.22","AKLAVIK A","2200105","2020-02-06 19:00","2020","02","06","19:00","-28.8","","-32.6","","70","","","M","33","","8","","","M","101.36","","","","-37","","NA"
"-135.01","68.22","AKLAVIK A","2200105","2020-02-06 20:00","2020","02","06","20:00","-28.8","","-32.7","","70","","","M","34","","13","","","M","101.40","","","","-39","","NA"
"-135.01","68.22","AKLAVIK A","2200105","2020-02-06 21:00","2020","02","06","21:00","-28.7","","-32.8","","69","","","M","36","","11","","","M","101.42","","","","-38","","NA"
"-135.01","68.22","AKLAVIK A","2200105","2020-02-06 22:00","2020","02","06","22:00","-28.6","","-32.6","","69","","","M","33","","10","","","M","101.45","","","","-37","","NA"
"-135.01","68.22","AKLAVIK A","2200105","2020-02-06 23:00","2020","02","06","23:00","-28.6","","-32.9","","67","","","M","35","","13","","","M","101.51","","","","-39","","NA"
"-135.01","68.22","AKLAVIK A","2200105","2020-02-07 00:00","2020","02","07","00:00","-28.7","","-33.0","","67","","","M","34","","15","","","M","101.56","","","","-40","","NA"
"-135.01","68.22","AKLAVIK A","2200105","2020-02-07 01:00","2020","02","07","01:00","-29.0","","-33.5","","66","","","M","33","","18","","","M","101.63","","","","-41","","NA"
"-135.01","68.22","AKLAVIK A","2200105","2020-02-07 02:00","2020","02","07","02:00","-29.1","","-33.3","","68","","","M","32","","14","","","M","101.67","","","","-40","","NA"
"-135.01","68.22","AKLAVIK A","2200105","2020-02-07 03:00","2020","02","07","03:00","-30.1","","-34.1","","69","","","M","32","","10","","","M","101.73","","","","-39","","NA"
"-135.01","68.22","AKLAVIK A","2200105","2020-02-07 04:00","2020","02","07","04:00","-31.0","","-35.0","","69","","","M","33","","10","","","M","101.77","","","","-40","","NA"
"-135.01","68.22","AKLAVIK A","2200105","2020-02-07 05:00","2020","02","07","05:00","-31.8","","-35.4","","71","","","M","33","","11","","","M","101.79","","","","-42","","NA"
"-135.01","68.22","AKLAVIK A","2200105","2020-02-07 06:00","2020","02","07","06:00","-32.1","","-35.6","","72","","","M","31","","7","","","M","101.83","","","","-40","","NA"
"-135.01","68.22","AKLAVIK A","2200105","2020-02-07 07:00","2020","02","07","07:00","-31.9","","-35.7","","70","","","M","35","","9","","","M","101.85","","","","-41","","NA"
"-135.01","68.22","AKLAVIK A","2200105","2020-02-07 08:00","2020","02","07","08:00","-33.1","","-36.7","","71","","","M","29","","4","","","M","101.86","","","","-38","","NA"
"-135.01","68.22","AKLAVIK A","2200105","2020-02-07 09:00","2020","02","07","09:00","-33.3","","-36.7","","73","","","M","28","","8","","","M","101.88","","","","-42","","NA"
"-135.01","68.22","AKLAVIK A","2200105","2020-02-07 10:00","2020","02","07","10:00","-33.2","","-37.0","","70","","","M","27","","9","","","M","101.92","","","","-42","","NA"
"-135.01","68.22","AKLAVIK A","2200105","2020-02-07 11:00","2020","02","07","11:00","-32.2","","-36.4","","67","","","M","29","","9","","","M","101.96","","","","-41","","NA"
"-135.01","68.22","AKLAVIK A","2200105","2020-02-07 12:00","2020","02","07","12:00","-32.2","","-36.3","","67","","","M","32","","10","","","M","102.00","","","","-42","","NA"
"-135.01","68.22","AKLAVIK A","2200105","2020-02-07 13:00","2020","02","07","13:00","-32.1","","-36.5","","66","","","M","32","","12","","","M","102.05","","","","-43","","NA"
"-135.01","68.22","AKLAVIK A","2200105","2020-02-07 14:00","2020","02","07","14:00","-31.6","","-36.1","","65","","","M","34","","9","","","M","102.05","","","","-40","","NA"
"-135.01","68.22","AKLAVIK A","2200105","2020-02-07 15:00","2020","02","07","15:00","-31.7","","-36.3","","65","","","M","35","","10","","","M","102.06","","","","-41","","NA"
"-135.01","68.22","AKLAVIK A","2200105","2020-02-07 16:00","2020","02","07","16:00","-31.4","","-36.1","","64","","","M","35","","13","","","M","102.07","","","","-42","","NA"
"-135.01","68.22","AKLAVIK A","2200105","2020-02-07 17:00","2020","02","07","17:00","-32.6","","-37.1","","65","","","M","35","","7","","","M","102.08","","","","-40","","NA"
"-135.01","68.22","AKLAVIK A","2200105","2020-02-07 18:00","2020","02","07","18:00","-33.4","","-37.5","","68","","","M","3","","5","","","M","102.06","","","","-39","","NA"
"-135.01","68.22","AKLAVIK A","2200105","2020-02-07 19:00","2020","02","07","19:00","-32.4","","-36.7","","66","","","M","6","","7","","","M","102.05","","","","-40","","NA"
"-135.01","68.22","AKLAVIK A","2200105","2020-02-07 20:00","2020","02","07","20:00","-33.0","","-37.0","","68","","","M","8","","4","","","M","102.06","","","","-38","","NA"
"-135.01","68.22","AKLAVIK A","2200105","2020-02-07 21:00","2020","02","07","21:00","-33.6","","-37.5","","69","","","M","8","","3","","","M","102.06","","","","-37","","NA"
"-135.01","68.22","AKLAVIK A","2200105","2020-02-07 22:00","2020","02","07","22:00","-33.9","","-37.5","","71","","","M","11","","3","","","M","102.07","","","","-38","","NA"
"-135.01","68.22","AKLAVIK A","2200105","2020-02-07 23:00","2020","02","07","23:00","-35.2","","-38.6","","71","","","M","1","","3","","","M","102.05","","","","-39","","NA"
"-135.01","68.22","AKLAVIK A","2200105","2020-02-08 00:00","2020","02","08","00:00","-34.6","","-38.3","","70","","","M","30","","2","","","M","102.02","","","","-37","","NA"
"-135.01","68.22","AKLAVIK A","2200105","2020-02-08 01:00","2020","02","08","01:00","-33.7","","-37.5","","70","","","M","1","","3","","","M","101.99","","","","-37","","NA"
"-135.01","68.22","AKLAVIK A","2200105","2020-02-08 02:00","2020","02","08","02:00","-34.9","","-38.5","","71","","","M","4","","4","","","M","101.97","","","","-40","","NA"
"-135.01","68.22","AKLAVIK A","2200105","2020-02-08 03:00","2020","02","08","03:00","-34.4","","-37.9","","71","","","M","4","","2","","","M","101.97","","","","-37","","NA"
"-135.01","68.22","AKLAVIK A","2200105","2020-02-08 04:00","2020","02","08","04:00","-33.2","","-36.8","","71","","","M","10","","3","","","M","101.89","","","","-37","","NA"
"-135.01","68.22","AKLAVIK A","2200105","2020-02-08 05:00","2020","02","08","05:00","-32.4","","-36.1","","70","","","M","2","","5","","","M","101.86","","","","-38","","NA"
"-135.01","68.22","AKLAVIK A","2200105","2020-02-08 06:00","2020","02","08","06:00","-33.5","","-37.1","","71","","","M","2","","6","","","M","101.82","","","","-41","","NA"
"-135.01","68.22","AKLAVIK A","2200105","2020-02-08 07:00","2020","02","08","07:00","-33.4","","-37.0","","71","","","M","5","","5","","","M","101.74","","","","-39","","NA"
"-135.01","68.22","AKLAVIK A","2200105","2020-02-08 08:00","2020","02","08","08:00","-32.3","","-36.0","","70","","","M","8","","2","","","M","101.67","","","","-35","","NA"
"-135.01","68.22","AKLAVIK A","2200105","2020-02-08 09:00","2020","02","08","09:00","-31.6","","-35.3","","71","","","M","10","","5","","","M","101.54","","","","-37","","NA"
"-135.01","68.22","AKLAVIK A","2200105","2020-02-08 10:00","2020","02","08","10:00","-31.4","","-35.2","","70","","","M","7","","3","","","M","101.48","","","","-35","","NA"
"-135.01","68.22","AKLAVIK A","2200105","2020-02-08 11:00","2020","02","08","11:00","-31.9","","-35.4","","72","","","M","8","","2","","","M","101.44","","","","-34","","NA"
"-135.01","68.22","AKLAVIK A","2200105","2020-02-08 12:00","2020","02","08","12:00","-31.2","","-34.9","","71","","","M","3","","4","","","M","101.37","","","","-36","","NA"
"-135.01","68.22","AKLAVIK A","2200105","2020-02-08 13:00","2020","02","08","13:00","-31.1","","-34.9","","70","","","M","36","","5","","","M","101.36","","","","-37","","NA"
"-135.01","68.22","AKLAVIK A","2200105","2020-02-08 14:00","2020","02","08","14:00","-30.6","","-34.5","","70","","","M","4","","4","","","M","101.29","","","","-35","","NA"
"-135.01","68.22","AKLAVIK A","2200105","2020-02-08 15:00","2020","02","08","15:00","-30.5","","-34.3","","70","","","M","33","","4","","","M","101.24","","","","-35","","NA"
"-135.01","68.22","AKLAVIK A","2200105","2020-02-08 16:00","2020","02","08","16:00","-30.6","","-34.4","","70","","","M","32","","10","","","M","101.20","","","","-40","","NA"
"-135.01","68.22","AKLAVIK A","2200105","2020-02-08 17:00","2020","02","08","17:00","-30.8","","-34.5","","70","","","M","32","","10","","","M","101.18","","","","-40","","NA"
"-135.01","68.22","AKLAVIK A","2200105","2020-02-08 18:00","2020","02","08","18:00","-31.4","","-35.0","","71","","","M","32","","8","","","M","101.12","","","","-40","","NA"
"-135.01","68.22","AKLAVIK A","2200105","2020-02-08 19:00","2020","02","08","19:00","-31.5","","-35.1","","71","","","M","33","","9","","","M","101.08","","","","-40","","NA"
"-135.01","68.22","AKLAVIK A","2200105","2020-02-08 20:00","2020","02","08","20:00","-31.4","","-34.9","","71","","","M","32","","11","","","M","101.06","","","","-41","","NA"
"-135.01","68.22","AKLAVIK A","2200105","2020-02-08 21:00","2020","02","08","21:00","-31.1","","-34.6","","71","","","M","34","","10","","","M","101.02","","","","-40","","NA"
"-135.01","68.22","AKLAVIK A","2200105","2020-02-08 22:00","2020","02","08","22:00","-30.7","","-34.2","","72","","","M","33","","12","","","M","101.00","","","","-41","","NA"
"-135.01","68.22","AKLAVIK A","2200105","2020-02-08 23:00","2020","02","08","23:00","-30.5","","-34.1","","71","","","M","33","","13","","","M","101.00","","","","-41","","NA"
"-135.01","68.22","AKLAVIK A","2200105","2020-02-09 00:00","2020","02","09","00:00","-30.4","","-34.0","","71","","","M","32","","13","","","M","101.02","","","","-41","","NA"
"-135.01","68.22","AKLAVIK A","2200105","2020-02-09 01:00","2020","02","09","01:00","-30.4","","-34.1","","71","","","M","33","","13","","","M","101.05","","","","-41","","NA"
"-135.01","68.22","AKLAVIK A","2200105","2020-02-09 02:00","2020","02","09","02:00","-30.4","","-34.1","","71","","","M","33","","12","","","M","101.08","","","","-41","","NA"
"-135.01","68.22","AKLAVIK A","2200105","2020-02-09 03:00","2020","02","09","03:00","-30.5","","-34.3","","70","","","M","32","","8","","","M","101.14","","","","-39","","NA"
"-135.01","68.22","AKLAVIK A","2200105","2020-02-09 04:00","2020","02","09","04:00","-30.4","","-34.1","","71","","","M","32","","6","","","M","101.18","","","","-37","","NA"
"-135.01","68.22","AKLAVIK A","2200105","2020-02-09 05:00","2020","02","09","05:00","-30.0","","-33.8","","70","","","M","32","","10","","","M","101.24","","","","-39","","NA"
"-135.01","68.22","AKLAVIK A","2200105","2020-02-09 06:00","2020","02","09","06:00","-30.5","","-34.1","","71","","","M","32","","7","","","M","101.25","","","","-38","","NA"
"-135.01","68.22","AKLAVIK A","2200105","2020-02-09 07:00","2020","02","09","07:00","-29.3","","-33.2","","70","","","M","33","","8","","","M","101.32","","","","-37","","NA"
"-135.01","68.22","AKLAVIK A","2200105","2020-02-09 08:00","2020","02","09","08:00","-28.9","","-32.7","","70","","","M","33","","8","","","M","101.36","","","","-37","","NA"
"-135.01","68.22","AKLAVIK A","2200105","2020-02-09 09:00","2020","02","09","09:00","-28.8","","-32.5","","71","","","M","33","","8","","","M","101.41","","","","-37","","NA"
"-135.01","68.22","AKLAVIK A","2200105","2020-02-09 10:00","2020","02","09","10:00","-28.4","","-32.1","","71","","","M","35","","8","","","M","101.46","","","","-36","","NA"
"-135.01","68.22","AKLAVIK A","2200105","2020-02-09 11:00","2020","02","09","11:00","-28.0","","-31.8","","70","","","M","36","","7","","","M","101.50","","","","-35","","NA"
"-135.01","68.22","AKLAVIK A","2200105","2020-02-09 12:00","2020","02","09","12:00","-28.6","","-32.6","","69","","","M","1","","4","","","M","101.52","","","","-33","","NA"
"-135.01","68.22","AKLAVIK A","2200105","2020-02-09 13:00","2020","02","09","13:00","-28.1","","-32.1","","69","","","M","9","","1","","","M","101.55","","","","-29","","NA"
"-135.01","68.22","AKLAVIK A","2200105","2020-02-09 14:00","2020","02","09","14:00","-27.7","","-31.7","","70","","","M","13","","6","","","M","101.55","","","","-34","","NA"
"-135.01","68.22","AKLAVIK A","2200105","2020-02-09 15:00","2020","02","09","15:00","-27.1","","-30.8","","71","","","M","15","","8","","","M","101.53","","","","-35","","NA"
"-135.01","68.22","AKLAVIK A","2200105","2020-02-09 16:00","2020","02","09","16:00","-26.6","","-30.2","","72","","","M","15","","11","","","M","101.53","","","","-36","","NA"
"-135.01","68.22","AKLAVIK A","2200105","2020-02-09 17:00","2020","02","09","17:00","-26.1","","-29.8","","72","","","M","16","","11","","","M","101.46","","","","-35","","NA"
"-135.01","68.22","AKLAVIK A","2200105","2020-02-09 18:00","2020","02","09","18:00","-25.9","","-29.9","","70","","","M","16","","13","","","M","101.40","","","","-36","","NA"
"-135.01","68.22","AKLAVIK A","2200105","2020-02-09 19:00","2020","02","09","19:00","-26.2","","-29.9","","71","","","M","16","","13","","","M","101.37","","","","-36","","NA"
"-135.01","68.22","AKLAVIK A","2200105","2020-02-09 20:00","2020","02","09","20:00","-26.1","","-29.9","","71","","","M","15","","9","","","M","101.36","","","","-34","","NA"
"-135.01","68.22","AKLAVIK A","2200105","2020-02-09 21:00","2020","02","09","21:00","-26.0","","-29.7","","72","","","M","15","","13","","","M","101.38","","","","-36","","NA"
"-135.01","68.22","AKLAVIK A","2200105","2020-02-09 22:00","2020","02","09","22:00","-26.1","","-29.6","","73","","","M","14","","11","","","M","101.35","","","","-35","","NA"
"-135.01","68.22","AKLAVIK A","2200105","2020-02-09 23:00","2020","02","09","23:00","-27.0","","-30.4","","73","","","M","13","","10","","","M","101.34","","","","-36","","NA"
"-135.01","68.22","AKLAVIK A","2200105","2020-02-10 00:00","2020","02","10","00:00","-28.2","","-31.3","","76","","","M","7","","9","","","M","101.38","","","","-36","","NA"
"-135.01","68.22","AKLAVIK A","2200105","2020-02-10 01:00","2020","02","10","01:00","-29.1","","-32.2","","75","","","M","16","","4","","","M","101.44","","","","-34","","NA"
"-135.01","68.22","AKLAVIK A","2200105","2020-02-10 02:00","2020","02","10","02:00","-28.9","","-32.0","","75","","","M","31","","3","","","M","101.49","","","","-32","","NA"
"-135.01","68.22","AKLAVIK A","2200105","2020-02-10 03:00","2020","02","10","03:00","-29.5","","-32.8","","74","","","M","33","","5","","","M","101.59","","","","-35","","NA"
"-135.01","68.22","AKLAVIK A","2200105","2020-02-10 04:00","2020","02","10","04:00","-28.5","","-31.7","","75","","","M","32","","7","","","M","101.62","","","","-36","","NA"
"-135.01","68.22","AKLAVIK A","2200105","2020-02-10 05:00","2020","02","10","05:00","-29.1","","-32.3","","75","","","M","29","","5","","","M","101.64","","","","-35","","NA"
"-135.01","68.22","AKLAVIK A","2200105","2020-02-10 06:00","2020","02","10","06:00","-29.6","","-32.9","","74","","","M","21","","4","","","M","101.66","","","","-34","","NA"
"-135.01","68.22","AKLAVIK A","2200105","2020-02-10 07:00","2020","02","10","07:00","-30.9","","-34.1","","74","","","M","3","","7","","","M","101.67","","","","-38","","NA"
"-135.01","68.22","AKLAVIK A","2200105","2020-02-10 08:00","2020","02","10","08:00","-32.7","","-36.0","","73","","","M","31","","12","","","M","101.77","","","","-43","","NA"
"-135.01","68.22","AKLAVIK A","2200105","2020-02-10 09:00","2020","02","10","09:00","-29.6","","-32.7","","75","","","M","33","","15","","","M","101.88","","","","-41","","NA"
"-135.01","68.22","AKLAVIK A","2200105","2020-02-10 10:00","2020","02","10","10:00","-27.7","","-30.8","","75","","","M","35","","14","","","M","101.96","","","","-38","","NA"
"-135.01","68.22","AKLAVIK A","2200105","2020-02-10 11:00","2020","02","10","11:00","-28.7","","-31.8","","75","","","M","34","","13","","","M","102.02","","","","-39","","NA"
"-135.01","68.22","AKLAVIK A","2200105","2020-02-10 12:00","2020","02","10","12:00","-27.5","","-30.6","","76","","","M","34","","11","","","M","102.09","","","","-37","","NA"
"-135.01","68.22","AKLAVIK A","2200105","2020-02-10 13:00","2020","02","10","13:00","-26.1","","-29.4","","75","","","M","33","","13","","","M","102.14","","","","-36","","NA"
"-135.01","68.22","AKLAVIK A","2200105","2020-02-10 14:00","2020","02","10","14:00","-25.6","","-29.2","","72","","","M","32","","12","","","M","102.26","","","","-35","","NA"
"-135.01","68.22","AKLAVIK A","2200105","2020-02-10 15:00","2020","02","10","15:00","-25.4","","-29.2","","71","","","M","33","","10","","","M","102.30","","","","-34","","NA"
"-135.01","68.22","AKLAVIK A","2200105","2020-02-10 16:00","2020","02","10","16:00","-24.9","","-29.1","","69","","","M","30","","7","","","M","102.35","","","","-31","","NA"
"-135.01","68.22","AKLAVIK A","2200105","2020-02-10 17:00","2020","02","10","17:00","-24.3","","-28.8","","67","","","M","33","","9","","","M","102.39","","","","-32","","NA"
"-135.01","68.22","AKLAVIK A","2200105","2020-02-10 18:00","2020","02","10","18:00","-25.9","","-29.9","","70","","","M","31","","9","","","M","102.39","","","","-34","","NA"
"-135.01","68.22","AKLAVIK A","2200105","2020-02-10 19:00","2020","02","10","19:00","-26.5","","-30.2","","72","","","M","29","","2","","","M","102.45","","","","-29","","NA"
"-135.01","68.22","AKLAVIK A","2200105","2020-02-10 20:00","2020","02","10","20:00","-26.4","","-29.8","","73","","","M","28","","10","","","M","102.50","","","","-35","","NA"
"-135.01","68.22","AKLAVIK A","2200105","2020-02-10 21:00","2020","02","10","21:00","-26.3","","-29.9","","72","","","M","29","","9","","","M","102.57","","","","-34","","NA"
"-135.01","68.22","AKLAVIK A","2200105","2020-02-10 22:00","2020","02","10","22:00","-28.6","","-31.7","","75","","","M","17","","5","","","M","102.63","","","","-34","","NA"
"-135.01","68.22","AKLAVIK A","2200105","2020-02-10 23:00","2020","02","10","23:00","-27.7","","-30.7","","76","","","M","30","","5","","","M","102.73","","","","-33","","NA"
"-135.01","68.22","AKLAVIK A","2200105","2020-02-11 00:00","2020","02","11","00:00","-30.8","","-34.2","","73","","","M","4","","1","","","M","102.80","","","","-32","","NA"
"-135.01","68.22","AKLAVIK A","2200105","2020-02-11 01:00","2020","02","11","01:00","-29.6","","-32.7","","75","","","M","17","","8","","","M","102.86","","","","-38","","NA"
"-135.01","68.22","AKLAVIK A","2200105","2020-02-11 02:00","2020","02","11","02:00","-31.3","","-34.6","","74","","","M","21","","5","","","M","102.92","","","","-37","","NA"
"-135.01","68.22","AKLAVIK A","2200105","2020-02-11 03:00","2020","02","11","03:00","-33.0","","-36.4","","72","","","M","21","","8","","","M","103.01","","","","-41","","NA"
"-135.01","68.22","AKLAVIK A","2200105","2020-02-11 04:00","2020","02","11","04:00","-31.3","","-34.7","","73","","","M","27","","4","","","M","103.09","","","","-36","","NA"
"-135.01","68.22","AKLAVIK A","2200105","2020-02-11 05:00","2020","02","11","05:00","-29.4","","-32.2","","77","","","M","30","","3","","","M","103.14","","","","-33","","NA"
"-135.01","68.22","AKLAVIK A","2200105","2020-02-11 06:00","2020","02","11","06:00","-30.7","","-33.8","","74","","","M","23","","8","","","M","103.21","","","","-39","","NA"
"-135.01","68.22","AKLAVIK A","2200105","2020-02-11 07:00","2020","02","11","07:00","-30.7","","-34.0","","74","","","M","17","","5","","","M","103.24","","","","-36","","NA"
"-135.01","68.22","AKLAVIK A","2200105","2020-02-11 08:00","2020","02","11","08:00","-29.6","","-32.8","","75","","","M","20","","7","","","M","103.26","","","","-37","","NA"
"-135.01","68.22","AKLAVIK A","2200105","2020-02-11 09:00","2020","02","11","09:00","-29.2","","-32.5","","74","","","M","20","","1","","","M","103.29","","","","-30","","NA"
"-135.01","68.22","AKLAVIK A","2200105","2020-02-11 10:00","2020","02","11","10:00","-30.2","","-33.5","","74","","","M","5","","5","","","M","103.33","","","","-36","","NA"
"-135.01","68.22","AKLAVIK A","2200105","2020-02-11 11:00","2020","02","11","11:00","-28.9","","-32.0","","75","","","M","7","","3","","","M","103.38","","","","-32","","NA"
"-135.01","68.22","AKLAVIK A","2200105","2020-02-11 12:00","2020","02","11","12:00","-28.1","","-31.2","","75","","","M","7","","5","","","M","103.39","","","","-33","","NA"
"-135.01","68.22","AKLAVIK A","2200105","2020-02-11 13:00","2020","02","11","13:00","-26.6","","-29.6","","76","","","M","9","","8","","","M","103.41","","","","-34","","NA"
"-135.01","68.22","AKLAVIK A","2200105","2020-02-11 14:00","2020","02","11","14:00","-26.5","","-29.5","","76","","","M","11","","4","","","M","103.44","","","","-31","","NA"
"-135.01","68.22","AKLAVIK A","2200105","2020-02-11 15:00","2020","02","11","15:00","-26.0","","-29.0","","77","","","M","11","","5","","","M","103.47","","","","-31","","NA"
"-135.01","68.22","AKLAVIK A","2200105","2020-02-11 16:00","2020","02","11","16:00","-26.3","","-29.2","","77","","","M","10","","7","","","M","103.48","","","","-33","","NA"
"-135.01","68.22","AKLAVIK A","2200105","2020-02-11 17:00","2020","02","11","17:00","-27.4","","-30.4","","76","","","M","11","","9","","","M","103.48","","","","-36","","NA"
"-135.01","68.22","AKLAVIK A","2200105","2020-02-11 18:00","2020","02","11","18:00","-27.6","","-30.6","","76","","","M","10","","5","","","M","103.46","","","","-33","","NA"
"-135.01","68.22","AKLAVIK A","2200105","2020-02-11 19:00","2020","02","11","19:00","-28.6","","-31.7","","76","","","M","7","","5","","","M","103.43","","","","-34","","NA"
"-135.01","68.22","AKLAVIK A","2200105","2020-02-11 20:00","2020","02","11","20:00","-31.1","","-34.4","","74","","","M","1","","4","","","M","103.40","","","","-36","","NA"
"-135.01","68.22","AKLAVIK A","2200105","2020-02-11 21:00","2020","02","11","21:00","-33.2","","-36.6","","73","","","M","36","","4","","","M","103.36","","","","-38","","NA"
"-135.01","68.22","AKLAVIK A","2200105","2020-02-11 22:00","2020","02","11","22:00","-35.7","","-39.3","","71","","","M","","","0","","","M","103.30","","","","","","NA"
"-135.01","68.22","AKLAVIK A","2200105","2020-02-11 23:00","2020","02","11","23:00","-36.2","","-39.8","","71","","","M","35","","2","","","M","103.22","","","","-39","","NA"
"-135.01","68.22","AKLAVIK A","2200105","2020-02-12 00:00","2020","02","12","00:00","-36.7","","-40.3","","70","","","M","13","","5","","","M","103.16","","","","-43","","NA"
"-135.01","68.22","AKLAVIK A","2200105","2020-02-12 01:00","2020","02","12","01:00","-37.3","","-40.9","","70","","","M","17","","7","","","M","103.11","","","","-46","","NA"
"-135.01","68.22","AKLAVIK A","2200105","2020-02-12 02:00","2020","02","12","02:00","-34.5","","-38.0","","72","","","M","15","","13","","","M","103.06","","","","-46","","NA"
"-135.01","68.22","AKLAVIK A","2200105","2020-02-12 03:00","2020","02","12","03:00","-33.0","","-36.3","","73","","","M","16","","7","","","M","103.00","","","","-41","","NA"
"-135.01","68.22","AKLAVIK A","2200105","2020-02-12 04:00","2020","02","12","04:00","-34.0","","-37.5","","71","","","M","17","","6","","","M","102.92","","","","-41","","NA"
"-135.01","68.22","AKLAVIK A","2200105","2020-02-12 05:00","2020","02","12","05:00","-35.3","","-38.8","","71","","","M","18","","7","","","M","102.85","","","","-43","","NA"
"-135.01","68.22","AKLAVIK A","2200105","2020-02-12 06:00","2020","02","12","06:00","-35.2","","-38.8","","71","","","M","14","","5","","","M","102.74","","","","-42","","NA"
"-135.01","68.22","AKLAVIK A","2200105","2020-02-12 07:00","2020","02","12","07:00","-37.7","","-41.4","","69","","","M","15","","5","","","M","102.67","","","","-44","","NA"
"-135.01","68.22","AKLAVIK A","2200105","2020-02-12 08:00","2020","02","12","08:00","-38.8","","-42.6","","68","","","M","16","","5","","","M","102.60","","","","-46","","NA"
"-135.01","68.22","AKLAVIK A","2200105","2020-02-12 09:00","2020","02","12","09:00","-37.0","","-40.6","","70","","","M","18","","6","","","M","102.53","","","","-45","","NA"
"-135.01","68.22","AKLAVIK A","2200105","2020-02-12 10:00","2020","02","12","10:00","-37.8","","-41.5","","69","","","M","18","","7","","","M","102.50","","","","-46","","NA"
"-135.01","68.22","AKLAVIK A","2200105","2020-02-12 11:00","2020","02","12","11:00","-36.2","","-39.9","","70","","","M","19","","7","","","M","102.44","","","","-44","","NA"
"-135.01","68.22","AKLAVIK A","2200105","2020-02-12 12:00","2020","02","12","12:00","-36.1","","-39.7","","70","","","M","17","","6","","","M","102.41","","","","-44","","NA"
"-135.01","68.22","AKLAVIK A","2200105","2020-02-12 13:00","2020","02","12","13:00","-34.6","","-38.2","","71","","","M","22","","3","","","M","102.35","","","","-38","","NA"
"-135.01","68.22","AKLAVIK A","2200105","2020-02-12 14:00","2020","02","12","14:00","-33.0","","-36.5","","72","","","M","22","","1","","","M","102.33","","","","-34","","NA"
"-135.01","68.22","AKLAVIK A","2200105","2020-02-12 15:00","2020","02","12","15:00","-33.0","","-36.5","","72","","","M","0","","1","","","M","102.25","","","","-34","","NA"
"-135.01","68.22","AKLAVIK A","2200105","2020-02-12 16:00","2020","02","12","16:00","-32.0","","-35.4","","72","","","M","31","","7","","","M","102.24","","","","-40","","NA"
"-135.01","68.22","AKLAVIK A","2200105","2020-02-12 17:00","2020","02","12","17:00","-33.3","","-36.8","","71","","","M","32","","8","","","M","102.25","","","","-42","","NA"
"-135.01","68.22","AKLAVIK A","2200105","2020-02-12 18:00","2020","02","12","18:00","-34.4","","-38.0","","71","","","M","33","","10","","","M","102.27","","","","-44","","NA"
"-135.01","68.22","AKLAVIK A","2200105","2020-02-12 19:00","2020","02","12","19:00","-35.8","","-39.4","","70","","","M","33","","10","","","M","102.24","","","","-46","","NA"
"-135.01","68.22","AKLAVIK A","2200105","2020-02-12 20:00","2020","02","12","20:00","-34.9","","-38.5","","71","","","M","34","","12","","","M","102.17","","","","-46","","NA"
"-135.01","68.22","AKLAVIK A","2200105","2020-02-12 21:00","2020","02","12","21:00","-35.0","","-38.6","","70","","","M","33","","13","","","M","102.20","","","","-47","","NA"
"-135.01","68.22","AKLAVIK A","2200105","2020-02-12 22:00","2020","02","12","22:00","-36.1","","-39.8","","70","","","M","32","","8","","","M","102.20","","","","-45","","NA"
"-135.01","68.22","AKLAVIK A","2200105","2020-02-12 23:00","2020","02","12","23:00","-35.5","","-39.2","","70","","","M","34","","11","","","M","102.22","","","","-46","","NA"
"-135.01","68.22","AKLAVIK A","2200105","2020-02-13 00:00","2020","02","13","00:00","-33.4","","-36.9","","71","","","M","34","","17","","","M","102.25","","","","-46","","NA"
"-135.01","68.22","AKLAVIK A","2200105","2020-02-13 01:00","2020","02","13","01:00","-33.0","","-36.5","","72","","","M","34","","17","","","M","102.28","","","","-46","","NA"
"-135.01","68.22","AKLAVIK A","2200105","2020-02-13 02:00","2020","02","13","02:00","-32.5","","-36.0","","72","","","M","33","","20","","","M","102.34","","","","-46","","NA"
"-135.01","68.22","AKLAVIK A","2200105","2020-02-13 03:00","2020","02","13","03:00","-32.3","","-35.7","","72","","","M","32","","18","","","M","102.36","","","","-45","","NA"
"-135.01","68.22","AKLAVIK A","2200105","2020-02-13 04:00","2020","02","13","04:00","-32.3","","-35.7","","72","","","M","32","","16","","","M","102.38","","","","-45","","NA"
"-135.01","68.22","AKLAVIK A","2200105","2020-02-13 05:00","2020","02","13","05:00","-32.4","","-35.8","","72","","","M","34","","15","","","M","102.44","","","","-44","","NA"
"-135.01","68.22","AKLAVIK A","2200105","2020-02-13 06:00","2020","02","13","06:00","-31.9","","-35.4","","72","","","M","34","","15","","","M","102.50","","","","-44","","NA"
"-135.01","68.22","AKLAVIK A","2200105","2020-02-13 07:00","2020","02","13","07:00","-31.0","","-34.3","","73","","","M","34","","18","","","M","102.57","","","","-44","","NA"
"-135.01","68.22","AKLAVIK A","2200105","2020-02-13 08:00","2020","02","13","08:00","-31.0","","-34.4","","73","","","M","32","","23","","","M","102.63","","","","-45","","NA"
"-135.01","68.22","AKLAVIK A","2200105","2020-02-13 09:00","2020","02","13","09:00","-31.1","","-34.5","","73","","","M","33","","21","","","M","102.66","","","","-45","","NA"
"-135.01","68.22","AKLAVIK A","2200105","2020-02-13 10:00","2020","02","13","10:00","-31.2","","-34.6","","73","","","M","34","","19","","","M","102.72","","","","-44","","NA"
"-135.01","68.22","AKLAVIK A","2200105","2020-02-13 11:00","2020","02","13","11:00","-31.2","","-34.6","","73","","","M","33","","19","","","M","102.76","","","","-44","","NA"
"-135.01","68.22","AKLAVIK A","2200105","2020-02-13 12:00","2020","02","13","12:00","-31.1","","-34.5","","73","","","M","34","","19","","","M","102.81","","","","-44","","NA"
"-135.01","68.22","AKLAVIK A","2200105","2020-02-13 13:00","2020","02","13","13:00","-30.3","","-33.7","","73","","","M","33","","17","","","M","102.84","","","","-43","","NA"
"-135.01","68.22","AKLAVIK A","2200105","2020-02-13 14:00","2020","02","13","14:00","-30.2","","-33.6","","73","","","M","34","","17","","","M","102.88","","","","-42","","NA"
"-135.01","68.22","AKLAVIK A","2200105","2020-02-13 15:00","2020","02","13","15:00","-29.9","","-33.3","","73","","","M","34","","17","","","M","102.90","","","","-42","","NA"
"-135.01","68.22","AKLAVIK A","2200105","2020-02-13 16:00","2020","02","13","16:00","-30.5","","-33.9","","72","","","M","35","","16","","","M","102.91","","","","-42","","NA"
"-135.01","68.22","AKLAVIK A","2200105","2020-02-13 17:00","2020","02","13","17:00","-31.0","","-34.5","","72","","","M","35","","12","","","M","102.91","","","","-41","","NA"
"-135.01","68.22","AKLAVIK A","2200105","2020-02-13 18:00","2020","02","13","18:00","-32.5","","-36.0","","72","","","M","36","","8","","","M","102.92","","","","-41","","NA"
"-135.01","68.22","AKLAVIK A","2200105","2020-02-13 19:00","2020","02","13","19:00","-33.5","","-37.0","","71","","","M","32","","2","","","M","102.95","","","","-36","","NA"
"-135.01","68.22","AKLAVIK A","2200105","2020-02-13 20:00","2020","02","13","20:00","-33.9","","-37.4","","72","","","M","28","","4","","","M","102.94","","","","-39","","NA"
"-135.01","68.22","AKLAVIK A","2200105","2020-02-13 21:00","2020","02","13","21:00","-35.9","","-39.5","","70","","","M","28","","8","","","M","102.95","","","","-45","","NA"
"-135.01","68.22","AKLAVIK A","2200105","2020-02-13 22:00","2020","02","13","22:00","-36.9","","-40.5","","70","","","M","28","","5","","","M","102.95","","","","-43","","NA"
"-135.01","68.22","AKLAVIK A","2200105","2020-02-13 23:00","2020","02","13","23:00","-37.2","","-41.0","","69","","","M","21","","7","","","M","102.94","","","","-46","","NA"
"-135.01","68.22","AKLAVIK A","2200105","2020-02-14 00:00","2020","02","14","00:00","-38.2","","-42.1","","68","","","M","29","","3","","","M","102.93","","","","-42","","NA"
"-135.01","68.22","AKLAVIK A","2200105","2020-02-14 01:00","2020","02","14","01:00","-37.7","","-41.5","","69","","","M","28","","3","","","M","102.94","","","","-42","","NA"
"-135.01","68.22","AKLAVIK A","2200105","2020-02-14 02:00","2020","02","14","02:00","-38.4","","-42.3","","68","","","M","22","","7","","","M","102.90","","","","-47","","NA"
"-135.01","68.22","AKLAVIK A","2200105","2020-02-14 03:00","2020","02","14","03:00","-36.4","","-40.1","","70","","","M","21","","10","","","M","102.87","","","","-47","","NA"
"-135.01","68.22","AKLAVIK A","2200105","2020-02-14 04:00","2020","02","14","04:00","-34.7","","-38.3","","71","","","M","21","","8","","","M","102.87","","","","-43","","NA"
"-135.01","68.22","AKLAVIK A","2200105","2020-02-14 05:00","2020","02","14","05:00","-33.8","","-37.3","","71","","","M","21","","8","","","M","102.86","","","","-42","","NA"
"-135.01","68.22","AKLAVIK A","2200105","2020-02-14 06:00","2020","02","14","06:00","-32.4","","-35.9","","72","","","M","21","","10","","","M","102.84","","","","-42","","NA"
"-135.01","68.22","AKLAVIK A","2200105","2020-02-14 07:00","2020","02","14","07:00","-32.9","","-36.4","","72","","","M","23","","3","","","M","102.83","","","","-37","","NA"
"-135.01","68.22","AKLAVIK A","2200105","2020-02-14 08:00","2020","02","14","08:00","-33.8","","-37.3","","71","","","M","31","","4","","","M","102.80","","","","-39","","NA"
"-135.01","68.22","AKLAVIK A","2200105","2020-02-14 09:00","2020","02","14","09:00","-34.5","","-38.1","","71","","","M","3","","2","","","M","102.78","","","","-37","","NA"
"-135.01","68.22","AKLAVIK A","2200105","2020-02-14 10:00","2020","02","14","10:00","-34.8","","-38.4","","70","","","M","17","","1","","","M","102.78","","","","-36","","NA"
"-135.01","68.22","AKLAVIK A","2200105","2020-02-14 11:00","2020","02","14","11:00","-34.8","","-38.4","","71","","","M","12","","5","","","M","102.78","","","","-41","","NA"
"-135.01","68.22","AKLAVIK A","2200105","2020-02-14 12:00","2020","02","14","12:00","-34.9","","-38.5","","71","","","M","12","","5","","","M","102.80","","","","-41","","NA"
"-135.01","68.22","AKLAVIK A","2200105","2020-02-14 13:00","2020","02","14","13:00","-35.2","","-38.9","","70","","","M","12","","6","","","M","102.84","","","","-42","","NA"
"-135.01","68.22","AKLAVIK A","2200105","2020-02-14 14:00","2020","02","14","14:00","-34.5","","-38.2","","70","","","M","21","","6","","","M","102.81","","","","-42","","NA"
"-135.01","68.22","AKLAVIK A","2200105","2020-02-14 15:00","2020","02","14","15:00","-34.5","","-38.2","","70","","","M","13","","7","","","M","102.83","","","","-43","","NA"
"-135.01","68.22","AKLAVIK A","2200105","2020-02-14 16:00","2020","02","14","16:00","-34.3","","-38.0","","70","","","M","12","","5","","","M","102.82","","","","-41","","NA"
"-135.01","68.22","AKLAVIK A","2200105","2020-02-14 17:00","2020","02","14","17:00","-34.4","","-38.1","","70","","","M","10","","4","","","M","102.85","","","","-39","","NA"
"-135.01","68.22","AKLAVIK A","2200105","2020-02-14 18:00","2020","02","14","18:00","-34.8","","-38.4","","70","","","M","10","","5","","","M","102.84","","","","-41","","NA"
"-135.01","68.22","AKLAVIK A","2200105","2020-02-14 19:00","2020","02","14","19:00","-36.0","","-39.7","","70","","","M","13","","6","","","M","102.85","","","","-43","","NA"
"-135.01","68.22","AKLAVIK A","2200105","2020-02-14 20:00","2020","02","14","20:00","-39.1","","-43.0","","68","","","M","9","","2","","","M","102.85","","","","-42","","NA"
"-135.01","68.22","AKLAVIK A","2200105","2020-02-14 21:00","2020","02","14","21:00","-38.4","","-42.2","","68","","","M","11","","8","","","M","102.87","","","","-48","","NA"
"-135.01","68.22","AKLAVIK A","2200105","2020-02-14 22:00","2020","02","14","22:00","-36.4","","-40.1","","70","","","M","18","","6","","","M","102.85","","","","-44","","NA"
"-135.01","68.22","AKLAVIK A","2200105","2020-02-14 23:00","2020","02","14","23:00","-37.6","","-41.4","","69","","","M","17","","6","","","M","102.83","","","","-45","","NA"
"-135.01","68.22","AKLAVIK A","2200105","2020-02-15 00:00","2020","02","15","00:00","-39.6","","-43.6","","67","","","M","15","","7","","","M","102.82","","","","-48","","NA"
"-135.01","68.22","AKLAVIK A","2200105","2020-02-15 01:00","2020","02","15","01:00","-39.4","","-43.3","","68","","","M","14","","7","","","M","102.82","","","","-48","","NA"
"-135.01","68.22","AKLAVIK A","2200105","2020-02-15 02:00","2020","02","15","02:00","-40.4","","-44.4","","67","","","M","14","","6","","","M","102.81","","","","-48","","NA"
"-135.01","68.22","AKLAVIK A","2200105","2020-02-15 03:00","2020","02","15","03:00","-38.9","","-42.7","","68","","","M","16","","8","","","M","102.80","","","","-48","","NA"
"-135.01","68.22","AKLAVIK A","2200105","2020-02-15 04:00","2020","02","15","04:00","-41.0","","-45.0","","67","","","M","12","","9","","","M","102.79","","","","-52","","NA"
"-135.01","68.22","AKLAVIK A","2200105","2020-02-15 05:00","2020","02","15","05:00","-40.3","","-44.3","","67","","","M","13","","9","","","M","102.77","","","","-51","","NA"
"-135.01","68.22","AKLAVIK A","2200105","2020-02-15 06:00","2020","02","15","06:00","-42.1","","-46.1","","66","","","M","14","","4","","","M","102.74","","","","-48","","NA"
"-135.01","68.22","AKLAVIK A","2200105","2020-02-15 07:00","2020","02","15","07:00","-41.9","","-45.9","","66","","","M","17","","5","","","M","102.72","","","","-49","","NA"
"-135.01","68.22","AKLAVIK A","2200105","2020-02-15 08:00","2020","02","15","08:00","-42.9","","-47.0","","65","","","M","20","","3","","","M","102.72","","","","-47","","NA"
"-135.01","68.22","AKLAVIK A","2200105","2020-02-15 09:00","2020","02","15","09:00","-43.2","","-47.3","","65","","","M","16","","3","","","M","102.70","","","","-48","","NA"
"-135.01","68.22","AKLAVIK A","2200105","2020-02-15 10:00","2020","02","15","10:00","-43.1","","-47.3","","65","","","M","16","","3","","","M","102.69","","","","-48","","NA"
"-135.01","68.22","AKLAVIK A","2200105","2020-02-15 11:00","2020","02","15","11:00","-43.3","","-47.4","","65","","","M","11","","2","","","M","102.69","","","","-46","","NA"
"-135.01","68.22","AKLAVIK A","2200105","2020-02-15 12:00","2020","02","15","12:00","-41.7","","-45.7","","66","","","M","14","","3","","","M","102.70","","","","-46","","NA"
"-135.01","68.22","AKLAVIK A","2200105","2020-02-15 13:00","2020","02","15","13:00","-38.5","","-42.4","","68","","","M","13","","4","","","M","102.69","","","","-44","","NA"
"-135.01","68.22","AKLAVIK A","2200105","2020-02-15 14:00","2020","02","15","14:00","-36.5","","-40.4","","69","","","M","12","","5","","","M","102.72","","","","-43","","NA"
"-135.01","68.22","AKLAVIK A","2200105","2020-02-15 15:00","2020","02","15","15:00","-35.3","","-39.0","","70","","","M","16","","4","","","M","102.71","","","","-40","","NA"
"-135.01","68.22","AKLAVIK A","2200105","2020-02-15 16:00","2020","02","15","16:00","-34.8","","-38.5","","70","","","M","15","","5","","","M","102.68","","","","-41","","NA"
"-135.01","68.22","AKLAVIK A","2200105","2020-02-15 17:00","2020","02","15","17:00","-34.8","","-38.5","","70","","","M","13","","7","","","M","102.65","","","","-43","","NA"
"-135.01","68.22","AKLAVIK A","2200105","2020-02-15 18:00","2020","02","15","18:00","-35.5","","-39.1","","70","","","M","14","","7","","","M","102.68","","","","-44","","NA"
"-135.01","68.22","AKLAVIK A","2200105","2020-02-15 19:00","2020","02","15","19:00","-37.2","","-41.0","","69","","","M","13","","8","","","M","102.67","","","","-46","","NA"
"-135.01","68.22","AKLAVIK A","2200105","2020-02-15 20:00","2020","02","15","20:00","-38.2","","-42.1","","68","","","M","13","","10","","","M","102.68","","","","-49","","NA"
"-135.01","68.22","AKLAVIK A","2200105","2020-02-15 21:00","2020","02","15","21:00","-38.3","","-42.2","","68","","","M","14","","9","","","M","102.66","","","","-48","","NA"
"-135.01","68.22","AKLAVIK A","2200105","2020-02-15 22:00","2020","02","15","22:00","-38.4","","-42.2","","68","","","M","13","","7","","","M","102.65","","","","-47","","NA"
"-135.01","68.22","AKLAVIK A","2200105","2020-02-15 23:00","2020","02","15","23:00","-37.2","","-41.0","","69","","","M","16","","9","","","M","102.65","","","","-47","","NA"
"-135.01","68.22","AKLAVIK A","2200105","2020-02-16 00:00","2020","02","16","00:00","-38.0","","-41.8","","68","","","M","14","","9","","","M","102.66","","","","-48","","NA"
"-135.01","68.22","AKLAVIK A","2200105","2020-02-16 01:00","2020","02","16","01:00","-38.3","","-42.1","","68","","","M","15","","11","","","M","102.66","","","","-50","","NA"
"-135.01","68.22","AKLAVIK A","2200105","2020-02-16 02:00","2020","02","16","02:00","-38.7","","-42.6","","68","","","M","14","","12","","","M","102.67","","","","-51","","NA"
"-135.01","68.22","AKLAVIK A","2200105","2020-02-16 03:00","2020","02","16","03:00","-38.6","","-42.5","","68","","","M","15","","8","","","M","102.66","","","","-48","","NA"
"-135.01","68.22","AKLAVIK A","2200105","2020-02-16 04:00","2020","02","16","04:00","-38.5","","-42.5","","68","","","M","16","","10","","","M","102.67","","","","-49","","NA"
"-135.01","68.22","AKLAVIK A","2200105","2020-02-16 05:00","2020","02","16","05:00","-38.8","","-42.7","","68","","","M","15","","10","","","M","102.66","","","","-50","","NA"
"-135.01","68.22","AKLAVIK A","2200105","2020-02-16 06:00","2020","02","16","06:00","-38.7","","-42.6","","68","","","M","16","","9","","","M","102.64","","","","-49","","NA"
"-135.01","68.22","AKLAVIK A","2200105","2020-02-16 07:00","2020","02","16","07:00","-38.5","","-42.4","","68","","","M","16","","10","","","M","102.63","","","","-49","","NA"
"-135.01","68.22","AKLAVIK A","2200105","2020-02-16 08:00","2020","02","16","08:00","-38.4","","-42.3","","68","","","M","15","","12","","","M","102.61","","","","-50","","NA"
"-135.01","68.22","AKLAVIK A","2200105","2020-02-16 09:00","2020","02","16","09:00","-38.3","","-42.2","","68","","","M","16","","14","","","M","102.58","","","","-51","","NA"
"-135.01","68.22","AKLAVIK A","2200105","2020-02-16 10:00","2020","02","16","10:00","-38.0","","-41.9","","68","","","M","16","","14","","","M","102.59","","","","-51","","NA"
"-135.01","68.22","AKLAVIK A","2200105","2020-02-16 11:00","2020","02","16","11:00","-37.4","","-41.3","","68","","","M","16","","14","","","M","102.59","","","","-50","","NA"
"-135.01","68.22","AKLAVIK A","2200105","2020-02-16 12:00","2020","02","16","12:00","-36.3","","-40.1","","69","","","M","16","","17","","","M","102.58","","","","-50","","NA"
"-135.01","68.22","AKLAVIK A","2200105","2020-02-16 13:00","2020","02","16","13:00","-35.3","","-39.0","","70","","","M","15","","15","","","M","102.59","","","","-48","","NA"
"-135.01","68.22","AKLAVIK A","2200105","2020-02-16 14:00","2020","02","16","14:00","-33.7","","-37.4","","71","","","M","15","","21","","","M","102.58","","","","-48","","NA"
"-135.01","68.22","AKLAVIK A","2200105","2020-02-16 15:00","2020","02","16","15:00","-32.4","","-35.9","","72","","","M","16","","18","","","M","102.58","","","","-45","","NA"
"-135.01","68.22","AKLAVIK A","2200105","2020-02-16 16:00","2020","02","16","16:00","-31.4","","-34.9","","72","","","M","16","","19","","","M","102.57","","","","-45","","NA"
"-135.01","68.22","AKLAVIK A","2200105","2020-02-16 17:00","2020","02","16","17:00","-31.2","","-34.7","","72","","","M","15","","16","","","M","102.55","","","","-43","","NA"
"-135.01","68.22","AKLAVIK A","2200105","2020-02-16 18:00","2020","02","16","18:00","-32.9","","-36.5","","71","","","M","14","","14","","","M","102.53","","","","-45","","NA"
"-135.01","68.22","AKLAVIK A","2200105","2020-02-16 19:00","2020","02","16","19:00","-33.8","","-37.4","","71","","","M","14","","15","","","M","102.50","","","","-46","","NA"
"-135.01","68.22","AKLAVIK A","2200105","2020-02-16 20:00","2020","02","16","20:00","-33.4","","-37.0","","71","","","M","15","","12","","","M","102.48","","","","-44","","NA"
"-135.01","68.22","AKLAVIK A","2200105","2020-02-16 21:00","2020","02","16","21:00","-33.5","","-37.0","","71","","","M","16","","14","","","M","102.47","","","","-45","","NA"
"-135.01","68.22","AKLAVIK A","2200105","2020-02-16 22:00","2020","02","16","22:00","-33.4","","-37.0","","71","","","M","17","","18","","","M","102.42","","","","-47","","NA"
"-135.01","68.22","AKLAVIK A","2200105","2020-02-16 23:00","2020","02","16","23:00","-33.0","","-36.5","","71","","","M","16","","21","","","M","102.36","","","","-47","","NA"
"-135.01","68.22","AKLAVIK A","2200105","2020-02-17 00:00","2020","02","17","00:00","-33.1","","-36.8","","71","","","M","16","","16","","","M","102.32","","","","-46","","NA"
"-135.01","68.22","AKLAVIK A","2200105","2020-02-17 01:00","2020","02","17","01:00","-33.1","","-36.7","","71","","","M","16","","20","","","M","102.27","","","","-47","","NA"
"-135.01","68.22","AKLAVIK A","2200105","2020-02-17 02:00","2020","02","17","02:00","-33.1","","-36.7","","71","","","M","17","","16","","","M","102.20","","","","-46","","NA"
"-135.01","68.22","AKLAVIK A","2200105","2020-02-17 03:00","2020","02","17","03:00","-33.3","","-36.9","","71","","","M","16","","15","","","M","102.17","","","","-45","","NA"
"-135.01","68.22","AKLAVIK A","2200105","2020-02-17 04:00","2020","02","17","04:00","-33.4","","-37.1","","71","","","M","17","","21","","","M","102.13","","","","-48","","NA"
"-135.01","68.22","AKLAVIK A","2200105","2020-02-17 05:00","2020","02","17","05:00","-33.4","","-37.0","","70","","","M","17","","19","","","M","102.07","","","","-47","","NA"
"-135.01","68.22","AKLAVIK A","2200105","2020-02-17 06:00","2020","02","17","06:00","-33.1","","-36.8","","70","","","M","17","","18","","","M","102.00","","","","-46","","NA"
"-135.01","68.22","AKLAVIK A","2200105","2020-02-17 07:00","2020","02","17","07:00","-34.7","","-38.4","","70","","","M","18","","15","","","M","101.93","","","","-47","","NA"
"-135.01","68.22","AKLAVIK A","2200105","2020-02-17 08:00","2020","02","17","08:00","-34.9","","-38.6","","70","","","M","22","","9","","","M","101.93","","","","-44","","NA"
"-135.01","68.22","AKLAVIK A","2200105","2020-02-17 09:00","2020","02","17","09:00","-33.9","","-37.5","","70","","","M","19","","9","","","M","101.88","","","","-43","","NA"
"-135.01","68.22","AKLAVIK A","2200105","2020-02-17 10:00","2020","02","17","10:00","-34.3","","-38.0","","70","","","M","19","","6","","","M","101.84","","","","-41","","NA"
"-135.01","68.22","AKLAVIK A","2200105","2020-02-17 11:00","2020","02","17","11:00","-34.6","","-38.4","","70","","","M","21","","4","","","M","101.79","","","","-40","","NA"
"-135.01","68.22","AKLAVIK A","2200105","2020-02-17 12:00","2020","02","17","12:00","-34.4","","-38.1","","69","","","M","22","","4","","","M","101.82","","","","-39","","NA"
"-135.01","68.22","AKLAVIK A","2200105","2020-02-17 13:00","2020","02","17","13:00","-33.5","","-37.5","","68","","","M","17","","7","","","M","101.78","","","","-41","","NA"
"-135.01","68.22","AKLAVIK A","2200105","2020-02-17 14:00","2020","02","17","14:00","-32.3","","-36.4","","68","","","M","16","","6","","","M","101.78","","","","-39","","NA"
"-135.01","68.22","AKLAVIK A","2200105","2020-02-17 15:00","2020","02","17","15:00","-31.4","","-35.7","","67","","","M","18","","5","","","M","101.79","","","","-37","","NA"
"-135.01","68.22","AKLAVIK A","2200105","2020-02-17 16:00","2020","02","17","16:00","-30.6","","-35.2","","65","","","M","17","","5","","","M","101.79","","","","-36","","NA"
"-135.01","68.22","AKLAVIK A","2200105","2020-02-17 17:00","2020","02","17","17:00","-30.0","","-34.6","","65","","","M","17","","7","","","M","101.74","","","","-37","","NA"
"-135.01","68.22","AKLAVIK A","2200105","2020-02-17 18:00","2020","02","17","18:00","-30.7","","-34.8","","68","","","M","17","","5","","","M","101.72","","","","-36","","NA"
"-135.01","68.22","AKLAVIK A","2200105","2020-02-17 19:00","2020","02","17","19:00","-31.8","","-35.5","","70","","","M","17","","5","","","M","101.67","","","","-38","","NA"
"-135.01","68.22","AKLAVIK A","2200105","2020-02-17 20:00","2020","02","17","20:00","-32.2","","-35.9","","71","","","M","18","","4","","","M","101.68","","","","-37","","NA"
"-135.01","68.22","AKLAVIK A","2200105","2020-02-17 21:00","2020","02","17","21:00","-32.7","","-36.3","","71","","","M","15","","4","","","M","101.61","","","","-37","","NA"
"-135.01","68.22","AKLAVIK A","2200105","2020-02-17 22:00","2020","02","17","22:00","-32.5","","-35.9","","72","","","M","17","","7","","","M","101.56","","","","-40","","NA"
"-135.01","68.22","AKLAVIK A","2200105","2020-02-17 23:00","2020","02","17","23:00","-33.6","","-37.1","","72","","","M","11","","7","","","M","101.51","","","","-41","","NA"
"-135.01","68.22","AKLAVIK A","2200105","2020-02-18 00:00","2020","02","18","00:00","-32.2","","-35.5","","73","","","M","14","","8","","","M","101.52","","","","-41","","NA"
"-135.01","68.22","AKLAVIK A","2200105","2020-02-18 01:00","2020","02","18","01:00","-32.3","","-35.7","","73","","","M","14","","9","","","M","101.48","","","","-41","","NA"
"-135.01","68.22","AKLAVIK A","2200105","2020-02-18 02:00","2020","02","18","02:00","-31.9","","-35.3","","73","","","M","13","","8","","","M","101.41","","","","-40","","NA"
"-135.01","68.22","AKLAVIK A","2200105","2020-02-18 03:00","2020","02","18","03:00","-31.4","","-34.8","","72","","","M","14","","9","","","M","101.40","","","","-40","","NA"
"-135.01","68.22","AKLAVIK A","2200105","2020-02-18 04:00","2020","02","18","04:00","-30.4","","-33.9","","72","","","M","15","","10","","","M","101.33","","","","-40","","NA"
"-135.01","68.22","AKLAVIK A","2200105","2020-02-18 05:00","2020","02","18","05:00","-29.1","","-32.6","","72","","","M","16","","12","","","M","101.28","","","","-39","","NA"
"-135.01","68.22","AKLAVIK A","2200105","2020-02-18 06:00","2020","02","18","06:00","-28.4","","-31.9","","73","","","M","17","","9","","","M","101.18","","","","-37","","NA"
"-135.01","68.22","AKLAVIK A","2200105","2020-02-18 07:00","2020","02","18","07:00","-27.3","","-30.7","","73","","","M","16","","9","","","M","101.09","","","","-35","","NA"
"-135.01","68.22","AKLAVIK A","2200105","2020-02-18 08:00","2020","02","18","08:00","-26.9","","-30.4","","73","","","M","19","","5","","","M","101.06","","","","-32","","NA"
"-135.01","68.22","AKLAVIK A","2200105","2020-02-18 09:00","2020","02","18","09:00","-26.5","","-29.9","","73","","","M","18","","6","","","M","100.99","","","","-32","","NA"
"-135.01","68.22","AKLAVIK A","2200105","2020-02-18 10:00","2020","02","18","10:00","-25.5","","-28.8","","74","","","M","16","","7","","","M","100.91","","","","-32","","NA"
"-135.01","68.22","AKLAVIK A","2200105","2020-02-18 11:00","2020","02","18","11:00","-24.9","","-28.3","","74","","","M","18","","11","","","M","100.87","","","","-34","","NA"
"-135.01","68.22","AKLAVIK A","2200105","2020-02-18 12:00","2020","02","18","12:00","-24.0","","-27.3","","75","","","M","18","","5","","","M","100.81","","","","-29","","NA"
"-135.01","68.22","AKLAVIK A","2200105","2020-02-18 13:00","2020","02","18","13:00","-23.4","","-26.7","","74","","","M","17","","11","","","M","100.71","","","","-32","","NA"
"-135.01","68.22","AKLAVIK A","2200105","2020-02-18 14:00","2020","02","18","14:00","-22.0","","-25.4","","75","","","M","17","","12","","","M","100.66","","","","-30","","NA"
"-135.01","68.22","AKLAVIK A","2200105","2020-02-18 15:00","2020","02","18","15:00","-20.9","","-24.3","","75","","","M","16","","5","","","M","100.61","","","","-25","","NA"
"-135.01","68.22","AKLAVIK A","2200105","2020-02-18 16:00","2020","02","18","16:00","-19.0","","-22.2","","76","","","M","16","","12","","","M","100.49","","","","-27","","NA"
"-135.01","68.22","AKLAVIK A","2200105","2020-02-18 17:00","2020","02","18","17:00","-19.0","","-22.2","","76","","","M","19","","8","","","M","100.42","","","","-25","","NA"
"-135.01","68.22","AKLAVIK A","2200105","2020-02-18 18:00","2020","02","18","18:00","-19.3","","-22.4","","77","","","M","17","","9","","","M","100.32","","","","-26","","NA"
"-135.01","68.22","AKLAVIK A","2200105","2020-02-18 19:00","2020","02","18","19:00","-17.6","","-20.4","","79","","","M","16","","10","","","M","100.22","","","","-24","","NA"
"-135.01","68.22","AKLAVIK A","2200105","2020-02-18 20:00","2020","02","18","20:00","-16.9","","-19.9","","78","","","M","16","","10","","","M","100.14","","","","-24","","NA"
"-135.01","68.22","AKLAVIK A","2200105","2020-02-18 21:00","2020","02","18","21:00","-16.7","","-19.6","","78","","","M","17","","10","","","M","100.08","","","","-23","","NA"
"-135.01","68.22","AKLAVIK A","2200105","2020-02-18 22:00","2020","02","18","22:00","-17.1","","-19.8","","80","","","M","17","","7","","","M","100.05","","","","-22","","NA"
"-135.01","68.22","AKLAVIK A","2200105","2020-02-18 23:00","2020","02","18","23:00","-16.8","","-19.4","","80","","","M","17","","10","","","M","99.97","","","","-23","","NA"
"-135.01","68.22","AKLAVIK A","2200105","2020-02-19 00:00","2020","02","19","00:00","-15.7","","-18.7","","78","","","M","16","","11","","","M","99.93","","","","-22","","NA"
"-135.01","68.22","AKLAVIK A","2200105","2020-02-19 01:00","2020","02","19","01:00","-15.5","","-18.5","","78","","","M","15","","11","","","M","99.90","","","","-22","","NA"
"-135.01","68.22","AKLAVIK A","2200105","2020-02-19 02:00","2020","02","19","02:00","-15.5","","-18.2","","80","","","M","13","","11","","","M","99.86","","","","-22","","NA"
"-135.01","68.22","AKLAVIK A","2200105","2020-02-19 03:00","2020","02","19","03:00","-15.5","","-18.2","","80","","","M","13","","8","","","M","99.86","","","","-21","","NA"
"-135.01","68.22","AKLAVIK A","2200105","2020-02-19 04:00","2020","02","19","04:00","-15.2","","-17.9","","80","","","M","13","","3","","","M","99.83","","","","-17","","NA"
"-135.01","68.22","AKLAVIK A","2200105","2020-02-19 05:00","2020","02","19","05:00","-15.4","","-18.0","","81","","","M","15","","5","","","M","99.74","","","","-19","","NA"
"-135.01","68.22","AKLAVIK A","2200105","2020-02-19 06:00","2020","02","19","06:00","-15.4","","-17.8","","82","","","M","19","","1","","","M","99.67","","","","-16","","NA"
"-135.01","68.22","AKLAVIK A","2200105","2020-02-19 07:00","2020","02","19","07:00","-16.6","","-18.4","","86","","","M","12","","5","","","M","99.59","","","","-20","","NA"
"-135.01","68.22","AKLAVIK A","2200105","2020-02-19 08:00","2020","02","19","08:00","-16.5","","-18.4","","85","","","M","0","","1","","","M","99.53","","","","-17","","NA"
"-135.01","68.22","AKLAVIK A","2200105","2020-02-19 09:00","2020","02","19","09:00","-15.3","","-17.3","","85","","","M","8","","3","","","M","99.48","","","","-17","","NA"
"-135.01","68.22","AKLAVIK A","2200105","2020-02-19 10:00","2020","02","19","10:00","-14.7","","-16.9","","84","","","M","3","","5","","","M","99.39","","","","-18","","NA"
"-135.01","68.22","AKLAVIK A","2200105","2020-02-19 11:00","2020","02","19","11:00","-14.3","","-16.6","","83","","","M","9","","5","","","M","99.34","","","","-18","","NA"
"-135.01","68.22","AKLAVIK A","2200105","2020-02-19 12:00","2020","02","19","12:00","-13.3","","-15.6","","83","","","M","17","","2","","","M","99.24","","","","-15","","NA"
"-135.01","68.22","AKLAVIK A","2200105","2020-02-19 13:00","2020","02","19","13:00","-13.1","","-15.6","","82","","","M","12","","1","","","M","99.17","","","","-14","","NA"
"-135.01","68.22","AKLAVIK A","2200105","2020-02-19 14:00","2020","02","19","14:00","-12.7","","-14.8","","85","","","M","17","","1","","","M","99.10","","","","-13","","NA"
"-135.01","68.22","AKLAVIK A","2200105","2020-02-19 15:00","2020","02","19","15:00","-12.3","","-14.1","","86","","","M","25","","3","","","M","99.01","","","","-14","","NA"
"-135.01","68.22","AKLAVIK A","2200105","2020-02-19 16:00","2020","02","19","16:00","-11.9","","-13.9","","85","","","M","32","","3","","","M","98.92","","","","-14","","NA"
"-135.01","68.22","AKLAVIK A","2200105","2020-02-19 17:00","2020","02","19","17:00","-12.0","","-13.8","","87","","","M","33","","5","","","M","98.88","","","","-15","","NA"
"-135.01","68.22","AKLAVIK A","2200105","2020-02-19 18:00","2020","02","19","18:00","-12.2","","-14.0","","87","","","M","32","","9","","","M","98.84","","","","-17","","NA"
"-135.01","68.22","AKLAVIK A","2200105","2020-02-19 19:00","2020","02","19","19:00","-12.5","","-14.3","","87","","","M","33","","9","","","M","98.82","","","","-18","","NA"
"-135.01","68.22","AKLAVIK A","2200105","2020-02-19 20:00","2020","02","19","20:00","-12.7","","-14.6","","86","","","M","32","","13","","","M","98.84","","","","-20","","NA"
"-135.01","68.22","AKLAVIK A","2200105","2020-02-19 21:00","2020","02","19","21:00","-12.8","","-15.0","","84","","","M","34","","7","","","M","98.84","","","","-17","","NA"
"-135.01","68.22","AKLAVIK A","2200105","2020-02-19 22:00","2020","02","19","22:00","-12.3","","-14.5","","84","","","M","35","","8","","","M","98.88","","","","-17","","NA"
"-135.01","68.22","AKLAVIK A","2200105","2020-02-19 23:00","2020","02","19","23:00","-12.5","","-14.4","","86","","","M","28","","4","","","M","98.93","","","","-15","","NA"
"-135.01","68.22","AKLAVIK A","2200105","2020-02-20 00:00","2020","02","20","00:00","-12.7","","-14.4","","87","","","M","24","","7","","","M","98.97","","","","-17","","NA"
"-135.01","68.22","AKLAVIK A","2200105","2020-02-20 01:00","2020","02","20","01:00","-11.3","","-13.1","","87","","","M","31","","10","","","M","99.06","","","","-17","","NA"
"-135.01","68.22","AKLAVIK A","2200105","2020-02-20 02:00","2020","02","20","02:00","-12.4","","-14.7","","84","","","M","33","","16","","","M","99.15","","","","-20","","NA"
"-135.01","68.22","AKLAVIK A","2200105","2020-02-20 03:00","2020","02","20","03:00","-13.8","","-16.2","","82","","","M","35","","16","","","M","99.25","","","","-22","","NA"
"-135.01","68.22","AKLAVIK A","2200105","2020-02-20 04:00","2020","02","20","04:00","-14.6","","-17.1","","81","","","M","34","","13","","","M","99.33","","","","-22","","NA"
"-135.01","68.22","AKLAVIK A","2200105","2020-02-20 05:00","2020","02","20","05:00","-15.1","","-17.7","","81","","","M","34","","16","","","M","99.37","","","","-23","","NA"
"-135.01","68.22","AKLAVIK A","2200105","2020-02-20 06:00","2020","02","20","06:00","-15.4","","-18.1","","80","","","M","35","","10","","","M","99.42","","","","-22","","NA"
"-135.01","68.22","AKLAVIK A","2200105","2020-02-20 07:00","2020","02","20","07:00","-15.8","","-18.8","","78","","","M","34","","10","","","M","99.46","","","","-22","","NA"
"-135.01","68.22","AKLAVIK A","2200105","2020-02-20 08:00","2020","02","20","08:00","-16.9","","-19.8","","79","","","M","34","","9","","","M","99.50","","","","-23","","NA"
"-135.01","68.22","AKLAVIK A","2200105","2020-02-20 09:00","2020","02","20","09:00","-18.0","","-20.4","","81","","","M","35","","8","","","M","99.48","","","","-24","","NA"
"-135.01","68.22","AKLAVIK A","2200105","2020-02-20 10:00","2020","02","20","10:00","-20.1","","-22.4","","82","","","M","34","","4","","","M","99.49","","","","-24","","NA"
"-135.01","68.22","AKLAVIK A","2200105","2020-02-20 11:00","2020","02","20","11:00","-21.2","","-23.3","","83","","","M","17","","5","","","M","99.53","","","","-26","","NA"
"-135.01","68.22","AKLAVIK A","2200105","2020-02-20 12:00","2020","02","20","12:00","-20.6","","-23.4","","79","","","M","14","","2","","","M","99.53","","","","-22","","NA"
"-135.01","68.22","AKLAVIK A","2200105","2020-02-20 13:00","2020","02","20","13:00","-17.7","","-20.7","","78","","","M","6","","2","","","M","99.53","","","","-19","","NA"
"-135.01","68.22","AKLAVIK A","2200105","2020-02-20 14:00","2020","02","20","14:00","-16.6","","-20.1","","75","","","M","34","","3","","","M","99.55","","","","-19","","NA"
"-135.01","68.22","AKLAVIK A","2200105","2020-02-20 15:00","2020","02","20","15:00","-16.3","","-19.9","","74","","","M","34","","4","","","M","99.53","","","","-19","","NA"
"-135.01","68.22","AKLAVIK A","2200105","2020-02-20 16:00","2020","02","20","16:00","-16.4","","-20.1","","74","","","M","36","","8","","","M","99.51","","","","-22","","NA"
"-135.01","68.22","AKLAVIK A","2200105","2020-02-20 17:00","2020","02","20","17:00","-16.4","","-19.9","","75","","","M","35","","8","","","M","99.46","","","","-22","","NA"
"-135.01","68.22","AKLAVIK A","2200105","2020-02-20 18:00","2020","02","20","18:00","-16.8","","-19.9","","77","","","M","35","","4","","","M","99.41","","","","-20","","NA"
"-135.01","68.22","AKLAVIK A","2200105","2020-02-20 19:00","2020","02","20","19:00","-17.0","","-19.9","","79","","","M","35","","8","","","M","99.35","","","","-23","","NA"
"-135.01","68.22","AKLAVIK A","2200105","2020-02-20 20:00","2020","02","20","20:00","-17.2","","-19.5","","82","","","M","1","","12","","","M","99.32","","","","-25","","NA"
"-135.01","68.22","AKLAVIK A","2200105","2020-02-20 21:00","2020","02","20","21:00","-17.3","","-18.7","","89","","","M","36","","10","","","M","99.33","","","","-24","","NA"
"-135.01","68.22","AKLAVIK A","2200105","2020-02-20 22:00","2020","02","20","22:00","-17.4","","-19.1","","87","","","M","35","","10","","","M","99.28","","","","-24","","NA"
"-135.01","68.22","AKLAVIK A","2200105","2020-02-20 23:00","2020","02","20","23:00","-17.5","","-19.4","","86","","","M","33","","10","","","M","99.22","","","","-24","","NA"
"-135.01","68.22","AKLAVIK A","2200105","2020-02-21 00:00","2020","02","21","00:00","-17.7","","-19.6","","85","","","M","32","","14","","","M","99.19","","","","-26","","NA"
"-135.01","68.22","AKLAVIK A","2200105","2020-02-21 01:00","2020","02","21","01:00","-17.7","","-19.7","","85","","","M","32","","16","","","M","99.15","","","","-27","","NA"
"-135.01","68.22","AKLAVIK A","2200105","2020-02-21 02:00","2020","02","21","02:00","-17.6","","-19.6","","85","","","M","33","","14","","","M","99.16","","","","-26","","NA"
"-135.01","68.22","AKLAVIK A","2200105","2020-02-21 03:00","2020","02","21","03:00","-17.6","","-19.6","","85","","","M","32","","15","","","M","99.17","","","","-26","","NA"
"-135.01","68.22","AKLAVIK A","2200105","2020-02-21 04:00","2020","02","21","04:00","-17.7","","-19.7","","85","","","M","32","","19","","","M","99.18","","","","-27","","NA"
"-135.01","68.22","AKLAVIK A","2200105","2020-02-21 05:00","2020","02","21","05:00","-17.7","","-19.7","","85","","","M","33","","18","","","M","99.18","","","","-27","","NA"
"-135.01","68.22","AKLAVIK A","2200105","2020-02-21 06:00","2020","02","21","06:00","-17.7","","-19.7","","84","","","M","33","","14","","","M","99.16","","","","-26","","NA"
"-135.01","68.22","AKLAVIK A","2200105","2020-02-21 07:00","2020","02","21","07:00","-17.7","","-19.8","","84","","","M","34","","16","","","M","99.16","","","","-27","","NA"
"-135.01","68.22","AKLAVIK A","2200105","2020-02-21 08:00","2020","02","21","08:00","-17.7","","-19.8","","84","","","M","32","","18","","","M","99.19","","","","-27","","NA"
"-135.01","68.22","AKLAVIK A","2200105","2020-02-21 09:00","2020","02","21","09:00","-17.7","","-19.8","","84","","","M","33","","18","","","M","99.18","","","","-27","","NA"
"-135.01","68.22","AKLAVIK A","2200105","2020-02-21 10:00","2020","02","21","10:00","-17.7","","-19.8","","84","","","M","32","","18","","","M","99.24","","","","-27","","NA"
"-135.01","68.22","AKLAVIK A","2200105","2020-02-21 11:00","2020","02","21","11:00","-17.7","","-19.7","","84","","","M","32","","18","","","M","99.30","","","","-27","","NA"
"-135.01","68.22","AKLAVIK A","2200105","2020-02-21 12:00","2020","02","21","12:00","-17.8","","-19.9","","84","","","M","32","","19","","","M","99.32","","","","-27","","NA"
"-135.01","68.22","AKLAVIK A","2200105","2020-02-21 13:00","2020","02","21","13:00","-17.8","","-19.9","","84","","","M","33","","19","","","M","99.36","","","","-27","","NA"
"-135.01","68.22","AKLAVIK A","2200105","2020-02-21 14:00","2020","02","21","14:00","-17.8","","-19.9","","84","","","M","32","","19","","","M","99.40","","","","-27","","NA"
"-135.01","68.22","AKLAVIK A","2200105","2020-02-21 15:00","2020","02","21","15:00","-17.9","","-20.0","","84","","","M","32","","17","","","M","99.47","","","","-27","","NA"
"-135.01","68.22","AKLAVIK A","2200105","2020-02-21 16:00","2020","02","21","16:00","-18.1","","-20.2","","84","","","M","32","","16","","","M","99.51","","","","-27","","NA"
"-135.01","68.22","AKLAVIK A","2200105","2020-02-21 17:00","2020","02","21","17:00","-18.1","","-20.2","","84","","","M","34","","12","","","M","99.57","","","","-26","","NA"
"-135.01","68.22","AKLAVIK A","2200105","2020-02-21 18:00","2020","02","21","18:00","-18.4","","-20.5","","84","","","M","34","","14","","","M","99.59","","","","-27","","NA"
"-135.01","68.22","AKLAVIK A","2200105","2020-02-21 19:00","2020","02","21","19:00","-18.6","","-20.7","","83","","","M","33","","8","","","M","99.64","","","","-25","","NA"
"-135.01","68.22","AKLAVIK A","2200105","2020-02-21 20:00","2020","02","21","20:00","-18.8","","-20.9","","83","","","M","34","","10","","","M","99.67","","","","-26","","NA"
"-135.01","68.22","AKLAVIK A","2200105","2020-02-21 21:00","2020","02","21","21:00","-18.9","","-21.1","","83","","","M","34","","9","","","M","99.70","","","","-25","","NA"
"-135.01","68.22","AKLAVIK A","2200105","2020-02-21 22:00","2020","02","21","22:00","-19.3","","-21.5","","83","","","M","34","","8","","","M","99.72","","","","-25","","NA"
"-135.01","68.22","AKLAVIK A","2200105","2020-02-21 23:00","2020","02","21","23:00","-19.3","","-21.6","","83","","","M","35","","7","","","M","99.76","","","","-25","","NA"
"-135.01","68.22","AKLAVIK A","2200105","2020-02-22 00:00","2020","02","22","00:00","-19.3","","-21.6","","82","","","M","35","","7","","","M","99.79","","","","-25","","NA"
"-135.01","68.22","AKLAVIK A","2200105","2020-02-22 01:00","2020","02","22","01:00","-19.4","","-21.6","","82","","","M","34","","7","","","M","99.85","","","","-25","","NA"
"-135.01","68.22","AKLAVIK A","2200105","2020-02-22 02:00","2020","02","22","02:00","-19.6","","-21.9","","82","","","M","35","","7","","","M","99.92","","","","-25","","NA"
"-135.01","68.22","AKLAVIK A","2200105","2020-02-22 03:00","2020","02","22","03:00","-20.0","","-22.4","","82","","","M","32","","5","","","M","99.99","","","","-24","","NA"
"-135.01","68.22","AKLAVIK A","2200105","2020-02-22 04:00","2020","02","22","04:00","-20.0","","-22.3","","82","","","M","31","","4","","","M","100.06","","","","-23","","NA"
"-135.01","68.22","AKLAVIK A","2200105","2020-02-22 05:00","2020","02","22","05:00","-20.1","","-22.4","","82","","","M","33","","7","","","M","100.11","","","","-26","","NA"
"-135.01","68.22","AKLAVIK A","2200105","2020-02-22 06:00","2020","02","22","06:00","-20.1","","-22.5","","81","","","M","33","","8","","","M","100.14","","","","-26","","NA"
"-135.01","68.22","AKLAVIK A","2200105","2020-02-22 07:00","2020","02","22","07:00","-20.0","","-22.4","","82","","","M","34","","5","","","M","100.19","","","","-24","","NA"
"-135.01","68.22","AKLAVIK A","2200105","2020-02-22 08:00","2020","02","22","08:00","-20.1","","-22.5","","82","","","M","30","","6","","","M","100.25","","","","-25","","NA"
"-135.01","68.22","AKLAVIK A","2200105","2020-02-22 09:00","2020","02","22","09:00","-19.9","","-22.3","","81","","","M","33","","5","","","M","100.31","","","","-24","","NA"
"-135.01","68.22","AKLAVIK A","2200105","2020-02-22 10:00","2020","02","22","10:00","-19.7","","-22.2","","81","","","M","33","","5","","","M","100.37","","","","-24","","NA"
"-135.01","68.22","AKLAVIK A","2200105","2020-02-22 11:00","2020","02","22","11:00","-19.6","","-22.1","","81","","","M","31","","6","","","M","100.44","","","","-25","","NA"
"-135.01","68.22","AKLAVIK A","2200105","2020-02-22 12:00","2020","02","22","12:00","-19.2","","-21.8","","81","","","M","31","","9","","","M","100.49","","","","-26","","NA"
"-135.01","68.22","AKLAVIK A","2200105","2020-02-22 13:00","2020","02","22","13:00","-18.7","","-21.3","","81","","","M","32","","10","","","M","100.57","","","","-26","","NA"
"-135.01","68.22","AKLAVIK A","2200105","2020-02-22 14:00","2020","02","22","14:00","-18.1","","-20.6","","81","","","M","32","","8","","","M","100.65","","","","-24","","NA"
"-135.01","68.22","AKLAVIK A","2200105","2020-02-22 15:00","2020","02","22","15:00","-17.7","","-20.2","","81","","","M","33","","6","","","M","100.72","","","","-22","","NA"
"-135.01","68.22","AKLAVIK A","2200105","2020-02-22 16:00","2020","02","22","16:00","-17.8","","-20.5","","80","","","M","33","","8","","","M","100.79","","","","-24","","NA"
"-135.01","68.22","AKLAVIK A","2200105","2020-02-22 17:00","2020","02","22","17:00","-18.2","","-20.8","","80","","","M","1","","10","","","M","100.86","","","","-25","","NA"
"-135.01","68.22","AKLAVIK A","2200105","2020-02-22 18:00","2020","02","22","18:00","-18.2","","-20.7","","81","","","M","35","","7","","","M","100.94","","","","-24","","NA"
"-135.01","68.22","AKLAVIK A","2200105","2020-02-22 19:00","2020","02","22","19:00","-18.6","","-21.2","","80","","","M","36","","12","","","M","101.01","","","","-26","","NA"
"-135.01","68.22","AKLAVIK A","2200105","2020-02-22 20:00","2020","02","22","20:00","-19.0","","-21.5","","80","","","M","34","","9","","","M","101.09","","","","-26","","NA"
"-135.01","68.22","AKLAVIK A","2200105","2020-02-22 21:00","2020","02","22","21:00","-19.3","","-21.9","","80","","","M","33","","9","","","M","101.15","","","","-26","","NA"
"-135.01","68.22","AKLAVIK A","2200105","2020-02-22 22:00","2020","02","22","22:00","-19.4","","-22.0","","80","","","M","35","","10","","","M","101.22","","","","-26","","NA"
"-135.01","68.22","AKLAVIK A","2200105","2020-02-22 23:00","2020","02","22","23:00","-19.3","","-21.8","","81","","","M","34","","7","","","M","101.28","","","","-25","","NA"
"-135.01","68.22","AKLAVIK A","2200105","2020-02-23 00:00","2020","02","23","00:00","-19.6","","-22.2","","80","","","M","34","","9","","","M","101.38","","","","-26","","NA"
"-135.01","68.22","AKLAVIK A","2200105","2020-02-23 01:00","2020","02","23","01:00","-19.9","","-22.7","","79","","","M","33","","12","","","M","101.45","","","","-28","","NA"
"-135.01","68.22","AKLAVIK A","2200105","2020-02-23 02:00","2020","02","23","02:00","-20.1","","-22.8","","79","","","M","34","","10","","","M","101.52","","","","-27","","NA"
"-135.01","68.22","AKLAVIK A","2200105","2020-02-23 03:00","2020","02","23","03:00","-19.9","","-22.6","","79","","","M","33","","12","","","M","101.59","","","","-28","","NA"
"-135.01","68.22","AKLAVIK A","2200105","2020-02-23 04:00","2020","02","23","04:00","-20.1","","-22.9","","79","","","M","33","","10","","","M","101.66","","","","-27","","NA"
"-135.01","68.22","AKLAVIK A","2200105","2020-02-23 05:00","2020","02","23","05:00","-20.2","","-23.0","","79","","","M","33","","12","","","M","101.73","","","","-28","","NA"
"-135.01","68.22","AKLAVIK A","2200105","2020-02-23 06:00","2020","02","23","06:00","-19.9","","-22.8","","78","","","M","34","","12","","","M","101.78","","","","-28","","NA"
"-135.01","68.22","AKLAVIK A","2200105","2020-02-23 07:00","2020","02","23","07:00","-19.9","","-22.9","","78","","","M","33","","10","","","M","101.83","","","","-27","","NA"
"-135.01","68.22","AKLAVIK A","2200105","2020-02-23 08:00","2020","02","23","08:00","-20.1","","-23.1","","77","","","M","34","","10","","","M","101.89","","","","-27","","NA"
"-135.01","68.22","AKLAVIK A","2200105","2020-02-23 09:00","2020","02","23","09:00","-20.1","","-23.3","","76","","","M","34","","12","","","M","101.94","","","","-28","","NA"
"-135.01","68.22","AKLAVIK A","2200105","2020-02-23 10:00","2020","02","23","10:00","-20.1","","-23.2","","77","","","M","33","","10","","","M","102.02","","","","-27","","NA"
"-135.01","68.22","AKLAVIK A","2200105","2020-02-23 11:00","2020","02","23","11:00","-20.2","","-23.3","","76","","","M","34","","11","","","M","102.08","","","","-28","","NA"
"-135.01","68.22","AKLAVIK A","2200105","2020-02-23 12:00","2020","02","23","12:00","-19.8","","-23.1","","76","","","M","33","","8","","","M","102.15","","","","-26","","NA"
"-135.01","68.22","AKLAVIK A","2200105","2020-02-23 13:00","2020","02","23","13:00","-19.1","","-22.5","","75","","","M","34","","8","","","M","102.21","","","","-25","","NA"
"-135.01","68.22","AKLAVIK A","2200105","2020-02-23 14:00","2020","02","23","14:00","-19.4","","-23.0","","73","","","M","35","","8","","","M","102.28","","","","-26","","NA"
"-135.01","68.22","AKLAVIK A","2200105","2020-02-23 15:00","2020","02","23","15:00","-19.2","","-22.5","","75","","","M","30","","6","","","M","102.37","","","","-24","","NA"
"-135.01","68.22","AKLAVIK A","2200105","2020-02-23 16:00","2020","02","23","16:00","-18.7","","-22.0","","76","","","M","30","","7","","","M","102.41","","","","-24","","NA"
"-135.01","68.22","AKLAVIK A","2200105","2020-02-23 17:00","2020","02","23","17:00","-18.6","","-21.6","","77","","","M","32","","10","","","M","102.47","","","","-26","","NA"
"-135.01","68.22","AKLAVIK A","2200105","2020-02-23 18:00","2020","02","23","18:00","-18.8","","-21.8","","78","","","M","32","","5","","","M","102.51","","","","-23","","NA"
"-135.01","68.22","AKLAVIK A","2200105","2020-02-23 19:00","2020","02","23","19:00","-19.0","","-21.8","","79","","","M","29","","6","","","M","102.57","","","","-24","","NA"
"-135.01","68.22","AKLAVIK A","2200105","2020-02-23 20:00","2020","02","23","20:00","-19.1","","-22.3","","77","","","M","25","","3","","","M","102.63","","","","-22","","NA"
"-135.01","68.22","AKLAVIK A","2200105","2020-02-23 21:00","2020","02","23","21:00","-19.6","","-22.6","","77","","","M","27","","6","","","M","102.69","","","","-25","","NA"
"-135.01","68.22","AKLAVIK A","2200105","2020-02-23 22:00","2020","02","23","22:00","-21.3","","-23.9","","81","","","M","24","","5","","","M","102.72","","","","-26","","NA"
"-135.01","68.22","AKLAVIK A","2200105","2020-02-23 23:00","2020","02","23","23:00","-22.9","","-25.3","","81","","","M","22","","6","","","M","102.78","","","","-28","","NA"
"-135.01","68.22","AKLAVIK A","2200105","2020-02-24 00:00","2020","02","24","00:00","-24.9","","-27.6","","79","","","M","22","","6","","","M","102.83","","","","-31","","NA"
"-135.01","68.22","AKLAVIK A","2200105","2020-02-24 01:00","2020","02","24","01:00","-25.7","","-28.0","","81","","","M","26","","3","","","M","102.88","","","","-29","","NA"
"-135.01","68.22","AKLAVIK A","2200105","2020-02-24 02:00","2020","02","24","02:00","-27.9","","-30.7","","77","","","M","20","","5","","","M","102.93","","","","-33","","NA"
"-135.01","68.22","AKLAVIK A","2200105","2020-02-24 03:00","2020","02","24","03:00","-29.2","","-32.1","","76","","","M","17","","4","","","M","102.97","","","","-34","","NA"
"-135.01","68.22","AKLAVIK A","2200105","2020-02-24 04:00","2020","02","24","04:00","-27.6","","-30.0","","80","","","M","18","","9","","","M","103.02","","","","-36","","NA"
"-135.01","68.22","AKLAVIK A","2200105","2020-02-24 05:00","2020","02","24","05:00","-28.7","","-31.5","","77","","","M","16","","4","","","M","103.07","","","","-33","","NA"
"-135.01","68.22","AKLAVIK A","2200105","2020-02-24 06:00","2020","02","24","06:00","-29.9","","-32.9","","75","","","M","11","","5","","","M","103.09","","","","-36","","NA"
"-135.01","68.22","AKLAVIK A","2200105","2020-02-24 07:00","2020","02","24","07:00","-26.2","","-28.8","","79","","","M","15","","7","","","M","103.11","","","","-33","","NA"
"-135.01","68.22","AKLAVIK A","2200105","2020-02-24 08:00","2020","02","24","08:00","-27.6","","-30.4","","77","","","M","12","","7","","","M","103.18","","","","-34","","NA"
"-135.01","68.22","AKLAVIK A","2200105","2020-02-24 09:00","2020","02","24","09:00","-24.9","","-27.6","","79","","","M","12","","6","","","M","103.22","","","","-31","","NA"
"-135.01","68.22","AKLAVIK A","2200105","2020-02-24 10:00","2020","02","24","10:00","-24.1","","-26.8","","79","","","M","12","","9","","","M","103.25","","","","-32","","NA"
"-135.01","68.22","AKLAVIK A","2200105","2020-02-24 11:00","2020","02","24","11:00","-22.9","","-25.5","","80","","","M","12","","7","","","M","103.27","","","","-29","","NA"
"-135.01","68.22","AKLAVIK A","2200105","2020-02-24 12:00","2020","02","24","12:00","-22.6","","-25.2","","80","","","M","10","","6","","","M","103.32","","","","-28","","NA"
"-135.01","68.22","AKLAVIK A","2200105","2020-02-24 13:00","2020","02","24","13:00","-22.2","","-24.8","","80","","","M","11","","6","","","M","103.36","","","","-28","","NA"
"-135.01","68.22","AKLAVIK A","2200105","2020-02-24 14:00","2020","02","24","14:00","-21.8","","-24.3","","80","","","M","3","","3","","","M","103.41","","","","-25","","NA"
"-135.01","68.22","AKLAVIK A","2200105","2020-02-24 15:00","2020","02","24","15:00","-21.3","","-23.9","","80","","","M","36","","4","","","M","103.46","","","","-25","","NA"
"-135.01","68.22","AKLAVIK A","2200105","2020-02-24 16:00","2020","02","24","16:00","-21.2","","-23.8","","80","","","M","34","","5","","","M","103.50","","","","-26","","NA"
"-135.01","68.22","AKLAVIK A","2200105","2020-02-24 17:00","2020","02","24","17:00","-21.0","","-23.6","","80","","","M","34","","4","","","M","103.53","","","","-25","","NA"
"-135.01","68.22","AKLAVIK A","2200105","2020-02-24 18:00","2020","02","24","18:00","-21.4","","-24.0","","79","","","M","32","","4","","","M","103.56","","","","-25","","NA"
"-135.01","68.22","AKLAVIK A","2200105","2020-02-24 19:00","2020","02","24","19:00","-23.2","","-25.6","","81","","","M","30","","3","","","M","103.59","","","","-26","","NA"
"-135.01","68.22","AKLAVIK A","2200105","2020-02-24 20:00","2020","02","24","20:00","-24.9","","-27.3","","81","","","M","29","","4","","","M","103.58","","","","-29","","NA"
"-135.01","68.22","AKLAVIK A","2200105","2020-02-24 21:00","2020","02","24","21:00","-28.2","","-31.0","","77","","","M","21","","2","","","M","103.56","","","","-30","","NA"
"-135.01","68.22","AKLAVIK A","2200105","2020-02-24 22:00","2020","02","24","22:00","-29.2","","-32.0","","77","","","M","28","","2","","","M","103.55","","","","-31","","NA"
"-135.01","68.22","AKLAVIK A","2200105","2020-02-24 23:00","2020","02","24","23:00","-30.6","","-33.5","","76","","","M","11","","5","","","M","103.52","","","","-36","","NA"
"-135.01","68.22","AKLAVIK A","2200105","2020-02-25 00:00","2020","02","25","00:00","-33.0","","-36.3","","73","","","M","15","","4","","","M","103.47","","","","-38","","NA"
"-135.01","68.22","AKLAVIK A","2200105","2020-02-25 01:00","2020","02","25","01:00","-32.9","","-36.3","","73","","","M","20","","6","","","M","103.42","","","","-40","","NA"
"-135.01","68.22","AKLAVIK A","2200105","2020-02-25 02:00","2020","02","25","02:00","-33.3","","-36.5","","73","","","M","","","0","","","M","103.35","","","","","","NA"
"-135.01","68.22","AKLAVIK A","2200105","2020-02-25 03:00","2020","02","25","03:00","-34.9","","-38.3","","72","","","M","21","","4","","","M","103.33","","","","-40","","NA"
"-135.01","68.22","AKLAVIK A","2200105","2020-02-25 04:00","2020","02","25","04:00","-32.4","","-35.3","","76","","","M","12","","9","","","M","103.24","","","","-41","","NA"
"-135.01","68.22","AKLAVIK A","2200105","2020-02-25 05:00","2020","02","25","05:00","-32.6","","-35.9","","73","","","M","25","","4","","","M","103.19","","","","-37","","NA"
"-135.01","68.22","AKLAVIK A","2200105","2020-02-25 06:00","2020","02","25","06:00","-31.6","","-34.9","","74","","","M","12","","5","","","M","103.06","","","","-37","","NA"
"-135.01","68.22","AKLAVIK A","2200105","2020-02-25 07:00","2020","02","25","07:00","-32.5","","-35.8","","73","","","M","10","","6","","","M","102.96","","","","-39","","NA"
"-135.01","68.22","AKLAVIK A","2200105","2020-02-25 08:00","2020","02","25","08:00","-34.3","","-37.7","","72","","","M","12","","10","","","M","102.87","","","","-44","","NA"
"-135.01","68.22","AKLAVIK A","2200105","2020-02-25 09:00","2020","02","25","09:00","-35.4","","-39.0","","71","","","M","12","","11","","","M","102.77","","","","-46","","NA"
"-135.01","68.22","AKLAVIK A","2200105","2020-02-25 10:00","2020","02","25","10:00","-35.2","","-38.7","","71","","","M","","","0","","","M","102.71","","","","","","NA"
"-135.01","68.22","AKLAVIK A","2200105","2020-02-25 11:00","2020","02","25","11:00","-31.8","","-35.1","","73","","","M","18","","6","","","M","102.62","","","","-39","","NA"
"-135.01","68.22","AKLAVIK A","2200105","2020-02-25 12:00","2020","02","25","12:00","-29.3","","-32.4","","75","","","M","16","","4","","","M","102.56","","","","-34","","NA"
"-135.01","68.22","AKLAVIK A","2200105","2020-02-25 13:00","2020","02","25","13:00","-26.8","","-29.7","","77","","","M","17","","6","","","M","102.49","","","","-33","","NA"
"-135.01","68.22","AKLAVIK A","2200105","2020-02-25 14:00","2020","02","25","14:00","-25.2","","-28.1","","78","","","M","15","","9","","","M","102.40","","","","-33","","NA"
"-135.01","68.22","AKLAVIK A","2200105","2020-02-25 15:00","2020","02","25","15:00","-24.4","","-27.2","","78","","","M","12","","7","","","M","102.34","","","","-31","","NA"
"-135.01","68.22","AKLAVIK A","2200105","2020-02-25 16:00","2020","02","25","16:00","-23.9","","-26.6","","79","","","M","14","","7","","","M","102.26","","","","-30","","NA"
"-135.01","68.22","AKLAVIK A","2200105","2020-02-25 17:00","2020","02","25","17:00","-22.7","","-25.3","","80","","","M","15","","5","","","M","102.20","","","","-27","","NA"
"-135.01","68.22","AKLAVIK A","2200105","2020-02-25 18:00","2020","02","25","18:00","-23.1","","-25.8","","79","","","M","17","","6","","","M","102.15","","","","-29","","NA"
"-135.01","68.22","AKLAVIK A","2200105","2020-02-25 19:00","2020","02","25","19:00","-24.5","","-27.3","","78","","","M","12","","4","","","M","102.09","","","","-28","","NA"
"-135.01","68.22","AKLAVIK A","2200105","2020-02-25 20:00","2020","02","25","20:00","-25.4","","-28.3","","78","","","M","14","","7","","","M","102.08","","","","-32","","NA"
"-135.01","68.22","AKLAVIK A","2200105","2020-02-25 21:00","2020","02","25","21:00","-26.9","","-29.9","","77","","","M","14","","8","","","M","102.06","","","","-34","","NA"
"-135.01","68.22","AKLAVIK A","2200105","2020-02-25 22:00","2020","02","25","22:00","-27.0","","-29.9","","77","","","M","14","","9","","","M","102.03","","","","-35","","NA"
"-135.01","68.22","AKLAVIK A","2200105","2020-02-25 23:00","2020","02","25","23:00","-27.5","","-30.5","","76","","","M","14","","8","","","M","101.99","","","","-35","","NA"
"-135.01","68.22","AKLAVIK A","2200105","2020-02-26 00:00","2020","02","26","00:00","-27.7","","-30.8","","76","","","M","16","","3","","","M","101.98","","","","-31","","NA"
"-135.01","68.22","AKLAVIK A","2200105","2020-02-26 01:00","2020","02","26","01:00","-31.0","","-34.3","","74","","","M","10","","5","","","M","102.00","","","","-37","","NA"
"-135.01","68.22","AKLAVIK A","2200105","2020-02-26 02:00","2020","02","26","02:00","-32.6","","-36.0","","73","","","M","1","","3","","","M","102.01","","","","-36","","NA"
"-135.01","68.22","AKLAVIK A","2200105","2020-02-26 03:00","2020","02","26","03:00","-32.8","","-36.2","","72","","","M","6","","4","","","M","102.00","","","","-38","","NA"
"-135.01","68.22","AKLAVIK A","2200105","2020-02-26 04:00","2020","02","26","04:00","-33.6","","-37.0","","72","","","M","14","","5","","","M","101.99","","","","-40","","NA"
"-135.01","68.22","AKLAVIK A","2200105","2020-02-26 05:00","2020","02","26","05:00","-33.4","","-36.8","","72","","","M","16","","6","","","M","101.97","","","","-40","","NA"
"-135.01","68.22","AKLAVIK A","2200105","2020-02-26 06:00","2020","02","26","06:00","-33.3","","-36.7","","72","","","M","19","","6","","","M","101.96","","","","-40","","NA"
"-135.01","68.22","AKLAVIK A","2200105","2020-02-26 07:00","2020","02","26","07:00","-33.7","","-37.2","","72","","","M","23","","3","","","M","101.97","","","","-37","","NA"
"-135.01","68.22","AKLAVIK A","2200105","2020-02-26 08:00","2020","02","26","08:00","-34.2","","-37.7","","71","","","M","26","","3","","","M","101.95","","","","-38","","NA"
"-135.01","68.22","AKLAVIK A","2200105","2020-02-26 09:00","2020","02","26","09:00","-33.8","","-37.2","","72","","","M","27","","5","","","M","101.96","","","","-40","","NA"
"-135.01","68.22","AKLAVIK A","2200105","2020-02-26 10:00","2020","02","26","10:00","-31.6","","-35.0","","73","","","M","2","","1","","","M","101.93","","","","-33","","NA"
"-135.01","68.22","AKLAVIK A","2200105","2020-02-26 11:00","2020","02","26","11:00","-28.6","","-31.7","","75","","","M","25","","1","","","M","101.93","","","","-30","","NA"
"-135.01","68.22","AKLAVIK A","2200105","2020-02-26 12:00","2020","02","26","12:00","-26.3","","-29.2","","77","","","M","1","","5","","","M","101.93","","","","-31","","NA"
"-135.01","68.22","AKLAVIK A","2200105","2020-02-26 13:00","2020","02","26","13:00","-20.5","","-22.9","","81","","","M","35","","8","","","M","101.92","","","","-27","","NA"
"-135.01","68.22","AKLAVIK A","2200105","2020-02-26 14:00","2020","02","26","14:00","-19.2","","-21.6","","82","","","M","32","","11","","","M","101.97","","","","-27","","NA"
"-135.01","68.22","AKLAVIK A","2200105","2020-02-26 15:00","2020","02","26","15:00","-20.1","","-22.6","","81","","","M","34","","26","","","M","101.96","","","","-32","","NA"
"-135.01","68.22","AKLAVIK A","2200105","2020-02-26 16:00","2020","02","26","16:00","-21.2","","-23.7","","81","","","M","34","","18","","","M","101.99","","","","-31","","NA"
"-135.01","68.22","AKLAVIK A","2200105","2020-02-26 17:00","2020","02","26","17:00","-22.1","","-24.7","","80","","","M","33","","22","","","M","102.01","","","","-34","","NA"
"-135.01","68.22","AKLAVIK A","2200105","2020-02-26 18:00","2020","02","26","18:00","-22.6","","-25.2","","80","","","M","33","","17","","","M","102.04","","","","-33","","NA"
"-135.01","68.22","AKLAVIK A","2200105","2020-02-26 19:00","2020","02","26","19:00","-23.5","","-26.2","","79","","","M","33","","18","","","M","102.05","","","","-34","","NA"
"-135.01","68.22","AKLAVIK A","2200105","2020-02-26 20:00","2020","02","26","20:00","-23.8","","-26.5","","79","","","M","33","","21","","","M","102.10","","","","-36","","NA"
"-135.01","68.22","AKLAVIK A","2200105","2020-02-26 21:00","2020","02","26","21:00","-24.0","","-26.8","","79","","","M","33","","17","","","M","102.14","","","","-35","","NA"
"-135.01","68.22","AKLAVIK A","2200105","2020-02-26 22:00","2020","02","26","22:00","-24.7","","-27.5","","78","","","M","34","","22","","","M","102.14","","","","-37","","NA"
"-135.01","68.22","AKLAVIK A","2200105","2020-02-26 23:00","2020","02","26","23:00","-25.5","","-28.4","","77","","","M","34","","12","","","M","102.15","","","","-35","","NA"
"-135.01","68.22","AKLAVIK A","2200105","2020-02-27 00:00","2020","02","27","00:00","-26.8","","-29.8","","76","","","M","35","","13","","","M","102.17","","","","-37","","NA"
"-135.01","68.22","AKLAVIK A","2200105","2020-02-27 01:00","2020","02","27","01:00","-27.2","","-30.2","","76","","","M","34","","13","","","M","102.20","","","","-37","","NA"
"-135.01","68.22","AKLAVIK A","2200105","2020-02-27 02:00","2020","02","27","02:00","-28.4","","-31.5","","75","","","M","35","","16","","","M","102.23","","","","-40","","NA"
"-135.01","68.22","AKLAVIK A","2200105","2020-02-27 03:00","2020","02","27","03:00","-30.2","","-33.4","","74","","","M","36","","10","","","M","102.26","","","","-39","","NA"
"-135.01","68.22","AKLAVIK A","2200105","2020-02-27 04:00","2020","02","27","04:00","-29.9","","-33.1","","74","","","M","34","","10","","","M","102.26","","","","-39","","NA"
"-135.01","68.22","AKLAVIK A","2200105","2020-02-27 05:00","2020","02","27","05:00","-31.6","","-34.9","","74","","","M","36","","11","","","M","102.29","","","","-42","","NA"
"-135.01","68.22","AKLAVIK A","2200105","2020-02-27 06:00","2020","02","27","06:00","-32.7","","-36.0","","73","","","M","2","","4","","","M","102.29","","","","-37","","NA"
"-135.01","68.22","AKLAVIK A","2200105","2020-02-27 07:00","2020","02","27","07:00","-32.9","","-36.2","","73","","","M","28","","3","","","M","102.29","","","","-37","","NA"
"-135.01","68.22","AKLAVIK A","2200105","2020-02-27 08:00","2020","02","27","08:00","-34.3","","-37.7","","72","","","M","26","","5","","","M","102.31","","","","-41","","NA"
"-135.01","68.22","AKLAVIK A","2200105","2020-02-27 09:00","2020","02","27","09:00","-35.6","","-39.2","","71","","","M","24","","5","","","M","102.31","","","","-42","","NA"
"-135.01","68.22","AKLAVIK A","2200105","2020-02-27 10:00","2020","02","27","10:00","-35.9","","-39.4","","71","","","M","24","","4","","","M","102.31","","","","-41","","NA"
"-135.01","68.22","AKLAVIK A","2200105","2020-02-27 11:00","2020","02","27","11:00","-33.7","","-37.1","","72","","","M","24","","3","","","M","102.30","","","","-37","","NA"
"-135.01","68.22","AKLAVIK A","2200105","2020-02-27 12:00","2020","02","27","12:00","-31.3","","-34.6","","73","","","M","18","","4","","","M","102.29","","","","-36","","NA"
"-135.01","68.22","AKLAVIK A","2200105","2020-02-27 13:00","2020","02","27","13:00","-29.2","","-32.4","","74","","","M","18","","8","","","M","102.27","","","","-37","","NA"
"-135.01","68.22","AKLAVIK A","2200105","2020-02-27 14:00","2020","02","27","14:00","-28.2","","-31.5","","74","","","M","14","","5","","","M","102.23","","","","-34","","NA"
"-135.01","68.22","AKLAVIK A","2200105","2020-02-27 15:00","2020","02","27","15:00","-27.6","","-31.0","","73","","","M","14","","6","","","M","102.20","","","","-34","","NA"
"-135.01","68.22","AKLAVIK A","2200105","2020-02-27 16:00","2020","02","27","16:00","-26.9","","-30.6","","72","","","M","15","","9","","","M","102.17","","","","-35","","NA"
"-135.01","68.22","AKLAVIK A","2200105","2020-02-27 17:00","2020","02","27","17:00","-26.9","","-30.8","","70","","","M","13","","8","","","M","102.14","","","","-34","","NA"
"-135.01","68.22","AKLAVIK A","2200105","2020-02-27 18:00","2020","02","27","18:00","-27.4","","-31.1","","71","","","M","12","","8","","","M","102.13","","","","-35","","NA"
"-135.01","68.22","AKLAVIK A","2200105","2020-02-27 19:00","2020","02","27","19:00","-28.9","","-32.0","","75","","","M","12","","8","","","M","102.13","","","","-37","","NA"
"-135.01","68.22","AKLAVIK A","2200105","2020-02-27 20:00","2020","02","27","20:00","-30.0","","-33.0","","76","","","M","13","","8","","","M","102.13","","","","-38","","NA"
"-135.01","68.22","AKLAVIK A","2200105","2020-02-27 21:00","2020","02","27","21:00","-30.4","","-33.3","","77","","","M","13","","9","","","M","102.11","","","","-39","","NA"
"-135.01","68.22","AKLAVIK A","2200105","2020-02-27 22:00","2020","02","27","22:00","-30.7","","-33.7","","76","","","M","14","","8","","","M","102.12","","","","-39","","NA"
"-135.01","68.22","AKLAVIK A","2200105","2020-02-27 23:00","2020","02","27","23:00","-31.9","","-34.9","","75","","","M","14","","8","","","M","102.10","","","","-40","","NA"
"-135.01","68.22","AKLAVIK A","2200105","2020-02-28 00:00","2020","02","28","00:00","-32.6","","-35.7","","74","","","M","14","","8","","","M","102.09","","","","-41","","NA"
"-135.01","68.22","AKLAVIK A","2200105","2020-02-28 01:00","2020","02","28","01:00","-33.3","","-36.5","","74","","","M","13","","8","","","M","102.09","","","","-42","","NA"
"-135.01","68.22","AKLAVIK A","2200105","2020-02-28 02:00","2020","02","28","02:00","-33.6","","-36.8","","74","","","M","13","","11","","","M","102.07","","","","-44","","NA"
"-135.01","68.22","AKLAVIK A","2200105","2020-02-28 03:00","2020","02","28","03:00","-34.0","","-37.3","","73","","","M","14","","12","","","M","102.05","","","","-45","","NA"
"-135.01","68.22","AKLAVIK A","2200105","2020-02-28 04:00","2020","02","28","04:00","-34.2","","-37.4","","73","","","M","13","","11","","","M","102.04","","","","-45","","NA"
"-135.01","68.22","AKLAVIK A","2200105","2020-02-28 05:00","2020","02","28","05:00","-34.6","","-37.9","","73","","","M","13","","11","","","M","102.02","","","","-45","","NA"
"-135.01","68.22","AKLAVIK A","2200105","2020-02-28 06:00","2020","02","28","06:00","-34.6","","-37.9","","73","","","M","13","","7","","","M","102.01","","","","-43","","NA"
"-135.01","68.22","AKLAVIK A","2200105","2020-02-28 07:00","2020","02","28","07:00","-34.8","","-38.1","","72","","","M","13","","13","","","M","102.02","","","","-46","","NA"
"-135.01","68.22","AKLAVIK A","2200105","2020-02-28 08:00","2020","02","28","08:00","-34.8","","-38.2","","72","","","M","15","","8","","","M","102.04","","","","-44","","NA"
"-135.01","68.22","AKLAVIK A","2200105","2020-02-28 09:00","2020","02","28","09:00","-34.6","","-38.0","","72","","","M","14","","8","","","M","102.05","","","","-43","","NA"
"-135.01","68.22","AKLAVIK A","2200105","2020-02-28 10:00","2020","02","28","10:00","-33.8","","-37.1","","72","","","M","14","","11","","","M","102.04","","","","-44","","NA"
"-135.01","68.22","AKLAVIK A","2200105","2020-02-28 11:00","2020","02","28","11:00","-32.7","","-36.0","","73","","","M","15","","9","","","M","102.04","","","","-42","","NA"
"-135.01","68.22","AKLAVIK A","2200105","2020-02-28 12:00","2020","02","28","12:00","-31.0","","-34.3","","74","","","M","15","","9","","","M","102.05","","","","-40","","NA"
"-135.01","68.22","AKLAVIK A","2200105","2020-02-28 13:00","2020","02","28","13:00","-29.5","","-32.8","","74","","","M","15","","10","","","M","102.07","","","","-39","","NA"
"-135.01","68.22","AKLAVIK A","2200105","2020-02-28 14:00","2020","02","28","14:00","-28.2","","-31.4","","74","","","M","14","","9","","","M","102.07","","","","-36","","NA"
"-135.01","68.22","AKLAVIK A","2200105","2020-02-28 15:00","2020","02","28","15:00","-26.5","","-29.8","","75","","","M","16","","11","","","M","102.11","","","","-35","","NA"
"-135.01","68.22","AKLAVIK A","2200105","2020-02-28 16:00","2020","02","28","16:00","-26.4","","-29.8","","74","","","M","14","","7","","","M","102.11","","","","-33","","NA"
"-135.01","68.22","AKLAVIK A","2200105","2020-02-28 17:00","2020","02","28","17:00","-26.3","","-29.7","","74","","","M","14","","7","","","M","102.11","","","","-33","","NA"
"-135.01","68.22","AKLAVIK A","2200105","2020-02-28 18:00","2020","02","28","18:00","-26.8","","-30.3","","73","","","M","14","","11","","","M","102.09","","","","-36","","NA"
"-135.01","68.22","AKLAVIK A","2200105","2020-02-28 19:00","2020","02","28","19:00","-27.5","","-30.7","","75","","","M","15","","7","","","M","102.11","","","","-34","","NA"
"-135.01","68.22","AKLAVIK A","2200105","2020-02-28 20:00","2020","02","28","20:00","-28.7","","-31.8","","76","","","M","16","","6","","","M","102.14","","","","-35","","NA"
"-135.01","68.22","AKLAVIK A","2200105","2020-02-28 21:00","2020","02","28","21:00","-29.9","","-32.9","","76","","","M","15","","9","","","M","102.11","","","","-38","","NA"
"-135.01","68.22","AKLAVIK A","2200105","2020-02-28 22:00","2020","02","28","22:00","-31.3","","-34.5","","74","","","M","14","","9","","","M","102.09","","","","-40","","NA"
"-135.01","68.22","AKLAVIK A","2200105","2020-02-28 23:00","2020","02","28","23:00","-31.0","","-34.0","","75","","","M","16","","8","","","M","102.05","","","","-39","","NA"
"-135.01","68.22","AKLAVIK A","2200105","2020-02-29 00:00","2020","02","29","00:00","-32.0","","-35.2","","74","","","M","15","","10","","","M","102.04","","","","-42","","NA"
"-135.01","68.22","AKLAVIK A","2200105","2020-02-29 01:00","2020","02","29","01:00","-32.7","","-36.0","","73","","","M","14","","8","","","M","102.01","","","","-41","","NA"
"-135.01","68.22","AKLAVIK A","2200105","2020-02-29 02:00","2020","02","29","02:00","-33.4","","-36.7","","73","","","M","12","","8","","","M","101.98","","","","-42","","NA"
"-135.01","68.22","AKLAVIK A","2200105","2020-02-29 03:00","2020","02","29","03:00","-33.2","","-36.6","","72","","","M","14","","8","","","M","101.94","","","","-42","","NA"
"-135.01","68.22","AKLAVIK A","2200105","2020-02-29 04:00","2020","02","29","04:00","-33.7","","-37.0","","73","","","M","13","","7","","","M","101.92","","","","-42","","NA"
"-135.01","68.22","AKLAVIK A","2200105","2020-02-29 05:00","2020","02","29","05:00","-33.6","","-37.1","","72","","","M","16","","6","","","M","","M","","","-41","","NA"
"-135.01","68.22","AKLAVIK A","2200105","2020-02-29 06:00","2020","02","29","06:00","-33.4","","-36.7","","73","","","M","15","","7","","","M","101.85","","","","-41","","NA"
"-135.01","68.22","AKLAVIK A","2200105","2020-02-29 07:00","2020","02","29","07:00","-33.6","","-37.1","","72","","","M","16","","5","","","M","101.82","","","","-40","","NA"
"-135.01","68.22","AKLAVIK A","2200105","2020-02-29 08:00","2020","02","29","08:00","-33.7","","-37.2","","72","","","M","12","","7","","","M","101.78","","","","-42","","NA"
"-135.01","68.22","AKLAVIK A","2200105","2020-02-29 09:00","2020","02","29","09:00","-33.0","","-36.4","","72","","","M","11","","5","","","M","101.75","","","","-39","","NA"
"-135.01","68.22","AKLAVIK A","2200105","2020-02-29 10:00","2020","02","29","10:00","-32.1","","-35.5","","72","","","M","11","","4","","","M","101.72","","","","-37","","NA"
"-135.01","68.22","AKLAVIK A","2200105","2020-02-29 11:00","2020","02","29","11:00","-31.6","","-35.0","","73","","","M","11","","5","","","M","101.69","","","","-37","","NA"
"-135.01","68.22","AKLAVIK A","2200105","2020-02-29 12:00","2020","02","29","12:00","-30.0","","-33.4","","73","","","M","18","","8","","","M","101.63","","","","-38","","NA"
"-135.01","68.22","AKLAVIK A","2200105","2020-02-29 13:00","2020","02","29","13:00","-29.5","","-32.8","","74","","","M","14","","7","","","M","101.59","","","","-37","","NA"
"-135.01","68.22","AKLAVIK A","2200105","2020-02-29 14:00","2020","02","29","14:00","-28.6","","-31.9","","74","","","M","15","","5","","","M","101.51","","","","-34","","NA"
"-135.01","68.22","AKLAVIK A","2200105","2020-02-29 15:00","2020","02","29","15:00","-27.6","","-30.9","","74","","","M","14","","7","","","M","101.43","","","","-34","","NA"
"-135.01","68.22","AKLAVIK A","2200105","2020-02-29 16:00","2020","02","29","16:00","-27.1","","-30.7","","72","","","M","15","","7","","","M","101.37","","","","-34","","NA"
"-135.01","68.22","AKLAVIK A","2200105","2020-02-29 17:00","2020","02","29","17:00","-26.0","","-30.2","","68","","","M","14","","5","","","M","101.28","","","","-31","","NA"
"-135.01","68.22","AKLAVIK A","2200105","2020-02-29 18:00","2020","02","29","18:00","-25.5","","-30.0","","67","","","M","14","","4","","","M","101.21","","","","-30","","NA"
"-135.01","68.22","AKLAVIK A","2200105","2020-02-29 19:00","2020","02","29","19:00","-27.4","","-31.3","","71","","","M","10","","1","","","M","101.10","","","","-28","","NA"
"-135.01","68.22","AKLAVIK A","2200105","2020-02-29 20:00","2020","02","29","20:00","-30.1","","-33.2","","75","","","M","16","","5","","","M","101.00","","","","-36","","NA"
"-135.01","68.22","AKLAVIK A","2200105","2020-02-29 21:00","2020","02","29","21:00","-30.4","","-33.3","","76","","","M","15","","7","","","M","100.90","","","","-38","","NA"
"-135.01","68.22","AKLAVIK A","2200105","2020-02-29 22:00","2020","02","29","22:00","-32.1","","-35.1","","75","","","M","10","","7","","","M","100.77","","","","-40","","NA"
"-135.01","68.22","AKLAVIK A","2200105","2020-02-29 23:00","2020","02","29","23:00","-30.0","","-32.7","","78","","","M","15","","10","","","M","100.66","","","","-39","","NA"
