"Longitude (x)","Latitude (y)","Station Name","Climate ID","Date/Time (LST)","Year","Month","Day","Time (LST)","Temp (°C)","Temp Flag","Dew Point Temp (°C)","Dew Point Temp Flag","Rel Hum (%)","Rel Hum Flag","Precip. Amount (mm)","Precip. Amount Flag","Wind Dir (10s deg)","Wind Dir Flag","Wind Spd (km/h)","Wind Spd Flag","Visibility (km)","Visibility Flag","Stn Press (kPa)","Stn Press Flag","Hmdx","Hmdx Flag","Wind Chill","Wind Chill Flag","Weather"
"-105.14","69.11","CAMBRIDGE BAY A","2400601","2021-03-01 00:00","2021","03","01","00:00","-21.3","","-24.8","","74","","","","32","","32","","2.4","","100.36","","","","-35","","Snow,Blowing Snow"
"-105.14","69.11","CAMBRIDGE BAY A","2400601","2021-03-01 01:00","2021","03","01","01:00","-21.8","","-25.3","","74","","","","33","","27","","2.4","","100.42","","","","-34","","Snow,Blowing Snow"
"-105.14","69.11","CAMBRIDGE BAY A","2400601","2021-03-01 02:00","2021","03","01","02:00","-23.1","","-26.9","","72","","","","36","","25","","4.0","","100.48","","","","-36","","Snow,Blowing Snow"
"-105.14","69.11","CAMBRIDGE BAY A","2400601","2021-03-01 03:00","2021","03","01","03:00","-25.8","","-29.8","","70","","","","3","","21","","4.0","","100.58","","","","-38","","Snow,Blowing Snow"
"-105.14","69.11","CAMBRIDGE BAY A","2400601","2021-03-01 04:00","2021","03","01","04:00","-27.7","","-31.8","","69","","","","3","","23","","19.3","","100.63","","","","-41","","Snow"
"-105.14","69.11","CAMBRIDGE BAY A","2400601","2021-03-01 05:00","2021","03","01","05:00","-30.0","","-34.1","","68","","","","4","","21","","19.3","","100.74","","","","-43","","Snow"
"-105.14","69.11","CAMBRIDGE BAY A","2400601","2021-03-01 06:00","2021","03","01","06:00","-31.9","","-36.0","","68","","","","4","","19","","22.5","","100.81","","","","-45","","Ice Crystals"
"-105.14","69.11","CAMBRIDGE BAY A","2400601","2021-03-01 07:00","2021","03","01","07:00","-33.0","","-37.2","","67","","","","2","","17","","24.1","","100.83","","","","-46","","Ice Crystals"
"-105.14","69.11","CAMBRIDGE BAY A","2400601","2021-03-01 08:00","2021","03","01","08:00","-34.2","","-38.4","","67","","","","4","","16","","24.1","","100.85","","","","-47","","Ice Crystals"
"-105.14","69.11","CAMBRIDGE BAY A","2400601","2021-03-01 09:00","2021","03","01","09:00","-34.6","","-38.9","","66","","","","4","","11","","24.1","","100.88","","","","-45","","Ice Crystals"
"-105.14","69.11","CAMBRIDGE BAY A","2400601","2021-03-01 10:00","2021","03","01","10:00","-34.4","","-38.7","","66","","","","6","","7","","24.1","","100.94","","","","-42","","Ice Crystals"
"-105.14","69.11","CAMBRIDGE BAY A","2400601","2021-03-01 11:00","2021","03","01","11:00","-34.3","","-38.8","","65","","","","4","","8","","24.1","","100.99","","","","-43","","Ice Crystals"
"-105.14","69.11","CAMBRIDGE BAY A","2400601","2021-03-01 12:00","2021","03","01","12:00","-34.1","","-38.5","","65","","","","6","","9","","24.1","","101.02","","","","-43","","Ice Crystals"
"-105.14","69.11","CAMBRIDGE BAY A","2400601","2021-03-01 13:00","2021","03","01","13:00","-34.0","","-38.6","","65","","","","5","","12","","24.1","","101.06","","","","-45","","Ice Crystals"
"-105.14","69.11","CAMBRIDGE BAY A","2400601","2021-03-01 14:00","2021","03","01","14:00","-34.1","","-38.6","","65","","","","4","","14","","24.1","","101.05","","","","-46","","Ice Crystals"
"-105.14","69.11","CAMBRIDGE BAY A","2400601","2021-03-01 15:00","2021","03","01","15:00","-34.1","","-38.6","","65","","","","5","","4","","24.1","","101.10","","","","-39","","Ice Crystals"
"-105.14","69.11","CAMBRIDGE BAY A","2400601","2021-03-01 16:00","2021","03","01","16:00","-34.6","","-39.0","","65","","","","10","","5","","24.1","","101.11","","","","-41","","Ice Crystals"
"-105.14","69.11","CAMBRIDGE BAY A","2400601","2021-03-01 17:00","2021","03","01","17:00","-35.8","","-40.1","","66","","","","4","","6","","24.1","","101.11","","","","-43","","Ice Crystals"
"-105.14","69.11","CAMBRIDGE BAY A","2400601","2021-03-01 18:00","2021","03","01","18:00","-36.4","","-40.6","","66","","","","2","","3","","24.1","","101.07","","","","-40","","Ice Crystals"
"-105.14","69.11","CAMBRIDGE BAY A","2400601","2021-03-01 19:00","2021","03","01","19:00","-36.6","","-40.8","","66","","","","31","","3","","24.1","","101.06","","","","-41","","Ice Crystals"
"-105.14","69.11","CAMBRIDGE BAY A","2400601","2021-03-01 20:00","2021","03","01","20:00","-36.6","","-40.8","","67","","","","3","","7","","24.1","","101.07","","","","-45","","Ice Crystals"
"-105.14","69.11","CAMBRIDGE BAY A","2400601","2021-03-01 21:00","2021","03","01","21:00","-38.3","","-42.5","","66","","","","32","","5","","24.1","","101.02","","","","-45","","Ice Crystals"
"-105.14","69.11","CAMBRIDGE BAY A","2400601","2021-03-01 22:00","2021","03","01","22:00","-38.7","","-42.9","","65","","","","25","","5","","24.1","","100.99","","","","-45","","Ice Crystals"
"-105.14","69.11","CAMBRIDGE BAY A","2400601","2021-03-01 23:00","2021","03","01","23:00","-38.4","","-42.6","","65","","","","30","","9","","24.1","","100.98","","","","-49","","Ice Crystals"
"-105.14","69.11","CAMBRIDGE BAY A","2400601","2021-03-02 00:00","2021","03","02","00:00","-38.2","","-42.5","","65","","","","27","","9","","24.1","","100.98","","","","-48","","Ice Crystals"
"-105.14","69.11","CAMBRIDGE BAY A","2400601","2021-03-02 01:00","2021","03","02","01:00","-38.2","","-42.5","","65","","","","28","","9","","24.1","","100.94","","","","-48","","Ice Crystals"
"-105.14","69.11","CAMBRIDGE BAY A","2400601","2021-03-02 02:00","2021","03","02","02:00","-37.0","","-41.3","","65","","","","29","","9","","24.1","","100.92","","","","-47","","Ice Crystals"
"-105.14","69.11","CAMBRIDGE BAY A","2400601","2021-03-02 03:00","2021","03","02","03:00","-37.4","","-41.7","","65","","","","27","","17","","24.1","","100.85","","","","-51","","Ice Crystals"
"-105.14","69.11","CAMBRIDGE BAY A","2400601","2021-03-02 04:00","2021","03","02","04:00","-36.9","","-41.2","","65","","","","32","","17","","24.1","","100.90","","","","-51","","Ice Crystals"
"-105.14","69.11","CAMBRIDGE BAY A","2400601","2021-03-02 05:00","2021","03","02","05:00","-36.8","","-41.1","","65","","","","2","","13","","24.1","","100.88","","","","-49","","Ice Crystals"
"-105.14","69.11","CAMBRIDGE BAY A","2400601","2021-03-02 06:00","2021","03","02","06:00","-38.9","","-43.2","","65","","","","3","","20","","24.1","","100.90","","","","-54","","Ice Crystals"
"-105.14","69.11","CAMBRIDGE BAY A","2400601","2021-03-02 07:00","2021","03","02","07:00","-38.5","","-42.9","","64","","","","3","","17","","24.1","","100.91","","","","-53","","Ice Crystals"
"-105.14","69.11","CAMBRIDGE BAY A","2400601","2021-03-02 08:00","2021","03","02","08:00","-37.0","","-41.3","","65","","","","3","","17","","24.1","","100.93","","","","-51","","Ice Crystals"
"-105.14","69.11","CAMBRIDGE BAY A","2400601","2021-03-02 09:00","2021","03","02","09:00","-38.0","","-42.4","","64","","","","3","","23","","24.1","","100.93","","","","-54","","Ice Crystals,Blowing Snow"
"-105.14","69.11","CAMBRIDGE BAY A","2400601","2021-03-02 10:00","2021","03","02","10:00","-37.8","","-42.2","","64","","","","3","","15","","24.1","","100.97","","","","-51","","Ice Crystals"
"-105.14","69.11","CAMBRIDGE BAY A","2400601","2021-03-02 11:00","2021","03","02","11:00","-37.5","","-41.9","","64","","","","5","","18","","24.1","","101.00","","","","-52","","Ice Crystals"
"-105.14","69.11","CAMBRIDGE BAY A","2400601","2021-03-02 12:00","2021","03","02","12:00","-37.0","","-41.5","","65","","","","4","","21","","24.1","","101.03","","","","-52","","Ice Crystals"
"-105.14","69.11","CAMBRIDGE BAY A","2400601","2021-03-02 13:00","2021","03","02","13:00","-36.7","","-41.1","","65","","","","3","","19","","24.1","","101.03","","","","-51","","Ice Crystals"
"-105.14","69.11","CAMBRIDGE BAY A","2400601","2021-03-02 14:00","2021","03","02","14:00","-36.6","","-41.0","","65","","","","2","","18","","24.1","","101.04","","","","-51","","Ice Crystals"
"-105.14","69.11","CAMBRIDGE BAY A","2400601","2021-03-02 15:00","2021","03","02","15:00","-36.6","","-41.0","","65","","","","3","","16","","24.1","","101.03","","","","-50","","Ice Crystals"
"-105.14","69.11","CAMBRIDGE BAY A","2400601","2021-03-02 16:00","2021","03","02","16:00","-37.0","","-41.5","","65","","","","2","","14","","24.1","","101.03","","","","-50","","Ice Crystals"
"-105.14","69.11","CAMBRIDGE BAY A","2400601","2021-03-02 17:00","2021","03","02","17:00","-38.6","","-43.0","","64","","","","3","","12","","24.1","","101.06","","","","-51","","Ice Crystals"
"-105.14","69.11","CAMBRIDGE BAY A","2400601","2021-03-02 18:00","2021","03","02","18:00","-37.7","","-42.1","","64","","","","1","","10","","24.1","","101.07","","","","-48","","Ice Crystals"
"-105.14","69.11","CAMBRIDGE BAY A","2400601","2021-03-02 19:00","2021","03","02","19:00","-38.9","","-43.4","","64","","","","36","","9","","24.1","","101.07","","","","-49","","Ice Crystals"
"-105.14","69.11","CAMBRIDGE BAY A","2400601","2021-03-02 20:00","2021","03","02","20:00","-40.9","","-45.4","","63","","","","30","","7","","24.1","","101.09","","","","-50","","Ice Crystals"
"-105.14","69.11","CAMBRIDGE BAY A","2400601","2021-03-02 21:00","2021","03","02","21:00","-40.3","","-44.8","","63","","","","26","","8","","24.1","","101.12","","","","-50","","Ice Crystals"
"-105.14","69.11","CAMBRIDGE BAY A","2400601","2021-03-02 22:00","2021","03","02","22:00","-41.0","","-45.6","","63","","","","31","","13","","24.1","","101.13","","","","-54","","Ice Crystals"
"-105.14","69.11","CAMBRIDGE BAY A","2400601","2021-03-02 23:00","2021","03","02","23:00","-41.1","","-45.6","","63","","","","31","","11","","24.1","","101.19","","","","-53","","Ice Crystals"
"-105.14","69.11","CAMBRIDGE BAY A","2400601","2021-03-03 00:00","2021","03","03","00:00","-41.6","","-46.1","","63","","","","31","","13","","24.1","","101.20","","","","-55","","Ice Crystals"
"-105.14","69.11","CAMBRIDGE BAY A","2400601","2021-03-03 01:00","2021","03","03","01:00","-40.9","","-45.4","","63","","","","33","","15","","24.1","","101.26","","","","-55","","Ice Crystals"
"-105.14","69.11","CAMBRIDGE BAY A","2400601","2021-03-03 02:00","2021","03","03","02:00","-42.1","","-46.7","","62","","","","34","","14","","24.1","","101.28","","","","-56","","Ice Crystals"
"-105.14","69.11","CAMBRIDGE BAY A","2400601","2021-03-03 03:00","2021","03","03","03:00","-42.7","","-47.3","","62","","","","31","","8","","24.1","","101.34","","","","-53","","Ice Crystals"
"-105.14","69.11","CAMBRIDGE BAY A","2400601","2021-03-03 04:00","2021","03","03","04:00","-42.1","","-46.8","","62","","","","29","","12","","24.1","","101.37","","","","-55","","Ice Crystals"
"-105.14","69.11","CAMBRIDGE BAY A","2400601","2021-03-03 05:00","2021","03","03","05:00","-42.1","","-46.7","","62","","","","29","","14","","24.1","","101.45","","","","-56","","Ice Crystals"
"-105.14","69.11","CAMBRIDGE BAY A","2400601","2021-03-03 06:00","2021","03","03","06:00","-42.6","","-47.3","","62","","","","30","","10","","19.3","","101.52","","","","-54","","Ice Crystals"
"-105.14","69.11","CAMBRIDGE BAY A","2400601","2021-03-03 07:00","2021","03","03","07:00","-41.1","","-45.7","","62","","","","31","","16","","19.3","","101.57","","","","-56","","Ice Crystals"
"-105.14","69.11","CAMBRIDGE BAY A","2400601","2021-03-03 08:00","2021","03","03","08:00","-41.8","","-46.4","","62","","","","28","","12","","19.3","","101.67","","","","-54","","Ice Crystals"
"-105.14","69.11","CAMBRIDGE BAY A","2400601","2021-03-03 09:00","2021","03","03","09:00","-40.5","","-45.2","","62","","","","28","","15","","19.3","","101.74","","","","-54","","Ice Crystals"
"-105.14","69.11","CAMBRIDGE BAY A","2400601","2021-03-03 10:00","2021","03","03","10:00","-40.3","","-44.9","","62","","","","28","","8","","24.1","","101.82","","","","-50","","Ice Crystals"
"-105.14","69.11","CAMBRIDGE BAY A","2400601","2021-03-03 11:00","2021","03","03","11:00","-39.1","","-43.7","","63","","","","28","","16","","24.1","","101.91","","","","-53","","Ice Crystals"
"-105.14","69.11","CAMBRIDGE BAY A","2400601","2021-03-03 12:00","2021","03","03","12:00","-38.0","","-42.5","","63","","","","27","","10","","24.1","","102.01","","","","-49","","Ice Crystals"
"-105.14","69.11","CAMBRIDGE BAY A","2400601","2021-03-03 13:00","2021","03","03","13:00","-36.2","","-40.7","","64","","","","28","","15","","24.1","","102.07","","","","-49","","Ice Crystals"
"-105.14","69.11","CAMBRIDGE BAY A","2400601","2021-03-03 14:00","2021","03","03","14:00","-36.4","","-40.9","","64","","","","25","","16","","24.1","","102.16","","","","-50","","Ice Crystals"
"-105.14","69.11","CAMBRIDGE BAY A","2400601","2021-03-03 15:00","2021","03","03","15:00","-36.4","","-40.8","","65","","","","28","","14","","24.1","","102.30","","","","-49","","Ice Crystals"
"-105.14","69.11","CAMBRIDGE BAY A","2400601","2021-03-03 16:00","2021","03","03","16:00","-36.8","","-41.3","","64","","","","27","","22","","24.1","","102.38","","","","-52","","Ice Crystals,Blowing Snow"
"-105.14","69.11","CAMBRIDGE BAY A","2400601","2021-03-03 17:00","2021","03","03","17:00","-37.2","","-41.6","","64","","","","27","","21","","24.1","","102.49","","","","-53","","Ice Crystals,Blowing Snow"
"-105.14","69.11","CAMBRIDGE BAY A","2400601","2021-03-03 18:00","2021","03","03","18:00","-37.4","","-41.9","","64","","","","27","","21","","24.1","","102.61","","","","-53","","Ice Crystals,Blowing Snow"
"-105.14","69.11","CAMBRIDGE BAY A","2400601","2021-03-03 19:00","2021","03","03","19:00","-37.3","","-41.7","","64","","","","27","","22","","24.1","","102.74","","","","-53","","Ice Crystals,Blowing Snow"
"-105.14","69.11","CAMBRIDGE BAY A","2400601","2021-03-03 20:00","2021","03","03","20:00","-37.6","","-42.0","","64","","","","27","","20","","24.1","","102.85","","","","-53","","Ice Crystals,Blowing Snow"
"-105.14","69.11","CAMBRIDGE BAY A","2400601","2021-03-03 21:00","2021","03","03","21:00","-37.7","","-42.2","","64","","","","27","","20","","24.1","","102.92","","","","-53","","Ice Crystals,Blowing Snow"
"-105.14","69.11","CAMBRIDGE BAY A","2400601","2021-03-03 22:00","2021","03","03","22:00","-36.9","","-41.4","","64","","","","28","","21","","12.9","","103.01","","","","-52","","Ice Crystals,Blowing Snow"
"-105.14","69.11","CAMBRIDGE BAY A","2400601","2021-03-03 23:00","2021","03","03","23:00","-36.2","","-40.6","","65","","","","29","","20","","19.3","","103.11","","","","-51","","Ice Crystals,Blowing Snow"
"-105.14","69.11","CAMBRIDGE BAY A","2400601","2021-03-04 00:00","2021","03","04","00:00","-36.7","","-41.1","","65","","","","27","","16","","19.3","","103.22","","","","-50","","Ice Crystals"
"-105.14","69.11","CAMBRIDGE BAY A","2400601","2021-03-04 01:00","2021","03","04","01:00","-36.2","","-40.6","","65","","","","30","","22","","24.1","","103.32","","","","-52","","Ice Crystals"
"-105.14","69.11","CAMBRIDGE BAY A","2400601","2021-03-04 02:00","2021","03","04","02:00","-36.1","","-40.5","","65","","","","31","","27","","24.1","","103.42","","","","-53","","Ice Crystals"
"-105.14","69.11","CAMBRIDGE BAY A","2400601","2021-03-04 03:00","2021","03","04","03:00","-36.4","","-40.8","","65","","","","31","","25","","24.1","","103.53","","","","-53","","NA"
"-105.14","69.11","CAMBRIDGE BAY A","2400601","2021-03-04 04:00","2021","03","04","04:00","-37.2","","-41.7","","64","","","","32","","19","","24.1","","103.65","","","","-52","","NA"
"-105.14","69.11","CAMBRIDGE BAY A","2400601","2021-03-04 05:00","2021","03","04","05:00","-37.3","","-41.8","","64","","","","32","","23","","24.1","","103.76","","","","-53","","Clear"
"-105.14","69.11","CAMBRIDGE BAY A","2400601","2021-03-04 06:00","2021","03","04","06:00","-37.5","","-42.2","","63","","","","32","","23","","24.1","","103.87","","","","-54","","NA"
"-105.14","69.11","CAMBRIDGE BAY A","2400601","2021-03-04 07:00","2021","03","04","07:00","-38.5","","-43.2","","62","","","","33","","8","","24.1","","103.92","","","","-48","","NA"
"-105.14","69.11","CAMBRIDGE BAY A","2400601","2021-03-04 08:00","2021","03","04","08:00","-38.7","","-43.5","","62","","","","33","","8","","24.1","","103.98","","","","-48","","Clear"
"-105.14","69.11","CAMBRIDGE BAY A","2400601","2021-03-04 09:00","2021","03","04","09:00","-37.5","","-42.5","","61","","","","29","","7","","24.1","","104.07","","","","-46","","NA"
"-105.14","69.11","CAMBRIDGE BAY A","2400601","2021-03-04 10:00","2021","03","04","10:00","-36.4","","-41.5","","60","","","","30","","14","","24.1","","104.14","","","","-49","","NA"
"-105.14","69.11","CAMBRIDGE BAY A","2400601","2021-03-04 11:00","2021","03","04","11:00","-36.1","","-41.2","","60","","","","26","","8","","24.1","","104.19","","","","-45","","Clear"
"-105.14","69.11","CAMBRIDGE BAY A","2400601","2021-03-04 12:00","2021","03","04","12:00","-35.9","","-41.0","","61","","","","32","","7","","24.1","","104.27","","","","-44","","NA"
"-105.14","69.11","CAMBRIDGE BAY A","2400601","2021-03-04 13:00","2021","03","04","13:00","-34.7","","-39.9","","60","","","","26","","3","","24.1","","104.33","","","","-38","","NA"
"-105.14","69.11","CAMBRIDGE BAY A","2400601","2021-03-04 14:00","2021","03","04","14:00","-34.0","","-39.2","","60","","","","15","","3","","24.1","","104.37","","","","-38","","Clear"
"-105.14","69.11","CAMBRIDGE BAY A","2400601","2021-03-04 15:00","2021","03","04","15:00","-34.1","","-39.1","","62","","","","36","","1","","24.1","","104.39","","","","-35","","NA"
"-105.14","69.11","CAMBRIDGE BAY A","2400601","2021-03-04 16:00","2021","03","04","16:00","-35.1","","-39.9","","62","","","","7","","4","","24.1","","104.42","","","","-40","","NA"
"-105.14","69.11","CAMBRIDGE BAY A","2400601","2021-03-04 17:00","2021","03","04","17:00","-35.5","","-40.1","","64","","","","7","","5","","24.1","","104.41","","","","-42","","Clear"
"-105.14","69.11","CAMBRIDGE BAY A","2400601","2021-03-04 18:00","2021","03","04","18:00","-36.2","","-40.6","","65","","","","8","","5","","24.1","","104.40","","","","-43","","NA"
"-105.14","69.11","CAMBRIDGE BAY A","2400601","2021-03-04 19:00","2021","03","04","19:00","-36.8","","-41.2","","65","","","","10","","7","","24.1","","104.39","","","","-45","","NA"
"-105.14","69.11","CAMBRIDGE BAY A","2400601","2021-03-04 20:00","2021","03","04","20:00","-37.5","","-42.0","","64","","","","9","","4","","24.1","","104.39","","","","-43","","Clear"
"-105.14","69.11","CAMBRIDGE BAY A","2400601","2021-03-04 21:00","2021","03","04","21:00","-37.3","","-41.9","","63","","","","10","","6","","24.1","","104.37","","","","-45","","NA"
"-105.14","69.11","CAMBRIDGE BAY A","2400601","2021-03-04 22:00","2021","03","04","22:00","-38.1","","-42.8","","63","","","","8","","8","","24.1","","104.34","","","","-47","","NA"
"-105.14","69.11","CAMBRIDGE BAY A","2400601","2021-03-04 23:00","2021","03","04","23:00","-38.5","","-43.1","","63","","","","9","","11","","24.1","","104.30","","","","-50","","Clear"
"-105.14","69.11","CAMBRIDGE BAY A","2400601","2021-03-05 00:00","2021","03","05","00:00","-37.5","","-42.1","","63","","","","11","","8","","24.1","","104.25","","","","-47","","NA"
"-105.14","69.11","CAMBRIDGE BAY A","2400601","2021-03-05 01:00","2021","03","05","01:00","-37.2","","-42.0","","62","","","","9","","9","","24.1","","104.22","","","","-47","","NA"
"-105.14","69.11","CAMBRIDGE BAY A","2400601","2021-03-05 02:00","2021","03","05","02:00","-37.4","","-42.1","","62","","","","11","","14","","24.1","","104.17","","","","-50","","Mainly Clear"
"-105.14","69.11","CAMBRIDGE BAY A","2400601","2021-03-05 03:00","2021","03","05","03:00","-38.5","","-43.2","","62","","","","10","","10","","24.1","","104.09","","","","-49","","NA"
"-105.14","69.11","CAMBRIDGE BAY A","2400601","2021-03-05 04:00","2021","03","05","04:00","-37.1","","-41.7","","64","","","","13","","14","","24.1","","104.05","","","","-50","","NA"
"-105.14","69.11","CAMBRIDGE BAY A","2400601","2021-03-05 05:00","2021","03","05","05:00","-37.1","","-41.6","","64","","","","13","","21","","24.1","","103.98","","","","-52","","Blowing Snow"
"-105.14","69.11","CAMBRIDGE BAY A","2400601","2021-03-05 06:00","2021","03","05","06:00","-37.7","","-42.2","","64","","","","11","","18","","19.3","","103.82","","","","-52","","NA"
"-105.14","69.11","CAMBRIDGE BAY A","2400601","2021-03-05 07:00","2021","03","05","07:00","-36.9","","-41.4","","64","","","","13","","23","","2.4","","103.68","","","","-53","","Ice Crystals"
"-105.14","69.11","CAMBRIDGE BAY A","2400601","2021-03-05 08:00","2021","03","05","08:00","-36.2","","-40.7","","65","","","","12","","29","","1.0","","103.53","","","","-53","","Fog,Blowing Snow"
"-105.14","69.11","CAMBRIDGE BAY A","2400601","2021-03-05 09:00","2021","03","05","09:00","-35.0","","-39.5","","65","","","","13","","32","","1.6","","103.42","","","","-53","","Fog,Blowing Snow"
"-105.14","69.11","CAMBRIDGE BAY A","2400601","2021-03-05 10:00","2021","03","05","10:00","-33.5","","-38.0","","65","","","","13","","36","","1.6","","103.32","","","","-51","","Blowing Snow"
"-105.14","69.11","CAMBRIDGE BAY A","2400601","2021-03-05 11:00","2021","03","05","11:00","-32.1","","-36.5","","66","","","","13","","35","","1.6","","103.17","","","","-49","","Blowing Snow"
"-105.14","69.11","CAMBRIDGE BAY A","2400601","2021-03-05 12:00","2021","03","05","12:00","-30.5","","-34.8","","67","","","","13","","44","","0.8","","103.00","","","","-49","","Blowing Snow"
"-105.14","69.11","CAMBRIDGE BAY A","2400601","2021-03-05 13:00","2021","03","05","13:00","-28.8","","-33.0","","68","","","","13","","46","","0.4","","102.77","","","","-47","","Blowing Snow"
"-105.14","69.11","CAMBRIDGE BAY A","2400601","2021-03-05 14:00","2021","03","05","14:00","-27.4","","-31.4","","70","","","","13","","50","","0.4","","102.61","","","","-45","","Blowing Snow"
"-105.14","69.11","CAMBRIDGE BAY A","2400601","2021-03-05 15:00","2021","03","05","15:00","-26.6","","-30.4","","70","","","","13","","54","","0.0","","102.41","","","","-45","","Blowing Snow"
"-105.14","69.11","CAMBRIDGE BAY A","2400601","2021-03-05 16:00","2021","03","05","16:00","-25.9","","-29.7","","71","","","","13","","51","","0.0","","102.25","","","","-44","","Blowing Snow"
"-105.14","69.11","CAMBRIDGE BAY A","2400601","2021-03-05 17:00","2021","03","05","17:00","-25.4","","-29.1","","72","","","","12","","61","","0.0","","101.98","","","","-44","","Blowing Snow"
"-105.14","69.11","CAMBRIDGE BAY A","2400601","2021-03-05 18:00","2021","03","05","18:00","-24.6","","-28.2","","73","","","","12","","68","","0.0","","101.68","","","","-44","","Blowing Snow,Blowing Sand"
"-105.14","69.11","CAMBRIDGE BAY A","2400601","2021-03-05 19:00","2021","03","05","19:00","-23.5","","-27.0","","73","","","","12","","68","","0.0","","101.39","","","","-42","","Blowing Snow"
"-105.14","69.11","CAMBRIDGE BAY A","2400601","2021-03-05 20:00","2021","03","05","20:00","-22.8","","-26.2","","74","","","","12","","69","","0.0","","101.20","","","","-41","","Blowing Snow"
"-105.14","69.11","CAMBRIDGE BAY A","2400601","2021-03-05 21:00","2021","03","05","21:00","-21.9","","-25.2","","75","","","","14","","72","","0.0","","100.96","","","","-40","","Blowing Snow"
"-105.14","69.11","CAMBRIDGE BAY A","2400601","2021-03-05 22:00","2021","03","05","22:00","-21.5","","-24.7","","75","","","","14","","59","","0.0","","100.91","","","","-38","","Blowing Snow"
"-105.14","69.11","CAMBRIDGE BAY A","2400601","2021-03-05 23:00","2021","03","05","23:00","-21.2","","-24.4","","76","","","","14","","62","","0.0","","100.74","","","","-38","","Blowing Snow"
"-105.14","69.11","CAMBRIDGE BAY A","2400601","2021-03-06 00:00","2021","03","06","00:00","-20.5","","-23.7","","76","","","","14","","58","","0.0","","100.59","","","","-37","","Blowing Snow"
"-105.14","69.11","CAMBRIDGE BAY A","2400601","2021-03-06 01:00","2021","03","06","01:00","-20.5","","-23.6","","76","","","","14","","63","","0.0","","100.34","","","","-37","","Blowing Snow"
"-105.14","69.11","CAMBRIDGE BAY A","2400601","2021-03-06 02:00","2021","03","06","02:00","-20.2","","-23.2","","77","","","","14","","58","","0.2","","100.27","","","","-37","","Blowing Snow"
"-105.14","69.11","CAMBRIDGE BAY A","2400601","2021-03-06 03:00","2021","03","06","03:00","-20.1","","-23.2","","77","","","","13","","52","","0.2","","100.15","","","","-36","","Blowing Snow"
"-105.14","69.11","CAMBRIDGE BAY A","2400601","2021-03-06 04:00","2021","03","06","04:00","-19.6","","-22.7","","77","","","","14","","49","","0.2","","99.97","","","","-35","","Blowing Snow"
"-105.14","69.11","CAMBRIDGE BAY A","2400601","2021-03-06 05:00","2021","03","06","05:00","-19.2","","-22.2","","78","","","","13","","45","","0.4","","99.81","","","","-34","","Blowing Snow"
"-105.14","69.11","CAMBRIDGE BAY A","2400601","2021-03-06 06:00","2021","03","06","06:00","-18.8","","-21.8","","78","","","","13","","40","","0.4","","99.69","","","","-33","","Blowing Snow"
"-105.14","69.11","CAMBRIDGE BAY A","2400601","2021-03-06 07:00","2021","03","06","07:00","-18.2","","-21.1","","79","","","","14","","37","","0.4","","99.60","","","","-31","","Blowing Snow"
"-105.14","69.11","CAMBRIDGE BAY A","2400601","2021-03-06 08:00","2021","03","06","08:00","-17.6","","-20.4","","79","","","","14","","33","","0.8","","99.52","","","","-30","","Snow,Blowing Snow"
"-105.14","69.11","CAMBRIDGE BAY A","2400601","2021-03-06 09:00","2021","03","06","09:00","-16.9","","-19.7","","79","","","","14","","32","","2.0","","99.45","","","","-29","","Snow,Blowing Snow"
"-105.14","69.11","CAMBRIDGE BAY A","2400601","2021-03-06 10:00","2021","03","06","10:00","-16.1","","-18.8","","80","","","","14","","27","","3.6","","99.38","","","","-27","","Snow,Blowing Snow"
"-105.14","69.11","CAMBRIDGE BAY A","2400601","2021-03-06 11:00","2021","03","06","11:00","-15.6","","-18.2","","80","","","","14","","24","","4.0","","99.34","","","","-26","","Snow,Blowing Snow"
"-105.14","69.11","CAMBRIDGE BAY A","2400601","2021-03-06 12:00","2021","03","06","12:00","-15.1","","-17.8","","80","","","","15","","22","","3.6","","99.31","","","","-25","","Snow"
"-105.14","69.11","CAMBRIDGE BAY A","2400601","2021-03-06 13:00","2021","03","06","13:00","-14.7","","-17.3","","81","","","","15","","16","","3.6","","99.29","","","","-23","","Snow"
"-105.14","69.11","CAMBRIDGE BAY A","2400601","2021-03-06 14:00","2021","03","06","14:00","-14.4","","-17.0","","81","","","","14","","11","","4.0","","99.29","","","","-21","","Snow"
"-105.14","69.11","CAMBRIDGE BAY A","2400601","2021-03-06 15:00","2021","03","06","15:00","-14.2","","-16.8","","81","","","","15","","9","","4.0","","99.26","","","","-20","","Snow"
"-105.14","69.11","CAMBRIDGE BAY A","2400601","2021-03-06 16:00","2021","03","06","16:00","-14.1","","-16.5","","82","","","","16","","6","","4.8","","99.25","","","","-18","","Snow"
"-105.14","69.11","CAMBRIDGE BAY A","2400601","2021-03-06 17:00","2021","03","06","17:00","-14.2","","-16.5","","82","","","","14","","4","","4.0","","99.25","","","","-17","","Snow"
"-105.14","69.11","CAMBRIDGE BAY A","2400601","2021-03-06 18:00","2021","03","06","18:00","-14.3","","-16.7","","83","","","","18","","5","","4.0","","99.26","","","","-18","","Snow"
"-105.14","69.11","CAMBRIDGE BAY A","2400601","2021-03-06 19:00","2021","03","06","19:00","-14.3","","-16.5","","83","","","","22","","3","","6.4","","99.24","","","","-16","","Snow"
"-105.14","69.11","CAMBRIDGE BAY A","2400601","2021-03-06 20:00","2021","03","06","20:00","-14.4","","-16.7","","83","","","","24","","7","","6.4","","99.25","","","","-19","","Snow"
"-105.14","69.11","CAMBRIDGE BAY A","2400601","2021-03-06 21:00","2021","03","06","21:00","-14.7","","-17.1","","82","","","","29","","15","","6.4","","99.26","","","","-23","","Snow"
"-105.14","69.11","CAMBRIDGE BAY A","2400601","2021-03-06 22:00","2021","03","06","22:00","-14.9","","-17.5","","81","","","","30","","13","","16.1","","99.23","","","","-22","","Snow"
"-105.14","69.11","CAMBRIDGE BAY A","2400601","2021-03-06 23:00","2021","03","06","23:00","-15.1","","-17.7","","81","","","","27","","10","","16.1","","99.23","","","","-21","","Snow"
"-105.14","69.11","CAMBRIDGE BAY A","2400601","2021-03-07 00:00","2021","03","07","00:00","-15.7","","-18.2","","81","","","","27","","14","","16.1","","99.22","","","","-23","","Snow"
"-105.14","69.11","CAMBRIDGE BAY A","2400601","2021-03-07 01:00","2021","03","07","01:00","-16.3","","-18.8","","81","","","","28","","14","","16.1","","99.23","","","","-24","","Snow"
"-105.14","69.11","CAMBRIDGE BAY A","2400601","2021-03-07 02:00","2021","03","07","02:00","-16.7","","-19.3","","81","","","","27","","21","","19.3","","99.23","","","","-27","","Snow"
"-105.14","69.11","CAMBRIDGE BAY A","2400601","2021-03-07 03:00","2021","03","07","03:00","-18.1","","-20.8","","80","","","","27","","22","","19.3","","99.25","","","","-29","","Snow"
"-105.14","69.11","CAMBRIDGE BAY A","2400601","2021-03-07 04:00","2021","03","07","04:00","-17.2","","-19.9","","80","","","","28","","18","","19.3","","99.26","","","","-26","","Snow"
"-105.14","69.11","CAMBRIDGE BAY A","2400601","2021-03-07 05:00","2021","03","07","05:00","-18.8","","-21.6","","79","","","","27","","20","","19.3","","99.25","","","","-29","","Snow"
"-105.14","69.11","CAMBRIDGE BAY A","2400601","2021-03-07 06:00","2021","03","07","06:00","-18.4","","-21.3","","79","","","","27","","18","","9.7","","99.23","","","","-28","","Snow"
"-105.14","69.11","CAMBRIDGE BAY A","2400601","2021-03-07 07:00","2021","03","07","07:00","-18.8","","-21.8","","78","","","","29","","16","","9.7","","99.26","","","","-28","","Snow,Fog"
"-105.14","69.11","CAMBRIDGE BAY A","2400601","2021-03-07 08:00","2021","03","07","08:00","-18.5","","-21.6","","77","","","","28","","17","","4.8","","99.28","","","","-28","","Snow,Fog"
"-105.14","69.11","CAMBRIDGE BAY A","2400601","2021-03-07 09:00","2021","03","07","09:00","-19.9","","-23.2","","76","","","","30","","26","","4.8","","99.28","","","","-32","","Snow,Fog"
"-105.14","69.11","CAMBRIDGE BAY A","2400601","2021-03-07 10:00","2021","03","07","10:00","-21.0","","-24.4","","75","","","","31","","24","","8.1","","99.31","","","","-33","","Snow,Fog"
"-105.14","69.11","CAMBRIDGE BAY A","2400601","2021-03-07 11:00","2021","03","07","11:00","-18.1","","-21.4","","75","","","","32","","30","","16.1","","99.32","","","","-30","","Snow"
"-105.14","69.11","CAMBRIDGE BAY A","2400601","2021-03-07 12:00","2021","03","07","12:00","-17.9","","-21.2","","75","","","","31","","28","","8.1","","99.39","","","","-29","","Snow"
"-105.14","69.11","CAMBRIDGE BAY A","2400601","2021-03-07 13:00","2021","03","07","13:00","-18.5","","-21.8","","75","","","","31","","33","","4.8","","99.43","","","","-31","","Snow,Blowing Snow"
"-105.14","69.11","CAMBRIDGE BAY A","2400601","2021-03-07 14:00","2021","03","07","14:00","-19.2","","-22.6","","75","","","","30","","33","","4.8","","99.48","","","","-32","","Snow,Blowing Snow"
"-105.14","69.11","CAMBRIDGE BAY A","2400601","2021-03-07 15:00","2021","03","07","15:00","-19.8","","-23.2","","75","","","","31","","34","","6.4","","99.53","","","","-33","","Snow,Blowing Snow"
"-105.14","69.11","CAMBRIDGE BAY A","2400601","2021-03-07 16:00","2021","03","07","16:00","-20.1","","-23.5","","75","","","","29","","30","","4.8","","99.60","","","","-33","","Snow,Blowing Snow"
"-105.14","69.11","CAMBRIDGE BAY A","2400601","2021-03-07 17:00","2021","03","07","17:00","-20.4","","-23.7","","75","","","","29","","31","","4.0","","99.63","","","","-33","","Snow,Blowing Snow"
"-105.14","69.11","CAMBRIDGE BAY A","2400601","2021-03-07 18:00","2021","03","07","18:00","-20.8","","-24.1","","75","","","","29","","26","","4.0","","99.68","","","","-33","","Snow,Blowing Snow"
"-105.14","69.11","CAMBRIDGE BAY A","2400601","2021-03-07 19:00","2021","03","07","19:00","-21.0","","-24.4","","75","","","","29","","34","","4.0","","99.70","","","","-35","","Snow,Blowing Snow"
"-105.14","69.11","CAMBRIDGE BAY A","2400601","2021-03-07 20:00","2021","03","07","20:00","-21.0","","-24.5","","74","","","","29","","28","","8.1","","99.74","","","","-34","","Snow,Blowing Snow"
"-105.14","69.11","CAMBRIDGE BAY A","2400601","2021-03-07 21:00","2021","03","07","21:00","-21.1","","-24.6","","74","","","","28","","31","","9.7","","99.75","","","","-34","","Snow,Blowing Snow"
"-105.14","69.11","CAMBRIDGE BAY A","2400601","2021-03-07 22:00","2021","03","07","22:00","-21.3","","-24.7","","74","","","","28","","31","","9.7","","99.75","","","","-34","","Snow,Blowing Snow"
"-105.14","69.11","CAMBRIDGE BAY A","2400601","2021-03-07 23:00","2021","03","07","23:00","-21.3","","-24.7","","74","","","","28","","30","","4.8","","99.74","","","","-34","","Snow,Blowing Snow"
"-105.14","69.11","CAMBRIDGE BAY A","2400601","2021-03-08 00:00","2021","03","08","00:00","-21.3","","-24.7","","74","","","","28","","32","","9.7","","99.78","","","","-35","","Snow,Blowing Snow"
"-105.14","69.11","CAMBRIDGE BAY A","2400601","2021-03-08 01:00","2021","03","08","01:00","-21.4","","-24.8","","74","","","","28","","28","","9.7","","99.79","","","","-34","","Snow,Blowing Snow"
"-105.14","69.11","CAMBRIDGE BAY A","2400601","2021-03-08 02:00","2021","03","08","02:00","-21.4","","-24.8","","75","","","","28","","29","","9.7","","99.79","","","","-34","","Snow,Blowing Snow"
"-105.14","69.11","CAMBRIDGE BAY A","2400601","2021-03-08 03:00","2021","03","08","03:00","-21.4","","-24.8","","75","","","","29","","29","","9.7","","99.79","","","","-34","","Snow,Blowing Snow"
"-105.14","69.11","CAMBRIDGE BAY A","2400601","2021-03-08 04:00","2021","03","08","04:00","-21.3","","-24.7","","75","","","","29","","29","","4.8","","99.82","","","","-34","","Snow,Blowing Snow"
"-105.14","69.11","CAMBRIDGE BAY A","2400601","2021-03-08 05:00","2021","03","08","05:00","-21.3","","-24.8","","74","","","","30","","26","","9.7","","99.83","","","","-33","","Snow,Blowing Snow"
"-105.14","69.11","CAMBRIDGE BAY A","2400601","2021-03-08 06:00","2021","03","08","06:00","-21.4","","-24.8","","74","","","","31","","27","","4.8","","99.84","","","","-34","","Snow,Blowing Snow"
"-105.14","69.11","CAMBRIDGE BAY A","2400601","2021-03-08 07:00","2021","03","08","07:00","-21.6","","-25.0","","74","","","","31","","15","","4.8","","99.88","","","","-31","","Snow,Fog"
"-105.14","69.11","CAMBRIDGE BAY A","2400601","2021-03-08 08:00","2021","03","08","08:00","-22.0","","-25.5","","74","","","","33","","32","","1.2","","99.87","","","","-36","","Snow,Blowing Snow"
"-105.14","69.11","CAMBRIDGE BAY A","2400601","2021-03-08 09:00","2021","03","08","09:00","-22.2","","-25.8","","73","","","","33","","26","","1.6","","99.90","","","","-35","","Snow,Blowing Snow"
"-105.14","69.11","CAMBRIDGE BAY A","2400601","2021-03-08 10:00","2021","03","08","10:00","-22.4","","-26.1","","72","","","","33","","27","","1.6","","99.93","","","","-35","","Snow,Blowing Snow"
"-105.14","69.11","CAMBRIDGE BAY A","2400601","2021-03-08 11:00","2021","03","08","11:00","-22.5","","-26.2","","72","","","","32","","34","","1.6","","99.95","","","","-37","","Snow,Blowing Snow"
"-105.14","69.11","CAMBRIDGE BAY A","2400601","2021-03-08 12:00","2021","03","08","12:00","-22.9","","-26.6","","72","","","","32","","36","","1.6","","99.99","","","","-37","","Snow,Blowing Snow"
"-105.14","69.11","CAMBRIDGE BAY A","2400601","2021-03-08 13:00","2021","03","08","13:00","-23.0","","-26.8","","72","","","","33","","32","","1.6","","100.03","","","","-37","","Snow,Blowing Snow"
"-105.14","69.11","CAMBRIDGE BAY A","2400601","2021-03-08 14:00","2021","03","08","14:00","-23.1","","-26.8","","72","","","","33","","33","","1.6","","100.06","","","","-37","","Snow,Blowing Snow"
"-105.14","69.11","CAMBRIDGE BAY A","2400601","2021-03-08 15:00","2021","03","08","15:00","-23.6","","-27.5","","71","","","","33","","37","","1.6","","100.09","","","","-38","","Snow,Blowing Snow"
"-105.14","69.11","CAMBRIDGE BAY A","2400601","2021-03-08 16:00","2021","03","08","16:00","-24.4","","-28.1","","72","","","","33","","35","","2.4","","100.13","","","","-39","","Snow,Blowing Snow"
"-105.14","69.11","CAMBRIDGE BAY A","2400601","2021-03-08 17:00","2021","03","08","17:00","-23.9","","-27.6","","72","","","","32","","35","","2.4","","100.17","","","","-39","","Snow,Blowing Snow"
"-105.14","69.11","CAMBRIDGE BAY A","2400601","2021-03-08 18:00","2021","03","08","18:00","-25.1","","-28.8","","72","","","","32","","38","","2.4","","100.18","","","","-41","","Snow,Blowing Snow"
"-105.14","69.11","CAMBRIDGE BAY A","2400601","2021-03-08 19:00","2021","03","08","19:00","-25.4","","-29.1","","72","","","","31","","32","","4.8","","100.19","","","","-40","","Snow,Blowing Snow"
"-105.14","69.11","CAMBRIDGE BAY A","2400601","2021-03-08 20:00","2021","03","08","20:00","-24.6","","-28.3","","72","","","","32","","33","","4.8","","100.21","","","","-39","","Snow,Blowing Snow"
"-105.14","69.11","CAMBRIDGE BAY A","2400601","2021-03-08 21:00","2021","03","08","21:00","-24.4","","-28.1","","72","","","","34","","35","","4.8","","100.19","","","","-39","","Snow,Blowing Snow"
"-105.14","69.11","CAMBRIDGE BAY A","2400601","2021-03-08 22:00","2021","03","08","22:00","-25.3","","-29.1","","71","","","","32","","33","","4.8","","100.22","","","","-40","","Snow,Blowing Snow"
"-105.14","69.11","CAMBRIDGE BAY A","2400601","2021-03-08 23:00","2021","03","08","23:00","-25.4","","-29.2","","72","","","","32","","33","","4.8","","100.22","","","","-40","","Snow,Blowing Snow"
"-105.14","69.11","CAMBRIDGE BAY A","2400601","2021-03-09 00:00","2021","03","09","00:00","-25.7","","-29.6","","71","","","","32","","29","","4.8","","100.24","","","","-40","","Snow,Blowing Snow"
"-105.14","69.11","CAMBRIDGE BAY A","2400601","2021-03-09 01:00","2021","03","09","01:00","-25.2","","-29.0","","72","","","","32","","26","","4.8","","100.27","","","","-39","","Snow,Blowing Snow"
"-105.14","69.11","CAMBRIDGE BAY A","2400601","2021-03-09 02:00","2021","03","09","02:00","-24.3","","-28.1","","71","","","","34","","24","","4.8","","100.30","","","","-37","","Snow,Blowing Snow"
"-105.14","69.11","CAMBRIDGE BAY A","2400601","2021-03-09 03:00","2021","03","09","03:00","-24.0","","-27.7","","72","","","","34","","27","","4.8","","100.35","","","","-37","","Snow,Blowing Snow"
"-105.14","69.11","CAMBRIDGE BAY A","2400601","2021-03-09 04:00","2021","03","09","04:00","-24.4","","-28.1","","72","","","","35","","28","","4.8","","100.38","","","","-38","","Snow,Blowing Snow"
"-105.14","69.11","CAMBRIDGE BAY A","2400601","2021-03-09 05:00","2021","03","09","05:00","-24.4","","-28.1","","72","","","","35","","22","","4.8","","100.44","","","","-37","","Snow,Blowing Snow"
"-105.14","69.11","CAMBRIDGE BAY A","2400601","2021-03-09 06:00","2021","03","09","06:00","-25.2","","-29.0","","71","","","","36","","25","","4.8","","100.47","","","","-38","","Snow,Blowing Snow"
"-105.14","69.11","CAMBRIDGE BAY A","2400601","2021-03-09 07:00","2021","03","09","07:00","-25.5","","-29.2","","71","","","","36","","19","","4.8","","100.52","","","","-37","","Snow,Blowing Snow"
"-105.14","69.11","CAMBRIDGE BAY A","2400601","2021-03-09 08:00","2021","03","09","08:00","-26.0","","-29.9","","70","","","","36","","25","","2.4","","100.57","","","","-39","","Snow,Blowing Snow"
"-105.14","69.11","CAMBRIDGE BAY A","2400601","2021-03-09 09:00","2021","03","09","09:00","-27.1","","-31.1","","70","","","","35","","16","","2.4","","100.64","","","","-38","","Snow,Blowing Snow"
"-105.14","69.11","CAMBRIDGE BAY A","2400601","2021-03-09 10:00","2021","03","09","10:00","-27.2","","-31.3","","69","","","","36","","26","","2.4","","100.66","","","","-41","","Snow,Blowing Snow"
"-105.14","69.11","CAMBRIDGE BAY A","2400601","2021-03-09 11:00","2021","03","09","11:00","-26.7","","-30.8","","69","","","","35","","24","","2.4","","100.67","","","","-40","","Blowing Snow"
"-105.14","69.11","CAMBRIDGE BAY A","2400601","2021-03-09 12:00","2021","03","09","12:00","-26.3","","-30.6","","68","","","","34","","30","","4.8","","100.76","","","","-41","","Blowing Snow"
"-105.14","69.11","CAMBRIDGE BAY A","2400601","2021-03-09 13:00","2021","03","09","13:00","-26.2","","-30.7","","67","","","","35","","21","","9.7","","100.79","","","","-39","","Blowing Snow"
"-105.14","69.11","CAMBRIDGE BAY A","2400601","2021-03-09 14:00","2021","03","09","14:00","-26.0","","-30.4","","68","","","","35","","23","","9.7","","100.83","","","","-39","","Blowing Snow"
"-105.14","69.11","CAMBRIDGE BAY A","2400601","2021-03-09 15:00","2021","03","09","15:00","-27.1","","-31.4","","67","","","","36","","16","","9.7","","100.94","","","","-38","","Blowing Snow"
"-105.14","69.11","CAMBRIDGE BAY A","2400601","2021-03-09 16:00","2021","03","09","16:00","-28.1","","-32.4","","67","","","","32","","20","","19.3","","100.99","","","","-41","","Blowing Snow"
"-105.14","69.11","CAMBRIDGE BAY A","2400601","2021-03-09 17:00","2021","03","09","17:00","-29.0","","-33.5","","67","","","","32","","12","","24.1","","101.03","","","","-39","","Mainly Clear"
"-105.14","69.11","CAMBRIDGE BAY A","2400601","2021-03-09 18:00","2021","03","09","18:00","-30.1","","-34.4","","67","","","","33","","28","","19.3","","101.00","","","","-45","","Blowing Snow"
"-105.14","69.11","CAMBRIDGE BAY A","2400601","2021-03-09 19:00","2021","03","09","19:00","-30.9","","-35.1","","67","","","","32","","19","","24.1","","101.01","","","","-44","","Blowing Snow"
"-105.14","69.11","CAMBRIDGE BAY A","2400601","2021-03-09 20:00","2021","03","09","20:00","-31.5","","-35.7","","67","","","","31","","16","","24.1","","101.04","","","","-44","","Blowing Snow"
"-105.14","69.11","CAMBRIDGE BAY A","2400601","2021-03-09 21:00","2021","03","09","21:00","-31.8","","-36.1","","67","","","","32","","18","","24.1","","101.05","","","","-45","","Blowing Snow"
"-105.14","69.11","CAMBRIDGE BAY A","2400601","2021-03-09 22:00","2021","03","09","22:00","-32.7","","-36.9","","67","","","","30","","17","","24.1","","101.04","","","","-45","","Blowing Snow"
"-105.14","69.11","CAMBRIDGE BAY A","2400601","2021-03-09 23:00","2021","03","09","23:00","-32.7","","-36.9","","67","","","","31","","14","","24.1","","101.04","","","","-44","","Blowing Snow"
"-105.14","69.11","CAMBRIDGE BAY A","2400601","2021-03-10 00:00","2021","03","10","00:00","-33.5","","-37.8","","66","","","","33","","27","","24.1","","100.97","","","","-49","","Blowing Snow"
"-105.14","69.11","CAMBRIDGE BAY A","2400601","2021-03-10 01:00","2021","03","10","01:00","-34.1","","-38.6","","65","","","","28","","13","","24.1","","101.06","","","","-46","","Blowing Snow"
"-105.14","69.11","CAMBRIDGE BAY A","2400601","2021-03-10 02:00","2021","03","10","02:00","-33.9","","-38.3","","65","","","","33","","20","","24.1","","101.02","","","","-48","","Blowing Snow"
"-105.14","69.11","CAMBRIDGE BAY A","2400601","2021-03-10 03:00","2021","03","10","03:00","-34.9","","-39.3","","65","","","","30","","17","","24.1","","101.06","","","","-48","","Blowing Snow"
"-105.14","69.11","CAMBRIDGE BAY A","2400601","2021-03-10 04:00","2021","03","10","04:00","-34.6","","-39.1","","65","","","","30","","26","","24.1","","101.11","","","","-51","","Blowing Snow"
"-105.14","69.11","CAMBRIDGE BAY A","2400601","2021-03-10 05:00","2021","03","10","05:00","-34.9","","-39.4","","65","","","","30","","23","","24.1","","101.12","","","","-50","","Blowing Snow"
"-105.14","69.11","CAMBRIDGE BAY A","2400601","2021-03-10 06:00","2021","03","10","06:00","-34.8","","-39.2","","65","","","","31","","23","","24.1","","101.14","","","","-50","","Blowing Snow"
"-105.14","69.11","CAMBRIDGE BAY A","2400601","2021-03-10 07:00","2021","03","10","07:00","-35.0","","-39.4","","65","","","","26","","17","","24.1","","101.17","","","","-48","","Blowing Snow"
"-105.14","69.11","CAMBRIDGE BAY A","2400601","2021-03-10 08:00","2021","03","10","08:00","-34.1","","-38.6","","65","","","","28","","18","","24.1","","101.18","","","","-48","","Blowing Snow"
"-105.14","69.11","CAMBRIDGE BAY A","2400601","2021-03-10 09:00","2021","03","10","09:00","-33.5","","-38.1","","65","","","","27","","22","","24.1","","101.17","","","","-48","","Blowing Snow"
"-105.14","69.11","CAMBRIDGE BAY A","2400601","2021-03-10 10:00","2021","03","10","10:00","-32.9","","-37.4","","65","","","","27","","21","","24.1","","101.17","","","","-47","","Blowing Snow"
"-105.14","69.11","CAMBRIDGE BAY A","2400601","2021-03-10 11:00","2021","03","10","11:00","-31.8","","-36.3","","65","","","","27","","17","","24.1","","101.16","","","","-44","","Blowing Snow"
"-105.14","69.11","CAMBRIDGE BAY A","2400601","2021-03-10 12:00","2021","03","10","12:00","-31.4","","-36.0","","64","","","","27","","20","","24.1","","101.15","","","","-45","","Blowing Snow"
"-105.14","69.11","CAMBRIDGE BAY A","2400601","2021-03-10 13:00","2021","03","10","13:00","-30.7","","-35.2","","66","","","","28","","23","","24.1","","101.19","","","","-45","","Blowing Snow"
"-105.14","69.11","CAMBRIDGE BAY A","2400601","2021-03-10 14:00","2021","03","10","14:00","-30.5","","-34.9","","66","","","","27","","17","","24.1","","101.23","","","","-43","","Blowing Snow"
"-105.14","69.11","CAMBRIDGE BAY A","2400601","2021-03-10 15:00","2021","03","10","15:00","-29.5","","-34.1","","65","","","","29","","20","","24.1","","101.18","","","","-42","","Blowing Snow"
"-105.14","69.11","CAMBRIDGE BAY A","2400601","2021-03-10 16:00","2021","03","10","16:00","-30.0","","-34.5","","65","","","","29","","24","","24.1","","101.12","","","","-44","","Blowing Snow"
"-105.14","69.11","CAMBRIDGE BAY A","2400601","2021-03-10 17:00","2021","03","10","17:00","-31.1","","-35.5","","66","","","","27","","17","","24.1","","101.11","","","","-44","","Blowing Snow"
"-105.14","69.11","CAMBRIDGE BAY A","2400601","2021-03-10 18:00","2021","03","10","18:00","-32.1","","-36.5","","66","","","","28","","19","","24.1","","101.08","","","","-45","","Blowing Snow"
"-105.14","69.11","CAMBRIDGE BAY A","2400601","2021-03-10 19:00","2021","03","10","19:00","-32.3","","-36.7","","66","","","","29","","16","","24.1","","101.05","","","","-45","","Blowing Snow"
"-105.14","69.11","CAMBRIDGE BAY A","2400601","2021-03-10 20:00","2021","03","10","20:00","-32.9","","-37.2","","66","","","","25","","18","","24.1","","101.02","","","","-46","","Blowing Snow"
"-105.14","69.11","CAMBRIDGE BAY A","2400601","2021-03-10 21:00","2021","03","10","21:00","-31.8","","-36.1","","67","","","","28","","27","","24.1","","101.00","","","","-47","","Blowing Snow"
"-105.14","69.11","CAMBRIDGE BAY A","2400601","2021-03-10 22:00","2021","03","10","22:00","-31.0","","-35.2","","67","","","","28","","28","","24.1","","100.96","","","","-46","","Blowing Snow"
"-105.14","69.11","CAMBRIDGE BAY A","2400601","2021-03-10 23:00","2021","03","10","23:00","-31.6","","-35.7","","67","","","","26","","22","","24.1","","100.95","","","","-46","","Blowing Snow"
"-105.14","69.11","CAMBRIDGE BAY A","2400601","2021-03-11 00:00","2021","03","11","00:00","-31.3","","-35.5","","68","","","","28","","27","","24.1","","100.88","","","","-47","","Blowing Snow"
"-105.14","69.11","CAMBRIDGE BAY A","2400601","2021-03-11 01:00","2021","03","11","01:00","-31.1","","-35.3","","67","","","","28","","27","","24.1","","100.88","","","","-46","","Blowing Snow"
"-105.14","69.11","CAMBRIDGE BAY A","2400601","2021-03-11 02:00","2021","03","11","02:00","-31.6","","-35.9","","67","","","","27","","26","","24.1","","100.88","","","","-47","","Blowing Snow"
"-105.14","69.11","CAMBRIDGE BAY A","2400601","2021-03-11 03:00","2021","03","11","03:00","-32.0","","-36.2","","67","","","","27","","26","","24.1","","100.86","","","","-47","","Blowing Snow"
"-105.14","69.11","CAMBRIDGE BAY A","2400601","2021-03-11 04:00","2021","03","11","04:00","-32.1","","-36.4","","67","","","","23","","9","","24.1","","100.86","","","","-41","","Blowing Snow"
"-105.14","69.11","CAMBRIDGE BAY A","2400601","2021-03-11 05:00","2021","03","11","05:00","-31.9","","-36.2","","67","","","","27","","27","","24.1","","100.81","","","","-47","","Blowing Snow"
"-105.14","69.11","CAMBRIDGE BAY A","2400601","2021-03-11 06:00","2021","03","11","06:00","-32.5","","-36.7","","67","","","","24","","17","","24.1","","100.80","","","","-45","","Blowing Snow"
"-105.14","69.11","CAMBRIDGE BAY A","2400601","2021-03-11 07:00","2021","03","11","07:00","-32.7","","-36.9","","67","","","","26","","17","","24.1","","100.82","","","","-45","","Blowing Snow"
"-105.14","69.11","CAMBRIDGE BAY A","2400601","2021-03-11 08:00","2021","03","11","08:00","-32.2","","-36.5","","66","","","","26","","21","","24.1","","100.79","","","","-46","","Blowing Snow"
"-105.14","69.11","CAMBRIDGE BAY A","2400601","2021-03-11 09:00","2021","03","11","09:00","-31.7","","-36.1","","66","","","","30","","19","","24.1","","100.81","","","","-45","","Blowing Snow"
"-105.14","69.11","CAMBRIDGE BAY A","2400601","2021-03-11 10:00","2021","03","11","10:00","-31.5","","-36.0","","66","","","","27","","16","","24.1","","100.82","","","","-44","","NA"
"-105.14","69.11","CAMBRIDGE BAY A","2400601","2021-03-11 11:00","2021","03","11","11:00","-30.5","","-35.0","","66","","","","27","","14","","24.1","","100.81","","","","-42","","Mainly Clear"
"-105.14","69.11","CAMBRIDGE BAY A","2400601","2021-03-11 12:00","2021","03","11","12:00","-29.5","","-34.0","","66","","","","29","","10","","24.1","","100.79","","","","-39","","NA"
"-105.14","69.11","CAMBRIDGE BAY A","2400601","2021-03-11 13:00","2021","03","11","13:00","-29.0","","-33.6","","65","","","","30","","11","","24.1","","100.79","","","","-38","","NA"
"-105.14","69.11","CAMBRIDGE BAY A","2400601","2021-03-11 14:00","2021","03","11","14:00","-28.4","","-33.0","","66","","","","27","","8","","24.1","","100.85","","","","-36","","Mainly Clear"
"-105.14","69.11","CAMBRIDGE BAY A","2400601","2021-03-11 15:00","2021","03","11","15:00","-28.7","","-33.1","","66","","","","31","","7","","24.1","","100.89","","","","-36","","NA"
"-105.14","69.11","CAMBRIDGE BAY A","2400601","2021-03-11 16:00","2021","03","11","16:00","-29.1","","-33.7","","66","","","","32","","8","","24.1","","100.94","","","","-37","","NA"
"-105.14","69.11","CAMBRIDGE BAY A","2400601","2021-03-11 17:00","2021","03","11","17:00","-29.4","","-33.9","","66","","","","1","","11","","24.1","","100.91","","","","-39","","Mainly Clear"
"-105.14","69.11","CAMBRIDGE BAY A","2400601","2021-03-11 18:00","2021","03","11","18:00","-31.2","","-35.5","","67","","","","4","","11","","24.1","","100.92","","","","-41","","NA"
"-105.14","69.11","CAMBRIDGE BAY A","2400601","2021-03-11 19:00","2021","03","11","19:00","-31.3","","-35.5","","68","","","","27","","5","","24.1","","100.94","","","","-37","","NA"
"-105.14","69.11","CAMBRIDGE BAY A","2400601","2021-03-11 20:00","2021","03","11","20:00","-33.5","","-37.8","","67","","","","32","","5","","24.1","","100.99","","","","-40","","Clear"
"-105.14","69.11","CAMBRIDGE BAY A","2400601","2021-03-11 21:00","2021","03","11","21:00","-31.6","","-35.9","","67","","","","2","","8","","24.1","","101.04","","","","-40","","NA"
"-105.14","69.11","CAMBRIDGE BAY A","2400601","2021-03-11 22:00","2021","03","11","22:00","-33.2","","-37.4","","67","","","","2","","8","","24.1","","101.05","","","","-42","","NA"
"-105.14","69.11","CAMBRIDGE BAY A","2400601","2021-03-11 23:00","2021","03","11","23:00","-31.3","","-35.3","","69","","","","2","","13","","24.1","","101.10","","","","-42","","Clear"
"-105.14","69.11","CAMBRIDGE BAY A","2400601","2021-03-12 00:00","2021","03","12","00:00","-32.1","","-36.1","","68","","","","2","","8","","24.1","","101.13","","","","-40","","NA"
"-105.14","69.11","CAMBRIDGE BAY A","2400601","2021-03-12 01:00","2021","03","12","01:00","-32.4","","-36.3","","69","","","","3","","18","","24.1","","101.19","","","","-45","","NA"
"-105.14","69.11","CAMBRIDGE BAY A","2400601","2021-03-12 02:00","2021","03","12","02:00","-33.4","","-37.4","","68","","","","3","","17","","24.1","","101.23","","","","-46","","Clear"
"-105.14","69.11","CAMBRIDGE BAY A","2400601","2021-03-12 03:00","2021","03","12","03:00","-33.8","","-37.9","","68","","","","2","","16","","24.1","","101.27","","","","-46","","NA"
"-105.14","69.11","CAMBRIDGE BAY A","2400601","2021-03-12 04:00","2021","03","12","04:00","-32.0","","-36.1","","68","","","","2","","23","","24.1","","101.34","","","","-46","","NA"
"-105.14","69.11","CAMBRIDGE BAY A","2400601","2021-03-12 05:00","2021","03","12","05:00","-33.0","","-37.1","","67","","","","3","","22","","24.1","","101.39","","","","-47","","Clear"
"-105.14","69.11","CAMBRIDGE BAY A","2400601","2021-03-12 06:00","2021","03","12","06:00","-32.3","","-36.4","","68","","","","3","","23","","24.1","","101.43","","","","-47","","NA"
"-105.14","69.11","CAMBRIDGE BAY A","2400601","2021-03-12 07:00","2021","03","12","07:00","-32.5","","-36.7","","67","","","","4","","22","","24.1","","101.49","","","","-47","","NA"
"-105.14","69.11","CAMBRIDGE BAY A","2400601","2021-03-12 08:00","2021","03","12","08:00","-32.4","","-36.5","","67","","","","3","","20","","8.1","","101.55","","","","-46","","Ice Crystals,Fog"
"-105.14","69.11","CAMBRIDGE BAY A","2400601","2021-03-12 09:00","2021","03","12","09:00","-31.1","","-35.3","","68","","","","4","","17","","8.1","","101.64","","","","-44","","Ice Crystals,Fog"
"-105.14","69.11","CAMBRIDGE BAY A","2400601","2021-03-12 10:00","2021","03","12","10:00","-29.8","","-34.0","","68","","","","3","","17","","11.3","","101.70","","","","-42","","Ice Crystals"
"-105.14","69.11","CAMBRIDGE BAY A","2400601","2021-03-12 11:00","2021","03","12","11:00","-28.0","","-32.1","","69","","","","1","","8","","16.1","","101.76","","","","-36","","Ice Crystals"
"-105.14","69.11","CAMBRIDGE BAY A","2400601","2021-03-12 12:00","2021","03","12","12:00","-26.3","","-30.6","","68","","","","34","","6","","24.1","","101.83","","","","-32","","Ice Crystals"
"-105.14","69.11","CAMBRIDGE BAY A","2400601","2021-03-12 13:00","2021","03","12","13:00","-25.0","","-29.4","","68","","","","29","","12","","24.1","","101.91","","","","-34","","Ice Crystals"
"-105.14","69.11","CAMBRIDGE BAY A","2400601","2021-03-12 14:00","2021","03","12","14:00","-24.8","","-29.1","","68","","","","33","","14","","24.1","","101.98","","","","-35","","Ice Crystals"
"-105.14","69.11","CAMBRIDGE BAY A","2400601","2021-03-12 15:00","2021","03","12","15:00","-24.5","","-28.6","","69","","","","30","","10","","24.1","","102.04","","","","-33","","Ice Crystals"
"-105.14","69.11","CAMBRIDGE BAY A","2400601","2021-03-12 16:00","2021","03","12","16:00","-25.2","","-29.2","","70","","","","29","","9","","24.1","","102.12","","","","-33","","NA"
"-105.14","69.11","CAMBRIDGE BAY A","2400601","2021-03-12 17:00","2021","03","12","17:00","-23.7","","-27.6","","71","","","","35","","15","","24.1","","102.18","","","","-34","","Clear"
"-105.14","69.11","CAMBRIDGE BAY A","2400601","2021-03-12 18:00","2021","03","12","18:00","-24.8","","-28.8","","70","","","","34","","13","","24.1","","102.28","","","","-34","","NA"
"-105.14","69.11","CAMBRIDGE BAY A","2400601","2021-03-12 19:00","2021","03","12","19:00","-24.8","","-29.2","","67","","","","1","","23","","24.1","","102.31","","","","-37","","Blowing Snow"
"-105.14","69.11","CAMBRIDGE BAY A","2400601","2021-03-12 20:00","2021","03","12","20:00","-24.9","","-29.4","","67","","","","1","","21","","24.1","","102.42","","","","-37","","Mainly Clear"
"-105.14","69.11","CAMBRIDGE BAY A","2400601","2021-03-12 21:00","2021","03","12","21:00","-25.2","","-29.9","","66","","","","36","","24","","24.1","","102.51","","","","-38","","NA"
"-105.14","69.11","CAMBRIDGE BAY A","2400601","2021-03-12 22:00","2021","03","12","22:00","-26.3","","-31.2","","64","","","","35","","13","","24.1","","102.62","","","","-36","","NA"
"-105.14","69.11","CAMBRIDGE BAY A","2400601","2021-03-12 23:00","2021","03","12","23:00","-24.9","","-30.6","","60","","","","36","","27","","24.1","","102.66","","","","-38","","Mainly Clear"
"-105.14","69.11","CAMBRIDGE BAY A","2400601","2021-03-13 00:00","2021","03","13","00:00","-25.2","","-31.3","","58","","","","35","","20","","24.1","","102.77","","","","-37","","Blowing Snow"
"-105.14","69.11","CAMBRIDGE BAY A","2400601","2021-03-13 01:00","2021","03","13","01:00","-26.2","","-32.5","","57","","","","36","","21","","24.1","","102.87","","","","-39","","Blowing Snow"
"-105.14","69.11","CAMBRIDGE BAY A","2400601","2021-03-13 02:00","2021","03","13","02:00","-27.9","","-33.6","","59","","","","34","","13","","24.1","","102.99","","","","-38","","Mainly Clear"
"-105.14","69.11","CAMBRIDGE BAY A","2400601","2021-03-13 03:00","2021","03","13","03:00","-28.0","","-33.6","","60","","","","34","","16","","24.1","","103.07","","","","-39","","NA"
"-105.14","69.11","CAMBRIDGE BAY A","2400601","2021-03-13 04:00","2021","03","13","04:00","-30.5","","-35.4","","63","","","","34","","17","","24.1","","103.15","","","","-43","","NA"
"-105.14","69.11","CAMBRIDGE BAY A","2400601","2021-03-13 05:00","2021","03","13","05:00","-30.8","","-35.6","","64","","","","30","","10","","24.1","","103.25","","","","-40","","Mainly Clear"
"-105.14","69.11","CAMBRIDGE BAY A","2400601","2021-03-13 06:00","2021","03","13","06:00","-30.7","","-35.4","","64","","","","31","","16","","24.1","","103.30","","","","-43","","NA"
"-105.14","69.11","CAMBRIDGE BAY A","2400601","2021-03-13 07:00","2021","03","13","07:00","-30.6","","-35.1","","65","","","","28","","15","","24.1","","103.33","","","","-42","","NA"
"-105.14","69.11","CAMBRIDGE BAY A","2400601","2021-03-13 08:00","2021","03","13","08:00","-30.0","","-34.4","","66","","","","29","","15","","24.1","","103.40","","","","-41","","Mainly Clear"
"-105.14","69.11","CAMBRIDGE BAY A","2400601","2021-03-13 09:00","2021","03","13","09:00","-29.7","","-34.2","","66","","","","27","","12","","24.1","","103.46","","","","-40","","NA"
"-105.14","69.11","CAMBRIDGE BAY A","2400601","2021-03-13 10:00","2021","03","13","10:00","-30.0","","-34.3","","67","","","","25","","9","","24.1","","103.51","","","","-39","","NA"
"-105.14","69.11","CAMBRIDGE BAY A","2400601","2021-03-13 11:00","2021","03","13","11:00","-29.1","","-33.3","","68","","","","27","","16","","24.1","","103.52","","","","-41","","Mainly Clear"
"-105.14","69.11","CAMBRIDGE BAY A","2400601","2021-03-13 12:00","2021","03","13","12:00","-27.9","","-32.2","","68","","","","30","","13","","24.1","","103.55","","","","-38","","NA"
"-105.14","69.11","CAMBRIDGE BAY A","2400601","2021-03-13 13:00","2021","03","13","13:00","-27.8","","-32.1","","68","","","","30","","16","","24.1","","103.58","","","","-39","","NA"
"-105.14","69.11","CAMBRIDGE BAY A","2400601","2021-03-13 14:00","2021","03","13","14:00","-27.0","","-31.3","","68","","","","29","","12","","24.1","","103.61","","","","-37","","Mostly Cloudy"
"-105.14","69.11","CAMBRIDGE BAY A","2400601","2021-03-13 15:00","2021","03","13","15:00","-26.2","","-30.3","","69","","","","27","","10","","24.1","","103.65","","","","-35","","NA"
"-105.14","69.11","CAMBRIDGE BAY A","2400601","2021-03-13 16:00","2021","03","13","16:00","-26.6","","-30.7","","69","","","","27","","9","","24.1","","103.65","","","","-35","","NA"
"-105.14","69.11","CAMBRIDGE BAY A","2400601","2021-03-13 17:00","2021","03","13","17:00","-27.5","","-31.4","","70","","","","25","","5","","24.1","","103.64","","","","-33","","Mostly Cloudy"
"-105.14","69.11","CAMBRIDGE BAY A","2400601","2021-03-13 18:00","2021","03","13","18:00","-27.5","","-31.3","","71","","","","28","","13","","24.1","","103.61","","","","-38","","NA"
"-105.14","69.11","CAMBRIDGE BAY A","2400601","2021-03-13 19:00","2021","03","13","19:00","-28.2","","-31.9","","71","","","","22","","3","","24.1","","103.59","","","","-31","","NA"
"-105.14","69.11","CAMBRIDGE BAY A","2400601","2021-03-13 20:00","2021","03","13","20:00","-28.3","","-32.0","","71","","","","23","","8","","19.3","","103.57","","","","-36","","Ice Crystals"
"-105.14","69.11","CAMBRIDGE BAY A","2400601","2021-03-13 21:00","2021","03","13","21:00","-28.9","","-32.6","","71","","","","27","","5","","19.3","","103.54","","","","-34","","Ice Crystals"
"-105.14","69.11","CAMBRIDGE BAY A","2400601","2021-03-13 22:00","2021","03","13","22:00","-28.7","","-32.4","","71","","","","36","","2","","20.9","","103.52","","","","-31","","Ice Crystals"
"-105.14","69.11","CAMBRIDGE BAY A","2400601","2021-03-13 23:00","2021","03","13","23:00","-28.8","","-32.5","","71","","","","22","","9","","20.9","","103.51","","","","-37","","Ice Crystals"
"-105.14","69.11","CAMBRIDGE BAY A","2400601","2021-03-14 00:00","2021","03","14","00:00","-29.8","","-33.6","","71","","","","36","","2","","20.9","","103.48","","","","-32","","Ice Crystals"
"-105.14","69.11","CAMBRIDGE BAY A","2400601","2021-03-14 01:00","2021","03","14","01:00","-30.8","","-34.6","","70","","","","36","","2","","19.3","","103.46","","","","-33","","Ice Crystals"
"-105.14","69.11","CAMBRIDGE BAY A","2400601","2021-03-14 02:00","2021","03","14","02:00","-29.2","","-32.9","","71","","","","21","","5","","24.1","","103.46","","","","-35","","Mainly Clear"
"-105.14","69.11","CAMBRIDGE BAY A","2400601","2021-03-14 03:00","2021","03","14","03:00","-30.7","","-34.4","","70","","","","3","","6","","24.1","","103.46","","","","-37","","NA"
"-105.14","69.11","CAMBRIDGE BAY A","2400601","2021-03-14 04:00","2021","03","14","04:00","-31.8","","-35.7","","69","","","","4","","13","","24.1","","103.43","","","","-43","","NA"
"-105.14","69.11","CAMBRIDGE BAY A","2400601","2021-03-14 05:00","2021","03","14","05:00","-30.8","","-34.7","","70","","","","5","","9","","24.1","","103.41","","","","-40","","Mainly Clear"
"-105.14","69.11","CAMBRIDGE BAY A","2400601","2021-03-14 06:00","2021","03","14","06:00","-32.6","","-36.5","","69","","","","5","","12","","24.1","","103.41","","","","-43","","NA"
"-105.14","69.11","CAMBRIDGE BAY A","2400601","2021-03-14 07:00","2021","03","14","07:00","-32.0","","-36.0","","69","","","","3","","16","","24.1","","103.42","","","","-44","","NA"
"-105.14","69.11","CAMBRIDGE BAY A","2400601","2021-03-14 08:00","2021","03","14","08:00","-31.4","","-35.3","","69","","","","3","","17","","24.1","","103.40","","","","-44","","Mostly Cloudy"
"-105.14","69.11","CAMBRIDGE BAY A","2400601","2021-03-14 09:00","2021","03","14","09:00","-30.6","","-34.5","","69","","","","5","","18","","24.1","","103.39","","","","-43","","NA"
"-105.14","69.11","CAMBRIDGE BAY A","2400601","2021-03-14 10:00","2021","03","14","10:00","-28.0","","-31.8","","71","","","","8","","17","","24.1","","103.41","","","","-40","","Ice Crystals"
"-105.14","69.11","CAMBRIDGE BAY A","2400601","2021-03-14 11:00","2021","03","14","11:00","-27.4","","-31.2","","71","","","","6","","17","","24.1","","103.36","","","","-39","","Ice Crystals"
"-105.14","69.11","CAMBRIDGE BAY A","2400601","2021-03-14 12:00","2021","03","14","12:00","-27.8","","-31.6","","70","","","","7","","21","","24.1","","103.35","","","","-41","","Ice Crystals"
"-105.14","69.11","CAMBRIDGE BAY A","2400601","2021-03-14 13:00","2021","03","14","13:00","-27.8","","-31.7","","70","","","","7","","19","","24.1","","103.29","","","","-40","","Ice Crystals"
"-105.14","69.11","CAMBRIDGE BAY A","2400601","2021-03-14 14:00","2021","03","14","14:00","-27.4","","-31.3","","70","","","","8","","16","","24.1","","103.29","","","","-39","","Mainly Clear"
"-105.14","69.11","CAMBRIDGE BAY A","2400601","2021-03-14 15:00","2021","03","14","15:00","-27.6","","-31.6","","69","","","","7","","18","","24.1","","103.24","","","","-39","","NA"
"-105.14","69.11","CAMBRIDGE BAY A","2400601","2021-03-14 16:00","2021","03","14","16:00","-28.0","","-32.1","","69","","","","9","","15","","24.1","","103.22","","","","-39","","NA"
"-105.14","69.11","CAMBRIDGE BAY A","2400601","2021-03-14 17:00","2021","03","14","17:00","-28.7","","-32.9","","68","","","","6","","18","","24.1","","103.18","","","","-41","","Mainly Clear"
"-105.14","69.11","CAMBRIDGE BAY A","2400601","2021-03-14 18:00","2021","03","14","18:00","-29.9","","-33.9","","69","","","","6","","23","","24.1","","103.13","","","","-44","","NA"
"-105.14","69.11","CAMBRIDGE BAY A","2400601","2021-03-14 19:00","2021","03","14","19:00","-30.5","","-34.6","","68","","","","6","","20","","24.1","","103.08","","","","-44","","NA"
"-105.14","69.11","CAMBRIDGE BAY A","2400601","2021-03-14 20:00","2021","03","14","20:00","-30.8","","-35.0","","68","","","","7","","17","","24.1","","103.05","","","","-43","","Mainly Clear"
"-105.14","69.11","CAMBRIDGE BAY A","2400601","2021-03-14 21:00","2021","03","14","21:00","-32.1","","-36.3","","67","","","","5","","19","","20.9","","103.03","","","","-45","","Ice Crystals"
"-105.14","69.11","CAMBRIDGE BAY A","2400601","2021-03-14 22:00","2021","03","14","22:00","-32.8","","-36.9","","68","","","","5","","19","","20.9","","102.97","","","","-46","","Ice Crystals"
"-105.14","69.11","CAMBRIDGE BAY A","2400601","2021-03-14 23:00","2021","03","14","23:00","-34.0","","-38.2","","67","","","","4","","14","","24.1","","102.96","","","","-46","","Ice Crystals"
"-105.14","69.11","CAMBRIDGE BAY A","2400601","2021-03-15 00:00","2021","03","15","00:00","-34.2","","-38.3","","68","","","","6","","15","","24.1","","102.89","","","","-47","","Ice Crystals"
"-105.14","69.11","CAMBRIDGE BAY A","2400601","2021-03-15 01:00","2021","03","15","01:00","-35.0","","-39.1","","67","","","","5","","14","","24.1","","102.82","","","","-47","","Ice Crystals"
"-105.14","69.11","CAMBRIDGE BAY A","2400601","2021-03-15 02:00","2021","03","15","02:00","-34.9","","-38.9","","68","","","","4","","20","","24.1","","102.74","","","","-49","","Ice Crystals"
"-105.14","69.11","CAMBRIDGE BAY A","2400601","2021-03-15 03:00","2021","03","15","03:00","-34.7","","-38.7","","68","","","","6","","20","","24.1","","102.65","","","","-49","","Ice Crystals"
"-105.14","69.11","CAMBRIDGE BAY A","2400601","2021-03-15 04:00","2021","03","15","04:00","-34.2","","-38.2","","68","","","","4","","21","","24.1","","102.57","","","","-49","","Ice Crystals"
"-105.14","69.11","CAMBRIDGE BAY A","2400601","2021-03-15 05:00","2021","03","15","05:00","-34.4","","-38.4","","68","","","","4","","15","","24.1","","102.52","","","","-47","","Ice Crystals"
"-105.14","69.11","CAMBRIDGE BAY A","2400601","2021-03-15 06:00","2021","03","15","06:00","-33.6","","-37.5","","69","","","","5","","16","","24.1","","102.40","","","","-46","","Ice Crystals"
"-105.14","69.11","CAMBRIDGE BAY A","2400601","2021-03-15 07:00","2021","03","15","07:00","-33.1","","-37.0","","68","","","","4","","19","","24.1","","102.29","","","","-47","","Ice Crystals"
"-105.14","69.11","CAMBRIDGE BAY A","2400601","2021-03-15 08:00","2021","03","15","08:00","-32.1","","-36.1","","68","","","","6","","20","","24.1","","102.27","","","","-46","","Ice Crystals"
"-105.14","69.11","CAMBRIDGE BAY A","2400601","2021-03-15 09:00","2021","03","15","09:00","-31.6","","-35.6","","69","","","","7","","15","","24.1","","102.19","","","","-43","","Ice Crystals"
"-105.14","69.11","CAMBRIDGE BAY A","2400601","2021-03-15 10:00","2021","03","15","10:00","-31.2","","-35.2","","69","","","","7","","16","","24.1","","102.07","","","","-43","","Ice Crystals"
"-105.14","69.11","CAMBRIDGE BAY A","2400601","2021-03-15 11:00","2021","03","15","11:00","-29.8","","-33.8","","69","","","","8","","17","","24.1","","101.93","","","","-42","","Ice Crystals"
"-105.14","69.11","CAMBRIDGE BAY A","2400601","2021-03-15 12:00","2021","03","15","12:00","-29.6","","-33.5","","69","","","","6","","21","","24.1","","101.85","","","","-43","","Ice Crystals"
"-105.14","69.11","CAMBRIDGE BAY A","2400601","2021-03-15 13:00","2021","03","15","13:00","-28.2","","-32.1","","70","","","","5","","17","","24.1","","101.72","","","","-40","","Ice Crystals"
"-105.14","69.11","CAMBRIDGE BAY A","2400601","2021-03-15 14:00","2021","03","15","14:00","-28.2","","-32.1","","70","","","","6","","16","","24.1","","101.59","","","","-40","","Ice Crystals"
"-105.14","69.11","CAMBRIDGE BAY A","2400601","2021-03-15 15:00","2021","03","15","15:00","-28.1","","-32.0","","70","","","","6","","21","","24.1","","101.45","","","","-41","","Ice Crystals"
"-105.14","69.11","CAMBRIDGE BAY A","2400601","2021-03-15 16:00","2021","03","15","16:00","-28.7","","-32.7","","70","","","","5","","18","","24.1","","101.38","","","","-41","","Ice Crystals"
"-105.14","69.11","CAMBRIDGE BAY A","2400601","2021-03-15 17:00","2021","03","15","17:00","-28.4","","-32.4","","69","","","","6","","20","","24.1","","101.27","","","","-41","","Ice Crystals"
"-105.14","69.11","CAMBRIDGE BAY A","2400601","2021-03-15 18:00","2021","03","15","18:00","-29.8","","-33.8","","69","","","","5","","19","","24.1","","101.18","","","","-43","","Ice Crystals"
"-105.14","69.11","CAMBRIDGE BAY A","2400601","2021-03-15 19:00","2021","03","15","19:00","-29.6","","-33.8","","68","","","","5","","27","","24.1","","101.06","","","","-44","","Ice Crystals"
"-105.14","69.11","CAMBRIDGE BAY A","2400601","2021-03-15 20:00","2021","03","15","20:00","-30.2","","-34.2","","69","","","","4","","19","","24.1","","100.99","","","","-43","","Ice Crystals"
"-105.14","69.11","CAMBRIDGE BAY A","2400601","2021-03-15 21:00","2021","03","15","21:00","-29.4","","-33.5","","69","","","","4","","20","","24.1","","100.91","","","","-42","","Ice Crystals"
"-105.14","69.11","CAMBRIDGE BAY A","2400601","2021-03-15 22:00","2021","03","15","22:00","-29.5","","-33.7","","68","","","","5","","7","","24.1","","100.84","","","","-37","","Ice Crystals"
"-105.14","69.11","CAMBRIDGE BAY A","2400601","2021-03-15 23:00","2021","03","15","23:00","-29.6","","-33.6","","69","","","","4","","17","","24.1","","100.77","","","","-42","","Ice Crystals"
"-105.14","69.11","CAMBRIDGE BAY A","2400601","2021-03-16 00:00","2021","03","16","00:00","-29.5","","-33.4","","69","","","","2","","18","","24.1","","100.67","","","","-42","","Ice Crystals"
"-105.14","69.11","CAMBRIDGE BAY A","2400601","2021-03-16 01:00","2021","03","16","01:00","-29.3","","-32.9","","71","","","","2","","22","","24.1","","100.60","","","","-43","","Ice Crystals"
"-105.14","69.11","CAMBRIDGE BAY A","2400601","2021-03-16 02:00","2021","03","16","02:00","-29.6","","-33.4","","70","","","","2","","20","","24.1","","100.54","","","","-43","","Ice Crystals"
"-105.14","69.11","CAMBRIDGE BAY A","2400601","2021-03-16 03:00","2021","03","16","03:00","-30.4","","-34.2","","70","","","","3","","19","","24.1","","100.46","","","","-43","","NA"
"-105.14","69.11","CAMBRIDGE BAY A","2400601","2021-03-16 04:00","2021","03","16","04:00","-30.9","","-34.9","","69","","","","3","","24","","24.1","","100.45","","","","-45","","Ice Crystals"
"-105.14","69.11","CAMBRIDGE BAY A","2400601","2021-03-16 05:00","2021","03","16","05:00","-30.8","","-34.8","","69","","","","1","","4","","9.7","","100.48","","","","-35","","Ice Crystals"
"-105.14","69.11","CAMBRIDGE BAY A","2400601","2021-03-16 06:00","2021","03","16","06:00","-30.7","","-34.6","","69","","","","26","","10","","14.5","","100.49","","","","-40","","Ice Crystals"
"-105.14","69.11","CAMBRIDGE BAY A","2400601","2021-03-16 07:00","2021","03","16","07:00","-30.3","","-34.2","","69","","","","30","","14","","16.1","","100.49","","","","-41","","Ice Crystals"
"-105.14","69.11","CAMBRIDGE BAY A","2400601","2021-03-16 08:00","2021","03","16","08:00","-30.3","","-34.3","","69","","","","31","","17","","19.3","","100.48","","","","-43","","Ice Crystals"
"-105.14","69.11","CAMBRIDGE BAY A","2400601","2021-03-16 09:00","2021","03","16","09:00","-29.1","","-33.0","","70","","","","31","","13","","19.3","","100.50","","","","-39","","Ice Crystals"
"-105.14","69.11","CAMBRIDGE BAY A","2400601","2021-03-16 10:00","2021","03","16","10:00","-28.6","","-32.5","","70","","","","32","","17","","24.1","","100.51","","","","-40","","Ice Crystals"
"-105.14","69.11","CAMBRIDGE BAY A","2400601","2021-03-16 11:00","2021","03","16","11:00","-27.0","","-31.0","","69","","","","31","","20","","24.1","","100.52","","","","-39","","Ice Crystals"
"-105.14","69.11","CAMBRIDGE BAY A","2400601","2021-03-16 12:00","2021","03","16","12:00","-27.0","","-31.3","","68","","","","31","","18","","24.1","","100.55","","","","-39","","Ice Crystals"
"-105.14","69.11","CAMBRIDGE BAY A","2400601","2021-03-16 13:00","2021","03","16","13:00","-26.5","","-30.9","","67","","","","31","","18","","19.3","","100.57","","","","-38","","Ice Crystals,Blowing Snow"
"-105.14","69.11","CAMBRIDGE BAY A","2400601","2021-03-16 14:00","2021","03","16","14:00","-26.7","","-31.0","","68","","","","30","","17","","24.1","","100.57","","","","-38","","Ice Crystals"
"-105.14","69.11","CAMBRIDGE BAY A","2400601","2021-03-16 15:00","2021","03","16","15:00","-25.9","","-30.1","","69","","","","29","","20","","24.1","","100.61","","","","-38","","Ice Crystals"
"-105.14","69.11","CAMBRIDGE BAY A","2400601","2021-03-16 16:00","2021","03","16","16:00","-25.8","","-29.9","","70","","","","27","","24","","24.1","","100.62","","","","-39","","Ice Crystals"
"-105.14","69.11","CAMBRIDGE BAY A","2400601","2021-03-16 17:00","2021","03","16","17:00","-26.7","","-30.6","","70","","","","27","","28","","24.1","","100.61","","","","-41","","Ice Crystals"
"-105.14","69.11","CAMBRIDGE BAY A","2400601","2021-03-16 18:00","2021","03","16","18:00","-28.3","","-32.1","","71","","","","27","","18","","24.1","","100.62","","","","-40","","Ice Crystals"
"-105.14","69.11","CAMBRIDGE BAY A","2400601","2021-03-16 19:00","2021","03","16","19:00","-29.2","","-33.0","","70","","","","28","","22","","24.1","","100.60","","","","-43","","Ice Crystals"
"-105.14","69.11","CAMBRIDGE BAY A","2400601","2021-03-16 20:00","2021","03","16","20:00","-29.5","","-33.4","","70","","","","28","","25","","24.1","","100.61","","","","-44","","Ice Crystals"
"-105.14","69.11","CAMBRIDGE BAY A","2400601","2021-03-16 21:00","2021","03","16","21:00","-29.4","","-33.2","","70","","","","28","","24","","24.1","","100.61","","","","-43","","Ice Crystals"
"-105.14","69.11","CAMBRIDGE BAY A","2400601","2021-03-16 22:00","2021","03","16","22:00","-29.9","","-33.6","","70","","","","27","","25","","24.1","","100.60","","","","-44","","Ice Crystals"
"-105.14","69.11","CAMBRIDGE BAY A","2400601","2021-03-16 23:00","2021","03","16","23:00","-30.5","","-34.3","","70","","","","26","","18","","24.1","","100.60","","","","-43","","Ice Crystals"
"-105.14","69.11","CAMBRIDGE BAY A","2400601","2021-03-17 00:00","2021","03","17","00:00","-30.3","","-34.1","","70","","","","26","","22","","24.1","","100.61","","","","-44","","Ice Crystals"
"-105.14","69.11","CAMBRIDGE BAY A","2400601","2021-03-17 01:00","2021","03","17","01:00","-30.3","","-34.2","","70","","","","27","","17","","24.1","","100.59","","","","-43","","Ice Crystals"
"-105.14","69.11","CAMBRIDGE BAY A","2400601","2021-03-17 02:00","2021","03","17","02:00","-29.8","","-33.7","","70","","","","26","","22","","24.1","","100.56","","","","-43","","Ice Crystals"
"-105.14","69.11","CAMBRIDGE BAY A","2400601","2021-03-17 03:00","2021","03","17","03:00","-30.6","","-34.5","","70","","","","24","","16","","12.9","","100.55","","","","-43","","Ice Crystals"
"-105.14","69.11","CAMBRIDGE BAY A","2400601","2021-03-17 04:00","2021","03","17","04:00","-29.7","","-33.5","","70","","","","24","","13","","11.3","","100.52","","","","-40","","Ice Crystals"
"-105.14","69.11","CAMBRIDGE BAY A","2400601","2021-03-17 05:00","2021","03","17","05:00","-29.0","","-32.9","","70","","","","27","","29","","11.3","","100.52","","","","-44","","Ice Crystals,Blowing Snow"
"-105.14","69.11","CAMBRIDGE BAY A","2400601","2021-03-17 06:00","2021","03","17","06:00","-29.1","","-32.9","","70","","","","28","","25","","12.9","","100.53","","","","-43","","Ice Crystals"
"-105.14","69.11","CAMBRIDGE BAY A","2400601","2021-03-17 07:00","2021","03","17","07:00","-28.9","","-32.7","","70","","","","27","","32","","8.1","","100.51","","","","-45","","Ice Crystals,Blowing Snow"
"-105.14","69.11","CAMBRIDGE BAY A","2400601","2021-03-17 08:00","2021","03","17","08:00","-28.4","","-32.2","","70","","","","27","","27","","8.1","","100.52","","","","-43","","Ice Crystals,Blowing Snow"
"-105.14","69.11","CAMBRIDGE BAY A","2400601","2021-03-17 09:00","2021","03","17","09:00","-28.1","","-32.0","","70","","","","28","","30","","4.8","","100.50","","","","-43","","Ice Crystals,Blowing Snow"
"-105.14","69.11","CAMBRIDGE BAY A","2400601","2021-03-17 10:00","2021","03","17","10:00","-27.4","","-31.3","","70","","","","26","","31","","4.8","","100.51","","","","-42","","Ice Crystals,Blowing Snow"
"-105.14","69.11","CAMBRIDGE BAY A","2400601","2021-03-17 11:00","2021","03","17","11:00","-26.7","","-30.6","","70","","","","26","","31","","4.8","","100.52","","","","-42","","Ice Crystals,Blowing Snow"
"-105.14","69.11","CAMBRIDGE BAY A","2400601","2021-03-17 12:00","2021","03","17","12:00","-26.4","","-30.3","","70","","","","26","","29","","4.8","","100.51","","","","-41","","Ice Crystals,Blowing Snow"
"-105.14","69.11","CAMBRIDGE BAY A","2400601","2021-03-17 13:00","2021","03","17","13:00","-26.2","","-30.1","","70","","","","27","","27","","4.8","","100.53","","","","-40","","Ice Crystals,Blowing Snow"
"-105.14","69.11","CAMBRIDGE BAY A","2400601","2021-03-17 14:00","2021","03","17","14:00","-25.7","","-29.6","","71","","","","25","","28","","4.8","","100.54","","","","-40","","Ice Crystals,Blowing Snow"
"-105.14","69.11","CAMBRIDGE BAY A","2400601","2021-03-17 15:00","2021","03","17","15:00","-25.4","","-29.3","","71","","","","27","","27","","4.8","","100.55","","","","-39","","Ice Crystals,Blowing Snow"
"-105.14","69.11","CAMBRIDGE BAY A","2400601","2021-03-17 16:00","2021","03","17","16:00","-25.5","","-29.3","","71","","","","26","","30","","6.4","","100.53","","","","-40","","Ice Crystals,Blowing Snow"
"-105.14","69.11","CAMBRIDGE BAY A","2400601","2021-03-17 17:00","2021","03","17","17:00","-25.6","","-29.3","","72","","","","26","","36","","4.8","","100.52","","","","-41","","Ice Crystals,Blowing Snow"
"-105.14","69.11","CAMBRIDGE BAY A","2400601","2021-03-17 18:00","2021","03","17","18:00","-26.4","","-30.0","","72","","","","27","","34","","6.4","","100.52","","","","-42","","Ice Crystals,Blowing Snow"
"-105.14","69.11","CAMBRIDGE BAY A","2400601","2021-03-17 19:00","2021","03","17","19:00","-27.1","","-30.7","","72","","","","28","","28","","6.4","","100.49","","","","-41","","Ice Crystals,Blowing Snow"
"-105.14","69.11","CAMBRIDGE BAY A","2400601","2021-03-17 20:00","2021","03","17","20:00","-27.3","","-31.0","","72","","","","26","","27","","4.8","","100.47","","","","-41","","Ice Crystals,Blowing Snow"
"-105.14","69.11","CAMBRIDGE BAY A","2400601","2021-03-17 21:00","2021","03","17","21:00","-27.6","","-31.3","","72","","","","27","","27","","24.1","","100.43","","","","-42","","Ice Crystals,Blowing Snow"
"-105.14","69.11","CAMBRIDGE BAY A","2400601","2021-03-17 22:00","2021","03","17","22:00","-27.7","","-31.4","","71","","","","27","","26","","19.3","","100.40","","","","-42","","Ice Crystals,Blowing Snow"
"-105.14","69.11","CAMBRIDGE BAY A","2400601","2021-03-17 23:00","2021","03","17","23:00","-28.0","","-31.7","","71","","","","27","","22","","19.3","","100.40","","","","-41","","Ice Crystals,Blowing Snow"
"-105.14","69.11","CAMBRIDGE BAY A","2400601","2021-03-18 00:00","2021","03","18","00:00","-28.2","","-31.9","","71","","","","27","","19","","19.3","","100.39","","","","-41","","Ice Crystals,Blowing Snow"
"-105.14","69.11","CAMBRIDGE BAY A","2400601","2021-03-18 01:00","2021","03","18","01:00","-28.3","","-32.0","","71","","","","24","","12","","19.3","","100.35","","","","-38","","Ice Crystals,Blowing Snow"
"-105.14","69.11","CAMBRIDGE BAY A","2400601","2021-03-18 02:00","2021","03","18","02:00","-29.0","","-32.7","","71","","","","24","","14","","19.3","","100.27","","","","-40","","Ice Crystals,Blowing Snow"
"-105.14","69.11","CAMBRIDGE BAY A","2400601","2021-03-18 03:00","2021","03","18","03:00","-30.1","","-33.9","","70","","","","26","","18","","19.3","","100.25","","","","-43","","Ice Crystals,Blowing Snow"
"-105.14","69.11","CAMBRIDGE BAY A","2400601","2021-03-18 04:00","2021","03","18","04:00","-30.0","","-33.8","","70","","","","25","","18","","19.3","","100.26","","","","-42","","Ice Crystals,Blowing Snow"
"-105.14","69.11","CAMBRIDGE BAY A","2400601","2021-03-18 05:00","2021","03","18","05:00","-29.4","","-33.1","","71","","","","26","","24","","19.3","","100.21","","","","-43","","Ice Crystals,Blowing Snow"
"-105.14","69.11","CAMBRIDGE BAY A","2400601","2021-03-18 06:00","2021","03","18","06:00","-28.8","","-32.5","","71","","","","27","","17","","24.1","","100.24","","","","-41","","Ice Crystals"
"-105.14","69.11","CAMBRIDGE BAY A","2400601","2021-03-18 07:00","2021","03","18","07:00","-30.1","","-33.9","","70","","","","26","","17","","24.1","","100.21","","","","-42","","Ice Crystals"
"-105.14","69.11","CAMBRIDGE BAY A","2400601","2021-03-18 08:00","2021","03","18","08:00","-29.1","","-33.0","","70","","","","27","","20","","24.1","","100.21","","","","-42","","Ice Crystals"
"-105.14","69.11","CAMBRIDGE BAY A","2400601","2021-03-18 09:00","2021","03","18","09:00","-28.2","","-32.0","","71","","","","27","","13","","16.1","","100.21","","","","-38","","Ice Crystals"
"-105.14","69.11","CAMBRIDGE BAY A","2400601","2021-03-18 10:00","2021","03","18","10:00","-28.9","","-32.7","","70","","","","27","","11","","16.1","","100.24","","","","-38","","Ice Crystals"
"-105.14","69.11","CAMBRIDGE BAY A","2400601","2021-03-18 11:00","2021","03","18","11:00","-28.4","","-32.2","","70","","","","25","","15","","19.3","","100.28","","","","-39","","Ice Crystals"
"-105.14","69.11","CAMBRIDGE BAY A","2400601","2021-03-18 12:00","2021","03","18","12:00","-27.4","","-31.2","","71","","","","26","","20","","19.3","","100.31","","","","-40","","Ice Crystals"
"-105.14","69.11","CAMBRIDGE BAY A","2400601","2021-03-18 13:00","2021","03","18","13:00","-26.6","","-30.4","","71","","","","29","","12","","19.3","","100.32","","","","-36","","Ice Crystals"
"-105.14","69.11","CAMBRIDGE BAY A","2400601","2021-03-18 14:00","2021","03","18","14:00","-26.3","","-30.0","","71","","","","27","","7","","19.3","","100.35","","","","-33","","Ice Crystals"
"-105.14","69.11","CAMBRIDGE BAY A","2400601","2021-03-18 15:00","2021","03","18","15:00","-26.2","","-29.9","","72","","","","26","","9","","19.3","","100.39","","","","-34","","Ice Crystals"
"-105.14","69.11","CAMBRIDGE BAY A","2400601","2021-03-18 16:00","2021","03","18","16:00","-26.7","","-30.4","","72","","","","27","","8","","19.3","","100.49","","","","-34","","Ice Crystals"
"-105.14","69.11","CAMBRIDGE BAY A","2400601","2021-03-18 17:00","2021","03","18","17:00","-27.2","","-30.9","","72","","","","24","","11","","19.3","","100.51","","","","-36","","Ice Crystals"
"-105.14","69.11","CAMBRIDGE BAY A","2400601","2021-03-18 18:00","2021","03","18","18:00","-27.7","","-31.4","","72","","","","25","","16","","19.3","","100.54","","","","-39","","Ice Crystals"
"-105.14","69.11","CAMBRIDGE BAY A","2400601","2021-03-18 19:00","2021","03","18","19:00","-28.4","","-32.1","","71","","","","26","","20","","19.3","","100.56","","","","-41","","Ice Crystals"
"-105.14","69.11","CAMBRIDGE BAY A","2400601","2021-03-18 20:00","2021","03","18","20:00","-29.5","","-33.2","","71","","","","26","","22","","19.3","","100.58","","","","-43","","Ice Crystals"
"-105.14","69.11","CAMBRIDGE BAY A","2400601","2021-03-18 21:00","2021","03","18","21:00","-29.3","","-33.1","","71","","","","26","","18","","24.1","","100.65","","","","-42","","Ice Crystals"
"-105.14","69.11","CAMBRIDGE BAY A","2400601","2021-03-18 22:00","2021","03","18","22:00","-29.7","","-33.5","","70","","","","26","","17","","24.1","","100.67","","","","-42","","Ice Crystals"
"-105.14","69.11","CAMBRIDGE BAY A","2400601","2021-03-18 23:00","2021","03","18","23:00","-29.8","","-33.6","","70","","","","26","","21","","24.1","","100.72","","","","-43","","Ice Crystals"
"-105.14","69.11","CAMBRIDGE BAY A","2400601","2021-03-19 00:00","2021","03","19","00:00","-29.6","","-33.4","","70","","","","24","","16","","24.1","","100.77","","","","-41","","Ice Crystals"
"-105.14","69.11","CAMBRIDGE BAY A","2400601","2021-03-19 01:00","2021","03","19","01:00","-29.8","","-33.6","","70","","","","27","","17","","24.1","","100.81","","","","-42","","Ice Crystals"
"-105.14","69.11","CAMBRIDGE BAY A","2400601","2021-03-19 02:00","2021","03","19","02:00","-30.7","","-34.6","","70","","","","25","","17","","24.1","","100.84","","","","-43","","Ice Crystals"
"-105.14","69.11","CAMBRIDGE BAY A","2400601","2021-03-19 03:00","2021","03","19","03:00","-31.1","","-35.0","","69","","","","25","","17","","24.1","","100.90","","","","-44","","Ice Crystals"
"-105.14","69.11","CAMBRIDGE BAY A","2400601","2021-03-19 04:00","2021","03","19","04:00","-31.1","","-35.0","","69","","","","25","","17","","24.1","","100.92","","","","-44","","Ice Crystals"
"-105.14","69.11","CAMBRIDGE BAY A","2400601","2021-03-19 05:00","2021","03","19","05:00","-31.9","","-35.9","","69","","","","25","","14","","24.1","","100.96","","","","-43","","Ice Crystals"
"-105.14","69.11","CAMBRIDGE BAY A","2400601","2021-03-19 06:00","2021","03","19","06:00","-32.6","","-36.6","","68","","","","25","","11","","24.1","","101.01","","","","-43","","Ice Crystals"
"-105.14","69.11","CAMBRIDGE BAY A","2400601","2021-03-19 07:00","2021","03","19","07:00","-32.2","","-36.2","","68","","","","25","","12","","24.1","","101.03","","","","-43","","Ice Crystals"
"-105.14","69.11","CAMBRIDGE BAY A","2400601","2021-03-19 08:00","2021","03","19","08:00","-31.6","","-35.6","","68","","","","27","","14","","24.1","","101.04","","","","-43","","Ice Crystals"
"-105.14","69.11","CAMBRIDGE BAY A","2400601","2021-03-19 09:00","2021","03","19","09:00","-29.8","","-33.7","","69","","","","29","","11","","22.5","","101.07","","","","-39","","Ice Crystals"
"-105.14","69.11","CAMBRIDGE BAY A","2400601","2021-03-19 10:00","2021","03","19","10:00","-30.8","","-34.8","","69","","","","22","","8","","22.5","","101.14","","","","-39","","Ice Crystals"
"-105.14","69.11","CAMBRIDGE BAY A","2400601","2021-03-19 11:00","2021","03","19","11:00","-29.6","","-33.5","","69","","","","25","","14","","22.5","","101.17","","","","-41","","Ice Crystals"
"-105.14","69.11","CAMBRIDGE BAY A","2400601","2021-03-19 12:00","2021","03","19","12:00","-28.4","","-32.3","","70","","","","24","","14","","22.5","","101.19","","","","-39","","Ice Crystals"
"-105.14","69.11","CAMBRIDGE BAY A","2400601","2021-03-19 13:00","2021","03","19","13:00","-26.8","","-30.6","","71","","","","26","","12","","22.5","","101.19","","","","-36","","Ice Crystals"
"-105.14","69.11","CAMBRIDGE BAY A","2400601","2021-03-19 14:00","2021","03","19","14:00","-26.9","","-30.6","","71","","","","27","","13","","22.5","","101.21","","","","-37","","Ice Crystals"
"-105.14","69.11","CAMBRIDGE BAY A","2400601","2021-03-19 15:00","2021","03","19","15:00","-26.7","","-30.4","","71","","","","25","","16","","22.5","","101.20","","","","-38","","Ice Crystals"
"-105.14","69.11","CAMBRIDGE BAY A","2400601","2021-03-19 16:00","2021","03","19","16:00","-26.8","","-30.5","","71","","","","24","","9","","22.5","","101.22","","","","-35","","Ice Crystals"
"-105.14","69.11","CAMBRIDGE BAY A","2400601","2021-03-19 17:00","2021","03","19","17:00","-27.2","","-30.9","","71","","","","26","","9","","22.5","","101.21","","","","-35","","Ice Crystals"
"-105.14","69.11","CAMBRIDGE BAY A","2400601","2021-03-19 18:00","2021","03","19","18:00","-28.0","","-31.7","","71","","","","23","","10","","22.5","","101.21","","","","-37","","Ice Crystals"
"-105.14","69.11","CAMBRIDGE BAY A","2400601","2021-03-19 19:00","2021","03","19","19:00","-28.9","","-32.7","","71","","","","26","","13","","22.5","","101.17","","","","-39","","Ice Crystals"
"-105.14","69.11","CAMBRIDGE BAY A","2400601","2021-03-19 20:00","2021","03","19","20:00","-29.7","","-33.5","","70","","","","27","","13","","22.5","","101.20","","","","-40","","Ice Crystals"
"-105.14","69.11","CAMBRIDGE BAY A","2400601","2021-03-19 21:00","2021","03","19","21:00","-29.6","","-33.4","","70","","","","28","","16","","22.5","","101.21","","","","-41","","Ice Crystals"
"-105.14","69.11","CAMBRIDGE BAY A","2400601","2021-03-19 22:00","2021","03","19","22:00","-30.4","","-34.2","","70","","","","26","","13","","24.1","","101.20","","","","-41","","Ice Crystals"
"-105.14","69.11","CAMBRIDGE BAY A","2400601","2021-03-19 23:00","2021","03","19","23:00","-30.8","","-34.7","","69","","","","26","","16","","24.1","","101.19","","","","-43","","Ice Crystals"
"-105.14","69.11","CAMBRIDGE BAY A","2400601","2021-03-20 00:00","2021","03","20","00:00","-30.9","","-34.8","","69","","","","27","","11","","24.1","","101.16","","","","-41","","Ice Crystals"
"-105.14","69.11","CAMBRIDGE BAY A","2400601","2021-03-20 01:00","2021","03","20","01:00","-31.1","","-35.1","","69","","","","24","","18","","24.1","","101.15","","","","-44","","Ice Crystals"
"-105.14","69.11","CAMBRIDGE BAY A","2400601","2021-03-20 02:00","2021","03","20","02:00","-31.0","","-34.9","","69","","","","25","","18","","24.1","","101.13","","","","-44","","Ice Crystals"
"-105.14","69.11","CAMBRIDGE BAY A","2400601","2021-03-20 03:00","2021","03","20","03:00","-31.0","","-35.0","","69","","","","25","","20","","24.1","","101.11","","","","-44","","Ice Crystals"
"-105.14","69.11","CAMBRIDGE BAY A","2400601","2021-03-20 04:00","2021","03","20","04:00","-31.8","","-35.8","","69","","","","25","","18","","24.1","","101.11","","","","-45","","Ice Crystals"
"-105.14","69.11","CAMBRIDGE BAY A","2400601","2021-03-20 05:00","2021","03","20","05:00","-32.2","","-36.2","","68","","","","24","","18","","24.1","","101.07","","","","-45","","Ice Crystals"
"-105.14","69.11","CAMBRIDGE BAY A","2400601","2021-03-20 06:00","2021","03","20","06:00","-32.5","","-36.5","","68","","","","22","","11","","24.1","","101.07","","","","-43","","Ice Crystals"
"-105.14","69.11","CAMBRIDGE BAY A","2400601","2021-03-20 07:00","2021","03","20","07:00","-32.1","","-36.2","","68","","","","24","","13","","24.1","","101.07","","","","-43","","Ice Crystals"
"-105.14","69.11","CAMBRIDGE BAY A","2400601","2021-03-20 08:00","2021","03","20","08:00","-31.9","","-35.9","","68","","","","25","","16","","24.1","","101.03","","","","-44","","Ice Crystals"
"-105.14","69.11","CAMBRIDGE BAY A","2400601","2021-03-20 09:00","2021","03","20","09:00","-30.9","","-35.0","","69","","","","26","","19","","19.3","","101.03","","","","-44","","Ice Crystals"
"-105.14","69.11","CAMBRIDGE BAY A","2400601","2021-03-20 10:00","2021","03","20","10:00","-29.5","","-33.4","","69","","","","26","","13","","19.3","","101.04","","","","-40","","Ice Crystals"
"-105.14","69.11","CAMBRIDGE BAY A","2400601","2021-03-20 11:00","2021","03","20","11:00","-28.5","","-32.4","","70","","","","27","","12","","19.3","","101.02","","","","-38","","Ice Crystals"
"-105.14","69.11","CAMBRIDGE BAY A","2400601","2021-03-20 12:00","2021","03","20","12:00","-27.3","","-31.1","","71","","","","29","","15","","19.3","","101.06","","","","-38","","Ice Crystals"
"-105.14","69.11","CAMBRIDGE BAY A","2400601","2021-03-20 13:00","2021","03","20","13:00","-26.6","","-30.4","","71","","","","31","","18","","19.3","","101.07","","","","-38","","Ice Crystals"
"-105.14","69.11","CAMBRIDGE BAY A","2400601","2021-03-20 14:00","2021","03","20","14:00","-26.6","","-30.4","","71","","","","32","","12","","19.3","","101.05","","","","-36","","Ice Crystals"
"-105.14","69.11","CAMBRIDGE BAY A","2400601","2021-03-20 15:00","2021","03","20","15:00","-26.7","","-30.4","","71","","","","33","","14","","19.3","","101.06","","","","-37","","Ice Crystals"
"-105.14","69.11","CAMBRIDGE BAY A","2400601","2021-03-20 16:00","2021","03","20","16:00","-26.4","","-30.1","","72","","","","34","","8","","19.3","","101.08","","","","-34","","Ice Crystals"
"-105.14","69.11","CAMBRIDGE BAY A","2400601","2021-03-20 17:00","2021","03","20","17:00","-26.8","","-30.5","","71","","","","35","","14","","19.3","","101.11","","","","-37","","Ice Crystals"
"-105.14","69.11","CAMBRIDGE BAY A","2400601","2021-03-20 18:00","2021","03","20","18:00","-27.2","","-30.9","","71","","","","1","","16","","19.3","","101.17","","","","-38","","Ice Crystals"
"-105.14","69.11","CAMBRIDGE BAY A","2400601","2021-03-20 19:00","2021","03","20","19:00","-28.4","","-32.3","","70","","","","1","","18","","19.3","","101.23","","","","-40","","Ice Crystals"
"-105.14","69.11","CAMBRIDGE BAY A","2400601","2021-03-20 20:00","2021","03","20","20:00","-29.0","","-32.9","","70","","","","36","","17","","19.3","","101.30","","","","-41","","Ice Crystals"
"-105.14","69.11","CAMBRIDGE BAY A","2400601","2021-03-20 21:00","2021","03","20","21:00","-29.6","","-33.6","","69","","","","1","","13","","24.1","","101.30","","","","-40","","Ice Crystals"
"-105.14","69.11","CAMBRIDGE BAY A","2400601","2021-03-20 22:00","2021","03","20","22:00","-30.3","","-34.4","","69","","","","1","","15","","24.1","","101.37","","","","-42","","Ice Crystals"
"-105.14","69.11","CAMBRIDGE BAY A","2400601","2021-03-20 23:00","2021","03","20","23:00","-30.7","","-34.8","","68","","","","1","","22","","24.1","","101.43","","","","-45","","Ice Crystals"
"-105.14","69.11","CAMBRIDGE BAY A","2400601","2021-03-21 00:00","2021","03","21","00:00","-32.3","","-36.4","","68","","","","3","","25","","24.1","","101.48","","","","-47","","Ice Crystals"
"-105.14","69.11","CAMBRIDGE BAY A","2400601","2021-03-21 01:00","2021","03","21","01:00","-34.2","","-38.4","","66","","","","2","","26","","19.3","","101.54","","","","-50","","Ice Crystals,Blowing Snow"
"-105.14","69.11","CAMBRIDGE BAY A","2400601","2021-03-21 02:00","2021","03","21","02:00","-35.2","","-39.5","","66","","","","3","","29","","19.3","","101.60","","","","-52","","Ice Crystals,Blowing Snow"
"-105.14","69.11","CAMBRIDGE BAY A","2400601","2021-03-21 03:00","2021","03","21","03:00","-36.0","","-40.3","","65","","","","3","","29","","19.3","","101.66","","","","-53","","Ice Crystals,Blowing Snow"
"-105.14","69.11","CAMBRIDGE BAY A","2400601","2021-03-21 04:00","2021","03","21","04:00","-36.4","","-40.7","","65","","","","3","","37","","9.7","","101.71","","","","-55","","Ice Crystals,Blowing Snow"
"-105.14","69.11","CAMBRIDGE BAY A","2400601","2021-03-21 05:00","2021","03","21","05:00","-36.8","","-41.1","","65","","","","3","","29","","3.2","","101.78","","","","-54","","Snow,Blowing Snow"
"-105.14","69.11","CAMBRIDGE BAY A","2400601","2021-03-21 06:00","2021","03","21","06:00","-36.9","","-41.2","","65","","","","3","","25","","3.2","","101.85","","","","-53","","Snow,Blowing Snow"
"-105.14","69.11","CAMBRIDGE BAY A","2400601","2021-03-21 07:00","2021","03","21","07:00","-36.9","","-41.3","","65","","","","2","","26","","3.2","","101.86","","","","-54","","Ice Crystals"
"-105.14","69.11","CAMBRIDGE BAY A","2400601","2021-03-21 08:00","2021","03","21","08:00","-36.6","","-41.0","","64","","","","2","","32","","3.2","","101.93","","","","-55","","Ice Crystals,Blowing Snow"
"-105.14","69.11","CAMBRIDGE BAY A","2400601","2021-03-21 09:00","2021","03","21","09:00","-36.0","","-40.5","","64","","","","2","","21","","3.2","","102.00","","","","-51","","Ice Crystals"
"-105.14","69.11","CAMBRIDGE BAY A","2400601","2021-03-21 10:00","2021","03","21","10:00","-34.9","","-39.5","","64","","","","2","","22","","4.0","","102.08","","","","-50","","Ice Crystals"
"-105.14","69.11","CAMBRIDGE BAY A","2400601","2021-03-21 11:00","2021","03","21","11:00","-33.5","","-38.2","","64","","","","1","","9","","16.1","","102.13","","","","-43","","Ice Crystals"
"-105.14","69.11","CAMBRIDGE BAY A","2400601","2021-03-21 12:00","2021","03","21","12:00","-32.4","","-37.1","","63","","","","34","","11","","24.1","","102.19","","","","-43","","Ice Crystals"
"-105.14","69.11","CAMBRIDGE BAY A","2400601","2021-03-21 13:00","2021","03","21","13:00","-31.4","","-36.3","","63","","","","30","","16","","24.1","","102.19","","","","-44","","NA"
"-105.14","69.11","CAMBRIDGE BAY A","2400601","2021-03-21 14:00","2021","03","21","14:00","-30.7","","-35.6","","63","","","","32","","21","","24.1","","102.23","","","","-44","","Mainly Clear"
"-105.14","69.11","CAMBRIDGE BAY A","2400601","2021-03-21 15:00","2021","03","21","15:00","-30.7","","-35.5","","64","","","","33","","16","","24.1","","102.27","","","","-43","","NA"
"-105.14","69.11","CAMBRIDGE BAY A","2400601","2021-03-21 16:00","2021","03","21","16:00","-30.7","","-35.5","","64","","","","31","","16","","24.1","","102.32","","","","-43","","NA"
"-105.14","69.11","CAMBRIDGE BAY A","2400601","2021-03-21 17:00","2021","03","21","17:00","-31.3","","-36.0","","64","","","","30","","8","","24.1","","102.33","","","","-40","","Clear"
"-105.14","69.11","CAMBRIDGE BAY A","2400601","2021-03-21 18:00","2021","03","21","18:00","-31.9","","-36.5","","65","","","","29","","15","","24.1","","102.36","","","","-44","","NA"
"-105.14","69.11","CAMBRIDGE BAY A","2400601","2021-03-21 19:00","2021","03","21","19:00","-32.9","","-37.4","","65","","","","32","","23","","24.1","","102.41","","","","-48","","NA"
"-105.14","69.11","CAMBRIDGE BAY A","2400601","2021-03-21 20:00","2021","03","21","20:00","-33.3","","-37.8","","65","","","","32","","4","","24.1","","102.42","","","","-38","","Clear"
"-105.14","69.11","CAMBRIDGE BAY A","2400601","2021-03-21 21:00","2021","03","21","21:00","-33.6","","-38.1","","64","","","","28","","12","","24.1","","102.44","","","","-45","","NA"
"-105.14","69.11","CAMBRIDGE BAY A","2400601","2021-03-21 22:00","2021","03","21","22:00","-33.5","","-38.1","","65","","","","27","","18","","24.1","","102.45","","","","-47","","NA"
"-105.14","69.11","CAMBRIDGE BAY A","2400601","2021-03-21 23:00","2021","03","21","23:00","-33.2","","-38.0","","63","","","","28","","9","","24.1","","102.46","","","","-42","","Clear"
"-105.14","69.11","CAMBRIDGE BAY A","2400601","2021-03-22 00:00","2021","03","22","00:00","-33.2","","-37.9","","64","","","","33","","4","","24.1","","102.45","","","","-38","","NA"
"-105.14","69.11","CAMBRIDGE BAY A","2400601","2021-03-22 01:00","2021","03","22","01:00","-35.2","","-39.9","","63","","","","27","","15","","24.1","","102.46","","","","-48","","NA"
"-105.14","69.11","CAMBRIDGE BAY A","2400601","2021-03-22 02:00","2021","03","22","02:00","-34.6","","-39.2","","63","","","","27","","21","","24.1","","102.47","","","","-49","","Clear"
"-105.14","69.11","CAMBRIDGE BAY A","2400601","2021-03-22 03:00","2021","03","22","03:00","-34.9","","-39.7","","63","","","","27","","23","","24.1","","102.46","","","","-50","","NA"
"-105.14","69.11","CAMBRIDGE BAY A","2400601","2021-03-22 04:00","2021","03","22","04:00","-35.3","","-39.9","","64","","","","27","","23","","24.1","","102.50","","","","-51","","NA"
"-105.14","69.11","CAMBRIDGE BAY A","2400601","2021-03-22 05:00","2021","03","22","05:00","-35.1","","-39.8","","64","","","","28","","18","","24.1","","102.51","","","","-49","","Mainly Clear"
"-105.14","69.11","CAMBRIDGE BAY A","2400601","2021-03-22 06:00","2021","03","22","06:00","-35.7","","-40.4","","63","","","","30","","25","","24.1","","102.53","","","","-52","","NA"
"-105.14","69.11","CAMBRIDGE BAY A","2400601","2021-03-22 07:00","2021","03","22","07:00","-35.9","","-40.6","","63","","","","31","","32","","24.1","","102.53","","","","-54","","NA"
"-105.14","69.11","CAMBRIDGE BAY A","2400601","2021-03-22 08:00","2021","03","22","08:00","-35.1","","-39.9","","62","","","","31","","28","","24.1","","102.56","","","","-52","","Mainly Clear"
"-105.14","69.11","CAMBRIDGE BAY A","2400601","2021-03-22 09:00","2021","03","22","09:00","-33.9","","-38.9","","62","","","","30","","24","","24.1","","102.58","","","","-49","","NA"
"-105.14","69.11","CAMBRIDGE BAY A","2400601","2021-03-22 10:00","2021","03","22","10:00","-33.0","","-38.2","","61","","","","31","","23","","24.1","","102.58","","","","-48","","NA"
"-105.14","69.11","CAMBRIDGE BAY A","2400601","2021-03-22 11:00","2021","03","22","11:00","-32.2","","-37.2","","62","","","","27","","23","","24.1","","102.61","","","","-47","","Clear"
"-105.14","69.11","CAMBRIDGE BAY A","2400601","2021-03-22 12:00","2021","03","22","12:00","-31.4","","-36.2","","63","","","","27","","21","","24.1","","102.66","","","","-45","","NA"
"-105.14","69.11","CAMBRIDGE BAY A","2400601","2021-03-22 13:00","2021","03","22","13:00","-30.7","","-35.5","","64","","","","32","","26","","24.1","","102.67","","","","-46","","Blowing Snow"
"-105.14","69.11","CAMBRIDGE BAY A","2400601","2021-03-22 14:00","2021","03","22","14:00","-30.2","","-35.0","","64","","","","32","","28","","24.1","","102.71","","","","-45","","Blowing Snow"
"-105.14","69.11","CAMBRIDGE BAY A","2400601","2021-03-22 15:00","2021","03","22","15:00","-30.1","","-34.9","","64","","","","32","","26","","24.1","","102.77","","","","-45","","Blowing Snow"
"-105.14","69.11","CAMBRIDGE BAY A","2400601","2021-03-22 16:00","2021","03","22","16:00","-30.4","","-35.1","","64","","","","29","","19","","24.1","","102.79","","","","-43","","NA"
"-105.14","69.11","CAMBRIDGE BAY A","2400601","2021-03-22 17:00","2021","03","22","17:00","-30.9","","-35.5","","65","","","","31","","22","","24.1","","102.82","","","","-45","","Blowing Snow"
"-105.14","69.11","CAMBRIDGE BAY A","2400601","2021-03-22 18:00","2021","03","22","18:00","-32.0","","-36.6","","65","","","","29","","13","","24.1","","102.84","","","","-43","","NA"
"-105.14","69.11","CAMBRIDGE BAY A","2400601","2021-03-22 19:00","2021","03","22","19:00","-31.9","","-36.4","","65","","","","31","","30","","24.1","","102.83","","","","-48","","Blowing Snow"
"-105.14","69.11","CAMBRIDGE BAY A","2400601","2021-03-22 20:00","2021","03","22","20:00","-33.2","","-37.6","","65","","","","29","","23","","24.1","","102.85","","","","-48","","Blowing Snow"
"-105.14","69.11","CAMBRIDGE BAY A","2400601","2021-03-22 21:00","2021","03","22","21:00","-34.0","","-38.4","","65","","","","29","","21","","24.1","","102.89","","","","-48","","Blowing Snow"
"-105.14","69.11","CAMBRIDGE BAY A","2400601","2021-03-22 22:00","2021","03","22","22:00","-33.4","","-37.8","","66","","","","30","","28","","24.1","","102.90","","","","-50","","Blowing Snow"
"-105.14","69.11","CAMBRIDGE BAY A","2400601","2021-03-22 23:00","2021","03","22","23:00","-33.6","","-37.9","","66","","","","30","","19","","24.1","","102.94","","","","-47","","Blowing Snow"
"-105.14","69.11","CAMBRIDGE BAY A","2400601","2021-03-23 00:00","2021","03","23","00:00","-32.8","","-37.1","","66","","","","28","","15","","24.1","","102.98","","","","-45","","NA"
"-105.14","69.11","CAMBRIDGE BAY A","2400601","2021-03-23 01:00","2021","03","23","01:00","-34.0","","-38.3","","66","","","","30","","20","","24.1","","103.00","","","","-48","","NA"
"-105.14","69.11","CAMBRIDGE BAY A","2400601","2021-03-23 02:00","2021","03","23","02:00","-33.4","","-37.6","","67","","","","30","","21","","24.1","","103.02","","","","-48","","Mainly Clear"
"-105.14","69.11","CAMBRIDGE BAY A","2400601","2021-03-23 03:00","2021","03","23","03:00","-35.4","","-39.6","","66","","","","27","","21","","24.1","","103.05","","","","-50","","NA"
"-105.14","69.11","CAMBRIDGE BAY A","2400601","2021-03-23 04:00","2021","03","23","04:00","-35.8","","-40.1","","66","","","","26","","13","","24.1","","103.07","","","","-48","","NA"
"-105.14","69.11","CAMBRIDGE BAY A","2400601","2021-03-23 05:00","2021","03","23","05:00","-35.3","","-39.6","","66","","","","29","","26","","24.1","","103.06","","","","-52","","Mainly Clear"
"-105.14","69.11","CAMBRIDGE BAY A","2400601","2021-03-23 06:00","2021","03","23","06:00","-35.5","","-39.8","","66","","","","26","","17","","24.1","","103.09","","","","-49","","NA"
"-105.14","69.11","CAMBRIDGE BAY A","2400601","2021-03-23 07:00","2021","03","23","07:00","-35.2","","-39.6","","66","","","","29","","20","","24.1","","103.08","","","","-50","","NA"
"-105.14","69.11","CAMBRIDGE BAY A","2400601","2021-03-23 08:00","2021","03","23","08:00","-34.2","","-38.5","","66","","","","29","","14","","24.1","","103.09","","","","-46","","Clear"
"-105.14","69.11","CAMBRIDGE BAY A","2400601","2021-03-23 09:00","2021","03","23","09:00","-34.4","","-38.9","","65","","","","29","","13","","19.3","","103.11","","","","-46","","NA"
"-105.14","69.11","CAMBRIDGE BAY A","2400601","2021-03-23 10:00","2021","03","23","10:00","-33.2","","-37.5","","66","","","","25","","13","","19.3","","103.09","","","","-44","","Ice Crystals"
"-105.14","69.11","CAMBRIDGE BAY A","2400601","2021-03-23 11:00","2021","03","23","11:00","-32.4","","-36.8","","66","","","","28","","17","","24.1","","103.12","","","","-45","","Ice Crystals"
"-105.14","69.11","CAMBRIDGE BAY A","2400601","2021-03-23 12:00","2021","03","23","12:00","-31.4","","-35.8","","66","","","","29","","16","","24.1","","103.12","","","","-44","","Ice Crystals"
"-105.14","69.11","CAMBRIDGE BAY A","2400601","2021-03-23 13:00","2021","03","23","13:00","-30.6","","-35.1","","66","","","","30","","15","","24.1","","103.11","","","","-42","","Ice Crystals"
"-105.14","69.11","CAMBRIDGE BAY A","2400601","2021-03-23 14:00","2021","03","23","14:00","-29.8","","-34.3","","66","","","","27","","14","","24.1","","103.09","","","","-41","","Clear"
"-105.14","69.11","CAMBRIDGE BAY A","2400601","2021-03-23 15:00","2021","03","23","15:00","-29.6","","-34.0","","66","","","","28","","13","","24.1","","103.07","","","","-40","","NA"
"-105.14","69.11","CAMBRIDGE BAY A","2400601","2021-03-23 16:00","2021","03","23","16:00","-30.0","","-34.5","","66","","","","27","","8","","24.1","","103.08","","","","-38","","NA"
"-105.14","69.11","CAMBRIDGE BAY A","2400601","2021-03-23 17:00","2021","03","23","17:00","-30.5","","-34.9","","66","","","","26","","9","","24.1","","103.03","","","","-39","","Clear"
"-105.14","69.11","CAMBRIDGE BAY A","2400601","2021-03-23 18:00","2021","03","23","18:00","-31.2","","-35.5","","67","","","","27","","11","","24.1","","103.01","","","","-41","","NA"
"-105.14","69.11","CAMBRIDGE BAY A","2400601","2021-03-23 19:00","2021","03","23","19:00","-32.7","","-36.9","","67","","","","27","","9","","24.1","","102.97","","","","-42","","NA"
"-105.14","69.11","CAMBRIDGE BAY A","2400601","2021-03-23 20:00","2021","03","23","20:00","-33.0","","-37.2","","67","","","","28","","5","","24.1","","102.94","","","","-39","","Clear"
"-105.14","69.11","CAMBRIDGE BAY A","2400601","2021-03-23 21:00","2021","03","23","21:00","-34.2","","-38.3","","68","","","","30","","4","","24.1","","102.92","","","","-39","","NA"
"-105.14","69.11","CAMBRIDGE BAY A","2400601","2021-03-23 22:00","2021","03","23","22:00","-34.9","","-39.0","","67","","","","26","","5","","24.1","","102.86","","","","-41","","NA"
"-105.14","69.11","CAMBRIDGE BAY A","2400601","2021-03-23 23:00","2021","03","23","23:00","-34.0","","-38.1","","68","","","","24","","7","","24.1","","102.81","","","","-42","","Clear"
"-105.14","69.11","CAMBRIDGE BAY A","2400601","2021-03-24 00:00","2021","03","24","00:00","-36.0","","-40.1","","67","","","","36","","2","","24.1","","102.80","","","","-39","","NA"
"-105.14","69.11","CAMBRIDGE BAY A","2400601","2021-03-24 01:00","2021","03","24","01:00","-36.0","","-40.1","","67","","","","36","","2","","24.1","","102.75","","","","-39","","NA"
"-105.14","69.11","CAMBRIDGE BAY A","2400601","2021-03-24 02:00","2021","03","24","02:00","-34.9","","-39.0","","67","","","","0","","1","","24.1","","102.72","","","","-36","","Clear"
"-105.14","69.11","CAMBRIDGE BAY A","2400601","2021-03-24 03:00","2021","03","24","03:00","-35.6","","-39.8","","67","","","","36","","3","","24.1","","102.72","","","","-39","","NA"
"-105.14","69.11","CAMBRIDGE BAY A","2400601","2021-03-24 04:00","2021","03","24","04:00","-37.0","","-41.2","","66","","","","36","","1","","24.1","","102.66","","","","-38","","NA"
"-105.14","69.11","CAMBRIDGE BAY A","2400601","2021-03-24 05:00","2021","03","24","05:00","-35.8","","-40.0","","66","","","","36","","2","","24.1","","102.62","","","","-38","","Clear"
"-105.14","69.11","CAMBRIDGE BAY A","2400601","2021-03-24 06:00","2021","03","24","06:00","-37.5","","-41.8","","65","","","","8","","7","","24.1","","102.58","","","","-46","","NA"
"-105.14","69.11","CAMBRIDGE BAY A","2400601","2021-03-24 07:00","2021","03","24","07:00","-35.6","","-39.9","","66","","","","36","","2","","24.1","","102.52","","","","-38","","NA"
"-105.14","69.11","CAMBRIDGE BAY A","2400601","2021-03-24 08:00","2021","03","24","08:00","-34.9","","-39.2","","66","","","","36","","1","","24.1","","102.49","","","","-36","","Clear"
"-105.14","69.11","CAMBRIDGE BAY A","2400601","2021-03-24 09:00","2021","03","24","09:00","-35.2","","-39.6","","66","","","","7","","3","","24.1","","102.47","","","","-39","","NA"
"-105.14","69.11","CAMBRIDGE BAY A","2400601","2021-03-24 10:00","2021","03","24","10:00","-34.3","","-38.6","","66","","","","7","","5","","24.1","","102.47","","","","-41","","NA"
"-105.14","69.11","CAMBRIDGE BAY A","2400601","2021-03-24 11:00","2021","03","24","11:00","-32.5","","-36.7","","67","","","","8","","4","","24.1","","102.46","","","","-37","","Clear"
"-105.14","69.11","CAMBRIDGE BAY A","2400601","2021-03-24 12:00","2021","03","24","12:00","-30.5","","-34.7","","68","","","","11","","8","","24.1","","102.42","","","","-39","","NA"
"-105.14","69.11","CAMBRIDGE BAY A","2400601","2021-03-24 13:00","2021","03","24","13:00","-28.7","","-32.7","","69","","","","20","","7","","24.1","","102.37","","","","-36","","NA"
"-105.14","69.11","CAMBRIDGE BAY A","2400601","2021-03-24 14:00","2021","03","24","14:00","-27.9","","-31.9","","69","","","","19","","11","","24.1","","102.32","","","","-37","","Mainly Clear"
"-105.14","69.11","CAMBRIDGE BAY A","2400601","2021-03-24 15:00","2021","03","24","15:00","-28.2","","-32.2","","69","","","","18","","12","","24.1","","102.27","","","","-38","","NA"
"-105.14","69.11","CAMBRIDGE BAY A","2400601","2021-03-24 16:00","2021","03","24","16:00","-28.3","","-32.3","","69","","","","17","","14","","24.1","","102.21","","","","-39","","NA"
"-105.14","69.11","CAMBRIDGE BAY A","2400601","2021-03-24 17:00","2021","03","24","17:00","-28.2","","-32.6","","67","","","","15","","13","","24.1","","102.19","","","","-38","","Mostly Cloudy"
"-105.14","69.11","CAMBRIDGE BAY A","2400601","2021-03-24 18:00","2021","03","24","18:00","-28.2","","-32.8","","65","","","","16","","17","","24.1","","102.15","","","","-40","","NA"
"-105.14","69.11","CAMBRIDGE BAY A","2400601","2021-03-24 19:00","2021","03","24","19:00","-28.5","","-33.0","","66","","","","11","","10","","24.1","","102.15","","","","-37","","NA"
"-105.14","69.11","CAMBRIDGE BAY A","2400601","2021-03-24 20:00","2021","03","24","20:00","-27.2","","-31.8","","66","","","","17","","15","","24.1","","102.07","","","","-38","","Mainly Clear"
"-105.14","69.11","CAMBRIDGE BAY A","2400601","2021-03-24 21:00","2021","03","24","21:00","-28.6","","-33.4","","64","","","","15","","18","","24.1","","102.05","","","","-41","","NA"
"-105.14","69.11","CAMBRIDGE BAY A","2400601","2021-03-24 22:00","2021","03","24","22:00","-28.4","","-32.9","","66","","","","13","","8","","24.1","","102.02","","","","-36","","NA"
"-105.14","69.11","CAMBRIDGE BAY A","2400601","2021-03-24 23:00","2021","03","24","23:00","-28.6","","-33.2","","65","","","","13","","10","","24.1","","101.95","","","","-37","","Clear"
"-105.14","69.11","CAMBRIDGE BAY A","2400601","2021-03-25 00:00","2021","03","25","00:00","-28.5","","-33.1","","65","","","","24","","5","","24.1","","101.94","","","","-34","","NA"
"-105.14","69.11","CAMBRIDGE BAY A","2400601","2021-03-25 01:00","2021","03","25","01:00","-29.0","","-33.7","","65","","","","13","","8","","24.1","","101.86","","","","-37","","NA"
"-105.14","69.11","CAMBRIDGE BAY A","2400601","2021-03-25 02:00","2021","03","25","02:00","-29.0","","-33.7","","65","","","","16","","22","","24.1","","101.79","","","","-42","","Mainly Clear"
"-105.14","69.11","CAMBRIDGE BAY A","2400601","2021-03-25 03:00","2021","03","25","03:00","-29.2","","-34.0","","64","","","","16","","14","","24.1","","101.73","","","","-40","","NA"
"-105.14","69.11","CAMBRIDGE BAY A","2400601","2021-03-25 04:00","2021","03","25","04:00","-28.7","","-33.5","","64","","","","17","","18","","24.1","","101.72","","","","-41","","NA"
"-105.14","69.11","CAMBRIDGE BAY A","2400601","2021-03-25 05:00","2021","03","25","05:00","-28.9","","-33.5","","65","","","","17","","16","","24.1","","101.67","","","","-40","","Mostly Cloudy"
"-105.14","69.11","CAMBRIDGE BAY A","2400601","2021-03-25 06:00","2021","03","25","06:00","-28.6","","-32.9","","67","","","","16","","25","","24.1","","101.57","","","","-43","","NA"
"-105.14","69.11","CAMBRIDGE BAY A","2400601","2021-03-25 07:00","2021","03","25","07:00","-27.2","","-31.5","","67","","","","17","","28","","24.1","","101.49","","","","-42","","NA"
"-105.14","69.11","CAMBRIDGE BAY A","2400601","2021-03-25 08:00","2021","03","25","08:00","-26.0","","-30.2","","68","","","","18","","29","","24.1","","101.43","","","","-40","","Mostly Cloudy"
"-105.14","69.11","CAMBRIDGE BAY A","2400601","2021-03-25 09:00","2021","03","25","09:00","-25.9","","-30.1","","68","","","","17","","27","","24.1","","101.37","","","","-40","","Blowing Snow"
"-105.14","69.11","CAMBRIDGE BAY A","2400601","2021-03-25 10:00","2021","03","25","10:00","-25.4","","-29.7","","69","","","","17","","27","","24.1","","101.32","","","","-39","","NA"
"-105.14","69.11","CAMBRIDGE BAY A","2400601","2021-03-25 11:00","2021","03","25","11:00","-24.4","","-28.6","","69","","","","17","","30","","22.5","","101.25","","","","-38","","Blowing Snow"
"-105.14","69.11","CAMBRIDGE BAY A","2400601","2021-03-25 12:00","2021","03","25","12:00","-23.3","","-27.3","","70","","","","18","","30","","22.5","","101.21","","","","-37","","Blowing Snow"
"-105.14","69.11","CAMBRIDGE BAY A","2400601","2021-03-25 13:00","2021","03","25","13:00","-22.2","","-26.1","","71","","","","18","","34","","22.5","","101.13","","","","-36","","Blowing Snow"
"-105.14","69.11","CAMBRIDGE BAY A","2400601","2021-03-25 14:00","2021","03","25","14:00","-21.0","","-25.0","","70","","","","18","","27","","22.5","","101.13","","","","-33","","Blowing Snow"
"-105.14","69.11","CAMBRIDGE BAY A","2400601","2021-03-25 15:00","2021","03","25","15:00","-20.9","","-24.8","","72","","","","19","","27","","22.5","","101.09","","","","-33","","Blowing Snow"
"-105.14","69.11","CAMBRIDGE BAY A","2400601","2021-03-25 16:00","2021","03","25","16:00","-21.1","","-24.9","","72","","","","17","","27","","22.5","","101.04","","","","-33","","Blowing Snow"
"-105.14","69.11","CAMBRIDGE BAY A","2400601","2021-03-25 17:00","2021","03","25","17:00","-21.4","","-25.2","","72","","","","17","","21","","22.5","","100.99","","","","-32","","Blowing Snow"
"-105.14","69.11","CAMBRIDGE BAY A","2400601","2021-03-25 18:00","2021","03","25","18:00","-22.7","","-26.2","","73","","","","17","","17","","24.1","","100.96","","","","-33","","NA"
"-105.14","69.11","CAMBRIDGE BAY A","2400601","2021-03-25 19:00","2021","03","25","19:00","-23.3","","-26.8","","74","","","","17","","18","","24.1","","100.92","","","","-34","","NA"
"-105.14","69.11","CAMBRIDGE BAY A","2400601","2021-03-25 20:00","2021","03","25","20:00","-23.4","","-27.0","","73","","","","16","","15","","24.1","","100.92","","","","-33","","Mostly Cloudy"
"-105.14","69.11","CAMBRIDGE BAY A","2400601","2021-03-25 21:00","2021","03","25","21:00","-23.2","","-26.7","","73","","","","17","","20","","24.1","","100.88","","","","-35","","NA"
"-105.14","69.11","CAMBRIDGE BAY A","2400601","2021-03-25 22:00","2021","03","25","22:00","-23.2","","-26.8","","73","","","","18","","18","","24.1","","100.83","","","","-34","","NA"
"-105.14","69.11","CAMBRIDGE BAY A","2400601","2021-03-25 23:00","2021","03","25","23:00","-23.2","","-26.6","","74","","","","17","","16","","16.1","","100.82","","","","-33","","Snow"
"-105.14","69.11","CAMBRIDGE BAY A","2400601","2021-03-26 00:00","2021","03","26","00:00","-23.6","","-27.2","","73","","","","18","","4","","16.1","","100.83","","","","-27","","Snow"
"-105.14","69.11","CAMBRIDGE BAY A","2400601","2021-03-26 01:00","2021","03","26","01:00","-24.2","","-27.9","","72","","","","17","","18","","16.1","","100.78","","","","-35","","Snow"
"-105.14","69.11","CAMBRIDGE BAY A","2400601","2021-03-26 02:00","2021","03","26","02:00","-25.0","","-28.7","","72","","","","10","","8","","16.1","","100.77","","","","-32","","Mostly Cloudy"
"-105.14","69.11","CAMBRIDGE BAY A","2400601","2021-03-26 03:00","2021","03","26","03:00","-25.0","","-28.7","","72","","","","14","","8","","16.1","","100.71","","","","-32","","Snow"
"-105.14","69.11","CAMBRIDGE BAY A","2400601","2021-03-26 04:00","2021","03","26","04:00","-25.2","","-29.0","","71","","","","14","","10","","24.1","","100.66","","","","-33","","NA"
"-105.14","69.11","CAMBRIDGE BAY A","2400601","2021-03-26 05:00","2021","03","26","05:00","-26.2","","-29.9","","71","","","","12","","10","","24.1","","100.64","","","","-35","","Mostly Cloudy"
"-105.14","69.11","CAMBRIDGE BAY A","2400601","2021-03-26 06:00","2021","03","26","06:00","-26.8","","-30.5","","71","","","","11","","11","","16.1","","100.60","","","","-36","","Snow"
"-105.14","69.11","CAMBRIDGE BAY A","2400601","2021-03-26 07:00","2021","03","26","07:00","-27.9","","-31.7","","71","","","","10","","9","","22.5","","100.58","","","","-36","","NA"
"-105.14","69.11","CAMBRIDGE BAY A","2400601","2021-03-26 08:00","2021","03","26","08:00","-27.6","","-31.5","","70","","","","10","","8","","24.1","","100.57","","","","-35","","Mainly Clear"
"-105.14","69.11","CAMBRIDGE BAY A","2400601","2021-03-26 09:00","2021","03","26","09:00","-27.1","","-31.2","","69","","","","7","","10","","24.1","","100.50","","","","-36","","NA"
"-105.14","69.11","CAMBRIDGE BAY A","2400601","2021-03-26 10:00","2021","03","26","10:00","-26.4","","-30.5","","69","","","","7","","7","","24.1","","100.48","","","","-33","","NA"
"-105.14","69.11","CAMBRIDGE BAY A","2400601","2021-03-26 11:00","2021","03","26","11:00","-25.6","","-29.9","","68","","","","8","","4","","24.1","","100.45","","","","-30","","Mostly Cloudy"
"-105.14","69.11","CAMBRIDGE BAY A","2400601","2021-03-26 12:00","2021","03","26","12:00","-25.1","","-29.5","","67","","","","36","","2","","24.1","","100.42","","","","-27","","NA"
"-105.14","69.11","CAMBRIDGE BAY A","2400601","2021-03-26 13:00","2021","03","26","13:00","-24.9","","-29.4","","67","","","","0","","1","","24.1","","100.43","","","","-26","","NA"
"-105.14","69.11","CAMBRIDGE BAY A","2400601","2021-03-26 14:00","2021","03","26","14:00","-24.4","","-28.6","","68","","","","7","","4","","24.1","","100.43","","","","-28","","Mostly Cloudy"
"-105.14","69.11","CAMBRIDGE BAY A","2400601","2021-03-26 15:00","2021","03","26","15:00","-24.0","","-28.1","","69","","","","36","","2","","24.1","","100.42","","","","-26","","NA"
"-105.14","69.11","CAMBRIDGE BAY A","2400601","2021-03-26 16:00","2021","03","26","16:00","-24.1","","-28.2","","69","","","","36","","4","","72.4","","100.44","","","","-28","","NA"
"-105.14","69.11","CAMBRIDGE BAY A","2400601","2021-03-26 17:00","2021","03","26","17:00","-24.3","","-28.4","","69","","","","32","","4","","24.1","","100.46","","","","-28","","Mostly Cloudy"
"-105.14","69.11","CAMBRIDGE BAY A","2400601","2021-03-26 18:00","2021","03","26","18:00","-24.9","","-28.7","","71","","","","36","","2","","24.1","","100.49","","","","-27","","NA"
"-105.14","69.11","CAMBRIDGE BAY A","2400601","2021-03-26 19:00","2021","03","26","19:00","-26.7","","-30.4","","71","","","","32","","9","","24.1","","100.50","","","","-35","","NA"
"-105.14","69.11","CAMBRIDGE BAY A","2400601","2021-03-26 20:00","2021","03","26","20:00","-28.0","","-31.6","","72","","","","32","","11","","24.1","","100.50","","","","-37","","Mainly Clear"
"-105.14","69.11","CAMBRIDGE BAY A","2400601","2021-03-26 21:00","2021","03","26","21:00","-25.6","","-29.2","","72","","","","29","","9","","24.1","","100.53","","","","-33","","Snow"
"-105.14","69.11","CAMBRIDGE BAY A","2400601","2021-03-26 22:00","2021","03","26","22:00","-26.5","","-30.2","","72","","","","30","","13","","24.1","","100.55","","","","-36","","Snow"
"-105.14","69.11","CAMBRIDGE BAY A","2400601","2021-03-26 23:00","2021","03","26","23:00","-26.7","","-30.3","","72","","","","29","","10","","24.1","","100.59","","","","-35","","Snow"
"-105.14","69.11","CAMBRIDGE BAY A","2400601","2021-03-27 00:00","2021","03","27","00:00","-26.6","","-30.3","","72","","","","32","","13","","24.1","","100.62","","","","-36","","NA"
"-105.14","69.11","CAMBRIDGE BAY A","2400601","2021-03-27 01:00","2021","03","27","01:00","-26.7","","-30.5","","71","","","","33","","10","","24.1","","100.68","","","","-35","","Snow"
"-105.14","69.11","CAMBRIDGE BAY A","2400601","2021-03-27 02:00","2021","03","27","02:00","-27.5","","-31.3","","71","","","","34","","15","","24.1","","100.73","","","","-38","","Snow"
"-105.14","69.11","CAMBRIDGE BAY A","2400601","2021-03-27 03:00","2021","03","27","03:00","-27.9","","-31.6","","72","","","","2","","8","","24.1","","100.78","","","","-36","","Snow"
"-105.14","69.11","CAMBRIDGE BAY A","2400601","2021-03-27 04:00","2021","03","27","04:00","-28.4","","-32.1","","71","","","","36","","8","","19.3","","100.85","","","","-36","","Ice Crystals"
"-105.14","69.11","CAMBRIDGE BAY A","2400601","2021-03-27 05:00","2021","03","27","05:00","-28.4","","-32.1","","72","","","","36","","14","","24.1","","100.88","","","","-39","","Ice Crystals"
"-105.14","69.11","CAMBRIDGE BAY A","2400601","2021-03-27 06:00","2021","03","27","06:00","-31.3","","-35.1","","70","","","","33","","13","","24.1","","100.96","","","","-42","","Ice Crystals"
"-105.14","69.11","CAMBRIDGE BAY A","2400601","2021-03-27 07:00","2021","03","27","07:00","-29.1","","-32.8","","71","","","","1","","12","","24.1","","101.02","","","","-39","","Ice Crystals"
"-105.14","69.11","CAMBRIDGE BAY A","2400601","2021-03-27 08:00","2021","03","27","08:00","-29.1","","-33.0","","69","","","","36","","14","","24.1","","101.06","","","","-40","","Ice Crystals"
"-105.14","69.11","CAMBRIDGE BAY A","2400601","2021-03-27 09:00","2021","03","27","09:00","-29.2","","-33.5","","68","","","","1","","18","","22.5","","101.09","","","","-41","","Ice Crystals"
"-105.14","69.11","CAMBRIDGE BAY A","2400601","2021-03-27 10:00","2021","03","27","10:00","-29.3","","-33.8","","66","","","","1","","16","","24.1","","101.11","","","","-41","","Ice Crystals"
"-105.14","69.11","CAMBRIDGE BAY A","2400601","2021-03-27 11:00","2021","03","27","11:00","-28.7","","-33.3","","65","","","","2","","8","","24.1","","101.17","","","","-36","","Mainly Clear"
"-105.14","69.11","CAMBRIDGE BAY A","2400601","2021-03-27 12:00","2021","03","27","12:00","-28.2","","-32.9","","65","","","","2","","12","","24.1","","101.25","","","","-38","","Ice Crystals"
"-105.14","69.11","CAMBRIDGE BAY A","2400601","2021-03-27 13:00","2021","03","27","13:00","-27.8","","-32.6","","64","","","","1","","12","","24.1","","101.26","","","","-37","","Ice Crystals"
"-105.14","69.11","CAMBRIDGE BAY A","2400601","2021-03-27 14:00","2021","03","27","14:00","-27.6","","-32.5","","64","","","","2","","10","","24.1","","101.27","","","","-36","","Ice Crystals"
"-105.14","69.11","CAMBRIDGE BAY A","2400601","2021-03-27 15:00","2021","03","27","15:00","-27.6","","-32.4","","64","","","","36","","5","","24.1","","101.31","","","","-33","","Ice Crystals"
"-105.14","69.11","CAMBRIDGE BAY A","2400601","2021-03-27 16:00","2021","03","27","16:00","-27.7","","-32.4","","65","","","","29","","4","","24.1","","101.34","","","","-32","","Ice Crystals"
"-105.14","69.11","CAMBRIDGE BAY A","2400601","2021-03-27 17:00","2021","03","27","17:00","-28.1","","-32.8","","65","","","","30","","9","","24.1","","101.38","","","","-36","","Ice Crystals"
"-105.14","69.11","CAMBRIDGE BAY A","2400601","2021-03-27 18:00","2021","03","27","18:00","-29.5","","-33.9","","66","","","","31","","6","","24.1","","101.37","","","","-36","","Ice Crystals"
"-105.14","69.11","CAMBRIDGE BAY A","2400601","2021-03-27 19:00","2021","03","27","19:00","-30.4","","-34.6","","67","","","","36","","1","","24.1","","101.39","","","","-32","","Ice Crystals"
"-105.14","69.11","CAMBRIDGE BAY A","2400601","2021-03-27 20:00","2021","03","27","20:00","-31.2","","-35.3","","68","","","","21","","5","","24.1","","101.39","","","","-37","","Ice Crystals"
"-105.14","69.11","CAMBRIDGE BAY A","2400601","2021-03-27 21:00","2021","03","27","21:00","-31.9","","-35.9","","69","","","","23","","4","","22.5","","101.38","","","","-37","","Ice Crystals"
"-105.14","69.11","CAMBRIDGE BAY A","2400601","2021-03-27 22:00","2021","03","27","22:00","-31.1","","-34.8","","71","","","","23","","5","","22.5","","101.36","","","","-37","","Ice Crystals"
"-105.14","69.11","CAMBRIDGE BAY A","2400601","2021-03-27 23:00","2021","03","27","23:00","-32.8","","-36.8","","69","","","","24","","13","","22.5","","101.37","","","","-44","","Ice Crystals"
"-105.14","69.11","CAMBRIDGE BAY A","2400601","2021-03-28 00:00","2021","03","28","00:00","-33.0","","-37.0","","68","","","","25","","5","","22.5","","101.38","","","","-39","","Ice Crystals"
"-105.14","69.11","CAMBRIDGE BAY A","2400601","2021-03-28 01:00","2021","03","28","01:00","-33.5","","-37.6","","68","","","","29","","4","","22.5","","101.41","","","","-38","","Ice Crystals"
"-105.14","69.11","CAMBRIDGE BAY A","2400601","2021-03-28 02:00","2021","03","28","02:00","-34.3","","-38.4","","67","","","","26","","13","","22.5","","101.38","","","","-46","","Ice Crystals"
"-105.14","69.11","CAMBRIDGE BAY A","2400601","2021-03-28 03:00","2021","03","28","03:00","-34.9","","-39.0","","67","","","","33","","3","","22.5","","101.41","","","","-39","","Ice Crystals"
"-105.14","69.11","CAMBRIDGE BAY A","2400601","2021-03-28 04:00","2021","03","28","04:00","-35.2","","-39.4","","66","","","","36","","4","","22.5","","101.44","","","","-40","","Ice Crystals"
"-105.14","69.11","CAMBRIDGE BAY A","2400601","2021-03-28 05:00","2021","03","28","05:00","-34.5","","-38.7","","67","","","","28","","16","","22.5","","101.42","","","","-47","","Ice Crystals"
"-105.14","69.11","CAMBRIDGE BAY A","2400601","2021-03-28 06:00","2021","03","28","06:00","-34.2","","-38.5","","67","","","","25","","9","","22.5","","101.43","","","","-44","","Ice Crystals"
"-105.14","69.11","CAMBRIDGE BAY A","2400601","2021-03-28 07:00","2021","03","28","07:00","-34.8","","-39.0","","66","","","","28","","8","","19.3","","101.45","","","","-44","","Ice Crystals"
"-105.14","69.11","CAMBRIDGE BAY A","2400601","2021-03-28 08:00","2021","03","28","08:00","-33.7","","-37.9","","67","","","","26","","18","","19.3","","101.45","","","","-47","","Ice Crystals"
"-105.14","69.11","CAMBRIDGE BAY A","2400601","2021-03-28 09:00","2021","03","28","09:00","-32.7","","-36.9","","67","","","","27","","23","","19.3","","101.44","","","","-47","","Ice Crystals,Blowing Snow"
"-105.14","69.11","CAMBRIDGE BAY A","2400601","2021-03-28 10:00","2021","03","28","10:00","-32.2","","-36.3","","67","","","","27","","19","","14.5","","101.45","","","","-46","","Ice Crystals"
"-105.14","69.11","CAMBRIDGE BAY A","2400601","2021-03-28 11:00","2021","03","28","11:00","-31.1","","-35.2","","68","","","","29","","23","","14.5","","101.45","","","","-45","","Ice Crystals"
"-105.14","69.11","CAMBRIDGE BAY A","2400601","2021-03-28 12:00","2021","03","28","12:00","-29.9","","-34.0","","69","","","","27","","12","","17.7","","101.48","","","","-40","","Ice Crystals"
"-105.14","69.11","CAMBRIDGE BAY A","2400601","2021-03-28 13:00","2021","03","28","13:00","-29.7","","-33.7","","69","","","","28","","14","","20.9","","101.50","","","","-41","","Ice Crystals"
"-105.14","69.11","CAMBRIDGE BAY A","2400601","2021-03-28 14:00","2021","03","28","14:00","-29.2","","-33.2","","69","","","","27","","27","","24.1","","101.50","","","","-44","","Ice Crystals"
"-105.14","69.11","CAMBRIDGE BAY A","2400601","2021-03-28 15:00","2021","03","28","15:00","-28.9","","-32.9","","69","","","","28","","18","","24.1","","101.51","","","","-41","","Ice Crystals"
"-105.14","69.11","CAMBRIDGE BAY A","2400601","2021-03-28 16:00","2021","03","28","16:00","-28.9","","-33.1","","68","","","","28","","13","","24.1","","101.53","","","","-39","","Ice Crystals"
"-105.14","69.11","CAMBRIDGE BAY A","2400601","2021-03-28 17:00","2021","03","28","17:00","-29.0","","-33.4","","67","","","","26","","12","","24.1","","101.55","","","","-39","","Clear"
"-105.14","69.11","CAMBRIDGE BAY A","2400601","2021-03-28 18:00","2021","03","28","18:00","-29.8","","-34.1","","67","","","","21","","4","","24.1","","101.52","","","","-34","","NA"
"-105.14","69.11","CAMBRIDGE BAY A","2400601","2021-03-28 19:00","2021","03","28","19:00","-30.5","","-34.6","","68","","","","25","","10","","24.1","","101.51","","","","-40","","NA"
"-105.14","69.11","CAMBRIDGE BAY A","2400601","2021-03-28 20:00","2021","03","28","20:00","-31.7","","-35.6","","69","","","","27","","18","","24.1","","101.51","","","","-45","","Mainly Clear"
"-105.14","69.11","CAMBRIDGE BAY A","2400601","2021-03-28 21:00","2021","03","28","21:00","-32.1","","-36.0","","69","","","","26","","14","","24.1","","101.48","","","","-44","","NA"
"-105.14","69.11","CAMBRIDGE BAY A","2400601","2021-03-28 22:00","2021","03","28","22:00","-31.9","","-35.9","","68","","","","28","","17","","24.1","","101.47","","","","-44","","NA"
"-105.14","69.11","CAMBRIDGE BAY A","2400601","2021-03-28 23:00","2021","03","28","23:00","-32.4","","-36.4","","68","","","","27","","14","","24.1","","101.45","","","","-44","","Mainly Clear"
"-105.14","69.11","CAMBRIDGE BAY A","2400601","2021-03-29 00:00","2021","03","29","00:00","-32.7","","-36.7","","68","","","","25","","15","","24.1","","101.44","","","","-45","","NA"
"-105.14","69.11","CAMBRIDGE BAY A","2400601","2021-03-29 01:00","2021","03","29","01:00","-33.4","","-37.5","","68","","","","28","","21","","24.1","","101.44","","","","-48","","NA"
"-105.14","69.11","CAMBRIDGE BAY A","2400601","2021-03-29 02:00","2021","03","29","02:00","-34.1","","-38.3","","67","","","","29","","21","","24.1","","101.43","","","","-49","","Mainly Clear"
"-105.14","69.11","CAMBRIDGE BAY A","2400601","2021-03-29 03:00","2021","03","29","03:00","-34.9","","-39.1","","66","","","","32","","23","","24.1","","101.44","","","","-50","","NA"
"-105.14","69.11","CAMBRIDGE BAY A","2400601","2021-03-29 04:00","2021","03","29","04:00","-35.6","","-39.9","","66","","","","31","","27","","24.1","","101.46","","","","-52","","Blowing Snow"
"-105.14","69.11","CAMBRIDGE BAY A","2400601","2021-03-29 05:00","2021","03","29","05:00","-36.0","","-40.3","","66","","","","28","","16","","24.1","","101.48","","","","-49","","Mainly Clear"
"-105.14","69.11","CAMBRIDGE BAY A","2400601","2021-03-29 06:00","2021","03","29","06:00","-36.0","","-40.3","","65","","","","26","","19","","24.1","","101.53","","","","-50","","NA"
"-105.14","69.11","CAMBRIDGE BAY A","2400601","2021-03-29 07:00","2021","03","29","07:00","-36.3","","-40.7","","65","","","","26","","14","","24.1","","101.52","","","","-49","","NA"
"-105.14","69.11","CAMBRIDGE BAY A","2400601","2021-03-29 08:00","2021","03","29","08:00","-36.0","","-40.6","","64","","","","27","","15","","24.1","","101.55","","","","-49","","Mainly Clear"
"-105.14","69.11","CAMBRIDGE BAY A","2400601","2021-03-29 09:00","2021","03","29","09:00","-35.4","","-40.1","","63","","","","30","","24","","24.1","","101.56","","","","-51","","Blowing Snow"
"-105.14","69.11","CAMBRIDGE BAY A","2400601","2021-03-29 10:00","2021","03","29","10:00","-35.3","","-40.2","","62","","","","30","","17","","24.1","","101.60","","","","-49","","NA"
"-105.14","69.11","CAMBRIDGE BAY A","2400601","2021-03-29 11:00","2021","03","29","11:00","-34.6","","-39.6","","61","","","","30","","23","","24.1","","101.61","","","","-50","","Blowing Snow"
"-105.14","69.11","CAMBRIDGE BAY A","2400601","2021-03-29 12:00","2021","03","29","12:00","-34.1","","-39.2","","61","","","","29","","21","","24.1","","101.63","","","","-49","","Blowing Snow"
"-105.14","69.11","CAMBRIDGE BAY A","2400601","2021-03-29 13:00","2021","03","29","13:00","-33.8","","-39.0","","61","","","","30","","18","","24.1","","101.68","","","","-47","","NA"
"-105.14","69.11","CAMBRIDGE BAY A","2400601","2021-03-29 14:00","2021","03","29","14:00","-33.2","","-38.4","","61","","","","29","","25","","24.1","","101.66","","","","-49","","Blowing Snow"
"-105.14","69.11","CAMBRIDGE BAY A","2400601","2021-03-29 15:00","2021","03","29","15:00","-33.5","","-38.7","","61","","","","30","","22","","24.1","","101.69","","","","-48","","Blowing Snow"
"-105.14","69.11","CAMBRIDGE BAY A","2400601","2021-03-29 16:00","2021","03","29","16:00","-34.0","","-39.1","","61","","","","31","","20","","24.1","","101.69","","","","-48","","NA"
"-105.14","69.11","CAMBRIDGE BAY A","2400601","2021-03-29 17:00","2021","03","29","17:00","-34.3","","-39.3","","61","","","","30","","19","","24.1","","101.69","","","","-48","","Mainly Clear"
"-105.14","69.11","CAMBRIDGE BAY A","2400601","2021-03-29 18:00","2021","03","29","18:00","-35.0","","-40.0","","62","","","","30","","13","","24.1","","101.69","","","","-47","","NA"
"-105.14","69.11","CAMBRIDGE BAY A","2400601","2021-03-29 19:00","2021","03","29","19:00","-35.9","","-40.8","","61","","","","30","","19","","24.1","","101.68","","","","-50","","NA"
"-105.14","69.11","CAMBRIDGE BAY A","2400601","2021-03-29 20:00","2021","03","29","20:00","-36.8","","-41.6","","62","","","","30","","17","","24.1","","101.71","","","","-51","","Clear"
"-105.14","69.11","CAMBRIDGE BAY A","2400601","2021-03-29 21:00","2021","03","29","21:00","-38.1","","-42.8","","63","","","","33","","7","","24.1","","101.70","","","","-47","","NA"
"-105.14","69.11","CAMBRIDGE BAY A","2400601","2021-03-29 22:00","2021","03","29","22:00","-39.1","","-43.7","","63","","","","29","","8","","24.1","","101.67","","","","-49","","NA"
"-105.14","69.11","CAMBRIDGE BAY A","2400601","2021-03-29 23:00","2021","03","29","23:00","-38.6","","-43.2","","63","","","","32","","12","","24.1","","101.63","","","","-51","","Mainly Clear"
"-105.14","69.11","CAMBRIDGE BAY A","2400601","2021-03-30 00:00","2021","03","30","00:00","-40.0","","-44.6","","63","","","","5","","3","","24.1","","101.64","","","","-44","","NA"
"-105.14","69.11","CAMBRIDGE BAY A","2400601","2021-03-30 01:00","2021","03","30","01:00","-38.7","","-43.3","","63","","","","28","","8","","24.1","","101.63","","","","-48","","NA"
"-105.14","69.11","CAMBRIDGE BAY A","2400601","2021-03-30 02:00","2021","03","30","02:00","-39.5","","-44.1","","63","","","","36","","2","","24.1","","101.61","","","","-42","","Mainly Clear"
"-105.14","69.11","CAMBRIDGE BAY A","2400601","2021-03-30 03:00","2021","03","30","03:00","-40.1","","-44.6","","63","","","","24","","5","","24.1","","101.60","","","","-47","","NA"
"-105.14","69.11","CAMBRIDGE BAY A","2400601","2021-03-30 04:00","2021","03","30","04:00","-39.6","","-44.1","","63","","","","31","","15","","24.1","","101.55","","","","-53","","NA"
"-105.14","69.11","CAMBRIDGE BAY A","2400601","2021-03-30 05:00","2021","03","30","05:00","-40.1","","-44.6","","63","","","","29","","9","","4.8","","101.52","","","","-51","","Fog"
"-105.14","69.11","CAMBRIDGE BAY A","2400601","2021-03-30 06:00","2021","03","30","06:00","-41.3","","-45.8","","63","","","","36","","1","","9.7","","101.51","","","","-43","","Fog"
"-105.14","69.11","CAMBRIDGE BAY A","2400601","2021-03-30 07:00","2021","03","30","07:00","-39.9","","-44.5","","63","","","","26","","12","","19.3","","101.47","","","","-52","","NA"
"-105.14","69.11","CAMBRIDGE BAY A","2400601","2021-03-30 08:00","2021","03","30","08:00","-39.4","","-44.0","","63","","","","28","","14","","19.3","","101.44","","","","-53","","Mainly Clear"
"-105.14","69.11","CAMBRIDGE BAY A","2400601","2021-03-30 09:00","2021","03","30","09:00","-38.4","","-43.1","","62","","","","30","","22","","19.3","","101.40","","","","-54","","NA"
"-105.14","69.11","CAMBRIDGE BAY A","2400601","2021-03-30 10:00","2021","03","30","10:00","-37.3","","-42.2","","62","","","","29","","23","","24.1","","101.40","","","","-53","","NA"
"-105.14","69.11","CAMBRIDGE BAY A","2400601","2021-03-30 11:00","2021","03","30","11:00","-36.6","","-41.6","","61","","","","29","","25","","19.3","","101.35","","","","-53","","Blowing Snow"
"-105.14","69.11","CAMBRIDGE BAY A","2400601","2021-03-30 12:00","2021","03","30","12:00","-35.4","","-40.3","","62","","","","28","","19","","24.1","","101.34","","","","-50","","NA"
"-105.14","69.11","CAMBRIDGE BAY A","2400601","2021-03-30 13:00","2021","03","30","13:00","-34.1","","-39.0","","62","","","","29","","27","","24.1","","101.30","","","","-50","","NA"
"-105.14","69.11","CAMBRIDGE BAY A","2400601","2021-03-30 14:00","2021","03","30","14:00","-33.3","","-38.1","","63","","","","29","","24","","19.3","","101.29","","","","-48","","Blowing Snow"
"-105.14","69.11","CAMBRIDGE BAY A","2400601","2021-03-30 15:00","2021","03","30","15:00","-32.8","","-37.6","","63","","","","28","","18","","19.3","","101.31","","","","-46","","NA"
"-105.14","69.11","CAMBRIDGE BAY A","2400601","2021-03-30 16:00","2021","03","30","16:00","-32.5","","-37.3","","63","","","","28","","23","","24.1","","101.31","","","","-47","","NA"
"-105.14","69.11","CAMBRIDGE BAY A","2400601","2021-03-30 17:00","2021","03","30","17:00","-32.7","","-37.4","","64","","","","28","","20","","24.1","","101.31","","","","-47","","Clear"
"-105.14","69.11","CAMBRIDGE BAY A","2400601","2021-03-30 18:00","2021","03","30","18:00","-33.4","","-38.0","","64","","","","27","","14","","24.1","","101.33","","","","-45","","NA"
"-105.14","69.11","CAMBRIDGE BAY A","2400601","2021-03-30 19:00","2021","03","30","19:00","-34.1","","-38.6","","65","","","","25","","19","","24.1","","101.30","","","","-48","","NA"
"-105.14","69.11","CAMBRIDGE BAY A","2400601","2021-03-30 20:00","2021","03","30","20:00","-34.8","","-39.4","","64","","","","28","","18","","22.5","","101.26","","","","-48","","Clear"
"-105.14","69.11","CAMBRIDGE BAY A","2400601","2021-03-30 21:00","2021","03","30","21:00","-35.9","","-40.4","","64","","","","27","","12","","24.1","","101.28","","","","-47","","NA"
"-105.14","69.11","CAMBRIDGE BAY A","2400601","2021-03-30 22:00","2021","03","30","22:00","-36.5","","-41.0","","64","","","","27","","13","","24.1","","101.27","","","","-49","","NA"
"-105.14","69.11","CAMBRIDGE BAY A","2400601","2021-03-30 23:00","2021","03","30","23:00","-37.0","","-41.5","","64","","","","27","","15","","24.1","","101.28","","","","-50","","Mainly Clear"
"-105.14","69.11","CAMBRIDGE BAY A","2400601","2021-03-31 00:00","2021","03","31","00:00","-37.5","","-41.9","","64","","","","29","","18","","24.1","","101.29","","","","-52","","NA"
"-105.14","69.11","CAMBRIDGE BAY A","2400601","2021-03-31 01:00","2021","03","31","01:00","-37.4","","-41.8","","65","","","","28","","20","","24.1","","101.30","","","","-52","","NA"
"-105.14","69.11","CAMBRIDGE BAY A","2400601","2021-03-31 02:00","2021","03","31","02:00","-38.9","","-43.3","","64","","","","29","","11","","24.1","","101.33","","","","-50","","Mainly Clear"
"-105.14","69.11","CAMBRIDGE BAY A","2400601","2021-03-31 03:00","2021","03","31","03:00","-38.6","","-43.0","","64","","","","28","","14","","24.1","","101.33","","","","-52","","NA"
"-105.14","69.11","CAMBRIDGE BAY A","2400601","2021-03-31 04:00","2021","03","31","04:00","-38.4","","-42.8","","64","","","","26","","9","","24.1","","101.34","","","","-49","","NA"
"-105.14","69.11","CAMBRIDGE BAY A","2400601","2021-03-31 05:00","2021","03","31","05:00","-38.7","","-43.0","","64","","","","28","","9","","24.1","","101.37","","","","-49","","Mainly Clear"
"-105.14","69.11","CAMBRIDGE BAY A","2400601","2021-03-31 06:00","2021","03","31","06:00","-38.9","","-43.3","","64","","","","27","","8","","24.1","","101.43","","","","-48","","NA"
"-105.14","69.11","CAMBRIDGE BAY A","2400601","2021-03-31 07:00","2021","03","31","07:00","-38.4","","-42.9","","64","","","","25","","4","","24.1","","101.46","","","","-44","","NA"
"-105.14","69.11","CAMBRIDGE BAY A","2400601","2021-03-31 08:00","2021","03","31","08:00","-38.0","","-42.4","","64","","","","25","","7","","24.1","","101.49","","","","-47","","Clear"
"-105.14","69.11","CAMBRIDGE BAY A","2400601","2021-03-31 09:00","2021","03","31","09:00","-37.1","","-41.7","","64","","","","26","","7","","24.1","","101.51","","","","-46","","NA"
"-105.14","69.11","CAMBRIDGE BAY A","2400601","2021-03-31 10:00","2021","03","31","10:00","-35.8","","-40.3","","64","","","","27","","17","","24.1","","101.53","","","","-49","","NA"
"-105.14","69.11","CAMBRIDGE BAY A","2400601","2021-03-31 11:00","2021","03","31","11:00","-35.1","","-39.7","","64","","","","30","","12","","24.1","","101.58","","","","-46","","Clear"
"-105.14","69.11","CAMBRIDGE BAY A","2400601","2021-03-31 12:00","2021","03","31","12:00","-34.0","","-38.7","","63","","","","28","","10","","24.1","","101.63","","","","-44","","NA"
"-105.14","69.11","CAMBRIDGE BAY A","2400601","2021-03-31 13:00","2021","03","31","13:00","-33.3","","-38.0","","63","","","","25","","13","","24.1","","101.66","","","","-45","","NA"
"-105.14","69.11","CAMBRIDGE BAY A","2400601","2021-03-31 14:00","2021","03","31","14:00","-32.9","","-37.6","","64","","","","26","","13","","24.1","","101.68","","","","-44","","Clear"
"-105.14","69.11","CAMBRIDGE BAY A","2400601","2021-03-31 15:00","2021","03","31","15:00","-32.2","","-36.9","","64","","","","29","","14","","24.1","","101.69","","","","-44","","NA"
"-105.14","69.11","CAMBRIDGE BAY A","2400601","2021-03-31 16:00","2021","03","31","16:00","-32.4","","-37.2","","63","","","","30","","16","","24.1","","101.73","","","","-45","","NA"
"-105.14","69.11","CAMBRIDGE BAY A","2400601","2021-03-31 17:00","2021","03","31","17:00","-32.7","","-37.5","","63","","","","27","","9","","24.1","","101.74","","","","-42","","Clear"
"-105.14","69.11","CAMBRIDGE BAY A","2400601","2021-03-31 18:00","2021","03","31","18:00","-32.6","","-37.5","","63","","","","29","","13","","24.1","","101.74","","","","-44","","NA"
"-105.14","69.11","CAMBRIDGE BAY A","2400601","2021-03-31 19:00","2021","03","31","19:00","-34.0","","-38.8","","63","","","","26","","8","","24.1","","101.76","","","","-43","","NA"
"-105.14","69.11","CAMBRIDGE BAY A","2400601","2021-03-31 20:00","2021","03","31","20:00","-33.9","","-38.4","","65","","","","25","","6","","24.1","","101.77","","","","-41","","Clear"
"-105.14","69.11","CAMBRIDGE BAY A","2400601","2021-03-31 21:00","2021","03","31","21:00","-34.1","","-38.5","","65","","","","26","","8","","24.1","","101.78","","","","-43","","NA"
"-105.14","69.11","CAMBRIDGE BAY A","2400601","2021-03-31 22:00","2021","03","31","22:00","-34.6","","-38.9","","66","","","","25","","10","","24.1","","101.77","","","","-45","","NA"
"-105.14","69.11","CAMBRIDGE BAY A","2400601","2021-03-31 23:00","2021","03","31","23:00","-35.9","","-40.2","","66","","","","26","","3","","24.1","","101.77","","","","-40","","Clear"
