"Longitude (x)","Latitude (y)","Station Name","Climate ID","Date/Time (LST)","Year","Month","Day","Time (LST)","Temp (°C)","Temp Flag","Dew Point Temp (°C)","Dew Point Temp Flag","Rel Hum (%)","Rel Hum Flag","Precip. Amount (mm)","Precip. Amount Flag","Wind Dir (10s deg)","Wind Dir Flag","Wind Spd (km/h)","Wind Spd Flag","Visibility (km)","Visibility Flag","Stn Press (kPa)","Stn Press Flag","Hmdx","Hmdx Flag","Wind Chill","Wind Chill Flag","Weather"
"-105.14","69.11","CAMBRIDGE BAY A","2400601","2021-05-01 00:00","2021","05","01","00:00","-15.6","","-18.2","","81","","","","14","","23","","16.1","","101.65","","","","-26","","Blowing Snow"
"-105.14","69.11","CAMBRIDGE BAY A","2400601","2021-05-01 01:00","2021","05","01","01:00","-16.7","","-19.3","","81","","","","13","","23","","19.3","","101.66","","","","-27","","Blowing Snow"
"-105.14","69.11","CAMBRIDGE BAY A","2400601","2021-05-01 02:00","2021","05","01","02:00","-17.8","","-20.4","","80","","","","13","","22","","19.3","","101.67","","","","-28","","Blowing Snow"
"-105.14","69.11","CAMBRIDGE BAY A","2400601","2021-05-01 03:00","2021","05","01","03:00","-18.9","","-21.6","","79","","","","11","","18","","4.8","","101.69","","","","-29","","Fog,Blowing Snow"
"-105.14","69.11","CAMBRIDGE BAY A","2400601","2021-05-01 04:00","2021","05","01","04:00","-19.2","","-22.1","","79","","","","9","","11","","4.8","","101.72","","","","-27","","Fog"
"-105.14","69.11","CAMBRIDGE BAY A","2400601","2021-05-01 05:00","2021","05","01","05:00","-19.7","","-22.7","","78","","","","8","","10","","4.8","","101.74","","","","-27","","Fog"
"-105.14","69.11","CAMBRIDGE BAY A","2400601","2021-05-01 06:00","2021","05","01","06:00","-18.7","","-21.7","","77","","","","11","","11","","4.8","","101.76","","","","-26","","Fog"
"-105.14","69.11","CAMBRIDGE BAY A","2400601","2021-05-01 07:00","2021","05","01","07:00","-18.2","","-21.5","","76","","","","11","","8","","6.4","","101.78","","","","-24","","Fog"
"-105.14","69.11","CAMBRIDGE BAY A","2400601","2021-05-01 08:00","2021","05","01","08:00","-17.5","","-20.9","","75","","","","12","","13","","4.8","","101.80","","","","-25","","Fog"
"-105.14","69.11","CAMBRIDGE BAY A","2400601","2021-05-01 09:00","2021","05","01","09:00","-15.9","","-19.4","","75","","","","13","","11","","24.1","","101.82","","","","-23","","NA"
"-105.14","69.11","CAMBRIDGE BAY A","2400601","2021-05-01 10:00","2021","05","01","10:00","-14.3","","-17.7","","76","","","","13","","12","","24.1","","101.84","","","","-21","","NA"
"-105.14","69.11","CAMBRIDGE BAY A","2400601","2021-05-01 11:00","2021","05","01","11:00","-13.8","","-17.1","","77","","","","16","","10","","24.1","","101.86","","","","-20","","Clear"
"-105.14","69.11","CAMBRIDGE BAY A","2400601","2021-05-01 12:00","2021","05","01","12:00","-12.5","","-15.8","","77","","","","15","","18","","24.1","","101.88","","","","-21","","NA"
"-105.14","69.11","CAMBRIDGE BAY A","2400601","2021-05-01 13:00","2021","05","01","13:00","-11.8","","-15.1","","77","","","","16","","16","","24.1","","101.93","","","","-19","","NA"
"-105.14","69.11","CAMBRIDGE BAY A","2400601","2021-05-01 14:00","2021","05","01","14:00","-11.4","","-14.7","","77","","","","15","","15","","24.1","","101.96","","","","-18","","Clear"
"-105.14","69.11","CAMBRIDGE BAY A","2400601","2021-05-01 15:00","2021","05","01","15:00","-11.1","","-14.4","","77","","","","14","","12","","24.1","","101.98","","","","-17","","NA"
"-105.14","69.11","CAMBRIDGE BAY A","2400601","2021-05-01 16:00","2021","05","01","16:00","-11.2","","-14.3","","77","","","","15","","12","","24.1","","102.01","","","","-17","","NA"
"-105.14","69.11","CAMBRIDGE BAY A","2400601","2021-05-01 17:00","2021","05","01","17:00","-11.7","","-14.8","","78","","","","14","","12","","24.1","","102.01","","","","-18","","Clear"
"-105.14","69.11","CAMBRIDGE BAY A","2400601","2021-05-01 18:00","2021","05","01","18:00","-12.5","","-15.4","","79","","","","15","","11","","24.1","","102.02","","","","-19","","NA"
"-105.14","69.11","CAMBRIDGE BAY A","2400601","2021-05-01 19:00","2021","05","01","19:00","-13.5","","-16.3","","80","","","","11","","10","","24.1","","102.03","","","","-19","","NA"
"-105.14","69.11","CAMBRIDGE BAY A","2400601","2021-05-01 20:00","2021","05","01","20:00","-14.1","","-16.4","","83","","","","11","","5","","24.1","","102.05","","","","-18","","Clear"
"-105.14","69.11","CAMBRIDGE BAY A","2400601","2021-05-01 21:00","2021","05","01","21:00","-14.9","","-17.0","","84","","","","11","","5","","24.1","","102.06","","","","-18","","NA"
"-105.14","69.11","CAMBRIDGE BAY A","2400601","2021-05-01 22:00","2021","05","01","22:00","-15.3","","-17.7","","82","","","","10","","4","","24.1","","102.08","","","","-18","","NA"
"-105.14","69.11","CAMBRIDGE BAY A","2400601","2021-05-01 23:00","2021","05","01","23:00","-17.4","","-20.0","","80","","","","6","","5","","24.1","","102.09","","","","-21","","Clear"
"-105.14","69.11","CAMBRIDGE BAY A","2400601","2021-05-02 00:00","2021","05","02","00:00","-17.3","","-19.9","","80","","","","7","","5","","24.1","","102.10","","","","-21","","NA"
"-105.14","69.11","CAMBRIDGE BAY A","2400601","2021-05-02 01:00","2021","05","02","01:00","-19.0","","-21.8","","79","","","","4","","5","","24.1","","102.12","","","","-23","","NA"
"-105.14","69.11","CAMBRIDGE BAY A","2400601","2021-05-02 02:00","2021","05","02","02:00","-19.0","","-21.8","","79","","","","3","","10","","24.1","","102.16","","","","-26","","Mainly Clear"
"-105.14","69.11","CAMBRIDGE BAY A","2400601","2021-05-02 03:00","2021","05","02","03:00","-19.3","","-22.1","","79","","","","2","","12","","24.1","","102.20","","","","-27","","NA"
"-105.14","69.11","CAMBRIDGE BAY A","2400601","2021-05-02 04:00","2021","05","02","04:00","-20.8","","-23.8","","77","","","","4","","13","","24.1","","102.21","","","","-29","","NA"
"-105.14","69.11","CAMBRIDGE BAY A","2400601","2021-05-02 05:00","2021","05","02","05:00","-21.2","","-24.2","","77","","","","4","","10","","24.1","","102.24","","","","-29","","Mainly Clear"
"-105.14","69.11","CAMBRIDGE BAY A","2400601","2021-05-02 06:00","2021","05","02","06:00","-20.5","","-23.5","","77","","","","5","","9","","24.1","","102.27","","","","-27","","NA"
"-105.14","69.11","CAMBRIDGE BAY A","2400601","2021-05-02 07:00","2021","05","02","07:00","-19.7","","-22.6","","78","","","","3","","10","","24.1","","102.29","","","","-27","","NA"
"-105.14","69.11","CAMBRIDGE BAY A","2400601","2021-05-02 08:00","2021","05","02","08:00","-17.4","","-20.1","","80","","","","2","","5","","24.1","","102.31","","","","-21","","Mainly Clear"
"-105.14","69.11","CAMBRIDGE BAY A","2400601","2021-05-02 09:00","2021","05","02","09:00","-17.2","","-19.9","","80","","","","3","","7","","24.1","","102.33","","","","-22","","NA"
"-105.14","69.11","CAMBRIDGE BAY A","2400601","2021-05-02 10:00","2021","05","02","10:00","-15.7","","-18.2","","81","","","","3","","6","","24.1","","102.34","","","","-20","","NA"
"-105.14","69.11","CAMBRIDGE BAY A","2400601","2021-05-02 11:00","2021","05","02","11:00","-13.8","","-16.2","","83","","","","4","","3","","24.1","","102.36","","","","-16","","Mainly Clear"
"-105.14","69.11","CAMBRIDGE BAY A","2400601","2021-05-02 12:00","2021","05","02","12:00","-12.5","","-14.7","","84","","","","1","","5","","24.1","","102.40","","","","-16","","NA"
"-105.14","69.11","CAMBRIDGE BAY A","2400601","2021-05-02 13:00","2021","05","02","13:00","-11.7","","-13.8","","85","","","","3","","8","","24.1","","102.44","","","","-16","","NA"
"-105.14","69.11","CAMBRIDGE BAY A","2400601","2021-05-02 14:00","2021","05","02","14:00","-10.9","","-12.9","","85","","","","2","","6","","24.1","","102.47","","","","-15","","Mainly Clear"
"-105.14","69.11","CAMBRIDGE BAY A","2400601","2021-05-02 15:00","2021","05","02","15:00","-10.3","","-12.2","","86","","","","3","","7","","24.1","","102.49","","","","-14","","NA"
"-105.14","69.11","CAMBRIDGE BAY A","2400601","2021-05-02 16:00","2021","05","02","16:00","-9.6","","-12.4","","80","","","","3","","7","","24.1","","102.51","","","","-14","","NA"
"-105.14","69.11","CAMBRIDGE BAY A","2400601","2021-05-02 17:00","2021","05","02","17:00","-9.1","","-13.1","","73","","","","2","","10","","24.1","","102.52","","","","-14","","Mainly Clear"
"-105.14","69.11","CAMBRIDGE BAY A","2400601","2021-05-02 18:00","2021","05","02","18:00","-10.8","","-13.9","","78","","","","3","","7","","24.1","","102.55","","","","-15","","NA"
"-105.14","69.11","CAMBRIDGE BAY A","2400601","2021-05-02 19:00","2021","05","02","19:00","-11.4","","-14.7","","77","","","","4","","8","","24.1","","102.56","","","","-16","","NA"
"-105.14","69.11","CAMBRIDGE BAY A","2400601","2021-05-02 20:00","2021","05","02","20:00","-12.5","","-15.5","","78","","","","2","","5","","24.1","","102.56","","","","-16","","Mainly Clear"
"-105.14","69.11","CAMBRIDGE BAY A","2400601","2021-05-02 21:00","2021","05","02","21:00","-12.9","","-15.8","","79","","","","3","","5","","24.1","","102.58","","","","-16","","NA"
"-105.14","69.11","CAMBRIDGE BAY A","2400601","2021-05-02 22:00","2021","05","02","22:00","-13.4","","-16.4","","78","","","","3","","7","","24.1","","102.60","","","","-18","","NA"
"-105.14","69.11","CAMBRIDGE BAY A","2400601","2021-05-02 23:00","2021","05","02","23:00","-14.4","","-17.0","","81","","","","2","","9","","24.1","","102.58","","","","-20","","Mainly Clear"
"-105.14","69.11","CAMBRIDGE BAY A","2400601","2021-05-03 00:00","2021","05","03","00:00","-14.1","","-16.7","","81","","","","2","","10","","24.1","","102.59","","","","-20","","NA"
"-105.14","69.11","CAMBRIDGE BAY A","2400601","2021-05-03 01:00","2021","05","03","01:00","-17.0","","-19.8","","79","","","","4","","10","","24.1","","102.60","","","","-24","","NA"
"-105.14","69.11","CAMBRIDGE BAY A","2400601","2021-05-03 02:00","2021","05","03","02:00","-15.7","","-18.1","","82","","","","2","","12","","24.1","","102.63","","","","-23","","Mainly Clear"
"-105.14","69.11","CAMBRIDGE BAY A","2400601","2021-05-03 03:00","2021","05","03","03:00","-15.3","","-17.8","","82","","","","2","","14","","24.1","","102.64","","","","-23","","NA"
"-105.14","69.11","CAMBRIDGE BAY A","2400601","2021-05-03 04:00","2021","05","03","04:00","-17.3","","-19.7","","82","","","","3","","17","","24.1","","102.65","","","","-26","","NA"
"-105.14","69.11","CAMBRIDGE BAY A","2400601","2021-05-03 05:00","2021","05","03","05:00","-16.0","","-18.5","","82","","","","3","","15","","24.1","","102.66","","","","-24","","Mainly Clear"
"-105.14","69.11","CAMBRIDGE BAY A","2400601","2021-05-03 06:00","2021","05","03","06:00","-16.4","","-19.1","","80","","","","2","","7","","24.1","","102.66","","","","-21","","NA"
"-105.14","69.11","CAMBRIDGE BAY A","2400601","2021-05-03 07:00","2021","05","03","07:00","-15.9","","-18.7","","79","","","","4","","13","","24.1","","102.67","","","","-23","","NA"
"-105.14","69.11","CAMBRIDGE BAY A","2400601","2021-05-03 08:00","2021","05","03","08:00","-14.8","","-17.8","","78","","","","2","","13","","24.1","","102.65","","","","-22","","Mainly Clear"
"-105.14","69.11","CAMBRIDGE BAY A","2400601","2021-05-03 09:00","2021","05","03","09:00","-12.7","","-15.8","","78","","","","2","","18","","24.1","","102.64","","","","-21","","NA"
"-105.14","69.11","CAMBRIDGE BAY A","2400601","2021-05-03 10:00","2021","05","03","10:00","-11.3","","-14.5","","77","","","","3","","21","","24.1","","102.61","","","","-20","","NA"
"-105.14","69.11","CAMBRIDGE BAY A","2400601","2021-05-03 11:00","2021","05","03","11:00","-10.2","","-13.4","","78","","","","3","","18","","24.1","","102.59","","","","-18","","Mostly Cloudy"
"-105.14","69.11","CAMBRIDGE BAY A","2400601","2021-05-03 12:00","2021","05","03","12:00","-8.8","","-12.0","","78","","","","3","","16","","24.1","","102.57","","","","-16","","NA"
"-105.14","69.11","CAMBRIDGE BAY A","2400601","2021-05-03 13:00","2021","05","03","13:00","-7.8","","-11.9","","73","","","","3","","20","","24.1","","102.56","","","","-15","","NA"
"-105.14","69.11","CAMBRIDGE BAY A","2400601","2021-05-03 14:00","2021","05","03","14:00","-7.4","","-11.5","","73","","","","2","","21","","24.1","","102.53","","","","-15","","Mostly Cloudy"
"-105.14","69.11","CAMBRIDGE BAY A","2400601","2021-05-03 15:00","2021","05","03","15:00","-7.2","","-11.1","","74","","","","2","","18","","24.1","","102.52","","","","-14","","NA"
"-105.14","69.11","CAMBRIDGE BAY A","2400601","2021-05-03 16:00","2021","05","03","16:00","-7.2","","-11.3","","73","","","","1","","23","","24.1","","102.50","","","","-15","","NA"
"-105.14","69.11","CAMBRIDGE BAY A","2400601","2021-05-03 17:00","2021","05","03","17:00","-7.4","","-11.1","","75","","","","2","","22","","24.1","","102.46","","","","-15","","Snow"
"-105.14","69.11","CAMBRIDGE BAY A","2400601","2021-05-03 18:00","2021","05","03","18:00","-7.7","","-11.2","","76","","","","2","","21","","24.1","","102.44","","","","-15","","Snow"
"-105.14","69.11","CAMBRIDGE BAY A","2400601","2021-05-03 19:00","2021","05","03","19:00","-7.9","","-11.4","","76","","","","2","","26","","19.3","","102.38","","","","-16","","Snow,Blowing Snow"
"-105.14","69.11","CAMBRIDGE BAY A","2400601","2021-05-03 20:00","2021","05","03","20:00","-8.0","","-11.0","","79","","","","3","","25","","22.5","","102.35","","","","-16","","Snow,Blowing Snow"
"-105.14","69.11","CAMBRIDGE BAY A","2400601","2021-05-03 21:00","2021","05","03","21:00","-8.1","","-10.5","","83","","","","4","","27","","19.3","","102.33","","","","-17","","Snow,Blowing Snow"
"-105.14","69.11","CAMBRIDGE BAY A","2400601","2021-05-03 22:00","2021","05","03","22:00","-8.3","","-10.3","","85","","","","3","","27","","9.7","","102.30","","","","-17","","Snow,Blowing Snow"
"-105.14","69.11","CAMBRIDGE BAY A","2400601","2021-05-03 23:00","2021","05","03","23:00","-8.1","","-10.1","","86","","","","3","","22","","12.9","","102.29","","","","-16","","Snow,Blowing Snow"
"-105.14","69.11","CAMBRIDGE BAY A","2400601","2021-05-04 00:00","2021","05","04","00:00","-8.3","","-10.2","","86","","","","3","","24","","12.9","","102.25","","","","-16","","Snow,Blowing Snow"
"-105.14","69.11","CAMBRIDGE BAY A","2400601","2021-05-04 01:00","2021","05","04","01:00","-8.2","","-10.1","","86","","","","3","","28","","9.7","","102.25","","","","-17","","Snow,Blowing Snow"
"-105.14","69.11","CAMBRIDGE BAY A","2400601","2021-05-04 02:00","2021","05","04","02:00","-8.2","","-10.0","","87","","","","4","","25","","4.8","","102.23","","","","-16","","Snow,Blowing Snow"
"-105.14","69.11","CAMBRIDGE BAY A","2400601","2021-05-04 03:00","2021","05","04","03:00","-8.2","","-10.0","","87","","","","3","","23","","4.8","","102.22","","","","-16","","Snow,Blowing Snow"
"-105.14","69.11","CAMBRIDGE BAY A","2400601","2021-05-04 04:00","2021","05","04","04:00","-8.1","","-9.9","","87","","","","3","","26","","4.8","","102.22","","","","-16","","Snow,Blowing Snow"
"-105.14","69.11","CAMBRIDGE BAY A","2400601","2021-05-04 05:00","2021","05","04","05:00","-7.9","","-9.7","","87","","","","3","","21","","4.8","","102.20","","","","-15","","Snow,Blowing Snow"
"-105.14","69.11","CAMBRIDGE BAY A","2400601","2021-05-04 06:00","2021","05","04","06:00","-7.4","","-9.3","","86","","","","3","","23","","9.7","","102.18","","","","-15","","Snow,Blowing Snow"
"-105.14","69.11","CAMBRIDGE BAY A","2400601","2021-05-04 07:00","2021","05","04","07:00","-6.7","","-8.8","","85","","","","3","","21","","9.7","","102.15","","","","-14","","Snow,Blowing Snow"
"-105.14","69.11","CAMBRIDGE BAY A","2400601","2021-05-04 08:00","2021","05","04","08:00","-6.0","","-8.0","","86","","","","4","","19","","9.7","","102.14","","","","-13","","Snow,Blowing Snow"
"-105.14","69.11","CAMBRIDGE BAY A","2400601","2021-05-04 09:00","2021","05","04","09:00","-5.2","","-7.2","","86","","","","4","","20","","6.4","","102.12","","","","-12","","Snow"
"-105.14","69.11","CAMBRIDGE BAY A","2400601","2021-05-04 10:00","2021","05","04","10:00","-4.5","","-6.5","","86","","","","4","","18","","12.9","","102.11","","","","-11","","Snow"
"-105.14","69.11","CAMBRIDGE BAY A","2400601","2021-05-04 11:00","2021","05","04","11:00","-3.5","","-5.5","","86","","","","4","","13","","16.1","","102.11","","","","-8","","Snow"
"-105.14","69.11","CAMBRIDGE BAY A","2400601","2021-05-04 12:00","2021","05","04","12:00","-2.7","","-4.7","","86","","","","5","","12","","16.1","","102.10","","","","-7","","Snow"
"-105.14","69.11","CAMBRIDGE BAY A","2400601","2021-05-04 13:00","2021","05","04","13:00","-2.6","","-4.6","","86","","","","7","","9","","12.9","","102.11","","","","-6","","Snow"
"-105.14","69.11","CAMBRIDGE BAY A","2400601","2021-05-04 14:00","2021","05","04","14:00","-2.7","","-4.3","","88","","","","3","","10","","4.8","","102.09","","","","-7","","Snow,Fog"
"-105.14","69.11","CAMBRIDGE BAY A","2400601","2021-05-04 15:00","2021","05","04","15:00","-2.3","","-3.7","","90","","","","7","","8","","9.7","","102.09","","","","-5","","Snow,Fog"
"-105.14","69.11","CAMBRIDGE BAY A","2400601","2021-05-04 16:00","2021","05","04","16:00","-2.1","","-3.6","","89","","","","15","","6","","4.8","","102.08","","","","-4","","Snow,Fog"
"-105.14","69.11","CAMBRIDGE BAY A","2400601","2021-05-04 17:00","2021","05","04","17:00","-2.3","","-3.9","","89","","","","15","","5","","12.9","","102.07","","","","-4","","Snow"
"-105.14","69.11","CAMBRIDGE BAY A","2400601","2021-05-04 18:00","2021","05","04","18:00","-2.7","","-4.1","","90","","","","19","","5","","12.9","","102.07","","","","-5","","Snow"
"-105.14","69.11","CAMBRIDGE BAY A","2400601","2021-05-04 19:00","2021","05","04","19:00","-3.0","","-4.3","","91","","","","21","","4","","24.1","","102.05","","","","-5","","Snow"
"-105.14","69.11","CAMBRIDGE BAY A","2400601","2021-05-04 20:00","2021","05","04","20:00","-3.9","","-5.0","","92","","","","16","","7","","16.1","","102.05","","","","-7","","Mostly Cloudy"
"-105.14","69.11","CAMBRIDGE BAY A","2400601","2021-05-04 21:00","2021","05","04","21:00","-4.3","","-5.3","","93","","","","16","","7","","19.3","","102.05","","","","-7","","NA"
"-105.14","69.11","CAMBRIDGE BAY A","2400601","2021-05-04 22:00","2021","05","04","22:00","-4.7","","-5.7","","93","","","","20","","8","","16.1","","102.05","","","","-8","","NA"
"-105.14","69.11","CAMBRIDGE BAY A","2400601","2021-05-04 23:00","2021","05","04","23:00","-5.6","","-6.7","","92","","","","18","","8","","16.1","","102.05","","","","-9","","Cloudy"
"-105.14","69.11","CAMBRIDGE BAY A","2400601","2021-05-05 00:00","2021","05","05","00:00","-5.9","","-7.2","","91","","","","16","","7","","19.3","","102.06","","","","-9","","NA"
"-105.14","69.11","CAMBRIDGE BAY A","2400601","2021-05-05 01:00","2021","05","05","01:00","-6.0","","-7.5","","89","","","","17","","7","","19.3","","102.07","","","","-9","","NA"
"-105.14","69.11","CAMBRIDGE BAY A","2400601","2021-05-05 02:00","2021","05","05","02:00","-8.1","","-9.6","","89","","","","14","","8","","19.3","","102.07","","","","-12","","Cloudy"
"-105.14","69.11","CAMBRIDGE BAY A","2400601","2021-05-05 03:00","2021","05","05","03:00","-8.8","","-10.3","","89","","","","15","","15","","16.1","","102.11","","","","-15","","NA"
"-105.14","69.11","CAMBRIDGE BAY A","2400601","2021-05-05 04:00","2021","05","05","04:00","-10.1","","-11.8","","87","","","","11","","5","","24.1","","102.09","","","","-13","","NA"
"-105.14","69.11","CAMBRIDGE BAY A","2400601","2021-05-05 05:00","2021","05","05","05:00","-10.7","","-12.6","","87","","","","8","","8","","1.6","","102.09","","","","-15","","Fog"
"-105.14","69.11","CAMBRIDGE BAY A","2400601","2021-05-05 06:00","2021","05","05","06:00","-11.2","","-13.0","","86","","","","8","","8","","4.8","","102.09","","","","-16","","Fog"
"-105.14","69.11","CAMBRIDGE BAY A","2400601","2021-05-05 07:00","2021","05","05","07:00","-10.0","","-11.8","","87","","","","6","","4","","24.1","","102.10","","","","-12","","NA"
"-105.14","69.11","CAMBRIDGE BAY A","2400601","2021-05-05 08:00","2021","05","05","08:00","-8.9","","-10.5","","88","","","","7","","8","","24.1","","102.10","","","","-13","","Mostly Cloudy"
"-105.14","69.11","CAMBRIDGE BAY A","2400601","2021-05-05 09:00","2021","05","05","09:00","-6.9","","-8.3","","90","","","","6","","6","","24.1","","102.09","","","","-10","","NA"
"-105.14","69.11","CAMBRIDGE BAY A","2400601","2021-05-05 10:00","2021","05","05","10:00","-5.8","","-7.2","","90","","","","9","","6","","24.1","","102.08","","","","-9","","NA"
"-105.14","69.11","CAMBRIDGE BAY A","2400601","2021-05-05 11:00","2021","05","05","11:00","-4.5","","-6.3","","87","","","","11","","7","","24.1","","102.08","","","","-8","","Mostly Cloudy"
"-105.14","69.11","CAMBRIDGE BAY A","2400601","2021-05-05 12:00","2021","05","05","12:00","-3.8","","-7.4","","76","","","","11","","9","","24.1","","102.09","","","","-8","","NA"
"-105.14","69.11","CAMBRIDGE BAY A","2400601","2021-05-05 13:00","2021","05","05","13:00","-3.9","","-7.5","","76","","","","11","","12","","24.1","","102.11","","","","-9","","NA"
"-105.14","69.11","CAMBRIDGE BAY A","2400601","2021-05-05 14:00","2021","05","05","14:00","-2.9","","-7.0","","73","","","","14","","10","","24.1","","102.14","","","","-7","","Mostly Cloudy"
"-105.14","69.11","CAMBRIDGE BAY A","2400601","2021-05-05 15:00","2021","05","05","15:00","-3.5","","-7.0","","76","","","","15","","10","","24.1","","102.15","","","","-7","","NA"
"-105.14","69.11","CAMBRIDGE BAY A","2400601","2021-05-05 16:00","2021","05","05","16:00","-4.1","","-6.7","","82","","","","20","","7","","24.1","","102.18","","","","-7","","NA"
"-105.14","69.11","CAMBRIDGE BAY A","2400601","2021-05-05 17:00","2021","05","05","17:00","-4.2","","-6.7","","83","","","","26","","7","","24.1","","102.20","","","","-7","","Mostly Cloudy"
"-105.14","69.11","CAMBRIDGE BAY A","2400601","2021-05-05 18:00","2021","05","05","18:00","-4.0","","-6.6","","82","","","","31","","7","","24.1","","102.22","","","","-7","","NA"
"-105.14","69.11","CAMBRIDGE BAY A","2400601","2021-05-05 19:00","2021","05","05","19:00","-4.6","","-6.5","","87","","","","32","","8","","24.1","","102.24","","","","-8","","NA"
"-105.14","69.11","CAMBRIDGE BAY A","2400601","2021-05-05 20:00","2021","05","05","20:00","-5.0","","-7.2","","84","","","","31","","7","","24.1","","102.22","","","","-8","","Mostly Cloudy"
"-105.14","69.11","CAMBRIDGE BAY A","2400601","2021-05-05 21:00","2021","05","05","21:00","-7.8","","-9.6","","87","","","","26","","10","","24.1","","102.25","","","","-13","","NA"
"-105.14","69.11","CAMBRIDGE BAY A","2400601","2021-05-05 22:00","2021","05","05","22:00","-8.8","","-10.3","","89","","","","31","","16","","24.1","","102.28","","","","-16","","NA"
"-105.14","69.11","CAMBRIDGE BAY A","2400601","2021-05-05 23:00","2021","05","05","23:00","-7.8","","-9.3","","89","","","","30","","9","","24.1","","102.32","","","","-12","","Mostly Cloudy"
"-105.14","69.11","CAMBRIDGE BAY A","2400601","2021-05-06 00:00","2021","05","06","00:00","-6.5","","-7.8","","91","","","","27","","9","","24.1","","102.34","","","","-11","","NA"
"-105.14","69.11","CAMBRIDGE BAY A","2400601","2021-05-06 01:00","2021","05","06","01:00","-6.6","","-7.9","","90","","","","31","","7","","24.1","","102.38","","","","-10","","NA"
"-105.14","69.11","CAMBRIDGE BAY A","2400601","2021-05-06 02:00","2021","05","06","02:00","-6.0","","-7.2","","91","","","","32","","10","","1.6","","102.42","","","","-10","","Fog"
"-105.14","69.11","CAMBRIDGE BAY A","2400601","2021-05-06 03:00","2021","05","06","03:00","-6.0","","-7.2","","91","","","","33","","8","","0.4","","102.45","","","","-10","","Freezing Fog"
"-105.14","69.11","CAMBRIDGE BAY A","2400601","2021-05-06 04:00","2021","05","06","04:00","-5.3","","-6.4","","92","","","","35","","7","","0.4","","102.50","","","","-9","","Freezing Fog"
"-105.14","69.11","CAMBRIDGE BAY A","2400601","2021-05-06 05:00","2021","05","06","05:00","-5.9","","-7.1","","91","","","","32","","13","","1.2","","102.51","","","","-11","","Fog"
"-105.14","69.11","CAMBRIDGE BAY A","2400601","2021-05-06 06:00","2021","05","06","06:00","-9.1","","-10.7","","88","","","","33","","19","","0.6","","102.57","","","","-17","","Freezing Fog"
"-105.14","69.11","CAMBRIDGE BAY A","2400601","2021-05-06 07:00","2021","05","06","07:00","-10.9","","-12.7","","86","","","","33","","22","","8.1","","102.59","","","","-19","","Fog"
"-105.14","69.11","CAMBRIDGE BAY A","2400601","2021-05-06 08:00","2021","05","06","08:00","-10.4","","-12.3","","87","","","","35","","16","","16.1","","102.62","","","","-17","","Mostly Cloudy"
"-105.14","69.11","CAMBRIDGE BAY A","2400601","2021-05-06 09:00","2021","05","06","09:00","-10.5","","-12.3","","86","","","","33","","12","","24.1","","102.65","","","","-17","","NA"
"-105.14","69.11","CAMBRIDGE BAY A","2400601","2021-05-06 10:00","2021","05","06","10:00","-9.8","","-11.6","","87","","","","32","","12","","24.1","","102.66","","","","-16","","NA"
"-105.14","69.11","CAMBRIDGE BAY A","2400601","2021-05-06 11:00","2021","05","06","11:00","-9.4","","-11.1","","87","","","","32","","13","","16.1","","102.64","","","","-15","","Mainly Clear"
"-105.14","69.11","CAMBRIDGE BAY A","2400601","2021-05-06 12:00","2021","05","06","12:00","-7.8","","-9.4","","88","","","","32","","7","","19.3","","102.67","","","","-11","","NA"
"-105.14","69.11","CAMBRIDGE BAY A","2400601","2021-05-06 13:00","2021","05","06","13:00","-7.1","","-8.6","","89","","","","33","","9","","12.9","","102.68","","","","-11","","NA"
"-105.14","69.11","CAMBRIDGE BAY A","2400601","2021-05-06 14:00","2021","05","06","14:00","-6.5","","-7.9","","90","","","","33","","10","","24.1","","102.68","","","","-11","","Cloudy"
"-105.14","69.11","CAMBRIDGE BAY A","2400601","2021-05-06 15:00","2021","05","06","15:00","-6.3","","-7.7","","90","","","","33","","9","","24.1","","102.69","","","","-11","","NA"
"-105.14","69.11","CAMBRIDGE BAY A","2400601","2021-05-06 16:00","2021","05","06","16:00","-6.2","","-7.7","","89","","","","31","","6","","24.1","","102.69","","","","-9","","NA"
"-105.14","69.11","CAMBRIDGE BAY A","2400601","2021-05-06 17:00","2021","05","06","17:00","-6.1","","-7.8","","88","","","","26","","10","","24.1","","102.68","","","","-11","","Cloudy"
"-105.14","69.11","CAMBRIDGE BAY A","2400601","2021-05-06 18:00","2021","05","06","18:00","-6.5","","-8.0","","89","","","","26","","11","","24.1","","102.66","","","","-11","","NA"
"-105.14","69.11","CAMBRIDGE BAY A","2400601","2021-05-06 19:00","2021","05","06","19:00","-6.5","","-7.9","","90","","","","25","","9","","24.1","","102.63","","","","-11","","NA"
"-105.14","69.11","CAMBRIDGE BAY A","2400601","2021-05-06 20:00","2021","05","06","20:00","-6.7","","-8.1","","90","","","","23","","10","","24.1","","102.62","","","","-11","","Cloudy"
"-105.14","69.11","CAMBRIDGE BAY A","2400601","2021-05-06 21:00","2021","05","06","21:00","-6.8","","-8.3","","90","","","","21","","8","","24.1","","102.60","","","","-11","","NA"
"-105.14","69.11","CAMBRIDGE BAY A","2400601","2021-05-06 22:00","2021","05","06","22:00","-7.0","","-8.4","","90","","","","22","","8","","24.1","","102.60","","","","-11","","NA"
"-105.14","69.11","CAMBRIDGE BAY A","2400601","2021-05-06 23:00","2021","05","06","23:00","-7.2","","-8.6","","90","","","","20","","9","","16.1","","102.59","","","","-12","","Cloudy"
"-105.14","69.11","CAMBRIDGE BAY A","2400601","2021-05-07 00:00","2021","05","07","00:00","-7.3","","-8.6","","90","","","","22","","7","","19.3","","102.57","","","","-11","","NA"
"-105.14","69.11","CAMBRIDGE BAY A","2400601","2021-05-07 01:00","2021","05","07","01:00","-7.4","","-8.7","","90","","","","19","","5","","12.9","","102.56","","","","-10","","NA"
"-105.14","69.11","CAMBRIDGE BAY A","2400601","2021-05-07 02:00","2021","05","07","02:00","-7.5","","-8.8","","90","","","","36","","1","","16.1","","102.59","","","","-8","","Cloudy"
"-105.14","69.11","CAMBRIDGE BAY A","2400601","2021-05-07 03:00","2021","05","07","03:00","-7.7","","-9.0","","90","","","","36","","1","","16.1","","102.58","","","","-8","","NA"
"-105.14","69.11","CAMBRIDGE BAY A","2400601","2021-05-07 04:00","2021","05","07","04:00","-7.5","","-8.9","","90","","","","13","","5","","12.9","","102.56","","","","-10","","NA"
"-105.14","69.11","CAMBRIDGE BAY A","2400601","2021-05-07 05:00","2021","05","07","05:00","-7.4","","-8.8","","90","","","","36","","2","","12.9","","102.56","","","","-8","","Cloudy"
"-105.14","69.11","CAMBRIDGE BAY A","2400601","2021-05-07 06:00","2021","05","07","06:00","-7.2","","-8.5","","90","","","","8","","4","","12.9","","102.54","","","","-9","","Snow"
"-105.14","69.11","CAMBRIDGE BAY A","2400601","2021-05-07 07:00","2021","05","07","07:00","-6.8","","-8.2","","90","","","","12","","7","","12.9","","102.51","","","","-10","","Snow"
"-105.14","69.11","CAMBRIDGE BAY A","2400601","2021-05-07 08:00","2021","05","07","08:00","-6.2","","-7.5","","91","","","","11","","7","","4.8","","102.50","","","","-10","","Snow,Fog"
"-105.14","69.11","CAMBRIDGE BAY A","2400601","2021-05-07 09:00","2021","05","07","09:00","-6.0","","-7.3","","91","","","","10","","8","","4.8","","102.48","","","","-10","","Snow,Fog"
"-105.14","69.11","CAMBRIDGE BAY A","2400601","2021-05-07 10:00","2021","05","07","10:00","-5.4","","-6.6","","91","","","","12","","8","","9.7","","102.47","","","","-9","","Snow,Fog"
"-105.14","69.11","CAMBRIDGE BAY A","2400601","2021-05-07 11:00","2021","05","07","11:00","-5.1","","-6.4","","91","","","","13","","8","","12.9","","102.45","","","","-9","","Snow"
"-105.14","69.11","CAMBRIDGE BAY A","2400601","2021-05-07 12:00","2021","05","07","12:00","-4.4","","-6.3","","87","","","","13","","5","","12.9","","102.48","","","","-7","","Snow"
"-105.14","69.11","CAMBRIDGE BAY A","2400601","2021-05-07 13:00","2021","05","07","13:00","-4.4","","-6.8","","83","","","","10","","4","","19.3","","102.50","","","","-6","","Snow"
"-105.14","69.11","CAMBRIDGE BAY A","2400601","2021-05-07 14:00","2021","05","07","14:00","-4.2","","-6.7","","83","","","","7","","5","","19.3","","102.51","","","","-6","","Snow"
"-105.14","69.11","CAMBRIDGE BAY A","2400601","2021-05-07 15:00","2021","05","07","15:00","-4.2","","-6.5","","84","","","","8","","7","","19.3","","102.50","","","","-7","","Snow"
"-105.14","69.11","CAMBRIDGE BAY A","2400601","2021-05-07 16:00","2021","05","07","16:00","-4.3","","-6.4","","85","","","","7","","9","","24.1","","102.49","","","","-8","","Snow"
"-105.14","69.11","CAMBRIDGE BAY A","2400601","2021-05-07 17:00","2021","05","07","17:00","-4.4","","-6.4","","86","","","","8","","9","","24.1","","102.48","","","","-8","","Cloudy"
"-105.14","69.11","CAMBRIDGE BAY A","2400601","2021-05-07 18:00","2021","05","07","18:00","-4.4","","-7.0","","82","","","","6","","8","","24.1","","102.48","","","","-8","","NA"
"-105.14","69.11","CAMBRIDGE BAY A","2400601","2021-05-07 19:00","2021","05","07","19:00","-4.5","","-7.5","","80","","","","9","","9","","24.1","","102.49","","","","-8","","NA"
"-105.14","69.11","CAMBRIDGE BAY A","2400601","2021-05-07 20:00","2021","05","07","20:00","-4.8","","-7.6","","81","","","","6","","12","","24.1","","102.49","","","","-10","","Cloudy"
"-105.14","69.11","CAMBRIDGE BAY A","2400601","2021-05-07 21:00","2021","05","07","21:00","-5.5","","-7.5","","85","","","","6","","14","","24.1","","102.49","","","","-11","","NA"
"-105.14","69.11","CAMBRIDGE BAY A","2400601","2021-05-07 22:00","2021","05","07","22:00","-5.8","","-7.8","","86","","","","7","","14","","24.1","","102.50","","","","-11","","NA"
"-105.14","69.11","CAMBRIDGE BAY A","2400601","2021-05-07 23:00","2021","05","07","23:00","-6.0","","-7.7","","88","","","","7","","16","","19.3","","102.50","","","","-12","","Cloudy"
"-105.14","69.11","CAMBRIDGE BAY A","2400601","2021-05-08 00:00","2021","05","08","00:00","-6.0","","-7.6","","88","","","","7","","16","","16.1","","102.49","","","","-12","","NA"
"-105.14","69.11","CAMBRIDGE BAY A","2400601","2021-05-08 01:00","2021","05","08","01:00","-6.2","","-7.8","","88","","","","6","","13","","16.1","","102.52","","","","-12","","NA"
"-105.14","69.11","CAMBRIDGE BAY A","2400601","2021-05-08 02:00","2021","05","08","02:00","-6.4","","-8.0","","88","","","","7","","19","","16.1","","102.51","","","","-13","","Cloudy"
"-105.14","69.11","CAMBRIDGE BAY A","2400601","2021-05-08 03:00","2021","05","08","03:00","-6.3","","-7.9","","89","","","","7","","21","","16.1","","102.50","","","","-13","","NA"
"-105.14","69.11","CAMBRIDGE BAY A","2400601","2021-05-08 04:00","2021","05","08","04:00","-6.1","","-7.7","","89","","","","8","","22","","19.3","","102.46","","","","-13","","NA"
"-105.14","69.11","CAMBRIDGE BAY A","2400601","2021-05-08 05:00","2021","05","08","05:00","-5.6","","-7.4","","88","","","","10","","25","","12.9","","102.45","","","","-13","","Cloudy"
"-105.14","69.11","CAMBRIDGE BAY A","2400601","2021-05-08 06:00","2021","05","08","06:00","-5.5","","-7.3","","87","","","","10","","25","","12.9","","102.44","","","","-13","","Snow"
"-105.14","69.11","CAMBRIDGE BAY A","2400601","2021-05-08 07:00","2021","05","08","07:00","-5.2","","-7.2","","86","","","","11","","29","","16.1","","102.41","","","","-13","","Snow,Blowing Snow"
"-105.14","69.11","CAMBRIDGE BAY A","2400601","2021-05-08 08:00","2021","05","08","08:00","-5.0","","-7.1","","85","","","","11","","32","","14.5","","102.39","","","","-13","","Snow,Blowing Snow"
"-105.14","69.11","CAMBRIDGE BAY A","2400601","2021-05-08 09:00","2021","05","08","09:00","-4.8","","-7.0","","85","","","","11","","36","","14.5","","102.34","","","","-13","","Snow,Blowing Snow"
"-105.14","69.11","CAMBRIDGE BAY A","2400601","2021-05-08 10:00","2021","05","08","10:00","-4.8","","-6.9","","85","","","","11","","38","","12.9","","102.27","","","","-14","","Snow,Blowing Snow"
"-105.14","69.11","CAMBRIDGE BAY A","2400601","2021-05-08 11:00","2021","05","08","11:00","-4.7","","-6.7","","85","","","","11","","40","","12.9","","102.21","","","","-14","","Snow,Blowing Snow"
"-105.14","69.11","CAMBRIDGE BAY A","2400601","2021-05-08 12:00","2021","05","08","12:00","-4.3","","-6.2","","87","","","","11","","36","","11.3","","102.19","","","","-13","","Snow,Blowing Snow"
"-105.14","69.11","CAMBRIDGE BAY A","2400601","2021-05-08 13:00","2021","05","08","13:00","-3.7","","-5.6","","87","","","","11","","34","","11.3","","102.14","","","","-12","","Snow,Blowing Snow"
"-105.14","69.11","CAMBRIDGE BAY A","2400601","2021-05-08 14:00","2021","05","08","14:00","-3.7","","-5.6","","87","","","","11","","38","","8.1","","102.08","","","","-12","","Snow,Fog,Blowing Snow"
"-105.14","69.11","CAMBRIDGE BAY A","2400601","2021-05-08 15:00","2021","05","08","15:00","-4.1","","-5.9","","88","","","","11","","46","","8.1","","101.99","","","","-13","","Snow,Fog,Blowing Snow"
"-105.14","69.11","CAMBRIDGE BAY A","2400601","2021-05-08 16:00","2021","05","08","16:00","-3.9","","-5.5","","89","","","","12","","34","","6.4","","102.00","","","","-12","","Snow,Fog,Blowing Snow"
"-105.14","69.11","CAMBRIDGE BAY A","2400601","2021-05-08 17:00","2021","05","08","17:00","-4.2","","-5.7","","89","","","","12","","38","","4.8","","101.90","","","","-13","","Snow,Fog,Blowing Snow"
"-105.14","69.11","CAMBRIDGE BAY A","2400601","2021-05-08 18:00","2021","05","08","18:00","-4.1","","-5.6","","90","","","","11","","30","","4.8","","101.88","","","","-12","","Snow,Fog,Blowing Snow"
"-105.14","69.11","CAMBRIDGE BAY A","2400601","2021-05-08 19:00","2021","05","08","19:00","-4.2","","-5.6","","90","","","","10","","29","","6.4","","101.78","","","","-12","","Snow,Fog,Blowing Snow"
"-105.14","69.11","CAMBRIDGE BAY A","2400601","2021-05-08 20:00","2021","05","08","20:00","-4.2","","-5.6","","90","","","","10","","27","","11.3","","101.71","","","","-12","","Snow,Blowing Snow"
"-105.14","69.11","CAMBRIDGE BAY A","2400601","2021-05-08 21:00","2021","05","08","21:00","-4.2","","-5.6","","90","","","","9","","25","","19.3","","101.67","","","","-11","","Snow,Blowing Snow"
"-105.14","69.11","CAMBRIDGE BAY A","2400601","2021-05-08 22:00","2021","05","08","22:00","-4.4","","-5.8","","90","","","","8","","23","","19.3","","101.63","","","","-11","","Snow,Blowing Snow"
"-105.14","69.11","CAMBRIDGE BAY A","2400601","2021-05-08 23:00","2021","05","08","23:00","-4.5","","-5.8","","90","","","","7","","21","","19.3","","101.63","","","","-11","","Snow,Blowing Snow"
"-105.14","69.11","CAMBRIDGE BAY A","2400601","2021-05-09 00:00","2021","05","09","00:00","-4.6","","-6.0","","90","","","","6","","29","","19.3","","101.58","","","","-12","","Snow,Blowing Snow"
"-105.14","69.11","CAMBRIDGE BAY A","2400601","2021-05-09 01:00","2021","05","09","01:00","-4.8","","-6.2","","90","","","","7","","32","","19.3","","101.56","","","","-13","","Snow,Blowing Snow"
"-105.14","69.11","CAMBRIDGE BAY A","2400601","2021-05-09 02:00","2021","05","09","02:00","-4.8","","-6.2","","90","","","","6","","28","","19.3","","101.54","","","","-12","","Snow,Blowing Snow"
"-105.14","69.11","CAMBRIDGE BAY A","2400601","2021-05-09 03:00","2021","05","09","03:00","-4.9","","-6.2","","90","","","","6","","23","","19.3","","101.58","","","","-12","","Snow,Blowing Snow"
"-105.14","69.11","CAMBRIDGE BAY A","2400601","2021-05-09 04:00","2021","05","09","04:00","-4.9","","-6.4","","89","","","","6","","24","","19.3","","101.57","","","","-12","","Snow,Blowing Snow"
"-105.14","69.11","CAMBRIDGE BAY A","2400601","2021-05-09 05:00","2021","05","09","05:00","-4.7","","-6.3","","89","","","","5","","22","","19.3","","101.58","","","","-12","","Snow,Blowing Snow"
"-105.14","69.11","CAMBRIDGE BAY A","2400601","2021-05-09 06:00","2021","05","09","06:00","-4.7","","-6.3","","88","","","","6","","23","","19.3","","101.56","","","","-12","","Snow,Blowing Snow"
"-105.14","69.11","CAMBRIDGE BAY A","2400601","2021-05-09 07:00","2021","05","09","07:00","-4.5","","-6.2","","88","","","","6","","28","","24.1","","101.54","","","","-12","","Snow,Blowing Snow"
"-105.14","69.11","CAMBRIDGE BAY A","2400601","2021-05-09 08:00","2021","05","09","08:00","-4.0","","-5.9","","87","","","","6","","24","","24.1","","101.51","","","","-11","","Snow,Blowing Snow"
"-105.14","69.11","CAMBRIDGE BAY A","2400601","2021-05-09 09:00","2021","05","09","09:00","-3.9","","-6.0","","86","","","","5","","26","","19.3","","101.51","","","","-11","","Snow,Blowing Snow"
"-105.14","69.11","CAMBRIDGE BAY A","2400601","2021-05-09 10:00","2021","05","09","10:00","-3.5","","-5.8","","84","","","","7","","27","","19.3","","101.48","","","","-11","","Snow"
"-105.14","69.11","CAMBRIDGE BAY A","2400601","2021-05-09 11:00","2021","05","09","11:00","-3.5","","-5.8","","84","","","","7","","30","","19.3","","101.46","","","","-11","","Snow"
"-105.14","69.11","CAMBRIDGE BAY A","2400601","2021-05-09 12:00","2021","05","09","12:00","-3.3","","-5.6","","84","","","","7","","29","","19.3","","101.43","","","","-11","","Snow"
"-105.14","69.11","CAMBRIDGE BAY A","2400601","2021-05-09 13:00","2021","05","09","13:00","-3.3","","-5.5","","85","","","","8","","29","","19.3","","101.41","","","","-11","","NA"
"-105.14","69.11","CAMBRIDGE BAY A","2400601","2021-05-09 14:00","2021","05","09","14:00","-3.2","","-5.3","","86","","","","8","","25","","19.3","","101.39","","","","-10","","Snow"
"-105.14","69.11","CAMBRIDGE BAY A","2400601","2021-05-09 15:00","2021","05","09","15:00","-3.2","","-5.0","","87","","","","9","","25","","4.8","","101.33","","","","-10","","Snow"
"-105.14","69.11","CAMBRIDGE BAY A","2400601","2021-05-09 16:00","2021","05","09","16:00","-3.3","","-5.0","","88","","","","7","","29","","2.8","","101.28","","","","-11","","Snow"
"-105.14","69.11","CAMBRIDGE BAY A","2400601","2021-05-09 17:00","2021","05","09","17:00","-3.2","","-4.9","","88","","","","8","","22","","11.3","","101.30","","","","-10","","Snow"
"-105.14","69.11","CAMBRIDGE BAY A","2400601","2021-05-09 18:00","2021","05","09","18:00","-3.2","","-4.8","","88","","","","7","","23","","14.5","","101.24","","","","-10","","Snow"
"-105.14","69.11","CAMBRIDGE BAY A","2400601","2021-05-09 19:00","2021","05","09","19:00","-3.2","","-4.8","","89","","","","10","","23","","19.3","","101.16","","","","-10","","NA"
"-105.14","69.11","CAMBRIDGE BAY A","2400601","2021-05-09 20:00","2021","05","09","20:00","-3.5","","-4.9","","90","","","","8","","18","","14.5","","101.16","","","","-9","","Cloudy"
"-105.14","69.11","CAMBRIDGE BAY A","2400601","2021-05-09 21:00","2021","05","09","21:00","-3.6","","-5.0","","91","","","","6","","19","","24.1","","101.14","","","","-10","","NA"
"-105.14","69.11","CAMBRIDGE BAY A","2400601","2021-05-09 22:00","2021","05","09","22:00","-3.8","","-5.0","","91","","","","6","","22","","24.1","","101.10","","","","-10","","NA"
"-105.14","69.11","CAMBRIDGE BAY A","2400601","2021-05-09 23:00","2021","05","09","23:00","-4.0","","-5.2","","91","","","","7","","21","","24.1","","101.05","","","","-10","","Cloudy"
"-105.14","69.11","CAMBRIDGE BAY A","2400601","2021-05-10 00:00","2021","05","10","00:00","-4.3","","-5.6","","91","","","","7","","24","","24.1","","101.03","","","","-11","","NA"
"-105.14","69.11","CAMBRIDGE BAY A","2400601","2021-05-10 01:00","2021","05","10","01:00","-4.6","","-5.8","","91","","","","5","","19","","24.1","","101.02","","","","-11","","NA"
"-105.14","69.11","CAMBRIDGE BAY A","2400601","2021-05-10 02:00","2021","05","10","02:00","-4.8","","-6.1","","91","","","","6","","23","","4.8","","100.99","","","","-12","","Snow,Blowing Snow"
"-105.14","69.11","CAMBRIDGE BAY A","2400601","2021-05-10 03:00","2021","05","10","03:00","-5.1","","-6.5","","90","","","","4","","22","","4.8","","100.99","","","","-12","","Snow,Blowing Snow"
"-105.14","69.11","CAMBRIDGE BAY A","2400601","2021-05-10 04:00","2021","05","10","04:00","-5.5","","-7.0","","89","","","","4","","26","","2.4","","100.97","","","","-13","","Snow,Blowing Snow"
"-105.14","69.11","CAMBRIDGE BAY A","2400601","2021-05-10 05:00","2021","05","10","05:00","-6.2","","-7.7","","89","","","","4","","34","","2.4","","101.00","","","","-15","","Snow,Blowing Snow"
"-105.14","69.11","CAMBRIDGE BAY A","2400601","2021-05-10 06:00","2021","05","10","06:00","-6.6","","-8.3","","88","","","","4","","36","","2.4","","101.04","","","","-16","","Snow,Blowing Snow"
"-105.14","69.11","CAMBRIDGE BAY A","2400601","2021-05-10 07:00","2021","05","10","07:00","-6.9","","-8.8","","87","","","","4","","39","","2.4","","101.08","","","","-17","","Snow,Blowing Snow"
"-105.14","69.11","CAMBRIDGE BAY A","2400601","2021-05-10 08:00","2021","05","10","08:00","-7.3","","-9.3","","86","","","","4","","43","","1.6","","101.11","","","","-17","","Snow,Blowing Snow"
"-105.14","69.11","CAMBRIDGE BAY A","2400601","2021-05-10 09:00","2021","05","10","09:00","-7.2","","-9.4","","85","","","","3","","41","","1.6","","101.15","","","","-17","","Snow,Blowing Snow"
"-105.14","69.11","CAMBRIDGE BAY A","2400601","2021-05-10 10:00","2021","05","10","10:00","-7.9","","-10.1","","84","","","","3","","39","","1.6","","101.23","","","","-18","","Snow,Blowing Snow"
"-105.14","69.11","CAMBRIDGE BAY A","2400601","2021-05-10 11:00","2021","05","10","11:00","-8.4","","-10.8","","83","","","","2","","37","","0.8","","101.27","","","","-18","","Snow,Blowing Snow"
"-105.14","69.11","CAMBRIDGE BAY A","2400601","2021-05-10 12:00","2021","05","10","12:00","-8.5","","-11.0","","82","","","","2","","45","","1.0","","101.30","","","","-19","","Snow,Blowing Snow"
"-105.14","69.11","CAMBRIDGE BAY A","2400601","2021-05-10 13:00","2021","05","10","13:00","-8.9","","-11.6","","81","","","","2","","45","","1.6","","101.37","","","","-20","","Snow,Blowing Snow"
"-105.14","69.11","CAMBRIDGE BAY A","2400601","2021-05-10 14:00","2021","05","10","14:00","-9.3","","-12.1","","80","","","","2","","41","","2.4","","101.44","","","","-20","","Snow,Blowing Snow"
"-105.14","69.11","CAMBRIDGE BAY A","2400601","2021-05-10 15:00","2021","05","10","15:00","-9.9","","-12.9","","79","","","","2","","39","","2.8","","101.53","","","","-21","","Blowing Snow"
"-105.14","69.11","CAMBRIDGE BAY A","2400601","2021-05-10 16:00","2021","05","10","16:00","-10.4","","-13.6","","78","","","","2","","42","","3.2","","101.59","","","","-22","","Blowing Snow"
"-105.14","69.11","CAMBRIDGE BAY A","2400601","2021-05-10 17:00","2021","05","10","17:00","-10.5","","-13.7","","78","","","","2","","33","","14.5","","101.66","","","","-21","","Blowing Snow"
"-105.14","69.11","CAMBRIDGE BAY A","2400601","2021-05-10 18:00","2021","05","10","18:00","-10.9","","-14.1","","77","","","","1","","26","","14.5","","101.73","","","","-20","","Blowing Snow"
"-105.14","69.11","CAMBRIDGE BAY A","2400601","2021-05-10 19:00","2021","05","10","19:00","-12.0","","-15.2","","78","","","","1","","29","","24.1","","101.79","","","","-22","","Blowing Snow"
"-105.14","69.11","CAMBRIDGE BAY A","2400601","2021-05-10 20:00","2021","05","10","20:00","-13.0","","-16.1","","78","","","","36","","28","","19.3","","101.82","","","","-23","","Blowing Snow"
"-105.14","69.11","CAMBRIDGE BAY A","2400601","2021-05-10 21:00","2021","05","10","21:00","-13.6","","-16.7","","78","","","","36","","28","","22.5","","101.87","","","","-24","","Blowing Snow"
"-105.14","69.11","CAMBRIDGE BAY A","2400601","2021-05-10 22:00","2021","05","10","22:00","-14.3","","-17.3","","78","","","","36","","26","","22.5","","101.95","","","","-24","","Blowing Snow"
"-105.14","69.11","CAMBRIDGE BAY A","2400601","2021-05-10 23:00","2021","05","10","23:00","-15.0","","-17.9","","79","","","","36","","24","","22.5","","101.99","","","","-25","","Blowing Snow"
"-105.14","69.11","CAMBRIDGE BAY A","2400601","2021-05-11 00:00","2021","05","11","00:00","-15.8","","-18.6","","79","","","","27","","4","","24.1","","102.08","","","","-19","","NA"
"-105.14","69.11","CAMBRIDGE BAY A","2400601","2021-05-11 01:00","2021","05","11","01:00","-16.3","","-19.2","","79","","","","34","","9","","24.1","","102.14","","","","-22","","NA"
"-105.14","69.11","CAMBRIDGE BAY A","2400601","2021-05-11 02:00","2021","05","11","02:00","-16.3","","-19.4","","78","","","","1","","15","","24.1","","102.16","","","","-25","","Mainly Clear"
"-105.14","69.11","CAMBRIDGE BAY A","2400601","2021-05-11 03:00","2021","05","11","03:00","-16.3","","-19.2","","78","","","","28","","5","","24.1","","102.24","","","","-20","","NA"
"-105.14","69.11","CAMBRIDGE BAY A","2400601","2021-05-11 04:00","2021","05","11","04:00","-15.9","","-19.1","","76","","","","34","","11","","24.1","","102.27","","","","-23","","NA"
"-105.14","69.11","CAMBRIDGE BAY A","2400601","2021-05-11 05:00","2021","05","11","05:00","-17.9","","-21.2","","76","","","","30","","18","","24.1","","102.32","","","","-27","","Clear"
"-105.14","69.11","CAMBRIDGE BAY A","2400601","2021-05-11 06:00","2021","05","11","06:00","-17.7","","-21.1","","75","","","","31","","21","","24.1","","102.35","","","","-28","","NA"
"-105.14","69.11","CAMBRIDGE BAY A","2400601","2021-05-11 07:00","2021","05","11","07:00","-17.3","","-20.9","","74","","","","30","","18","","24.1","","102.38","","","","-27","","NA"
"-105.14","69.11","CAMBRIDGE BAY A","2400601","2021-05-11 08:00","2021","05","11","08:00","-16.2","","-19.7","","75","","","","31","","20","","24.1","","102.37","","","","-26","","Clear"
"-105.14","69.11","CAMBRIDGE BAY A","2400601","2021-05-11 09:00","2021","05","11","09:00","-14.8","","-18.4","","75","","","","31","","20","","24.1","","102.39","","","","-24","","NA"
"-105.14","69.11","CAMBRIDGE BAY A","2400601","2021-05-11 10:00","2021","05","11","10:00","-13.8","","-17.2","","76","","","","31","","18","","24.1","","102.40","","","","-22","","NA"
"-105.14","69.11","CAMBRIDGE BAY A","2400601","2021-05-11 11:00","2021","05","11","11:00","-12.7","","-16.2","","76","","","","30","","15","","24.1","","102.41","","","","-20","","Clear"
"-105.14","69.11","CAMBRIDGE BAY A","2400601","2021-05-11 12:00","2021","05","11","12:00","-12.0","","-15.4","","76","","","","28","","20","","24.1","","102.41","","","","-20","","NA"
"-105.14","69.11","CAMBRIDGE BAY A","2400601","2021-05-11 13:00","2021","05","11","13:00","-11.5","","-14.8","","77","","","","26","","17","","24.1","","102.43","","","","-19","","NA"
"-105.14","69.11","CAMBRIDGE BAY A","2400601","2021-05-11 14:00","2021","05","11","14:00","-10.1","","-13.6","","76","","","","27","","19","","24.1","","102.41","","","","-18","","Clear"
"-105.14","69.11","CAMBRIDGE BAY A","2400601","2021-05-11 15:00","2021","05","11","15:00","-9.7","","-13.3","","75","","","","27","","19","","24.1","","102.41","","","","-17","","NA"
"-105.14","69.11","CAMBRIDGE BAY A","2400601","2021-05-11 16:00","2021","05","11","16:00","-9.3","","-12.8","","76","","","","27","","17","","24.1","","102.39","","","","-16","","NA"
"-105.14","69.11","CAMBRIDGE BAY A","2400601","2021-05-11 17:00","2021","05","11","17:00","-9.5","","-12.7","","78","","","","27","","12","","24.1","","102.38","","","","-15","","Mostly Cloudy"
"-105.14","69.11","CAMBRIDGE BAY A","2400601","2021-05-11 18:00","2021","05","11","18:00","-9.3","","-12.3","","79","","","","27","","10","","24.1","","102.36","","","","-14","","Snow"
"-105.14","69.11","CAMBRIDGE BAY A","2400601","2021-05-11 19:00","2021","05","11","19:00","-9.3","","-11.9","","81","","","","23","","8","","16.1","","102.33","","","","-14","","Snow"
"-105.14","69.11","CAMBRIDGE BAY A","2400601","2021-05-11 20:00","2021","05","11","20:00","-9.4","","-11.7","","83","","","","20","","5","","16.1","","102.31","","","","-12","","Snow"
"-105.14","69.11","CAMBRIDGE BAY A","2400601","2021-05-11 21:00","2021","05","11","21:00","-9.2","","-12.1","","79","","","","26","","11","","4.8","","102.29","","","","-15","","Snow"
"-105.14","69.11","CAMBRIDGE BAY A","2400601","2021-05-11 22:00","2021","05","11","22:00","-9.5","","-12.4","","80","","","","26","","12","","8.1","","102.29","","","","-15","","Snow"
"-105.14","69.11","CAMBRIDGE BAY A","2400601","2021-05-11 23:00","2021","05","11","23:00","-9.6","","-13.0","","76","","","","29","","9","","8.1","","102.27","","","","-14","","Snow"
"-105.14","69.11","CAMBRIDGE BAY A","2400601","2021-05-12 00:00","2021","05","12","00:00","-9.9","","-12.9","","79","","","","29","","5","","6.4","","102.24","","","","-13","","Snow"
"-105.14","69.11","CAMBRIDGE BAY A","2400601","2021-05-12 01:00","2021","05","12","01:00","-9.7","","-13.2","","76","","","","28","","5","","6.4","","102.21","","","","-13","","Snow"
"-105.14","69.11","CAMBRIDGE BAY A","2400601","2021-05-12 02:00","2021","05","12","02:00","-10.1","","-12.8","","81","","","","0","","1","","6.4","","102.18","","","","-11","","Snow"
"-105.14","69.11","CAMBRIDGE BAY A","2400601","2021-05-12 03:00","2021","05","12","03:00","-10.7","","-13.0","","83","","","","36","","1","","16.1","","102.16","","","","-11","","Snow"
"-105.14","69.11","CAMBRIDGE BAY A","2400601","2021-05-12 04:00","2021","05","12","04:00","-9.9","","-12.7","","81","","","","0","","1","","16.1","","102.13","","","","-10","","Snow"
"-105.14","69.11","CAMBRIDGE BAY A","2400601","2021-05-12 05:00","2021","05","12","05:00","-10.3","","-12.9","","81","","","","36","","2","","4.8","","102.11","","","","-11","","Snow"
"-105.14","69.11","CAMBRIDGE BAY A","2400601","2021-05-12 06:00","2021","05","12","06:00","-10.8","","-13.2","","83","","","","7","","8","","4.8","","102.07","","","","-15","","Snow"
"-105.14","69.11","CAMBRIDGE BAY A","2400601","2021-05-12 07:00","2021","05","12","07:00","-11.2","","-13.6","","82","","","","9","","12","","4.8","","102.05","","","","-17","","Snow"
"-105.14","69.11","CAMBRIDGE BAY A","2400601","2021-05-12 08:00","2021","05","12","08:00","-11.2","","-13.8","","82","","","","9","","16","","4.8","","102.03","","","","-18","","Snow"
"-105.14","69.11","CAMBRIDGE BAY A","2400601","2021-05-12 09:00","2021","05","12","09:00","-11.0","","-13.8","","80","","","","7","","16","","4.8","","102.02","","","","-18","","Snow"
"-105.14","69.11","CAMBRIDGE BAY A","2400601","2021-05-12 10:00","2021","05","12","10:00","-11.4","","-14.5","","79","","","","6","","20","","4.8","","102.01","","","","-20","","Snow"
"-105.14","69.11","CAMBRIDGE BAY A","2400601","2021-05-12 11:00","2021","05","12","11:00","-11.8","","-15.0","","77","","","","7","","20","","4.8","","102.01","","","","-20","","Snow"
"-105.14","69.11","CAMBRIDGE BAY A","2400601","2021-05-12 12:00","2021","05","12","12:00","-12.4","","-15.8","","76","","","","5","","27","","6.4","","102.02","","","","-22","","Snow"
"-105.14","69.11","CAMBRIDGE BAY A","2400601","2021-05-12 13:00","2021","05","12","13:00","-12.3","","-15.9","","75","","","","4","","27","","6.4","","102.05","","","","-22","","Snow"
"-105.14","69.11","CAMBRIDGE BAY A","2400601","2021-05-12 14:00","2021","05","12","14:00","-12.7","","-16.3","","74","","","","4","","24","","8.1","","102.08","","","","-22","","Snow"
"-105.14","69.11","CAMBRIDGE BAY A","2400601","2021-05-12 15:00","2021","05","12","15:00","-13.2","","-16.8","","74","","","","4","","25","","9.7","","102.14","","","","-23","","Snow"
"-105.14","69.11","CAMBRIDGE BAY A","2400601","2021-05-12 16:00","2021","05","12","16:00","-13.1","","-16.8","","74","","","","3","","26","","9.7","","102.17","","","","-23","","Snow"
"-105.14","69.11","CAMBRIDGE BAY A","2400601","2021-05-12 17:00","2021","05","12","17:00"
"-105.14","69.11","CAMBRIDGE BAY A","2400601","2021-05-12 18:00","2021","05","12","18:00","-15.5","","-19.1","","74","","","","1","","13","","24.1","","102.29","","","","-23","","NA"
"-105.14","69.11","CAMBRIDGE BAY A","2400601","2021-05-12 19:00","2021","05","12","19:00","-16.7","","-20.1","","75","","","","1","","13","","24.1","","102.32","","","","-24","","NA"
"-105.14","69.11","CAMBRIDGE BAY A","2400601","2021-05-12 20:00","2021","05","12","20:00","-17.0","","-20.4","","75","","","","1","","21","","24.1","","102.38","","","","-27","","Mainly Clear"
"-105.14","69.11","CAMBRIDGE BAY A","2400601","2021-05-12 21:00","2021","05","12","21:00","-18.1","","-21.7","","74","","","","1","","17","","24.1","","102.43","","","","-27","","NA"
"-105.14","69.11","CAMBRIDGE BAY A","2400601","2021-05-12 22:00","2021","05","12","22:00","-17.4","","-20.7","","76","","","","36","","17","","24.1","","102.48","","","","-26","","NA"
"-105.14","69.11","CAMBRIDGE BAY A","2400601","2021-05-12 23:00","2021","05","12","23:00","-19.9","","-23.3","","75","","","","34","","15","","24.1","","102.53","","","","-29","","Mainly Clear"
"-105.14","69.11","CAMBRIDGE BAY A","2400601","2021-05-13 00:00","2021","05","13","00:00","-20.6","","-23.9","","75","","","","34","","18","","24.1","","102.57","","","","-31","","NA"
"-105.14","69.11","CAMBRIDGE BAY A","2400601","2021-05-13 01:00","2021","05","13","01:00","-19.7","","-23.1","","75","","","","35","","18","","24.1","","102.61","","","","-30","","NA"
"-105.14","69.11","CAMBRIDGE BAY A","2400601","2021-05-13 02:00","2021","05","13","02:00","-19.7","","-23.0","","76","","","","34","","22","","24.1","","102.68","","","","-31","","Mostly Cloudy"
"-105.14","69.11","CAMBRIDGE BAY A","2400601","2021-05-13 03:00","2021","05","13","03:00","-19.5","","-23.0","","75","","","","32","","15","","24.1","","102.74","","","","-28","","NA"
"-105.14","69.11","CAMBRIDGE BAY A","2400601","2021-05-13 04:00","2021","05","13","04:00","-16.9","","-21.1","","71","","","","33","","17","","24.1","","102.80","","","","-26","","NA"
"-105.14","69.11","CAMBRIDGE BAY A","2400601","2021-05-13 05:00","2021","05","13","05:00","-16.6","","-20.3","","73","","","","33","","16","","24.1","","102.87","","","","-25","","Snow"
"-105.14","69.11","CAMBRIDGE BAY A","2400601","2021-05-13 06:00","2021","05","13","06:00","-17.1","","-21.6","","69","","","","32","","22","","24.1","","102.91","","","","-27","","NA"
"-105.14","69.11","CAMBRIDGE BAY A","2400601","2021-05-13 07:00","2021","05","13","07:00","-17.5","","-21.6","","70","","","","31","","21","","24.1","","102.95","","","","-28","","NA"
"-105.14","69.11","CAMBRIDGE BAY A","2400601","2021-05-13 08:00","2021","05","13","08:00","-16.2","","-20.4","","71","","","","32","","27","","24.1","","103.00","","","","-27","","Mainly Clear"
"-105.14","69.11","CAMBRIDGE BAY A","2400601","2021-05-13 09:00","2021","05","13","09:00","-15.9","","-20.4","","69","","","","33","","26","","24.1","","103.04","","","","-27","","NA"
"-105.14","69.11","CAMBRIDGE BAY A","2400601","2021-05-13 10:00","2021","05","13","10:00","-15.7","","-20.1","","69","","","","34","","30","","24.1","","103.07","","","","-27","","NA"
"-105.14","69.11","CAMBRIDGE BAY A","2400601","2021-05-13 11:00","2021","05","13","11:00","-15.3","","-19.6","","70","","","","34","","28","","24.1","","103.13","","","","-26","","Mainly Clear"
"-105.14","69.11","CAMBRIDGE BAY A","2400601","2021-05-13 12:00","2021","05","13","12:00","-14.8","","-20.6","","62","","","","34","","25","","24.1","","103.16","","","","-25","","NA"
"-105.14","69.11","CAMBRIDGE BAY A","2400601","2021-05-13 13:00","2021","05","13","13:00","-14.4","","-20.2","","62","","","","32","","25","","24.1","","103.20","","","","-24","","NA"
"-105.14","69.11","CAMBRIDGE BAY A","2400601","2021-05-13 14:00","2021","05","13","14:00","-14.4","","-19.8","","64","","","","31","","26","","24.1","","103.23","","","","-25","","Mainly Clear"
"-105.14","69.11","CAMBRIDGE BAY A","2400601","2021-05-13 15:00","2021","05","13","15:00","-14.3","","-19.3","","66","","","","31","","29","","24.1","","103.23","","","","-25","","NA"
"-105.14","69.11","CAMBRIDGE BAY A","2400601","2021-05-13 16:00","2021","05","13","16:00","-14.0","","-18.5","","69","","","","31","","26","","24.1","","103.23","","","","-24","","NA"
"-105.14","69.11","CAMBRIDGE BAY A","2400601","2021-05-13 17:00","2021","05","13","17:00","-14.6","","-18.4","","73","","","","31","","27","","24.1","","103.23","","","","-25","","Mainly Clear"
"-105.14","69.11","CAMBRIDGE BAY A","2400601","2021-05-13 18:00","2021","05","13","18:00","-14.9","","-18.6","","74","","","","30","","28","","24.1","","103.22","","","","-26","","NA"
"-105.14","69.11","CAMBRIDGE BAY A","2400601","2021-05-13 19:00","2021","05","13","19:00","-15.6","","-19.2","","74","","","","30","","23","","24.1","","103.20","","","","-26","","NA"
"-105.14","69.11","CAMBRIDGE BAY A","2400601","2021-05-13 20:00","2021","05","13","20:00","-16.1","","-19.6","","75","","","","30","","24","","24.1","","103.18","","","","-26","","Mainly Clear"
"-105.14","69.11","CAMBRIDGE BAY A","2400601","2021-05-13 21:00","2021","05","13","21:00","-17.3","","-20.7","","75","","","","29","","22","","24.1","","103.17","","","","-28","","NA"
"-105.14","69.11","CAMBRIDGE BAY A","2400601","2021-05-13 22:00","2021","05","13","22:00","-17.8","","-21.0","","76","","","","31","","26","","24.1","","103.14","","","","-29","","NA"
"-105.14","69.11","CAMBRIDGE BAY A","2400601","2021-05-13 23:00","2021","05","13","23:00","-17.7","","-21.0","","75","","","","31","","21","","24.1","","103.13","","","","-28","","Mostly Cloudy"
"-105.14","69.11","CAMBRIDGE BAY A","2400601","2021-05-14 00:00","2021","05","14","00:00","-18.4","","-21.7","","76","","","","31","","21","","24.1","","103.10","","","","-29","","NA"
"-105.14","69.11","CAMBRIDGE BAY A","2400601","2021-05-14 01:00","2021","05","14","01:00","-17.7","","-20.9","","77","","","","30","","23","","24.1","","103.07","","","","-28","","NA"
"-105.14","69.11","CAMBRIDGE BAY A","2400601","2021-05-14 02:00","2021","05","14","02:00","-17.8","","-21.0","","77","","","","31","","21","","24.1","","103.06","","","","-28","","Mostly Cloudy"
"-105.14","69.11","CAMBRIDGE BAY A","2400601","2021-05-14 03:00","2021","05","14","03:00","-18.3","","-21.5","","76","","","","32","","20","","24.1","","103.05","","","","-28","","NA"
"-105.14","69.11","CAMBRIDGE BAY A","2400601","2021-05-14 04:00","2021","05","14","04:00","-19.9","","-23.3","","75","","","","31","","22","","24.1","","103.04","","","","-31","","NA"
"-105.14","69.11","CAMBRIDGE BAY A","2400601","2021-05-14 05:00","2021","05","14","05:00","-20.1","","-23.7","","74","","","","31","","23","","24.1","","103.01","","","","-31","","Mainly Clear"
"-105.14","69.11","CAMBRIDGE BAY A","2400601","2021-05-14 06:00","2021","05","14","06:00","-19.7","","-23.3","","73","","","","32","","20","","24.1","","102.99","","","","-30","","NA"
"-105.14","69.11","CAMBRIDGE BAY A","2400601","2021-05-14 07:00","2021","05","14","07:00","-19.2","","-23.1","","72","","","","32","","20","","24.1","","102.97","","","","-29","","NA"
"-105.14","69.11","CAMBRIDGE BAY A","2400601","2021-05-14 08:00","2021","05","14","08:00","-18.3","","-22.2","","72","","","","31","","19","","24.1","","102.95","","","","-28","","Mainly Clear"
"-105.14","69.11","CAMBRIDGE BAY A","2400601","2021-05-14 09:00","2021","05","14","09:00","-16.7","","-20.5","","73","","","","31","","17","","24.1","","102.92","","","","-26","","NA"
"-105.14","69.11","CAMBRIDGE BAY A","2400601","2021-05-14 10:00","2021","05","14","10:00","-15.4","","-18.7","","76","","","","32","","19","","24.1","","102.90","","","","-24","","NA"
"-105.14","69.11","CAMBRIDGE BAY A","2400601","2021-05-14 11:00","2021","05","14","11:00","-14.3","","-17.8","","75","","","","32","","17","","16.1","","102.88","","","","-23","","Mainly Clear"
"-105.14","69.11","CAMBRIDGE BAY A","2400601","2021-05-14 12:00","2021","05","14","12:00","-13.7","","-17.4","","74","","","","31","","19","","19.3","","102.83","","","","-22","","NA"
"-105.14","69.11","CAMBRIDGE BAY A","2400601","2021-05-14 13:00","2021","05","14","13:00","-13.5","","-17.1","","75","","","","30","","25","","19.3","","102.79","","","","-23","","NA"
"-105.14","69.11","CAMBRIDGE BAY A","2400601","2021-05-14 14:00","2021","05","14","14:00","-13.4","","-17.1","","74","","","","31","","21","","19.3","","102.77","","","","-22","","Mainly Clear"
"-105.14","69.11","CAMBRIDGE BAY A","2400601","2021-05-14 15:00","2021","05","14","15:00","-13.1","","-16.8","","74","","","","31","","20","","24.1","","102.74","","","","-22","","NA"
"-105.14","69.11","CAMBRIDGE BAY A","2400601","2021-05-14 16:00","2021","05","14","16:00","-13.2","","-17.0","","73","","","","32","","23","","24.1","","102.70","","","","-23","","NA"
"-105.14","69.11","CAMBRIDGE BAY A","2400601","2021-05-14 17:00","2021","05","14","17:00","-12.9","","-16.7","","74","","","","32","","22","","24.1","","102.65","","","","-22","","Mostly Cloudy"
"-105.14","69.11","CAMBRIDGE BAY A","2400601","2021-05-14 18:00","2021","05","14","18:00","-13.2","","-16.7","","75","","","","32","","23","","24.1","","102.60","","","","-23","","NA"
"-105.14","69.11","CAMBRIDGE BAY A","2400601","2021-05-14 19:00","2021","05","14","19:00","-13.9","","-17.3","","76","","","","31","","14","","24.1","","102.56","","","","-21","","NA"
"-105.14","69.11","CAMBRIDGE BAY A","2400601","2021-05-14 20:00","2021","05","14","20:00","-14.8","","-18.1","","76","","","","31","","14","","24.1","","102.49","","","","-22","","Mainly Clear"
"-105.14","69.11","CAMBRIDGE BAY A","2400601","2021-05-14 21:00","2021","05","14","21:00","-15.5","","-18.7","","77","","","","32","","17","","24.1","","102.46","","","","-24","","NA"
"-105.14","69.11","CAMBRIDGE BAY A","2400601","2021-05-14 22:00","2021","05","14","22:00","-16.8","","-19.7","","79","","","","31","","19","","24.1","","102.42","","","","-26","","NA"
"-105.14","69.11","CAMBRIDGE BAY A","2400601","2021-05-14 23:00","2021","05","14","23:00","-17.8","","-20.8","","78","","","","31","","20","","24.1","","102.38","","","","-28","","Mostly Cloudy"
"-105.14","69.11","CAMBRIDGE BAY A","2400601","2021-05-15 00:00","2021","05","15","00:00","-18.9","","-21.9","","78","","","","31","","18","","24.1","","102.38","","","","-29","","NA"
"-105.14","69.11","CAMBRIDGE BAY A","2400601","2021-05-15 01:00","2021","05","15","01:00","-17.5","","-20.2","","80","","","","33","","17","","24.1","","102.33","","","","-27","","NA"
"-105.14","69.11","CAMBRIDGE BAY A","2400601","2021-05-15 02:00","2021","05","15","02:00","-17.9","","-20.8","","78","","","","33","","19","","24.1","","102.32","","","","-28","","Mostly Cloudy"
"-105.14","69.11","CAMBRIDGE BAY A","2400601","2021-05-15 03:00","2021","05","15","03:00","-17.8","","-20.6","","79","","","","32","","15","","24.1","","102.28","","","","-26","","NA"
"-105.14","69.11","CAMBRIDGE BAY A","2400601","2021-05-15 04:00","2021","05","15","04:00","-17.8","","-20.7","","78","","","","29","","17","","24.1","","102.26","","","","-27","","NA"
"-105.14","69.11","CAMBRIDGE BAY A","2400601","2021-05-15 05:00","2021","05","15","05:00","-16.6","","-19.7","","78","","","","31","","21","","24.1","","102.21","","","","-26","","Snow"
"-105.14","69.11","CAMBRIDGE BAY A","2400601","2021-05-15 06:00","2021","05","15","06:00","-15.1","","-18.3","","77","","","","31","","23","","24.1","","102.16","","","","-25","","NA"
"-105.14","69.11","CAMBRIDGE BAY A","2400601","2021-05-15 07:00","2021","05","15","07:00","-13.7","","-17.0","","77","","","","31","","22","","24.1","","102.12","","","","-23","","NA"
"-105.14","69.11","CAMBRIDGE BAY A","2400601","2021-05-15 08:00","2021","05","15","08:00","-12.3","","-15.5","","78","","","","31","","22","","19.3","","102.08","","","","-21","","Blowing Snow"
"-105.14","69.11","CAMBRIDGE BAY A","2400601","2021-05-15 09:00","2021","05","15","09:00","-11.2","","-14.2","","78","","","","32","","24","","4.8","","102.02","","","","-20","","Snow,Blowing Snow"
"-105.14","69.11","CAMBRIDGE BAY A","2400601","2021-05-15 10:00","2021","05","15","10:00","-10.7","","-13.9","","78","","","","33","","20","","6.4","","102.00","","","","-19","","Snow,Blowing Snow"
"-105.14","69.11","CAMBRIDGE BAY A","2400601","2021-05-15 11:00","2021","05","15","11:00","-10.3","","-13.6","","77","","","","33","","25","","4.8","","101.99","","","","-19","","Snow,Blowing Snow"
"-105.14","69.11","CAMBRIDGE BAY A","2400601","2021-05-15 12:00","2021","05","15","12:00","-9.8","","-13.1","","77","","","","33","","20","","9.7","","101.97","","","","-18","","Snow,Blowing Snow"
"-105.14","69.11","CAMBRIDGE BAY A","2400601","2021-05-15 13:00","2021","05","15","13:00","-9.4","","-12.8","","76","","","","35","","22","","16.1","","101.93","","","","-17","","Snow,Blowing Snow"
"-105.14","69.11","CAMBRIDGE BAY A","2400601","2021-05-15 14:00","2021","05","15","14:00","-8.8","","-12.3","","76","","","","32","","18","","24.1","","101.93","","","","-16","","Cloudy"
"-105.14","69.11","CAMBRIDGE BAY A","2400601","2021-05-15 15:00","2021","05","15","15:00","-8.8","","-12.2","","76","","","","35","","17","","24.1","","101.92","","","","-16","","NA"
"-105.14","69.11","CAMBRIDGE BAY A","2400601","2021-05-15 16:00","2021","05","15","16:00","-8.7","","-12.1","","76","","","","34","","11","","24.1","","101.91","","","","-14","","NA"
"-105.14","69.11","CAMBRIDGE BAY A","2400601","2021-05-15 17:00","2021","05","15","17:00","-8.1","","-11.2","","79","","","","34","","14","","24.1","","101.88","","","","-14","","Cloudy"
"-105.14","69.11","CAMBRIDGE BAY A","2400601","2021-05-15 18:00","2021","05","15","18:00","-8.5","","-11.3","","80","","","","2","","20","","24.1","","101.87","","","","-16","","NA"
"-105.14","69.11","CAMBRIDGE BAY A","2400601","2021-05-15 19:00","2021","05","15","19:00","-9.4","","-12.3","","80","","","","1","","13","","24.1","","101.88","","","","-15","","NA"
"-105.14","69.11","CAMBRIDGE BAY A","2400601","2021-05-15 20:00","2021","05","15","20:00","-10.2","","-12.8","","81","","","","36","","10","","24.1","","101.87","","","","-15","","Mostly Cloudy"
"-105.14","69.11","CAMBRIDGE BAY A","2400601","2021-05-15 21:00","2021","05","15","21:00","-10.8","","-13.4","","81","","","","36","","11","","24.1","","101.87","","","","-17","","NA"
"-105.14","69.11","CAMBRIDGE BAY A","2400601","2021-05-15 22:00","2021","05","15","22:00","-11.3","","-13.6","","83","","","","2","","15","","20.9","","101.88","","","","-18","","Snow"
"-105.14","69.11","CAMBRIDGE BAY A","2400601","2021-05-15 23:00","2021","05","15","23:00","-11.5","","-13.8","","83","","","","2","","8","","20.9","","101.88","","","","-16","","Snow"
"-105.14","69.11","CAMBRIDGE BAY A","2400601","2021-05-16 00:00","2021","05","16","00:00","-11.8","","-14.1","","83","","","","3","","6","","19.3","","101.89","","","","-16","","Snow"
"-105.14","69.11","CAMBRIDGE BAY A","2400601","2021-05-16 01:00","2021","05","16","01:00","-11.9","","-13.9","","85","","","","2","","4","","19.3","","101.88","","","","-14","","Snow"
"-105.14","69.11","CAMBRIDGE BAY A","2400601","2021-05-16 02:00","2021","05","16","02:00","-12.0","","-14.0","","85","","","","2","","5","","19.3","","101.87","","","","-15","","Snow"
"-105.14","69.11","CAMBRIDGE BAY A","2400601","2021-05-16 03:00","2021","05","16","03:00","-12.2","","-14.4","","84","","","","4","","6","","24.1","","101.86","","","","-16","","Snow"
"-105.14","69.11","CAMBRIDGE BAY A","2400601","2021-05-16 04:00","2021","05","16","04:00","-12.7","","-14.8","","84","","","","2","","12","","20.9","","101.86","","","","-19","","Snow"
"-105.14","69.11","CAMBRIDGE BAY A","2400601","2021-05-16 05:00","2021","05","16","05:00","-13.2","","-15.4","","84","","","","6","","4","","16.1","","101.86","","","","-16","","Snow"
"-105.14","69.11","CAMBRIDGE BAY A","2400601","2021-05-16 06:00","2021","05","16","06:00","-12.1","","-14.4","","83","","","","31","","9","","16.1","","101.81","","","","-17","","Snow"
"-105.14","69.11","CAMBRIDGE BAY A","2400601","2021-05-16 07:00","2021","05","16","07:00","-12.9","","-15.0","","84","","","","32","","11","","16.1","","101.77","","","","-19","","Snow"
"-105.14","69.11","CAMBRIDGE BAY A","2400601","2021-05-16 08:00","2021","05","16","08:00","-13.6","","-16.1","","82","","","","32","","10","","24.1","","101.74","","","","-20","","Mostly Cloudy"
"-105.14","69.11","CAMBRIDGE BAY A","2400601","2021-05-16 09:00","2021","05","16","09:00","-12.6","","-15.9","","77","","","","33","","8","","19.3","","101.70","","","","-18","","Snow"
"-105.14","69.11","CAMBRIDGE BAY A","2400601","2021-05-16 10:00","2021","05","16","10:00","-12.0","","-15.2","","78","","","","30","","11","","8.1","","101.67","","","","-18","","Snow"
"-105.14","69.11","CAMBRIDGE BAY A","2400601","2021-05-16 11:00","2021","05","16","11:00","-10.8","","-14.1","","76","","","","32","","15","","6.4","","101.66","","","","-18","","Snow"
"-105.14","69.11","CAMBRIDGE BAY A","2400601","2021-05-16 12:00","2021","05","16","12:00","-10.4","","-14.2","","74","","","","32","","22","","12.9","","101.65","","","","-19","","Snow"
"-105.14","69.11","CAMBRIDGE BAY A","2400601","2021-05-16 13:00","2021","05","16","13:00","-9.9","","-13.7","","74","","","","32","","16","","12.9","","101.64","","","","-17","","Snow"
"-105.14","69.11","CAMBRIDGE BAY A","2400601","2021-05-16 14:00","2021","05","16","14:00","-9.9","","-13.8","","73","","","","32","","18","","24.1","","101.62","","","","-17","","Mainly Clear"
"-105.14","69.11","CAMBRIDGE BAY A","2400601","2021-05-16 15:00","2021","05","16","15:00","-9.2","","-12.7","","75","","","","32","","16","","24.1","","101.58","","","","-16","","NA"
"-105.14","69.11","CAMBRIDGE BAY A","2400601","2021-05-16 16:00","2021","05","16","16:00","-9.1","","-12.4","","77","","","","32","","15","","24.1","","101.56","","","","-16","","Snow"
"-105.14","69.11","CAMBRIDGE BAY A","2400601","2021-05-16 17:00","2021","05","16","17:00","-9.0","","-12.0","","79","","","","30","","19","","24.1","","101.53","","","","-16","","Snow"
"-105.14","69.11","CAMBRIDGE BAY A","2400601","2021-05-16 18:00","2021","05","16","18:00","-8.0","","-10.1","","85","","","","31","","17","","16.1","","101.48","","","","-15","","Snow"
"-105.14","69.11","CAMBRIDGE BAY A","2400601","2021-05-16 19:00","2021","05","16","19:00","-7.4","","-9.9","","82","","","","32","","19","","24.1","","101.46","","","","-14","","Snow"
"-105.14","69.11","CAMBRIDGE BAY A","2400601","2021-05-16 20:00","2021","05","16","20:00","-9.6","","-12.2","","81","","","","31","","19","","16.1","","101.43","","","","-17","","Mostly Cloudy"
"-105.14","69.11","CAMBRIDGE BAY A","2400601","2021-05-16 21:00","2021","05","16","21:00","-10.4","","-12.8","","82","","","","32","","24","","19.3","","101.42","","","","-19","","NA"
"-105.14","69.11","CAMBRIDGE BAY A","2400601","2021-05-16 22:00","2021","05","16","22:00","-10.8","","-13.2","","83","","","","31","","23","","12.9","","101.42","","","","-19","","Snow"
"-105.14","69.11","CAMBRIDGE BAY A","2400601","2021-05-16 23:00","2021","05","16","23:00","-10.7","","-13.1","","83","","","","31","","25","","16.1","","101.42","","","","-20","","Snow"
"-105.14","69.11","CAMBRIDGE BAY A","2400601","2021-05-17 00:00","2021","05","17","00:00","-10.1","","-12.6","","83","","","","31","","24","","19.3","","101.43","","","","-19","","Snow"
"-105.14","69.11","CAMBRIDGE BAY A","2400601","2021-05-17 01:00","2021","05","17","01:00","-9.3","","-11.5","","84","","","","1","","22","","16.1","","101.47","","","","-17","","Snow"
"-105.14","69.11","CAMBRIDGE BAY A","2400601","2021-05-17 02:00","2021","05","17","02:00","-10.2","","-12.7","","83","","","","1","","21","","24.1","","101.50","","","","-18","","Mostly Cloudy"
"-105.14","69.11","CAMBRIDGE BAY A","2400601","2021-05-17 03:00","2021","05","17","03:00","-12.2","","-14.6","","82","","","","35","","16","","24.1","","101.53","","","","-20","","NA"
"-105.14","69.11","CAMBRIDGE BAY A","2400601","2021-05-17 04:00","2021","05","17","04:00","-14.6","","-17.4","","79","","","","36","","21","","24.1","","101.61","","","","-24","","NA"
"-105.14","69.11","CAMBRIDGE BAY A","2400601","2021-05-17 05:00","2021","05","17","05:00","-15.4","","-18.5","","78","","","","1","","17","","24.1","","101.64","","","","-24","","Mainly Clear"
"-105.14","69.11","CAMBRIDGE BAY A","2400601","2021-05-17 06:00","2021","05","17","06:00","-15.5","","-18.7","","77","","","","1","","16","","24.1","","101.67","","","","-24","","NA"
"-105.14","69.11","CAMBRIDGE BAY A","2400601","2021-05-17 07:00","2021","05","17","07:00","-14.9","","-18.2","","76","","","","1","","20","","24.1","","101.72","","","","-24","","NA"
"-105.14","69.11","CAMBRIDGE BAY A","2400601","2021-05-17 08:00","2021","05","17","08:00","-13.9","","-17.3","","76","","","","1","","22","","24.1","","101.77","","","","-23","","Mainly Clear"
"-105.14","69.11","CAMBRIDGE BAY A","2400601","2021-05-17 09:00","2021","05","17","09:00","-13.9","","-17.3","","75","","","","35","","22","","24.1","","101.78","","","","-23","","Blowing Snow"
"-105.14","69.11","CAMBRIDGE BAY A","2400601","2021-05-17 10:00","2021","05","17","10:00","-13.1","","-16.8","","75","","","","1","","39","","19.3","","101.79","","","","-25","","Blowing Snow"
"-105.14","69.11","CAMBRIDGE BAY A","2400601","2021-05-17 11:00","2021","05","17","11:00","-12.4","","-15.8","","76","","","","1","","30","","24.1","","101.86","","","","-23","","Blowing Snow"
"-105.14","69.11","CAMBRIDGE BAY A","2400601","2021-05-17 12:00","2021","05","17","12:00","-11.8","","-15.5","","74","","","","1","","33","","24.1","","101.89","","","","-22","","Blowing Snow"
"-105.14","69.11","CAMBRIDGE BAY A","2400601","2021-05-17 13:00","2021","05","17","13:00","-11.2","","-14.9","","74","","","","2","","27","","22.5","","101.98","","","","-21","","Blowing Snow"
"-105.14","69.11","CAMBRIDGE BAY A","2400601","2021-05-17 14:00","2021","05","17","14:00","-10.8","","-14.6","","73","","","","2","","32","","24.1","","102.02","","","","-21","","Blowing Snow"
"-105.14","69.11","CAMBRIDGE BAY A","2400601","2021-05-17 15:00","2021","05","17","15:00","-10.6","","-14.3","","75","","","","2","","31","","24.1","","102.06","","","","-20","","Blowing Snow"
"-105.14","69.11","CAMBRIDGE BAY A","2400601","2021-05-17 16:00","2021","05","17","16:00","-10.7","","-14.3","","75","","","","3","","21","","24.1","","102.14","","","","-19","","Blowing Snow"
"-105.14","69.11","CAMBRIDGE BAY A","2400601","2021-05-17 17:00","2021","05","17","17:00","-11.0","","-14.4","","76","","","","2","","21","","24.1","","102.19","","","","-19","","Mainly Clear"
"-105.14","69.11","CAMBRIDGE BAY A","2400601","2021-05-17 18:00","2021","05","17","18:00","-11.4","","-14.6","","78","","","","2","","19","","24.1","","102.21","","","","-19","","NA"
"-105.14","69.11","CAMBRIDGE BAY A","2400601","2021-05-17 19:00","2021","05","17","19:00","-12.2","","-15.3","","78","","","","2","","23","","24.1","","102.24","","","","-21","","NA"
"-105.14","69.11","CAMBRIDGE BAY A","2400601","2021-05-17 20:00","2021","05","17","20:00","-13.5","","-16.4","","78","","","","1","","18","","24.1","","102.30","","","","-22","","Mainly Clear"
"-105.14","69.11","CAMBRIDGE BAY A","2400601","2021-05-17 21:00","2021","05","17","21:00","-13.9","","-16.7","","79","","","","1","","16","","24.1","","102.35","","","","-22","","NA"
"-105.14","69.11","CAMBRIDGE BAY A","2400601","2021-05-17 22:00","2021","05","17","22:00","-15.1","","-17.7","","81","","","","36","","15","","24.1","","102.40","","","","-23","","NA"
"-105.14","69.11","CAMBRIDGE BAY A","2400601","2021-05-17 23:00","2021","05","17","23:00","-16.2","","-18.7","","81","","","","36","","12","","24.1","","102.45","","","","-23","","Mainly Clear"
"-105.14","69.11","CAMBRIDGE BAY A","2400601","2021-05-18 00:00","2021","05","18","00:00","-17.2","","-19.7","","81","","","","36","","16","","24.1","","102.46","","","","-26","","NA"
"-105.14","69.11","CAMBRIDGE BAY A","2400601","2021-05-18 01:00","2021","05","18","01:00","-17.0","","-19.4","","82","","","","36","","16","","24.1","","102.48","","","","-26","","NA"
"-105.14","69.11","CAMBRIDGE BAY A","2400601","2021-05-18 02:00","2021","05","18","02:00","-17.2","","-19.7","","81","","","","1","","17","","24.1","","102.51","","","","-26","","Mainly Clear"
"-105.14","69.11","CAMBRIDGE BAY A","2400601","2021-05-18 03:00","2021","05","18","03:00","-18.0","","-20.6","","80","","","","32","","5","","24.1","","102.55","","","","-22","","NA"
"-105.14","69.11","CAMBRIDGE BAY A","2400601","2021-05-18 04:00","2021","05","18","04:00","-18.4","","-21.1","","80","","","","4","","3","","24.1","","102.57","","","","-21","","NA"
"-105.14","69.11","CAMBRIDGE BAY A","2400601","2021-05-18 05:00","2021","05","18","05:00","-18.7","","-21.5","","79","","","","29","","11","","24.1","","102.63","","","","-26","","Mainly Clear"
"-105.14","69.11","CAMBRIDGE BAY A","2400601","2021-05-18 06:00","2021","05","18","06:00","-18.4","","-21.2","","79","","","","31","","16","","24.1","","102.63","","","","-27","","NA"
"-105.14","69.11","CAMBRIDGE BAY A","2400601","2021-05-18 07:00","2021","05","18","07:00","-17.7","","-20.5","","79","","","","32","","17","","24.1","","102.64","","","","-27","","NA"
"-105.14","69.11","CAMBRIDGE BAY A","2400601","2021-05-18 08:00","2021","05","18","08:00","-15.7","","-18.6","","78","","","","32","","14","","24.1","","102.66","","","","-23","","Clear"
"-105.14","69.11","CAMBRIDGE BAY A","2400601","2021-05-18 09:00","2021","05","18","09:00","-14.3","","-17.8","","75","","","","31","","9","","24.1","","102.64","","","","-20","","NA"
"-105.14","69.11","CAMBRIDGE BAY A","2400601","2021-05-18 10:00","2021","05","18","10:00","-13.3","","-17.0","","74","","","","30","","16","","24.1","","102.64","","","","-21","","NA"
"-105.14","69.11","CAMBRIDGE BAY A","2400601","2021-05-18 11:00","2021","05","18","11:00","-12.3","","-16.2","","73","","","","30","","16","","24.1","","102.66","","","","-20","","Clear"
"-105.14","69.11","CAMBRIDGE BAY A","2400601","2021-05-18 12:00","2021","05","18","12:00","-11.5","","-15.2","","74","","","","28","","14","","24.1","","102.64","","","","-18","","NA"
"-105.14","69.11","CAMBRIDGE BAY A","2400601","2021-05-18 13:00","2021","05","18","13:00","-11.0","","-14.5","","76","","","","26","","15","","24.1","","102.64","","","","-18","","NA"
"-105.14","69.11","CAMBRIDGE BAY A","2400601","2021-05-18 14:00","2021","05","18","14:00","-10.8","","-14.1","","77","","","","28","","17","","24.1","","102.62","","","","-18","","Mainly Clear"
"-105.14","69.11","CAMBRIDGE BAY A","2400601","2021-05-18 15:00","2021","05","18","15:00","-10.9","","-13.9","","78","","","","26","","17","","24.1","","102.59","","","","-18","","NA"
"-105.14","69.11","CAMBRIDGE BAY A","2400601","2021-05-18 16:00","2021","05","18","16:00","-11.1","","-14.4","","77","","","","26","","18","","24.1","","102.57","","","","-19","","NA"
"-105.14","69.11","CAMBRIDGE BAY A","2400601","2021-05-18 17:00","2021","05","18","17:00","-11.2","","-14.2","","78","","","","27","","20","","24.1","","102.56","","","","-19","","Mostly Cloudy"
"-105.14","69.11","CAMBRIDGE BAY A","2400601","2021-05-18 18:00","2021","05","18","18:00","-11.2","","-14.1","","79","","","","27","","18","","24.1","","102.51","","","","-19","","NA"
"-105.14","69.11","CAMBRIDGE BAY A","2400601","2021-05-18 19:00","2021","05","18","19:00","-11.3","","-13.8","","81","","","","27","","19","","24.1","","102.50","","","","-19","","NA"
"-105.14","69.11","CAMBRIDGE BAY A","2400601","2021-05-18 20:00","2021","05","18","20:00","-12.5","","-15.0","","82","","","","27","","18","","24.1","","102.44","","","","-21","","Mostly Cloudy"
"-105.14","69.11","CAMBRIDGE BAY A","2400601","2021-05-18 21:00","2021","05","18","21:00","-14.3","","-16.6","","83","","","","28","","17","","24.1","","102.42","","","","-23","","NA"
"-105.14","69.11","CAMBRIDGE BAY A","2400601","2021-05-18 22:00","2021","05","18","22:00","-15.3","","-17.6","","83","","","","28","","19","","24.1","","102.40","","","","-24","","NA"
"-105.14","69.11","CAMBRIDGE BAY A","2400601","2021-05-18 23:00","2021","05","18","23:00","-16.5","","-18.9","","82","","","","25","","13","","24.1","","102.33","","","","-24","","Mainly Clear"
"-105.14","69.11","CAMBRIDGE BAY A","2400601","2021-05-19 00:00","2021","05","19","00:00","-17.7","","-20.2","","81","","","","26","","18","","24.1","","102.31","","","","-27","","NA"
"-105.14","69.11","CAMBRIDGE BAY A","2400601","2021-05-19 01:00","2021","05","19","01:00","-17.8","","-20.3","","81","","","","27","","20","","24.1","","102.28","","","","-28","","NA"
"-105.14","69.11","CAMBRIDGE BAY A","2400601","2021-05-19 02:00","2021","05","19","02:00","-17.8","","-20.4","","80","","","","26","","19","","24.1","","102.21","","","","-27","","Mostly Cloudy"
"-105.14","69.11","CAMBRIDGE BAY A","2400601","2021-05-19 03:00","2021","05","19","03:00","-18.5","","-21.1","","80","","","","23","","13","","24.1","","102.18","","","","-27","","NA"
"-105.14","69.11","CAMBRIDGE BAY A","2400601","2021-05-19 04:00","2021","05","19","04:00","-17.5","","-20.3","","79","","","","24","","8","","19.3","","102.13","","","","-23","","Snow"
"-105.14","69.11","CAMBRIDGE BAY A","2400601","2021-05-19 05:00","2021","05","19","05:00","-15.4","","-18.2","","79","","","","28","","21","","19.3","","102.06","","","","-25","","Snow"
"-105.14","69.11","CAMBRIDGE BAY A","2400601","2021-05-19 06:00","2021","05","19","06:00","-14.8","","-17.7","","79","","","","26","","23","","19.3","","101.97","","","","-25","","Snow"
"-105.14","69.11","CAMBRIDGE BAY A","2400601","2021-05-19 07:00","2021","05","19","07:00","-13.3","","-16.1","","80","","","","26","","27","","9.7","","101.89","","","","-23","","Snow,Blowing Snow"
"-105.14","69.11","CAMBRIDGE BAY A","2400601","2021-05-19 08:00","2021","05","19","08:00","-11.7","","-14.3","","81","","","","27","","26","","4.8","","101.84","","","","-21","","Snow,Blowing Snow"
"-105.14","69.11","CAMBRIDGE BAY A","2400601","2021-05-19 09:00","2021","05","19","09:00","-9.5","","-12.1","","82","","","","27","","29","","2.4","","101.78","","","","-19","","Snow,Blowing Snow"
"-105.14","69.11","CAMBRIDGE BAY A","2400601","2021-05-19 10:00","2021","05","19","10:00","-8.3","","-10.8","","82","","","","27","","24","","2.4","","101.72","","","","-16","","Snow,Blowing Snow"
"-105.14","69.11","CAMBRIDGE BAY A","2400601","2021-05-19 11:00","2021","05","19","11:00","-7.4","","-10.1","","81","","","","29","","28","","3.2","","101.67","","","","-16","","Snow,Blowing Snow"
"-105.14","69.11","CAMBRIDGE BAY A","2400601","2021-05-19 12:00","2021","05","19","12:00","-7.1","","-10.1","","79","","","","30","","30","","9.7","","101.64","","","","-16","","Snow,Blowing Snow"
"-105.14","69.11","CAMBRIDGE BAY A","2400601","2021-05-19 13:00","2021","05","19","13:00","-6.8","","-9.8","","79","","","","30","","28","","19.3","","101.61","","","","-15","","Snow,Blowing Snow"
"-105.14","69.11","CAMBRIDGE BAY A","2400601","2021-05-19 14:00","2021","05","19","14:00","-6.5","","-9.6","","78","","","","29","","28","","24.1","","101.58","","","","-15","","Blowing Snow"
"-105.14","69.11","CAMBRIDGE BAY A","2400601","2021-05-19 15:00","2021","05","19","15:00","-6.2","","-9.3","","79","","","","29","","27","","24.1","","101.57","","","","-14","","Blowing Snow"
"-105.14","69.11","CAMBRIDGE BAY A","2400601","2021-05-19 16:00","2021","05","19","16:00","-6.3","","-9.1","","80","","","","30","","27","","19.3","","101.51","","","","-14","","Snow,Blowing Snow"
"-105.14","69.11","CAMBRIDGE BAY A","2400601","2021-05-19 17:00","2021","05","19","17:00","-6.6","","-9.4","","80","","","","31","","22","","19.3","","101.51","","","","-14","","Snow,Blowing Snow"
"-105.14","69.11","CAMBRIDGE BAY A","2400601","2021-05-19 18:00","2021","05","19","18:00","-7.4","","-10.7","","77","","","","30","","23","","24.1","","101.48","","","","-15","","NA"
"-105.14","69.11","CAMBRIDGE BAY A","2400601","2021-05-19 19:00","2021","05","19","19:00","-6.9","","-10.1","","78","","","","30","","21","","24.1","","101.45","","","","-14","","NA"
"-105.14","69.11","CAMBRIDGE BAY A","2400601","2021-05-19 20:00","2021","05","19","20:00","-7.3","","-9.9","","82","","","","30","","22","","22.5","","101.42","","","","-15","","Snow"
"-105.14","69.11","CAMBRIDGE BAY A","2400601","2021-05-19 21:00","2021","05","19","21:00","-7.8","","-10.2","","83","","","","30","","21","","24.1","","101.38","","","","-15","","NA"
"-105.14","69.11","CAMBRIDGE BAY A","2400601","2021-05-19 22:00","2021","05","19","22:00","-7.8","","-10.1","","84","","","","31","","22","","24.1","","101.36","","","","-15","","NA"
"-105.14","69.11","CAMBRIDGE BAY A","2400601","2021-05-19 23:00","2021","05","19","23:00","-8.2","","-10.6","","83","","","","30","","22","","22.5","","101.35","","","","-16","","Snow"
"-105.14","69.11","CAMBRIDGE BAY A","2400601","2021-05-20 00:00","2021","05","20","00:00","-8.3","","-10.6","","84","","","","30","","25","","22.5","","101.32","","","","-17","","Snow"
"-105.14","69.11","CAMBRIDGE BAY A","2400601","2021-05-20 01:00","2021","05","20","01:00"
"-105.14","69.11","CAMBRIDGE BAY A","2400601","2021-05-20 02:00","2021","05","20","02:00"
"-105.14","69.11","CAMBRIDGE BAY A","2400601","2021-05-20 03:00","2021","05","20","03:00"
"-105.14","69.11","CAMBRIDGE BAY A","2400601","2021-05-20 04:00","2021","05","20","04:00"
"-105.14","69.11","CAMBRIDGE BAY A","2400601","2021-05-20 05:00","2021","05","20","05:00"
"-105.14","69.11","CAMBRIDGE BAY A","2400601","2021-05-20 06:00","2021","05","20","06:00"
"-105.14","69.11","CAMBRIDGE BAY A","2400601","2021-05-20 07:00","2021","05","20","07:00","-7.6","","-10.1","","82","","","","31","","28","","4.8","","101.19","","","","-16","","Snow,Blowing Snow"
"-105.14","69.11","CAMBRIDGE BAY A","2400601","2021-05-20 08:00","2021","05","20","08:00","-7.0","","-9.6","","82","","","","30","","31","","4.8","","101.17","","","","-16","","Snow,Blowing Snow"
"-105.14","69.11","CAMBRIDGE BAY A","2400601","2021-05-20 09:00","2021","05","20","09:00","-6.5","","-9.1","","82","","","","31","","32","","3.2","","101.17","","","","-15","","Snow,Blowing Snow"
"-105.14","69.11","CAMBRIDGE BAY A","2400601","2021-05-20 10:00","2021","05","20","10:00","-6.0","","-8.7","","82","","","","31","","35","","2.0","","101.16","","","","-15","","Snow,Blowing Snow"
"-105.14","69.11","CAMBRIDGE BAY A","2400601","2021-05-20 11:00","2021","05","20","11:00","-5.5","","-8.8","","78","","","","31","","35","","8.1","","101.18","","","","-14","","Snow,Blowing Snow"
"-105.14","69.11","CAMBRIDGE BAY A","2400601","2021-05-20 12:00","2021","05","20","12:00","-5.9","","-9.1","","78","","","","31","","30","","9.7","","101.21","","","","-14","","Snow,Blowing Snow"
"-105.14","69.11","CAMBRIDGE BAY A","2400601","2021-05-20 13:00","2021","05","20","13:00","-5.2","","-8.6","","77","","","","30","","36","","16.1","","101.24","","","","-14","","Snow,Blowing Snow"
"-105.14","69.11","CAMBRIDGE BAY A","2400601","2021-05-20 14:00","2021","05","20","14:00","-4.9","","-8.1","","79","","","","31","","29","","8.1","","101.26","","","","-13","","Snow,Blowing Snow"
"-105.14","69.11","CAMBRIDGE BAY A","2400601","2021-05-20 15:00","2021","05","20","15:00","-4.7","","-7.6","","81","","","","31","","27","","4.8","","101.30","","","","-12","","Snow,Blowing Snow"
"-105.14","69.11","CAMBRIDGE BAY A","2400601","2021-05-20 16:00","2021","05","20","16:00","-4.5","","-7.7","","79","","","","31","","25","","9.7","","101.32","","","","-12","","Snow,Blowing Snow"
"-105.14","69.11","CAMBRIDGE BAY A","2400601","2021-05-20 17:00","2021","05","20","17:00","-4.5","","-7.0","","82","","","","32","","34","","4.8","","101.35","","","","-13","","Snow,Blowing Snow"
"-105.14","69.11","CAMBRIDGE BAY A","2400601","2021-05-20 18:00","2021","05","20","18:00","-5.2","","-8.8","","76","","","","33","","21","","24.1","","101.42","","","","-12","","NA"
"-105.14","69.11","CAMBRIDGE BAY A","2400601","2021-05-20 19:00","2021","05","20","19:00","-6.2","","-9.3","","79","","","","33","","25","","24.1","","101.44","","","","-14","","Blowing Snow"
"-105.14","69.11","CAMBRIDGE BAY A","2400601","2021-05-20 20:00","2021","05","20","20:00","-7.1","","-9.9","","81","","","","32","","26","","24.1","","101.50","","","","-15","","Blowing Snow"
"-105.14","69.11","CAMBRIDGE BAY A","2400601","2021-05-20 21:00","2021","05","20","21:00","-7.0","","-9.4","","83","","","","32","","22","","24.1","","101.49","","","","-14","","Blowing Snow"
"-105.14","69.11","CAMBRIDGE BAY A","2400601","2021-05-20 22:00","2021","05","20","22:00","-6.9","","-9.0","","85","","","","29","","27","","9.7","","101.51","","","","-15","","Snow,Blowing Snow"
"-105.14","69.11","CAMBRIDGE BAY A","2400601","2021-05-20 23:00","2021","05","20","23:00","-6.6","","-8.4","","87","","","","30","","38","","4.8","","101.53","","","","-16","","Snow,Blowing Snow"
"-105.14","69.11","CAMBRIDGE BAY A","2400601","2021-05-21 00:00","2021","05","21","00:00","-6.9","","-8.8","","86","","","","32","","30","","9.7","","101.56","","","","-15","","Snow,Blowing Snow"
"-105.14","69.11","CAMBRIDGE BAY A","2400601","2021-05-21 01:00","2021","05","21","01:00","-9.4","","-11.7","","84","","","","36","","27","","19.3","","101.67","","","","-18","","Snow,Blowing Snow"
"-105.14","69.11","CAMBRIDGE BAY A","2400601","2021-05-21 02:00","2021","05","21","02:00","-10.7","","-13.4","","81","","","","35","","24","","24.1","","101.80","","","","-19","","Blowing Snow"
"-105.14","69.11","CAMBRIDGE BAY A","2400601","2021-05-21 03:00","2021","05","21","03:00","-12.9","","-15.6","","81","","","","34","","22","","24.1","","101.92","","","","-22","","Blowing Snow"
"-105.14","69.11","CAMBRIDGE BAY A","2400601","2021-05-21 04:00","2021","05","21","04:00","-13.3","","-16.4","","78","","","","33","","21","","24.1","","101.99","","","","-22","","NA"
"-105.14","69.11","CAMBRIDGE BAY A","2400601","2021-05-21 05:00","2021","05","21","05:00","-14.4","","-17.7","","77","","","","30","","23","","24.1","","102.06","","","","-24","","Blowing Snow"
"-105.14","69.11","CAMBRIDGE BAY A","2400601","2021-05-21 06:00","2021","05","21","06:00","-14.2","","-17.3","","77","","","","31","","20","","24.1","","102.13","","","","-23","","Blowing Snow"
"-105.14","69.11","CAMBRIDGE BAY A","2400601","2021-05-21 07:00","2021","05","21","07:00","-13.1","","-16.3","","77","","","","31","","24","","24.1","","102.18","","","","-23","","Blowing Snow"
"-105.14","69.11","CAMBRIDGE BAY A","2400601","2021-05-21 08:00","2021","05","21","08:00","-11.8","","-15.0","","77","","","","32","","19","","24.1","","102.25","","","","-20","","Mainly Clear"
"-105.14","69.11","CAMBRIDGE BAY A","2400601","2021-05-21 09:00","2021","05","21","09:00","-10.7","","-14.2","","76","","","","32","","21","","24.1","","102.28","","","","-19","","NA"
"-105.14","69.11","CAMBRIDGE BAY A","2400601","2021-05-21 10:00","2021","05","21","10:00","-9.6","","-13.1","","76","","","","31","","20","","24.1","","102.30","","","","-17","","NA"
"-105.14","69.11","CAMBRIDGE BAY A","2400601","2021-05-21 11:00","2021","05","21","11:00","-7.7","","-11.4","","75","","","","30","","19","","24.1","","102.33","","","","-15","","Clear"
"-105.14","69.11","CAMBRIDGE BAY A","2400601","2021-05-21 12:00","2021","05","21","12:00","-7.3","","-10.8","","76","","","","26","","21","","24.1","","102.37","","","","-15","","NA"
"-105.14","69.11","CAMBRIDGE BAY A","2400601","2021-05-21 13:00","2021","05","21","13:00","-6.2","","-9.5","","77","","","","27","","21","","24.1","","102.38","","","","-13","","NA"
"-105.14","69.11","CAMBRIDGE BAY A","2400601","2021-05-21 14:00","2021","05","21","14:00","-4.7","","-8.1","","77","","","","29","","25","","24.1","","102.39","","","","-12","","Mostly Cloudy"
"-105.14","69.11","CAMBRIDGE BAY A","2400601","2021-05-21 15:00","2021","05","21","15:00","-4.0","","-7.5","","77","","","","28","","24","","24.1","","102.37","","","","-11","","NA"
"-105.14","69.11","CAMBRIDGE BAY A","2400601","2021-05-21 16:00","2021","05","21","16:00","-4.2","","-7.3","","79","","","","27","","22","","24.1","","102.36","","","","-11","","NA"
"-105.14","69.11","CAMBRIDGE BAY A","2400601","2021-05-21 17:00","2021","05","21","17:00","-4.0","","-7.1","","79","","","","27","","26","","24.1","","102.34","","","","-11","","Mostly Cloudy"
"-105.14","69.11","CAMBRIDGE BAY A","2400601","2021-05-21 18:00","2021","05","21","18:00","-5.0","","-7.7","","82","","","","27","","18","","24.1","","102.32","","","","-11","","NA"
"-105.14","69.11","CAMBRIDGE BAY A","2400601","2021-05-21 19:00","2021","05","21","19:00","-5.4","","-7.8","","83","","","","27","","18","","24.1","","102.29","","","","-12","","NA"
"-105.14","69.11","CAMBRIDGE BAY A","2400601","2021-05-21 20:00","2021","05","21","20:00","-7.7","","-9.7","","85","","","","25","","9","","24.1","","102.26","","","","-12","","Mainly Clear"
"-105.14","69.11","CAMBRIDGE BAY A","2400601","2021-05-21 21:00","2021","05","21","21:00","-8.6","","-10.5","","86","","","","27","","17","","24.1","","102.25","","","","-15","","NA"
"-105.14","69.11","CAMBRIDGE BAY A","2400601","2021-05-21 22:00","2021","05","21","22:00","-9.6","","-11.6","","86","","","","26","","13","","24.1","","102.24","","","","-16","","NA"
"-105.14","69.11","CAMBRIDGE BAY A","2400601","2021-05-21 23:00","2021","05","21","23:00","-10.8","","-12.6","","87","","","","25","","13","","24.1","","102.21","","","","-17","","Mainly Clear"
"-105.14","69.11","CAMBRIDGE BAY A","2400601","2021-05-22 00:00","2021","05","22","00:00","-11.1","","-12.8","","88","","","","23","","9","","24.1","","102.20","","","","-16","","NA"
"-105.14","69.11","CAMBRIDGE BAY A","2400601","2021-05-22 01:00","2021","05","22","01:00","-11.9","","-13.7","","87","","","","23","","12","","24.1","","102.18","","","","-18","","NA"
"-105.14","69.11","CAMBRIDGE BAY A","2400601","2021-05-22 02:00","2021","05","22","02:00","-12.5","","-14.4","","86","","","","24","","8","","24.1","","102.14","","","","-17","","Mainly Clear"
"-105.14","69.11","CAMBRIDGE BAY A","2400601","2021-05-22 03:00","2021","05","22","03:00","-12.8","","-14.9","","84","","","","23","","5","","24.1","","102.11","","","","-16","","NA"
"-105.14","69.11","CAMBRIDGE BAY A","2400601","2021-05-22 04:00","2021","05","22","04:00","-13.7","","-15.9","","84","","","","36","","3","","24.1","","102.05","","","","-16","","NA"
"-105.14","69.11","CAMBRIDGE BAY A","2400601","2021-05-22 05:00","2021","05","22","05:00","-14.3","","-16.6","","83","","","","36","","3","","24.1","","102.01","","","","-16","","Mainly Clear"
"-105.14","69.11","CAMBRIDGE BAY A","2400601","2021-05-22 06:00","2021","05","22","06:00","-12.3","","-14.4","","85","","","","17","","4","","24.1","","101.96","","","","-15","","NA"
"-105.14","69.11","CAMBRIDGE BAY A","2400601","2021-05-22 07:00","2021","05","22","07:00","-11.5","","-13.5","","85","","","","20","","4","","24.1","","101.90","","","","-14","","NA"
"-105.14","69.11","CAMBRIDGE BAY A","2400601","2021-05-22 08:00","2021","05","22","08:00","-9.5","","-11.3","","87","","","","22","","6","","24.1","","101.87","","","","-13","","Mainly Clear"
"-105.14","69.11","CAMBRIDGE BAY A","2400601","2021-05-22 09:00","2021","05","22","09:00","-8.8","","-10.6","","87","","","","36","","2","","24.1","","101.81","","","","-10","","NA"
"-105.14","69.11","CAMBRIDGE BAY A","2400601","2021-05-22 10:00","2021","05","22","10:00","-7.2","","-10.5","","77","","","","18","","4","","24.1","","101.78","","","","-9","","NA"
"-105.14","69.11","CAMBRIDGE BAY A","2400601","2021-05-22 11:00","2021","05","22","11:00","-6.9","","-10.3","","77","","","","10","","5","","24.1","","101.73","","","","-9","","Clear"
"-105.14","69.11","CAMBRIDGE BAY A","2400601","2021-05-22 12:00","2021","05","22","12:00","-5.9","","-9.3","","77","","","","7","","5","","24.1","","101.67","","","","-8","","NA"
"-105.14","69.11","CAMBRIDGE BAY A","2400601","2021-05-22 13:00","2021","05","22","13:00","-4.2","","-8.0","","75","","","","9","","6","","24.1","","101.63","","","","-7","","NA"
"-105.14","69.11","CAMBRIDGE BAY A","2400601","2021-05-22 14:00","2021","05","22","14:00","-3.7","","-7.0","","78","","","","8","","10","","24.1","","101.59","","","","-8","","Clear"
"-105.14","69.11","CAMBRIDGE BAY A","2400601","2021-05-22 15:00","2021","05","22","15:00","-3.3","","-7.0","","76","","","","5","","14","","24.1","","101.58","","","","-8","","NA"
"-105.14","69.11","CAMBRIDGE BAY A","2400601","2021-05-22 16:00","2021","05","22","16:00","-3.6","","-6.6","","80","","","","9","","18","","24.1","","101.56","","","","-9","","NA"
"-105.14","69.11","CAMBRIDGE BAY A","2400601","2021-05-22 17:00","2021","05","22","17:00","-4.2","","-6.8","","82","","","","8","","20","","24.1","","101.54","","","","-11","","Mainly Clear"
"-105.14","69.11","CAMBRIDGE BAY A","2400601","2021-05-22 18:00","2021","05","22","18:00","-6.0","","-8.3","","84","","","","7","","23","","24.1","","101.51","","","","-13","","NA"
"-105.14","69.11","CAMBRIDGE BAY A","2400601","2021-05-22 19:00","2021","05","22","19:00","-7.5","","-10.0","","83","","","","7","","25","","24.1","","101.49","","","","-16","","NA"
"-105.14","69.11","CAMBRIDGE BAY A","2400601","2021-05-22 20:00","2021","05","22","20:00","-8.9","","-11.0","","85","","","","7","","24","","3.2","","101.48","","","","-17","","Fog"
"-105.14","69.11","CAMBRIDGE BAY A","2400601","2021-05-22 21:00","2021","05","22","21:00","-9.7","","-11.6","","86","","","","6","","21","","3.2","","101.45","","","","-18","","Fog"
"-105.14","69.11","CAMBRIDGE BAY A","2400601","2021-05-22 22:00","2021","05","22","22:00","-10.4","","-12.3","","86","","","","6","","16","","3.2","","101.43","","","","-17","","Fog"
"-105.14","69.11","CAMBRIDGE BAY A","2400601","2021-05-22 23:00","2021","05","22","23:00","-10.7","","-12.6","","86","","","","7","","16","","3.2","","101.43","","","","-18","","Fog"
"-105.14","69.11","CAMBRIDGE BAY A","2400601","2021-05-23 00:00","2021","05","23","00:00","-10.4","","-12.3","","86","","","","6","","19","","3.2","","101.42","","","","-18","","Fog"
"-105.14","69.11","CAMBRIDGE BAY A","2400601","2021-05-23 01:00","2021","05","23","01:00","-10.5","","-12.3","","86","","","","6","","21","","3.2","","101.40","","","","-19","","Fog"
"-105.14","69.11","CAMBRIDGE BAY A","2400601","2021-05-23 02:00","2021","05","23","02:00","-10.7","","-12.7","","86","","","","6","","18","","3.2","","101.39","","","","-18","","Fog"
"-105.14","69.11","CAMBRIDGE BAY A","2400601","2021-05-23 03:00","2021","05","23","03:00","-10.6","","-12.7","","85","","","","6","","22","","3.2","","101.38","","","","-19","","Fog"
"-105.14","69.11","CAMBRIDGE BAY A","2400601","2021-05-23 04:00","2021","05","23","04:00","-10.9","","-13.4","","82","","","","6","","20","","9.7","","101.37","","","","-19","","Fog"
"-105.14","69.11","CAMBRIDGE BAY A","2400601","2021-05-23 05:00","2021","05","23","05:00","-11.1","","-13.6","","82","","","","6","","20","","19.3","","101.39","","","","-19","","Mostly Cloudy"
"-105.14","69.11","CAMBRIDGE BAY A","2400601","2021-05-23 06:00","2021","05","23","06:00","-10.1","","-12.8","","81","","","","6","","20","","24.1","","101.40","","","","-18","","NA"
"-105.14","69.11","CAMBRIDGE BAY A","2400601","2021-05-23 07:00","2021","05","23","07:00","-9.4","","-12.2","","80","","","","6","","22","","24.1","","101.42","","","","-17","","NA"
"-105.14","69.11","CAMBRIDGE BAY A","2400601","2021-05-23 08:00","2021","05","23","08:00","-8.8","","-12.0","","78","","","","6","","23","","19.3","","101.42","","","","-17","","Cloudy"
"-105.14","69.11","CAMBRIDGE BAY A","2400601","2021-05-23 09:00","2021","05","23","09:00","-8.4","","-11.5","","78","","","","4","","23","","11.3","","101.43","","","","-16","","Snow"
"-105.14","69.11","CAMBRIDGE BAY A","2400601","2021-05-23 10:00","2021","05","23","10:00","-8.4","","-11.6","","78","","","","5","","24","","8.1","","101.44","","","","-17","","Snow"
"-105.14","69.11","CAMBRIDGE BAY A","2400601","2021-05-23 11:00","2021","05","23","11:00","-8.2","","-11.3","","78","","","","4","","26","","6.4","","101.46","","","","-17","","Snow"
"-105.14","69.11","CAMBRIDGE BAY A","2400601","2021-05-23 12:00","2021","05","23","12:00","-7.8","","-11.5","","75","","","","3","","23","","11.3","","101.50","","","","-16","","Snow"
"-105.14","69.11","CAMBRIDGE BAY A","2400601","2021-05-23 13:00","2021","05","23","13:00","-7.6","","-11.3","","75","","","","3","","22","","11.3","","101.53","","","","-15","","Snow"
"-105.14","69.11","CAMBRIDGE BAY A","2400601","2021-05-23 14:00","2021","05","23","14:00","-7.7","","-11.0","","77","","","","3","","24","","11.3","","101.58","","","","-16","","Snow"
"-105.14","69.11","CAMBRIDGE BAY A","2400601","2021-05-23 15:00","2021","05","23","15:00","-7.6","","-11.3","","75","","","","3","","22","","8.1","","101.62","","","","-15","","Snow"
"-105.14","69.11","CAMBRIDGE BAY A","2400601","2021-05-23 16:00","2021","05","23","16:00","-7.7","","-11.4","","75","","","","3","","19","","8.1","","101.66","","","","-15","","Snow"
"-105.14","69.11","CAMBRIDGE BAY A","2400601","2021-05-23 17:00","2021","05","23","17:00","-7.8","","-11.6","","74","","","","4","","21","","8.1","","101.70","","","","-15","","Snow"
"-105.14","69.11","CAMBRIDGE BAY A","2400601","2021-05-23 18:00","2021","05","23","18:00","-8.0","","-11.8","","75","","","","3","","18","","8.1","","101.77","","","","-15","","Snow"
"-105.14","69.11","CAMBRIDGE BAY A","2400601","2021-05-23 19:00","2021","05","23","19:00","-8.2","","-11.8","","76","","","","3","","18","","8.1","","101.82","","","","-15","","Snow"
"-105.14","69.11","CAMBRIDGE BAY A","2400601","2021-05-23 20:00","2021","05","23","20:00","-8.3","","-11.4","","79","","","","2","","17","","11.3","","101.85","","","","-15","","Snow"
"-105.14","69.11","CAMBRIDGE BAY A","2400601","2021-05-23 21:00","2021","05","23","21:00"
"-105.14","69.11","CAMBRIDGE BAY A","2400601","2021-05-23 22:00","2021","05","23","22:00"
"-105.14","69.11","CAMBRIDGE BAY A","2400601","2021-05-23 23:00","2021","05","23","23:00"
"-105.14","69.11","CAMBRIDGE BAY A","2400601","2021-05-24 00:00","2021","05","24","00:00"
"-105.14","69.11","CAMBRIDGE BAY A","2400601","2021-05-24 01:00","2021","05","24","01:00"
"-105.14","69.11","CAMBRIDGE BAY A","2400601","2021-05-24 02:00","2021","05","24","02:00"
"-105.14","69.11","CAMBRIDGE BAY A","2400601","2021-05-24 03:00","2021","05","24","03:00"
"-105.14","69.11","CAMBRIDGE BAY A","2400601","2021-05-24 04:00","2021","05","24","04:00"
"-105.14","69.11","CAMBRIDGE BAY A","2400601","2021-05-24 05:00","2021","05","24","05:00","-8.8","","-11.3","","82","","","","34","","21","","19.3","","102.19","","","","-17","","Snow"
"-105.14","69.11","CAMBRIDGE BAY A","2400601","2021-05-24 06:00","2021","05","24","06:00","-8.9","","-11.5","","82","","","","32","","26","","16.1","","102.22","","","","-18","","Snow"
"-105.14","69.11","CAMBRIDGE BAY A","2400601","2021-05-24 07:00","2021","05","24","07:00","-8.6","","-11.6","","79","","","","32","","20","","19.3","","102.23","","","","-16","","Snow"
"-105.14","69.11","CAMBRIDGE BAY A","2400601","2021-05-24 08:00","2021","05","24","08:00","-8.3","","-11.4","","78","","","","32","","15","","20.9","","102.23","","","","-15","","Snow"
"-105.14","69.11","CAMBRIDGE BAY A","2400601","2021-05-24 09:00","2021","05","24","09:00","-7.9","","-10.9","","79","","","","32","","14","","22.5","","102.24","","","","-14","","Snow"
"-105.14","69.11","CAMBRIDGE BAY A","2400601","2021-05-24 10:00","2021","05","24","10:00","-7.2","","-10.2","","79","","","","31","","15","","24.1","","102.23","","","","-13","","NA"
"-105.14","69.11","CAMBRIDGE BAY A","2400601","2021-05-24 11:00","2021","05","24","11:00","-7.2","","-10.2","","79","","","","30","","20","","24.1","","102.23","","","","-14","","Mostly Cloudy"
"-105.14","69.11","CAMBRIDGE BAY A","2400601","2021-05-24 12:00","2021","05","24","12:00","-6.7","","-9.8","","79","","","","33","","22","","24.1","","102.21","","","","-14","","NA"
"-105.14","69.11","CAMBRIDGE BAY A","2400601","2021-05-24 13:00","2021","05","24","13:00","-6.8","","-9.8","","79","","","","33","","17","","24.1","","102.21","","","","-13","","NA"
"-105.14","69.11","CAMBRIDGE BAY A","2400601","2021-05-24 14:00","2021","05","24","14:00","-6.6","","-9.9","","78","","","","33","","17","","24.1","","102.20","","","","-13","","Cloudy"
"-105.14","69.11","CAMBRIDGE BAY A","2400601","2021-05-24 15:00","2021","05","24","15:00","-6.9","","-10.4","","77","","","","36","","13","","24.1","","102.23","","","","-12","","NA"
"-105.14","69.11","CAMBRIDGE BAY A","2400601","2021-05-24 16:00","2021","05","24","16:00","-7.0","","-10.3","","78","","","","1","","18","","24.1","","102.22","","","","-14","","NA"
"-105.14","69.11","CAMBRIDGE BAY A","2400601","2021-05-24 17:00","2021","05","24","17:00","-6.9","","-9.9","","79","","","","36","","8","","24.1","","102.24","","","","-11","","Cloudy"
"-105.14","69.11","CAMBRIDGE BAY A","2400601","2021-05-24 18:00","2021","05","24","18:00","-7.9","","-10.6","","81","","","","2","","17","","24.1","","102.26","","","","-15","","NA"
"-105.14","69.11","CAMBRIDGE BAY A","2400601","2021-05-24 19:00","2021","05","24","19:00","-8.0","","-10.4","","83","","","","1","","12","","24.1","","102.27","","","","-13","","NA"
"-105.14","69.11","CAMBRIDGE BAY A","2400601","2021-05-24 20:00","2021","05","24","20:00","-8.5","","-10.7","","84","","","","2","","18","","24.1","","102.27","","","","-16","","Cloudy"
"-105.14","69.11","CAMBRIDGE BAY A","2400601","2021-05-24 21:00","2021","05","24","21:00","-8.9","","-10.9","","85","","","","1","","8","","24.1","","102.27","","","","-13","","NA"
"-105.14","69.11","CAMBRIDGE BAY A","2400601","2021-05-24 22:00","2021","05","24","22:00","-8.8","","-10.7","","87","","","","1","","8","","24.1","","102.26","","","","-13","","NA"
"-105.14","69.11","CAMBRIDGE BAY A","2400601","2021-05-24 23:00","2021","05","24","23:00","-9.3","","-11.1","","87","","","","34","","8","","24.1","","102.26","","","","-14","","Cloudy"
"-105.14","69.11","CAMBRIDGE BAY A","2400601","2021-05-25 00:00","2021","05","25","00:00","-9.3","","-11.1","","87","","","","32","","13","","24.1","","102.23","","","","-15","","NA"
"-105.14","69.11","CAMBRIDGE BAY A","2400601","2021-05-25 01:00","2021","05","25","01:00","-9.7","","-11.2","","88","","","","32","","11","","24.1","","102.22","","","","-15","","NA"
"-105.14","69.11","CAMBRIDGE BAY A","2400601","2021-05-25 02:00","2021","05","25","02:00","-9.6","","-11.1","","89","","","","33","","10","","24.1","","102.20","","","","-15","","Cloudy"
"-105.14","69.11","CAMBRIDGE BAY A","2400601","2021-05-25 03:00","2021","05","25","03:00","-9.8","","-11.5","","88","","","","33","","18","","1.2","","102.19","","","","-17","","Fog"
"-105.14","69.11","CAMBRIDGE BAY A","2400601","2021-05-25 04:00","2021","05","25","04:00","-10.0","","-11.7","","87","","","","30","","17","","16.1","","102.15","","","","-17","","NA"
"-105.14","69.11","CAMBRIDGE BAY A","2400601","2021-05-25 05:00","2021","05","25","05:00","-10.2","","-12.0","","87","","","","31","","25","","3.2","","102.07","","","","-19","","Fog,Blowing Snow"
"-105.14","69.11","CAMBRIDGE BAY A","2400601","2021-05-25 06:00","2021","05","25","06:00","-10.1","","-11.9","","87","","","","30","","21","","19.3","","102.04","","","","-18","","NA"
"-105.14","69.11","CAMBRIDGE BAY A","2400601","2021-05-25 07:00","2021","05","25","07:00","-10.9","","-12.8","","86","","","","31","","27","","24.1","","102.01","","","","-20","","NA"
"-105.14","69.11","CAMBRIDGE BAY A","2400601","2021-05-25 08:00","2021","05","25","08:00","-9.1","","-10.8","","87","","","","31","","25","","9.7","","101.98","","","","-18","","Snow,Blowing Snow"
"-105.14","69.11","CAMBRIDGE BAY A","2400601","2021-05-25 09:00","2021","05","25","09:00","-7.8","","-10.0","","84","","","","30","","26","","17.7","","101.96","","","","-16","","Blowing Snow"
"-105.14","69.11","CAMBRIDGE BAY A","2400601","2021-05-25 10:00","2021","05","25","10:00","-6.8","","-9.8","","80","","","","30","","26","","20.9","","101.92","","","","-15","","Blowing Snow"
"-105.14","69.11","CAMBRIDGE BAY A","2400601","2021-05-25 11:00","2021","05","25","11:00","-5.5","","-8.7","","78","","","","30","","20","","24.1","","101.89","","","","-12","","Mainly Clear"
"-105.14","69.11","CAMBRIDGE BAY A","2400601","2021-05-25 12:00","2021","05","25","12:00","-3.7","","-7.4","","75","","","","31","","22","","24.1","","101.86","","","","-10","","NA"
"-105.14","69.11","CAMBRIDGE BAY A","2400601","2021-05-25 13:00","2021","05","25","13:00","-3.2","","-6.5","","78","","","","30","","29","","24.1","","101.85","","","","-11","","NA"
"-105.14","69.11","CAMBRIDGE BAY A","2400601","2021-05-25 14:00","2021","05","25","14:00","-2.6","","-6.3","","76","","","","29","","23","","24.1","","101.85","","","","-9","","Mainly Clear"
"-105.14","69.11","CAMBRIDGE BAY A","2400601","2021-05-25 15:00","2021","05","25","15:00","-1.7","","-5.7","","74","","","","26","","16","","24.1","","101.83","","","","-7","","NA"
"-105.14","69.11","CAMBRIDGE BAY A","2400601","2021-05-25 16:00","2021","05","25","16:00","-2.4","","-6.0","","76","","","","26","","16","","24.1","","101.81","","","","-8","","NA"
"-105.14","69.11","CAMBRIDGE BAY A","2400601","2021-05-25 17:00","2021","05","25","17:00","-2.3","","-5.4","","80","","","","26","","18","","24.1","","101.79","","","","-8","","Mostly Cloudy"
"-105.14","69.11","CAMBRIDGE BAY A","2400601","2021-05-25 18:00","2021","05","25","18:00","-2.3","","-5.2","","81","","","","27","","18","","24.1","","101.79","","","","-8","","NA"
"-105.14","69.11","CAMBRIDGE BAY A","2400601","2021-05-25 19:00","2021","05","25","19:00","-2.6","","-5.1","","83","","","","29","","28","","24.1","","101.74","","","","-10","","NA"
"-105.14","69.11","CAMBRIDGE BAY A","2400601","2021-05-25 20:00","2021","05","25","20:00","-3.8","","-6.2","","83","","","","31","","27","","24.1","","101.72","","","","-11","","Mainly Clear"
"-105.14","69.11","CAMBRIDGE BAY A","2400601","2021-05-25 21:00","2021","05","25","21:00","-5.2","","-7.6","","84","","","","29","","20","","24.1","","101.70","","","","-12","","NA"
"-105.14","69.11","CAMBRIDGE BAY A","2400601","2021-05-25 22:00","2021","05","25","22:00","-5.9","","-8.1","","84","","","","29","","21","","24.1","","101.70","","","","-13","","NA"
"-105.14","69.11","CAMBRIDGE BAY A","2400601","2021-05-25 23:00","2021","05","25","23:00","-7.6","","-9.6","","86","","","","27","","16","","24.1","","101.73","","","","-14","","Mainly Clear"
"-105.14","69.11","CAMBRIDGE BAY A","2400601","2021-05-26 00:00","2021","05","26","00:00","-9.1","","-11.0","","87","","","","27","","19","","24.1","","101.72","","","","-17","","NA"
"-105.14","69.11","CAMBRIDGE BAY A","2400601","2021-05-26 01:00","2021","05","26","01:00","-9.1","","-10.8","","87","","","","28","","21","","24.1","","101.69","","","","-17","","NA"
"-105.14","69.11","CAMBRIDGE BAY A","2400601","2021-05-26 02:00","2021","05","26","02:00","-9.2","","-11.5","","83","","","","28","","10","","24.1","","101.71","","","","-14","","Mostly Cloudy"
"-105.14","69.11","CAMBRIDGE BAY A","2400601","2021-05-26 03:00","2021","05","26","03:00","-9.4","","-11.6","","84","","","","26","","8","","24.1","","101.73","","","","-14","","NA"
"-105.14","69.11","CAMBRIDGE BAY A","2400601","2021-05-26 04:00","2021","05","26","04:00","-9.3","","-11.9","","82","","","","23","","5","","24.1","","101.75","","","","-12","","NA"
"-105.14","69.11","CAMBRIDGE BAY A","2400601","2021-05-26 05:00","2021","05","26","05:00","-10.2","","-12.8","","81","","","","34","","4","","24.1","","101.76","","","","-13","","Mostly Cloudy"
"-105.14","69.11","CAMBRIDGE BAY A","2400601","2021-05-26 06:00","2021","05","26","06:00","-8.8","","-11.7","","80","","","","30","","10","","24.1","","101.74","","","","-14","","NA"
"-105.14","69.11","CAMBRIDGE BAY A","2400601","2021-05-26 07:00","2021","05","26","07:00","-9.1","","-11.9","","80","","","","23","","4","","24.1","","101.72","","","","-11","","NA"
"-105.14","69.11","CAMBRIDGE BAY A","2400601","2021-05-26 08:00","2021","05","26","08:00","-7.7","","-10.8","","78","","","","35","","8","","24.1","","101.72","","","","-12","","Mostly Cloudy"
"-105.14","69.11","CAMBRIDGE BAY A","2400601","2021-05-26 09:00","2021","05","26","09:00","-7.5","","-10.7","","78","","","","8","","6","","24.1","","101.73","","","","-11","","NA"
"-105.14","69.11","CAMBRIDGE BAY A","2400601","2021-05-26 10:00","2021","05","26","10:00","-8.0","","-10.7","","81","","","","3","","7","","24.1","","101.71","","","","-12","","NA"
"-105.14","69.11","CAMBRIDGE BAY A","2400601","2021-05-26 11:00","2021","05","26","11:00","-7.3","","-9.9","","82","","","","4","","4","","24.1","","101.70","","","","-9","","Mostly Cloudy"
"-105.14","69.11","CAMBRIDGE BAY A","2400601","2021-05-26 12:00","2021","05","26","12:00","-6.1","","-9.3","","78","","","","11","","4","","24.1","","101.69","","","","-8","","NA"
"-105.14","69.11","CAMBRIDGE BAY A","2400601","2021-05-26 13:00","2021","05","26","13:00","-5.7","","-9.2","","77","","","","13","","7","","24.1","","101.68","","","","-9","","NA"
"-105.14","69.11","CAMBRIDGE BAY A","2400601","2021-05-26 14:00","2021","05","26","14:00","-5.1","","-8.9","","75","","","","12","","4","","24.1","","101.69","","","","-7","","Mostly Cloudy"
"-105.14","69.11","CAMBRIDGE BAY A","2400601","2021-05-26 15:00","2021","05","26","15:00","-4.5","","-8.5","","74","","","","12","","4","","24.1","","101.69","","","","-6","","NA"
"-105.14","69.11","CAMBRIDGE BAY A","2400601","2021-05-26 16:00","2021","05","26","16:00","-4.3","","-8.1","","75","","","","12","","4","","24.1","","101.67","","","","-6","","NA"
"-105.14","69.11","CAMBRIDGE BAY A","2400601","2021-05-26 17:00","2021","05","26","17:00","-4.1","","-7.8","","75","","","","10","","5","","24.1","","101.66","","","","-6","","Mainly Clear"
"-105.14","69.11","CAMBRIDGE BAY A","2400601","2021-05-26 18:00","2021","05","26","18:00","-4.4","","-7.1","","82","","","","13","","11","","24.1","","101.61","","","","-9","","NA"
"-105.14","69.11","CAMBRIDGE BAY A","2400601","2021-05-26 19:00","2021","05","26","19:00","-5.4","","-7.7","","84","","","","12","","14","","24.1","","101.56","","","","-11","","NA"
"-105.14","69.11","CAMBRIDGE BAY A","2400601","2021-05-26 20:00","2021","05","26","20:00","-7.1","","-9.0","","86","","","","8","","11","","24.1","","101.57","","","","-12","","Mainly Clear"
"-105.14","69.11","CAMBRIDGE BAY A","2400601","2021-05-26 21:00","2021","05","26","21:00","-8.3","","-10.1","","87","","","","10","","20","","24.1","","101.55","","","","-16","","NA"
"-105.14","69.11","CAMBRIDGE BAY A","2400601","2021-05-26 22:00","2021","05","26","22:00","-9.8","","-11.4","","88","","","","10","","22","","24.1","","101.56","","","","-18","","NA"
"-105.14","69.11","CAMBRIDGE BAY A","2400601","2021-05-26 23:00","2021","05","26","23:00","-10.7","","-12.4","","87","","","","9","","18","","1.6","","101.52","","","","-18","","Fog"
"-105.14","69.11","CAMBRIDGE BAY A","2400601","2021-05-27 00:00","2021","05","27","00:00","-10.5","","-12.3","","87","","","","9","","19","","1.6","","101.50","","","","-18","","Fog"
"-105.14","69.11","CAMBRIDGE BAY A","2400601","2021-05-27 01:00","2021","05","27","01:00","-10.8","","-12.7","","86","","","","9","","22","","1.6","","101.47","","","","-19","","Fog"
"-105.14","69.11","CAMBRIDGE BAY A","2400601","2021-05-27 02:00","2021","05","27","02:00","-10.7","","-12.5","","87","","","","9","","22","","1.6","","101.42","","","","-19","","Fog"
"-105.14","69.11","CAMBRIDGE BAY A","2400601","2021-05-27 03:00","2021","05","27","03:00","-10.1","","-11.9","","87","","","","9","","22","","1.6","","101.38","","","","-18","","Fog"
"-105.14","69.11","CAMBRIDGE BAY A","2400601","2021-05-27 04:00","2021","05","27","04:00","-9.6","","-11.4","","87","","","","9","","25","","4.0","","101.34","","","","-18","","Fog"
"-105.14","69.11","CAMBRIDGE BAY A","2400601","2021-05-27 05:00","2021","05","27","05:00","-8.9","","-10.6","","88","","","","10","","27","","3.2","","101.29","","","","-18","","Fog"
"-105.14","69.11","CAMBRIDGE BAY A","2400601","2021-05-27 06:00","2021","05","27","06:00","-8.4","","-10.0","","88","","","","10","","30","","1.6","","101.24","","","","-17","","Fog"
"-105.14","69.11","CAMBRIDGE BAY A","2400601","2021-05-27 07:00","2021","05","27","07:00","-7.8","","-9.4","","89","","","","11","","23","","1.6","","101.21","","","","-16","","Fog"
"-105.14","69.11","CAMBRIDGE BAY A","2400601","2021-05-27 08:00","2021","05","27","08:00","-7.2","","-8.7","","89","","","","10","","25","","2.4","","101.14","","","","-15","","Fog"
"-105.14","69.11","CAMBRIDGE BAY A","2400601","2021-05-27 09:00","2021","05","27","09:00","-7.0","","-8.4","","90","","","","10","","27","","4.0","","101.10","","","","-15","","Fog"
"-105.14","69.11","CAMBRIDGE BAY A","2400601","2021-05-27 10:00","2021","05","27","10:00","-6.3","","-7.7","","90","","","","11","","31","","4.0","","101.05","","","","-15","","Fog"
"-105.14","69.11","CAMBRIDGE BAY A","2400601","2021-05-27 11:00","2021","05","27","11:00","-5.2","","-7.1","","87","","","","11","","30","","4.0","","101.02","","","","-13","","Fog"
"-105.14","69.11","CAMBRIDGE BAY A","2400601","2021-05-27 12:00","2021","05","27","12:00","-4.9","","-7.0","","86","","","","9","","26","","14.5","","100.97","","","","-12","","NA"
"-105.14","69.11","CAMBRIDGE BAY A","2400601","2021-05-27 13:00","2021","05","27","13:00","-3.7","","-6.0","","84","","","","11","","27","","20.9","","100.94","","","","-11","","NA"
"-105.14","69.11","CAMBRIDGE BAY A","2400601","2021-05-27 14:00","2021","05","27","14:00","-3.1","","-5.5","","84","","","","10","","18","","19.3","","100.90","","","","-9","","Mostly Cloudy"
"-105.14","69.11","CAMBRIDGE BAY A","2400601","2021-05-27 15:00","2021","05","27","15:00","-2.6","","-5.0","","83","","","","9","","17","","22.5","","100.85","","","","-8","","NA"
"-105.14","69.11","CAMBRIDGE BAY A","2400601","2021-05-27 16:00","2021","05","27","16:00","-2.1","","-4.5","","83","","","","9","","20","","24.1","","100.82","","","","-8","","NA"
"-105.14","69.11","CAMBRIDGE BAY A","2400601","2021-05-27 17:00","2021","05","27","17:00","-2.2","","-4.4","","85","","","","8","","21","","24.1","","100.76","","","","-8","","Mostly Cloudy"
"-105.14","69.11","CAMBRIDGE BAY A","2400601","2021-05-27 18:00","2021","05","27","18:00","-1.9","","-4.0","","86","","","","10","","26","","24.1","","100.71","","","","-8","","NA"
"-105.14","69.11","CAMBRIDGE BAY A","2400601","2021-05-27 19:00","2021","05","27","19:00","-1.8","","-3.9","","85","","","","11","","32","","24.1","","100.68","","","","-9","","NA"
"-105.14","69.11","CAMBRIDGE BAY A","2400601","2021-05-27 20:00","2021","05","27","20:00","-2.4","","-4.5","","85","","","","10","","31","","24.1","","100.68","","","","-10","","Mostly Cloudy"
"-105.14","69.11","CAMBRIDGE BAY A","2400601","2021-05-27 21:00","2021","05","27","21:00","-3.1","","-4.8","","88","","","","9","","28","","24.1","","100.66","","","","-10","","NA"
"-105.14","69.11","CAMBRIDGE BAY A","2400601","2021-05-27 22:00","2021","05","27","22:00","-3.6","","-5.2","","89","","","","8","","28","","24.1","","100.62","","","","-11","","NA"
"-105.14","69.11","CAMBRIDGE BAY A","2400601","2021-05-27 23:00","2021","05","27","23:00","-3.8","","-5.4","","89","","","","7","","23","","24.1","","100.61","","","","-11","","Mostly Cloudy"
"-105.14","69.11","CAMBRIDGE BAY A","2400601","2021-05-28 00:00","2021","05","28","00:00","-4.4","","-6.0","","88","","","","7","","26","","24.1","","100.59","","","","-12","","NA"
"-105.14","69.11","CAMBRIDGE BAY A","2400601","2021-05-28 01:00","2021","05","28","01:00","-4.3","","-6.1","","88","","","","6","","20","","24.1","","100.59","","","","-11","","NA"
"-105.14","69.11","CAMBRIDGE BAY A","2400601","2021-05-28 02:00","2021","05","28","02:00","-4.2","","-6.0","","87","","","","8","","25","","24.1","","100.58","","","","-11","","Mostly Cloudy"
"-105.14","69.11","CAMBRIDGE BAY A","2400601","2021-05-28 03:00","2021","05","28","03:00","-4.5","","-6.2","","88","","","","6","","32","","24.1","","100.57","","","","-13","","NA"
"-105.14","69.11","CAMBRIDGE BAY A","2400601","2021-05-28 04:00","2021","05","28","04:00","-4.2","","-5.9","","88","","","","5","","29","","2.4","","100.56","","","","-12","","Snow,Blowing Snow"
"-105.14","69.11","CAMBRIDGE BAY A","2400601","2021-05-28 05:00","2021","05","28","05:00","-4.3","","-5.9","","89","","","","5","","30","","2.4","","100.57","","","","-12","","Snow,Blowing Snow"
"-105.14","69.11","CAMBRIDGE BAY A","2400601","2021-05-28 06:00","2021","05","28","06:00","-4.7","","-6.1","","89","","","","5","","37","","2.4","","100.55","","","","-13","","Snow,Blowing Snow"
"-105.14","69.11","CAMBRIDGE BAY A","2400601","2021-05-28 07:00","2021","05","28","07:00","-4.4","","-5.9","","89","","","","4","","41","","0.8","","100.54","","","","-13","","Snow,Blowing Snow"
"-105.14","69.11","CAMBRIDGE BAY A","2400601","2021-05-28 08:00","2021","05","28","08:00","-4.3","","-5.8","","89","","","","4","","42","","1.2","","100.55","","","","-13","","Snow,Blowing Snow"
"-105.14","69.11","CAMBRIDGE BAY A","2400601","2021-05-28 09:00","2021","05","28","09:00","-3.9","","-5.5","","89","","","","4","","41","","1.2","","100.58","","","","-13","","Snow,Blowing Snow"
"-105.14","69.11","CAMBRIDGE BAY A","2400601","2021-05-28 10:00","2021","05","28","10:00","-3.3","","-5.0","","88","","","","5","","39","","1.2","","100.62","","","","-12","","Snow,Blowing Snow"
"-105.14","69.11","CAMBRIDGE BAY A","2400601","2021-05-28 11:00","2021","05","28","11:00","-2.7","","-4.6","","87","","","","5","","38","","4.8","","100.67","","","","-11","","Snow,Blowing Snow"
"-105.14","69.11","CAMBRIDGE BAY A","2400601","2021-05-28 12:00","2021","05","28","12:00","-2.1","","-4.2","","86","","","","5","","40","","4.8","","100.73","","","","-10","","Snow,Blowing Snow"
"-105.14","69.11","CAMBRIDGE BAY A","2400601","2021-05-28 13:00","2021","05","28","13:00","-1.6","","-3.8","","85","","","","5","","37","","6.4","","100.78","","","","-9","","Snow,Blowing Snow"
"-105.14","69.11","CAMBRIDGE BAY A","2400601","2021-05-28 14:00","2021","05","28","14:00","-2.0","","-4.1","","86","","","","5","","36","","9.7","","100.82","","","","-10","","Snow,Blowing Snow"
"-105.14","69.11","CAMBRIDGE BAY A","2400601","2021-05-28 15:00","2021","05","28","15:00","-2.4","","-4.3","","87","","","","5","","36","","9.7","","100.86","","","","-10","","Snow,Blowing Snow"
"-105.14","69.11","CAMBRIDGE BAY A","2400601","2021-05-28 16:00","2021","05","28","16:00","-2.7","","-4.7","","87","","","","5","","35","","9.7","","100.90","","","","-11","","Snow,Blowing Snow"
"-105.14","69.11","CAMBRIDGE BAY A","2400601","2021-05-28 17:00","2021","05","28","17:00","-2.8","","-4.7","","87","","","","5","","35","","12.9","","100.92","","","","-11","","Snow,Blowing Snow"
"-105.14","69.11","CAMBRIDGE BAY A","2400601","2021-05-28 18:00","2021","05","28","18:00","-3.2","","-5.1","","87","","","","5","","30","","16.1","","100.97","","","","-11","","Snow,Blowing Snow"
"-105.14","69.11","CAMBRIDGE BAY A","2400601","2021-05-28 19:00","2021","05","28","19:00","-4.1","","-5.9","","87","","","","6","","31","","19.3","","101.03","","","","-12","","Snow"
"-105.14","69.11","CAMBRIDGE BAY A","2400601","2021-05-28 20:00","2021","05","28","20:00","-4.8","","-6.6","","87","","","","4","","21","","19.3","","101.08","","","","-11","","Snow"
"-105.14","69.11","CAMBRIDGE BAY A","2400601","2021-05-28 21:00","2021","05","28","21:00","-5.2","","-6.9","","88","","","","3","","24","","24.1","","101.11","","","","-12","","NA"
"-105.14","69.11","CAMBRIDGE BAY A","2400601","2021-05-28 22:00","2021","05","28","22:00","-5.9","","-7.5","","89","","","","1","","13","","24.1","","101.14","","","","-11","","NA"
"-105.14","69.11","CAMBRIDGE BAY A","2400601","2021-05-28 23:00","2021","05","28","23:00","-8.3","","-9.8","","89","","","","2","","16","","0.8","","101.11","","","","-15","","Freezing Fog"
"-105.14","69.11","CAMBRIDGE BAY A","2400601","2021-05-29 00:00","2021","05","29","00:00","-7.8","","-9.2","","89","","","","1","","10","","0.8","","101.18","","","","-13","","Freezing Fog"
"-105.14","69.11","CAMBRIDGE BAY A","2400601","2021-05-29 01:00","2021","05","29","01:00","-8.6","","-10.2","","89","","","","1","","13","","4.8","","101.17","","","","-15","","Fog"
"-105.14","69.11","CAMBRIDGE BAY A","2400601","2021-05-29 02:00","2021","05","29","02:00","-9.4","","-11.0","","88","","","","36","","13","","0.8","","101.17","","","","-15","","Freezing Fog"
"-105.14","69.11","CAMBRIDGE BAY A","2400601","2021-05-29 03:00","2021","05","29","03:00","-9.7","","-11.3","","88","","","","36","","12","","2.4","","101.17","","","","-16","","Fog"
"-105.14","69.11","CAMBRIDGE BAY A","2400601","2021-05-29 04:00","2021","05","29","04:00","-9.7","","-11.4","","88","","","","36","","14","","2.4","","101.19","","","","-16","","Fog"
"-105.14","69.11","CAMBRIDGE BAY A","2400601","2021-05-29 05:00","2021","05","29","05:00","-9.7","","-11.5","","87","","","","36","","14","","9.7","","101.20","","","","-16","","Fog"
"-105.14","69.11","CAMBRIDGE BAY A","2400601","2021-05-29 06:00","2021","05","29","06:00","-9.1","","-10.8","","88","","","","35","","7","","24.1","","101.21","","","","-13","","NA"
"-105.14","69.11","CAMBRIDGE BAY A","2400601","2021-05-29 07:00","2021","05","29","07:00","-8.7","","-10.3","","88","","","","36","","13","","24.1","","101.21","","","","-15","","NA"
"-105.14","69.11","CAMBRIDGE BAY A","2400601","2021-05-29 08:00","2021","05","29","08:00","-8.8","","-10.4","","88","","","","36","","10","","24.1","","101.17","","","","-14","","Mainly Clear"
"-105.14","69.11","CAMBRIDGE BAY A","2400601","2021-05-29 09:00","2021","05","29","09:00","-8.2","","-9.8","","88","","","","36","","14","","24.1","","101.17","","","","-14","","NA"
"-105.14","69.11","CAMBRIDGE BAY A","2400601","2021-05-29 10:00","2021","05","29","10:00","-7.6","","-9.1","","89","","","","2","","11","","24.1","","101.18","","","","-13","","NA"
"-105.14","69.11","CAMBRIDGE BAY A","2400601","2021-05-29 11:00","2021","05","29","11:00","-7.0","","-8.4","","89","","","","35","","7","","24.1","","101.18","","","","-11","","Mainly Clear"
"-105.14","69.11","CAMBRIDGE BAY A","2400601","2021-05-29 12:00","2021","05","29","12:00","-6.2","","-8.0","","87","","","","2","","9","","24.1","","101.14","","","","-10","","NA"
"-105.14","69.11","CAMBRIDGE BAY A","2400601","2021-05-29 13:00","2021","05","29","13:00","-5.3","","-7.9","","82","","","","1","","8","","24.1","","101.14","","","","-9","","NA"
"-105.14","69.11","CAMBRIDGE BAY A","2400601","2021-05-29 14:00","2021","05","29","14:00","-5.2","","-7.8","","82","","","","2","","13","","24.1","","101.13","","","","-10","","Mostly Cloudy"
"-105.14","69.11","CAMBRIDGE BAY A","2400601","2021-05-29 15:00","2021","05","29","15:00","-4.9","","-7.6","","82","","","","3","","9","","24.1","","101.12","","","","-9","","NA"
"-105.14","69.11","CAMBRIDGE BAY A","2400601","2021-05-29 16:00","2021","05","29","16:00","-4.6","","-7.3","","81","","","","4","","7","","24.1","","101.10","","","","-8","","NA"
"-105.14","69.11","CAMBRIDGE BAY A","2400601","2021-05-29 17:00","2021","05","29","17:00","-4.8","","-6.9","","85","","","","3","","7","","24.1","","101.07","","","","-8","","Mostly Cloudy"
"-105.14","69.11","CAMBRIDGE BAY A","2400601","2021-05-29 18:00","2021","05","29","18:00","-5.2","","-7.5","","84","","","","8","","6","","24.1","","101.05","","","","-8","","NA"
"-105.14","69.11","CAMBRIDGE BAY A","2400601","2021-05-29 19:00","2021","05","29","19:00","-5.4","","-7.7","","84","","","","9","","7","","24.1","","101.02","","","","-9","","NA"
"-105.14","69.11","CAMBRIDGE BAY A","2400601","2021-05-29 20:00","2021","05","29","20:00","-5.8","","-7.8","","86","","","","13","","9","","24.1","","100.98","","","","-10","","Mostly Cloudy"
"-105.14","69.11","CAMBRIDGE BAY A","2400601","2021-05-29 21:00","2021","05","29","21:00","-6.0","","-7.8","","87","","","","11","","6","","24.1","","100.96","","","","-9","","NA"
"-105.14","69.11","CAMBRIDGE BAY A","2400601","2021-05-29 22:00","2021","05","29","22:00","-6.0","","-7.9","","87","","","","12","","6","","24.1","","100.91","","","","-9","","NA"
"-105.14","69.11","CAMBRIDGE BAY A","2400601","2021-05-29 23:00","2021","05","29","23:00","-6.1","","-7.9","","88","","","","36","","3","","24.1","","100.91","","","","-8","","Mostly Cloudy"
"-105.14","69.11","CAMBRIDGE BAY A","2400601","2021-05-30 00:00","2021","05","30","00:00","-6.3","","-7.9","","88","","","","36","","3","","24.1","","100.89","","","","-8","","Snow"
"-105.14","69.11","CAMBRIDGE BAY A","2400601","2021-05-30 01:00","2021","05","30","01:00","-6.5","","-8.1","","88","","","","5","","4","","24.1","","100.88","","","","-8","","NA"
"-105.14","69.11","CAMBRIDGE BAY A","2400601","2021-05-30 02:00","2021","05","30","02:00","-6.5","","-8.1","","88","","","","2","","3","","24.1","","100.87","","","","-8","","Mostly Cloudy"
"-105.14","69.11","CAMBRIDGE BAY A","2400601","2021-05-30 03:00","2021","05","30","03:00","-6.5","","-8.2","","88","","","","32","","3","","24.1","","100.88","","","","-8","","NA"
"-105.14","69.11","CAMBRIDGE BAY A","2400601","2021-05-30 04:00","2021","05","30","04:00","-6.4","","-8.0","","89","","","","31","","4","","24.1","","100.87","","","","-8","","NA"
"-105.14","69.11","CAMBRIDGE BAY A","2400601","2021-05-30 05:00","2021","05","30","05:00","-5.7","","-7.3","","89","","","","27","","9","","24.1","","100.86","","","","-10","","Mostly Cloudy"
"-105.14","69.11","CAMBRIDGE BAY A","2400601","2021-05-30 06:00","2021","05","30","06:00","-5.5","","-7.2","","88","","","","30","","7","","24.1","","100.85","","","","-9","","NA"
"-105.14","69.11","CAMBRIDGE BAY A","2400601","2021-05-30 07:00","2021","05","30","07:00","-4.5","","-6.4","","86","","","","29","","11","","24.1","","100.86","","","","-9","","NA"
"-105.14","69.11","CAMBRIDGE BAY A","2400601","2021-05-30 08:00","2021","05","30","08:00","-4.1","","-6.3","","85","","","","31","","17","","24.1","","100.87","","","","-10","","Mostly Cloudy"
"-105.14","69.11","CAMBRIDGE BAY A","2400601","2021-05-30 09:00","2021","05","30","09:00","-3.2","","-5.6","","83","","","","31","","14","","24.1","","100.87","","","","-8","","NA"
"-105.14","69.11","CAMBRIDGE BAY A","2400601","2021-05-30 10:00","2021","05","30","10:00","-2.8","","-5.1","","84","","","","30","","17","","24.1","","100.89","","","","-8","","NA"
"-105.14","69.11","CAMBRIDGE BAY A","2400601","2021-05-30 11:00","2021","05","30","11:00","-2.1","","-4.7","","83","","","","27","","21","","24.1","","100.89","","","","-8","","Mostly Cloudy"
"-105.14","69.11","CAMBRIDGE BAY A","2400601","2021-05-30 12:00","2021","05","30","12:00","-1.7","","-4.0","","85","","","","27","","24","","24.1","","100.89","","","","-8","","NA"
"-105.14","69.11","CAMBRIDGE BAY A","2400601","2021-05-30 13:00","2021","05","30","13:00","-1.2","","-3.6","","84","","","","26","","24","","24.1","","100.91","","","","-7","","NA"
"-105.14","69.11","CAMBRIDGE BAY A","2400601","2021-05-30 14:00","2021","05","30","14:00","-0.5","","-2.6","","85","","","","27","","19","","24.1","","100.92","","","","-6","","Mostly Cloudy"
"-105.14","69.11","CAMBRIDGE BAY A","2400601","2021-05-30 15:00","2021","05","30","15:00","0.0","","-1.9","","87","","","","28","","19","","24.1","","100.93","","","","-5","","NA"
"-105.14","69.11","CAMBRIDGE BAY A","2400601","2021-05-30 16:00","2021","05","30","16:00","-0.2","","-2.5","","84","","","","30","","29","","24.1","","100.95","","","","-7","","NA"
"-105.14","69.11","CAMBRIDGE BAY A","2400601","2021-05-30 17:00","2021","05","30","17:00","-0.4","","-2.7","","84","","","","30","","24","","24.1","","100.97","","","","-6","","Cloudy"
"-105.14","69.11","CAMBRIDGE BAY A","2400601","2021-05-30 18:00","2021","05","30","18:00","-1.0","","-3.0","","86","","","","30","","23","","19.3","","100.99","","","","-7","","Snow"
"-105.14","69.11","CAMBRIDGE BAY A","2400601","2021-05-30 19:00","2021","05","30","19:00","-1.3","","-3.2","","87","","","","29","","22","","24.1","","101.00","","","","-7","","NA"
"-105.14","69.11","CAMBRIDGE BAY A","2400601","2021-05-30 20:00","2021","05","30","20:00","-1.4","","-3.6","","85","","","","29","","18","","19.3","","101.02","","","","-7","","Snow Showers"
"-105.14","69.11","CAMBRIDGE BAY A","2400601","2021-05-30 21:00","2021","05","30","21:00","-1.5","","-3.3","","88","","","","29","","25","","19.3","","101.04","","","","-8","","Snow Showers"
"-105.14","69.11","CAMBRIDGE BAY A","2400601","2021-05-30 22:00","2021","05","30","22:00","-1.8","","-3.8","","86","","","","29","","18","","24.1","","101.05","","","","-7","","NA"
"-105.14","69.11","CAMBRIDGE BAY A","2400601","2021-05-30 23:00","2021","05","30","23:00","-1.9","","-3.7","","88","","","","28","","21","","24.1","","101.07","","","","-8","","Cloudy"
"-105.14","69.11","CAMBRIDGE BAY A","2400601","2021-05-31 00:00","2021","05","31","00:00","-1.9","","-4.5","","83","","","","29","","21","","24.1","","101.08","","","","-8","","NA"
"-105.14","69.11","CAMBRIDGE BAY A","2400601","2021-05-31 01:00","2021","05","31","01:00","-2.6","","-5.4","","81","","","","31","","16","","24.1","","101.09","","","","-8","","NA"
"-105.14","69.11","CAMBRIDGE BAY A","2400601","2021-05-31 02:00","2021","05","31","02:00","-2.6","","-5.2","","83","","","","30","","18","","24.1","","101.12","","","","-8","","Cloudy"
"-105.14","69.11","CAMBRIDGE BAY A","2400601","2021-05-31 03:00","2021","05","31","03:00","-2.5","","-5.1","","83","","","","29","","17","","24.1","","101.14","","","","-8","","NA"
"-105.14","69.11","CAMBRIDGE BAY A","2400601","2021-05-31 04:00","2021","05","31","04:00","-2.8","","-4.8","","86","","","","27","","14","","24.1","","101.15","","","","-8","","NA"
"-105.14","69.11","CAMBRIDGE BAY A","2400601","2021-05-31 05:00","2021","05","31","05:00","-2.8","","-4.3","","89","","","","27","","12","","24.1","","101.16","","","","-7","","Cloudy"
"-105.14","69.11","CAMBRIDGE BAY A","2400601","2021-05-31 06:00","2021","05","31","06:00","-2.4","","-4.1","","88","","","","27","","13","","24.1","","101.15","","","","-7","","NA"
"-105.14","69.11","CAMBRIDGE BAY A","2400601","2021-05-31 07:00","2021","05","31","07:00","-2.0","","-3.9","","87","","","","26","","9","","24.1","","101.13","","","","-5","","NA"
"-105.14","69.11","CAMBRIDGE BAY A","2400601","2021-05-31 08:00","2021","05","31","08:00","-1.4","","-3.8","","84","","","","23","","14","","24.1","","101.12","","","","-6","","Cloudy"
"-105.14","69.11","CAMBRIDGE BAY A","2400601","2021-05-31 09:00","2021","05","31","09:00","-1.0","","-3.4","","84","","","","22","","12","","24.1","","101.10","","","","-5","","NA"
"-105.14","69.11","CAMBRIDGE BAY A","2400601","2021-05-31 10:00","2021","05","31","10:00","-0.3","","-2.7","","84","","","","20","","13","","24.1","","101.07","","","","-4","","NA"
"-105.14","69.11","CAMBRIDGE BAY A","2400601","2021-05-31 11:00","2021","05","31","11:00","0.1","","-2.8","","81","","","","18","","17","","24.1","","101.02","","","","","","Mostly Cloudy"
"-105.14","69.11","CAMBRIDGE BAY A","2400601","2021-05-31 12:00","2021","05","31","12:00","0.2","","-2.5","","82","","","","17","","19","","24.1","","101.00","","","","","","NA"
"-105.14","69.11","CAMBRIDGE BAY A","2400601","2021-05-31 13:00","2021","05","31","13:00","0.4","","-2.0","","84","","","","18","","22","","24.1","","101.00","","","","","","NA"
"-105.14","69.11","CAMBRIDGE BAY A","2400601","2021-05-31 14:00","2021","05","31","14:00","0.8","","-1.5","","85","","","","17","","20","","24.1","","100.96","","","","","","Mostly Cloudy"
"-105.14","69.11","CAMBRIDGE BAY A","2400601","2021-05-31 15:00","2021","05","31","15:00","1.1","","-1.6","","82","","","","18","","21","","24.1","","100.92","","","","","","NA"
"-105.14","69.11","CAMBRIDGE BAY A","2400601","2021-05-31 16:00","2021","05","31","16:00","1.2","","-1.4","","82","","","","19","","21","","24.1","","100.87","","","","","","NA"
"-105.14","69.11","CAMBRIDGE BAY A","2400601","2021-05-31 17:00","2021","05","31","17:00","0.9","","-1.5","","84","","","","17","","25","","24.1","","100.84","","","","","","Mainly Clear"
"-105.14","69.11","CAMBRIDGE BAY A","2400601","2021-05-31 18:00","2021","05","31","18:00","0.8","","-1.3","","86","","","","17","","20","","24.1","","100.76","","","","","","NA"
"-105.14","69.11","CAMBRIDGE BAY A","2400601","2021-05-31 19:00","2021","05","31","19:00","0.5","","-1.4","","87","","","","16","","21","","24.1","","100.72","","","","","","NA"
"-105.14","69.11","CAMBRIDGE BAY A","2400601","2021-05-31 20:00","2021","05","31","20:00","0.0","","-1.8","","87","","","","16","","21","","24.1","","100.65","","","","-5","","Mainly Clear"
"-105.14","69.11","CAMBRIDGE BAY A","2400601","2021-05-31 21:00","2021","05","31","21:00","-0.6","","-2.3","","88","","","","16","","21","","24.1","","100.60","","","","-6","","NA"
"-105.14","69.11","CAMBRIDGE BAY A","2400601","2021-05-31 22:00","2021","05","31","22:00","-1.6","","-3.0","","90","","","","16","","21","","24.1","","100.53","","","","-7","","NA"
"-105.14","69.11","CAMBRIDGE BAY A","2400601","2021-05-31 23:00","2021","05","31","23:00","-2.4","","-3.7","","91","","","","16","","22","","24.1","","100.48","","","","-9","","Mostly Cloudy"
