"Longitude (x)","Latitude (y)","Station Name","Climate ID","Date/Time (LST)","Year","Month","Day","Time (LST)","Temp (°C)","Temp Flag","Dew Point Temp (°C)","Dew Point Temp Flag","Rel Hum (%)","Rel Hum Flag","Precip. Amount (mm)","Precip. Amount Flag","Wind Dir (10s deg)","Wind Dir Flag","Wind Spd (km/h)","Wind Spd Flag","Visibility (km)","Visibility Flag","Stn Press (kPa)","Stn Press Flag","Hmdx","Hmdx Flag","Wind Chill","Wind Chill Flag","Weather"
"-94.97","74.72","RESOLUTE BAY A","2403498","2018-12-01 00:00","2018","12","01","00:00","-21.9","","-25.2","","75","","","","5","","45","","9.7","","100.49","","","","-37","","Blowing Snow"
"-94.97","74.72","RESOLUTE BAY A","2403498","2018-12-01 01:00","2018","12","01","01:00","-24.0","","-27.4","","74","","","","3","","45","","8.1","","100.53","","","","-40","","Blowing Snow"
"-94.97","74.72","RESOLUTE BAY A","2403498","2018-12-01 02:00","2018","12","01","02:00","-21.6","","-25.0","","74","","","","2","","18","","24.1","","100.63","","","","-32","","NA"
"-94.97","74.72","RESOLUTE BAY A","2403498","2018-12-01 03:00","2018","12","01","03:00","-23.9","","-26.8","","77","","","","29","","18","","24.1","","100.69","","","","-35","","Ice Crystals"
"-94.97","74.72","RESOLUTE BAY A","2403498","2018-12-01 04:00","2018","12","01","04:00","-21.6","","-24.6","","77","","","","36","","8","","16.1","","100.72","","","","-28","","Ice Crystals"
"-94.97","74.72","RESOLUTE BAY A","2403498","2018-12-01 05:00","2018","12","01","05:00","-25.8","","-28.4","","79","","","","35","","5","","8.1","","100.72","","","","-31","","Ice Crystals"
"-94.97","74.72","RESOLUTE BAY A","2403498","2018-12-01 06:00","2018","12","01","06:00","-24.6","","-28.1","","73","","","","36","","13","","24.1","","100.77","","","","-34","","Ice Crystals"
"-94.97","74.72","RESOLUTE BAY A","2403498","2018-12-01 07:00","2018","12","01","07:00","-24.7","","-29.1","","67","","","","26","","8","","24.1","","100.76","","","","-32","","Ice Crystals"
"-94.97","74.72","RESOLUTE BAY A","2403498","2018-12-01 08:00","2018","12","01","08:00","-27.1","","-31.2","","69","","","","2","","18","","24.1","","100.77","","","","-39","","Ice Crystals"
"-94.97","74.72","RESOLUTE BAY A","2403498","2018-12-01 09:00","2018","12","01","09:00","-29.2","","-32.9","","71","","","","25","","9","","16.1","","100.78","","","","-38","","Ice Crystals"
"-94.97","74.72","RESOLUTE BAY A","2403498","2018-12-01 10:00","2018","12","01","10:00","-29.5","","-33.2","","71","","","","26","","8","","24.1","","100.82","","","","-37","","Ice Crystals"
"-94.97","74.72","RESOLUTE BAY A","2403498","2018-12-01 11:00","2018","12","01","11:00","-31.7","","-35.4","","70","","","","31","","20","","24.1","","100.84","","","","-45","","Ice Crystals"
"-94.97","74.72","RESOLUTE BAY A","2403498","2018-12-01 12:00","2018","12","01","12:00","-29.6","","-33.4","","70","","","","1","","16","","24.1","","100.84","","","","-41","","Ice Crystals"
"-94.97","74.72","RESOLUTE BAY A","2403498","2018-12-01 13:00","2018","12","01","13:00","-32.9","","-36.9","","68","","","","33","","20","","24.1","","100.87","","","","-47","","Ice Crystals"
"-94.97","74.72","RESOLUTE BAY A","2403498","2018-12-01 14:00","2018","12","01","14:00","-33.3","","-37.4","","67","","","","34","","20","","24.1","","100.93","","","","-47","","Ice Crystals"
"-94.97","74.72","RESOLUTE BAY A","2403498","2018-12-01 15:00","2018","12","01","15:00","-31.4","","-35.4","","68","","","","33","","16","","24.1","","100.93","","","","-44","","Ice Crystals"
"-94.97","74.72","RESOLUTE BAY A","2403498","2018-12-01 16:00","2018","12","01","16:00","-32.8","","-36.6","","69","","","","31","","19","","24.1","","100.98","","","","-46","","Ice Crystals"
"-94.97","74.72","RESOLUTE BAY A","2403498","2018-12-01 17:00","2018","12","01","17:00","-33.9","","-38.0","","67","","","","33","","21","","24.1","","100.99","","","","-48","","Ice Crystals"
"-94.97","74.72","RESOLUTE BAY A","2403498","2018-12-01 18:00","2018","12","01","18:00","-33.8","","-37.9","","68","","","","32","","19","","24.1","","100.99","","","","-48","","Ice Crystals"
"-94.97","74.72","RESOLUTE BAY A","2403498","2018-12-01 19:00","2018","12","01","19:00","-33.7","","-37.8","","67","","","","31","","16","","24.1","","101.03","","","","-46","","Ice Crystals"
"-94.97","74.72","RESOLUTE BAY A","2403498","2018-12-01 20:00","2018","12","01","20:00","-34.3","","-38.3","","68","","","","31","","8","","24.1","","101.02","","","","-43","","Ice Crystals"
"-94.97","74.72","RESOLUTE BAY A","2403498","2018-12-01 21:00","2018","12","01","21:00","-34.7","","-38.6","","68","","","","32","","13","","24.1","","101.02","","","","-46","","Ice Crystals"
"-94.97","74.72","RESOLUTE BAY A","2403498","2018-12-01 22:00","2018","12","01","22:00","-34.9","","-38.9","","68","","","","32","","15","","24.1","","101.02","","","","-47","","Ice Crystals"
"-94.97","74.72","RESOLUTE BAY A","2403498","2018-12-01 23:00","2018","12","01","23:00","-35.3","","-39.1","","69","","","","36","","16","","24.1","","101.01","","","","-48","","Ice Crystals"
"-94.97","74.72","RESOLUTE BAY A","2403498","2018-12-02 00:00","2018","12","02","00:00","-35.0","","-38.8","","69","","","","34","","22","","24.1","","101.01","","","","-50","","Ice Crystals"
"-94.97","74.72","RESOLUTE BAY A","2403498","2018-12-02 01:00","2018","12","02","01:00","-34.4","","-38.6","","67","","","","34","","17","","24.1","","101.03","","","","-48","","Ice Crystals"
"-94.97","74.72","RESOLUTE BAY A","2403498","2018-12-02 02:00","2018","12","02","02:00","-33.9","","-38.0","","68","","","","34","","22","","24.1","","101.05","","","","-49","","Ice Crystals"
"-94.97","74.72","RESOLUTE BAY A","2403498","2018-12-02 03:00","2018","12","02","03:00","-32.9","","-37.0","","68","","","","34","","33","","24.1","","101.02","","","","-50","","Ice Crystals"
"-94.97","74.72","RESOLUTE BAY A","2403498","2018-12-02 04:00","2018","12","02","04:00","-33.1","","-37.3","","67","","","","34","","26","","24.1","","101.05","","","","-49","","Ice Crystals"
"-94.97","74.72","RESOLUTE BAY A","2403498","2018-12-02 05:00","2018","12","02","05:00","-33.8","","-37.7","","69","","","","32","","9","","24.1","","101.02","","","","-43","","Ice Crystals"
"-94.97","74.72","RESOLUTE BAY A","2403498","2018-12-02 06:00","2018","12","02","06:00","-34.0","","-37.8","","70","","","","33","","23","","24.1","","100.99","","","","-49","","Ice Crystals"
"-94.97","74.72","RESOLUTE BAY A","2403498","2018-12-02 07:00","2018","12","02","07:00","-34.5","","-38.4","","68","","","","33","","24","","24.1","","100.98","","","","-50","","Ice Crystals"
"-94.97","74.72","RESOLUTE BAY A","2403498","2018-12-02 08:00","2018","12","02","08:00","-34.0","","-38.1","","68","","","","34","","22","","24.1","","100.96","","","","-49","","Ice Crystals"
"-94.97","74.72","RESOLUTE BAY A","2403498","2018-12-02 09:00","2018","12","02","09:00","-33.2","","-37.0","","70","","","","34","","25","","24.1","","100.95","","","","-49","","Ice Crystals"
"-94.97","74.72","RESOLUTE BAY A","2403498","2018-12-02 10:00","2018","12","02","10:00","-34.8","","-38.5","","70","","","","34","","19","","24.1","","100.92","","","","-49","","Ice Crystals"
"-94.97","74.72","RESOLUTE BAY A","2403498","2018-12-02 11:00","2018","12","02","11:00","-34.1","","-37.7","","71","","","","35","","24","","24.1","","100.89","","","","-49","","Ice Crystals"
"-94.97","74.72","RESOLUTE BAY A","2403498","2018-12-02 12:00","2018","12","02","12:00","-33.9","","-37.6","","70","","","","34","","21","","24.1","","100.86","","","","-48","","Ice Crystals"
"-94.97","74.72","RESOLUTE BAY A","2403498","2018-12-02 13:00","2018","12","02","13:00","-33.6","","-37.4","","70","","","","34","","19","","24.1","","100.85","","","","-47","","Ice Crystals"
"-94.97","74.72","RESOLUTE BAY A","2403498","2018-12-02 14:00","2018","12","02","14:00","-34.8","","-38.6","","69","","","","34","","13","","24.1","","100.84","","","","-46","","Ice Crystals"
"-94.97","74.72","RESOLUTE BAY A","2403498","2018-12-02 15:00","2018","12","02","15:00","-35.3","","-39.3","","67","","","","34","","13","","24.1","","100.84","","","","-47","","Ice Crystals"
"-94.97","74.72","RESOLUTE BAY A","2403498","2018-12-02 16:00","2018","12","02","16:00","-35.5","","-39.5","","67","","","","33","","17","","24.1","","100.83","","","","-49","","Ice Crystals"
"-94.97","74.72","RESOLUTE BAY A","2403498","2018-12-02 17:00","2018","12","02","17:00","-35.5","","-39.5","","68","","","","32","","15","","24.1","","100.81","","","","-48","","Ice Crystals"
"-94.97","74.72","RESOLUTE BAY A","2403498","2018-12-02 18:00","2018","12","02","18:00","-35.8","","-39.9","","67","","","","33","","21","","24.1","","100.79","","","","-51","","Ice Crystals"
"-94.97","74.72","RESOLUTE BAY A","2403498","2018-12-02 19:00","2018","12","02","19:00"
"-94.97","74.72","RESOLUTE BAY A","2403498","2018-12-02 20:00","2018","12","02","20:00"
"-94.97","74.72","RESOLUTE BAY A","2403498","2018-12-02 21:00","2018","12","02","21:00"
"-94.97","74.72","RESOLUTE BAY A","2403498","2018-12-02 22:00","2018","12","02","22:00"
"-94.97","74.72","RESOLUTE BAY A","2403498","2018-12-02 23:00","2018","12","02","23:00"
"-94.97","74.72","RESOLUTE BAY A","2403498","2018-12-03 00:00","2018","12","03","00:00"
"-94.97","74.72","RESOLUTE BAY A","2403498","2018-12-03 01:00","2018","12","03","01:00"
"-94.97","74.72","RESOLUTE BAY A","2403498","2018-12-03 02:00","2018","12","03","02:00"
"-94.97","74.72","RESOLUTE BAY A","2403498","2018-12-03 03:00","2018","12","03","03:00"
"-94.97","74.72","RESOLUTE BAY A","2403498","2018-12-03 04:00","2018","12","03","04:00"
"-94.97","74.72","RESOLUTE BAY A","2403498","2018-12-03 05:00","2018","12","03","05:00"
"-94.97","74.72","RESOLUTE BAY A","2403498","2018-12-03 06:00","2018","12","03","06:00"
"-94.97","74.72","RESOLUTE BAY A","2403498","2018-12-03 07:00","2018","12","03","07:00"
"-94.97","74.72","RESOLUTE BAY A","2403498","2018-12-03 08:00","2018","12","03","08:00"
"-94.97","74.72","RESOLUTE BAY A","2403498","2018-12-03 09:00","2018","12","03","09:00"
"-94.97","74.72","RESOLUTE BAY A","2403498","2018-12-03 10:00","2018","12","03","10:00","-36.3","","-40.3","","67","","","","31","","19","","24.1","","100.68","","","","-51","","NA"
"-94.97","74.72","RESOLUTE BAY A","2403498","2018-12-03 11:00","2018","12","03","11:00","-36.5","","-40.6","","67","","","","32","","24","","24.1","","100.70","","","","-53","","NA"
"-94.97","74.72","RESOLUTE BAY A","2403498","2018-12-03 12:00","2018","12","03","12:00","-36.5","","-40.7","","66","","","","33","","29","","24.1","","100.67","","","","-54","","Clear"
"-94.97","74.72","RESOLUTE BAY A","2403498","2018-12-03 13:00","2018","12","03","13:00","-34.1","","-38.4","","66","","","","32","","17","","24.1","","100.65","","","","-47","","NA"
"-94.97","74.72","RESOLUTE BAY A","2403498","2018-12-03 14:00","2018","12","03","14:00","-34.2","","-38.4","","66","","","","32","","12","","24.1","","100.67","","","","-45","","NA"
"-94.97","74.72","RESOLUTE BAY A","2403498","2018-12-03 15:00","2018","12","03","15:00","-34.9","","-38.9","","68","","","","34","","13","","24.1","","100.71","","","","-47","","Clear"
"-94.97","74.72","RESOLUTE BAY A","2403498","2018-12-03 16:00","2018","12","03","16:00","-36.5","","-40.5","","68","","","","28","","15","","24.1","","100.72","","","","-49","","NA"
"-94.97","74.72","RESOLUTE BAY A","2403498","2018-12-03 17:00","2018","12","03","17:00","-36.4","","-40.4","","68","","","","31","","12","","24.1","","100.73","","","","-48","","NA"
"-94.97","74.72","RESOLUTE BAY A","2403498","2018-12-03 18:00","2018","12","03","18:00","-36.6","","-40.7","","67","","","","31","","13","","24.1","","100.74","","","","-49","","Ice Crystals"
"-94.97","74.72","RESOLUTE BAY A","2403498","2018-12-03 19:00","2018","12","03","19:00","-35.4","","-39.6","","66","","","","30","","31","","24.1","","100.70","","","","-53","","Ice Crystals"
"-94.97","74.72","RESOLUTE BAY A","2403498","2018-12-03 20:00","2018","12","03","20:00","-34.1","","-38.3","","67","","","","27","","25","","24.1","","100.71","","","","-50","","Ice Crystals"
"-94.97","74.72","RESOLUTE BAY A","2403498","2018-12-03 21:00","2018","12","03","21:00","-33.0","","-37.7","","63","","","","3","","21","","24.1","","100.70","","","","-47","","Ice Crystals"
"-94.97","74.72","RESOLUTE BAY A","2403498","2018-12-03 22:00","2018","12","03","22:00","-33.8","","-38.3","","65","","","","1","","25","","24.1","","100.71","","","","-49","","Ice Crystals"
"-94.97","74.72","RESOLUTE BAY A","2403498","2018-12-03 23:00","2018","12","03","23:00","-33.3","","-37.9","","64","","","","34","","26","","24.1","","100.66","","","","-49","","Ice Crystals"
"-94.97","74.72","RESOLUTE BAY A","2403498","2018-12-04 00:00","2018","12","04","00:00","-33.5","","-37.7","","67","","","","3","","34","","24.1","","100.65","","","","-51","","Ice Crystals"
"-94.97","74.72","RESOLUTE BAY A","2403498","2018-12-04 01:00","2018","12","04","01:00","-32.7","","-37.1","","66","","","","27","","10","","24.1","","100.68","","","","-42","","Ice Crystals"
"-94.97","74.72","RESOLUTE BAY A","2403498","2018-12-04 02:00","2018","12","04","02:00","-30.7","","-35.1","","66","","","","3","","36","","24.1","","100.68","","","","-48","","Ice Crystals"
"-94.97","74.72","RESOLUTE BAY A","2403498","2018-12-04 03:00","2018","12","04","03:00","-31.9","","-36.4","","65","","","","26","","7","","16.1","","100.70","","","","-39","","Ice Crystals,Blowing Snow"
"-94.97","74.72","RESOLUTE BAY A","2403498","2018-12-04 04:00","2018","12","04","04:00","-29.6","","-34.2","","65","","","","29","","6","","24.1","","100.72","","","","-36","","Ice Crystals"
"-94.97","74.72","RESOLUTE BAY A","2403498","2018-12-04 05:00","2018","12","04","05:00","-32.6","","-36.7","","68","","","","35","","21","","24.1","","100.73","","","","-47","","Ice Crystals"
"-94.97","74.72","RESOLUTE BAY A","2403498","2018-12-04 06:00","2018","12","04","06:00","-33.3","","-37.6","","66","","","","3","","36","","24.1","","100.73","","","","-51","","Ice Crystals"
"-94.97","74.72","RESOLUTE BAY A","2403498","2018-12-04 07:00","2018","12","04","07:00","-34.6","","-38.7","","67","","","","35","","25","","24.1","","100.72","","","","-50","","Ice Crystals"
"-94.97","74.72","RESOLUTE BAY A","2403498","2018-12-04 08:00","2018","12","04","08:00","-34.4","","-38.3","","69","","","","32","","27","","24.1","","100.70","","","","-51","","Ice Crystals"
"-94.97","74.72","RESOLUTE BAY A","2403498","2018-12-04 09:00","2018","12","04","09:00","-34.3","","-38.3","","68","","","","34","","21","","24.1","","100.70","","","","-49","","Ice Crystals"
"-94.97","74.72","RESOLUTE BAY A","2403498","2018-12-04 10:00","2018","12","04","10:00","-32.2","","-36.2","","68","","","","1","","27","","24.1","","100.69","","","","-48","","Ice Crystals"
"-94.97","74.72","RESOLUTE BAY A","2403498","2018-12-04 11:00","2018","12","04","11:00","-34.9","","-39.0","","67","","","","33","","31","","24.1","","100.68","","","","-52","","Ice Crystals"
"-94.97","74.72","RESOLUTE BAY A","2403498","2018-12-04 12:00","2018","12","04","12:00","-35.1","","-39.4","","66","","","","35","","24","","24.1","","100.69","","","","-51","","Ice Crystals"
"-94.97","74.72","RESOLUTE BAY A","2403498","2018-12-04 13:00","2018","12","04","13:00","-35.8","","-40.2","","65","","","","34","","25","","24.1","","100.62","","","","-52","","Ice Crystals"
"-94.97","74.72","RESOLUTE BAY A","2403498","2018-12-04 14:00","2018","12","04","14:00","-34.9","","-39.1","","67","","","","33","","25","","24.1","","100.64","","","","-51","","Ice Crystals"
"-94.97","74.72","RESOLUTE BAY A","2403498","2018-12-04 15:00","2018","12","04","15:00","-34.5","","-38.8","","66","","","","32","","21","","24.1","","100.63","","","","-49","","Ice Crystals"
"-94.97","74.72","RESOLUTE BAY A","2403498","2018-12-04 16:00","2018","12","04","16:00","-33.8","","-38.0","","66","","","","35","","18","","24.1","","100.60","","","","-47","","Ice Crystals"
"-94.97","74.72","RESOLUTE BAY A","2403498","2018-12-04 17:00","2018","12","04","17:00","-33.7","","-37.9","","67","","","","34","","23","","24.1","","100.59","","","","-49","","Ice Crystals,Blowing Snow"
"-94.97","74.72","RESOLUTE BAY A","2403498","2018-12-04 18:00","2018","12","04","18:00","-33.7","","-37.7","","69","","","","35","","18","","24.1","","100.56","","","","-47","","Ice Crystals,Blowing Snow"
"-94.97","74.72","RESOLUTE BAY A","2403498","2018-12-04 19:00","2018","12","04","19:00","-32.8","","-36.6","","70","","","","31","","22","","24.1","","100.58","","","","-47","","Ice Crystals"
"-94.97","74.72","RESOLUTE BAY A","2403498","2018-12-04 20:00","2018","12","04","20:00","-33.1","","-37.0","","69","","","","29","","22","","24.1","","100.53","","","","-48","","Ice Crystals"
"-94.97","74.72","RESOLUTE BAY A","2403498","2018-12-04 21:00","2018","12","04","21:00","-33.8","","-37.7","","69","","","","32","","23","","16.1","","100.51","","","","-49","","Ice Crystals"
"-94.97","74.72","RESOLUTE BAY A","2403498","2018-12-04 22:00","2018","12","04","22:00","-33.5","","-37.4","","69","","","","33","","10","","12.9","","100.49","","","","-43","","Ice Crystals"
"-94.97","74.72","RESOLUTE BAY A","2403498","2018-12-04 23:00","2018","12","04","23:00","-33.0","","-37.0","","68","","","","32","","36","","12.9","","100.45","","","","-51","","Ice Crystals"
"-94.97","74.72","RESOLUTE BAY A","2403498","2018-12-05 00:00","2018","12","05","00:00","-33.7","","-37.7","","68","","","","31","","20","","16.1","","100.39","","","","-48","","Ice Crystals"
"-94.97","74.72","RESOLUTE BAY A","2403498","2018-12-05 01:00","2018","12","05","01:00","-33.7","","-37.7","","68","","","","32","","18","","24.1","","100.38","","","","-47","","Ice Crystals"
"-94.97","74.72","RESOLUTE BAY A","2403498","2018-12-05 02:00","2018","12","05","02:00","-33.7","","-37.7","","68","","","","32","","16","","24.1","","100.37","","","","-46","","Ice Crystals"
"-94.97","74.72","RESOLUTE BAY A","2403498","2018-12-05 03:00","2018","12","05","03:00","-34.1","","-38.4","","67","","","","31","","11","","24.1","","100.39","","","","-45","","Ice Crystals"
"-94.97","74.72","RESOLUTE BAY A","2403498","2018-12-05 04:00","2018","12","05","04:00","-34.4","","-38.4","","68","","","","30","","20","","24.1","","100.36","","","","-49","","Ice Crystals"
"-94.97","74.72","RESOLUTE BAY A","2403498","2018-12-05 05:00","2018","12","05","05:00","-34.6","","-38.5","","68","","","","27","","12","","24.1","","100.35","","","","-46","","Ice Crystals"
"-94.97","74.72","RESOLUTE BAY A","2403498","2018-12-05 06:00","2018","12","05","06:00","-35.0","","-39.3","","66","","","","28","","4","","24.1","","100.31","","","","-40","","Ice Crystals"
"-94.97","74.72","RESOLUTE BAY A","2403498","2018-12-05 07:00","2018","12","05","07:00","-34.7","","-38.9","","67","","","","33","","25","","24.1","","100.21","","","","-51","","Ice Crystals"
"-94.97","74.72","RESOLUTE BAY A","2403498","2018-12-05 08:00","2018","12","05","08:00","-34.8","","-38.8","","68","","","","27","","14","","24.1","","100.20","","","","-47","","Ice Crystals"
"-94.97","74.72","RESOLUTE BAY A","2403498","2018-12-05 09:00","2018","12","05","09:00","-35.0","","-39.0","","68","","","","36","","2","","24.1","","100.15","","","","-38","","Ice Crystals"
"-94.97","74.72","RESOLUTE BAY A","2403498","2018-12-05 10:00","2018","12","05","10:00","-35.1","","-39.0","","68","","","","34","","15","","24.1","","100.15","","","","-48","","Ice Crystals"
"-94.97","74.72","RESOLUTE BAY A","2403498","2018-12-05 11:00","2018","12","05","11:00","-34.9","","-38.6","","69","","","","2","","5","","24.1","","100.08","","","","-41","","Ice Crystals"
"-94.97","74.72","RESOLUTE BAY A","2403498","2018-12-05 12:00","2018","12","05","12:00","-34.2","","-37.9","","70","","","","32","","14","","24.1","","100.05","","","","-46","","Ice Crystals"
"-94.97","74.72","RESOLUTE BAY A","2403498","2018-12-05 13:00","2018","12","05","13:00","-34.3","","-37.9","","71","","","","29","","21","","24.1","","100.00","","","","-49","","Ice Crystals"
"-94.97","74.72","RESOLUTE BAY A","2403498","2018-12-05 14:00","2018","12","05","14:00","-33.5","","-37.0","","71","","","","29","","23","","24.1","","99.97","","","","-48","","Ice Crystals"
"-94.97","74.72","RESOLUTE BAY A","2403498","2018-12-05 15:00","2018","12","05","15:00","-34.7","","-38.3","","71","","","","35","","11","","24.1","","99.96","","","","-45","","Ice Crystals"
"-94.97","74.72","RESOLUTE BAY A","2403498","2018-12-05 16:00","2018","12","05","16:00","-34.7","","-38.2","","71","","","","33","","16","","24.1","","99.95","","","","-48","","Ice Crystals"
"-94.97","74.72","RESOLUTE BAY A","2403498","2018-12-05 17:00","2018","12","05","17:00","-34.3","","-37.9","","71","","","","32","","18","","24.1","","99.91","","","","-48","","Ice Crystals"
"-94.97","74.72","RESOLUTE BAY A","2403498","2018-12-05 18:00","2018","12","05","18:00","-33.0","","-36.3","","73","","","","34","","23","","24.1","","99.84","","","","-48","","Ice Crystals"
"-94.97","74.72","RESOLUTE BAY A","2403498","2018-12-05 19:00","2018","12","05","19:00","-33.1","","-36.4","","73","","","","33","","30","","24.1","","99.79","","","","-50","","Ice Crystals"
"-94.97","74.72","RESOLUTE BAY A","2403498","2018-12-05 20:00","2018","12","05","20:00","-33.0","","-36.4","","73","","","","34","","22","","24.1","","99.74","","","","-47","","Ice Crystals"
"-94.97","74.72","RESOLUTE BAY A","2403498","2018-12-05 21:00","2018","12","05","21:00","-33.1","","-36.5","","73","","","","32","","16","","24.1","","99.70","","","","-46","","Ice Crystals"
"-94.97","74.72","RESOLUTE BAY A","2403498","2018-12-05 22:00","2018","12","05","22:00","-31.1","","-34.2","","74","","","","33","","20","","24.1","","99.66","","","","-44","","Ice Crystals"
"-94.97","74.72","RESOLUTE BAY A","2403498","2018-12-05 23:00","2018","12","05","23:00","-31.7","","-35.0","","73","","","","30","","17","","24.1","","99.62","","","","-44","","Ice Crystals"
"-94.97","74.72","RESOLUTE BAY A","2403498","2018-12-06 00:00","2018","12","06","00:00","-32.8","","-36.1","","73","","","","33","","17","","24.1","","99.60","","","","-46","","Ice Crystals"
"-94.97","74.72","RESOLUTE BAY A","2403498","2018-12-06 01:00","2018","12","06","01:00","-33.0","","-36.5","","72","","","","32","","19","","24.1","","99.54","","","","-47","","Ice Crystals"
"-94.97","74.72","RESOLUTE BAY A","2403498","2018-12-06 02:00","2018","12","06","02:00","-32.8","","-36.2","","72","","","","33","","23","","24.1","","99.51","","","","-48","","Ice Crystals"
"-94.97","74.72","RESOLUTE BAY A","2403498","2018-12-06 03:00","2018","12","06","03:00","-33.2","","-36.7","","71","","","","34","","15","","24.1","","99.50","","","","-45","","Ice Crystals"
"-94.97","74.72","RESOLUTE BAY A","2403498","2018-12-06 04:00","2018","12","06","04:00","-32.2","","-35.6","","73","","","","33","","21","","24.1","","99.49","","","","-46","","Ice Crystals"
"-94.97","74.72","RESOLUTE BAY A","2403498","2018-12-06 05:00","2018","12","06","05:00","-32.8","","-36.3","","72","","","","33","","20","","24.1","","99.46","","","","-47","","Ice Crystals"
"-94.97","74.72","RESOLUTE BAY A","2403498","2018-12-06 06:00","2018","12","06","06:00","-31.5","","-34.9","","73","","","","33","","19","","24.1","","99.40","","","","-45","","Ice Crystals"
"-94.97","74.72","RESOLUTE BAY A","2403498","2018-12-06 07:00","2018","12","06","07:00","-32.3","","-35.8","","72","","","","32","","16","","24.1","","99.38","","","","-45","","Ice Crystals"
"-94.97","74.72","RESOLUTE BAY A","2403498","2018-12-06 08:00","2018","12","06","08:00","-32.4","","-35.9","","72","","","","33","","21","","24.1","","99.39","","","","-46","","Ice Crystals"
"-94.97","74.72","RESOLUTE BAY A","2403498","2018-12-06 09:00","2018","12","06","09:00","-32.2","","-35.7","","72","","","","32","","15","","24.1","","99.38","","","","-44","","Ice Crystals"
"-94.97","74.72","RESOLUTE BAY A","2403498","2018-12-06 10:00","2018","12","06","10:00","-32.0","","-35.5","","72","","","","31","","19","","24.1","","99.37","","","","-45","","Ice Crystals"
"-94.97","74.72","RESOLUTE BAY A","2403498","2018-12-06 11:00","2018","12","06","11:00","-31.1","","-34.4","","73","","","","34","","26","","24.1","","99.32","","","","-46","","Ice Crystals"
"-94.97","74.72","RESOLUTE BAY A","2403498","2018-12-06 12:00","2018","12","06","12:00","-30.5","","-33.8","","74","","","","33","","24","","24.1","","99.33","","","","-45","","Ice Crystals"
"-94.97","74.72","RESOLUTE BAY A","2403498","2018-12-06 13:00","2018","12","06","13:00","-26.4","","-29.5","","76","","","","36","","29","","2.4","","99.30","","","","-41","","Ice Crystals,Blowing Snow"
"-94.97","74.72","RESOLUTE BAY A","2403498","2018-12-06 14:00","2018","12","06","14:00","-26.6","","-29.6","","76","","","","33","","23","","1.6","","99.30","","","","-40","","Ice Crystals"
"-94.97","74.72","RESOLUTE BAY A","2403498","2018-12-06 15:00","2018","12","06","15:00","-26.1","","-29.2","","76","","","","34","","13","","1.6","","99.31","","","","-36","","Ice Crystals"
"-94.97","74.72","RESOLUTE BAY A","2403498","2018-12-06 16:00","2018","12","06","16:00","-24.6","","-27.6","","77","","","","34","","19","","1.6","","99.32","","","","-36","","Ice Crystals"
"-94.97","74.72","RESOLUTE BAY A","2403498","2018-12-06 17:00","2018","12","06","17:00","-24.1","","-27.0","","77","","","","34","","13","","1.0","","99.31","","","","-33","","Ice Crystals"
"-94.97","74.72","RESOLUTE BAY A","2403498","2018-12-06 18:00","2018","12","06","18:00","-24.4","","-27.4","","77","","","","34","","12","","1.0","","99.31","","","","-33","","Ice Crystals"
"-94.97","74.72","RESOLUTE BAY A","2403498","2018-12-06 19:00","2018","12","06","19:00","-24.3","","-27.2","","77","","","","33","","14","","1.0","","99.28","","","","-34","","Ice Crystals"
"-94.97","74.72","RESOLUTE BAY A","2403498","2018-12-06 20:00","2018","12","06","20:00","-24.0","","-26.9","","77","","","","33","","10","","1.0","","99.27","","","","-32","","Ice Crystals"
"-94.97","74.72","RESOLUTE BAY A","2403498","2018-12-06 21:00","2018","12","06","21:00","-23.9","","-26.8","","77","","","","33","","14","","4.8","","99.24","","","","-34","","Ice Crystals"
"-94.97","74.72","RESOLUTE BAY A","2403498","2018-12-06 22:00","2018","12","06","22:00","-24.3","","-27.2","","77","","","","33","","15","","1.0","","99.20","","","","-34","","Ice Crystals,Fog"
"-94.97","74.72","RESOLUTE BAY A","2403498","2018-12-06 23:00","2018","12","06","23:00","-25.1","","-28.1","","77","","","","33","","13","","0.8","","99.21","","","","-35","","Ice Crystals,Freezing Fog"
"-94.97","74.72","RESOLUTE BAY A","2403498","2018-12-07 00:00","2018","12","07","00:00","-24.9","","-27.9","","77","","","","34","","13","","0.8","","99.16","","","","-34","","Ice Crystals,Freezing Fog"
"-94.97","74.72","RESOLUTE BAY A","2403498","2018-12-07 01:00","2018","12","07","01:00","-24.4","","-27.3","","77","","","","34","","13","","16.1","","99.14","","","","-34","","Ice Crystals"
"-94.97","74.72","RESOLUTE BAY A","2403498","2018-12-07 02:00","2018","12","07","02:00","-23.9","","-26.8","","78","","","","35","","14","","16.1","","99.16","","","","-34","","Ice Crystals"
"-94.97","74.72","RESOLUTE BAY A","2403498","2018-12-07 03:00","2018","12","07","03:00","-23.0","","-25.8","","78","","","","35","","13","","24.1","","99.15","","","","-32","","Ice Crystals"
"-94.97","74.72","RESOLUTE BAY A","2403498","2018-12-07 04:00","2018","12","07","04:00","-22.5","","-25.3","","79","","","","34","","9","","16.1","","99.14","","","","-30","","Snow"
"-94.97","74.72","RESOLUTE BAY A","2403498","2018-12-07 05:00","2018","12","07","05:00","-22.2","","-24.9","","79","","","","36","","3","","9.7","","99.12","","","","-25","","Snow"
"-94.97","74.72","RESOLUTE BAY A","2403498","2018-12-07 06:00","2018","12","07","06:00","-22.0","","-24.7","","79","","","","1","","4","","8.1","","99.08","","","","-26","","Snow"
"-94.97","74.72","RESOLUTE BAY A","2403498","2018-12-07 07:00","2018","12","07","07:00","-21.7","","-24.3","","80","","","","1","","4","","6.4","","99.06","","","","-25","","Snow"
"-94.97","74.72","RESOLUTE BAY A","2403498","2018-12-07 08:00","2018","12","07","08:00","-22.1","","-24.8","","79","","","","34","","6","","9.7","","99.03","","","","-27","","Snow"
"-94.97","74.72","RESOLUTE BAY A","2403498","2018-12-07 09:00","2018","12","07","09:00","-21.8","","-24.4","","80","","","","35","","6","","9.7","","99.03","","","","-27","","Snow"
"-94.97","74.72","RESOLUTE BAY A","2403498","2018-12-07 10:00","2018","12","07","10:00","-21.8","","-24.5","","79","","","","13","","7","","12.9","","99.04","","","","-28","","Snow"
"-94.97","74.72","RESOLUTE BAY A","2403498","2018-12-07 11:00","2018","12","07","11:00","-22.4","","-25.1","","79","","","","13","","13","","12.9","","99.03","","","","-31","","Snow"
"-94.97","74.72","RESOLUTE BAY A","2403498","2018-12-07 12:00","2018","12","07","12:00","-22.6","","-25.3","","79","","","","12","","13","","14.5","","99.02","","","","-32","","Snow"
"-94.97","74.72","RESOLUTE BAY A","2403498","2018-12-07 13:00","2018","12","07","13:00","-22.8","","-25.5","","79","","","","13","","14","","14.5","","99.03","","","","-32","","Snow"
"-94.97","74.72","RESOLUTE BAY A","2403498","2018-12-07 14:00","2018","12","07","14:00","-22.8","","-25.5","","79","","","","15","","14","","16.1","","99.04","","","","-32","","Snow"
"-94.97","74.72","RESOLUTE BAY A","2403498","2018-12-07 15:00","2018","12","07","15:00","-23.5","","-26.3","","78","","","","14","","17","","9.7","","99.06","","","","-34","","Snow"
"-94.97","74.72","RESOLUTE BAY A","2403498","2018-12-07 16:00","2018","12","07","16:00","-23.9","","-26.8","","78","","","","13","","18","","11.3","","99.11","","","","-35","","Snow"
"-94.97","74.72","RESOLUTE BAY A","2403498","2018-12-07 17:00","2018","12","07","17:00","-25.2","","-28.1","","77","","","","12","","24","","12.9","","99.15","","","","-38","","Snow"
"-94.97","74.72","RESOLUTE BAY A","2403498","2018-12-07 18:00","2018","12","07","18:00","-25.4","","-28.3","","77","","","","13","","24","","14.5","","99.17","","","","-38","","Snow"
"-94.97","74.72","RESOLUTE BAY A","2403498","2018-12-07 19:00","2018","12","07","19:00","-24.5","","-27.3","","78","","","","14","","30","","14.5","","99.20","","","","-38","","Snow"
"-94.97","74.72","RESOLUTE BAY A","2403498","2018-12-07 20:00","2018","12","07","20:00","-24.0","","-26.8","","78","","","","15","","29","","9.7","","99.24","","","","-38","","Snow,Blowing Snow"
"-94.97","74.72","RESOLUTE BAY A","2403498","2018-12-07 21:00","2018","12","07","21:00","-23.7","","-26.5","","78","","","","16","","26","","16.1","","99.27","","","","-37","","Snow"
"-94.97","74.72","RESOLUTE BAY A","2403498","2018-12-07 22:00","2018","12","07","22:00","-23.1","","-25.9","","78","","","","16","","21","","12.9","","99.34","","","","-35","","Snow"
"-94.97","74.72","RESOLUTE BAY A","2403498","2018-12-07 23:00","2018","12","07","23:00","-23.7","","-26.5","","78","","","","13","","16","","9.7","","99.38","","","","-34","","Snow"
"-94.97","74.72","RESOLUTE BAY A","2403498","2018-12-08 00:00","2018","12","08","00:00","-24.2","","-27.1","","78","","","","12","","22","","6.4","","99.43","","","","-36","","Snow"
"-94.97","74.72","RESOLUTE BAY A","2403498","2018-12-08 01:00","2018","12","08","01:00","-24.7","","-27.6","","77","","","","11","","22","","6.4","","99.48","","","","-37","","Snow"
"-94.97","74.72","RESOLUTE BAY A","2403498","2018-12-08 02:00","2018","12","08","02:00","-24.9","","-27.8","","77","","","","12","","21","","9.7","","99.55","","","","-37","","Snow"
"-94.97","74.72","RESOLUTE BAY A","2403498","2018-12-08 03:00","2018","12","08","03:00","-25.1","","-28.0","","77","","","","12","","21","","16.1","","99.61","","","","-37","","Ice Crystals"
"-94.97","74.72","RESOLUTE BAY A","2403498","2018-12-08 04:00","2018","12","08","04:00","-26.1","","-29.1","","76","","","","13","","21","","24.1","","99.68","","","","-38","","Ice Crystals"
"-94.97","74.72","RESOLUTE BAY A","2403498","2018-12-08 05:00","2018","12","08","05:00","-26.1","","-29.1","","76","","","","13","","18","","16.1","","99.73","","","","-38","","Ice Crystals"
"-94.97","74.72","RESOLUTE BAY A","2403498","2018-12-08 06:00","2018","12","08","06:00","-26.3","","-29.4","","76","","","","13","","22","","16.1","","99.78","","","","-39","","Ice Crystals"
"-94.97","74.72","RESOLUTE BAY A","2403498","2018-12-08 07:00","2018","12","08","07:00","-26.3","","-29.4","","76","","","","12","","21","","16.1","","99.80","","","","-39","","Ice Crystals"
"-94.97","74.72","RESOLUTE BAY A","2403498","2018-12-08 08:00","2018","12","08","08:00","-26.3","","-29.3","","76","","","","12","","27","","4.8","","99.83","","","","-40","","Ice Crystals"
"-94.97","74.72","RESOLUTE BAY A","2403498","2018-12-08 09:00","2018","12","08","09:00","-26.9","","-30.0","","75","","","","12","","32","","4.8","","99.86","","","","-42","","Fog"
"-94.97","74.72","RESOLUTE BAY A","2403498","2018-12-08 10:00","2018","12","08","10:00","-27.7","","-30.9","","75","","","","12","","26","","9.7","","99.94","","","","-42","","Snow"
"-94.97","74.72","RESOLUTE BAY A","2403498","2018-12-08 11:00","2018","12","08","11:00","-27.0","","-30.1","","75","","","","12","","29","","4.8","","99.98","","","","-41","","Fog"
"-94.97","74.72","RESOLUTE BAY A","2403498","2018-12-08 12:00","2018","12","08","12:00","-25.7","","-28.6","","77","","","","12","","29","","6.4","","100.01","","","","-40","","Snow,Blowing Snow"
"-94.97","74.72","RESOLUTE BAY A","2403498","2018-12-08 13:00","2018","12","08","13:00","-24.3","","-27.2","","78","","","","14","","33","","6.4","","100.07","","","","-39","","Snow,Blowing Snow"
"-94.97","74.72","RESOLUTE BAY A","2403498","2018-12-08 14:00","2018","12","08","14:00","-23.1","","-25.9","","78","","","","14","","35","","6.4","","100.10","","","","-37","","Snow,Blowing Snow"
"-94.97","74.72","RESOLUTE BAY A","2403498","2018-12-08 15:00","2018","12","08","15:00","-22.6","","-25.3","","79","","","","15","","36","","4.8","","100.15","","","","-37","","Blowing Snow"
"-94.97","74.72","RESOLUTE BAY A","2403498","2018-12-08 16:00","2018","12","08","16:00","-22.8","","-25.5","","79","","","","15","","36","","4.8","","100.17","","","","-37","","Blowing Snow"
"-94.97","74.72","RESOLUTE BAY A","2403498","2018-12-08 17:00","2018","12","08","17:00","-22.7","","-25.4","","79","","","","15","","34","","4.8","","100.23","","","","-37","","Blowing Snow"
"-94.97","74.72","RESOLUTE BAY A","2403498","2018-12-08 18:00","2018","12","08","18:00","-22.6","","-25.3","","79","","","","15","","35","","4.8","","100.24","","","","-37","","Blowing Snow"
"-94.97","74.72","RESOLUTE BAY A","2403498","2018-12-08 19:00","2018","12","08","19:00","-22.4","","-25.1","","79","","","","15","","33","","4.8","","100.27","","","","-36","","Blowing Snow"
"-94.97","74.72","RESOLUTE BAY A","2403498","2018-12-08 20:00","2018","12","08","20:00","-22.6","","-25.3","","79","","","","14","","36","","6.4","","100.24","","","","-37","","Snow,Blowing Snow"
"-94.97","74.72","RESOLUTE BAY A","2403498","2018-12-08 21:00","2018","12","08","21:00","-23.0","","-25.8","","79","","","","15","","40","","4.8","","100.24","","","","-38","","Snow,Blowing Snow"
"-94.97","74.72","RESOLUTE BAY A","2403498","2018-12-08 22:00","2018","12","08","22:00","-23.0","","-25.8","","78","","","","15","","43","","4.8","","100.18","","","","-39","","Snow,Blowing Snow"
"-94.97","74.72","RESOLUTE BAY A","2403498","2018-12-08 23:00","2018","12","08","23:00","-22.6","","-25.3","","79","","","","15","","45","","4.0","","100.20","","","","-38","","Snow,Blowing Snow"
"-94.97","74.72","RESOLUTE BAY A","2403498","2018-12-09 00:00","2018","12","09","00:00","-22.4","","-25.1","","79","","","","14","","43","","1.0","","100.18","","","","-38","","Snow,Blowing Snow"
"-94.97","74.72","RESOLUTE BAY A","2403498","2018-12-09 01:00","2018","12","09","01:00","-21.7","","-24.4","","80","","","","15","","39","","0.8","","100.15","","","","-36","","Snow,Blowing Snow"
"-94.97","74.72","RESOLUTE BAY A","2403498","2018-12-09 02:00","2018","12","09","02:00","-21.3","","-23.9","","80","","","","14","","50","","0.6","","100.10","","","","-37","","Snow,Blowing Snow"
"-94.97","74.72","RESOLUTE BAY A","2403498","2018-12-09 03:00","2018","12","09","03:00","-21.3","","-23.9","","80","","","","14","","42","","0.6","","100.09","","","","-36","","Snow,Blowing Snow"
"-94.97","74.72","RESOLUTE BAY A","2403498","2018-12-09 04:00","2018","12","09","04:00","-20.7","","-23.3","","80","","","","14","","52","","0.6","","100.01","","","","-37","","Snow,Blowing Snow"
"-94.97","74.72","RESOLUTE BAY A","2403498","2018-12-09 05:00","2018","12","09","05:00","-20.4","","-22.9","","81","","","","14","","53","","0.6","","99.90","","","","-36","","Snow,Blowing Snow"
"-94.97","74.72","RESOLUTE BAY A","2403498","2018-12-09 06:00","2018","12","09","06:00","-20.7","","-23.2","","80","","","","13","","50","","0.4","","99.89","","","","-36","","Snow,Blowing Snow"
"-94.97","74.72","RESOLUTE BAY A","2403498","2018-12-09 07:00","2018","12","09","07:00","-21.1","","-23.7","","80","","","","12","","53","","0.4","","99.78","","","","-37","","Snow,Blowing Snow"
"-94.97","74.72","RESOLUTE BAY A","2403498","2018-12-09 08:00","2018","12","09","08:00","-20.6","","-23.1","","81","","","","13","","57","","0.4","","99.75","","","","-37","","Snow,Blowing Snow"
"-94.97","74.72","RESOLUTE BAY A","2403498","2018-12-09 09:00","2018","12","09","09:00","-19.2","","-21.7","","81","","","","14","","58","","0.4","","99.68","","","","-35","","Snow,Blowing Snow"
"-94.97","74.72","RESOLUTE BAY A","2403498","2018-12-09 10:00","2018","12","09","10:00","-18.4","","-20.7","","82","","","","15","","56","","1.0","","99.65","","","","-34","","Blowing Snow"
"-94.97","74.72","RESOLUTE BAY A","2403498","2018-12-09 11:00","2018","12","09","11:00","-18.1","","-20.4","","83","","","","15","","56","","0.6","","99.57","","","","-33","","Blowing Snow"
"-94.97","74.72","RESOLUTE BAY A","2403498","2018-12-09 12:00","2018","12","09","12:00","-17.5","","-19.8","","83","","","","15","","61","","0.4","","99.47","","","","-33","","Blowing Snow"
"-94.97","74.72","RESOLUTE BAY A","2403498","2018-12-09 13:00","2018","12","09","13:00","-16.9","","-19.1","","84","","","","15","","59","","0.4","","99.49","","","","-32","","Blowing Snow"
"-94.97","74.72","RESOLUTE BAY A","2403498","2018-12-09 14:00","2018","12","09","14:00","-15.8","","-17.9","","85","","","","16","","67","","0.4","","99.42","","","","-31","","Blowing Snow"
"-94.97","74.72","RESOLUTE BAY A","2403498","2018-12-09 15:00","2018","12","09","15:00","-15.5","","-17.5","","85","","","","16","","55","","0.4","","99.41","","","","-30","","Blowing Snow"
"-94.97","74.72","RESOLUTE BAY A","2403498","2018-12-09 16:00","2018","12","09","16:00","-15.1","","-17.1","","85","","","","18","","53","","0.4","","99.42","","","","-29","","Blowing Snow"
"-94.97","74.72","RESOLUTE BAY A","2403498","2018-12-09 17:00","2018","12","09","17:00","-15.1","","-17.1","","85","","","","19","","68","","0.4","","99.36","","","","-30","","Blowing Snow"
"-94.97","74.72","RESOLUTE BAY A","2403498","2018-12-09 18:00","2018","12","09","18:00","-16.4","","-18.6","","84","","","","19","","46","","0.4","","99.40","","","","-30","","Blowing Snow"
"-94.97","74.72","RESOLUTE BAY A","2403498","2018-12-09 19:00","2018","12","09","19:00","-17.1","","-19.3","","83","","","","20","","52","","0.8","","99.40","","","","-32","","Blowing Snow"
"-94.97","74.72","RESOLUTE BAY A","2403498","2018-12-09 20:00","2018","12","09","20:00","-17.3","","-19.4","","83","","","","18","","38","","1.0","","99.38","","","","-30","","Blowing Snow"
"-94.97","74.72","RESOLUTE BAY A","2403498","2018-12-09 21:00","2018","12","09","21:00","-17.4","","-19.6","","83","","","","18","","44","","0.8","","99.44","","","","-31","","Snow,Blowing Snow"
"-94.97","74.72","RESOLUTE BAY A","2403498","2018-12-09 22:00","2018","12","09","22:00","-17.5","","-19.7","","83","","","","17","","42","","1.0","","99.39","","","","-31","","Snow,Blowing Snow"
"-94.97","74.72","RESOLUTE BAY A","2403498","2018-12-09 23:00","2018","12","09","23:00","-17.6","","-19.8","","83","","","","17","","45","","1.2","","99.41","","","","-32","","Snow,Blowing Snow"
"-94.97","74.72","RESOLUTE BAY A","2403498","2018-12-10 00:00","2018","12","10","00:00","-17.6","","-19.8","","83","","","","17","","41","","1.2","","99.46","","","","-31","","Snow,Blowing Snow"
"-94.97","74.72","RESOLUTE BAY A","2403498","2018-12-10 01:00","2018","12","10","01:00","-17.4","","-19.6","","83","","","","17","","43","","1.0","","99.43","","","","-31","","Snow,Blowing Snow"
"-94.97","74.72","RESOLUTE BAY A","2403498","2018-12-10 02:00","2018","12","10","02:00","-17.1","","-19.3","","84","","","","17","","43","","1.0","","99.34","","","","-31","","Snow,Blowing Snow"
"-94.97","74.72","RESOLUTE BAY A","2403498","2018-12-10 03:00","2018","12","10","03:00","-17.4","","-19.6","","83","","","","16","","40","","1.2","","99.30","","","","-31","","Snow,Blowing Snow"
"-94.97","74.72","RESOLUTE BAY A","2403498","2018-12-10 04:00","2018","12","10","04:00","-17.2","","-19.4","","84","","","","16","","42","","1.2","","99.28","","","","-31","","Snow,Blowing Snow"
"-94.97","74.72","RESOLUTE BAY A","2403498","2018-12-10 05:00","2018","12","10","05:00","-16.9","","-19.0","","84","","","","16","","42","","1.0","","99.23","","","","-30","","Snow,Blowing Snow"
"-94.97","74.72","RESOLUTE BAY A","2403498","2018-12-10 06:00","2018","12","10","06:00","-16.6","","-18.7","","84","","","","16","","42","","1.0","","99.17","","","","-30","","Snow,Blowing Snow"
"-94.97","74.72","RESOLUTE BAY A","2403498","2018-12-10 07:00","2018","12","10","07:00","-16.2","","-18.2","","84","","","","16","","38","","4.8","","99.11","","","","-29","","Snow,Blowing Snow"
"-94.97","74.72","RESOLUTE BAY A","2403498","2018-12-10 08:00","2018","12","10","08:00","-15.7","","-17.7","","85","","","","15","","39","","1.2","","99.01","","","","-28","","Snow,Blowing Snow"
"-94.97","74.72","RESOLUTE BAY A","2403498","2018-12-10 09:00","2018","12","10","09:00","-15.1","","-17.1","","85","","","","15","","40","","1.2","","98.92","","","","-28","","Blowing Snow"
"-94.97","74.72","RESOLUTE BAY A","2403498","2018-12-10 10:00","2018","12","10","10:00","-14.5","","-16.4","","86","","","","15","","47","","1.2","","98.84","","","","-28","","Blowing Snow"
"-94.97","74.72","RESOLUTE BAY A","2403498","2018-12-10 11:00","2018","12","10","11:00","-14.0","","-15.8","","86","","","","15","","50","","1.0","","98.74","","","","-27","","Blowing Snow"
"-94.97","74.72","RESOLUTE BAY A","2403498","2018-12-10 12:00","2018","12","10","12:00","-13.9","","-15.7","","86","","","","15","","50","","1.0","","98.62","","","","-27","","Blowing Snow"
"-94.97","74.72","RESOLUTE BAY A","2403498","2018-12-10 13:00","2018","12","10","13:00","-13.8","","-15.7","","86","","","","15","","57","","0.8","","98.53","","","","-28","","Blowing Snow"
"-94.97","74.72","RESOLUTE BAY A","2403498","2018-12-10 14:00","2018","12","10","14:00","-13.9","","-15.7","","86","","","","14","","48","","0.8","","98.45","","","","-27","","Blowing Snow"
"-94.97","74.72","RESOLUTE BAY A","2403498","2018-12-10 15:00","2018","12","10","15:00","-13.8","","-15.6","","86","","","","14","","53","","0.8","","98.37","","","","-27","","Blowing Snow"
"-94.97","74.72","RESOLUTE BAY A","2403498","2018-12-10 16:00","2018","12","10","16:00","-13.9","","-15.7","","86","","","","15","","50","","0.8","","98.28","","","","-27","","Blowing Snow"
"-94.97","74.72","RESOLUTE BAY A","2403498","2018-12-10 17:00","2018","12","10","17:00","-14.1","","-16.0","","86","","","","14","","49","","0.8","","98.23","","","","-27","","Blowing Snow"
"-94.97","74.72","RESOLUTE BAY A","2403498","2018-12-10 18:00","2018","12","10","18:00","-14.2","","-16.0","","86","","","","14","","50","","0.8","","98.10","","","","-27","","Blowing Snow"
"-94.97","74.72","RESOLUTE BAY A","2403498","2018-12-10 19:00","2018","12","10","19:00","-14.3","","-16.1","","86","","","","14","","48","","0.8","","98.00","","","","-27","","Blowing Snow"
"-94.97","74.72","RESOLUTE BAY A","2403498","2018-12-10 20:00","2018","12","10","20:00","-14.3","","-16.1","","86","","","","13","","53","","0.6","","97.79","","","","-28","","Blowing Snow"
"-94.97","74.72","RESOLUTE BAY A","2403498","2018-12-10 21:00","2018","12","10","21:00","-14.3","","-16.1","","86","","","","13","","53","","0.6","","97.67","","","","-28","","Blowing Snow"
"-94.97","74.72","RESOLUTE BAY A","2403498","2018-12-10 22:00","2018","12","10","22:00","-14.0","","-15.8","","86","","","","13","","52","","0.6","","97.55","","","","-27","","Snow,Blowing Snow"
"-94.97","74.72","RESOLUTE BAY A","2403498","2018-12-10 23:00","2018","12","10","23:00","-13.8","","-15.6","","86","","","","13","","53","","0.6","","97.45","","","","-27","","Snow,Blowing Snow"
"-94.97","74.72","RESOLUTE BAY A","2403498","2018-12-11 00:00","2018","12","11","00:00","-13.5","","-15.3","","87","","","","13","","44","","0.6","","97.35","","","","-26","","Snow,Blowing Snow"
"-94.97","74.72","RESOLUTE BAY A","2403498","2018-12-11 01:00","2018","12","11","01:00","-13.2","","-14.9","","87","","","","13","","34","","0.8","","97.28","","","","-24","","Snow,Blowing Snow"
"-94.97","74.72","RESOLUTE BAY A","2403498","2018-12-11 02:00","2018","12","11","02:00","-12.6","","-14.3","","87","","","","13","","27","","1.0","","97.26","","","","-22","","Snow,Blowing Snow"
"-94.97","74.72","RESOLUTE BAY A","2403498","2018-12-11 03:00","2018","12","11","03:00","-12.3","","-13.9","","88","","","","13","","25","","1.0","","97.25","","","","-22","","Snow,Blowing Snow"
"-94.97","74.72","RESOLUTE BAY A","2403498","2018-12-11 04:00","2018","12","11","04:00","-12.0","","-13.6","","88","","","","14","","22","","1.0","","97.24","","","","-21","","Snow"
"-94.97","74.72","RESOLUTE BAY A","2403498","2018-12-11 05:00","2018","12","11","05:00","-11.9","","-13.6","","88","","","","13","","21","","1.2","","97.23","","","","-20","","Snow"
"-94.97","74.72","RESOLUTE BAY A","2403498","2018-12-11 06:00","2018","12","11","06:00","-11.9","","-13.5","","88","","","","12","","24","","9.7","","97.23","","","","-21","","Snow"
"-94.97","74.72","RESOLUTE BAY A","2403498","2018-12-11 07:00","2018","12","11","07:00","-12.8","","-14.4","","87","","","","12","","22","","12.9","","97.22","","","","-22","","Snow"
"-94.97","74.72","RESOLUTE BAY A","2403498","2018-12-11 08:00","2018","12","11","08:00","-12.6","","-14.2","","88","","","","12","","20","","16.1","","97.23","","","","-21","","Ice Crystals"
"-94.97","74.72","RESOLUTE BAY A","2403498","2018-12-11 09:00","2018","12","11","09:00","-11.9","","-13.4","","88","","","","11","","17","","16.1","","97.25","","","","-20","","Ice Crystals"
"-94.97","74.72","RESOLUTE BAY A","2403498","2018-12-11 10:00","2018","12","11","10:00","-11.6","","-13.2","","88","","","","11","","12","","16.1","","97.26","","","","-18","","Ice Crystals"
"-94.97","74.72","RESOLUTE BAY A","2403498","2018-12-11 11:00","2018","12","11","11:00","-11.2","","-12.7","","89","","","","10","","13","","16.1","","97.26","","","","-18","","Ice Crystals"
"-94.97","74.72","RESOLUTE BAY A","2403498","2018-12-11 12:00","2018","12","11","12:00","-11.2","","-12.8","","89","","","","9","","10","","16.1","","97.25","","","","-17","","Snow"
"-94.97","74.72","RESOLUTE BAY A","2403498","2018-12-11 13:00","2018","12","11","13:00","-11.3","","-12.8","","89","","","","11","","10","","16.1","","97.24","","","","-17","","Snow"
"-94.97","74.72","RESOLUTE BAY A","2403498","2018-12-11 14:00","2018","12","11","14:00","-11.3","","-12.8","","89","","","","8","","16","","16.1","","97.26","","","","-19","","Snow"
"-94.97","74.72","RESOLUTE BAY A","2403498","2018-12-11 15:00","2018","12","11","15:00","-11.7","","-13.3","","88","","","","8","","17","","14.5","","97.27","","","","-19","","Snow"
"-94.97","74.72","RESOLUTE BAY A","2403498","2018-12-11 16:00","2018","12","11","16:00","-11.6","","-13.2","","88","","","","9","","18","","16.1","","97.27","","","","-19","","Snow"
"-94.97","74.72","RESOLUTE BAY A","2403498","2018-12-11 17:00","2018","12","11","17:00","-11.6","","-13.2","","88","","","","14","","12","","16.1","","97.27","","","","-18","","Snow"
"-94.97","74.72","RESOLUTE BAY A","2403498","2018-12-11 18:00","2018","12","11","18:00","-15.7","","-17.7","","85","","","","36","","5","","12.9","","97.31","","","","-19","","Snow"
"-94.97","74.72","RESOLUTE BAY A","2403498","2018-12-11 19:00","2018","12","11","19:00","-17.5","","-19.7","","83","","","","27","","21","","8.1","","97.31","","","","-28","","Snow"
"-94.97","74.72","RESOLUTE BAY A","2403498","2018-12-11 20:00","2018","12","11","20:00","-20.8","","-23.2","","81","","","","29","","26","","2.0","","97.36","","","","-33","","Snow,Blowing Snow"
"-94.97","74.72","RESOLUTE BAY A","2403498","2018-12-11 21:00","2018","12","11","21:00"
"-94.97","74.72","RESOLUTE BAY A","2403498","2018-12-11 22:00","2018","12","11","22:00"
"-94.97","74.72","RESOLUTE BAY A","2403498","2018-12-11 23:00","2018","12","11","23:00"
"-94.97","74.72","RESOLUTE BAY A","2403498","2018-12-12 00:00","2018","12","12","00:00"
"-94.97","74.72","RESOLUTE BAY A","2403498","2018-12-12 01:00","2018","12","12","01:00"
"-94.97","74.72","RESOLUTE BAY A","2403498","2018-12-12 02:00","2018","12","12","02:00"
"-94.97","74.72","RESOLUTE BAY A","2403498","2018-12-12 03:00","2018","12","12","03:00"
"-94.97","74.72","RESOLUTE BAY A","2403498","2018-12-12 04:00","2018","12","12","04:00"
"-94.97","74.72","RESOLUTE BAY A","2403498","2018-12-12 05:00","2018","12","12","05:00"
"-94.97","74.72","RESOLUTE BAY A","2403498","2018-12-12 06:00","2018","12","12","06:00"
"-94.97","74.72","RESOLUTE BAY A","2403498","2018-12-12 07:00","2018","12","12","07:00"
"-94.97","74.72","RESOLUTE BAY A","2403498","2018-12-12 08:00","2018","12","12","08:00","-33.2","","-36.8","","71","","","","30","","6","","24.1","","98.06","","","","-40","","Ice Crystals"
"-94.97","74.72","RESOLUTE BAY A","2403498","2018-12-12 09:00","2018","12","12","09:00","-32.7","","-36.2","","72","","","","30","","13","","24.1","","98.09","","","","-44","","Ice Crystals"
"-94.97","74.72","RESOLUTE BAY A","2403498","2018-12-12 10:00","2018","12","12","10:00","-33.3","","-36.8","","71","","","","35","","7","","24.1","","98.14","","","","-41","","Ice Crystals"
"-94.97","74.72","RESOLUTE BAY A","2403498","2018-12-12 11:00","2018","12","12","11:00","-33.9","","-37.5","","71","","","","31","","7","","19.3","","98.16","","","","-42","","Ice Crystals"
"-94.97","74.72","RESOLUTE BAY A","2403498","2018-12-12 12:00","2018","12","12","12:00","-34.2","","-37.9","","70","","","","28","","5","","24.1","","98.20","","","","-40","","Ice Crystals"
"-94.97","74.72","RESOLUTE BAY A","2403498","2018-12-12 13:00","2018","12","12","13:00","-31.8","","-35.2","","72","","","","36","","3","","24.1","","98.22","","","","-35","","Ice Crystals"
"-94.97","74.72","RESOLUTE BAY A","2403498","2018-12-12 14:00","2018","12","12","14:00","-32.1","","-35.6","","72","","","","22","","8","","24.1","","98.29","","","","-40","","Ice Crystals"
"-94.97","74.72","RESOLUTE BAY A","2403498","2018-12-12 15:00","2018","12","12","15:00","-32.4","","-35.9","","71","","","","24","","10","","24.1","","98.33","","","","-42","","Ice Crystals"
"-94.97","74.72","RESOLUTE BAY A","2403498","2018-12-12 16:00","2018","12","12","16:00","-31.7","","-35.1","","72","","","","25","","9","","24.1","","98.41","","","","-41","","NA"
"-94.97","74.72","RESOLUTE BAY A","2403498","2018-12-12 17:00","2018","12","12","17:00","-31.4","","-34.9","","72","","","","27","","12","","24.1","","98.48","","","","-42","","Ice Crystals"
"-94.97","74.72","RESOLUTE BAY A","2403498","2018-12-12 18:00","2018","12","12","18:00","-31.2","","-34.7","","72","","","","24","","4","","24.1","","98.55","","","","-36","","Ice Crystals"
"-94.97","74.72","RESOLUTE BAY A","2403498","2018-12-12 19:00","2018","12","12","19:00","-30.9","","-34.4","","73","","","","32","","3","","24.1","","98.61","","","","-34","","Ice Crystals"
"-94.97","74.72","RESOLUTE BAY A","2403498","2018-12-12 20:00","2018","12","12","20:00","-30.9","","-34.3","","73","","","","36","","1","","24.1","","98.67","","","","-32","","Ice Crystals"
"-94.97","74.72","RESOLUTE BAY A","2403498","2018-12-12 21:00","2018","12","12","21:00","-31.3","","-34.8","","72","","","","33","","3","","24.1","","98.73","","","","-35","","Ice Crystals"
"-94.97","74.72","RESOLUTE BAY A","2403498","2018-12-12 22:00","2018","12","12","22:00","-33.2","","-36.9","","71","","","","36","","4","","24.1","","98.79","","","","-38","","Ice Crystals"
"-94.97","74.72","RESOLUTE BAY A","2403498","2018-12-12 23:00","2018","12","12","23:00","-33.3","","-36.9","","71","","","","34","","8","","24.1","","98.87","","","","-42","","Ice Crystals"
"-94.97","74.72","RESOLUTE BAY A","2403498","2018-12-13 00:00","2018","12","13","00:00","-32.7","","-36.3","","71","","","","32","","7","","24.1","","98.92","","","","-40","","Ice Crystals"
"-94.97","74.72","RESOLUTE BAY A","2403498","2018-12-13 01:00","2018","12","13","01:00","-33.0","","-36.5","","71","","","","34","","7","","24.1","","99.02","","","","-41","","Ice Crystals"
"-94.97","74.72","RESOLUTE BAY A","2403498","2018-12-13 02:00","2018","12","13","02:00","-31.9","","-35.4","","72","","","","33","","9","","24.1","","99.10","","","","-41","","Ice Crystals"
"-94.97","74.72","RESOLUTE BAY A","2403498","2018-12-13 03:00","2018","12","13","03:00","-31.3","","-34.7","","72","","","","33","","15","","24.1","","99.17","","","","-43","","Ice Crystals"
"-94.97","74.72","RESOLUTE BAY A","2403498","2018-12-13 04:00","2018","12","13","04:00","-30.9","","-34.3","","72","","","","34","","13","","16.1","","99.24","","","","-42","","Ice Crystals"
"-94.97","74.72","RESOLUTE BAY A","2403498","2018-12-13 05:00","2018","12","13","05:00","-31.2","","-34.7","","72","","","","33","","11","","24.1","","99.28","","","","-41","","Snow"
"-94.97","74.72","RESOLUTE BAY A","2403498","2018-12-13 06:00","2018","12","13","06:00","-33.0","","-36.7","","71","","","","34","","9","","24.1","","99.35","","","","-42","","Snow"
"-94.97","74.72","RESOLUTE BAY A","2403498","2018-12-13 07:00","2018","12","13","07:00","-29.6","","-33.0","","73","","","","31","","8","","24.1","","99.39","","","","-38","","Ice Crystals"
"-94.97","74.72","RESOLUTE BAY A","2403498","2018-12-13 08:00","2018","12","13","08:00","-30.7","","-34.2","","72","","","","33","","8","","24.1","","99.43","","","","-39","","Ice Crystals"
"-94.97","74.72","RESOLUTE BAY A","2403498","2018-12-13 09:00","2018","12","13","09:00","-30.7","","-34.2","","73","","","","32","","7","","24.1","","99.50","","","","-38","","Ice Crystals"
"-94.97","74.72","RESOLUTE BAY A","2403498","2018-12-13 10:00","2018","12","13","10:00","-32.3","","-35.8","","72","","","","32","","7","","24.1","","99.57","","","","-40","","Ice Crystals"
"-94.97","74.72","RESOLUTE BAY A","2403498","2018-12-13 11:00","2018","12","13","11:00","-32.8","","-36.3","","71","","","","35","","9","","24.1","","99.62","","","","-42","","Ice Crystals"
"-94.97","74.72","RESOLUTE BAY A","2403498","2018-12-13 12:00","2018","12","13","12:00","-31.4","","-34.9","","72","","","","30","","6","","24.1","","99.67","","","","-38","","Ice Crystals"
"-94.97","74.72","RESOLUTE BAY A","2403498","2018-12-13 13:00","2018","12","13","13:00","-32.2","","-35.8","","71","","","","27","","4","","24.1","","99.74","","","","-37","","NA"
"-94.97","74.72","RESOLUTE BAY A","2403498","2018-12-13 14:00","2018","12","13","14:00","-32.3","","-35.9","","72","","","","33","","17","","24.1","","99.79","","","","-45","","NA"
"-94.97","74.72","RESOLUTE BAY A","2403498","2018-12-13 15:00","2018","12","13","15:00","-31.6","","-35.0","","72","","","","34","","17","","24.1","","99.85","","","","-44","","Clear"
"-94.97","74.72","RESOLUTE BAY A","2403498","2018-12-13 16:00","2018","12","13","16:00","-31.4","","-34.9","","72","","","","34","","20","","24.1","","99.89","","","","-45","","NA"
"-94.97","74.72","RESOLUTE BAY A","2403498","2018-12-13 17:00","2018","12","13","17:00","-30.4","","-33.8","","73","","","","35","","18","","24.1","","99.91","","","","-43","","Ice Crystals"
"-94.97","74.72","RESOLUTE BAY A","2403498","2018-12-13 18:00","2018","12","13","18:00","-30.1","","-33.4","","73","","","","33","","18","","24.1","","99.95","","","","-43","","Ice Crystals"
"-94.97","74.72","RESOLUTE BAY A","2403498","2018-12-13 19:00","2018","12","13","19:00","-28.2","","-31.4","","75","","","","36","","7","","24.1","","99.99","","","","-35","","Ice Crystals"
"-94.97","74.72","RESOLUTE BAY A","2403498","2018-12-13 20:00","2018","12","13","20:00","-29.0","","-32.3","","74","","","","36","","10","","24.1","","100.02","","","","-38","","Ice Crystals"
"-94.97","74.72","RESOLUTE BAY A","2403498","2018-12-13 21:00","2018","12","13","21:00","-28.8","","-32.1","","74","","","","1","","18","","24.1","","100.02","","","","-41","","Ice Crystals"
"-94.97","74.72","RESOLUTE BAY A","2403498","2018-12-13 22:00","2018","12","13","22:00","-28.4","","-31.7","","74","","","","36","","17","","24.1","","100.01","","","","-40","","Ice Crystals"
"-94.97","74.72","RESOLUTE BAY A","2403498","2018-12-13 23:00","2018","12","13","23:00","-28.0","","-31.2","","74","","","","31","","4","","24.1","","100.04","","","","-32","","Ice Crystals"
"-94.97","74.72","RESOLUTE BAY A","2403498","2018-12-14 00:00","2018","12","14","00:00","-28.3","","-31.5","","75","","","","4","","32","","24.1","","100.02","","","","-44","","Ice Crystals"
"-94.97","74.72","RESOLUTE BAY A","2403498","2018-12-14 01:00","2018","12","14","01:00","-29.9","","-33.3","","73","","","","15","","9","","24.1","","100.10","","","","-38","","Ice Crystals"
"-94.97","74.72","RESOLUTE BAY A","2403498","2018-12-14 02:00","2018","12","14","02:00","-28.1","","-31.3","","75","","","","3","","9","","24.1","","100.12","","","","-36","","Ice Crystals"
"-94.97","74.72","RESOLUTE BAY A","2403498","2018-12-14 03:00","2018","12","14","03:00","-29.9","","-33.2","","73","","","","13","","12","","24.1","","100.13","","","","-40","","Ice Crystals"
"-94.97","74.72","RESOLUTE BAY A","2403498","2018-12-14 04:00","2018","12","14","04:00","-31.8","","-35.2","","72","","","","29","","4","","24.1","","100.16","","","","-36","","Ice Crystals"
"-94.97","74.72","RESOLUTE BAY A","2403498","2018-12-14 05:00","2018","12","14","05:00","-30.5","","-33.9","","73","","","","36","","1","","24.1","","100.19","","","","-32","","Ice Crystals"
"-94.97","74.72","RESOLUTE BAY A","2403498","2018-12-14 06:00","2018","12","14","06:00","-28.9","","-32.1","","74","","","","34","","3","","8.1","","100.16","","","","-32","","Ice Crystals"
"-94.97","74.72","RESOLUTE BAY A","2403498","2018-12-14 07:00","2018","12","14","07:00","-28.9","","-32.2","","74","","","","6","","13","","4.8","","100.15","","","","-39","","Ice Crystals"
"-94.97","74.72","RESOLUTE BAY A","2403498","2018-12-14 08:00","2018","12","14","08:00","-29.6","","-32.9","","74","","","","18","","3","","6.4","","100.14","","","","-33","","Ice Crystals"
"-94.97","74.72","RESOLUTE BAY A","2403498","2018-12-14 09:00","2018","12","14","09:00","-29.6","","-33.0","","73","","","","24","","5","","4.8","","100.14","","","","-35","","Ice Crystals"
"-94.97","74.72","RESOLUTE BAY A","2403498","2018-12-14 10:00","2018","12","14","10:00","-29.8","","-33.3","","73","","","","30","","3","","6.4","","100.16","","","","-33","","Ice Crystals"
"-94.97","74.72","RESOLUTE BAY A","2403498","2018-12-14 11:00","2018","12","14","11:00","-25.8","","-28.8","","76","","","","28","","14","","4.8","","100.14","","","","-36","","Ice Crystals"
"-94.97","74.72","RESOLUTE BAY A","2403498","2018-12-14 12:00","2018","12","14","12:00","-27.0","","-30.2","","75","","","","28","","16","","4.8","","100.11","","","","-38","","Ice Crystals"
"-94.97","74.72","RESOLUTE BAY A","2403498","2018-12-14 13:00","2018","12","14","13:00","-25.1","","-28.2","","76","","","","4","","46","","1.6","","100.03","","","","-42","","Ice Crystals,Blowing Snow"
"-94.97","74.72","RESOLUTE BAY A","2403498","2018-12-14 14:00","2018","12","14","14:00","-24.4","","-27.3","","77","","","","5","","53","","1.6","","100.04","","","","-42","","Ice Crystals,Blowing Snow"
"-94.97","74.72","RESOLUTE BAY A","2403498","2018-12-14 15:00","2018","12","14","15:00","-25.5","","-28.5","","76","","","","3","","45","","1.6","","100.06","","","","-42","","Ice Crystals,Blowing Snow,Blowing Sand"
"-94.97","74.72","RESOLUTE BAY A","2403498","2018-12-14 16:00","2018","12","14","16:00","-25.0","","-27.9","","77","","","","5","","50","","2.4","","100.13","","","","-42","","Ice Crystals,Blowing Snow"
"-94.97","74.72","RESOLUTE BAY A","2403498","2018-12-14 17:00","2018","12","14","17:00","-24.6","","-27.5","","77","","","","4","","45","","2.4","","100.11","","","","-41","","Ice Crystals,Blowing Snow"
"-94.97","74.72","RESOLUTE BAY A","2403498","2018-12-14 18:00","2018","12","14","18:00","-25.2","","-28.2","","77","","","","4","","23","","2.4","","100.18","","","","-38","","Ice Crystals,Blowing Snow"
"-94.97","74.72","RESOLUTE BAY A","2403498","2018-12-14 19:00","2018","12","14","19:00","-26.0","","-29.0","","77","","","","19","","9","","2.4","","100.15","","","","-34","","Ice Crystals,Blowing Snow"
"-94.97","74.72","RESOLUTE BAY A","2403498","2018-12-14 20:00","2018","12","14","20:00","-26.7","","-29.9","","75","","","","14","","9","","4.0","","100.15","","","","-35","","Ice Crystals,Blowing Snow"
"-94.97","74.72","RESOLUTE BAY A","2403498","2018-12-14 21:00","2018","12","14","21:00","-27.2","","-30.4","","75","","","","12","","9","","16.1","","100.18","","","","-35","","Ice Crystals"
"-94.97","74.72","RESOLUTE BAY A","2403498","2018-12-14 22:00","2018","12","14","22:00","-28.7","","-31.9","","74","","","","13","","12","","8.1","","100.16","","","","-39","","Ice Crystals"
"-94.97","74.72","RESOLUTE BAY A","2403498","2018-12-14 23:00","2018","12","14","23:00","-25.9","","-28.8","","77","","","","36","","2","","9.7","","100.14","","","","-28","","Ice Crystals"
"-94.97","74.72","RESOLUTE BAY A","2403498","2018-12-15 00:00","2018","12","15","00:00","-27.7","","-30.9","","75","","","","17","","10","","16.1","","100.12","","","","-36","","Ice Crystals"
"-94.97","74.72","RESOLUTE BAY A","2403498","2018-12-15 01:00","2018","12","15","01:00","-28.0","","-31.1","","75","","","","23","","5","","24.1","","100.14","","","","-33","","Ice Crystals"
"-94.97","74.72","RESOLUTE BAY A","2403498","2018-12-15 02:00","2018","12","15","02:00","-27.4","","-30.6","","75","","","","27","","9","","16.1","","100.15","","","","-36","","Ice Crystals"
"-94.97","74.72","RESOLUTE BAY A","2403498","2018-12-15 03:00","2018","12","15","03:00","-27.4","","-30.6","","75","","","","35","","6","","16.1","","100.17","","","","-34","","Ice Crystals"
"-94.97","74.72","RESOLUTE BAY A","2403498","2018-12-15 04:00","2018","12","15","04:00","-27.3","","-30.6","","74","","","","14","","18","","24.1","","100.18","","","","-39","","Ice Crystals"
"-94.97","74.72","RESOLUTE BAY A","2403498","2018-12-15 05:00","2018","12","15","05:00","-28.0","","-31.2","","75","","","","6","","44","","8.1","","100.14","","","","-45","","Ice Crystals,Blowing Snow"
"-94.97","74.72","RESOLUTE BAY A","2403498","2018-12-15 06:00","2018","12","15","06:00","-26.6","","-29.6","","76","","","","6","","50","","16.1","","100.13","","","","-44","","Ice Crystals,Blowing Snow"
"-94.97","74.72","RESOLUTE BAY A","2403498","2018-12-15 07:00","2018","12","15","07:00","-27.8","","-31.1","","75","","","","5","","56","","4.0","","100.05","","","","-47","","Ice Crystals,Blowing Snow"
"-94.97","74.72","RESOLUTE BAY A","2403498","2018-12-15 08:00","2018","12","15","08:00","-27.7","","-31.0","","74","","","","4","","48","","0.8","","100.04","","","","-46","","Ice Crystals,Blowing Snow"
"-94.97","74.72","RESOLUTE BAY A","2403498","2018-12-15 09:00","2018","12","15","09:00","-27.5","","-30.7","","75","","","","3","","44","","4.8","","100.12","","","","-45","","Blowing Snow"
"-94.97","74.72","RESOLUTE BAY A","2403498","2018-12-15 10:00","2018","12","15","10:00","-27.7","","-30.9","","75","","","","4","","44","","4.8","","100.11","","","","-45","","Blowing Snow"
"-94.97","74.72","RESOLUTE BAY A","2403498","2018-12-15 11:00","2018","12","15","11:00","-28.2","","-31.4","","74","","","","3","","44","","4.8","","100.11","","","","-46","","Blowing Snow"
"-94.97","74.72","RESOLUTE BAY A","2403498","2018-12-15 12:00","2018","12","15","12:00","-27.7","","-30.9","","75","","","","4","","50","","4.8","","100.10","","","","-46","","Blowing Snow"
"-94.97","74.72","RESOLUTE BAY A","2403498","2018-12-15 13:00","2018","12","15","13:00","-25.9","","-28.9","","77","","","","5","","54","","3.2","","100.08","","","","-44","","Blowing Snow"
"-94.97","74.72","RESOLUTE BAY A","2403498","2018-12-15 14:00","2018","12","15","14:00","-27.9","","-31.1","","75","","","","4","","55","","3.2","","100.16","","","","-47","","Blowing Snow"
"-94.97","74.72","RESOLUTE BAY A","2403498","2018-12-15 15:00","2018","12","15","15:00","-28.7","","-32.0","","74","","","","4","","55","","1.6","","100.18","","","","-48","","Blowing Snow"
"-94.97","74.72","RESOLUTE BAY A","2403498","2018-12-15 16:00","2018","12","15","16:00","-29.6","","-33.0","","73","","","","4","","52","","1.6","","100.25","","","","-49","","Blowing Snow"
"-94.97","74.72","RESOLUTE BAY A","2403498","2018-12-15 17:00","2018","12","15","17:00","-28.4","","-31.6","","75","","","","4","","49","","1.6","","100.29","","","","-47","","Blowing Snow"
"-94.97","74.72","RESOLUTE BAY A","2403498","2018-12-15 18:00","2018","12","15","18:00"
"-94.97","74.72","RESOLUTE BAY A","2403498","2018-12-15 19:00","2018","12","15","19:00"
"-94.97","74.72","RESOLUTE BAY A","2403498","2018-12-15 20:00","2018","12","15","20:00"
"-94.97","74.72","RESOLUTE BAY A","2403498","2018-12-15 21:00","2018","12","15","21:00"
"-94.97","74.72","RESOLUTE BAY A","2403498","2018-12-15 22:00","2018","12","15","22:00"
"-94.97","74.72","RESOLUTE BAY A","2403498","2018-12-15 23:00","2018","12","15","23:00"
"-94.97","74.72","RESOLUTE BAY A","2403498","2018-12-16 00:00","2018","12","16","00:00"
"-94.97","74.72","RESOLUTE BAY A","2403498","2018-12-16 01:00","2018","12","16","01:00"
"-94.97","74.72","RESOLUTE BAY A","2403498","2018-12-16 02:00","2018","12","16","02:00"
"-94.97","74.72","RESOLUTE BAY A","2403498","2018-12-16 03:00","2018","12","16","03:00"
"-94.97","74.72","RESOLUTE BAY A","2403498","2018-12-16 04:00","2018","12","16","04:00"
"-94.97","74.72","RESOLUTE BAY A","2403498","2018-12-16 05:00","2018","12","16","05:00"
"-94.97","74.72","RESOLUTE BAY A","2403498","2018-12-16 06:00","2018","12","16","06:00"
"-94.97","74.72","RESOLUTE BAY A","2403498","2018-12-16 07:00","2018","12","16","07:00"
"-94.97","74.72","RESOLUTE BAY A","2403498","2018-12-16 08:00","2018","12","16","08:00"
"-94.97","74.72","RESOLUTE BAY A","2403498","2018-12-16 09:00","2018","12","16","09:00"
"-94.97","74.72","RESOLUTE BAY A","2403498","2018-12-16 10:00","2018","12","16","10:00","-32.3","","-36.1","","70","","","","26","","10","","19.3","","100.72","","","","-42","","Ice Crystals"
"-94.97","74.72","RESOLUTE BAY A","2403498","2018-12-16 11:00","2018","12","16","11:00","-30.4","","-33.8","","73","","","","32","","10","","19.3","","100.71","","","","-40","","Ice Crystals"
"-94.97","74.72","RESOLUTE BAY A","2403498","2018-12-16 12:00","2018","12","16","12:00","-28.5","","-31.7","","74","","","","30","","18","","19.3","","100.74","","","","-41","","Ice Crystals"
"-94.97","74.72","RESOLUTE BAY A","2403498","2018-12-16 13:00","2018","12","16","13:00","-27.6","","-30.8","","75","","","","3","","34","","19.3","","100.73","","","","-43","","Ice Crystals"
"-94.97","74.72","RESOLUTE BAY A","2403498","2018-12-16 14:00","2018","12","16","14:00","-26.8","","-29.9","","76","","","","35","","28","","19.3","","100.80","","","","-41","","Blowing Snow"
"-94.97","74.72","RESOLUTE BAY A","2403498","2018-12-16 15:00","2018","12","16","15:00","-26.9","","-30.0","","76","","","","33","","14","","19.3","","100.83","","","","-37","","Mainly Clear"
"-94.97","74.72","RESOLUTE BAY A","2403498","2018-12-16 16:00","2018","12","16","16:00","-28.8","","-32.1","","74","","","","33","","10","","19.3","","100.87","","","","-38","","NA"
"-94.97","74.72","RESOLUTE BAY A","2403498","2018-12-16 17:00","2018","12","16","17:00","-27.0","","-30.1","","75","","","","15","","7","","19.3","","100.85","","","","-34","","NA"
"-94.97","74.72","RESOLUTE BAY A","2403498","2018-12-16 18:00","2018","12","16","18:00","-28.6","","-31.9","","74","","","","30","","14","","19.3","","100.91","","","","-39","","Ice Crystals"
"-94.97","74.72","RESOLUTE BAY A","2403498","2018-12-16 19:00","2018","12","16","19:00","-30.2","","-33.6","","73","","","","30","","15","","16.1","","100.86","","","","-42","","Ice Crystals"
"-94.97","74.72","RESOLUTE BAY A","2403498","2018-12-16 20:00","2018","12","16","20:00","-29.0","","-32.3","","74","","","","31","","21","","16.1","","100.90","","","","-42","","Ice Crystals"
"-94.97","74.72","RESOLUTE BAY A","2403498","2018-12-16 21:00","2018","12","16","21:00","-30.0","","-33.4","","73","","","","29","","21","","24.1","","100.89","","","","-43","","Ice Crystals"
"-94.97","74.72","RESOLUTE BAY A","2403498","2018-12-16 22:00","2018","12","16","22:00","-28.6","","-31.8","","74","","","","30","","16","","24.1","","100.87","","","","-40","","Ice Crystals"
"-94.97","74.72","RESOLUTE BAY A","2403498","2018-12-16 23:00","2018","12","16","23:00","-26.5","","-29.7","","75","","","","35","","23","","24.1","","100.90","","","","-39","","Ice Crystals"
"-94.97","74.72","RESOLUTE BAY A","2403498","2018-12-17 00:00","2018","12","17","00:00","-34.0","","-37.8","","70","","","","25","","11","","24.1","","100.91","","","","-44","","Ice Crystals"
"-94.97","74.72","RESOLUTE BAY A","2403498","2018-12-17 01:00","2018","12","17","01:00","-34.4","","-38.1","","70","","","","26","","9","","24.1","","100.93","","","","-44","","Ice Crystals"
"-94.97","74.72","RESOLUTE BAY A","2403498","2018-12-17 02:00","2018","12","17","02:00","-34.1","","-37.8","","70","","","","29","","9","","24.1","","100.96","","","","-43","","Ice Crystals"
"-94.97","74.72","RESOLUTE BAY A","2403498","2018-12-17 03:00","2018","12","17","03:00","-34.0","","-37.7","","70","","","","32","","8","","24.1","","100.95","","","","-43","","Ice Crystals"
"-94.97","74.72","RESOLUTE BAY A","2403498","2018-12-17 04:00","2018","12","17","04:00","-33.8","","-37.5","","70","","","","31","","10","","24.1","","100.95","","","","-44","","Ice Crystals"
"-94.97","74.72","RESOLUTE BAY A","2403498","2018-12-17 05:00","2018","12","17","05:00","-27.4","","-30.3","","77","","","","32","","14","","24.1","","100.93","","","","-38","","Ice Crystals"
"-94.97","74.72","RESOLUTE BAY A","2403498","2018-12-17 06:00","2018","12","17","06:00","-33.6","","-37.3","","70","","","","31","","9","","24.1","","100.94","","","","-43","","Ice Crystals"
"-94.97","74.72","RESOLUTE BAY A","2403498","2018-12-17 07:00","2018","12","17","07:00","-32.6","","-36.2","","71","","","","30","","10","","24.1","","100.92","","","","-42","","Ice Crystals"
"-94.97","74.72","RESOLUTE BAY A","2403498","2018-12-17 08:00","2018","12","17","08:00","-33.4","","-37.1","","71","","","","34","","18","","24.1","","100.88","","","","-47","","Ice Crystals"
"-94.97","74.72","RESOLUTE BAY A","2403498","2018-12-17 09:00","2018","12","17","09:00","-32.8","","-36.5","","70","","","","26","","18","","19.3","","100.86","","","","-46","","Ice Crystals"
"-94.97","74.72","RESOLUTE BAY A","2403498","2018-12-17 10:00","2018","12","17","10:00","-30.2","","-33.8","","72","","","","32","","15","","19.3","","100.83","","","","-42","","Ice Crystals"
"-94.97","74.72","RESOLUTE BAY A","2403498","2018-12-17 11:00","2018","12","17","11:00","-33.0","","-36.6","","71","","","","33","","18","","19.3","","100.84","","","","-46","","Ice Crystals"
"-94.97","74.72","RESOLUTE BAY A","2403498","2018-12-17 12:00","2018","12","17","12:00","-32.4","","-36.0","","71","","","","27","","9","","19.3","","100.82","","","","-41","","Ice Crystals"
"-94.97","74.72","RESOLUTE BAY A","2403498","2018-12-17 13:00","2018","12","17","13:00","-34.1","","-37.8","","70","","","","30","","9","","19.3","","100.85","","","","-43","","Ice Crystals"
"-94.97","74.72","RESOLUTE BAY A","2403498","2018-12-17 14:00","2018","12","17","14:00","-34.4","","-38.2","","70","","","","28","","8","","19.3","","100.85","","","","-43","","Ice Crystals"
"-94.97","74.72","RESOLUTE BAY A","2403498","2018-12-17 15:00","2018","12","17","15:00","-33.6","","-37.4","","70","","","","32","","8","","19.3","","100.85","","","","-42","","Ice Crystals"
"-94.97","74.72","RESOLUTE BAY A","2403498","2018-12-17 16:00","2018","12","17","16:00","-34.4","","-38.1","","70","","","","34","","14","","19.3","","100.87","","","","-46","","Ice Crystals"
"-94.97","74.72","RESOLUTE BAY A","2403498","2018-12-17 17:00","2018","12","17","17:00","-33.5","","-37.2","","70","","","","29","","12","","19.3","","100.85","","","","-44","","Ice Crystals"
"-94.97","74.72","RESOLUTE BAY A","2403498","2018-12-17 18:00","2018","12","17","18:00","-33.6","","-37.4","","70","","","","27","","12","","19.3","","100.81","","","","-45","","Ice Crystals"
"-94.97","74.72","RESOLUTE BAY A","2403498","2018-12-17 19:00","2018","12","17","19:00","-33.7","","-37.4","","70","","","","27","","9","","19.3","","100.76","","","","-43","","Ice Crystals"
"-94.97","74.72","RESOLUTE BAY A","2403498","2018-12-17 20:00","2018","12","17","20:00","-31.0","","-34.4","","73","","","","36","","2","","19.3","","100.76","","","","-33","","Ice Crystals"
"-94.97","74.72","RESOLUTE BAY A","2403498","2018-12-17 21:00","2018","12","17","21:00","-32.1","","-35.7","","71","","","","29","","12","","24.1","","100.75","","","","-43","","Ice Crystals"
"-94.97","74.72","RESOLUTE BAY A","2403498","2018-12-17 22:00","2018","12","17","22:00","-33.3","","-37.0","","70","","","","36","","7","","24.1","","100.71","","","","-41","","Ice Crystals"
"-94.97","74.72","RESOLUTE BAY A","2403498","2018-12-17 23:00","2018","12","17","23:00","-26.9","","-29.9","","76","","","","31","","13","","24.1","","100.71","","","","-37","","Ice Crystals"
"-94.97","74.72","RESOLUTE BAY A","2403498","2018-12-18 00:00","2018","12","18","00:00","-32.3","","-35.9","","71","","","","25","","12","","24.1","","100.71","","","","-43","","Ice Crystals"
"-94.97","74.72","RESOLUTE BAY A","2403498","2018-12-18 01:00","2018","12","18","01:00","-28.0","","-31.1","","75","","","","36","","2","","24.1","","100.70","","","","-30","","Ice Crystals"
"-94.97","74.72","RESOLUTE BAY A","2403498","2018-12-18 02:00","2018","12","18","02:00","-29.2","","-32.6","","73","","","","30","","10","","24.1","","100.70","","","","-38","","Ice Crystals"
"-94.97","74.72","RESOLUTE BAY A","2403498","2018-12-18 03:00","2018","12","18","03:00","-31.0","","-34.6","","71","","","","27","","10","","24.1","","100.71","","","","-40","","Ice Crystals"
"-94.97","74.72","RESOLUTE BAY A","2403498","2018-12-18 04:00","2018","12","18","04:00","-30.1","","-33.6","","72","","","","32","","4","","24.1","","100.69","","","","-35","","Ice Crystals"
"-94.97","74.72","RESOLUTE BAY A","2403498","2018-12-18 05:00","2018","12","18","05:00","-29.1","","-32.5","","74","","","","32","","8","","24.1","","100.69","","","","-37","","Ice Crystals"
"-94.97","74.72","RESOLUTE BAY A","2403498","2018-12-18 06:00","2018","12","18","06:00","-27.7","","-31.1","","73","","","","36","","8","","24.1","","100.68","","","","-35","","Ice Crystals"
"-94.97","74.72","RESOLUTE BAY A","2403498","2018-12-18 07:00","2018","12","18","07:00","-25.5","","-28.6","","76","","","","1","","14","","24.1","","100.62","","","","-35","","Ice Crystals"
"-94.97","74.72","RESOLUTE BAY A","2403498","2018-12-18 08:00","2018","12","18","08:00","-23.5","","-26.4","","77","","","","1","","44","","24.1","","100.56","","","","-39","","Ice Crystals,Blowing Snow"
"-94.97","74.72","RESOLUTE BAY A","2403498","2018-12-18 09:00","2018","12","18","09:00","-21.4","","-24.2","","78","","","","1","","43","","19.3","","100.53","","","","-36","","Blowing Snow"
"-94.97","74.72","RESOLUTE BAY A","2403498","2018-12-18 10:00","2018","12","18","10:00","-23.6","","-26.7","","76","","","","2","","41","","19.3","","100.53","","","","-39","","Blowing Snow"
"-94.97","74.72","RESOLUTE BAY A","2403498","2018-12-18 11:00","2018","12","18","11:00","-23.6","","-26.9","","75","","","","3","","36","","19.3","","100.54","","","","-38","","Ice Crystals"
"-94.97","74.72","RESOLUTE BAY A","2403498","2018-12-18 12:00","2018","12","18","12:00","-24.4","","-27.9","","74","","","","3","","41","","19.3","","100.53","","","","-40","","Blowing Snow"
"-94.97","74.72","RESOLUTE BAY A","2403498","2018-12-18 13:00","2018","12","18","13:00","-24.5","","-28.2","","72","","","","3","","39","","19.3","","100.54","","","","-40","","Ice Crystals,Blowing Snow"
"-94.97","74.72","RESOLUTE BAY A","2403498","2018-12-18 14:00","2018","12","18","14:00","-24.8","","-28.7","","71","","","","3","","35","","19.3","","100.55","","","","-40","","Blowing Snow"
"-94.97","74.72","RESOLUTE BAY A","2403498","2018-12-18 15:00","2018","12","18","15:00","-24.4","","-28.5","","70","","","","3","","41","","19.3","","100.57","","","","-40","","Blowing Snow"
"-94.97","74.72","RESOLUTE BAY A","2403498","2018-12-18 16:00","2018","12","18","16:00","-24.3","","-28.8","","67","","","","3","","27","","19.3","","100.61","","","","-38","","Blowing Snow"
"-94.97","74.72","RESOLUTE BAY A","2403498","2018-12-18 17:00","2018","12","18","17:00","-26.7","","-31.7","","64","","","","3","","7","","19.3","","100.60","","","","-33","","Blowing Snow"
"-94.97","74.72","RESOLUTE BAY A","2403498","2018-12-18 18:00","2018","12","18","18:00","-29.3","","-33.5","","68","","","","26","","12","","19.3","","100.59","","","","-39","","Blowing Snow"
"-94.97","74.72","RESOLUTE BAY A","2403498","2018-12-18 19:00","2018","12","18","19:00","-26.6","","-32.0","","61","","","","22","","4","","19.3","","100.57","","","","-31","","NA"
"-94.97","74.72","RESOLUTE BAY A","2403498","2018-12-18 20:00","2018","12","18","20:00","-28.3","","-32.2","","70","","","","31","","3","","19.3","","100.57","","","","-32","","NA"
"-94.97","74.72","RESOLUTE BAY A","2403498","2018-12-18 21:00","2018","12","18","21:00","-23.6","","-28.6","","65","","","","4","","42","","24.1","","100.54","","","","-39","","Blowing Snow"
"-94.97","74.72","RESOLUTE BAY A","2403498","2018-12-18 22:00","2018","12","18","22:00","-23.1","","-28.4","","63","","","","4","","41","","24.1","","100.51","","","","-38","","Blowing Snow"
"-94.97","74.72","RESOLUTE BAY A","2403498","2018-12-18 23:00","2018","12","18","23:00","-23.4","","-28.6","","63","","","","3","","27","","24.1","","100.54","","","","-36","","Blowing Snow"
"-94.97","74.72","RESOLUTE BAY A","2403498","2018-12-19 00:00","2018","12","19","00:00","-24.4","","-29.4","","64","","","","4","","44","","24.1","","100.52","","","","-41","","Blowing Snow"
"-94.97","74.72","RESOLUTE BAY A","2403498","2018-12-19 01:00","2018","12","19","01:00","-23.6","","-28.6","","64","","","","4","","43","","24.1","","100.52","","","","-39","","Blowing Snow"
"-94.97","74.72","RESOLUTE BAY A","2403498","2018-12-19 02:00","2018","12","19","02:00","-22.7","","-27.9","","63","","","","4","","40","","24.1","","100.55","","","","-38","","Blowing Snow"
"-94.97","74.72","RESOLUTE BAY A","2403498","2018-12-19 03:00","2018","12","19","03:00","-22.9","","-28.8","","59","","","","16","","4","","24.1","","100.62","","","","-27","","Clear"
"-94.97","74.72","RESOLUTE BAY A","2403498","2018-12-19 04:00","2018","12","19","04:00","-23.2","","-28.2","","65","","","","","","0","","24.1","","100.67","","","","","","NA"
"-94.97","74.72","RESOLUTE BAY A","2403498","2018-12-19 05:00","2018","12","19","05:00","-27.0","","-31.2","","69","","","","31","","12","","24.1","","100.66","","","","-37","","NA"
"-94.97","74.72","RESOLUTE BAY A","2403498","2018-12-19 06:00","2018","12","19","06:00","-27.9","","-32.1","","68","","","","33","","8","","24.1","","100.65","","","","-36","","Clear"
"-94.97","74.72","RESOLUTE BAY A","2403498","2018-12-19 07:00","2018","12","19","07:00","-27.1","","-31.7","","66","","","","26","","5","","24.1","","100.63","","","","-32","","NA"
"-94.97","74.72","RESOLUTE BAY A","2403498","2018-12-19 08:00","2018","12","19","08:00","-30.0","","-33.6","","72","","","","34","","16","","24.1","","100.62","","","","-42","","NA"
"-94.97","74.72","RESOLUTE BAY A","2403498","2018-12-19 09:00","2018","12","19","09:00","-27.2","","-31.9","","65","","","","31","","10","","19.3","","100.62","","","","-36","","Blowing Snow"
"-94.97","74.72","RESOLUTE BAY A","2403498","2018-12-19 10:00","2018","12","19","10:00","-30.9","","-34.3","","73","","","","31","","4","","19.3","","100.64","","","","-35","","Ice Crystals"
"-94.97","74.72","RESOLUTE BAY A","2403498","2018-12-19 11:00","2018","12","19","11:00","-31.2","","-34.7","","72","","","","32","","11","","19.3","","100.61","","","","-41","","NA"
"-94.97","74.72","RESOLUTE BAY A","2403498","2018-12-19 12:00","2018","12","19","12:00","-32.4","","-35.8","","73","","","","36","","3","","19.3","","100.62","","","","-36","","Clear"
"-94.97","74.72","RESOLUTE BAY A","2403498","2018-12-19 13:00","2018","12","19","13:00","-32.5","","-36.0","","72","","","","31","","17","","19.3","","100.61","","","","-45","","NA"
"-94.97","74.72","RESOLUTE BAY A","2403498","2018-12-19 14:00","2018","12","19","14:00","-30.7","","-34.4","","70","","","","31","","19","","19.3","","100.62","","","","-44","","NA"
"-94.97","74.72","RESOLUTE BAY A","2403498","2018-12-19 15:00","2018","12","19","15:00","-31.6","","-35.2","","71","","","","32","","9","","19.3","","100.62","","","","-40","","Clear"
"-94.97","74.72","RESOLUTE BAY A","2403498","2018-12-19 16:00","2018","12","19","16:00","-30.8","","-34.2","","73","","","","32","","11","","19.3","","100.68","","","","-41","","NA"
"-94.97","74.72","RESOLUTE BAY A","2403498","2018-12-19 17:00","2018","12","19","17:00","-30.8","","-34.4","","72","","","","32","","16","","19.3","","100.68","","","","-43","","NA"
"-94.97","74.72","RESOLUTE BAY A","2403498","2018-12-19 18:00","2018","12","19","18:00","-30.8","","-34.5","","71","","","","30","","11","","19.3","","100.68","","","","-41","","Clear"
"-94.97","74.72","RESOLUTE BAY A","2403498","2018-12-19 19:00","2018","12","19","19:00","-32.7","","-36.1","","73","","","","33","","20","","19.3","","100.70","","","","-47","","NA"
"-94.97","74.72","RESOLUTE BAY A","2403498","2018-12-19 20:00","2018","12","19","20:00","-31.9","","-35.3","","73","","","","31","","28","","19.3","","100.70","","","","-48","","NA"
"-94.97","74.72","RESOLUTE BAY A","2403498","2018-12-19 21:00","2018","12","19","21:00","-29.1","","-32.3","","75","","","","33","","29","","24.1","","100.67","","","","-44","","Clear"
"-94.97","74.72","RESOLUTE BAY A","2403498","2018-12-19 22:00","2018","12","19","22:00","-26.9","","-31.0","","69","","","","35","","33","","24.1","","100.69","","","","-42","","NA"
"-94.97","74.72","RESOLUTE BAY A","2403498","2018-12-19 23:00","2018","12","19","23:00","-29.5","","-33.0","","72","","","","32","","22","","24.1","","100.75","","","","-43","","NA"
"-94.97","74.72","RESOLUTE BAY A","2403498","2018-12-20 00:00","2018","12","20","00:00","-28.3","","-32.2","","70","","","","35","","29","","24.1","","100.76","","","","-43","","Clear"
"-94.97","74.72","RESOLUTE BAY A","2403498","2018-12-20 01:00","2018","12","20","01:00","-28.5","","-32.4","","70","","","","35","","22","","24.1","","100.77","","","","-42","","NA"
"-94.97","74.72","RESOLUTE BAY A","2403498","2018-12-20 02:00","2018","12","20","02:00","-27.8","","-32.5","","65","","","","34","","28","","24.1","","100.80","","","","-42","","NA"
"-94.97","74.72","RESOLUTE BAY A","2403498","2018-12-20 03:00","2018","12","20","03:00","-28.9","","-33.2","","67","","","","33","","16","","24.1","","100.83","","","","-40","","Clear"
"-94.97","74.72","RESOLUTE BAY A","2403498","2018-12-20 04:00","2018","12","20","04:00","-27.8","","-32.2","","67","","","","36","","27","","24.1","","100.83","","","","-42","","NA"
"-94.97","74.72","RESOLUTE BAY A","2403498","2018-12-20 05:00","2018","12","20","05:00","-28.6","","-33.5","","63","","","","30","","16","","24.1","","100.88","","","","-40","","NA"
"-94.97","74.72","RESOLUTE BAY A","2403498","2018-12-20 06:00","2018","12","20","06:00","-30.9","","-34.9","","69","","","","30","","17","","24.1","","100.89","","","","-43","","Clear"
"-94.97","74.72","RESOLUTE BAY A","2403498","2018-12-20 07:00","2018","12","20","07:00","-30.2","","-34.3","","68","","","","32","","20","","24.1","","100.89","","","","-43","","NA"
"-94.97","74.72","RESOLUTE BAY A","2403498","2018-12-20 08:00","2018","12","20","08:00","-30.5","","-34.5","","69","","","","31","","19","","24.1","","100.92","","","","-43","","NA"
"-94.97","74.72","RESOLUTE BAY A","2403498","2018-12-20 09:00","2018","12","20","09:00","-30.2","","-34.1","","69","","","","33","","12","","19.3","","100.96","","","","-40","","Clear"
"-94.97","74.72","RESOLUTE BAY A","2403498","2018-12-20 10:00","2018","12","20","10:00","-28.9","","-33.0","","68","","","","33","","12","","19.3","","101.01","","","","-39","","NA"
"-94.97","74.72","RESOLUTE BAY A","2403498","2018-12-20 11:00","2018","12","20","11:00","-29.1","","-33.7","","65","","","","35","","9","","19.3","","101.01","","","","-38","","NA"
"-94.97","74.72","RESOLUTE BAY A","2403498","2018-12-20 12:00","2018","12","20","12:00","-28.7","","-33.2","","66","","","","36","","7","","19.3","","101.04","","","","-36","","Clear"
"-94.97","74.72","RESOLUTE BAY A","2403498","2018-12-20 13:00","2018","12","20","13:00","-27.9","","-32.7","","64","","","","2","","11","","19.3","","101.03","","","","-37","","NA"
"-94.97","74.72","RESOLUTE BAY A","2403498","2018-12-20 14:00","2018","12","20","14:00","-29.4","","-34.0","","65","","","","34","","5","","19.3","","101.10","","","","-35","","NA"
"-94.97","74.72","RESOLUTE BAY A","2403498","2018-12-20 15:00","2018","12","20","15:00","-29.7","","-34.1","","67","","","","29","","6","","19.3","","101.15","","","","-36","","Clear"
"-94.97","74.72","RESOLUTE BAY A","2403498","2018-12-20 16:00","2018","12","20","16:00","-29.0","","-33.1","","69","","","","32","","10","","19.3","","101.14","","","","-38","","NA"
"-94.97","74.72","RESOLUTE BAY A","2403498","2018-12-20 17:00","2018","12","20","17:00","-29.5","","-33.7","","68","","","","32","","8","","19.3","","101.18","","","","-37","","NA"
"-94.97","74.72","RESOLUTE BAY A","2403498","2018-12-20 18:00","2018","12","20","18:00","-28.9","","-33.3","","67","","","","28","","12","","19.3","","101.19","","","","-39","","Clear"
"-94.97","74.72","RESOLUTE BAY A","2403498","2018-12-20 19:00","2018","12","20","19:00","-28.3","","-32.3","","69","","","","35","","8","","19.3","","101.22","","","","-36","","NA"
"-94.97","74.72","RESOLUTE BAY A","2403498","2018-12-20 20:00","2018","12","20","20:00","-30.2","","-34.1","","69","","","","33","","13","","19.3","","101.22","","","","-41","","NA"
"-94.97","74.72","RESOLUTE BAY A","2403498","2018-12-20 21:00","2018","12","20","21:00","-29.1","","-32.7","","72","","","","34","","14","","24.1","","101.23","","","","-40","","Clear"
"-94.97","74.72","RESOLUTE BAY A","2403498","2018-12-20 22:00","2018","12","20","22:00","-28.5","","-31.6","","76","","","","33","","10","","24.1","","101.24","","","","-37","","NA"
"-94.97","74.72","RESOLUTE BAY A","2403498","2018-12-20 23:00","2018","12","20","23:00","-27.6","","-30.8","","75","","","","33","","9","","24.1","","101.24","","","","-36","","NA"
"-94.97","74.72","RESOLUTE BAY A","2403498","2018-12-21 00:00","2018","12","21","00:00","-29.1","","-32.1","","76","","","","33","","13","","24.1","","101.25","","","","-39","","Clear"
"-94.97","74.72","RESOLUTE BAY A","2403498","2018-12-21 01:00","2018","12","21","01:00","-28.7","","-31.6","","77","","","","34","","10","","24.1","","101.26","","","","-38","","NA"
"-94.97","74.72","RESOLUTE BAY A","2403498","2018-12-21 02:00","2018","12","21","02:00","-27.3","","-30.1","","78","","","","35","","4","","24.1","","101.29","","","","-32","","Ice Crystals"
"-94.97","74.72","RESOLUTE BAY A","2403498","2018-12-21 03:00","2018","12","21","03:00","-28.9","","-32.1","","75","","","","35","","7","","24.1","","101.30","","","","-36","","Ice Crystals"
"-94.97","74.72","RESOLUTE BAY A","2403498","2018-12-21 04:00","2018","12","21","04:00","-28.5","","-31.5","","76","","","","33","","12","","24.1","","101.31","","","","-38","","Ice Crystals"
"-94.97","74.72","RESOLUTE BAY A","2403498","2018-12-21 05:00","2018","12","21","05:00","-27.9","","-30.7","","77","","","","34","","10","","24.1","","101.33","","","","-37","","Ice Crystals"
"-94.97","74.72","RESOLUTE BAY A","2403498","2018-12-21 06:00","2018","12","21","06:00","-25.7","","-28.7","","76","","","","2","","4","","24.1","","101.31","","","","-30","","Ice Crystals"
"-94.97","74.72","RESOLUTE BAY A","2403498","2018-12-21 07:00","2018","12","21","07:00","-25.7","","-28.4","","78","","","","2","","4","","24.1","","101.31","","","","-30","","Ice Crystals"
"-94.97","74.72","RESOLUTE BAY A","2403498","2018-12-21 08:00","2018","12","21","08:00","-25.3","","-28.1","","77","","","","12","","7","","24.1","","101.32","","","","-32","","Ice Crystals"
"-94.97","74.72","RESOLUTE BAY A","2403498","2018-12-21 09:00","2018","12","21","09:00","-24.9","","-27.7","","79","","","","12","","5","","19.3","","101.32","","","","-30","","Clear"
"-94.97","74.72","RESOLUTE BAY A","2403498","2018-12-21 10:00","2018","12","21","10:00","-24.8","","-27.6","","78","","","","12","","10","","19.3","","101.31","","","","-33","","NA"
"-94.97","74.72","RESOLUTE BAY A","2403498","2018-12-21 11:00","2018","12","21","11:00","-23.9","","-26.4","","80","","","","12","","6","","19.3","","101.29","","","","-30","","NA"
"-94.97","74.72","RESOLUTE BAY A","2403498","2018-12-21 12:00","2018","12","21","12:00","-24.1","","-26.7","","80","","","","13","","10","","19.3","","101.29","","","","-32","","Mainly Clear"
"-94.97","74.72","RESOLUTE BAY A","2403498","2018-12-21 13:00","2018","12","21","13:00","-24.9","","-27.6","","79","","","","12","","16","","19.3","","101.29","","","","-35","","NA"
"-94.97","74.72","RESOLUTE BAY A","2403498","2018-12-21 14:00","2018","12","21","14:00","-26.2","","-29.0","","78","","","","12","","19","","19.3","","101.29","","","","-38","","NA"
"-94.97","74.72","RESOLUTE BAY A","2403498","2018-12-21 15:00","2018","12","21","15:00","-26.5","","-29.4","","77","","","","12","","21","","19.3","","101.30","","","","-39","","Clear"
"-94.97","74.72","RESOLUTE BAY A","2403498","2018-12-21 16:00","2018","12","21","16:00","-26.1","","-29.0","","77","","","","12","","24","","24.1","","101.28","","","","-39","","NA"
"-94.97","74.72","RESOLUTE BAY A","2403498","2018-12-21 17:00","2018","12","21","17:00","-26.4","","-29.4","","76","","","","12","","20","","24.1","","101.30","","","","-39","","NA"
"-94.97","74.72","RESOLUTE BAY A","2403498","2018-12-21 18:00","2018","12","21","18:00","-26.0","","-29.0","","77","","","","12","","19","","24.1","","101.30","","","","-38","","Mainly Clear"
"-94.97","74.72","RESOLUTE BAY A","2403498","2018-12-21 19:00","2018","12","21","19:00","-25.9","","-28.9","","77","","","","12","","18","","24.1","","101.27","","","","-37","","NA"
"-94.97","74.72","RESOLUTE BAY A","2403498","2018-12-21 20:00","2018","12","21","20:00","-26.7","","-29.8","","76","","","","12","","20","","24.1","","101.25","","","","-39","","NA"
"-94.97","74.72","RESOLUTE BAY A","2403498","2018-12-21 21:00","2018","12","21","21:00","-27.4","","-30.6","","75","","","","11","","20","","24.1","","101.20","","","","-40","","Ice Crystals"
"-94.97","74.72","RESOLUTE BAY A","2403498","2018-12-21 22:00","2018","12","21","22:00","-26.7","","-29.8","","76","","","","13","","25","","24.1","","101.16","","","","-40","","Ice Crystals"
"-94.97","74.72","RESOLUTE BAY A","2403498","2018-12-21 23:00","2018","12","21","23:00","-26.5","","-29.5","","76","","","","13","","24","","24.1","","101.15","","","","-40","","Ice Crystals"
"-94.97","74.72","RESOLUTE BAY A","2403498","2018-12-22 00:00","2018","12","22","00:00","-24.9","","-27.9","","77","","","","13","","24","","24.1","","101.14","","","","-38","","Ice Crystals"
"-94.97","74.72","RESOLUTE BAY A","2403498","2018-12-22 01:00","2018","12","22","01:00","-24.7","","-27.7","","77","","","","14","","28","","22.5","","101.10","","","","-38","","Ice Crystals"
"-94.97","74.72","RESOLUTE BAY A","2403498","2018-12-22 02:00","2018","12","22","02:00","-24.4","","-27.3","","77","","","","14","","28","","24.1","","101.13","","","","-38","","Ice Crystals"
"-94.97","74.72","RESOLUTE BAY A","2403498","2018-12-22 03:00","2018","12","22","03:00","-23.4","","-26.2","","78","","","","14","","24","","24.1","","101.12","","","","-36","","Ice Crystals"
"-94.97","74.72","RESOLUTE BAY A","2403498","2018-12-22 04:00","2018","12","22","04:00","-22.6","","-25.3","","79","","","","15","","30","","24.1","","101.07","","","","-36","","Ice Crystals"
"-94.97","74.72","RESOLUTE BAY A","2403498","2018-12-22 05:00","2018","12","22","05:00","-22.4","","-25.2","","79","","","","15","","26","","24.1","","101.06","","","","-35","","Snow"
"-94.97","74.72","RESOLUTE BAY A","2403498","2018-12-22 06:00","2018","12","22","06:00","-21.0","","-23.6","","80","","","","16","","25","","16.1","","101.04","","","","-33","","Snow"
"-94.97","74.72","RESOLUTE BAY A","2403498","2018-12-22 07:00","2018","12","22","07:00","-21.1","","-23.7","","80","","","","15","","26","","24.1","","101.01","","","","-33","","Snow"
"-94.97","74.72","RESOLUTE BAY A","2403498","2018-12-22 08:00","2018","12","22","08:00","-20.8","","-23.4","","80","","","","13","","24","","24.1","","100.93","","","","-32","","Snow"
"-94.97","74.72","RESOLUTE BAY A","2403498","2018-12-22 09:00","2018","12","22","09:00","-20.5","","-23.0","","80","","","","15","","27","","24.1","","100.91","","","","-33","","Snow"
"-94.97","74.72","RESOLUTE BAY A","2403498","2018-12-22 10:00","2018","12","22","10:00","-20.3","","-22.8","","81","","","","14","","26","","24.1","","100.87","","","","-32","","Snow"
"-94.97","74.72","RESOLUTE BAY A","2403498","2018-12-22 11:00","2018","12","22","11:00","-20.1","","-22.6","","81","","","","14","","27","","24.1","","100.84","","","","-32","","NA"
"-94.97","74.72","RESOLUTE BAY A","2403498","2018-12-22 12:00","2018","12","22","12:00","-19.8","","-22.3","","81","","","","12","","20","","24.1","","100.79","","","","-30","","Snow"
"-94.97","74.72","RESOLUTE BAY A","2403498","2018-12-22 13:00","2018","12","22","13:00","-18.9","","-21.3","","82","","","","18","","40","","24.1","","100.73","","","","-33","","Snow"
"-94.97","74.72","RESOLUTE BAY A","2403498","2018-12-22 14:00","2018","12","22","14:00","-19.1","","-21.5","","82","","","","17","","15","","24.1","","100.70","","","","-28","","Snow"
"-94.97","74.72","RESOLUTE BAY A","2403498","2018-12-22 15:00","2018","12","22","15:00","-20.2","","-22.7","","81","","","","25","","9","","8.1","","100.69","","","","-27","","Snow"
"-94.97","74.72","RESOLUTE BAY A","2403498","2018-12-22 16:00","2018","12","22","16:00","-20.6","","-23.1","","80","","","","24","","9","","4.8","","100.66","","","","-27","","Snow"
"-94.97","74.72","RESOLUTE BAY A","2403498","2018-12-22 17:00","2018","12","22","17:00","-20.8","","-23.4","","80","","","","28","","18","","8.1","","100.64","","","","-31","","Snow"
"-94.97","74.72","RESOLUTE BAY A","2403498","2018-12-22 18:00","2018","12","22","18:00","-21.6","","-24.2","","80","","","","27","","14","","6.4","","100.62","","","","-31","","Snow"
"-94.97","74.72","RESOLUTE BAY A","2403498","2018-12-22 19:00","2018","12","22","19:00","-22.0","","-24.6","","79","","","","28","","14","","24.1","","100.59","","","","-31","","Snow"
"-94.97","74.72","RESOLUTE BAY A","2403498","2018-12-22 20:00","2018","12","22","20:00","-22.9","","-25.6","","79","","","","30","","14","","24.1","","100.56","","","","-32","","Snow"
"-94.97","74.72","RESOLUTE BAY A","2403498","2018-12-22 21:00","2018","12","22","21:00","-29.2","","-32.5","","74","","","","31","","13","","24.1","","100.55","","","","-40","","Snow"
"-94.97","74.72","RESOLUTE BAY A","2403498","2018-12-22 22:00","2018","12","22","22:00","-27.2","","-30.1","","77","","","","32","","12","","24.1","","100.54","","","","-37","","Snow"
"-94.97","74.72","RESOLUTE BAY A","2403498","2018-12-22 23:00","2018","12","22","23:00","-25.8","","-28.6","","77","","","","29","","6","","24.1","","100.50","","","","-32","","Snow"
"-94.97","74.72","RESOLUTE BAY A","2403498","2018-12-23 00:00","2018","12","23","00:00","-26.4","","-29.4","","76","","","","32","","13","","24.1","","100.51","","","","-36","","Snow"
"-94.97","74.72","RESOLUTE BAY A","2403498","2018-12-23 01:00","2018","12","23","01:00","-24.6","","-27.4","","78","","","","30","","13","","24.1","","100.51","","","","-34","","Snow"
"-94.97","74.72","RESOLUTE BAY A","2403498","2018-12-23 02:00","2018","12","23","02:00","-22.9","","-25.6","","79","","","","31","","17","","24.1","","100.52","","","","-33","","Snow"
"-94.97","74.72","RESOLUTE BAY A","2403498","2018-12-23 03:00","2018","12","23","03:00","-22.0","","-24.7","","79","","","","33","","31","","16.1","","100.51","","","","-35","","Snow,Blowing Snow"
"-94.97","74.72","RESOLUTE BAY A","2403498","2018-12-23 04:00","2018","12","23","04:00","-23.5","","-26.4","","78","","","","34","","31","","24.1","","100.57","","","","-37","","Snow"
"-94.97","74.72","RESOLUTE BAY A","2403498","2018-12-23 05:00","2018","12","23","05:00","-26.2","","-29.4","","76","","","","35","","24","","24.1","","100.57","","","","-39","","Snow"
"-94.97","74.72","RESOLUTE BAY A","2403498","2018-12-23 06:00","2018","12","23","06:00","-28.2","","-31.5","","74","","","","2","","32","","24.1","","100.60","","","","-44","","Ice Crystals"
"-94.97","74.72","RESOLUTE BAY A","2403498","2018-12-23 07:00","2018","12","23","07:00","-28.7","","-32.0","","74","","","","36","","32","","24.1","","100.59","","","","-44","","Ice Crystals"
"-94.97","74.72","RESOLUTE BAY A","2403498","2018-12-23 08:00","2018","12","23","08:00","-30.8","","-34.2","","73","","","","34","","32","","24.1","","100.62","","","","-47","","Ice Crystals"
"-94.97","74.72","RESOLUTE BAY A","2403498","2018-12-23 09:00","2018","12","23","09:00","-31.7","","-35.2","","72","","","","32","","21","","24.1","","100.65","","","","-46","","Snow,Blowing Snow"
"-94.97","74.72","RESOLUTE BAY A","2403498","2018-12-23 10:00","2018","12","23","10:00","-31.2","","-34.7","","72","","","","35","","31","","24.1","","100.68","","","","-47","","Snow,Blowing Snow"
"-94.97","74.72","RESOLUTE BAY A","2403498","2018-12-23 11:00","2018","12","23","11:00","-31.5","","-35.0","","72","","","","32","","27","","24.1","","100.68","","","","-47","","Snow,Blowing Snow"
"-94.97","74.72","RESOLUTE BAY A","2403498","2018-12-23 12:00","2018","12","23","12:00","-30.3","","-33.7","","73","","","","33","","36","","24.1","","100.69","","","","-47","","Snow,Blowing Snow"
"-94.97","74.72","RESOLUTE BAY A","2403498","2018-12-23 13:00","2018","12","23","13:00","-31.1","","-34.5","","72","","","","33","","26","","24.1","","100.73","","","","-46","","Snow,Blowing Snow"
"-94.97","74.72","RESOLUTE BAY A","2403498","2018-12-23 14:00","2018","12","23","14:00","-31.0","","-34.5","","72","","","","32","","22","","24.1","","100.79","","","","-45","","Snow,Ice Crystals"
"-94.97","74.72","RESOLUTE BAY A","2403498","2018-12-23 15:00","2018","12","23","15:00","-32.0","","-35.6","","72","","","","34","","36","","24.1","","100.81","","","","-49","","Snow,Ice Crystals"
"-94.97","74.72","RESOLUTE BAY A","2403498","2018-12-23 16:00","2018","12","23","16:00","-31.6","","-35.1","","72","","","","34","","36","","24.1","","100.83","","","","-49","","Ice Crystals,Blowing Snow"
"-94.97","74.72","RESOLUTE BAY A","2403498","2018-12-23 17:00","2018","12","23","17:00","-31.4","","-34.9","","72","","","","33","","31","","24.1","","100.90","","","","-48","","Snow,Blowing Snow"
"-94.97","74.72","RESOLUTE BAY A","2403498","2018-12-23 18:00","2018","12","23","18:00","-31.4","","-34.9","","72","","","","34","","38","","24.1","","100.89","","","","-49","","Snow,Ice Crystals,Blowing Snow"
"-94.97","74.72","RESOLUTE BAY A","2403498","2018-12-23 19:00","2018","12","23","19:00","-32.2","","-35.7","","71","","","","34","","30","","24.1","","100.92","","","","-48","","Snow,Blowing Snow"
"-94.97","74.72","RESOLUTE BAY A","2403498","2018-12-23 20:00","2018","12","23","20:00","-31.8","","-35.3","","72","","","","35","","24","","24.1","","100.92","","","","-47","","Snow,Ice Crystals"
"-94.97","74.72","RESOLUTE BAY A","2403498","2018-12-23 21:00","2018","12","23","21:00","-31.7","","-35.2","","72","","","","34","","33","","16.1","","100.94","","","","-48","","Ice Crystals"
"-94.97","74.72","RESOLUTE BAY A","2403498","2018-12-23 22:00","2018","12","23","22:00","-32.9","","-36.5","","71","","","","34","","28","","8.1","","100.97","","","","-49","","Ice Crystals"
"-94.97","74.72","RESOLUTE BAY A","2403498","2018-12-23 23:00","2018","12","23","23:00","-35.1","","-38.8","","70","","","","33","","14","","6.4","","101.02","","","","-47","","Ice Crystals"
"-94.97","74.72","RESOLUTE BAY A","2403498","2018-12-24 00:00","2018","12","24","00:00","-34.9","","-38.6","","70","","","","34","","17","","16.1","","101.01","","","","-48","","Ice Crystals"
"-94.97","74.72","RESOLUTE BAY A","2403498","2018-12-24 01:00","2018","12","24","01:00","-32.9","","-36.5","","71","","","","35","","14","","16.1","","101.05","","","","-45","","Ice Crystals"
"-94.97","74.72","RESOLUTE BAY A","2403498","2018-12-24 02:00","2018","12","24","02:00","-34.9","","-38.6","","70","","","","32","","12","","24.1","","101.06","","","","-46","","Ice Crystals"
"-94.97","74.72","RESOLUTE BAY A","2403498","2018-12-24 03:00","2018","12","24","03:00","-34.9","","-38.6","","70","","","","31","","15","","24.1","","101.11","","","","-47","","Ice Crystals"
"-94.97","74.72","RESOLUTE BAY A","2403498","2018-12-24 04:00","2018","12","24","04:00","-34.7","","-38.3","","70","","","","32","","22","","24.1","","101.14","","","","-50","","Ice Crystals"
"-94.97","74.72","RESOLUTE BAY A","2403498","2018-12-24 05:00","2018","12","24","05:00","-35.0","","-38.6","","70","","","","32","","15","","24.1","","101.17","","","","-48","","Ice Crystals"
"-94.97","74.72","RESOLUTE BAY A","2403498","2018-12-24 06:00","2018","12","24","06:00","-34.8","","-38.4","","70","","","","31","","14","","24.1","","101.19","","","","-47","","Ice Crystals"
"-94.97","74.72","RESOLUTE BAY A","2403498","2018-12-24 07:00","2018","12","24","07:00","-34.4","","-38.0","","71","","","","34","","17","","24.1","","101.22","","","","-48","","Ice Crystals"
"-94.97","74.72","RESOLUTE BAY A","2403498","2018-12-24 08:00","2018","12","24","08:00","-33.5","","-37.1","","71","","","","35","","10","","24.1","","101.20","","","","-43","","Ice Crystals"
"-94.97","74.72","RESOLUTE BAY A","2403498","2018-12-24 09:00","2018","12","24","09:00","-33.4","","-37.0","","71","","","","34","","14","","24.1","","101.24","","","","-45","","Ice Crystals"
"-94.97","74.72","RESOLUTE BAY A","2403498","2018-12-24 10:00","2018","12","24","10:00","-32.7","","-36.2","","72","","","","33","","13","","24.1","","101.26","","","","-44","","Ice Crystals"
"-94.97","74.72","RESOLUTE BAY A","2403498","2018-12-24 11:00","2018","12","24","11:00","-34.2","","-37.8","","71","","","","31","","8","","24.1","","101.28","","","","-43","","Ice Crystals"
"-94.97","74.72","RESOLUTE BAY A","2403498","2018-12-24 12:00","2018","12","24","12:00","-37.7","","-41.6","","68","","","","33","","10","","24.1","","101.30","","","","-48","","Ice Crystals"
"-94.97","74.72","RESOLUTE BAY A","2403498","2018-12-24 13:00","2018","12","24","13:00","-35.9","","-39.5","","70","","","","32","","10","","24.1","","101.32","","","","-46","","Ice Crystals"
"-94.97","74.72","RESOLUTE BAY A","2403498","2018-12-24 14:00","2018","12","24","14:00","-36.8","","-40.6","","69","","","","32","","14","","24.1","","101.36","","","","-49","","Ice Crystals"
"-94.97","74.72","RESOLUTE BAY A","2403498","2018-12-24 15:00","2018","12","24","15:00","-36.0","","-39.8","","69","","","","33","","12","","24.1","","101.38","","","","-47","","Ice Crystals"
"-94.97","74.72","RESOLUTE BAY A","2403498","2018-12-24 16:00","2018","12","24","16:00","-36.8","","-40.6","","68","","","","33","","16","","24.1","","101.42","","","","-50","","NA"
"-94.97","74.72","RESOLUTE BAY A","2403498","2018-12-24 17:00","2018","12","24","17:00","-35.2","","-39.0","","69","","","","33","","21","","24.1","","101.46","","","","-50","","NA"
"-94.97","74.72","RESOLUTE BAY A","2403498","2018-12-24 18:00","2018","12","24","18:00","-35.8","","-39.7","","68","","","","33","","17","","24.1","","101.46","","","","-49","","Clear"
"-94.97","74.72","RESOLUTE BAY A","2403498","2018-12-24 19:00","2018","12","24","19:00","-33.6","","-37.3","","70","","","","35","","17","","24.1","","101.50","","","","-47","","NA"
"-94.97","74.72","RESOLUTE BAY A","2403498","2018-12-24 20:00","2018","12","24","20:00","-35.5","","-39.4","","69","","","","33","","22","","24.1","","101.51","","","","-51","","Ice Crystals"
"-94.97","74.72","RESOLUTE BAY A","2403498","2018-12-24 21:00","2018","12","24","21:00","-36.6","","-40.5","","68","","","","33","","18","","24.1","","101.52","","","","-51","","Ice Crystals"
"-94.97","74.72","RESOLUTE BAY A","2403498","2018-12-24 22:00","2018","12","24","22:00","-35.3","","-39.2","","69","","","","33","","17","","24.1","","101.55","","","","-49","","Ice Crystals"
"-94.97","74.72","RESOLUTE BAY A","2403498","2018-12-24 23:00","2018","12","24","23:00","-39.6","","-43.8","","66","","","","31","","14","","16.1","","101.57","","","","-53","","Ice Crystals"
"-94.97","74.72","RESOLUTE BAY A","2403498","2018-12-25 00:00","2018","12","25","00:00","-37.3","","-41.2","","68","","","","33","","15","","14.5","","101.58","","","","-50","","Ice Crystals"
"-94.97","74.72","RESOLUTE BAY A","2403498","2018-12-25 01:00","2018","12","25","01:00","-36.5","","-40.5","","68","","","","36","","24","","16.1","","101.61","","","","-53","","Ice Crystals"
"-94.97","74.72","RESOLUTE BAY A","2403498","2018-12-25 02:00","2018","12","25","02:00","-37.2","","-41.2","","67","","","","35","","18","","6.4","","101.62","","","","-51","","Ice Crystals"
"-94.97","74.72","RESOLUTE BAY A","2403498","2018-12-25 03:00","2018","12","25","03:00","-37.3","","-41.3","","67","","","","35","","20","","9.7","","101.63","","","","-52","","Ice Crystals"
"-94.97","74.72","RESOLUTE BAY A","2403498","2018-12-25 04:00","2018","12","25","04:00","-38.2","","-42.3","","67","","","","32","","16","","4.8","","101.69","","","","-52","","Ice Crystals"
"-94.97","74.72","RESOLUTE BAY A","2403498","2018-12-25 05:00","2018","12","25","05:00","-39.7","","-43.9","","66","","","","34","","20","","4.8","","101.71","","","","-55","","Ice Crystals"
"-94.97","74.72","RESOLUTE BAY A","2403498","2018-12-25 06:00","2018","12","25","06:00","-38.8","","-42.9","","66","","","","32","","17","","8.1","","101.70","","","","-53","","Ice Crystals"
"-94.97","74.72","RESOLUTE BAY A","2403498","2018-12-25 07:00","2018","12","25","07:00","-38.7","","-42.8","","66","","","","36","","18","","9.7","","101.71","","","","-53","","Ice Crystals"
"-94.97","74.72","RESOLUTE BAY A","2403498","2018-12-25 08:00","2018","12","25","08:00","-38.8","","-42.9","","66","","","","33","","17","","14.5","","101.71","","","","-53","","Ice Crystals"
"-94.97","74.72","RESOLUTE BAY A","2403498","2018-12-25 09:00","2018","12","25","09:00","-39.7","","-43.9","","65","","","","31","","13","","19.3","","101.71","","","","-52","","Ice Crystals"
"-94.97","74.72","RESOLUTE BAY A","2403498","2018-12-25 10:00","2018","12","25","10:00","-39.2","","-43.4","","66","","","","32","","13","","19.3","","101.71","","","","-52","","Ice Crystals"
"-94.97","74.72","RESOLUTE BAY A","2403498","2018-12-25 11:00","2018","12","25","11:00","-39.9","","-44.1","","65","","","","32","","16","","2.0","","101.69","","","","-54","","Fog"
"-94.97","74.72","RESOLUTE BAY A","2403498","2018-12-25 12:00","2018","12","25","12:00","-39.7","","-43.9","","66","","","","32","","14","","2.0","","101.69","","","","-53","","Fog"
"-94.97","74.72","RESOLUTE BAY A","2403498","2018-12-25 13:00","2018","12","25","13:00","-39.5","","-43.7","","66","","","","33","","15","","2.0","","101.68","","","","-53","","Fog"
"-94.97","74.72","RESOLUTE BAY A","2403498","2018-12-25 14:00","2018","12","25","14:00","-39.1","","-43.3","","66","","","","31","","17","","8.1","","101.68","","","","-53","","Fog"
"-94.97","74.72","RESOLUTE BAY A","2403498","2018-12-25 15:00","2018","12","25","15:00","-40.4","","-44.7","","65","","","","33","","13","","4.8","","101.69","","","","-53","","Fog"
"-94.97","74.72","RESOLUTE BAY A","2403498","2018-12-25 16:00","2018","12","25","16:00","-38.8","","-42.9","","66","","","","32","","13","","4.8","","101.68","","","","-51","","Fog"
"-94.97","74.72","RESOLUTE BAY A","2403498","2018-12-25 17:00","2018","12","25","17:00","-39.7","","-43.9","","65","","","","33","","14","","4.8","","101.67","","","","-53","","Fog"
"-94.97","74.72","RESOLUTE BAY A","2403498","2018-12-25 18:00","2018","12","25","18:00","-39.3","","-43.5","","66","","","","32","","13","","4.8","","101.64","","","","-52","","Fog"
"-94.97","74.72","RESOLUTE BAY A","2403498","2018-12-25 19:00","2018","12","25","19:00","-39.3","","-43.4","","66","","","","34","","16","","6.4","","101.63","","","","-53","","Fog"
"-94.97","74.72","RESOLUTE BAY A","2403498","2018-12-25 20:00","2018","12","25","20:00","-38.2","","-42.3","","66","","","","32","","17","","6.4","","101.58","","","","-52","","Fog"
"-94.97","74.72","RESOLUTE BAY A","2403498","2018-12-25 21:00","2018","12","25","21:00","-37.8","","-41.8","","67","","","","32","","14","","8.1","","101.57","","","","-51","","Ice Crystals"
"-94.97","74.72","RESOLUTE BAY A","2403498","2018-12-25 22:00","2018","12","25","22:00","-38.1","","-42.1","","67","","","","32","","15","","9.7","","101.59","","","","-51","","Snow"
"-94.97","74.72","RESOLUTE BAY A","2403498","2018-12-25 23:00","2018","12","25","23:00","-37.2","","-41.2","","67","","","","31","","13","","16.1","","101.56","","","","-49","","Snow"
"-94.97","74.72","RESOLUTE BAY A","2403498","2018-12-26 00:00","2018","12","26","00:00","-37.8","","-41.9","","67","","","","32","","13","","16.1","","101.55","","","","-50","","Snow"
"-94.97","74.72","RESOLUTE BAY A","2403498","2018-12-26 01:00","2018","12","26","01:00","-38.1","","-42.2","","66","","","","32","","17","","14.5","","101.56","","","","-52","","Snow"
"-94.97","74.72","RESOLUTE BAY A","2403498","2018-12-26 02:00","2018","12","26","02:00","-38.1","","-42.2","","67","","","","31","","13","","16.1","","101.55","","","","-50","","Snow"
"-94.97","74.72","RESOLUTE BAY A","2403498","2018-12-26 03:00","2018","12","26","03:00","-35.6","","-39.5","","68","","","","33","","17","","24.1","","101.56","","","","-49","","Snow"
"-94.97","74.72","RESOLUTE BAY A","2403498","2018-12-26 04:00","2018","12","26","04:00","-37.8","","-41.9","","67","","","","34","","11","","24.1","","101.55","","","","-49","","Snow"
"-94.97","74.72","RESOLUTE BAY A","2403498","2018-12-26 05:00","2018","12","26","05:00","-35.2","","-39.1","","69","","","","34","","13","","24.1","","101.52","","","","-47","","Snow"
"-94.97","74.72","RESOLUTE BAY A","2403498","2018-12-26 06:00","2018","12","26","06:00","-34.2","","-38.0","","69","","","","32","","9","","24.1","","101.49","","","","-44","","Snow"
"-94.97","74.72","RESOLUTE BAY A","2403498","2018-12-26 07:00","2018","12","26","07:00","-33.6","","-37.4","","70","","","","31","","14","","24.1","","101.46","","","","-45","","Snow"
"-94.97","74.72","RESOLUTE BAY A","2403498","2018-12-26 08:00","2018","12","26","08:00","-33.6","","-37.4","","70","","","","32","","14","","16.1","","101.47","","","","-45","","Snow"
"-94.97","74.72","RESOLUTE BAY A","2403498","2018-12-26 09:00","2018","12","26","09:00","-33.2","","-37.0","","70","","","","33","","18","","16.1","","101.48","","","","-46","","Snow"
"-94.97","74.72","RESOLUTE BAY A","2403498","2018-12-26 10:00","2018","12","26","10:00","-32.1","","-35.8","","71","","","","33","","12","","16.1","","101.48","","","","-43","","Snow"
"-94.97","74.72","RESOLUTE BAY A","2403498","2018-12-26 11:00","2018","12","26","11:00","-31.5","","-35.1","","71","","","","31","","12","","19.3","","101.49","","","","-42","","Snow"
"-94.97","74.72","RESOLUTE BAY A","2403498","2018-12-26 12:00","2018","12","26","12:00","-32.3","","-36.0","","71","","","","31","","4","","19.3","","101.51","","","","-37","","Mainly Clear"
"-94.97","74.72","RESOLUTE BAY A","2403498","2018-12-26 13:00","2018","12","26","13:00","-32.4","","-36.0","","71","","","","31","","16","","16.1","","101.50","","","","-45","","Ice Crystals"
"-94.97","74.72","RESOLUTE BAY A","2403498","2018-12-26 14:00","2018","12","26","14:00","-33.3","","-37.0","","70","","","","30","","17","","19.3","","101.53","","","","-46","","Ice Crystals"
"-94.97","74.72","RESOLUTE BAY A","2403498","2018-12-26 15:00","2018","12","26","15:00","-32.0","","-35.7","","71","","","","34","","27","","9.7","","101.50","","","","-48","","Blowing Snow"
"-94.97","74.72","RESOLUTE BAY A","2403498","2018-12-26 16:00","2018","12","26","16:00","-32.0","","-35.6","","71","","","","35","","37","","4.8","","101.51","","","","-50","","Blowing Snow"
"-94.97","74.72","RESOLUTE BAY A","2403498","2018-12-26 17:00","2018","12","26","17:00","-31.2","","-34.8","","72","","","","35","","45","","3.2","","101.55","","","","-50","","Blowing Snow"
"-94.97","74.72","RESOLUTE BAY A","2403498","2018-12-26 18:00","2018","12","26","18:00","-30.8","","-34.3","","72","","","","35","","45","","3.2","","101.57","","","","-49","","Blowing Snow"
"-94.97","74.72","RESOLUTE BAY A","2403498","2018-12-26 19:00","2018","12","26","19:00","-30.0","","-33.5","","73","","","","29","","11","","4.8","","101.60","","","","-40","","Blowing Snow"
"-94.97","74.72","RESOLUTE BAY A","2403498","2018-12-26 20:00","2018","12","26","20:00","-30.5","","-34.0","","72","","","","34","","21","","4.0","","101.59","","","","-44","","Ice Crystals,Blowing Snow"
"-94.97","74.72","RESOLUTE BAY A","2403498","2018-12-26 21:00","2018","12","26","21:00","-31.2","","-34.8","","72","","","","30","","23","","4.8","","101.71","","","","-45","","Ice Crystals"
"-94.97","74.72","RESOLUTE BAY A","2403498","2018-12-26 22:00","2018","12","26","22:00","-31.5","","-35.0","","71","","","","34","","31","","8.1","","101.71","","","","-48","","Ice Crystals"
"-94.97","74.72","RESOLUTE BAY A","2403498","2018-12-26 23:00","2018","12","26","23:00","-31.1","","-34.7","","72","","","","35","","44","","4.8","","101.68","","","","-50","","Ice Crystals,Blowing Snow"
"-94.97","74.72","RESOLUTE BAY A","2403498","2018-12-27 00:00","2018","12","27","00:00","-31.8","","-35.4","","71","","","","35","","42","","4.8","","101.70","","","","-50","","Ice Crystals,Blowing Snow"
"-94.97","74.72","RESOLUTE BAY A","2403498","2018-12-27 01:00","2018","12","27","01:00","-32.7","","-36.4","","70","","","","36","","36","","6.4","","101.73","","","","-50","","Ice Crystals,Blowing Snow"
"-94.97","74.72","RESOLUTE BAY A","2403498","2018-12-27 02:00","2018","12","27","02:00","-33.1","","-36.9","","70","","","","33","","32","","12.9","","101.81","","","","-50","","Ice Crystals,Blowing Snow"
"-94.97","74.72","RESOLUTE BAY A","2403498","2018-12-27 03:00","2018","12","27","03:00","-32.9","","-36.6","","70","","","","34","","30","","24.1","","101.80","","","","-49","","Ice Crystals,Blowing Snow"
"-94.97","74.72","RESOLUTE BAY A","2403498","2018-12-27 04:00","2018","12","27","04:00","-32.6","","-36.2","","71","","","","34","","35","","24.1","","101.82","","","","-50","","Ice Crystals"
"-94.97","74.72","RESOLUTE BAY A","2403498","2018-12-27 05:00","2018","12","27","05:00","-32.2","","-35.8","","71","","","","34","","32","","24.1","","101.82","","","","-49","","Ice Crystals"
"-94.97","74.72","RESOLUTE BAY A","2403498","2018-12-27 06:00","2018","12","27","06:00","-28.9","","-32.2","","74","","","","34","","40","","12.9","","101.78","","","","-46","","Ice Crystals,Blowing Snow"
"-94.97","74.72","RESOLUTE BAY A","2403498","2018-12-27 07:00","2018","12","27","07:00","-29.0","","-32.4","","73","","","","35","","39","","4.8","","101.76","","","","-46","","Ice Crystals"
"-94.97","74.72","RESOLUTE BAY A","2403498","2018-12-27 08:00","2018","12","27","08:00","-30.2","","-33.6","","72","","","","1","","46","","4.0","","101.76","","","","-49","","Ice Crystals,Blowing Snow"
"-94.97","74.72","RESOLUTE BAY A","2403498","2018-12-27 09:00","2018","12","27","09:00","-30.1","","-33.6","","72","","","","35","","34","","14.5","","101.82","","","","-47","","Ice Crystals,Blowing Snow"
"-94.97","74.72","RESOLUTE BAY A","2403498","2018-12-27 10:00","2018","12","27","10:00","-29.7","","-33.2","","73","","","","33","","45","","16.1","","101.72","","","","-48","","Blowing Snow"
"-94.97","74.72","RESOLUTE BAY A","2403498","2018-12-27 11:00","2018","12","27","11:00","-29.6","","-32.9","","73","","","","35","","21","","9.7","","101.78","","","","-43","","Blowing Snow"
"-94.97","74.72","RESOLUTE BAY A","2403498","2018-12-27 12:00","2018","12","27","12:00","-28.1","","-31.4","","74","","","","35","","32","","0.6","","101.78","","","","-44","","Blowing Snow"
"-94.97","74.72","RESOLUTE BAY A","2403498","2018-12-27 13:00","2018","12","27","13:00","-28.2","","-31.6","","74","","","","3","","67","","0.4","","101.72","","","","-49","","Blowing Snow"
"-94.97","74.72","RESOLUTE BAY A","2403498","2018-12-27 14:00","2018","12","27","14:00","-27.5","","-30.8","","74","","","","3","","67","","0.4","","101.75","","","","-48","","Blowing Snow"
"-94.97","74.72","RESOLUTE BAY A","2403498","2018-12-27 15:00","2018","12","27","15:00","-26.6","","-29.8","","75","","","","3","","55","","0.6","","101.91","","","","-45","","Blowing Snow"
"-94.97","74.72","RESOLUTE BAY A","2403498","2018-12-27 16:00","2018","12","27","16:00","-27.0","","-30.2","","75","","","","3","","65","","0.6","","101.78","","","","-47","","Blowing Snow"
"-94.97","74.72","RESOLUTE BAY A","2403498","2018-12-27 17:00","2018","12","27","17:00","-27.1","","-30.3","","75","","","","4","","65","","0.4","","101.72","","","","-47","","Blowing Snow"
"-94.97","74.72","RESOLUTE BAY A","2403498","2018-12-27 18:00","2018","12","27","18:00","-26.7","","-29.9","","75","","","","4","","56","","0.8","","101.82","","","","-45","","Blowing Snow"
"-94.97","74.72","RESOLUTE BAY A","2403498","2018-12-27 19:00","2018","12","27","19:00","-26.9","","-30.2","","75","","","","2","","58","","0.8","","101.81","","","","-46","","Blowing Snow"
"-94.97","74.72","RESOLUTE BAY A","2403498","2018-12-27 20:00","2018","12","27","20:00","-26.3","","-29.5","","75","","","","3","","53","","3.2","","101.77","","","","-44","","Blowing Snow"
"-94.97","74.72","RESOLUTE BAY A","2403498","2018-12-27 21:00","2018","12","27","21:00","-25.6","","-28.7","","75","","","","2","","28","","4.0","","101.90","","","","-39","","Blowing Snow"
"-94.97","74.72","RESOLUTE BAY A","2403498","2018-12-27 22:00","2018","12","27","22:00","-23.6","","-26.7","","76","","","","1","","23","","24.1","","101.89","","","","-36","","Ice Crystals"
"-94.97","74.72","RESOLUTE BAY A","2403498","2018-12-27 23:00","2018","12","27","23:00","-23.5","","-26.9","","74","","","","33","","13","","24.1","","101.91","","","","-33","","Ice Crystals"
"-94.97","74.72","RESOLUTE BAY A","2403498","2018-12-28 00:00","2018","12","28","00:00","-26.1","","-29.4","","74","","","","35","","19","","24.1","","101.92","","","","-38","","Ice Crystals"
"-94.97","74.72","RESOLUTE BAY A","2403498","2018-12-28 01:00","2018","12","28","01:00","-24.6","","-28.2","","72","","","","3","","39","","24.1","","101.91","","","","-40","","Ice Crystals"
"-94.97","74.72","RESOLUTE BAY A","2403498","2018-12-28 02:00","2018","12","28","02:00","-24.1","","-28.1","","70","","","","4","","39","","24.1","","101.91","","","","-39","","Ice Crystals"
"-94.97","74.72","RESOLUTE BAY A","2403498","2018-12-28 03:00","2018","12","28","03:00","-24.8","","-29.2","","68","","","","3","","59","","16.1","","101.84","","","","-43","","Ice Crystals,Blowing Snow"
"-94.97","74.72","RESOLUTE BAY A","2403498","2018-12-28 04:00","2018","12","28","04:00","-23.6","","-29.1","","61","","","","3","","55","","8.1","","101.79","","","","-41","","Ice Crystals,Blowing Snow"
"-94.97","74.72","RESOLUTE BAY A","2403498","2018-12-28 05:00","2018","12","28","05:00","-23.2","","-29.2","","59","","","","3","","49","","8.1","","101.77","","","","-40","","Ice Crystals,Blowing Snow"
"-94.97","74.72","RESOLUTE BAY A","2403498","2018-12-28 06:00","2018","12","28","06:00","-22.8","","-28.7","","60","","","","3","","52","","8.1","","101.76","","","","-39","","Ice Crystals,Blowing Snow"
"-94.97","74.72","RESOLUTE BAY A","2403498","2018-12-28 07:00","2018","12","28","07:00","-22.2","","-29.1","","54","","","","4","","50","","12.9","","101.78","","","","-38","","Ice Crystals,Blowing Snow"
"-94.97","74.72","RESOLUTE BAY A","2403498","2018-12-28 08:00","2018","12","28","08:00","-21.9","","-29.2","","52","","","","4","","48","","14.5","","101.79","","","","-38","","Ice Crystals,Blowing Snow"
"-94.97","74.72","RESOLUTE BAY A","2403498","2018-12-28 09:00","2018","12","28","09:00","-20.8","","-28.4","","51","","","","3","","48","","16.1","","101.76","","","","-36","","Blowing Snow"
"-94.97","74.72","RESOLUTE BAY A","2403498","2018-12-28 10:00","2018","12","28","10:00","-21.1","","-28.0","","55","","","","3","","49","","12.9","","101.74","","","","-37","","Blowing Snow"
"-94.97","74.72","RESOLUTE BAY A","2403498","2018-12-28 11:00","2018","12","28","11:00","-20.5","","-28.5","","50","","","","4","","48","","9.7","","101.73","","","","-36","","Blowing Snow"
"-94.97","74.72","RESOLUTE BAY A","2403498","2018-12-28 12:00","2018","12","28","12:00","-20.1","","-28.4","","48","","","","4","","49","","9.7","","101.70","","","","-35","","Blowing Snow"
"-94.97","74.72","RESOLUTE BAY A","2403498","2018-12-28 13:00","2018","12","28","13:00","-19.5","","-28.7","","45","","","","4","","43","","24.1","","101.72","","","","-34","","Blowing Snow"
"-94.97","74.72","RESOLUTE BAY A","2403498","2018-12-28 14:00","2018","12","28","14:00","-20.6","","-29.3","","46","","","","4","","45","","24.1","","101.72","","","","-36","","Blowing Snow"
"-94.97","74.72","RESOLUTE BAY A","2403498","2018-12-28 15:00","2018","12","28","15:00","-20.3","","-29.7","","44","","","","4","","42","","24.1","","101.74","","","","-35","","Blowing Snow"
"-94.97","74.72","RESOLUTE BAY A","2403498","2018-12-28 16:00","2018","12","28","16:00","-21.3","","-29.5","","49","","","","4","","44","","24.1","","101.71","","","","-36","","Blowing Snow"
"-94.97","74.72","RESOLUTE BAY A","2403498","2018-12-28 17:00","2018","12","28","17:00","-21.8","","-29.8","","49","","","","4","","44","","20.9","","101.70","","","","-37","","Blowing Snow"
"-94.97","74.72","RESOLUTE BAY A","2403498","2018-12-28 18:00","2018","12","28","18:00","-21.5","","-29.7","","48","","","","3","","44","","19.3","","101.65","","","","-37","","Blowing Snow"
"-94.97","74.72","RESOLUTE BAY A","2403498","2018-12-28 19:00","2018","12","28","19:00","-21.5","","-29.9","","48","","","","3","","39","","19.3","","101.65","","","","-36","","NA"
"-94.97","74.72","RESOLUTE BAY A","2403498","2018-12-28 20:00","2018","12","28","20:00","-27.0","","-34.3","","51","","","","28","","15","","24.1","","101.63","","","","-38","","NA"
"-94.97","74.72","RESOLUTE BAY A","2403498","2018-12-28 21:00","2018","12","28","21:00","-21.9","","-32.0","","41","","","","31","","16","","24.1","","101.57","","","","-32","","Clear"
"-94.97","74.72","RESOLUTE BAY A","2403498","2018-12-28 22:00","2018","12","28","22:00","-22.5","","-31.0","","47","","","","3","","33","","24.1","","101.51","","","","-36","","NA"
"-94.97","74.72","RESOLUTE BAY A","2403498","2018-12-28 23:00","2018","12","28","23:00","-26.6","","-35.2","","45","","","","31","","19","","24.1","","101.49","","","","-39","","NA"
"-94.97","74.72","RESOLUTE BAY A","2403498","2018-12-29 00:00","2018","12","29","00:00","-22.8","","-32.0","","44","","","","31","","15","","24.1","","101.45","","","","-33","","Clear"
"-94.97","74.72","RESOLUTE BAY A","2403498","2018-12-29 01:00","2018","12","29","01:00","-25.4","","-33.1","","50","","","","32","","25","","24.1","","101.44","","","","-39","","NA"
"-94.97","74.72","RESOLUTE BAY A","2403498","2018-12-29 02:00","2018","12","29","02:00","-25.0","","-33.0","","48","","","","31","","17","","24.1","","101.43","","","","-36","","NA"
"-94.97","74.72","RESOLUTE BAY A","2403498","2018-12-29 03:00","2018","12","29","03:00","-24.4","","-32.0","","50","","","","34","","22","","24.1","","101.40","","","","-37","","Clear"
"-94.97","74.72","RESOLUTE BAY A","2403498","2018-12-29 04:00","2018","12","29","04:00","-21.9","","-31.2","","44","","","","33","","20","","24.1","","101.35","","","","-33","","NA"
"-94.97","74.72","RESOLUTE BAY A","2403498","2018-12-29 05:00","2018","12","29","05:00","-25.4","","-32.6","","52","","","","30","","23","","24.1","","101.33","","","","-38","","NA"
"-94.97","74.72","RESOLUTE BAY A","2403498","2018-12-29 06:00","2018","12","29","06:00","-27.2","","-33.4","","56","","","","33","","26","","24.1","","101.32","","","","-41","","Clear"
"-94.97","74.72","RESOLUTE BAY A","2403498","2018-12-29 07:00","2018","12","29","07:00","-25.7","","-33.0","","51","","","","33","","22","","24.1","","101.29","","","","-38","","NA"
"-94.97","74.72","RESOLUTE BAY A","2403498","2018-12-29 08:00","2018","12","29","08:00","-24.1","","-35.9","","34","","","","1","","5","","24.1","","101.25","","","","-29","","NA"
"-94.97","74.72","RESOLUTE BAY A","2403498","2018-12-29 09:00","2018","12","29","09:00","-28.6","","-35.0","","55","","","","32","","14","","24.1","","101.26","","","","-39","","Ice Crystals"
"-94.97","74.72","RESOLUTE BAY A","2403498","2018-12-29 10:00","2018","12","29","10:00","-24.2","","-33.0","","45","","","","35","","22","","24.1","","101.23","","","","-36","","Ice Crystals"
"-94.97","74.72","RESOLUTE BAY A","2403498","2018-12-29 11:00","2018","12","29","11:00","-22.6","","-32.7","","40","","","","36","","8","","24.1","","101.20","","","","-29","","Ice Crystals"
"-94.97","74.72","RESOLUTE BAY A","2403498","2018-12-29 12:00","2018","12","29","12:00","-20.8","","-32.7","","35","","","","2","","6","","24.1","","101.18","","","","-26","","Ice Crystals"
"-94.97","74.72","RESOLUTE BAY A","2403498","2018-12-29 13:00","2018","12","29","13:00","-23.2","","-32.6","","43","","","","34","","12","","24.1","","101.17","","","","-32","","Ice Crystals"
"-94.97","74.72","RESOLUTE BAY A","2403498","2018-12-29 14:00","2018","12","29","14:00","-19.6","","-34.5","","26","","","","1","","11","","24.1","","101.16","","","","-27","","Ice Crystals"
"-94.97","74.72","RESOLUTE BAY A","2403498","2018-12-29 15:00","2018","12","29","15:00","-19.5","","-32.4","","32","","","","34","","14","","24.1","","101.14","","","","-28","","Ice Crystals"
"-94.97","74.72","RESOLUTE BAY A","2403498","2018-12-29 16:00","2018","12","29","16:00","-19.5","","-32.3","","32","","","","32","","11","","24.1","","101.17","","","","-27","","Ice Crystals"
"-94.97","74.72","RESOLUTE BAY A","2403498","2018-12-29 17:00","2018","12","29","17:00","-24.4","","-33.5","","44","","","","32","","14","","24.1","","101.17","","","","-34","","NA"
"-94.97","74.72","RESOLUTE BAY A","2403498","2018-12-29 18:00","2018","12","29","18:00","-23.8","","-33.1","","43","","","","33","","19","","24.1","","101.15","","","","-35","","Clear"
"-94.97","74.72","RESOLUTE BAY A","2403498","2018-12-29 19:00","2018","12","29","19:00"
"-94.97","74.72","RESOLUTE BAY A","2403498","2018-12-29 20:00","2018","12","29","20:00","-24.8","","-34.5","","42","","","","31","","16","","24.1","","101.13","","","","-35","","NA"
"-94.97","74.72","RESOLUTE BAY A","2403498","2018-12-29 21:00","2018","12","29","21:00","-24.2","","-33.5","","43","","","","34","","11","","24.1","","101.11","","","","-33","","Clear"
"-94.97","74.72","RESOLUTE BAY A","2403498","2018-12-29 22:00","2018","12","29","22:00","-23.7","","-33.9","","40","","","","31","","8","","24.1","","101.07","","","","-31","","NA"
"-94.97","74.72","RESOLUTE BAY A","2403498","2018-12-29 23:00","2018","12","29","23:00","-25.1","","-34.9","","41","","","","32","","16","","24.1","","101.04","","","","-36","","NA"
"-94.97","74.72","RESOLUTE BAY A","2403498","2018-12-30 00:00","2018","12","30","00:00","-28.8","","-36.5","","49","","","","30","","9","","24.1","","101.04","","","","-37","","Clear"
"-94.97","74.72","RESOLUTE BAY A","2403498","2018-12-30 01:00","2018","12","30","01:00","-28.4","","-35.2","","53","","","","32","","18","","24.1","","101.07","","","","-40","","NA"
"-94.97","74.72","RESOLUTE BAY A","2403498","2018-12-30 02:00","2018","12","30","02:00","-26.5","","-36.9","","38","","","","30","","14","","24.1","","101.06","","","","-37","","NA"
"-94.97","74.72","RESOLUTE BAY A","2403498","2018-12-30 03:00","2018","12","30","03:00","-27.2","","-35.3","","48","","","","29","","20","","24.1","","101.07","","","","-40","","Clear"
"-94.97","74.72","RESOLUTE BAY A","2403498","2018-12-30 04:00","2018","12","30","04:00","-28.4","","-35.6","","51","","","","29","","15","","24.1","","101.08","","","","-39","","NA"
"-94.97","74.72","RESOLUTE BAY A","2403498","2018-12-30 05:00","2018","12","30","05:00","-28.3","","-35.3","","52","","","","31","","9","","24.1","","101.09","","","","-37","","NA"
"-94.97","74.72","RESOLUTE BAY A","2403498","2018-12-30 06:00","2018","12","30","06:00","-28.2","","-35.2","","52","","","","31","","18","","24.1","","101.09","","","","-40","","Clear"
"-94.97","74.72","RESOLUTE BAY A","2403498","2018-12-30 07:00","2018","12","30","07:00","-25.4","","-33.0","","50","","","","31","","21","","24.1","","101.10","","","","-38","","NA"
"-94.97","74.72","RESOLUTE BAY A","2403498","2018-12-30 08:00","2018","12","30","08:00","-28.5","","-34.7","","56","","","","32","","17","","24.1","","101.11","","","","-40","","NA"
"-94.97","74.72","RESOLUTE BAY A","2403498","2018-12-30 09:00","2018","12","30","09:00","-29.3","","-34.2","","64","","","","31","","18","","24.1","","101.11","","","","-42","","Clear"
"-94.97","74.72","RESOLUTE BAY A","2403498","2018-12-30 10:00","2018","12","30","10:00","-30.0","","-35.2","","62","","","","33","","19","","24.1","","101.12","","","","-43","","NA"
"-94.97","74.72","RESOLUTE BAY A","2403498","2018-12-30 11:00","2018","12","30","11:00","-28.3","","-33.3","","63","","","","33","","18","","24.1","","101.12","","","","-40","","NA"
"-94.97","74.72","RESOLUTE BAY A","2403498","2018-12-30 12:00","2018","12","30","12:00","-29.0","","-33.5","","66","","","","32","","15","","24.1","","101.08","","","","-40","","Clear"
"-94.97","74.72","RESOLUTE BAY A","2403498","2018-12-30 13:00","2018","12","30","13:00","-28.7","","-32.8","","68","","","","31","","15","","24.1","","101.09","","","","-40","","NA"
"-94.97","74.72","RESOLUTE BAY A","2403498","2018-12-30 14:00","2018","12","30","14:00","-27.7","","-32.4","","65","","","","29","","15","","24.1","","101.11","","","","-39","","NA"
"-94.97","74.72","RESOLUTE BAY A","2403498","2018-12-30 15:00","2018","12","30","15:00","-29.8","","-34.1","","67","","","","33","","10","","24.1","","101.16","","","","-39","","Clear"
"-94.97","74.72","RESOLUTE BAY A","2403498","2018-12-30 16:00","2018","12","30","16:00","-29.8","","-33.6","","70","","","","32","","13","","24.1","","101.20","","","","-40","","NA"
"-94.97","74.72","RESOLUTE BAY A","2403498","2018-12-30 17:00","2018","12","30","17:00","-29.9","","-33.7","","70","","","","33","","13","","24.1","","101.21","","","","-40","","NA"
"-94.97","74.72","RESOLUTE BAY A","2403498","2018-12-30 18:00","2018","12","30","18:00","-26.9","","-31.4","","66","","","","34","","23","","24.1","","101.20","","","","-40","","Clear"
"-94.97","74.72","RESOLUTE BAY A","2403498","2018-12-30 19:00","2018","12","30","19:00","-26.2","","-30.6","","68","","","","34","","17","","24.1","","101.18","","","","-37","","NA"
"-94.97","74.72","RESOLUTE BAY A","2403498","2018-12-30 20:00","2018","12","30","20:00","-26.5","","-30.3","","71","","","","34","","17","","24.1","","101.17","","","","-38","","NA"
"-94.97","74.72","RESOLUTE BAY A","2403498","2018-12-30 21:00","2018","12","30","21:00","-26.6","","-30.4","","71","","","","33","","18","","24.1","","101.17","","","","-38","","Clear"
"-94.97","74.72","RESOLUTE BAY A","2403498","2018-12-30 22:00","2018","12","30","22:00","-27.0","","-30.3","","74","","","","33","","19","","24.1","","101.16","","","","-39","","NA"
"-94.97","74.72","RESOLUTE BAY A","2403498","2018-12-30 23:00","2018","12","30","23:00","-28.0","","-31.0","","76","","","","34","","14","","24.1","","101.14","","","","-39","","Ice Crystals"
"-94.97","74.72","RESOLUTE BAY A","2403498","2018-12-31 00:00","2018","12","31","00:00","-28.1","","-30.9","","77","","","","34","","9","","24.1","","101.15","","","","-36","","Ice Crystals"
"-94.97","74.72","RESOLUTE BAY A","2403498","2018-12-31 01:00","2018","12","31","01:00","-28.2","","-30.9","","78","","","","35","","10","","24.1","","101.18","","","","-37","","Ice Crystals"
"-94.97","74.72","RESOLUTE BAY A","2403498","2018-12-31 02:00","2018","12","31","02:00","-27.3","","-30.2","","77","","","","33","","14","","24.1","","101.17","","","","-38","","Ice Crystals"
"-94.97","74.72","RESOLUTE BAY A","2403498","2018-12-31 03:00","2018","12","31","03:00","-27.1","","-30.1","","77","","","","35","","10","","24.1","","101.18","","","","-36","","Ice Crystals"
"-94.97","74.72","RESOLUTE BAY A","2403498","2018-12-31 04:00","2018","12","31","04:00","-27.6","","-30.5","","76","","","","33","","8","","24.1","","101.18","","","","-35","","Ice Crystals"
"-94.97","74.72","RESOLUTE BAY A","2403498","2018-12-31 05:00","2018","12","31","05:00","-25.5","","-28.4","","77","","","","36","","5","","24.1","","101.14","","","","-31","","Ice Crystals"
"-94.97","74.72","RESOLUTE BAY A","2403498","2018-12-31 06:00","2018","12","31","06:00","-25.8","","-29.1","","74","","","","12","","5","","24.1","","101.10","","","","-31","","Ice Crystals"
"-94.97","74.72","RESOLUTE BAY A","2403498","2018-12-31 07:00","2018","12","31","07:00","-23.0","","-25.4","","81","","","","12","","10","","24.1","","101.08","","","","-31","","Ice Crystals"
"-94.97","74.72","RESOLUTE BAY A","2403498","2018-12-31 08:00","2018","12","31","08:00","-24.0","","-26.4","","81","","","","11","","16","","24.1","","101.03","","","","-34","","Ice Crystals"
"-94.97","74.72","RESOLUTE BAY A","2403498","2018-12-31 09:00","2018","12","31","09:00","-23.6","","-26.1","","80","","","","11","","19","","24.1","","101.00","","","","-35","","Ice Crystals"
"-94.97","74.72","RESOLUTE BAY A","2403498","2018-12-31 10:00","2018","12","31","10:00","-23.5","","-26.2","","79","","","","12","","23","","19.3","","100.95","","","","-36","","Ice Crystals"
"-94.97","74.72","RESOLUTE BAY A","2403498","2018-12-31 11:00","2018","12","31","11:00","-24.4","","-27.3","","78","","","","13","","25","","19.3","","100.89","","","","-37","","Ice Crystals"
"-94.97","74.72","RESOLUTE BAY A","2403498","2018-12-31 12:00","2018","12","31","12:00","-23.5","","-26.4","","78","","","","13","","23","","19.3","","100.87","","","","-36","","Ice Crystals"
"-94.97","74.72","RESOLUTE BAY A","2403498","2018-12-31 13:00","2018","12","31","13:00","-23.8","","-26.7","","78","","","","12","","28","","24.1","","100.83","","","","-37","","Ice Crystals"
"-94.97","74.72","RESOLUTE BAY A","2403498","2018-12-31 14:00","2018","12","31","14:00","-23.1","","-25.9","","78","","","","13","","27","","24.1","","100.80","","","","-36","","Ice Crystals"
"-94.97","74.72","RESOLUTE BAY A","2403498","2018-12-31 15:00","2018","12","31","15:00","-23.2","","-26.0","","78","","","","12","","27","","24.1","","100.78","","","","-36","","Ice Crystals"
"-94.97","74.72","RESOLUTE BAY A","2403498","2018-12-31 16:00","2018","12","31","16:00","-23.5","","-26.4","","78","","","","13","","30","","24.1","","100.73","","","","-37","","Ice Crystals"
"-94.97","74.72","RESOLUTE BAY A","2403498","2018-12-31 17:00","2018","12","31","17:00","-23.3","","-26.3","","77","","","","12","","25","","24.1","","100.66","","","","-36","","Ice Crystals"
"-94.97","74.72","RESOLUTE BAY A","2403498","2018-12-31 18:00","2018","12","31","18:00","-23.3","","-26.5","","76","","","","13","","22","","24.1","","100.62","","","","-35","","Ice Crystals"
"-94.97","74.72","RESOLUTE BAY A","2403498","2018-12-31 19:00","2018","12","31","19:00","-21.8","","-24.9","","76","","","","12","","29","","24.1","","100.59","","","","-35","","Ice Crystals"
"-94.97","74.72","RESOLUTE BAY A","2403498","2018-12-31 20:00","2018","12","31","20:00","-22.0","","-25.3","","75","","","","12","","33","","24.1","","100.52","","","","-36","","Ice Crystals"
"-94.97","74.72","RESOLUTE BAY A","2403498","2018-12-31 21:00","2018","12","31","21:00","-21.5","","-24.7","","76","","","","12","","33","","24.1","","100.44","","","","-35","","Ice Crystals"
"-94.97","74.72","RESOLUTE BAY A","2403498","2018-12-31 22:00","2018","12","31","22:00","-22.4","","-25.0","","80","","","","12","","36","","24.1","","100.39","","","","-37","","Ice Crystals"
"-94.97","74.72","RESOLUTE BAY A","2403498","2018-12-31 23:00","2018","12","31","23:00","-22.1","","-24.9","","78","","","","12","","45","","24.1","","100.33","","","","-38","","Ice Crystals"
