"Longitude (x)","Latitude (y)","Station Name","Climate ID","Date/Time (LST)","Year","Month","Day","Time (LST)","Temp (°C)","Temp Flag","Dew Point Temp (°C)","Dew Point Temp Flag","Rel Hum (%)","Rel Hum Flag","Precip. Amount (mm)","Precip. Amount Flag","Wind Dir (10s deg)","Wind Dir Flag","Wind Spd (km/h)","Wind Spd Flag","Visibility (km)","Visibility Flag","Stn Press (kPa)","Stn Press Flag","Hmdx","Hmdx Flag","Wind Chill","Wind Chill Flag","Weather"
"-64.30","44.36","LUNENBURG","8203210","2023-05-01 00:00","2023","05","01","00:00","5.7","","3.1","","83","","","","9","","34","","","","101.52","","","","","","NA"
"-64.30","44.36","LUNENBURG","8203210","2023-05-01 01:00","2023","05","01","01:00","6.3","","3.8","","84","","","","9","","37","","","","101.43","","","","","","NA"
"-64.30","44.36","LUNENBURG","8203210","2023-05-01 02:00","2023","05","01","02:00","6.0","","3.6","","84","","","","9","","40","","","","101.30","","","","","","NA"
"-64.30","44.36","LUNENBURG","8203210","2023-05-01 03:00","2023","05","01","03:00","6.4","","3.8","","84","","","","9","","40","","","","101.16","","","","","","NA"
"-64.30","44.36","LUNENBURG","8203210","2023-05-01 04:00","2023","05","01","04:00","6.8","","4.5","","85","","","","9","","43","","","","101.01","","","","","","NA"
"-64.30","44.36","LUNENBURG","8203210","2023-05-01 05:00","2023","05","01","05:00","6.9","","5.6","","91","","","","9","","49","","","","100.86","","","","","","NA"
"-64.30","44.36","LUNENBURG","8203210","2023-05-01 06:00","2023","05","01","06:00","7.1","","5.9","","91","","","","9","","53","","","","100.71","","","","","","NA"
"-64.30","44.36","LUNENBURG","8203210","2023-05-01 07:00","2023","05","01","07:00","7.4","","6.4","","93","","","","10","","57","","","","100.68","","","","","","NA"
"-64.30","44.36","LUNENBURG","8203210","2023-05-01 08:00","2023","05","01","08:00","7.3","","6.5","","95","","","","10","","61","","","","100.55","","","","","","NA"
"-64.30","44.36","LUNENBURG","8203210","2023-05-01 09:00","2023","05","01","09:00","7.4","","6.7","","95","","","","10","","68","","","","100.44","","","","","","NA"
"-64.30","44.36","LUNENBURG","8203210","2023-05-01 10:00","2023","05","01","10:00","7.3","","6.6","","95","","","","10","","64","","","","100.33","","","","","","NA"
"-64.30","44.36","LUNENBURG","8203210","2023-05-01 11:00","2023","05","01","11:00","7.4","","6.8","","96","","","","10","","65","","","","100.28","","","","","","NA"
"-64.30","44.36","LUNENBURG","8203210","2023-05-01 12:00","2023","05","01","12:00","7.6","","6.9","","95","","","","12","","62","","","","100.29","","","","","","NA"
"-64.30","44.36","LUNENBURG","8203210","2023-05-01 13:00","2023","05","01","13:00","7.7","","7.0","","95","","","","12","","66","","","","100.26","","","","","","NA"
"-64.30","44.36","LUNENBURG","8203210","2023-05-01 14:00","2023","05","01","14:00","7.4","","6.8","","96","","","","11","","60","","","","100.10","","","","","","NA"
"-64.30","44.36","LUNENBURG","8203210","2023-05-01 15:00","2023","05","01","15:00","7.3","","6.8","","97","","","","10","","55","","","","100.04","","","","","","NA"
"-64.30","44.36","LUNENBURG","8203210","2023-05-01 16:00","2023","05","01","16:00","7.4","","6.9","","97","","","","12","","22","","","","100.12","","","","","","NA"
"-64.30","44.36","LUNENBURG","8203210","2023-05-01 17:00","2023","05","01","17:00","7.6","","7.1","","97","","","","9","","20","","","","100.20","","","","","","NA"
"-64.30","44.36","LUNENBURG","8203210","2023-05-01 18:00","2023","05","01","18:00","7.3","","6.9","","97","","","","8","","23","","","","100.18","","","","","","NA"
"-64.30","44.36","LUNENBURG","8203210","2023-05-01 19:00","2023","05","01","19:00","7.0","","6.7","","97","","","","8","","27","","","","100.19","","","","","","NA"
"-64.30","44.36","LUNENBURG","8203210","2023-05-01 20:00","2023","05","01","20:00","6.6","","6.3","","98","","","","8","","27","","","","100.25","","","","","","NA"
"-64.30","44.36","LUNENBURG","8203210","2023-05-01 21:00","2023","05","01","21:00","6.5","","6.2","","98","","","","8","","20","","","","100.31","","","","","","NA"
"-64.30","44.36","LUNENBURG","8203210","2023-05-01 22:00","2023","05","01","22:00","6.3","","6.0","","98","","","","9","","20","","","","100.32","","","","","","NA"
"-64.30","44.36","LUNENBURG","8203210","2023-05-01 23:00","2023","05","01","23:00","6.2","","5.9","","98","","","","9","","17","","","","100.34","","","","","","NA"
"-64.30","44.36","LUNENBURG","8203210","2023-05-02 00:00","2023","05","02","00:00","5.9","","5.7","","99","","","","8","","14","","","","100.33","","","","","","NA"
"-64.30","44.36","LUNENBURG","8203210","2023-05-02 01:00","2023","05","02","01:00","6.0","","5.8","","99","","","","9","","14","","","","100.38","","","","","","NA"
"-64.30","44.36","LUNENBURG","8203210","2023-05-02 02:00","2023","05","02","02:00","5.8","","5.6","","99","","","","8","","13","","","","100.36","","","","","","NA"
"-64.30","44.36","LUNENBURG","8203210","2023-05-02 03:00","2023","05","02","03:00","5.9","","5.7","","99","","","","7","","12","","","","100.35","","","","","","NA"
"-64.30","44.36","LUNENBURG","8203210","2023-05-02 04:00","2023","05","02","04:00","5.8","","5.6","","99","","","","6","","14","","","","100.38","","","","","","NA"
"-64.30","44.36","LUNENBURG","8203210","2023-05-02 05:00","2023","05","02","05:00","5.6","","5.5","","99","","","","7","","20","","","","100.34","","","","","","NA"
"-64.30","44.36","LUNENBURG","8203210","2023-05-02 06:00","2023","05","02","06:00","5.7","","5.5","","99","","","","6","","18","","","","100.35","","","","","","NA"
"-64.30","44.36","LUNENBURG","8203210","2023-05-02 07:00","2023","05","02","07:00","5.6","","5.4","","99","","","","8","","20","","","","100.40","","","","","","NA"
"-64.30","44.36","LUNENBURG","8203210","2023-05-02 08:00","2023","05","02","08:00","5.6","","5.4","","99","","","","7","","22","","","","100.40","","","","","","NA"
"-64.30","44.36","LUNENBURG","8203210","2023-05-02 09:00","2023","05","02","09:00","5.8","","5.5","","98","","","","7","","23","","","","100.42","","","","","","NA"
"-64.30","44.36","LUNENBURG","8203210","2023-05-02 10:00","2023","05","02","10:00","6.1","","5.7","","97","","","","7","","25","","","","100.44","","","","","","NA"
"-64.30","44.36","LUNENBURG","8203210","2023-05-02 11:00","2023","05","02","11:00","6.2","","5.6","","96","","","","7","","24","","","","100.42","","","","","","NA"
"-64.30","44.36","LUNENBURG","8203210","2023-05-02 12:00","2023","05","02","12:00","6.6","","5.4","","91","","","","8","","26","","","","100.44","","","","","","NA"
"-64.30","44.36","LUNENBURG","8203210","2023-05-02 13:00","2023","05","02","13:00","6.8","","5.1","","89","","","","7","","23","","","","100.33","","","","","","NA"
"-64.30","44.36","LUNENBURG","8203210","2023-05-02 14:00","2023","05","02","14:00","6.7","","4.8","","88","","","","8","","30","","","","100.29","","","","","","NA"
"-64.30","44.36","LUNENBURG","8203210","2023-05-02 15:00","2023","05","02","15:00","6.5","","4.5","","87","","","","8","","20","","","","100.30","","","","","","NA"
"-64.30","44.36","LUNENBURG","8203210","2023-05-02 16:00","2023","05","02","16:00","6.8","","4.7","","86","","","","7","","23","","","","100.17","","","","","","NA"
"-64.30","44.36","LUNENBURG","8203210","2023-05-02 17:00","2023","05","02","17:00","6.2","","4.7","","91","","","","7","","27","","","","100.14","","","","","","NA"
"-64.30","44.36","LUNENBURG","8203210","2023-05-02 18:00","2023","05","02","18:00","5.5","","4.5","","93","","","","7","","23","","","","100.21","","","","","","NA"
"-64.30","44.36","LUNENBURG","8203210","2023-05-02 19:00","2023","05","02","19:00","5.3","","4.6","","96","","","","7","","20","","","","100.26","","","","","","NA"
"-64.30","44.36","LUNENBURG","8203210","2023-05-02 20:00","2023","05","02","20:00","5.2","","4.7","","96","","","","7","","22","","","","100.28","","","","","","NA"
"-64.30","44.36","LUNENBURG","8203210","2023-05-02 21:00","2023","05","02","21:00","5.2","","4.6","","96","","","","6","","18","","","","100.30","","","","","","NA"
"-64.30","44.36","LUNENBURG","8203210","2023-05-02 22:00","2023","05","02","22:00","5.0","","4.2","","94","","","","6","","22","","","","100.29","","","","","","NA"
"-64.30","44.36","LUNENBURG","8203210","2023-05-02 23:00","2023","05","02","23:00","4.9","","4.2","","95","","","","6","","22","","","","100.24","","","","","","NA"
"-64.30","44.36","LUNENBURG","8203210","2023-05-03 00:00","2023","05","03","00:00","4.8","","4.1","","95","","","","6","","19","","","","100.23","","","","","","NA"
"-64.30","44.36","LUNENBURG","8203210","2023-05-03 01:00","2023","05","03","01:00","4.8","","4.1","","95","","","","6","","20","","","","100.27","","","","","","NA"
"-64.30","44.36","LUNENBURG","8203210","2023-05-03 02:00","2023","05","03","02:00","4.5","","3.8","","95","","","","6","","19","","","","100.26","","","","","","NA"
"-64.30","44.36","LUNENBURG","8203210","2023-05-03 03:00","2023","05","03","03:00","4.4","","3.8","","96","","","","8","","17","","","","100.26","","","","","","NA"
"-64.30","44.36","LUNENBURG","8203210","2023-05-03 04:00","2023","05","03","04:00","4.4","","3.8","","96","","","","6","","17","","","","100.25","","","","","","NA"
"-64.30","44.36","LUNENBURG","8203210","2023-05-03 05:00","2023","05","03","05:00","4.4","","3.9","","96","","","","7","","19","","","","100.29","","","","","","NA"
"-64.30","44.36","LUNENBURG","8203210","2023-05-03 06:00","2023","05","03","06:00","4.3","","3.8","","96","","","","7","","23","","","","100.32","","","","","","NA"
"-64.30","44.36","LUNENBURG","8203210","2023-05-03 07:00","2023","05","03","07:00","4.3","","3.6","","95","","","","7","","27","","","","100.35","","","","","","NA"
"-64.30","44.36","LUNENBURG","8203210","2023-05-03 08:00","2023","05","03","08:00","4.5","","3.4","","93","","","","7","","27","","","","100.41","","","","","","NA"
"-64.30","44.36","LUNENBURG","8203210","2023-05-03 09:00","2023","05","03","09:00","4.7","","3.1","","90","","","","8","","27","","","","100.48","","","","","","NA"
"-64.30","44.36","LUNENBURG","8203210","2023-05-03 10:00","2023","05","03","10:00","4.8","","2.9","","88","","","","7","","30","","","","100.50","","","","","","NA"
"-64.30","44.36","LUNENBURG","8203210","2023-05-03 11:00","2023","05","03","11:00","4.8","","2.9","","88","","","","8","","30","","","","100.56","","","","","","NA"
"-64.30","44.36","LUNENBURG","8203210","2023-05-03 12:00","2023","05","03","12:00","4.9","","2.7","","86","","","","9","","32","","","","100.62","","","","","","NA"
"-64.30","44.36","LUNENBURG","8203210","2023-05-03 13:00","2023","05","03","13:00","5.6","","2.4","","80","","","","8","","33","","","","100.61","","","","","","NA"
"-64.30","44.36","LUNENBURG","8203210","2023-05-03 14:00","2023","05","03","14:00","5.4","","2.4","","81","","","","8","","29","","","","100.61","","","","","","NA"
"-64.30","44.36","LUNENBURG","8203210","2023-05-03 15:00","2023","05","03","15:00","4.9","","2.7","","86","","","","10","","37","","","","100.63","","","","","","NA"
"-64.30","44.36","LUNENBURG","8203210","2023-05-03 16:00","2023","05","03","16:00","4.6","","2.5","","86","","","","9","","37","","","","100.64","","","","","","NA"
"-64.30","44.36","LUNENBURG","8203210","2023-05-03 17:00","2023","05","03","17:00","4.7","","3.1","","89","","","","10","","38","","","","100.65","","","","","","NA"
"-64.30","44.36","LUNENBURG","8203210","2023-05-03 18:00","2023","05","03","18:00","4.2","","2.7","","90","","","","9","","36","","","","100.70","","","","","","NA"
"-64.30","44.36","LUNENBURG","8203210","2023-05-03 19:00","2023","05","03","19:00","4.0","","2.3","","89","","","","9","","28","","","","100.74","","","","","","NA"
"-64.30","44.36","LUNENBURG","8203210","2023-05-03 20:00","2023","05","03","20:00","4.0","","2.7","","91","","","","8","","25","","","","100.77","","","","","","NA"
"-64.30","44.36","LUNENBURG","8203210","2023-05-03 21:00","2023","05","03","21:00","3.9","","2.8","","92","","","","8","","18","","","","100.79","","","","","","NA"
"-64.30","44.36","LUNENBURG","8203210","2023-05-03 22:00","2023","05","03","22:00","4.2","","3.3","","94","","","","5","","10","","","","100.79","","","","","","NA"
"-64.30","44.36","LUNENBURG","8203210","2023-05-03 23:00","2023","05","03","23:00","4.3","","2.3","","87","","","","5","","19","","","","100.79","","","","","","NA"
"-64.30","44.36","LUNENBURG","8203210","2023-05-04 00:00","2023","05","04","00:00","4.1","","2.1","","87","","","","4","","16","","","","100.80","","","","","","NA"
"-64.30","44.36","LUNENBURG","8203210","2023-05-04 01:00","2023","05","04","01:00","3.7","","2.5","","91","","","","5","","16","","","","100.77","","","","","","NA"
"-64.30","44.36","LUNENBURG","8203210","2023-05-04 02:00","2023","05","04","02:00","3.5","","2.3","","92","","","","5","","17","","","","100.73","","","","","","NA"
"-64.30","44.36","LUNENBURG","8203210","2023-05-04 03:00","2023","05","04","03:00","3.7","","2.2","","90","","","","4","","16","","","","100.73","","","","","","NA"
"-64.30","44.36","LUNENBURG","8203210","2023-05-04 04:00","2023","05","04","04:00","3.9","","2.1","","88","","","","4","","21","","","","100.71","","","","","","NA"
"-64.30","44.36","LUNENBURG","8203210","2023-05-04 05:00","2023","05","04","05:00","4.1","","2.1","","87","","","","4","","22","","","","100.74","","","","","","NA"
"-64.30","44.36","LUNENBURG","8203210","2023-05-04 06:00","2023","05","04","06:00","4.2","","2.1","","86","","","","4","","21","","","","100.76","","","","","","NA"
"-64.30","44.36","LUNENBURG","8203210","2023-05-04 07:00","2023","05","04","07:00","4.5","","2.3","","86","","","","4","","17","","","","100.81","","","","","","NA"
"-64.30","44.36","LUNENBURG","8203210","2023-05-04 08:00","2023","05","04","08:00","5.0","","2.7","","85","","","","3","","12","","","","100.82","","","","","","NA"
"-64.30","44.36","LUNENBURG","8203210","2023-05-04 09:00","2023","05","04","09:00","5.4","","2.9","","84","","","","3","","14","","","","100.80","","","","","","NA"
"-64.30","44.36","LUNENBURG","8203210","2023-05-04 10:00","2023","05","04","10:00","6.0","","3.4","","83","","","","4","","16","","","","100.79","","","","","","NA"
"-64.30","44.36","LUNENBURG","8203210","2023-05-04 11:00","2023","05","04","11:00","6.8","","3.9","","82","","","","4","","20","","","","100.76","","","","","","NA"
"-64.30","44.36","LUNENBURG","8203210","2023-05-04 12:00","2023","05","04","12:00","7.5","","4.4","","81","","","","3","","14","","","","100.74","","","","","","NA"
"-64.30","44.36","LUNENBURG","8203210","2023-05-04 13:00","2023","05","04","13:00","8.0","","5.0","","82","","","","3","","12","","","","100.74","","","","","","NA"
"-64.30","44.36","LUNENBURG","8203210","2023-05-04 14:00","2023","05","04","14:00","8.6","","5.3","","79","","","","2","","12","","","","100.71","","","","","","NA"
"-64.30","44.36","LUNENBURG","8203210","2023-05-04 15:00","2023","05","04","15:00","8.8","","5.7","","81","","","","4","","18","","","","100.70","","","","","","NA"
"-64.30","44.36","LUNENBURG","8203210","2023-05-04 16:00","2023","05","04","16:00","9.0","","5.9","","81","","","","3","","11","","","","100.74","","","","","","NA"
"-64.30","44.36","LUNENBURG","8203210","2023-05-04 17:00","2023","05","04","17:00","9.1","","5.8","","80","","","","3","","12","","","","100.80","","","","","","NA"
"-64.30","44.36","LUNENBURG","8203210","2023-05-04 18:00","2023","05","04","18:00","9.0","","5.8","","80","","","","2","","10","","","","100.85","","","","","","NA"
"-64.30","44.36","LUNENBURG","8203210","2023-05-04 19:00","2023","05","04","19:00","8.9","","5.5","","80","","","","2","","11","","","","100.91","","","","","","NA"
"-64.30","44.36","LUNENBURG","8203210","2023-05-04 20:00","2023","05","04","20:00","8.6","","5.4","","80","","","","2","","10","","","","100.98","","","","","","NA"
"-64.30","44.36","LUNENBURG","8203210","2023-05-04 21:00","2023","05","04","21:00","8.2","","5.3","","82","","","","2","","10","","","","101.05","","","","","","NA"
"-64.30","44.36","LUNENBURG","8203210","2023-05-04 22:00","2023","05","04","22:00","8.3","","4.9","","79","","","","4","","19","","","","101.12","","","","","","NA"
"-64.30","44.36","LUNENBURG","8203210","2023-05-04 23:00","2023","05","04","23:00","8.2","","5.3","","81","","","","2","","10","","","","101.17","","","","","","NA"
"-64.30","44.36","LUNENBURG","8203210","2023-05-05 00:00","2023","05","05","00:00","7.1","","4.5","","83","","","","35","","18","","","","101.21","","","","","","NA"
"-64.30","44.36","LUNENBURG","8203210","2023-05-05 01:00","2023","05","05","01:00","6.8","","4.2","","83","","","","35","","21","","","","101.24","","","","","","NA"
"-64.30","44.36","LUNENBURG","8203210","2023-05-05 02:00","2023","05","05","02:00","6.4","","3.8","","83","","","","35","","23","","","","101.28","","","","","","NA"
"-64.30","44.36","LUNENBURG","8203210","2023-05-05 03:00","2023","05","05","03:00","6.1","","3.3","","82","","","","35","","25","","","","101.31","","","","","","NA"
"-64.30","44.36","LUNENBURG","8203210","2023-05-05 04:00","2023","05","05","04:00","5.7","","3.1","","83","","","","35","","24","","","","101.33","","","","","","NA"
"-64.30","44.36","LUNENBURG","8203210","2023-05-05 05:00","2023","05","05","05:00","5.7","","3.1","","83","","","","35","","21","","","","101.39","","","","","","NA"
"-64.30","44.36","LUNENBURG","8203210","2023-05-05 06:00","2023","05","05","06:00","5.7","","2.6","","80","","","","35","","21","","","","101.45","","","","","","NA"
"-64.30","44.36","LUNENBURG","8203210","2023-05-05 07:00","2023","05","05","07:00","5.7","","2.6","","81","","","","35","","21","","","","101.53","","","","","","NA"
"-64.30","44.36","LUNENBURG","8203210","2023-05-05 08:00","2023","05","05","08:00","6.1","","2.4","","77","","","","35","","22","","","","101.56","","","","","","NA"
"-64.30","44.36","LUNENBURG","8203210","2023-05-05 09:00","2023","05","05","09:00","6.3","","2.1","","74","","","","35","","29","","","","101.58","","","","","","NA"
"-64.30","44.36","LUNENBURG","8203210","2023-05-05 10:00","2023","05","05","10:00","6.4","","2.0","","74","","","","34","","33","","","","101.61","","","","","","NA"
"-64.30","44.36","LUNENBURG","8203210","2023-05-05 11:00","2023","05","05","11:00","6.6","","1.6","","71","","","","35","","35","","","","101.65","","","","","","NA"
"-64.30","44.36","LUNENBURG","8203210","2023-05-05 12:00","2023","05","05","12:00","6.5","","1.3","","69","","","","35","","31","","","","101.67","","","","","","NA"
"-64.30","44.36","LUNENBURG","8203210","2023-05-05 13:00","2023","05","05","13:00","7.3","","1.6","","67","","","","35","","26","","","","101.69","","","","","","NA"
"-64.30","44.36","LUNENBURG","8203210","2023-05-05 14:00","2023","05","05","14:00","8.1","","1.3","","62","","","","35","","24","","","","101.65","","","","","","NA"
"-64.30","44.36","LUNENBURG","8203210","2023-05-05 15:00","2023","05","05","15:00","8.6","","1.2","","60","","","","35","","21","","","","101.65","","","","","","NA"
"-64.30","44.36","LUNENBURG","8203210","2023-05-05 16:00","2023","05","05","16:00","9.6","","-0.6","","49","","","","35","","22","","","","101.63","","","","","","NA"
"-64.30","44.36","LUNENBURG","8203210","2023-05-05 17:00","2023","05","05","17:00","10.5","","-2.7","","39","","","","34","","20","","","","101.60","","","","","","NA"
"-64.30","44.36","LUNENBURG","8203210","2023-05-05 18:00","2023","05","05","18:00","10.6","","-3.6","","37","","","","35","","21","","","","101.61","","","","","","NA"
"-64.30","44.36","LUNENBURG","8203210","2023-05-05 19:00","2023","05","05","19:00","9.4","","-3.5","","40","","","","35","","18","","","","101.65","","","","","","NA"
"-64.30","44.36","LUNENBURG","8203210","2023-05-05 20:00","2023","05","05","20:00","8.4","","-2.6","","46","","","","36","","9","","","","101.69","","","","","","NA"
"-64.30","44.36","LUNENBURG","8203210","2023-05-05 21:00","2023","05","05","21:00","7.7","","-1.4","","52","","","","36","","7","","","","101.70","","","","","","NA"
"-64.30","44.36","LUNENBURG","8203210","2023-05-05 22:00","2023","05","05","22:00","6.1","","-1.0","","61","","","","32","","4","","","","101.68","","","","","","NA"
"-64.30","44.36","LUNENBURG","8203210","2023-05-05 23:00","2023","05","05","23:00","5.0","","1.0","","75","","","","31","","5","","","","101.64","","","","","","NA"
"-64.30","44.36","LUNENBURG","8203210","2023-05-06 00:00","2023","05","06","00:00","4.4","","0.4","","75","","","","32","","7","","","","101.62","","","","","","NA"
"-64.30","44.36","LUNENBURG","8203210","2023-05-06 01:00","2023","05","06","01:00","3.9","","-0.3","","74","","","","34","","6","","","","101.62","","","","","","NA"
"-64.30","44.36","LUNENBURG","8203210","2023-05-06 02:00","2023","05","06","02:00","3.3","","-0.9","","74","","","","27","","8","","","","101.59","","","","","","NA"
"-64.30","44.36","LUNENBURG","8203210","2023-05-06 03:00","2023","05","06","03:00","3.5","","-1.0","","72","","","","32","","6","","","","101.58","","","","","","NA"
"-64.30","44.36","LUNENBURG","8203210","2023-05-06 04:00","2023","05","06","04:00","2.5","","-1.3","","76","","","","28","","9","","","","101.54","","","","","","NA"
"-64.30","44.36","LUNENBURG","8203210","2023-05-06 05:00","2023","05","06","05:00","2.3","","-1.1","","78","","","","26","","6","","","","101.49","","","","","","NA"
"-64.30","44.36","LUNENBURG","8203210","2023-05-06 06:00","2023","05","06","06:00","3.3","","-0.5","","76","","","","25","","7","","","","101.50","","","","","","NA"
"-64.30","44.36","LUNENBURG","8203210","2023-05-06 07:00","2023","05","06","07:00","5.2","","0.5","","72","","","","23","","4","","","","101.47","","","","","","NA"
"-64.30","44.36","LUNENBURG","8203210","2023-05-06 08:00","2023","05","06","08:00","9.9","","0.1","","50","","","","28","","24","","","","101.35","","","","","","NA"
"-64.30","44.36","LUNENBURG","8203210","2023-05-06 09:00","2023","05","06","09:00","12.1","","1.8","","49","","","","27","","15","","","","101.28","","","","","","NA"
"-64.30","44.36","LUNENBURG","8203210","2023-05-06 10:00","2023","05","06","10:00","15.4","","-0.2","","34","","","","29","","21","","","","101.22","","","","","","NA"
"-64.30","44.36","LUNENBURG","8203210","2023-05-06 11:00","2023","05","06","11:00","16.8","","0.5","","33","","","","31","","24","","","","101.10","","","","","","NA"
"-64.30","44.36","LUNENBURG","8203210","2023-05-06 12:00","2023","05","06","12:00","16.7","","1.6","","36","","","","31","","32","","","","100.97","","","","","","NA"
"-64.30","44.36","LUNENBURG","8203210","2023-05-06 13:00","2023","05","06","13:00","18.6","","1.5","","32","","","","34","","34","","","","101.02","","","","","","NA"
"-64.30","44.36","LUNENBURG","8203210","2023-05-06 14:00","2023","05","06","14:00","17.2","","3.6","","40","","","","35","","20","","","","101.07","","","","","","NA"
"-64.30","44.36","LUNENBURG","8203210","2023-05-06 15:00","2023","05","06","15:00","16.4","","3.4","","42","","","","35","","20","","","","101.12","","","","","","NA"
"-64.30","44.36","LUNENBURG","8203210","2023-05-06 16:00","2023","05","06","16:00","15.7","","2.5","","41","","","","1","","14","","","","101.16","","","","","","NA"
"-64.30","44.36","LUNENBURG","8203210","2023-05-06 17:00","2023","05","06","17:00","14.5","","-0.8","","35","","","","35","","19","","","","101.18","","","","","","NA"
"-64.30","44.36","LUNENBURG","8203210","2023-05-06 18:00","2023","05","06","18:00","13.5","","-3.4","","31","","","","35","","18","","","","101.24","","","","","","NA"
"-64.30","44.36","LUNENBURG","8203210","2023-05-06 19:00","2023","05","06","19:00","12.8","","-1.7","","37","","","","2","","4","","","","101.27","","","","","","NA"
"-64.30","44.36","LUNENBURG","8203210","2023-05-06 20:00","2023","05","06","20:00","11.0","","-1.3","","42","","","","1","","4","","","","101.34","","","","","","NA"
"-64.30","44.36","LUNENBURG","8203210","2023-05-06 21:00","2023","05","06","21:00","10.2","","-1.5","","44","","","","4","","11","","","","101.41","","","","","","NA"
"-64.30","44.36","LUNENBURG","8203210","2023-05-06 22:00","2023","05","06","22:00","8.7","","-0.3","","53","","","","5","","3","","","","101.42","","","","","","NA"
"-64.30","44.36","LUNENBURG","8203210","2023-05-06 23:00","2023","05","06","23:00","8.0","","0.8","","60","","","","35","","5","","","","101.44","","","","","","NA"
"-64.30","44.36","LUNENBURG","8203210","2023-05-07 00:00","2023","05","07","00:00","6.4","","1.2","","69","","","","7","","4","","","","101.38","","","","","","NA"
"-64.30","44.36","LUNENBURG","8203210","2023-05-07 01:00","2023","05","07","01:00","6.0","","-2.5","","54","","","","4","","8","","","","101.34","","","","","","NA"
"-64.30","44.36","LUNENBURG","8203210","2023-05-07 02:00","2023","05","07","02:00","5.7","","-2.9","","54","","","","0","","1","","","","101.33","","","","","","NA"
"-64.30","44.36","LUNENBURG","8203210","2023-05-07 03:00","2023","05","07","03:00","4.9","","0.5","","73","","","","29","","3","","","","101.31","","","","","","NA"
"-64.30","44.36","LUNENBURG","8203210","2023-05-07 04:00","2023","05","07","04:00","3.9","","1.0","","81","","","","29","","5","","","","101.29","","","","","","NA"
"-64.30","44.36","LUNENBURG","8203210","2023-05-07 05:00","2023","05","07","05:00","4.0","","0.9","","80","","","","23","","1","","","","101.27","","","","","","NA"
"-64.30","44.36","LUNENBURG","8203210","2023-05-07 06:00","2023","05","07","06:00","4.4","","1.4","","81","","","","26","","4","","","","101.31","","","","","","NA"
"-64.30","44.36","LUNENBURG","8203210","2023-05-07 07:00","2023","05","07","07:00","5.9","","2.6","","79","","","","24","","2","","","","101.30","","","","","","NA"
"-64.30","44.36","LUNENBURG","8203210","2023-05-07 08:00","2023","05","07","08:00","8.2","","-0.4","","55","","","","19","","11","","","","101.22","","","","","","NA"
"-64.30","44.36","LUNENBURG","8203210","2023-05-07 09:00","2023","05","07","09:00","9.3","","0.0","","52","","","","18","","12","","","","101.16","","","","","","NA"
"-64.30","44.36","LUNENBURG","8203210","2023-05-07 10:00","2023","05","07","10:00","10.5","","-0.2","","48","","","","19","","19","","","","101.04","","","","","","NA"
"-64.30","44.36","LUNENBURG","8203210","2023-05-07 11:00","2023","05","07","11:00","10.9","","0.6","","49","","","","20","","23","","","","100.95","","","","","","NA"
"-64.30","44.36","LUNENBURG","8203210","2023-05-07 12:00","2023","05","07","12:00","11.1","","0.7","","49","","","","19","","28","","","","100.87","","","","","","NA"
"-64.30","44.36","LUNENBURG","8203210","2023-05-07 13:00","2023","05","07","13:00","11.6","","1.7","","50","","","","20","","38","","","","100.73","","","","","","NA"
"-64.30","44.36","LUNENBURG","8203210","2023-05-07 14:00","2023","05","07","14:00","11.7","","3.8","","58","","","","20","","42","","","","100.69","","","","","","NA"
"-64.30","44.36","LUNENBURG","8203210","2023-05-07 15:00","2023","05","07","15:00","11.0","","4.9","","66","","","","20","","46","","","","100.57","","","","","","NA"
"-64.30","44.36","LUNENBURG","8203210","2023-05-07 16:00","2023","05","07","16:00","10.5","","5.9","","73","","","","21","","39","","","","100.50","","","","","","NA"
"-64.30","44.36","LUNENBURG","8203210","2023-05-07 17:00","2023","05","07","17:00","9.7","","6.2","","79","","","","21","","33","","","","100.42","","","","","","NA"
"-64.30","44.36","LUNENBURG","8203210","2023-05-07 18:00","2023","05","07","18:00","9.4","","6.3","","81","","","","22","","28","","","","100.40","","","","","","NA"
"-64.30","44.36","LUNENBURG","8203210","2023-05-07 19:00","2023","05","07","19:00","9.1","","6.5","","83","","","","21","","20","","","","100.37","","","","","","NA"
"-64.30","44.36","LUNENBURG","8203210","2023-05-07 20:00","2023","05","07","20:00","8.7","","6.4","","86","","","","25","","10","","","","100.37","","","","","","NA"
"-64.30","44.36","LUNENBURG","8203210","2023-05-07 21:00","2023","05","07","21:00","9.0","","6.9","","87","","","","27","","11","","","","100.37","","","","","","NA"
"-64.30","44.36","LUNENBURG","8203210","2023-05-07 22:00","2023","05","07","22:00","9.3","","6.4","","82","","","","26","","15","","","","100.33","","","","","","NA"
"-64.30","44.36","LUNENBURG","8203210","2023-05-07 23:00","2023","05","07","23:00","10.4","","5.7","","73","","","","24","","19","","","","100.26","","","","","","NA"
"-64.30","44.36","LUNENBURG","8203210","2023-05-08 00:00","2023","05","08","00:00","10.7","","5.4","","70","","","","23","","23","","","","100.18","","","","","","NA"
"-64.30","44.36","LUNENBURG","8203210","2023-05-08 01:00","2023","05","08","01:00","10.7","","5.3","","69","","","","24","","18","","","","100.10","","","","","","NA"
"-64.30","44.36","LUNENBURG","8203210","2023-05-08 02:00","2023","05","08","02:00","10.8","","5.3","","69","","","","24","","18","","","","100.02","","","","","","NA"
"-64.30","44.36","LUNENBURG","8203210","2023-05-08 03:00","2023","05","08","03:00","9.2","","6.2","","81","","","","24","","7","","","","99.94","","","","","","NA"
"-64.30","44.36","LUNENBURG","8203210","2023-05-08 04:00","2023","05","08","04:00","9.1","","5.8","","80","","","","29","","4","","","","99.88","","","","","","NA"
"-64.30","44.36","LUNENBURG","8203210","2023-05-08 05:00","2023","05","08","05:00","10.2","","5.4","","72","","","","30","","8","","","","99.89","","","","","","NA"
"-64.30","44.36","LUNENBURG","8203210","2023-05-08 06:00","2023","05","08","06:00","9.3","","6.5","","83","","","","18","","4","","","","99.89","","","","","","NA"
"-64.30","44.36","LUNENBURG","8203210","2023-05-08 07:00","2023","05","08","07:00","10.0","","6.0","","76","","","","26","","3","","","","99.91","","","","","","NA"
"-64.30","44.36","LUNENBURG","8203210","2023-05-08 08:00","2023","05","08","08:00","10.4","","5.7","","73","","","","23","","5","","","","99.87","","","","","","NA"
"-64.30","44.36","LUNENBURG","8203210","2023-05-08 09:00","2023","05","08","09:00","10.3","","6.7","","78","","","","15","","7","","","","99.82","","","","","","NA"
"-64.30","44.36","LUNENBURG","8203210","2023-05-08 10:00","2023","05","08","10:00","11.8","","7.1","","73","","","","24","","9","","","","99.85","","","","","","NA"
"-64.30","44.36","LUNENBURG","8203210","2023-05-08 11:00","2023","05","08","11:00","15.6","","4.4","","47","","","","26","","13","","","","99.81","","","","","","NA"
"-64.30","44.36","LUNENBURG","8203210","2023-05-08 12:00","2023","05","08","12:00","16.5","","1.2","","35","","","","28","","29","","","","99.71","","","","","","NA"
"-64.30","44.36","LUNENBURG","8203210","2023-05-08 13:00","2023","05","08","13:00","17.0","","-0.8","","30","","","","29","","37","","","","99.60","","","","","","NA"
"-64.30","44.36","LUNENBURG","8203210","2023-05-08 14:00","2023","05","08","14:00","17.2","","-3.3","","24","","","","29","","32","","","","99.68","","","","","","NA"
"-64.30","44.36","LUNENBURG","8203210","2023-05-08 15:00","2023","05","08","15:00","15.9","","-1.5","","30","","","","31","","39","","","","99.64","","","","","","NA"
"-64.30","44.36","LUNENBURG","8203210","2023-05-08 16:00","2023","05","08","16:00","16.0","","-3.6","","26","","","","30","","38","","","","99.76","","","","","","NA"
"-64.30","44.36","LUNENBURG","8203210","2023-05-08 17:00","2023","05","08","17:00","14.8","","-2.3","","31","","","","31","","38","","","","99.82","","","","","","NA"
"-64.30","44.36","LUNENBURG","8203210","2023-05-08 18:00","2023","05","08","18:00","12.3","","2.5","","51","","","","35","","29","","","","100.02","","","","","","NA"
"-64.30","44.36","LUNENBURG","8203210","2023-05-08 19:00","2023","05","08","19:00","10.7","","2.1","","55","","","","33","","32","","","","100.15","","","","","","NA"
"-64.30","44.36","LUNENBURG","8203210","2023-05-08 20:00","2023","05","08","20:00","7.9","","2.2","","67","","","","33","","32","","","","100.33","","","","","","NA"
"-64.30","44.36","LUNENBURG","8203210","2023-05-08 21:00","2023","05","08","21:00","6.4","","2.5","","76","","","","33","","32","","","","100.53","","","","","","NA"
"-64.30","44.36","LUNENBURG","8203210","2023-05-08 22:00","2023","05","08","22:00","6.0","","1.7","","74","","","","34","","23","","","","100.58","","","","","","NA"
"-64.30","44.36","LUNENBURG","8203210","2023-05-08 23:00","2023","05","08","23:00","5.7","","1.9","","76","","","","33","","26","","","","100.62","","","","","","NA"
"-64.30","44.36","LUNENBURG","8203210","2023-05-09 00:00","2023","05","09","00:00","4.9","","1.5","","79","","","","32","","22","","","","100.69","","","","","","NA"
"-64.30","44.36","LUNENBURG","8203210","2023-05-09 01:00","2023","05","09","01:00","4.4","","1.1","","79","","","","30","","13","","","","100.69","","","","","","NA"
"-64.30","44.36","LUNENBURG","8203210","2023-05-09 02:00","2023","05","09","02:00","3.5","","1.2","","85","","","","30","","16","","","","100.69","","","","","","NA"
"-64.30","44.36","LUNENBURG","8203210","2023-05-09 03:00","2023","05","09","03:00","3.4","","1.3","","86","","","","30","","20","","","","100.74","","","","","","NA"
"-64.30","44.36","LUNENBURG","8203210","2023-05-09 04:00","2023","05","09","04:00","3.0","","0.5","","84","","","","29","","22","","","","100.74","","","","","","NA"
"-64.30","44.36","LUNENBURG","8203210","2023-05-09 05:00","2023","05","09","05:00","3.3","","0.9","","84","","","","30","","25","","","","100.77","","","","","","NA"
"-64.30","44.36","LUNENBURG","8203210","2023-05-09 06:00","2023","05","09","06:00","3.6","","1.3","","85","","","","29","","20","","","","100.88","","","","","","NA"
"-64.30","44.36","LUNENBURG","8203210","2023-05-09 07:00","2023","05","09","07:00","5.0","","0.9","","75","","","","30","","21","","","","100.93","","","","","","NA"
"-64.30","44.36","LUNENBURG","8203210","2023-05-09 08:00","2023","05","09","08:00","6.5","","-1.6","","56","","","","31","","27","","","","100.92","","","","","","NA"
"-64.30","44.36","LUNENBURG","8203210","2023-05-09 09:00","2023","05","09","09:00","7.6","","-3.4","","46","","","","31","","32","","","","100.95","","","","","","NA"
"-64.30","44.36","LUNENBURG","8203210","2023-05-09 10:00","2023","05","09","10:00","8.4","","-4.6","","40","","","","31","","35","","","","100.98","","","","","","NA"
"-64.30","44.36","LUNENBURG","8203210","2023-05-09 11:00","2023","05","09","11:00","9.1","","-5.9","","34","","","","32","","30","","","","101.00","","","","","","NA"
"-64.30","44.36","LUNENBURG","8203210","2023-05-09 12:00","2023","05","09","12:00","9.5","","-6.5","","32","","","","31","","29","","","","101.01","","","","","","NA"
"-64.30","44.36","LUNENBURG","8203210","2023-05-09 13:00","2023","05","09","13:00","10.0","","-8.1","","27","","","","31","","28","","","","101.07","","","","","","NA"
"-64.30","44.36","LUNENBURG","8203210","2023-05-09 14:00","2023","05","09","14:00","9.9","","-4.9","","35","","","","32","","27","","","","101.09","","","","","","NA"
"-64.30","44.36","LUNENBURG","8203210","2023-05-09 15:00","2023","05","09","15:00","9.8","","-4.0","","38","","","","32","","27","","","","101.11","","","","","","NA"
"-64.30","44.36","LUNENBURG","8203210","2023-05-09 16:00","2023","05","09","16:00","10.2","","-5.8","","32","","","","33","","22","","","","101.12","","","","","","NA"
"-64.30","44.36","LUNENBURG","8203210","2023-05-09 17:00","2023","05","09","17:00","10.3","","-5.6","","32","","","","34","","19","","","","101.16","","","","","","NA"
"-64.30","44.36","LUNENBURG","8203210","2023-05-09 18:00","2023","05","09","18:00","10.5","","-5.2","","33","","","","32","","25","","","","101.18","","","","","","NA"
"-64.30","44.36","LUNENBURG","8203210","2023-05-09 19:00","2023","05","09","19:00","9.9","","-4.1","","37","","","","32","","21","","","","101.25","","","","","","NA"
"-64.30","44.36","LUNENBURG","8203210","2023-05-09 20:00","2023","05","09","20:00","8.4","","-3.5","","43","","","","32","","3","","","","101.32","","","","","","NA"
"-64.30","44.36","LUNENBURG","8203210","2023-05-09 21:00","2023","05","09","21:00","7.6","","-1.2","","54","","","","4","","9","","","","101.46","","","","","","NA"
"-64.30","44.36","LUNENBURG","8203210","2023-05-09 22:00","2023","05","09","22:00","6.0","","1.9","","75","","","","25","","4","","","","101.48","","","","","","NA"
"-64.30","44.36","LUNENBURG","8203210","2023-05-09 23:00","2023","05","09","23:00","6.6","","1.7","","71","","","","15","","10","","","","101.53","","","","","","NA"
"-64.30","44.36","LUNENBURG","8203210","2023-05-10 00:00","2023","05","10","00:00","6.0","","1.1","","71","","","","21","","11","","","","101.54","","","","","","NA"
"-64.30","44.36","LUNENBURG","8203210","2023-05-10 01:00","2023","05","10","01:00","4.8","","2.1","","82","","","","26","","7","","","","101.50","","","","","","NA"
"-64.30","44.36","LUNENBURG","8203210","2023-05-10 02:00","2023","05","10","02:00","3.9","","0.6","","79","","","","27","","7","","","","101.45","","","","","","NA"
"-64.30","44.36","LUNENBURG","8203210","2023-05-10 03:00","2023","05","10","03:00","3.5","","0.9","","83","","","","27","","14","","","","101.43","","","","","","NA"
"-64.30","44.36","LUNENBURG","8203210","2023-05-10 04:00","2023","05","10","04:00","3.8","","1.0","","82","","","","28","","13","","","","101.40","","","","","","NA"
"-64.30","44.36","LUNENBURG","8203210","2023-05-10 05:00","2023","05","10","05:00","4.4","","1.4","","81","","","","27","","15","","","","101.39","","","","","","NA"
"-64.30","44.36","LUNENBURG","8203210","2023-05-10 06:00","2023","05","10","06:00","5.0","","1.1","","76","","","","26","","19","","","","101.41","","","","","","NA"
"-64.30","44.36","LUNENBURG","8203210","2023-05-10 07:00","2023","05","10","07:00","7.0","","1.0","","66","","","","27","","20","","","","101.39","","","","","","NA"
"-64.30","44.36","LUNENBURG","8203210","2023-05-10 08:00","2023","05","10","08:00","9.6","","-0.2","","51","","","","27","","20","","","","101.40","","","","","","NA"
"-64.30","44.36","LUNENBURG","8203210","2023-05-10 09:00","2023","05","10","09:00","11.4","","-3.1","","36","","","","28","","32","","","","101.32","","","","","","NA"
"-64.30","44.36","LUNENBURG","8203210","2023-05-10 10:00","2023","05","10","10:00","11.9","","-3.5","","34","","","","26","","29","","","","101.25","","","","","","NA"
"-64.30","44.36","LUNENBURG","8203210","2023-05-10 11:00","2023","05","10","11:00","13.4","","-5.4","","26","","","","29","","31","","","","101.22","","","","","","NA"
"-64.30","44.36","LUNENBURG","8203210","2023-05-10 12:00","2023","05","10","12:00","13.0","","-5.2","","28","","","","29","","27","","","","101.14","","","","","","NA"
"-64.30","44.36","LUNENBURG","8203210","2023-05-10 13:00","2023","05","10","13:00","13.4","","-5.2","","27","","","","31","","36","","","","101.07","","","","","","NA"
"-64.30","44.36","LUNENBURG","8203210","2023-05-10 14:00","2023","05","10","14:00","13.9","","-5.2","","26","","","","32","","39","","","","101.04","","","","","","NA"
"-64.30","44.36","LUNENBURG","8203210","2023-05-10 15:00","2023","05","10","15:00","13.9","","-5.6","","25","","","","30","","41","","","","101.01","","","","","","NA"
"-64.30","44.36","LUNENBURG","8203210","2023-05-10 16:00","2023","05","10","16:00","14.2","","-6.4","","23","","","","30","","36","","","","101.04","","","","","","NA"
"-64.30","44.36","LUNENBURG","8203210","2023-05-10 17:00","2023","05","10","17:00","13.3","","-2.9","","32","","","","32","","27","","","","101.06","","","","","","NA"
"-64.30","44.36","LUNENBURG","8203210","2023-05-10 18:00","2023","05","10","18:00","13.4","","-1.7","","35","","","","33","","12","","","","101.07","","","","","","NA"
"-64.30","44.36","LUNENBURG","8203210","2023-05-10 19:00","2023","05","10","19:00","13.3","","-1.7","","35","","","","6","","6","","","","101.12","","","","","","NA"
"-64.30","44.36","LUNENBURG","8203210","2023-05-10 20:00","2023","05","10","20:00","11.2","","0.3","","47","","","","15","","11","","","","101.26","","","","","","NA"
"-64.30","44.36","LUNENBURG","8203210","2023-05-10 21:00","2023","05","10","21:00","10.8","","1.0","","51","","","","1","","1","","","","101.35","","","","","","NA"
"-64.30","44.36","LUNENBURG","8203210","2023-05-10 22:00","2023","05","10","22:00","8.9","","4.2","","72","","","","19","","4","","","","101.33","","","","","","NA"
"-64.30","44.36","LUNENBURG","8203210","2023-05-10 23:00","2023","05","10","23:00","9.4","","2.2","","61","","","","27","","12","","","","101.38","","","","","","NA"
"-64.30","44.36","LUNENBURG","8203210","2023-05-11 00:00","2023","05","11","00:00","10.3","","1.0","","52","","","","24","","18","","","","101.31","","","","","","NA"
"-64.30","44.36","LUNENBURG","8203210","2023-05-11 01:00","2023","05","11","01:00","9.4","","1.9","","60","","","","24","","14","","","","101.26","","","","","","NA"
"-64.30","44.36","LUNENBURG","8203210","2023-05-11 02:00","2023","05","11","02:00","9.1","","1.5","","59","","","","23","","7","","","","101.25","","","","","","NA"
"-64.30","44.36","LUNENBURG","8203210","2023-05-11 03:00","2023","05","11","03:00","9.1","","0.3","","54","","","","23","","5","","","","101.27","","","","","","NA"
"-64.30","44.36","LUNENBURG","8203210","2023-05-11 04:00","2023","05","11","04:00","7.9","","4.5","","79","","","","20","","3","","","","101.25","","","","","","NA"
"-64.30","44.36","LUNENBURG","8203210","2023-05-11 05:00","2023","05","11","05:00","7.6","","4.6","","81","","","","22","","4","","","","101.24","","","","","","NA"
"-64.30","44.36","LUNENBURG","8203210","2023-05-11 06:00","2023","05","11","06:00","7.3","","5.2","","86","","","","27","","5","","","","101.28","","","","","","NA"
"-64.30","44.36","LUNENBURG","8203210","2023-05-11 07:00","2023","05","11","07:00","8.3","","4.6","","78","","","","30","","2","","","","101.31","","","","","","NA"
"-64.30","44.36","LUNENBURG","8203210","2023-05-11 08:00","2023","05","11","08:00","8.9","","4.4","","73","","","","10","","3","","","","101.32","","","","","","NA"
"-64.30","44.36","LUNENBURG","8203210","2023-05-11 09:00","2023","05","11","09:00","9.6","","6.5","","81","","","","8","","3","","","","101.35","","","","","","NA"
"-64.30","44.36","LUNENBURG","8203210","2023-05-11 10:00","2023","05","11","10:00","9.9","","7.5","","85","","","","12","","8","","","","101.35","","","","","","NA"
"-64.30","44.36","LUNENBURG","8203210","2023-05-11 11:00","2023","05","11","11:00","9.6","","5.6","","76","","","","10","","14","","","","101.33","","","","","","NA"
"-64.30","44.36","LUNENBURG","8203210","2023-05-11 12:00","2023","05","11","12:00","9.4","","6.5","","82","","","","10","","14","","","","101.32","","","","","","NA"
"-64.30","44.36","LUNENBURG","8203210","2023-05-11 13:00","2023","05","11","13:00","9.5","","6.7","","83","","","","11","","17","","","","101.32","","","","","","NA"
"-64.30","44.36","LUNENBURG","8203210","2023-05-11 14:00","2023","05","11","14:00","8.9","","6.8","","86","","","","12","","26","","","","101.36","","","","","","NA"
"-64.30","44.36","LUNENBURG","8203210","2023-05-11 15:00","2023","05","11","15:00","8.5","","6.6","","88","","","","13","","17","","","","101.36","","","","","","NA"
"-64.30","44.36","LUNENBURG","8203210","2023-05-11 16:00","2023","05","11","16:00","8.6","","6.2","","85","","","","14","","16","","","","101.35","","","","","","NA"
"-64.30","44.36","LUNENBURG","8203210","2023-05-11 17:00","2023","05","11","17:00","8.8","","6.3","","84","","","","10","","14","","","","101.41","","","","","","NA"
"-64.30","44.36","LUNENBURG","8203210","2023-05-11 18:00","2023","05","11","18:00","8.6","","6.4","","86","","","","11","","15","","","","101.44","","","","","","NA"
"-64.30","44.36","LUNENBURG","8203210","2023-05-11 19:00","2023","05","11","19:00","8.2","","6.5","","89","","","","11","","12","","","","101.48","","","","","","NA"
"-64.30","44.36","LUNENBURG","8203210","2023-05-11 20:00","2023","05","11","20:00","8.0","","6.7","","91","","","","12","","9","","","","101.55","","","","","","NA"
"-64.30","44.36","LUNENBURG","8203210","2023-05-11 21:00","2023","05","11","21:00","7.4","","6.2","","92","","","","9","","9","","","","101.60","","","","","","NA"
"-64.30","44.36","LUNENBURG","8203210","2023-05-11 22:00","2023","05","11","22:00","7.0","","6.1","","94","","","","7","","10","","","","101.64","","","","","","NA"
"-64.30","44.36","LUNENBURG","8203210","2023-05-11 23:00","2023","05","11","23:00","6.9","","6.1","","95","","","","8","","9","","","","101.68","","","","","","NA"
"-64.30","44.36","LUNENBURG","8203210","2023-05-12 00:00","2023","05","12","00:00","6.6","","5.8","","95","","","","6","","7","","","","101.67","","","","","","NA"
"-64.30","44.36","LUNENBURG","8203210","2023-05-12 01:00","2023","05","12","01:00","6.5","","5.9","","96","","","","8","","9","","","","101.65","","","","","","NA"
"-64.30","44.36","LUNENBURG","8203210","2023-05-12 02:00","2023","05","12","02:00","6.4","","6.0","","97","","","","11","","6","","","","101.63","","","","","","NA"
"-64.30","44.36","LUNENBURG","8203210","2023-05-12 03:00","2023","05","12","03:00","5.8","","5.5","","98","","","","14","","7","","","","101.60","","","","","","NA"
"-64.30","44.36","LUNENBURG","8203210","2023-05-12 04:00","2023","05","12","04:00","6.0","","5.8","","98","","","","13","","4","","","","101.62","","","","","","NA"
"-64.30","44.36","LUNENBURG","8203210","2023-05-12 05:00","2023","05","12","05:00","5.9","","5.6","","98","","","","14","","3","","","","101.59","","","","","","NA"
"-64.30","44.36","LUNENBURG","8203210","2023-05-12 06:00","2023","05","12","06:00","5.6","","5.3","","98","","","","5","","7","","","","101.62","","","","","","NA"
"-64.30","44.36","LUNENBURG","8203210","2023-05-12 07:00","2023","05","12","07:00","6.6","","6.4","","98","","","","7","","5","","","","101.65","","","","","","NA"
"-64.30","44.36","LUNENBURG","8203210","2023-05-12 08:00","2023","05","12","08:00","7.9","","7.4","","97","","","","13","","9","","","","101.68","","","","","","NA"
"-64.30","44.36","LUNENBURG","8203210","2023-05-12 09:00","2023","05","12","09:00","8.7","","7.7","","93","","","","12","","12","","","","101.67","","","","","","NA"
"-64.30","44.36","LUNENBURG","8203210","2023-05-12 10:00","2023","05","12","10:00","8.5","","7.1","","91","","","","12","","19","","","","101.64","","","","","","NA"
"-64.30","44.36","LUNENBURG","8203210","2023-05-12 11:00","2023","05","12","11:00","8.7","","6.8","","88","","","","11","","23","","","","101.61","","","","","","NA"
"-64.30","44.36","LUNENBURG","8203210","2023-05-12 12:00","2023","05","12","12:00","8.7","","7.3","","91","","","","12","","28","","","","101.56","","","","","","NA"
"-64.30","44.36","LUNENBURG","8203210","2023-05-12 13:00","2023","05","12","13:00","8.8","","6.9","","88","","","","11","","27","","","","101.52","","","","","","NA"
"-64.30","44.36","LUNENBURG","8203210","2023-05-12 14:00","2023","05","12","14:00","8.9","","7.4","","90","","","","12","","28","","","","101.49","","","","","","NA"
"-64.30","44.36","LUNENBURG","8203210","2023-05-12 15:00","2023","05","12","15:00","9.0","","7.1","","88","","","","11","","22","","","","101.46","","","","","","NA"
"-64.30","44.36","LUNENBURG","8203210","2023-05-12 16:00","2023","05","12","16:00","8.8","","7.2","","90","","","","11","","21","","","","101.41","","","","","","NA"
"-64.30","44.36","LUNENBURG","8203210","2023-05-12 17:00","2023","05","12","17:00","9.4","","7.7","","89","","","","14","","16","","","","101.41","","","","","","NA"
"-64.30","44.36","LUNENBURG","8203210","2023-05-12 18:00","2023","05","12","18:00","9.8","","8.0","","88","","","","13","","12","","","","101.38","","","","","","NA"
"-64.30","44.36","LUNENBURG","8203210","2023-05-12 19:00","2023","05","12","19:00","9.4","","7.9","","91","","","","14","","12","","","","101.40","","","","","","NA"
"-64.30","44.36","LUNENBURG","8203210","2023-05-12 20:00","2023","05","12","20:00","8.4","","7.5","","94","","","","13","","14","","","","101.42","","","","","","NA"
"-64.30","44.36","LUNENBURG","8203210","2023-05-12 21:00","2023","05","12","21:00","8.7","","7.8","","94","","","","16","","10","","","","101.44","","","","","","NA"
"-64.30","44.36","LUNENBURG","8203210","2023-05-12 22:00","2023","05","12","22:00","8.5","","7.8","","95","","","","19","","12","","","","101.41","","","","","","NA"
"-64.30","44.36","LUNENBURG","8203210","2023-05-12 23:00","2023","05","12","23:00","8.2","","7.6","","96","","","","21","","9","","","","101.33","","","","","","NA"
"-64.30","44.36","LUNENBURG","8203210","2023-05-13 00:00","2023","05","13","00:00","8.0","","7.6","","97","","","","17","","5","","","","101.25","","","","","","NA"
"-64.30","44.36","LUNENBURG","8203210","2023-05-13 01:00","2023","05","13","01:00","7.6","","7.3","","98","","","","17","","8","","","","101.18","","","","","","NA"
"-64.30","44.36","LUNENBURG","8203210","2023-05-13 02:00","2023","05","13","02:00","7.3","","7.0","","98","","","","13","","8","","","","101.13","","","","","","NA"
"-64.30","44.36","LUNENBURG","8203210","2023-05-13 03:00","2023","05","13","03:00","7.3","","7.0","","98","","","","24","","2","","","","101.11","","","","","","NA"
"-64.30","44.36","LUNENBURG","8203210","2023-05-13 04:00","2023","05","13","04:00","7.1","","6.9","","99","","","","21","","4","","","","101.08","","","","","","NA"
"-64.30","44.36","LUNENBURG","8203210","2023-05-13 05:00","2023","05","13","05:00","7.0","","6.8","","99","","","","18","","5","","","","101.02","","","","","","NA"
"-64.30","44.36","LUNENBURG","8203210","2023-05-13 06:00","2023","05","13","06:00","7.1","","6.9","","99","","","","36","","1","","","","101.03","","","","","","NA"
"-64.30","44.36","LUNENBURG","8203210","2023-05-13 07:00","2023","05","13","07:00","7.3","","7.1","","98","","","","14","","2","","","","101.02","","","","","","NA"
"-64.30","44.36","LUNENBURG","8203210","2023-05-13 08:00","2023","05","13","08:00","8.3","","8.1","","98","","","","28","","4","","","","101.09","","","","","","NA"
"-64.30","44.36","LUNENBURG","8203210","2023-05-13 09:00","2023","05","13","09:00","9.0","","8.6","","97","","","","11","","7","","","","101.01","","","","","","NA"
"-64.30","44.36","LUNENBURG","8203210","2023-05-13 10:00","2023","05","13","10:00","8.8","","8.0","","95","","","","11","","17","","","","100.90","","","","","","NA"
"-64.30","44.36","LUNENBURG","8203210","2023-05-13 11:00","2023","05","13","11:00","8.4","","7.9","","97","","","","13","","13","","","","100.92","","","","","","NA"
"-64.30","44.36","LUNENBURG","8203210","2023-05-13 12:00","2023","05","13","12:00","9.5","","8.6","","94","","","","11","","16","","","","100.85","","","","","","NA"
"-64.30","44.36","LUNENBURG","8203210","2023-05-13 13:00","2023","05","13","13:00","12.4","","10.8","","90","","","","14","","9","","","","100.83","","","","","","NA"
"-64.30","44.36","LUNENBURG","8203210","2023-05-13 14:00","2023","05","13","14:00","13.6","","10.1","","79","","","","15","","9","","","","100.76","","","","","","NA"
"-64.30","44.36","LUNENBURG","8203210","2023-05-13 15:00","2023","05","13","15:00","13.2","","10.0","","81","","","","9","","10","","","","100.67","","","","","","NA"
"-64.30","44.36","LUNENBURG","8203210","2023-05-13 16:00","2023","05","13","16:00","19.2","","3.7","","36","","","","35","","10","","","","100.75","","","","","","NA"
"-64.30","44.36","LUNENBURG","8203210","2023-05-13 17:00","2023","05","13","17:00","18.0","","2.9","","36","","","","31","","35","","","","100.65","","","","","","NA"
"-64.30","44.36","LUNENBURG","8203210","2023-05-13 18:00","2023","05","13","18:00","17.6","","2.1","","35","","","","31","","33","","","","100.72","","","","","","NA"
"-64.30","44.36","LUNENBURG","8203210","2023-05-13 19:00","2023","05","13","19:00","14.4","","3.9","","49","","","","32","","35","","","","100.86","","","","","","NA"
"-64.30","44.36","LUNENBURG","8203210","2023-05-13 20:00","2023","05","13","20:00","13.7","","2.6","","47","","","","31","","11","","","","100.94","","","","","","NA"
"-64.30","44.36","LUNENBURG","8203210","2023-05-13 21:00","2023","05","13","21:00","10.9","","6.0","","72","","","","27","","11","","","","100.99","","","","","","NA"
"-64.30","44.36","LUNENBURG","8203210","2023-05-13 22:00","2023","05","13","22:00","11.7","","4.5","","61","","","","32","","28","","","","101.03","","","","","","NA"
"-64.30","44.36","LUNENBURG","8203210","2023-05-13 23:00","2023","05","13","23:00","9.3","","5.9","","79","","","","30","","28","","","","101.15","","","","","","NA"
"-64.30","44.36","LUNENBURG","8203210","2023-05-14 00:00","2023","05","14","00:00","7.9","","4.3","","78","","","","31","","27","","","","101.26","","","","","","NA"
"-64.30","44.36","LUNENBURG","8203210","2023-05-14 01:00","2023","05","14","01:00","6.4","","3.6","","82","","","","31","","24","","","","101.29","","","","","","NA"
"-64.30","44.36","LUNENBURG","8203210","2023-05-14 02:00","2023","05","14","02:00","5.8","","3.5","","85","","","","30","","22","","","","101.28","","","","","","NA"
"-64.30","44.36","LUNENBURG","8203210","2023-05-14 03:00","2023","05","14","03:00","5.6","","3.1","","84","","","","30","","21","","","","101.25","","","","","","NA"
"-64.30","44.36","LUNENBURG","8203210","2023-05-14 04:00","2023","05","14","04:00","5.4","","2.9","","84","","","","29","","25","","","","101.26","","","","","","NA"
"-64.30","44.36","LUNENBURG","8203210","2023-05-14 05:00","2023","05","14","05:00","5.4","","2.5","","82","","","","30","","28","","","","101.28","","","","","","NA"
"-64.30","44.36","LUNENBURG","8203210","2023-05-14 06:00","2023","05","14","06:00","5.6","","1.9","","77","","","","29","","20","","","","101.35","","","","","","NA"
"-64.30","44.36","LUNENBURG","8203210","2023-05-14 07:00","2023","05","14","07:00","6.7","","1.9","","71","","","","29","","26","","","","101.37","","","","","","NA"
"-64.30","44.36","LUNENBURG","8203210","2023-05-14 08:00","2023","05","14","08:00","7.9","","1.6","","64","","","","30","","26","","","","101.33","","","","","","NA"
"-64.30","44.36","LUNENBURG","8203210","2023-05-14 09:00","2023","05","14","09:00","8.9","","1.5","","60","","","","29","","34","","","","101.24","","","","","","NA"
"-64.30","44.36","LUNENBURG","8203210","2023-05-14 10:00","2023","05","14","10:00","10.1","","1.3","","54","","","","29","","28","","","","101.24","","","","","","NA"
"-64.30","44.36","LUNENBURG","8203210","2023-05-14 11:00","2023","05","14","11:00","11.2","","0.5","","48","","","","29","","34","","","","101.22","","","","","","NA"
"-64.30","44.36","LUNENBURG","8203210","2023-05-14 12:00","2023","05","14","12:00","11.9","","0.6","","46","","","","30","","33","","","","101.20","","","","","","NA"
"-64.30","44.36","LUNENBURG","8203210","2023-05-14 13:00","2023","05","14","13:00","11.7","","1.8","","51","","","","32","","33","","","","101.17","","","","","","NA"
"-64.30","44.36","LUNENBURG","8203210","2023-05-14 14:00","2023","05","14","14:00","11.6","","1.2","","49","","","","30","","30","","","","101.23","","","","","","NA"
"-64.30","44.36","LUNENBURG","8203210","2023-05-14 15:00","2023","05","14","15:00","11.8","","1.6","","50","","","","30","","29","","","","101.23","","","","","","NA"
"-64.30","44.36","LUNENBURG","8203210","2023-05-14 16:00","2023","05","14","16:00","12.4","","2.0","","49","","","","31","","26","","","","101.24","","","","","","NA"
"-64.30","44.36","LUNENBURG","8203210","2023-05-14 17:00","2023","05","14","17:00","13.3","","1.6","","45","","","","31","","22","","","","101.28","","","","","","NA"
"-64.30","44.36","LUNENBURG","8203210","2023-05-14 18:00","2023","05","14","18:00","13.2","","1.5","","45","","","","30","","20","","","","101.31","","","","","","NA"
"-64.30","44.36","LUNENBURG","8203210","2023-05-14 19:00","2023","05","14","19:00","12.8","","2.0","","48","","","","30","","14","","","","101.40","","","","","","NA"
"-64.30","44.36","LUNENBURG","8203210","2023-05-14 20:00","2023","05","14","20:00","12.1","","2.4","","51","","","","30","","12","","","","101.46","","","","","","NA"
"-64.30","44.36","LUNENBURG","8203210","2023-05-14 21:00","2023","05","14","21:00","11.4","","2.7","","55","","","","4","","8","","","","101.56","","","","","","NA"
"-64.30","44.36","LUNENBURG","8203210","2023-05-14 22:00","2023","05","14","22:00","9.9","","4.2","","68","","","","9","","2","","","","101.59","","","","","","NA"
"-64.30","44.36","LUNENBURG","8203210","2023-05-14 23:00","2023","05","14","23:00","8.3","","5.4","","82","","","","11","","7","","","","101.60","","","","","","NA"
"-64.30","44.36","LUNENBURG","8203210","2023-05-15 00:00","2023","05","15","00:00","9.4","","5.5","","76","","","","16","","9","","","","101.56","","","","","","NA"
"-64.30","44.36","LUNENBURG","8203210","2023-05-15 01:00","2023","05","15","01:00","9.0","","4.5","","73","","","","21","","6","","","","101.49","","","","","","NA"
"-64.30","44.36","LUNENBURG","8203210","2023-05-15 02:00","2023","05","15","02:00","7.7","","5.1","","83","","","","27","","5","","","","101.45","","","","","","NA"
"-64.30","44.36","LUNENBURG","8203210","2023-05-15 03:00","2023","05","15","03:00","6.4","","3.6","","82","","","","27","","9","","","","101.44","","","","","","NA"
"-64.30","44.36","LUNENBURG","8203210","2023-05-15 04:00","2023","05","15","04:00","6.0","","2.9","","81","","","","28","","5","","","","101.44","","","","","","NA"
"-64.30","44.36","LUNENBURG","8203210","2023-05-15 05:00","2023","05","15","05:00","6.8","","2.1","","72","","","","28","","23","","","","101.44","","","","","","NA"
"-64.30","44.36","LUNENBURG","8203210","2023-05-15 06:00","2023","05","15","06:00","7.6","","2.0","","68","","","","28","","18","","","","101.42","","","","","","NA"
"-64.30","44.36","LUNENBURG","8203210","2023-05-15 07:00","2023","05","15","07:00","9.2","","1.3","","58","","","","28","","28","","","","101.40","","","","","","NA"
"-64.30","44.36","LUNENBURG","8203210","2023-05-15 08:00","2023","05","15","08:00","10.8","","0.8","","50","","","","29","","24","","","","101.36","","","","","","NA"
"-64.30","44.36","LUNENBURG","8203210","2023-05-15 09:00","2023","05","15","09:00","12.1","","1.6","","48","","","","26","","19","","","","101.30","","","","","","NA"
"-64.30","44.36","LUNENBURG","8203210","2023-05-15 10:00","2023","05","15","10:00","14.5","","0.3","","38","","","","29","","34","","","","101.19","","","","","","NA"
"-64.30","44.36","LUNENBURG","8203210","2023-05-15 11:00","2023","05","15","11:00","14.6","","1.2","","40","","","","28","","32","","","","101.11","","","","","","NA"
"-64.30","44.36","LUNENBURG","8203210","2023-05-15 12:00","2023","05","15","12:00","15.3","","1.5","","39","","","","28","","32","","","","101.01","","","","","","NA"
"-64.30","44.36","LUNENBURG","8203210","2023-05-15 13:00","2023","05","15","13:00","16.6","","1.1","","35","","","","28","","33","","","","100.89","","","","","","NA"
"-64.30","44.36","LUNENBURG","8203210","2023-05-15 14:00","2023","05","15","14:00","16.4","","1.5","","37","","","","26","","35","","","","100.75","","","","","","NA"
"-64.30","44.36","LUNENBURG","8203210","2023-05-15 15:00","2023","05","15","15:00","18.3","","1.1","","32","","","","26","","30","","","","100.63","","","","","","NA"
"-64.30","44.36","LUNENBURG","8203210","2023-05-15 16:00","2023","05","15","16:00","16.9","","0.8","","34","","","","25","","38","","","","100.56","","","","","","NA"
"-64.30","44.36","LUNENBURG","8203210","2023-05-15 17:00","2023","05","15","17:00","16.3","","1.6","","37","","","","26","","36","","","","100.51","","","","","","NA"
"-64.30","44.36","LUNENBURG","8203210","2023-05-15 18:00","2023","05","15","18:00","15.5","","2.1","","40","","","","26","","37","","","","100.49","","","","","","NA"
"-64.30","44.36","LUNENBURG","8203210","2023-05-15 19:00","2023","05","15","19:00","15.5","","2.2","","41","","","","26","","31","","","","100.51","","","","","","NA"
"-64.30","44.36","LUNENBURG","8203210","2023-05-15 20:00","2023","05","15","20:00","14.7","","0.9","","39","","","","26","","39","","","","100.47","","","","","","NA"
"-64.30","44.36","LUNENBURG","8203210","2023-05-15 21:00","2023","05","15","21:00","12.7","","2.0","","48","","","","25","","22","","","","100.46","","","","","","NA"
"-64.30","44.36","LUNENBURG","8203210","2023-05-15 22:00","2023","05","15","22:00","13.0","","1.8","","46","","","","26","","25","","","","100.42","","","","","","NA"
"-64.30","44.36","LUNENBURG","8203210","2023-05-15 23:00","2023","05","15","23:00","12.4","","2.5","","51","","","","26","","18","","","","100.36","","","","","","NA"
"-64.30","44.36","LUNENBURG","8203210","2023-05-16 00:00","2023","05","16","00:00","11.2","","3.8","","60","","","","24","","16","","","","100.33","","","","","","NA"
"-64.30","44.36","LUNENBURG","8203210","2023-05-16 01:00","2023","05","16","01:00","11.3","","4.4","","62","","","","24","","16","","","","100.21","","","","","","NA"
"-64.30","44.36","LUNENBURG","8203210","2023-05-16 02:00","2023","05","16","02:00","11.0","","4.5","","64","","","","24","","17","","","","100.16","","","","","","NA"
"-64.30","44.36","LUNENBURG","8203210","2023-05-16 03:00","2023","05","16","03:00","10.6","","4.9","","68","","","","24","","14","","","","100.13","","","","","","NA"
"-64.30","44.36","LUNENBURG","8203210","2023-05-16 04:00","2023","05","16","04:00","11.2","","4.5","","63","","","","25","","8","","","","100.13","","","","","","NA"
"-64.30","44.36","LUNENBURG","8203210","2023-05-16 05:00","2023","05","16","05:00","11.2","","4.6","","64","","","","24","","7","","","","100.10","","","","","","NA"
"-64.30","44.36","LUNENBURG","8203210","2023-05-16 06:00","2023","05","16","06:00","10.7","","5.2","","69","","","","21","","7","","","","100.12","","","","","","NA"
"-64.30","44.36","LUNENBURG","8203210","2023-05-16 07:00","2023","05","16","07:00","11.3","","5.5","","67","","","","23","","13","","","","100.18","","","","","","NA"
"-64.30","44.36","LUNENBURG","8203210","2023-05-16 08:00","2023","05","16","08:00","13.5","","4.7","","55","","","","28","","18","","","","100.10","","","","","","NA"
"-64.30","44.36","LUNENBURG","8203210","2023-05-16 09:00","2023","05","16","09:00","14.5","","4.9","","53","","","","28","","27","","","","100.09","","","","","","NA"
"-64.30","44.36","LUNENBURG","8203210","2023-05-16 10:00","2023","05","16","10:00","16.2","","3.5","","42","","","","29","","34","","","","100.05","","","","","","NA"
"-64.30","44.36","LUNENBURG","8203210","2023-05-16 11:00","2023","05","16","11:00","16.3","","5.5","","49","","","","25","","31","","","","99.98","","","","","","NA"
"-64.30","44.36","LUNENBURG","8203210","2023-05-16 12:00","2023","05","16","12:00","17.5","","5.1","","44","","","","28","","26","","","","99.93","","","","","","NA"
"-64.30","44.36","LUNENBURG","8203210","2023-05-16 13:00","2023","05","16","13:00","15.2","","6.4","","56","","","","20","","22","","","","99.86","","","","","","NA"
"-64.30","44.36","LUNENBURG","8203210","2023-05-16 14:00","2023","05","16","14:00","11.3","","6.5","","73","","","","25","","5","","","","99.84","","","","","","NA"
"-64.30","44.36","LUNENBURG","8203210","2023-05-16 15:00","2023","05","16","15:00","14.3","","6.4","","59","","","","21","","13","","","","99.75","","","","","","NA"
"-64.30","44.36","LUNENBURG","8203210","2023-05-16 16:00","2023","05","16","16:00","11.4","","6.5","","72","","","","19","","21","","","","99.61","","","","","","NA"
"-64.30","44.36","LUNENBURG","8203210","2023-05-16 17:00","2023","05","16","17:00","9.8","","6.4","","79","","","","19","","32","","","","99.56","","","","","","NA"
"-64.30","44.36","LUNENBURG","8203210","2023-05-16 18:00","2023","05","16","18:00","10.3","","6.4","","77","","","","21","","24","","","","99.51","","","","","","NA"
"-64.30","44.36","LUNENBURG","8203210","2023-05-16 19:00","2023","05","16","19:00","9.4","","6.4","","82","","","","21","","23","","","","99.55","","","","","","NA"
"-64.30","44.36","LUNENBURG","8203210","2023-05-16 20:00","2023","05","16","20:00","9.2","","6.4","","82","","","","21","","17","","","","99.61","","","","","","NA"
"-64.30","44.36","LUNENBURG","8203210","2023-05-16 21:00","2023","05","16","21:00","8.7","","6.4","","85","","","","26","","8","","","","99.63","","","","","","NA"
"-64.30","44.36","LUNENBURG","8203210","2023-05-16 22:00","2023","05","16","22:00","8.5","","6.3","","86","","","","24","","12","","","","99.64","","","","","","NA"
"-64.30","44.36","LUNENBURG","8203210","2023-05-16 23:00","2023","05","16","23:00","8.1","","6.4","","89","","","","24","","5","","","","99.62","","","","","","NA"
"-64.30","44.36","LUNENBURG","8203210","2023-05-17 00:00","2023","05","17","00:00","7.9","","6.7","","92","","","","27","","5","","","","99.59","","","","","","NA"
"-64.30","44.36","LUNENBURG","8203210","2023-05-17 01:00","2023","05","17","01:00","7.9","","6.8","","92","","","","27","","6","","","","99.61","","","","","","NA"
"-64.30","44.36","LUNENBURG","8203210","2023-05-17 02:00","2023","05","17","02:00","8.4","","7.0","","91","","","","27","","1","","","","99.54","","","","","","NA"
"-64.30","44.36","LUNENBURG","8203210","2023-05-17 03:00","2023","05","17","03:00","8.1","","6.9","","92","","","","30","","7","","","","99.57","","","","","","NA"
"-64.30","44.36","LUNENBURG","8203210","2023-05-17 04:00","2023","05","17","04:00","8.6","","7.1","","91","","","","33","","9","","","","99.57","","","","","","NA"
"-64.30","44.36","LUNENBURG","8203210","2023-05-17 05:00","2023","05","17","05:00","8.4","","7.3","","93","","","","30","","8","","","","99.66","","","","","","NA"
"-64.30","44.36","LUNENBURG","8203210","2023-05-17 06:00","2023","05","17","06:00","8.8","","7.7","","93","","","","33","","12","","","","99.66","","","","","","NA"
"-64.30","44.36","LUNENBURG","8203210","2023-05-17 07:00","2023","05","17","07:00","9.3","","8.0","","92","","","","33","","10","","","","99.69","","","","","","NA"
"-64.30","44.36","LUNENBURG","8203210","2023-05-17 08:00","2023","05","17","08:00","8.3","","7.1","","93","","","","36","","9","","","","99.74","","","","","","NA"
"-64.30","44.36","LUNENBURG","8203210","2023-05-17 09:00","2023","05","17","09:00","7.8","","6.5","","92","","","","34","","16","","","","99.77","","","","","","NA"
"-64.30","44.36","LUNENBURG","8203210","2023-05-17 10:00","2023","05","17","10:00","7.7","","5.9","","88","","","","34","","17","","","","99.80","","","","","","NA"
"-64.30","44.36","LUNENBURG","8203210","2023-05-17 11:00","2023","05","17","11:00","8.9","","6.1","","83","","","","34","","6","","","","99.87","","","","","","NA"
"-64.30","44.36","LUNENBURG","8203210","2023-05-17 12:00","2023","05","17","12:00","9.9","","6.1","","77","","","","4","","9","","","","99.79","","","","","","NA"
"-64.30","44.36","LUNENBURG","8203210","2023-05-17 13:00","2023","05","17","13:00","9.2","","3.7","","69","","","","33","","29","","","","99.77","","","","","","NA"
"-64.30","44.36","LUNENBURG","8203210","2023-05-17 14:00","2023","05","17","14:00","9.9","","3.2","","63","","","","32","","25","","","","99.80","","","","","","NA"
"-64.30","44.36","LUNENBURG","8203210","2023-05-17 15:00","2023","05","17","15:00","10.2","","1.6","","55","","","","33","","19","","","","99.80","","","","","","NA"
"-64.30","44.36","LUNENBURG","8203210","2023-05-17 16:00","2023","05","17","16:00","11.0","","-0.1","","46","","","","36","","14","","","","99.80","","","","","","NA"
"-64.30","44.36","LUNENBURG","8203210","2023-05-17 17:00","2023","05","17","17:00","9.5","","1.4","","57","","","","31","","35","","","","99.91","","","","","","NA"
"-64.30","44.36","LUNENBURG","8203210","2023-05-17 18:00","2023","05","17","18:00","8.3","","1.2","","61","","","","31","","38","","","","100.06","","","","","","NA"
"-64.30","44.36","LUNENBURG","8203210","2023-05-17 19:00","2023","05","17","19:00","7.0","","1.8","","69","","","","33","","29","","","","100.23","","","","","","NA"
"-64.30","44.36","LUNENBURG","8203210","2023-05-17 20:00","2023","05","17","20:00","6.1","","1.9","","75","","","","33","","19","","","","100.37","","","","","","NA"
"-64.30","44.36","LUNENBURG","8203210","2023-05-17 21:00","2023","05","17","21:00","5.6","","1.8","","76","","","","33","","25","","","","100.53","","","","","","NA"
"-64.30","44.36","LUNENBURG","8203210","2023-05-17 22:00","2023","05","17","22:00","5.1","","1.9","","80","","","","34","","26","","","","100.64","","","","","","NA"
"-64.30","44.36","LUNENBURG","8203210","2023-05-17 23:00","2023","05","17","23:00","4.7","","0.9","","76","","","","33","","22","","","","100.71","","","","","","NA"
"-64.30","44.36","LUNENBURG","8203210","2023-05-18 00:00","2023","05","18","00:00","4.0","","0.4","","77","","","","30","","18","","","","100.85","","","","","","NA"
"-64.30","44.36","LUNENBURG","8203210","2023-05-18 01:00","2023","05","18","01:00","3.6","","1.3","","85","","","","28","","21","","","","100.90","","","","","","NA"
"-64.30","44.36","LUNENBURG","8203210","2023-05-18 02:00","2023","05","18","02:00","3.3","","1.1","","85","","","","28","","19","","","","100.99","","","","","","NA"
"-64.30","44.36","LUNENBURG","8203210","2023-05-18 03:00","2023","05","18","03:00","3.6","","-0.5","","75","","","","30","","25","","","","101.06","","","","","","NA"
"-64.30","44.36","LUNENBURG","8203210","2023-05-18 04:00","2023","05","18","04:00","3.2","","-1.0","","74","","","","29","","25","","","","101.18","","","","","","NA"
"-64.30","44.36","LUNENBURG","8203210","2023-05-18 05:00","2023","05","18","05:00","3.0","","-1.0","","75","","","","29","","24","","","","101.32","","","","","","NA"
"-64.30","44.36","LUNENBURG","8203210","2023-05-18 06:00","2023","05","18","06:00","3.0","","-0.8","","76","","","","28","","20","","","","101.47","","","","","","NA"
"-64.30","44.36","LUNENBURG","8203210","2023-05-18 07:00","2023","05","18","07:00","4.2","","-0.9","","69","","","","29","","27","","","","101.58","","","","","","NA"
"-64.30","44.36","LUNENBURG","8203210","2023-05-18 08:00","2023","05","18","08:00","5.4","","-0.8","","64","","","","30","","30","","","","101.65","","","","","","NA"
"-64.30","44.36","LUNENBURG","8203210","2023-05-18 09:00","2023","05","18","09:00","6.4","","-1.4","","58","","","","29","","28","","","","101.70","","","","","","NA"
"-64.30","44.36","LUNENBURG","8203210","2023-05-18 10:00","2023","05","18","10:00","7.4","","-2.0","","51","","","","28","","31","","","","101.77","","","","","","NA"
"-64.30","44.36","LUNENBURG","8203210","2023-05-18 11:00","2023","05","18","11:00","8.4","","-4.5","","39","","","","30","","31","","","","101.85","","","","","","NA"
"-64.30","44.36","LUNENBURG","8203210","2023-05-18 12:00","2023","05","18","12:00","9.1","","-4.8","","37","","","","30","","26","","","","101.87","","","","","","NA"
"-64.30","44.36","LUNENBURG","8203210","2023-05-18 13:00","2023","05","18","13:00","9.4","","-5.2","","35","","","","31","","31","","","","101.92","","","","","","NA"
"-64.30","44.36","LUNENBURG","8203210","2023-05-18 14:00","2023","05","18","14:00","9.5","","-3.8","","39","","","","31","","23","","","","102.00","","","","","","NA"
"-64.30","44.36","LUNENBURG","8203210","2023-05-18 15:00","2023","05","18","15:00","10.0","","-4.1","","37","","","","31","","21","","","","102.06","","","","","","NA"
"-64.30","44.36","LUNENBURG","8203210","2023-05-18 16:00","2023","05","18","16:00","10.7","","-4.4","","34","","","","30","","22","","","","102.11","","","","","","NA"
"-64.30","44.36","LUNENBURG","8203210","2023-05-18 17:00","2023","05","18","17:00","10.9","","-4.1","","35","","","","30","","21","","","","102.17","","","","","","NA"
"-64.30","44.36","LUNENBURG","8203210","2023-05-18 18:00","2023","05","18","18:00","10.9","","-3.2","","37","","","","30","","17","","","","102.27","","","","","","NA"
"-64.30","44.36","LUNENBURG","8203210","2023-05-18 19:00","2023","05","18","19:00","10.3","","-2.9","","39","","","","29","","19","","","","102.36","","","","","","NA"
"-64.30","44.36","LUNENBURG","8203210","2023-05-18 20:00","2023","05","18","20:00","8.5","","-2.1","","47","","","","29","","9","","","","102.41","","","","","","NA"
"-64.30","44.36","LUNENBURG","8203210","2023-05-18 21:00","2023","05","18","21:00","7.0","","1.3","","67","","","","27","","6","","","","102.55","","","","","","NA"
"-64.30","44.36","LUNENBURG","8203210","2023-05-18 22:00","2023","05","18","22:00","6.9","","-0.6","","59","","","","27","","17","","","","102.67","","","","","","NA"
"-64.30","44.36","LUNENBURG","8203210","2023-05-18 23:00","2023","05","18","23:00","6.8","","-0.3","","61","","","","27","","20","","","","102.72","","","","","","NA"
"-64.30","44.36","LUNENBURG","8203210","2023-05-19 00:00","2023","05","19","00:00","6.5","","-0.4","","61","","","","28","","19","","","","102.79","","","","","","NA"
"-64.30","44.36","LUNENBURG","8203210","2023-05-19 01:00","2023","05","19","01:00","5.8","","0.2","","67","","","","23","","14","","","","102.84","","","","","","NA"
"-64.30","44.36","LUNENBURG","8203210","2023-05-19 02:00","2023","05","19","02:00","5.7","","1.2","","73","","","","24","","13","","","","102.85","","","","","","NA"
"-64.30","44.36","LUNENBURG","8203210","2023-05-19 03:00","2023","05","19","03:00","5.2","","1.6","","78","","","","26","","9","","","","102.87","","","","","","NA"
"-64.30","44.36","LUNENBURG","8203210","2023-05-19 04:00","2023","05","19","04:00","5.0","","2.0","","81","","","","27","","10","","","","102.89","","","","","","NA"
"-64.30","44.36","LUNENBURG","8203210","2023-05-19 05:00","2023","05","19","05:00","5.2","","2.2","","81","","","","23","","12","","","","102.95","","","","","","NA"
"-64.30","44.36","LUNENBURG","8203210","2023-05-19 06:00","2023","05","19","06:00","5.7","","2.8","","82","","","","22","","12","","","","103.01","","","","","","NA"
"-64.30","44.36","LUNENBURG","8203210","2023-05-19 07:00","2023","05","19","07:00","6.7","","3.4","","80","","","","19","","10","","","","103.07","","","","","","NA"
"-64.30","44.36","LUNENBURG","8203210","2023-05-19 08:00","2023","05","19","08:00","8.1","","4.2","","76","","","","19","","12","","","","103.06","","","","","","NA"
"-64.30","44.36","LUNENBURG","8203210","2023-05-19 09:00","2023","05","19","09:00","8.9","","4.4","","73","","","","20","","20","","","","103.04","","","","","","NA"
"-64.30","44.36","LUNENBURG","8203210","2023-05-19 10:00","2023","05","19","10:00","8.8","","4.3","","73","","","","20","","30","","","","103.04","","","","","","NA"
"-64.30","44.36","LUNENBURG","8203210","2023-05-19 11:00","2023","05","19","11:00","9.4","","3.2","","65","","","","20","","36","","","","103.05","","","","","","NA"
"-64.30","44.36","LUNENBURG","8203210","2023-05-19 12:00","2023","05","19","12:00","9.1","","3.2","","67","","","","20","","49","","","","102.99","","","","","","NA"
"-64.30","44.36","LUNENBURG","8203210","2023-05-19 13:00","2023","05","19","13:00","9.3","","2.8","","64","","","","20","","46","","","","102.97","","","","","","NA"
"-64.30","44.36","LUNENBURG","8203210","2023-05-19 14:00","2023","05","19","14:00","9.2","","1.4","","58","","","","20","","48","","","","102.92","","","","","","NA"
"-64.30","44.36","LUNENBURG","8203210","2023-05-19 15:00","2023","05","19","15:00","9.2","","1.3","","58","","","","20","","45","","","","102.87","","","","","","NA"
"-64.30","44.36","LUNENBURG","8203210","2023-05-19 16:00","2023","05","19","16:00","8.9","","2.2","","63","","","","20","","42","","","","102.82","","","","","","NA"
"-64.30","44.36","LUNENBURG","8203210","2023-05-19 17:00","2023","05","19","17:00","8.5","","2.9","","68","","","","20","","45","","","","102.81","","","","","","NA"
"-64.30","44.36","LUNENBURG","8203210","2023-05-19 18:00","2023","05","19","18:00","8.2","","3.3","","71","","","","20","","40","","","","102.80","","","","","","NA"
"-64.30","44.36","LUNENBURG","8203210","2023-05-19 19:00","2023","05","19","19:00","7.4","","4.1","","80","","","","21","","39","","","","102.82","","","","","","NA"
"-64.30","44.36","LUNENBURG","8203210","2023-05-19 20:00","2023","05","19","20:00","6.9","","4.1","","82","","","","21","","31","","","","102.83","","","","","","NA"
"-64.30","44.36","LUNENBURG","8203210","2023-05-19 21:00","2023","05","19","21:00","6.8","","4.3","","84","","","","21","","24","","","","102.86","","","","","","NA"
"-64.30","44.36","LUNENBURG","8203210","2023-05-19 22:00","2023","05","19","22:00","6.6","","4.6","","87","","","","21","","19","","","","102.81","","","","","","NA"
"-64.30","44.36","LUNENBURG","8203210","2023-05-19 23:00","2023","05","19","23:00","6.6","","4.9","","89","","","","23","","16","","","","102.82","","","","","","NA"
"-64.30","44.36","LUNENBURG","8203210","2023-05-20 00:00","2023","05","20","00:00","6.9","","5.2","","89","","","","22","","15","","","","102.82","","","","","","NA"
"-64.30","44.36","LUNENBURG","8203210","2023-05-20 01:00","2023","05","20","01:00","7.2","","5.5","","89","","","","20","","10","","","","102.76","","","","","","NA"
"-64.30","44.36","LUNENBURG","8203210","2023-05-20 02:00","2023","05","20","02:00","7.5","","5.9","","90","","","","20","","17","","","","102.70","","","","","","NA"
"-64.30","44.36","LUNENBURG","8203210","2023-05-20 03:00","2023","05","20","03:00","7.5","","6.2","","91","","","","22","","15","","","","102.64","","","","","","NA"
"-64.30","44.36","LUNENBURG","8203210","2023-05-20 04:00","2023","05","20","04:00","7.4","","6.3","","93","","","","23","","12","","","","102.64","","","","","","NA"
"-64.30","44.36","LUNENBURG","8203210","2023-05-20 05:00","2023","05","20","05:00","7.1","","6.2","","94","","","","23","","13","","","","102.66","","","","","","NA"
"-64.30","44.36","LUNENBURG","8203210","2023-05-20 06:00","2023","05","20","06:00","7.8","","6.7","","93","","","","23","","15","","","","102.67","","","","","","NA"
"-64.30","44.36","LUNENBURG","8203210","2023-05-20 07:00","2023","05","20","07:00","9.0","","7.4","","89","","","","21","","14","","","","102.72","","","","","","NA"
"-64.30","44.36","LUNENBURG","8203210","2023-05-20 08:00","2023","05","20","08:00","10.3","","7.5","","83","","","","19","","13","","","","102.68","","","","","","NA"
"-64.30","44.36","LUNENBURG","8203210","2023-05-20 09:00","2023","05","20","09:00","11.4","","7.6","","77","","","","20","","17","","","","102.70","","","","","","NA"
"-64.30","44.36","LUNENBURG","8203210","2023-05-20 10:00","2023","05","20","10:00","12.8","","8.1","","73","","","","20","","23","","","","102.65","","","","","","NA"
"-64.30","44.36","LUNENBURG","8203210","2023-05-20 11:00","2023","05","20","11:00","13.2","","8.3","","72","","","","19","","27","","","","102.64","","","","","","NA"
"-64.30","44.36","LUNENBURG","8203210","2023-05-20 12:00","2023","05","20","12:00","13.2","","8.9","","75","","","","20","","42","","","","102.60","","","","","","NA"
"-64.30","44.36","LUNENBURG","8203210","2023-05-20 13:00","2023","05","20","13:00","13.0","","9.1","","77","","","","20","","35","","","","102.60","","","","","","NA"
"-64.30","44.36","LUNENBURG","8203210","2023-05-20 14:00","2023","05","20","14:00","13.3","","9.7","","79","","","","20","","39","","","","102.59","","","","","","NA"
"-64.30","44.36","LUNENBURG","8203210","2023-05-20 15:00","2023","05","20","15:00","13.8","","11.0","","83","","","","20","","33","","","","102.55","","","","","","NA"
"-64.30","44.36","LUNENBURG","8203210","2023-05-20 16:00","2023","05","20","16:00","13.4","","10.5","","83","","","","20","","31","","","","102.50","","","","","","NA"
"-64.30","44.36","LUNENBURG","8203210","2023-05-20 17:00","2023","05","20","17:00","12.4","","10.0","","85","","","","20","","26","","","","102.50","","","","","","NA"
"-64.30","44.36","LUNENBURG","8203210","2023-05-20 18:00","2023","05","20","18:00","11.3","","9.3","","87","","","","21","","16","","","","102.48","","","","","","NA"
"-64.30","44.36","LUNENBURG","8203210","2023-05-20 19:00","2023","05","20","19:00","11.0","","9.1","","88","","","","20","","17","","","","102.46","","","","","","NA"
"-64.30","44.36","LUNENBURG","8203210","2023-05-20 20:00","2023","05","20","20:00","10.5","","8.9","","89","","","","20","","17","","","","102.42","","","","","","NA"
"-64.30","44.36","LUNENBURG","8203210","2023-05-20 21:00","2023","05","20","21:00","10.5","","8.9","","90","","","","20","","14","","","","102.40","","","","","","NA"
"-64.30","44.36","LUNENBURG","8203210","2023-05-20 22:00","2023","05","20","22:00","10.9","","9.4","","91","","","","20","","14","","","","102.33","","","","","","NA"
"-64.30","44.36","LUNENBURG","8203210","2023-05-20 23:00","2023","05","20","23:00","10.3","","8.7","","90","","","","19","","17","","","","102.22","","","","","","NA"
"-64.30","44.36","LUNENBURG","8203210","2023-05-21 00:00","2023","05","21","00:00","10.9","","9.2","","90","","","","19","","19","","","","102.16","","","","","","NA"
"-64.30","44.36","LUNENBURG","8203210","2023-05-21 01:00","2023","05","21","01:00","11.1","","9.4","","89","","","","19","","15","","","","102.07","","","","","","NA"
"-64.30","44.36","LUNENBURG","8203210","2023-05-21 02:00","2023","05","21","02:00","10.4","","8.5","","88","","","","18","","25","","","","101.95","","","","","","NA"
"-64.30","44.36","LUNENBURG","8203210","2023-05-21 03:00","2023","05","21","03:00","10.2","","8.6","","90","","","","17","","24","","","","101.80","","","","","","NA"
"-64.30","44.36","LUNENBURG","8203210","2023-05-21 04:00","2023","05","21","04:00","11.1","","9.5","","90","","","","18","","31","","","","101.72","","","","","","NA"
"-64.30","44.36","LUNENBURG","8203210","2023-05-21 05:00","2023","05","21","05:00","11.6","","9.9","","89","","","","19","","36","","","","101.58","","","","","","NA"
"-64.30","44.36","LUNENBURG","8203210","2023-05-21 06:00","2023","05","21","06:00","11.5","","9.7","","89","","","","18","","36","","","","101.54","","","","","","NA"
"-64.30","44.36","LUNENBURG","8203210","2023-05-21 07:00","2023","05","21","07:00","11.3","","9.4","","88","","","","18","","35","","","","101.43","","","","","","NA"
"-64.30","44.36","LUNENBURG","8203210","2023-05-21 08:00","2023","05","21","08:00","11.1","","9.1","","87","","","","18","","39","","","","101.34","","","","","","NA"
"-64.30","44.36","LUNENBURG","8203210","2023-05-21 09:00","2023","05","21","09:00","11.4","","9.3","","87","","","","19","","38","","","","101.21","","","","","","NA"
"-64.30","44.36","LUNENBURG","8203210","2023-05-21 10:00","2023","05","21","10:00","11.4","","9.4","","87","","","","18","","45","","","","101.08","","","","","","NA"
"-64.30","44.36","LUNENBURG","8203210","2023-05-21 11:00","2023","05","21","11:00","11.6","","10.0","","90","","","","19","","43","","","","101.01","","","","","","NA"
"-64.30","44.36","LUNENBURG","8203210","2023-05-21 12:00","2023","05","21","12:00","11.0","","10.1","","94","","","","19","","33","","","","100.90","","","","","","NA"
"-64.30","44.36","LUNENBURG","8203210","2023-05-21 13:00","2023","05","21","13:00","10.9","","10.1","","95","","","","20","","37","","","","100.82","","","","","","NA"
"-64.30","44.36","LUNENBURG","8203210","2023-05-21 14:00","2023","05","21","14:00","11.5","","10.8","","95","","","","20","","42","","","","100.79","","","","","","NA"
"-64.30","44.36","LUNENBURG","8203210","2023-05-21 15:00","2023","05","21","15:00","11.1","","10.5","","96","","","","21","","33","","","","100.82","","","","","","NA"
"-64.30","44.36","LUNENBURG","8203210","2023-05-21 16:00","2023","05","21","16:00","10.4","","9.7","","96","","","","20","","28","","","","100.82","","","","","","NA"
"-64.30","44.36","LUNENBURG","8203210","2023-05-21 17:00","2023","05","21","17:00","10.3","","9.7","","96","","","","20","","19","","","","100.84","","","","","","NA"
"-64.30","44.36","LUNENBURG","8203210","2023-05-21 18:00","2023","05","21","18:00","9.8","","9.1","","96","","","","22","","11","","","","100.89","","","","","","NA"
"-64.30","44.36","LUNENBURG","8203210","2023-05-21 19:00","2023","05","21","19:00","9.8","","9.3","","97","","","","26","","6","","","","100.99","","","","","","NA"
"-64.30","44.36","LUNENBURG","8203210","2023-05-21 20:00","2023","05","21","20:00","9.7","","9.3","","97","","","","23","","10","","","","101.05","","","","","","NA"
"-64.30","44.36","LUNENBURG","8203210","2023-05-21 21:00","2023","05","21","21:00","10.0","","9.6","","97","","","","30","","4","","","","101.17","","","","","","NA"
"-64.30","44.36","LUNENBURG","8203210","2023-05-21 22:00","2023","05","21","22:00","10.1","","9.7","","98","","","","32","","5","","","","101.24","","","","","","NA"
"-64.30","44.36","LUNENBURG","8203210","2023-05-21 23:00","2023","05","21","23:00","9.8","","9.5","","98","","","","","","0","","","","101.30","","","","","","NA"
"-64.30","44.36","LUNENBURG","8203210","2023-05-22 00:00","2023","05","22","00:00","10.4","","10.1","","98","","","","24","","3","","","","101.35","","","","","","NA"
"-64.30","44.36","LUNENBURG","8203210","2023-05-22 01:00","2023","05","22","01:00","9.0","","8.8","","98","","","","31","","4","","","","101.39","","","","","","NA"
"-64.30","44.36","LUNENBURG","8203210","2023-05-22 02:00","2023","05","22","02:00","12.4","","12.2","","99","","","","34","","12","","","","101.47","","","","","","NA"
"-64.30","44.36","LUNENBURG","8203210","2023-05-22 03:00","2023","05","22","03:00","13.0","","11.1","","88","","","","35","","16","","","","101.51","","","","","","NA"
"-64.30","44.36","LUNENBURG","8203210","2023-05-22 04:00","2023","05","22","04:00","11.7","","9.9","","89","","","","35","","13","","","","101.62","","","","","","NA"
"-64.30","44.36","LUNENBURG","8203210","2023-05-22 05:00","2023","05","22","05:00","10.9","","7.7","","80","","","","35","","13","","","","101.73","","","","","","NA"
"-64.30","44.36","LUNENBURG","8203210","2023-05-22 06:00","2023","05","22","06:00","10.7","","7.0","","78","","","","35","","14","","","","101.86","","","","","","NA"
"-64.30","44.36","LUNENBURG","8203210","2023-05-22 07:00","2023","05","22","07:00","10.3","","6.7","","78","","","","2","","10","","","","101.97","","","","","","NA"
"-64.30","44.36","LUNENBURG","8203210","2023-05-22 08:00","2023","05","22","08:00","10.5","","6.1","","74","","","","3","","12","","","","102.11","","","","","","NA"
"-64.30","44.36","LUNENBURG","8203210","2023-05-22 09:00","2023","05","22","09:00","10.9","","5.7","","70","","","","2","","10","","","","102.13","","","","","","NA"
"-64.30","44.36","LUNENBURG","8203210","2023-05-22 10:00","2023","05","22","10:00","11.3","","4.1","","61","","","","4","","17","","","","102.16","","","","","","NA"
"-64.30","44.36","LUNENBURG","8203210","2023-05-22 11:00","2023","05","22","11:00","12.2","","4.5","","59","","","","4","","15","","","","102.15","","","","","","NA"
"-64.30","44.36","LUNENBURG","8203210","2023-05-22 12:00","2023","05","22","12:00","13.1","","4.4","","56","","","","4","","13","","","","102.14","","","","","","NA"
"-64.30","44.36","LUNENBURG","8203210","2023-05-22 13:00","2023","05","22","13:00","13.5","","4.2","","53","","","","5","","17","","","","102.17","","","","","","NA"
"-64.30","44.36","LUNENBURG","8203210","2023-05-22 14:00","2023","05","22","14:00","14.4","","3.3","","47","","","","4","","17","","","","102.20","","","","","","NA"
"-64.30","44.36","LUNENBURG","8203210","2023-05-22 15:00","2023","05","22","15:00","14.2","","3.1","","47","","","","36","","12","","","","102.20","","","","","","NA"
"-64.30","44.36","LUNENBURG","8203210","2023-05-22 16:00","2023","05","22","16:00","9.2","","5.6","","78","","","","13","","18","","","","102.21","","","","","","NA"
"-64.30","44.36","LUNENBURG","8203210","2023-05-22 17:00","2023","05","22","17:00","9.4","","4.9","","73","","","","11","","17","","","","102.29","","","","","","NA"
"-64.30","44.36","LUNENBURG","8203210","2023-05-22 18:00","2023","05","22","18:00","9.5","","4.4","","71","","","","12","","12","","","","102.36","","","","","","NA"
"-64.30","44.36","LUNENBURG","8203210","2023-05-22 19:00","2023","05","22","19:00","9.2","","3.4","","67","","","","11","","5","","","","102.41","","","","","","NA"
"-64.30","44.36","LUNENBURG","8203210","2023-05-22 20:00","2023","05","22","20:00","8.0","","3.7","","74","","","","5","","3","","","","102.47","","","","","","NA"
"-64.30","44.36","LUNENBURG","8203210","2023-05-22 21:00","2023","05","22","21:00","8.3","","3.3","","71","","","","2","","4","","","","102.57","","","","","","NA"
"-64.30","44.36","LUNENBURG","8203210","2023-05-22 22:00","2023","05","22","22:00","8.1","","1.3","","62","","","","1","","7","","","","102.59","","","","","","NA"
"-64.30","44.36","LUNENBURG","8203210","2023-05-22 23:00","2023","05","22","23:00","7.3","","1.0","","64","","","","1","","6","","","","102.61","","","","","","NA"
"-64.30","44.36","LUNENBURG","8203210","2023-05-23 00:00","2023","05","23","00:00","6.6","","1.3","","69","","","","2","","6","","","","102.64","","","","","","NA"
"-64.30","44.36","LUNENBURG","8203210","2023-05-23 01:00","2023","05","23","01:00","5.7","","1.7","","76","","","","34","","9","","","","102.68","","","","","","NA"
"-64.30","44.36","LUNENBURG","8203210","2023-05-23 02:00","2023","05","23","02:00","5.3","","0.7","","72","","","","35","","11","","","","102.70","","","","","","NA"
"-64.30","44.36","LUNENBURG","8203210","2023-05-23 03:00","2023","05","23","03:00","4.9","","0.3","","72","","","","35","","10","","","","102.73","","","","","","NA"
"-64.30","44.36","LUNENBURG","8203210","2023-05-23 04:00","2023","05","23","04:00","4.5","","-0.3","","71","","","","35","","14","","","","102.76","","","","","","NA"
"-64.30","44.36","LUNENBURG","8203210","2023-05-23 05:00","2023","05","23","05:00","4.4","","0.2","","74","","","","34","","12","","","","102.80","","","","","","NA"
"-64.30","44.36","LUNENBURG","8203210","2023-05-23 06:00","2023","05","23","06:00","5.0","","0.3","","72","","","","34","","14","","","","102.84","","","","","","NA"
"-64.30","44.36","LUNENBURG","8203210","2023-05-23 07:00","2023","05","23","07:00","6.4","","0.5","","66","","","","35","","10","","","","102.87","","","","","","NA"
"-64.30","44.36","LUNENBURG","8203210","2023-05-23 08:00","2023","05","23","08:00","8.2","","0.3","","57","","","","3","","10","","","","102.92","","","","","","NA"
"-64.30","44.36","LUNENBURG","8203210","2023-05-23 09:00","2023","05","23","09:00","9.4","","-1.1","","48","","","","2","","9","","","","102.94","","","","","","NA"
"-64.30","44.36","LUNENBURG","8203210","2023-05-23 10:00","2023","05","23","10:00","11.3","","-2.6","","38","","","","4","","8","","","","102.93","","","","","","NA"
"-64.30","44.36","LUNENBURG","8203210","2023-05-23 11:00","2023","05","23","11:00","11.1","","-0.9","","43","","","","19","","7","","","","102.93","","","","","","NA"
"-64.30","44.36","LUNENBURG","8203210","2023-05-23 12:00","2023","05","23","12:00","9.9","","3.1","","63","","","","14","","15","","","","102.86","","","","","","NA"
"-64.30","44.36","LUNENBURG","8203210","2023-05-23 13:00","2023","05","23","13:00","10.4","","0.9","","52","","","","14","","22","","","","102.84","","","","","","NA"
"-64.30","44.36","LUNENBURG","8203210","2023-05-23 14:00","2023","05","23","14:00","10.1","","0.6","","51","","","","14","","22","","","","102.80","","","","","","NA"
"-64.30","44.36","LUNENBURG","8203210","2023-05-23 15:00","2023","05","23","15:00","10.6","","1.2","","52","","","","15","","18","","","","102.75","","","","","","NA"
"-64.30","44.36","LUNENBURG","8203210","2023-05-23 16:00","2023","05","23","16:00","10.4","","0.1","","49","","","","16","","24","","","","102.70","","","","","","NA"
"-64.30","44.36","LUNENBURG","8203210","2023-05-23 17:00","2023","05","23","17:00","10.0","","1.9","","57","","","","17","","22","","","","102.68","","","","","","NA"
"-64.30","44.36","LUNENBURG","8203210","2023-05-23 18:00","2023","05","23","18:00","10.0","","2.4","","59","","","","16","","14","","","","102.66","","","","","","NA"
"-64.30","44.36","LUNENBURG","8203210","2023-05-23 19:00","2023","05","23","19:00","9.3","","3.1","","65","","","","16","","8","","","","102.63","","","","","","NA"
"-64.30","44.36","LUNENBURG","8203210","2023-05-23 20:00","2023","05","23","20:00","8.0","","3.6","","74","","","","16","","11","","","","102.63","","","","","","NA"
"-64.30","44.36","LUNENBURG","8203210","2023-05-23 21:00","2023","05","23","21:00","7.1","","5.0","","87","","","","14","","11","","","","102.67","","","","","","NA"
"-64.30","44.36","LUNENBURG","8203210","2023-05-23 22:00","2023","05","23","22:00","5.5","","5.0","","97","","","","13","","16","","","","102.65","","","","","","NA"
"-64.30","44.36","LUNENBURG","8203210","2023-05-23 23:00","2023","05","23","23:00","5.0","","4.7","","97","","","","15","","11","","","","102.65","","","","","","NA"
"-64.30","44.36","LUNENBURG","8203210","2023-05-24 00:00","2023","05","24","00:00","5.1","","4.6","","97","","","","19","","8","","","","102.59","","","","","","NA"
"-64.30","44.36","LUNENBURG","8203210","2023-05-24 01:00","2023","05","24","01:00","4.8","","4.2","","96","","","","16","","10","","","","102.54","","","","","","NA"
"-64.30","44.36","LUNENBURG","8203210","2023-05-24 02:00","2023","05","24","02:00","4.8","","4.3","","96","","","","12","","10","","","","102.46","","","","","","NA"
"-64.30","44.36","LUNENBURG","8203210","2023-05-24 03:00","2023","05","24","03:00","4.9","","4.4","","97","","","","15","","11","","","","102.46","","","","","","NA"
"-64.30","44.36","LUNENBURG","8203210","2023-05-24 04:00","2023","05","24","04:00","4.7","","4.2","","97","","","","13","","9","","","","102.40","","","","","","NA"
"-64.30","44.36","LUNENBURG","8203210","2023-05-24 05:00","2023","05","24","05:00","4.8","","4.2","","96","","","","17","","8","","","","102.36","","","","","","NA"
"-64.30","44.36","LUNENBURG","8203210","2023-05-24 06:00","2023","05","24","06:00","5.3","","4.7","","95","","","","14","","13","","","","102.32","","","","","","NA"
"-64.30","44.36","LUNENBURG","8203210","2023-05-24 07:00","2023","05","24","07:00","5.2","","4.5","","95","","","","16","","14","","","","102.29","","","","","","NA"
"-64.30","44.36","LUNENBURG","8203210","2023-05-24 08:00","2023","05","24","08:00","6.2","","5.0","","92","","","","14","","4","","","","102.28","","","","","","NA"
"-64.30","44.36","LUNENBURG","8203210","2023-05-24 09:00","2023","05","24","09:00","6.4","","5.5","","94","","","","13","","16","","","","102.23","","","","","","NA"
"-64.30","44.36","LUNENBURG","8203210","2023-05-24 10:00","2023","05","24","10:00","7.1","","6.1","","93","","","","12","","15","","","","102.17","","","","","","NA"
"-64.30","44.36","LUNENBURG","8203210","2023-05-24 11:00","2023","05","24","11:00","7.5","","5.5","","87","","","","10","","15","","","","102.09","","","","","","NA"
"-64.30","44.36","LUNENBURG","8203210","2023-05-24 12:00","2023","05","24","12:00","7.5","","6.2","","91","","","","11","","17","","","","102.04","","","","","","NA"
"-64.30","44.36","LUNENBURG","8203210","2023-05-24 13:00","2023","05","24","13:00","7.7","","6.6","","93","","","","13","","15","","","","101.99","","","","","","NA"
"-64.30","44.36","LUNENBURG","8203210","2023-05-24 14:00","2023","05","24","14:00","7.7","","6.8","","94","","","","12","","17","","","","101.94","","","","","","NA"
"-64.30","44.36","LUNENBURG","8203210","2023-05-24 15:00","2023","05","24","15:00","7.8","","6.7","","92","","","","11","","22","","","","101.85","","","","","","NA"
"-64.30","44.36","LUNENBURG","8203210","2023-05-24 16:00","2023","05","24","16:00","7.4","","6.9","","96","","","","11","","20","","","","101.83","","","","","","NA"
"-64.30","44.36","LUNENBURG","8203210","2023-05-24 17:00","2023","05","24","17:00","7.3","","6.8","","97","","","","11","","15","","","","101.80","","","","","","NA"
"-64.30","44.36","LUNENBURG","8203210","2023-05-24 18:00","2023","05","24","18:00","7.4","","7.0","","98","","","","11","","16","","","","101.77","","","","","","NA"
"-64.30","44.36","LUNENBURG","8203210","2023-05-24 19:00","2023","05","24","19:00","7.4","","7.1","","98","","","","10","","13","","","","101.74","","","","","","NA"
"-64.30","44.36","LUNENBURG","8203210","2023-05-24 20:00","2023","05","24","20:00","7.0","","6.7","","98","","","","8","","16","","","","101.65","","","","","","NA"
"-64.30","44.36","LUNENBURG","8203210","2023-05-24 21:00","2023","05","24","21:00","7.0","","6.7","","98","","","","9","","16","","","","101.65","","","","","","NA"
"-64.30","44.36","LUNENBURG","8203210","2023-05-24 22:00","2023","05","24","22:00","6.4","","6.1","","98","","","","9","","15","","","","101.62","","","","","","NA"
"-64.30","44.36","LUNENBURG","8203210","2023-05-24 23:00","2023","05","24","23:00","6.3","","6.1","","98","","","","9","","20","","","","101.54","","","","","","NA"
"-64.30","44.36","LUNENBURG","8203210","2023-05-25 00:00","2023","05","25","00:00","6.6","","6.3","","98","","","","5","","12","","","","101.52","","","","","","NA"
"-64.30","44.36","LUNENBURG","8203210","2023-05-25 01:00","2023","05","25","01:00","6.9","","6.6","","98","","","","36","","5","","","","101.47","","","","","","NA"
"-64.30","44.36","LUNENBURG","8203210","2023-05-25 02:00","2023","05","25","02:00","7.2","","6.7","","97","","","","35","","9","","","","101.39","","","","","","NA"
"-64.30","44.36","LUNENBURG","8203210","2023-05-25 03:00","2023","05","25","03:00","7.6","","6.9","","95","","","","5","","15","","","","101.33","","","","","","NA"
"-64.30","44.36","LUNENBURG","8203210","2023-05-25 04:00","2023","05","25","04:00","7.4","","6.6","","95","","","","5","","15","","","","101.29","","","","","","NA"
"-64.30","44.36","LUNENBURG","8203210","2023-05-25 05:00","2023","05","25","05:00","7.4","","6.8","","96","","","","6","","11","","","","101.24","","","","","","NA"
"-64.30","44.36","LUNENBURG","8203210","2023-05-25 06:00","2023","05","25","06:00","7.4","","6.8","","96","","","","7","","12","","","","101.23","","","","","","NA"
"-64.30","44.36","LUNENBURG","8203210","2023-05-25 07:00","2023","05","25","07:00","7.8","","7.0","","95","","","","3","","9","","","","101.22","","","","","","NA"
"-64.30","44.36","LUNENBURG","8203210","2023-05-25 08:00","2023","05","25","08:00","8.3","","6.8","","90","","","","35","","9","","","","101.20","","","","","","NA"
"-64.30","44.36","LUNENBURG","8203210","2023-05-25 09:00","2023","05","25","09:00","9.5","","6.7","","83","","","","35","","8","","","","101.19","","","","","","NA"
"-64.30","44.36","LUNENBURG","8203210","2023-05-25 10:00","2023","05","25","10:00","11.1","","7.6","","79","","","","1","","8","","","","101.16","","","","","","NA"
"-64.30","44.36","LUNENBURG","8203210","2023-05-25 11:00","2023","05","25","11:00","12.3","","7.8","","74","","","","36","","6","","","","101.11","","","","","","NA"
"-64.30","44.36","LUNENBURG","8203210","2023-05-25 12:00","2023","05","25","12:00","10.0","","8.1","","88","","","","13","","9","","","","101.02","","","","","","NA"
"-64.30","44.36","LUNENBURG","8203210","2023-05-25 13:00","2023","05","25","13:00","10.6","","8.6","","87","","","","12","","14","","","","101.00","","","","","","NA"
"-64.30","44.36","LUNENBURG","8203210","2023-05-25 14:00","2023","05","25","14:00","10.1","","8.5","","89","","","","11","","9","","","","101.04","","","","","","NA"
"-64.30","44.36","LUNENBURG","8203210","2023-05-25 15:00","2023","05","25","15:00","14.1","","7.8","","66","","","","35","","11","","","","101.08","","","","","","NA"
"-64.30","44.36","LUNENBURG","8203210","2023-05-25 16:00","2023","05","25","16:00","14.2","","7.6","","64","","","","35","","13","","","","101.08","","","","","","NA"
"-64.30","44.36","LUNENBURG","8203210","2023-05-25 17:00","2023","05","25","17:00","14.9","","6.5","","57","","","","35","","11","","","","101.09","","","","","","NA"
"-64.30","44.36","LUNENBURG","8203210","2023-05-25 18:00","2023","05","25","18:00","14.2","","5.3","","55","","","","35","","25","","","","101.12","","","","","","NA"
"-64.30","44.36","LUNENBURG","8203210","2023-05-25 19:00","2023","05","25","19:00","12.3","","6.0","","65","","","","35","","24","","","","101.21","","","","","","NA"
"-64.30","44.36","LUNENBURG","8203210","2023-05-25 20:00","2023","05","25","20:00","11.0","","6.0","","71","","","","35","","17","","","","101.31","","","","","","NA"
"-64.30","44.36","LUNENBURG","8203210","2023-05-25 21:00","2023","05","25","21:00","10.3","","5.4","","72","","","","33","","26","","","","101.35","","","","","","NA"
"-64.30","44.36","LUNENBURG","8203210","2023-05-25 22:00","2023","05","25","22:00","9.1","","5.1","","76","","","","33","","26","","","","101.41","","","","","","NA"
"-64.30","44.36","LUNENBURG","8203210","2023-05-25 23:00","2023","05","25","23:00","8.5","","5.4","","81","","","","33","","23","","","","101.46","","","","","","NA"
"-64.30","44.36","LUNENBURG","8203210","2023-05-26 00:00","2023","05","26","00:00","8.1","","4.9","","80","","","","32","","29","","","","101.46","","","","","","NA"
"-64.30","44.36","LUNENBURG","8203210","2023-05-26 01:00","2023","05","26","01:00","7.8","","3.9","","76","","","","33","","35","","","","101.50","","","","","","NA"
"-64.30","44.36","LUNENBURG","8203210","2023-05-26 02:00","2023","05","26","02:00","7.6","","3.9","","78","","","","34","","21","","","","101.54","","","","","","NA"
"-64.30","44.36","LUNENBURG","8203210","2023-05-26 03:00","2023","05","26","03:00","7.3","","3.5","","77","","","","32","","25","","","","101.55","","","","","","NA"
"-64.30","44.36","LUNENBURG","8203210","2023-05-26 04:00","2023","05","26","04:00","7.1","","3.5","","77","","","","30","","17","","","","101.55","","","","","","NA"
"-64.30","44.36","LUNENBURG","8203210","2023-05-26 05:00","2023","05","26","05:00","6.9","","3.4","","78","","","","31","","21","","","","101.59","","","","","","NA"
"-64.30","44.36","LUNENBURG","8203210","2023-05-26 06:00","2023","05","26","06:00","7.2","","3.6","","78","","","","31","","17","","","","101.66","","","","","","NA"
"-64.30","44.36","LUNENBURG","8203210","2023-05-26 07:00","2023","05","26","07:00","7.4","","3.9","","79","","","","32","","26","","","","101.67","","","","","","NA"
"-64.30","44.36","LUNENBURG","8203210","2023-05-26 08:00","2023","05","26","08:00","7.5","","3.5","","76","","","","30","","26","","","","101.75","","","","","","NA"
"-64.30","44.36","LUNENBURG","8203210","2023-05-26 09:00","2023","05","26","09:00","7.8","","3.7","","75","","","","29","","24","","","","101.80","","","","","","NA"
"-64.30","44.36","LUNENBURG","8203210","2023-05-26 10:00","2023","05","26","10:00","8.5","","3.7","","71","","","","30","","24","","","","101.81","","","","","","NA"
"-64.30","44.36","LUNENBURG","8203210","2023-05-26 11:00","2023","05","26","11:00","9.2","","3.5","","67","","","","29","","24","","","","101.75","","","","","","NA"
"-64.30","44.36","LUNENBURG","8203210","2023-05-26 12:00","2023","05","26","12:00","10.0","","2.9","","61","","","","31","","24","","","","101.73","","","","","","NA"
"-64.30","44.36","LUNENBURG","8203210","2023-05-26 13:00","2023","05","26","13:00","10.4","","2.9","","60","","","","31","","26","","","","101.74","","","","","","NA"
"-64.30","44.36","LUNENBURG","8203210","2023-05-26 14:00","2023","05","26","14:00","10.4","","3.9","","64","","","","29","","26","","","","101.75","","","","","","NA"
"-64.30","44.36","LUNENBURG","8203210","2023-05-26 15:00","2023","05","26","15:00","10.7","","3.8","","62","","","","31","","23","","","","101.74","","","","","","NA"
"-64.30","44.36","LUNENBURG","8203210","2023-05-26 16:00","2023","05","26","16:00","11.1","","3.8","","61","","","","30","","23","","","","101.76","","","","","","NA"
"-64.30","44.36","LUNENBURG","8203210","2023-05-26 17:00","2023","05","26","17:00","11.2","","3.8","","60","","","","31","","27","","","","101.77","","","","","","NA"
"-64.30","44.36","LUNENBURG","8203210","2023-05-26 18:00","2023","05","26","18:00","10.8","","4.4","","65","","","","31","","29","","","","101.79","","","","","","NA"
"-64.30","44.36","LUNENBURG","8203210","2023-05-26 19:00","2023","05","26","19:00","10.1","","5.0","","71","","","","30","","21","","","","101.86","","","","","","NA"
"-64.30","44.36","LUNENBURG","8203210","2023-05-26 20:00","2023","05","26","20:00","9.6","","5.3","","74","","","","30","","17","","","","101.90","","","","","","NA"
"-64.30","44.36","LUNENBURG","8203210","2023-05-26 21:00","2023","05","26","21:00","8.9","","5.6","","80","","","","31","","17","","","","101.94","","","","","","NA"
"-64.30","44.36","LUNENBURG","8203210","2023-05-26 22:00","2023","05","26","22:00","8.1","","6.0","","87","","","","27","","13","","","","101.96","","","","","","NA"
"-64.30","44.36","LUNENBURG","8203210","2023-05-26 23:00","2023","05","26","23:00","7.5","","5.9","","90","","","","28","","13","","","","101.97","","","","","","NA"
"-64.30","44.36","LUNENBURG","8203210","2023-05-27 00:00","2023","05","27","00:00","7.8","","5.8","","87","","","","27","","19","","","","101.96","","","","","","NA"
"-64.30","44.36","LUNENBURG","8203210","2023-05-27 01:00","2023","05","27","01:00","7.5","","5.8","","89","","","","29","","13","","","","101.94","","","","","","NA"
"-64.30","44.36","LUNENBURG","8203210","2023-05-27 02:00","2023","05","27","02:00","7.4","","5.7","","89","","","","24","","8","","","","101.90","","","","","","NA"
"-64.30","44.36","LUNENBURG","8203210","2023-05-27 03:00","2023","05","27","03:00","6.9","","5.5","","91","","","","26","","11","","","","101.93","","","","","","NA"
"-64.30","44.36","LUNENBURG","8203210","2023-05-27 04:00","2023","05","27","04:00","7.5","","5.6","","87","","","","26","","15","","","","101.90","","","","","","NA"
"-64.30","44.36","LUNENBURG","8203210","2023-05-27 05:00","2023","05","27","05:00","8.5","","5.6","","82","","","","28","","31","","","","101.88","","","","","","NA"
"-64.30","44.36","LUNENBURG","8203210","2023-05-27 06:00","2023","05","27","06:00","9.6","","5.5","","76","","","","28","","37","","","","101.89","","","","","","NA"
"-64.30","44.36","LUNENBURG","8203210","2023-05-27 07:00","2023","05","27","07:00","11.0","","6.1","","71","","","","29","","29","","","","101.90","","","","","","NA"
"-64.30","44.36","LUNENBURG","8203210","2023-05-27 08:00","2023","05","27","08:00","12.5","","5.9","","64","","","","29","","28","","","","101.91","","","","","","NA"
"-64.30","44.36","LUNENBURG","8203210","2023-05-27 09:00","2023","05","27","09:00","14.3","","5.8","","57","","","","28","","24","","","","101.92","","","","","","NA"
"-64.30","44.36","LUNENBURG","8203210","2023-05-27 10:00","2023","05","27","10:00","17.1","","5.1","","45","","","","31","","22","","","","101.92","","","","","","NA"
"-64.30","44.36","LUNENBURG","8203210","2023-05-27 11:00","2023","05","27","11:00","18.5","","3.2","","36","","","","29","","23","","","","101.91","","","","","","NA"
"-64.30","44.36","LUNENBURG","8203210","2023-05-27 12:00","2023","05","27","12:00","19.1","","1.3","","30","","","","32","","26","","","","101.87","","","","","","NA"
"-64.30","44.36","LUNENBURG","8203210","2023-05-27 13:00","2023","05","27","13:00","19.9","","-1.1","","24","","","","29","","23","","","","101.83","","","","","","NA"
"-64.30","44.36","LUNENBURG","8203210","2023-05-27 14:00","2023","05","27","14:00","20.3","","-0.9","","24","","","","32","","25","","","","101.85","","","","","","NA"
"-64.30","44.36","LUNENBURG","8203210","2023-05-27 15:00","2023","05","27","15:00","20.4","","-0.1","","25","","","","33","","26","","","","101.83","","","","","","NA"
"-64.30","44.36","LUNENBURG","8203210","2023-05-27 16:00","2023","05","27","16:00","20.4","","0.7","","27","","","","33","","21","","","","101.81","","","","","","NA"
"-64.30","44.36","LUNENBURG","8203210","2023-05-27 17:00","2023","05","27","17:00","20.4","","1.1","","28","","","","33","","22","","","","101.80","","","","","","NA"
"-64.30","44.36","LUNENBURG","8203210","2023-05-27 18:00","2023","05","27","18:00","21.1","","2.0","","28","","","","32","","19","","","","101.83","","","","","","NA"
"-64.30","44.36","LUNENBURG","8203210","2023-05-27 19:00","2023","05","27","19:00","15.9","","4.5","","47","","","","10","","5","","","","101.83","","","","","","NA"
"-64.30","44.36","LUNENBURG","8203210","2023-05-27 20:00","2023","05","27","20:00","16.0","","4.0","","45","","","","25","","4","","","","101.84","","","","","","NA"
"-64.30","44.36","LUNENBURG","8203210","2023-05-27 21:00","2023","05","27","21:00","15.7","","3.2","","43","","","","30","","6","","","","101.91","","","","","","NA"
"-64.30","44.36","LUNENBURG","8203210","2023-05-27 22:00","2023","05","27","22:00","12.7","","6.1","","64","","","","27","","10","","","","101.90","","","","","","NA"
"-64.30","44.36","LUNENBURG","8203210","2023-05-27 23:00","2023","05","27","23:00","13.5","","5.5","","59","","","","26","","17","","","","101.91","","","","","","NA"
"-64.30","44.36","LUNENBURG","8203210","2023-05-28 00:00","2023","05","28","00:00","14.3","","5.1","","54","","","","27","","20","","","","101.90","","","","","","NA"
"-64.30","44.36","LUNENBURG","8203210","2023-05-28 01:00","2023","05","28","01:00","12.7","","5.2","","60","","","","27","","18","","","","101.82","","","","","","NA"
"-64.30","44.36","LUNENBURG","8203210","2023-05-28 02:00","2023","05","28","02:00","13.6","","4.3","","53","","","","27","","21","","","","101.77","","","","","","NA"
"-64.30","44.36","LUNENBURG","8203210","2023-05-28 03:00","2023","05","28","03:00","12.7","","4.5","","57","","","","27","","19","","","","101.74","","","","","","NA"
"-64.30","44.36","LUNENBURG","8203210","2023-05-28 04:00","2023","05","28","04:00","12.7","","4.2","","56","","","","27","","23","","","","101.69","","","","","","NA"
"-64.30","44.36","LUNENBURG","8203210","2023-05-28 05:00","2023","05","28","05:00","12.4","","4.3","","58","","","","28","","19","","","","101.63","","","","","","NA"
"-64.30","44.36","LUNENBURG","8203210","2023-05-28 06:00","2023","05","28","06:00","12.8","","6.1","","64","","","","25","","15","","","","101.57","","","","","","NA"
"-64.30","44.36","LUNENBURG","8203210","2023-05-28 07:00","2023","05","28","07:00","14.3","","6.9","","61","","","","26","","20","","","","101.48","","","","","","NA"
"-64.30","44.36","LUNENBURG","8203210","2023-05-28 08:00","2023","05","28","08:00","15.4","","7.8","","60","","","","25","","18","","","","101.40","","","","","","NA"
"-64.30","44.36","LUNENBURG","8203210","2023-05-28 09:00","2023","05","28","09:00","19.0","","7.5","","47","","","","27","","18","","","","101.31","","","","","","NA"
"-64.30","44.36","LUNENBURG","8203210","2023-05-28 10:00","2023","05","28","10:00","20.7","","7.6","","43","","","","26","","31","","","","101.19","","","","","","NA"
"-64.30","44.36","LUNENBURG","8203210","2023-05-28 11:00","2023","05","28","11:00","22.5","","7.6","","38","","","","27","","30","","","","101.07","","","","","","NA"
"-64.30","44.36","LUNENBURG","8203210","2023-05-28 12:00","2023","05","28","12:00","23.7","","8.1","","37","","","","26","","28","","","","100.96","","","","","","NA"
"-64.30","44.36","LUNENBURG","8203210","2023-05-28 13:00","2023","05","28","13:00","24.3","","7.2","","33","","","","27","","31","","","","100.82","","","","","","NA"
"-64.30","44.36","LUNENBURG","8203210","2023-05-28 14:00","2023","05","28","14:00","26.1","","5.2","","26","","","","26","","41","","","","100.73","","25","","","","NA"
"-64.30","44.36","LUNENBURG","8203210","2023-05-28 15:00","2023","05","28","15:00","24.0","","5.9","","31","","","","26","","39","","","","100.66","","","","","","NA"
"-64.30","44.36","LUNENBURG","8203210","2023-05-28 16:00","2023","05","28","16:00","24.7","","5.7","","29","","","","26","","43","","","","100.61","","","","","","NA"
"-64.30","44.36","LUNENBURG","8203210","2023-05-28 17:00","2023","05","28","17:00","23.4","","6.0","","32","","","","26","","43","","","","100.56","","","","","","NA"
"-64.30","44.36","LUNENBURG","8203210","2023-05-28 18:00","2023","05","28","18:00","23.0","","6.6","","35","","","","26","","40","","","","100.56","","","","","","NA"
"-64.30","44.36","LUNENBURG","8203210","2023-05-28 19:00","2023","05","28","19:00","20.9","","7.1","","41","","","","26","","34","","","","100.57","","","","","","NA"
"-64.30","44.36","LUNENBURG","8203210","2023-05-28 20:00","2023","05","28","20:00","20.5","","7.3","","42","","","","26","","36","","","","100.60","","","","","","NA"
"-64.30","44.36","LUNENBURG","8203210","2023-05-28 21:00","2023","05","28","21:00","19.0","","8.1","","49","","","","26","","36","","","","100.60","","","","","","NA"
"-64.30","44.36","LUNENBURG","8203210","2023-05-28 22:00","2023","05","28","22:00","18.9","","9.3","","53","","","","33","","19","","","","100.87","","","","","","NA"
"-64.30","44.36","LUNENBURG","8203210","2023-05-28 23:00","2023","05","28","23:00","19.2","","8.5","","50","","","","1","","7","","","","100.96","","","","","","NA"
"-64.30","44.36","LUNENBURG","8203210","2023-05-29 00:00","2023","05","29","00:00","18.5","","8.1","","51","","","","4","","12","","","","101.01","","","","","","NA"
"-64.30","44.36","LUNENBURG","8203210","2023-05-29 01:00","2023","05","29","01:00","17.5","","6.5","","49","","","","3","","5","","","","101.11","","","","","","NA"
"-64.30","44.36","LUNENBURG","8203210","2023-05-29 02:00","2023","05","29","02:00","15.2","","7.3","","59","","","","35","","5","","","","101.13","","","","","","NA"
"-64.30","44.36","LUNENBURG","8203210","2023-05-29 03:00","2023","05","29","03:00","14.7","","6.3","","57","","","","35","","7","","","","101.22","","","","","","NA"
"-64.30","44.36","LUNENBURG","8203210","2023-05-29 04:00","2023","05","29","04:00","13.7","","5.2","","56","","","","2","","6","","","","101.29","","","","","","NA"
"-64.30","44.36","LUNENBURG","8203210","2023-05-29 05:00","2023","05","29","05:00","12.1","","5.4","","64","","","","1","","9","","","","101.41","","","","","","NA"
"-64.30","44.36","LUNENBURG","8203210","2023-05-29 06:00","2023","05","29","06:00","10.9","","2.9","","58","","","","35","","15","","","","101.55","","","","","","NA"
"-64.30","44.36","LUNENBURG","8203210","2023-05-29 07:00","2023","05","29","07:00","10.4","","2.0","","56","","","","35","","16","","","","101.62","","","","","","NA"
"-64.30","44.36","LUNENBURG","8203210","2023-05-29 08:00","2023","05","29","08:00","10.4","","1.5","","54","","","","35","","23","","","","101.67","","","","","","NA"
"-64.30","44.36","LUNENBURG","8203210","2023-05-29 09:00","2023","05","29","09:00","10.6","","0.9","","51","","","","35","","24","","","","101.76","","","","","","NA"
"-64.30","44.36","LUNENBURG","8203210","2023-05-29 10:00","2023","05","29","10:00","11.0","","0.7","","49","","","","35","","18","","","","101.86","","","","","","NA"
"-64.30","44.36","LUNENBURG","8203210","2023-05-29 11:00","2023","05","29","11:00","10.6","","0.3","","49","","","","34","","27","","","","101.89","","","","","","NA"
"-64.30","44.36","LUNENBURG","8203210","2023-05-29 12:00","2023","05","29","12:00","12.2","","1.9","","49","","","","36","","19","","","","101.96","","","","","","NA"
"-64.30","44.36","LUNENBURG","8203210","2023-05-29 13:00","2023","05","29","13:00","11.7","","1.8","","51","","","","35","","20","","","","101.95","","","","","","NA"
"-64.30","44.36","LUNENBURG","8203210","2023-05-29 14:00","2023","05","29","14:00","12.0","","2.3","","51","","","","35","","19","","","","101.92","","","","","","NA"
"-64.30","44.36","LUNENBURG","8203210","2023-05-29 15:00","2023","05","29","15:00","12.9","","2.2","","48","","","","1","","13","","","","101.91","","","","","","NA"
"-64.30","44.36","LUNENBURG","8203210","2023-05-29 16:00","2023","05","29","16:00","13.4","","2.9","","49","","","","1","","13","","","","101.98","","","","","","NA"
"-64.30","44.36","LUNENBURG","8203210","2023-05-29 17:00","2023","05","29","17:00","13.6","","2.7","","48","","","","2","","13","","","","101.99","","","","","","NA"
"-64.30","44.36","LUNENBURG","8203210","2023-05-29 18:00","2023","05","29","18:00","13.4","","2.2","","47","","","","1","","10","","","","102.03","","","","","","NA"
"-64.30","44.36","LUNENBURG","8203210","2023-05-29 19:00","2023","05","29","19:00","12.5","","3.3","","53","","","","35","","8","","","","102.06","","","","","","NA"
"-64.30","44.36","LUNENBURG","8203210","2023-05-29 20:00","2023","05","29","20:00","11.3","","2.0","","53","","","","1","","6","","","","102.12","","","","","","NA"
"-64.30","44.36","LUNENBURG","8203210","2023-05-29 21:00","2023","05","29","21:00","10.6","","1.2","","52","","","","1","","6","","","","102.21","","","","","","NA"
"-64.30","44.36","LUNENBURG","8203210","2023-05-29 22:00","2023","05","29","22:00","9.9","","0.4","","51","","","","35","","11","","","","102.24","","","","","","NA"
"-64.30","44.36","LUNENBURG","8203210","2023-05-29 23:00","2023","05","29","23:00","8.3","","2.8","","68","","","","5","","4","","","","102.22","","","","","","NA"
"-64.30","44.36","LUNENBURG","8203210","2023-05-30 00:00","2023","05","30","00:00","7.2","","4.2","","81","","","","32","","7","","","","102.23","","","","","","NA"
"-64.30","44.36","LUNENBURG","8203210","2023-05-30 01:00","2023","05","30","01:00","7.1","","3.3","","77","","","","35","","3","","","","102.25","","","","","","NA"
"-64.30","44.36","LUNENBURG","8203210","2023-05-30 02:00","2023","05","30","02:00","6.5","","3.7","","82","","","","24","","7","","","","102.27","","","","","","NA"
"-64.30","44.36","LUNENBURG","8203210","2023-05-30 03:00","2023","05","30","03:00","5.1","","2.9","","86","","","","26","","9","","","","102.26","","","","","","NA"
"-64.30","44.36","LUNENBURG","8203210","2023-05-30 04:00","2023","05","30","04:00","5.5","","2.8","","83","","","","33","","6","","","","102.26","","","","","","NA"
"-64.30","44.36","LUNENBURG","8203210","2023-05-30 05:00","2023","05","30","05:00","5.7","","2.9","","82","","","","28","","4","","","","102.31","","","","","","NA"
"-64.30","44.36","LUNENBURG","8203210","2023-05-30 06:00","2023","05","30","06:00","5.9","","3.4","","83","","","","28","","5","","","","102.38","","","","","","NA"
"-64.30","44.36","LUNENBURG","8203210","2023-05-30 07:00","2023","05","30","07:00","7.2","","4.5","","83","","","","23","","6","","","","102.40","","","","","","NA"
"-64.30","44.36","LUNENBURG","8203210","2023-05-30 08:00","2023","05","30","08:00","10.9","","5.3","","69","","","","","","0","","","","102.43","","","","","","NA"
"-64.30","44.36","LUNENBURG","8203210","2023-05-30 09:00","2023","05","30","09:00","12.2","","4.6","","60","","","","28","","9","","","","102.35","","","","","","NA"
"-64.30","44.36","LUNENBURG","8203210","2023-05-30 10:00","2023","05","30","10:00","10.7","","7.5","","81","","","","13","","20","","","","102.28","","","","","","NA"
"-64.30","44.36","LUNENBURG","8203210","2023-05-30 11:00","2023","05","30","11:00","11.0","","8.0","","82","","","","11","","17","","","","102.28","","","","","","NA"
"-64.30","44.36","LUNENBURG","8203210","2023-05-30 12:00","2023","05","30","12:00","14.6","","6.8","","59","","","","18","","18","","","","102.20","","","","","","NA"
"-64.30","44.36","LUNENBURG","8203210","2023-05-30 13:00","2023","05","30","13:00","14.9","","6.9","","59","","","","18","","19","","","","102.11","","","","","","NA"
"-64.30","44.36","LUNENBURG","8203210","2023-05-30 14:00","2023","05","30","14:00","14.8","","5.4","","53","","","","19","","32","","","","102.05","","","","","","NA"
"-64.30","44.36","LUNENBURG","8203210","2023-05-30 15:00","2023","05","30","15:00","14.8","","6.1","","56","","","","20","","29","","","","101.99","","","","","","NA"
"-64.30","44.36","LUNENBURG","8203210","2023-05-30 16:00","2023","05","30","16:00","14.6","","5.5","","55","","","","20","","37","","","","102.00","","","","","","NA"
"-64.30","44.36","LUNENBURG","8203210","2023-05-30 17:00","2023","05","30","17:00","13.4","","4.2","","54","","","","21","","40","","","","101.95","","","","","","NA"
"-64.30","44.36","LUNENBURG","8203210","2023-05-30 18:00","2023","05","30","18:00","12.2","","6.6","","68","","","","24","","19","","","","101.95","","","","","","NA"
"-64.30","44.36","LUNENBURG","8203210","2023-05-30 19:00","2023","05","30","19:00","12.6","","7.4","","71","","","","24","","5","","","","101.98","","","","","","NA"
"-64.30","44.36","LUNENBURG","8203210","2023-05-30 20:00","2023","05","30","20:00","16.9","","2.6","","38","","","","28","","26","","","","102.04","","","","","","NA"
"-64.30","44.36","LUNENBURG","8203210","2023-05-30 21:00","2023","05","30","21:00","15.3","","3.3","","45","","","","27","","19","","","","102.07","","","","","","NA"
"-64.30","44.36","LUNENBURG","8203210","2023-05-30 22:00","2023","05","30","22:00","13.7","","2.7","","47","","","","27","","22","","","","102.07","","","","","","NA"
"-64.30","44.36","LUNENBURG","8203210","2023-05-30 23:00","2023","05","30","23:00","12.5","","3.3","","53","","","","25","","11","","","","102.15","","","","","","NA"
"-64.30","44.36","LUNENBURG","8203210","2023-05-31 00:00","2023","05","31","00:00","11.5","","4.3","","62","","","","26","","17","","","","102.13","","","","","","NA"
"-64.30","44.36","LUNENBURG","8203210","2023-05-31 01:00","2023","05","31","01:00","10.6","","4.4","","66","","","","26","","18","","","","102.11","","","","","","NA"
"-64.30","44.36","LUNENBURG","8203210","2023-05-31 02:00","2023","05","31","02:00","10.2","","3.7","","64","","","","26","","19","","","","102.11","","","","","","NA"
"-64.30","44.36","LUNENBURG","8203210","2023-05-31 03:00","2023","05","31","03:00","9.8","","4.0","","67","","","","26","","20","","","","102.10","","","","","","NA"
"-64.30","44.36","LUNENBURG","8203210","2023-05-31 04:00","2023","05","31","04:00","9.3","","4.2","","70","","","","27","","19","","","","102.08","","","","","","NA"
"-64.30","44.36","LUNENBURG","8203210","2023-05-31 05:00","2023","05","31","05:00","8.9","","4.9","","76","","","","25","","16","","","","102.12","","","","","","NA"
"-64.30","44.36","LUNENBURG","8203210","2023-05-31 06:00","2023","05","31","06:00","9.3","","5.4","","77","","","","24","","12","","","","102.15","","","","","","NA"
"-64.30","44.36","LUNENBURG","8203210","2023-05-31 07:00","2023","05","31","07:00","11.0","","5.6","","70","","","","26","","18","","","","102.15","","","","","","NA"
"-64.30","44.36","LUNENBURG","8203210","2023-05-31 08:00","2023","05","31","08:00","13.0","","5.5","","60","","","","26","","20","","","","102.13","","","","","","NA"
"-64.30","44.36","LUNENBURG","8203210","2023-05-31 09:00","2023","05","31","09:00","15.3","","4.4","","48","","","","26","","22","","","","102.09","","","","","","NA"
"-64.30","44.36","LUNENBURG","8203210","2023-05-31 10:00","2023","05","31","10:00","17.0","","4.0","","42","","","","27","","32","","","","102.02","","","","","","NA"
"-64.30","44.36","LUNENBURG","8203210","2023-05-31 11:00","2023","05","31","11:00","18.8","","4.9","","40","","","","27","","29","","","","102.00","","","","","","NA"
"-64.30","44.36","LUNENBURG","8203210","2023-05-31 12:00","2023","05","31","12:00","19.5","","6.2","","42","","","","26","","24","","","","101.94","","","","","","NA"
"-64.30","44.36","LUNENBURG","8203210","2023-05-31 13:00","2023","05","31","13:00","20.9","","6.8","","40","","","","26","","20","","","","101.87","","","","","","NA"
"-64.30","44.36","LUNENBURG","8203210","2023-05-31 14:00","2023","05","31","14:00","18.8","","8.2","","50","","","","19","","20","","","","101.81","","","","","","NA"
"-64.30","44.36","LUNENBURG","8203210","2023-05-31 15:00","2023","05","31","15:00","19.3","","8.6","","50","","","","20","","17","","","","101.76","","","","","","NA"
"-64.30","44.36","LUNENBURG","8203210","2023-05-31 16:00","2023","05","31","16:00","19.8","","8.5","","48","","","","20","","21","","","","101.69","","","","","","NA"
"-64.30","44.36","LUNENBURG","8203210","2023-05-31 17:00","2023","05","31","17:00","21.7","","7.1","","39","","","","26","","29","","","","101.64","","","","","","NA"
"-64.30","44.36","LUNENBURG","8203210","2023-05-31 18:00","2023","05","31","18:00","20.7","","6.5","","40","","","","27","","27","","","","101.63","","","","","","NA"
"-64.30","44.36","LUNENBURG","8203210","2023-05-31 19:00","2023","05","31","19:00","20.0","","6.0","","40","","","","26","","23","","","","101.68","","","","","","NA"
"-64.30","44.36","LUNENBURG","8203210","2023-05-31 20:00","2023","05","31","20:00","18.6","","5.2","","41","","","","27","","15","","","","101.71","","","","","","NA"
"-64.30","44.36","LUNENBURG","8203210","2023-05-31 21:00","2023","05","31","21:00","15.9","","5.3","","49","","","","28","","14","","","","101.75","","","","","","NA"
"-64.30","44.36","LUNENBURG","8203210","2023-05-31 22:00","2023","05","31","22:00","16.0","","0.5","","35","","","","26","","9","","","","101.76","","","","","","NA"
"-64.30","44.36","LUNENBURG","8203210","2023-05-31 23:00","2023","05","31","23:00","14.8","","3.2","","46","","","","26","","10","","","","101.76","","","","","","NA"
