"Longitude (x)","Latitude (y)","Station Name","Climate ID","Date/Time (LST)","Year","Month","Day","Time (LST)","Temp (°C)","Temp Flag","Dew Point Temp (°C)","Dew Point Temp Flag","Rel Hum (%)","Rel Hum Flag","Precip. Amount (mm)","Precip. Amount Flag","Wind Dir (10s deg)","Wind Dir Flag","Wind Spd (km/h)","Wind Spd Flag","Visibility (km)","Visibility Flag","Stn Press (kPa)","Stn Press Flag","Hmdx","Hmdx Flag","Wind Chill","Wind Chill Flag","Weather"
"-77.53","44.12","TRENTON A","6158875","2019-11-01 00:00","2019","11","01","00:00","8.9","","3.6","","69","","","","23","","54","","24.1","","98.62","","","","","","Mostly Cloudy"
"-77.53","44.12","TRENTON A","6158875","2019-11-01 01:00","2019","11","01","01:00","8.2","","2.7","","68","","","","23","","55","","24.1","","98.46","","","","","","Cloudy"
"-77.53","44.12","TRENTON A","6158875","2019-11-01 02:00","2019","11","01","02:00","7.9","","4.6","","80","","","","23","","50","","24.1","","98.37","","","","","","Cloudy"
"-77.53","44.12","TRENTON A","6158875","2019-11-01 03:00","2019","11","01","03:00","6.0","","0.6","","68","","","","25","","43","","24.1","","98.58","","","","","","Mostly Cloudy"
"-77.53","44.12","TRENTON A","6158875","2019-11-01 04:00","2019","11","01","04:00","4.8","","-1.4","","64","","","","25","","50","","24.1","","98.82","","","","","","Mainly Clear"
"-77.53","44.12","TRENTON A","6158875","2019-11-01 05:00","2019","11","01","05:00","3.4","","0.3","","80","","","","26","","54","","11.3","","99.13","","","","","","Rain Showers"
"-77.53","44.12","TRENTON A","6158875","2019-11-01 06:00","2019","11","01","06:00","2.1","","-0.5","","83","","","","27","","44","","11.3","","99.48","","","","","","Rain Showers"
"-77.53","44.12","TRENTON A","6158875","2019-11-01 07:00","2019","11","01","07:00","2.3","","-0.5","","82","","","","26","","35","","16.1","","99.82","","","","","","Mostly Cloudy"
"-77.53","44.12","TRENTON A","6158875","2019-11-01 08:00","2019","11","01","08:00","2.4","","0.1","","85","","","","27","","28","","11.3","","100.12","","","","","","Rain Showers"
"-77.53","44.12","TRENTON A","6158875","2019-11-01 09:00","2019","11","01","09:00","3.8","","1.5","","85","","","","26","","30","","19.3","","100.28","","","","","","Mostly Cloudy"
"-77.53","44.12","TRENTON A","6158875","2019-11-01 10:00","2019","11","01","10:00","3.7","","-0.6","","73","","","","27","","30","","16.1","","100.45","","","","","","Rain Showers"
"-77.53","44.12","TRENTON A","6158875","2019-11-01 11:00","2019","11","01","11:00","3.8","","-1.7","","67","","","","27","","37","","24.1","","100.57","","","","","","Mostly Cloudy"
"-77.53","44.12","TRENTON A","6158875","2019-11-01 12:00","2019","11","01","12:00","4.4","","-1.8","","64","","","","29","","39","","24.1","","100.67","","","","","","Mostly Cloudy"
"-77.53","44.12","TRENTON A","6158875","2019-11-01 13:00","2019","11","01","13:00","4.7","","-4.7","","50","","","","29","","41","","24.1","","100.81","","","","","","Mostly Cloudy"
"-77.53","44.12","TRENTON A","6158875","2019-11-01 14:00","2019","11","01","14:00","4.9","","-3.7","","54","","","","29","","26","","24.1","","100.96","","","","","","Mostly Cloudy"
"-77.53","44.12","TRENTON A","6158875","2019-11-01 15:00","2019","11","01","15:00","4.8","","-3.1","","57","","","","29","","22","","24.1","","101.09","","","","","","Cloudy"
"-77.53","44.12","TRENTON A","6158875","2019-11-01 16:00","2019","11","01","16:00","4.7","","-1.7","","63","","","","26","","17","","24.1","","101.18","","","","","","Cloudy"
"-77.53","44.12","TRENTON A","6158875","2019-11-01 17:00","2019","11","01","17:00","4.2","","-1.2","","68","","","","27","","13","","24.1","","101.24","","","","","","Cloudy"
"-77.53","44.12","TRENTON A","6158875","2019-11-01 18:00","2019","11","01","18:00","4.1","","-1.1","","69","","","","30","","13","","24.1","","101.28","","","","","","Cloudy"
"-77.53","44.12","TRENTON A","6158875","2019-11-01 19:00","2019","11","01","19:00","4.1","","-0.9","","70","","","","30","","11","","24.1","","101.28","","","","","","Cloudy"
"-77.53","44.12","TRENTON A","6158875","2019-11-01 20:00","2019","11","01","20:00","3.8","","-0.4","","74","","","","31","","9","","24.1","","101.27","","","","","","Cloudy"
"-77.53","44.12","TRENTON A","6158875","2019-11-01 21:00","2019","11","01","21:00","3.7","","-0.2","","76","","","","29","","8","","24.1","","101.31","","","","","","Cloudy"
"-77.53","44.12","TRENTON A","6158875","2019-11-01 22:00","2019","11","01","22:00","3.7","","-0.9","","72","","","","29","","5","","24.1","","101.30","","","","","","Cloudy"
"-77.53","44.12","TRENTON A","6158875","2019-11-01 23:00","2019","11","01","23:00","3.8","","-2.3","","64","","","","30","","9","","24.1","","101.29","","","","","","Mostly Cloudy"
"-77.53","44.12","TRENTON A","6158875","2019-11-02 00:00","2019","11","02","00:00","3.7","","-2.5","","64","","","","28","","9","","24.1","","101.25","","","","","","Mostly Cloudy"
"-77.53","44.12","TRENTON A","6158875","2019-11-02 01:00","2019","11","02","01:00","3.6","","-2.8","","63","","","","26","","8","","24.1","","101.25","","","","","","Cloudy"
"-77.53","44.12","TRENTON A","6158875","2019-11-02 02:00","2019","11","02","02:00","2.0","","-2.4","","73","","","","25","","8","","24.1","","101.24","","","","","","Mostly Cloudy"
"-77.53","44.12","TRENTON A","6158875","2019-11-02 03:00","2019","11","02","03:00","2.4","","-1.6","","75","","","","","","0","","24.1","","101.18","","","","","","Cloudy"
"-77.53","44.12","TRENTON A","6158875","2019-11-02 04:00","2019","11","02","04:00","2.5","","-1.2","","77","","","","","","0","","24.1","","101.16","","","","","","Cloudy"
"-77.53","44.12","TRENTON A","6158875","2019-11-02 05:00","2019","11","02","05:00","3.4","","-1.3","","71","","","","12","","4","","24.1","","101.11","","","","","","Cloudy"
"-77.53","44.12","TRENTON A","6158875","2019-11-02 06:00","2019","11","02","06:00","4.1","","0.0","","75","","","","16","","5","","24.1","","101.07","","","","","","Cloudy"
"-77.53","44.12","TRENTON A","6158875","2019-11-02 07:00","2019","11","02","07:00","4.8","","1.0","","76","","","","20","","11","","24.1","","101.03","","","","","","Cloudy"
"-77.53","44.12","TRENTON A","6158875","2019-11-02 08:00","2019","11","02","08:00","4.9","","1.3","","77","","","","17","","5","","16.1","","101.01","","","","","","Cloudy"
"-77.53","44.12","TRENTON A","6158875","2019-11-02 09:00","2019","11","02","09:00","5.7","","1.4","","74","","","","16","","8","","24.1","","100.91","","","","","","Cloudy"
"-77.53","44.12","TRENTON A","6158875","2019-11-02 10:00","2019","11","02","10:00","6.0","","0.7","","69","","","","21","","17","","24.1","","100.86","","","","","","Cloudy"
"-77.53","44.12","TRENTON A","6158875","2019-11-02 11:00","2019","11","02","11:00","6.2","","0.4","","66","","","","21","","15","","24.1","","100.79","","","","","","Rain Showers"
"-77.53","44.12","TRENTON A","6158875","2019-11-02 12:00","2019","11","02","12:00","6.6","","1.0","","67","","","","20","","13","","24.1","","100.69","","","","","","Rain Showers"
"-77.53","44.12","TRENTON A","6158875","2019-11-02 13:00","2019","11","02","13:00","6.8","","0.1","","62","","","","19","","17","","24.1","","100.60","","","","","","Rain Showers"
"-77.53","44.12","TRENTON A","6158875","2019-11-02 14:00","2019","11","02","14:00","6.8","","0.3","","63","","","","20","","24","","24.1","","100.55","","","","","","Cloudy"
"-77.53","44.12","TRENTON A","6158875","2019-11-02 15:00","2019","11","02","15:00","7.2","","-0.5","","58","","","","20","","26","","24.1","","100.51","","","","","","Cloudy"
"-77.53","44.12","TRENTON A","6158875","2019-11-02 16:00","2019","11","02","16:00","5.6","","2.0","","78","","","","18","","13","","24.1","","100.50","","","","","","Rain Showers"
"-77.53","44.12","TRENTON A","6158875","2019-11-02 17:00","2019","11","02","17:00","6.4","","1.7","","72","","","","22","","24","","9.7","","100.50","","","","","","Rain Showers,Fog"
"-77.53","44.12","TRENTON A","6158875","2019-11-02 18:00","2019","11","02","18:00","4.8","","2.7","","86","","","","22","","13","","11.3","","100.53","","","","","","Rain Showers"
"-77.53","44.12","TRENTON A","6158875","2019-11-02 19:00","2019","11","02","19:00","5.2","","3.5","","89","","","","23","","8","","24.1","","100.51","","","","","","Mostly Cloudy"
"-77.53","44.12","TRENTON A","6158875","2019-11-02 20:00","2019","11","02","20:00","3.7","","2.7","","93","","","","24","","8","","24.1","","100.47","","","","","","Mainly Clear"
"-77.53","44.12","TRENTON A","6158875","2019-11-02 21:00","2019","11","02","21:00","4.8","","3.6","","92","","","","25","","13","","24.1","","100.48","","","","","","Cloudy"
"-77.53","44.12","TRENTON A","6158875","2019-11-02 22:00","2019","11","02","22:00","4.4","","1.2","","80","","","","23","","11","","24.1","","100.45","","","","","","Mostly Cloudy"
"-77.53","44.12","TRENTON A","6158875","2019-11-02 23:00","2019","11","02","23:00","2.5","","1.4","","92","","","","26","","13","","24.1","","100.46","","","","","","Mainly Clear"
"-77.53","44.12","TRENTON A","6158875","2019-11-03 00:00","2019","11","03","00:00","3.8","","1.8","","87","","","","24","","5","","24.1","","100.41","","","","","","Cloudy"
"-77.53","44.12","TRENTON A","6158875","2019-11-03 01:00","2019","11","03","01:00","4.8","","2.1","","83","","","","23","","11","","24.1","","100.40","","","","","","Rain Showers"
"-77.53","44.12","TRENTON A","6158875","2019-11-03 02:00","2019","11","03","02:00","4.6","","1.7","","81","","","","25","","18","","24.1","","100.39","","","","","","Mostly Cloudy"
"-77.53","44.12","TRENTON A","6158875","2019-11-03 03:00","2019","11","03","03:00","3.1","","0.8","","85","","","","26","","15","","24.1","","100.37","","","","","","Clear"
"-77.53","44.12","TRENTON A","6158875","2019-11-03 04:00","2019","11","03","04:00","3.3","","0.8","","84","","","","27","","17","","24.1","","100.36","","","","","","Mainly Clear"
"-77.53","44.12","TRENTON A","6158875","2019-11-03 05:00","2019","11","03","05:00","3.6","","1.2","","84","","","","23","","15","","24.1","","100.39","","","","","","Rain Showers"
"-77.53","44.12","TRENTON A","6158875","2019-11-03 06:00","2019","11","03","06:00","3.1","","0.8","","85","","","","25","","18","","24.1","","100.43","","","","","","Cloudy"
"-77.53","44.12","TRENTON A","6158875","2019-11-03 07:00","2019","11","03","07:00","2.6","","0.2","","84","","","","25","","17","","24.1","","100.46","","","","","","Mostly Cloudy"
"-77.53","44.12","TRENTON A","6158875","2019-11-03 08:00","2019","11","03","08:00","3.4","","0.0","","78","","","","24","","17","","24.1","","100.55","","","","","","Mainly Clear"
"-77.53","44.12","TRENTON A","6158875","2019-11-03 09:00","2019","11","03","09:00","4.2","","0.5","","77","","","","24","","18","","24.1","","100.57","","","","","","Mainly Clear"
"-77.53","44.12","TRENTON A","6158875","2019-11-03 10:00","2019","11","03","10:00","5.9","","0.2","","67","","","","28","","28","","24.1","","100.63","","","","","","Mainly Clear"
"-77.53","44.12","TRENTON A","6158875","2019-11-03 11:00","2019","11","03","11:00","7.1","","-0.4","","59","","","","27","","24","","24.1","","100.67","","","","","","Mostly Cloudy"
"-77.53","44.12","TRENTON A","6158875","2019-11-03 12:00","2019","11","03","12:00","6.2","","-1.5","","58","","","","30","","22","","24.1","","100.66","","","","","","Mostly Cloudy"
"-77.53","44.12","TRENTON A","6158875","2019-11-03 13:00","2019","11","03","13:00","5.8","","0.4","","68","","","","23","","22","","24.1","","100.67","","","","","","Rain Showers"
"-77.53","44.12","TRENTON A","6158875","2019-11-03 14:00","2019","11","03","14:00","5.8","","0.5","","69","","","","24","","22","","24.1","","100.69","","","","","","Mostly Cloudy"
"-77.53","44.12","TRENTON A","6158875","2019-11-03 15:00","2019","11","03","15:00","5.1","","-0.1","","69","","","","26","","31","","24.1","","100.76","","","","","","Rain Showers"
"-77.53","44.12","TRENTON A","6158875","2019-11-03 16:00","2019","11","03","16:00","5.2","","-0.9","","65","","","","24","","15","","24.1","","100.81","","","","","","Mostly Cloudy"
"-77.53","44.12","TRENTON A","6158875","2019-11-03 17:00","2019","11","03","17:00","4.8","","-1.9","","62","","","","25","","15","","24.1","","100.85","","","","","","Mostly Cloudy"
"-77.53","44.12","TRENTON A","6158875","2019-11-03 18:00","2019","11","03","18:00","4.0","","-3.4","","58","","","","26","","18","","24.1","","100.93","","","","","","Mostly Cloudy"
"-77.53","44.12","TRENTON A","6158875","2019-11-03 19:00","2019","11","03","19:00","3.9","","-3.1","","60","","","","27","","21","","24.1","","100.99","","","","","","Mostly Cloudy"
"-77.53","44.12","TRENTON A","6158875","2019-11-03 20:00","2019","11","03","20:00","3.7","","-2.9","","62","","","","25","","17","","24.1","","101.04","","","","","","Mostly Cloudy"
"-77.53","44.12","TRENTON A","6158875","2019-11-03 21:00","2019","11","03","21:00","2.5","","-3.1","","67","","","","25","","13","","24.1","","101.08","","","","","","Mainly Clear"
"-77.53","44.12","TRENTON A","6158875","2019-11-03 22:00","2019","11","03","22:00","1.2","","-4.1","","68","","","","25","","11","","24.1","","101.14","","","","","","Mainly Clear"
"-77.53","44.12","TRENTON A","6158875","2019-11-03 23:00","2019","11","03","23:00","1.0","","-3.9","","70","","","","26","","11","","24.1","","101.15","","","","","","Mainly Clear"
"-77.53","44.12","TRENTON A","6158875","2019-11-04 00:00","2019","11","04","00:00","0.8","","-4.4","","68","","","","25","","8","","24.1","","101.21","","","","","","Mainly Clear"
"-77.53","44.12","TRENTON A","6158875","2019-11-04 01:00","2019","11","04","01:00","-0.9","","-4.5","","78","","","","","","0","","24.1","","101.20","","","","","","Mainly Clear"
"-77.53","44.12","TRENTON A","6158875","2019-11-04 02:00","2019","11","04","02:00","-2.9","","-4.4","","89","","","","11","","4","","24.1","","101.24","","","","-4","","Mainly Clear"
"-77.53","44.12","TRENTON A","6158875","2019-11-04 03:00","2019","11","04","03:00","-1.0","","-2.5","","90","","","","","","0","","24.1","","101.22","","","","","","Cloudy"
"-77.53","44.12","TRENTON A","6158875","2019-11-04 04:00","2019","11","04","04:00","-0.5","","-2.3","","88","","","","2","","4","","24.1","","101.20","","","","-2","","Cloudy"
"-77.53","44.12","TRENTON A","6158875","2019-11-04 05:00","2019","11","04","05:00","0.7","","-1.1","","88","","","","12","","4","","24.1","","101.18","","","","","","Rain"
"-77.53","44.12","TRENTON A","6158875","2019-11-04 06:00","2019","11","04","06:00","3.8","","-0.2","","75","","","","13","","8","","24.1","","101.12","","","","","","Rain"
"-77.53","44.12","TRENTON A","6158875","2019-11-04 07:00","2019","11","04","07:00","5.1","","0.5","","72","","","","14","","8","","24.1","","101.07","","","","","","Rain"
"-77.53","44.12","TRENTON A","6158875","2019-11-04 08:00","2019","11","04","08:00","6.5","","1.8","","72","","","","17","","15","","24.1","","101.05","","","","","","Cloudy"
"-77.53","44.12","TRENTON A","6158875","2019-11-04 09:00","2019","11","04","09:00","7.2","","2.3","","71","","","","19","","21","","24.1","","101.03","","","","","","Rain"
"-77.53","44.12","TRENTON A","6158875","2019-11-04 10:00","2019","11","04","10:00","6.1","","3.3","","82","","","","18","","18","","11.3","","101.02","","","","","","Rain"
"-77.53","44.12","TRENTON A","6158875","2019-11-04 11:00","2019","11","04","11:00","7.0","","4.2","","82","","","","16","","15","","24.1","","100.89","","","","","","Rain"
"-77.53","44.12","TRENTON A","6158875","2019-11-04 12:00","2019","11","04","12:00","8.4","","2.5","","66","","","","18","","18","","24.1","","100.80","","","","","","Cloudy"
"-77.53","44.12","TRENTON A","6158875","2019-11-04 13:00","2019","11","04","13:00","9.0","","1.6","","60","","","","18","","15","","24.1","","100.70","","","","","","Cloudy"
"-77.53","44.12","TRENTON A","6158875","2019-11-04 14:00","2019","11","04","14:00","10.0","","1.6","","56","","","","16","","21","","24.1","","100.55","","","","","","Cloudy"
"-77.53","44.12","TRENTON A","6158875","2019-11-04 15:00","2019","11","04","15:00","10.1","","1.2","","54","","","","18","","18","","24.1","","100.54","","","","","","Cloudy"
"-77.53","44.12","TRENTON A","6158875","2019-11-04 16:00","2019","11","04","16:00","10.1","","1.7","","56","","","","16","","11","","24.1","","100.54","","","","","","Mostly Cloudy"
"-77.53","44.12","TRENTON A","6158875","2019-11-04 17:00","2019","11","04","17:00","9.9","","1.6","","56","","","","17","","17","","24.1","","100.50","","","","","","Cloudy"
"-77.53","44.12","TRENTON A","6158875","2019-11-04 18:00","2019","11","04","18:00","10.3","","2.2","","57","","","","17","","17","","24.1","","100.49","","","","","","Cloudy"
"-77.53","44.12","TRENTON A","6158875","2019-11-04 19:00","2019","11","04","19:00","10.7","","1.0","","51","","","","16","","22","","24.1","","100.50","","","","","","Rain Showers"
"-77.53","44.12","TRENTON A","6158875","2019-11-04 20:00","2019","11","04","20:00","11.0","","1.7","","53","","","","18","","18","","24.1","","100.50","","","","","","Rain Showers"
"-77.53","44.12","TRENTON A","6158875","2019-11-04 21:00","2019","11","04","21:00","11.2","","3.3","","58","","","","21","","22","","24.1","","100.53","","","","","","Cloudy"
"-77.53","44.12","TRENTON A","6158875","2019-11-04 22:00","2019","11","04","22:00","11.1","","2.6","","56","","","","19","","21","","24.1","","100.54","","","","","","Cloudy"
"-77.53","44.12","TRENTON A","6158875","2019-11-04 23:00","2019","11","04","23:00","11.1","","3.9","","61","","","","22","","13","","24.1","","100.53","","","","","","Cloudy"
"-77.53","44.12","TRENTON A","6158875","2019-11-05 00:00","2019","11","05","00:00","10.9","","4.5","","65","","","","22","","26","","24.1","","100.52","","","","","","Cloudy"
"-77.53","44.12","TRENTON A","6158875","2019-11-05 01:00","2019","11","05","01:00","10.4","","5.0","","69","","","","22","","18","","24.1","","100.56","","","","","","Cloudy"
"-77.53","44.12","TRENTON A","6158875","2019-11-05 02:00","2019","11","05","02:00","10.0","","5.5","","74","","","","22","","17","","24.1","","100.56","","","","","","Cloudy"
"-77.53","44.12","TRENTON A","6158875","2019-11-05 03:00","2019","11","05","03:00","9.9","","5.9","","76","","","","22","","15","","24.1","","100.55","","","","","","Mostly Cloudy"
"-77.53","44.12","TRENTON A","6158875","2019-11-05 04:00","2019","11","05","04:00","8.9","","7.1","","88","","","","22","","17","","16.1","","100.57","","","","","","Rain Showers"
"-77.53","44.12","TRENTON A","6158875","2019-11-05 05:00","2019","11","05","05:00","8.9","","7.1","","88","","","","23","","15","","24.1","","100.60","","","","","","Cloudy"
"-77.53","44.12","TRENTON A","6158875","2019-11-05 06:00","2019","11","05","06:00","9.0","","7.3","","89","","","","22","","13","","24.1","","100.60","","","","","","Cloudy"
"-77.53","44.12","TRENTON A","6158875","2019-11-05 07:00","2019","11","05","07:00","9.0","","7.3","","89","","","","23","","17","","24.1","","100.58","","","","","","Cloudy"
"-77.53","44.12","TRENTON A","6158875","2019-11-05 08:00","2019","11","05","08:00","9.0","","7.4","","90","","","","21","","17","","24.1","","100.61","","","","","","Cloudy"
"-77.53","44.12","TRENTON A","6158875","2019-11-05 09:00","2019","11","05","09:00","9.1","","7.6","","90","","","","22","","17","","24.1","","100.63","","","","","","Cloudy"
"-77.53","44.12","TRENTON A","6158875","2019-11-05 10:00","2019","11","05","10:00","9.4","","7.0","","85","","","","26","","17","","24.1","","100.61","","","","","","Cloudy"
"-77.53","44.12","TRENTON A","6158875","2019-11-05 11:00","2019","11","05","11:00","9.0","","","M","55","","","","25","","26","","24.1","","100.63","","","","","","Cloudy"
"-77.53","44.12","TRENTON A","6158875","2019-11-05 12:00","2019","11","05","12:00","8.6","","-3.1","","44","","","","25","","22","","24.1","","100.64","","","","","","Mostly Cloudy"
"-77.53","44.12","TRENTON A","6158875","2019-11-05 13:00","2019","11","05","13:00","8.0","","-1.1","","53","","","","23","","26","","24.1","","100.64","","","","","","Mostly Cloudy"
"-77.53","44.12","TRENTON A","6158875","2019-11-05 14:00","2019","11","05","14:00","8.4","","0.8","","59","","","","23","","24","","24.1","","100.68","","","","","","Mainly Clear"
"-77.53","44.12","TRENTON A","6158875","2019-11-05 15:00","2019","11","05","15:00","8.3","","-1.4","","50","","","","27","","28","","24.1","","100.75","","","","","","Mostly Cloudy"
"-77.53","44.12","TRENTON A","6158875","2019-11-05 16:00","2019","11","05","16:00","7.9","","-2.0","","50","","","","28","","22","","24.1","","100.80","","","","","","Mostly Cloudy"
"-77.53","44.12","TRENTON A","6158875","2019-11-05 17:00","2019","11","05","17:00","6.7","","-1.4","","56","","","","26","","8","","24.1","","100.86","","","","","","Mostly Cloudy"
"-77.53","44.12","TRENTON A","6158875","2019-11-05 18:00","2019","11","05","18:00","5.4","","-0.8","","64","","","","30","","8","","24.1","","100.94","","","","","","Mostly Cloudy"
"-77.53","44.12","TRENTON A","6158875","2019-11-05 19:00","2019","11","05","19:00","5.2","","-1.1","","64","","","","26","","5","","24.1","","101.02","","","","","","Mostly Cloudy"
"-77.53","44.12","TRENTON A","6158875","2019-11-05 20:00","2019","11","05","20:00","5.8","","-3.3","","52","","","","27","","21","","24.1","","101.08","","","","","","Mostly Cloudy"
"-77.53","44.12","TRENTON A","6158875","2019-11-05 21:00","2019","11","05","21:00","4.8","","-4.9","","49","","","","26","","17","","24.1","","101.11","","","","","","Mainly Clear"
"-77.53","44.12","TRENTON A","6158875","2019-11-05 22:00","2019","11","05","22:00","3.7","","-4.6","","55","","","","26","","17","","24.1","","101.14","","","","","","Clear"
"-77.53","44.12","TRENTON A","6158875","2019-11-05 23:00","2019","11","05","23:00","2.2","","-4.7","","60","","","","25","","15","","24.1","","101.13","","","","","","Clear"
"-77.53","44.12","TRENTON A","6158875","2019-11-06 00:00","2019","11","06","00:00","3.2","","-4.2","","58","","","","26","","18","","24.1","","101.15","","","","","","Mainly Clear"
"-77.53","44.12","TRENTON A","6158875","2019-11-06 01:00","2019","11","06","01:00","2.8","","-4.4","","59","","","","27","","17","","24.1","","101.16","","","","","","Mainly Clear"
"-77.53","44.12","TRENTON A","6158875","2019-11-06 02:00","2019","11","06","02:00","0.9","","-4.4","","68","","","","25","","8","","24.1","","101.20","","","","","","Mainly Clear"
"-77.53","44.12","TRENTON A","6158875","2019-11-06 03:00","2019","11","06","03:00","0.9","","-3.2","","74","","","","25","","11","","24.1","","101.24","","","","","","Mainly Clear"
"-77.53","44.12","TRENTON A","6158875","2019-11-06 04:00","2019","11","06","04:00","0.9","","-3.4","","73","","","","26","","13","","24.1","","101.31","","","","","","Mainly Clear"
"-77.53","44.12","TRENTON A","6158875","2019-11-06 05:00","2019","11","06","05:00","0.3","","-5.7","","64","","","","27","","18","","24.1","","101.43","","","","","","Clear"
"-77.53","44.12","TRENTON A","6158875","2019-11-06 06:00","2019","11","06","06:00","0.1","","-6.8","","60","","","","26","","13","","24.1","","101.48","","","","","","Clear"
"-77.53","44.12","TRENTON A","6158875","2019-11-06 07:00","2019","11","06","07:00","-0.3","","-6.9","","61","","","","26","","17","","24.1","","101.59","","","","-5","","Mainly Clear"
"-77.53","44.12","TRENTON A","6158875","2019-11-06 08:00","2019","11","06","08:00","1.3","","-6.4","","56","","","","26","","18","","24.1","","101.70","","","","","","Mainly Clear"
"-77.53","44.12","TRENTON A","6158875","2019-11-06 09:00","2019","11","06","09:00","2.5","","-5.9","","54","","","","26","","21","","24.1","","101.74","","","","","","Mainly Clear"
"-77.53","44.12","TRENTON A","6158875","2019-11-06 10:00","2019","11","06","10:00","3.9","","-6.4","","47","","","","27","","22","","24.1","","101.76","","","","","","Clear"
"-77.53","44.12","TRENTON A","6158875","2019-11-06 11:00","2019","11","06","11:00","4.8","","-6.9","","42","","","","26","","18","","24.1","","101.76","","","","","","Mainly Clear"
"-77.53","44.12","TRENTON A","6158875","2019-11-06 12:00","2019","11","06","12:00","5.5","","-6.3","","42","","","","26","","17","","24.1","","101.70","","","","","","Mainly Clear"
"-77.53","44.12","TRENTON A","6158875","2019-11-06 13:00","2019","11","06","13:00","4.9","","-4.8","","49","","","","22","","22","","24.1","","101.63","","","","","","Mainly Clear"
"-77.53","44.12","TRENTON A","6158875","2019-11-06 14:00","2019","11","06","14:00","4.2","","-5.4","","50","","","","23","","24","","24.1","","101.60","","","","","","Mostly Cloudy"
"-77.53","44.12","TRENTON A","6158875","2019-11-06 15:00","2019","11","06","15:00","3.9","","-5.2","","51","","","","23","","24","","24.1","","101.56","","","","","","Mostly Cloudy"
"-77.53","44.12","TRENTON A","6158875","2019-11-06 16:00","2019","11","06","16:00","3.8","","-5.0","","53","","","","24","","21","","24.1","","101.56","","","","","","Cloudy"
"-77.53","44.12","TRENTON A","6158875","2019-11-06 17:00","2019","11","06","17:00","3.5","","-5.1","","53","","","","25","","17","","24.1","","101.51","","","","","","Cloudy"
"-77.53","44.12","TRENTON A","6158875","2019-11-06 18:00","2019","11","06","18:00","3.8","","-4.1","","56","","","","24","","15","","24.1","","101.46","","","","","","Cloudy"
"-77.53","44.12","TRENTON A","6158875","2019-11-06 19:00","2019","11","06","19:00","3.8","","-3.1","","61","","","","24","","13","","24.1","","101.40","","","","","","Cloudy"
"-77.53","44.12","TRENTON A","6158875","2019-11-06 20:00","2019","11","06","20:00","3.6","","-1.9","","67","","","","28","","11","","24.1","","101.33","","","","","","Rain"
"-77.53","44.12","TRENTON A","6158875","2019-11-06 21:00","2019","11","06","21:00","3.0","","0.5","","84","","","","25","","11","","16.1","","101.32","","","","","","Rain"
"-77.53","44.12","TRENTON A","6158875","2019-11-06 22:00","2019","11","06","22:00","3.1","","1.7","","91","","","","24","","11","","16.1","","101.29","","","","","","Rain"
"-77.53","44.12","TRENTON A","6158875","2019-11-06 23:00","2019","11","06","23:00","3.4","","2.6","","94","","","","25","","11","","8.1","","101.23","","","","","","Rain,Fog"
"-77.53","44.12","TRENTON A","6158875","2019-11-07 00:00","2019","11","07","00:00","3.7","","2.9","","94","","","","25","","5","","9.7","","101.20","","","","","","Rain,Fog"
"-77.53","44.12","TRENTON A","6158875","2019-11-07 01:00","2019","11","07","01:00","3.7","","2.4","","91","","","","25","","8","","9.7","","101.14","","","","","","Rain,Fog"
"-77.53","44.12","TRENTON A","6158875","2019-11-07 02:00","2019","11","07","02:00","2.7","","1.0","","89","","","","29","","9","","8.1","","101.12","","","","","","Rain,Fog"
"-77.53","44.12","TRENTON A","6158875","2019-11-07 03:00","2019","11","07","03:00","2.0","","1.0","","93","","","","25","","5","","8.1","","101.09","","","","","","Rain,Fog"
"-77.53","44.12","TRENTON A","6158875","2019-11-07 04:00","2019","11","07","04:00","1.4","","0.5","","94","","","","30","","4","","4.8","","101.04","","","","","","Rain,Fog"
"-77.53","44.12","TRENTON A","6158875","2019-11-07 05:00","2019","11","07","05:00","0.9","","0.2","","95","","","","31","","4","","3.2","","101.05","","","","","","Snow,Fog"
"-77.53","44.12","TRENTON A","6158875","2019-11-07 06:00","2019","11","07","06:00","0.9","","0.1","","94","","","","32","","11","","6.4","","101.09","","","","","","Snow,Fog"
"-77.53","44.12","TRENTON A","6158875","2019-11-07 07:00","2019","11","07","07:00","-0.5","","-1.7","","92","","","","35","","17","","4.8","","101.17","","","","-5","","Snow"
"-77.53","44.12","TRENTON A","6158875","2019-11-07 08:00","2019","11","07","08:00","-0.9","","-1.8","","94","","","","35","","5","","3.2","","101.24","","","","-3","","Snow"
"-77.53","44.12","TRENTON A","6158875","2019-11-07 09:00","2019","11","07","09:00","-0.9","","-1.7","","94","","","","33","","5","","2.4","","101.25","","","","-3","","Snow"
"-77.53","44.12","TRENTON A","6158875","2019-11-07 10:00","2019","11","07","10:00","-1.5","","-2.8","","91","","","","33","","8","","4.8","","101.25","","","","-5","","Snow"
"-77.53","44.12","TRENTON A","6158875","2019-11-07 11:00","2019","11","07","11:00","-0.4","","-2.2","","88","","","","32","","11","","24.1","","101.24","","","","-4","","Mostly Cloudy"
"-77.53","44.12","TRENTON A","6158875","2019-11-07 12:00","2019","11","07","12:00","0.1","","-2.7","","81","","","","34","","15","","24.1","","101.14","","","","","","Mostly Cloudy"
"-77.53","44.12","TRENTON A","6158875","2019-11-07 13:00","2019","11","07","13:00","0.5","","-2.8","","78","","","","34","","13","","24.1","","101.12","","","","","","Mostly Cloudy"
"-77.53","44.12","TRENTON A","6158875","2019-11-07 14:00","2019","11","07","14:00","0.4","","-5.3","","66","","","","35","","13","","24.1","","101.07","","","","","","Mostly Cloudy"
"-77.53","44.12","TRENTON A","6158875","2019-11-07 15:00","2019","11","07","15:00","0.3","","-5.2","","67","","","","32","","13","","24.1","","101.05","","","","","","Mostly Cloudy"
"-77.53","44.12","TRENTON A","6158875","2019-11-07 16:00","2019","11","07","16:00","0.6","","-5.7","","63","","","","28","","11","","24.1","","101.08","","","","","","Mostly Cloudy"
"-77.53","44.12","TRENTON A","6158875","2019-11-07 17:00","2019","11","07","17:00","-1.4","","-5.3","","75","","","","26","","9","","24.1","","101.08","","","","-5","","Mainly Clear"
"-77.53","44.12","TRENTON A","6158875","2019-11-07 18:00","2019","11","07","18:00","-1.9","","-5.2","","78","","","","25","","9","","24.1","","101.12","","","","-5","","Mainly Clear"
"-77.53","44.12","TRENTON A","6158875","2019-11-07 19:00","2019","11","07","19:00","-2.0","","-4.7","","82","","","","27","","11","","24.1","","101.14","","","","-6","","Mainly Clear"
"-77.53","44.12","TRENTON A","6158875","2019-11-07 20:00","2019","11","07","20:00","-2.3","","-5.5","","79","","","","30","","11","","24.1","","101.15","","","","-6","","Clear"
"-77.53","44.12","TRENTON A","6158875","2019-11-07 21:00","2019","11","07","21:00","-2.4","","-5.8","","77","","","","35","","18","","24.1","","101.13","","","","-8","","Mostly Cloudy"
"-77.53","44.12","TRENTON A","6158875","2019-11-07 22:00","2019","11","07","22:00","-2.7","","-7.6","","69","","","","36","","11","","24.1","","101.16","","","","-7","","Mostly Cloudy"
"-77.53","44.12","TRENTON A","6158875","2019-11-07 23:00","2019","11","07","23:00","-3.8","","-8.3","","71","","","","35","","11","","24.1","","101.14","","","","-8","","Mainly Clear"
"-77.53","44.12","TRENTON A","6158875","2019-11-08 00:00","2019","11","08","00:00","-5.0","","-8.7","","75","","","","33","","9","","24.1","","101.13","","","","-9","","Mainly Clear"
"-77.53","44.12","TRENTON A","6158875","2019-11-08 01:00","2019","11","08","01:00","-5.7","","-9.0","","77","","","","34","","8","","24.1","","101.16","","","","-9","","Clear"
"-77.53","44.12","TRENTON A","6158875","2019-11-08 02:00","2019","11","08","02:00","-6.3","","-8.9","","82","","","","30","","4","","24.1","","101.18","","","","-8","","Clear"
"-77.53","44.12","TRENTON A","6158875","2019-11-08 03:00","2019","11","08","03:00","-6.6","","-9.1","","82","","","","31","","8","","24.1","","101.20","","","","-10","","Clear"
"-77.53","44.12","TRENTON A","6158875","2019-11-08 04:00","2019","11","08","04:00","-6.4","","-9.3","","80","","","","32","","9","","24.1","","101.24","","","","-11","","Clear"
"-77.53","44.12","TRENTON A","6158875","2019-11-08 05:00","2019","11","08","05:00","-6.7","","-9.6","","80","","","","32","","11","","24.1","","101.29","","","","-12","","Clear"
"-77.53","44.12","TRENTON A","6158875","2019-11-08 06:00","2019","11","08","06:00","-7.0","","-9.6","","82","","","","32","","5","","24.1","","101.36","","","","-10","","Clear"
"-77.53","44.12","TRENTON A","6158875","2019-11-08 07:00","2019","11","08","07:00","-7.4","","-9.7","","84","","","","30","","4","","24.1","","101.45","","","","-9","","Clear"
"-77.53","44.12","TRENTON A","6158875","2019-11-08 08:00","2019","11","08","08:00","-6.5","","-9.0","","82","","","","30","","8","","24.1","","101.53","","","","-10","","Clear"
"-77.53","44.12","TRENTON A","6158875","2019-11-08 09:00","2019","11","08","09:00","-5.0","","-8.5","","76","","","","32","","11","","24.1","","101.56","","","","-10","","Clear"
"-77.53","44.12","TRENTON A","6158875","2019-11-08 10:00","2019","11","08","10:00","-4.0","","-8.1","","73","","","","33","","17","","24.1","","101.58","","","","-10","","Mainly Clear"
"-77.53","44.12","TRENTON A","6158875","2019-11-08 11:00","2019","11","08","11:00","-2.9","","-7.3","","72","","","","32","","13","","24.1","","101.59","","","","-8","","Mainly Clear"
"-77.53","44.12","TRENTON A","6158875","2019-11-08 12:00","2019","11","08","12:00","-1.9","","-8.0","","63","","","","30","","18","","24.1","","101.54","","","","-7","","Clear"
"-77.53","44.12","TRENTON A","6158875","2019-11-08 13:00","2019","11","08","13:00","-1.0","","-7.8","","60","","","","32","","15","","24.1","","101.52","","","","-6","","Clear"
"-77.53","44.12","TRENTON A","6158875","2019-11-08 14:00","2019","11","08","14:00","-0.7","","-7.3","","61","","","","30","","15","","24.1","","101.51","","","","-5","","Mainly Clear"
"-77.53","44.12","TRENTON A","6158875","2019-11-08 15:00","2019","11","08","15:00","-0.4","","-7.5","","59","","","","27","","11","","24.1","","101.49","","","","-4","","Clear"
"-77.53","44.12","TRENTON A","6158875","2019-11-08 16:00","2019","11","08","16:00","-0.8","","-7.8","","59","","","","28","","15","","24.1","","101.52","","","","-5","","Clear"
"-77.53","44.12","TRENTON A","6158875","2019-11-08 17:00","2019","11","08","17:00","-2.2","","-7.9","","65","","","","26","","13","","24.1","","101.54","","","","-7","","Clear"
"-77.53","44.12","TRENTON A","6158875","2019-11-08 18:00","2019","11","08","18:00","-3.6","","-7.5","","74","","","","25","","11","","24.1","","101.58","","","","-8","","Clear"
"-77.53","44.12","TRENTON A","6158875","2019-11-08 19:00","2019","11","08","19:00","-4.6","","-7.7","","79","","","","25","","13","","24.1","","101.61","","","","-10","","Clear"
"-77.53","44.12","TRENTON A","6158875","2019-11-08 20:00","2019","11","08","20:00","-3.3","","-7.6","","72","","","","24","","9","","24.1","","101.61","","","","-7","","Clear"
"-77.53","44.12","TRENTON A","6158875","2019-11-08 21:00","2019","11","08","21:00","-2.9","","-7.8","","69","","","","23","","8","","24.1","","101.58","","","","-6","","Clear"
"-77.53","44.12","TRENTON A","6158875","2019-11-08 22:00","2019","11","08","22:00","-4.8","","-8.0","","78","","","","","","0","","24.1","","101.56","","","","","","Clear"
"-77.53","44.12","TRENTON A","6158875","2019-11-08 23:00","2019","11","08","23:00","-7.1","","-9.0","","86","","","","","","0","","24.1","","101.52","","","","","","Clear"
"-77.53","44.12","TRENTON A","6158875","2019-11-09 00:00","2019","11","09","00:00","-8.3","","-9.9","","88","","","","3","","4","","24.1","","101.47","","","","-10","","Clear"
"-77.53","44.12","TRENTON A","6158875","2019-11-09 01:00","2019","11","09","01:00","-8.8","","-10.2","","90","","","","3","","4","","24.1","","101.43","","","","-11","","Mainly Clear"
"-77.53","44.12","TRENTON A","6158875","2019-11-09 02:00","2019","11","09","02:00","-7.7","","-9.0","","90","","","","","","0","","24.1","","101.38","","","","","","Mainly Clear"
"-77.53","44.12","TRENTON A","6158875","2019-11-09 03:00","2019","11","09","03:00","-7.7","","-9.3","","88","","","","","","0","","24.1","","101.34","","","","","","Mainly Clear"
"-77.53","44.12","TRENTON A","6158875","2019-11-09 04:00","2019","11","09","04:00","-8.2","","-9.7","","89","","","","3","","4","","24.1","","101.29","","","","-10","","Mainly Clear"
"-77.53","44.12","TRENTON A","6158875","2019-11-09 05:00","2019","11","09","05:00","-8.0","","-9.8","","87","","","","5","","4","","24.1","","101.24","","","","-10","","Clear"
"-77.53","44.12","TRENTON A","6158875","2019-11-09 06:00","2019","11","09","06:00","-7.8","","-9.4","","88","","","","4","","4","","24.1","","101.19","","","","-10","","Mostly Cloudy"
"-77.53","44.12","TRENTON A","6158875","2019-11-09 07:00","2019","11","09","07:00","-5.7","","-7.1","","90","","","","2","","4","","24.1","","101.15","","","","-8","","Snow Showers"
"-77.53","44.12","TRENTON A","6158875","2019-11-09 08:00","2019","11","09","08:00","-3.8","","-5.4","","89","","","","","","0","","16.1","","101.13","","","","","","Snow Showers"
"-77.53","44.12","TRENTON A","6158875","2019-11-09 09:00","2019","11","09","09:00","-2.5","","-3.7","","91","","","","","","0","","2.4","","101.08","","","","","","Snow Showers"
"-77.53","44.12","TRENTON A","6158875","2019-11-09 10:00","2019","11","09","10:00","0.5","","-2.0","","83","","","","23","","17","","6.4","","101.02","","","","","","Snow Showers"
"-77.53","44.12","TRENTON A","6158875","2019-11-09 11:00","2019","11","09","11:00","1.1","","-2.2","","79","","","","21","","17","","11.3","","100.95","","","","","","Snow Showers"
"-77.53","44.12","TRENTON A","6158875","2019-11-09 12:00","2019","11","09","12:00","0.9","","-2.1","","80","","","","24","","9","","11.3","","100.81","","","","","","Snow Showers"
"-77.53","44.12","TRENTON A","6158875","2019-11-09 13:00","2019","11","09","13:00","2.5","","-3.1","","67","","","","23","","18","","24.1","","100.68","","","","","","Snow Showers"
"-77.53","44.12","TRENTON A","6158875","2019-11-09 14:00","2019","11","09","14:00","3.1","","-4.2","","59","","","","21","","24","","24.1","","100.59","","","","","","Cloudy"
"-77.53","44.12","TRENTON A","6158875","2019-11-09 15:00","2019","11","09","15:00","3.3","","-4.4","","57","","","","22","","30","","24.1","","100.54","","","","","","Cloudy"
"-77.53","44.12","TRENTON A","6158875","2019-11-09 16:00","2019","11","09","16:00","3.6","","-4.2","","57","","","","22","","18","","24.1","","100.52","","","","","","Cloudy"
"-77.53","44.12","TRENTON A","6158875","2019-11-09 17:00","2019","11","09","17:00","3.7","","-3.8","","58","","","","22","","22","","24.1","","100.52","","","","","","Cloudy"
"-77.53","44.12","TRENTON A","6158875","2019-11-09 18:00","2019","11","09","18:00","3.9","","-4.6","","54","","","","21","","26","","24.1","","100.51","","","","","","Snow Showers"
"-77.53","44.12","TRENTON A","6158875","2019-11-09 19:00","2019","11","09","19:00","3.9","","-4.8","","53","","","","22","","22","","24.1","","100.50","","","","","","Cloudy"
"-77.53","44.12","TRENTON A","6158875","2019-11-09 20:00","2019","11","09","20:00","4.1","","-4.3","","54","","","","21","","30","","24.1","","100.43","","","","","","Cloudy"
"-77.53","44.12","TRENTON A","6158875","2019-11-09 21:00","2019","11","09","21:00","4.1","","-3.9","","56","","","","22","","24","","24.1","","100.40","","","","","","Cloudy"
"-77.53","44.12","TRENTON A","6158875","2019-11-09 22:00","2019","11","09","22:00","4.3","","-3.4","","57","","","","22","","24","","24.1","","100.38","","","","","","Cloudy"
"-77.53","44.12","TRENTON A","6158875","2019-11-09 23:00","2019","11","09","23:00","4.7","","-2.1","","61","","","","23","","17","","24.1","","100.35","","","","","","Cloudy"
"-77.53","44.12","TRENTON A","6158875","2019-11-10 00:00","2019","11","10","00:00","5.0","","-1.7","","62","","","","24","","17","","24.1","","100.30","","","","","","Cloudy"
"-77.53","44.12","TRENTON A","6158875","2019-11-10 01:00","2019","11","10","01:00","5.3","","-1.6","","61","","","","23","","26","","24.1","","100.24","","","","","","Cloudy"
"-77.53","44.12","TRENTON A","6158875","2019-11-10 02:00","2019","11","10","02:00","5.5","","-1.4","","61","","","","23","","28","","24.1","","100.22","","","","","","Cloudy"
"-77.53","44.12","TRENTON A","6158875","2019-11-10 03:00","2019","11","10","03:00","4.9","","-1.0","","66","","","","22","","21","","24.1","","100.18","","","","","","Cloudy"
"-77.53","44.12","TRENTON A","6158875","2019-11-10 04:00","2019","11","10","04:00","4.9","","-0.4","","69","","","","23","","15","","24.1","","100.14","","","","","","Cloudy"
"-77.53","44.12","TRENTON A","6158875","2019-11-10 05:00","2019","11","10","05:00","5.3","","0.0","","69","","","","23","","18","","24.1","","100.09","","","","","","Cloudy"
"-77.53","44.12","TRENTON A","6158875","2019-11-10 06:00","2019","11","10","06:00","5.1","","-0.1","","69","","","","21","","17","","24.1","","100.05","","","","","","Cloudy"
"-77.53","44.12","TRENTON A","6158875","2019-11-10 07:00","2019","11","10","07:00","4.8","","0.1","","72","","","","21","","15","","24.1","","100.05","","","","","","Cloudy"
"-77.53","44.12","TRENTON A","6158875","2019-11-10 08:00","2019","11","10","08:00","5.8","","0.0","","66","","","","24","","18","","24.1","","100.12","","","","","","Cloudy"
"-77.53","44.12","TRENTON A","6158875","2019-11-10 09:00","2019","11","10","09:00","6.3","","0.1","","64","","","","23","","22","","24.1","","100.08","","","","","","Cloudy"
"-77.53","44.12","TRENTON A","6158875","2019-11-10 10:00","2019","11","10","10:00","6.4","","0.7","","67","","","","23","","24","","24.1","","100.03","","","","","","Mostly Cloudy"
"-77.53","44.12","TRENTON A","6158875","2019-11-10 11:00","2019","11","10","11:00","6.8","","1.2","","67","","","","23","","22","","24.1","","100.11","","","","","","Cloudy"
"-77.53","44.12","TRENTON A","6158875","2019-11-10 12:00","2019","11","10","12:00","7.6","","0.7","","62","","","","26","","18","","19.3","","100.06","","","","","","Cloudy"
"-77.53","44.12","TRENTON A","6158875","2019-11-10 13:00","2019","11","10","13:00","7.1","","1.3","","67","","","","22","","21","","19.3","","100.03","","","","","","Mostly Cloudy"
"-77.53","44.12","TRENTON A","6158875","2019-11-10 14:00","2019","11","10","14:00","6.6","","1.1","","68","","","","23","","18","","19.3","","100.10","","","","","","Mostly Cloudy"
"-77.53","44.12","TRENTON A","6158875","2019-11-10 15:00","2019","11","10","15:00","6.7","","1.6","","70","","","","22","","21","","19.3","","100.14","","","","","","Cloudy"
"-77.53","44.12","TRENTON A","6158875","2019-11-10 16:00","2019","11","10","16:00","6.4","","2.1","","74","","","","23","","18","","19.3","","100.21","","","","","","Cloudy"
"-77.53","44.12","TRENTON A","6158875","2019-11-10 17:00","2019","11","10","17:00","6.1","","1.3","","71","","","","29","","18","","24.1","","100.33","","","","","","Cloudy"
"-77.53","44.12","TRENTON A","6158875","2019-11-10 18:00","2019","11","10","18:00","3.8","","2.4","","91","","","","33","","15","","9.7","","100.47","","","","","","Rain Showers,Fog"
"-77.53","44.12","TRENTON A","6158875","2019-11-10 19:00","2019","11","10","19:00","3.7","","1.4","","85","","","","30","","9","","24.1","","100.53","","","","","","Cloudy"
"-77.53","44.12","TRENTON A","6158875","2019-11-10 20:00","2019","11","10","20:00","3.4","","1.2","","85","","","","34","","11","","24.1","","100.59","","","","","","Rain Showers"
"-77.53","44.12","TRENTON A","6158875","2019-11-10 21:00","2019","11","10","21:00","2.3","","0.7","","89","","","","35","","9","","24.1","","100.65","","","","","","Rain Showers"
"-77.53","44.12","TRENTON A","6158875","2019-11-10 22:00","2019","11","10","22:00","1.3","","0.0","","91","","","","36","","9","","12.9","","100.73","","","","","","Rain Showers,Snow Showers"
"-77.53","44.12","TRENTON A","6158875","2019-11-10 23:00","2019","11","10","23:00","0.6","","-0.4","","93","","","","4","","11","","4.0","","100.79","","","","","","Rain Showers,Snow Showers,Fog"
"-77.53","44.12","TRENTON A","6158875","2019-11-11 00:00","2019","11","11","00:00","0.1","","-1.6","","88","","","","2","","15","","3.2","","100.90","","","","","","Snow Showers"
"-77.53","44.12","TRENTON A","6158875","2019-11-11 01:00","2019","11","11","01:00","-1.2","","-2.7","","90","","","","1","","18","","1.6","","100.97","","","","-6","","Snow"
"-77.53","44.12","TRENTON A","6158875","2019-11-11 02:00","2019","11","11","02:00","-1.5","","-3.1","","89","","","","2","","9","","4.8","","101.01","","","","-5","","Snow"
"-77.53","44.12","TRENTON A","6158875","2019-11-11 03:00","2019","11","11","03:00","-1.5","","-3.5","","86","","","","2","","15","","8.1","","101.06","","","","-6","","Snow"
"-77.53","44.12","TRENTON A","6158875","2019-11-11 04:00","2019","11","11","04:00","-2.2","","-4.4","","85","","","","4","","17","","12.9","","101.07","","","","-8","","Snow"
"-77.53","44.12","TRENTON A","6158875","2019-11-11 05:00","2019","11","11","05:00","-2.4","","-4.2","","87","","","","4","","17","","16.1","","101.16","","","","-8","","Snow"
"-77.53","44.12","TRENTON A","6158875","2019-11-11 06:00","2019","11","11","06:00","-3.2","","-5.7","","83","","","","5","","17","","16.1","","101.22","","","","-9","","Cloudy"
"-77.53","44.12","TRENTON A","6158875","2019-11-11 07:00","2019","11","11","07:00","-3.8","","-7.1","","78","","","","3","","18","","24.1","","101.29","","","","-10","","Cloudy"
"-77.53","44.12","TRENTON A","6158875","2019-11-11 08:00","2019","11","11","08:00","-4.1","","-7.3","","78","","","","5","","15","","24.1","","101.38","","","","-9","","Cloudy"
"-77.53","44.12","TRENTON A","6158875","2019-11-11 09:00","2019","11","11","09:00","-4.3","","-8.8","","71","","","","4","","21","","24.1","","101.41","","","","-11","","Cloudy"
"-77.53","44.12","TRENTON A","6158875","2019-11-11 10:00","2019","11","11","10:00","-4.0","","-9.0","","68","","","","4","","21","","24.1","","101.39","","","","-10","","Cloudy"
"-77.53","44.12","TRENTON A","6158875","2019-11-11 11:00","2019","11","11","11:00","-3.6","","-7.9","","72","","","","3","","13","","24.1","","101.41","","","","-8","","Cloudy"
"-77.53","44.12","TRENTON A","6158875","2019-11-11 12:00","2019","11","11","12:00","-4.0","","-8.3","","72","","","","4","","17","","9.7","","101.27","","","","-10","","Snow Showers"
"-77.53","44.12","TRENTON A","6158875","2019-11-11 13:00","2019","11","11","13:00","-4.3","","-7.8","","77","","","","1","","21","","6.4","","101.17","","","","-11","","Snow Showers"
"-77.53","44.12","TRENTON A","6158875","2019-11-11 14:00","2019","11","11","14:00","-4.9","","-7.1","","85","","","","4","","21","","1.6","","101.18","","","","-12","","Snow Showers"
"-77.53","44.12","TRENTON A","6158875","2019-11-11 15:00","2019","11","11","15:00","-5.0","","-6.9","","86","","","","3","","15","","2.0","","101.17","","","","-11","","Snow Showers"
"-77.53","44.12","TRENTON A","6158875","2019-11-11 16:00","2019","11","11","16:00","-5.2","","-7.1","","86","","","","3","","17","","2.0","","101.17","","","","-11","","Snow Showers"
"-77.53","44.12","TRENTON A","6158875","2019-11-11 17:00","2019","11","11","17:00","-5.3","","-7.2","","86","","","","2","","18","","3.2","","101.07","","","","-12","","Snow Showers"
"-77.53","44.12","TRENTON A","6158875","2019-11-11 18:00","2019","11","11","18:00","-5.8","","-7.7","","86","","","","3","","18","","2.4","","100.98","","","","-12","","Snow Showers"
"-77.53","44.12","TRENTON A","6158875","2019-11-11 19:00","2019","11","11","19:00","-6.3","","-8.3","","86","","","","2","","18","","2.4","","101.00","","","","-13","","Snow Showers"
"-77.53","44.12","TRENTON A","6158875","2019-11-11 20:00","2019","11","11","20:00","-6.5","","-8.4","","86","","","","3","","24","","1.6","","100.87","","","","-14","","Snow Showers"
"-77.53","44.12","TRENTON A","6158875","2019-11-11 21:00","2019","11","11","21:00","-6.4","","-8.5","","85","","","","2","","24","","1.6","","100.83","","","","-14","","Snow Showers"
"-77.53","44.12","TRENTON A","6158875","2019-11-11 22:00","2019","11","11","22:00","-6.4","","-8.4","","86","","","","2","","24","","1.6","","100.74","","","","-14","","Snow"
"-77.53","44.12","TRENTON A","6158875","2019-11-11 23:00","2019","11","11","23:00","-6.4","","-8.7","","84","","","","1","","26","","2.4","","100.72","","","","-14","","Snow"
"-77.53","44.12","TRENTON A","6158875","2019-11-12 00:00","2019","11","12","00:00","-6.6","","-8.6","","86","","","","2","","26","","2.0","","100.59","","","","-15","","Snow"
"-77.53","44.12","TRENTON A","6158875","2019-11-12 01:00","2019","11","12","01:00","-6.8","","-8.8","","86","","","","1","","18","","2.0","","100.58","","","","-13","","Snow"
"-77.53","44.12","TRENTON A","6158875","2019-11-12 02:00","2019","11","12","02:00","-6.9","","-9.0","","85","","","","36","","15","","2.0","","100.54","","","","-13","","Snow"
"-77.53","44.12","TRENTON A","6158875","2019-11-12 03:00","2019","11","12","03:00","-7.0","","-9.1","","85","","","","36","","15","","3.2","","100.54","","","","-13","","Snow"
"-77.53","44.12","TRENTON A","6158875","2019-11-12 04:00","2019","11","12","04:00","-7.1","","-10.0","","80","","","","35","","18","","4.8","","100.56","","","","-14","","Snow"
"-77.53","44.12","TRENTON A","6158875","2019-11-12 05:00","2019","11","12","05:00","-7.1","","-10.9","","74","","","","34","","18","","24.1","","100.62","","","","-14","","Cloudy"
"-77.53","44.12","TRENTON A","6158875","2019-11-12 06:00","2019","11","12","06:00","-7.3","","-11.4","","72","","","","34","","18","","24.1","","100.65","","","","-14","","Cloudy"
"-77.53","44.12","TRENTON A","6158875","2019-11-12 07:00","2019","11","12","07:00","-7.8","","-12.1","","71","","","","35","","13","","24.1","","100.71","","","","-14","","Mostly Cloudy"
"-77.53","44.12","TRENTON A","6158875","2019-11-12 08:00","2019","11","12","08:00","-8.2","","-12.3","","72","","","","33","","13","","24.1","","100.82","","","","-14","","Mostly Cloudy"
"-77.53","44.12","TRENTON A","6158875","2019-11-12 09:00","2019","11","12","09:00","-7.8","","-13.0","","66","","","","34","","17","","24.1","","100.86","","","","-14","","Cloudy"
"-77.53","44.12","TRENTON A","6158875","2019-11-12 10:00","2019","11","12","10:00","-7.3","","-12.9","","64","","","","32","","21","","24.1","","100.89","","","","-15","","Cloudy"
"-77.53","44.12","TRENTON A","6158875","2019-11-12 11:00","2019","11","12","11:00","-6.7","","-13.0","","61","","","","33","","21","","24.1","","100.91","","","","-14","","Mostly Cloudy"
"-77.53","44.12","TRENTON A","6158875","2019-11-12 12:00","2019","11","12","12:00","-6.6","","-13.4","","58","","","","30","","24","","24.1","","100.90","","","","-14","","Mainly Clear"
"-77.53","44.12","TRENTON A","6158875","2019-11-12 13:00","2019","11","12","13:00","-6.1","","-13.3","","57","","","","31","","17","","24.1","","100.91","","","","-12","","Mainly Clear"
"-77.53","44.12","TRENTON A","6158875","2019-11-12 14:00","2019","11","12","14:00","-5.7","","-14.2","","51","","","","32","","21","","24.1","","100.92","","","","-13","","Clear"
"-77.53","44.12","TRENTON A","6158875","2019-11-12 15:00","2019","11","12","15:00","-5.9","","-15.1","","48","","","","29","","26","","24.1","","100.98","","","","-14","","Mainly Clear"
"-77.53","44.12","TRENTON A","6158875","2019-11-12 16:00","2019","11","12","16:00","-6.4","","-16.4","","45","","","","30","","21","","24.1","","101.02","","","","-13","","Clear"
"-77.53","44.12","TRENTON A","6158875","2019-11-12 17:00","2019","11","12","17:00","-7.5","","-16.8","","47","","","","29","","13","","24.1","","101.04","","","","-13","","Clear"
"-77.53","44.12","TRENTON A","6158875","2019-11-12 18:00","2019","11","12","18:00","-8.9","","-16.9","","52","","","","29","","13","","24.1","","101.09","","","","-15","","Clear"
"-77.53","44.12","TRENTON A","6158875","2019-11-12 19:00","2019","11","12","19:00","-8.7","","-17.6","","49","","","","30","","18","","24.1","","101.15","","","","-16","","Clear"
"-77.53","44.12","TRENTON A","6158875","2019-11-12 20:00","2019","11","12","20:00","-9.7","","-17.7","","52","","","","30","","13","","24.1","","101.20","","","","-16","","Clear"
"-77.53","44.12","TRENTON A","6158875","2019-11-12 21:00","2019","11","12","21:00","-10.4","","-18.4","","52","","","","31","","11","","24.1","","101.25","","","","-16","","Clear"
"-77.53","44.12","TRENTON A","6158875","2019-11-12 22:00","2019","11","12","22:00","-11.9","","-17.9","","61","","","","29","","13","","24.1","","101.30","","","","-19","","Clear"
"-77.53","44.12","TRENTON A","6158875","2019-11-12 23:00","2019","11","12","23:00","-12.2","","-17.7","","64","","","","31","","11","","24.1","","101.34","","","","-18","","Clear"
"-77.53","44.12","TRENTON A","6158875","2019-11-13 00:00","2019","11","13","00:00","-13.5","","-17.5","","72","","","","","","0","","24.1","","101.38","","","","","","Clear"
"-77.53","44.12","TRENTON A","6158875","2019-11-13 01:00","2019","11","13","01:00","-14.8","","-18.3","","75","","","","30","","8","","24.1","","101.41","","","","-20","","Clear"
"-77.53","44.12","TRENTON A","6158875","2019-11-13 02:00","2019","11","13","02:00","-14.5","","-18.1","","74","","","","31","","5","","24.1","","101.48","","","","-18","","Clear"
"-77.53","44.12","TRENTON A","6158875","2019-11-13 03:00","2019","11","13","03:00","-14.6","","-18.0","","75","","","","29","","4","","24.1","","101.51","","","","-17","","Clear"
"-77.53","44.12","TRENTON A","6158875","2019-11-13 04:00","2019","11","13","04:00","-16.4","","-18.5","","84","","","","29","","8","","24.1","","101.57","","","","-22","","Clear"
"-77.53","44.12","TRENTON A","6158875","2019-11-13 05:00","2019","11","13","05:00","-16.3","","-19.0","","80","","","","","","0","","24.1","","101.65","","","","","","Clear"
"-77.53","44.12","TRENTON A","6158875","2019-11-13 06:00","2019","11","13","06:00","-17.4","","-19.6","","83","","","","28","","5","","24.1","","101.72","","","","-21","","Clear"
"-77.53","44.12","TRENTON A","6158875","2019-11-13 07:00","2019","11","13","07:00","-17.7","","-19.7","","84","","","","","","0","","24.1","","101.79","","","","","","Clear"
"-77.53","44.12","TRENTON A","6158875","2019-11-13 08:00","2019","11","13","08:00","-17.2","","-19.1","","85","","","","29","","5","","24.1","","101.87","","","","-21","","Clear"
"-77.53","44.12","TRENTON A","6158875","2019-11-13 09:00","2019","11","13","09:00","-14.1","","-17.4","","76","","","","33","","11","","24.1","","101.91","","","","-21","","Mainly Clear"
"-77.53","44.12","TRENTON A","6158875","2019-11-13 10:00","2019","11","13","10:00","-12.5","","-17.0","","69","","","","36","","9","","24.1","","101.93","","","","-18","","Mainly Clear"
"-77.53","44.12","TRENTON A","6158875","2019-11-13 11:00","2019","11","13","11:00","-11.2","","-17.0","","62","","","","5","","5","","24.1","","101.97","","","","-14","","Cloudy"
"-77.53","44.12","TRENTON A","6158875","2019-11-13 12:00","2019","11","13","12:00","-8.3","","-16.5","","52","","","","","","0","","24.1","","101.90","","","","","","Cloudy"
"-77.53","44.12","TRENTON A","6158875","2019-11-13 13:00","2019","11","13","13:00","-8.3","","-15.9","","54","","","","","","0","","24.1","","101.91","","","","","","Mainly Clear"
"-77.53","44.12","TRENTON A","6158875","2019-11-13 14:00","2019","11","13","14:00","-8.3","","-15.7","","55","","","","19","","5","","24.1","","101.91","","","","-11","","Mostly Cloudy"
"-77.53","44.12","TRENTON A","6158875","2019-11-13 15:00","2019","11","13","15:00","-7.7","","-14.2","","60","","","","17","","5","","24.1","","101.89","","","","-10","","Mostly Cloudy"
"-77.53","44.12","TRENTON A","6158875","2019-11-13 16:00","2019","11","13","16:00","-7.8","","-13.5","","64","","","","18","","5","","24.1","","101.87","","","","-10","","Mostly Cloudy"
"-77.53","44.12","TRENTON A","6158875","2019-11-13 17:00","2019","11","13","17:00","-8.8","","-13.6","","68","","","","","","0","","24.1","","101.82","","","","","","Mostly Cloudy"
"-77.53","44.12","TRENTON A","6158875","2019-11-13 18:00","2019","11","13","18:00","-10.1","","-13.5","","76","","","","5","","8","","24.1","","101.74","","","","-15","","Cloudy"
"-77.53","44.12","TRENTON A","6158875","2019-11-13 19:00","2019","11","13","19:00","-9.2","","-12.7","","76","","","","6","","8","","24.1","","101.71","","","","-14","","Cloudy"
"-77.53","44.12","TRENTON A","6158875","2019-11-13 20:00","2019","11","13","20:00","-8.5","","-12.3","","74","","","","5","","5","","24.1","","101.70","","","","-11","","Cloudy"
"-77.53","44.12","TRENTON A","6158875","2019-11-13 21:00","2019","11","13","21:00","-8.4","","-12.0","","75","","","","5","","8","","24.1","","101.67","","","","-13","","Cloudy"
"-77.53","44.12","TRENTON A","6158875","2019-11-13 22:00","2019","11","13","22:00","-7.9","","-11.1","","78","","","","4","","9","","2.8","","101.63","","","","-12","","Snow Showers"
"-77.53","44.12","TRENTON A","6158875","2019-11-13 23:00","2019","11","13","23:00","-7.5","","-9.3","","87","","","","5","","9","","2.8","","101.57","","","","-12","","Snow Showers"
"-77.53","44.12","TRENTON A","6158875","2019-11-14 00:00","2019","11","14","00:00","-5.0","","-6.6","","89","","","","10","","5","","12.9","","101.47","","","","-7","","Snow Showers"
"-77.53","44.12","TRENTON A","6158875","2019-11-14 01:00","2019","11","14","01:00","-4.0","","-5.6","","89","","","","9","","5","","24.1","","101.40","","","","-6","","Cloudy"
"-77.53","44.12","TRENTON A","6158875","2019-11-14 02:00","2019","11","14","02:00","-1.3","","-6.5","","68","","","","16","","9","","24.1","","101.30","","","","-5","","Cloudy"
"-77.53","44.12","TRENTON A","6158875","2019-11-14 03:00","2019","11","14","03:00","-1.0","","-6.8","","65","","","","17","","15","","24.1","","101.20","","","","-6","","Cloudy"
"-77.53","44.12","TRENTON A","6158875","2019-11-14 04:00","2019","11","14","04:00","-0.9","","-6.4","","66","","","","18","","9","","24.1","","101.14","","","","-4","","Cloudy"
"-77.53","44.12","TRENTON A","6158875","2019-11-14 05:00","2019","11","14","05:00","-0.4","","-6.4","","64","","","","19","","11","","24.1","","101.12","","","","-4","","Cloudy"
"-77.53","44.12","TRENTON A","6158875","2019-11-14 06:00","2019","11","14","06:00","-0.1","","-6.4","","62","","","","23","","17","","24.1","","101.11","","","","-5","","Snow"
"-77.53","44.12","TRENTON A","6158875","2019-11-14 07:00","2019","11","14","07:00","-0.2","","-4.4","","73","","","","20","","11","","9.7","","101.10","","","","-4","","Snow"
"-77.53","44.12","TRENTON A","6158875","2019-11-14 08:00","2019","11","14","08:00","0.1","","-4.4","","72","","","","20","","9","","24.1","","101.11","","","","","","Cloudy"
"-77.53","44.12","TRENTON A","6158875","2019-11-14 09:00","2019","11","14","09:00","0.7","","-3.5","","73","","","","19","","22","","12.9","","101.11","","","","","","Snow"
"-77.53","44.12","TRENTON A","6158875","2019-11-14 10:00","2019","11","14","10:00","0.3","","-1.9","","85","","","","20","","21","","4.8","","101.09","","","","","","Snow"
"-77.53","44.12","TRENTON A","6158875","2019-11-14 11:00","2019","11","14","11:00","0.3","","-1.1","","90","","","","20","","21","","3.2","","101.07","","","","","","Snow"
"-77.53","44.12","TRENTON A","6158875","2019-11-14 12:00","2019","11","14","12:00","0.5","","-1.6","","86","","","","23","","18","","4.8","","101.05","","","","","","Snow"
"-77.53","44.12","TRENTON A","6158875","2019-11-14 13:00","2019","11","14","13:00","-0.1","","-2.3","","85","","","","24","","17","","9.7","","101.03","","","","-5","","Snow"
"-77.53","44.12","TRENTON A","6158875","2019-11-14 14:00","2019","11","14","14:00","-0.1","","-2.4","","84","","","","23","","21","","6.4","","101.03","","","","-6","","Snow"
"-77.53","44.12","TRENTON A","6158875","2019-11-14 15:00","2019","11","14","15:00","0.4","","-2.3","","82","","","","23","","15","","12.9","","101.03","","","","","","Snow"
"-77.53","44.12","TRENTON A","6158875","2019-11-14 16:00","2019","11","14","16:00","0.1","","-3.2","","78","","","","23","","15","","24.1","","101.05","","","","","","Cloudy"
"-77.53","44.12","TRENTON A","6158875","2019-11-14 17:00","2019","11","14","17:00","0.1","","-3.3","","78","","","","24","","15","","24.1","","101.07","","","","","","Cloudy"
"-77.53","44.12","TRENTON A","6158875","2019-11-14 18:00","2019","11","14","18:00","0.3","","-4.0","","73","","","","26","","13","","24.1","","101.09","","","","","","Cloudy"
"-77.53","44.12","TRENTON A","6158875","2019-11-14 19:00","2019","11","14","19:00","-0.1","","-3.8","","76","","","","27","","13","","24.1","","101.10","","","","-4","","Cloudy"
"-77.53","44.12","TRENTON A","6158875","2019-11-14 20:00","2019","11","14","20:00","0.0","","-3.3","","78","","","","26","","9","","24.1","","101.09","","","","-3","","Cloudy"
"-77.53","44.12","TRENTON A","6158875","2019-11-14 21:00","2019","11","14","21:00","0.1","","-2.9","","80","","","","25","","13","","24.1","","101.07","","","","","","Snow"
"-77.53","44.12","TRENTON A","6158875","2019-11-14 22:00","2019","11","14","22:00","0.6","","-4.1","","71","","","","27","","17","","24.1","","101.05","","","","","","Snow"
"-77.53","44.12","TRENTON A","6158875","2019-11-14 23:00","2019","11","14","23:00","0.0","","-3.6","","77","","","","26","","9","","24.1","","100.99","","","","-3","","Cloudy"
"-77.53","44.12","TRENTON A","6158875","2019-11-15 00:00","2019","11","15","00:00","0.6","","-3.9","","72","","","","26","","17","","24.1","","100.95","","","","","","Cloudy"
"-77.53","44.12","TRENTON A","6158875","2019-11-15 01:00","2019","11","15","01:00","0.6","","-4.7","","68","","","","26","","17","","24.1","","100.91","","","","","","Cloudy"
"-77.53","44.12","TRENTON A","6158875","2019-11-15 02:00","2019","11","15","02:00","0.4","","-5.1","","67","","","","26","","18","","24.1","","100.90","","","","","","Cloudy"
"-77.53","44.12","TRENTON A","6158875","2019-11-15 03:00","2019","11","15","03:00","0.6","","-5.4","","64","","","","27","","21","","24.1","","100.88","","","","","","Cloudy"
"-77.53","44.12","TRENTON A","6158875","2019-11-15 04:00","2019","11","15","04:00","0.6","","-5.2","","65","","","","26","","22","","24.1","","100.84","","","","","","Cloudy"
"-77.53","44.12","TRENTON A","6158875","2019-11-15 05:00","2019","11","15","05:00","0.4","","-5.6","","64","","","","26","","26","","24.1","","100.83","","","","","","Mostly Cloudy"
"-77.53","44.12","TRENTON A","6158875","2019-11-15 06:00","2019","11","15","06:00","0.9","","-4.7","","66","","","","24","","24","","24.1","","100.85","","","","","","Cloudy"
"-77.53","44.12","TRENTON A","6158875","2019-11-15 07:00","2019","11","15","07:00","0.9","","-4.4","","68","","","","24","","21","","16.1","","100.85","","","","","","Cloudy"
"-77.53","44.12","TRENTON A","6158875","2019-11-15 08:00","2019","11","15","08:00","1.2","","-3.6","","70","","","","25","","22","","19.3","","100.88","","","","","","Cloudy"
"-77.53","44.12","TRENTON A","6158875","2019-11-15 09:00","2019","11","15","09:00","1.5","","-3.2","","71","","","","25","","28","","19.3","","100.89","","","","","","Cloudy"
"-77.53","44.12","TRENTON A","6158875","2019-11-15 10:00","2019","11","15","10:00","1.5","","-2.8","","73","","","","25","","30","","24.1","","100.92","","","","","","Cloudy"
"-77.53","44.12","TRENTON A","6158875","2019-11-15 11:00","2019","11","15","11:00","2.2","","-2.4","","72","","","","25","","37","","19.3","","100.89","","","","","","Mostly Cloudy"
"-77.53","44.12","TRENTON A","6158875","2019-11-15 12:00","2019","11","15","12:00","2.2","","-2.1","","73","","","","25","","26","","19.3","","100.89","","","","","","Cloudy"
"-77.53","44.12","TRENTON A","6158875","2019-11-15 13:00","2019","11","15","13:00","2.0","","-2.0","","75","","","","24","","28","","16.1","","100.92","","","","","","Cloudy"
"-77.53","44.12","TRENTON A","6158875","2019-11-15 14:00","2019","11","15","14:00","2.2","","-1.9","","74","","","","25","","30","","16.1","","100.94","","","","","","Cloudy"
"-77.53","44.12","TRENTON A","6158875","2019-11-15 15:00","2019","11","15","15:00","2.2","","-1.8","","75","","","","25","","24","","24.1","","100.98","","","","","","Cloudy"
"-77.53","44.12","TRENTON A","6158875","2019-11-15 16:00","2019","11","15","16:00","2.3","","-2.1","","73","","","","26","","18","","24.1","","101.06","","","","","","Mostly Cloudy"
"-77.53","44.12","TRENTON A","6158875","2019-11-15 17:00","2019","11","15","17:00","2.2","","-2.2","","73","","","","28","","15","","24.1","","101.22","","","","","","Cloudy"
"-77.53","44.12","TRENTON A","6158875","2019-11-15 18:00","2019","11","15","18:00","1.6","","-3.8","","67","","","","30","","13","","24.1","","101.37","","","","","","Mostly Cloudy"
"-77.53","44.12","TRENTON A","6158875","2019-11-15 19:00","2019","11","15","19:00","1.0","","-4.7","","66","","","","32","","18","","24.1","","101.53","","","","","","Cloudy"
"-77.53","44.12","TRENTON A","6158875","2019-11-15 20:00","2019","11","15","20:00","-0.3","","-9.1","","51","","","","34","","21","","24.1","","101.67","","","","-6","","Mainly Clear"
"-77.53","44.12","TRENTON A","6158875","2019-11-15 21:00","2019","11","15","21:00","-2.6","","-11.7","","50","","","","36","","17","","24.1","","101.82","","","","-8","","Clear"
"-77.53","44.12","TRENTON A","6158875","2019-11-15 22:00","2019","11","15","22:00","-4.0","","-13.9","","46","","","","1","","21","","24.1","","101.95","","","","-10","","Clear"
"-77.53","44.12","TRENTON A","6158875","2019-11-15 23:00","2019","11","15","23:00","-5.0","","-13.5","","51","","","","36","","22","","24.1","","102.04","","","","-12","","Clear"
"-77.53","44.12","TRENTON A","6158875","2019-11-16 00:00","2019","11","16","00:00","-6.2","","-13.8","","55","","","","36","","17","","24.1","","102.15","","","","-12","","Clear"
"-77.53","44.12","TRENTON A","6158875","2019-11-16 01:00","2019","11","16","01:00","-7.0","","-14.6","","55","","","","3","","11","","24.1","","102.25","","","","-12","","Clear"
"-77.53","44.12","TRENTON A","6158875","2019-11-16 02:00","2019","11","16","02:00","-8.3","","-15.0","","58","","","","1","","15","","24.1","","102.31","","","","-15","","Clear"
"-77.53","44.12","TRENTON A","6158875","2019-11-16 03:00","2019","11","16","03:00","-9.3","","-15.4","","61","","","","2","","15","","24.1","","102.39","","","","-16","","Clear"
"-77.53","44.12","TRENTON A","6158875","2019-11-16 04:00","2019","11","16","04:00","-10.2","","-15.5","","65","","","","4","","17","","24.1","","102.41","","","","-17","","Clear"
"-77.53","44.12","TRENTON A","6158875","2019-11-16 05:00","2019","11","16","05:00","-10.9","","-15.9","","67","","","","5","","15","","24.1","","102.46","","","","-18","","Clear"
"-77.53","44.12","TRENTON A","6158875","2019-11-16 06:00","2019","11","16","06:00","-11.5","","-16.0","","69","","","","5","","11","","24.1","","102.57","","","","-17","","Clear"
"-77.53","44.12","TRENTON A","6158875","2019-11-16 07:00","2019","11","16","07:00","-12.7","","-16.1","","76","","","","4","","8","","24.1","","102.61","","","","-18","","Clear"
"-77.53","44.12","TRENTON A","6158875","2019-11-16 08:00","2019","11","16","08:00","-11.7","","-15.6","","73","","","","4","","11","","24.1","","102.67","","","","-18","","Clear"
"-77.53","44.12","TRENTON A","6158875","2019-11-16 09:00","2019","11","16","09:00","-10.1","","-15.1","","67","","","","5","","18","","24.1","","102.74","","","","-18","","Clear"
"-77.53","44.12","TRENTON A","6158875","2019-11-16 10:00","2019","11","16","10:00","-8.2","","-14.8","","59","","","","6","","9","","24.1","","102.77","","","","-13","","Mainly Clear"
"-77.53","44.12","TRENTON A","6158875","2019-11-16 11:00","2019","11","16","11:00","-6.4","","-15.3","","49","","","","9","","17","","24.1","","102.76","","","","-13","","Mainly Clear"
"-77.53","44.12","TRENTON A","6158875","2019-11-16 12:00","2019","11","16","12:00","-5.4","","-14.6","","48","","","","10","","13","","24.1","","102.67","","","","-11","","Mainly Clear"
"-77.53","44.12","TRENTON A","6158875","2019-11-16 13:00","2019","11","16","13:00","-4.3","","-14.5","","45","","","","4","","15","","24.1","","102.58","","","","-10","","Mainly Clear"
"-77.53","44.12","TRENTON A","6158875","2019-11-16 14:00","2019","11","16","14:00","-3.6","","-14.5","","43","","","","6","","9","","24.1","","102.50","","","","-7","","Mainly Clear"
"-77.53","44.12","TRENTON A","6158875","2019-11-16 15:00","2019","11","16","15:00","-3.6","","-14.6","","42","","","","5","","17","","24.1","","102.48","","","","-9","","Mainly Clear"
"-77.53","44.12","TRENTON A","6158875","2019-11-16 16:00","2019","11","16","16:00","-4.1","","-15.5","","41","","","","6","","15","","24.1","","102.47","","","","-9","","Mainly Clear"
"-77.53","44.12","TRENTON A","6158875","2019-11-16 17:00","2019","11","16","17:00","-4.8","","-16.3","","40","","","","8","","11","","24.1","","102.45","","","","-9","","Mainly Clear"
"-77.53","44.12","TRENTON A","6158875","2019-11-16 18:00","2019","11","16","18:00","-5.6","","-15.9","","44","","","","7","","11","","24.1","","102.46","","","","-10","","Mainly Clear"
"-77.53","44.12","TRENTON A","6158875","2019-11-16 19:00","2019","11","16","19:00","-6.8","","-15.0","","52","","","","6","","9","","24.1","","102.44","","","","-11","","Clear"
"-77.53","44.12","TRENTON A","6158875","2019-11-16 20:00","2019","11","16","20:00","-7.4","","-14.9","","55","","","","5","","11","","24.1","","102.41","","","","-12","","Clear"
"-77.53","44.12","TRENTON A","6158875","2019-11-16 21:00","2019","11","16","21:00","-9.3","","-15.5","","61","","","","3","","9","","24.1","","102.38","","","","-14","","Mainly Clear"
"-77.53","44.12","TRENTON A","6158875","2019-11-16 22:00","2019","11","16","22:00","-10.2","","-15.7","","64","","","","4","","9","","24.1","","102.32","","","","-15","","Clear"
"-77.53","44.12","TRENTON A","6158875","2019-11-16 23:00","2019","11","16","23:00","-10.3","","-15.5","","66","","","","5","","11","","24.1","","102.22","","","","-16","","Mainly Clear"
"-77.53","44.12","TRENTON A","6158875","2019-11-17 00:00","2019","11","17","00:00","-9.3","","-15.3","","62","","","","6","","13","","24.1","","102.14","","","","-15","","Mostly Cloudy"
"-77.53","44.12","TRENTON A","6158875","2019-11-17 01:00","2019","11","17","01:00","-9.6","","-14.9","","65","","","","5","","13","","24.1","","102.06","","","","-16","","Mostly Cloudy"
"-77.53","44.12","TRENTON A","6158875","2019-11-17 02:00","2019","11","17","02:00","-10.2","","-14.8","","69","","","","4","","9","","24.1","","102.06","","","","-15","","Mainly Clear"
"-77.53","44.12","TRENTON A","6158875","2019-11-17 03:00","2019","11","17","03:00","-9.9","","-14.9","","67","","","","4","","13","","24.1","","102.02","","","","-16","","Mainly Clear"
"-77.53","44.12","TRENTON A","6158875","2019-11-17 04:00","2019","11","17","04:00","-9.7","","-14.6","","67","","","","5","","15","","24.1","","101.97","","","","-16","","Mostly Cloudy"
"-77.53","44.12","TRENTON A","6158875","2019-11-17 05:00","2019","11","17","05:00","-9.9","","-14.6","","68","","","","5","","13","","24.1","","101.91","","","","-16","","Mostly Cloudy"
"-77.53","44.12","TRENTON A","6158875","2019-11-17 06:00","2019","11","17","06:00","-10.4","","-14.6","","71","","","","3","","11","","24.1","","101.87","","","","-16","","Clear"
"-77.53","44.12","TRENTON A","6158875","2019-11-17 07:00","2019","11","17","07:00","-10.4","","-14.6","","71","","","","5","","13","","24.1","","101.84","","","","-17","","Mainly Clear"
"-77.53","44.12","TRENTON A","6158875","2019-11-17 08:00","2019","11","17","08:00","-9.6","","-13.8","","71","","","","6","","15","","24.1","","101.80","","","","-16","","Clear"
"-77.53","44.12","TRENTON A","6158875","2019-11-17 09:00","2019","11","17","09:00","-6.6","","-11.8","","66","","","","8","","9","","24.1","","101.72","","","","-11","","Clear"
"-77.53","44.12","TRENTON A","6158875","2019-11-17 10:00","2019","11","17","10:00","-3.1","","-8.3","","67","","","","8","","8","","24.1","","101.65","","","","-6","","Mainly Clear"
"-77.53","44.12","TRENTON A","6158875","2019-11-17 11:00","2019","11","17","11:00","0.1","","-7.4","","57","","","","9","","13","","24.1","","101.54","","","","","","Mainly Clear"
"-77.53","44.12","TRENTON A","6158875","2019-11-17 12:00","2019","11","17","12:00","1.6","","-8.4","","47","","","","13","","18","","24.1","","101.39","","","","","","Mainly Clear"
"-77.53","44.12","TRENTON A","6158875","2019-11-17 13:00","2019","11","17","13:00","2.3","","-7.4","","49","","","","14","","15","","24.1","","101.29","","","","","","Mainly Clear"
"-77.53","44.12","TRENTON A","6158875","2019-11-17 14:00","2019","11","17","14:00","2.6","","-6.4","","51","","","","13","","18","","24.1","","101.18","","","","","","Mainly Clear"
"-77.53","44.12","TRENTON A","6158875","2019-11-17 15:00","2019","11","17","15:00","2.9","","-5.5","","54","","","","13","","17","","24.1","","101.12","","","","","","Mostly Cloudy"
"-77.53","44.12","TRENTON A","6158875","2019-11-17 16:00","2019","11","17","16:00","2.5","","-6.4","","52","","","","12","","15","","24.1","","101.07","","","","","","Mainly Clear"
"-77.53","44.12","TRENTON A","6158875","2019-11-17 17:00","2019","11","17","17:00","1.4","","-6.1","","57","","","","11","","8","","24.1","","101.01","","","","","","Mainly Clear"
"-77.53","44.12","TRENTON A","6158875","2019-11-17 18:00","2019","11","17","18:00","0.7","","-5.6","","63","","","","9","","5","","24.1","","100.97","","","","","","Mainly Clear"
"-77.53","44.12","TRENTON A","6158875","2019-11-17 19:00","2019","11","17","19:00","-0.2","","-4.6","","72","","","","7","","9","","24.1","","100.92","","","","-3","","Clear"
"-77.53","44.12","TRENTON A","6158875","2019-11-17 20:00","2019","11","17","20:00","-2.4","","-5.3","","80","","","","4","","13","","24.1","","100.85","","","","-7","","Clear"
"-77.53","44.12","TRENTON A","6158875","2019-11-17 21:00","2019","11","17","21:00","-3.1","","-5.9","","81","","","","5","","9","","24.1","","100.79","","","","-7","","Clear"
"-77.53","44.12","TRENTON A","6158875","2019-11-17 22:00","2019","11","17","22:00","-2.5","","-5.1","","82","","","","6","","8","","24.1","","100.67","","","","-6","","Mostly Cloudy"
"-77.53","44.12","TRENTON A","6158875","2019-11-17 23:00","2019","11","17","23:00","2.9","","-1.1","","75","","","","13","","13","","24.1","","100.62","","","","","","Cloudy"
"-77.53","44.12","TRENTON A","6158875","2019-11-18 00:00","2019","11","18","00:00","2.7","","-1.1","","76","","","","12","","9","","24.1","","100.58","","","","","","Cloudy"
"-77.53","44.12","TRENTON A","6158875","2019-11-18 01:00","2019","11","18","01:00","2.8","","-1.0","","76","","","","12","","11","","24.1","","100.50","","","","","","Cloudy"
"-77.53","44.12","TRENTON A","6158875","2019-11-18 02:00","2019","11","18","02:00","2.5","","-1.4","","75","","","","13","","11","","24.1","","100.46","","","","","","Cloudy"
"-77.53","44.12","TRENTON A","6158875","2019-11-18 03:00","2019","11","18","03:00","2.5","","-1.5","","75","","","","12","","9","","24.1","","100.40","","","","","","Cloudy"
"-77.53","44.12","TRENTON A","6158875","2019-11-18 04:00","2019","11","18","04:00","2.5","","-1.4","","75","","","","9","","4","","24.1","","100.36","","","","","","Cloudy"
"-77.53","44.12","TRENTON A","6158875","2019-11-18 05:00","2019","11","18","05:00","2.5","","-1.4","","75","","","","8","","4","","24.1","","100.38","","","","","","Cloudy"
"-77.53","44.12","TRENTON A","6158875","2019-11-18 06:00","2019","11","18","06:00","1.6","","-1.3","","81","","","","4","","11","","24.1","","100.36","","","","","","Cloudy"
"-77.53","44.12","TRENTON A","6158875","2019-11-18 07:00","2019","11","18","07:00","1.2","","-1.6","","82","","","","6","","11","","24.1","","100.33","","","","","","Cloudy"
"-77.53","44.12","TRENTON A","6158875","2019-11-18 08:00","2019","11","18","08:00","0.9","","-1.4","","85","","","","6","","11","","24.1","","100.31","","","","","","Cloudy"
"-77.53","44.12","TRENTON A","6158875","2019-11-18 09:00","2019","11","18","09:00","1.2","","-1.1","","85","","","","7","","9","","24.1","","100.28","","","","","","Cloudy"
"-77.53","44.12","TRENTON A","6158875","2019-11-18 10:00","2019","11","18","10:00","1.8","","-0.8","","83","","","","8","","9","","24.1","","100.25","","","","","","Cloudy"
"-77.53","44.12","TRENTON A","6158875","2019-11-18 11:00","2019","11","18","11:00","2.1","","-0.7","","82","","","","7","","8","","24.1","","100.18","","","","","","Cloudy"
"-77.53","44.12","TRENTON A","6158875","2019-11-18 12:00","2019","11","18","12:00","2.5","","-0.5","","81","","","","9","","5","","24.1","","100.09","","","","","","Cloudy"
"-77.53","44.12","TRENTON A","6158875","2019-11-18 13:00","2019","11","18","13:00","2.6","","-0.6","","79","","","","7","","5","","24.1","","100.01","","","","","","Cloudy"
"-77.53","44.12","TRENTON A","6158875","2019-11-18 14:00","2019","11","18","14:00","2.6","","-0.5","","80","","","","8","","8","","24.1","","99.97","","","","","","Cloudy"
"-77.53","44.12","TRENTON A","6158875","2019-11-18 15:00","2019","11","18","15:00","2.7","","-0.5","","79","","","","6","","13","","24.1","","99.91","","","","","","Cloudy"
"-77.53","44.12","TRENTON A","6158875","2019-11-18 16:00","2019","11","18","16:00","2.6","","-0.7","","79","","","","8","","8","","24.1","","99.91","","","","","","Cloudy"
"-77.53","44.12","TRENTON A","6158875","2019-11-18 17:00","2019","11","18","17:00","1.8","","-0.6","","84","","","","5","","11","","24.1","","99.89","","","","","","Cloudy"
"-77.53","44.12","TRENTON A","6158875","2019-11-18 18:00","2019","11","18","18:00","1.8","","-1.0","","82","","","","6","","9","","24.1","","99.90","","","","","","Cloudy"
"-77.53","44.12","TRENTON A","6158875","2019-11-18 19:00","2019","11","18","19:00","1.5","","-2.2","","76","","","","5","","13","","24.1","","99.90","","","","","","Cloudy"
"-77.53","44.12","TRENTON A","6158875","2019-11-18 20:00","2019","11","18","20:00","1.3","","-3.5","","70","","","","6","","17","","24.1","","99.85","","","","","","Cloudy"
"-77.53","44.12","TRENTON A","6158875","2019-11-18 21:00","2019","11","18","21:00","0.9","","-3.8","","71","","","","4","","9","","24.1","","99.86","","","","","","Cloudy"
"-77.53","44.12","TRENTON A","6158875","2019-11-18 22:00","2019","11","18","22:00","0.7","","-4.4","","69","","","","5","","15","","24.1","","99.82","","","","","","Cloudy"
"-77.53","44.12","TRENTON A","6158875","2019-11-18 23:00","2019","11","18","23:00","0.6","","-4.9","","67","","","","5","","11","","24.1","","99.83","","","","","","Cloudy"
"-77.53","44.12","TRENTON A","6158875","2019-11-19 00:00","2019","11","19","00:00","0.3","","-5.1","","67","","","","4","","9","","24.1","","99.84","","","","","","Cloudy"
"-77.53","44.12","TRENTON A","6158875","2019-11-19 01:00","2019","11","19","01:00","0.2","","-4.9","","69","","","","1","","8","","24.1","","99.82","","","","","","Cloudy"
"-77.53","44.12","TRENTON A","6158875","2019-11-19 02:00","2019","11","19","02:00","0.1","","-5.4","","66","","","","4","","8","","24.1","","99.83","","","","","","Mostly Cloudy"
"-77.53","44.12","TRENTON A","6158875","2019-11-19 03:00","2019","11","19","03:00","0.2","","-5.4","","66","","","","1","","8","","24.1","","99.79","","","","","","Mostly Cloudy"
"-77.53","44.12","TRENTON A","6158875","2019-11-19 04:00","2019","11","19","04:00","-0.2","","-5.3","","68","","","","3","","4","","24.1","","99.79","","","","-1","","Mostly Cloudy"
"-77.53","44.12","TRENTON A","6158875","2019-11-19 05:00","2019","11","19","05:00","-0.6","","-5.4","","70","","","","10","","5","","24.1","","99.82","","","","-2","","Mainly Clear"
"-77.53","44.12","TRENTON A","6158875","2019-11-19 06:00","2019","11","19","06:00","-0.7","","-5.5","","70","","","","35","","9","","24.1","","99.81","","","","-4","","Mainly Clear"
"-77.53","44.12","TRENTON A","6158875","2019-11-19 07:00","2019","11","19","07:00","-1.0","","-5.2","","73","","","","36","","5","","24.1","","99.92","","","","-3","","Cloudy"
"-77.53","44.12","TRENTON A","6158875","2019-11-19 08:00","2019","11","19","08:00","-0.1","","-4.9","","70","","","","5","","4","","24.1","","99.96","","","","-1","","Mostly Cloudy"
"-77.53","44.12","TRENTON A","6158875","2019-11-19 09:00","2019","11","19","09:00","0.7","","-5.5","","63","","","","3","","8","","24.1","","99.96","","","","","","Mostly Cloudy"
"-77.53","44.12","TRENTON A","6158875","2019-11-19 10:00","2019","11","19","10:00","1.4","","-5.5","","60","","","","5","","11","","24.1","","99.98","","","","","","Mostly Cloudy"
"-77.53","44.12","TRENTON A","6158875","2019-11-19 11:00","2019","11","19","11:00","1.6","","-5.4","","60","","","","","","0","","24.1","","100.03","","","","","","Cloudy"
"-77.53","44.12","TRENTON A","6158875","2019-11-19 12:00","2019","11","19","12:00","2.0","","-5.0","","60","","","","18","","4","","24.1","","100.00","","","","","","Mostly Cloudy"
"-77.53","44.12","TRENTON A","6158875","2019-11-19 13:00","2019","11","19","13:00","2.4","","-5.1","","58","","","","23","","4","","24.1","","99.97","","","","","","Mostly Cloudy"
"-77.53","44.12","TRENTON A","6158875","2019-11-19 14:00","2019","11","19","14:00","3.0","","-4.7","","57","","","","19","","9","","24.1","","100.00","","","","","","Mostly Cloudy"
"-77.53","44.12","TRENTON A","6158875","2019-11-19 15:00","2019","11","19","15:00","3.1","","-4.3","","58","","","","21","","9","","24.1","","100.04","","","","","","Mostly Cloudy"
"-77.53","44.12","TRENTON A","6158875","2019-11-19 16:00","2019","11","19","16:00","2.5","","-3.6","","64","","","","21","","11","","24.1","","100.09","","","","","","Mostly Cloudy"
"-77.53","44.12","TRENTON A","6158875","2019-11-19 17:00","2019","11","19","17:00","2.2","","-2.7","","70","","","","19","","8","","24.1","","100.17","","","","","","Mostly Cloudy"
"-77.53","44.12","TRENTON A","6158875","2019-11-19 18:00","2019","11","19","18:00","2.5","","-2.5","","70","","","","22","","8","","24.1","","100.22","","","","","","Cloudy"
"-77.53","44.12","TRENTON A","6158875","2019-11-19 19:00","2019","11","19","19:00","2.1","","-2.1","","74","","","","24","","5","","24.1","","100.27","","","","","","Cloudy"
"-77.53","44.12","TRENTON A","6158875","2019-11-19 20:00","2019","11","19","20:00","2.0","","-1.8","","76","","","","","","0","","24.1","","100.31","","","","","","Cloudy"
"-77.53","44.12","TRENTON A","6158875","2019-11-19 21:00","2019","11","19","21:00","1.3","","-2.3","","77","","","","23","","4","","24.1","","100.32","","","","","","Cloudy"
"-77.53","44.12","TRENTON A","6158875","2019-11-19 22:00","2019","11","19","22:00","1.2","","-2.2","","78","","","","28","","4","","24.1","","100.33","","","","","","Cloudy"
"-77.53","44.12","TRENTON A","6158875","2019-11-19 23:00","2019","11","19","23:00","1.6","","-1.8","","78","","","","34","","5","","24.1","","100.33","","","","","","Cloudy"
"-77.53","44.12","TRENTON A","6158875","2019-11-20 00:00","2019","11","20","00:00","2.1","","-1.2","","79","","","","32","","11","","24.1","","100.35","","","","","","Cloudy"
"-77.53","44.12","TRENTON A","6158875","2019-11-20 01:00","2019","11","20","01:00","1.8","","-1.0","","82","","","","31","","5","","24.1","","100.35","","","","","","Cloudy"
"-77.53","44.12","TRENTON A","6158875","2019-11-20 02:00","2019","11","20","02:00","1.7","","-0.9","","83","","","","","","0","","24.1","","100.40","","","","","","Cloudy"
"-77.53","44.12","TRENTON A","6158875","2019-11-20 03:00","2019","11","20","03:00","1.8","","-0.6","","84","","","","34","","5","","24.1","","100.44","","","","","","Cloudy"
"-77.53","44.12","TRENTON A","6158875","2019-11-20 04:00","2019","11","20","04:00","2.0","","-0.5","","83","","","","34","","8","","24.1","","100.48","","","","","","Cloudy"
"-77.53","44.12","TRENTON A","6158875","2019-11-20 05:00","2019","11","20","05:00","1.8","","-0.4","","85","","","","31","","8","","24.1","","100.54","","","","","","Cloudy"
"-77.53","44.12","TRENTON A","6158875","2019-11-20 06:00","2019","11","20","06:00","1.9","","-0.4","","85","","","","34","","9","","24.1","","100.59","","","","","","Cloudy"
"-77.53","44.12","TRENTON A","6158875","2019-11-20 07:00","2019","11","20","07:00","1.5","","-0.6","","86","","","","32","","8","","24.1","","100.66","","","","","","Mostly Cloudy"
"-77.53","44.12","TRENTON A","6158875","2019-11-20 08:00","2019","11","20","08:00","1.7","","-0.4","","86","","","","33","","8","","24.1","","100.73","","","","","","Mostly Cloudy"
"-77.53","44.12","TRENTON A","6158875","2019-11-20 09:00","2019","11","20","09:00","2.5","","-0.2","","82","","","","32","","5","","24.1","","100.78","","","","","","Mostly Cloudy"
"-77.53","44.12","TRENTON A","6158875","2019-11-20 10:00","2019","11","20","10:00","3.4","","0.0","","78","","","","32","","8","","24.1","","100.82","","","","","","Mostly Cloudy"
"-77.53","44.12","TRENTON A","6158875","2019-11-20 11:00","2019","11","20","11:00","4.0","","0.0","","75","","","","32","","5","","24.1","","100.84","","","","","","Mostly Cloudy"
"-77.53","44.12","TRENTON A","6158875","2019-11-20 12:00","2019","11","20","12:00","4.8","","0.0","","71","","","","28","","8","","24.1","","100.83","","","","","","Mostly Cloudy"
"-77.53","44.12","TRENTON A","6158875","2019-11-20 13:00","2019","11","20","13:00","5.5","","0.3","","69","","","","28","","11","","24.1","","100.84","","","","","","Mostly Cloudy"
"-77.53","44.12","TRENTON A","6158875","2019-11-20 14:00","2019","11","20","14:00","5.9","","0.1","","66","","","","32","","13","","24.1","","100.85","","","","","","Mostly Cloudy"
"-77.53","44.12","TRENTON A","6158875","2019-11-20 15:00","2019","11","20","15:00","6.0","","0.6","","68","","","","31","","9","","24.1","","100.87","","","","","","Mostly Cloudy"
"-77.53","44.12","TRENTON A","6158875","2019-11-20 16:00","2019","11","20","16:00","6.3","","0.1","","64","","","","33","","13","","24.1","","100.92","","","","","","Mainly Clear"
"-77.53","44.12","TRENTON A","6158875","2019-11-20 17:00","2019","11","20","17:00","3.4","","-0.5","","76","","","","28","","11","","24.1","","101.02","","","","","","Mainly Clear"
"-77.53","44.12","TRENTON A","6158875","2019-11-20 18:00","2019","11","20","18:00","3.0","","0.4","","83","","","","28","","9","","24.1","","101.09","","","","","","Mainly Clear"
"-77.53","44.12","TRENTON A","6158875","2019-11-20 19:00","2019","11","20","19:00","2.5","","0.5","","87","","","","29","","5","","16.1","","101.11","","","","","","Clear"
"-77.53","44.12","TRENTON A","6158875","2019-11-20 20:00","2019","11","20","20:00","2.5","","0.4","","86","","","","32","","8","","16.1","","101.16","","","","","","Clear"
"-77.53","44.12","TRENTON A","6158875","2019-11-20 21:00","2019","11","20","21:00","2.3","","0.2","","86","","","","33","","9","","16.1","","101.21","","","","","","Clear"
"-77.53","44.12","TRENTON A","6158875","2019-11-20 22:00","2019","11","20","22:00","2.0","","0.2","","88","","","","33","","9","","16.1","","101.24","","","","","","Clear"
"-77.53","44.12","TRENTON A","6158875","2019-11-20 23:00","2019","11","20","23:00","1.6","","-0.2","","88","","","","33","","5","","24.1","","101.24","","","","","","Clear"
"-77.53","44.12","TRENTON A","6158875","2019-11-21 00:00","2019","11","21","00:00","-0.2","","-1.3","","92","","","","","","0","","19.3","","101.26","","","","","","Clear"
"-77.53","44.12","TRENTON A","6158875","2019-11-21 01:00","2019","11","21","01:00","-1.3","","-2.4","","92","","","","","","0","","19.3","","101.28","","","","","","Clear"
"-77.53","44.12","TRENTON A","6158875","2019-11-21 02:00","2019","11","21","02:00","-1.6","","-2.6","","93","","","","","","0","","19.3","","101.29","","","","","","Clear"
"-77.53","44.12","TRENTON A","6158875","2019-11-21 03:00","2019","11","21","03:00","-1.2","","-2.2","","93","","","","","","0","","16.1","","101.31","","","","","","Clear"
"-77.53","44.12","TRENTON A","6158875","2019-11-21 04:00","2019","11","21","04:00","-3.5","","-4.6","","92","","","","","","0","","12.9","","101.27","","","","","","Mainly Clear"
"-77.53","44.12","TRENTON A","6158875","2019-11-21 05:00","2019","11","21","05:00","-3.8","","-4.7","","93","","","","","","0","","0.4","","101.25","","","","","","Freezing Fog"
"-77.53","44.12","TRENTON A","6158875","2019-11-21 06:00","2019","11","21","06:00","-4.1","","-5.2","","92","","","","","","0","","0.2","","101.25","","","","","","Freezing Fog"
"-77.53","44.12","TRENTON A","6158875","2019-11-21 07:00","2019","11","21","07:00","-2.2","","-3.2","","93","","","","6","","4","","1.6","","101.25","","","","-4","","Fog"
"-77.53","44.12","TRENTON A","6158875","2019-11-21 08:00","2019","11","21","08:00","-1.6","","-2.7","","92","","","","","","0","","4.8","","101.22","","","","","","Fog"
"-77.53","44.12","TRENTON A","6158875","2019-11-21 09:00","2019","11","21","09:00","-0.8","","-1.8","","93","","","","","","0","","6.4","","101.18","","","","","","Fog"
"-77.53","44.12","TRENTON A","6158875","2019-11-21 10:00","2019","11","21","10:00","0.0","","-0.6","","96","","","","","","0","","6.4","","101.15","","","","","","Fog"
"-77.53","44.12","TRENTON A","6158875","2019-11-21 11:00","2019","11","21","11:00","1.3","","0.4","","94","","","","8","","4","","6.4","","101.02","","","","","","Fog"
"-77.53","44.12","TRENTON A","6158875","2019-11-21 12:00","2019","11","21","12:00","2.2","","0.9","","91","","","","","","0","","8.1","","100.87","","","","","","Fog"
"-77.53","44.12","TRENTON A","6158875","2019-11-21 13:00","2019","11","21","13:00","3.1","","1.8","","91","","","","5","","4","","8.1","","100.75","","","","","","Fog"
"-77.53","44.12","TRENTON A","6158875","2019-11-21 14:00","2019","11","21","14:00","4.1","","2.3","","88","","","","18","","4","","11.3","","100.62","","","","","","Cloudy"
"-77.53","44.12","TRENTON A","6158875","2019-11-21 15:00","2019","11","21","15:00","5.8","","1.6","","74","","","","16","","8","","16.1","","100.46","","","","","","Cloudy"
"-77.53","44.12","TRENTON A","6158875","2019-11-21 16:00","2019","11","21","16:00","5.5","","1.5","","75","","","","15","","8","","16.1","","100.35","","","","","","Cloudy"
"-77.53","44.12","TRENTON A","6158875","2019-11-21 17:00","2019","11","21","17:00","5.1","","2.7","","84","","","","13","","9","","9.7","","100.13","","","","","","Rain,Fog"
"-77.53","44.12","TRENTON A","6158875","2019-11-21 18:00","2019","11","21","18:00","6.0","","2.6","","79","","","","16","","11","","9.7","","100.06","","","","","","Fog"
"-77.53","44.12","TRENTON A","6158875","2019-11-21 19:00","2019","11","21","19:00","6.2","","2.8","","79","","","","8","","9","","9.7","","99.79","","","","","","Rain,Fog"
"-77.53","44.12","TRENTON A","6158875","2019-11-21 20:00","2019","11","21","20:00","7.2","","2.4","","72","","","","14","","13","","9.7","","99.69","","","","","","Rain,Fog"
"-77.53","44.12","TRENTON A","6158875","2019-11-21 21:00","2019","11","21","21:00","6.8","","3.1","","77","","","","18","","13","","9.7","","99.63","","","","","","Rain,Fog"
"-77.53","44.12","TRENTON A","6158875","2019-11-21 22:00","2019","11","21","22:00","6.2","","4.2","","87","","","","20","","22","","9.7","","99.50","","","","","","Drizzle,Fog"
"-77.53","44.12","TRENTON A","6158875","2019-11-21 23:00","2019","11","21","23:00","6.6","","5.2","","91","","","","19","","22","","6.4","","99.38","","","","","","Drizzle,Fog"
"-77.53","44.12","TRENTON A","6158875","2019-11-22 00:00","2019","11","22","00:00","7.0","","5.9","","93","","","","21","","15","","4.8","","99.29","","","","","","Drizzle,Fog"
"-77.53","44.12","TRENTON A","6158875","2019-11-22 01:00","2019","11","22","01:00","7.2","","6.0","","92","","","","21","","15","","3.2","","99.21","","","","","","Drizzle,Fog"
"-77.53","44.12","TRENTON A","6158875","2019-11-22 02:00","2019","11","22","02:00","8.8","","7.1","","89","","","","23","","28","","19.3","","99.17","","","","","","Cloudy"
"-77.53","44.12","TRENTON A","6158875","2019-11-22 03:00","2019","11","22","03:00","9.0","","7.3","","89","","","","23","","26","","24.1","","99.13","","","","","","Cloudy"
"-77.53","44.12","TRENTON A","6158875","2019-11-22 04:00","2019","11","22","04:00","9.5","","6.9","","84","","","","27","","28","","24.1","","99.14","","","","","","Cloudy"
"-77.53","44.12","TRENTON A","6158875","2019-11-22 05:00","2019","11","22","05:00","7.8","","5.0","","82","","","","27","","18","","24.1","","99.19","","","","","","Cloudy"
"-77.53","44.12","TRENTON A","6158875","2019-11-22 06:00","2019","11","22","06:00","6.8","","2.1","","72","","","","28","","34","","24.1","","99.21","","","","","","Cloudy"
"-77.53","44.12","TRENTON A","6158875","2019-11-22 07:00","2019","11","22","07:00","5.6","","1.3","","74","","","","27","","24","","24.1","","99.32","","","","","","Mostly Cloudy"
"-77.53","44.12","TRENTON A","6158875","2019-11-22 08:00","2019","11","22","08:00","4.8","","-0.2","","70","","","","27","","30","","24.1","","99.41","","","","","","Mostly Cloudy"
"-77.53","44.12","TRENTON A","6158875","2019-11-22 09:00","2019","11","22","09:00","4.7","","-0.9","","67","","","","27","","31","","24.1","","99.49","","","","","","Mostly Cloudy"
"-77.53","44.12","TRENTON A","6158875","2019-11-22 10:00","2019","11","22","10:00","4.1","","-0.5","","72","","","","27","","34","","24.1","","99.58","","","","","","Mainly Clear"
"-77.53","44.12","TRENTON A","6158875","2019-11-22 11:00","2019","11","22","11:00","4.6","","-2.4","","60","","","","29","","31","","24.1","","99.73","","","","","","Mainly Clear"
"-77.53","44.12","TRENTON A","6158875","2019-11-22 12:00","2019","11","22","12:00","2.7","","-3.6","","63","","","","30","","31","","24.1","","99.82","","","","","","Mainly Clear"
"-77.53","44.12","TRENTON A","6158875","2019-11-22 13:00","2019","11","22","13:00","2.7","","-5.3","","56","","","","29","","39","","24.1","","99.91","","","","","","Mostly Cloudy"
"-77.53","44.12","TRENTON A","6158875","2019-11-22 14:00","2019","11","22","14:00","1.9","","-6.1","","55","","","","29","","35","","24.1","","100.01","","","","","","Mostly Cloudy"
"-77.53","44.12","TRENTON A","6158875","2019-11-22 15:00","2019","11","22","15:00","1.4","","-6.0","","58","","","","31","","28","","24.1","","100.13","","","","","","Mostly Cloudy"
"-77.53","44.12","TRENTON A","6158875","2019-11-22 16:00","2019","11","22","16:00","0.7","","-7.0","","56","","","","30","","24","","24.1","","100.23","","","","","","Mainly Clear"
"-77.53","44.12","TRENTON A","6158875","2019-11-22 17:00","2019","11","22","17:00","0.1","","-7.8","","55","","","","29","","21","","24.1","","100.35","","","","","","Mainly Clear"
"-77.53","44.12","TRENTON A","6158875","2019-11-22 18:00","2019","11","22","18:00","-1.1","","-7.7","","61","","","","27","","13","","24.1","","100.44","","","","-5","","Clear"
"-77.53","44.12","TRENTON A","6158875","2019-11-22 19:00","2019","11","22","19:00","-0.5","","-6.8","","62","","","","27","","17","","24.1","","100.52","","","","-5","","Clear"
"-77.53","44.12","TRENTON A","6158875","2019-11-22 20:00","2019","11","22","20:00","-1.8","","-6.7","","69","","","","26","","15","","24.1","","100.57","","","","-7","","Clear"
"-77.53","44.12","TRENTON A","6158875","2019-11-22 21:00","2019","11","22","21:00","-1.0","","-6.7","","65","","","","27","","15","","24.1","","100.62","","","","-6","","Clear"
"-77.53","44.12","TRENTON A","6158875","2019-11-22 22:00","2019","11","22","22:00","-1.7","","-6.9","","68","","","","28","","9","","24.1","","100.62","","","","-5","","Clear"
"-77.53","44.12","TRENTON A","6158875","2019-11-22 23:00","2019","11","22","23:00","-1.5","","-6.6","","68","","","","22","","5","","24.1","","100.63","","","","-3","","Clear"
"-77.53","44.12","TRENTON A","6158875","2019-11-23 00:00","2019","11","23","00:00","-1.7","","-5.9","","73","","","","21","","8","","24.1","","100.61","","","","-5","","Clear"
"-77.53","44.12","TRENTON A","6158875","2019-11-23 01:00","2019","11","23","01:00","-1.7","","-6.0","","72","","","","24","","8","","24.1","","100.54","","","","-5","","Clear"
"-77.53","44.12","TRENTON A","6158875","2019-11-23 02:00","2019","11","23","02:00","-2.6","","-6.6","","74","","","","24","","8","","24.1","","100.51","","","","-6","","Clear"
"-77.53","44.12","TRENTON A","6158875","2019-11-23 03:00","2019","11","23","03:00","-3.1","","-6.5","","77","","","","24","","9","","24.1","","100.55","","","","-7","","Clear"
"-77.53","44.12","TRENTON A","6158875","2019-11-23 04:00","2019","11","23","04:00","-1.3","","-5.5","","73","","","","25","","18","","24.1","","100.52","","","","-7","","Mostly Cloudy"
"-77.53","44.12","TRENTON A","6158875","2019-11-23 05:00","2019","11","23","05:00","-2.4","","-6.3","","75","","","","25","","13","","24.1","","100.46","","","","-7","","Clear"
"-77.53","44.12","TRENTON A","6158875","2019-11-23 06:00","2019","11","23","06:00","-1.8","","-6.3","","71","","","","25","","8","","24.1","","100.44","","","","-5","","Clear"
"-77.53","44.12","TRENTON A","6158875","2019-11-23 07:00","2019","11","23","07:00","-2.1","","-5.7","","76","","","","25","","9","","24.1","","100.40","","","","-6","","Mainly Clear"
"-77.53","44.12","TRENTON A","6158875","2019-11-23 08:00","2019","11","23","08:00","-1.2","","-4.5","","78","","","","25","","8","","24.1","","100.40","","","","-4","","Mostly Cloudy"
"-77.53","44.12","TRENTON A","6158875","2019-11-23 09:00","2019","11","23","09:00","0.7","","-4.0","","71","","","","25","","5","","24.1","","100.37","","","","","","Mainly Clear"
"-77.53","44.12","TRENTON A","6158875","2019-11-23 10:00","2019","11","23","10:00","2.3","","-3.3","","66","","","","24","","18","","24.1","","100.35","","","","","","Mainly Clear"
"-77.53","44.12","TRENTON A","6158875","2019-11-23 11:00","2019","11","23","11:00","3.9","","-3.3","","59","","","","25","","21","","24.1","","100.23","","","","","","Mainly Clear"
"-77.53","44.12","TRENTON A","6158875","2019-11-23 12:00","2019","11","23","12:00","4.8","","-2.7","","58","","","","24","","24","","24.1","","100.11","","","","","","Mainly Clear"
"-77.53","44.12","TRENTON A","6158875","2019-11-23 13:00","2019","11","23","13:00","3.8","","-2.0","","66","","","","23","","24","","24.1","","100.08","","","","","","Mainly Clear"
"-77.53","44.12","TRENTON A","6158875","2019-11-23 14:00","2019","11","23","14:00","3.8","","-1.6","","68","","","","23","","22","","24.1","","99.97","","","","","","Mostly Cloudy"
"-77.53","44.12","TRENTON A","6158875","2019-11-23 15:00","2019","11","23","15:00","3.8","","-1.6","","68","","","","21","","21","","24.1","","99.90","","","","","","Mostly Cloudy"
"-77.53","44.12","TRENTON A","6158875","2019-11-23 16:00","2019","11","23","16:00","3.5","","-1.5","","70","","","","23","","15","","24.1","","99.85","","","","","","Mostly Cloudy"
"-77.53","44.12","TRENTON A","6158875","2019-11-23 17:00","2019","11","23","17:00","2.4","","-1.7","","74","","","","20","","5","","24.1","","99.75","","","","","","Mainly Clear"
"-77.53","44.12","TRENTON A","6158875","2019-11-23 18:00","2019","11","23","18:00","-0.1","","-2.7","","83","","","","12","","4","","24.1","","99.70","","","","-1","","Clear"
"-77.53","44.12","TRENTON A","6158875","2019-11-23 19:00","2019","11","23","19:00","-1.5","","-3.3","","88","","","","5","","4","","24.1","","99.64","","","","-3","","Mainly Clear"
"-77.53","44.12","TRENTON A","6158875","2019-11-23 20:00","2019","11","23","20:00","-1.7","","-3.6","","87","","","","5","","8","","24.1","","99.47","","","","-5","","Cloudy"
"-77.53","44.12","TRENTON A","6158875","2019-11-23 21:00","2019","11","23","21:00","-1.2","","-3.0","","88","","","","5","","4","","24.1","","99.41","","","","-3","","Cloudy"
"-77.53","44.12","TRENTON A","6158875","2019-11-23 22:00","2019","11","23","22:00","-1.0","","-2.7","","88","","","","3","","8","","24.1","","99.30","","","","-4","","Cloudy"
"-77.53","44.12","TRENTON A","6158875","2019-11-23 23:00","2019","11","23","23:00","-0.1","","-2.2","","86","","","","4","","9","","24.1","","99.20","","","","-3","","Cloudy"
"-77.53","44.12","TRENTON A","6158875","2019-11-24 00:00","2019","11","24","00:00","0.4","","-1.8","","85","","","","5","","5","","24.1","","99.15","","","","","","Cloudy"
"-77.53","44.12","TRENTON A","6158875","2019-11-24 01:00","2019","11","24","01:00","0.2","","-2.1","","84","","","","6","","4","","24.1","","99.10","","","","","","Mostly Cloudy"
"-77.53","44.12","TRENTON A","6158875","2019-11-24 02:00","2019","11","24","02:00","-0.5","","-2.4","","87","","","","36","","4","","24.1","","99.07","","","","-2","","Mainly Clear"
"-77.53","44.12","TRENTON A","6158875","2019-11-24 03:00","2019","11","24","03:00","-1.5","","-3.2","","88","","","","32","","4","","24.1","","99.08","","","","-3","","Mostly Cloudy"
"-77.53","44.12","TRENTON A","6158875","2019-11-24 04:00","2019","11","24","04:00","-1.9","","-3.3","","90","","","","4","","4","","24.1","","99.03","","","","-3","","Clear"
"-77.53","44.12","TRENTON A","6158875","2019-11-24 05:00","2019","11","24","05:00","-2.4","","-3.9","","89","","","","33","","11","","16.1","","99.05","","","","-6","","Clear"
"-77.53","44.12","TRENTON A","6158875","2019-11-24 06:00","2019","11","24","06:00","-2.2","","-3.4","","91","","","","1","","4","","24.1","","98.97","","","","-4","","Mainly Clear"
"-77.53","44.12","TRENTON A","6158875","2019-11-24 07:00","2019","11","24","07:00","-2.7","","-4.2","","89","","","","34","","5","","11.3","","99.00","","","","-5","","Mainly Clear"
"-77.53","44.12","TRENTON A","6158875","2019-11-24 08:00","2019","11","24","08:00","-2.7","","-4.3","","89","","","","34","","4","","16.1","","99.04","","","","-4","","Mainly Clear"
"-77.53","44.12","TRENTON A","6158875","2019-11-24 09:00","2019","11","24","09:00","-1.7","","-3.3","","89","","","","","","0","","24.1","","99.01","","","","","","Mainly Clear"
"-77.53","44.12","TRENTON A","6158875","2019-11-24 10:00","2019","11","24","10:00","1.3","","-1.9","","79","","","","32","","5","","24.1","","98.99","","","","","","Clear"
"-77.53","44.12","TRENTON A","6158875","2019-11-24 11:00","2019","11","24","11:00","3.6","","-1.1","","71","","","","32","","13","","24.1","","98.95","","","","","","Clear"
"-77.53","44.12","TRENTON A","6158875","2019-11-24 12:00","2019","11","24","12:00","4.8","","-2.1","","61","","","","30","","9","","24.1","","98.90","","","","","","Mainly Clear"
"-77.53","44.12","TRENTON A","6158875","2019-11-24 13:00","2019","11","24","13:00","6.4","","-2.7","","52","","","","29","","13","","24.1","","98.86","","","","","","Mainly Clear"
"-77.53","44.12","TRENTON A","6158875","2019-11-24 14:00","2019","11","24","14:00","6.4","","-1.8","","56","","","","24","","11","","24.1","","98.79","","","","","","Mainly Clear"
"-77.53","44.12","TRENTON A","6158875","2019-11-24 15:00","2019","11","24","15:00","3.7","","-0.4","","75","","","","22","","22","","11.3","","98.84","","","","","","Mostly Cloudy"
"-77.53","44.12","TRENTON A","6158875","2019-11-24 16:00","2019","11","24","16:00","3.0","","-0.7","","77","","","","22","","13","","11.3","","98.85","","","","","","Mainly Clear"
"-77.53","44.12","TRENTON A","6158875","2019-11-24 17:00","2019","11","24","17:00","2.4","","-1.4","","76","","","","23","","15","","11.3","","98.87","","","","","","Mainly Clear"
"-77.53","44.12","TRENTON A","6158875","2019-11-24 18:00","2019","11","24","18:00","0.9","","-1.8","","82","","","","25","","8","","16.1","","98.91","","","","","","Clear"
"-77.53","44.12","TRENTON A","6158875","2019-11-24 19:00","2019","11","24","19:00","0.9","","-1.4","","85","","","","","","0","","9.7","","98.95","","","","","","Fog"
"-77.53","44.12","TRENTON A","6158875","2019-11-24 20:00","2019","11","24","20:00","-1.1","","-2.7","","89","","","","","","0","","6.4","","98.98","","","","","","Fog"
"-77.53","44.12","TRENTON A","6158875","2019-11-24 21:00","2019","11","24","21:00","-0.6","","-2.1","","90","","","","21","","4","","6.4","","99.01","","","","-2","","Fog"
"-77.53","44.12","TRENTON A","6158875","2019-11-24 22:00","2019","11","24","22:00","3.7","","0.8","","81","","","","24","","11","","9.7","","99.04","","","","","","Fog"
"-77.53","44.12","TRENTON A","6158875","2019-11-24 23:00","2019","11","24","23:00","3.9","","0.4","","78","","","","22","","17","","11.3","","99.09","","","","","","Cloudy"
"-77.53","44.12","TRENTON A","6158875","2019-11-25 00:00","2019","11","25","00:00","4.3","","1.2","","80","","","","23","","17","","11.3","","99.12","","","","","","Cloudy"
"-77.53","44.12","TRENTON A","6158875","2019-11-25 01:00","2019","11","25","01:00","3.9","","1.6","","85","","","","24","","22","","9.7","","99.13","","","","","","Fog"
"-77.53","44.12","TRENTON A","6158875","2019-11-25 02:00","2019","11","25","02:00","3.9","","1.7","","86","","","","24","","15","","8.1","","99.21","","","","","","Fog"
"-77.53","44.12","TRENTON A","6158875","2019-11-25 03:00","2019","11","25","03:00","2.5","","0.4","","86","","","","25","","13","","9.7","","99.28","","","","","","Fog"
"-77.53","44.12","TRENTON A","6158875","2019-11-25 04:00","2019","11","25","04:00","2.5","","0.3","","85","","","","26","","9","","9.7","","99.33","","","","","","Fog"
"-77.53","44.12","TRENTON A","6158875","2019-11-25 05:00","2019","11","25","05:00","2.5","","0.2","","85","","","","23","","4","","11.3","","99.40","","","","","","Mostly Cloudy"
"-77.53","44.12","TRENTON A","6158875","2019-11-25 06:00","2019","11","25","06:00","0.0","","-1.4","","90","","","","","","0","","9.7","","99.45","","","","","","Fog"
"-77.53","44.12","TRENTON A","6158875","2019-11-25 07:00","2019","11","25","07:00","2.5","","0.9","","89","","","","21","","15","","12.9","","99.54","","","","","","Mainly Clear"
"-77.53","44.12","TRENTON A","6158875","2019-11-25 08:00","2019","11","25","08:00","2.5","","0.8","","89","","","","22","","8","","11.3","","99.55","","","","","","Mainly Clear"
"-77.53","44.12","TRENTON A","6158875","2019-11-25 09:00","2019","11","25","09:00","3.9","","1.4","","84","","","","21","","8","","11.3","","99.57","","","","","","Mainly Clear"
"-77.53","44.12","TRENTON A","6158875","2019-11-25 10:00","2019","11","25","10:00","5.6","","2.6","","81","","","","21","","13","","12.9","","99.58","","","","","","Mainly Clear"
"-77.53","44.12","TRENTON A","6158875","2019-11-25 11:00","2019","11","25","11:00","5.8","","2.7","","80","","","","21","","13","","12.9","","99.61","","","","","","Mostly Cloudy"
"-77.53","44.12","TRENTON A","6158875","2019-11-25 12:00","2019","11","25","12:00","5.9","","2.8","","80","","","","20","","15","","16.1","","99.58","","","","","","Mostly Cloudy"
"-77.53","44.12","TRENTON A","6158875","2019-11-25 13:00","2019","11","25","13:00","5.8","","3.2","","83","","","","21","","15","","12.9","","99.60","","","","","","Mostly Cloudy"
"-77.53","44.12","TRENTON A","6158875","2019-11-25 14:00","2019","11","25","14:00","5.4","","3.7","","89","","","","21","","11","","8.1","","99.64","","","","","","Rain Showers,Fog"
"-77.53","44.12","TRENTON A","6158875","2019-11-25 15:00","2019","11","25","15:00","5.3","","4.4","","94","","","","21","","8","","0.8","","99.67","","","","","","Drizzle,Fog"
"-77.53","44.12","TRENTON A","6158875","2019-11-25 16:00","2019","11","25","16:00","5.6","","4.8","","95","","","","22","","8","","1.6","","99.68","","","","","","Fog"
"-77.53","44.12","TRENTON A","6158875","2019-11-25 17:00","2019","11","25","17:00","5.5","","4.8","","95","","","","18","","4","","2.0","","99.72","","","","","","Fog"
"-77.53","44.12","TRENTON A","6158875","2019-11-25 18:00","2019","11","25","18:00","5.5","","4.4","","93","","","","19","","8","","4.8","","99.76","","","","","","Fog"
"-77.53","44.12","TRENTON A","6158875","2019-11-25 19:00","2019","11","25","19:00","4.8","","4.1","","95","","","","","","0","","6.4","","99.80","","","","","","Fog"
"-77.53","44.12","TRENTON A","6158875","2019-11-25 20:00","2019","11","25","20:00","2.5","","2.0","","96","","","","","","0","","0.8","","99.80","","","","","","Fog"
"-77.53","44.12","TRENTON A","6158875","2019-11-25 21:00","2019","11","25","21:00","1.3","","0.4","","94","","","","3","","8","","0.8","","99.77","","","","","","Fog"
"-77.53","44.12","TRENTON A","6158875","2019-11-25 22:00","2019","11","25","22:00","0.3","","-0.5","","94","","","","","","0","","1.6","","99.81","","","","","","Fog"
"-77.53","44.12","TRENTON A","6158875","2019-11-25 23:00","2019","11","25","23:00","0.8","","-0.1","","94","","","","4","","5","","2.4","","99.80","","","","","","Fog"
"-77.53","44.12","TRENTON A","6158875","2019-11-26 00:00","2019","11","26","00:00","-0.1","","-1.1","","93","","","","5","","5","","1.6","","99.76","","","","-2","","Fog"
"-77.53","44.12","TRENTON A","6158875","2019-11-26 01:00","2019","11","26","01:00","0.3","","-0.5","","94","","","","","","0","","4.8","","99.77","","","","","","Fog"
"-77.53","44.12","TRENTON A","6158875","2019-11-26 02:00","2019","11","26","02:00","0.5","","-0.3","","94","","","","","","0","","3.2","","99.77","","","","","","Fog"
"-77.53","44.12","TRENTON A","6158875","2019-11-26 03:00","2019","11","26","03:00","1.4","","0.4","","93","","","","","","0","","3.2","","99.73","","","","","","Fog"
"-77.53","44.12","TRENTON A","6158875","2019-11-26 04:00","2019","11","26","04:00","3.5","","2.6","","94","","","","19","","5","","6.4","","99.73","","","","","","Fog"
"-77.53","44.12","TRENTON A","6158875","2019-11-26 05:00","2019","11","26","05:00","3.3","","2.0","","91","","","","22","","4","","19.3","","99.69","","","","","","Clear"
"-77.53","44.12","TRENTON A","6158875","2019-11-26 06:00","2019","11","26","06:00","2.7","","1.2","","90","","","","30","","8","","24.1","","99.74","","","","","","Clear"
"-77.53","44.12","TRENTON A","6158875","2019-11-26 07:00","2019","11","26","07:00","2.3","","0.5","","88","","","","29","","8","","16.1","","99.82","","","","","","Clear"
"-77.53","44.12","TRENTON A","6158875","2019-11-26 08:00","2019","11","26","08:00","5.6","","3.3","","85","","","","22","","9","","24.1","","99.91","","","","","","Mainly Clear"
"-77.53","44.12","TRENTON A","6158875","2019-11-26 09:00","2019","11","26","09:00","6.5","","3.8","","83","","","","23","","18","","24.1","","100.00","","","","","","Cloudy"
"-77.53","44.12","TRENTON A","6158875","2019-11-26 10:00","2019","11","26","10:00","7.9","","4.9","","81","","","","24","","15","","24.1","","100.07","","","","","","Cloudy"
"-77.53","44.12","TRENTON A","6158875","2019-11-26 11:00","2019","11","26","11:00","8.3","","4.8","","79","","","","22","","13","","24.1","","100.11","","","","","","Cloudy"
"-77.53","44.12","TRENTON A","6158875","2019-11-26 12:00","2019","11","26","12:00","8.7","","4.4","","74","","","","23","","18","","24.1","","100.16","","","","","","Mainly Clear"
"-77.53","44.12","TRENTON A","6158875","2019-11-26 13:00","2019","11","26","13:00","9.3","","4.6","","72","","","","22","","17","","12.9","","100.17","","","","","","Mainly Clear"
"-77.53","44.12","TRENTON A","6158875","2019-11-26 14:00","2019","11","26","14:00","8.7","","4.4","","74","","","","22","","17","","12.9","","100.21","","","","","","Mainly Clear"
"-77.53","44.12","TRENTON A","6158875","2019-11-26 15:00","2019","11","26","15:00","8.5","","4.1","","74","","","","21","","11","","12.9","","100.28","","","","","","Mainly Clear"
"-77.53","44.12","TRENTON A","6158875","2019-11-26 16:00","2019","11","26","16:00","7.8","","3.7","","75","","","","22","","8","","12.9","","100.37","","","","","","Mainly Clear"
"-77.53","44.12","TRENTON A","6158875","2019-11-26 17:00","2019","11","26","17:00","5.7","","2.8","","82","","","","20","","5","","12.9","","100.46","","","","","","Mainly Clear"
"-77.53","44.12","TRENTON A","6158875","2019-11-26 18:00","2019","11","26","18:00","3.4","","1.9","","90","","","","","","0","","24.1","","100.49","","","","","","Mainly Clear"
"-77.53","44.12","TRENTON A","6158875","2019-11-26 19:00","2019","11","26","19:00","0.5","","-1.4","","87","","","","","","0","","24.1","","100.55","","","","","","Mainly Clear"
"-77.53","44.12","TRENTON A","6158875","2019-11-26 20:00","2019","11","26","20:00","3.1","","1.8","","91","","","","35","","5","","24.1","","100.60","","","","","","Mainly Clear"
"-77.53","44.12","TRENTON A","6158875","2019-11-26 21:00","2019","11","26","21:00","1.7","","0.7","","93","","","","3","","8","","24.1","","100.58","","","","","","Mainly Clear"
"-77.53","44.12","TRENTON A","6158875","2019-11-26 22:00","2019","11","26","22:00","-0.1","","-1.4","","91","","","","","","0","","24.1","","100.60","","","","","","Mainly Clear"
"-77.53","44.12","TRENTON A","6158875","2019-11-26 23:00","2019","11","26","23:00","-2.2","","-3.6","","90","","","","","","0","","11.3","","100.65","","","","","","Clear"
"-77.53","44.12","TRENTON A","6158875","2019-11-27 00:00","2019","11","27","00:00","-1.5","","-2.7","","92","","","","4","","5","","19.3","","100.60","","","","-3","","Mainly Clear"
"-77.53","44.12","TRENTON A","6158875","2019-11-27 01:00","2019","11","27","01:00","0.7","","-1.0","","88","","","","7","","9","","19.3","","100.54","","","","","","Mostly Cloudy"
"-77.53","44.12","TRENTON A","6158875","2019-11-27 02:00","2019","11","27","02:00","1.6","","-0.2","","88","","","","6","","11","","19.3","","100.53","","","","","","Cloudy"
"-77.53","44.12","TRENTON A","6158875","2019-11-27 03:00","2019","11","27","03:00","2.9","","0.5","","84","","","","7","","5","","19.3","","100.49","","","","","","Cloudy"
"-77.53","44.12","TRENTON A","6158875","2019-11-27 04:00","2019","11","27","04:00","2.8","","1.3","","90","","","","5","","9","","11.3","","100.40","","","","","","Cloudy"
"-77.53","44.12","TRENTON A","6158875","2019-11-27 05:00","2019","11","27","05:00","4.5","","2.1","","84","","","","6","","11","","19.3","","100.25","","","","","","Cloudy"
"-77.53","44.12","TRENTON A","6158875","2019-11-27 06:00","2019","11","27","06:00","4.4","","1.8","","83","","","","6","","18","","19.3","","100.13","","","","","","Cloudy"
"-77.53","44.12","TRENTON A","6158875","2019-11-27 07:00","2019","11","27","07:00","4.9","","2.1","","82","","","","7","","13","","19.3","","99.99","","","","","","Cloudy"
"-77.53","44.12","TRENTON A","6158875","2019-11-27 08:00","2019","11","27","08:00","5.4","","2.3","","80","","","","7","","15","","11.3","","99.93","","","","","","Cloudy"
"-77.53","44.12","TRENTON A","6158875","2019-11-27 09:00","2019","11","27","09:00","5.3","","2.5","","82","","","","7","","15","","9.7","","99.81","","","","","","Rain"
"-77.53","44.12","TRENTON A","6158875","2019-11-27 10:00","2019","11","27","10:00","5.6","","2.7","","82","","","","8","","21","","12.9","","99.55","","","","","","Mostly Cloudy"
"-77.53","44.12","TRENTON A","6158875","2019-11-27 11:00","2019","11","27","11:00","6.0","","2.8","","80","","","","8","","17","","12.9","","99.33","","","","","","Cloudy"
"-77.53","44.12","TRENTON A","6158875","2019-11-27 12:00","2019","11","27","12:00","6.6","","3.2","","79","","","","7","","15","","12.9","","98.98","","","","","","Rain"
"-77.53","44.12","TRENTON A","6158875","2019-11-27 13:00","2019","11","27","13:00","6.1","","4.3","","88","","","","8","","15","","9.7","","98.75","","","","","","Rain"
"-77.53","44.12","TRENTON A","6158875","2019-11-27 14:00","2019","11","27","14:00","6.2","","4.5","","89","","","","6","","13","","6.4","","98.77","","","","","","Rain"
"-77.53","44.12","TRENTON A","6158875","2019-11-27 15:00","2019","11","27","15:00","6.2","","4.9","","91","","","","7","","15","","12.9","","98.60","","","","","","Rain"
"-77.53","44.12","TRENTON A","6158875","2019-11-27 16:00","2019","11","27","16:00","6.3","","5.1","","92","","","","8","","11","","12.9","","98.64","","","","","","Cloudy"
"-77.53","44.12","TRENTON A","6158875","2019-11-27 17:00","2019","11","27","17:00","5.9","","4.9","","93","","","","5","","9","","9.7","","98.70","","","","","","Rain"
"-77.53","44.12","TRENTON A","6158875","2019-11-27 18:00","2019","11","27","18:00","5.9","","4.8","","93","","","","23","","9","","12.9","","98.70","","","","","","Cloudy"
"-77.53","44.12","TRENTON A","6158875","2019-11-27 19:00","2019","11","27","19:00","7.5","","3.8","","77","","","","26","","34","","24.1","","98.83","","","","","","Cloudy"
"-77.53","44.12","TRENTON A","6158875","2019-11-27 20:00","2019","11","27","20:00","6.9","","2.9","","76","","","","25","","37","","24.1","","98.89","","","","","","Cloudy"
"-77.53","44.12","TRENTON A","6158875","2019-11-27 21:00","2019","11","27","21:00","6.0","","2.5","","78","","","","25","","34","","24.1","","98.99","","","","","","Cloudy"
"-77.53","44.12","TRENTON A","6158875","2019-11-27 22:00","2019","11","27","22:00","5.9","","2.0","","76","","","","24","","31","","24.1","","99.07","","","","","","Cloudy"
"-77.53","44.12","TRENTON A","6158875","2019-11-27 23:00","2019","11","27","23:00","5.3","","2.3","","81","","","","25","","24","","24.1","","99.18","","","","","","Cloudy"
"-77.53","44.12","TRENTON A","6158875","2019-11-28 00:00","2019","11","28","00:00","5.1","","2.0","","80","","","","24","","21","","24.1","","99.24","","","","","","Cloudy"
"-77.53","44.12","TRENTON A","6158875","2019-11-28 01:00","2019","11","28","01:00","4.6","","1.7","","81","","","","26","","26","","24.1","","99.32","","","","","","Rain"
"-77.53","44.12","TRENTON A","6158875","2019-11-28 02:00","2019","11","28","02:00","4.2","","2.4","","88","","","","25","","17","","24.1","","99.40","","","","","","Rain"
"-77.53","44.12","TRENTON A","6158875","2019-11-28 03:00","2019","11","28","03:00","4.8","","2.3","","84","","","","30","","17","","24.1","","99.51","","","","","","Cloudy"
"-77.53","44.12","TRENTON A","6158875","2019-11-28 04:00","2019","11","28","04:00","4.4","","2.9","","90","","","","30","","13","","8.1","","99.69","","","","","","Rain,Fog"
"-77.53","44.12","TRENTON A","6158875","2019-11-28 05:00","2019","11","28","05:00","2.9","","0.6","","85","","","","35","","11","","24.1","","99.88","","","","","","Mostly Cloudy"
"-77.53","44.12","TRENTON A","6158875","2019-11-28 06:00","2019","11","28","06:00","2.6","","-0.6","","79","","","","35","","24","","24.1","","100.11","","","","","","Mostly Cloudy"
"-77.53","44.12","TRENTON A","6158875","2019-11-28 07:00","2019","11","28","07:00","2.0","","-1.1","","80","","","","34","","22","","24.1","","100.40","","","","","","Rain"
"-77.53","44.12","TRENTON A","6158875","2019-11-28 08:00","2019","11","28","08:00","1.4","","-2.3","","76","","","","34","","22","","24.1","","100.64","","","","","","Mostly Cloudy"
"-77.53","44.12","TRENTON A","6158875","2019-11-28 09:00","2019","11","28","09:00","1.3","","-3.1","","72","","","","35","","22","","24.1","","100.86","","","","","","Mostly Cloudy"
"-77.53","44.12","TRENTON A","6158875","2019-11-28 10:00","2019","11","28","10:00","1.4","","-2.7","","74","","","","35","","21","","24.1","","100.95","","","","","","Mostly Cloudy"
"-77.53","44.12","TRENTON A","6158875","2019-11-28 11:00","2019","11","28","11:00","1.4","","-3.2","","71","","","","34","","22","","24.1","","101.11","","","","","","Cloudy"
"-77.53","44.12","TRENTON A","6158875","2019-11-28 12:00","2019","11","28","12:00","1.4","","-3.5","","70","","","","36","","24","","24.1","","101.22","","","","","","Mostly Cloudy"
"-77.53","44.12","TRENTON A","6158875","2019-11-28 13:00","2019","11","28","13:00","0.7","","-4.9","","66","","","","32","","21","","24.1","","101.27","","","","","","Mostly Cloudy"
"-77.53","44.12","TRENTON A","6158875","2019-11-28 14:00","2019","11","28","14:00","1.4","","-5.6","","60","","","","36","","22","","24.1","","101.35","","","","","","Mainly Clear"
"-77.53","44.12","TRENTON A","6158875","2019-11-28 15:00","2019","11","28","15:00","0.3","","-6.0","","63","","","","34","","21","","24.1","","101.44","","","","","","Mostly Cloudy"
"-77.53","44.12","TRENTON A","6158875","2019-11-28 16:00","2019","11","28","16:00","-0.8","","-6.3","","66","","","","1","","13","","24.1","","101.53","","","","-5","","Mostly Cloudy"
"-77.53","44.12","TRENTON A","6158875","2019-11-28 17:00","2019","11","28","17:00","-1.8","","-6.9","","68","","","","2","","15","","24.1","","101.67","","","","-7","","Cloudy"
"-77.53","44.12","TRENTON A","6158875","2019-11-28 18:00","2019","11","28","18:00","-2.2","","-7.3","","68","","","","2","","18","","24.1","","101.75","","","","-8","","Cloudy"
"-77.53","44.12","TRENTON A","6158875","2019-11-28 19:00","2019","11","28","19:00","-2.2","","-7.4","","67","","","","36","","15","","24.1","","101.82","","","","-7","","Cloudy"
"-77.53","44.12","TRENTON A","6158875","2019-11-28 20:00","2019","11","28","20:00","-2.1","","-6.8","","70","","","","3","","15","","24.1","","101.92","","","","-7","","Cloudy"
"-77.53","44.12","TRENTON A","6158875","2019-11-28 21:00","2019","11","28","21:00","-2.1","","-6.8","","70","","","","35","","15","","24.1","","101.98","","","","-7","","Cloudy"
"-77.53","44.12","TRENTON A","6158875","2019-11-28 22:00","2019","11","28","22:00","-2.2","","-6.7","","71","","","","34","","15","","24.1","","102.02","","","","-7","","Cloudy"
"-77.53","44.12","TRENTON A","6158875","2019-11-28 23:00","2019","11","28","23:00","-2.3","","-6.5","","73","","","","36","","11","","24.1","","102.01","","","","-6","","Cloudy"
"-77.53","44.12","TRENTON A","6158875","2019-11-29 00:00","2019","11","29","00:00","-2.9","","-6.4","","77","","","","36","","11","","24.1","","101.95","","","","-7","","Cloudy"
"-77.53","44.12","TRENTON A","6158875","2019-11-29 01:00","2019","11","29","01:00","-2.9","","-6.3","","77","","","","3","","9","","24.1","","101.93","","","","-6","","Cloudy"
"-77.53","44.12","TRENTON A","6158875","2019-11-29 02:00","2019","11","29","02:00","-3.3","","-6.6","","78","","","","4","","8","","24.1","","101.96","","","","-7","","Cloudy"
"-77.53","44.12","TRENTON A","6158875","2019-11-29 03:00","2019","11","29","03:00","-3.4","","-6.8","","77","","","","3","","17","","24.1","","102.00","","","","-9","","Cloudy"
"-77.53","44.12","TRENTON A","6158875","2019-11-29 04:00","2019","11","29","04:00","-3.6","","-6.8","","78","","","","1","","11","","24.1","","101.97","","","","-8","","Cloudy"
"-77.53","44.12","TRENTON A","6158875","2019-11-29 05:00","2019","11","29","05:00","-3.6","","-6.7","","79","","","","4","","9","","24.1","","101.95","","","","-7","","Cloudy"
"-77.53","44.12","TRENTON A","6158875","2019-11-29 06:00","2019","11","29","06:00","-3.8","","-7.2","","77","","","","34","","5","","24.1","","101.98","","","","-6","","Cloudy"
"-77.53","44.12","TRENTON A","6158875","2019-11-29 07:00","2019","11","29","07:00","-4.0","","-7.3","","78","","","","4","","11","","24.1","","101.99","","","","-8","","Cloudy"
"-77.53","44.12","TRENTON A","6158875","2019-11-29 08:00","2019","11","29","08:00","-4.0","","-7.2","","78","","","","3","","11","","24.1","","101.98","","","","-8","","Cloudy"
"-77.53","44.12","TRENTON A","6158875","2019-11-29 09:00","2019","11","29","09:00","-4.0","","-6.8","","81","","","","36","","8","","24.1","","101.94","","","","-7","","Cloudy"
"-77.53","44.12","TRENTON A","6158875","2019-11-29 10:00","2019","11","29","10:00","-3.6","","-6.5","","80","","","","34","","8","","24.1","","101.99","","","","-7","","Cloudy"
"-77.53","44.12","TRENTON A","6158875","2019-11-29 11:00","2019","11","29","11:00","-3.3","","-6.6","","78","","","","33","","9","","24.1","","101.94","","","","-7","","Cloudy"
"-77.53","44.12","TRENTON A","6158875","2019-11-29 12:00","2019","11","29","12:00","-2.9","","-7.1","","73","","","","33","","8","","24.1","","101.88","","","","-6","","Cloudy"
"-77.53","44.12","TRENTON A","6158875","2019-11-29 13:00","2019","11","29","13:00","-2.5","","-6.4","","75","","","","35","","8","","24.1","","101.77","","","","-6","","Cloudy"
"-77.53","44.12","TRENTON A","6158875","2019-11-29 14:00","2019","11","29","14:00","-2.2","","-6.4","","73","","","","35","","11","","24.1","","101.69","","","","-6","","Mostly Cloudy"
"-77.53","44.12","TRENTON A","6158875","2019-11-29 15:00","2019","11","29","15:00","-1.7","","-6.2","","71","","","","34","","8","","24.1","","101.65","","","","-5","","Mostly Cloudy"
"-77.53","44.12","TRENTON A","6158875","2019-11-29 16:00","2019","11","29","16:00","-1.9","","-6.9","","69","","","","34","","4","","24.1","","101.63","","","","-3","","Mostly Cloudy"
"-77.53","44.12","TRENTON A","6158875","2019-11-29 17:00","2019","11","29","17:00","-3.0","","-6.6","","76","","","","","","0","","24.1","","101.61","","","","","","Mostly Cloudy"
"-77.53","44.12","TRENTON A","6158875","2019-11-29 18:00","2019","11","29","18:00","-3.6","","-6.1","","83","","","","","","0","","24.1","","101.61","","","","","","Mostly Cloudy"
"-77.53","44.12","TRENTON A","6158875","2019-11-29 19:00","2019","11","29","19:00","-4.0","","-6.3","","84","","","","4","","5","","24.1","","101.60","","","","-6","","Cloudy"
"-77.53","44.12","TRENTON A","6158875","2019-11-29 20:00","2019","11","29","20:00","-2.9","","-6.6","","76","","","","2","","8","","24.1","","101.58","","","","-6","","Cloudy"
"-77.53","44.12","TRENTON A","6158875","2019-11-29 21:00","2019","11","29","21:00","-3.0","","-7.0","","74","","","","3","","9","","24.1","","101.53","","","","-7","","Cloudy"
"-77.53","44.12","TRENTON A","6158875","2019-11-29 22:00","2019","11","29","22:00","-4.0","","-7.7","","75","","","","2","","9","","24.1","","101.49","","","","-8","","Mainly Clear"
"-77.53","44.12","TRENTON A","6158875","2019-11-29 23:00","2019","11","29","23:00","-4.1","","-7.7","","76","","","","5","","11","","24.1","","101.43","","","","-9","","Mostly Cloudy"
"-77.53","44.12","TRENTON A","6158875","2019-11-30 00:00","2019","11","30","00:00","-4.7","","-8.7","","74","","","","8","","8","","24.1","","101.40","","","","-8","","Mostly Cloudy"
"-77.53","44.12","TRENTON A","6158875","2019-11-30 01:00","2019","11","30","01:00","-6.1","","-9.0","","80","","","","5","","8","","24.1","","101.35","","","","-10","","Mostly Cloudy"
"-77.53","44.12","TRENTON A","6158875","2019-11-30 02:00","2019","11","30","02:00","-5.6","","-9.0","","77","","","","7","","11","","24.1","","101.38","","","","-10","","Mostly Cloudy"
"-77.53","44.12","TRENTON A","6158875","2019-11-30 03:00","2019","11","30","03:00","-6.4","","-9.6","","78","","","","3","","11","","24.1","","101.38","","","","-11","","Mostly Cloudy"
"-77.53","44.12","TRENTON A","6158875","2019-11-30 04:00","2019","11","30","04:00","-7.0","","-10.0","","79","","","","5","","11","","24.1","","101.30","","","","-12","","Mainly Clear"
"-77.53","44.12","TRENTON A","6158875","2019-11-30 05:00","2019","11","30","05:00","-7.0","","-10.2","","78","","","","36","","11","","24.1","","101.37","","","","-12","","Mostly Cloudy"
"-77.53","44.12","TRENTON A","6158875","2019-11-30 06:00","2019","11","30","06:00","-7.5","","-10.3","","80","","","","4","","15","","24.1","","101.33","","","","-14","","Mostly Cloudy"
"-77.53","44.12","TRENTON A","6158875","2019-11-30 07:00","2019","11","30","07:00","-7.2","","-10.2","","79","","","","3","","13","","24.1","","101.33","","","","-13","","Cloudy"
"-77.53","44.12","TRENTON A","6158875","2019-11-30 08:00","2019","11","30","08:00","-7.6","","-10.6","","79","","","","5","","13","","24.1","","101.38","","","","-13","","Mostly Cloudy"
"-77.53","44.12","TRENTON A","6158875","2019-11-30 09:00","2019","11","30","09:00","-7.1","","-10.9","","74","","","","5","","8","","24.1","","101.45","","","","-11","","Mostly Cloudy"
"-77.53","44.12","TRENTON A","6158875","2019-11-30 10:00","2019","11","30","10:00","-6.7","","-10.8","","73","","","","6","","11","","24.1","","101.39","","","","-12","","Mostly Cloudy"
"-77.53","44.12","TRENTON A","6158875","2019-11-30 11:00","2019","11","30","11:00","-6.1","","-10.8","","69","","","","3","","11","","24.1","","101.32","","","","-11","","Mostly Cloudy"
"-77.53","44.12","TRENTON A","6158875","2019-11-30 12:00","2019","11","30","12:00","-4.5","","-11.0","","60","","","","3","","13","","24.1","","101.22","","","","-10","","Mostly Cloudy"
"-77.53","44.12","TRENTON A","6158875","2019-11-30 13:00","2019","11","30","13:00","-3.5","","-11.2","","55","","","","5","","8","","24.1","","101.13","","","","-7","","Mostly Cloudy"
"-77.53","44.12","TRENTON A","6158875","2019-11-30 14:00","2019","11","30","14:00","-2.5","","-10.3","","55","","","","10","","5","","24.1","","101.08","","","","-4","","Mostly Cloudy"
"-77.53","44.12","TRENTON A","6158875","2019-11-30 15:00","2019","11","30","15:00","-1.7","","-10.7","","50","","","","","","0","","24.1","","101.03","","","","","","Mostly Cloudy"
"-77.53","44.12","TRENTON A","6158875","2019-11-30 16:00","2019","11","30","16:00","-2.1","","-10.8","","51","","","","9","","4","","24.1","","101.05","","","","-4","","Mostly Cloudy"
"-77.53","44.12","TRENTON A","6158875","2019-11-30 17:00","2019","11","30","17:00","-3.1","","-10.2","","58","","","","13","","4","","24.1","","101.04","","","","-5","","Mostly Cloudy"
"-77.53","44.12","TRENTON A","6158875","2019-11-30 18:00","2019","11","30","18:00","-4.8","","-10.2","","66","","","","7","","4","","24.1","","101.01","","","","-7","","Cloudy"
"-77.53","44.12","TRENTON A","6158875","2019-11-30 19:00","2019","11","30","19:00","-6.9","","-10.5","","75","","","","3","","8","","24.1","","100.96","","","","-11","","Mostly Cloudy"
"-77.53","44.12","TRENTON A","6158875","2019-11-30 20:00","2019","11","30","20:00","-7.6","","-11.1","","76","","","","4","","11","","24.1","","100.93","","","","-13","","Mainly Clear"
"-77.53","44.12","TRENTON A","6158875","2019-11-30 21:00","2019","11","30","21:00","-6.4","","-11.6","","67","","","","5","","15","","24.1","","100.95","","","","-12","","Mainly Clear"
"-77.53","44.12","TRENTON A","6158875","2019-11-30 22:00","2019","11","30","22:00","-6.8","","-11.6","","69","","","","6","","11","","24.1","","100.89","","","","-12","","Mainly Clear"
"-77.53","44.12","TRENTON A","6158875","2019-11-30 23:00","2019","11","30","23:00","-8.2","","-11.8","","75","","","","5","","13","","24.1","","100.90","","","","-14","","Mainly Clear"
