"Longitude (x)","Latitude (y)","Station Name","Climate ID","Date/Time (LST)","Year","Month","Day","Time (LST)","Temp (°C)","Temp Flag","Dew Point Temp (°C)","Dew Point Temp Flag","Rel Hum (%)","Rel Hum Flag","Precip. Amount (mm)","Precip. Amount Flag","Wind Dir (10s deg)","Wind Dir Flag","Wind Spd (km/h)","Wind Spd Flag","Visibility (km)","Visibility Flag","Stn Press (kPa)","Stn Press Flag","Hmdx","Hmdx Flag","Wind Chill","Wind Chill Flag","Weather"
"-63.12","46.29","CHARLOTTETOWN A","8300301","2018-02-01 00:00","2018","02","01","00:00","-10.9","","-17.2","","60","","","","25","","10","","24.1","","101.09","","","","-16","","NA"
"-63.12","46.29","CHARLOTTETOWN A","8300301","2018-02-01 01:00","2018","02","01","01:00","-11.1","","-16.4","","65","","","","19","","5","","24.1","","101.10","","","","-14","","NA"
"-63.12","46.29","CHARLOTTETOWN A","8300301","2018-02-01 02:00","2018","02","01","02:00","-9.2","","-14.8","","64","","","","21","","9","","24.1","","101.11","","","","-14","","Mostly Cloudy"
"-63.12","46.29","CHARLOTTETOWN A","8300301","2018-02-01 03:00","2018","02","01","03:00","-8.7","","-15.5","","58","","","","23","","5","","24.1","","101.22","","","","-11","","NA"
"-63.12","46.29","CHARLOTTETOWN A","8300301","2018-02-01 04:00","2018","02","01","04:00","-8.0","","-15.0","","58","","","","21","","9","","24.1","","101.24","","","","-13","","NA"
"-63.12","46.29","CHARLOTTETOWN A","8300301","2018-02-01 05:00","2018","02","01","05:00","-7.9","","-12.2","","72","","","","22","","8","","4.8","","101.23","","","","-12","","Snow"
"-63.12","46.29","CHARLOTTETOWN A","8300301","2018-02-01 06:00","2018","02","01","06:00","-8.5","","-9.8","","90","","","","17","","13","","1.6","","101.17","","","","-14","","Snow"
"-63.12","46.29","CHARLOTTETOWN A","8300301","2018-02-01 07:00","2018","02","01","07:00","-8.0","","-9.2","","91","","","","15","","19","","4.8","","101.12","","","","-15","","Snow,Blowing Snow"
"-63.12","46.29","CHARLOTTETOWN A","8300301","2018-02-01 08:00","2018","02","01","08:00","-7.2","","-8.6","","90","","","","15","","17","","24.1","","101.11","","","","-14","","Blowing Snow"
"-63.12","46.29","CHARLOTTETOWN A","8300301","2018-02-01 09:00","2018","02","01","09:00","-5.9","","-7.4","","89","","","","15","","19","","24.1","","101.02","","","","-13","","Blowing Snow"
"-63.12","46.29","CHARLOTTETOWN A","8300301","2018-02-01 10:00","2018","02","01","10:00","-4.4","","-5.6","","91","","","","15","","16","","19.3","","101.01","","","","-10","","Snow,Blowing Snow"
"-63.12","46.29","CHARLOTTETOWN A","8300301","2018-02-01 11:00","2018","02","01","11:00","-1.6","","-2.9","","90","","","","18","","24","","16.1","","101.00","","","","-8","","Snow,Blowing Snow"
"-63.12","46.29","CHARLOTTETOWN A","8300301","2018-02-01 12:00","2018","02","01","12:00","-0.4","","-1.7","","91","","","","20","","21","","4.8","","100.96","","","","-6","","Snow,Blowing Snow"
"-63.12","46.29","CHARLOTTETOWN A","8300301","2018-02-01 13:00","2018","02","01","13:00","-0.1","","-0.8","","95","","","","19","","23","","1.6","","100.90","","","","-6","","Snow,Blowing Snow"
"-63.12","46.29","CHARLOTTETOWN A","8300301","2018-02-01 14:00","2018","02","01","14:00","0.0","","-0.4","","97","","","","19","","17","","1.6","","100.87","","","","-5","","Snow,Blowing Snow"
"-63.12","46.29","CHARLOTTETOWN A","8300301","2018-02-01 15:00","2018","02","01","15:00","0.0","","-0.3","","98","","","","18","","17","","3.2","","100.83","","","","-5","","Snow"
"-63.12","46.29","CHARLOTTETOWN A","8300301","2018-02-01 16:00","2018","02","01","16:00","0.2","","0.0","","98","","","","18","","12","","3.2","","100.86","","","","","","Snow"
"-63.12","46.29","CHARLOTTETOWN A","8300301","2018-02-01 17:00","2018","02","01","17:00","0.2","","0.0","","98","","","","17","","16","","2.4","","100.82","","","","","","Snow"
"-63.12","46.29","CHARLOTTETOWN A","8300301","2018-02-01 18:00","2018","02","01","18:00","0.9","","0.1","","94","","","","18","","22","","24.1","","100.79","","","","","","Rain"
"-63.12","46.29","CHARLOTTETOWN A","8300301","2018-02-01 19:00","2018","02","01","19:00","1.5","","0.4","","93","","","","17","","24","","24.1","","100.73","","","","","","Rain"
"-63.12","46.29","CHARLOTTETOWN A","8300301","2018-02-01 20:00","2018","02","01","20:00","1.5","","0.5","","93","","","","18","","31","","24.1","","100.70","","","","","","Mostly Cloudy"
"-63.12","46.29","CHARLOTTETOWN A","8300301","2018-02-01 21:00","2018","02","01","21:00","1.4","","0.7","","95","","","","17","","21","","24.1","","100.66","","","","","","NA"
"-63.12","46.29","CHARLOTTETOWN A","8300301","2018-02-01 22:00","2018","02","01","22:00","1.6","","0.6","","93","","","","18","","18","","24.1","","100.62","","","","","","NA"
"-63.12","46.29","CHARLOTTETOWN A","8300301","2018-02-01 23:00","2018","02","01","23:00","1.8","","0.5","","91","","","","18","","18","","24.1","","100.58","","","","","","Cloudy"
"-63.12","46.29","CHARLOTTETOWN A","8300301","2018-02-02 00:00","2018","02","02","00:00","2.4","","1.1","","91","","","","20","","17","","24.1","","100.58","","","","","","NA"
"-63.12","46.29","CHARLOTTETOWN A","8300301","2018-02-02 01:00","2018","02","02","01:00","2.3","","1.1","","92","","","","19","","18","","24.1","","100.55","","","","","","NA"
"-63.12","46.29","CHARLOTTETOWN A","8300301","2018-02-02 02:00","2018","02","02","02:00","1.7","","0.8","","94","","","","16","","18","","24.1","","100.52","","","","","","Cloudy"
"-63.12","46.29","CHARLOTTETOWN A","8300301","2018-02-02 03:00","2018","02","02","03:00","1.8","","0.8","","93","","","","18","","13","","24.1","","100.52","","","","","","Rain"
"-63.12","46.29","CHARLOTTETOWN A","8300301","2018-02-02 04:00","2018","02","02","04:00","1.6","","1.0","","96","","","","18","","15","","19.3","","100.47","","","","","","Rain"
"-63.12","46.29","CHARLOTTETOWN A","8300301","2018-02-02 05:00","2018","02","02","05:00","1.4","","1.2","","98","","","","16","","8","","19.3","","100.39","","","","","","Rain"
"-63.12","46.29","CHARLOTTETOWN A","8300301","2018-02-02 06:00","2018","02","02","06:00","2.1","","1.8","","98","","","","16","","16","","19.3","","100.28","","","","","","Rain"
"-63.12","46.29","CHARLOTTETOWN A","8300301","2018-02-02 07:00","2018","02","02","07:00","1.8","","1.7","","99","","","","15","","12","","9.7","","100.15","","","","","","Rain,Fog"
"-63.12","46.29","CHARLOTTETOWN A","8300301","2018-02-02 08:00","2018","02","02","08:00","2.4","","2.2","","99","","","","15","","18","","6.4","","100.02","","","","","","Rain,Fog"
"-63.12","46.29","CHARLOTTETOWN A","8300301","2018-02-02 09:00","2018","02","02","09:00","2.4","","2.2","","98","","","","16","","14","","9.7","","99.87","","","","","","Rain,Fog"
"-63.12","46.29","CHARLOTTETOWN A","8300301","2018-02-02 10:00","2018","02","02","10:00","2.7","","2.3","","98","","","","15","","14","","8.1","","99.68","","","","","","Rain,Fog"
"-63.12","46.29","CHARLOTTETOWN A","8300301","2018-02-02 11:00","2018","02","02","11:00","2.7","","2.5","","98","","","","16","","16","","8.1","","99.48","","","","","","Rain,Fog"
"-63.12","46.29","CHARLOTTETOWN A","8300301","2018-02-02 12:00","2018","02","02","12:00","2.7","","2.4","","98","","","","15","","16","","8.1","","99.25","","","","","","Rain,Fog"
"-63.12","46.29","CHARLOTTETOWN A","8300301","2018-02-02 13:00","2018","02","02","13:00","2.9","","2.6","","98","","","","16","","15","","8.1","","99.05","","","","","","Rain,Fog"
"-63.12","46.29","CHARLOTTETOWN A","8300301","2018-02-02 14:00","2018","02","02","14:00","3.0","","2.9","","99","","","","16","","16","","1.6","","98.79","","","","","","Rain,Fog"
"-63.12","46.29","CHARLOTTETOWN A","8300301","2018-02-02 15:00","2018","02","02","15:00","4.1","","4.0","","99","","","","22","","18","","2.4","","98.59","","","","","","Rain,Fog"
"-63.12","46.29","CHARLOTTETOWN A","8300301","2018-02-02 16:00","2018","02","02","16:00","3.2","","2.7","","96","","","","28","","14","","6.4","","98.65","","","","","","Rain,Fog"
"-63.12","46.29","CHARLOTTETOWN A","8300301","2018-02-02 17:00","2018","02","02","17:00","-2.4","","-3.3","","93","","","","30","","29","","1.6","","98.69","","","","-9","","Snow"
"-63.12","46.29","CHARLOTTETOWN A","8300301","2018-02-02 18:00","2018","02","02","18:00","-5.5","","-7.1","","89","","","","31","","43","","0.8","","98.98","","","","-15","","Snow,Blowing Snow"
"-63.12","46.29","CHARLOTTETOWN A","8300301","2018-02-02 19:00","2018","02","02","19:00","-6.7","","-8.8","","86","","","","30","","29","","12.9","","99.16","","","","-15","","Snow,Blowing Snow"
"-63.12","46.29","CHARLOTTETOWN A","8300301","2018-02-02 20:00","2018","02","02","20:00","-8.3","","-11.1","","80","","","","29","","34","","16.1","","99.33","","","","-18","","Snow,Blowing Snow"
"-63.12","46.29","CHARLOTTETOWN A","8300301","2018-02-02 21:00","2018","02","02","21:00","-10.1","","-12.9","","80","","","","30","","31","","12.9","","99.48","","","","-20","","Snow,Blowing Snow"
"-63.12","46.29","CHARLOTTETOWN A","8300301","2018-02-02 22:00","2018","02","02","22:00","-10.8","","-13.5","","81","","","","29","","22","","8.1","","99.60","","","","-19","","Snow Showers,Blowing Snow"
"-63.12","46.29","CHARLOTTETOWN A","8300301","2018-02-02 23:00","2018","02","02","23:00","-11.6","","-16.1","","70","","","","30","","33","","16.1","","99.74","","","","-22","","Snow Showers,Blowing Snow"
"-63.12","46.29","CHARLOTTETOWN A","8300301","2018-02-03 00:00","2018","02","03","00:00","-13.1","","-17.7","","69","","","","29","","23","","19.3","","99.84","","","","-22","","Snow Showers,Blowing Snow"
"-63.12","46.29","CHARLOTTETOWN A","8300301","2018-02-03 01:00","2018","02","03","01:00","-13.6","","-18.2","","68","","","","28","","31","","12.9","","99.98","","","","-24","","Snow Showers,Blowing Snow"
"-63.12","46.29","CHARLOTTETOWN A","8300301","2018-02-03 02:00","2018","02","03","02:00","-14.5","","-19.3","","67","","","","28","","33","","16.1","","100.06","","","","-26","","Snow Showers,Blowing Snow"
"-63.12","46.29","CHARLOTTETOWN A","8300301","2018-02-03 03:00","2018","02","03","03:00","-15.0","","-19.5","","69","","","","27","","36","","16.1","","100.18","","","","-27","","Snow Showers,Blowing Snow"
"-63.12","46.29","CHARLOTTETOWN A","8300301","2018-02-03 04:00","2018","02","03","04:00","-15.8","","-20.4","","68","","","","28","","34","","16.1","","100.31","","","","-28","","Snow Showers,Blowing Snow"
"-63.12","46.29","CHARLOTTETOWN A","8300301","2018-02-03 05:00","2018","02","03","05:00","-16.4","","-20.6","","70","","","","28","","19","","24.1","","100.44","","","","-26","","Mainly Clear"
"-63.12","46.29","CHARLOTTETOWN A","8300301","2018-02-03 06:00","2018","02","03","06:00","-16.9","","-21.3","","69","","","","28","","23","","24.1","","100.59","","","","-27","","NA"
"-63.12","46.29","CHARLOTTETOWN A","8300301","2018-02-03 07:00","2018","02","03","07:00","-17.3","","-21.6","","70","","","","28","","21","","24.1","","100.72","","","","-27","","NA"
"-63.12","46.29","CHARLOTTETOWN A","8300301","2018-02-03 08:00","2018","02","03","08:00","-17.4","","-22.2","","67","","","","28","","22","","24.1","","100.85","","","","-28","","Mainly Clear"
"-63.12","46.29","CHARLOTTETOWN A","8300301","2018-02-03 09:00","2018","02","03","09:00","-17.3","","-22.5","","64","","","","28","","28","","24.1","","100.99","","","","-29","","NA"
"-63.12","46.29","CHARLOTTETOWN A","8300301","2018-02-03 10:00","2018","02","03","10:00","-17.1","","-22.4","","64","","","","30","","28","","24.1","","101.13","","","","-28","","NA"
"-63.12","46.29","CHARLOTTETOWN A","8300301","2018-02-03 11:00","2018","02","03","11:00","-16.5","","-21.9","","64","","","","27","","25","","24.1","","101.26","","","","-27","","Mostly Cloudy"
"-63.12","46.29","CHARLOTTETOWN A","8300301","2018-02-03 12:00","2018","02","03","12:00","-16.4","","-22.3","","61","","","","29","","24","","24.1","","101.30","","","","-27","","NA"
"-63.12","46.29","CHARLOTTETOWN A","8300301","2018-02-03 13:00","2018","02","03","13:00","-16.1","","-21.8","","62","","","","26","","26","","24.1","","101.33","","","","-27","","NA"
"-63.12","46.29","CHARLOTTETOWN A","8300301","2018-02-03 14:00","2018","02","03","14:00","-16.1","","-21.8","","62","","","","27","","29","","24.1","","101.40","","","","-27","","Mostly Cloudy"
"-63.12","46.29","CHARLOTTETOWN A","8300301","2018-02-03 15:00","2018","02","03","15:00","-15.8","","-21.4","","63","","","","26","","22","","24.1","","101.51","","","","-26","","NA"
"-63.12","46.29","CHARLOTTETOWN A","8300301","2018-02-03 16:00","2018","02","03","16:00","-16.2","","-21.8","","62","","","","27","","19","","24.1","","101.61","","","","-25","","NA"
"-63.12","46.29","CHARLOTTETOWN A","8300301","2018-02-03 17:00","2018","02","03","17:00","-16.7","","-22.1","","63","","","","25","","21","","24.1","","101.73","","","","-27","","Mainly Clear"
"-63.12","46.29","CHARLOTTETOWN A","8300301","2018-02-03 18:00","2018","02","03","18:00","-16.7","","-21.7","","66","","","","26","","16","","24.1","","101.87","","","","-25","","NA"
"-63.12","46.29","CHARLOTTETOWN A","8300301","2018-02-03 19:00","2018","02","03","19:00","-16.9","","-21.9","","66","","","","25","","17","","24.1","","102.03","","","","-26","","Snow"
"-63.12","46.29","CHARLOTTETOWN A","8300301","2018-02-03 20:00","2018","02","03","20:00","-17.0","","-21.4","","69","","","","26","","17","","24.1","","102.17","","","","-26","","Mainly Clear"
"-63.12","46.29","CHARLOTTETOWN A","8300301","2018-02-03 21:00","2018","02","03","21:00","-17.0","","-21.2","","70","","","","26","","17","","24.1","","102.28","","","","-26","","NA"
"-63.12","46.29","CHARLOTTETOWN A","8300301","2018-02-03 22:00","2018","02","03","22:00","-16.9","","-21.0","","71","","","","26","","10","","24.1","","102.40","","","","-24","","NA"
"-63.12","46.29","CHARLOTTETOWN A","8300301","2018-02-03 23:00","2018","02","03","23:00","-16.8","","-20.9","","71","","","","25","","12","","24.1","","102.47","","","","-24","","Mainly Clear"
"-63.12","46.29","CHARLOTTETOWN A","8300301","2018-02-04 00:00","2018","02","04","00:00","-16.5","","-20.8","","70","","","","25","","6","","24.1","","102.54","","","","-21","","NA"
"-63.12","46.29","CHARLOTTETOWN A","8300301","2018-02-04 01:00","2018","02","04","01:00","-16.0","","-20.4","","70","","","","19","","4","","24.1","","102.53","","","","-19","","NA"
"-63.12","46.29","CHARLOTTETOWN A","8300301","2018-02-04 02:00","2018","02","04","02:00","-16.7","","-19.5","","79","","","","15","","9","","24.1","","102.55","","","","-23","","Clear"
"-63.12","46.29","CHARLOTTETOWN A","8300301","2018-02-04 03:00","2018","02","04","03:00","-15.9","","-18.1","","83","","","","15","","12","","24.1","","102.59","","","","-23","","NA"
"-63.12","46.29","CHARLOTTETOWN A","8300301","2018-02-04 04:00","2018","02","04","04:00","-14.5","","-17.5","","78","","","","16","","15","","24.1","","102.57","","","","-22","","NA"
"-63.12","46.29","CHARLOTTETOWN A","8300301","2018-02-04 05:00","2018","02","04","05:00","-13.9","","-17.2","","76","","","","16","","19","","24.1","","102.65","","","","-23","","Mainly Clear"
"-63.12","46.29","CHARLOTTETOWN A","8300301","2018-02-04 06:00","2018","02","04","06:00","-12.9","","-16.6","","75","","","","16","","21","","24.1","","102.63","","","","-22","","NA"
"-63.12","46.29","CHARLOTTETOWN A","8300301","2018-02-04 07:00","2018","02","04","07:00","-11.9","","-16.2","","71","","","","15","","23","","19.3","","102.58","","","","-21","","Snow"
"-63.12","46.29","CHARLOTTETOWN A","8300301","2018-02-04 08:00","2018","02","04","08:00","-11.4","","-14.4","","79","","","","14","","22","","6.4","","102.53","","","","-20","","Snow"
"-63.12","46.29","CHARLOTTETOWN A","8300301","2018-02-04 09:00","2018","02","04","09:00","-9.8","","-13.0","","78","","","","15","","30","","4.0","","102.47","","","","-19","","Snow,Blowing Snow"
"-63.12","46.29","CHARLOTTETOWN A","8300301","2018-02-04 10:00","2018","02","04","10:00","-8.2","","-11.1","","80","","","","15","","35","","9.7","","102.37","","","","-18","","Snow,Blowing Snow"
"-63.12","46.29","CHARLOTTETOWN A","8300301","2018-02-04 11:00","2018","02","04","11:00","-6.5","","-8.2","","88","","","","16","","44","","8.1","","102.25","","","","-16","","Snow,Blowing Snow"
"-63.12","46.29","CHARLOTTETOWN A","8300301","2018-02-04 12:00","2018","02","04","12:00","-4.4","","-6.0","","89","","","","16","","35","","11.3","","102.17","","","","-13","","Snow,Blowing Snow"
"-63.12","46.29","CHARLOTTETOWN A","8300301","2018-02-04 13:00","2018","02","04","13:00","-2.7","","-4.0","","91","","","","17","","30","","12.9","","102.08","","","","-10","","Snow"
"-63.12","46.29","CHARLOTTETOWN A","8300301","2018-02-04 14:00","2018","02","04","14:00","-0.3","","-1.6","","91","","","","18","","35","","19.3","","102.01","","","","-7","","Snow"
"-63.12","46.29","CHARLOTTETOWN A","8300301","2018-02-04 15:00","2018","02","04","15:00","0.3","","-0.9","","91","","","","17","","37","","19.3","","101.99","","","","","","NA"
"-63.12","46.29","CHARLOTTETOWN A","8300301","2018-02-04 16:00","2018","02","04","16:00","0.9","","-0.8","","88","","","","18","","28","","24.1","","101.96","","","","","","NA"
"-63.12","46.29","CHARLOTTETOWN A","8300301","2018-02-04 17:00","2018","02","04","17:00","1.3","","-0.5","","88","","","","18","","33","","24.1","","101.93","","","","","","Mostly Cloudy"
"-63.12","46.29","CHARLOTTETOWN A","8300301","2018-02-04 18:00","2018","02","04","18:00","1.4","","-0.4","","88","","","","17","","32","","24.1","","101.91","","","","","","NA"
"-63.12","46.29","CHARLOTTETOWN A","8300301","2018-02-04 19:00","2018","02","04","19:00","1.8","","-0.2","","87","","","","17","","33","","24.1","","101.85","","","","","","NA"
"-63.12","46.29","CHARLOTTETOWN A","8300301","2018-02-04 20:00","2018","02","04","20:00","2.1","","0.0","","86","","","","17","","34","","24.1","","101.82","","","","","","Cloudy"
"-63.12","46.29","CHARLOTTETOWN A","8300301","2018-02-04 21:00","2018","02","04","21:00","1.5","","0.2","","91","","","","17","","23","","24.1","","101.75","","","","","","NA"
"-63.12","46.29","CHARLOTTETOWN A","8300301","2018-02-04 22:00","2018","02","04","22:00","2.0","","0.3","","89","","","","16","","35","","24.1","","101.66","","","","","","NA"
"-63.12","46.29","CHARLOTTETOWN A","8300301","2018-02-04 23:00","2018","02","04","23:00","2.0","","1.1","","93","","","","16","","32","","24.1","","101.55","","","","","","Cloudy"
"-63.12","46.29","CHARLOTTETOWN A","8300301","2018-02-05 00:00","2018","02","05","00:00","2.5","","1.6","","94","","","","16","","27","","16.1","","101.40","","","","","","Rain"
"-63.12","46.29","CHARLOTTETOWN A","8300301","2018-02-05 01:00","2018","02","05","01:00","2.4","","1.8","","96","","","","17","","29","","9.7","","101.25","","","","","","Rain,Fog"
"-63.12","46.29","CHARLOTTETOWN A","8300301","2018-02-05 02:00","2018","02","05","02:00","2.8","","2.2","","96","","","","16","","28","","9.7","","101.04","","","","","","Rain,Fog"
"-63.12","46.29","CHARLOTTETOWN A","8300301","2018-02-05 03:00","2018","02","05","03:00","3.5","","2.5","","93","","","","16","","35","","9.7","","100.82","","","","","","Rain,Fog"
"-63.12","46.29","CHARLOTTETOWN A","8300301","2018-02-05 04:00","2018","02","05","04:00","3.6","","2.9","","95","","","","16","","37","","8.1","","100.57","","","","","","Rain,Fog"
"-63.12","46.29","CHARLOTTETOWN A","8300301","2018-02-05 05:00","2018","02","05","05:00","4.6","","4.1","","96","","","","15","","34","","8.1","","100.33","","","","","","Rain,Fog"
"-63.12","46.29","CHARLOTTETOWN A","8300301","2018-02-05 06:00","2018","02","05","06:00","5.3","","4.9","","97","","","","15","","29","","8.1","","100.07","","","","","","Rain,Fog"
"-63.12","46.29","CHARLOTTETOWN A","8300301","2018-02-05 07:00","2018","02","05","07:00","6.0","","5.5","","97","","","","15","","32","","8.1","","99.70","","","","","","Rain,Fog"
"-63.12","46.29","CHARLOTTETOWN A","8300301","2018-02-05 08:00","2018","02","05","08:00","6.7","","6.1","","96","","","","15","","44","","12.9","","99.39","","","","","","Rain"
"-63.12","46.29","CHARLOTTETOWN A","8300301","2018-02-05 09:00","2018","02","05","09:00","6.9","","6.5","","97","","","","16","","46","","16.1","","99.22","","","","","","Rain"
"-63.12","46.29","CHARLOTTETOWN A","8300301","2018-02-05 10:00","2018","02","05","10:00","6.7","","6.5","","99","","","","16","","36","","6.4","","99.10","","","","","","Rain,Fog"
"-63.12","46.29","CHARLOTTETOWN A","8300301","2018-02-05 11:00","2018","02","05","11:00","7.5","","7.3","","99","","","","17","","35","","8.1","","98.95","","","","","","Rain,Fog"
"-63.12","46.29","CHARLOTTETOWN A","8300301","2018-02-05 12:00","2018","02","05","12:00","7.7","","7.6","","99","","","","18","","33","","0.8","","98.82","","","","","","Rain,Fog"
"-63.12","46.29","CHARLOTTETOWN A","8300301","2018-02-05 13:00","2018","02","05","13:00","7.5","","7.5","","100","","","","18","","27","","0.4","","98.70","","","","","","Fog"
"-63.12","46.29","CHARLOTTETOWN A","8300301","2018-02-05 14:00","2018","02","05","14:00","8.2","","8.1","","100","","","","21","","23","","6.4","","98.66","","","","","","Rain,Fog"
"-63.12","46.29","CHARLOTTETOWN A","8300301","2018-02-05 15:00","2018","02","05","15:00","7.1","","6.8","","98","","","","25","","20","","3.2","","98.78","","","","","","Rain,Fog"
"-63.12","46.29","CHARLOTTETOWN A","8300301","2018-02-05 16:00","2018","02","05","16:00","5.6","","4.8","","94","","","","30","","26","","8.1","","98.95","","","","","","Drizzle,Fog"
"-63.12","46.29","CHARLOTTETOWN A","8300301","2018-02-05 17:00","2018","02","05","17:00","4.3","","3.5","","94","","","","30","","23","","12.9","","99.13","","","","","","Rain Showers"
"-63.12","46.29","CHARLOTTETOWN A","8300301","2018-02-05 18:00","2018","02","05","18:00","3.4","","1.4","","87","","","","29","","23","","24.1","","99.35","","","","","","NA"
"-63.12","46.29","CHARLOTTETOWN A","8300301","2018-02-05 19:00","2018","02","05","19:00","1.9","","-0.9","","82","","","","30","","23","","19.3","","99.62","","","","","","NA"
"-63.12","46.29","CHARLOTTETOWN A","8300301","2018-02-05 20:00","2018","02","05","20:00","1.3","","-1.3","","83","","","","30","","18","","24.1","","99.89","","","","","","Cloudy"
"-63.12","46.29","CHARLOTTETOWN A","8300301","2018-02-05 21:00","2018","02","05","21:00","-0.1","","-3.9","","76","","","","31","","26","","24.1","","100.15","","","","-6","","NA"
"-63.12","46.29","CHARLOTTETOWN A","8300301","2018-02-05 22:00","2018","02","05","22:00","-1.8","","-7.2","","67","","","","30","","35","","24.1","","100.41","","","","-9","","NA"
"-63.12","46.29","CHARLOTTETOWN A","8300301","2018-02-05 23:00","2018","02","05","23:00","-3.3","","-12.2","","51","","","","30","","34","","24.1","","100.62","","","","-11","","Mainly Clear"
"-63.12","46.29","CHARLOTTETOWN A","8300301","2018-02-06 00:00","2018","02","06","00:00","-4.5","","-12.0","","56","","","","29","","28","","24.1","","100.82","","","","-12","","NA"
"-63.12","46.29","CHARLOTTETOWN A","8300301","2018-02-06 01:00","2018","02","06","01:00","-6.0","","-14.5","","51","","","","29","","21","","24.1","","101.04","","","","-13","","NA"
"-63.12","46.29","CHARLOTTETOWN A","8300301","2018-02-06 02:00","2018","02","06","02:00","-6.7","","-14.4","","55","","","","29","","26","","24.1","","101.19","","","","-15","","Clear"
"-63.12","46.29","CHARLOTTETOWN A","8300301","2018-02-06 03:00","2018","02","06","03:00","-7.6","","-15.4","","54","","","","30","","27","","24.1","","101.36","","","","-16","","NA"
"-63.12","46.29","CHARLOTTETOWN A","8300301","2018-02-06 04:00","2018","02","06","04:00","-8.1","","-14.9","","58","","","","29","","18","","24.1","","101.57","","","","-15","","NA"
"-63.12","46.29","CHARLOTTETOWN A","8300301","2018-02-06 05:00","2018","02","06","05:00","-8.7","","-16.4","","54","","","","29","","15","","24.1","","101.73","","","","-15","","Clear"
"-63.12","46.29","CHARLOTTETOWN A","8300301","2018-02-06 06:00","2018","02","06","06:00","-9.3","","-17.0","","54","","","","30","","15","","24.1","","101.87","","","","-16","","NA"
"-63.12","46.29","CHARLOTTETOWN A","8300301","2018-02-06 07:00","2018","02","06","07:00","-9.8","","-17.6","","53","","","","30","","10","","24.1","","101.98","","","","-15","","NA"
"-63.12","46.29","CHARLOTTETOWN A","8300301","2018-02-06 08:00","2018","02","06","08:00","-9.9","","-16.5","","59","","","","0","","1","","24.1","","102.05","","","","-10","","Mainly Clear"
"-63.12","46.29","CHARLOTTETOWN A","8300301","2018-02-06 09:00","2018","02","06","09:00","-8.8","","-16.8","","53","","","","23","","6","","24.1","","102.11","","","","-12","","NA"
"-63.12","46.29","CHARLOTTETOWN A","8300301","2018-02-06 10:00","2018","02","06","10:00","-8.0","","-15.7","","55","","","","22","","7","","24.1","","102.12","","","","-12","","NA"
"-63.12","46.29","CHARLOTTETOWN A","8300301","2018-02-06 11:00","2018","02","06","11:00","-7.2","","-14.9","","55","","","","20","","13","","24.1","","102.21","","","","-13","","Mostly Cloudy"
"-63.12","46.29","CHARLOTTETOWN A","8300301","2018-02-06 12:00","2018","02","06","12:00","-6.9","","-14.3","","56","","","","19","","14","","24.1","","102.21","","","","-13","","NA"
"-63.12","46.29","CHARLOTTETOWN A","8300301","2018-02-06 13:00","2018","02","06","13:00","-6.6","","-13.8","","57","","","","19","","16","","24.1","","102.21","","","","-13","","NA"
"-63.12","46.29","CHARLOTTETOWN A","8300301","2018-02-06 14:00","2018","02","06","14:00","-6.1","","-12.7","","60","","","","19","","16","","24.1","","102.17","","","","-12","","Cloudy"
"-63.12","46.29","CHARLOTTETOWN A","8300301","2018-02-06 15:00","2018","02","06","15:00","-6.0","","-11.5","","65","","","","17","","10","","24.1","","102.15","","","","-10","","NA"
"-63.12","46.29","CHARLOTTETOWN A","8300301","2018-02-06 16:00","2018","02","06","16:00","-6.0","","-11.7","","64","","","","18","","10","","24.1","","102.19","","","","-10","","NA"
"-63.12","46.29","CHARLOTTETOWN A","8300301","2018-02-06 17:00","2018","02","06","17:00","-5.7","","-10.7","","68","","","","16","","10","","24.1","","102.24","","","","-10","","Cloudy"
"-63.12","46.29","CHARLOTTETOWN A","8300301","2018-02-06 18:00","2018","02","06","18:00","-4.8","","-9.7","","69","","","","18","","12","","24.1","","102.24","","","","-10","","NA"
"-63.12","46.29","CHARLOTTETOWN A","8300301","2018-02-06 19:00","2018","02","06","19:00","-4.5","","-8.9","","71","","","","22","","12","","24.1","","102.28","","","","-9","","NA"
"-63.12","46.29","CHARLOTTETOWN A","8300301","2018-02-06 20:00","2018","02","06","20:00","-4.7","","-8.9","","73","","","","22","","9","","24.1","","102.30","","","","-9","","Cloudy"
"-63.12","46.29","CHARLOTTETOWN A","8300301","2018-02-06 21:00","2018","02","06","21:00","-4.7","","-8.7","","74","","","","23","","5","","24.1","","102.33","","","","-7","","NA"
"-63.12","46.29","CHARLOTTETOWN A","8300301","2018-02-06 22:00","2018","02","06","22:00","-4.6","","-8.4","","75","","","","22","","8","","19.3","","102.38","","","","-8","","Snow"
"-63.12","46.29","CHARLOTTETOWN A","8300301","2018-02-06 23:00","2018","02","06","23:00","-5.1","","-7.2","","85","","","","18","","5","","12.9","","102.39","","","","-7","","Snow"
"-63.12","46.29","CHARLOTTETOWN A","8300301","2018-02-07 00:00","2018","02","07","00:00","-5.2","","-6.9","","88","","","","36","","2","","19.3","","102.40","","","","-6","","Snow"
"-63.12","46.29","CHARLOTTETOWN A","8300301","2018-02-07 01:00","2018","02","07","01:00","-5.2","","-6.6","","90","","","","36","","2","","12.9","","102.44","","","","-6","","Snow"
"-63.12","46.29","CHARLOTTETOWN A","8300301","2018-02-07 02:00","2018","02","07","02:00","-5.2","","-6.5","","91","","","","1","","3","","16.1","","102.50","","","","-7","","Snow"
"-63.12","46.29","CHARLOTTETOWN A","8300301","2018-02-07 03:00","2018","02","07","03:00","-5.2","","-6.4","","91","","","","25","","4","","16.1","","102.56","","","","-7","","Snow"
"-63.12","46.29","CHARLOTTETOWN A","8300301","2018-02-07 04:00","2018","02","07","04:00","-5.3","","-6.5","","92","","","","25","","5","","24.1","","102.60","","","","-8","","NA"
"-63.12","46.29","CHARLOTTETOWN A","8300301","2018-02-07 05:00","2018","02","07","05:00","-6.7","","-7.7","","93","","","","27","","8","","24.1","","102.69","","","","-11","","Mostly Cloudy"
"-63.12","46.29","CHARLOTTETOWN A","8300301","2018-02-07 06:00","2018","02","07","06:00","-7.5","","-8.5","","93","","","","27","","11","","24.1","","102.71","","","","-13","","NA"
"-63.12","46.29","CHARLOTTETOWN A","8300301","2018-02-07 07:00","2018","02","07","07:00","-8.1","","-9.4","","90","","","","27","","8","","24.1","","102.78","","","","-12","","NA"
"-63.12","46.29","CHARLOTTETOWN A","8300301","2018-02-07 08:00","2018","02","07","08:00","-8.5","","-10.1","","88","","","","31","","8","","24.1","","102.83","","","","-13","","Clear"
"-63.12","46.29","CHARLOTTETOWN A","8300301","2018-02-07 09:00","2018","02","07","09:00","-7.0","","-9.4","","83","","","","31","","11","","24.1","","102.92","","","","-12","","NA"
"-63.12","46.29","CHARLOTTETOWN A","8300301","2018-02-07 10:00","2018","02","07","10:00","-5.7","","-8.7","","79","","","","33","","12","","24.1","","102.93","","","","-11","","NA"
"-63.12","46.29","CHARLOTTETOWN A","8300301","2018-02-07 11:00","2018","02","07","11:00","-4.9","","-8.6","","75","","","","3","","9","","24.1","","102.92","","","","-9","","Cloudy"
"-63.12","46.29","CHARLOTTETOWN A","8300301","2018-02-07 12:00","2018","02","07","12:00","-4.3","","-8.8","","71","","","","3","","3","","24.1","","102.85","","","","-6","","NA"
"-63.12","46.29","CHARLOTTETOWN A","8300301","2018-02-07 13:00","2018","02","07","13:00","-4.5","","-9.7","","67","","","","36","","2","","24.1","","102.72","","","","-5","","NA"
"-63.12","46.29","CHARLOTTETOWN A","8300301","2018-02-07 14:00","2018","02","07","14:00","-4.1","","-9.4","","67","","","","5","","5","","24.1","","102.65","","","","-6","","Cloudy"
"-63.12","46.29","CHARLOTTETOWN A","8300301","2018-02-07 15:00","2018","02","07","15:00","-4.4","","-10.3","","64","","","","15","","6","","24.1","","102.54","","","","-7","","NA"
"-63.12","46.29","CHARLOTTETOWN A","8300301","2018-02-07 16:00","2018","02","07","16:00","-4.5","","-9.1","","71","","","","18","","8","","24.1","","102.54","","","","-8","","NA"
"-63.12","46.29","CHARLOTTETOWN A","8300301","2018-02-07 17:00","2018","02","07","17:00","-4.6","","-8.4","","75","","","","10","","9","","24.1","","102.47","","","","-8","","Cloudy"
"-63.12","46.29","CHARLOTTETOWN A","8300301","2018-02-07 18:00","2018","02","07","18:00","-4.9","","-7.7","","80","","","","6","","12","","24.1","","102.38","","","","-10","","NA"
"-63.12","46.29","CHARLOTTETOWN A","8300301","2018-02-07 19:00","2018","02","07","19:00","-4.8","","-7.2","","84","","","","8","","12","","8.1","","102.17","","","","-10","","Snow"
"-63.12","46.29","CHARLOTTETOWN A","8300301","2018-02-07 20:00","2018","02","07","20:00","-5.4","","-6.9","","89","","","","10","","13","","3.2","","101.99","","","","-11","","Snow"
"-63.12","46.29","CHARLOTTETOWN A","8300301","2018-02-07 21:00","2018","02","07","21:00","-4.9","","-5.7","","94","","","","10","","13","","2.4","","101.84","","","","-10","","Snow"
"-63.12","46.29","CHARLOTTETOWN A","8300301","2018-02-07 22:00","2018","02","07","22:00","-4.6","","-5.4","","94","","","","9","","15","","2.4","","101.52","","","","-10","","Snow"
"-63.12","46.29","CHARLOTTETOWN A","8300301","2018-02-07 23:00","2018","02","07","23:00","-4.4","","-5.1","","95","","","","8","","22","","0.8","","101.11","","","","-11","","Moderate Snow"
"-63.12","46.29","CHARLOTTETOWN A","8300301","2018-02-08 00:00","2018","02","08","00:00","-3.5","","-4.3","","94","","","","9","","19","","0.8","","100.78","","","","-9","","Moderate Snow"
"-63.12","46.29","CHARLOTTETOWN A","8300301","2018-02-08 01:00","2018","02","08","01:00","-1.8","","-2.4","","95","","","","12","","27","","4.8","","100.37","","","","-8","","Freezing Rain,Ice Pellets"
"-63.12","46.29","CHARLOTTETOWN A","8300301","2018-02-08 02:00","2018","02","08","02:00","0.3","","0.0","","97","","","","13","","29","","9.7","","99.90","","","","","","Rain"
"-63.12","46.29","CHARLOTTETOWN A","8300301","2018-02-08 03:00","2018","02","08","03:00","2.1","","1.9","","98","","","","17","","25","","12.9","","99.70","","","","","","Rain"
"-63.12","46.29","CHARLOTTETOWN A","8300301","2018-02-08 04:00","2018","02","08","04:00","2.7","","2.6","","99","","","","19","","15","","16.1","","99.56","","","","","","Rain"
"-63.12","46.29","CHARLOTTETOWN A","8300301","2018-02-08 05:00","2018","02","08","05:00","5.3","","5.1","","99","","","","22","","25","","12.9","","99.54","","","","","","Rain"
"-63.12","46.29","CHARLOTTETOWN A","8300301","2018-02-08 06:00","2018","02","08","06:00","1.5","","0.7","","95","","","","27","","28","","16.1","","99.67","","","","","","Rain"
"-63.12","46.29","CHARLOTTETOWN A","8300301","2018-02-08 07:00","2018","02","08","07:00","-1.0","","-2.2","","92","","","","29","","25","","16.1","","99.91","","","","-7","","Snow"
"-63.12","46.29","CHARLOTTETOWN A","8300301","2018-02-08 08:00","2018","02","08","08:00","-3.3","","-4.6","","91","","","","32","","35","","24.1","","100.21","","","","-11","","Snow"
"-63.12","46.29","CHARLOTTETOWN A","8300301","2018-02-08 09:00","2018","02","08","09:00","-4.1","","-5.6","","89","","","","33","","31","","19.3","","100.39","","","","-12","","Snow"
"-63.12","46.29","CHARLOTTETOWN A","8300301","2018-02-08 10:00","2018","02","08","10:00","-4.8","","-6.5","","88","","","","33","","30","","16.1","","100.59","","","","-13","","Snow,Blowing Snow"
"-63.12","46.29","CHARLOTTETOWN A","8300301","2018-02-08 11:00","2018","02","08","11:00","-5.0","","-7.0","","86","","","","33","","27","","6.4","","100.72","","","","-13","","Snow,Blowing Snow"
"-63.12","46.29","CHARLOTTETOWN A","8300301","2018-02-08 12:00","2018","02","08","12:00","-5.2","","-7.7","","83","","","","34","","22","","12.9","","100.81","","","","-12","","Snow,Blowing Snow"
"-63.12","46.29","CHARLOTTETOWN A","8300301","2018-02-08 13:00","2018","02","08","13:00","-6.3","","-8.6","","84","","","","33","","25","","16.1","","100.90","","","","-14","","Snow,Blowing Snow"
"-63.12","46.29","CHARLOTTETOWN A","8300301","2018-02-08 14:00","2018","02","08","14:00","-6.3","","-10.4","","73","","","","33","","23","","24.1","","100.96","","","","-14","","Snow"
"-63.12","46.29","CHARLOTTETOWN A","8300301","2018-02-08 15:00","2018","02","08","15:00","-6.4","","-11.8","","66","","","","36","","28","","24.1","","101.07","","","","-15","","NA"
"-63.12","46.29","CHARLOTTETOWN A","8300301","2018-02-08 16:00","2018","02","08","16:00","-7.1","","-11.4","","72","","","","36","","13","","24.1","","101.16","","","","-13","","NA"
"-63.12","46.29","CHARLOTTETOWN A","8300301","2018-02-08 17:00","2018","02","08","17:00","-7.7","","-9.9","","84","","","","35","","13","","2.4","","101.25","","","","-13","","Snow"
"-63.12","46.29","CHARLOTTETOWN A","8300301","2018-02-08 18:00","2018","02","08","18:00","-8.5","","-10.1","","88","","","","36","","8","","4.8","","101.33","","","","-13","","Snow"
"-63.12","46.29","CHARLOTTETOWN A","8300301","2018-02-08 19:00","2018","02","08","19:00","-9.6","","-10.9","","91","","","","33","","5","","8.1","","101.44","","","","-12","","Snow"
"-63.12","46.29","CHARLOTTETOWN A","8300301","2018-02-08 20:00","2018","02","08","20:00","-9.5","","-10.9","","89","","","","29","","4","","8.1","","101.49","","","","-12","","Snow Showers"
"-63.12","46.29","CHARLOTTETOWN A","8300301","2018-02-08 21:00","2018","02","08","21:00","-10.4","","-11.5","","91","","","","29","","4","","11.3","","101.56","","","","-13","","Snow Showers"
"-63.12","46.29","CHARLOTTETOWN A","8300301","2018-02-08 22:00","2018","02","08","22:00","-10.9","","-12.2","","90","","","","30","","7","","24.1","","101.63","","","","-15","","NA"
"-63.12","46.29","CHARLOTTETOWN A","8300301","2018-02-08 23:00","2018","02","08","23:00","-9.9","","-12.8","","80","","","","30","","11","","24.1","","101.68","","","","-15","","Mostly Cloudy"
"-63.12","46.29","CHARLOTTETOWN A","8300301","2018-02-09 00:00","2018","02","09","00:00","-10.4","","-13.9","","76","","","","30","","13","","24.1","","101.72","","","","-17","","NA"
"-63.12","46.29","CHARLOTTETOWN A","8300301","2018-02-09 01:00","2018","02","09","01:00","-11.2","","-14.2","","79","","","","32","","9","","24.1","","101.76","","","","-16","","NA"
"-63.12","46.29","CHARLOTTETOWN A","8300301","2018-02-09 02:00","2018","02","09","02:00","-11.3","","-14.2","","79","","","","26","","9","","24.1","","101.77","","","","-16","","Mostly Cloudy"
"-63.12","46.29","CHARLOTTETOWN A","8300301","2018-02-09 03:00","2018","02","09","03:00","-11.2","","-14.7","","76","","","","29","","9","","24.1","","101.81","","","","-16","","NA"
"-63.12","46.29","CHARLOTTETOWN A","8300301","2018-02-09 04:00","2018","02","09","04:00","-11.9","","-14.8","","79","","","","25","","9","","24.1","","101.85","","","","-17","","NA"
"-63.12","46.29","CHARLOTTETOWN A","8300301","2018-02-09 05:00","2018","02","09","05:00","-12.4","","-15.0","","82","","","","26","","10","","24.1","","101.95","","","","-18","","Mostly Cloudy"
"-63.12","46.29","CHARLOTTETOWN A","8300301","2018-02-09 06:00","2018","02","09","06:00","-13.0","","-14.8","","86","","","","26","","9","","24.1","","101.99","","","","-18","","NA"
"-63.12","46.29","CHARLOTTETOWN A","8300301","2018-02-09 07:00","2018","02","09","07:00","-14.3","","-16.1","","87","","","","27","","8","","24.1","","102.12","","","","-20","","NA"
"-63.12","46.29","CHARLOTTETOWN A","8300301","2018-02-09 08:00","2018","02","09","08:00","-13.8","","-15.8","","85","","","","24","","12","","24.1","","102.22","","","","-21","","Mainly Clear"
"-63.12","46.29","CHARLOTTETOWN A","8300301","2018-02-09 09:00","2018","02","09","09:00","-13.0","","-15.5","","82","","","","26","","9","","24.1","","102.31","","","","-18","","NA"
"-63.12","46.29","CHARLOTTETOWN A","8300301","2018-02-09 10:00","2018","02","09","10:00","-11.3","","-15.2","","73","","","","25","","17","","24.1","","102.37","","","","-19","","NA"
"-63.12","46.29","CHARLOTTETOWN A","8300301","2018-02-09 11:00","2018","02","09","11:00","-9.7","","-15.2","","64","","","","24","","19","","24.1","","102.44","","","","-17","","Clear"
"-63.12","46.29","CHARLOTTETOWN A","8300301","2018-02-09 12:00","2018","02","09","12:00","-8.4","","-15.0","","59","","","","26","","17","","24.1","","102.37","","","","-15","","NA"
"-63.12","46.29","CHARLOTTETOWN A","8300301","2018-02-09 13:00","2018","02","09","13:00","-7.4","","-14.8","","56","","","","24","","20","","24.1","","102.35","","","","-15","","NA"
"-63.12","46.29","CHARLOTTETOWN A","8300301","2018-02-09 14:00","2018","02","09","14:00","-6.6","","-12.9","","61","","","","23","","17","","24.1","","102.39","","","","-13","","Mainly Clear"
"-63.12","46.29","CHARLOTTETOWN A","8300301","2018-02-09 15:00","2018","02","09","15:00","-6.1","","-13.7","","55","","","","24","","16","","24.1","","102.33","","","","-12","","NA"
"-63.12","46.29","CHARLOTTETOWN A","8300301","2018-02-09 16:00","2018","02","09","16:00","-5.8","","-12.8","","58","","","","21","","16","","24.1","","102.38","","","","-12","","NA"
"-63.12","46.29","CHARLOTTETOWN A","8300301","2018-02-09 17:00","2018","02","09","17:00","-7.3","","-11.8","","71","","","","15","","15","","24.1","","102.45","","","","-13","","Mainly Clear"
"-63.12","46.29","CHARLOTTETOWN A","8300301","2018-02-09 18:00","2018","02","09","18:00","-7.2","","-11.5","","72","","","","17","","10","","24.1","","102.54","","","","-12","","NA"
"-63.12","46.29","CHARLOTTETOWN A","8300301","2018-02-09 19:00","2018","02","09","19:00","-6.5","","-10.7","","72","","","","16","","15","","19.3","","102.58","","","","-12","","Snow"
"-63.12","46.29","CHARLOTTETOWN A","8300301","2018-02-09 20:00","2018","02","09","20:00","-5.3","","-9.8","","71","","","","20","","16","","22.5","","102.62","","","","-11","","Snow"
"-63.12","46.29","CHARLOTTETOWN A","8300301","2018-02-09 21:00","2018","02","09","21:00","-5.2","","-7.7","","83","","","","20","","15","","6.4","","102.62","","","","-11","","Snow"
"-63.12","46.29","CHARLOTTETOWN A","8300301","2018-02-09 22:00","2018","02","09","22:00","-5.5","","-7.0","","89","","","","22","","9","","4.8","","102.63","","","","-10","","Snow"
"-63.12","46.29","CHARLOTTETOWN A","8300301","2018-02-09 23:00","2018","02","09","23:00","-6.8","","-8.1","","91","","","","34","","4","","24.1","","102.64","","","","-9","","Snow"
"-63.12","46.29","CHARLOTTETOWN A","8300301","2018-02-10 00:00","2018","02","10","00:00","-9.6","","-10.4","","94","","","","36","","3","","24.1","","102.67","","","","-11","","NA"
"-63.12","46.29","CHARLOTTETOWN A","8300301","2018-02-10 01:00","2018","02","10","01:00","-11.6","","-12.8","","91","","","","36","","2","","24.1","","102.66","","","","-13","","NA"
"-63.12","46.29","CHARLOTTETOWN A","8300301","2018-02-10 02:00","2018","02","10","02:00","-11.5","","-13.0","","89","","","","36","","3","","24.1","","102.68","","","","-13","","Cloudy"
"-63.12","46.29","CHARLOTTETOWN A","8300301","2018-02-10 03:00","2018","02","10","03:00","-8.1","","-9.4","","90","","","","17","","5","","24.1","","102.67","","","","-11","","NA"
"-63.12","46.29","CHARLOTTETOWN A","8300301","2018-02-10 04:00","2018","02","10","04:00","-8.0","","-9.2","","91","","","","17","","7","","24.1","","102.68","","","","-12","","NA"
"-63.12","46.29","CHARLOTTETOWN A","8300301","2018-02-10 05:00","2018","02","10","05:00","-6.9","","-8.1","","91","","","","19","","12","","24.1","","102.64","","","","-12","","Snow"
"-63.12","46.29","CHARLOTTETOWN A","8300301","2018-02-10 06:00","2018","02","10","06:00","-6.2","","-8.2","","86","","","","18","","11","","24.1","","102.62","","","","-11","","Snow"
"-63.12","46.29","CHARLOTTETOWN A","8300301","2018-02-10 07:00","2018","02","10","07:00","-6.8","","-7.8","","93","","","","15","","9","","9.7","","102.60","","","","-11","","Snow"
"-63.12","46.29","CHARLOTTETOWN A","8300301","2018-02-10 08:00","2018","02","10","08:00","-6.3","","-7.3","","93","","","","14","","10","","4.8","","102.55","","","","-11","","Snow"
"-63.12","46.29","CHARLOTTETOWN A","8300301","2018-02-10 09:00","2018","02","10","09:00","-5.8","","-6.9","","92","","","","12","","10","","1.6","","102.49","","","","-10","","Snow"
"-63.12","46.29","CHARLOTTETOWN A","8300301","2018-02-10 10:00","2018","02","10","10:00","-4.9","","-5.9","","92","","","","14","","11","","2.4","","102.40","","","","-9","","Snow"
"-63.12","46.29","CHARLOTTETOWN A","8300301","2018-02-10 11:00","2018","02","10","11:00","-3.0","","-4.0","","93","","","","17","","14","","4.8","","102.33","","","","-8","","Snow"
"-63.12","46.29","CHARLOTTETOWN A","8300301","2018-02-10 12:00","2018","02","10","12:00","-1.1","","-2.0","","94","","","","18","","21","","4.8","","102.18","","","","-7","","Snow"
"-63.12","46.29","CHARLOTTETOWN A","8300301","2018-02-10 13:00","2018","02","10","13:00","0.2","","-1.3","","90","","","","18","","30","","16.1","","102.04","","","","","","Snow"
"-63.12","46.29","CHARLOTTETOWN A","8300301","2018-02-10 14:00","2018","02","10","14:00","0.8","","-0.9","","88","","","","17","","27","","19.3","","101.94","","","","","","Cloudy"
"-63.12","46.29","CHARLOTTETOWN A","8300301","2018-02-10 15:00","2018","02","10","15:00","1.0","","-0.2","","92","","","","17","","31","","3.2","","101.84","","","","","","Snow,Fog"
"-63.12","46.29","CHARLOTTETOWN A","8300301","2018-02-10 16:00","2018","02","10","16:00","1.4","","0.3","","93","","","","18","","28","","16.1","","101.75","","","","","","Rain"
"-63.12","46.29","CHARLOTTETOWN A","8300301","2018-02-10 17:00","2018","02","10","17:00","1.5","","0.8","","95","","","","18","","21","","11.3","","101.67","","","","","","Rain"
"-63.12","46.29","CHARLOTTETOWN A","8300301","2018-02-10 18:00","2018","02","10","18:00","2.7","","1.8","","94","","","","19","","26","","16.1","","101.62","","","","","","Rain"
"-63.12","46.29","CHARLOTTETOWN A","8300301","2018-02-10 19:00","2018","02","10","19:00","2.9","","1.7","","92","","","","20","","23","","16.1","","101.60","","","","","","Rain"
"-63.12","46.29","CHARLOTTETOWN A","8300301","2018-02-10 20:00","2018","02","10","20:00","3.3","","2.1","","92","","","","20","","26","","16.1","","101.50","","","","","","Rain"
"-63.12","46.29","CHARLOTTETOWN A","8300301","2018-02-10 21:00","2018","02","10","21:00","3.1","","2.6","","96","","","","26","","8","","8.1","","101.52","","","","","","Rain,Fog"
"-63.12","46.29","CHARLOTTETOWN A","8300301","2018-02-10 22:00","2018","02","10","22:00","2.5","","2.2","","98","","","","36","","2","","8.1","","101.50","","","","","","Rain,Fog"
"-63.12","46.29","CHARLOTTETOWN A","8300301","2018-02-10 23:00","2018","02","10","23:00","1.4","","1.2","","99","","","","36","","9","","8.1","","101.49","","","","","","Rain,Fog"
"-63.12","46.29","CHARLOTTETOWN A","8300301","2018-02-11 00:00","2018","02","11","00:00","0.3","","0.1","","99","","","","1","","11","","4.0","","101.46","","","","","","Rain,Fog"
"-63.12","46.29","CHARLOTTETOWN A","8300301","2018-02-11 01:00","2018","02","11","01:00","0.0","","-0.1","","99","","","","2","","12","","4.8","","101.44","","","","-4","","Rain,Fog"
"-63.12","46.29","CHARLOTTETOWN A","8300301","2018-02-11 02:00","2018","02","11","02:00","-0.1","","-0.3","","99","","","","1","","16","","6.4","","101.47","","","","-5","","Freezing Rain,Fog"
"-63.12","46.29","CHARLOTTETOWN A","8300301","2018-02-11 03:00","2018","02","11","03:00","-0.2","","-0.4","","98","","","","4","","19","","6.4","","101.45","","","","-5","","Freezing Rain,Fog"
"-63.12","46.29","CHARLOTTETOWN A","8300301","2018-02-11 04:00","2018","02","11","04:00","-0.6","","-0.9","","98","","","","3","","20","","3.2","","101.47","","","","-6","","Snow,Ice Pellets,Fog"
"-63.12","46.29","CHARLOTTETOWN A","8300301","2018-02-11 05:00","2018","02","11","05:00","-0.9","","-1.3","","97","","","","3","","20","","4.0","","101.49","","","","-6","","Snow"
"-63.12","46.29","CHARLOTTETOWN A","8300301","2018-02-11 06:00","2018","02","11","06:00","-1.4","","-1.9","","97","","","","4","","22","","2.0","","101.53","","","","-7","","Snow"
"-63.12","46.29","CHARLOTTETOWN A","8300301","2018-02-11 07:00","2018","02","11","07:00","-1.9","","-2.4","","96","","","","4","","22","","1.2","","101.56","","","","-8","","Snow,Blowing Snow"
"-63.12","46.29","CHARLOTTETOWN A","8300301","2018-02-11 08:00","2018","02","11","08:00","-2.2","","-3.0","","95","","","","4","","28","","4.8","","101.58","","","","-9","","Snow,Blowing Snow"
"-63.12","46.29","CHARLOTTETOWN A","8300301","2018-02-11 09:00","2018","02","11","09:00","-2.8","","-3.6","","94","","","","3","","28","","9.7","","101.62","","","","-10","","Snow"
"-63.12","46.29","CHARLOTTETOWN A","8300301","2018-02-11 10:00","2018","02","11","10:00","-3.0","","-4.0","","93","","","","4","","24","","12.9","","101.67","","","","-10","","Blowing Snow"
"-63.12","46.29","CHARLOTTETOWN A","8300301","2018-02-11 11:00","2018","02","11","11:00","-2.9","","-3.8","","93","","","","3","","25","","16.1","","101.71","","","","-10","","Cloudy"
"-63.12","46.29","CHARLOTTETOWN A","8300301","2018-02-11 12:00","2018","02","11","12:00","-2.8","","-3.7","","93","","","","3","","25","","19.3","","101.73","","","","-10","","NA"
"-63.12","46.29","CHARLOTTETOWN A","8300301","2018-02-11 13:00","2018","02","11","13:00","-2.9","","-4.3","","91","","","","3","","33","","19.3","","101.72","","","","-11","","NA"
"-63.12","46.29","CHARLOTTETOWN A","8300301","2018-02-11 14:00","2018","02","11","14:00","-2.9","","-4.8","","87","","","","4","","27","","19.3","","101.74","","","","-10","","Cloudy"
"-63.12","46.29","CHARLOTTETOWN A","8300301","2018-02-11 15:00","2018","02","11","15:00","-3.4","","-5.0","","88","","","","3","","28","","19.3","","101.80","","","","-11","","NA"
"-63.12","46.29","CHARLOTTETOWN A","8300301","2018-02-11 16:00","2018","02","11","16:00","-4.0","","-5.4","","90","","","","4","","27","","19.3","","101.83","","","","-11","","NA"
"-63.12","46.29","CHARLOTTETOWN A","8300301","2018-02-11 17:00","2018","02","11","17:00","-4.3","","-6.9","","82","","","","5","","21","","19.3","","101.81","","","","-11","","Cloudy"
"-63.12","46.29","CHARLOTTETOWN A","8300301","2018-02-11 18:00","2018","02","11","18:00","-5.0","","-7.9","","80","","","","5","","15","","19.3","","101.82","","","","-11","","NA"
"-63.12","46.29","CHARLOTTETOWN A","8300301","2018-02-11 19:00","2018","02","11","19:00","-5.0","","-7.3","","84","","","","6","","16","","24.1","","101.71","","","","-11","","NA"
"-63.12","46.29","CHARLOTTETOWN A","8300301","2018-02-11 20:00","2018","02","11","20:00","-4.5","","-6.2","","88","","","","7","","18","","24.1","","101.59","","","","-11","","Cloudy"
"-63.12","46.29","CHARLOTTETOWN A","8300301","2018-02-11 21:00","2018","02","11","21:00","-4.1","","-5.4","","91","","","","9","","13","","24.1","","101.42","","","","-9","","Freezing Rain"
"-63.12","46.29","CHARLOTTETOWN A","8300301","2018-02-11 22:00","2018","02","11","22:00","-3.7","","-4.5","","94","","","","11","","16","","16.1","","101.24","","","","-9","","Freezing Rain"
"-63.12","46.29","CHARLOTTETOWN A","8300301","2018-02-11 23:00","2018","02","11","23:00","-2.6","","-3.0","","97","","","","12","","16","","16.1","","100.95","","","","-8","","Freezing Rain"
"-63.12","46.29","CHARLOTTETOWN A","8300301","2018-02-12 00:00","2018","02","12","00:00","-0.9","","-1.3","","97","","","","13","","22","","16.1","","100.63","","","","-7","","Freezing Rain"
"-63.12","46.29","CHARLOTTETOWN A","8300301","2018-02-12 01:00","2018","02","12","01:00","0.4","","0.0","","97","","","","14","","18","","12.9","","100.44","","","","","","Rain,Freezing Rain"
"-63.12","46.29","CHARLOTTETOWN A","8300301","2018-02-12 02:00","2018","02","12","02:00","0.9","","0.5","","98","","","","15","","22","","3.2","","100.25","","","","","","Rain,Fog"
"-63.12","46.29","CHARLOTTETOWN A","8300301","2018-02-12 03:00","2018","02","12","03:00","1.0","","0.8","","98","","","","16","","24","","3.2","","100.08","","","","","","Rain,Fog"
"-63.12","46.29","CHARLOTTETOWN A","8300301","2018-02-12 04:00","2018","02","12","04:00","1.7","","1.6","","99","","","","17","","17","","3.2","","99.96","","","","","","Rain,Fog"
"-63.12","46.29","CHARLOTTETOWN A","8300301","2018-02-12 05:00","2018","02","12","05:00","3.1","","3.1","","100","","","","21","","14","","3.2","","99.96","","","","","","Rain,Fog"
"-63.12","46.29","CHARLOTTETOWN A","8300301","2018-02-12 06:00","2018","02","12","06:00","4.5","","4.4","","99","","","","26","","19","","3.2","","100.18","","","","","","Rain,Fog"
"-63.12","46.29","CHARLOTTETOWN A","8300301","2018-02-12 07:00","2018","02","12","07:00","3.9","","3.8","","99","","","","22","","13","","24.1","","100.23","","","","","","Rain"
"-63.12","46.29","CHARLOTTETOWN A","8300301","2018-02-12 08:00","2018","02","12","08:00","4.5","","4.1","","97","","","","25","","11","","24.1","","100.38","","","","","","Mostly Cloudy"
"-63.12","46.29","CHARLOTTETOWN A","8300301","2018-02-12 09:00","2018","02","12","09:00","4.0","","2.4","","89","","","","27","","19","","24.1","","100.49","","","","","","NA"
"-63.12","46.29","CHARLOTTETOWN A","8300301","2018-02-12 10:00","2018","02","12","10:00","3.4","","0.9","","84","","","","27","","28","","24.1","","100.60","","","","","","NA"
"-63.12","46.29","CHARLOTTETOWN A","8300301","2018-02-12 11:00","2018","02","12","11:00","2.7","","0.3","","84","","","","27","","19","","24.1","","100.61","","","","","","Mostly Cloudy"
"-63.12","46.29","CHARLOTTETOWN A","8300301","2018-02-12 12:00","2018","02","12","12:00","2.5","","0.0","","83","","","","26","","22","","24.1","","100.64","","","","","","NA"
"-63.12","46.29","CHARLOTTETOWN A","8300301","2018-02-12 13:00","2018","02","12","13:00","2.8","","-0.5","","79","","","","26","","22","","24.1","","100.68","","","","","","NA"
"-63.12","46.29","CHARLOTTETOWN A","8300301","2018-02-12 14:00","2018","02","12","14:00","2.8","","-1.4","","74","","","","26","","23","","24.1","","100.71","","","","","","Mostly Cloudy"
"-63.12","46.29","CHARLOTTETOWN A","8300301","2018-02-12 15:00","2018","02","12","15:00","3.6","","-2.4","","65","","","","28","","26","","24.1","","100.76","","","","","","NA"
"-63.12","46.29","CHARLOTTETOWN A","8300301","2018-02-12 16:00","2018","02","12","16:00","2.3","","-3.6","","65","","","","28","","16","","24.1","","100.88","","","","","","NA"
"-63.12","46.29","CHARLOTTETOWN A","8300301","2018-02-12 17:00","2018","02","12","17:00","-1.0","","-3.8","","81","","","","35","","9","","24.1","","101.11","","","","-4","","Mostly Cloudy"
"-63.12","46.29","CHARLOTTETOWN A","8300301","2018-02-12 18:00","2018","02","12","18:00","-0.9","","-3.7","","81","","","","33","","17","","19.3","","101.27","","","","-6","","Snow"
"-63.12","46.29","CHARLOTTETOWN A","8300301","2018-02-12 19:00","2018","02","12","19:00","-0.5","","-7.8","","58","","","","29","","26","","24.1","","101.41","","","","-7","","Snow"
"-63.12","46.29","CHARLOTTETOWN A","8300301","2018-02-12 20:00","2018","02","12","20:00","-1.6","","-9.4","","55","","","","30","","25","","24.1","","101.52","","","","-8","","Mostly Cloudy"
"-63.12","46.29","CHARLOTTETOWN A","8300301","2018-02-12 21:00","2018","02","12","21:00","-2.7","","-10.5","","55","","","","28","","19","","24.1","","101.64","","","","-8","","NA"
"-63.12","46.29","CHARLOTTETOWN A","8300301","2018-02-12 22:00","2018","02","12","22:00","-3.6","","-11.6","","54","","","","30","","22","","24.1","","101.73","","","","-10","","NA"
"-63.12","46.29","CHARLOTTETOWN A","8300301","2018-02-12 23:00","2018","02","12","23:00","-4.5","","-11.2","","59","","","","29","","19","","24.1","","101.81","","","","-11","","Mainly Clear"
"-63.12","46.29","CHARLOTTETOWN A","8300301","2018-02-13 00:00","2018","02","13","00:00","-4.9","","-11.6","","59","","","","29","","19","","24.1","","101.91","","","","-11","","NA"
"-63.12","46.29","CHARLOTTETOWN A","8300301","2018-02-13 01:00","2018","02","13","01:00","-5.4","","-11.8","","61","","","","29","","23","","24.1","","101.99","","","","-13","","NA"
"-63.12","46.29","CHARLOTTETOWN A","8300301","2018-02-13 02:00","2018","02","13","02:00","-7.5","","-15.2","","54","","","","31","","29","","24.1","","102.14","","","","-16","","Mostly Cloudy"
"-63.12","46.29","CHARLOTTETOWN A","8300301","2018-02-13 03:00","2018","02","13","03:00","-8.4","","-17.2","","49","","","","29","","23","","24.1","","102.28","","","","-16","","NA"
"-63.12","46.29","CHARLOTTETOWN A","8300301","2018-02-13 04:00","2018","02","13","04:00","-9.6","","-18.0","","51","","","","30","","24","","24.1","","102.36","","","","-18","","NA"
"-63.12","46.29","CHARLOTTETOWN A","8300301","2018-02-13 05:00","2018","02","13","05:00","-10.4","","-18.2","","53","","","","29","","22","","24.1","","102.49","","","","-19","","Mainly Clear"
"-63.12","46.29","CHARLOTTETOWN A","8300301","2018-02-13 06:00","2018","02","13","06:00","-11.0","","-18.6","","54","","","","29","","27","","24.1","","102.62","","","","-20","","NA"
"-63.12","46.29","CHARLOTTETOWN A","8300301","2018-02-13 07:00","2018","02","13","07:00","-11.6","","-19.1","","55","","","","30","","22","","24.1","","102.74","","","","-20","","NA"
"-63.12","46.29","CHARLOTTETOWN A","8300301","2018-02-13 08:00","2018","02","13","08:00","-11.9","","-19.8","","53","","","","30","","30","","24.1","","102.91","","","","-22","","Mainly Clear"
"-63.12","46.29","CHARLOTTETOWN A","8300301","2018-02-13 09:00","2018","02","13","09:00","-11.8","","-19.9","","51","","","","29","","31","","24.1","","103.03","","","","-22","","NA"
"-63.12","46.29","CHARLOTTETOWN A","8300301","2018-02-13 10:00","2018","02","13","10:00","-11.6","","-19.7","","51","","","","30","","28","","24.1","","103.11","","","","-21","","NA"
"-63.12","46.29","CHARLOTTETOWN A","8300301","2018-02-13 11:00","2018","02","13","11:00","-11.6","","-19.4","","53","","","","31","","32","","24.1","","103.15","","","","-22","","Mainly Clear"
"-63.12","46.29","CHARLOTTETOWN A","8300301","2018-02-13 12:00","2018","02","13","12:00","-11.6","","-19.0","","55","","","","32","","30","","24.1","","103.17","","","","-22","","NA"
"-63.12","46.29","CHARLOTTETOWN A","8300301","2018-02-13 13:00","2018","02","13","13:00","-11.3","","-18.4","","56","","","","30","","26","","24.1","","103.13","","","","-21","","NA"
"-63.12","46.29","CHARLOTTETOWN A","8300301","2018-02-13 14:00","2018","02","13","14:00","-11.4","","-19.2","","53","","","","31","","20","","24.1","","103.16","","","","-20","","Mainly Clear"
"-63.12","46.29","CHARLOTTETOWN A","8300301","2018-02-13 15:00","2018","02","13","15:00","-11.1","","-19.4","","51","","","","32","","14","","24.1","","103.16","","","","-18","","NA"
"-63.12","46.29","CHARLOTTETOWN A","8300301","2018-02-13 16:00","2018","02","13","16:00","-10.8","","-20.0","","47","","","","33","","12","","24.1","","103.16","","","","-17","","NA"
"-63.12","46.29","CHARLOTTETOWN A","8300301","2018-02-13 17:00","2018","02","13","17:00","-11.3","","-20.6","","47","","","","30","","8","","24.1","","103.17","","","","-16","","Mainly Clear"
"-63.12","46.29","CHARLOTTETOWN A","8300301","2018-02-13 18:00","2018","02","13","18:00","-11.7","","-20.0","","50","","","","27","","5","","24.1","","103.17","","","","-15","","NA"
"-63.12","46.29","CHARLOTTETOWN A","8300301","2018-02-13 19:00","2018","02","13","19:00","-12.1","","-19.2","","56","","","","36","","3","","24.1","","103.17","","","","-14","","NA"
"-63.12","46.29","CHARLOTTETOWN A","8300301","2018-02-13 20:00","2018","02","13","20:00","-12.0","","-18.6","","59","","","","21","","8","","24.1","","103.15","","","","-17","","Clear"
"-63.12","46.29","CHARLOTTETOWN A","8300301","2018-02-13 21:00","2018","02","13","21:00","-12.0","","-18.4","","60","","","","20","","9","","24.1","","103.07","","","","-17","","NA"
"-63.12","46.29","CHARLOTTETOWN A","8300301","2018-02-13 22:00","2018","02","13","22:00","-11.9","","-16.2","","71","","","","19","","10","","24.1","","103.00","","","","-18","","NA"
"-63.12","46.29","CHARLOTTETOWN A","8300301","2018-02-13 23:00","2018","02","13","23:00","-11.4","","-16.7","","65","","","","25","","9","","24.1","","102.99","","","","-17","","Clear"
"-63.12","46.29","CHARLOTTETOWN A","8300301","2018-02-14 00:00","2018","02","14","00:00","-11.5","","-17.7","","61","","","","21","","9","","24.1","","102.84","","","","-17","","NA"
"-63.12","46.29","CHARLOTTETOWN A","8300301","2018-02-14 01:00","2018","02","14","01:00","-11.2","","-17.1","","62","","","","18","","8","","24.1","","102.71","","","","-16","","NA"
"-63.12","46.29","CHARLOTTETOWN A","8300301","2018-02-14 02:00","2018","02","14","02:00","-10.6","","-15.4","","68","","","","20","","13","","24.1","","102.66","","","","-17","","Clear"
"-63.12","46.29","CHARLOTTETOWN A","8300301","2018-02-14 03:00","2018","02","14","03:00","-10.1","","-14.7","","69","","","","21","","16","","24.1","","102.52","","","","-17","","NA"
"-63.12","46.29","CHARLOTTETOWN A","8300301","2018-02-14 04:00","2018","02","14","04:00","-9.5","","-14.0","","70","","","","20","","21","","24.1","","102.37","","","","-17","","NA"
"-63.12","46.29","CHARLOTTETOWN A","8300301","2018-02-14 05:00","2018","02","14","05:00","-9.4","","-12.8","","76","","","","20","","16","","24.1","","102.28","","","","-16","","Clear"
"-63.12","46.29","CHARLOTTETOWN A","8300301","2018-02-14 06:00","2018","02","14","06:00","-8.6","","-11.6","","79","","","","19","","16","","24.1","","102.18","","","","-15","","NA"
"-63.12","46.29","CHARLOTTETOWN A","8300301","2018-02-14 07:00","2018","02","14","07:00","-8.0","","-11.1","","79","","","","19","","22","","24.1","","102.04","","","","-16","","NA"
"-63.12","46.29","CHARLOTTETOWN A","8300301","2018-02-14 08:00","2018","02","14","08:00","-6.8","","-10.1","","78","","","","19","","20","","24.1","","101.94","","","","-14","","Cloudy"
"-63.12","46.29","CHARLOTTETOWN A","8300301","2018-02-14 09:00","2018","02","14","09:00","-5.6","","-9.0","","77","","","","20","","24","","24.1","","101.85","","","","-13","","NA"
"-63.12","46.29","CHARLOTTETOWN A","8300301","2018-02-14 10:00","2018","02","14","10:00","-4.6","","-8.1","","77","","","","20","","30","","24.1","","101.74","","","","-12","","NA"
"-63.12","46.29","CHARLOTTETOWN A","8300301","2018-02-14 11:00","2018","02","14","11:00","-3.4","","-7.0","","76","","","","21","","23","","24.1","","101.60","","","","-10","","Cloudy"
"-63.12","46.29","CHARLOTTETOWN A","8300301","2018-02-14 12:00","2018","02","14","12:00","-1.6","","-5.7","","74","","","","21","","29","","24.1","","101.41","","","","-8","","NA"
"-63.12","46.29","CHARLOTTETOWN A","8300301","2018-02-14 13:00","2018","02","14","13:00","0.1","","-4.4","","71","","","","21","","28","","24.1","","101.28","","","","","","NA"
"-63.12","46.29","CHARLOTTETOWN A","8300301","2018-02-14 14:00","2018","02","14","14:00","1.0","","-3.9","","70","","","","22","","28","","24.1","","101.11","","","","","","Cloudy"
"-63.12","46.29","CHARLOTTETOWN A","8300301","2018-02-14 15:00","2018","02","14","15:00","1.7","","-3.3","","69","","","","21","","29","","24.1","","101.03","","","","","","NA"
"-63.12","46.29","CHARLOTTETOWN A","8300301","2018-02-14 16:00","2018","02","14","16:00","2.0","","-3.1","","69","","","","21","","25","","24.1","","100.94","","","","","","NA"
"-63.12","46.29","CHARLOTTETOWN A","8300301","2018-02-14 17:00","2018","02","14","17:00","1.9","","-1.9","","76","","","","22","","21","","24.1","","100.89","","","","","","Cloudy"
"-63.12","46.29","CHARLOTTETOWN A","8300301","2018-02-14 18:00","2018","02","14","18:00","2.4","","-0.6","","81","","","","22","","26","","80.5","","100.80","","","","","","NA"
"-63.12","46.29","CHARLOTTETOWN A","8300301","2018-02-14 19:00","2018","02","14","19:00","1.6","","-1.2","","82","","","","23","","15","","24.1","","100.82","","","","","","NA"
"-63.12","46.29","CHARLOTTETOWN A","8300301","2018-02-14 20:00","2018","02","14","20:00","1.5","","0.0","","90","","","","23","","24","","19.3","","100.75","","","","","","Cloudy"
"-63.12","46.29","CHARLOTTETOWN A","8300301","2018-02-14 21:00","2018","02","14","21:00","1.6","","0.4","","92","","","","23","","14","","19.3","","100.72","","","","","","NA"
"-63.12","46.29","CHARLOTTETOWN A","8300301","2018-02-14 22:00","2018","02","14","22:00","1.7","","0.7","","93","","","","24","","14","","19.3","","100.68","","","","","","NA"
"-63.12","46.29","CHARLOTTETOWN A","8300301","2018-02-14 23:00","2018","02","14","23:00","1.8","","0.8","","93","","","","24","","18","","19.3","","100.63","","","","","","Mostly Cloudy"
"-63.12","46.29","CHARLOTTETOWN A","8300301","2018-02-15 00:00","2018","02","15","00:00","1.4","","0.5","","94","","","","24","","12","","19.3","","100.62","","","","","","NA"
"-63.12","46.29","CHARLOTTETOWN A","8300301","2018-02-15 01:00","2018","02","15","01:00","0.5","","-0.2","","95","","","","24","","9","","24.1","","100.59","","","","","","NA"
"-63.12","46.29","CHARLOTTETOWN A","8300301","2018-02-15 02:00","2018","02","15","02:00","-0.4","","-1.1","","95","","","","22","","7","","24.1","","100.60","","","","-3","","Clear"
"-63.12","46.29","CHARLOTTETOWN A","8300301","2018-02-15 03:00","2018","02","15","03:00","-0.9","","-1.6","","95","","","","23","","8","","16.1","","100.58","","","","-4","","NA"
"-63.12","46.29","CHARLOTTETOWN A","8300301","2018-02-15 04:00","2018","02","15","04:00","-1.2","","-2.0","","94","","","","26","","9","","24.1","","100.52","","","","-4","","NA"
"-63.12","46.29","CHARLOTTETOWN A","8300301","2018-02-15 05:00","2018","02","15","05:00","-2.0","","-2.7","","95","","","","23","","9","","24.1","","100.52","","","","-5","","Clear"
"-63.12","46.29","CHARLOTTETOWN A","8300301","2018-02-15 06:00","2018","02","15","06:00","-1.8","","-3.0","","91","","","","25","","11","","24.1","","100.52","","","","-6","","NA"
"-63.12","46.29","CHARLOTTETOWN A","8300301","2018-02-15 07:00","2018","02","15","07:00","-2.0","","-3.2","","91","","","","25","","11","","24.1","","100.54","","","","-6","","NA"
"-63.12","46.29","CHARLOTTETOWN A","8300301","2018-02-15 08:00","2018","02","15","08:00","-2.3","","-3.6","","91","","","","27","","7","","24.1","","100.58","","","","-5","","Mostly Cloudy"
"-63.12","46.29","CHARLOTTETOWN A","8300301","2018-02-15 09:00","2018","02","15","09:00","-1.0","","-3.2","","85","","","","24","","10","","24.1","","100.61","","","","-5","","NA"
"-63.12","46.29","CHARLOTTETOWN A","8300301","2018-02-15 10:00","2018","02","15","10:00","0.6","","-2.5","","80","","","","24","","10","","24.1","","100.58","","","","","","NA"
"-63.12","46.29","CHARLOTTETOWN A","8300301","2018-02-15 11:00","2018","02","15","11:00","1.1","","-2.5","","77","","","","24","","10","","24.1","","100.57","","","","","","Mostly Cloudy"
"-63.12","46.29","CHARLOTTETOWN A","8300301","2018-02-15 12:00","2018","02","15","12:00","2.1","","-2.6","","71","","","","21","","7","","24.1","","100.48","","","","","","NA"
"-63.12","46.29","CHARLOTTETOWN A","8300301","2018-02-15 13:00","2018","02","15","13:00","3.4","","-3.1","","62","","","","20","","15","","24.1","","100.36","","","","","","NA"
"-63.12","46.29","CHARLOTTETOWN A","8300301","2018-02-15 14:00","2018","02","15","14:00","4.3","","-2.4","","62","","","","19","","10","","24.1","","100.29","","","","","","Mostly Cloudy"
"-63.12","46.29","CHARLOTTETOWN A","8300301","2018-02-15 15:00","2018","02","15","15:00","4.3","","-2.9","","60","","","","21","","13","","24.1","","100.23","","","","","","NA"
"-63.12","46.29","CHARLOTTETOWN A","8300301","2018-02-15 16:00","2018","02","15","16:00","2.7","","-2.6","","68","","","","14","","12","","24.1","","100.17","","","","","","NA"
"-63.12","46.29","CHARLOTTETOWN A","8300301","2018-02-15 17:00","2018","02","15","17:00","2.0","","-2.3","","73","","","","11","","10","","24.1","","100.03","","","","","","Cloudy"
"-63.12","46.29","CHARLOTTETOWN A","8300301","2018-02-15 18:00","2018","02","15","18:00","1.4","","-2.6","","75","","","","12","","8","","24.1","","99.93","","","","","","NA"
"-63.12","46.29","CHARLOTTETOWN A","8300301","2018-02-15 19:00","2018","02","15","19:00","2.0","","-2.6","","71","","","","13","","12","","24.1","","99.87","","","","","","NA"
"-63.12","46.29","CHARLOTTETOWN A","8300301","2018-02-15 20:00","2018","02","15","20:00","1.6","","-2.3","","75","","","","13","","12","","24.1","","99.87","","","","","","Cloudy"
"-63.12","46.29","CHARLOTTETOWN A","8300301","2018-02-15 21:00","2018","02","15","21:00","1.1","","-2.3","","78","","","","13","","12","","24.1","","99.79","","","","","","NA"
"-63.12","46.29","CHARLOTTETOWN A","8300301","2018-02-15 22:00","2018","02","15","22:00","1.0","","-2.1","","80","","","","15","","12","","24.1","","99.68","","","","","","NA"
"-63.12","46.29","CHARLOTTETOWN A","8300301","2018-02-15 23:00","2018","02","15","23:00","1.3","","-0.9","","85","","","","16","","17","","19.3","","99.55","","","","","","Cloudy"
"-63.12","46.29","CHARLOTTETOWN A","8300301","2018-02-16 00:00","2018","02","16","00:00","0.9","","0.3","","96","","","","17","","15","","19.3","","99.50","","","","","","NA"
"-63.12","46.29","CHARLOTTETOWN A","8300301","2018-02-16 01:00","2018","02","16","01:00","0.6","","0.2","","97","","","","18","","13","","19.3","","99.41","","","","","","Rain"
"-63.12","46.29","CHARLOTTETOWN A","8300301","2018-02-16 02:00","2018","02","16","02:00","0.5","","0.2","","98","","","","18","","11","","9.7","","99.30","","","","","","Rain,Fog"
"-63.12","46.29","CHARLOTTETOWN A","8300301","2018-02-16 03:00","2018","02","16","03:00","0.8","","0.6","","98","","","","20","","12","","11.3","","99.28","","","","","","NA"
"-63.12","46.29","CHARLOTTETOWN A","8300301","2018-02-16 04:00","2018","02","16","04:00","1.6","","1.1","","97","","","","20","","15","","12.9","","99.27","","","","","","NA"
"-63.12","46.29","CHARLOTTETOWN A","8300301","2018-02-16 05:00","2018","02","16","05:00","1.8","","1.5","","98","","","","22","","12","","11.3","","99.21","","","","","","Cloudy"
"-63.12","46.29","CHARLOTTETOWN A","8300301","2018-02-16 06:00","2018","02","16","06:00","2.0","","1.4","","96","","","","23","","16","","24.1","","99.23","","","","","","NA"
"-63.12","46.29","CHARLOTTETOWN A","8300301","2018-02-16 07:00","2018","02","16","07:00","2.4","","0.4","","87","","","","24","","18","","24.1","","99.25","","","","","","NA"
"-63.12","46.29","CHARLOTTETOWN A","8300301","2018-02-16 08:00","2018","02","16","08:00","2.5","","-0.2","","83","","","","24","","13","","24.1","","99.26","","","","","","Mostly Cloudy"
"-63.12","46.29","CHARLOTTETOWN A","8300301","2018-02-16 09:00","2018","02","16","09:00","2.5","","-0.4","","81","","","","25","","10","","24.1","","99.27","","","","","","NA"
"-63.12","46.29","CHARLOTTETOWN A","8300301","2018-02-16 10:00","2018","02","16","10:00","3.3","","-0.3","","77","","","","24","","11","","24.1","","99.28","","","","","","NA"
"-63.12","46.29","CHARLOTTETOWN A","8300301","2018-02-16 11:00","2018","02","16","11:00","3.2","","0.0","","80","","","","23","","11","","24.1","","99.27","","","","","","Mostly Cloudy"
"-63.12","46.29","CHARLOTTETOWN A","8300301","2018-02-16 12:00","2018","02","16","12:00","3.6","","0.2","","78","","","","24","","15","","24.1","","99.21","","","","","","NA"
"-63.12","46.29","CHARLOTTETOWN A","8300301","2018-02-16 13:00","2018","02","16","13:00","4.3","","0.4","","76","","","","24","","10","","24.1","","99.09","","","","","","NA"
"-63.12","46.29","CHARLOTTETOWN A","8300301","2018-02-16 14:00","2018","02","16","14:00","4.8","","0.6","","74","","","","21","","9","","24.1","","98.96","","","","","","Mostly Cloudy"
"-63.12","46.29","CHARLOTTETOWN A","8300301","2018-02-16 15:00","2018","02","16","15:00","4.6","","0.3","","74","","","","27","","6","","24.1","","99.05","","","","","","NA"
"-63.12","46.29","CHARLOTTETOWN A","8300301","2018-02-16 16:00","2018","02","16","16:00","3.8","","-0.9","","71","","","","35","","9","","24.1","","99.07","","","","","","NA"
"-63.12","46.29","CHARLOTTETOWN A","8300301","2018-02-16 17:00","2018","02","16","17:00","2.1","","-1.9","","75","","","","36","","11","","24.1","","99.10","","","","","","Cloudy"
"-63.12","46.29","CHARLOTTETOWN A","8300301","2018-02-16 18:00","2018","02","16","18:00","1.1","","-3.3","","72","","","","1","","11","","24.1","","99.13","","","","","","NA"
"-63.12","46.29","CHARLOTTETOWN A","8300301","2018-02-16 19:00","2018","02","16","19:00","0.7","","-2.8","","78","","","","2","","8","","24.1","","99.12","","","","","","Snow Showers"
"-63.12","46.29","CHARLOTTETOWN A","8300301","2018-02-16 20:00","2018","02","16","20:00","-0.8","","-1.9","","92","","","","35","","17","","2.4","","99.17","","","","-6","","Snow"
"-63.12","46.29","CHARLOTTETOWN A","8300301","2018-02-16 21:00","2018","02","16","21:00","-1.2","","-1.9","","95","","","","34","","18","","3.2","","99.30","","","","-6","","Snow,Blowing Snow"
"-63.12","46.29","CHARLOTTETOWN A","8300301","2018-02-16 22:00","2018","02","16","22:00","-1.8","","-3.0","","91","","","","33","","22","","6.4","","99.37","","","","-8","","Snow,Blowing Snow"
"-63.12","46.29","CHARLOTTETOWN A","8300301","2018-02-16 23:00","2018","02","16","23:00","-2.4","","-4.4","","86","","","","32","","31","","9.7","","99.54","","","","-10","","Snow,Blowing Snow"
"-63.12","46.29","CHARLOTTETOWN A","8300301","2018-02-17 00:00","2018","02","17","00:00","-3.4","","-7.0","","76","","","","32","","34","","9.7","","99.70","","","","-11","","Snow,Blowing Snow"
"-63.12","46.29","CHARLOTTETOWN A","8300301","2018-02-17 01:00","2018","02","17","01:00","-4.9","","-11.0","","63","","","","32","","36","","19.3","","99.93","","","","-14","","Snow,Blowing Snow"
"-63.12","46.29","CHARLOTTETOWN A","8300301","2018-02-17 02:00","2018","02","17","02:00","-6.6","","-14.0","","56","","","","32","","36","","24.1","","100.14","","","","-16","","Blowing Snow"
"-63.12","46.29","CHARLOTTETOWN A","8300301","2018-02-17 03:00","2018","02","17","03:00","-7.5","","-14.9","","56","","","","31","","37","","24.1","","100.35","","","","-17","","Blowing Snow"
"-63.12","46.29","CHARLOTTETOWN A","8300301","2018-02-17 04:00","2018","02","17","04:00","-8.8","","-15.5","","59","","","","31","","32","","24.1","","100.55","","","","-18","","Blowing Snow"
"-63.12","46.29","CHARLOTTETOWN A","8300301","2018-02-17 05:00","2018","02","17","05:00","-9.5","","-16.0","","60","","","","30","","36","","24.1","","100.75","","","","-20","","Blowing Snow"
"-63.12","46.29","CHARLOTTETOWN A","8300301","2018-02-17 06:00","2018","02","17","06:00","-10.8","","-17.8","","57","","","","30","","30","","24.1","","100.99","","","","-21","","Blowing Snow"
"-63.12","46.29","CHARLOTTETOWN A","8300301","2018-02-17 07:00","2018","02","17","07:00","-11.6","","-19.2","","54","","","","30","","26","","24.1","","101.22","","","","-21","","Blowing Snow"
"-63.12","46.29","CHARLOTTETOWN A","8300301","2018-02-17 08:00","2018","02","17","08:00","-11.9","","-19.4","","55","","","","30","","23","","24.1","","101.44","","","","-21","","Mainly Clear"
"-63.12","46.29","CHARLOTTETOWN A","8300301","2018-02-17 09:00","2018","02","17","09:00","-11.8","","-19.6","","53","","","","29","","32","","24.1","","101.60","","","","-22","","NA"
"-63.12","46.29","CHARLOTTETOWN A","8300301","2018-02-17 10:00","2018","02","17","10:00","-11.5","","-19.8","","51","","","","31","","33","","24.1","","101.75","","","","-22","","NA"
"-63.12","46.29","CHARLOTTETOWN A","8300301","2018-02-17 11:00","2018","02","17","11:00","-11.1","","-20.1","","48","","","","30","","28","","24.1","","101.89","","","","-21","","Mainly Clear"
"-63.12","46.29","CHARLOTTETOWN A","8300301","2018-02-17 12:00","2018","02","17","12:00","-10.8","","-20.0","","47","","","","30","","28","","24.1","","102.02","","","","-20","","NA"
"-63.12","46.29","CHARLOTTETOWN A","8300301","2018-02-17 13:00","2018","02","17","13:00","-10.9","","-19.7","","49","","","","30","","27","","24.1","","102.05","","","","-20","","NA"
"-63.12","46.29","CHARLOTTETOWN A","8300301","2018-02-17 14:00","2018","02","17","14:00","-10.4","","-19.6","","48","","","","32","","22","","24.1","","102.05","","","","-19","","Mainly Clear"
"-63.12","46.29","CHARLOTTETOWN A","8300301","2018-02-17 15:00","2018","02","17","15:00","-9.7","","-19.4","","46","","","","31","","16","","24.1","","102.11","","","","-17","","NA"
"-63.12","46.29","CHARLOTTETOWN A","8300301","2018-02-17 16:00","2018","02","17","16:00","-9.5","","-20.4","","42","","","","33","","18","","24.1","","102.09","","","","-17","","NA"
"-63.12","46.29","CHARLOTTETOWN A","8300301","2018-02-17 17:00","2018","02","17","17:00","-9.8","","-19.9","","44","","","","31","","9","","24.1","","102.12","","","","-15","","Mainly Clear"
"-63.12","46.29","CHARLOTTETOWN A","8300301","2018-02-17 18:00","2018","02","17","18:00","-10.7","","-19.4","","49","","","","35","","3","","24.1","","102.15","","","","-13","","NA"
"-63.12","46.29","CHARLOTTETOWN A","8300301","2018-02-17 19:00","2018","02","17","19:00","-11.3","","-17.3","","61","","","","15","","5","","24.1","","102.23","","","","-14","","NA"
"-63.12","46.29","CHARLOTTETOWN A","8300301","2018-02-17 20:00","2018","02","17","20:00","-10.7","","-17.1","","60","","","","16","","9","","24.1","","102.24","","","","-16","","Mostly Cloudy"
"-63.12","46.29","CHARLOTTETOWN A","8300301","2018-02-17 21:00","2018","02","17","21:00","-10.7","","-15.9","","66","","","","17","","7","","24.1","","102.24","","","","-15","","NA"
"-63.12","46.29","CHARLOTTETOWN A","8300301","2018-02-17 22:00","2018","02","17","22:00","-9.8","","-15.2","","65","","","","16","","11","","24.1","","102.25","","","","-15","","NA"
"-63.12","46.29","CHARLOTTETOWN A","8300301","2018-02-17 23:00","2018","02","17","23:00","-9.7","","-14.2","","70","","","","15","","15","","24.1","","102.21","","","","-16","","Cloudy"
"-63.12","46.29","CHARLOTTETOWN A","8300301","2018-02-18 00:00","2018","02","18","00:00","-9.5","","-14.2","","69","","","","15","","17","","24.1","","102.08","","","","-17","","NA"
"-63.12","46.29","CHARLOTTETOWN A","8300301","2018-02-18 01:00","2018","02","18","01:00","-9.5","","-13.7","","72","","","","16","","20","","24.1","","101.94","","","","-17","","NA"
"-63.12","46.29","CHARLOTTETOWN A","8300301","2018-02-18 02:00","2018","02","18","02:00","-9.2","","-13.5","","71","","","","16","","22","","24.1","","101.92","","","","-17","","Cloudy"
"-63.12","46.29","CHARLOTTETOWN A","8300301","2018-02-18 03:00","2018","02","18","03:00","-8.9","","-13.2","","72","","","","15","","15","","24.1","","101.86","","","","-15","","NA"
"-63.12","46.29","CHARLOTTETOWN A","8300301","2018-02-18 04:00","2018","02","18","04:00","-8.7","","-13.3","","70","","","","15","","19","","24.1","","101.76","","","","-16","","NA"
"-63.12","46.29","CHARLOTTETOWN A","8300301","2018-02-18 05:00","2018","02","18","05:00","-8.3","","-12.5","","72","","","","15","","21","","24.1","","101.73","","","","-16","","Cloudy"
"-63.12","46.29","CHARLOTTETOWN A","8300301","2018-02-18 06:00","2018","02","18","06:00","-7.9","","-11.8","","74","","","","14","","19","","24.1","","101.59","","","","-15","","NA"
"-63.12","46.29","CHARLOTTETOWN A","8300301","2018-02-18 07:00","2018","02","18","07:00","-7.4","","-11.0","","75","","","","14","","17","","24.1","","101.47","","","","-14","","NA"
"-63.12","46.29","CHARLOTTETOWN A","8300301","2018-02-18 08:00","2018","02","18","08:00","-7.1","","-10.7","","76","","","","12","","14","","24.1","","101.41","","","","-13","","Cloudy"
"-63.12","46.29","CHARLOTTETOWN A","8300301","2018-02-18 09:00","2018","02","18","09:00","-6.5","","-9.1","","82","","","","13","","14","","4.0","","101.40","","","","-12","","Snow"
"-63.12","46.29","CHARLOTTETOWN A","8300301","2018-02-18 10:00","2018","02","18","10:00","-5.4","","-7.3","","86","","","","11","","11","","8.1","","101.31","","","","-10","","Snow"
"-63.12","46.29","CHARLOTTETOWN A","8300301","2018-02-18 11:00","2018","02","18","11:00","-4.5","","-7.4","","80","","","","11","","14","","19.3","","101.22","","","","-10","","Snow"
"-63.12","46.29","CHARLOTTETOWN A","8300301","2018-02-18 12:00","2018","02","18","12:00","-3.6","","-6.9","","78","","","","11","","13","","24.1","","101.17","","","","-8","","NA"
"-63.12","46.29","CHARLOTTETOWN A","8300301","2018-02-18 13:00","2018","02","18","13:00","-3.0","","-6.5","","77","","","","12","","8","","24.1","","101.14","","","","-6","","NA"
"-63.12","46.29","CHARLOTTETOWN A","8300301","2018-02-18 14:00","2018","02","18","14:00","-2.7","","-5.8","","80","","","","8","","9","","24.1","","101.14","","","","-6","","Snow"
"-63.12","46.29","CHARLOTTETOWN A","8300301","2018-02-18 15:00","2018","02","18","15:00","-2.5","","-5.7","","79","","","","8","","4","","24.1","","101.19","","","","-4","","Snow"
"-63.12","46.29","CHARLOTTETOWN A","8300301","2018-02-18 16:00","2018","02","18","16:00","-2.0","","-5.6","","76","","","","36","","3","","24.1","","101.26","","","","-3","","NA"
"-63.12","46.29","CHARLOTTETOWN A","8300301","2018-02-18 17:00","2018","02","18","17:00","-1.9","","-5.6","","76","","","","33","","9","","24.1","","101.37","","","","-5","","Cloudy"
"-63.12","46.29","CHARLOTTETOWN A","8300301","2018-02-18 18:00","2018","02","18","18:00","-2.9","","-5.6","","81","","","","35","","5","","24.1","","101.49","","","","-5","","Snow"
"-63.12","46.29","CHARLOTTETOWN A","8300301","2018-02-18 19:00","2018","02","18","19:00","-3.1","","-5.5","","83","","","","32","","8","","24.1","","101.65","","","","-6","","Snow"
"-63.12","46.29","CHARLOTTETOWN A","8300301","2018-02-18 20:00","2018","02","18","20:00","-3.0","","-5.3","","84","","","","31","","9","","24.1","","101.76","","","","-7","","Cloudy"
"-63.12","46.29","CHARLOTTETOWN A","8300301","2018-02-18 21:00","2018","02","18","21:00","-4.4","","-6.5","","85","","","","30","","8","","24.1","","101.90","","","","-8","","NA"
"-63.12","46.29","CHARLOTTETOWN A","8300301","2018-02-18 22:00","2018","02","18","22:00","-4.5","","-5.9","","91","","","","27","","12","","24.1","","102.06","","","","-9","","NA"
"-63.12","46.29","CHARLOTTETOWN A","8300301","2018-02-18 23:00","2018","02","18","23:00","-4.2","","-5.7","","89","","","","26","","13","","24.1","","102.16","","","","-9","","Mostly Cloudy"
"-63.12","46.29","CHARLOTTETOWN A","8300301","2018-02-19 00:00","2018","02","19","00:00","-4.9","","-6.1","","92","","","","26","","10","","24.1","","102.30","","","","-9","","NA"
"-63.12","46.29","CHARLOTTETOWN A","8300301","2018-02-19 01:00","2018","02","19","01:00","-5.9","","-7.2","","91","","","","32","","7","","24.1","","102.29","","","","-9","","NA"
"-63.12","46.29","CHARLOTTETOWN A","8300301","2018-02-19 02:00","2018","02","19","02:00","-5.3","","-6.8","","89","","","","27","","10","","24.1","","102.43","","","","-10","","Clear"
"-63.12","46.29","CHARLOTTETOWN A","8300301","2018-02-19 03:00","2018","02","19","03:00","-7.0","","-8.5","","90","","","","23","","5","","24.1","","102.50","","","","-10","","NA"
"-63.12","46.29","CHARLOTTETOWN A","8300301","2018-02-19 04:00","2018","02","19","04:00","-7.8","","-9.0","","91","","","","23","","5","","24.1","","102.51","","","","-10","","NA"
"-63.12","46.29","CHARLOTTETOWN A","8300301","2018-02-19 05:00","2018","02","19","05:00","-5.0","","-6.1","","92","","","","25","","9","","24.1","","102.61","","","","-9","","Clear"
"-63.12","46.29","CHARLOTTETOWN A","8300301","2018-02-19 06:00","2018","02","19","06:00","-6.9","","-7.6","","95","","","","18","","6","","24.1","","102.68","","","","-10","","NA"
"-63.12","46.29","CHARLOTTETOWN A","8300301","2018-02-19 07:00","2018","02","19","07:00","-7.4","","-8.2","","94","","","","23","","13","","24.1","","102.74","","","","-13","","NA"
"-63.12","46.29","CHARLOTTETOWN A","8300301","2018-02-19 08:00","2018","02","19","08:00","-6.2","","-7.3","","92","","","","25","","15","","24.1","","102.82","","","","-12","","Clear"
"-63.12","46.29","CHARLOTTETOWN A","8300301","2018-02-19 09:00","2018","02","19","09:00","-4.9","","-6.7","","87","","","","22","","11","","24.1","","102.89","","","","-9","","NA"
"-63.12","46.29","CHARLOTTETOWN A","8300301","2018-02-19 10:00","2018","02","19","10:00","-2.8","","-5.9","","79","","","","23","","8","","24.1","","102.94","","","","-6","","NA"
"-63.12","46.29","CHARLOTTETOWN A","8300301","2018-02-19 11:00","2018","02","19","11:00","-1.1","","-6.1","","69","","","","23","","13","","24.1","","102.93","","","","-5","","Mainly Clear"
"-63.12","46.29","CHARLOTTETOWN A","8300301","2018-02-19 12:00","2018","02","19","12:00","0.0","","-7.1","","59","","","","21","","16","","24.1","","102.86","","","","-5","","NA"
"-63.12","46.29","CHARLOTTETOWN A","8300301","2018-02-19 13:00","2018","02","19","13:00","-0.1","","-5.7","","66","","","","18","","15","","24.1","","102.69","","","","-5","","NA"
"-63.12","46.29","CHARLOTTETOWN A","8300301","2018-02-19 14:00","2018","02","19","14:00","1.2","","-5.5","","61","","","","18","","26","","24.1","","102.61","","","","","","Mainly Clear"
"-63.12","46.29","CHARLOTTETOWN A","8300301","2018-02-19 15:00","2018","02","19","15:00","1.8","","-5.0","","61","","","","19","","30","","24.1","","102.50","","","","","","NA"
"-63.12","46.29","CHARLOTTETOWN A","8300301","2018-02-19 16:00","2018","02","19","16:00","2.7","","-5.1","","56","","","","20","","23","","24.1","","102.41","","","","","","NA"
"-63.12","46.29","CHARLOTTETOWN A","8300301","2018-02-19 17:00","2018","02","19","17:00","2.1","","-4.3","","62","","","","20","","28","","24.1","","102.34","","","","","","Mostly Cloudy"
"-63.12","46.29","CHARLOTTETOWN A","8300301","2018-02-19 18:00","2018","02","19","18:00","1.2","","-4.0","","68","","","","20","","27","","24.1","","102.32","","","","","","NA"
"-63.12","46.29","CHARLOTTETOWN A","8300301","2018-02-19 19:00","2018","02","19","19:00","0.4","","-3.7","","75","","","","19","","30","","24.1","","102.27","","","","","","NA"
"-63.12","46.29","CHARLOTTETOWN A","8300301","2018-02-19 20:00","2018","02","19","20:00","0.3","","-3.0","","78","","","","19","","27","","24.1","","102.28","","","","","","Mainly Clear"
"-63.12","46.29","CHARLOTTETOWN A","8300301","2018-02-19 21:00","2018","02","19","21:00","0.1","","-2.8","","81","","","","20","","28","","24.1","","102.22","","","","","","NA"
"-63.12","46.29","CHARLOTTETOWN A","8300301","2018-02-19 22:00","2018","02","19","22:00","0.1","","-2.6","","82","","","","20","","26","","24.1","","102.19","","","","","","NA"
"-63.12","46.29","CHARLOTTETOWN A","8300301","2018-02-19 23:00","2018","02","19","23:00","0.6","","-2.1","","82","","","","20","","24","","24.1","","102.14","","","","","","Cloudy"
"-63.12","46.29","CHARLOTTETOWN A","8300301","2018-02-20 00:00","2018","02","20","00:00","0.6","","-1.8","","84","","","","20","","19","","24.1","","102.12","","","","","","NA"
"-63.12","46.29","CHARLOTTETOWN A","8300301","2018-02-20 01:00","2018","02","20","01:00","1.0","","-1.4","","84","","","","19","","19","","24.1","","102.08","","","","","","NA"
"-63.12","46.29","CHARLOTTETOWN A","8300301","2018-02-20 02:00","2018","02","20","02:00","1.2","","-1.0","","85","","","","20","","19","","24.1","","102.03","","","","","","Cloudy"
"-63.12","46.29","CHARLOTTETOWN A","8300301","2018-02-20 03:00","2018","02","20","03:00","1.5","","-0.6","","86","","","","21","","14","","24.1","","101.97","","","","","","NA"
"-63.12","46.29","CHARLOTTETOWN A","8300301","2018-02-20 04:00","2018","02","20","04:00","1.6","","-0.2","","88","","","","19","","14","","24.1","","101.92","","","","","","NA"
"-63.12","46.29","CHARLOTTETOWN A","8300301","2018-02-20 05:00","2018","02","20","05:00","1.5","","0.8","","95","","","","20","","16","","24.1","","101.88","","","","","","Cloudy"
"-63.12","46.29","CHARLOTTETOWN A","8300301","2018-02-20 06:00","2018","02","20","06:00","1.3","","1.0","","97","","","","18","","10","","24.1","","101.86","","","","","","NA"
"-63.12","46.29","CHARLOTTETOWN A","8300301","2018-02-20 07:00","2018","02","20","07:00","1.6","","1.3","","98","","","","25","","4","","2.4","","101.96","","","","","","Fog"
"-63.12","46.29","CHARLOTTETOWN A","8300301","2018-02-20 08:00","2018","02","20","08:00","1.6","","1.4","","99","","","","20","","4","","6.4","","101.98","","","","","","Rain,Fog"
"-63.12","46.29","CHARLOTTETOWN A","8300301","2018-02-20 09:00","2018","02","20","09:00","2.2","","1.8","","98","","","","36","","1","","24.1","","102.05","","","","","","Rain"
"-63.12","46.29","CHARLOTTETOWN A","8300301","2018-02-20 10:00","2018","02","20","10:00","3.1","","0.8","","85","","","","36","","11","","24.1","","102.06","","","","","","NA"
"-63.12","46.29","CHARLOTTETOWN A","8300301","2018-02-20 11:00","2018","02","20","11:00","3.4","","0.4","","81","","","","3","","16","","24.1","","102.06","","","","","","Mostly Cloudy"
"-63.12","46.29","CHARLOTTETOWN A","8300301","2018-02-20 12:00","2018","02","20","12:00","2.6","","-0.1","","83","","","","2","","20","","24.1","","102.09","","","","","","NA"
"-63.12","46.29","CHARLOTTETOWN A","8300301","2018-02-20 13:00","2018","02","20","13:00","2.1","","-1.3","","78","","","","3","","28","","24.1","","102.12","","","","","","NA"
"-63.12","46.29","CHARLOTTETOWN A","8300301","2018-02-20 14:00","2018","02","20","14:00","1.4","","-1.5","","81","","","","3","","19","","24.1","","102.13","","","","","","Cloudy"
"-63.12","46.29","CHARLOTTETOWN A","8300301","2018-02-20 15:00","2018","02","20","15:00","0.8","","-1.6","","84","","","","4","","28","","24.1","","102.13","","","","","","NA"
"-63.12","46.29","CHARLOTTETOWN A","8300301","2018-02-20 16:00","2018","02","20","16:00","0.3","","-1.7","","86","","","","3","","19","","24.1","","102.23","","","","","","NA"
"-63.12","46.29","CHARLOTTETOWN A","8300301","2018-02-20 17:00","2018","02","20","17:00","-0.4","","-2.0","","89","","","","3","","19","","24.1","","102.26","","","","-6","","Cloudy"
"-63.12","46.29","CHARLOTTETOWN A","8300301","2018-02-20 18:00","2018","02","20","18:00","-1.5","","-2.6","","92","","","","4","","26","","16.1","","102.37","","","","-8","","NA"
"-63.12","46.29","CHARLOTTETOWN A","8300301","2018-02-20 19:00","2018","02","20","19:00","-2.0","","-3.3","","91","","","","5","","26","","12.9","","102.41","","","","-9","","Freezing Rain,Ice Pellets"
"-63.12","46.29","CHARLOTTETOWN A","8300301","2018-02-20 20:00","2018","02","20","20:00","-2.1","","-3.4","","91","","","","5","","28","","12.9","","102.48","","","","-9","","Ice Pellets"
"-63.12","46.29","CHARLOTTETOWN A","8300301","2018-02-20 21:00","2018","02","20","21:00","-2.2","","-3.4","","92","","","","7","","16","","11.3","","102.43","","","","-7","","Snow,Ice Pellets"
"-63.12","46.29","CHARLOTTETOWN A","8300301","2018-02-20 22:00","2018","02","20","22:00","-2.3","","-3.3","","93","","","","4","","12","","16.1","","102.42","","","","-7","","Freezing Rain"
"-63.12","46.29","CHARLOTTETOWN A","8300301","2018-02-20 23:00","2018","02","20","23:00","-2.9","","-4.0","","92","","","","5","","18","","16.1","","102.34","","","","-9","","Freezing Rain"
"-63.12","46.29","CHARLOTTETOWN A","8300301","2018-02-21 00:00","2018","02","21","00:00","-2.9","","-4.3","","90","","","","7","","16","","19.3","","102.31","","","","-8","","NA"
"-63.12","46.29","CHARLOTTETOWN A","8300301","2018-02-21 01:00","2018","02","21","01:00","-3.0","","-4.6","","89","","","","7","","10","","19.3","","102.33","","","","-7","","NA"
"-63.12","46.29","CHARLOTTETOWN A","8300301","2018-02-21 02:00","2018","02","21","02:00","-3.1","","-3.9","","94","","","","8","","11","","6.4","","102.32","","","","-7","","Freezing Drizzle,Fog"
"-63.12","46.29","CHARLOTTETOWN A","8300301","2018-02-21 03:00","2018","02","21","03:00","-2.9","","-3.2","","97","","","","11","","12","","4.0","","102.18","","","","-7","","Freezing Drizzle,Fog"
"-63.12","46.29","CHARLOTTETOWN A","8300301","2018-02-21 04:00","2018","02","21","04:00","-2.6","","-2.8","","98","","","","12","","10","","4.0","","102.09","","","","-6","","Freezing Drizzle,Fog"
"-63.12","46.29","CHARLOTTETOWN A","8300301","2018-02-21 05:00","2018","02","21","05:00","-2.3","","-2.6","","98","","","","12","","11","","6.4","","101.95","","","","-6","","Freezing Drizzle,Fog"
"-63.12","46.29","CHARLOTTETOWN A","8300301","2018-02-21 06:00","2018","02","21","06:00","-2.0","","-2.3","","98","","","","14","","16","","9.7","","101.77","","","","-7","","Freezing Drizzle,Fog"
"-63.12","46.29","CHARLOTTETOWN A","8300301","2018-02-21 07:00","2018","02","21","07:00","-1.4","","-1.7","","98","","","","14","","15","","3.2","","101.71","","","","-6","","Freezing Drizzle,Fog"
"-63.12","46.29","CHARLOTTETOWN A","8300301","2018-02-21 08:00","2018","02","21","08:00","0.1","","-0.1","","98","","","","16","","24","","8.1","","101.59","","","","","","Freezing Drizzle,Fog"
"-63.12","46.29","CHARLOTTETOWN A","8300301","2018-02-21 09:00","2018","02","21","09:00","0.4","","0.1","","98","","","","17","","27","","8.1","","101.46","","","","","","Rain,Fog"
"-63.12","46.29","CHARLOTTETOWN A","8300301","2018-02-21 10:00","2018","02","21","10:00","1.2","","0.9","","98","","","","18","","26","","8.1","","101.34","","","","","","Rain,Fog"
"-63.12","46.29","CHARLOTTETOWN A","8300301","2018-02-21 11:00","2018","02","21","11:00","2.1","","1.7","","97","","","","18","","31","","16.1","","101.18","","","","","","Rain"
"-63.12","46.29","CHARLOTTETOWN A","8300301","2018-02-21 12:00","2018","02","21","12:00","3.3","","2.5","","95","","","","19","","30","","19.3","","101.04","","","","","","NA"
"-63.12","46.29","CHARLOTTETOWN A","8300301","2018-02-21 13:00","2018","02","21","13:00","4.4","","3.3","","93","","","","20","","23","","24.1","","100.91","","","","","","NA"
"-63.12","46.29","CHARLOTTETOWN A","8300301","2018-02-21 14:00","2018","02","21","14:00","6.8","","5.4","","91","","","","23","","21","","16.1","","100.85","","","","","","Cloudy"
"-63.12","46.29","CHARLOTTETOWN A","8300301","2018-02-21 15:00","2018","02","21","15:00","7.6","","6.4","","92","","","","22","","19","","12.9","","100.73","","","","","","NA"
"-63.12","46.29","CHARLOTTETOWN A","8300301","2018-02-21 16:00","2018","02","21","16:00","8.2","","7.5","","95","","","","22","","21","","8.1","","100.65","","","","","","Fog"
"-63.12","46.29","CHARLOTTETOWN A","8300301","2018-02-21 17:00","2018","02","21","17:00","8.0","","7.6","","98","","","","22","","19","","3.2","","100.57","","","","","","Fog"
"-63.12","46.29","CHARLOTTETOWN A","8300301","2018-02-21 18:00","2018","02","21","18:00","7.7","","7.4","","98","","","","23","","22","","4.8","","100.55","","","","","","Fog"
"-63.12","46.29","CHARLOTTETOWN A","8300301","2018-02-21 19:00","2018","02","21","19:00","7.9","","7.5","","97","","","","25","","17","","4.8","","100.59","","","","","","Fog"
"-63.12","46.29","CHARLOTTETOWN A","8300301","2018-02-21 20:00","2018","02","21","20:00","6.9","","6.4","","97","","","","25","","22","","4.8","","100.68","","","","","","Fog"
"-63.12","46.29","CHARLOTTETOWN A","8300301","2018-02-21 21:00","2018","02","21","21:00","6.3","","6.0","","98","","","","25","","16","","9.7","","100.76","","","","","","Fog"
"-63.12","46.29","CHARLOTTETOWN A","8300301","2018-02-21 22:00","2018","02","21","22:00","5.5","","5.0","","97","","","","35","","9","","4.8","","100.92","","","","","","Fog"
"-63.12","46.29","CHARLOTTETOWN A","8300301","2018-02-21 23:00","2018","02","21","23:00","5.0","","4.9","","99","","","","31","","23","","19.3","","101.11","","","","","","Cloudy"
"-63.12","46.29","CHARLOTTETOWN A","8300301","2018-02-22 00:00","2018","02","22","00:00","3.6","","-1.4","","70","","","","31","","39","","24.1","","101.32","","","","","","NA"
"-63.12","46.29","CHARLOTTETOWN A","8300301","2018-02-22 01:00","2018","02","22","01:00","2.1","","-3.4","","67","","","","32","","36","","24.1","","101.51","","","","","","NA"
"-63.12","46.29","CHARLOTTETOWN A","8300301","2018-02-22 02:00","2018","02","22","02:00","0.5","","-8.8","","50","","","","32","","39","","24.1","","101.73","","","","","","Clear"
"-63.12","46.29","CHARLOTTETOWN A","8300301","2018-02-22 03:00","2018","02","22","03:00","-1.0","","-9.6","","52","","","","33","","40","","24.1","","101.88","","","","-9","","NA"
"-63.12","46.29","CHARLOTTETOWN A","8300301","2018-02-22 04:00","2018","02","22","04:00","-2.5","","-9.9","","57","","","","33","","41","","24.1","","102.02","","","","-11","","NA"
"-63.12","46.29","CHARLOTTETOWN A","8300301","2018-02-22 05:00","2018","02","22","05:00","-4.0","","-10.1","","63","","","","34","","30","","24.1","","102.16","","","","-12","","Clear"
"-63.12","46.29","CHARLOTTETOWN A","8300301","2018-02-22 06:00","2018","02","22","06:00","-5.1","","-10.3","","67","","","","33","","32","","24.1","","102.32","","","","-13","","NA"
"-63.12","46.29","CHARLOTTETOWN A","8300301","2018-02-22 07:00","2018","02","22","07:00","-6.1","","-10.4","","72","","","","34","","19","","24.1","","102.55","","","","-13","","NA"
"-63.12","46.29","CHARLOTTETOWN A","8300301","2018-02-22 08:00","2018","02","22","08:00","-6.4","","-10.8","","71","","","","33","","27","","24.1","","102.71","","","","-14","","Mostly Cloudy"
"-63.12","46.29","CHARLOTTETOWN A","8300301","2018-02-22 09:00","2018","02","22","09:00","-6.5","","-11.2","","69","","","","35","","25","","24.1","","102.79","","","","-14","","NA"
"-63.12","46.29","CHARLOTTETOWN A","8300301","2018-02-22 10:00","2018","02","22","10:00","-6.5","","-11.6","","67","","","","34","","16","","24.1","","102.83","","","","-13","","NA"
"-63.12","46.29","CHARLOTTETOWN A","8300301","2018-02-22 11:00","2018","02","22","11:00","-6.6","","-11.6","","68","","","","33","","21","","24.1","","102.88","","","","-14","","Snow Showers"
"-63.12","46.29","CHARLOTTETOWN A","8300301","2018-02-22 12:00","2018","02","22","12:00","-6.5","","-12.9","","61","","","","34","","20","","24.1","","102.88","","","","-13","","NA"
"-63.12","46.29","CHARLOTTETOWN A","8300301","2018-02-22 13:00","2018","02","22","13:00","-5.7","","-11.6","","63","","","","33","","17","","24.1","","102.86","","","","-12","","NA"
"-63.12","46.29","CHARLOTTETOWN A","8300301","2018-02-22 14:00","2018","02","22","14:00","-6.8","","-12.2","","65","","","","33","","21","","24.1","","102.80","","","","-14","","Snow Showers"
"-63.12","46.29","CHARLOTTETOWN A","8300301","2018-02-22 15:00","2018","02","22","15:00","-6.5","","-11.8","","66","","","","35","","18","","24.1","","102.81","","","","-13","","NA"
"-63.12","46.29","CHARLOTTETOWN A","8300301","2018-02-22 16:00","2018","02","22","16:00","-6.8","","-11.7","","69","","","","34","","16","","24.1","","102.84","","","","-13","","NA"
"-63.12","46.29","CHARLOTTETOWN A","8300301","2018-02-22 17:00","2018","02","22","17:00","-6.3","","-11.1","","69","","","","31","","15","","24.1","","102.86","","","","-12","","Cloudy"
"-63.12","46.29","CHARLOTTETOWN A","8300301","2018-02-22 18:00","2018","02","22","18:00","-6.3","","-12.3","","63","","","","32","","13","","24.1","","102.89","","","","-12","","NA"
"-63.12","46.29","CHARLOTTETOWN A","8300301","2018-02-22 19:00","2018","02","22","19:00","-6.2","","-12.2","","62","","","","31","","9","","24.1","","102.89","","","","-10","","NA"
"-63.12","46.29","CHARLOTTETOWN A","8300301","2018-02-22 20:00","2018","02","22","20:00","-6.1","","-12.0","","63","","","","30","","8","","24.1","","102.92","","","","-10","","Cloudy"
"-63.12","46.29","CHARLOTTETOWN A","8300301","2018-02-22 21:00","2018","02","22","21:00","-6.2","","-11.2","","68","","","","27","","7","","24.1","","102.94","","","","-10","","NA"
"-63.12","46.29","CHARLOTTETOWN A","8300301","2018-02-22 22:00","2018","02","22","22:00","-6.8","","-11.4","","70","","","","26","","7","","24.1","","102.92","","","","-10","","NA"
"-63.12","46.29","CHARLOTTETOWN A","8300301","2018-02-22 23:00","2018","02","22","23:00","-7.3","","-11.0","","75","","","","26","","7","","24.1","","102.93","","","","-11","","Mainly Clear"
"-63.12","46.29","CHARLOTTETOWN A","8300301","2018-02-23 00:00","2018","02","23","00:00","-7.1","","-11.3","","72","","","","31","","12","","24.1","","102.96","","","","-12","","NA"
"-63.12","46.29","CHARLOTTETOWN A","8300301","2018-02-23 01:00","2018","02","23","01:00","-6.7","","-12.8","","62","","","","32","","26","","24.1","","103.02","","","","-15","","NA"
"-63.12","46.29","CHARLOTTETOWN A","8300301","2018-02-23 02:00","2018","02","23","02:00","-7.4","","-13.0","","64","","","","33","","23","","24.1","","103.11","","","","-15","","Mainly Clear"
"-63.12","46.29","CHARLOTTETOWN A","8300301","2018-02-23 03:00","2018","02","23","03:00","-7.4","","-13.0","","65","","","","34","","29","","24.1","","103.13","","","","-16","","NA"
"-63.12","46.29","CHARLOTTETOWN A","8300301","2018-02-23 04:00","2018","02","23","04:00","-7.7","","-14.2","","59","","","","35","","23","","24.1","","103.18","","","","-15","","NA"
"-63.12","46.29","CHARLOTTETOWN A","8300301","2018-02-23 05:00","2018","02","23","05:00","-8.4","","-15.1","","59","","","","35","","9","","24.1","","103.24","","","","-13","","Mainly Clear"
"-63.12","46.29","CHARLOTTETOWN A","8300301","2018-02-23 06:00","2018","02","23","06:00","-9.0","","-14.4","","65","","","","33","","7","","24.1","","103.23","","","","-13","","NA"
"-63.12","46.29","CHARLOTTETOWN A","8300301","2018-02-23 07:00","2018","02","23","07:00","-9.3","","-13.7","","71","","","","29","","5","","24.1","","103.23","","","","-12","","NA"
"-63.12","46.29","CHARLOTTETOWN A","8300301","2018-02-23 08:00","2018","02","23","08:00","-8.3","","-12.6","","71","","","","27","","8","","24.1","","103.27","","","","-12","","Mainly Clear"
"-63.12","46.29","CHARLOTTETOWN A","8300301","2018-02-23 09:00","2018","02","23","09:00","-7.6","","-11.9","","71","","","","31","","13","","24.1","","103.27","","","","-13","","Snow Showers"
"-63.12","46.29","CHARLOTTETOWN A","8300301","2018-02-23 10:00","2018","02","23","10:00","-7.0","","-12.2","","66","","","","28","","12","","24.1","","103.27","","","","-12","","NA"
"-63.12","46.29","CHARLOTTETOWN A","8300301","2018-02-23 11:00","2018","02","23","11:00","-6.1","","-12.6","","60","","","","31","","10","","24.1","","103.22","","","","-11","","Mostly Cloudy"
"-63.12","46.29","CHARLOTTETOWN A","8300301","2018-02-23 12:00","2018","02","23","12:00","-5.1","","-12.3","","57","","","","32","","8","","24.1","","103.16","","","","-9","","NA"
"-63.12","46.29","CHARLOTTETOWN A","8300301","2018-02-23 13:00","2018","02","23","13:00","-4.5","","-13.2","","51","","","","26","","16","","24.1","","103.10","","","","-10","","NA"
"-63.12","46.29","CHARLOTTETOWN A","8300301","2018-02-23 14:00","2018","02","23","14:00","-4.4","","-12.9","","52","","","","31","","13","","24.1","","102.97","","","","-9","","Mostly Cloudy"
"-63.12","46.29","CHARLOTTETOWN A","8300301","2018-02-23 15:00","2018","02","23","15:00","-4.4","","-11.3","","59","","","","26","","11","","24.1","","102.81","","","","-9","","NA"
"-63.12","46.29","CHARLOTTETOWN A","8300301","2018-02-23 16:00","2018","02","23","16:00","-4.2","","-13.3","","49","","","","24","","7","","24.1","","102.69","","","","-7","","NA"
"-63.12","46.29","CHARLOTTETOWN A","8300301","2018-02-23 17:00","2018","02","23","17:00","-4.3","","-15.0","","43","","","","24","","10","","24.1","","102.61","","","","-8","","Cloudy"
"-63.12","46.29","CHARLOTTETOWN A","8300301","2018-02-23 18:00","2018","02","23","18:00","-5.1","","-13.4","","53","","","","18","","5","","24.1","","102.42","","","","-7","","NA"
"-63.12","46.29","CHARLOTTETOWN A","8300301","2018-02-23 19:00","2018","02","23","19:00","-5.1","","-11.0","","63","","","","20","","12","","24.1","","102.36","","","","-10","","NA"
"-63.12","46.29","CHARLOTTETOWN A","8300301","2018-02-23 20:00","2018","02","23","20:00","-5.7","","-10.4","","70","","","","19","","14","","24.1","","102.16","","","","-11","","Mostly Cloudy"
"-63.12","46.29","CHARLOTTETOWN A","8300301","2018-02-23 21:00","2018","02","23","21:00","-5.5","","-8.7","","79","","","","16","","14","","24.1","","101.96","","","","-11","","NA"
"-63.12","46.29","CHARLOTTETOWN A","8300301","2018-02-23 22:00","2018","02","23","22:00","-4.6","","-8.3","","76","","","","19","","22","","24.1","","101.79","","","","-11","","NA"
"-63.12","46.29","CHARLOTTETOWN A","8300301","2018-02-23 23:00","2018","02","23","23:00","-4.2","","-8.2","","74","","","","17","","21","","24.1","","101.47","","","","-11","","Cloudy"
"-63.12","46.29","CHARLOTTETOWN A","8300301","2018-02-24 00:00","2018","02","24","00:00","-3.4","","-6.9","","77","","","","19","","32","","2.4","","101.29","","","","-11","","Snow,Blowing Snow"
"-63.12","46.29","CHARLOTTETOWN A","8300301","2018-02-24 01:00","2018","02","24","01:00","-3.6","","-5.7","","86","","","","21","","23","","1.6","","101.28","","","","-10","","Snow,Blowing Snow"
"-63.12","46.29","CHARLOTTETOWN A","8300301","2018-02-24 02:00","2018","02","24","02:00","-3.9","","-4.8","","94","","","","19","","23","","1.6","","101.00","","","","-11","","Snow,Blowing Snow"
"-63.12","46.29","CHARLOTTETOWN A","8300301","2018-02-24 03:00","2018","02","24","03:00","-3.8","","-4.5","","94","","","","18","","27","","12.9","","100.70","","","","-11","","Snow,Blowing Snow"
"-63.12","46.29","CHARLOTTETOWN A","8300301","2018-02-24 04:00","2018","02","24","04:00","-3.5","","-4.1","","95","","","","18","","26","","8.1","","100.49","","","","-11","","Snow,Blowing Snow"
"-63.12","46.29","CHARLOTTETOWN A","8300301","2018-02-24 05:00","2018","02","24","05:00","-2.6","","-3.4","","94","","","","19","","21","","9.7","","100.36","","","","-9","","Moderate Snow,Blowing Snow"
"-63.12","46.29","CHARLOTTETOWN A","8300301","2018-02-24 06:00","2018","02","24","06:00","-1.9","","-2.7","","94","","","","20","","15","","24.1","","100.25","","","","-7","","NA"
"-63.12","46.29","CHARLOTTETOWN A","8300301","2018-02-24 07:00","2018","02","24","07:00","-1.0","","-1.9","","94","","","","22","","12","","24.1","","100.14","","","","-5","","NA"
"-63.12","46.29","CHARLOTTETOWN A","8300301","2018-02-24 08:00","2018","02","24","08:00","0.8","","0.0","","95","","","","24","","15","","19.3","","100.15","","","","","","Snow"
"-63.12","46.29","CHARLOTTETOWN A","8300301","2018-02-24 09:00","2018","02","24","09:00","1.8","","0.1","","88","","","","27","","22","","19.3","","100.15","","","","","","NA"
"-63.12","46.29","CHARLOTTETOWN A","8300301","2018-02-24 10:00","2018","02","24","10:00","2.2","","-0.8","","80","","","","29","","27","","24.1","","100.18","","","","","","NA"
"-63.12","46.29","CHARLOTTETOWN A","8300301","2018-02-24 11:00","2018","02","24","11:00","2.6","","-2.9","","67","","","","31","","24","","24.1","","100.22","","","","","","Mostly Cloudy"
"-63.12","46.29","CHARLOTTETOWN A","8300301","2018-02-24 12:00","2018","02","24","12:00","1.8","","-3.7","","67","","","","32","","30","","24.1","","100.31","","","","","","NA"
"-63.12","46.29","CHARLOTTETOWN A","8300301","2018-02-24 13:00","2018","02","24","13:00","1.7","","-4.5","","63","","","","32","","28","","24.1","","100.37","","","","","","NA"
"-63.12","46.29","CHARLOTTETOWN A","8300301","2018-02-24 14:00","2018","02","24","14:00","1.6","","-4.1","","66","","","","32","","34","","24.1","","100.39","","","","","","Mostly Cloudy"
"-63.12","46.29","CHARLOTTETOWN A","8300301","2018-02-24 15:00","2018","02","24","15:00","1.1","","-5.1","","63","","","","33","","26","","24.1","","100.51","","","","","","NA"
"-63.12","46.29","CHARLOTTETOWN A","8300301","2018-02-24 16:00","2018","02","24","16:00","0.6","","-6.1","","61","","","","33","","27","","24.1","","100.64","","","","","","NA"
"-63.12","46.29","CHARLOTTETOWN A","8300301","2018-02-24 17:00","2018","02","24","17:00","-0.1","","-6.5","","62","","","","32","","25","","24.1","","100.79","","","","-6","","Mainly Clear"
"-63.12","46.29","CHARLOTTETOWN A","8300301","2018-02-24 18:00","2018","02","24","18:00","-0.8","","-7.0","","63","","","","32","","27","","24.1","","100.94","","","","-7","","NA"
"-63.12","46.29","CHARLOTTETOWN A","8300301","2018-02-24 19:00","2018","02","24","19:00","-1.1","","-6.8","","65","","","","32","","21","","24.1","","101.04","","","","-7","","NA"
"-63.12","46.29","CHARLOTTETOWN A","8300301","2018-02-24 20:00","2018","02","24","20:00","-1.3","","-7.1","","65","","","","33","","21","","24.1","","101.14","","","","-7","","Mostly Cloudy"
"-63.12","46.29","CHARLOTTETOWN A","8300301","2018-02-24 21:00","2018","02","24","21:00","-1.2","","-7.6","","62","","","","34","","21","","24.1","","101.27","","","","-7","","NA"
"-63.12","46.29","CHARLOTTETOWN A","8300301","2018-02-24 22:00","2018","02","24","22:00","-1.6","","-7.3","","65","","","","33","","16","","24.1","","101.40","","","","-7","","NA"
"-63.12","46.29","CHARLOTTETOWN A","8300301","2018-02-24 23:00","2018","02","24","23:00","-2.1","","-8.0","","64","","","","33","","19","","24.1","","101.54","","","","-8","","Mostly Cloudy"
"-63.12","46.29","CHARLOTTETOWN A","8300301","2018-02-25 00:00","2018","02","25","00:00","-3.3","","-5.9","","82","","","","2","","15","","24.1","","101.72","","","","-8","","NA"
"-63.12","46.29","CHARLOTTETOWN A","8300301","2018-02-25 01:00","2018","02","25","01:00","-3.4","","-8.8","","66","","","","35","","26","","24.1","","101.87","","","","-10","","NA"
"-63.12","46.29","CHARLOTTETOWN A","8300301","2018-02-25 02:00","2018","02","25","02:00","-3.6","","-10.1","","61","","","","34","","19","","24.1","","101.98","","","","-10","","Cloudy"
"-63.12","46.29","CHARLOTTETOWN A","8300301","2018-02-25 03:00","2018","02","25","03:00","-4.3","","-8.2","","74","","","","1","","16","","24.1","","102.04","","","","-10","","NA"
"-63.12","46.29","CHARLOTTETOWN A","8300301","2018-02-25 04:00","2018","02","25","04:00","-5.4","","-10.1","","70","","","","1","","19","","24.1","","102.18","","","","-12","","NA"
"-63.12","46.29","CHARLOTTETOWN A","8300301","2018-02-25 05:00","2018","02","25","05:00","-6.4","","-10.3","","74","","","","3","","19","","24.1","","102.31","","","","-13","","Mainly Clear"
"-63.12","46.29","CHARLOTTETOWN A","8300301","2018-02-25 06:00","2018","02","25","06:00","-7.6","","-11.6","","73","","","","3","","14","","24.1","","102.37","","","","-14","","NA"
"-63.12","46.29","CHARLOTTETOWN A","8300301","2018-02-25 07:00","2018","02","25","07:00","-7.7","","-12.2","","71","","","","3","","17","","24.1","","102.40","","","","-14","","NA"
"-63.12","46.29","CHARLOTTETOWN A","8300301","2018-02-25 08:00","2018","02","25","08:00","-7.3","","-11.8","","70","","","","2","","19","","24.1","","102.48","","","","-14","","Mostly Cloudy"
"-63.12","46.29","CHARLOTTETOWN A","8300301","2018-02-25 09:00","2018","02","25","09:00","-7.0","","-13.2","","61","","","","7","","18","","24.1","","102.58","","","","-14","","NA"
"-63.12","46.29","CHARLOTTETOWN A","8300301","2018-02-25 10:00","2018","02","25","10:00","-6.7","","-13.6","","59","","","","3","","24","","24.1","","102.63","","","","-14","","NA"
"-63.12","46.29","CHARLOTTETOWN A","8300301","2018-02-25 11:00","2018","02","25","11:00","-6.4","","-14.4","","53","","","","4","","25","","24.1","","102.59","","","","-14","","Mostly Cloudy"
"-63.12","46.29","CHARLOTTETOWN A","8300301","2018-02-25 12:00","2018","02","25","12:00","-6.3","","-15.1","","50","","","","8","","18","","24.1","","102.56","","","","-13","","NA"
"-63.12","46.29","CHARLOTTETOWN A","8300301","2018-02-25 13:00","2018","02","25","13:00","-6.0","","-14.6","","51","","","","5","","8","","24.1","","102.48","","","","-10","","NA"
"-63.12","46.29","CHARLOTTETOWN A","8300301","2018-02-25 14:00","2018","02","25","14:00","-5.1","","-14.2","","49","","","","10","","8","","24.1","","102.43","","","","-9","","Cloudy"
"-63.12","46.29","CHARLOTTETOWN A","8300301","2018-02-25 15:00","2018","02","25","15:00","-4.7","","-14.7","","46","","","","13","","11","","24.1","","102.36","","","","-9","","NA"
"-63.12","46.29","CHARLOTTETOWN A","8300301","2018-02-25 16:00","2018","02","25","16:00","-5.5","","-12.3","","59","","","","16","","13","","24.1","","102.26","","","","-11","","NA"
"-63.12","46.29","CHARLOTTETOWN A","8300301","2018-02-25 17:00","2018","02","25","17:00","-5.5","","-14.9","","48","","","","13","","16","","24.1","","102.20","","","","-11","","Cloudy"
"-63.12","46.29","CHARLOTTETOWN A","8300301","2018-02-25 18:00","2018","02","25","18:00","-5.9","","-13.7","","54","","","","12","","13","","24.1","","102.17","","","","-11","","NA"
"-63.12","46.29","CHARLOTTETOWN A","8300301","2018-02-25 19:00","2018","02","25","19:00","-6.4","","-12.1","","64","","","","12","","16","","24.1","","102.05","","","","-13","","NA"
"-63.12","46.29","CHARLOTTETOWN A","8300301","2018-02-25 20:00","2018","02","25","20:00","-6.2","","-11.4","","67","","","","12","","16","","24.1","","102.13","","","","-12","","Cloudy"
"-63.12","46.29","CHARLOTTETOWN A","8300301","2018-02-25 21:00","2018","02","25","21:00","-5.6","","-10.2","","70","","","","13","","13","","24.1","","102.06","","","","-11","","NA"
"-63.12","46.29","CHARLOTTETOWN A","8300301","2018-02-25 22:00","2018","02","25","22:00","-4.7","","-9.4","","70","","","","14","","17","","24.1","","102.04","","","","-11","","NA"
"-63.12","46.29","CHARLOTTETOWN A","8300301","2018-02-25 23:00","2018","02","25","23:00","-4.5","","-9.4","","68","","","","14","","17","","16.1","","101.99","","","","-10","","Snow"
"-63.12","46.29","CHARLOTTETOWN A","8300301","2018-02-26 00:00","2018","02","26","00:00","-5.4","","-6.8","","90","","","","14","","18","","2.4","","101.96","","","","-12","","Snow"
"-63.12","46.29","CHARLOTTETOWN A","8300301","2018-02-26 01:00","2018","02","26","01:00","-5.5","","-6.5","","93","","","","13","","23","","2.4","","101.82","","","","-13","","Snow"
"-63.12","46.29","CHARLOTTETOWN A","8300301","2018-02-26 02:00","2018","02","26","02:00","-5.3","","-6.5","","91","","","","13","","20","","3.2","","101.70","","","","-12","","Snow"
"-63.12","46.29","CHARLOTTETOWN A","8300301","2018-02-26 03:00","2018","02","26","03:00","-4.8","","-5.9","","92","","","","13","","22","","4.8","","101.53","","","","-12","","Snow"
"-63.12","46.29","CHARLOTTETOWN A","8300301","2018-02-26 04:00","2018","02","26","04:00","-4.3","","-5.4","","92","","","","13","","26","","4.8","","101.40","","","","-12","","Snow"
"-63.12","46.29","CHARLOTTETOWN A","8300301","2018-02-26 05:00","2018","02","26","05:00","-3.8","","-5.1","","91","","","","13","","18","","2.4","","101.36","","","","-10","","Snow"
"-63.12","46.29","CHARLOTTETOWN A","8300301","2018-02-26 06:00","2018","02","26","06:00","-3.5","","-4.5","","93","","","","14","","22","","3.2","","101.22","","","","-10","","Snow"
"-63.12","46.29","CHARLOTTETOWN A","8300301","2018-02-26 07:00","2018","02","26","07:00","-3.1","","-4.4","","91","","","","15","","19","","4.8","","101.14","","","","-9","","Snow"
"-63.12","46.29","CHARLOTTETOWN A","8300301","2018-02-26 08:00","2018","02","26","08:00","-2.3","","-3.4","","92","","","","14","","14","","6.4","","101.06","","","","-7","","Freezing Drizzle,Snow"
"-63.12","46.29","CHARLOTTETOWN A","8300301","2018-02-26 09:00","2018","02","26","09:00","-1.1","","-1.8","","95","","","","14","","18","","4.0","","101.02","","","","-6","","Freezing Drizzle,Snow"
"-63.12","46.29","CHARLOTTETOWN A","8300301","2018-02-26 10:00","2018","02","26","10:00","-0.4","","-1.0","","96","","","","15","","21","","3.2","","100.95","","","","-6","","Freezing Drizzle,Snow"
"-63.12","46.29","CHARLOTTETOWN A","8300301","2018-02-26 11:00","2018","02","26","11:00","0.2","","-0.5","","96","","","","15","","20","","4.0","","100.87","","","","","","Drizzle,Snow"
"-63.12","46.29","CHARLOTTETOWN A","8300301","2018-02-26 12:00","2018","02","26","12:00","0.5","","-0.2","","95","","","","17","","21","","4.0","","100.77","","","","","","Drizzle,Fog"
"-63.12","46.29","CHARLOTTETOWN A","8300301","2018-02-26 13:00","2018","02","26","13:00","0.8","","0.3","","96","","","","18","","12","","4.0","","100.67","","","","","","Drizzle,Fog"
"-63.12","46.29","CHARLOTTETOWN A","8300301","2018-02-26 14:00","2018","02","26","14:00","0.9","","0.5","","97","","","","16","","9","","2.4","","100.56","","","","","","Snow"
"-63.12","46.29","CHARLOTTETOWN A","8300301","2018-02-26 15:00","2018","02","26","15:00","1.5","","1.2","","98","","","","18","","6","","3.2","","100.48","","","","","","Rain,Snow"
"-63.12","46.29","CHARLOTTETOWN A","8300301","2018-02-26 16:00","2018","02","26","16:00","1.5","","1.2","","98","","","","27","","4","","3.2","","100.43","","","","","","Rain,Snow"
"-63.12","46.29","CHARLOTTETOWN A","8300301","2018-02-26 17:00","2018","02","26","17:00","1.3","","1.1","","98","","","","31","","7","","4.8","","100.41","","","","","","Rain"
"-63.12","46.29","CHARLOTTETOWN A","8300301","2018-02-26 18:00","2018","02","26","18:00","1.1","","0.9","","98","","","","29","","5","","24.1","","100.43","","","","","","NA"
"-63.12","46.29","CHARLOTTETOWN A","8300301","2018-02-26 19:00","2018","02","26","19:00","0.6","","0.3","","97","","","","26","","7","","24.1","","100.46","","","","","","NA"
"-63.12","46.29","CHARLOTTETOWN A","8300301","2018-02-26 20:00","2018","02","26","20:00","1.1","","0.0","","92","","","","26","","12","","24.1","","100.47","","","","","","Mostly Cloudy"
"-63.12","46.29","CHARLOTTETOWN A","8300301","2018-02-26 21:00","2018","02","26","21:00","0.5","","0.2","","97","","","","27","","11","","16.1","","100.50","","","","","","NA"
"-63.12","46.29","CHARLOTTETOWN A","8300301","2018-02-26 22:00","2018","02","26","22:00","0.4","","-0.2","","96","","","","28","","12","","24.1","","100.49","","","","","","NA"
"-63.12","46.29","CHARLOTTETOWN A","8300301","2018-02-26 23:00","2018","02","26","23:00","1.1","","-1.2","","85","","","","32","","23","","24.1","","100.53","","","","","","Mostly Cloudy"
"-63.12","46.29","CHARLOTTETOWN A","8300301","2018-02-27 00:00","2018","02","27","00:00","0.9","","-2.5","","78","","","","31","","24","","24.1","","100.55","","","","","","NA"
"-63.12","46.29","CHARLOTTETOWN A","8300301","2018-02-27 01:00","2018","02","27","01:00","0.4","","-3.5","","75","","","","30","","19","","24.1","","100.63","","","","","","NA"
"-63.12","46.29","CHARLOTTETOWN A","8300301","2018-02-27 02:00","2018","02","27","02:00","0.2","","-3.4","","77","","","","30","","22","","24.1","","100.68","","","","","","Mainly Clear"
"-63.12","46.29","CHARLOTTETOWN A","8300301","2018-02-27 03:00","2018","02","27","03:00","-0.1","","-5.5","","67","","","","30","","31","","24.1","","100.72","","","","-7","","NA"
"-63.12","46.29","CHARLOTTETOWN A","8300301","2018-02-27 04:00","2018","02","27","04:00","-0.8","","-6.2","","67","","","","31","","23","","24.1","","100.79","","","","-7","","NA"
"-63.12","46.29","CHARLOTTETOWN A","8300301","2018-02-27 05:00","2018","02","27","05:00","-1.1","","-6.6","","67","","","","31","","23","","24.1","","100.86","","","","-7","","Clear"
"-63.12","46.29","CHARLOTTETOWN A","8300301","2018-02-27 06:00","2018","02","27","06:00","-1.4","","-6.5","","69","","","","29","","19","","24.1","","100.94","","","","-7","","NA"
"-63.12","46.29","CHARLOTTETOWN A","8300301","2018-02-27 07:00","2018","02","27","07:00","-2.0","","-6.5","","71","","","","30","","19","","24.1","","101.00","","","","-8","","NA"
"-63.12","46.29","CHARLOTTETOWN A","8300301","2018-02-27 08:00","2018","02","27","08:00","-1.3","","-6.4","","68","","","","29","","16","","24.1","","101.03","","","","-6","","Clear"
"-63.12","46.29","CHARLOTTETOWN A","8300301","2018-02-27 09:00","2018","02","27","09:00","-0.4","","-6.0","","66","","","","31","","24","","24.1","","101.11","","","","-6","","NA"
"-63.12","46.29","CHARLOTTETOWN A","8300301","2018-02-27 10:00","2018","02","27","10:00","0.6","","-6.0","","61","","","","31","","26","","24.1","","101.14","","","","","","NA"
"-63.12","46.29","CHARLOTTETOWN A","8300301","2018-02-27 11:00","2018","02","27","11:00","0.8","","-6.0","","60","","","","31","","26","","24.1","","101.17","","","","","","Mainly Clear"
"-63.12","46.29","CHARLOTTETOWN A","8300301","2018-02-27 12:00","2018","02","27","12:00","1.4","","-6.9","","54","","","","30","","27","","24.1","","101.13","","","","","","NA"
"-63.12","46.29","CHARLOTTETOWN A","8300301","2018-02-27 13:00","2018","02","27","13:00","1.4","","-6.9","","54","","","","32","","28","","24.1","","101.12","","","","","","NA"
"-63.12","46.29","CHARLOTTETOWN A","8300301","2018-02-27 14:00","2018","02","27","14:00","1.8","","-7.1","","52","","","","33","","23","","24.1","","101.09","","","","","","Mainly Clear"
"-63.12","46.29","CHARLOTTETOWN A","8300301","2018-02-27 15:00","2018","02","27","15:00","1.6","","-7.9","","49","","","","33","","17","","24.1","","101.09","","","","","","NA"
"-63.12","46.29","CHARLOTTETOWN A","8300301","2018-02-27 16:00","2018","02","27","16:00","1.1","","-6.8","","56","","","","33","","22","","24.1","","101.12","","","","","","NA"
"-63.12","46.29","CHARLOTTETOWN A","8300301","2018-02-27 17:00","2018","02","27","17:00","0.6","","-5.2","","65","","","","28","","8","","24.1","","101.12","","","","","","Mostly Cloudy"
"-63.12","46.29","CHARLOTTETOWN A","8300301","2018-02-27 18:00","2018","02","27","18:00","-0.6","","-5.2","","71","","","","31","","5","","24.1","","101.14","","","","-2","","NA"
"-63.12","46.29","CHARLOTTETOWN A","8300301","2018-02-27 19:00","2018","02","27","19:00","-1.0","","-5.3","","73","","","","31","","9","","24.1","","101.19","","","","-4","","NA"
"-63.12","46.29","CHARLOTTETOWN A","8300301","2018-02-27 20:00","2018","02","27","20:00","-0.7","","-5.3","","71","","","","30","","10","","24.1","","101.19","","","","-4","","Mostly Cloudy"
"-63.12","46.29","CHARLOTTETOWN A","8300301","2018-02-27 21:00","2018","02","27","21:00","-1.7","","-5.5","","75","","","","27","","9","","24.1","","101.21","","","","-5","","NA"
"-63.12","46.29","CHARLOTTETOWN A","8300301","2018-02-27 22:00","2018","02","27","22:00","-2.2","","-5.5","","78","","","","30","","7","","24.1","","101.22","","","","-5","","NA"
"-63.12","46.29","CHARLOTTETOWN A","8300301","2018-02-27 23:00","2018","02","27","23:00","-1.9","","-5.9","","74","","","","33","","3","","24.1","","101.21","","","","-3","","Mostly Cloudy"
"-63.12","46.29","CHARLOTTETOWN A","8300301","2018-02-28 00:00","2018","02","28","00:00","-3.0","","-5.9","","80","","","","25","","4","","24.1","","101.18","","","","-5","","NA"
"-63.12","46.29","CHARLOTTETOWN A","8300301","2018-02-28 01:00","2018","02","28","01:00","-2.7","","-6.0","","78","","","","27","","9","","24.1","","101.18","","","","-6","","NA"
"-63.12","46.29","CHARLOTTETOWN A","8300301","2018-02-28 02:00","2018","02","28","02:00","-3.9","","-6.3","","83","","","","27","","6","","24.1","","101.17","","","","-7","","Mainly Clear"
"-63.12","46.29","CHARLOTTETOWN A","8300301","2018-02-28 03:00","2018","02","28","03:00","-5.1","","-6.7","","89","","","","15","","4","","24.1","","101.13","","","","-7","","NA"
"-63.12","46.29","CHARLOTTETOWN A","8300301","2018-02-28 04:00","2018","02","28","04:00","-4.7","","-6.4","","88","","","","11","","3","","24.1","","101.10","","","","-6","","NA"
"-63.12","46.29","CHARLOTTETOWN A","8300301","2018-02-28 05:00","2018","02","28","05:00","-4.8","","-6.2","","90","","","","12","","6","","24.1","","101.07","","","","-8","","Mainly Clear"
"-63.12","46.29","CHARLOTTETOWN A","8300301","2018-02-28 06:00","2018","02","28","06:00","-5.2","","-6.2","","93","","","","14","","8","","24.1","","101.05","","","","-9","","NA"
"-63.12","46.29","CHARLOTTETOWN A","8300301","2018-02-28 07:00","2018","02","28","07:00","-4.1","","-5.2","","92","","","","13","","10","","24.1","","101.01","","","","-8","","NA"
"-63.12","46.29","CHARLOTTETOWN A","8300301","2018-02-28 08:00","2018","02","28","08:00","-3.4","","-5.4","","86","","","","10","","13","","24.1","","100.96","","","","-8","","Cloudy"
"-63.12","46.29","CHARLOTTETOWN A","8300301","2018-02-28 09:00","2018","02","28","09:00","-2.3","","-4.7","","84","","","","11","","15","","24.1","","100.93","","","","-7","","NA"
"-63.12","46.29","CHARLOTTETOWN A","8300301","2018-02-28 10:00","2018","02","28","10:00","-2.2","","-3.5","","90","","","","11","","15","","0.8","","100.92","","","","-7","","Moderate Snow"
"-63.12","46.29","CHARLOTTETOWN A","8300301","2018-02-28 11:00","2018","02","28","11:00","-1.9","","-3.0","","92","","","","11","","19","","1.6","","100.85","","","","-7","","Snow"
"-63.12","46.29","CHARLOTTETOWN A","8300301","2018-02-28 12:00","2018","02","28","12:00","-1.6","","-3.0","","90","","","","9","","16","","4.0","","100.82","","","","-7","","Snow"
"-63.12","46.29","CHARLOTTETOWN A","8300301","2018-02-28 13:00","2018","02","28","13:00","-1.2","","-2.5","","91","","","","9","","13","","8.1","","100.83","","","","-5","","Snow,Fog"
"-63.12","46.29","CHARLOTTETOWN A","8300301","2018-02-28 14:00","2018","02","28","14:00","-0.9","","-2.8","","87","","","","8","","14","","19.3","","100.86","","","","-5","","Snow"
"-63.12","46.29","CHARLOTTETOWN A","8300301","2018-02-28 15:00","2018","02","28","15:00","-1.0","","-2.5","","90","","","","6","","14","","19.3","","100.90","","","","-5","","Snow"
"-63.12","46.29","CHARLOTTETOWN A","8300301","2018-02-28 16:00","2018","02","28","16:00","-1.2","","-2.4","","92","","","","7","","10","","19.3","","100.99","","","","-5","","Snow"
"-63.12","46.29","CHARLOTTETOWN A","8300301","2018-02-28 17:00","2018","02","28","17:00","-2.2","","-3.4","","92","","","","4","","19","","16.1","","101.07","","","","-8","","Moderate Snow Grains"
"-63.12","46.29","CHARLOTTETOWN A","8300301","2018-02-28 18:00","2018","02","28","18:00","-2.8","","-4.2","","90","","","","6","","17","","16.1","","101.13","","","","-8","","Snow Grains"
"-63.12","46.29","CHARLOTTETOWN A","8300301","2018-02-28 19:00","2018","02","28","19:00","-3.3","","-5.4","","85","","","","6","","18","","19.3","","101.19","","","","-9","","Snow Grains"
"-63.12","46.29","CHARLOTTETOWN A","8300301","2018-02-28 20:00","2018","02","28","20:00","-3.7","","-7.1","","78","","","","7","","14","","24.1","","101.21","","","","-9","","Cloudy"
"-63.12","46.29","CHARLOTTETOWN A","8300301","2018-02-28 21:00","2018","02","28","21:00","-4.2","","-7.7","","76","","","","10","","5","","24.1","","101.30","","","","-6","","NA"
"-63.12","46.29","CHARLOTTETOWN A","8300301","2018-02-28 22:00","2018","02","28","22:00","-4.1","","-8.0","","75","","","","8","","10","","24.1","","101.31","","","","-8","","NA"
"-63.12","46.29","CHARLOTTETOWN A","8300301","2018-02-28 23:00","2018","02","28","23:00","-4.5","","-9.2","","70","","","","10","","8","","24.1","","101.34","","","","-8","","Mostly Cloudy"
