"Longitude (x)","Latitude (y)","Station Name","Climate ID","Date/Time (LST)","Year","Month","Day","Time (LST)","Temp (°C)","Temp Flag","Dew Point Temp (°C)","Dew Point Temp Flag","Rel Hum (%)","Rel Hum Flag","Precip. Amount (mm)","Precip. Amount Flag","Wind Dir (10s deg)","Wind Dir Flag","Wind Spd (km/h)","Wind Spd Flag","Visibility (km)","Visibility Flag","Stn Press (kPa)","Stn Press Flag","Hmdx","Hmdx Flag","Wind Chill","Wind Chill Flag","Weather"
"-59.96","43.93","SABLE ISLAND A","8204703","2020-09-01 00:00","2020","09","01","00:00","","M","","M","","M","","M","","M","","M","","M","","M","","","","","NA"
"-59.96","43.93","SABLE ISLAND A","8204703","2020-09-01 01:00","2020","09","01","01:00","","M","","M","","M","","M","","M","","M","","M","","M","","","","","NA"
"-59.96","43.93","SABLE ISLAND A","8204703","2020-09-01 02:00","2020","09","01","02:00","","M","","M","","M","","M","","M","","M","","M","","M","","","","","NA"
"-59.96","43.93","SABLE ISLAND A","8204703","2020-09-01 03:00","2020","09","01","03:00","","M","","M","","M","","M","","M","","M","","M","","M","","","","","NA"
"-59.96","43.93","SABLE ISLAND A","8204703","2020-09-01 04:00","2020","09","01","04:00","","M","","M","","M","","M","","M","","M","","M","","M","","","","","NA"
"-59.96","43.93","SABLE ISLAND A","8204703","2020-09-01 05:00","2020","09","01","05:00","","M","","M","","M","","M","","M","","M","","M","","M","","","","","NA"
"-59.96","43.93","SABLE ISLAND A","8204703","2020-09-01 06:00","2020","09","01","06:00","","M","","M","","M","","M","","M","","M","","M","","M","","","","","NA"
"-59.96","43.93","SABLE ISLAND A","8204703","2020-09-01 07:00","2020","09","01","07:00","","M","","M","","M","","M","","M","","M","","M","","M","","","","","NA"
"-59.96","43.93","SABLE ISLAND A","8204703","2020-09-01 08:00","2020","09","01","08:00","","M","","M","","M","","M","","M","","M","","M","","M","","","","","NA"
"-59.96","43.93","SABLE ISLAND A","8204703","2020-09-01 09:00","2020","09","01","09:00","","M","","M","","M","","M","","M","","M","","M","","M","","","","","NA"
"-59.96","43.93","SABLE ISLAND A","8204703","2020-09-01 10:00","2020","09","01","10:00","","M","","M","","M","","M","","M","","M","","M","","M","","","","","NA"
"-59.96","43.93","SABLE ISLAND A","8204703","2020-09-01 11:00","2020","09","01","11:00","","M","","M","","M","","M","","M","","M","","M","","M","","","","","NA"
"-59.96","43.93","SABLE ISLAND A","8204703","2020-09-01 12:00","2020","09","01","12:00","","M","","M","","M","","M","","M","","M","","M","","M","","","","","NA"
"-59.96","43.93","SABLE ISLAND A","8204703","2020-09-01 13:00","2020","09","01","13:00","","M","","M","","M","","M","","M","","M","","M","","M","","","","","NA"
"-59.96","43.93","SABLE ISLAND A","8204703","2020-09-01 14:00","2020","09","01","14:00","","M","","M","","M","","M","","M","","M","","M","","M","","","","","NA"
"-59.96","43.93","SABLE ISLAND A","8204703","2020-09-01 15:00","2020","09","01","15:00","","M","","M","","M","","M","","M","","M","","M","","M","","","","","NA"
"-59.96","43.93","SABLE ISLAND A","8204703","2020-09-01 16:00","2020","09","01","16:00","","M","","M","","M","","M","","M","","M","","M","","M","","","","","NA"
"-59.96","43.93","SABLE ISLAND A","8204703","2020-09-01 17:00","2020","09","01","17:00","","M","","M","","M","","M","","M","","M","","M","","M","","","","","NA"
"-59.96","43.93","SABLE ISLAND A","8204703","2020-09-01 18:00","2020","09","01","18:00","","M","","M","","M","","M","","M","","M","","M","","M","","","","","NA"
"-59.96","43.93","SABLE ISLAND A","8204703","2020-09-01 19:00","2020","09","01","19:00","","M","","M","","M","","M","","M","","M","","M","","M","","","","","NA"
"-59.96","43.93","SABLE ISLAND A","8204703","2020-09-01 20:00","2020","09","01","20:00","","M","","M","","M","","M","","M","","M","","M","","M","","","","","NA"
"-59.96","43.93","SABLE ISLAND A","8204703","2020-09-01 21:00","2020","09","01","21:00","","M","","M","","M","","M","","M","","M","","M","","M","","","","","NA"
"-59.96","43.93","SABLE ISLAND A","8204703","2020-09-01 22:00","2020","09","01","22:00","","M","","M","","M","","M","","M","","M","","M","","M","","","","","NA"
"-59.96","43.93","SABLE ISLAND A","8204703","2020-09-01 23:00","2020","09","01","23:00","","M","","M","","M","","M","","M","","M","","M","","M","","","","","NA"
"-59.96","43.93","SABLE ISLAND A","8204703","2020-09-02 00:00","2020","09","02","00:00","","M","","M","","M","","M","","M","","M","","M","","M","","","","","NA"
"-59.96","43.93","SABLE ISLAND A","8204703","2020-09-02 01:00","2020","09","02","01:00","","M","","M","","M","","M","","M","","M","","M","","M","","","","","NA"
"-59.96","43.93","SABLE ISLAND A","8204703","2020-09-02 02:00","2020","09","02","02:00","","M","","M","","M","","M","","M","","M","","M","","M","","","","","NA"
"-59.96","43.93","SABLE ISLAND A","8204703","2020-09-02 03:00","2020","09","02","03:00","","M","","M","","M","","M","","M","","M","","M","","M","","","","","NA"
"-59.96","43.93","SABLE ISLAND A","8204703","2020-09-02 04:00","2020","09","02","04:00","","M","","M","","M","","M","","M","","M","","M","","M","","","","","NA"
"-59.96","43.93","SABLE ISLAND A","8204703","2020-09-02 05:00","2020","09","02","05:00","","M","","M","","M","","M","","M","","M","","M","","M","","","","","NA"
"-59.96","43.93","SABLE ISLAND A","8204703","2020-09-02 06:00","2020","09","02","06:00","","M","","M","","M","","M","","M","","M","","M","","M","","","","","NA"
"-59.96","43.93","SABLE ISLAND A","8204703","2020-09-02 07:00","2020","09","02","07:00","","M","","M","","M","","M","","M","","M","","M","","M","","","","","NA"
"-59.96","43.93","SABLE ISLAND A","8204703","2020-09-02 08:00","2020","09","02","08:00","","M","","M","","M","","M","","M","","M","","M","","M","","","","","NA"
"-59.96","43.93","SABLE ISLAND A","8204703","2020-09-02 09:00","2020","09","02","09:00","","M","","M","","M","","M","","M","","M","","M","","M","","","","","NA"
"-59.96","43.93","SABLE ISLAND A","8204703","2020-09-02 10:00","2020","09","02","10:00","","M","","M","","M","","M","","M","","M","","M","","M","","","","","NA"
"-59.96","43.93","SABLE ISLAND A","8204703","2020-09-02 11:00","2020","09","02","11:00","","M","","M","","M","","M","","M","","M","","M","","M","","","","","NA"
"-59.96","43.93","SABLE ISLAND A","8204703","2020-09-02 12:00","2020","09","02","12:00","19.1","","12.5","","65","","0.0","","11","","24","","","M","102.29","","","","","","NA"
"-59.96","43.93","SABLE ISLAND A","8204703","2020-09-02 13:00","2020","09","02","13:00","","M","","M","","M","","M","","M","","M","","M","","M","","","","","NA"
"-59.96","43.93","SABLE ISLAND A","8204703","2020-09-02 14:00","2020","09","02","14:00","","M","","M","","M","","M","","M","","M","","M","","M","","","","","NA"
"-59.96","43.93","SABLE ISLAND A","8204703","2020-09-02 15:00","2020","09","02","15:00","","M","","M","","M","","M","","M","","M","","M","","M","","","","","NA"
"-59.96","43.93","SABLE ISLAND A","8204703","2020-09-02 16:00","2020","09","02","16:00","19.0","","12.5","","66","","0.0","","13","","21","","","M","102.15","","","","","","NA"
"-59.96","43.93","SABLE ISLAND A","8204703","2020-09-02 17:00","2020","09","02","17:00","","M","","M","","M","","M","","M","","M","","M","","M","","","","","NA"
"-59.96","43.93","SABLE ISLAND A","8204703","2020-09-02 18:00","2020","09","02","18:00","17.5","","13.5","","77","","0.0","","13","","22","","","M","102.01","","","","","","NA"
"-59.96","43.93","SABLE ISLAND A","8204703","2020-09-02 19:00","2020","09","02","19:00","17.5","","14.4","","82","","0.0","","14","","24","","16.1","","101.98","","","","","","NA"
"-59.96","43.93","SABLE ISLAND A","8204703","2020-09-02 20:00","2020","09","02","20:00","17.6","","15.1","","85","","0.0","","14","","22","","","M","102.00","","","","","","NA"
"-59.96","43.93","SABLE ISLAND A","8204703","2020-09-02 21:00","2020","09","02","21:00","17.8","","16.0","","89","","0.0","","14","","22","","16.1","","101.97","","","","","","NA"
"-59.96","43.93","SABLE ISLAND A","8204703","2020-09-02 22:00","2020","09","02","22:00","17.7","","16.2","","91","","0.0","","14","","18","","16.1","","101.93","","","","","","NA"
"-59.96","43.93","SABLE ISLAND A","8204703","2020-09-02 23:00","2020","09","02","23:00","17.6","","16.8","","95","","0.0","","13","","17","","16.1","","101.84","","","","","","NA"
"-59.96","43.93","SABLE ISLAND A","8204703","2020-09-03 00:00","2020","09","03","00:00","17.8","","17.3","","97","","0.0","","13","","17","","16.1","","101.77","","","","","","NA"
"-59.96","43.93","SABLE ISLAND A","8204703","2020-09-03 01:00","2020","09","03","01:00","17.9","","17.6","","98","","0.0","","13","","18","","14.5","","101.70","","","","","","NA"
"-59.96","43.93","SABLE ISLAND A","8204703","2020-09-03 02:00","2020","09","03","02:00","18.0","","17.7","","98","","0.0","","13","","21","","12.9","","101.63","","","","","","NA"
"-59.96","43.93","SABLE ISLAND A","8204703","2020-09-03 03:00","2020","09","03","03:00","18.2","","17.9","","98","","0.0","","13","","21","","9.7","","101.56","","","","","","Fog"
"-59.96","43.93","SABLE ISLAND A","8204703","2020-09-03 04:00","2020","09","03","04:00","18.3","","18.1","","99","","0.0","","14","","22","","9.7","","101.53","","","","","","Fog"
"-59.96","43.93","SABLE ISLAND A","8204703","2020-09-03 05:00","2020","09","03","05:00","18.3","","18.3","","100","","0.0","","14","","21","","9.7","","101.55","","","","","","Fog"
"-59.96","43.93","SABLE ISLAND A","8204703","2020-09-03 06:00","2020","09","03","06:00","18.6","","18.6","","100","","0.0","","15","","21","","9.7","","101.53","","","","","","Fog"
"-59.96","43.93","SABLE ISLAND A","8204703","2020-09-03 07:00","2020","09","03","07:00","19.3","","18.8","","97","","0.0","","16","","22","","12.9","","101.54","","","","","","NA"
"-59.96","43.93","SABLE ISLAND A","8204703","2020-09-03 08:00","2020","09","03","08:00","20.2","","19.3","","94","","0.0","","16","","18","","14.5","","101.54","","27","","","","NA"
"-59.96","43.93","SABLE ISLAND A","8204703","2020-09-03 09:00","2020","09","03","09:00","20.5","","19.2","","92","","0.0","","16","","22","","12.9","","101.53","","27","","","","NA"
"-59.96","43.93","SABLE ISLAND A","8204703","2020-09-03 10:00","2020","09","03","10:00","21.4","","19.3","","87","","0.0","","15","","17","","16.1","","101.50","","28","","","","NA"
"-59.96","43.93","SABLE ISLAND A","8204703","2020-09-03 11:00","2020","09","03","11:00","21.1","","19.1","","88","","0.0","","15","","18","","16.1","","101.45","","28","","","","NA"
"-59.96","43.93","SABLE ISLAND A","8204703","2020-09-03 12:00","2020","09","03","12:00","21.0","","19.4","","90","","0.0","","16","","17","","16.1","","101.45","","28","","","","NA"
"-59.96","43.93","SABLE ISLAND A","8204703","2020-09-03 13:00","2020","09","03","13:00","21.7","","19.2","","85","","0.0","","17","","15","","16.1","","101.44","","29","","","","NA"
"-59.96","43.93","SABLE ISLAND A","8204703","2020-09-03 14:00","2020","09","03","14:00","21.7","","19.3","","86","","0.0","","16","","17","","16.1","","101.40","","29","","","","NA"
"-59.96","43.93","SABLE ISLAND A","8204703","2020-09-03 15:00","2020","09","03","15:00","20.6","","19.1","","91","","0.0","","17","","17","","9.7","","101.40","","27","","","","Fog"
"-59.96","43.93","SABLE ISLAND A","8204703","2020-09-03 16:00","2020","09","03","16:00","21.0","","19.3","","90","","0.0","","16","","18","","16.1","","101.38","","28","","","","NA"
"-59.96","43.93","SABLE ISLAND A","8204703","2020-09-03 17:00","2020","09","03","17:00","20.5","","19.2","","92","","0.0","","16","","18","","14.5","","101.39","","27","","","","NA"
"-59.96","43.93","SABLE ISLAND A","8204703","2020-09-03 18:00","2020","09","03","18:00","19.9","","19.6","","98","","0.0","","15","","15","","9.7","","101.41","","","","","","Fog"
"-59.96","43.93","SABLE ISLAND A","8204703","2020-09-03 19:00","2020","09","03","19:00","19.9","","19.9","","100","","0.0","","15","","17","","9.7","","101.40","","","","","","Fog"
"-59.96","43.93","SABLE ISLAND A","8204703","2020-09-03 20:00","2020","09","03","20:00","19.8","","19.8","","100","","0.0","","16","","18","","9.7","","101.44","","","","","","Fog"
"-59.96","43.93","SABLE ISLAND A","8204703","2020-09-03 21:00","2020","09","03","21:00","19.6","","19.6","","100","","0.0","","15","","17","","8.1","","101.42","","","","","","Fog"
"-59.96","43.93","SABLE ISLAND A","8204703","2020-09-03 22:00","2020","09","03","22:00","19.8","","19.8","","100","","0.0","","16","","21","","8.1","","101.39","","","","","","Fog"
"-59.96","43.93","SABLE ISLAND A","8204703","2020-09-03 23:00","2020","09","03","23:00","19.8","","19.8","","100","","0.0","","16","","21","","9.7","","101.34","","","","","","Fog"
"-59.96","43.93","SABLE ISLAND A","8204703","2020-09-04 00:00","2020","09","04","00:00","19.9","","19.9","","100","","0.0","","15","","26","","6.4","","101.32","","","","","","Rain,Fog"
"-59.96","43.93","SABLE ISLAND A","8204703","2020-09-04 01:00","2020","09","04","01:00","19.9","","19.9","","100","","0.0","","15","","22","","8.1","","101.30","","","","","","Fog"
"-59.96","43.93","SABLE ISLAND A","8204703","2020-09-04 02:00","2020","09","04","02:00","19.9","","19.9","","100","","0.0","","15","","26","","4.8","","101.28","","","","","","Rain,Fog"
"-59.96","43.93","SABLE ISLAND A","8204703","2020-09-04 03:00","2020","09","04","03:00","19.7","","19.7","","100","","0.0","","17","","26","","2.8","","101.27","","","","","","Fog"
"-59.96","43.93","SABLE ISLAND A","8204703","2020-09-04 04:00","2020","09","04","04:00","19.9","","19.9","","100","","0.0","","17","","28","","4.0","","101.21","","","","","","Fog"
"-59.96","43.93","SABLE ISLAND A","8204703","2020-09-04 05:00","2020","09","04","05:00","19.8","","19.8","","100","","0.0","","16","","26","","4.0","","101.24","","","","","","Fog"
"-59.96","43.93","SABLE ISLAND A","8204703","2020-09-04 06:00","2020","09","04","06:00","20.0","","20.0","","100","","0.0","","16","","28","","4.0","","101.24","","28","","","","Fog"
"-59.96","43.93","SABLE ISLAND A","8204703","2020-09-04 07:00","2020","09","04","07:00","20.0","","20.0","","100","","0.0","","16","","24","","1.0","","101.24","","28","","","","Rain,Fog"
"-59.96","43.93","SABLE ISLAND A","8204703","2020-09-04 08:00","2020","09","04","08:00","20.6","","20.6","","100","","0.0","","17","","30","","4.8","","101.26","","29","","","","Fog"
"-59.96","43.93","SABLE ISLAND A","8204703","2020-09-04 09:00","2020","09","04","09:00","21.4","","21.1","","98","","0.0","","18","","30","","6.4","","101.29","","30","","","","Fog"
"-59.96","43.93","SABLE ISLAND A","8204703","2020-09-04 10:00","2020","09","04","10:00","22.0","","21.0","","94","","0.0","","18","","30","","6.4","","101.27","","30","","","","Fog"
"-59.96","43.93","SABLE ISLAND A","8204703","2020-09-04 11:00","2020","09","04","11:00","22.2","","20.9","","92","","0.0","","18","","30","","8.1","","101.27","","31","","","","Fog"
"-59.96","43.93","SABLE ISLAND A","8204703","2020-09-04 12:00","2020","09","04","12:00","21.8","","21.2","","96","","0.0","","18","","30","","6.4","","101.26","","30","","","","Fog"
"-59.96","43.93","SABLE ISLAND A","8204703","2020-09-04 13:00","2020","09","04","13:00","21.5","","21.2","","98","","0.0","","19","","32","","8.1","","101.26","","30","","","","Fog"
"-59.96","43.93","SABLE ISLAND A","8204703","2020-09-04 14:00","2020","09","04","14:00","21.5","","20.7","","95","","0.0","","19","","30","","8.1","","101.26","","30","","","","Fog"
"-59.96","43.93","SABLE ISLAND A","8204703","2020-09-04 15:00","2020","09","04","15:00","20.6","","20.6","","100","","0.8","","19","","24","","4.8","","101.27","","29","","","","Fog"
"-59.96","43.93","SABLE ISLAND A","8204703","2020-09-04 16:00","2020","09","04","16:00","20.5","","20.5","","100","","0.0","","19","","28","","4.8","","101.27","","28","","","","Fog"
"-59.96","43.93","SABLE ISLAND A","8204703","2020-09-04 17:00","2020","09","04","17:00","20.2","","20.2","","100","","0.0","","20","","21","","1.2","","101.28","","28","","","","Fog"
"-59.96","43.93","SABLE ISLAND A","8204703","2020-09-04 18:00","2020","09","04","18:00","19.9","","19.9","","100","","0.0","","19","","21","","0.4","","101.30","","","","","","Rain,Fog"
"-59.96","43.93","SABLE ISLAND A","8204703","2020-09-04 19:00","2020","09","04","19:00","19.6","","19.6","","100","","0.0","","19","","21","","1.0","","101.33","","","","","","Rain,Fog"
"-59.96","43.93","SABLE ISLAND A","8204703","2020-09-04 20:00","2020","09","04","20:00","20.0","","20.0","","100","","0.0","","19","","21","","1.6","","101.38","","28","","","","Fog"
"-59.96","43.93","SABLE ISLAND A","8204703","2020-09-04 21:00","2020","09","04","21:00","19.7","","19.7","","100","","0.0","","18","","21","","4.0","","101.36","","","","","","Fog"
"-59.96","43.93","SABLE ISLAND A","8204703","2020-09-04 22:00","2020","09","04","22:00","19.8","","19.8","","100","","0.2","","18","","17","","4.8","","101.35","","","","","","Rain,Fog"
"-59.96","43.93","SABLE ISLAND A","8204703","2020-09-04 23:00","2020","09","04","23:00","20.1","","20.1","","100","","0.0","","18","","22","","4.8","","101.28","","28","","","","Fog"
"-59.96","43.93","SABLE ISLAND A","8204703","2020-09-05 00:00","2020","09","05","00:00","20.1","","20.1","","100","","0.0","","18","","24","","4.8","","101.29","","28","","","","Fog"
"-59.96","43.93","SABLE ISLAND A","8204703","2020-09-05 01:00","2020","09","05","01:00","20.4","","20.4","","100","","0.0","","18","","26","","4.8","","101.26","","28","","","","Fog"
"-59.96","43.93","SABLE ISLAND A","8204703","2020-09-05 02:00","2020","09","05","02:00","20.5","","20.5","","100","","0.0","","18","","32","","2.0","","101.19","","28","","","","Fog"
"-59.96","43.93","SABLE ISLAND A","8204703","2020-09-05 03:00","2020","09","05","03:00","20.4","","20.4","","100","","0.0","","19","","34","","0.8","","101.15","","28","","","","Rain,Fog"
"-59.96","43.93","SABLE ISLAND A","8204703","2020-09-05 04:00","2020","09","05","04:00","20.5","","20.5","","100","","0.2","","19","","35","","1.2","","101.13","","28","","","","Rain,Fog"
"-59.96","43.93","SABLE ISLAND A","8204703","2020-09-05 05:00","2020","09","05","05:00","20.4","","20.4","","100","","5.8","","19","","30","","2.8","","101.11","","28","","","","Rain,Fog"
"-59.96","43.93","SABLE ISLAND A","8204703","2020-09-05 06:00","2020","09","05","06:00","19.9","","19.9","","100","","4.8","","23","","26","","1.6","","101.16","","","","","","Rain,Fog"
"-59.96","43.93","SABLE ISLAND A","8204703","2020-09-05 07:00","2020","09","05","07:00","19.2","","19.2","","100","","0.0","","26","","24","","1.2","","101.25","","","","","","Fog"
"-59.96","43.93","SABLE ISLAND A","8204703","2020-09-05 08:00","2020","09","05","08:00","19.0","","19.0","","100","","0.0","","28","","24","","4.8","","101.34","","","","","","Fog"
"-59.96","43.93","SABLE ISLAND A","8204703","2020-09-05 09:00","2020","09","05","09:00","18.9","","18.9","","100","","0.0","","29","","17","","4.8","","101.43","","","","","","Fog"
"-59.96","43.93","SABLE ISLAND A","8204703","2020-09-05 10:00","2020","09","05","10:00","19.9","","18.7","","93","","0.0","","29","","21","","16.1","","101.47","","","","","","NA"
"-59.96","43.93","SABLE ISLAND A","8204703","2020-09-05 11:00","2020","09","05","11:00","20.8","","18.8","","88","","0.0","","29","","18","","16.1","","101.52","","27","","","","NA"
"-59.96","43.93","SABLE ISLAND A","8204703","2020-09-05 12:00","2020","09","05","12:00","20.4","","17.9","","85","","0.0","","30","","15","","16.1","","101.54","","26","","","","NA"
"-59.96","43.93","SABLE ISLAND A","8204703","2020-09-05 13:00","2020","09","05","13:00","20.5","","17.3","","82","","0.0","","30","","18","","16.1","","101.59","","26","","","","NA"
"-59.96","43.93","SABLE ISLAND A","8204703","2020-09-05 14:00","2020","09","05","14:00","20.0","","16.5","","80","","0.0","","30","","15","","16.1","","101.61","","25","","","","NA"
"-59.96","43.93","SABLE ISLAND A","8204703","2020-09-05 15:00","2020","09","05","15:00","20.4","","15.9","","75","","0.0","","29","","15","","16.1","","101.66","","25","","","","NA"
"-59.96","43.93","SABLE ISLAND A","8204703","2020-09-05 16:00","2020","09","05","16:00","20.2","","15.9","","76","","0.0","","26","","15","","16.1","","101.69","","25","","","","NA"
"-59.96","43.93","SABLE ISLAND A","8204703","2020-09-05 17:00","2020","09","05","17:00","19.5","","15.6","","78","","0.0","","28","","18","","16.1","","101.74","","","","","","NA"
"-59.96","43.93","SABLE ISLAND A","8204703","2020-09-05 18:00","2020","09","05","18:00","18.4","","14.9","","80","","0.0","","27","","15","","16.1","","101.79","","","","","","NA"
"-59.96","43.93","SABLE ISLAND A","8204703","2020-09-05 19:00","2020","09","05","19:00","17.4","","15.8","","90","","0.0","","27","","9","","16.1","","101.84","","","","","","NA"
"-59.96","43.93","SABLE ISLAND A","8204703","2020-09-05 20:00","2020","09","05","20:00","17.0","","14.9","","87","","0.0","","27","","11","","16.1","","101.91","","","","","","NA"
"-59.96","43.93","SABLE ISLAND A","8204703","2020-09-05 21:00","2020","09","05","21:00","17.5","","13.7","","78","","0.0","","27","","13","","16.1","","101.94","","","","","","NA"
"-59.96","43.93","SABLE ISLAND A","8204703","2020-09-05 22:00","2020","09","05","22:00","17.4","","13.8","","79","","0.0","","26","","11","","16.1","","101.98","","","","","","NA"
"-59.96","43.93","SABLE ISLAND A","8204703","2020-09-05 23:00","2020","09","05","23:00","17.4","","14.5","","83","","0.0","","25","","9","","16.1","","101.99","","","","","","NA"
"-59.96","43.93","SABLE ISLAND A","8204703","2020-09-06 00:00","2020","09","06","00:00","17.4","","15.2","","87","","0.0","","24","","9","","16.1","","101.99","","","","","","NA"
"-59.96","43.93","SABLE ISLAND A","8204703","2020-09-06 01:00","2020","09","06","01:00","17.1","","15.1","","88","","0.0","","23","","9","","14.5","","101.97","","","","","","NA"
"-59.96","43.93","SABLE ISLAND A","8204703","2020-09-06 02:00","2020","09","06","02:00","17.1","","15.1","","88","","0.0","","25","","9","","16.1","","101.98","","","","","","NA"
"-59.96","43.93","SABLE ISLAND A","8204703","2020-09-06 03:00","2020","09","06","03:00","16.8","","15.3","","91","","0.0","","25","","5","","11.3","","101.97","","","","","","NA"
"-59.96","43.93","SABLE ISLAND A","8204703","2020-09-06 04:00","2020","09","06","04:00","16.8","","15.2","","90","","0.0","","23","","11","","12.9","","101.97","","","","","","NA"
"-59.96","43.93","SABLE ISLAND A","8204703","2020-09-06 05:00","2020","09","06","05:00","16.0","","14.7","","92","","0.0","","26","","11","","16.1","","102.00","","","","","","NA"
"-59.96","43.93","SABLE ISLAND A","8204703","2020-09-06 06:00","2020","09","06","06:00","16.2","","15.6","","96","","0.0","","28","","13","","16.1","","102.07","","","","","","NA"
"-59.96","43.93","SABLE ISLAND A","8204703","2020-09-06 07:00","2020","09","06","07:00","17.9","","15.9","","88","","0.0","","30","","11","","16.1","","102.11","","","","","","NA"
"-59.96","43.93","SABLE ISLAND A","8204703","2020-09-06 08:00","2020","09","06","08:00","18.6","","15.1","","80","","0.0","","31","","17","","16.1","","102.16","","","","","","NA"
"-59.96","43.93","SABLE ISLAND A","8204703","2020-09-06 09:00","2020","09","06","09:00","18.7","","14.6","","77","","0.0","","30","","17","","16.1","","102.19","","","","","","NA"
"-59.96","43.93","SABLE ISLAND A","8204703","2020-09-06 10:00","2020","09","06","10:00","20.0","","15.5","","75","","0.0","","29","","18","","16.1","","102.20","","","","","","NA"
"-59.96","43.93","SABLE ISLAND A","8204703","2020-09-06 11:00","2020","09","06","11:00","19.1","","15.0","","77","","0.0","","29","","18","","16.1","","102.22","","","","","","NA"
"-59.96","43.93","SABLE ISLAND A","8204703","2020-09-06 12:00","2020","09","06","12:00","20.2","","14.7","","70","","0.0","","29","","17","","16.1","","102.22","","","","","","NA"
"-59.96","43.93","SABLE ISLAND A","8204703","2020-09-06 13:00","2020","09","06","13:00","20.0","","15.0","","73","","0.0","","30","","15","","16.1","","102.18","","","","","","NA"
"-59.96","43.93","SABLE ISLAND A","8204703","2020-09-06 14:00","2020","09","06","14:00","20.3","","15.8","","75","","0.0","","30","","15","","16.1","","102.20","","25","","","","NA"
"-59.96","43.93","SABLE ISLAND A","8204703","2020-09-06 15:00","2020","09","06","15:00","19.8","","15.6","","76","","0.0","","30","","15","","16.1","","102.29","","","","","","NA"
"-59.96","43.93","SABLE ISLAND A","8204703","2020-09-06 16:00","2020","09","06","16:00","19.6","","15.6","","78","","0.0","","30","","15","","16.1","","102.34","","","","","","NA"
"-59.96","43.93","SABLE ISLAND A","8204703","2020-09-06 17:00","2020","09","06","17:00","18.9","","15.0","","78","","0.0","","29","","11","","16.1","","102.37","","","","","","NA"
"-59.96","43.93","SABLE ISLAND A","8204703","2020-09-06 18:00","2020","09","06","18:00","17.5","","15.0","","85","","0.0","","28","","9","","16.1","","102.39","","","","","","NA"
"-59.96","43.93","SABLE ISLAND A","8204703","2020-09-06 19:00","2020","09","06","19:00","16.6","","15.3","","92","","0.0","","25","","8","","11.3","","102.44","","","","","","NA"
"-59.96","43.93","SABLE ISLAND A","8204703","2020-09-06 20:00","2020","09","06","20:00","16.8","","15.5","","92","","0.0","","24","","9","","6.4","","102.51","","","","","","Fog"
"-59.96","43.93","SABLE ISLAND A","8204703","2020-09-06 21:00","2020","09","06","21:00","16.8","","15.3","","91","","0.0","","21","","9","","12.9","","102.49","","","","","","NA"
"-59.96","43.93","SABLE ISLAND A","8204703","2020-09-06 22:00","2020","09","06","22:00","15.3","","14.0","","92","","0.0","","23","","5","","6.4","","102.48","","","","","","Fog"
"-59.96","43.93","SABLE ISLAND A","8204703","2020-09-06 23:00","2020","09","06","23:00","13.5","","13.5","","100","","0.0","","24","","5","","4.8","","102.48","","","","","","Fog"
"-59.96","43.93","SABLE ISLAND A","8204703","2020-09-07 00:00","2020","09","07","00:00","11.8","","11.8","","100","","0.0","","","","0","","2.4","","102.49","","","","","","Fog"
"-59.96","43.93","SABLE ISLAND A","8204703","2020-09-07 01:00","2020","09","07","01:00","10.1","","10.1","","100","","0.0","","","","0","","0.6","","102.52","","","","","","Fog"
"-59.96","43.93","SABLE ISLAND A","8204703","2020-09-07 02:00","2020","09","07","02:00","9.7","","9.7","","100","","0.0","","","","0","","0.4","","102.52","","","","","","Fog"
"-59.96","43.93","SABLE ISLAND A","8204703","2020-09-07 03:00","2020","09","07","03:00","8.2","","8.2","","100","","0.0","","1","","4","","0.4","","102.53","","","","","","Fog"
"-59.96","43.93","SABLE ISLAND A","8204703","2020-09-07 04:00","2020","09","07","04:00","8.0","","8.0","","100","","0.0","","9","","4","","0.6","","102.57","","","","","","Fog"
"-59.96","43.93","SABLE ISLAND A","8204703","2020-09-07 05:00","2020","09","07","05:00","9.0","","9.0","","100","","0.0","","10","","8","","0.2","","102.64","","","","","","Fog"
"-59.96","43.93","SABLE ISLAND A","8204703","2020-09-07 06:00","2020","09","07","06:00","10.8","","10.8","","100","","0.0","","8","","9","","0.2","","102.70","","","","","","Fog"
"-59.96","43.93","SABLE ISLAND A","8204703","2020-09-07 07:00","2020","09","07","07:00","16.2","","16.2","","100","","0.0","","6","","11","","16.1","","102.71","","","","","","NA"
"-59.96","43.93","SABLE ISLAND A","8204703","2020-09-07 08:00","2020","09","07","08:00","19.0","","13.2","","69","","0.0","","8","","13","","16.1","","102.70","","","","","","NA"
"-59.96","43.93","SABLE ISLAND A","8204703","2020-09-07 09:00","2020","09","07","09:00","20.5","","10.0","","50","","0.0","","9","","18","","16.1","","102.67","","","","","","NA"
"-59.96","43.93","SABLE ISLAND A","8204703","2020-09-07 10:00","2020","09","07","10:00","21.5","","9.2","","45","","0.0","","10","","21","","16.1","","102.67","","","","","","NA"
"-59.96","43.93","SABLE ISLAND A","8204703","2020-09-07 11:00","2020","09","07","11:00","20.8","","13.1","","61","","0.0","","10","","21","","16.1","","102.68","","","","","","NA"
"-59.96","43.93","SABLE ISLAND A","8204703","2020-09-07 12:00","2020","09","07","12:00","20.8","","14.9","","69","","0.0","","10","","21","","16.1","","102.67","","25","","","","NA"
"-59.96","43.93","SABLE ISLAND A","8204703","2020-09-07 13:00","2020","09","07","13:00","21.0","","15.9","","72","","0.0","","10","","22","","16.1","","102.64","","26","","","","NA"
"-59.96","43.93","SABLE ISLAND A","8204703","2020-09-07 14:00","2020","09","07","14:00","21.7","","15.9","","69","","0.0","","11","","22","","16.1","","102.65","","26","","","","NA"
"-59.96","43.93","SABLE ISLAND A","8204703","2020-09-07 15:00","2020","09","07","15:00","21.5","","14.8","","65","","0.0","","9","","22","","16.1","","102.59","","25","","","","NA"
"-59.96","43.93","SABLE ISLAND A","8204703","2020-09-07 16:00","2020","09","07","16:00","20.7","","15.7","","73","","0.0","","10","","28","","16.1","","102.56","","25","","","","NA"
"-59.96","43.93","SABLE ISLAND A","8204703","2020-09-07 17:00","2020","09","07","17:00","19.8","","16.3","","80","","0.0","","11","","24","","16.1","","102.51","","","","","","NA"
"-59.96","43.93","SABLE ISLAND A","8204703","2020-09-07 18:00","2020","09","07","18:00","18.7","","16.9","","89","","0.0","","11","","22","","16.1","","102.50","","","","","","NA"
"-59.96","43.93","SABLE ISLAND A","8204703","2020-09-07 19:00","2020","09","07","19:00","18.2","","17.2","","94","","0.0","","10","","18","","16.1","","102.50","","","","","","NA"
"-59.96","43.93","SABLE ISLAND A","8204703","2020-09-07 20:00","2020","09","07","20:00","18.1","","17.1","","94","","0.0","","10","","18","","14.5","","102.50","","","","","","NA"
"-59.96","43.93","SABLE ISLAND A","8204703","2020-09-07 21:00","2020","09","07","21:00","18.0","","17.0","","94","","0.0","","10","","17","","16.1","","102.49","","","","","","NA"
"-59.96","43.93","SABLE ISLAND A","8204703","2020-09-07 22:00","2020","09","07","22:00","18.1","","17.0","","93","","0.0","","9","","17","","14.5","","102.48","","","","","","NA"
"-59.96","43.93","SABLE ISLAND A","8204703","2020-09-07 23:00","2020","09","07","23:00","18.7","","17.6","","93","","0.0","","9","","17","","14.5","","102.48","","","","","","NA"
"-59.96","43.93","SABLE ISLAND A","8204703","2020-09-08 00:00","2020","09","08","00:00","18.9","","18.3","","96","","0.0","","11","","24","","9.7","","102.45","","","","","","Fog"
"-59.96","43.93","SABLE ISLAND A","8204703","2020-09-08 01:00","2020","09","08","01:00","18.7","","18.7","","100","","0.0","","11","","24","","6.4","","102.38","","","","","","Fog"
"-59.96","43.93","SABLE ISLAND A","8204703","2020-09-08 02:00","2020","09","08","02:00","18.6","","18.6","","100","","0.5","","10","","18","","2.4","","102.33","","","","","","Rain,Fog"
"-59.96","43.93","SABLE ISLAND A","8204703","2020-09-08 03:00","2020","09","08","03:00","18.7","","18.7","","100","","1.0","","11","","21","","4.8","","102.29","","","","","","Fog"
"-59.96","43.93","SABLE ISLAND A","8204703","2020-09-08 04:00","2020","09","08","04:00","18.9","","18.9","","100","","0.0","","11","","17","","4.8","","102.28","","","","","","Fog"
"-59.96","43.93","SABLE ISLAND A","8204703","2020-09-08 05:00","2020","09","08","05:00","19.0","","19.0","","100","","0.0","","12","","15","","4.8","","102.29","","","","","","Fog"
"-59.96","43.93","SABLE ISLAND A","8204703","2020-09-08 06:00","2020","09","08","06:00","19.2","","19.2","","100","","0.0","","13","","21","","1.2","","102.29","","","","","","Rain,Fog"
"-59.96","43.93","SABLE ISLAND A","8204703","2020-09-08 07:00","2020","09","08","07:00","19.3","","19.3","","100","","0.0","","13","","18","","0.4","","102.33","","","","","","Rain,Fog"
"-59.96","43.93","SABLE ISLAND A","8204703","2020-09-08 08:00","2020","09","08","08:00","19.6","","19.6","","100","","0.0","","14","","21","","3.2","","102.31","","","","","","Fog"
"-59.96","43.93","SABLE ISLAND A","8204703","2020-09-08 09:00","2020","09","08","09:00","20.2","","20.2","","100","","0.0","","14","","15","","4.8","","102.35","","28","","","","Fog"
"-59.96","43.93","SABLE ISLAND A","8204703","2020-09-08 10:00","2020","09","08","10:00","21.2","","21.1","","99","","0.0","","16","","17","","8.1","","102.34","","30","","","","Fog"
"-59.96","43.93","SABLE ISLAND A","8204703","2020-09-08 11:00","2020","09","08","11:00","22.1","","21.2","","95","","0.0","","16","","17","","11.3","","102.31","","31","","","","NA"
"-59.96","43.93","SABLE ISLAND A","8204703","2020-09-08 12:00","2020","09","08","12:00","21.9","","20.9","","94","","0.0","","18","","15","","8.1","","102.32","","30","","","","Fog"
"-59.96","43.93","SABLE ISLAND A","8204703","2020-09-08 13:00","2020","09","08","13:00","22.5","","21.4","","93","","0.0","","19","","11","","11.3","","102.31","","31","","","","NA"
"-59.96","43.93","SABLE ISLAND A","8204703","2020-09-08 14:00","2020","09","08","14:00","22.3","","21.0","","92","","0.0","","18","","11","","12.9","","102.31","","31","","","","NA"
"-59.96","43.93","SABLE ISLAND A","8204703","2020-09-08 15:00","2020","09","08","15:00","21.4","","21.4","","100","","0.0","","20","","15","","0.4","","102.32","","30","","","","Fog"
"-59.96","43.93","SABLE ISLAND A","8204703","2020-09-08 16:00","2020","09","08","16:00","21.0","","21.0","","100","","0.0","","20","","13","","2.0","","102.33","","29","","","","Fog"
"-59.96","43.93","SABLE ISLAND A","8204703","2020-09-08 17:00","2020","09","08","17:00","20.4","","20.4","","100","","0.0","","21","","9","","0.2","","102.39","","28","","","","Fog"
"-59.96","43.93","SABLE ISLAND A","8204703","2020-09-08 18:00","2020","09","08","18:00","20.1","","20.1","","100","","0.0","","20","","13","","0.4","","102.36","","28","","","","Fog"
"-59.96","43.93","SABLE ISLAND A","8204703","2020-09-08 19:00","2020","09","08","19:00","20.0","","20.0","","100","","0.0","","20","","11","","2.0","","102.43","","28","","","","Fog"
"-59.96","43.93","SABLE ISLAND A","8204703","2020-09-08 20:00","2020","09","08","20:00","19.9","","19.9","","100","","0.0","","18","","13","","1.0","","102.47","","","","","","Fog"
"-59.96","43.93","SABLE ISLAND A","8204703","2020-09-08 21:00","2020","09","08","21:00","19.7","","19.7","","100","","0.0","","20","","11","","0.6","","102.50","","","","","","Rain,Fog"
"-59.96","43.93","SABLE ISLAND A","8204703","2020-09-08 22:00","2020","09","08","22:00","19.7","","19.7","","100","","0.0","","20","","11","","0.4","","102.53","","","","","","Rain,Fog"
"-59.96","43.93","SABLE ISLAND A","8204703","2020-09-08 23:00","2020","09","08","23:00","19.8","","19.8","","100","","0.0","","19","","11","","0.2","","102.53","","","","","","Rain,Fog"
"-59.96","43.93","SABLE ISLAND A","8204703","2020-09-09 00:00","2020","09","09","00:00","19.9","","19.9","","100","","0.2","","20","","9","","0.4","","102.55","","","","","","Rain,Fog"
"-59.96","43.93","SABLE ISLAND A","8204703","2020-09-09 01:00","2020","09","09","01:00","19.7","","19.7","","100","","0.0","","21","","8","","0.6","","102.57","","","","","","Rain,Fog"
"-59.96","43.93","SABLE ISLAND A","8204703","2020-09-09 02:00","2020","09","09","02:00","19.7","","19.7","","100","","0.0","","21","","8","","0.8","","102.58","","","","","","Fog"
"-59.96","43.93","SABLE ISLAND A","8204703","2020-09-09 03:00","2020","09","09","03:00","19.7","","19.7","","100","","0.0","","22","","8","","0.4","","102.59","","","","","","Rain,Fog"
"-59.96","43.93","SABLE ISLAND A","8204703","2020-09-09 04:00","2020","09","09","04:00","19.9","","19.9","","100","","0.0","","26","","5","","1.0","","102.60","","","","","","Fog"
"-59.96","43.93","SABLE ISLAND A","8204703","2020-09-09 05:00","2020","09","09","05:00","19.9","","19.9","","100","","0.0","","","","0","","0.6","","102.67","","","","","","Fog"
"-59.96","43.93","SABLE ISLAND A","8204703","2020-09-09 06:00","2020","09","09","06:00","20.3","","20.3","","100","","0.0","","","","0","","0.2","","102.74","","28","","","","Fog"
"-59.96","43.93","SABLE ISLAND A","8204703","2020-09-09 07:00","2020","09","09","07:00","19.8","","19.8","","100","","0.0","","14","","5","","0.2","","102.77","","","","","","Fog"
"-59.96","43.93","SABLE ISLAND A","8204703","2020-09-09 08:00","2020","09","09","08:00","20.4","","20.4","","100","","0.0","","13","","9","","0.4","","102.77","","28","","","","Fog"
"-59.96","43.93","SABLE ISLAND A","8204703","2020-09-09 09:00","2020","09","09","09:00","20.6","","20.6","","100","","0.0","","14","","11","","3.6","","102.80","","29","","","","Fog"
"-59.96","43.93","SABLE ISLAND A","8204703","2020-09-09 10:00","2020","09","09","10:00","20.4","","20.4","","100","","0.0","","14","","15","","3.2","","102.76","","28","","","","Fog"
"-59.96","43.93","SABLE ISLAND A","8204703","2020-09-09 11:00","2020","09","09","11:00","20.8","","20.8","","100","","0.0","","16","","8","","0.4","","102.79","","29","","","","Fog"
"-59.96","43.93","SABLE ISLAND A","8204703","2020-09-09 12:00","2020","09","09","12:00","20.8","","20.8","","100","","0.0","","16","","11","","0.6","","102.81","","29","","","","Fog"
"-59.96","43.93","SABLE ISLAND A","8204703","2020-09-09 13:00","2020","09","09","13:00","20.6","","20.6","","100","","0.0","","17","","13","","1.2","","102.81","","29","","","","Fog"
"-59.96","43.93","SABLE ISLAND A","8204703","2020-09-09 14:00","2020","09","09","14:00","20.7","","20.7","","100","","0.0","","21","","9","","0.8","","102.80","","29","","","","Rain,Fog"
"-59.96","43.93","SABLE ISLAND A","8204703","2020-09-09 15:00","2020","09","09","15:00","21.1","","21.1","","100","","0.2","","24","","8","","2.8","","102.82","","30","","","","Rain,Fog"
"-59.96","43.93","SABLE ISLAND A","8204703","2020-09-09 16:00","2020","09","09","16:00","20.9","","20.9","","100","","0.0","","23","","8","","0.6","","102.84","","29","","","","Fog"
"-59.96","43.93","SABLE ISLAND A","8204703","2020-09-09 17:00","2020","09","09","17:00","21.1","","21.1","","100","","0.0","","20","","11","","4.8","","102.82","","30","","","","Fog"
"-59.96","43.93","SABLE ISLAND A","8204703","2020-09-09 18:00","2020","09","09","18:00","20.3","","20.3","","100","","0.0","","18","","11","","0.2","","102.85","","28","","","","Fog"
"-59.96","43.93","SABLE ISLAND A","8204703","2020-09-09 19:00","2020","09","09","19:00","20.2","","20.2","","100","","0.0","","20","","15","","0.8","","102.88","","28","","","","Fog"
"-59.96","43.93","SABLE ISLAND A","8204703","2020-09-09 20:00","2020","09","09","20:00","20.1","","20.1","","100","","0.0","","24","","8","","0.6","","102.91","","28","","","","Fog"
"-59.96","43.93","SABLE ISLAND A","8204703","2020-09-09 21:00","2020","09","09","21:00","20.1","","20.1","","100","","0.0","","21","","11","","0.8","","102.89","","28","","","","Fog"
"-59.96","43.93","SABLE ISLAND A","8204703","2020-09-09 22:00","2020","09","09","22:00","19.9","","19.9","","100","","0.2","","23","","8","","0.6","","102.88","","","","","","Fog"
"-59.96","43.93","SABLE ISLAND A","8204703","2020-09-09 23:00","2020","09","09","23:00","19.8","","19.8","","100","","0.0","","21","","13","","0.6","","102.87","","","","","","Fog"
"-59.96","43.93","SABLE ISLAND A","8204703","2020-09-10 00:00","2020","09","10","00:00","20.0","","20.0","","100","","0.0","","21","","11","","0.6","","102.86","","28","","","","Fog"
"-59.96","43.93","SABLE ISLAND A","8204703","2020-09-10 01:00","2020","09","10","01:00","20.0","","20.0","","100","","0.0","","23","","8","","0.6","","102.85","","28","","","","Fog"
"-59.96","43.93","SABLE ISLAND A","8204703","2020-09-10 02:00","2020","09","10","02:00","20.1","","20.1","","100","","0.0","","25","","8","","0.8","","102.85","","28","","","","Fog"
"-59.96","43.93","SABLE ISLAND A","8204703","2020-09-10 03:00","2020","09","10","03:00","19.8","","19.8","","100","","0.2","","20","","13","","0.6","","102.83","","","","","","Fog"
"-59.96","43.93","SABLE ISLAND A","8204703","2020-09-10 04:00","2020","09","10","04:00","20.3","","20.3","","100","","0.0","","24","","5","","0.8","","102.79","","28","","","","Fog"
"-59.96","43.93","SABLE ISLAND A","8204703","2020-09-10 05:00","2020","09","10","05:00","19.7","","19.7","","100","","0.0","","19","","5","","0.4","","102.80","","","","","","Fog"
"-59.96","43.93","SABLE ISLAND A","8204703","2020-09-10 06:00","2020","09","10","06:00","19.6","","19.6","","100","","0.0","","18","","13","","0.2","","102.85","","","","","","Fog"
"-59.96","43.93","SABLE ISLAND A","8204703","2020-09-10 07:00","2020","09","10","07:00","19.9","","19.9","","100","","0.0","","19","","15","","0.4","","102.87","","","","","","Rain,Fog"
"-59.96","43.93","SABLE ISLAND A","8204703","2020-09-10 08:00","2020","09","10","08:00","20.3","","20.3","","100","","0.0","","20","","15","","0.4","","102.82","","28","","","","Fog"
"-59.96","43.93","SABLE ISLAND A","8204703","2020-09-10 09:00","2020","09","10","09:00","21.0","","21.0","","100","","0.0","","22","","17","","2.0","","102.77","","29","","","","Fog"
"-59.96","43.93","SABLE ISLAND A","8204703","2020-09-10 10:00","2020","09","10","10:00","21.8","","21.8","","100","","0.0","","25","","18","","16.1","","102.72","","31","","","","NA"
"-59.96","43.93","SABLE ISLAND A","8204703","2020-09-10 11:00","2020","09","10","11:00","21.8","","21.8","","100","","0.0","","21","","13","","16.1","","102.67","","31","","","","NA"
"-59.96","43.93","SABLE ISLAND A","8204703","2020-09-10 12:00","2020","09","10","12:00","21.8","","21.1","","96","","0.0","","19","","11","","16.1","","102.60","","30","","","","NA"
"-59.96","43.93","SABLE ISLAND A","8204703","2020-09-10 13:00","2020","09","10","13:00","21.9","","21.2","","96","","0.0","","18","","13","","16.1","","102.56","","30","","","","NA"
"-59.96","43.93","SABLE ISLAND A","8204703","2020-09-10 14:00","2020","09","10","14:00","21.4","","21.4","","100","","0.0","","21","","17","","0.4","","102.54","","30","","","","Fog"
"-59.96","43.93","SABLE ISLAND A","8204703","2020-09-10 15:00","2020","09","10","15:00","21.1","","21.1","","100","","0.0","","21","","22","","0.4","","102.48","","30","","","","Rain,Fog"
"-59.96","43.93","SABLE ISLAND A","8204703","2020-09-10 16:00","2020","09","10","16:00","21.0","","21.0","","100","","0.0","","20","","22","","0.6","","102.43","","29","","","","Rain,Fog"
"-59.96","43.93","SABLE ISLAND A","8204703","2020-09-10 17:00","2020","09","10","17:00","20.6","","20.6","","100","","0.0","","20","","22","","0.4","","102.36","","29","","","","Rain,Fog"
"-59.96","43.93","SABLE ISLAND A","8204703","2020-09-10 18:00","2020","09","10","18:00","20.6","","20.6","","100","","0.0","","20","","21","","0.8","","102.33","","29","","","","Rain,Fog"
"-59.96","43.93","SABLE ISLAND A","8204703","2020-09-10 19:00","2020","09","10","19:00","20.3","","20.3","","100","","0.2","","21","","17","","2.4","","102.28","","28","","","","Fog"
"-59.96","43.93","SABLE ISLAND A","8204703","2020-09-10 20:00","2020","09","10","20:00","20.5","","20.5","","100","","0.0","","22","","24","","2.4","","102.27","","28","","","","Rain,Fog"
"-59.96","43.93","SABLE ISLAND A","8204703","2020-09-10 21:00","2020","09","10","21:00","20.5","","20.5","","100","","0.0","","21","","22","","8.1","","102.18","","28","","","","Fog"
"-59.96","43.93","SABLE ISLAND A","8204703","2020-09-10 22:00","2020","09","10","22:00","20.5","","20.5","","100","","0.0","","21","","22","","8.1","","102.11","","28","","","","Fog"
"-59.96","43.93","SABLE ISLAND A","8204703","2020-09-10 23:00","2020","09","10","23:00","20.5","","20.5","","100","","0.0","","21","","22","","2.0","","102.01","","28","","","","Fog"
"-59.96","43.93","SABLE ISLAND A","8204703","2020-09-11 00:00","2020","09","11","00:00","20.3","","20.3","","100","","0.0","","21","","24","","2.0","","101.91","","28","","","","Fog"
"-59.96","43.93","SABLE ISLAND A","8204703","2020-09-11 01:00","2020","09","11","01:00","20.3","","20.3","","100","","0.0","","21","","28","","0.8","","101.82","","28","","","","Rain,Fog"
"-59.96","43.93","SABLE ISLAND A","8204703","2020-09-11 02:00","2020","09","11","02:00","20.1","","20.1","","100","","0.0","","21","","28","","0.6","","101.70","","28","","","","Rain,Fog"
"-59.96","43.93","SABLE ISLAND A","8204703","2020-09-11 03:00","2020","09","11","03:00","20.2","","20.2","","100","","0.2","","22","","28","","0.8","","101.60","","28","","","","Rain,Fog"
"-59.96","43.93","SABLE ISLAND A","8204703","2020-09-11 04:00","2020","09","11","04:00","20.0","","20.0","","100","","0.0","","21","","28","","0.8","","101.56","","28","","","","Rain,Fog"
"-59.96","43.93","SABLE ISLAND A","8204703","2020-09-11 05:00","2020","09","11","05:00","20.1","","20.1","","100","","0.0","","22","","26","","0.8","","101.50","","28","","","","Rain,Fog"
"-59.96","43.93","SABLE ISLAND A","8204703","2020-09-11 06:00","2020","09","11","06:00","20.4","","20.4","","100","","0.0","","22","","30","","0.6","","101.44","","28","","","","Rain,Fog"
"-59.96","43.93","SABLE ISLAND A","8204703","2020-09-11 07:00","2020","09","11","07:00","20.2","","20.2","","100","","0.2","","23","","26","","6.4","","101.42","","28","","","","Fog"
"-59.96","43.93","SABLE ISLAND A","8204703","2020-09-11 08:00","2020","09","11","08:00","20.0","","20.0","","100","","0.0","","23","","18","","0.4","","101.35","","28","","","","Rain,Fog"
"-59.96","43.93","SABLE ISLAND A","8204703","2020-09-11 09:00","2020","09","11","09:00","20.1","","20.1","","100","","7.3","","24","","28","","2.4","","101.36","","28","","","","Rain,Fog"
"-59.96","43.93","SABLE ISLAND A","8204703","2020-09-11 10:00","2020","09","11","10:00","18.8","","18.8","","100","","1.0","","35","","22","","4.0","","101.31","","","","","","Rain,Fog"
"-59.96","43.93","SABLE ISLAND A","8204703","2020-09-11 11:00","2020","09","11","11:00","18.1","","18.1","","100","","2.2","","35","","18","","4.0","","101.27","","","","","","Rain,Fog"
"-59.96","43.93","SABLE ISLAND A","8204703","2020-09-11 12:00","2020","09","11","12:00","17.0","","17.0","","100","","0.2","","36","","35","","2.4","","101.36","","","","","","Rain,Fog"
"-59.96","43.93","SABLE ISLAND A","8204703","2020-09-11 13:00","2020","09","11","13:00","16.3","","16.3","","100","","0.0","","1","","35","","8.1","","101.40","","","","","","Fog"
"-59.96","43.93","SABLE ISLAND A","8204703","2020-09-11 14:00","2020","09","11","14:00","15.8","","14.7","","93","","0.0","","36","","35","","11.3","","101.47","","","","","","NA"
"-59.96","43.93","SABLE ISLAND A","8204703","2020-09-11 15:00","2020","09","11","15:00","15.9","","14.3","","90","","0.0","","36","","35","","16.1","","101.53","","","","","","NA"
"-59.96","43.93","SABLE ISLAND A","8204703","2020-09-11 16:00","2020","09","11","16:00","15.7","","12.8","","83","","0.0","","36","","35","","16.1","","101.61","","","","","","NA"
"-59.96","43.93","SABLE ISLAND A","8204703","2020-09-11 17:00","2020","09","11","17:00","15.6","","12.2","","80","","0.0","","1","","32","","16.1","","101.68","","","","","","NA"
"-59.96","43.93","SABLE ISLAND A","8204703","2020-09-11 18:00","2020","09","11","18:00","15.7","","12.1","","79","","0.0","","35","","35","","16.1","","101.72","","","","","","NA"
"-59.96","43.93","SABLE ISLAND A","8204703","2020-09-11 19:00","2020","09","11","19:00","15.4","","11.0","","75","","0.0","","1","","34","","16.1","","101.79","","","","","","NA"
"-59.96","43.93","SABLE ISLAND A","8204703","2020-09-11 20:00","2020","09","11","20:00","15.6","","10.2","","70","","0.0","","35","","34","","16.1","","101.85","","","","","","NA"
"-59.96","43.93","SABLE ISLAND A","8204703","2020-09-11 21:00","2020","09","11","21:00","15.5","","9.2","","66","","0.0","","36","","28","","16.1","","101.92","","","","","","NA"
"-59.96","43.93","SABLE ISLAND A","8204703","2020-09-11 22:00","2020","09","11","22:00","15.3","","8.9","","65","","0.0","","36","","35","","16.1","","101.99","","","","","","NA"
"-59.96","43.93","SABLE ISLAND A","8204703","2020-09-11 23:00","2020","09","11","23:00","15.0","","8.1","","63","","0.0","","36","","34","","16.1","","102.06","","","","","","NA"
"-59.96","43.93","SABLE ISLAND A","8204703","2020-09-12 00:00","2020","09","12","00:00","14.6","","8.4","","66","","0.0","","36","","34","","16.1","","102.09","","","","","","NA"
"-59.96","43.93","SABLE ISLAND A","8204703","2020-09-12 01:00","2020","09","12","01:00","14.3","","8.9","","70","","0.0","","36","","32","","16.1","","102.11","","","","","","NA"
"-59.96","43.93","SABLE ISLAND A","8204703","2020-09-12 02:00","2020","09","12","02:00","14.3","","9.2","","71","","0.0","","36","","26","","16.1","","102.13","","","","","","NA"
"-59.96","43.93","SABLE ISLAND A","8204703","2020-09-12 03:00","2020","09","12","03:00","14.0","","8.6","","70","","0.0","","36","","30","","16.1","","102.18","","","","","","NA"
"-59.96","43.93","SABLE ISLAND A","8204703","2020-09-12 04:00","2020","09","12","04:00","14.3","","8.2","","67","","0.0","","36","","30","","16.1","","102.22","","","","","","NA"
"-59.96","43.93","SABLE ISLAND A","8204703","2020-09-12 05:00","2020","09","12","05:00","13.8","","7.2","","64","","0.0","","1","","28","","16.1","","102.30","","","","","","NA"
"-59.96","43.93","SABLE ISLAND A","8204703","2020-09-12 06:00","2020","09","12","06:00","14.2","","8.7","","69","","0.0","","1","","30","","16.1","","102.36","","","","","","NA"
"-59.96","43.93","SABLE ISLAND A","8204703","2020-09-12 07:00","2020","09","12","07:00","14.7","","7.6","","62","","0.0","","2","","30","","16.1","","102.44","","","","","","NA"
"-59.96","43.93","SABLE ISLAND A","8204703","2020-09-12 08:00","2020","09","12","08:00","15.4","","8.3","","62","","0.0","","2","","22","","16.1","","102.49","","","","","","NA"
"-59.96","43.93","SABLE ISLAND A","8204703","2020-09-12 09:00","2020","09","12","09:00","15.8","","8.6","","62","","0.0","","2","","21","","16.1","","102.56","","","","","","NA"
"-59.96","43.93","SABLE ISLAND A","8204703","2020-09-12 10:00","2020","09","12","10:00","16.3","","8.7","","60","","0.0","","1","","21","","16.1","","102.59","","","","","","NA"
"-59.96","43.93","SABLE ISLAND A","8204703","2020-09-12 11:00","2020","09","12","11:00","16.6","","9.0","","60","","0.0","","1","","21","","16.1","","102.58","","","","","","NA"
"-59.96","43.93","SABLE ISLAND A","8204703","2020-09-12 12:00","2020","09","12","12:00","16.6","","8.5","","59","","0.0","","2","","18","","16.1","","102.61","","","","","","NA"
"-59.96","43.93","SABLE ISLAND A","8204703","2020-09-12 13:00","2020","09","12","13:00","16.8","","8.1","","56","","0.0","","2","","18","","16.1","","102.62","","","","","","NA"
"-59.96","43.93","SABLE ISLAND A","8204703","2020-09-12 14:00","2020","09","12","14:00","16.8","","8.2","","57","","0.0","","2","","17","","16.1","","102.62","","","","","","NA"
"-59.96","43.93","SABLE ISLAND A","8204703","2020-09-12 15:00","2020","09","12","15:00","16.8","","8.9","","59","","0.0","","2","","13","","16.1","","102.63","","","","","","NA"
"-59.96","43.93","SABLE ISLAND A","8204703","2020-09-12 16:00","2020","09","12","16:00","16.0","","8.3","","60","","0.0","","1","","13","","16.1","","102.64","","","","","","NA"
"-59.96","43.93","SABLE ISLAND A","8204703","2020-09-12 17:00","2020","09","12","17:00","15.6","","8.1","","61","","0.0","","4","","9","","16.1","","102.68","","","","","","NA"
"-59.96","43.93","SABLE ISLAND A","8204703","2020-09-12 18:00","2020","09","12","18:00","13.6","","8.0","","69","","0.0","","4","","5","","16.1","","102.69","","","","","","NA"
"-59.96","43.93","SABLE ISLAND A","8204703","2020-09-12 19:00","2020","09","12","19:00","11.0","","7.5","","79","","0.0","","","M","4","","16.1","","102.72","","","","","","NA"
"-59.96","43.93","SABLE ISLAND A","8204703","2020-09-12 20:00","2020","09","12","20:00","9.3","","7.4","","88","","0.0","","10","","8","","16.1","","102.76","","","","","","NA"
"-59.96","43.93","SABLE ISLAND A","8204703","2020-09-12 21:00","2020","09","12","21:00","9.2","","8.6","","96","","0.0","","9","","8","","16.1","","102.79","","","","","","NA"
"-59.96","43.93","SABLE ISLAND A","8204703","2020-09-12 22:00","2020","09","12","22:00","8.6","","7.7","","94","","0.0","","7","","5","","16.1","","102.83","","","","","","NA"
"-59.96","43.93","SABLE ISLAND A","8204703","2020-09-12 23:00","2020","09","12","23:00","8.3","","7.2","","93","","0.0","","7","","4","","16.1","","102.84","","","","","","NA"
"-59.96","43.93","SABLE ISLAND A","8204703","2020-09-13 00:00","2020","09","13","00:00","6.4","","5.5","","94","","0.0","","","","0","","16.1","","102.85","","","","","","NA"
"-59.96","43.93","SABLE ISLAND A","8204703","2020-09-13 01:00","2020","09","13","01:00","5.8","","4.6","","92","","0.0","","","","0","","16.1","","102.80","","","","","","NA"
"-59.96","43.93","SABLE ISLAND A","8204703","2020-09-13 02:00","2020","09","13","02:00","7.9","","7.4","","96","","0.0","","8","","8","","16.1","","102.79","","","","","","NA"
"-59.96","43.93","SABLE ISLAND A","8204703","2020-09-13 03:00","2020","09","13","03:00","6.8","","5.9","","94","","0.0","","8","","9","","16.1","","102.77","","","","","","NA"
"-59.96","43.93","SABLE ISLAND A","8204703","2020-09-13 04:00","2020","09","13","04:00","9.0","","7.1","","88","","0.0","","8","","9","","16.1","","102.74","","","","","","NA"
"-59.96","43.93","SABLE ISLAND A","8204703","2020-09-13 05:00","2020","09","13","05:00","13.6","","9.4","","75","","0.0","","12","","15","","16.1","","102.74","","","","","","NA"
"-59.96","43.93","SABLE ISLAND A","8204703","2020-09-13 06:00","2020","09","13","06:00","14.7","","10.3","","75","","0.0","","12","","13","","16.1","","102.78","","","","","","NA"
"-59.96","43.93","SABLE ISLAND A","8204703","2020-09-13 07:00","2020","09","13","07:00","16.2","","10.7","","70","","0.0","","13","","15","","16.1","","102.81","","","","","","NA"
"-59.96","43.93","SABLE ISLAND A","8204703","2020-09-13 08:00","2020","09","13","08:00","16.8","","11.1","","69","","0.0","","12","","21","","16.1","","102.77","","","","","","NA"
"-59.96","43.93","SABLE ISLAND A","8204703","2020-09-13 09:00","2020","09","13","09:00","18.2","","12.1","","67","","0.0","","13","","21","","16.1","","102.80","","","","","","NA"
"-59.96","43.93","SABLE ISLAND A","8204703","2020-09-13 10:00","2020","09","13","10:00","18.8","","12.0","","64","","0.0","","14","","18","","16.1","","102.78","","","","","","NA"
"-59.96","43.93","SABLE ISLAND A","8204703","2020-09-13 11:00","2020","09","13","11:00","18.9","","11.3","","61","","0.0","","14","","22","","16.1","","102.73","","","","","","NA"
"-59.96","43.93","SABLE ISLAND A","8204703","2020-09-13 12:00","2020","09","13","12:00","19.1","","11.5","","61","","0.0","","14","","28","","16.1","","102.68","","","","","","NA"
"-59.96","43.93","SABLE ISLAND A","8204703","2020-09-13 13:00","2020","09","13","13:00","19.2","","12.3","","64","","0.0","","14","","22","","16.1","","102.63","","","","","","NA"
"-59.96","43.93","SABLE ISLAND A","8204703","2020-09-13 14:00","2020","09","13","14:00","19.5","","12.8","","65","","0.0","","14","","24","","16.1","","102.59","","","","","","NA"
"-59.96","43.93","SABLE ISLAND A","8204703","2020-09-13 15:00","2020","09","13","15:00","19.3","","13.5","","69","","0.0","","14","","24","","16.1","","102.53","","","","","","NA"
"-59.96","43.93","SABLE ISLAND A","8204703","2020-09-13 16:00","2020","09","13","16:00","18.4","","13.4","","73","","0.0","","14","","26","","16.1","","102.46","","","","","","NA"
"-59.96","43.93","SABLE ISLAND A","8204703","2020-09-13 17:00","2020","09","13","17:00","18.4","","14.0","","75","","0.0","","14","","24","","16.1","","102.40","","","","","","NA"
"-59.96","43.93","SABLE ISLAND A","8204703","2020-09-13 18:00","2020","09","13","18:00","17.8","","14.4","","80","","0.0","","14","","24","","16.1","","102.32","","","","","","NA"
"-59.96","43.93","SABLE ISLAND A","8204703","2020-09-13 19:00","2020","09","13","19:00","17.5","","15.5","","88","","0.0","","12","","28","","16.1","","102.25","","","","","","NA"
"-59.96","43.93","SABLE ISLAND A","8204703","2020-09-13 20:00","2020","09","13","20:00","17.6","","16.3","","92","","0.0","","13","","22","","14.5","","102.22","","","","","","NA"
"-59.96","43.93","SABLE ISLAND A","8204703","2020-09-13 21:00","2020","09","13","21:00","17.8","","16.8","","94","","0.0","","13","","21","","16.1","","102.13","","","","","","NA"
"-59.96","43.93","SABLE ISLAND A","8204703","2020-09-13 22:00","2020","09","13","22:00","18.5","","17.2","","92","","0.0","","14","","17","","11.3","","102.08","","","","","","NA"
"-59.96","43.93","SABLE ISLAND A","8204703","2020-09-13 23:00","2020","09","13","23:00","18.8","","18.3","","97","","0.0","","16","","24","","9.7","","102.00","","","","","","Fog"
"-59.96","43.93","SABLE ISLAND A","8204703","2020-09-14 00:00","2020","09","14","00:00","18.7","","18.7","","100","","0.5","","15","","13","","4.8","","101.87","","","","","","Rain,Fog"
"-59.96","43.93","SABLE ISLAND A","8204703","2020-09-14 01:00","2020","09","14","01:00","19.0","","19.0","","100","","1.5","","14","","18","","4.0","","101.72","","","","","","Rain,Fog"
"-59.96","43.93","SABLE ISLAND A","8204703","2020-09-14 02:00","2020","09","14","02:00","19.5","","19.5","","100","","0.5","","16","","34","","6.4","","101.56","","","","","","Fog"
"-59.96","43.93","SABLE ISLAND A","8204703","2020-09-14 03:00","2020","09","14","03:00","19.9","","19.9","","100","","0.2","","18","","39","","4.8","","101.49","","","","","","Fog"
"-59.96","43.93","SABLE ISLAND A","8204703","2020-09-14 04:00","2020","09","14","04:00","20.1","","20.1","","100","","0.0","","19","","39","","4.8","","101.45","","28","","","","Fog"
"-59.96","43.93","SABLE ISLAND A","8204703","2020-09-14 05:00","2020","09","14","05:00","20.4","","20.4","","100","","4.8","","22","","28","","3.2","","101.44","","28","","","","Rain,Fog"
"-59.96","43.93","SABLE ISLAND A","8204703","2020-09-14 06:00","2020","09","14","06:00","20.0","","20.0","","100","","0.2","","20","","30","","4.0","","101.40","","28","","","","Fog"
"-59.96","43.93","SABLE ISLAND A","8204703","2020-09-14 07:00","2020","09","14","07:00","20.3","","20.3","","100","","0.0","","22","","32","","4.0","","101.38","","28","","","","Fog"
"-59.96","43.93","SABLE ISLAND A","8204703","2020-09-14 08:00","2020","09","14","08:00","20.2","","20.2","","100","","0.0","","21","","26","","2.8","","101.36","","28","","","","Rain,Fog"
"-59.96","43.93","SABLE ISLAND A","8204703","2020-09-14 09:00","2020","09","14","09:00","20.1","","20.1","","100","","4.0","","21","","30","","1.6","","101.36","","28","","","","Rain,Fog"
"-59.96","43.93","SABLE ISLAND A","8204703","2020-09-14 10:00","2020","09","14","10:00","20.0","","20.0","","100","","7.3","","21","","22","","1.6","","101.30","","28","","","","Moderate Rain,Fog"
"-59.96","43.93","SABLE ISLAND A","8204703","2020-09-14 11:00","2020","09","14","11:00","20.0","","20.0","","100","","4.3","","23","","22","","1.6","","101.31","","28","","","","Rain,Fog"
"-59.96","43.93","SABLE ISLAND A","8204703","2020-09-14 12:00","2020","09","14","12:00","20.1","","20.1","","100","","0.5","","23","","21","","2.8","","101.28","","28","","","","Fog"
"-59.96","43.93","SABLE ISLAND A","8204703","2020-09-14 13:00","2020","09","14","13:00","20.0","","20.0","","100","","0.0","","23","","22","","3.2","","101.22","","28","","","","Fog"
"-59.96","43.93","SABLE ISLAND A","8204703","2020-09-14 14:00","2020","09","14","14:00","20.0","","20.0","","100","","0.0","","24","","21","","4.0","","101.19","","28","","","","Fog"
"-59.96","43.93","SABLE ISLAND A","8204703","2020-09-14 15:00","2020","09","14","15:00","19.3","","19.3","","100","","0.2","","23","","21","","3.6","","101.16","","","","","","Fog"
"-59.96","43.93","SABLE ISLAND A","8204703","2020-09-14 16:00","2020","09","14","16:00","19.2","","19.2","","100","","0.0","","23","","18","","3.2","","101.17","","","","","","Fog"
"-59.96","43.93","SABLE ISLAND A","8204703","2020-09-14 17:00","2020","09","14","17:00","18.9","","18.9","","100","","0.0","","24","","17","","4.0","","101.17","","","","","","Fog"
"-59.96","43.93","SABLE ISLAND A","8204703","2020-09-14 18:00","2020","09","14","18:00","18.5","","18.3","","99","","0.0","","23","","15","","4.0","","101.13","","","","","","Rain,Fog"
"-59.96","43.93","SABLE ISLAND A","8204703","2020-09-14 19:00","2020","09","14","19:00","18.4","","18.2","","99","","0.0","","26","","11","","6.4","","101.19","","","","","","Fog"
"-59.96","43.93","SABLE ISLAND A","8204703","2020-09-14 20:00","2020","09","14","20:00","18.2","","18.2","","100","","0.0","","27","","13","","4.8","","101.22","","","","","","Rain,Fog"
"-59.96","43.93","SABLE ISLAND A","8204703","2020-09-14 21:00","2020","09","14","21:00","17.9","","17.9","","100","","0.5","","28","","17","","6.4","","101.27","","","","","","Rain,Fog"
"-59.96","43.93","SABLE ISLAND A","8204703","2020-09-14 22:00","2020","09","14","22:00","17.8","","17.8","","100","","0.8","","30","","17","","12.9","","101.28","","","","","","NA"
"-59.96","43.93","SABLE ISLAND A","8204703","2020-09-14 23:00","2020","09","14","23:00","17.2","","15.9","","92","","0.0","","36","","24","","16.1","","101.29","","","","","","NA"
"-59.96","43.93","SABLE ISLAND A","8204703","2020-09-15 00:00","2020","09","15","00:00","17.1","","12.7","","75","","0.0","","1","","32","","16.1","","101.36","","","","","","NA"
"-59.96","43.93","SABLE ISLAND A","8204703","2020-09-15 01:00","2020","09","15","01:00","16.8","","13.2","","79","","0.0","","36","","30","","16.1","","101.42","","","","","","NA"
"-59.96","43.93","SABLE ISLAND A","8204703","2020-09-15 02:00","2020","09","15","02:00","16.1","","9.2","","64","","0.0","","36","","34","","16.1","","101.49","","","","","","NA"
"-59.96","43.93","SABLE ISLAND A","8204703","2020-09-15 03:00","2020","09","15","03:00","15.5","","10.3","","71","","0.0","","1","","37","","16.1","","101.51","","","","","","NA"
"-59.96","43.93","SABLE ISLAND A","8204703","2020-09-15 04:00","2020","09","15","04:00","15.2","","9.3","","67","","0.0","","35","","39","","16.1","","101.55","","","","","","NA"
"-59.96","43.93","SABLE ISLAND A","8204703","2020-09-15 05:00","2020","09","15","05:00","15.1","","9.3","","68","","0.0","","36","","32","","16.1","","101.61","","","","","","NA"
"-59.96","43.93","SABLE ISLAND A","8204703","2020-09-15 06:00","2020","09","15","06:00","14.9","","8.4","","65","","0.0","","36","","30","","16.1","","101.70","","","","","","NA"
"-59.96","43.93","SABLE ISLAND A","8204703","2020-09-15 07:00","2020","09","15","07:00","15.0","","8.6","","65","","0.0","","36","","32","","16.1","","101.74","","","","","","NA"
"-59.96","43.93","SABLE ISLAND A","8204703","2020-09-15 08:00","2020","09","15","08:00","15.6","","8.3","","62","","0.0","","1","","32","","16.1","","101.79","","","","","","NA"
"-59.96","43.93","SABLE ISLAND A","8204703","2020-09-15 09:00","2020","09","15","09:00","15.6","","8.7","","63","","0.0","","1","","34","","16.1","","101.80","","","","","","NA"
"-59.96","43.93","SABLE ISLAND A","8204703","2020-09-15 10:00","2020","09","15","10:00","15.8","","7.5","","58","","0.0","","2","","34","","16.1","","101.80","","","","","","NA"
"-59.96","43.93","SABLE ISLAND A","8204703","2020-09-15 11:00","2020","09","15","11:00","15.9","","7.7","","58","","0.0","","2","","32","","16.1","","101.81","","","","","","NA"
"-59.96","43.93","SABLE ISLAND A","8204703","2020-09-15 12:00","2020","09","15","12:00","16.3","","7.5","","56","","0.0","","1","","34","","16.1","","101.78","","","","","","NA"
"-59.96","43.93","SABLE ISLAND A","8204703","2020-09-15 13:00","2020","09","15","13:00","16.2","","8.2","","59","","0.0","","1","","30","","16.1","","101.77","","","","","","NA"
"-59.96","43.93","SABLE ISLAND A","8204703","2020-09-15 14:00","2020","09","15","14:00","16.0","","7.8","","58","","0.0","","1","","28","","16.1","","101.81","","","","","","NA"
"-59.96","43.93","SABLE ISLAND A","8204703","2020-09-15 15:00","2020","09","15","15:00","16.0","","8.2","","60","","0.0","","1","","32","","16.1","","101.80","","","","","","NA"
"-59.96","43.93","SABLE ISLAND A","8204703","2020-09-15 16:00","2020","09","15","16:00","15.3","","7.3","","59","","0.0","","2","","28","","16.1","","101.83","","","","","","NA"
"-59.96","43.93","SABLE ISLAND A","8204703","2020-09-15 17:00","2020","09","15","17:00","14.9","","7.5","","61","","0.0","","1","","32","","16.1","","101.87","","","","","","NA"
"-59.96","43.93","SABLE ISLAND A","8204703","2020-09-15 18:00","2020","09","15","18:00","14.6","","7.9","","64","","0.0","","1","","24","","16.1","","101.91","","","","","","NA"
"-59.96","43.93","SABLE ISLAND A","8204703","2020-09-15 19:00","2020","09","15","19:00","14.8","","7.7","","62","","0.0","","1","","28","","16.1","","101.94","","","","","","NA"
"-59.96","43.93","SABLE ISLAND A","8204703","2020-09-15 20:00","2020","09","15","20:00","15.0","","7.6","","61","","0.0","","1","","30","","16.1","","102.02","","","","","","NA"
"-59.96","43.93","SABLE ISLAND A","8204703","2020-09-15 21:00","2020","09","15","21:00","15.0","","8.2","","64","","0.0","","2","","28","","16.1","","102.08","","","","","","NA"
"-59.96","43.93","SABLE ISLAND A","8204703","2020-09-15 22:00","2020","09","15","22:00","14.8","","8.4","","65","","0.0","","2","","24","","16.1","","102.10","","","","","","NA"
"-59.96","43.93","SABLE ISLAND A","8204703","2020-09-15 23:00","2020","09","15","23:00","14.7","","8.8","","68","","0.0","","3","","18","","16.1","","102.11","","","","","","NA"
"-59.96","43.93","SABLE ISLAND A","8204703","2020-09-16 00:00","2020","09","16","00:00","14.8","","8.6","","66","","0.0","","35","","28","","16.1","","102.13","","","","","","NA"
"-59.96","43.93","SABLE ISLAND A","8204703","2020-09-16 01:00","2020","09","16","01:00","14.1","","7.5","","64","","0.0","","34","","21","","16.1","","102.17","","","","","","NA"
"-59.96","43.93","SABLE ISLAND A","8204703","2020-09-16 02:00","2020","09","16","02:00","13.8","","6.8","","62","","0.0","","34","","18","","16.1","","102.19","","","","","","NA"
"-59.96","43.93","SABLE ISLAND A","8204703","2020-09-16 03:00","2020","09","16","03:00","13.6","","6.7","","63","","0.0","","35","","17","","16.1","","102.25","","","","","","NA"
"-59.96","43.93","SABLE ISLAND A","8204703","2020-09-16 04:00","2020","09","16","04:00","13.6","","6.4","","62","","0.0","","1","","18","","16.1","","102.29","","","","","","NA"
"-59.96","43.93","SABLE ISLAND A","8204703","2020-09-16 05:00","2020","09","16","05:00","13.1","","6.2","","63","","0.0","","1","","15","","16.1","","102.35","","","","","","NA"
"-59.96","43.93","SABLE ISLAND A","8204703","2020-09-16 06:00","2020","09","16","06:00","13.4","","6.6","","63","","0.0","","2","","11","","16.1","","102.41","","","","","","NA"
"-59.96","43.93","SABLE ISLAND A","8204703","2020-09-16 07:00","2020","09","16","07:00","14.0","","7.4","","64","","0.0","","3","","8","","16.1","","102.46","","","","","","NA"
"-59.96","43.93","SABLE ISLAND A","8204703","2020-09-16 08:00","2020","09","16","08:00","15.0","","6.4","","56","","0.0","","5","","8","","16.1","","102.51","","","","","","NA"
"-59.96","43.93","SABLE ISLAND A","8204703","2020-09-16 09:00","2020","09","16","09:00","15.5","","7.2","","58","","0.0","","33","","5","","16.1","","102.58","","","","","","NA"
"-59.96","43.93","SABLE ISLAND A","8204703","2020-09-16 10:00","2020","09","16","10:00","15.8","","7.0","","56","","0.0","","","M","4","","16.1","","102.63","","","","","","NA"
"-59.96","43.93","SABLE ISLAND A","8204703","2020-09-16 11:00","2020","09","16","11:00","15.8","","7.2","","56","","0.0","","18","","9","","16.1","","102.61","","","","","","NA"
"-59.96","43.93","SABLE ISLAND A","8204703","2020-09-16 12:00","2020","09","16","12:00","16.4","","8.0","","57","","0.0","","19","","13","","16.1","","102.61","","","","","","NA"
"-59.96","43.93","SABLE ISLAND A","8204703","2020-09-16 13:00","2020","09","16","13:00","17.0","","8.6","","57","","0.0","","20","","17","","16.1","","102.61","","","","","","NA"
"-59.96","43.93","SABLE ISLAND A","8204703","2020-09-16 14:00","2020","09","16","14:00","16.9","","8.7","","58","","0.0","","19","","18","","16.1","","102.57","","","","","","NA"
"-59.96","43.93","SABLE ISLAND A","8204703","2020-09-16 15:00","2020","09","16","15:00","16.8","","9.4","","61","","0.0","","19","","22","","16.1","","102.55","","","","","","NA"
"-59.96","43.93","SABLE ISLAND A","8204703","2020-09-16 16:00","2020","09","16","16:00","16.6","","9.2","","62","","0.0","","21","","24","","16.1","","102.57","","","","","","NA"
"-59.96","43.93","SABLE ISLAND A","8204703","2020-09-16 17:00","2020","09","16","17:00","16.1","","8.9","","62","","0.0","","20","","28","","16.1","","102.55","","","","","","NA"
"-59.96","43.93","SABLE ISLAND A","8204703","2020-09-16 18:00","2020","09","16","18:00","15.6","","8.9","","64","","0.0","","20","","28","","16.1","","102.52","","","","","","NA"
"-59.96","43.93","SABLE ISLAND A","8204703","2020-09-16 19:00","2020","09","16","19:00","15.8","","10.5","","70","","0.0","","20","","28","","16.1","","102.51","","","","","","NA"
"-59.96","43.93","SABLE ISLAND A","8204703","2020-09-16 20:00","2020","09","16","20:00","16.1","","10.5","","69","","0.0","","20","","37","","16.1","","102.50","","","","","","NA"
"-59.96","43.93","SABLE ISLAND A","8204703","2020-09-16 21:00","2020","09","16","21:00","16.4","","11.9","","75","","0.0","","19","","34","","16.1","","102.48","","","","","","NA"
"-59.96","43.93","SABLE ISLAND A","8204703","2020-09-16 22:00","2020","09","16","22:00","16.4","","12.5","","78","","0.0","","19","","37","","16.1","","102.45","","","","","","NA"
"-59.96","43.93","SABLE ISLAND A","8204703","2020-09-16 23:00","2020","09","16","23:00","16.7","","13.3","","80","","0.0","","20","","34","","16.1","","102.42","","","","","","NA"
"-59.96","43.93","SABLE ISLAND A","8204703","2020-09-17 00:00","2020","09","17","00:00","16.9","","13.4","","79","","0.0","","20","","37","","16.1","","102.39","","","","","","NA"
"-59.96","43.93","SABLE ISLAND A","8204703","2020-09-17 01:00","2020","09","17","01:00","17.1","","13.8","","81","","0.0","","20","","37","","16.1","","102.37","","","","","","NA"
"-59.96","43.93","SABLE ISLAND A","8204703","2020-09-17 02:00","2020","09","17","02:00","17.1","","14.2","","83","","0.0","","20","","34","","16.1","","102.32","","","","","","NA"
"-59.96","43.93","SABLE ISLAND A","8204703","2020-09-17 03:00","2020","09","17","03:00","17.2","","14.7","","85","","0.0","","20","","32","","12.9","","102.27","","","","","","NA"
"-59.96","43.93","SABLE ISLAND A","8204703","2020-09-17 04:00","2020","09","17","04:00","17.3","","15.0","","86","","0.0","","20","","35","","12.9","","102.23","","","","","","NA"
"-59.96","43.93","SABLE ISLAND A","8204703","2020-09-17 05:00","2020","09","17","05:00","17.6","","15.6","","88","","0.0","","20","","34","","16.1","","102.22","","","","","","NA"
"-59.96","43.93","SABLE ISLAND A","8204703","2020-09-17 06:00","2020","09","17","06:00","17.4","","16.6","","95","","0.0","","19","","22","","9.7","","102.25","","","","","","Fog"
"-59.96","43.93","SABLE ISLAND A","8204703","2020-09-17 07:00","2020","09","17","07:00","17.9","","16.8","","93","","0.0","","19","","22","","11.3","","102.25","","","","","","NA"
"-59.96","43.93","SABLE ISLAND A","8204703","2020-09-17 08:00","2020","09","17","08:00","18.5","","16.9","","90","","0.0","","19","","21","","9.7","","102.27","","","","","","Fog"
"-59.96","43.93","SABLE ISLAND A","8204703","2020-09-17 09:00","2020","09","17","09:00","19.0","","17.0","","88","","0.0","","19","","22","","11.3","","102.27","","","","","","NA"
"-59.96","43.93","SABLE ISLAND A","8204703","2020-09-17 10:00","2020","09","17","10:00","19.8","","17.6","","87","","0.0","","19","","24","","9.7","","102.24","","","","","","Fog"
"-59.96","43.93","SABLE ISLAND A","8204703","2020-09-17 11:00","2020","09","17","11:00","20.0","","17.6","","86","","0.0","","19","","24","","9.7","","102.21","","26","","","","Fog"
"-59.96","43.93","SABLE ISLAND A","8204703","2020-09-17 12:00","2020","09","17","12:00","20.3","","17.9","","86","","0.0","","19","","26","","9.7","","102.17","","26","","","","Fog"
"-59.96","43.93","SABLE ISLAND A","8204703","2020-09-17 13:00","2020","09","17","13:00","20.4","","18.1","","87","","0.0","","18","","26","","8.1","","102.11","","26","","","","Fog"
"-59.96","43.93","SABLE ISLAND A","8204703","2020-09-17 14:00","2020","09","17","14:00","20.2","","18.0","","87","","0.0","","18","","24","","8.1","","102.04","","26","","","","Fog"
"-59.96","43.93","SABLE ISLAND A","8204703","2020-09-17 15:00","2020","09","17","15:00","19.7","","18.0","","90","","0.0","","18","","26","","8.1","","101.98","","","","","","Fog"
"-59.96","43.93","SABLE ISLAND A","8204703","2020-09-17 16:00","2020","09","17","16:00","19.4","","17.9","","91","","0.0","","18","","24","","9.7","","101.96","","","","","","Fog"
"-59.96","43.93","SABLE ISLAND A","8204703","2020-09-17 17:00","2020","09","17","17:00","19.0","","17.9","","93","","0.0","","18","","26","","9.7","","101.93","","","","","","Fog"
"-59.96","43.93","SABLE ISLAND A","8204703","2020-09-17 18:00","2020","09","17","18:00","18.8","","17.8","","94","","0.0","","19","","32","","12.9","","101.94","","","","","","NA"
"-59.96","43.93","SABLE ISLAND A","8204703","2020-09-17 19:00","2020","09","17","19:00","18.6","","17.6","","94","","0.0","","18","","28","","11.3","","101.95","","","","","","NA"
"-59.96","43.93","SABLE ISLAND A","8204703","2020-09-17 20:00","2020","09","17","20:00","18.7","","17.4","","92","","0.0","","18","","28","","11.3","","101.97","","","","","","NA"
"-59.96","43.93","SABLE ISLAND A","8204703","2020-09-17 21:00","2020","09","17","21:00","18.9","","17.8","","93","","0.0","","19","","26","","11.3","","101.94","","","","","","NA"
"-59.96","43.93","SABLE ISLAND A","8204703","2020-09-17 22:00","2020","09","17","22:00","18.9","","18.1","","95","","0.0","","18","","26","","9.7","","101.89","","","","","","Fog"
"-59.96","43.93","SABLE ISLAND A","8204703","2020-09-17 23:00","2020","09","17","23:00","18.9","","18.1","","95","","0.0","","18","","26","","9.7","","101.83","","","","","","Fog"
"-59.96","43.93","SABLE ISLAND A","8204703","2020-09-18 00:00","2020","09","18","00:00","18.9","","18.1","","95","","0.0","","18","","26","","8.1","","101.79","","","","","","Fog"
"-59.96","43.93","SABLE ISLAND A","8204703","2020-09-18 01:00","2020","09","18","01:00","18.9","","18.3","","96","","0.0","","18","","24","","8.1","","101.77","","","","","","Fog"
"-59.96","43.93","SABLE ISLAND A","8204703","2020-09-18 02:00","2020","09","18","02:00","18.9","","18.3","","96","","0.0","","18","","22","","8.1","","101.70","","","","","","Fog"
"-59.96","43.93","SABLE ISLAND A","8204703","2020-09-18 03:00","2020","09","18","03:00","18.9","","18.4","","97","","0.0","","17","","17","","6.4","","101.65","","","","","","Fog"
"-59.96","43.93","SABLE ISLAND A","8204703","2020-09-18 04:00","2020","09","18","04:00","18.8","","18.5","","98","","0.0","","18","","22","","6.4","","101.64","","","","","","Fog"
"-59.96","43.93","SABLE ISLAND A","8204703","2020-09-18 05:00","2020","09","18","05:00","18.8","","18.8","","100","","0.0","","18","","30","","11.3","","101.61","","","","","","NA"
"-59.96","43.93","SABLE ISLAND A","8204703","2020-09-18 06:00","2020","09","18","06:00","18.5","","18.5","","100","","0.0","","19","","17","","8.1","","101.59","","","","","","Fog"
"-59.96","43.93","SABLE ISLAND A","8204703","2020-09-18 07:00","2020","09","18","07:00","18.4","","18.4","","100","","2.8","","18","","17","","3.6","","101.56","","","","","","Fog"
"-59.96","43.93","SABLE ISLAND A","8204703","2020-09-18 08:00","2020","09","18","08:00","18.5","","18.5","","100","","3.0","","18","","18","","1.6","","101.54","","","","","","Rain,Fog"
"-59.96","43.93","SABLE ISLAND A","8204703","2020-09-18 09:00","2020","09","18","09:00","18.5","","18.5","","100","","6.5","","17","","8","","1.2","","101.49","","","","","","Rain,Fog"
"-59.96","43.93","SABLE ISLAND A","8204703","2020-09-18 10:00","2020","09","18","10:00","18.9","","18.9","","100","","2.0","","15","","13","","4.0","","101.39","","","","","","Rain,Fog"
"-59.96","43.93","SABLE ISLAND A","8204703","2020-09-18 11:00","2020","09","18","11:00","19.1","","19.1","","100","","4.0","","19","","24","","4.0","","101.33","","","","","","Fog"
"-59.96","43.93","SABLE ISLAND A","8204703","2020-09-18 12:00","2020","09","18","12:00","18.9","","18.9","","100","","1.5","","29","","13","","2.0","","101.35","","","","","","Rain,Fog"
"-59.96","43.93","SABLE ISLAND A","8204703","2020-09-18 13:00","2020","09","18","13:00","18.0","","18.0","","100","","1.0","","35","","21","","16.1","","101.27","","","","","","Rain"
"-59.96","43.93","SABLE ISLAND A","8204703","2020-09-18 14:00","2020","09","18","14:00","17.8","","17.8","","100","","0.2","","36","","18","","16.1","","101.17","","","","","","Rain"
"-59.96","43.93","SABLE ISLAND A","8204703","2020-09-18 15:00","2020","09","18","15:00","17.7","","17.7","","100","","0.2","","1","","18","","16.1","","101.05","","","","","","NA"
"-59.96","43.93","SABLE ISLAND A","8204703","2020-09-18 16:00","2020","09","18","16:00","17.6","","17.6","","100","","0.0","","2","","17","","16.1","","101.08","","","","","","NA"
"-59.96","43.93","SABLE ISLAND A","8204703","2020-09-18 17:00","2020","09","18","17:00","17.3","","17.3","","100","","1.0","","3","","17","","12.9","","101.08","","","","","","Rain"
"-59.96","43.93","SABLE ISLAND A","8204703","2020-09-18 18:00","2020","09","18","18:00","17.0","","17.0","","100","","3.0","","1","","22","","8.1","","101.05","","","","","","Rain,Fog"
"-59.96","43.93","SABLE ISLAND A","8204703","2020-09-18 19:00","2020","09","18","19:00","16.5","","16.5","","100","","5.5","","3","","30","","4.8","","100.92","","","","","","Moderate Rain,Fog"
"-59.96","43.93","SABLE ISLAND A","8204703","2020-09-18 20:00","2020","09","18","20:00","16.1","","16.1","","100","","8.2","","3","","34","","4.0","","100.89","","","","","","Moderate Rain,Fog"
"-59.96","43.93","SABLE ISLAND A","8204703","2020-09-18 21:00","2020","09","18","21:00","16.1","","16.1","","100","","4.0","","2","","28","","3.6","","100.82","","","","","","Rain,Fog"
"-59.96","43.93","SABLE ISLAND A","8204703","2020-09-18 22:00","2020","09","18","22:00","16.0","","16.0","","100","","2.5","","3","","28","","4.8","","100.75","","","","","","Rain,Fog"
"-59.96","43.93","SABLE ISLAND A","8204703","2020-09-18 23:00","2020","09","18","23:00","15.7","","15.7","","100","","1.5","","3","","34","","4.8","","100.80","","","","","","Rain,Fog"
"-59.96","43.93","SABLE ISLAND A","8204703","2020-09-19 00:00","2020","09","19","00:00","15.5","","15.4","","99","","0.5","","2","","30","","4.8","","100.85","","","","","","Rain,Fog"
"-59.96","43.93","SABLE ISLAND A","8204703","2020-09-19 01:00","2020","09","19","01:00","15.1","","14.7","","97","","0.2","","1","","39","","16.1","","100.87","","","","","","NA"
"-59.96","43.93","SABLE ISLAND A","8204703","2020-09-19 02:00","2020","09","19","02:00","14.9","","14.1","","95","","0.0","","2","","32","","11.3","","100.90","","","","","","Rain"
"-59.96","43.93","SABLE ISLAND A","8204703","2020-09-19 03:00","2020","09","19","03:00","14.8","","13.6","","92","","0.2","","2","","35","","14.5","","100.91","","","","","","Rain"
"-59.96","43.93","SABLE ISLAND A","8204703","2020-09-19 04:00","2020","09","19","04:00","14.5","","13.2","","92","","0.0","","1","","35","","11.3","","100.97","","","","","","NA"
"-59.96","43.93","SABLE ISLAND A","8204703","2020-09-19 05:00","2020","09","19","05:00","14.7","","12.1","","84","","0.0","","2","","35","","16.1","","101.04","","","","","","NA"
"-59.96","43.93","SABLE ISLAND A","8204703","2020-09-19 06:00","2020","09","19","06:00","14.6","","11.5","","82","","0.0","","1","","39","","16.1","","101.08","","","","","","NA"
"-59.96","43.93","SABLE ISLAND A","8204703","2020-09-19 07:00","2020","09","19","07:00","14.5","","11.0","","79","","0.0","","1","","37","","16.1","","101.15","","","","","","NA"
"-59.96","43.93","SABLE ISLAND A","8204703","2020-09-19 08:00","2020","09","19","08:00","14.5","","10.2","","75","","0.0","","35","","41","","16.1","","101.26","","","","","","NA"
"-59.96","43.93","SABLE ISLAND A","8204703","2020-09-19 09:00","2020","09","19","09:00","14.6","","10.5","","76","","0.0","","35","","32","","16.1","","101.37","","","","","","NA"
"-59.96","43.93","SABLE ISLAND A","8204703","2020-09-19 10:00","2020","09","19","10:00","14.7","","9.7","","72","","0.0","","35","","34","","16.1","","101.45","","","","","","NA"
"-59.96","43.93","SABLE ISLAND A","8204703","2020-09-19 11:00","2020","09","19","11:00","14.8","","9.6","","71","","0.0","","35","","37","","16.1","","101.47","","","","","","NA"
"-59.96","43.93","SABLE ISLAND A","8204703","2020-09-19 12:00","2020","09","19","12:00","14.6","","8.9","","69","","0.0","","35","","37","","16.1","","101.51","","","","","","NA"
"-59.96","43.93","SABLE ISLAND A","8204703","2020-09-19 13:00","2020","09","19","13:00","15.2","","9.2","","67","","0.0","","36","","34","","16.1","","101.60","","","","","","NA"
"-59.96","43.93","SABLE ISLAND A","8204703","2020-09-19 14:00","2020","09","19","14:00","15.2","","9.6","","69","","0.0","","35","","34","","16.1","","101.67","","","","","","NA"
"-59.96","43.93","SABLE ISLAND A","8204703","2020-09-19 15:00","2020","09","19","15:00","15.1","","8.8","","66","","0.0","","35","","30","","16.1","","101.72","","","","","","NA"
"-59.96","43.93","SABLE ISLAND A","8204703","2020-09-19 16:00","2020","09","19","16:00","15.0","","7.8","","62","","0.0","","36","","28","","16.1","","101.79","","","","","","NA"
"-59.96","43.93","SABLE ISLAND A","8204703","2020-09-19 17:00","2020","09","19","17:00","14.2","","6.9","","61","","0.0","","1","","28","","16.1","","101.84","","","","","","NA"
"-59.96","43.93","SABLE ISLAND A","8204703","2020-09-19 18:00","2020","09","19","18:00","13.9","","7.6","","65","","0.0","","2","","24","","16.1","","101.93","","","","","","NA"
"-59.96","43.93","SABLE ISLAND A","8204703","2020-09-19 19:00","2020","09","19","19:00","13.9","","7.2","","64","","0.0","","2","","30","","16.1","","101.98","","","","","","NA"
"-59.96","43.93","SABLE ISLAND A","8204703","2020-09-19 20:00","2020","09","19","20:00","13.8","","7.3","","65","","0.0","","2","","30","","16.1","","102.05","","","","","","NA"
"-59.96","43.93","SABLE ISLAND A","8204703","2020-09-19 21:00","2020","09","19","21:00","13.6","","5.8","","59","","0.0","","1","","32","","16.1","","102.11","","","","","","NA"
"-59.96","43.93","SABLE ISLAND A","8204703","2020-09-19 22:00","2020","09","19","22:00","13.5","","5.4","","58","","0.0","","2","","35","","16.1","","102.16","","","","","","NA"
"-59.96","43.93","SABLE ISLAND A","8204703","2020-09-19 23:00","2020","09","19","23:00","13.3","","5.6","","59","","0.0","","2","","35","","16.1","","102.15","","","","","","NA"
"-59.96","43.93","SABLE ISLAND A","8204703","2020-09-20 00:00","2020","09","20","00:00","13.1","","5.9","","61","","0.0","","1","","34","","16.1","","102.21","","","","","","NA"
"-59.96","43.93","SABLE ISLAND A","8204703","2020-09-20 01:00","2020","09","20","01:00","12.9","","5.8","","62","","0.0","","1","","34","","16.1","","102.25","","","","","","NA"
"-59.96","43.93","SABLE ISLAND A","8204703","2020-09-20 02:00","2020","09","20","02:00","12.6","","3.0","","52","","0.0","","2","","34","","16.1","","102.29","","","","","","NA"
"-59.96","43.93","SABLE ISLAND A","8204703","2020-09-20 03:00","2020","09","20","03:00","12.4","","3.9","","56","","0.0","","1","","35","","16.1","","102.28","","","","","","NA"
"-59.96","43.93","SABLE ISLAND A","8204703","2020-09-20 04:00","2020","09","20","04:00","12.2","","4.3","","58","","0.0","","1","","35","","16.1","","102.28","","","","","","NA"
"-59.96","43.93","SABLE ISLAND A","8204703","2020-09-20 05:00","2020","09","20","05:00","11.9","","4.0","","58","","0.0","","1","","34","","16.1","","102.37","","","","","","NA"
"-59.96","43.93","SABLE ISLAND A","8204703","2020-09-20 06:00","2020","09","20","06:00","12.1","","4.9","","61","","0.0","","1","","34","","16.1","","102.41","","","","","","NA"
"-59.96","43.93","SABLE ISLAND A","8204703","2020-09-20 07:00","2020","09","20","07:00","12.3","","5.2","","62","","0.0","","1","","32","","16.1","","102.49","","","","","","NA"
"-59.96","43.93","SABLE ISLAND A","8204703","2020-09-20 08:00","2020","09","20","08:00","12.7","","5.4","","61","","0.0","","36","","32","","16.1","","102.52","","","","","","NA"
"-59.96","43.93","SABLE ISLAND A","8204703","2020-09-20 09:00","2020","09","20","09:00","13.1","","4.3","","55","","0.0","","35","","34","","16.1","","102.58","","","","","","NA"
"-59.96","43.93","SABLE ISLAND A","8204703","2020-09-20 10:00","2020","09","20","10:00","13.3","","4.6","","56","","0.0","","36","","34","","16.1","","102.61","","","","","","NA"
"-59.96","43.93","SABLE ISLAND A","8204703","2020-09-20 11:00","2020","09","20","11:00","13.6","","4.3","","53","","0.0","","36","","35","","16.1","","102.61","","","","","","NA"
"-59.96","43.93","SABLE ISLAND A","8204703","2020-09-20 12:00","2020","09","20","12:00","13.8","","4.6","","53","","0.0","","36","","35","","16.1","","102.63","","","","","","NA"
"-59.96","43.93","SABLE ISLAND A","8204703","2020-09-20 13:00","2020","09","20","13:00","14.0","","4.6","","53","","0.0","","36","","34","","16.1","","102.67","","","","","","NA"
"-59.96","43.93","SABLE ISLAND A","8204703","2020-09-20 14:00","2020","09","20","14:00","14.0","","4.6","","53","","0.0","","1","","37","","16.1","","102.68","","","","","","NA"
"-59.96","43.93","SABLE ISLAND A","8204703","2020-09-20 15:00","2020","09","20","15:00","13.6","","4.2","","53","","0.0","","1","","41","","16.1","","102.68","","","","","","NA"
"-59.96","43.93","SABLE ISLAND A","8204703","2020-09-20 16:00","2020","09","20","16:00","13.2","","4.3","","54","","0.0","","1","","39","","16.1","","102.71","","","","","","NA"
"-59.96","43.93","SABLE ISLAND A","8204703","2020-09-20 17:00","2020","09","20","17:00","13.0","","3.3","","52","","0.0","","1","","39","","16.1","","102.73","","","","","","NA"
"-59.96","43.93","SABLE ISLAND A","8204703","2020-09-20 18:00","2020","09","20","18:00","12.8","","4.2","","56","","0.0","","1","","39","","16.1","","102.77","","","","","","NA"
"-59.96","43.93","SABLE ISLAND A","8204703","2020-09-20 19:00","2020","09","20","19:00","12.9","","4.1","","55","","0.0","","2","","37","","16.1","","102.85","","","","","","NA"
"-59.96","43.93","SABLE ISLAND A","8204703","2020-09-20 20:00","2020","09","20","20:00","12.9","","4.3","","56","","0.0","","2","","35","","16.1","","102.91","","","","","","NA"
"-59.96","43.93","SABLE ISLAND A","8204703","2020-09-20 21:00","2020","09","20","21:00","13.0","","4.5","","56","","0.0","","2","","34","","16.1","","102.93","","","","","","NA"
"-59.96","43.93","SABLE ISLAND A","8204703","2020-09-20 22:00","2020","09","20","22:00","12.9","","4.6","","57","","0.0","","3","","39","","16.1","","102.99","","","","","","NA"
"-59.96","43.93","SABLE ISLAND A","8204703","2020-09-20 23:00","2020","09","20","23:00","12.9","","4.4","","56","","0.0","","3","","37","","16.1","","103.00","","","","","","NA"
"-59.96","43.93","SABLE ISLAND A","8204703","2020-09-21 00:00","2020","09","21","00:00","12.7","","4.6","","57","","0.0","","3","","34","","16.1","","103.01","","","","","","NA"
"-59.96","43.93","SABLE ISLAND A","8204703","2020-09-21 01:00","2020","09","21","01:00","12.6","","3.9","","55","","0.0","","2","","32","","16.1","","103.00","","","","","","NA"
"-59.96","43.93","SABLE ISLAND A","8204703","2020-09-21 02:00","2020","09","21","02:00","12.7","","4.1","","56","","0.0","","3","","34","","16.1","","103.00","","","","","","NA"
"-59.96","43.93","SABLE ISLAND A","8204703","2020-09-21 03:00","2020","09","21","03:00","12.7","","4.2","","56","","0.0","","3","","37","","16.1","","103.02","","","","","","NA"
"-59.96","43.93","SABLE ISLAND A","8204703","2020-09-21 04:00","2020","09","21","04:00","12.7","","4.1","","56","","0.0","","3","","41","","16.1","","103.12","","","","","","NA"
"-59.96","43.93","SABLE ISLAND A","8204703","2020-09-21 05:00","2020","09","21","05:00","12.5","","3.4","","54","","0.0","","3","","39","","16.1","","103.09","","","","","","NA"
"-59.96","43.93","SABLE ISLAND A","8204703","2020-09-21 06:00","2020","09","21","06:00","12.4","","3.7","","55","","0.0","","4","","35","","16.1","","103.18","","","","","","NA"
"-59.96","43.93","SABLE ISLAND A","8204703","2020-09-21 07:00","2020","09","21","07:00","12.6","","3.6","","54","","0.0","","4","","35","","16.1","","103.17","","","","","","NA"
"-59.96","43.93","SABLE ISLAND A","8204703","2020-09-21 08:00","2020","09","21","08:00","13.2","","2.6","","49","","0.0","","4","","37","","16.1","","103.20","","","","","","NA"
"-59.96","43.93","SABLE ISLAND A","8204703","2020-09-21 09:00","2020","09","21","09:00","13.4","","3.2","","50","","0.0","","4","","34","","16.1","","103.22","","","","","","NA"
"-59.96","43.93","SABLE ISLAND A","8204703","2020-09-21 10:00","2020","09","21","10:00","13.6","","3.9","","52","","0.0","","4","","35","","16.1","","103.22","","","","","","NA"
"-59.96","43.93","SABLE ISLAND A","8204703","2020-09-21 11:00","2020","09","21","11:00","14.2","","4.1","","50","","0.0","","4","","30","","16.1","","103.27","","","","","","NA"
"-59.96","43.93","SABLE ISLAND A","8204703","2020-09-21 12:00","2020","09","21","12:00","14.2","","3.5","","48","","0.0","","6","","35","","16.1","","103.16","","","","","","NA"
"-59.96","43.93","SABLE ISLAND A","8204703","2020-09-21 13:00","2020","09","21","13:00","14.1","","5.5","","56","","0.0","","5","","24","","16.1","","103.20","","","","","","NA"
"-59.96","43.93","SABLE ISLAND A","8204703","2020-09-21 14:00","2020","09","21","14:00","13.5","","4.6","","55","","0.0","","5","","24","","16.1","","103.16","","","","","","NA"
"-59.96","43.93","SABLE ISLAND A","8204703","2020-09-21 15:00","2020","09","21","15:00","13.4","","5.5","","59","","0.0","","5","","22","","16.1","","103.10","","","","","","NA"
"-59.96","43.93","SABLE ISLAND A","8204703","2020-09-21 16:00","2020","09","21","16:00","13.1","","5.2","","59","","0.0","","4","","34","","16.1","","103.00","","","","","","NA"
"-59.96","43.93","SABLE ISLAND A","8204703","2020-09-21 17:00","2020","09","21","17:00","13.0","","5.5","","60","","0.0","","4","","30","","16.1","","102.95","","","","","","NA"
"-59.96","43.93","SABLE ISLAND A","8204703","2020-09-21 18:00","2020","09","21","18:00","12.8","","5.5","","61","","0.0","","6","","34","","16.1","","102.92","","","","","","NA"
"-59.96","43.93","SABLE ISLAND A","8204703","2020-09-21 19:00","2020","09","21","19:00","12.8","","6.3","","64","","0.0","","6","","37","","16.1","","102.84","","","","","","NA"
"-59.96","43.93","SABLE ISLAND A","8204703","2020-09-21 20:00","2020","09","21","20:00","12.9","","5.9","","62","","0.0","","5","","32","","16.1","","102.87","","","","","","NA"
"-59.96","43.93","SABLE ISLAND A","8204703","2020-09-21 21:00","2020","09","21","21:00","12.9","","6.3","","64","","0.0","","6","","39","","16.1","","102.78","","","","","","NA"
"-59.96","43.93","SABLE ISLAND A","8204703","2020-09-21 22:00","2020","09","21","22:00","12.9","","5.4","","60","","0.0","","6","","39","","16.1","","102.73","","","","","","NA"
"-59.96","43.93","SABLE ISLAND A","8204703","2020-09-21 23:00","2020","09","21","23:00","12.9","","5.5","","61","","0.0","","6","","41","","16.1","","102.60","","","","","","NA"
"-59.96","43.93","SABLE ISLAND A","8204703","2020-09-22 00:00","2020","09","22","00:00","12.9","","5.6","","61","","0.0","","7","","45","","16.1","","102.45","","","","","","NA"
"-59.96","43.93","SABLE ISLAND A","8204703","2020-09-22 01:00","2020","09","22","01:00","13.0","","6.1","","63","","0.0","","6","","45","","16.1","","102.35","","","","","","NA"
"-59.96","43.93","SABLE ISLAND A","8204703","2020-09-22 02:00","2020","09","22","02:00","13.0","","7.6","","70","","0.0","","6","","50","","16.1","","102.25","","","","","","NA"
"-59.96","43.93","SABLE ISLAND A","8204703","2020-09-22 03:00","2020","09","22","03:00","12.7","","8.6","","76","","0.0","","6","","45","","16.1","","102.11","","","","","","Rain"
"-59.96","43.93","SABLE ISLAND A","8204703","2020-09-22 04:00","2020","09","22","04:00","12.8","","10.4","","85","","0.0","","6","","48","","11.3","","101.95","","","","","","Rain"
"-59.96","43.93","SABLE ISLAND A","8204703","2020-09-22 05:00","2020","09","22","05:00","12.8","","10.9","","88","","0.2","","6","","55","","8.1","","101.81","","","","","","Rain,Fog"
"-59.96","43.93","SABLE ISLAND A","8204703","2020-09-22 06:00","2020","09","22","06:00","12.5","","10.2","","86","","1.0","","6","","63","","8.1","","101.67","","","","","","Rain"
"-59.96","43.93","SABLE ISLAND A","8204703","2020-09-22 07:00","2020","09","22","07:00","12.6","","11.4","","92","","3.0","","6","","63","","4.8","","101.43","","","","","","Rain,Fog"
"-59.96","43.93","SABLE ISLAND A","8204703","2020-09-22 08:00","2020","09","22","08:00","13.2","","12.3","","94","","0.5","","6","","63","","4.8","","101.19","","","","","","Rain,Fog"
"-59.96","43.93","SABLE ISLAND A","8204703","2020-09-22 09:00","2020","09","22","09:00","13.5","","12.6","","94","","0.2","","6","","61","","4.0","","101.15","","","","","","Rain,Fog"
"-59.96","43.93","SABLE ISLAND A","8204703","2020-09-22 10:00","2020","09","22","10:00","14.1","","13.5","","96","","3.2","","6","","67","","4.0","","100.91","","","","","","Rain,Fog"
"-59.96","43.93","SABLE ISLAND A","8204703","2020-09-22 11:00","2020","09","22","11:00","14.8","","14.5","","98","","1.5","","7","","67","","2.8","","100.65","","","","","","Rain,Fog"
"-59.96","43.93","SABLE ISLAND A","8204703","2020-09-22 12:00","2020","09","22","12:00","15.3","","14.8","","97","","0.2","","7","","59","","3.6","","100.47","","","","","","Rain,Fog"
"-59.96","43.93","SABLE ISLAND A","8204703","2020-09-22 13:00","2020","09","22","13:00","15.9","","15.9","","100","","0.8","","7","","52","","2.4","","100.25","","","","","","Rain,Fog"
"-59.96","43.93","SABLE ISLAND A","8204703","2020-09-22 14:00","2020","09","22","14:00","17.8","","17.8","","100","","0.8","","8","","63","","4.0","","100.01","","","","","","Rain,Fog"
"-59.96","43.93","SABLE ISLAND A","8204703","2020-09-22 15:00","2020","09","22","15:00","18.5","","18.5","","100","","1.8","","8","","54","","4.8","","99.87","","","","","","Rain,Fog"
"-59.96","43.93","SABLE ISLAND A","8204703","2020-09-22 16:00","2020","09","22","16:00","18.7","","18.7","","100","","4.0","","9","","43","","1.2","","99.73","","","","","","Moderate Rain,Fog"
"-59.96","43.93","SABLE ISLAND A","8204703","2020-09-22 17:00","2020","09","22","17:00","19.5","","19.5","","100","","0.5","","11","","45","","1.6","","99.67","","","","","","Fog"
"-59.96","43.93","SABLE ISLAND A","8204703","2020-09-22 18:00","2020","09","22","18:00","19.0","","19.0","","100","","0.0","","11","","41","","1.2","","99.61","","","","","","Fog"
"-59.96","43.93","SABLE ISLAND A","8204703","2020-09-22 19:00","2020","09","22","19:00","18.8","","18.8","","100","","0.0","","12","","30","","1.6","","99.63","","","","","","Fog"
"-59.96","43.93","SABLE ISLAND A","8204703","2020-09-22 20:00","2020","09","22","20:00","19.1","","19.1","","100","","0.0","","12","","32","","2.0","","99.59","","","","","","Fog"
"-59.96","43.93","SABLE ISLAND A","8204703","2020-09-22 21:00","2020","09","22","21:00","18.7","","18.7","","100","","0.0","","12","","34","","2.0","","99.51","","","","","","Fog"
"-59.96","43.93","SABLE ISLAND A","8204703","2020-09-22 22:00","2020","09","22","22:00","19.0","","18.8","","99","","0.0","","13","","41","","2.4","","99.45","","","","","","Fog"
"-59.96","43.93","SABLE ISLAND A","8204703","2020-09-22 23:00","2020","09","22","23:00","18.7","","18.0","","96","","0.0","","13","","30","","2.4","","99.40","","","","","","Fog"
"-59.96","43.93","SABLE ISLAND A","8204703","2020-09-23 00:00","2020","09","23","00:00","18.7","","17.1","","90","","0.0","","14","","39","","3.6","","99.29","","","","","","Fog"
"-59.96","43.93","SABLE ISLAND A","8204703","2020-09-23 01:00","2020","09","23","01:00","18.9","","16.6","","87","","0.0","","14","","45","","4.0","","99.19","","","","","","Fog"
"-59.96","43.93","SABLE ISLAND A","8204703","2020-09-23 02:00","2020","09","23","02:00","18.8","","17.2","","90","","0.0","","14","","43","","3.6","","99.11","","","","","","Fog"
"-59.96","43.93","SABLE ISLAND A","8204703","2020-09-23 03:00","2020","09","23","03:00","18.6","","16.3","","86","","0.2","","16","","54","","4.8","","98.97","","","","","","Haze"
"-59.96","43.93","SABLE ISLAND A","8204703","2020-09-23 04:00","2020","09","23","04:00","18.6","","15.5","","82","","0.0","","17","","58","","4.0","","98.90","","","","","","Haze"
"-59.96","43.93","SABLE ISLAND A","8204703","2020-09-23 05:00","2020","09","23","05:00","18.1","","15.4","","84","","0.0","","17","","63","","3.6","","98.84","","","","","","Haze"
"-59.96","43.93","SABLE ISLAND A","8204703","2020-09-23 06:00","2020","09","23","06:00","17.9","","15.7","","87","","0.0","","17","","67","","4.0","","98.84","","","","","","Fog"
"-59.96","43.93","SABLE ISLAND A","8204703","2020-09-23 07:00","2020","09","23","07:00","17.7","","15.8","","89","","0.2","","18","","72","","4.0","","98.85","","","","","","Rain,Fog"
"-59.96","43.93","SABLE ISLAND A","8204703","2020-09-23 08:00","2020","09","23","08:00","17.1","","15.9","","93","","0.0","","19","","72","","3.6","","98.91","","","","","","Fog"
"-59.96","43.93","SABLE ISLAND A","8204703","2020-09-23 09:00","2020","09","23","09:00","16.9","","15.2","","90","","0.0","","20","","76","","4.0","","99.03","","","","","","Fog"
"-59.96","43.93","SABLE ISLAND A","8204703","2020-09-23 10:00","2020","09","23","10:00","16.5","","14.7","","89","","0.0","","20","","61","","4.0","","99.15","","","","","","Fog"
"-59.96","43.93","SABLE ISLAND A","8204703","2020-09-23 11:00","2020","09","23","11:00","15.9","","13.9","","88","","0.0","","21","","63","","4.8","","99.27","","","","","","Fog"
"-59.96","43.93","SABLE ISLAND A","8204703","2020-09-23 12:00","2020","09","23","12:00","15.7","","13.3","","85","","0.0","","22","","59","","4.8","","99.36","","","","","","Haze"
"-59.96","43.93","SABLE ISLAND A","8204703","2020-09-23 13:00","2020","09","23","13:00","14.5","","12.8","","90","","0.0","","23","","50","","6.4","","99.42","","","","","","Fog"
"-59.96","43.93","SABLE ISLAND A","8204703","2020-09-23 14:00","2020","09","23","14:00","14.6","","12.4","","86","","0.0","","23","","46","","6.4","","99.47","","","","","","Fog"
"-59.96","43.93","SABLE ISLAND A","8204703","2020-09-23 15:00","2020","09","23","15:00","13.7","","12.4","","92","","0.0","","23","","48","","4.8","","99.54","","","","","","Fog"
"-59.96","43.93","SABLE ISLAND A","8204703","2020-09-23 16:00","2020","09","23","16:00","13.9","","11.7","","87","","0.0","","24","","45","","8.1","","99.63","","","","","","Fog"
"-59.96","43.93","SABLE ISLAND A","8204703","2020-09-23 17:00","2020","09","23","17:00","13.7","","12.1","","90","","0.0","","24","","41","","6.4","","99.72","","","","","","Fog"
"-59.96","43.93","SABLE ISLAND A","8204703","2020-09-23 18:00","2020","09","23","18:00","13.4","","12.3","","93","","0.0","","25","","32","","8.1","","99.81","","","","","","Fog"
"-59.96","43.93","SABLE ISLAND A","8204703","2020-09-23 19:00","2020","09","23","19:00","13.2","","11.9","","92","","0.0","","26","","30","","6.4","","99.92","","","","","","Fog"
"-59.96","43.93","SABLE ISLAND A","8204703","2020-09-23 20:00","2020","09","23","20:00","13.2","","12.1","","93","","0.0","","26","","26","","8.1","","100.03","","","","","","Rain,Fog"
"-59.96","43.93","SABLE ISLAND A","8204703","2020-09-23 21:00","2020","09","23","21:00","13.2","","12.2","","94","","0.0","","26","","26","","6.4","","100.09","","","","","","Rain,Fog"
"-59.96","43.93","SABLE ISLAND A","8204703","2020-09-23 22:00","2020","09","23","22:00","13.4","","12.3","","93","","0.2","","27","","18","","12.9","","100.16","","","","","","Rain"
"-59.96","43.93","SABLE ISLAND A","8204703","2020-09-23 23:00","2020","09","23","23:00","14.4","","12.6","","89","","0.0","","23","","39","","8.1","","100.19","","","","","","Fog"
"-59.96","43.93","SABLE ISLAND A","8204703","2020-09-24 00:00","2020","09","24","00:00","14.7","","13.2","","90","","0.0","","23","","41","","6.4","","100.21","","","","","","Fog"
"-59.96","43.93","SABLE ISLAND A","8204703","2020-09-24 01:00","2020","09","24","01:00","15.2","","13.3","","88","","0.0","","25","","34","","6.4","","100.27","","","","","","Fog"
"-59.96","43.93","SABLE ISLAND A","8204703","2020-09-24 02:00","2020","09","24","02:00","15.3","","13.4","","88","","0.0","","25","","24","","4.8","","100.31","","","","","","Fog"
"-59.96","43.93","SABLE ISLAND A","8204703","2020-09-24 03:00","2020","09","24","03:00","15.0","","13.6","","91","","0.0","","24","","28","","4.8","","100.35","","","","","","Fog"
"-59.96","43.93","SABLE ISLAND A","8204703","2020-09-24 04:00","2020","09","24","04:00","15.0","","13.7","","92","","0.0","","24","","28","","4.8","","100.41","","","","","","Fog"
"-59.96","43.93","SABLE ISLAND A","8204703","2020-09-24 05:00","2020","09","24","05:00","15.0","","13.6","","91","","0.0","","24","","28","","6.4","","100.51","","","","","","Fog"
"-59.96","43.93","SABLE ISLAND A","8204703","2020-09-24 06:00","2020","09","24","06:00","15.0","","13.6","","91","","0.0","","25","","26","","6.4","","100.59","","","","","","Fog"
"-59.96","43.93","SABLE ISLAND A","8204703","2020-09-24 07:00","2020","09","24","07:00","15.0","","13.9","","93","","0.0","","24","","28","","6.4","","100.66","","","","","","Fog"
"-59.96","43.93","SABLE ISLAND A","8204703","2020-09-24 08:00","2020","09","24","08:00","16.0","","14.2","","89","","0.0","","24","","22","","6.4","","100.73","","","","","","Fog"
"-59.96","43.93","SABLE ISLAND A","8204703","2020-09-24 09:00","2020","09","24","09:00","16.5","","14.4","","87","","0.0","","24","","22","","6.4","","100.83","","","","","","Haze"
"-59.96","43.93","SABLE ISLAND A","8204703","2020-09-24 10:00","2020","09","24","10:00","17.0","","14.5","","85","","0.0","","23","","24","","6.4","","100.87","","","","","","Fog"
"-59.96","43.93","SABLE ISLAND A","8204703","2020-09-24 11:00","2020","09","24","11:00","17.5","","14.7","","83","","0.0","","24","","24","","11.3","","100.92","","","","","","NA"
"-59.96","43.93","SABLE ISLAND A","8204703","2020-09-24 12:00","2020","09","24","12:00","18.0","","14.6","","80","","0.0","","24","","28","","11.3","","100.95","","","","","","NA"
"-59.96","43.93","SABLE ISLAND A","8204703","2020-09-24 13:00","2020","09","24","13:00","17.6","","14.7","","83","","0.0","","24","","26","","9.7","","100.94","","","","","","Haze"
"-59.96","43.93","SABLE ISLAND A","8204703","2020-09-24 14:00","2020","09","24","14:00","17.5","","15.0","","85","","0.0","","24","","26","","8.1","","100.98","","","","","","Haze"
"-59.96","43.93","SABLE ISLAND A","8204703","2020-09-24 15:00","2020","09","24","15:00","17.0","","14.7","","86","","0.0","","22","","24","","8.1","","100.98","","","","","","Fog"
"-59.96","43.93","SABLE ISLAND A","8204703","2020-09-24 16:00","2020","09","24","16:00","16.6","","14.5","","87","","0.0","","22","","24","","9.7","","101.01","","","","","","Fog"
"-59.96","43.93","SABLE ISLAND A","8204703","2020-09-24 17:00","2020","09","24","17:00","15.9","","14.5","","91","","0.0","","23","","24","","6.4","","101.06","","","","","","Fog"
"-59.96","43.93","SABLE ISLAND A","8204703","2020-09-24 18:00","2020","09","24","18:00","15.3","","14.4","","94","","0.0","","23","","26","","6.4","","101.13","","","","","","Fog"
"-59.96","43.93","SABLE ISLAND A","8204703","2020-09-24 19:00","2020","09","24","19:00","15.1","","14.5","","96","","0.0","","23","","24","","6.4","","101.20","","","","","","Fog"
"-59.96","43.93","SABLE ISLAND A","8204703","2020-09-24 20:00","2020","09","24","20:00","15.1","","14.3","","95","","0.0","","23","","24","","6.4","","101.25","","","","","","Fog"
"-59.96","43.93","SABLE ISLAND A","8204703","2020-09-24 21:00","2020","09","24","21:00","15.1","","14.3","","95","","0.0","","23","","24","","6.4","","101.28","","","","","","Fog"
"-59.96","43.93","SABLE ISLAND A","8204703","2020-09-24 22:00","2020","09","24","22:00","15.1","","14.2","","94","","0.0","","24","","24","","6.4","","101.32","","","","","","Fog"
"-59.96","43.93","SABLE ISLAND A","8204703","2020-09-24 23:00","2020","09","24","23:00","15.0","","13.6","","91","","0.0","","26","","18","","8.1","","101.34","","","","","","Fog"
"-59.96","43.93","SABLE ISLAND A","8204703","2020-09-25 00:00","2020","09","25","00:00","14.9","","14.0","","94","","0.0","","25","","18","","8.1","","101.39","","","","","","Fog"
"-59.96","43.93","SABLE ISLAND A","8204703","2020-09-25 01:00","2020","09","25","01:00","14.8","","14.0","","95","","0.0","","27","","11","","8.1","","101.44","","","","","","Fog"
"-59.96","43.93","SABLE ISLAND A","8204703","2020-09-25 02:00","2020","09","25","02:00","14.8","","13.9","","94","","0.0","","26","","13","","11.3","","101.46","","","","","","NA"
"-59.96","43.93","SABLE ISLAND A","8204703","2020-09-25 03:00","2020","09","25","03:00","14.8","","13.9","","94","","0.0","","25","","11","","6.4","","101.50","","","","","","Fog"
"-59.96","43.93","SABLE ISLAND A","8204703","2020-09-25 04:00","2020","09","25","04:00","14.5","","13.9","","96","","0.0","","23","","13","","8.1","","101.54","","","","","","Fog"
"-59.96","43.93","SABLE ISLAND A","8204703","2020-09-25 05:00","2020","09","25","05:00","14.7","","14.0","","96","","0.0","","22","","18","","11.3","","101.57","","","","","","NA"
"-59.96","43.93","SABLE ISLAND A","8204703","2020-09-25 06:00","2020","09","25","06:00","14.9","","14.1","","95","","0.0","","24","","24","","9.7","","101.66","","","","","","Fog"
"-59.96","43.93","SABLE ISLAND A","8204703","2020-09-25 07:00","2020","09","25","07:00","15.0","","14.1","","94","","0.0","","25","","18","","9.7","","101.74","","","","","","Fog"
"-59.96","43.93","SABLE ISLAND A","8204703","2020-09-25 08:00","2020","09","25","08:00","15.3","","14.2","","93","","0.0","","25","","17","","8.1","","101.79","","","","","","Fog"
"-59.96","43.93","SABLE ISLAND A","8204703","2020-09-25 09:00","2020","09","25","09:00","16.3","","14.3","","88","","0.0","","26","","18","","16.1","","101.87","","","","","","NA"
"-59.96","43.93","SABLE ISLAND A","8204703","2020-09-25 10:00","2020","09","25","10:00","16.0","","14.7","","92","","0.0","","27","","15","","12.9","","101.89","","","","","","NA"
"-59.96","43.93","SABLE ISLAND A","8204703","2020-09-25 11:00","2020","09","25","11:00","15.8","","14.4","","91","","0.0","","26","","13","","14.5","","101.90","","","","","","NA"
"-59.96","43.93","SABLE ISLAND A","8204703","2020-09-25 12:00","2020","09","25","12:00","15.8","","15.4","","98","","0.0","","25","","15","","6.4","","101.91","","","","","","Rain,Fog"
"-59.96","43.93","SABLE ISLAND A","8204703","2020-09-25 13:00","2020","09","25","13:00","16.1","","15.3","","95","","0.0","","24","","13","","9.7","","101.90","","","","","","Fog"
"-59.96","43.93","SABLE ISLAND A","8204703","2020-09-25 14:00","2020","09","25","14:00","15.9","","15.1","","95","","0.0","","24","","17","","8.1","","101.91","","","","","","Fog"
"-59.96","43.93","SABLE ISLAND A","8204703","2020-09-25 15:00","2020","09","25","15:00","16.7","","14.9","","89","","0.0","","25","","17","","16.1","","101.92","","","","","","NA"
"-59.96","43.93","SABLE ISLAND A","8204703","2020-09-25 16:00","2020","09","25","16:00","16.2","","14.3","","89","","0.0","","29","","9","","16.1","","101.91","","","","","","NA"
"-59.96","43.93","SABLE ISLAND A","8204703","2020-09-25 17:00","2020","09","25","17:00","15.4","","14.3","","93","","0.0","","25","","11","","14.5","","101.94","","","","","","NA"
"-59.96","43.93","SABLE ISLAND A","8204703","2020-09-25 18:00","2020","09","25","18:00","14.6","","14.3","","98","","0.0","","25","","9","","8.1","","101.96","","","","","","Fog"
"-59.96","43.93","SABLE ISLAND A","8204703","2020-09-25 19:00","2020","09","25","19:00","14.2","","13.9","","98","","0.0","","25","","11","","6.4","","102.03","","","","","","Fog"
"-59.96","43.93","SABLE ISLAND A","8204703","2020-09-25 20:00","2020","09","25","20:00","14.0","","14.0","","100","","0.0","","24","","8","","4.0","","102.07","","","","","","Fog"
"-59.96","43.93","SABLE ISLAND A","8204703","2020-09-25 21:00","2020","09","25","21:00","13.1","","13.0","","99","","0.0","","28","","9","","9.7","","102.09","","","","","","Fog"
"-59.96","43.93","SABLE ISLAND A","8204703","2020-09-25 22:00","2020","09","25","22:00","13.6","","13.5","","99","","0.0","","29","","8","","16.1","","102.12","","","","","","NA"
"-59.96","43.93","SABLE ISLAND A","8204703","2020-09-25 23:00","2020","09","25","23:00","13.2","","12.9","","98","","0.0","","29","","9","","16.1","","102.15","","","","","","NA"
"-59.96","43.93","SABLE ISLAND A","8204703","2020-09-26 00:00","2020","09","26","00:00","13.6","","12.9","","95","","0.2","","31","","11","","16.1","","102.17","","","","","","NA"
"-59.96","43.93","SABLE ISLAND A","8204703","2020-09-26 01:00","2020","09","26","01:00","12.4","","11.9","","97","","0.0","","30","","5","","16.1","","102.23","","","","","","NA"
"-59.96","43.93","SABLE ISLAND A","8204703","2020-09-26 02:00","2020","09","26","02:00","9.7","","9.6","","99","","0.0","","24","","5","","1.0","","102.23","","","","","","Fog"
"-59.96","43.93","SABLE ISLAND A","8204703","2020-09-26 03:00","2020","09","26","03:00","8.3","","8.2","","99","","0.0","","30","","5","","0.6","","102.24","","","","","","Fog"
"-59.96","43.93","SABLE ISLAND A","8204703","2020-09-26 04:00","2020","09","26","04:00","7.5","","7.5","","100","","0.0","","26","","5","","0.2","","102.29","","","","","","Fog"
"-59.96","43.93","SABLE ISLAND A","8204703","2020-09-26 05:00","2020","09","26","05:00","5.6","","5.6","","100","","0.0","","","","0","","0.4","","102.30","","","","","","Fog"
"-59.96","43.93","SABLE ISLAND A","8204703","2020-09-26 06:00","2020","09","26","06:00","5.4","","5.4","","100","","0.0","","12","","4","","0.0","","102.35","","","","","","Fog"
"-59.96","43.93","SABLE ISLAND A","8204703","2020-09-26 07:00","2020","09","26","07:00","13.4","","13.4","","100","","0.0","","16","","11","","9.7","","102.35","","","","","","Fog"
"-59.96","43.93","SABLE ISLAND A","8204703","2020-09-26 08:00","2020","09","26","08:00","14.5","","14.5","","100","","0.0","","17","","9","","16.1","","102.40","","","","","","NA"
"-59.96","43.93","SABLE ISLAND A","8204703","2020-09-26 09:00","2020","09","26","09:00","15.4","","14.8","","96","","0.0","","15","","8","","16.1","","102.47","","","","","","NA"
"-59.96","43.93","SABLE ISLAND A","8204703","2020-09-26 10:00","2020","09","26","10:00","15.5","","14.1","","92","","0.0","","17","","11","","16.1","","102.49","","","","","","NA"
"-59.96","43.93","SABLE ISLAND A","8204703","2020-09-26 11:00","2020","09","26","11:00","16.6","","14.0","","85","","0.0","","18","","13","","16.1","","102.48","","","","","","NA"
"-59.96","43.93","SABLE ISLAND A","8204703","2020-09-26 12:00","2020","09","26","12:00","16.0","","14.5","","91","","0.0","","20","","18","","4.0","","102.41","","","","","","Fog"
"-59.96","43.93","SABLE ISLAND A","8204703","2020-09-26 13:00","2020","09","26","13:00","15.1","","14.0","","93","","0.0","","18","","18","","14.5","","102.39","","","","","","NA"
"-59.96","43.93","SABLE ISLAND A","8204703","2020-09-26 14:00","2020","09","26","14:00","16.3","","14.3","","88","","0.0","","19","","18","","16.1","","102.35","","","","","","NA"
"-59.96","43.93","SABLE ISLAND A","8204703","2020-09-26 15:00","2020","09","26","15:00","14.4","","14.3","","99","","0.0","","21","","8","","0.4","","102.33","","","","","","Fog"
"-59.96","43.93","SABLE ISLAND A","8204703","2020-09-26 16:00","2020","09","26","16:00","14.3","","14.2","","100","","0.0","","","M","4","","14.5","","102.35","","","","","","NA"
"-59.96","43.93","SABLE ISLAND A","8204703","2020-09-26 17:00","2020","09","26","17:00","14.3","","13.8","","97","","0.0","","19","","5","","12.9","","102.37","","","","","","NA"
"-59.96","43.93","SABLE ISLAND A","8204703","2020-09-26 18:00","2020","09","26","18:00","14.1","","14.1","","100","","0.0","","15","","9","","16.1","","102.38","","","","","","NA"
"-59.96","43.93","SABLE ISLAND A","8204703","2020-09-26 19:00","2020","09","26","19:00","14.7","","14.7","","100","","0.0","","15","","8","","11.3","","102.39","","","","","","NA"
"-59.96","43.93","SABLE ISLAND A","8204703","2020-09-26 20:00","2020","09","26","20:00","14.7","","14.7","","100","","0.0","","16","","9","","9.7","","102.40","","","","","","Fog"
"-59.96","43.93","SABLE ISLAND A","8204703","2020-09-26 21:00","2020","09","26","21:00","14.7","","14.7","","100","","0.0","","15","","9","","6.4","","102.39","","","","","","Fog"
"-59.96","43.93","SABLE ISLAND A","8204703","2020-09-26 22:00","2020","09","26","22:00","14.9","","14.9","","100","","0.0","","16","","9","","8.1","","102.35","","","","","","Fog"
"-59.96","43.93","SABLE ISLAND A","8204703","2020-09-26 23:00","2020","09","26","23:00","15.3","","15.3","","100","","0.0","","17","","18","","6.4","","102.33","","","","","","Fog"
"-59.96","43.93","SABLE ISLAND A","8204703","2020-09-27 00:00","2020","09","27","00:00","15.3","","15.3","","100","","0.0","","18","","15","","4.8","","102.29","","","","","","Fog"
"-59.96","43.93","SABLE ISLAND A","8204703","2020-09-27 01:00","2020","09","27","01:00","15.3","","15.3","","100","","0.0","","17","","13","","4.8","","102.26","","","","","","Fog"
"-59.96","43.93","SABLE ISLAND A","8204703","2020-09-27 02:00","2020","09","27","02:00","15.4","","15.4","","100","","0.0","","17","","17","","0.6","","102.23","","","","","","Fog"
"-59.96","43.93","SABLE ISLAND A","8204703","2020-09-27 03:00","2020","09","27","03:00","15.3","","15.3","","100","","0.2","","16","","15","","1.2","","102.18","","","","","","Fog"
"-59.96","43.93","SABLE ISLAND A","8204703","2020-09-27 04:00","2020","09","27","04:00","15.2","","15.2","","100","","0.0","","15","","13","","1.2","","102.18","","","","","","Fog"
"-59.96","43.93","SABLE ISLAND A","8204703","2020-09-27 05:00","2020","09","27","05:00","15.2","","15.2","","100","","0.0","","14","","15","","1.2","","102.16","","","","","","Fog"
"-59.96","43.93","SABLE ISLAND A","8204703","2020-09-27 06:00","2020","09","27","06:00","15.9","","15.9","","100","","0.0","","16","","21","","0.4","","102.16","","","","","","Fog"
"-59.96","43.93","SABLE ISLAND A","8204703","2020-09-27 07:00","2020","09","27","07:00","15.9","","15.9","","100","","0.0","","16","","15","","1.2","","102.16","","","","","","Fog"
"-59.96","43.93","SABLE ISLAND A","8204703","2020-09-27 08:00","2020","09","27","08:00","16.7","","16.7","","100","","0.0","","19","","15","","8.1","","102.19","","","","","","Fog"
"-59.96","43.93","SABLE ISLAND A","8204703","2020-09-27 09:00","2020","09","27","09:00","17.6","","17.5","","99","","0.0","","19","","17","","16.1","","102.22","","","","","","NA"
"-59.96","43.93","SABLE ISLAND A","8204703","2020-09-27 10:00","2020","09","27","10:00","17.8","","17.1","","95","","0.0","","20","","15","","16.1","","102.24","","","","","","NA"
"-59.96","43.93","SABLE ISLAND A","8204703","2020-09-27 11:00","2020","09","27","11:00","18.4","","17.0","","92","","0.0","","20","","15","","16.1","","102.18","","","","","","NA"
"-59.96","43.93","SABLE ISLAND A","8204703","2020-09-27 12:00","2020","09","27","12:00","17.9","","17.6","","98","","0.0","","21","","17","","0.6","","102.15","","","","","","Fog"
"-59.96","43.93","SABLE ISLAND A","8204703","2020-09-27 13:00","2020","09","27","13:00","17.5","","17.3","","99","","0.0","","21","","21","","0.4","","102.10","","","","","","Fog"
"-59.96","43.93","SABLE ISLAND A","8204703","2020-09-27 14:00","2020","09","27","14:00","17.4","","17.3","","100","","0.0","","23","","15","","0.4","","102.11","","","","","","Fog"
"-59.96","43.93","SABLE ISLAND A","8204703","2020-09-27 15:00","2020","09","27","15:00","16.8","","16.8","","100","","0.0","","21","","13","","0.4","","102.15","","","","","","Fog"
"-59.96","43.93","SABLE ISLAND A","8204703","2020-09-27 16:00","2020","09","27","16:00","16.3","","16.3","","100","","0.0","","22","","18","","0.4","","102.16","","","","","","Fog"
"-59.96","43.93","SABLE ISLAND A","8204703","2020-09-27 17:00","2020","09","27","17:00","15.6","","15.6","","100","","0.0","","23","","15","","0.2","","102.19","","","","","","Fog"
"-59.96","43.93","SABLE ISLAND A","8204703","2020-09-27 18:00","2020","09","27","18:00","15.1","","15.1","","100","","0.0","","20","","15","","0.2","","102.20","","","","","","Fog"
"-59.96","43.93","SABLE ISLAND A","8204703","2020-09-27 19:00","2020","09","27","19:00","15.2","","15.2","","100","","0.0","","21","","17","","0.4","","102.25","","","","","","Fog"
"-59.96","43.93","SABLE ISLAND A","8204703","2020-09-27 20:00","2020","09","27","20:00","15.1","","15.1","","100","","0.0","","19","","11","","11.3","","102.29","","","","","","NA"
"-59.96","43.93","SABLE ISLAND A","8204703","2020-09-27 21:00","2020","09","27","21:00","15.5","","15.5","","100","","0.0","","19","","18","","0.8","","102.28","","","","","","Fog"
"-59.96","43.93","SABLE ISLAND A","8204703","2020-09-27 22:00","2020","09","27","22:00","15.5","","15.5","","100","","0.0","","19","","17","","0.6","","102.28","","","","","","Fog"
"-59.96","43.93","SABLE ISLAND A","8204703","2020-09-27 23:00","2020","09","27","23:00","15.5","","15.5","","100","","0.2","","19","","18","","0.6","","102.27","","","","","","Fog"
"-59.96","43.93","SABLE ISLAND A","8204703","2020-09-28 00:00","2020","09","28","00:00","15.9","","15.9","","100","","0.0","","19","","17","","0.6","","102.25","","","","","","Fog"
"-59.96","43.93","SABLE ISLAND A","8204703","2020-09-28 01:00","2020","09","28","01:00","16.0","","16.0","","100","","0.0","","21","","18","","1.2","","102.27","","","","","","Fog"
"-59.96","43.93","SABLE ISLAND A","8204703","2020-09-28 02:00","2020","09","28","02:00","16.1","","16.1","","100","","0.0","","20","","21","","4.0","","102.26","","","","","","Fog"
"-59.96","43.93","SABLE ISLAND A","8204703","2020-09-28 03:00","2020","09","28","03:00","16.3","","16.3","","100","","0.0","","21","","18","","11.3","","102.27","","","","","","NA"
"-59.96","43.93","SABLE ISLAND A","8204703","2020-09-28 04:00","2020","09","28","04:00","16.3","","16.3","","100","","0.0","","21","","21","","8.1","","102.29","","","","","","Fog"
"-59.96","43.93","SABLE ISLAND A","8204703","2020-09-28 05:00","2020","09","28","05:00","16.4","","16.4","","100","","0.0","","21","","18","","11.3","","102.32","","","","","","NA"
"-59.96","43.93","SABLE ISLAND A","8204703","2020-09-28 06:00","2020","09","28","06:00","16.3","","16.3","","100","","0.0","","20","","17","","4.8","","102.36","","","","","","Fog"
"-59.96","43.93","SABLE ISLAND A","8204703","2020-09-28 07:00","2020","09","28","07:00","16.6","","16.6","","100","","0.0","","20","","18","","6.4","","102.40","","","","","","Fog"
"-59.96","43.93","SABLE ISLAND A","8204703","2020-09-28 08:00","2020","09","28","08:00","17.0","","17.0","","100","","0.0","","18","","17","","9.7","","102.44","","","","","","Fog"
"-59.96","43.93","SABLE ISLAND A","8204703","2020-09-28 09:00","2020","09","28","09:00","17.8","","17.8","","100","","0.0","","18","","21","","14.5","","102.46","","","","","","NA"
"-59.96","43.93","SABLE ISLAND A","8204703","2020-09-28 10:00","2020","09","28","10:00","18.3","","17.7","","96","","0.0","","18","","21","","4.8","","102.46","","","","","","Fog"
"-59.96","43.93","SABLE ISLAND A","8204703","2020-09-28 11:00","2020","09","28","11:00","18.9","","17.8","","93","","0.0","","19","","21","","16.1","","102.48","","","","","","NA"
"-59.96","43.93","SABLE ISLAND A","8204703","2020-09-28 12:00","2020","09","28","12:00","19.2","","17.9","","92","","0.0","","19","","21","","16.1","","102.47","","","","","","NA"
"-59.96","43.93","SABLE ISLAND A","8204703","2020-09-28 13:00","2020","09","28","13:00","19.4","","17.8","","91","","0.0","","19","","21","","16.1","","102.43","","","","","","NA"
"-59.96","43.93","SABLE ISLAND A","8204703","2020-09-28 14:00","2020","09","28","14:00","19.5","","18.0","","91","","0.0","","19","","18","","16.1","","102.41","","","","","","NA"
"-59.96","43.93","SABLE ISLAND A","8204703","2020-09-28 15:00","2020","09","28","15:00","18.8","","17.5","","92","","0.0","","18","","17","","16.1","","102.41","","","","","","NA"
"-59.96","43.93","SABLE ISLAND A","8204703","2020-09-28 16:00","2020","09","28","16:00","18.3","","17.5","","95","","0.0","","18","","18","","16.1","","102.40","","","","","","NA"
"-59.96","43.93","SABLE ISLAND A","8204703","2020-09-28 17:00","2020","09","28","17:00","17.5","","17.2","","98","","0.0","","19","","17","","16.1","","102.41","","","","","","NA"
"-59.96","43.93","SABLE ISLAND A","8204703","2020-09-28 18:00","2020","09","28","18:00","17.0","","17.0","","100","","0.0","","19","","18","","16.1","","102.43","","","","","","NA"
"-59.96","43.93","SABLE ISLAND A","8204703","2020-09-28 19:00","2020","09","28","19:00","17.1","","17.1","","100","","0.0","","18","","21","","16.1","","102.45","","","","","","NA"
"-59.96","43.93","SABLE ISLAND A","8204703","2020-09-28 20:00","2020","09","28","20:00","17.3","","17.3","","100","","0.0","","18","","17","","14.5","","102.47","","","","","","NA"
"-59.96","43.93","SABLE ISLAND A","8204703","2020-09-28 21:00","2020","09","28","21:00","17.1","","17.1","","100","","0.0","","18","","15","","9.7","","102.49","","","","","","Fog"
"-59.96","43.93","SABLE ISLAND A","8204703","2020-09-28 22:00","2020","09","28","22:00","16.9","","16.9","","100","","0.0","","17","","15","","12.9","","102.49","","","","","","NA"
"-59.96","43.93","SABLE ISLAND A","8204703","2020-09-28 23:00","2020","09","28","23:00","17.1","","17.1","","100","","0.0","","18","","15","","11.3","","102.49","","","","","","NA"
"-59.96","43.93","SABLE ISLAND A","8204703","2020-09-29 00:00","2020","09","29","00:00","17.0","","17.0","","100","","0.0","","18","","17","","8.1","","102.45","","","","","","Fog"
"-59.96","43.93","SABLE ISLAND A","8204703","2020-09-29 01:00","2020","09","29","01:00","17.6","","17.6","","100","","0.0","","18","","24","","14.5","","102.45","","","","","","NA"
"-59.96","43.93","SABLE ISLAND A","8204703","2020-09-29 02:00","2020","09","29","02:00","17.4","","17.4","","100","","0.0","","18","","18","","14.5","","102.45","","","","","","NA"
"-59.96","43.93","SABLE ISLAND A","8204703","2020-09-29 03:00","2020","09","29","03:00","17.3","","17.3","","100","","0.0","","17","","17","","9.7","","102.43","","","","","","Fog"
"-59.96","43.93","SABLE ISLAND A","8204703","2020-09-29 04:00","2020","09","29","04:00","17.6","","17.6","","100","","0.0","","16","","22","","6.4","","102.41","","","","","","Fog"
"-59.96","43.93","SABLE ISLAND A","8204703","2020-09-29 05:00","2020","09","29","05:00","17.5","","17.5","","100","","0.0","","17","","24","","9.7","","102.40","","","","","","Fog"
"-59.96","43.93","SABLE ISLAND A","8204703","2020-09-29 06:00","2020","09","29","06:00","17.3","","17.3","","100","","0.0","","17","","18","","11.3","","102.40","","","","","","NA"
"-59.96","43.93","SABLE ISLAND A","8204703","2020-09-29 07:00","2020","09","29","07:00","17.5","","17.5","","100","","0.0","","17","","21","","12.9","","102.41","","","","","","NA"
"-59.96","43.93","SABLE ISLAND A","8204703","2020-09-29 08:00","2020","09","29","08:00","18.1","","18.1","","100","","0.0","","17","","17","","4.8","","102.44","","","","","","Fog"
"-59.96","43.93","SABLE ISLAND A","8204703","2020-09-29 09:00","2020","09","29","09:00","18.6","","18.6","","100","","0.2","","17","","21","","8.1","","102.44","","","","","","Fog"
"-59.96","43.93","SABLE ISLAND A","8204703","2020-09-29 10:00","2020","09","29","10:00","19.0","","18.7","","98","","0.0","","17","","18","","2.0","","102.41","","","","","","Fog"
"-59.96","43.93","SABLE ISLAND A","8204703","2020-09-29 11:00","2020","09","29","11:00"
"-59.96","43.93","SABLE ISLAND A","8204703","2020-09-29 12:00","2020","09","29","12:00"
"-59.96","43.93","SABLE ISLAND A","8204703","2020-09-29 13:00","2020","09","29","13:00"
"-59.96","43.93","SABLE ISLAND A","8204703","2020-09-29 14:00","2020","09","29","14:00"
"-59.96","43.93","SABLE ISLAND A","8204703","2020-09-29 15:00","2020","09","29","15:00"
"-59.96","43.93","SABLE ISLAND A","8204703","2020-09-29 16:00","2020","09","29","16:00","18.9","","18.1","","95","","0.0","","","M","","M","12.9","","102.21","","","","","","NA"
"-59.96","43.93","SABLE ISLAND A","8204703","2020-09-29 17:00","2020","09","29","17:00","18.0","","17.8","","99","","0.0","","14","","18","","9.7","","102.22","","","","","","Fog"
"-59.96","43.93","SABLE ISLAND A","8204703","2020-09-29 18:00","2020","09","29","18:00","17.5","","17.5","","100","","0.0","","14","","17","","8.1","","102.18","","","","","","Fog"
"-59.96","43.93","SABLE ISLAND A","8204703","2020-09-29 19:00","2020","09","29","19:00","17.6","","17.6","","100","","0.0","","15","","17","","4.8","","102.18","","","","","","Fog"
"-59.96","43.93","SABLE ISLAND A","8204703","2020-09-29 20:00","2020","09","29","20:00","18.0","","18.0","","100","","0.0","","15","","18","","6.4","","102.18","","","","","","Fog"
"-59.96","43.93","SABLE ISLAND A","8204703","2020-09-29 21:00","2020","09","29","21:00","18.1","","18.1","","100","","0.0","","15","","21","","1.6","","102.16","","","","","","Fog"
"-59.96","43.93","SABLE ISLAND A","8204703","2020-09-29 22:00","2020","09","29","22:00","18.0","","18.0","","100","","0.0","","15","","17","","1.6","","102.14","","","","","","Rain,Fog"
"-59.96","43.93","SABLE ISLAND A","8204703","2020-09-29 23:00","2020","09","29","23:00","18.0","","18.0","","100","","0.0","","17","","22","","8.1","","102.13","","","","","","Fog"
"-59.96","43.93","SABLE ISLAND A","8204703","2020-09-30 00:00","2020","09","30","00:00","17.7","","17.7","","100","","0.0","","16","","18","","9.7","","102.08","","","","","","Fog"
"-59.96","43.93","SABLE ISLAND A","8204703","2020-09-30 01:00","2020","09","30","01:00","17.8","","17.8","","100","","0.0","","15","","18","","0.8","","102.05","","","","","","Rain,Fog"
"-59.96","43.93","SABLE ISLAND A","8204703","2020-09-30 02:00","2020","09","30","02:00","17.8","","17.8","","100","","0.0","","15","","18","","6.4","","102.02","","","","","","Fog"
"-59.96","43.93","SABLE ISLAND A","8204703","2020-09-30 03:00","2020","09","30","03:00","18.1","","18.1","","100","","0.0","","16","","21","","4.8","","101.94","","","","","","Fog"
"-59.96","43.93","SABLE ISLAND A","8204703","2020-09-30 04:00","2020","09","30","04:00","17.3","","17.3","","100","","0.0","","14","","21","","1.2","","101.94","","","","","","Rain,Fog"
"-59.96","43.93","SABLE ISLAND A","8204703","2020-09-30 05:00","2020","09","30","05:00","17.7","","17.7","","100","","0.0","","15","","18","","1.2","","101.91","","","","","","Fog"
"-59.96","43.93","SABLE ISLAND A","8204703","2020-09-30 06:00","2020","09","30","06:00","17.8","","17.8","","100","","0.0","","15","","22","","1.2","","101.87","","","","","","Fog"
"-59.96","43.93","SABLE ISLAND A","8204703","2020-09-30 07:00","2020","09","30","07:00","18.2","","18.2","","100","","0.0","","15","","22","","1.0","","101.82","","","","","","Rain,Fog"
"-59.96","43.93","SABLE ISLAND A","8204703","2020-09-30 08:00","2020","09","30","08:00","18.1","","18.1","","100","","0.0","","16","","24","","3.2","","101.80","","","","","","Fog"
"-59.96","43.93","SABLE ISLAND A","8204703","2020-09-30 09:00","2020","09","30","09:00","18.9","","18.9","","100","","0.0","","16","","24","","6.4","","101.77","","","","","","Fog"
"-59.96","43.93","SABLE ISLAND A","8204703","2020-09-30 10:00","2020","09","30","10:00","19.3","","19.1","","99","","0.0","","17","","26","","4.8","","101.79","","","","","","Fog"
"-59.96","43.93","SABLE ISLAND A","8204703","2020-09-30 11:00","2020","09","30","11:00","19.0","","19.0","","100","","0.0","","18","","26","","0.6","","101.76","","","","","","Rain,Fog"
"-59.96","43.93","SABLE ISLAND A","8204703","2020-09-30 12:00","2020","09","30","12:00","19.2","","18.8","","97","","0.0","","18","","28","","1.2","","101.69","","","","","","Rain,Fog"
"-59.96","43.93","SABLE ISLAND A","8204703","2020-09-30 13:00","2020","09","30","13:00","20.3","","19.3","","94","","0.0","","18","","30","","9.7","","101.62","","27","","","","Fog"
"-59.96","43.93","SABLE ISLAND A","8204703","2020-09-30 14:00","2020","09","30","14:00","20.5","","19.2","","92","","0.0","","18","","30","","8.1","","101.55","","27","","","","Fog"
"-59.96","43.93","SABLE ISLAND A","8204703","2020-09-30 15:00","2020","09","30","15:00","19.8","","19.0","","95","","0.0","","18","","34","","6.4","","101.50","","","","","","Fog"
"-59.96","43.93","SABLE ISLAND A","8204703","2020-09-30 16:00","2020","09","30","16:00","19.5","","19.2","","98","","0.0","","17","","35","","4.8","","101.45","","","","","","Fog"
"-59.96","43.93","SABLE ISLAND A","8204703","2020-09-30 17:00","2020","09","30","17:00","19.4","","19.4","","100","","0.0","","18","","37","","4.8","","101.45","","","","","","Fog"
"-59.96","43.93","SABLE ISLAND A","8204703","2020-09-30 18:00","2020","09","30","18:00","19.1","","19.1","","100","","0.0","","18","","39","","4.8","","101.46","","","","","","Fog"
"-59.96","43.93","SABLE ISLAND A","8204703","2020-09-30 19:00","2020","09","30","19:00","19.4","","19.4","","100","","0.0","","19","","43","","4.8","","101.41","","","","","","Fog"
"-59.96","43.93","SABLE ISLAND A","8204703","2020-09-30 20:00","2020","09","30","20:00","19.1","","19.1","","100","","0.0","","18","","39","","4.0","","101.40","","","","","","Fog"
"-59.96","43.93","SABLE ISLAND A","8204703","2020-09-30 21:00","2020","09","30","21:00","18.9","","18.9","","100","","0.0","","18","","37","","4.0","","101.38","","","","","","Fog"
"-59.96","43.93","SABLE ISLAND A","8204703","2020-09-30 22:00","2020","09","30","22:00","19.1","","19.1","","100","","0.0","","18","","41","","3.6","","101.33","","","","","","Fog"
"-59.96","43.93","SABLE ISLAND A","8204703","2020-09-30 23:00","2020","09","30","23:00","19.2","","19.2","","100","","0.0","","19","","45","","3.2","","101.31","","","","","","Fog"
