"Longitude (x)","Latitude (y)","Station Name","Climate ID","Date/Time (LST)","Year","Month","Day","Time (LST)","Temp (°C)","Temp Flag","Dew Point Temp (°C)","Dew Point Temp Flag","Rel Hum (%)","Rel Hum Flag","Precip. Amount (mm)","Precip. Amount Flag","Wind Dir (10s deg)","Wind Dir Flag","Wind Spd (km/h)","Wind Spd Flag","Visibility (km)","Visibility Flag","Stn Press (kPa)","Stn Press Flag","Hmdx","Hmdx Flag","Wind Chill","Wind Chill Flag","Weather"
"-121.67","69.67","KEATS POINT","2202663","2018-05-01 00:00","2018","05","01","00:00","-6.4","","","","","M","","","10","","9","","","","96.47","","","","-11","","NA"
"-121.67","69.67","KEATS POINT","2202663","2018-05-01 01:00","2018","05","01","01:00","-6.9","","","","","M","","","22","","26","","","","96.41","","","","-15","","NA"
"-121.67","69.67","KEATS POINT","2202663","2018-05-01 02:00","2018","05","01","02:00","-7.0","","","","","M","","","20","","22","","","","96.36","","","","-14","","NA"
"-121.67","69.67","KEATS POINT","2202663","2018-05-01 03:00","2018","05","01","03:00","-6.8","","","","","M","","","21","","26","","","","96.32","","","","-15","","NA"
"-121.67","69.67","KEATS POINT","2202663","2018-05-01 04:00","2018","05","01","04:00","-5.1","","","","","M","","","21","","17","","","","96.28","","","","-11","","NA"
"-121.67","69.67","KEATS POINT","2202663","2018-05-01 05:00","2018","05","01","05:00","-6.1","","","","","M","","","10","","19","","","","96.21","","","","-13","","NA"
"-121.67","69.67","KEATS POINT","2202663","2018-05-01 06:00","2018","05","01","06:00","-5.7","","","","","M","","","19","","11","","","","96.18","","","","-10","","NA"
"-121.67","69.67","KEATS POINT","2202663","2018-05-01 07:00","2018","05","01","07:00","-4.5","","","","","M","","","16","","13","","","","96.07","","","","-10","","NA"
"-121.67","69.67","KEATS POINT","2202663","2018-05-01 08:00","2018","05","01","08:00","-4.5","","","","","M","","","21","","30","","","","96.00","","","","-12","","NA"
"-121.67","69.67","KEATS POINT","2202663","2018-05-01 09:00","2018","05","01","09:00","-3.5","","","","","M","","","22","","24","","","","95.97","","","","-10","","NA"
"-121.67","69.67","KEATS POINT","2202663","2018-05-01 10:00","2018","05","01","10:00","-2.7","","","","","M","","","21","","37","","","","95.93","","","","-11","","NA"
"-121.67","69.67","KEATS POINT","2202663","2018-05-01 11:00","2018","05","01","11:00","-2.0","","","","","M","","","22","","33","","","","95.94","","","","-9","","NA"
"-121.67","69.67","KEATS POINT","2202663","2018-05-01 12:00","2018","05","01","12:00","-0.9","","","","","M","","","23","","33","","","","95.91","","","","-8","","NA"
"-121.67","69.67","KEATS POINT","2202663","2018-05-01 13:00","2018","05","01","13:00","-1.0","","","","","M","","","23","","35","","","","95.91","","","","-8","","NA"
"-121.67","69.67","KEATS POINT","2202663","2018-05-01 14:00","2018","05","01","14:00","-0.3","","","","","M","","","23","","35","","","","95.88","","","","-7","","NA"
"-121.67","69.67","KEATS POINT","2202663","2018-05-01 15:00","2018","05","01","15:00","-0.5","","","","","M","","","23","","35","","","","95.85","","","","-8","","NA"
"-121.67","69.67","KEATS POINT","2202663","2018-05-01 16:00","2018","05","01","16:00","-0.3","","","","","M","","","23","","31","","","","95.85","","","","-7","","NA"
"-121.67","69.67","KEATS POINT","2202663","2018-05-01 17:00","2018","05","01","17:00","0.4","","","","","M","","","23","","30","","","","95.81","","","","","","NA"
"-121.67","69.67","KEATS POINT","2202663","2018-05-01 18:00","2018","05","01","18:00","-0.1","","","","","M","","","24","","31","","","","95.77","","","","-7","","NA"
"-121.67","69.67","KEATS POINT","2202663","2018-05-01 19:00","2018","05","01","19:00","-1.8","","","","","M","","","26","","26","","","","95.77","","","","-8","","NA"
"-121.67","69.67","KEATS POINT","2202663","2018-05-01 20:00","2018","05","01","20:00","-2.6","","","","","M","","","26","","30","","","","95.75","","","","-10","","NA"
"-121.67","69.67","KEATS POINT","2202663","2018-05-01 21:00","2018","05","01","21:00","-4.3","","","","","M","","","26","","37","","","","95.74","","","","-13","","NA"
"-121.67","69.67","KEATS POINT","2202663","2018-05-01 22:00","2018","05","01","22:00","-5.0","","","","","M","","","26","","37","","","","95.74","","","","-14","","NA"
"-121.67","69.67","KEATS POINT","2202663","2018-05-01 23:00","2018","05","01","23:00","-5.8","","","","","M","","","25","","44","","","","95.71","","","","-16","","NA"
"-121.67","69.67","KEATS POINT","2202663","2018-05-02 00:00","2018","05","02","00:00","-6.6","","","","","M","","","25","","48","","","","95.70","","","","-17","","NA"
"-121.67","69.67","KEATS POINT","2202663","2018-05-02 01:00","2018","05","02","01:00","-8.5","","","","","M","","","24","","44","","","","95.73","","","","-19","","NA"
"-121.67","69.67","KEATS POINT","2202663","2018-05-02 02:00","2018","05","02","02:00","-9.2","","","","","M","","","","M","","M","","","95.76","","","","","","NA"
"-121.67","69.67","KEATS POINT","2202663","2018-05-02 03:00","2018","05","02","03:00","-10.2","","","","","M","","","","M","","M","","","95.91","","","","","","NA"
"-121.67","69.67","KEATS POINT","2202663","2018-05-02 04:00","2018","05","02","04:00","-11.8","","","","","M","","","","M","","M","","","96.01","","","","","","NA"
"-121.67","69.67","KEATS POINT","2202663","2018-05-02 05:00","2018","05","02","05:00","-12.8","","","","","M","","","","M","","M","","","96.10","","","","","","NA"
"-121.67","69.67","KEATS POINT","2202663","2018-05-02 06:00","2018","05","02","06:00","-13.6","","","","","M","","","","M","","M","","","96.18","","","","","","NA"
"-121.67","69.67","KEATS POINT","2202663","2018-05-02 07:00","2018","05","02","07:00","-14.0","","","","","M","","","","M","","M","","","96.23","","","","","","NA"
"-121.67","69.67","KEATS POINT","2202663","2018-05-02 08:00","2018","05","02","08:00","-13.5","","","","","M","","","","M","","M","","","96.25","","","","","","NA"
"-121.67","69.67","KEATS POINT","2202663","2018-05-02 09:00","2018","05","02","09:00","-13.5","","","","","M","","","","M","","M","","","96.35","","","","","","NA"
"-121.67","69.67","KEATS POINT","2202663","2018-05-02 10:00","2018","05","02","10:00","-12.9","","","","","M","","","","M","","M","","","96.39","","","","","","NA"
"-121.67","69.67","KEATS POINT","2202663","2018-05-02 11:00","2018","05","02","11:00","-12.6","","","","","M","","","","M","","M","","","96.43","","","","","","NA"
"-121.67","69.67","KEATS POINT","2202663","2018-05-02 12:00","2018","05","02","12:00","-11.6","","","","","M","","","","M","","M","","","96.48","","","","","","NA"
"-121.67","69.67","KEATS POINT","2202663","2018-05-02 13:00","2018","05","02","13:00","-11.3","","","","","M","","","21","","133","","","","96.53","","","","-29","","NA"
"-121.67","69.67","KEATS POINT","2202663","2018-05-02 14:00","2018","05","02","14:00","-10.9","","","","","M","","","","","0","","","","96.57","","","","","","NA"
"-121.67","69.67","KEATS POINT","2202663","2018-05-02 15:00","2018","05","02","15:00","-11.3","","","","","M","","","24","","26","","","","96.60","","","","-21","","NA"
"-121.67","69.67","KEATS POINT","2202663","2018-05-02 16:00","2018","05","02","16:00","-11.6","","","","","M","","","24","","43","","","","96.63","","","","-23","","NA"
"-121.67","69.67","KEATS POINT","2202663","2018-05-02 17:00","2018","05","02","17:00","-11.1","","","","","M","","","25","","46","","","","96.69","","","","-23","","NA"
"-121.67","69.67","KEATS POINT","2202663","2018-05-02 18:00","2018","05","02","18:00","-11.9","","","","","M","","","25","","41","","","","96.73","","","","-23","","NA"
"-121.67","69.67","KEATS POINT","2202663","2018-05-02 19:00","2018","05","02","19:00","-13.9","","","","","M","","","21","","44","","","","96.80","","","","-26","","NA"
"-121.67","69.67","KEATS POINT","2202663","2018-05-02 20:00","2018","05","02","20:00","-15.0","","","","","M","","","22","","43","","","","96.84","","","","-28","","NA"
"-121.67","69.67","KEATS POINT","2202663","2018-05-02 21:00","2018","05","02","21:00","-15.1","","","","","M","","","22","","46","","","","96.84","","","","-28","","NA"
"-121.67","69.67","KEATS POINT","2202663","2018-05-02 22:00","2018","05","02","22:00","-15.6","","","","","M","","","22","","37","","","","96.90","","","","-28","","NA"
"-121.67","69.67","KEATS POINT","2202663","2018-05-02 23:00","2018","05","02","23:00","-15.6","","","","","M","","","23","","39","","","","96.93","","","","-28","","NA"
"-121.67","69.67","KEATS POINT","2202663","2018-05-03 00:00","2018","05","03","00:00","-16.2","","","","","M","","","23","","39","","","","96.95","","","","-29","","NA"
"-121.67","69.67","KEATS POINT","2202663","2018-05-03 01:00","2018","05","03","01:00","-15.9","","","","","M","","","23","","43","","","","96.94","","","","-29","","NA"
"-121.67","69.67","KEATS POINT","2202663","2018-05-03 02:00","2018","05","03","02:00","-16.9","","","","","M","","","23","","35","","","","96.98","","","","-29","","NA"
"-121.67","69.67","KEATS POINT","2202663","2018-05-03 03:00","2018","05","03","03:00","-17.0","","","","","M","","","23","","35","","","","97.03","","","","-29","","NA"
"-121.67","69.67","KEATS POINT","2202663","2018-05-03 04:00","2018","05","03","04:00","-16.6","","","","","M","","","23","","41","","","","97.06","","","","-30","","NA"
"-121.67","69.67","KEATS POINT","2202663","2018-05-03 05:00","2018","05","03","05:00","-16.8","","","","","M","","","23","","35","","","","97.09","","","","-29","","NA"
"-121.67","69.67","KEATS POINT","2202663","2018-05-03 06:00","2018","05","03","06:00","-16.3","","","","","M","","","23","","31","","","","97.11","","","","-28","","NA"
"-121.67","69.67","KEATS POINT","2202663","2018-05-03 07:00","2018","05","03","07:00","-16.0","","","","","M","","","23","","33","","","","97.10","","","","-28","","NA"
"-121.67","69.67","KEATS POINT","2202663","2018-05-03 08:00","2018","05","03","08:00","-15.9","","","","","M","","","22","","33","","","","97.13","","","","-28","","NA"
"-121.67","69.67","KEATS POINT","2202663","2018-05-03 09:00","2018","05","03","09:00","-15.1","","","","","M","","","23","","35","","","","97.14","","","","-27","","NA"
"-121.67","69.67","KEATS POINT","2202663","2018-05-03 10:00","2018","05","03","10:00","-14.0","","","","","M","","","22","","30","","","","97.17","","","","-25","","NA"
"-121.67","69.67","KEATS POINT","2202663","2018-05-03 11:00","2018","05","03","11:00","-13.0","","","","","M","","","22","","31","","","","97.15","","","","-24","","NA"
"-121.67","69.67","KEATS POINT","2202663","2018-05-03 12:00","2018","05","03","12:00","-11.8","","","","","M","","","22","","26","","","","97.16","","","","-21","","NA"
"-121.67","69.67","KEATS POINT","2202663","2018-05-03 13:00","2018","05","03","13:00","-11.1","","","","","M","","","22","","22","","","","97.18","","","","-20","","NA"
"-121.67","69.67","KEATS POINT","2202663","2018-05-03 14:00","2018","05","03","14:00","-10.6","","","","","M","","","22","","22","","","","97.20","","","","-19","","NA"
"-121.67","69.67","KEATS POINT","2202663","2018-05-03 15:00","2018","05","03","15:00","-9.8","","","","","M","","","21","","24","","","","97.18","","","","-18","","NA"
"-121.67","69.67","KEATS POINT","2202663","2018-05-03 16:00","2018","05","03","16:00","-9.6","","","","","M","","","23","","22","","","","97.19","","","","-18","","NA"
"-121.67","69.67","KEATS POINT","2202663","2018-05-03 17:00","2018","05","03","17:00","-9.5","","","","","M","","","23","","20","","","","97.18","","","","-17","","NA"
"-121.67","69.67","KEATS POINT","2202663","2018-05-03 18:00","2018","05","03","18:00","-10.4","","","","","M","","","34","","15","","","","97.17","","","","-17","","NA"
"-121.67","69.67","KEATS POINT","2202663","2018-05-03 19:00","2018","05","03","19:00","-9.9","","","","","M","","","23","","15","","","","97.14","","","","-17","","NA"
"-121.67","69.67","KEATS POINT","2202663","2018-05-03 20:00","2018","05","03","20:00","-10.2","","","","","M","","","22","","22","","","","97.09","","","","-18","","NA"
"-121.67","69.67","KEATS POINT","2202663","2018-05-03 21:00","2018","05","03","21:00","-10.4","","","","","M","","","22","","24","","","","97.03","","","","-19","","NA"
"-121.67","69.67","KEATS POINT","2202663","2018-05-03 22:00","2018","05","03","22:00","-10.4","","","","","M","","","21","","26","","","","97.02","","","","-19","","NA"
"-121.67","69.67","KEATS POINT","2202663","2018-05-03 23:00","2018","05","03","23:00","-10.4","","","","","M","","","22","","26","","","","96.99","","","","-19","","NA"
"-121.67","69.67","KEATS POINT","2202663","2018-05-04 00:00","2018","05","04","00:00","-9.7","","","","","M","","","22","","22","","","","96.97","","","","-18","","NA"
"-121.67","69.67","KEATS POINT","2202663","2018-05-04 01:00","2018","05","04","01:00","-8.7","","","","","M","","","22","","20","","","","96.94","","","","-16","","NA"
"-121.67","69.67","KEATS POINT","2202663","2018-05-04 02:00","2018","05","04","02:00","-9.4","","","","","M","","","22","","26","","","","96.91","","","","-18","","NA"
"-121.67","69.67","KEATS POINT","2202663","2018-05-04 03:00","2018","05","04","03:00","-9.1","","","","","M","","","21","","26","","","","96.89","","","","-18","","NA"
"-121.67","69.67","KEATS POINT","2202663","2018-05-04 04:00","2018","05","04","04:00","-8.6","","","","","M","","","22","","26","","","","96.87","","","","-17","","NA"
"-121.67","69.67","KEATS POINT","2202663","2018-05-04 05:00","2018","05","04","05:00","-7.6","","","","","M","","","22","","20","","","","96.85","","","","-15","","NA"
"-121.67","69.67","KEATS POINT","2202663","2018-05-04 06:00","2018","05","04","06:00","-7.4","","","","","M","","","22","","30","","","","96.82","","","","-16","","NA"
"-121.67","69.67","KEATS POINT","2202663","2018-05-04 07:00","2018","05","04","07:00","-7.1","","","","","M","","","22","","30","","","","96.81","","","","-16","","NA"
"-121.67","69.67","KEATS POINT","2202663","2018-05-04 08:00","2018","05","04","08:00","-6.5","","","","","M","","","22","","28","","","","96.79","","","","-15","","NA"
"-121.67","69.67","KEATS POINT","2202663","2018-05-04 09:00","2018","05","04","09:00","-5.5","","","","","M","","","22","","30","","","","96.79","","","","-14","","NA"
"-121.67","69.67","KEATS POINT","2202663","2018-05-04 10:00","2018","05","04","10:00","-4.6","","","","","M","","","22","","30","","","","96.80","","","","-12","","NA"
"-121.67","69.67","KEATS POINT","2202663","2018-05-04 11:00","2018","05","04","11:00","-3.7","","","","","M","","","22","","26","","","","96.80","","","","-11","","NA"
"-121.67","69.67","KEATS POINT","2202663","2018-05-04 12:00","2018","05","04","12:00","-3.4","","","","","M","","","22","","31","","","","96.79","","","","-11","","NA"
"-121.67","69.67","KEATS POINT","2202663","2018-05-04 13:00","2018","05","04","13:00","-3.1","","","","","M","","","21","","39","","","","96.78","","","","-11","","NA"
"-121.67","69.67","KEATS POINT","2202663","2018-05-04 14:00","2018","05","04","14:00","-2.6","","","","","M","","","22","","33","","","","96.81","","","","-10","","NA"
"-121.67","69.67","KEATS POINT","2202663","2018-05-04 15:00","2018","05","04","15:00","-2.6","","","","","M","","","22","","30","","","","96.81","","","","-10","","NA"
"-121.67","69.67","KEATS POINT","2202663","2018-05-04 16:00","2018","05","04","16:00","-2.6","","","","","M","","","22","","30","","","","96.81","","","","-10","","NA"
"-121.67","69.67","KEATS POINT","2202663","2018-05-04 17:00","2018","05","04","17:00","-2.5","","","","","M","","","22","","31","","","","96.80","","","","-10","","NA"
"-121.67","69.67","KEATS POINT","2202663","2018-05-04 18:00","2018","05","04","18:00","-2.9","","","","","M","","","22","","35","","","","96.77","","","","-11","","NA"
"-121.67","69.67","KEATS POINT","2202663","2018-05-04 19:00","2018","05","04","19:00","-3.0","","","","","M","","","22","","30","","","","96.77","","","","-10","","NA"
"-121.67","69.67","KEATS POINT","2202663","2018-05-04 20:00","2018","05","04","20:00","-3.4","","","","","M","","","21","","35","","","","96.74","","","","-11","","NA"
"-121.67","69.67","KEATS POINT","2202663","2018-05-04 21:00","2018","05","04","21:00","-4.3","","","","","M","","","21","","39","","","","96.72","","","","-13","","NA"
"-121.67","69.67","KEATS POINT","2202663","2018-05-04 22:00","2018","05","04","22:00","-4.8","","","","","M","","","21","","35","","","","96.71","","","","-13","","NA"
"-121.67","69.67","KEATS POINT","2202663","2018-05-04 23:00","2018","05","04","23:00","-5.1","","","","","M","","","21","","37","","","","96.70","","","","-14","","NA"
"-121.67","69.67","KEATS POINT","2202663","2018-05-05 00:00","2018","05","05","00:00","-5.8","","","","","M","","","21","","33","","","","96.67","","","","-14","","NA"
"-121.67","69.67","KEATS POINT","2202663","2018-05-05 01:00","2018","05","05","01:00","-5.5","","","","","M","","","21","","39","","","","96.64","","","","-15","","NA"
"-121.67","69.67","KEATS POINT","2202663","2018-05-05 02:00","2018","05","05","02:00","-5.2","","","","","M","","","22","","30","","","","96.64","","","","-13","","NA"
"-121.67","69.67","KEATS POINT","2202663","2018-05-05 03:00","2018","05","05","03:00","-4.4","","","","","M","","","21","","33","","","","96.61","","","","-13","","NA"
"-121.67","69.67","KEATS POINT","2202663","2018-05-05 04:00","2018","05","05","04:00","-3.7","","","","","M","","","21","","24","","","","96.59","","","","-11","","NA"
"-121.67","69.67","KEATS POINT","2202663","2018-05-05 05:00","2018","05","05","05:00","-7.3","","","","","M","","","34","","11","","","","96.62","","","","-12","","NA"
"-121.67","69.67","KEATS POINT","2202663","2018-05-05 06:00","2018","05","05","06:00","-7.7","","","","","M","","","20","","4","","","","96.56","","","","-10","","NA"
"-121.67","69.67","KEATS POINT","2202663","2018-05-05 07:00","2018","05","05","07:00","-6.9","","","","","M","","","1","","4","","","","96.54","","","","-9","","NA"
"-121.67","69.67","KEATS POINT","2202663","2018-05-05 08:00","2018","05","05","08:00","-7.7","","","","","M","","","","","0","","","","96.51","","","","","","NA"
"-121.67","69.67","KEATS POINT","2202663","2018-05-05 09:00","2018","05","05","09:00","-6.0","","","","","M","","","16","","4","","","","96.47","","","","-8","","NA"
"-121.67","69.67","KEATS POINT","2202663","2018-05-05 10:00","2018","05","05","10:00","-6.4","","","","","M","","","7","","4","","","","96.44","","","","-8","","NA"
"-121.67","69.67","KEATS POINT","2202663","2018-05-05 11:00","2018","05","05","11:00","-6.6","","","","","M","","","7","","6","","","","96.42","","","","-10","","NA"
"-121.67","69.67","KEATS POINT","2202663","2018-05-05 12:00","2018","05","05","12:00","-7.1","","","","","M","","","7","","9","","","","96.42","","","","-11","","NA"
"-121.67","69.67","KEATS POINT","2202663","2018-05-05 13:00","2018","05","05","13:00","-7.1","","","","","M","","","6","","11","","","","96.41","","","","-12","","NA"
"-121.67","69.67","KEATS POINT","2202663","2018-05-05 14:00","2018","05","05","14:00","-8.2","","","","","M","","","8","","13","","","","96.36","","","","-14","","NA"
"-121.67","69.67","KEATS POINT","2202663","2018-05-05 15:00","2018","05","05","15:00","-8.4","","","","","M","","","9","","19","","","","96.30","","","","-16","","NA"
"-121.67","69.67","KEATS POINT","2202663","2018-05-05 16:00","2018","05","05","16:00","-9.2","","","","","M","","","9","","26","","","","96.24","","","","-18","","NA"
"-121.67","69.67","KEATS POINT","2202663","2018-05-05 17:00","2018","05","05","17:00","-9.4","","","","","M","","","8","","26","","","","96.22","","","","-18","","NA"
"-121.67","69.67","KEATS POINT","2202663","2018-05-05 18:00","2018","05","05","18:00","-9.7","","","","","M","","","8","","24","","","","96.23","","","","-18","","NA"
"-121.67","69.67","KEATS POINT","2202663","2018-05-05 19:00","2018","05","05","19:00","-10.3","","","","","M","","","8","","28","","","","96.20","","","","-20","","NA"
"-121.67","69.67","KEATS POINT","2202663","2018-05-05 20:00","2018","05","05","20:00","-11.2","","","","","M","","","9","","28","","","","96.18","","","","-21","","NA"
"-121.67","69.67","KEATS POINT","2202663","2018-05-05 21:00","2018","05","05","21:00","-12.1","","","","","M","","","8","","30","","","","96.18","","","","-22","","NA"
"-121.67","69.67","KEATS POINT","2202663","2018-05-05 22:00","2018","05","05","22:00","-12.4","","","","","M","","","9","","26","","","","96.23","","","","-22","","NA"
"-121.67","69.67","KEATS POINT","2202663","2018-05-05 23:00","2018","05","05","23:00","-12.8","","","","","M","","","9","","26","","","","96.25","","","","-23","","NA"
"-121.67","69.67","KEATS POINT","2202663","2018-05-06 00:00","2018","05","06","00:00","-13.2","","","","","M","","","8","","28","","","","96.27","","","","-23","","NA"
"-121.67","69.67","KEATS POINT","2202663","2018-05-06 01:00","2018","05","06","01:00","-13.2","","","","","M","","","8","","22","","","","96.33","","","","-22","","NA"
"-121.67","69.67","KEATS POINT","2202663","2018-05-06 02:00","2018","05","06","02:00","-13.2","","","","","M","","","9","","24","","","","96.29","","","","-23","","NA"
"-121.67","69.67","KEATS POINT","2202663","2018-05-06 03:00","2018","05","06","03:00","-13.0","","","","","M","","","9","","15","","","","96.38","","","","-20","","NA"
"-121.67","69.67","KEATS POINT","2202663","2018-05-06 04:00","2018","05","06","04:00","-13.4","","","","","M","","","31","","6","","","","96.55","","","","-17","","NA"
"-121.67","69.67","KEATS POINT","2202663","2018-05-06 05:00","2018","05","06","05:00","-13.2","","","","","M","","","11","","17","","","","96.46","","","","-21","","NA"
"-121.67","69.67","KEATS POINT","2202663","2018-05-06 06:00","2018","05","06","06:00","-12.9","","","","","M","","","7","","19","","","","96.58","","","","-21","","NA"
"-121.67","69.67","KEATS POINT","2202663","2018-05-06 07:00","2018","05","06","07:00","-13.0","","","","","M","","","9","","19","","","","96.67","","","","-21","","NA"
"-121.67","69.67","KEATS POINT","2202663","2018-05-06 08:00","2018","05","06","08:00","-13.4","","","","","M","","","9","","15","","","","96.69","","","","-21","","NA"
"-121.67","69.67","KEATS POINT","2202663","2018-05-06 09:00","2018","05","06","09:00","-13.6","","","","","M","","","9","","20","","","","96.79","","","","-22","","NA"
"-121.67","69.67","KEATS POINT","2202663","2018-05-06 10:00","2018","05","06","10:00","-13.3","","","","","M","","","6","","13","","","","96.89","","","","-20","","NA"
"-121.67","69.67","KEATS POINT","2202663","2018-05-06 11:00","2018","05","06","11:00","-13.1","","","","","M","","","5","","13","","","","97.00","","","","-20","","NA"
"-121.67","69.67","KEATS POINT","2202663","2018-05-06 12:00","2018","05","06","12:00","-13.8","","","","","M","","","1","","7","","","","97.13","","","","-18","","NA"
"-121.67","69.67","KEATS POINT","2202663","2018-05-06 13:00","2018","05","06","13:00","-14.3","","","","","M","","","35","","24","","","","97.23","","","","-24","","NA"
"-121.67","69.67","KEATS POINT","2202663","2018-05-06 14:00","2018","05","06","14:00","-14.2","","","","","M","","","32","","11","","","","97.34","","","","-21","","NA"
"-121.67","69.67","KEATS POINT","2202663","2018-05-06 15:00","2018","05","06","15:00","-13.9","","","","","M","","","31","","17","","","","97.44","","","","-22","","NA"
"-121.67","69.67","KEATS POINT","2202663","2018-05-06 16:00","2018","05","06","16:00","-14.2","","","","","M","","","30","","24","","","","97.54","","","","-24","","NA"
"-121.67","69.67","KEATS POINT","2202663","2018-05-06 17:00","2018","05","06","17:00","-14.3","","","","","M","","","29","","26","","","","97.62","","","","-24","","NA"
"-121.67","69.67","KEATS POINT","2202663","2018-05-06 18:00","2018","05","06","18:00","-14.5","","","","","M","","","28","","26","","","","97.68","","","","-25","","NA"
"-121.67","69.67","KEATS POINT","2202663","2018-05-06 19:00","2018","05","06","19:00","-14.4","","","","","M","","","28","","41","","","","97.71","","","","-27","","NA"
"-121.67","69.67","KEATS POINT","2202663","2018-05-06 20:00","2018","05","06","20:00","-14.3","","","","","M","","","28","","39","","","","97.74","","","","-26","","NA"
"-121.67","69.67","KEATS POINT","2202663","2018-05-06 21:00","2018","05","06","21:00","-14.6","","","","","M","","","27","","35","","","","97.78","","","","-26","","NA"
"-121.67","69.67","KEATS POINT","2202663","2018-05-06 22:00","2018","05","06","22:00","-15.3","","","","","M","","","26","","43","","","","97.80","","","","-28","","NA"
"-121.67","69.67","KEATS POINT","2202663","2018-05-06 23:00","2018","05","06","23:00","-15.6","","","","","M","","","26","","43","","","","97.84","","","","-29","","NA"
"-121.67","69.67","KEATS POINT","2202663","2018-05-07 00:00","2018","05","07","00:00","-16.1","","","","","M","","","24","","35","","","","97.89","","","","-28","","NA"
"-121.67","69.67","KEATS POINT","2202663","2018-05-07 01:00","2018","05","07","01:00","-16.0","","","","","M","","","23","","33","","","","97.91","","","","-28","","NA"
"-121.67","69.67","KEATS POINT","2202663","2018-05-07 02:00","2018","05","07","02:00","-16.6","","","","","M","","","22","","35","","","","97.93","","","","-29","","NA"
"-121.67","69.67","KEATS POINT","2202663","2018-05-07 03:00","2018","05","07","03:00","-16.3","","","","","M","","","22","","35","","","","97.95","","","","-29","","NA"
"-121.67","69.67","KEATS POINT","2202663","2018-05-07 04:00","2018","05","07","04:00","-15.7","","","","","M","","","22","","33","","","","97.96","","","","-27","","NA"
"-121.67","69.67","KEATS POINT","2202663","2018-05-07 05:00","2018","05","07","05:00","-14.9","","","","","M","","","23","","26","","","","97.96","","","","-25","","NA"
"-121.67","69.67","KEATS POINT","2202663","2018-05-07 06:00","2018","05","07","06:00","-14.3","","","","","M","","","22","","20","","","","97.94","","","","-23","","NA"
"-121.67","69.67","KEATS POINT","2202663","2018-05-07 07:00","2018","05","07","07:00","-13.3","","","","","M","","","22","","17","","","","97.96","","","","-21","","NA"
"-121.67","69.67","KEATS POINT","2202663","2018-05-07 08:00","2018","05","07","08:00","-12.1","","","","","M","","","22","","15","","","","97.95","","","","-19","","NA"
"-121.67","69.67","KEATS POINT","2202663","2018-05-07 09:00","2018","05","07","09:00","-10.9","","","","","M","","","","","0","","","","97.93","","","","","","NA"
"-121.67","69.67","KEATS POINT","2202663","2018-05-07 10:00","2018","05","07","10:00","-10.4","","","","","M","","","26","","15","","","","97.92","","","","-17","","NA"
"-121.67","69.67","KEATS POINT","2202663","2018-05-07 11:00","2018","05","07","11:00","-10.0","","","","","M","","","23","","15","","","","97.93","","","","-17","","NA"
"-121.67","69.67","KEATS POINT","2202663","2018-05-07 12:00","2018","05","07","12:00","-8.8","","","","","M","","","24","","11","","","","97.91","","","","-14","","NA"
"-121.67","69.67","KEATS POINT","2202663","2018-05-07 13:00","2018","05","07","13:00","-8.5","","","","","M","","","","","0","","","","97.91","","","","","","NA"
"-121.67","69.67","KEATS POINT","2202663","2018-05-07 14:00","2018","05","07","14:00","-9.3","","","","","M","","","9","","9","","","","97.91","","","","-14","","NA"
"-121.67","69.67","KEATS POINT","2202663","2018-05-07 15:00","2018","05","07","15:00","-8.3","","","","","M","","","7","","9","","","","97.88","","","","-13","","NA"
"-121.67","69.67","KEATS POINT","2202663","2018-05-07 16:00","2018","05","07","16:00","-9.1","","","","","M","","","10","","13","","","","97.87","","","","-15","","NA"
"-121.67","69.67","KEATS POINT","2202663","2018-05-07 17:00","2018","05","07","17:00","-9.0","","","","","M","","","9","","15","","","","97.87","","","","-16","","NA"
"-121.67","69.67","KEATS POINT","2202663","2018-05-07 18:00","2018","05","07","18:00","-8.1","","","","","M","","","8","","9","","","","97.87","","","","-13","","NA"
"-121.67","69.67","KEATS POINT","2202663","2018-05-07 19:00","2018","05","07","19:00","-10.1","","","","","M","","","9","","9","","","","97.87","","","","-15","","NA"
"-121.67","69.67","KEATS POINT","2202663","2018-05-07 20:00","2018","05","07","20:00","-9.8","","","","","M","","","14","","13","","","","97.88","","","","-16","","NA"
"-121.67","69.67","KEATS POINT","2202663","2018-05-07 21:00","2018","05","07","21:00","-9.2","","","","","M","","","","","0","","","","97.90","","","","","","NA"
"-121.67","69.67","KEATS POINT","2202663","2018-05-07 22:00","2018","05","07","22:00","-9.1","","","","","M","","","","","0","","","","97.92","","","","","","NA"
"-121.67","69.67","KEATS POINT","2202663","2018-05-07 23:00","2018","05","07","23:00","-9.9","","","","","M","","","28","","6","","","","97.96","","","","-13","","NA"
"-121.67","69.67","KEATS POINT","2202663","2018-05-08 00:00","2018","05","08","00:00","-11.7","","","","","M","","","29","","9","","","","98.00","","","","-17","","NA"
"-121.67","69.67","KEATS POINT","2202663","2018-05-08 01:00","2018","05","08","01:00","-12.6","","","","","M","","","28","","9","","","","98.02","","","","-18","","NA"
"-121.67","69.67","KEATS POINT","2202663","2018-05-08 02:00","2018","05","08","02:00","-13.2","","","","","M","","","28","","11","","","","98.05","","","","-19","","NA"
"-121.67","69.67","KEATS POINT","2202663","2018-05-08 03:00","2018","05","08","03:00","-13.4","","","","","M","","","30","","15","","","","98.09","","","","-21","","NA"
"-121.67","69.67","KEATS POINT","2202663","2018-05-08 04:00","2018","05","08","04:00","-14.4","","","","","M","","","29","","19","","","","98.14","","","","-23","","NA"
"-121.67","69.67","KEATS POINT","2202663","2018-05-08 05:00","2018","05","08","05:00","-13.0","","","","","M","","","27","","20","","","","98.17","","","","-22","","NA"
"-121.67","69.67","KEATS POINT","2202663","2018-05-08 06:00","2018","05","08","06:00","-13.4","","","","","M","","","27","","20","","","","98.18","","","","-22","","NA"
"-121.67","69.67","KEATS POINT","2202663","2018-05-08 07:00","2018","05","08","07:00","-12.1","","","","","M","","","27","","28","","","","98.18","","","","-22","","NA"
"-121.67","69.67","KEATS POINT","2202663","2018-05-08 08:00","2018","05","08","08:00","-11.8","","","","","M","","","26","","30","","","","98.20","","","","-22","","NA"
"-121.67","69.67","KEATS POINT","2202663","2018-05-08 09:00","2018","05","08","09:00","-11.6","","","","","M","","","26","","37","","","","98.23","","","","-23","","NA"
"-121.67","69.67","KEATS POINT","2202663","2018-05-08 10:00","2018","05","08","10:00","-11.8","","","","","M","","","26","","37","","","","98.28","","","","-23","","NA"
"-121.67","69.67","KEATS POINT","2202663","2018-05-08 11:00","2018","05","08","11:00","-11.3","","","","","M","","","26","","39","","","","98.31","","","","-22","","NA"
"-121.67","69.67","KEATS POINT","2202663","2018-05-08 12:00","2018","05","08","12:00","-10.7","","","","","M","","","26","","41","","","","98.36","","","","-22","","NA"
"-121.67","69.67","KEATS POINT","2202663","2018-05-08 13:00","2018","05","08","13:00","-10.9","","","","","M","","","26","","43","","","","98.39","","","","-22","","NA"
"-121.67","69.67","KEATS POINT","2202663","2018-05-08 14:00","2018","05","08","14:00","-10.2","","","","","M","","","26","","43","","","","98.43","","","","-21","","NA"
"-121.67","69.67","KEATS POINT","2202663","2018-05-08 15:00","2018","05","08","15:00","-10.5","","","","","M","","","25","","44","","","","98.47","","","","-22","","NA"
"-121.67","69.67","KEATS POINT","2202663","2018-05-08 16:00","2018","05","08","16:00","-10.8","","","","","M","","","25","","43","","","","98.51","","","","-22","","NA"
"-121.67","69.67","KEATS POINT","2202663","2018-05-08 17:00","2018","05","08","17:00","-10.6","","","","","M","","","24","","41","","","","98.54","","","","-22","","NA"
"-121.67","69.67","KEATS POINT","2202663","2018-05-08 18:00","2018","05","08","18:00","-10.8","","","","","M","","","23","","43","","","","98.52","","","","-22","","NA"
"-121.67","69.67","KEATS POINT","2202663","2018-05-08 19:00","2018","05","08","19:00","-11.1","","","","","M","","","24","","41","","","","98.51","","","","-22","","NA"
"-121.67","69.67","KEATS POINT","2202663","2018-05-08 20:00","2018","05","08","20:00","-11.7","","","","","M","","","23","","37","","","","98.53","","","","-23","","NA"
"-121.67","69.67","KEATS POINT","2202663","2018-05-08 21:00","2018","05","08","21:00","-12.6","","","","","M","","","23","","31","","","","98.52","","","","-23","","NA"
"-121.67","69.67","KEATS POINT","2202663","2018-05-08 22:00","2018","05","08","22:00","-12.0","","","","","M","","","24","","35","","","","98.52","","","","-23","","NA"
"-121.67","69.67","KEATS POINT","2202663","2018-05-08 23:00","2018","05","08","23:00","-13.0","","","","","M","","","23","","33","","","","98.51","","","","-24","","NA"
"-121.67","69.67","KEATS POINT","2202663","2018-05-09 00:00","2018","05","09","00:00","-11.8","","","","","M","","","24","","35","","","","98.51","","","","-23","","NA"
"-121.67","69.67","KEATS POINT","2202663","2018-05-09 01:00","2018","05","09","01:00","-11.9","","","","","M","","","23","","28","","","","98.52","","","","-22","","NA"
"-121.67","69.67","KEATS POINT","2202663","2018-05-09 02:00","2018","05","09","02:00","-11.4","","","","","M","","","23","","28","","","","98.50","","","","-21","","NA"
"-121.67","69.67","KEATS POINT","2202663","2018-05-09 03:00","2018","05","09","03:00","-11.3","","","","","M","","","22","","26","","","","98.49","","","","-21","","NA"
"-121.67","69.67","KEATS POINT","2202663","2018-05-09 04:00","2018","05","09","04:00","-10.3","","","","","M","","","22","","20","","","","98.47","","","","-18","","NA"
"-121.67","69.67","KEATS POINT","2202663","2018-05-09 05:00","2018","05","09","05:00","-9.0","","","","","M","","","21","","9","","","","98.43","","","","-14","","NA"
"-121.67","69.67","KEATS POINT","2202663","2018-05-09 06:00","2018","05","09","06:00","-8.4","","","","","M","","","21","","9","","","","98.40","","","","-13","","NA"
"-121.67","69.67","KEATS POINT","2202663","2018-05-09 07:00","2018","05","09","07:00","-7.6","","","","","M","","","12","","6","","","","98.35","","","","-11","","NA"
"-121.67","69.67","KEATS POINT","2202663","2018-05-09 08:00","2018","05","09","08:00","-6.8","","","","","M","","","7","","7","","","","98.31","","","","-10","","NA"
"-121.67","69.67","KEATS POINT","2202663","2018-05-09 09:00","2018","05","09","09:00","-6.3","","","","","M","","","11","","4","","","","98.29","","","","-8","","NA"
"-121.67","69.67","KEATS POINT","2202663","2018-05-09 10:00","2018","05","09","10:00","-5.1","","","","","M","","","","","0","","","","98.28","","","","","","NA"
"-121.67","69.67","KEATS POINT","2202663","2018-05-09 11:00","2018","05","09","11:00","-4.1","","","","","M","","","","","0","","","","98.24","","","","","","NA"
"-121.67","69.67","KEATS POINT","2202663","2018-05-09 12:00","2018","05","09","12:00","-4.3","","","","","M","","","7","","7","","","","98.19","","","","-7","","NA"
"-121.67","69.67","KEATS POINT","2202663","2018-05-09 13:00","2018","05","09","13:00","-3.7","","","","","M","","","8","","6","","","","98.14","","","","-6","","NA"
"-121.67","69.67","KEATS POINT","2202663","2018-05-09 14:00","2018","05","09","14:00","-3.3","","","","","M","","","4","","6","","","","98.11","","","","-6","","NA"
"-121.67","69.67","KEATS POINT","2202663","2018-05-09 15:00","2018","05","09","15:00","-2.8","","","","","M","","","5","","4","","","","98.06","","","","-4","","NA"
"-121.67","69.67","KEATS POINT","2202663","2018-05-09 16:00","2018","05","09","16:00","-2.4","","","","","M","","","9","","9","","","","98.03","","","","-6","","NA"
"-121.67","69.67","KEATS POINT","2202663","2018-05-09 17:00","2018","05","09","17:00","-3.6","","","","","M","","","10","","15","","","","98.02","","","","-9","","NA"
"-121.67","69.67","KEATS POINT","2202663","2018-05-09 18:00","2018","05","09","18:00","-4.0","","","","","M","","","10","","13","","","","98.00","","","","-9","","NA"
"-121.67","69.67","KEATS POINT","2202663","2018-05-09 19:00","2018","05","09","19:00","-4.2","","","","","M","","","10","","9","","","","97.94","","","","-8","","NA"
"-121.67","69.67","KEATS POINT","2202663","2018-05-09 20:00","2018","05","09","20:00","-2.2","","","","","M","","","","","0","","","","97.92","","","","","","NA"
"-121.67","69.67","KEATS POINT","2202663","2018-05-09 21:00","2018","05","09","21:00","-4.9","","","","","M","","","12","","6","","","","97.89","","","","-8","","NA"
"-121.67","69.67","KEATS POINT","2202663","2018-05-09 22:00","2018","05","09","22:00","-4.1","","","","","M","","","11","","4","","","","97.89","","","","-6","","NA"
"-121.67","69.67","KEATS POINT","2202663","2018-05-09 23:00","2018","05","09","23:00","-5.1","","","","","M","","","13","","9","","","","97.91","","","","-9","","NA"
"-121.67","69.67","KEATS POINT","2202663","2018-05-10 00:00","2018","05","10","00:00","-4.8","","","","","M","","","14","","9","","","","97.90","","","","-9","","NA"
"-121.67","69.67","KEATS POINT","2202663","2018-05-10 01:00","2018","05","10","01:00","-6.4","","","","","M","","","14","","11","","","","97.89","","","","-11","","NA"
"-121.67","69.67","KEATS POINT","2202663","2018-05-10 02:00","2018","05","10","02:00","-7.9","","","","","M","","","10","","13","","","","97.86","","","","-14","","NA"
"-121.67","69.67","KEATS POINT","2202663","2018-05-10 03:00","2018","05","10","03:00","-7.5","","","","","M","","","11","","15","","","","97.84","","","","-14","","NA"
"-121.67","69.67","KEATS POINT","2202663","2018-05-10 04:00","2018","05","10","04:00","-10.4","","","","","M","","","10","","17","","","","97.85","","","","-18","","NA"
"-121.67","69.67","KEATS POINT","2202663","2018-05-10 05:00","2018","05","10","05:00","-9.9","","","","","M","","","11","","17","","","","97.87","","","","-17","","NA"
"-121.67","69.67","KEATS POINT","2202663","2018-05-10 06:00","2018","05","10","06:00","-9.9","","","","","M","","","10","","19","","","","97.88","","","","-18","","NA"
"-121.67","69.67","KEATS POINT","2202663","2018-05-10 07:00","2018","05","10","07:00","-8.9","","","","","M","","","8","","13","","","","97.88","","","","-15","","NA"
"-121.67","69.67","KEATS POINT","2202663","2018-05-10 08:00","2018","05","10","08:00","-8.5","","","","","M","","","11","","13","","","","97.90","","","","-14","","NA"
"-121.67","69.67","KEATS POINT","2202663","2018-05-10 09:00","2018","05","10","09:00","-6.7","","","","","M","","","11","","13","","","","97.90","","","","-12","","NA"
"-121.67","69.67","KEATS POINT","2202663","2018-05-10 10:00","2018","05","10","10:00","-8.2","","","","","M","","","10","","11","","","","97.90","","","","-13","","NA"
"-121.67","69.67","KEATS POINT","2202663","2018-05-10 11:00","2018","05","10","11:00","-8.0","","","","","M","","","10","","13","","","","97.92","","","","-14","","NA"
"-121.67","69.67","KEATS POINT","2202663","2018-05-10 12:00","2018","05","10","12:00","-6.8","","","","","M","","","12","","13","","","","97.95","","","","-12","","NA"
"-121.67","69.67","KEATS POINT","2202663","2018-05-10 13:00","2018","05","10","13:00","-5.7","","","","","M","","","9","","19","","","","97.97","","","","-12","","NA"
"-121.67","69.67","KEATS POINT","2202663","2018-05-10 14:00","2018","05","10","14:00","-6.5","","","","","M","","","9","","19","","","","98.00","","","","-13","","NA"
"-121.67","69.67","KEATS POINT","2202663","2018-05-10 15:00","2018","05","10","15:00","-6.9","","","","","M","","","10","","19","","","","98.01","","","","-14","","NA"
"-121.67","69.67","KEATS POINT","2202663","2018-05-10 16:00","2018","05","10","16:00","-5.9","","","","","M","","","9","","19","","","","98.03","","","","-13","","NA"
"-121.67","69.67","KEATS POINT","2202663","2018-05-10 17:00","2018","05","10","17:00","-7.0","","","","","M","","","9","","19","","","","98.05","","","","-14","","NA"
"-121.67","69.67","KEATS POINT","2202663","2018-05-10 18:00","2018","05","10","18:00","-7.8","","","","","M","","","9","","20","","","","98.06","","","","-15","","NA"
"-121.67","69.67","KEATS POINT","2202663","2018-05-10 19:00","2018","05","10","19:00","-8.1","","","","","M","","","9","","22","","","","98.06","","","","-16","","NA"
"-121.67","69.67","KEATS POINT","2202663","2018-05-10 20:00","2018","05","10","20:00","-8.5","","","","","M","","","10","","22","","","","98.05","","","","-16","","NA"
"-121.67","69.67","KEATS POINT","2202663","2018-05-10 21:00","2018","05","10","21:00","-8.7","","","","","M","","","10","","20","","","","98.06","","","","-16","","NA"
"-121.67","69.67","KEATS POINT","2202663","2018-05-10 22:00","2018","05","10","22:00","-8.8","","","","","M","","","11","","20","","","","98.06","","","","-16","","NA"
"-121.67","69.67","KEATS POINT","2202663","2018-05-10 23:00","2018","05","10","23:00","-9.1","","","","","M","","","11","","24","","","","98.04","","","","-17","","NA"
"-121.67","69.67","KEATS POINT","2202663","2018-05-11 00:00","2018","05","11","00:00","-9.4","","","","","M","","","10","","22","","","","98.04","","","","-17","","NA"
"-121.67","69.67","KEATS POINT","2202663","2018-05-11 01:00","2018","05","11","01:00","-10.1","","","","","M","","","10","","22","","","","98.03","","","","-18","","NA"
"-121.67","69.67","KEATS POINT","2202663","2018-05-11 02:00","2018","05","11","02:00","-6.1","","","","","M","","","13","","17","","","","97.98","","","","-12","","NA"
"-121.67","69.67","KEATS POINT","2202663","2018-05-11 03:00","2018","05","11","03:00","-7.7","","","","","M","","","10","","13","","","","97.92","","","","-13","","NA"
"-121.67","69.67","KEATS POINT","2202663","2018-05-11 04:00","2018","05","11","04:00","-7.2","","","","","M","","","27","","9","","","","97.91","","","","-12","","NA"
"-121.67","69.67","KEATS POINT","2202663","2018-05-11 05:00","2018","05","11","05:00","-5.1","","","","","M","","","24","","6","","","","97.88","","","","-8","","NA"
"-121.67","69.67","KEATS POINT","2202663","2018-05-11 06:00","2018","05","11","06:00","-5.9","","","","","M","","","25","","7","","","","97.86","","","","-9","","NA"
"-121.67","69.67","KEATS POINT","2202663","2018-05-11 07:00","2018","05","11","07:00","-5.4","","","","","M","","","28","","9","","","","97.83","","","","-9","","NA"
"-121.67","69.67","KEATS POINT","2202663","2018-05-11 08:00","2018","05","11","08:00","-5.2","","","","","M","","","26","","9","","","","97.77","","","","-9","","NA"
"-121.67","69.67","KEATS POINT","2202663","2018-05-11 09:00","2018","05","11","09:00","-4.7","","","","","M","","","28","","9","","","","97.71","","","","-9","","NA"
"-121.67","69.67","KEATS POINT","2202663","2018-05-11 10:00","2018","05","11","10:00","-4.3","","","","","M","","","30","","9","","","","97.64","","","","-8","","NA"
"-121.67","69.67","KEATS POINT","2202663","2018-05-11 11:00","2018","05","11","11:00","-3.2","","","","","M","","","","","0","","","","97.58","","","","","","NA"
"-121.67","69.67","KEATS POINT","2202663","2018-05-11 12:00","2018","05","11","12:00","-3.0","","","","","M","","","7","","9","","","","97.52","","","","-7","","NA"
"-121.67","69.67","KEATS POINT","2202663","2018-05-11 13:00","2018","05","11","13:00","-3.4","","","","","M","","","7","","15","","","","97.44","","","","-9","","NA"
"-121.67","69.67","KEATS POINT","2202663","2018-05-11 14:00","2018","05","11","14:00","-3.1","","","","","M","","","9","","17","","","","97.37","","","","-9","","NA"
"-121.67","69.67","KEATS POINT","2202663","2018-05-11 15:00","2018","05","11","15:00","-3.7","","","","","M","","","9","","17","","","","97.30","","","","-9","","NA"
"-121.67","69.67","KEATS POINT","2202663","2018-05-11 16:00","2018","05","11","16:00","-4.7","","","","","M","","","10","","19","","","","97.24","","","","-11","","NA"
"-121.67","69.67","KEATS POINT","2202663","2018-05-11 17:00","2018","05","11","17:00","-4.0","","","","","M","","","9","","24","","","","97.16","","","","-11","","NA"
"-121.67","69.67","KEATS POINT","2202663","2018-05-11 18:00","2018","05","11","18:00","-4.1","","","","","M","","","10","","28","","","","97.11","","","","-12","","NA"
"-121.67","69.67","KEATS POINT","2202663","2018-05-11 19:00","2018","05","11","19:00","-5.6","","","","","M","","","10","","24","","","","97.07","","","","-13","","NA"
"-121.67","69.67","KEATS POINT","2202663","2018-05-11 20:00","2018","05","11","20:00","-6.3","","","","","M","","","10","","22","","","","97.02","","","","-14","","NA"
"-121.67","69.67","KEATS POINT","2202663","2018-05-11 21:00","2018","05","11","21:00","-6.9","","","","","M","","","10","","22","","","","96.97","","","","-14","","NA"
"-121.67","69.67","KEATS POINT","2202663","2018-05-11 22:00","2018","05","11","22:00","-7.4","","","","","M","","","10","","20","","","","96.93","","","","-15","","NA"
"-121.67","69.67","KEATS POINT","2202663","2018-05-11 23:00","2018","05","11","23:00","-7.9","","","","","M","","","10","","24","","","","96.89","","","","-16","","NA"
"-121.67","69.67","KEATS POINT","2202663","2018-05-12 00:00","2018","05","12","00:00","-7.7","","","","","M","","","12","","22","","","","96.87","","","","-15","","NA"
"-121.67","69.67","KEATS POINT","2202663","2018-05-12 01:00","2018","05","12","01:00","-9.3","","","","","M","","","10","","20","","","","96.85","","","","-17","","NA"
"-121.67","69.67","KEATS POINT","2202663","2018-05-12 02:00","2018","05","12","02:00","-7.9","","","","","M","","","11","","26","","","","96.81","","","","-16","","NA"
"-121.67","69.67","KEATS POINT","2202663","2018-05-12 03:00","2018","05","12","03:00","-8.9","","","","","M","","","11","","24","","","","96.77","","","","-17","","NA"
"-121.67","69.67","KEATS POINT","2202663","2018-05-12 04:00","2018","05","12","04:00","-10.4","","","","","M","","","10","","20","","","","96.78","","","","-18","","NA"
"-121.67","69.67","KEATS POINT","2202663","2018-05-12 05:00","2018","05","12","05:00","-12.6","","","","","M","","","12","","24","","","","96.79","","","","-22","","NA"
"-121.67","69.67","KEATS POINT","2202663","2018-05-12 06:00","2018","05","12","06:00","-12.7","","","","","M","","","11","","24","","","","96.79","","","","-22","","NA"
"-121.67","69.67","KEATS POINT","2202663","2018-05-12 07:00","2018","05","12","07:00","-14.4","","","","","M","","","9","","22","","","","96.80","","","","-24","","NA"
"-121.67","69.67","KEATS POINT","2202663","2018-05-12 08:00","2018","05","12","08:00","-12.8","","","","","M","","","10","","20","","","","96.83","","","","-21","","NA"
"-121.67","69.67","KEATS POINT","2202663","2018-05-12 09:00","2018","05","12","09:00","-11.7","","","","","M","","","10","","30","","","","96.84","","","","-22","","NA"
"-121.67","69.67","KEATS POINT","2202663","2018-05-12 10:00","2018","05","12","10:00","-10.9","","","","","M","","","10","","26","","","","96.87","","","","-20","","NA"
"-121.67","69.67","KEATS POINT","2202663","2018-05-12 11:00","2018","05","12","11:00","-10.2","","","","","M","","","9","","15","","","","96.92","","","","-17","","NA"
"-121.67","69.67","KEATS POINT","2202663","2018-05-12 12:00","2018","05","12","12:00","-9.6","","","","","M","","","9","","22","","","","96.96","","","","-18","","NA"
"-121.67","69.67","KEATS POINT","2202663","2018-05-12 13:00","2018","05","12","13:00","-9.1","","","","","M","","","9","","31","","","","97.01","","","","-18","","NA"
"-121.67","69.67","KEATS POINT","2202663","2018-05-12 14:00","2018","05","12","14:00","-9.3","","","","","M","","","6","","15","","","","97.11","","","","-16","","NA"
"-121.67","69.67","KEATS POINT","2202663","2018-05-12 15:00","2018","05","12","15:00","-9.6","","","","","M","","","1","","19","","","","97.17","","","","-17","","NA"
"-121.67","69.67","KEATS POINT","2202663","2018-05-12 16:00","2018","05","12","16:00","-9.6","","","","","M","","","8","","31","","","","97.26","","","","-19","","NA"
"-121.67","69.67","KEATS POINT","2202663","2018-05-12 17:00","2018","05","12","17:00","-10.0","","","","","M","","","2","","15","","","","97.35","","","","-17","","NA"
"-121.67","69.67","KEATS POINT","2202663","2018-05-12 18:00","2018","05","12","18:00","-9.7","","","","","M","","","2","","24","","","","97.41","","","","-18","","NA"
"-121.67","69.67","KEATS POINT","2202663","2018-05-12 19:00","2018","05","12","19:00","-9.9","","","","","M","","","4","","19","","","","97.47","","","","-18","","NA"
"-121.67","69.67","KEATS POINT","2202663","2018-05-12 20:00","2018","05","12","20:00","-9.8","","","","","M","","","4","","6","","","","97.52","","","","-13","","NA"
"-121.67","69.67","KEATS POINT","2202663","2018-05-12 21:00","2018","05","12","21:00","-10.3","","","","","M","","","4","","9","","","","97.57","","","","-15","","NA"
"-121.67","69.67","KEATS POINT","2202663","2018-05-12 22:00","2018","05","12","22:00","-10.8","","","","","M","","","4","","15","","","","97.63","","","","-18","","NA"
"-121.67","69.67","KEATS POINT","2202663","2018-05-12 23:00","2018","05","12","23:00","-10.9","","","","","M","","","6","","9","","","","97.69","","","","-16","","NA"
"-121.67","69.67","KEATS POINT","2202663","2018-05-13 00:00","2018","05","13","00:00","-10.9","","","","","M","","","7","","15","","","","97.74","","","","-18","","NA"
"-121.67","69.67","KEATS POINT","2202663","2018-05-13 01:00","2018","05","13","01:00","-11.0","","","","","M","","","1","","9","","","","97.80","","","","-16","","NA"
"-121.67","69.67","KEATS POINT","2202663","2018-05-13 02:00","2018","05","13","02:00","-11.1","","","","","M","","","4","","6","","","","97.83","","","","-15","","NA"
"-121.67","69.67","KEATS POINT","2202663","2018-05-13 03:00","2018","05","13","03:00","-11.2","","","","","M","","","2","","9","","","","97.88","","","","-16","","NA"
"-121.67","69.67","KEATS POINT","2202663","2018-05-13 04:00","2018","05","13","04:00","-11.6","","","","","M","","","35","","7","","","","97.95","","","","-16","","NA"
"-121.67","69.67","KEATS POINT","2202663","2018-05-13 05:00","2018","05","13","05:00","-11.8","","","","","M","","","32","","13","","","","98.00","","","","-18","","NA"
"-121.67","69.67","KEATS POINT","2202663","2018-05-13 06:00","2018","05","13","06:00","-11.9","","","","","M","","","35","","7","","","","98.04","","","","-16","","NA"
"-121.67","69.67","KEATS POINT","2202663","2018-05-13 07:00","2018","05","13","07:00","-11.7","","","","","M","","","33","","13","","","","98.09","","","","-18","","NA"
"-121.67","69.67","KEATS POINT","2202663","2018-05-13 08:00","2018","05","13","08:00","-11.5","","","","","M","","","31","","11","","","","98.12","","","","-17","","NA"
"-121.67","69.67","KEATS POINT","2202663","2018-05-13 09:00","2018","05","13","09:00","-11.6","","","","","M","","","1","","15","","","","98.14","","","","-19","","NA"
"-121.67","69.67","KEATS POINT","2202663","2018-05-13 10:00","2018","05","13","10:00","-11.7","","","","","M","","","35","","11","","","","98.16","","","","-18","","NA"
"-121.67","69.67","KEATS POINT","2202663","2018-05-13 11:00","2018","05","13","11:00","-11.8","","","","","M","","","31","","11","","","","98.18","","","","-18","","NA"
"-121.67","69.67","KEATS POINT","2202663","2018-05-13 12:00","2018","05","13","12:00","-11.4","","","","","M","","","5","","11","","","","98.22","","","","-17","","NA"
"-121.67","69.67","KEATS POINT","2202663","2018-05-13 13:00","2018","05","13","13:00","-10.8","","","","","M","","","29","","17","","","","98.25","","","","-18","","NA"
"-121.67","69.67","KEATS POINT","2202663","2018-05-13 14:00","2018","05","13","14:00","-10.7","","","","","M","","","28","","11","","","","98.27","","","","-16","","NA"
"-121.67","69.67","KEATS POINT","2202663","2018-05-13 15:00","2018","05","13","15:00","-10.5","","","","","M","","","31","","13","","","","98.27","","","","-17","","NA"
"-121.67","69.67","KEATS POINT","2202663","2018-05-13 16:00","2018","05","13","16:00","-10.3","","","","","M","","","30","","9","","","","98.28","","","","-15","","NA"
"-121.67","69.67","KEATS POINT","2202663","2018-05-13 17:00","2018","05","13","17:00","-10.7","","","","","M","","","33","","9","","","","98.27","","","","-16","","NA"
"-121.67","69.67","KEATS POINT","2202663","2018-05-13 18:00","2018","05","13","18:00","-10.7","","","","","M","","","34","","7","","","","98.26","","","","-15","","NA"
"-121.67","69.67","KEATS POINT","2202663","2018-05-13 19:00","2018","05","13","19:00","-11.0","","","","","M","","","36","","7","","","","98.25","","","","-15","","NA"
"-121.67","69.67","KEATS POINT","2202663","2018-05-13 20:00","2018","05","13","20:00","-11.2","","","","","M","","","36","","6","","","","98.21","","","","-15","","NA"
"-121.67","69.67","KEATS POINT","2202663","2018-05-13 21:00","2018","05","13","21:00","-11.2","","","","","M","","","4","","4","","","","98.17","","","","-14","","NA"
"-121.67","69.67","KEATS POINT","2202663","2018-05-13 22:00","2018","05","13","22:00","-11.8","","","","","M","","","8","","6","","","","98.13","","","","-16","","NA"
"-121.67","69.67","KEATS POINT","2202663","2018-05-13 23:00","2018","05","13","23:00","-13.1","","","","","M","","","11","","11","","","","98.12","","","","-19","","NA"
"-121.67","69.67","KEATS POINT","2202663","2018-05-14 00:00","2018","05","14","00:00","-13.3","","","","","M","","","11","","13","","","","98.10","","","","-20","","NA"
"-121.67","69.67","KEATS POINT","2202663","2018-05-14 01:00","2018","05","14","01:00","-13.8","","","","","M","","","11","","15","","","","98.05","","","","-21","","NA"
"-121.67","69.67","KEATS POINT","2202663","2018-05-14 02:00","2018","05","14","02:00","-14.1","","","","","M","","","12","","17","","","","98.03","","","","-22","","NA"
"-121.67","69.67","KEATS POINT","2202663","2018-05-14 03:00","2018","05","14","03:00","-14.7","","","","","M","","","11","","17","","","","97.99","","","","-23","","NA"
"-121.67","69.67","KEATS POINT","2202663","2018-05-14 04:00","2018","05","14","04:00","-14.4","","","","","M","","","11","","20","","","","97.98","","","","-23","","NA"
"-121.67","69.67","KEATS POINT","2202663","2018-05-14 05:00","2018","05","14","05:00","-14.5","","","","","M","","","11","","20","","","","97.97","","","","-24","","NA"
"-121.67","69.67","KEATS POINT","2202663","2018-05-14 06:00","2018","05","14","06:00","-14.0","","","","","M","","","11","","19","","","","97.93","","","","-23","","NA"
"-121.67","69.67","KEATS POINT","2202663","2018-05-14 07:00","2018","05","14","07:00","-13.4","","","","","M","","","10","","22","","","","97.89","","","","-23","","NA"
"-121.67","69.67","KEATS POINT","2202663","2018-05-14 08:00","2018","05","14","08:00","-13.0","","","","","M","","","10","","26","","","","97.83","","","","-23","","NA"
"-121.67","69.67","KEATS POINT","2202663","2018-05-14 09:00","2018","05","14","09:00","-12.3","","","","","M","","","10","","26","","","","97.82","","","","-22","","NA"
"-121.67","69.67","KEATS POINT","2202663","2018-05-14 10:00","2018","05","14","10:00","-12.0","","","","","M","","","10","","24","","","","97.78","","","","-21","","NA"
"-121.67","69.67","KEATS POINT","2202663","2018-05-14 11:00","2018","05","14","11:00","-11.7","","","","","M","","","10","","28","","","","97.76","","","","-21","","NA"
"-121.67","69.67","KEATS POINT","2202663","2018-05-14 12:00","2018","05","14","12:00","-11.2","","","","","M","","","10","","28","","","","97.73","","","","-21","","NA"
"-121.67","69.67","KEATS POINT","2202663","2018-05-14 13:00","2018","05","14","13:00","-11.0","","","","","M","","","10","","33","","","","97.71","","","","-21","","NA"
"-121.67","69.67","KEATS POINT","2202663","2018-05-14 14:00","2018","05","14","14:00","-10.7","","","","","M","","","10","","35","","","","97.71","","","","-21","","NA"
"-121.67","69.67","KEATS POINT","2202663","2018-05-14 15:00","2018","05","14","15:00","-10.6","","","","","M","","","10","","33","","","","97.69","","","","-21","","NA"
"-121.67","69.67","KEATS POINT","2202663","2018-05-14 16:00","2018","05","14","16:00","-10.6","","","","","M","","","10","","35","","","","97.69","","","","-21","","NA"
"-121.67","69.67","KEATS POINT","2202663","2018-05-14 17:00","2018","05","14","17:00","-10.7","","","","","M","","","10","","33","","","","97.66","","","","-21","","NA"
"-121.67","69.67","KEATS POINT","2202663","2018-05-14 18:00","2018","05","14","18:00","-11.1","","","","","M","","","10","","37","","","","97.67","","","","-22","","NA"
"-121.67","69.67","KEATS POINT","2202663","2018-05-14 19:00","2018","05","14","19:00","-11.8","","","","","M","","","10","","33","","","","97.66","","","","-22","","NA"
"-121.67","69.67","KEATS POINT","2202663","2018-05-14 20:00","2018","05","14","20:00","-12.4","","","","","M","","","10","","33","","","","97.70","","","","-23","","NA"
"-121.67","69.67","KEATS POINT","2202663","2018-05-14 21:00","2018","05","14","21:00","-12.8","","","","","M","","","10","","30","","","","97.66","","","","-23","","NA"
"-121.67","69.67","KEATS POINT","2202663","2018-05-14 22:00","2018","05","14","22:00","-13.5","","","","","M","","","10","","26","","","","97.67","","","","-23","","NA"
"-121.67","69.67","KEATS POINT","2202663","2018-05-14 23:00","2018","05","14","23:00","-14.5","","","","","M","","","10","","26","","","","97.66","","","","-25","","NA"
"-121.67","69.67","KEATS POINT","2202663","2018-05-15 00:00","2018","05","15","00:00","-14.4","","","","","M","","","11","","28","","","","97.68","","","","-25","","NA"
"-121.67","69.67","KEATS POINT","2202663","2018-05-15 01:00","2018","05","15","01:00","-14.3","","","","","M","","","10","","26","","","","97.70","","","","-24","","NA"
"-121.67","69.67","KEATS POINT","2202663","2018-05-15 02:00","2018","05","15","02:00","-15.0","","","","","M","","","10","","24","","","","97.72","","","","-25","","NA"
"-121.67","69.67","KEATS POINT","2202663","2018-05-15 03:00","2018","05","15","03:00","-14.4","","","","","M","","","11","","30","","","","97.75","","","","-25","","NA"
"-121.67","69.67","KEATS POINT","2202663","2018-05-15 04:00","2018","05","15","04:00","-13.6","","","","","M","","","10","","28","","","","97.73","","","","-24","","NA"
"-121.67","69.67","KEATS POINT","2202663","2018-05-15 05:00","2018","05","15","05:00","-13.7","","","","","M","","","10","","24","","","","97.74","","","","-23","","NA"
"-121.67","69.67","KEATS POINT","2202663","2018-05-15 06:00","2018","05","15","06:00","-12.6","","","","","M","","","11","","31","","","","97.73","","","","-23","","NA"
"-121.67","69.67","KEATS POINT","2202663","2018-05-15 07:00","2018","05","15","07:00","-11.1","","","","","M","","","10","","17","","","","97.77","","","","-19","","NA"
"-121.67","69.67","KEATS POINT","2202663","2018-05-15 08:00","2018","05","15","08:00","-10.0","","","","","M","","","11","","9","","","","97.80","","","","-15","","NA"
"-121.67","69.67","KEATS POINT","2202663","2018-05-15 09:00","2018","05","15","09:00","-10.9","","","","","M","","","10","","9","","","","97.82","","","","-16","","NA"
"-121.67","69.67","KEATS POINT","2202663","2018-05-15 10:00","2018","05","15","10:00","-9.9","","","","","M","","","12","","7","","","","97.86","","","","-14","","NA"
"-121.67","69.67","KEATS POINT","2202663","2018-05-15 11:00","2018","05","15","11:00","-7.7","","","","","M","","","9","","9","","","","97.90","","","","-12","","NA"
"-121.67","69.67","KEATS POINT","2202663","2018-05-15 12:00","2018","05","15","12:00","-8.1","","","","","M","","","10","","11","","","","97.94","","","","-13","","NA"
"-121.67","69.67","KEATS POINT","2202663","2018-05-15 13:00","2018","05","15","13:00","-6.3","","","","","M","","","10","","9","","","","97.99","","","","-11","","NA"
"-121.67","69.67","KEATS POINT","2202663","2018-05-15 14:00","2018","05","15","14:00","-5.8","","","","","M","","","9","","11","","","","98.03","","","","-11","","NA"
"-121.67","69.67","KEATS POINT","2202663","2018-05-15 15:00","2018","05","15","15:00","-4.8","","","","","M","","","9","","9","","","","98.06","","","","-9","","NA"
"-121.67","69.67","KEATS POINT","2202663","2018-05-15 16:00","2018","05","15","16:00","-4.5","","","","","M","","","8","","7","","","","98.07","","","","-8","","NA"
"-121.67","69.67","KEATS POINT","2202663","2018-05-15 17:00","2018","05","15","17:00","-5.3","","","","","M","","","9","","11","","","","98.09","","","","-10","","NA"
"-121.67","69.67","KEATS POINT","2202663","2018-05-15 18:00","2018","05","15","18:00","-5.5","","","","","M","","","10","","9","","","","98.12","","","","-10","","NA"
"-121.67","69.67","KEATS POINT","2202663","2018-05-15 19:00","2018","05","15","19:00","-4.9","","","","","M","","","9","","4","","","","98.13","","","","-7","","NA"
"-121.67","69.67","KEATS POINT","2202663","2018-05-15 20:00","2018","05","15","20:00","-4.3","","","","","M","","","","","0","","","","98.14","","","","","","NA"
"-121.67","69.67","KEATS POINT","2202663","2018-05-15 21:00","2018","05","15","21:00","-5.4","","","","","M","","","12","","4","","","","98.14","","","","-7","","NA"
"-121.67","69.67","KEATS POINT","2202663","2018-05-15 22:00","2018","05","15","22:00","-4.8","","","","","M","","","16","","4","","","","98.16","","","","-7","","NA"
"-121.67","69.67","KEATS POINT","2202663","2018-05-15 23:00","2018","05","15","23:00","-4.9","","","","","M","","","","","0","","","","98.18","","","","","","NA"
"-121.67","69.67","KEATS POINT","2202663","2018-05-16 00:00","2018","05","16","00:00","-5.3","","","","","M","","","20","","4","","","","98.21","","","","-7","","NA"
"-121.67","69.67","KEATS POINT","2202663","2018-05-16 01:00","2018","05","16","01:00","-4.7","","","","","M","","","23","","6","","","","98.23","","","","-7","","NA"
"-121.67","69.67","KEATS POINT","2202663","2018-05-16 02:00","2018","05","16","02:00","-5.4","","","","","M","","","23","","7","","","","98.26","","","","-9","","NA"
"-121.67","69.67","KEATS POINT","2202663","2018-05-16 03:00","2018","05","16","03:00","-5.1","","","","","M","","","24","","7","","","","98.28","","","","-8","","NA"
"-121.67","69.67","KEATS POINT","2202663","2018-05-16 04:00","2018","05","16","04:00","-4.6","","","","","M","","","17","","6","","","","98.27","","","","-7","","NA"
"-121.67","69.67","KEATS POINT","2202663","2018-05-16 05:00","2018","05","16","05:00","-4.5","","","","","M","","","30","","6","","","","98.28","","","","-7","","NA"
"-121.67","69.67","KEATS POINT","2202663","2018-05-16 06:00","2018","05","16","06:00","-4.8","","","","","M","","","12","","6","","","","98.30","","","","-8","","NA"
"-121.67","69.67","KEATS POINT","2202663","2018-05-16 07:00","2018","05","16","07:00","-4.4","","","","","M","","","23","","7","","","","98.29","","","","-8","","NA"
"-121.67","69.67","KEATS POINT","2202663","2018-05-16 08:00","2018","05","16","08:00","-3.2","","","","","M","","","32","","4","","","","98.31","","","","-5","","NA"
"-121.67","69.67","KEATS POINT","2202663","2018-05-16 09:00","2018","05","16","09:00","-3.5","","","","","M","","","8","","7","","","","98.31","","","","-6","","NA"
"-121.67","69.67","KEATS POINT","2202663","2018-05-16 10:00","2018","05","16","10:00","-2.1","","","","","M","","","7","","4","","","","98.33","","","","-4","","NA"
"-121.67","69.67","KEATS POINT","2202663","2018-05-16 11:00","2018","05","16","11:00","-1.6","","","","","M","","","7","","4","","","","98.35","","","","-3","","NA"
"-121.67","69.67","KEATS POINT","2202663","2018-05-16 12:00","2018","05","16","12:00","-2.0","","","","","M","","","9","","4","","","","98.35","","","","-3","","NA"
"-121.67","69.67","KEATS POINT","2202663","2018-05-16 13:00","2018","05","16","13:00","0.0","","","","","M","","","26","","11","","","","98.37","","","","-4","","NA"
"-121.67","69.67","KEATS POINT","2202663","2018-05-16 14:00","2018","05","16","14:00","0.2","","","","","M","","","23","","15","","","","98.38","","","","","","NA"
"-121.67","69.67","KEATS POINT","2202663","2018-05-16 15:00","2018","05","16","15:00","0.6","","","","","M","","","24","","13","","","","98.38","","","","","","NA"
"-121.67","69.67","KEATS POINT","2202663","2018-05-16 16:00","2018","05","16","16:00","0.5","","","","","M","","","21","","20","","","","98.38","","","","","","NA"
"-121.67","69.67","KEATS POINT","2202663","2018-05-16 17:00","2018","05","16","17:00","0.2","","","","","M","","","21","","22","","","","98.36","","","","","","NA"
"-121.67","69.67","KEATS POINT","2202663","2018-05-16 18:00","2018","05","16","18:00","0.4","","","","","M","","","22","","20","","","","98.34","","","","","","NA"
"-121.67","69.67","KEATS POINT","2202663","2018-05-16 19:00","2018","05","16","19:00","0.1","","","","","M","","","23","","26","","","","98.33","","","","","","NA"
"-121.67","69.67","KEATS POINT","2202663","2018-05-16 20:00","2018","05","16","20:00","-0.4","","","","","M","","","22","","26","","","","98.32","","","","-7","","NA"
"-121.67","69.67","KEATS POINT","2202663","2018-05-16 21:00","2018","05","16","21:00","-0.8","","","","","M","","","21","","30","","","","98.31","","","","-8","","NA"
"-121.67","69.67","KEATS POINT","2202663","2018-05-16 22:00","2018","05","16","22:00","-1.3","","","","","M","","","21","","30","","","","98.31","","","","-8","","NA"
"-121.67","69.67","KEATS POINT","2202663","2018-05-16 23:00","2018","05","16","23:00","-1.4","","","","","M","","","22","","28","","","","98.28","","","","-8","","NA"
"-121.67","69.67","KEATS POINT","2202663","2018-05-17 00:00","2018","05","17","00:00","-1.4","","","","","M","","","21","","31","","","","98.26","","","","-8","","NA"
"-121.67","69.67","KEATS POINT","2202663","2018-05-17 01:00","2018","05","17","01:00","-1.3","","","","","M","","","21","","37","","","","98.24","","","","-9","","NA"
"-121.67","69.67","KEATS POINT","2202663","2018-05-17 02:00","2018","05","17","02:00","-1.4","","","","","M","","","21","","37","","","","98.24","","","","-9","","NA"
"-121.67","69.67","KEATS POINT","2202663","2018-05-17 03:00","2018","05","17","03:00","-0.9","","","","","M","","","22","","31","","","","98.23","","","","-8","","NA"
"-121.67","69.67","KEATS POINT","2202663","2018-05-17 04:00","2018","05","17","04:00","-0.6","","","","","M","","","21","","37","","","","98.20","","","","-8","","NA"
"-121.67","69.67","KEATS POINT","2202663","2018-05-17 05:00","2018","05","17","05:00","-0.2","","","","","M","","","22","","33","","","","98.20","","","","-7","","NA"
"-121.67","69.67","KEATS POINT","2202663","2018-05-17 06:00","2018","05","17","06:00","0.2","","","","","M","","","21","","35","","","","98.16","","","","","","NA"
"-121.67","69.67","KEATS POINT","2202663","2018-05-17 07:00","2018","05","17","07:00","0.1","","","","","M","","","21","","39","","","","98.14","","","","","","NA"
"-121.67","69.67","KEATS POINT","2202663","2018-05-17 08:00","2018","05","17","08:00","0.6","","","","","M","","","21","","39","","","","98.11","","","","","","NA"
"-121.67","69.67","KEATS POINT","2202663","2018-05-17 09:00","2018","05","17","09:00","1.4","","","","","M","","","21","","41","","","","98.08","","","","","","NA"
"-121.67","69.67","KEATS POINT","2202663","2018-05-17 10:00","2018","05","17","10:00","1.9","","","","","M","","","21","","46","","","","98.01","","","","","","NA"
"-121.67","69.67","KEATS POINT","2202663","2018-05-17 11:00","2018","05","17","11:00","2.1","","","","","M","","","21","","46","","","","98.00","","","","","","NA"
"-121.67","69.67","KEATS POINT","2202663","2018-05-17 12:00","2018","05","17","12:00","2.5","","","","","M","","","21","","46","","","","98.00","","","","","","NA"
"-121.67","69.67","KEATS POINT","2202663","2018-05-17 13:00","2018","05","17","13:00","2.7","","","","","M","","","22","","39","","","","98.02","","","","","","NA"
"-121.67","69.67","KEATS POINT","2202663","2018-05-17 14:00","2018","05","17","14:00","3.0","","","","","M","","","23","","33","","","","98.01","","","","","","NA"
"-121.67","69.67","KEATS POINT","2202663","2018-05-17 15:00","2018","05","17","15:00","3.1","","","","","M","","","22","","30","","","","98.01","","","","","","NA"
"-121.67","69.67","KEATS POINT","2202663","2018-05-17 16:00","2018","05","17","16:00","3.1","","","","","M","","","23","","30","","","","98.01","","","","","","NA"
"-121.67","69.67","KEATS POINT","2202663","2018-05-17 17:00","2018","05","17","17:00","3.0","","","","","M","","","23","","30","","","","98.01","","","","","","NA"
"-121.67","69.67","KEATS POINT","2202663","2018-05-17 18:00","2018","05","17","18:00","2.8","","","","","M","","","23","","31","","","","98.00","","","","","","NA"
"-121.67","69.67","KEATS POINT","2202663","2018-05-17 19:00","2018","05","17","19:00","2.9","","","","","M","","","23","","24","","","","97.97","","","","","","NA"
"-121.67","69.67","KEATS POINT","2202663","2018-05-17 20:00","2018","05","17","20:00","2.3","","","","","M","","","36","","4","","","","97.96","","","","","","NA"
"-121.67","69.67","KEATS POINT","2202663","2018-05-17 21:00","2018","05","17","21:00","2.8","","","","","M","","","35","","13","","","","97.90","","","","","","NA"
"-121.67","69.67","KEATS POINT","2202663","2018-05-17 22:00","2018","05","17","22:00","2.5","","","","","M","","","18","","11","","","","97.88","","","","","","NA"
"-121.67","69.67","KEATS POINT","2202663","2018-05-17 23:00","2018","05","17","23:00","3.3","","","","","M","","","23","","24","","","","97.83","","","","","","NA"
"-121.67","69.67","KEATS POINT","2202663","2018-05-18 00:00","2018","05","18","00:00","3.0","","","","","M","","","23","","28","","","","97.80","","","","","","NA"
"-121.67","69.67","KEATS POINT","2202663","2018-05-18 01:00","2018","05","18","01:00","2.0","","","","","M","","","26","","13","","","","97.79","","","","","","NA"
"-121.67","69.67","KEATS POINT","2202663","2018-05-18 02:00","2018","05","18","02:00","1.1","","","","","M","","","30","","9","","","","97.76","","","","","","NA"
"-121.67","69.67","KEATS POINT","2202663","2018-05-18 03:00","2018","05","18","03:00","1.5","","","","","M","","","25","","37","","","","97.74","","","","","","NA"
"-121.67","69.67","KEATS POINT","2202663","2018-05-18 04:00","2018","05","18","04:00","0.6","","","","","M","","","25","","31","","","","97.77","","","","","","NA"
"-121.67","69.67","KEATS POINT","2202663","2018-05-18 05:00","2018","05","18","05:00","-2.5","","","","","M","","","29","","28","","","","97.82","","","","-10","","NA"
"-121.67","69.67","KEATS POINT","2202663","2018-05-18 06:00","2018","05","18","06:00","-5.3","","","","","M","","","34","","22","","","","97.85","","","","-12","","NA"
"-121.67","69.67","KEATS POINT","2202663","2018-05-18 07:00","2018","05","18","07:00","-7.4","","","","","M","","","34","","46","","","","97.93","","","","-18","","NA"
"-121.67","69.67","KEATS POINT","2202663","2018-05-18 08:00","2018","05","18","08:00","-7.8","","","","","M","","","32","","19","","","","97.98","","","","-15","","NA"
"-121.67","69.67","KEATS POINT","2202663","2018-05-18 09:00","2018","05","18","09:00","-7.6","","","","","M","","","29","","22","","","","98.03","","","","-15","","NA"
"-121.67","69.67","KEATS POINT","2202663","2018-05-18 10:00","2018","05","18","10:00","-7.0","","","","","M","","","30","","30","","","","98.06","","","","-16","","NA"
"-121.67","69.67","KEATS POINT","2202663","2018-05-18 11:00","2018","05","18","11:00","-7.3","","","","","M","","","29","","33","","","","98.10","","","","-16","","NA"
"-121.67","69.67","KEATS POINT","2202663","2018-05-18 12:00","2018","05","18","12:00","-6.5","","","","","M","","","27","","33","","","","98.11","","","","-15","","NA"
"-121.67","69.67","KEATS POINT","2202663","2018-05-18 13:00","2018","05","18","13:00","-6.3","","","","","M","","","26","","44","","","","98.11","","","","-16","","NA"
"-121.67","69.67","KEATS POINT","2202663","2018-05-18 14:00","2018","05","18","14:00","-7.6","","","","","M","","","28","","46","","","","98.16","","","","-18","","NA"
"-121.67","69.67","KEATS POINT","2202663","2018-05-18 15:00","2018","05","18","15:00","-8.7","","","","","M","","","28","","44","","","","98.22","","","","-19","","NA"
"-121.67","69.67","KEATS POINT","2202663","2018-05-18 16:00","2018","05","18","16:00","-9.5","","","","","M","","","29","","50","","","","98.26","","","","-21","","NA"
"-121.67","69.67","KEATS POINT","2202663","2018-05-18 17:00","2018","05","18","17:00","-9.8","","","","","M","","","29","","48","","","","98.25","","","","-21","","NA"
"-121.67","69.67","KEATS POINT","2202663","2018-05-18 18:00","2018","05","18","18:00","-9.6","","","","","M","","","30","","43","","","","98.31","","","","-21","","NA"
"-121.67","69.67","KEATS POINT","2202663","2018-05-18 19:00","2018","05","18","19:00","-9.7","","","","","M","","","28","","39","","","","98.31","","","","-20","","NA"
"-121.67","69.67","KEATS POINT","2202663","2018-05-18 20:00","2018","05","18","20:00","-9.6","","","","","M","","","29","","48","","","","98.31","","","","-21","","NA"
"-121.67","69.67","KEATS POINT","2202663","2018-05-18 21:00","2018","05","18","21:00","-9.7","","","","","M","","","29","","48","","","","98.31","","","","-21","","NA"
"-121.67","69.67","KEATS POINT","2202663","2018-05-18 22:00","2018","05","18","22:00","-9.7","","","","","M","","","29","","48","","","","98.31","","","","-21","","NA"
"-121.67","69.67","KEATS POINT","2202663","2018-05-18 23:00","2018","05","18","23:00","-9.8","","","","","M","","","29","","50","","","","98.32","","","","-21","","NA"
"-121.67","69.67","KEATS POINT","2202663","2018-05-19 00:00","2018","05","19","00:00","-9.7","","","","","M","","","29","","43","","","","98.32","","","","-21","","NA"
"-121.67","69.67","KEATS POINT","2202663","2018-05-19 01:00","2018","05","19","01:00","-10.1","","","","","M","","","30","","43","","","","98.35","","","","-21","","NA"
"-121.67","69.67","KEATS POINT","2202663","2018-05-19 02:00","2018","05","19","02:00","-10.6","","","","","M","","","30","","41","","","","98.35","","","","-22","","NA"
"-121.67","69.67","KEATS POINT","2202663","2018-05-19 03:00","2018","05","19","03:00","-10.7","","","","","M","","","31","","35","","","","98.36","","","","-21","","NA"
"-121.67","69.67","KEATS POINT","2202663","2018-05-19 04:00","2018","05","19","04:00","-10.9","","","","","M","","","29","","35","","","","98.32","","","","-21","","NA"
"-121.67","69.67","KEATS POINT","2202663","2018-05-19 05:00","2018","05","19","05:00","-11.1","","","","","M","","","30","","37","","","","98.32","","","","-22","","NA"
"-121.67","69.67","KEATS POINT","2202663","2018-05-19 06:00","2018","05","19","06:00","-10.9","","","","","M","","","31","","35","","","","98.31","","","","-21","","NA"
"-121.67","69.67","KEATS POINT","2202663","2018-05-19 07:00","2018","05","19","07:00","-10.5","","","","","M","","","30","","30","","","","98.28","","","","-20","","NA"
"-121.67","69.67","KEATS POINT","2202663","2018-05-19 08:00","2018","05","19","08:00","-10.3","","","","","M","","","29","","37","","","","98.27","","","","-21","","NA"
"-121.67","69.67","KEATS POINT","2202663","2018-05-19 09:00","2018","05","19","09:00","-10.2","","","","","M","","","29","","31","","","","98.24","","","","-20","","NA"
"-121.67","69.67","KEATS POINT","2202663","2018-05-19 10:00","2018","05","19","10:00","-9.7","","","","","M","","","28","","26","","","","98.22","","","","-19","","NA"
"-121.67","69.67","KEATS POINT","2202663","2018-05-19 11:00","2018","05","19","11:00","-9.4","","","","","M","","","28","","28","","","","98.20","","","","-18","","NA"
"-121.67","69.67","KEATS POINT","2202663","2018-05-19 12:00","2018","05","19","12:00","-8.9","","","","","M","","","28","","22","","","","98.21","","","","-17","","NA"
"-121.67","69.67","KEATS POINT","2202663","2018-05-19 13:00","2018","05","19","13:00","-8.7","","","","","M","","","28","","24","","","","98.18","","","","-17","","NA"
"-121.67","69.67","KEATS POINT","2202663","2018-05-19 14:00","2018","05","19","14:00","-8.6","","","","","M","","","28","","26","","","","98.16","","","","-17","","NA"
"-121.67","69.67","KEATS POINT","2202663","2018-05-19 15:00","2018","05","19","15:00","-8.4","","","","","M","","","28","","30","","","","98.13","","","","-17","","NA"
"-121.67","69.67","KEATS POINT","2202663","2018-05-19 16:00","2018","05","19","16:00","-8.5","","","","","M","","","29","","24","","","","98.12","","","","-17","","NA"
"-121.67","69.67","KEATS POINT","2202663","2018-05-19 17:00","2018","05","19","17:00","-8.5","","","","","M","","","28","","24","","","","98.11","","","","-17","","NA"
"-121.67","69.67","KEATS POINT","2202663","2018-05-19 18:00","2018","05","19","18:00","-8.5","","","","","M","","","27","","22","","","","98.09","","","","-16","","NA"
"-121.67","69.67","KEATS POINT","2202663","2018-05-19 19:00","2018","05","19","19:00","-8.5","","","","","M","","","27","","24","","","","98.06","","","","-17","","NA"
"-121.67","69.67","KEATS POINT","2202663","2018-05-19 20:00","2018","05","19","20:00","-8.7","","","","","M","","","27","","20","","","","98.04","","","","-16","","NA"
"-121.67","69.67","KEATS POINT","2202663","2018-05-19 21:00","2018","05","19","21:00","-8.9","","","","","M","","","29","","20","","","","98.05","","","","-16","","NA"
"-121.67","69.67","KEATS POINT","2202663","2018-05-19 22:00","2018","05","19","22:00","-8.9","","","","","M","","","28","","19","","","","98.06","","","","-16","","NA"
"-121.67","69.67","KEATS POINT","2202663","2018-05-19 23:00","2018","05","19","23:00","-9.2","","","","","M","","","27","","20","","","","98.05","","","","-17","","NA"
"-121.67","69.67","KEATS POINT","2202663","2018-05-20 00:00","2018","05","20","00:00","-9.3","","","","","M","","","27","","17","","","","98.04","","","","-16","","NA"
"-121.67","69.67","KEATS POINT","2202663","2018-05-20 01:00","2018","05","20","01:00","-9.4","","","","","M","","","27","","26","","","","98.04","","","","-18","","NA"
"-121.67","69.67","KEATS POINT","2202663","2018-05-20 02:00","2018","05","20","02:00","-9.5","","","","","M","","","27","","19","","","","98.05","","","","-17","","NA"
"-121.67","69.67","KEATS POINT","2202663","2018-05-20 03:00","2018","05","20","03:00","-9.6","","","","","M","","","28","","11","","","","98.03","","","","-15","","NA"
"-121.67","69.67","KEATS POINT","2202663","2018-05-20 04:00","2018","05","20","04:00","-9.8","","","","","M","","","25","","13","","","","98.02","","","","-16","","NA"
"-121.67","69.67","KEATS POINT","2202663","2018-05-20 05:00","2018","05","20","05:00","-10.8","","","","","M","","","26","","37","","","","98.02","","","","-21","","NA"
"-121.67","69.67","KEATS POINT","2202663","2018-05-20 06:00","2018","05","20","06:00","-10.5","","","","","M","","","30","","11","","","","98.01","","","","-16","","NA"
"-121.67","69.67","KEATS POINT","2202663","2018-05-20 07:00","2018","05","20","07:00","-10.4","","","","","M","","","26","","6","","","","98.01","","","","-14","","NA"
"-121.67","69.67","KEATS POINT","2202663","2018-05-20 08:00","2018","05","20","08:00","-10.3","","","","","M","","","4","","4","","","","98.00","","","","-13","","NA"
"-121.67","69.67","KEATS POINT","2202663","2018-05-20 09:00","2018","05","20","09:00","-9.4","","","","","M","","","","","0","","","","98.00","","","","","","NA"
"-121.67","69.67","KEATS POINT","2202663","2018-05-20 10:00","2018","05","20","10:00","-8.9","","","","","M","","","9","","13","","","","97.96","","","","-15","","NA"
"-121.67","69.67","KEATS POINT","2202663","2018-05-20 11:00","2018","05","20","11:00","-6.1","","","","","M","","","13","","6","","","","97.96","","","","-9","","NA"
"-121.67","69.67","KEATS POINT","2202663","2018-05-20 12:00","2018","05","20","12:00","-6.1","","","","","M","","","8","","9","","","","97.97","","","","-10","","NA"
"-121.67","69.67","KEATS POINT","2202663","2018-05-20 13:00","2018","05","20","13:00","-5.7","","","","","M","","","9","","9","","","","97.96","","","","-10","","NA"
"-121.67","69.67","KEATS POINT","2202663","2018-05-20 14:00","2018","05","20","14:00","-5.0","","","","","M","","","8","","9","","","","97.97","","","","-9","","NA"
"-121.67","69.67","KEATS POINT","2202663","2018-05-20 15:00","2018","05","20","15:00","-4.5","","","","","M","","","11","","11","","","","97.95","","","","-9","","NA"
"-121.67","69.67","KEATS POINT","2202663","2018-05-20 16:00","2018","05","20","16:00","-3.8","","","","","M","","","10","","17","","","","97.90","","","","-10","","NA"
"-121.67","69.67","KEATS POINT","2202663","2018-05-20 17:00","2018","05","20","17:00","-4.0","","","","","M","","","8","","15","","","","97.89","","","","-9","","NA"
"-121.67","69.67","KEATS POINT","2202663","2018-05-20 18:00","2018","05","20","18:00","-4.4","","","","","M","","","9","","17","","","","97.86","","","","-10","","NA"
"-121.67","69.67","KEATS POINT","2202663","2018-05-20 19:00","2018","05","20","19:00","-4.7","","","","","M","","","9","","20","","","","97.80","","","","-11","","NA"
"-121.67","69.67","KEATS POINT","2202663","2018-05-20 20:00","2018","05","20","20:00","-5.5","","","","","M","","","10","","24","","","","97.76","","","","-13","","NA"
"-121.67","69.67","KEATS POINT","2202663","2018-05-20 21:00","2018","05","20","21:00","-6.3","","","","","M","","","10","","22","","","","97.71","","","","-14","","NA"
"-121.67","69.67","KEATS POINT","2202663","2018-05-20 22:00","2018","05","20","22:00","-6.8","","","","","M","","","10","","22","","","","97.69","","","","-14","","NA"
"-121.67","69.67","KEATS POINT","2202663","2018-05-20 23:00","2018","05","20","23:00","-7.1","","","","","M","","","10","","26","","","","97.67","","","","-15","","NA"
"-121.67","69.67","KEATS POINT","2202663","2018-05-21 00:00","2018","05","21","00:00","-7.4","","","","","M","","","","M","","M","","","97.70","","","","","","NA"
"-121.67","69.67","KEATS POINT","2202663","2018-05-21 01:00","2018","05","21","01:00","-7.8","","","","","M","","","","M","","M","","","97.65","","","","","","NA"
"-121.67","69.67","KEATS POINT","2202663","2018-05-21 02:00","2018","05","21","02:00","-8.1","","","","","M","","","","M","","M","","","97.65","","","","","","NA"
"-121.67","69.67","KEATS POINT","2202663","2018-05-21 03:00","2018","05","21","03:00","-8.2","","","","","M","","","","M","","M","","","97.59","","","","","","NA"
"-121.67","69.67","KEATS POINT","2202663","2018-05-21 04:00","2018","05","21","04:00","-8.5","","","","","M","","","10","","28","","","","97.53","","","","-17","","NA"
"-121.67","69.67","KEATS POINT","2202663","2018-05-21 05:00","2018","05","21","05:00","-8.6","","","","","M","","","9","","20","","","","97.51","","","","-16","","NA"
"-121.67","69.67","KEATS POINT","2202663","2018-05-21 06:00","2018","05","21","06:00","-8.9","","","","","M","","","10","","24","","","","97.44","","","","-17","","NA"
"-121.67","69.67","KEATS POINT","2202663","2018-05-21 07:00","2018","05","21","07:00","-7.6","","","","","M","","","10","","22","","","","97.40","","","","-15","","NA"
"-121.67","69.67","KEATS POINT","2202663","2018-05-21 08:00","2018","05","21","08:00","-7.7","","","","","M","","","9","","22","","","","97.42","","","","-15","","NA"
"-121.67","69.67","KEATS POINT","2202663","2018-05-21 09:00","2018","05","21","09:00","-7.0","","","","","M","","","10","","31","","","","97.40","","","","-16","","NA"
"-121.67","69.67","KEATS POINT","2202663","2018-05-21 10:00","2018","05","21","10:00","-5.5","","","","","M","","","9","","30","","","","97.35","","","","-14","","NA"
"-121.67","69.67","KEATS POINT","2202663","2018-05-21 11:00","2018","05","21","11:00","-5.3","","","","","M","","","10","","33","","","","97.34","","","","-14","","NA"
"-121.67","69.67","KEATS POINT","2202663","2018-05-21 12:00","2018","05","21","12:00","-4.0","","","","","M","","","10","","31","","","","97.34","","","","-12","","NA"
"-121.67","69.67","KEATS POINT","2202663","2018-05-21 13:00","2018","05","21","13:00","-3.7","","","","","M","","","10","","35","","","","97.29","","","","-12","","NA"
"-121.67","69.67","KEATS POINT","2202663","2018-05-21 14:00","2018","05","21","14:00","-4.4","","","","","M","","","10","","46","","","","97.24","","","","-14","","NA"
"-121.67","69.67","KEATS POINT","2202663","2018-05-21 15:00","2018","05","21","15:00","-4.3","","","","","M","","","10","","43","","","","97.24","","","","-13","","NA"
"-121.67","69.67","KEATS POINT","2202663","2018-05-21 16:00","2018","05","21","16:00","-4.3","","","","","M","","","10","","50","","","","97.21","","","","-14","","NA"
"-121.67","69.67","KEATS POINT","2202663","2018-05-21 17:00","2018","05","21","17:00","-4.8","","","","","M","","","11","","52","","","","97.18","","","","-15","","NA"
"-121.67","69.67","KEATS POINT","2202663","2018-05-21 18:00","2018","05","21","18:00","-4.9","","","","","M","","","10","","52","","","","97.16","","","","-15","","NA"
"-121.67","69.67","KEATS POINT","2202663","2018-05-21 19:00","2018","05","21","19:00","-5.1","","","","","M","","","11","","54","","","","97.13","","","","-15","","NA"
"-121.67","69.67","KEATS POINT","2202663","2018-05-21 20:00","2018","05","21","20:00","-5.3","","","","","M","","","10","","46","","","","97.13","","","","-15","","NA"
"-121.67","69.67","KEATS POINT","2202663","2018-05-21 21:00","2018","05","21","21:00","-5.9","","","","","M","","","10","","48","","","","97.11","","","","-16","","NA"
"-121.67","69.67","KEATS POINT","2202663","2018-05-21 22:00","2018","05","21","22:00","-6.4","","","","","M","","","10","","56","","","","97.07","","","","-17","","NA"
"-121.67","69.67","KEATS POINT","2202663","2018-05-21 23:00","2018","05","21","23:00","-6.6","","","","","M","","","10","","54","","","","97.05","","","","-17","","NA"
"-121.67","69.67","KEATS POINT","2202663","2018-05-22 00:00","2018","05","22","00:00","-6.7","","","","","M","","","10","","56","","","","97.02","","","","-18","","NA"
"-121.67","69.67","KEATS POINT","2202663","2018-05-22 01:00","2018","05","22","01:00","-6.6","","","","","M","","","10","","54","","","","96.97","","","","-17","","NA"
"-121.67","69.67","KEATS POINT","2202663","2018-05-22 02:00","2018","05","22","02:00","-6.9","","","","","M","","","10","","48","","","","96.98","","","","-17","","NA"
"-121.67","69.67","KEATS POINT","2202663","2018-05-22 03:00","2018","05","22","03:00","-7.1","","","","","M","","","11","","48","","","","97.00","","","","-18","","NA"
"-121.67","69.67","KEATS POINT","2202663","2018-05-22 04:00","2018","05","22","04:00","-7.5","","","","","M","","","10","","54","","","","96.96","","","","-19","","NA"
"-121.67","69.67","KEATS POINT","2202663","2018-05-22 05:00","2018","05","22","05:00","-7.7","","","","","M","","","11","","50","","","","96.93","","","","-19","","NA"
"-121.67","69.67","KEATS POINT","2202663","2018-05-22 06:00","2018","05","22","06:00","-7.8","","","","","M","","","11","","48","","","","96.93","","","","-19","","NA"
"-121.67","69.67","KEATS POINT","2202663","2018-05-22 07:00","2018","05","22","07:00","-8.0","","","","","M","","","10","","50","","","","96.93","","","","-19","","NA"
"-121.67","69.67","KEATS POINT","2202663","2018-05-22 08:00","2018","05","22","08:00","-8.0","","","","","M","","","10","","48","","","","96.86","","","","-19","","NA"
"-121.67","69.67","KEATS POINT","2202663","2018-05-22 09:00","2018","05","22","09:00","-8.2","","","","","M","","","10","","43","","","","96.84","","","","-19","","NA"
"-121.67","69.67","KEATS POINT","2202663","2018-05-22 10:00","2018","05","22","10:00","-8.2","","","","","M","","","10","","44","","","","96.81","","","","-19","","NA"
"-121.67","69.67","KEATS POINT","2202663","2018-05-22 11:00","2018","05","22","11:00","-8.2","","","","","M","","","10","","48","","","","96.81","","","","-19","","NA"
"-121.67","69.67","KEATS POINT","2202663","2018-05-22 12:00","2018","05","22","12:00","-7.9","","","","","M","","","11","","43","","","","96.81","","","","-18","","NA"
"-121.67","69.67","KEATS POINT","2202663","2018-05-22 13:00","2018","05","22","13:00","-7.3","","","","","M","","","10","","46","","","","96.75","","","","-18","","NA"
"-121.67","69.67","KEATS POINT","2202663","2018-05-22 14:00","2018","05","22","14:00","-7.1","","","","","M","","","10","","46","","","","96.74","","","","-17","","NA"
"-121.67","69.67","KEATS POINT","2202663","2018-05-22 15:00","2018","05","22","15:00","-6.9","","","","","M","","","10","","43","","","","96.72","","","","-17","","NA"
"-121.67","69.67","KEATS POINT","2202663","2018-05-22 16:00","2018","05","22","16:00","-6.6","","","","","M","","","10","","41","","","","96.72","","","","-16","","NA"
"-121.67","69.67","KEATS POINT","2202663","2018-05-22 17:00","2018","05","22","17:00","-6.4","","","","","M","","","10","","43","","","","96.71","","","","-16","","NA"
"-121.67","69.67","KEATS POINT","2202663","2018-05-22 18:00","2018","05","22","18:00","-6.2","","","","","M","","","10","","46","","","","96.71","","","","-16","","NA"
"-121.67","69.67","KEATS POINT","2202663","2018-05-22 19:00","2018","05","22","19:00","-5.9","","","","","M","","","10","","41","","","","96.69","","","","-15","","NA"
"-121.67","69.67","KEATS POINT","2202663","2018-05-22 20:00","2018","05","22","20:00","-6.0","","","","","M","","","9","","37","","","","96.69","","","","-15","","NA"
"-121.67","69.67","KEATS POINT","2202663","2018-05-22 21:00","2018","05","22","21:00","-6.1","","","","","M","","","10","","39","","","","96.66","","","","-15","","NA"
"-121.67","69.67","KEATS POINT","2202663","2018-05-22 22:00","2018","05","22","22:00","-6.2","","","","","M","","","10","","41","","","","96.65","","","","-16","","NA"
"-121.67","69.67","KEATS POINT","2202663","2018-05-22 23:00","2018","05","22","23:00","-6.2","","","","","M","","","10","","37","","","","96.66","","","","-15","","NA"
"-121.67","69.67","KEATS POINT","2202663","2018-05-23 00:00","2018","05","23","00:00","-6.2","","","","","M","","","10","","33","","","","96.68","","","","-15","","NA"
"-121.67","69.67","KEATS POINT","2202663","2018-05-23 01:00","2018","05","23","01:00","-6.4","","","","","M","","","10","","31","","","","96.68","","","","-15","","NA"
"-121.67","69.67","KEATS POINT","2202663","2018-05-23 02:00","2018","05","23","02:00","-6.5","","","","","M","","","10","","33","","","","96.69","","","","-15","","NA"
"-121.67","69.67","KEATS POINT","2202663","2018-05-23 03:00","2018","05","23","03:00","-6.5","","","","","M","","","10","","30","","","","96.71","","","","-15","","NA"
"-121.67","69.67","KEATS POINT","2202663","2018-05-23 04:00","2018","05","23","04:00","-6.5","","","","","M","","","10","","28","","","","96.72","","","","-15","","NA"
"-121.67","69.67","KEATS POINT","2202663","2018-05-23 05:00","2018","05","23","05:00","-6.4","","","","","M","","","10","","30","","","","96.72","","","","-15","","NA"
"-121.67","69.67","KEATS POINT","2202663","2018-05-23 06:00","2018","05","23","06:00","-6.4","","","","","M","","","10","","28","","","","96.71","","","","-15","","NA"
"-121.67","69.67","KEATS POINT","2202663","2018-05-23 07:00","2018","05","23","07:00","-6.3","","","","","M","","","11","","30","","","","96.74","","","","-15","","NA"
"-121.67","69.67","KEATS POINT","2202663","2018-05-23 08:00","2018","05","23","08:00","-5.8","","","","","M","","","10","","30","","","","96.78","","","","-14","","NA"
"-121.67","69.67","KEATS POINT","2202663","2018-05-23 09:00","2018","05","23","09:00","-5.7","","","","","M","","","9","","28","","","","96.82","","","","-14","","NA"
"-121.67","69.67","KEATS POINT","2202663","2018-05-23 10:00","2018","05","23","10:00","-5.6","","","","","M","","","9","","28","","","","96.86","","","","-14","","NA"
"-121.67","69.67","KEATS POINT","2202663","2018-05-23 11:00","2018","05","23","11:00","-5.8","","","","","M","","","9","","33","","","","96.91","","","","-14","","NA"
"-121.67","69.67","KEATS POINT","2202663","2018-05-23 12:00","2018","05","23","12:00","-5.7","","","","","M","","","9","","35","","","","96.94","","","","-14","","NA"
"-121.67","69.67","KEATS POINT","2202663","2018-05-23 13:00","2018","05","23","13:00","-5.7","","","","","M","","","9","","37","","","","97.00","","","","-15","","NA"
"-121.67","69.67","KEATS POINT","2202663","2018-05-23 14:00","2018","05","23","14:00","-5.9","","","","","M","","","10","","37","","","","97.06","","","","-15","","NA"
"-121.67","69.67","KEATS POINT","2202663","2018-05-23 15:00","2018","05","23","15:00","-5.9","","","","","M","","","10","","37","","","","97.09","","","","-15","","NA"
"-121.67","69.67","KEATS POINT","2202663","2018-05-23 16:00","2018","05","23","16:00","-6.0","","","","","M","","","10","","33","","","","97.15","","","","-15","","NA"
"-121.67","69.67","KEATS POINT","2202663","2018-05-23 17:00","2018","05","23","17:00","-6.0","","","","","M","","","10","","35","","","","97.20","","","","-15","","NA"
"-121.67","69.67","KEATS POINT","2202663","2018-05-23 18:00","2018","05","23","18:00","-6.4","","","","","M","","","9","","33","","","","97.24","","","","-15","","NA"
"-121.67","69.67","KEATS POINT","2202663","2018-05-23 19:00","2018","05","23","19:00","-6.7","","","","","M","","","9","","35","","","","97.28","","","","-16","","NA"
"-121.67","69.67","KEATS POINT","2202663","2018-05-23 20:00","2018","05","23","20:00","-6.9","","","","","M","","","10","","39","","","","97.32","","","","-17","","NA"
"-121.67","69.67","KEATS POINT","2202663","2018-05-23 21:00","2018","05","23","21:00","-7.0","","","","","M","","","10","","39","","","","97.36","","","","-17","","NA"
"-121.67","69.67","KEATS POINT","2202663","2018-05-23 22:00","2018","05","23","22:00","-7.2","","","","","M","","","10","","39","","","","97.37","","","","-17","","NA"
"-121.67","69.67","KEATS POINT","2202663","2018-05-23 23:00","2018","05","23","23:00","-7.5","","","","","M","","","11","","39","","","","97.41","","","","-17","","NA"
"-121.67","69.67","KEATS POINT","2202663","2018-05-24 00:00","2018","05","24","00:00","-7.6","","","","","M","","","11","","37","","","","97.46","","","","-17","","NA"
"-121.67","69.67","KEATS POINT","2202663","2018-05-24 01:00","2018","05","24","01:00","-7.7","","","","","M","","","11","","39","","","","97.50","","","","-18","","NA"
"-121.67","69.67","KEATS POINT","2202663","2018-05-24 02:00","2018","05","24","02:00","-8.1","","","","","M","","","11","","28","","","","97.54","","","","-17","","NA"
"-121.67","69.67","KEATS POINT","2202663","2018-05-24 03:00","2018","05","24","03:00","-9.2","","","","","M","","","10","","30","","","","97.53","","","","-18","","NA"
"-121.67","69.67","KEATS POINT","2202663","2018-05-24 04:00","2018","05","24","04:00","-9.3","","","","","M","","","12","","26","","","","97.54","","","","-18","","NA"
"-121.67","69.67","KEATS POINT","2202663","2018-05-24 05:00","2018","05","24","05:00","-9.0","","","","","M","","","11","","28","","","","97.57","","","","-18","","NA"
"-121.67","69.67","KEATS POINT","2202663","2018-05-24 06:00","2018","05","24","06:00","-8.4","","","","","M","","","11","","35","","","","97.59","","","","-18","","NA"
"-121.67","69.67","KEATS POINT","2202663","2018-05-24 07:00","2018","05","24","07:00","-8.3","","","","","M","","","10","","33","","","","97.59","","","","-18","","NA"
"-121.67","69.67","KEATS POINT","2202663","2018-05-24 08:00","2018","05","24","08:00","-7.8","","","","","M","","","10","","37","","","","97.62","","","","-18","","NA"
"-121.67","69.67","KEATS POINT","2202663","2018-05-24 09:00","2018","05","24","09:00","-7.5","","","","","M","","","11","","44","","","","97.56","","","","-18","","NA"
"-121.67","69.67","KEATS POINT","2202663","2018-05-24 10:00","2018","05","24","10:00","-7.3","","","","","M","","","10","","43","","","","97.54","","","","-17","","NA"
"-121.67","69.67","KEATS POINT","2202663","2018-05-24 11:00","2018","05","24","11:00","-6.4","","","","","M","","","10","","44","","","","97.55","","","","-16","","NA"
"-121.67","69.67","KEATS POINT","2202663","2018-05-24 12:00","2018","05","24","12:00","-6.2","","","","","M","","","11","","48","","","","97.52","","","","-16","","NA"
"-121.67","69.67","KEATS POINT","2202663","2018-05-24 13:00","2018","05","24","13:00","-5.5","","","","","M","","","10","","48","","","","97.50","","","","-15","","NA"
"-121.67","69.67","KEATS POINT","2202663","2018-05-24 14:00","2018","05","24","14:00","-5.4","","","","","M","","","10","","48","","","","97.46","","","","-15","","NA"
"-121.67","69.67","KEATS POINT","2202663","2018-05-24 15:00","2018","05","24","15:00","-5.7","","","","","M","","","10","","48","","","","97.46","","","","-16","","NA"
"-121.67","69.67","KEATS POINT","2202663","2018-05-24 16:00","2018","05","24","16:00","-5.6","","","","","M","","","10","","39","","","","97.45","","","","-15","","NA"
"-121.67","69.67","KEATS POINT","2202663","2018-05-24 17:00","2018","05","24","17:00","-6.0","","","","","M","","","10","","52","","","","97.38","","","","-16","","NA"
"-121.67","69.67","KEATS POINT","2202663","2018-05-24 18:00","2018","05","24","18:00","-6.2","","","","","M","","","10","","48","","","","97.32","","","","-16","","NA"
"-121.67","69.67","KEATS POINT","2202663","2018-05-24 19:00","2018","05","24","19:00","-6.3","","","","","M","","","11","","50","","","","97.30","","","","-17","","NA"
"-121.67","69.67","KEATS POINT","2202663","2018-05-24 20:00","2018","05","24","20:00","-6.2","","","","","M","","","10","","46","","","","97.24","","","","-16","","NA"
"-121.67","69.67","KEATS POINT","2202663","2018-05-24 21:00","2018","05","24","21:00","-5.9","","","","","M","","","10","","39","","","","97.20","","","","-15","","NA"
"-121.67","69.67","KEATS POINT","2202663","2018-05-24 22:00","2018","05","24","22:00","-5.4","","","","","M","","","10","","37","","","","97.19","","","","-14","","NA"
"-121.67","69.67","KEATS POINT","2202663","2018-05-24 23:00","2018","05","24","23:00","-5.3","","","","","M","","","10","","35","","","","97.17","","","","-14","","NA"
"-121.67","69.67","KEATS POINT","2202663","2018-05-25 00:00","2018","05","25","00:00","-5.6","","","","","M","","","10","","33","","","","97.13","","","","-14","","NA"
"-121.67","69.67","KEATS POINT","2202663","2018-05-25 01:00","2018","05","25","01:00","-5.4","","","","","M","","","10","","31","","","","97.08","","","","-14","","NA"
"-121.67","69.67","KEATS POINT","2202663","2018-05-25 02:00","2018","05","25","02:00","-3.2","","","","","M","","","10","","28","","","","97.02","","","","-10","","NA"
"-121.67","69.67","KEATS POINT","2202663","2018-05-25 03:00","2018","05","25","03:00","-4.6","","","","","M","","","10","","35","","","","97.00","","","","-13","","NA"
"-121.67","69.67","KEATS POINT","2202663","2018-05-25 04:00","2018","05","25","04:00","-5.3","","","","","M","","","11","","33","","","","96.97","","","","-14","","NA"
"-121.67","69.67","KEATS POINT","2202663","2018-05-25 05:00","2018","05","25","05:00","-6.1","","","","","M","","","10","","37","","","","96.91","","","","-15","","NA"
"-121.67","69.67","KEATS POINT","2202663","2018-05-25 06:00","2018","05","25","06:00","-5.9","","","","","M","","","9","","33","","","","96.84","","","","-15","","NA"
"-121.67","69.67","KEATS POINT","2202663","2018-05-25 07:00","2018","05","25","07:00","-5.3","","","","","M","","","9","","35","","","","96.79","","","","-14","","NA"
"-121.67","69.67","KEATS POINT","2202663","2018-05-25 08:00","2018","05","25","08:00","-4.2","","","","","M","","","10","","31","","","","96.77","","","","-12","","NA"
"-121.67","69.67","KEATS POINT","2202663","2018-05-25 09:00","2018","05","25","09:00","-4.4","","","","","M","","","10","","33","","","","96.72","","","","-13","","NA"
"-121.67","69.67","KEATS POINT","2202663","2018-05-25 10:00","2018","05","25","10:00","-4.4","","","","","M","","","10","","41","","","","96.69","","","","-13","","NA"
"-121.67","69.67","KEATS POINT","2202663","2018-05-25 11:00","2018","05","25","11:00","-4.3","","","","","M","","","11","","43","","","","96.70","","","","-13","","NA"
"-121.67","69.67","KEATS POINT","2202663","2018-05-25 12:00","2018","05","25","12:00","-3.4","","","","","M","","","9","","39","","","","96.69","","","","-12","","NA"
"-121.67","69.67","KEATS POINT","2202663","2018-05-25 13:00","2018","05","25","13:00","-3.3","","","","","M","","","10","","37","","","","96.69","","","","-12","","NA"
"-121.67","69.67","KEATS POINT","2202663","2018-05-25 14:00","2018","05","25","14:00","-2.6","","","","","M","","","10","","37","","","","96.67","","","","-11","","NA"
"-121.67","69.67","KEATS POINT","2202663","2018-05-25 15:00","2018","05","25","15:00","-3.3","","","","","M","","","9","","41","","","","96.64","","","","-12","","NA"
"-121.67","69.67","KEATS POINT","2202663","2018-05-25 16:00","2018","05","25","16:00","-3.3","","","","","M","","","10","","39","","","","96.63","","","","-12","","NA"
"-121.67","69.67","KEATS POINT","2202663","2018-05-25 17:00","2018","05","25","17:00","-3.4","","","","","M","","","10","","37","","","","96.62","","","","-12","","NA"
"-121.67","69.67","KEATS POINT","2202663","2018-05-25 18:00","2018","05","25","18:00","-3.6","","","","","M","","","10","","30","","","","96.65","","","","-11","","NA"
"-121.67","69.67","KEATS POINT","2202663","2018-05-25 19:00","2018","05","25","19:00","-3.9","","","","","M","","","10","","33","","","","96.61","","","","-12","","NA"
"-121.67","69.67","KEATS POINT","2202663","2018-05-25 20:00","2018","05","25","20:00","-4.0","","","","","M","","","10","","31","","","","96.56","","","","-12","","NA"
"-121.67","69.67","KEATS POINT","2202663","2018-05-25 21:00","2018","05","25","21:00","-4.0","","","","","M","","","10","","31","","","","96.56","","","","-12","","NA"
"-121.67","69.67","KEATS POINT","2202663","2018-05-25 22:00","2018","05","25","22:00","-4.1","","","","","M","","","10","","30","","","","96.54","","","","-12","","NA"
"-121.67","69.67","KEATS POINT","2202663","2018-05-25 23:00","2018","05","25","23:00","-4.2","","","","","M","","","10","","28","","","","96.54","","","","-12","","NA"
"-121.67","69.67","KEATS POINT","2202663","2018-05-26 00:00","2018","05","26","00:00","-4.4","","","","","M","","","10","","26","","","","96.54","","","","-12","","NA"
"-121.67","69.67","KEATS POINT","2202663","2018-05-26 01:00","2018","05","26","01:00","-4.9","","","","","M","","","10","","26","","","","96.56","","","","-12","","NA"
"-121.67","69.67","KEATS POINT","2202663","2018-05-26 02:00","2018","05","26","02:00","-5.2","","","","","M","","","11","","24","","","","96.56","","","","-12","","NA"
"-121.67","69.67","KEATS POINT","2202663","2018-05-26 03:00","2018","05","26","03:00","-5.1","","","","","M","","","10","","24","","","","96.54","","","","-12","","NA"
"-121.67","69.67","KEATS POINT","2202663","2018-05-26 04:00","2018","05","26","04:00","-5.0","","","","","M","","","10","","24","","","","96.54","","","","-12","","NA"
"-121.67","69.67","KEATS POINT","2202663","2018-05-26 05:00","2018","05","26","05:00","-4.7","","","","","M","","","10","","22","","","","96.54","","","","-12","","NA"
"-121.67","69.67","KEATS POINT","2202663","2018-05-26 06:00","2018","05","26","06:00","-4.7","","","","","M","","","10","","22","","","","96.54","","","","-12","","NA"
"-121.67","69.67","KEATS POINT","2202663","2018-05-26 07:00","2018","05","26","07:00","-4.5","","","","","M","","","10","","20","","","","96.54","","","","-11","","NA"
"-121.67","69.67","KEATS POINT","2202663","2018-05-26 08:00","2018","05","26","08:00","-4.2","","","","","M","","","9","","20","","","","96.54","","","","-11","","NA"
"-121.67","69.67","KEATS POINT","2202663","2018-05-26 09:00","2018","05","26","09:00","-3.9","","","","","M","","","10","","15","","","","96.56","","","","-9","","NA"
"-121.67","69.67","KEATS POINT","2202663","2018-05-26 10:00","2018","05","26","10:00","-3.6","","","","","M","","","10","","15","","","","96.57","","","","-9","","NA"
"-121.67","69.67","KEATS POINT","2202663","2018-05-26 11:00","2018","05","26","11:00","-3.3","","","","","M","","","9","","20","","","","96.59","","","","-9","","NA"
"-121.67","69.67","KEATS POINT","2202663","2018-05-26 12:00","2018","05","26","12:00","-3.2","","","","","M","","","10","","28","","","","96.59","","","","-10","","NA"
"-121.67","69.67","KEATS POINT","2202663","2018-05-26 13:00","2018","05","26","13:00","-3.1","","","","","M","","","","M","","M","","","96.62","","","","","","NA"
"-121.67","69.67","KEATS POINT","2202663","2018-05-26 14:00","2018","05","26","14:00","-3.0","","","","","M","","","","M","","M","","","96.65","","","","","","NA"
"-121.67","69.67","KEATS POINT","2202663","2018-05-26 15:00","2018","05","26","15:00","-3.0","","","","","M","","","","M","","M","","","96.68","","","","","","NA"
"-121.67","69.67","KEATS POINT","2202663","2018-05-26 16:00","2018","05","26","16:00","-2.9","","","","","M","","","","M","","M","","","96.72","","","","","","NA"
"-121.67","69.67","KEATS POINT","2202663","2018-05-26 17:00","2018","05","26","17:00","-3.4","","","","","M","","","","M","","M","","","96.76","","","","","","NA"
"-121.67","69.67","KEATS POINT","2202663","2018-05-26 18:00","2018","05","26","18:00","-3.4","","","","","M","","","","M","","M","","","96.78","","","","","","NA"
"-121.67","69.67","KEATS POINT","2202663","2018-05-26 19:00","2018","05","26","19:00","-3.7","","","","","M","","","","M","","M","","","96.81","","","","","","NA"
"-121.67","69.67","KEATS POINT","2202663","2018-05-26 20:00","2018","05","26","20:00","-3.9","","","","","M","","","","M","","M","","","96.85","","","","","","NA"
"-121.67","69.67","KEATS POINT","2202663","2018-05-26 21:00","2018","05","26","21:00","-4.1","","","","","M","","","","M","","M","","","96.88","","","","","","NA"
"-121.67","69.67","KEATS POINT","2202663","2018-05-26 22:00","2018","05","26","22:00","-4.3","","","","","M","","","","M","","M","","","96.91","","","","","","NA"
"-121.67","69.67","KEATS POINT","2202663","2018-05-26 23:00","2018","05","26","23:00","-4.5","","","","","M","","","","M","","M","","","96.96","","","","","","NA"
"-121.67","69.67","KEATS POINT","2202663","2018-05-27 00:00","2018","05","27","00:00","-4.7","","","","","M","","","","M","","M","","","97.01","","","","","","NA"
"-121.67","69.67","KEATS POINT","2202663","2018-05-27 01:00","2018","05","27","01:00","-4.8","","","","","M","","","","M","","M","","","97.06","","","","","","NA"
"-121.67","69.67","KEATS POINT","2202663","2018-05-27 02:00","2018","05","27","02:00","-5.0","","","","","M","","","","M","","M","","","97.09","","","","","","NA"
"-121.67","69.67","KEATS POINT","2202663","2018-05-27 03:00","2018","05","27","03:00","-5.3","","","","","M","","","32","","81","","","","97.14","","","","-17","","NA"
"-121.67","69.67","KEATS POINT","2202663","2018-05-27 04:00","2018","05","27","04:00","-5.3","","","","","M","","","","M","","M","","","97.18","","","","","","NA"
"-121.67","69.67","KEATS POINT","2202663","2018-05-27 05:00","2018","05","27","05:00","-5.1","","","","","M","","","","M","","M","","","97.20","","","","","","NA"
"-121.67","69.67","KEATS POINT","2202663","2018-05-27 06:00","2018","05","27","06:00","-5.2","","","","","M","","","","M","","M","","","97.23","","","","","","NA"
"-121.67","69.67","KEATS POINT","2202663","2018-05-27 07:00","2018","05","27","07:00","-4.8","","","","","M","","","","M","","M","","","97.24","","","","","","NA"
"-121.67","69.67","KEATS POINT","2202663","2018-05-27 08:00","2018","05","27","08:00","-4.5","","","","","M","","","33","","41","","","","97.27","","","","-14","","NA"
"-121.67","69.67","KEATS POINT","2202663","2018-05-27 09:00","2018","05","27","09:00","-4.3","","","","","M","","","","M","","M","","","97.30","","","","","","NA"
"-121.67","69.67","KEATS POINT","2202663","2018-05-27 10:00","2018","05","27","10:00","-4.2","","","","","M","","","","M","","M","","","97.29","","","","","","NA"
"-121.67","69.67","KEATS POINT","2202663","2018-05-27 11:00","2018","05","27","11:00","-3.8","","","","","M","","","","M","","M","","","97.32","","","","","","NA"
"-121.67","69.67","KEATS POINT","2202663","2018-05-27 12:00","2018","05","27","12:00","-3.8","","","","","M","","","","M","","M","","","97.35","","","","","","NA"
"-121.67","69.67","KEATS POINT","2202663","2018-05-27 13:00","2018","05","27","13:00","-3.8","","","","","M","","","8","","35","","","","97.41","","","","-12","","NA"
"-121.67","69.67","KEATS POINT","2202663","2018-05-27 14:00","2018","05","27","14:00","-4.1","","","","","M","","","7","","17","","","","97.43","","","","-10","","NA"
"-121.67","69.67","KEATS POINT","2202663","2018-05-27 15:00","2018","05","27","15:00","-4.4","","","","","M","","","7","","17","","","","97.44","","","","-10","","NA"
"-121.67","69.67","KEATS POINT","2202663","2018-05-27 16:00","2018","05","27","16:00","-4.1","","","","","M","","","2","","17","","","","97.45","","","","-10","","NA"
"-121.67","69.67","KEATS POINT","2202663","2018-05-27 17:00","2018","05","27","17:00","-4.3","","","","","M","","","9","","39","","","","97.47","","","","-13","","NA"
"-121.67","69.67","KEATS POINT","2202663","2018-05-27 18:00","2018","05","27","18:00","-4.1","","","","","M","","","11","","9","","","","97.46","","","","-8","","NA"
"-121.67","69.67","KEATS POINT","2202663","2018-05-27 19:00","2018","05","27","19:00","-5.0","","","","","M","","","","","0","","","","97.46","","","","","","NA"
"-121.67","69.67","KEATS POINT","2202663","2018-05-27 20:00","2018","05","27","20:00","-4.6","","","","","M","","","13","","11","","","","97.44","","","","-9","","NA"
"-121.67","69.67","KEATS POINT","2202663","2018-05-27 21:00","2018","05","27","21:00","-5.4","","","","","M","","","5","","9","","","","97.43","","","","-9","","NA"
"-121.67","69.67","KEATS POINT","2202663","2018-05-27 22:00","2018","05","27","22:00","-5.9","","","","","M","","","30","","19","","","","97.44","","","","-13","","NA"
"-121.67","69.67","KEATS POINT","2202663","2018-05-27 23:00","2018","05","27","23:00","-6.3","","","","","M","","","27","","11","","","","97.44","","","","-11","","NA"
"-121.67","69.67","KEATS POINT","2202663","2018-05-28 00:00","2018","05","28","00:00","-6.4","","","","","M","","","27","","13","","","","97.44","","","","-12","","NA"
"-121.67","69.67","KEATS POINT","2202663","2018-05-28 01:00","2018","05","28","01:00","-6.6","","","","","M","","","27","","13","","","","97.45","","","","-12","","NA"
"-121.67","69.67","KEATS POINT","2202663","2018-05-28 02:00","2018","05","28","02:00","-6.7","","","","","M","","","27","","7","","","","97.44","","","","-10","","NA"
"-121.67","69.67","KEATS POINT","2202663","2018-05-28 03:00","2018","05","28","03:00","-6.9","","","","","M","","","","","0","","","","97.42","","","","","","NA"
"-121.67","69.67","KEATS POINT","2202663","2018-05-28 04:00","2018","05","28","04:00","-7.1","","","","","M","","","6","","15","","","","97.41","","","","-13","","NA"
"-121.67","69.67","KEATS POINT","2202663","2018-05-28 05:00","2018","05","28","05:00","-7.3","","","","","M","","","","M","","M","","","97.39","","","","","","NA"
"-121.67","69.67","KEATS POINT","2202663","2018-05-28 06:00","2018","05","28","06:00","-7.4","","","","","M","","","","M","","M","","","97.38","","","","","","NA"
"-121.67","69.67","KEATS POINT","2202663","2018-05-28 07:00","2018","05","28","07:00","-7.6","","","","","M","","","","M","","M","","","97.29","","","","","","NA"
"-121.67","69.67","KEATS POINT","2202663","2018-05-28 08:00","2018","05","28","08:00","-7.5","","","","","M","","","","M","","M","","","97.28","","","","","","NA"
"-121.67","69.67","KEATS POINT","2202663","2018-05-28 09:00","2018","05","28","09:00","-7.1","","","","","M","","","","M","","M","","","97.29","","","","","","NA"
"-121.67","69.67","KEATS POINT","2202663","2018-05-28 10:00","2018","05","28","10:00"
"-121.67","69.67","KEATS POINT","2202663","2018-05-28 11:00","2018","05","28","11:00"
"-121.67","69.67","KEATS POINT","2202663","2018-05-28 12:00","2018","05","28","12:00"
"-121.67","69.67","KEATS POINT","2202663","2018-05-28 13:00","2018","05","28","13:00"
"-121.67","69.67","KEATS POINT","2202663","2018-05-28 14:00","2018","05","28","14:00"
"-121.67","69.67","KEATS POINT","2202663","2018-05-28 15:00","2018","05","28","15:00"
"-121.67","69.67","KEATS POINT","2202663","2018-05-28 16:00","2018","05","28","16:00"
"-121.67","69.67","KEATS POINT","2202663","2018-05-28 17:00","2018","05","28","17:00"
"-121.67","69.67","KEATS POINT","2202663","2018-05-28 18:00","2018","05","28","18:00"
"-121.67","69.67","KEATS POINT","2202663","2018-05-28 19:00","2018","05","28","19:00"
"-121.67","69.67","KEATS POINT","2202663","2018-05-28 20:00","2018","05","28","20:00"
"-121.67","69.67","KEATS POINT","2202663","2018-05-28 21:00","2018","05","28","21:00"
"-121.67","69.67","KEATS POINT","2202663","2018-05-28 22:00","2018","05","28","22:00"
"-121.67","69.67","KEATS POINT","2202663","2018-05-28 23:00","2018","05","28","23:00"
"-121.67","69.67","KEATS POINT","2202663","2018-05-29 00:00","2018","05","29","00:00"
"-121.67","69.67","KEATS POINT","2202663","2018-05-29 01:00","2018","05","29","01:00"
"-121.67","69.67","KEATS POINT","2202663","2018-05-29 02:00","2018","05","29","02:00"
"-121.67","69.67","KEATS POINT","2202663","2018-05-29 03:00","2018","05","29","03:00"
"-121.67","69.67","KEATS POINT","2202663","2018-05-29 04:00","2018","05","29","04:00"
"-121.67","69.67","KEATS POINT","2202663","2018-05-29 05:00","2018","05","29","05:00"
"-121.67","69.67","KEATS POINT","2202663","2018-05-29 06:00","2018","05","29","06:00"
"-121.67","69.67","KEATS POINT","2202663","2018-05-29 07:00","2018","05","29","07:00"
"-121.67","69.67","KEATS POINT","2202663","2018-05-29 08:00","2018","05","29","08:00"
"-121.67","69.67","KEATS POINT","2202663","2018-05-29 09:00","2018","05","29","09:00"
"-121.67","69.67","KEATS POINT","2202663","2018-05-29 10:00","2018","05","29","10:00","-4.5","","","","","M","","","","M","","M","","","97.23","","","","","","NA"
"-121.67","69.67","KEATS POINT","2202663","2018-05-29 11:00","2018","05","29","11:00","-4.5","","","","","M","","","","M","","M","","","97.27","","","","","","NA"
"-121.67","69.67","KEATS POINT","2202663","2018-05-29 12:00","2018","05","29","12:00","-4.3","","","","","M","","","","M","","M","","","97.33","","","","","","NA"
"-121.67","69.67","KEATS POINT","2202663","2018-05-29 13:00","2018","05","29","13:00","-4.3","","","","","M","","","","M","","M","","","97.40","","","","","","NA"
"-121.67","69.67","KEATS POINT","2202663","2018-05-29 14:00","2018","05","29","14:00","-4.1","","","","","M","","","","M","","M","","","97.44","","","","","","NA"
"-121.67","69.67","KEATS POINT","2202663","2018-05-29 15:00","2018","05","29","15:00","-3.7","","","","","M","","","","M","","M","","","97.48","","","","","","NA"
"-121.67","69.67","KEATS POINT","2202663","2018-05-29 16:00","2018","05","29","16:00","-4.5","","","","","M","","","","M","","M","","","97.53","","","","","","NA"
"-121.67","69.67","KEATS POINT","2202663","2018-05-29 17:00","2018","05","29","17:00","-4.7","","","","","M","","","","M","","M","","","97.58","","","","","","NA"
"-121.67","69.67","KEATS POINT","2202663","2018-05-29 18:00","2018","05","29","18:00","-5.2","","","","","M","","","","M","","M","","","97.63","","","","","","NA"
"-121.67","69.67","KEATS POINT","2202663","2018-05-29 19:00","2018","05","29","19:00","-5.5","","","","","M","","","","M","","M","","","97.68","","","","","","NA"
"-121.67","69.67","KEATS POINT","2202663","2018-05-29 20:00","2018","05","29","20:00","-6.0","","","","","M","","","","M","","M","","","97.69","","","","","","NA"
"-121.67","69.67","KEATS POINT","2202663","2018-05-29 21:00","2018","05","29","21:00","-6.3","","","","","M","","","","M","","M","","","97.71","","","","","","NA"
"-121.67","69.67","KEATS POINT","2202663","2018-05-29 22:00","2018","05","29","22:00","-6.6","","","","","M","","","","M","","M","","","97.74","","","","","","NA"
"-121.67","69.67","KEATS POINT","2202663","2018-05-29 23:00","2018","05","29","23:00","-6.7","","","","","M","","","","M","","M","","","97.78","","","","","","NA"
"-121.67","69.67","KEATS POINT","2202663","2018-05-30 00:00","2018","05","30","00:00","-7.1","","","","","M","","","","M","","M","","","97.82","","","","","","NA"
"-121.67","69.67","KEATS POINT","2202663","2018-05-30 01:00","2018","05","30","01:00","-7.2","","","","","M","","","","M","","M","","","97.84","","","","","","NA"
"-121.67","69.67","KEATS POINT","2202663","2018-05-30 02:00","2018","05","30","02:00","-7.5","","","","","M","","","","M","","M","","","97.88","","","","","","NA"
"-121.67","69.67","KEATS POINT","2202663","2018-05-30 03:00","2018","05","30","03:00","-7.8","","","","","M","","","","M","","M","","","97.89","","","","","","NA"
"-121.67","69.67","KEATS POINT","2202663","2018-05-30 04:00","2018","05","30","04:00","-7.9","","","","","M","","","","M","","M","","","97.91","","","","","","NA"
"-121.67","69.67","KEATS POINT","2202663","2018-05-30 05:00","2018","05","30","05:00","-8.0","","","","","M","","","","M","","M","","","97.91","","","","","","NA"
"-121.67","69.67","KEATS POINT","2202663","2018-05-30 06:00","2018","05","30","06:00","-8.0","","","","","M","","","","M","","M","","","97.93","","","","","","NA"
"-121.67","69.67","KEATS POINT","2202663","2018-05-30 07:00","2018","05","30","07:00","-8.0","","","","","M","","","","M","","M","","","97.95","","","","","","NA"
"-121.67","69.67","KEATS POINT","2202663","2018-05-30 08:00","2018","05","30","08:00","-7.7","","","","","M","","","","M","","M","","","97.95","","","","","","NA"
"-121.67","69.67","KEATS POINT","2202663","2018-05-30 09:00","2018","05","30","09:00","-7.6","","","","","M","","","","M","","M","","","97.96","","","","","","NA"
"-121.67","69.67","KEATS POINT","2202663","2018-05-30 10:00","2018","05","30","10:00","-7.6","","","","","M","","","","M","","M","","","97.94","","","","","","NA"
"-121.67","69.67","KEATS POINT","2202663","2018-05-30 11:00","2018","05","30","11:00","-7.5","","","","","M","","","","M","","M","","","97.90","","","","","","NA"
"-121.67","69.67","KEATS POINT","2202663","2018-05-30 12:00","2018","05","30","12:00","-6.8","","","","","M","","","","M","","M","","","97.91","","","","","","NA"
"-121.67","69.67","KEATS POINT","2202663","2018-05-30 13:00","2018","05","30","13:00","-6.4","","","","","M","","","","M","","M","","","97.90","","","","","","NA"
"-121.67","69.67","KEATS POINT","2202663","2018-05-30 14:00","2018","05","30","14:00","-6.0","","","","","M","","","","M","","M","","","97.86","","","","","","NA"
"-121.67","69.67","KEATS POINT","2202663","2018-05-30 15:00","2018","05","30","15:00","-5.4","","","","","M","","","","M","","M","","","97.85","","","","","","NA"
"-121.67","69.67","KEATS POINT","2202663","2018-05-30 16:00","2018","05","30","16:00","-4.9","","","","","M","","","","M","","M","","","97.83","","","","","","NA"
"-121.67","69.67","KEATS POINT","2202663","2018-05-30 17:00","2018","05","30","17:00","-5.2","","","","","M","","","","M","","M","","","97.81","","","","","","NA"
"-121.67","69.67","KEATS POINT","2202663","2018-05-30 18:00","2018","05","30","18:00","-5.2","","","","","M","","","","M","","M","","","97.78","","","","","","NA"
"-121.67","69.67","KEATS POINT","2202663","2018-05-30 19:00","2018","05","30","19:00","-5.3","","","","","M","","","","M","","M","","","97.76","","","","","","NA"
"-121.67","69.67","KEATS POINT","2202663","2018-05-30 20:00","2018","05","30","20:00","-5.8","","","","","M","","","","M","","M","","","97.71","","","","","","NA"
"-121.67","69.67","KEATS POINT","2202663","2018-05-30 21:00","2018","05","30","21:00","-6.0","","","","","M","","","","M","","M","","","97.67","","","","","","NA"
"-121.67","69.67","KEATS POINT","2202663","2018-05-30 22:00","2018","05","30","22:00","-6.6","","","","","M","","","","M","","M","","","97.65","","","","","","NA"
"-121.67","69.67","KEATS POINT","2202663","2018-05-30 23:00","2018","05","30","23:00","-4.9","","","","","M","","","","M","","M","","","97.62","","","","","","NA"
"-121.67","69.67","KEATS POINT","2202663","2018-05-31 00:00","2018","05","31","00:00","-3.9","","","","","M","","","","M","","M","","","97.59","","","","","","NA"
"-121.67","69.67","KEATS POINT","2202663","2018-05-31 01:00","2018","05","31","01:00","-3.4","","","","","M","","","","M","","M","","","97.58","","","","","","NA"
"-121.67","69.67","KEATS POINT","2202663","2018-05-31 02:00","2018","05","31","02:00","-2.2","","","","","M","","","","M","","M","","","97.56","","","","","","NA"
"-121.67","69.67","KEATS POINT","2202663","2018-05-31 03:00","2018","05","31","03:00","-2.4","","","","","M","","","","M","","M","","","97.56","","","","","","NA"
"-121.67","69.67","KEATS POINT","2202663","2018-05-31 04:00","2018","05","31","04:00","-2.8","","","","","M","","","","M","","M","","","97.56","","","","","","NA"
"-121.67","69.67","KEATS POINT","2202663","2018-05-31 05:00","2018","05","31","05:00","-2.5","","","","","M","","","","M","","M","","","97.54","","","","","","NA"
"-121.67","69.67","KEATS POINT","2202663","2018-05-31 06:00","2018","05","31","06:00","-2.3","","","","","M","","","","M","","M","","","97.53","","","","","","NA"
"-121.67","69.67","KEATS POINT","2202663","2018-05-31 07:00","2018","05","31","07:00","-1.6","","","","","M","","","","M","","M","","","97.52","","","","","","NA"
"-121.67","69.67","KEATS POINT","2202663","2018-05-31 08:00","2018","05","31","08:00","-1.3","","","","","M","","","","M","","M","","","97.50","","","","","","NA"
"-121.67","69.67","KEATS POINT","2202663","2018-05-31 09:00","2018","05","31","09:00","-0.6","","","","","M","","","5","","6","","","","97.48","","","","-3","","NA"
"-121.67","69.67","KEATS POINT","2202663","2018-05-31 10:00","2018","05","31","10:00","-0.2","","","","","M","","","8","","9","","","","97.48","","","","-3","","NA"
"-121.67","69.67","KEATS POINT","2202663","2018-05-31 11:00","2018","05","31","11:00","-0.1","","","","","M","","","11","","15","","","","97.48","","","","-5","","NA"
"-121.67","69.67","KEATS POINT","2202663","2018-05-31 12:00","2018","05","31","12:00","-0.2","","","","","M","","","11","","19","","","","97.48","","","","-5","","NA"
"-121.67","69.67","KEATS POINT","2202663","2018-05-31 13:00","2018","05","31","13:00","-0.3","","","","","M","","","10","","20","","","","97.48","","","","-6","","NA"
"-121.67","69.67","KEATS POINT","2202663","2018-05-31 14:00","2018","05","31","14:00","-0.8","","","","","M","","","10","","24","","","","97.48","","","","-7","","NA"
"-121.67","69.67","KEATS POINT","2202663","2018-05-31 15:00","2018","05","31","15:00","-1.0","","","","","M","","","10","","24","","","","97.49","","","","-7","","NA"
"-121.67","69.67","KEATS POINT","2202663","2018-05-31 16:00","2018","05","31","16:00","-1.5","","","","","M","","","9","","24","","","","97.49","","","","-8","","NA"
"-121.67","69.67","KEATS POINT","2202663","2018-05-31 17:00","2018","05","31","17:00","-1.6","","","","","M","","","10","","26","","","","97.49","","","","-8","","NA"
"-121.67","69.67","KEATS POINT","2202663","2018-05-31 18:00","2018","05","31","18:00","-1.8","","","","","M","","","9","","31","","","","97.49","","","","-9","","NA"
"-121.67","69.67","KEATS POINT","2202663","2018-05-31 19:00","2018","05","31","19:00","-2.4","","","","","M","","","9","","44","","","","97.48","","","","-11","","NA"
"-121.67","69.67","KEATS POINT","2202663","2018-05-31 20:00","2018","05","31","20:00","-2.9","","","","","M","","","","M","","M","","","97.49","","","","","","NA"
"-121.67","69.67","KEATS POINT","2202663","2018-05-31 21:00","2018","05","31","21:00","-3.2","","","","","M","","","","M","","M","","","97.51","","","","","","NA"
"-121.67","69.67","KEATS POINT","2202663","2018-05-31 22:00","2018","05","31","22:00","-3.3","","","","","M","","","","M","","M","","","97.53","","","","","","NA"
"-121.67","69.67","KEATS POINT","2202663","2018-05-31 23:00","2018","05","31","23:00","-3.5","","","","","M","","","23","","26","","","","97.54","","","","-11","","NA"
