"Longitude (x)","Latitude (y)","Station Name","Climate ID","Date/Time (LST)","Year","Month","Day","Time (LST)","Temp (°C)","Temp Flag","Dew Point Temp (°C)","Dew Point Temp Flag","Rel Hum (%)","Rel Hum Flag","Precip. Amount (mm)","Precip. Amount Flag","Wind Dir (10s deg)","Wind Dir Flag","Wind Spd (km/h)","Wind Spd Flag","Visibility (km)","Visibility Flag","Stn Press (kPa)","Stn Press Flag","Hmdx","Hmdx Flag","Wind Chill","Wind Chill Flag","Weather"
"-62.28","82.52","ALERT A","2400302","2018-10-01 00:00","2018","10","01","00:00"
"-62.28","82.52","ALERT A","2400302","2018-10-01 01:00","2018","10","01","01:00","-9.1","","-11.0","","86","","","","14","","9","","24.1","","100.16","","","","-14","","Mostly Cloudy"
"-62.28","82.52","ALERT A","2400302","2018-10-01 02:00","2018","10","01","02:00","-9.1","","-11.3","","84","","","","15","","6","","24.1","","100.25","","","","-12","","Mostly Cloudy"
"-62.28","82.52","ALERT A","2400302","2018-10-01 03:00","2018","10","01","03:00","-10.7","","-12.6","","86","","","","13","","4","","24.1","","100.32","","","","-13","","Mostly Cloudy"
"-62.28","82.52","ALERT A","2400302","2018-10-01 04:00","2018","10","01","04:00","-13.0","","-14.2","","91","","","","26","","4","","24.1","","100.42","","","","-16","","Mostly Cloudy"
"-62.28","82.52","ALERT A","2400302","2018-10-01 05:00","2018","10","01","05:00","-11.1","","-12.3","","91","","","","","","0","","24.1","","100.51","","","","","","Mostly Cloudy"
"-62.28","82.52","ALERT A","2400302","2018-10-01 06:00","2018","10","01","06:00","-13.9","","-15.2","","90","","","","29","","6","","24.1","","100.60","","","","-18","","Mostly Cloudy"
"-62.28","82.52","ALERT A","2400302","2018-10-01 07:00","2018","10","01","07:00","-11.4","","-12.9","","89","","","","29","","11","","24.1","","100.66","","","","-17","","Cloudy"
"-62.28","82.52","ALERT A","2400302","2018-10-01 08:00","2018","10","01","08:00","-10.6","","-12.6","","85","","","","28","","13","","24.1","","100.71","","","","-17","","Cloudy"
"-62.28","82.52","ALERT A","2400302","2018-10-01 09:00","2018","10","01","09:00","-9.6","","-11.2","","88","","","","29","","17","","24.1","","100.75","","","","-17","","Cloudy"
"-62.28","82.52","ALERT A","2400302","2018-10-01 10:00","2018","10","01","10:00","-10.0","","-11.2","","91","","","","35","","17","","24.1","","100.79","","","","-17","","Mostly Cloudy"
"-62.28","82.52","ALERT A","2400302","2018-10-01 11:00","2018","10","01","11:00","-12.2","","-13.3","","91","","","","34","","13","","1.6","","100.87","","","","-19","","Fog"
"-62.28","82.52","ALERT A","2400302","2018-10-01 12:00","2018","10","01","12:00","-13.0","","-14.1","","91","","","","33","","13","","1.6","","100.95","","","","-20","","Snow,Fog"
"-62.28","82.52","ALERT A","2400302","2018-10-01 13:00","2018","10","01","13:00","-13.6","","-14.9","","90","","","","35","","15","","2.8","","101.04","","","","-21","","Snow,Fog"
"-62.28","82.52","ALERT A","2400302","2018-10-01 14:00","2018","10","01","14:00","-13.6","","-14.9","","90","","","","32","","11","","4.8","","101.12","","","","-20","","Snow,Fog"
"-62.28","82.52","ALERT A","2400302","2018-10-01 15:00","2018","10","01","15:00","-14.4","","-15.9","","88","","","","32","","11","","4.8","","101.19","","","","-21","","Snow,Fog"
"-62.28","82.52","ALERT A","2400302","2018-10-01 16:00","2018","10","01","16:00","-16.1","","-17.6","","88","","","","31","","7","","4.8","","101.26","","","","-21","","Snow,Fog"
"-62.28","82.52","ALERT A","2400302","2018-10-01 17:00","2018","10","01","17:00","-17.5","","-19.1","","87","","","","32","","4","","6.4","","101.32","","","","-21","","Fog"
"-62.28","82.52","ALERT A","2400302","2018-10-01 18:00","2018","10","01","18:00","-17.4","","-18.7","","90","","","","19","","6","","4.8","","101.38","","","","-22","","Fog"
"-62.28","82.52","ALERT A","2400302","2018-10-01 19:00","2018","10","01","19:00","-16.5","","-18.1","","87","","","","","","0","","1.6","","101.45","","","","","","Fog"
"-62.28","82.52","ALERT A","2400302","2018-10-01 20:00","2018","10","01","20:00","-18.8","","-20.3","","88","","","","21","","6","","0.2","","101.52","","","","-24","","Freezing Fog"
"-62.28","82.52","ALERT A","2400302","2018-10-01 21:00","2018","10","01","21:00"
"-62.28","82.52","ALERT A","2400302","2018-10-01 22:00","2018","10","01","22:00"
"-62.28","82.52","ALERT A","2400302","2018-10-01 23:00","2018","10","01","23:00"
"-62.28","82.52","ALERT A","2400302","2018-10-02 00:00","2018","10","02","00:00"
"-62.28","82.52","ALERT A","2400302","2018-10-02 01:00","2018","10","02","01:00"
"-62.28","82.52","ALERT A","2400302","2018-10-02 02:00","2018","10","02","02:00","-18.7","","-19.9","","90","","","","16","","7","","16.1","","101.85","","","","-24","","Mainly Clear"
"-62.28","82.52","ALERT A","2400302","2018-10-02 03:00","2018","10","02","03:00","-19.1","","-20.6","","88","","","","","","0","","24.1","","101.90","","","","","","Mainly Clear"
"-62.28","82.52","ALERT A","2400302","2018-10-02 04:00","2018","10","02","04:00","-19.4","","-20.8","","89","","","","16","","6","","24.1","","101.92","","","","-24","","Mainly Clear"
"-62.28","82.52","ALERT A","2400302","2018-10-02 05:00","2018","10","02","05:00","-18.7","","-20.3","","87","","","","13","","4","","24.1","","101.94","","","","-22","","Mainly Clear"
"-62.28","82.52","ALERT A","2400302","2018-10-02 06:00","2018","10","02","06:00","-18.4","","-19.5","","91","","","","19","","6","","24.1","","102.00","","","","-23","","Mostly Cloudy"
"-62.28","82.52","ALERT A","2400302","2018-10-02 07:00","2018","10","02","07:00","-16.3","","-17.5","","90","","","","","","0","","24.1","","102.02","","","","","","Mostly Cloudy"
"-62.28","82.52","ALERT A","2400302","2018-10-02 08:00","2018","10","02","08:00","-17.0","","-18.3","","90","","","","16","","6","","24.1","","102.05","","","","-22","","Mostly Cloudy"
"-62.28","82.52","ALERT A","2400302","2018-10-02 09:00","2018","10","02","09:00","-15.1","","-16.3","","91","","","","14","","4","","24.1","","102.07","","","","-18","","Mainly Clear"
"-62.28","82.52","ALERT A","2400302","2018-10-02 10:00","2018","10","02","10:00","-16.5","","-18.0","","88","","","","","","0","","24.1","","102.05","","","","","","Mostly Cloudy"
"-62.28","82.52","ALERT A","2400302","2018-10-02 11:00","2018","10","02","11:00","-16.8","","-18.0","","90","","","","16","","9","","24.1","","102.07","","","","-23","","Mostly Cloudy"
"-62.28","82.52","ALERT A","2400302","2018-10-02 12:00","2018","10","02","12:00","-15.1","","-16.6","","88","","","","17","","4","","24.1","","102.09","","","","-18","","Mainly Clear"
"-62.28","82.52","ALERT A","2400302","2018-10-02 13:00","2018","10","02","13:00","-16.1","","-17.8","","87","","","","","","0","","24.1","","102.10","","","","","","Mostly Cloudy"
"-62.28","82.52","ALERT A","2400302","2018-10-02 14:00","2018","10","02","14:00","-16.7","","-18.1","","89","","","","31","","4","","24.1","","102.12","","","","-20","","Mostly Cloudy"
"-62.28","82.52","ALERT A","2400302","2018-10-02 15:00","2018","10","02","15:00","-15.8","","-17.1","","90","","","","32","","9","","24.1","","102.15","","","","-22","","Mostly Cloudy"
"-62.28","82.52","ALERT A","2400302","2018-10-02 16:00","2018","10","02","16:00","-15.4","","-16.7","","90","","","","31","","9","","24.1","","102.16","","","","-21","","Mostly Cloudy"
"-62.28","82.52","ALERT A","2400302","2018-10-02 17:00","2018","10","02","17:00","-15.6","","-17.0","","89","","","","28","","7","","24.1","","102.18","","","","-21","","Cloudy"
"-62.28","82.52","ALERT A","2400302","2018-10-02 18:00","2018","10","02","18:00","-16.2","","-17.5","","90","","","","30","","6","","24.1","","102.19","","","","-21","","Mostly Cloudy"
"-62.28","82.52","ALERT A","2400302","2018-10-02 19:00","2018","10","02","19:00","-15.7","","-17.5","","86","","","","30","","4","","24.1","","102.19","","","","-19","","Mostly Cloudy"
"-62.28","82.52","ALERT A","2400302","2018-10-02 20:00","2018","10","02","20:00","-18.7","","-20.4","","86","","","","19","","6","","24.1","","102.19","","","","-24","","Mostly Cloudy"
"-62.28","82.52","ALERT A","2400302","2018-10-02 21:00","2018","10","02","21:00","-16.1","","-18.2","","84","","","","18","","4","","24.1","","102.20","","","","-19","","Mostly Cloudy"
"-62.28","82.52","ALERT A","2400302","2018-10-02 22:00","2018","10","02","22:00","-16.5","","-18.1","","87","","","","17","","7","","24.1","","102.19","","","","-22","","Cloudy"
"-62.28","82.52","ALERT A","2400302","2018-10-02 23:00","2018","10","02","23:00","-15.5","","-17.7","","83","","","","17","","4","","24.1","","102.17","","","","-18","","Mostly Cloudy"
"-62.28","82.52","ALERT A","2400302","2018-10-03 00:00","2018","10","03","00:00","-14.6","","-16.9","","83","","","","","","0","","24.1","","102.16","","","","","","Mostly Cloudy"
"-62.28","82.52","ALERT A","2400302","2018-10-03 01:00","2018","10","03","01:00","-15.8","","-18.0","","83","","","","19","","9","","24.1","","102.13","","","","-22","","Mostly Cloudy"
"-62.28","82.52","ALERT A","2400302","2018-10-03 02:00","2018","10","03","02:00","-15.4","","-17.6","","83","","","","19","","6","","24.1","","102.10","","","","-20","","Mostly Cloudy"
"-62.28","82.52","ALERT A","2400302","2018-10-03 03:00","2018","10","03","03:00","-13.4","","-16.6","","77","","","","15","","4","","24.1","","102.07","","","","-16","","Mostly Cloudy"
"-62.28","82.52","ALERT A","2400302","2018-10-03 04:00","2018","10","03","04:00","-11.9","","-16.1","","71","","","","18","","6","","24.1","","102.06","","","","-16","","Mostly Cloudy"
"-62.28","82.52","ALERT A","2400302","2018-10-03 05:00","2018","10","03","05:00","-12.8","","-16.3","","75","","","","","","0","","24.1","","102.03","","","","","","Mostly Cloudy"
"-62.28","82.52","ALERT A","2400302","2018-10-03 06:00","2018","10","03","06:00","-12.4","","-16.1","","74","","","","18","","6","","24.1","","102.03","","","","-16","","Mostly Cloudy"
"-62.28","82.52","ALERT A","2400302","2018-10-03 07:00","2018","10","03","07:00","-11.4","","-14.8","","76","","","","22","","4","","24.1","","102.01","","","","-14","","Mostly Cloudy"
"-62.28","82.52","ALERT A","2400302","2018-10-03 08:00","2018","10","03","08:00","-10.5","","-14.3","","74","","","","21","","7","","24.1","","101.98","","","","-15","","Mostly Cloudy"
"-62.28","82.52","ALERT A","2400302","2018-10-03 09:00","2018","10","03","09:00","-10.7","","-15.0","","71","","","","12","","4","","24.1","","101.92","","","","-13","","Mostly Cloudy"
"-62.28","82.52","ALERT A","2400302","2018-10-03 10:00","2018","10","03","10:00","-11.5","","-14.5","","78","","","","18","","4","","24.1","","101.89","","","","-14","","Mostly Cloudy"
"-62.28","82.52","ALERT A","2400302","2018-10-03 11:00","2018","10","03","11:00","-10.7","","-13.9","","77","","","","18","","4","","24.1","","101.86","","","","-13","","Mostly Cloudy"
"-62.28","82.52","ALERT A","2400302","2018-10-03 12:00","2018","10","03","12:00","-9.4","","-13.4","","73","","","","","","0","","24.1","","101.81","","","","","","Mostly Cloudy"
"-62.28","82.52","ALERT A","2400302","2018-10-03 13:00","2018","10","03","13:00","-10.4","","-13.2","","80","","","","16","","4","","24.1","","101.76","","","","-13","","Mostly Cloudy"
"-62.28","82.52","ALERT A","2400302","2018-10-03 14:00","2018","10","03","14:00","-11.8","","-14.9","","78","","","","31","","4","","24.1","","101.71","","","","-14","","Mostly Cloudy"
"-62.28","82.52","ALERT A","2400302","2018-10-03 15:00","2018","10","03","15:00","-11.9","","-14.8","","79","","","","","","0","","24.1","","101.66","","","","","","Mostly Cloudy"
"-62.28","82.52","ALERT A","2400302","2018-10-03 16:00","2018","10","03","16:00","-13.4","","-16.6","","77","","","","","","0","","24.1","","101.60","","","","","","Mostly Cloudy"
"-62.28","82.52","ALERT A","2400302","2018-10-03 17:00","2018","10","03","17:00","-11.5","","-15.4","","73","","","","20","","4","","24.1","","101.57","","","","-14","","Mostly Cloudy"
"-62.28","82.52","ALERT A","2400302","2018-10-03 18:00","2018","10","03","18:00","-10.9","","-14.7","","74","","","","18","","7","","24.1","","101.53","","","","-15","","Mostly Cloudy"
"-62.28","82.52","ALERT A","2400302","2018-10-03 19:00","2018","10","03","19:00","-8.6","","-14.4","","63","","","","18","","4","","24.1","","101.50","","","","-11","","Mostly Cloudy"
"-62.28","82.52","ALERT A","2400302","2018-10-03 20:00","2018","10","03","20:00","-10.7","","-13.9","","77","","","","","","0","","24.1","","101.45","","","","","","Mostly Cloudy"
"-62.28","82.52","ALERT A","2400302","2018-10-03 21:00","2018","10","03","21:00","-9.6","","-12.9","","77","","","","","","0","","24.1","","101.40","","","","","","Mostly Cloudy"
"-62.28","82.52","ALERT A","2400302","2018-10-03 22:00","2018","10","03","22:00","-9.1","","-12.9","","74","","","","12","","6","","24.1","","101.36","","","","-12","","Cloudy"
"-62.28","82.52","ALERT A","2400302","2018-10-03 23:00","2018","10","03","23:00","-6.8","","-12.1","","66","","","","23","","13","","24.1","","101.28","","","","-12","","Cloudy"
"-62.28","82.52","ALERT A","2400302","2018-10-04 00:00","2018","10","04","00:00","-7.1","","-11.9","","69","","","","1","","6","","24.1","","101.23","","","","-10","","Cloudy"
"-62.28","82.52","ALERT A","2400302","2018-10-04 01:00","2018","10","04","01:00","-6.6","","-11.4","","69","","","","24","","17","","24.1","","101.18","","","","-13","","Cloudy"
"-62.28","82.52","ALERT A","2400302","2018-10-04 02:00","2018","10","04","02:00","-5.8","","-11.4","","65","","","","23","","33","","24.1","","101.13","","","","-14","","Cloudy"
"-62.28","82.52","ALERT A","2400302","2018-10-04 03:00","2018","10","04","03:00","-5.7","","-11.7","","63","","","","23","","39","","24.1","","101.10","","","","-15","","Mostly Cloudy"
"-62.28","82.52","ALERT A","2400302","2018-10-04 04:00","2018","10","04","04:00","-5.3","","-11.1","","64","","","","24","","37","","24.1","","101.08","","","","-14","","Mostly Cloudy"
"-62.28","82.52","ALERT A","2400302","2018-10-04 05:00","2018","10","04","05:00","-4.5","","-11.1","","60","","","","24","","37","","24.1","","101.09","","","","-13","","Mostly Cloudy"
"-62.28","82.52","ALERT A","2400302","2018-10-04 06:00","2018","10","04","06:00","-4.9","","-10.7","","64","","","","25","","30","","24.1","","101.15","","","","-13","","Mostly Cloudy"
"-62.28","82.52","ALERT A","2400302","2018-10-04 07:00","2018","10","04","07:00","-5.1","","-11.0","","63","","","","26","","20","","24.1","","101.23","","","","-12","","Cloudy"
"-62.28","82.52","ALERT A","2400302","2018-10-04 08:00","2018","10","04","08:00","-5.6","","-9.9","","72","","","","28","","20","","24.1","","101.30","","","","-12","","Cloudy"
"-62.28","82.52","ALERT A","2400302","2018-10-04 09:00","2018","10","04","09:00","-6.2","","-8.7","","82","","","","3","","4","","24.1","","101.38","","","","-8","","Cloudy"
"-62.28","82.52","ALERT A","2400302","2018-10-04 10:00","2018","10","04","10:00","-6.8","","-8.5","","88","","","","4","","7","","24.1","","101.41","","","","-10","","Cloudy"
"-62.28","82.52","ALERT A","2400302","2018-10-04 11:00","2018","10","04","11:00","-6.7","","-8.2","","89","","","","","","0","","24.1","","101.47","","","","","","Cloudy"
"-62.28","82.52","ALERT A","2400302","2018-10-04 12:00","2018","10","04","12:00","-6.8","","-8.2","","90","","","","15","","4","","24.1","","101.51","","","","-9","","Cloudy"
"-62.28","82.52","ALERT A","2400302","2018-10-04 13:00","2018","10","04","13:00","-5.1","","-11.6","","60","","","","24","","22","","24.1","","101.51","","","","-12","","Cloudy"
"-62.28","82.52","ALERT A","2400302","2018-10-04 14:00","2018","10","04","14:00","-6.5","","-7.7","","91","","","","28","","13","","24.1","","101.56","","","","-12","","Cloudy"
"-62.28","82.52","ALERT A","2400302","2018-10-04 15:00","2018","10","04","15:00","-6.3","","-7.7","","90","","","","30","","11","","24.1","","101.62","","","","-11","","Cloudy"
"-62.28","82.52","ALERT A","2400302","2018-10-04 16:00","2018","10","04","16:00","-5.9","","-7.6","","88","","","","29","","13","","24.1","","101.69","","","","-11","","Cloudy"
"-62.28","82.52","ALERT A","2400302","2018-10-04 17:00","2018","10","04","17:00","-5.3","","-11.2","","63","","","","25","","13","","24.1","","101.75","","","","-10","","Cloudy"
"-62.28","82.52","ALERT A","2400302","2018-10-04 18:00","2018","10","04","18:00","-5.4","","-11.7","","61","","","","23","","28","","24.1","","101.75","","","","-13","","Cloudy"
"-62.28","82.52","ALERT A","2400302","2018-10-04 19:00","2018","10","04","19:00"
"-62.28","82.52","ALERT A","2400302","2018-10-04 20:00","2018","10","04","20:00"
"-62.28","82.52","ALERT A","2400302","2018-10-04 21:00","2018","10","04","21:00"
"-62.28","82.52","ALERT A","2400302","2018-10-04 22:00","2018","10","04","22:00"
"-62.28","82.52","ALERT A","2400302","2018-10-04 23:00","2018","10","04","23:00"
"-62.28","82.52","ALERT A","2400302","2018-10-05 00:00","2018","10","05","00:00"
"-62.28","82.52","ALERT A","2400302","2018-10-05 01:00","2018","10","05","01:00"
"-62.28","82.52","ALERT A","2400302","2018-10-05 02:00","2018","10","05","02:00"
"-62.28","82.52","ALERT A","2400302","2018-10-05 03:00","2018","10","05","03:00"
"-62.28","82.52","ALERT A","2400302","2018-10-05 04:00","2018","10","05","04:00","-4.9","","-8.4","","76","","","","23","","35","","24.1","","101.55","","","","-13","","Cloudy"
"-62.28","82.52","ALERT A","2400302","2018-10-05 05:00","2018","10","05","05:00","-4.7","","-8.7","","74","","","","23","","39","","16.1","","101.46","","","","-14","","Snow"
"-62.28","82.52","ALERT A","2400302","2018-10-05 06:00","2018","10","05","06:00","-4.4","","-8.5","","73","","","","24","","35","","16.1","","101.40","","","","-13","","Snow"
"-62.28","82.52","ALERT A","2400302","2018-10-05 07:00","2018","10","05","07:00","-4.4","","-9.3","","69","","","","27","","30","","16.1","","101.39","","","","-12","","Snow"
"-62.28","82.52","ALERT A","2400302","2018-10-05 08:00","2018","10","05","08:00","-5.2","","-7.8","","82","","","","25","","28","","1.6","","101.33","","","","-13","","Snow"
"-62.28","82.52","ALERT A","2400302","2018-10-05 09:00","2018","10","05","09:00","-5.5","","-6.8","","91","","","","25","","26","","1.2","","101.25","","","","-13","","Snow,Fog"
"-62.28","82.52","ALERT A","2400302","2018-10-05 10:00","2018","10","05","10:00","-5.4","","-6.5","","92","","","","25","","20","","1.6","","101.21","","","","-12","","Snow,Fog"
"-62.28","82.52","ALERT A","2400302","2018-10-05 11:00","2018","10","05","11:00","-5.6","","-6.4","","94","","","","5","","20","","1.6","","101.23","","","","-12","","Snow"
"-62.28","82.52","ALERT A","2400302","2018-10-05 12:00","2018","10","05","12:00","-5.8","","-6.6","","94","","","","10","","13","","1.2","","101.19","","","","-11","","Snow"
"-62.28","82.52","ALERT A","2400302","2018-10-05 13:00","2018","10","05","13:00","-6.0","","-6.8","","94","","","","9","","4","","1.2","","101.19","","","","-8","","Snow"
"-62.28","82.52","ALERT A","2400302","2018-10-05 14:00","2018","10","05","14:00","-6.7","","-8.1","","90","","","","33","","22","","9.7","","101.16","","","","-14","","Snow"
"-62.28","82.52","ALERT A","2400302","2018-10-05 15:00","2018","10","05","15:00","-7.0","","-8.0","","93","","","","32","","24","","16.1","","101.11","","","","-15","","Snow"
"-62.28","82.52","ALERT A","2400302","2018-10-05 16:00","2018","10","05","16:00","-7.1","","-8.2","","92","","","","32","","24","","16.1","","101.12","","","","-15","","Snow"
"-62.28","82.52","ALERT A","2400302","2018-10-05 17:00","2018","10","05","17:00"
"-62.28","82.52","ALERT A","2400302","2018-10-05 18:00","2018","10","05","18:00"
"-62.28","82.52","ALERT A","2400302","2018-10-05 19:00","2018","10","05","19:00"
"-62.28","82.52","ALERT A","2400302","2018-10-05 20:00","2018","10","05","20:00"
"-62.28","82.52","ALERT A","2400302","2018-10-05 21:00","2018","10","05","21:00"
"-62.28","82.52","ALERT A","2400302","2018-10-05 22:00","2018","10","05","22:00"
"-62.28","82.52","ALERT A","2400302","2018-10-05 23:00","2018","10","05","23:00"
"-62.28","82.52","ALERT A","2400302","2018-10-06 00:00","2018","10","06","00:00"
"-62.28","82.52","ALERT A","2400302","2018-10-06 01:00","2018","10","06","01:00"
"-62.28","82.52","ALERT A","2400302","2018-10-06 02:00","2018","10","06","02:00"
"-62.28","82.52","ALERT A","2400302","2018-10-06 03:00","2018","10","06","03:00"
"-62.28","82.52","ALERT A","2400302","2018-10-06 04:00","2018","10","06","04:00","-6.9","","-7.9","","93","","","","32","","43","","0.8","","100.60","","","","-17","","Snow,Blowing Snow"
"-62.28","82.52","ALERT A","2400302","2018-10-06 05:00","2018","10","06","05:00","-7.2","","-8.2","","93","","","","32","","39","","1.2","","100.57","","","","-17","","Snow,Blowing Snow"
"-62.28","82.52","ALERT A","2400302","2018-10-06 06:00","2018","10","06","06:00","-7.2","","-8.2","","93","","","","32","","41","","1.2","","100.58","","","","-17","","Snow,Blowing Snow"
"-62.28","82.52","ALERT A","2400302","2018-10-06 07:00","2018","10","06","07:00","-7.3","","-8.3","","93","","","","32","","39","","1.2","","100.57","","","","-17","","Snow,Blowing Snow"
"-62.28","82.52","ALERT A","2400302","2018-10-06 08:00","2018","10","06","08:00","-7.3","","-8.2","","93","","","","32","","37","","0.8","","100.57","","","","-17","","Snow,Blowing Snow"
"-62.28","82.52","ALERT A","2400302","2018-10-06 09:00","2018","10","06","09:00","-7.1","","-8.1","","93","","","","32","","37","","1.2","","100.54","","","","-17","","Snow,Blowing Snow"
"-62.28","82.52","ALERT A","2400302","2018-10-06 10:00","2018","10","06","10:00","-7.0","","-8.1","","92","","","","33","","35","","3.2","","100.49","","","","-16","","Snow,Blowing Snow"
"-62.28","82.52","ALERT A","2400302","2018-10-06 11:00","2018","10","06","11:00","-6.7","","-7.6","","93","","","","33","","24","","0.8","","100.46","","","","-14","","Snow,Blowing Snow"
"-62.28","82.52","ALERT A","2400302","2018-10-06 12:00","2018","10","06","12:00","-7.0","","-7.9","","93","","","","34","","28","","1.2","","100.44","","","","-15","","Snow,Blowing Snow"
"-62.28","82.52","ALERT A","2400302","2018-10-06 13:00","2018","10","06","13:00","-6.5","","-7.7","","91","","","","34","","22","","4.8","","100.41","","","","-14","","Snow,Blowing Snow"
"-62.28","82.52","ALERT A","2400302","2018-10-06 14:00","2018","10","06","14:00"
"-62.28","82.52","ALERT A","2400302","2018-10-06 15:00","2018","10","06","15:00"
"-62.28","82.52","ALERT A","2400302","2018-10-06 16:00","2018","10","06","16:00"
"-62.28","82.52","ALERT A","2400302","2018-10-06 17:00","2018","10","06","17:00"
"-62.28","82.52","ALERT A","2400302","2018-10-06 18:00","2018","10","06","18:00"
"-62.28","82.52","ALERT A","2400302","2018-10-06 19:00","2018","10","06","19:00"
"-62.28","82.52","ALERT A","2400302","2018-10-06 20:00","2018","10","06","20:00"
"-62.28","82.52","ALERT A","2400302","2018-10-06 21:00","2018","10","06","21:00"
"-62.28","82.52","ALERT A","2400302","2018-10-06 22:00","2018","10","06","22:00"
"-62.28","82.52","ALERT A","2400302","2018-10-06 23:00","2018","10","06","23:00"
"-62.28","82.52","ALERT A","2400302","2018-10-07 00:00","2018","10","07","00:00"
"-62.28","82.52","ALERT A","2400302","2018-10-07 01:00","2018","10","07","01:00"
"-62.28","82.52","ALERT A","2400302","2018-10-07 02:00","2018","10","07","02:00"
"-62.28","82.52","ALERT A","2400302","2018-10-07 03:00","2018","10","07","03:00"
"-62.28","82.52","ALERT A","2400302","2018-10-07 04:00","2018","10","07","04:00"
"-62.28","82.52","ALERT A","2400302","2018-10-07 05:00","2018","10","07","05:00"
"-62.28","82.52","ALERT A","2400302","2018-10-07 06:00","2018","10","07","06:00"
"-62.28","82.52","ALERT A","2400302","2018-10-07 07:00","2018","10","07","07:00"
"-62.28","82.52","ALERT A","2400302","2018-10-07 08:00","2018","10","07","08:00"
"-62.28","82.52","ALERT A","2400302","2018-10-07 09:00","2018","10","07","09:00"
"-62.28","82.52","ALERT A","2400302","2018-10-07 10:00","2018","10","07","10:00"
"-62.28","82.52","ALERT A","2400302","2018-10-07 11:00","2018","10","07","11:00"
"-62.28","82.52","ALERT A","2400302","2018-10-07 12:00","2018","10","07","12:00"
"-62.28","82.52","ALERT A","2400302","2018-10-07 13:00","2018","10","07","13:00"
"-62.28","82.52","ALERT A","2400302","2018-10-07 14:00","2018","10","07","14:00"
"-62.28","82.52","ALERT A","2400302","2018-10-07 15:00","2018","10","07","15:00"
"-62.28","82.52","ALERT A","2400302","2018-10-07 16:00","2018","10","07","16:00"
"-62.28","82.52","ALERT A","2400302","2018-10-07 17:00","2018","10","07","17:00"
"-62.28","82.52","ALERT A","2400302","2018-10-07 18:00","2018","10","07","18:00"
"-62.28","82.52","ALERT A","2400302","2018-10-07 19:00","2018","10","07","19:00"
"-62.28","82.52","ALERT A","2400302","2018-10-07 20:00","2018","10","07","20:00"
"-62.28","82.52","ALERT A","2400302","2018-10-07 21:00","2018","10","07","21:00"
"-62.28","82.52","ALERT A","2400302","2018-10-07 22:00","2018","10","07","22:00"
"-62.28","82.52","ALERT A","2400302","2018-10-07 23:00","2018","10","07","23:00"
"-62.28","82.52","ALERT A","2400302","2018-10-08 00:00","2018","10","08","00:00"
"-62.28","82.52","ALERT A","2400302","2018-10-08 01:00","2018","10","08","01:00"
"-62.28","82.52","ALERT A","2400302","2018-10-08 02:00","2018","10","08","02:00"
"-62.28","82.52","ALERT A","2400302","2018-10-08 03:00","2018","10","08","03:00"
"-62.28","82.52","ALERT A","2400302","2018-10-08 04:00","2018","10","08","04:00"
"-62.28","82.52","ALERT A","2400302","2018-10-08 05:00","2018","10","08","05:00"
"-62.28","82.52","ALERT A","2400302","2018-10-08 06:00","2018","10","08","06:00"
"-62.28","82.52","ALERT A","2400302","2018-10-08 07:00","2018","10","08","07:00"
"-62.28","82.52","ALERT A","2400302","2018-10-08 08:00","2018","10","08","08:00"
"-62.28","82.52","ALERT A","2400302","2018-10-08 09:00","2018","10","08","09:00"
"-62.28","82.52","ALERT A","2400302","2018-10-08 10:00","2018","10","08","10:00"
"-62.28","82.52","ALERT A","2400302","2018-10-08 11:00","2018","10","08","11:00"
"-62.28","82.52","ALERT A","2400302","2018-10-08 12:00","2018","10","08","12:00"
"-62.28","82.52","ALERT A","2400302","2018-10-08 13:00","2018","10","08","13:00"
"-62.28","82.52","ALERT A","2400302","2018-10-08 14:00","2018","10","08","14:00"
"-62.28","82.52","ALERT A","2400302","2018-10-08 15:00","2018","10","08","15:00"
"-62.28","82.52","ALERT A","2400302","2018-10-08 16:00","2018","10","08","16:00"
"-62.28","82.52","ALERT A","2400302","2018-10-08 17:00","2018","10","08","17:00"
"-62.28","82.52","ALERT A","2400302","2018-10-08 18:00","2018","10","08","18:00"
"-62.28","82.52","ALERT A","2400302","2018-10-08 19:00","2018","10","08","19:00"
"-62.28","82.52","ALERT A","2400302","2018-10-08 20:00","2018","10","08","20:00"
"-62.28","82.52","ALERT A","2400302","2018-10-08 21:00","2018","10","08","21:00"
"-62.28","82.52","ALERT A","2400302","2018-10-08 22:00","2018","10","08","22:00"
"-62.28","82.52","ALERT A","2400302","2018-10-08 23:00","2018","10","08","23:00"
"-62.28","82.52","ALERT A","2400302","2018-10-09 00:00","2018","10","09","00:00"
"-62.28","82.52","ALERT A","2400302","2018-10-09 01:00","2018","10","09","01:00"
"-62.28","82.52","ALERT A","2400302","2018-10-09 02:00","2018","10","09","02:00"
"-62.28","82.52","ALERT A","2400302","2018-10-09 03:00","2018","10","09","03:00"
"-62.28","82.52","ALERT A","2400302","2018-10-09 04:00","2018","10","09","04:00"
"-62.28","82.52","ALERT A","2400302","2018-10-09 05:00","2018","10","09","05:00"
"-62.28","82.52","ALERT A","2400302","2018-10-09 06:00","2018","10","09","06:00"
"-62.28","82.52","ALERT A","2400302","2018-10-09 07:00","2018","10","09","07:00"
"-62.28","82.52","ALERT A","2400302","2018-10-09 08:00","2018","10","09","08:00","-9.0","","-11.8","","80","","","","24","","19","","16.1","","99.40","","","","-16","","Snow"
"-62.28","82.52","ALERT A","2400302","2018-10-09 09:00","2018","10","09","09:00","-9.8","","-12.5","","81","","","","25","","19","","16.1","","99.33","","","","-17","","Mostly Cloudy"
"-62.28","82.52","ALERT A","2400302","2018-10-09 10:00","2018","10","09","10:00","-8.7","","-11.8","","78","","","","22","","26","","16.1","","99.26","","","","-17","","Snow"
"-62.28","82.52","ALERT A","2400302","2018-10-09 11:00","2018","10","09","11:00","-9.5","","-12.0","","82","","","","23","","30","","19.3","","99.18","","","","-19","","Mostly Cloudy"
"-62.28","82.52","ALERT A","2400302","2018-10-09 12:00","2018","10","09","12:00","-9.1","","-12.2","","78","","","","23","","32","","24.1","","99.13","","","","-19","","Mostly Cloudy"
"-62.28","82.52","ALERT A","2400302","2018-10-09 13:00","2018","10","09","13:00","-8.2","","-11.1","","80","","","","23","","28","","24.1","","99.07","","","","-17","","Cloudy"
"-62.28","82.52","ALERT A","2400302","2018-10-09 14:00","2018","10","09","14:00","-7.8","","-11.1","","77","","","","24","","30","","16.1","","99.03","","","","-17","","Cloudy"
"-62.28","82.52","ALERT A","2400302","2018-10-09 15:00","2018","10","09","15:00","-9.5","","-11.0","","89","","","","28","","17","","16.1","","99.03","","","","-17","","Snow Showers"
"-62.28","82.52","ALERT A","2400302","2018-10-09 16:00","2018","10","09","16:00","-10.3","","-11.6","","90","","","","29","","15","","16.1","","99.02","","","","-17","","Snow Showers"
"-62.28","82.52","ALERT A","2400302","2018-10-09 17:00","2018","10","09","17:00"
"-62.28","82.52","ALERT A","2400302","2018-10-09 18:00","2018","10","09","18:00"
"-62.28","82.52","ALERT A","2400302","2018-10-09 19:00","2018","10","09","19:00"
"-62.28","82.52","ALERT A","2400302","2018-10-09 20:00","2018","10","09","20:00"
"-62.28","82.52","ALERT A","2400302","2018-10-09 21:00","2018","10","09","21:00"
"-62.28","82.52","ALERT A","2400302","2018-10-09 22:00","2018","10","09","22:00"
"-62.28","82.52","ALERT A","2400302","2018-10-09 23:00","2018","10","09","23:00"
"-62.28","82.52","ALERT A","2400302","2018-10-10 00:00","2018","10","10","00:00"
"-62.28","82.52","ALERT A","2400302","2018-10-10 01:00","2018","10","10","01:00"
"-62.28","82.52","ALERT A","2400302","2018-10-10 02:00","2018","10","10","02:00"
"-62.28","82.52","ALERT A","2400302","2018-10-10 03:00","2018","10","10","03:00"
"-62.28","82.52","ALERT A","2400302","2018-10-10 04:00","2018","10","10","04:00"
"-62.28","82.52","ALERT A","2400302","2018-10-10 05:00","2018","10","10","05:00"
"-62.28","82.52","ALERT A","2400302","2018-10-10 06:00","2018","10","10","06:00"
"-62.28","82.52","ALERT A","2400302","2018-10-10 07:00","2018","10","10","07:00"
"-62.28","82.52","ALERT A","2400302","2018-10-10 08:00","2018","10","10","08:00","-8.1","","-10.6","","82","","","","24","","41","","24.1","","98.74","","","","-18","","Mostly Cloudy"
"-62.28","82.52","ALERT A","2400302","2018-10-10 09:00","2018","10","10","09:00","-8.7","","-10.9","","84","","","","23","","44","","8.0","","98.73","","","","-19","","Blowing Snow"
"-62.28","82.52","ALERT A","2400302","2018-10-10 10:00","2018","10","10","10:00","-8.7","","-10.4","","87","","","","23","","52","","8.0","","98.69","","","","-20","","Blowing Snow"
"-62.28","82.52","ALERT A","2400302","2018-10-10 11:00","2018","10","10","11:00","-8.7","","-10.9","","84","","","","22","","48","","8.0","","98.71","","","","-20","","Blowing Snow"
"-62.28","82.52","ALERT A","2400302","2018-10-10 12:00","2018","10","10","12:00","-8.9","","-11.1","","84","","","","23","","54","","8.0","","98.70","","","","-21","","Blowing Snow"
"-62.28","82.52","ALERT A","2400302","2018-10-10 13:00","2018","10","10","13:00","-9.1","","-11.1","","85","","","","23","","59","","4.8","","98.67","","","","-21","","Blowing Snow"
"-62.28","82.52","ALERT A","2400302","2018-10-10 14:00","2018","10","10","14:00","-9.3","","-11.5","","84","","","","24","","52","","8.0","","98.73","","","","-21","","Blowing Snow"
"-62.28","82.52","ALERT A","2400302","2018-10-10 15:00","2018","10","10","15:00","-10.1","","-12.4","","83","","","","23","","56","","8.0","","98.77","","","","-22","","Blowing Snow"
"-62.28","82.52","ALERT A","2400302","2018-10-10 16:00","2018","10","10","16:00","-10.5","","-12.9","","82","","","","23","","52","","8.0","","98.80","","","","-23","","Blowing Snow"
"-62.28","82.52","ALERT A","2400302","2018-10-10 17:00","2018","10","10","17:00"
"-62.28","82.52","ALERT A","2400302","2018-10-10 18:00","2018","10","10","18:00"
"-62.28","82.52","ALERT A","2400302","2018-10-10 19:00","2018","10","10","19:00"
"-62.28","82.52","ALERT A","2400302","2018-10-10 20:00","2018","10","10","20:00"
"-62.28","82.52","ALERT A","2400302","2018-10-10 21:00","2018","10","10","21:00"
"-62.28","82.52","ALERT A","2400302","2018-10-10 22:00","2018","10","10","22:00"
"-62.28","82.52","ALERT A","2400302","2018-10-10 23:00","2018","10","10","23:00"
"-62.28","82.52","ALERT A","2400302","2018-10-11 00:00","2018","10","11","00:00"
"-62.28","82.52","ALERT A","2400302","2018-10-11 01:00","2018","10","11","01:00","-9.3","","-12.6","","77","","","","22","","37","","24.1","","99.21","","","","-19","","Mainly Clear"
"-62.28","82.52","ALERT A","2400302","2018-10-11 02:00","2018","10","11","02:00","-8.7","","-12.3","","75","","","","23","","35","","24.1","","99.26","","","","-18","","Mainly Clear"
"-62.28","82.52","ALERT A","2400302","2018-10-11 03:00","2018","10","11","03:00","-8.5","","-11.7","","78","","","","23","","30","","24.1","","99.32","","","","-18","","Mainly Clear"
"-62.28","82.52","ALERT A","2400302","2018-10-11 04:00","2018","10","11","04:00","-8.4","","-12.0","","75","","","","23","","37","","24.1","","99.37","","","","-18","","Mainly Clear"
"-62.28","82.52","ALERT A","2400302","2018-10-11 05:00","2018","10","11","05:00","-8.1","","-11.7","","75","","","","23","","33","","24.1","","99.43","","","","-17","","Mainly Clear"
"-62.28","82.52","ALERT A","2400302","2018-10-11 06:00","2018","10","11","06:00","-8.2","","-11.6","","76","","","","24","","24","","24.1","","99.50","","","","-16","","Mostly Cloudy"
"-62.28","82.52","ALERT A","2400302","2018-10-11 07:00","2018","10","11","07:00","-7.8","","-11.7","","74","","","","23","","33","","24.1","","99.55","","","","-17","","Cloudy"
"-62.28","82.52","ALERT A","2400302","2018-10-11 08:00","2018","10","11","08:00","-8.0","","-11.7","","75","","","","22","","30","","24.1","","99.60","","","","-17","","Cloudy"
"-62.28","82.52","ALERT A","2400302","2018-10-11 09:00","2018","10","11","09:00","-8.3","","-12.2","","73","","","","23","","37","","24.1","","99.64","","","","-18","","Cloudy"
"-62.28","82.52","ALERT A","2400302","2018-10-11 10:00","2018","10","11","10:00","-8.5","","-12.0","","76","","","","23","","41","","24.1","","99.64","","","","-19","","Cloudy"
"-62.28","82.52","ALERT A","2400302","2018-10-11 11:00","2018","10","11","11:00","-8.3","","-12.1","","74","","","","24","","43","","24.1","","99.70","","","","-19","","Mostly Cloudy"
"-62.28","82.52","ALERT A","2400302","2018-10-11 12:00","2018","10","11","12:00","-8.2","","-11.8","","75","","","","23","","37","","24.1","","99.77","","","","-18","","Cloudy"
"-62.28","82.52","ALERT A","2400302","2018-10-11 13:00","2018","10","11","13:00","-7.9","","-12.2","","71","","","","23","","20","","24.1","","99.85","","","","-15","","Cloudy"
"-62.28","82.52","ALERT A","2400302","2018-10-11 14:00","2018","10","11","14:00","-8.1","","-12.5","","71","","","","23","","33","","24.1","","99.90","","","","-17","","Cloudy"
"-62.28","82.52","ALERT A","2400302","2018-10-11 15:00","2018","10","11","15:00","-8.5","","-12.8","","71","","","","23","","26","","24.1","","99.95","","","","-17","","Cloudy"
"-62.28","82.52","ALERT A","2400302","2018-10-11 16:00","2018","10","11","16:00"
"-62.28","82.52","ALERT A","2400302","2018-10-11 17:00","2018","10","11","17:00"
"-62.28","82.52","ALERT A","2400302","2018-10-11 18:00","2018","10","11","18:00"
"-62.28","82.52","ALERT A","2400302","2018-10-11 19:00","2018","10","11","19:00"
"-62.28","82.52","ALERT A","2400302","2018-10-11 20:00","2018","10","11","20:00"
"-62.28","82.52","ALERT A","2400302","2018-10-11 21:00","2018","10","11","21:00"
"-62.28","82.52","ALERT A","2400302","2018-10-11 22:00","2018","10","11","22:00"
"-62.28","82.52","ALERT A","2400302","2018-10-11 23:00","2018","10","11","23:00"
"-62.28","82.52","ALERT A","2400302","2018-10-12 00:00","2018","10","12","00:00"
"-62.28","82.52","ALERT A","2400302","2018-10-12 01:00","2018","10","12","01:00"
"-62.28","82.52","ALERT A","2400302","2018-10-12 02:00","2018","10","12","02:00","-10.1","","-13.2","","78","","","","18","","4","","24.1","","100.31","","","","-12","","Mainly Clear"
"-62.28","82.52","ALERT A","2400302","2018-10-12 03:00","2018","10","12","03:00","-9.6","","-13.3","","74","","","","21","","13","","24.1","","100.33","","","","-16","","Mainly Clear"
"-62.28","82.52","ALERT A","2400302","2018-10-12 04:00","2018","10","12","04:00","-14.6","","-16.4","","86","","","","27","","7","","24.1","","100.36","","","","-19","","Mainly Clear"
"-62.28","82.52","ALERT A","2400302","2018-10-12 05:00","2018","10","12","05:00","-14.4","","-15.6","","91","","","","32","","15","","24.1","","100.38","","","","-22","","Mainly Clear"
"-62.28","82.52","ALERT A","2400302","2018-10-12 06:00","2018","10","12","06:00","-15.5","","-16.6","","91","","","","32","","7","","16.1","","100.40","","","","-20","","Mainly Clear"
"-62.28","82.52","ALERT A","2400302","2018-10-12 07:00","2018","10","12","07:00","-16.2","","-17.3","","91","","","","31","","11","","16.1","","100.43","","","","-23","","Mostly Cloudy"
"-62.28","82.52","ALERT A","2400302","2018-10-12 08:00","2018","10","12","08:00","-16.2","","-17.6","","89","","","","30","","13","","19.3","","100.47","","","","-24","","Snow"
"-62.28","82.52","ALERT A","2400302","2018-10-12 09:00","2018","10","12","09:00","-17.1","","-18.5","","89","","","","29","","15","","24.1","","100.45","","","","-26","","Mostly Cloudy"
"-62.28","82.52","ALERT A","2400302","2018-10-12 10:00","2018","10","12","10:00","-18.6","","-20.3","","86","","","","34","","9","","24.1","","100.45","","","","-25","","Mostly Cloudy"
"-62.28","82.52","ALERT A","2400302","2018-10-12 11:00","2018","10","12","11:00","-19.3","","-20.9","","87","","","","31","","7","","24.1","","100.44","","","","-25","","Mainly Clear"
"-62.28","82.52","ALERT A","2400302","2018-10-12 12:00","2018","10","12","12:00","-19.2","","-20.8","","87","","","","28","","15","","24.1","","100.45","","","","-28","","Mainly Clear"
"-62.28","82.52","ALERT A","2400302","2018-10-12 13:00","2018","10","12","13:00","-19.3","","-20.5","","90","","","","26","","17","","24.1","","100.45","","","","-29","","Mainly Clear"
"-62.28","82.52","ALERT A","2400302","2018-10-12 14:00","2018","10","12","14:00","-21.1","","-22.5","","88","","","","28","","6","","24.1","","100.46","","","","-26","","Mainly Clear"
"-62.28","82.52","ALERT A","2400302","2018-10-12 15:00","2018","10","12","15:00","-19.2","","-21.1","","85","","","","12","","4","","24.1","","100.47","","","","-23","","Mainly Clear"
"-62.28","82.52","ALERT A","2400302","2018-10-12 16:00","2018","10","12","16:00"
"-62.28","82.52","ALERT A","2400302","2018-10-12 17:00","2018","10","12","17:00"
"-62.28","82.52","ALERT A","2400302","2018-10-12 18:00","2018","10","12","18:00"
"-62.28","82.52","ALERT A","2400302","2018-10-12 19:00","2018","10","12","19:00"
"-62.28","82.52","ALERT A","2400302","2018-10-12 20:00","2018","10","12","20:00"
"-62.28","82.52","ALERT A","2400302","2018-10-12 21:00","2018","10","12","21:00"
"-62.28","82.52","ALERT A","2400302","2018-10-12 22:00","2018","10","12","22:00"
"-62.28","82.52","ALERT A","2400302","2018-10-12 23:00","2018","10","12","23:00"
"-62.28","82.52","ALERT A","2400302","2018-10-13 00:00","2018","10","13","00:00"
"-62.28","82.52","ALERT A","2400302","2018-10-13 01:00","2018","10","13","01:00"
"-62.28","82.52","ALERT A","2400302","2018-10-13 02:00","2018","10","13","02:00"
"-62.28","82.52","ALERT A","2400302","2018-10-13 03:00","2018","10","13","03:00"
"-62.28","82.52","ALERT A","2400302","2018-10-13 04:00","2018","10","13","04:00"
"-62.28","82.52","ALERT A","2400302","2018-10-13 05:00","2018","10","13","05:00"
"-62.28","82.52","ALERT A","2400302","2018-10-13 06:00","2018","10","13","06:00"
"-62.28","82.52","ALERT A","2400302","2018-10-13 07:00","2018","10","13","07:00"
"-62.28","82.52","ALERT A","2400302","2018-10-13 08:00","2018","10","13","08:00"
"-62.28","82.52","ALERT A","2400302","2018-10-13 09:00","2018","10","13","09:00"
"-62.28","82.52","ALERT A","2400302","2018-10-13 10:00","2018","10","13","10:00"
"-62.28","82.52","ALERT A","2400302","2018-10-13 11:00","2018","10","13","11:00"
"-62.28","82.52","ALERT A","2400302","2018-10-13 12:00","2018","10","13","12:00"
"-62.28","82.52","ALERT A","2400302","2018-10-13 13:00","2018","10","13","13:00"
"-62.28","82.52","ALERT A","2400302","2018-10-13 14:00","2018","10","13","14:00"
"-62.28","82.52","ALERT A","2400302","2018-10-13 15:00","2018","10","13","15:00"
"-62.28","82.52","ALERT A","2400302","2018-10-13 16:00","2018","10","13","16:00"
"-62.28","82.52","ALERT A","2400302","2018-10-13 17:00","2018","10","13","17:00"
"-62.28","82.52","ALERT A","2400302","2018-10-13 18:00","2018","10","13","18:00"
"-62.28","82.52","ALERT A","2400302","2018-10-13 19:00","2018","10","13","19:00"
"-62.28","82.52","ALERT A","2400302","2018-10-13 20:00","2018","10","13","20:00"
"-62.28","82.52","ALERT A","2400302","2018-10-13 21:00","2018","10","13","21:00"
"-62.28","82.52","ALERT A","2400302","2018-10-13 22:00","2018","10","13","22:00"
"-62.28","82.52","ALERT A","2400302","2018-10-13 23:00","2018","10","13","23:00"
"-62.28","82.52","ALERT A","2400302","2018-10-14 00:00","2018","10","14","00:00"
"-62.28","82.52","ALERT A","2400302","2018-10-14 01:00","2018","10","14","01:00"
"-62.28","82.52","ALERT A","2400302","2018-10-14 02:00","2018","10","14","02:00"
"-62.28","82.52","ALERT A","2400302","2018-10-14 03:00","2018","10","14","03:00"
"-62.28","82.52","ALERT A","2400302","2018-10-14 04:00","2018","10","14","04:00"
"-62.28","82.52","ALERT A","2400302","2018-10-14 05:00","2018","10","14","05:00"
"-62.28","82.52","ALERT A","2400302","2018-10-14 06:00","2018","10","14","06:00"
"-62.28","82.52","ALERT A","2400302","2018-10-14 07:00","2018","10","14","07:00"
"-62.28","82.52","ALERT A","2400302","2018-10-14 08:00","2018","10","14","08:00"
"-62.28","82.52","ALERT A","2400302","2018-10-14 09:00","2018","10","14","09:00"
"-62.28","82.52","ALERT A","2400302","2018-10-14 10:00","2018","10","14","10:00"
"-62.28","82.52","ALERT A","2400302","2018-10-14 11:00","2018","10","14","11:00"
"-62.28","82.52","ALERT A","2400302","2018-10-14 12:00","2018","10","14","12:00"
"-62.28","82.52","ALERT A","2400302","2018-10-14 13:00","2018","10","14","13:00"
"-62.28","82.52","ALERT A","2400302","2018-10-14 14:00","2018","10","14","14:00"
"-62.28","82.52","ALERT A","2400302","2018-10-14 15:00","2018","10","14","15:00"
"-62.28","82.52","ALERT A","2400302","2018-10-14 16:00","2018","10","14","16:00"
"-62.28","82.52","ALERT A","2400302","2018-10-14 17:00","2018","10","14","17:00"
"-62.28","82.52","ALERT A","2400302","2018-10-14 18:00","2018","10","14","18:00"
"-62.28","82.52","ALERT A","2400302","2018-10-14 19:00","2018","10","14","19:00"
"-62.28","82.52","ALERT A","2400302","2018-10-14 20:00","2018","10","14","20:00"
"-62.28","82.52","ALERT A","2400302","2018-10-14 21:00","2018","10","14","21:00"
"-62.28","82.52","ALERT A","2400302","2018-10-14 22:00","2018","10","14","22:00"
"-62.28","82.52","ALERT A","2400302","2018-10-14 23:00","2018","10","14","23:00"
"-62.28","82.52","ALERT A","2400302","2018-10-15 00:00","2018","10","15","00:00"
"-62.28","82.52","ALERT A","2400302","2018-10-15 01:00","2018","10","15","01:00"
"-62.28","82.52","ALERT A","2400302","2018-10-15 02:00","2018","10","15","02:00"
"-62.28","82.52","ALERT A","2400302","2018-10-15 03:00","2018","10","15","03:00"
"-62.28","82.52","ALERT A","2400302","2018-10-15 04:00","2018","10","15","04:00"
"-62.28","82.52","ALERT A","2400302","2018-10-15 05:00","2018","10","15","05:00"
"-62.28","82.52","ALERT A","2400302","2018-10-15 06:00","2018","10","15","06:00"
"-62.28","82.52","ALERT A","2400302","2018-10-15 07:00","2018","10","15","07:00"
"-62.28","82.52","ALERT A","2400302","2018-10-15 08:00","2018","10","15","08:00","-11.6","","-12.9","","90","","","","32","","9","","9.7","","100.05","","","","-17","","Snow"
"-62.28","82.52","ALERT A","2400302","2018-10-15 09:00","2018","10","15","09:00","-11.5","","-12.6","","92","","","","33","","13","","2.0","","100.02","","","","-18","","Snow"
"-62.28","82.52","ALERT A","2400302","2018-10-15 10:00","2018","10","15","10:00","-11.3","","-12.5","","91","","","","34","","13","","2.4","","100.01","","","","-18","","Snow"
"-62.28","82.52","ALERT A","2400302","2018-10-15 11:00","2018","10","15","11:00","-11.3","","-12.9","","88","","","","36","","17","","3.2","","99.99","","","","-19","","Snow"
"-62.28","82.52","ALERT A","2400302","2018-10-15 12:00","2018","10","15","12:00","-11.3","","-12.6","","90","","","","33","","17","","2.0","","99.98","","","","-19","","Snow"
"-62.28","82.52","ALERT A","2400302","2018-10-15 13:00","2018","10","15","13:00","-11.5","","-12.8","","90","","","","33","","24","","2.0","","99.94","","","","-21","","Snow"
"-62.28","82.52","ALERT A","2400302","2018-10-15 14:00","2018","10","15","14:00","-11.3","","-12.7","","89","","","","33","","26","","2.0","","99.94","","","","-21","","Snow"
"-62.28","82.52","ALERT A","2400302","2018-10-15 15:00","2018","10","15","15:00","-11.3","","-12.5","","91","","","","32","","20","","2.0","","99.94","","","","-20","","Snow"
"-62.28","82.52","ALERT A","2400302","2018-10-15 16:00","2018","10","15","16:00"
"-62.28","82.52","ALERT A","2400302","2018-10-15 17:00","2018","10","15","17:00"
"-62.28","82.52","ALERT A","2400302","2018-10-15 18:00","2018","10","15","18:00"
"-62.28","82.52","ALERT A","2400302","2018-10-15 19:00","2018","10","15","19:00"
"-62.28","82.52","ALERT A","2400302","2018-10-15 20:00","2018","10","15","20:00"
"-62.28","82.52","ALERT A","2400302","2018-10-15 21:00","2018","10","15","21:00"
"-62.28","82.52","ALERT A","2400302","2018-10-15 22:00","2018","10","15","22:00"
"-62.28","82.52","ALERT A","2400302","2018-10-15 23:00","2018","10","15","23:00"
"-62.28","82.52","ALERT A","2400302","2018-10-16 00:00","2018","10","16","00:00"
"-62.28","82.52","ALERT A","2400302","2018-10-16 01:00","2018","10","16","01:00"
"-62.28","82.52","ALERT A","2400302","2018-10-16 02:00","2018","10","16","02:00","-11.0","","-12.0","","92","","","","1","","13","","1.6","","99.90","","","","-17","","Snow"
"-62.28","82.52","ALERT A","2400302","2018-10-16 03:00","2018","10","16","03:00","-11.0","","-12.2","","91","","","","36","","9","","1.6","","99.90","","","","-16","","Snow"
"-62.28","82.52","ALERT A","2400302","2018-10-16 04:00","2018","10","16","04:00","-10.8","","-12.1","","90","","","","1","","7","","2.4","","99.90","","","","-15","","Snow,Fog"
"-62.28","82.52","ALERT A","2400302","2018-10-16 05:00","2018","10","16","05:00","-11.8","","-12.9","","92","","","","4","","4","","3.2","","99.88","","","","-14","","Snow,Fog"
"-62.28","82.52","ALERT A","2400302","2018-10-16 06:00","2018","10","16","06:00","-12.4","","-13.2","","94","","","","17","","4","","3.2","","99.87","","","","-15","","Snow,Fog"
"-62.28","82.52","ALERT A","2400302","2018-10-16 07:00","2018","10","16","07:00","-12.2","","-13.4","","91","","","","21","","7","","3.2","","99.88","","","","-17","","Snow,Fog"
"-62.28","82.52","ALERT A","2400302","2018-10-16 08:00","2018","10","16","08:00","-11.6","","-12.7","","92","","","","21","","9","","4.8","","99.86","","","","-17","","Snow"
"-62.28","82.52","ALERT A","2400302","2018-10-16 09:00","2018","10","16","09:00","-12.4","","-13.2","","94","","","","21","","7","","3.2","","99.85","","","","-17","","Snow"
"-62.28","82.52","ALERT A","2400302","2018-10-16 10:00","2018","10","16","10:00","-14.5","","-15.7","","91","","","","22","","7","","16.1","","99.84","","","","-19","","Snow"
"-62.28","82.52","ALERT A","2400302","2018-10-16 11:00","2018","10","16","11:00","-11.0","","-12.0","","92","","","","25","","11","","3.2","","99.84","","","","-17","","Snow"
"-62.28","82.52","ALERT A","2400302","2018-10-16 12:00","2018","10","16","12:00","-11.3","","-12.4","","92","","","","23","","9","","4.8","","99.82","","","","-16","","Snow"
"-62.28","82.52","ALERT A","2400302","2018-10-16 13:00","2018","10","16","13:00","-10.5","","-11.5","","92","","","","27","","7","","9.7","","99.80","","","","-15","","Snow"
"-62.28","82.52","ALERT A","2400302","2018-10-16 14:00","2018","10","16","14:00","-9.7","","-10.9","","91","","","","","","0","","4.8","","99.80","","","","","","Snow"
"-62.28","82.52","ALERT A","2400302","2018-10-16 15:00","2018","10","16","15:00","-9.9","","-10.9","","92","","","","18","","6","","4.8","","99.82","","","","-13","","Snow"
"-62.28","82.52","ALERT A","2400302","2018-10-16 16:00","2018","10","16","16:00"
"-62.28","82.52","ALERT A","2400302","2018-10-16 17:00","2018","10","16","17:00"
"-62.28","82.52","ALERT A","2400302","2018-10-16 18:00","2018","10","16","18:00"
"-62.28","82.52","ALERT A","2400302","2018-10-16 19:00","2018","10","16","19:00"
"-62.28","82.52","ALERT A","2400302","2018-10-16 20:00","2018","10","16","20:00"
"-62.28","82.52","ALERT A","2400302","2018-10-16 21:00","2018","10","16","21:00"
"-62.28","82.52","ALERT A","2400302","2018-10-16 22:00","2018","10","16","22:00"
"-62.28","82.52","ALERT A","2400302","2018-10-16 23:00","2018","10","16","23:00"
"-62.28","82.52","ALERT A","2400302","2018-10-17 00:00","2018","10","17","00:00"
"-62.28","82.52","ALERT A","2400302","2018-10-17 01:00","2018","10","17","01:00"
"-62.28","82.52","ALERT A","2400302","2018-10-17 02:00","2018","10","17","02:00"
"-62.28","82.52","ALERT A","2400302","2018-10-17 03:00","2018","10","17","03:00"
"-62.28","82.52","ALERT A","2400302","2018-10-17 04:00","2018","10","17","04:00","-9.5","","-10.8","","90","","","","1","","4","","1.6","","100.04","","","","-12","","Fog"
"-62.28","82.52","ALERT A","2400302","2018-10-17 05:00","2018","10","17","05:00","-9.7","","-11.0","","90","","","","","","0","","3.2","","100.07","","","","","","Fog"
"-62.28","82.52","ALERT A","2400302","2018-10-17 06:00","2018","10","17","06:00","-10.1","","-11.3","","91","","","","30","","4","","4.8","","100.09","","","","-12","","Fog"
"-62.28","82.52","ALERT A","2400302","2018-10-17 07:00","2018","10","17","07:00","-9.9","","-11.1","","91","","","","","","0","","1.2","","100.08","","","","","","Fog"
"-62.28","82.52","ALERT A","2400302","2018-10-17 08:00","2018","10","17","08:00","-10.4","","-11.6","","91","","","","13","","4","","3.2","","100.09","","","","-13","","Fog"
"-62.28","82.52","ALERT A","2400302","2018-10-17 09:00","2018","10","17","09:00","-10.1","","-11.4","","90","","","","14","","4","","2.0","","100.08","","","","-12","","Fog"
"-62.28","82.52","ALERT A","2400302","2018-10-17 10:00","2018","10","17","10:00","-10.6","","-11.0","","97","","","","15","","4","","3.2","","100.06","","","","-13","","Fog"
"-62.28","82.52","ALERT A","2400302","2018-10-17 11:00","2018","10","17","11:00","-12.3","","-13.1","","94","","","","","","0","","11.3","","100.05","","","","","","Mostly Cloudy"
"-62.28","82.52","ALERT A","2400302","2018-10-17 12:00","2018","10","17","12:00","-12.8","","-14.6","","86","","","","15","","6","","12.9","","100.04","","","","-17","","Mostly Cloudy"
"-62.28","82.52","ALERT A","2400302","2018-10-17 13:00","2018","10","17","13:00","-13.2","","-14.9","","87","","","","22","","15","","16.1","","100.03","","","","-21","","Mostly Cloudy"
"-62.28","82.52","ALERT A","2400302","2018-10-17 14:00","2018","10","17","14:00","-15.1","","-17.1","","85","","","","23","","19","","16.1","","100.03","","","","-24","","Mostly Cloudy"
"-62.28","82.52","ALERT A","2400302","2018-10-17 15:00","2018","10","17","15:00","-15.8","","-17.7","","85","","","","23","","19","","16.1","","100.02","","","","-25","","Mostly Cloudy"
"-62.28","82.52","ALERT A","2400302","2018-10-17 16:00","2018","10","17","16:00","-16.8","","-18.5","","87","","","","25","","15","","16.1","","100.03","","","","-25","","Mostly Cloudy"
"-62.28","82.52","ALERT A","2400302","2018-10-17 17:00","2018","10","17","17:00"
"-62.28","82.52","ALERT A","2400302","2018-10-17 18:00","2018","10","17","18:00"
"-62.28","82.52","ALERT A","2400302","2018-10-17 19:00","2018","10","17","19:00"
"-62.28","82.52","ALERT A","2400302","2018-10-17 20:00","2018","10","17","20:00"
"-62.28","82.52","ALERT A","2400302","2018-10-17 21:00","2018","10","17","21:00"
"-62.28","82.52","ALERT A","2400302","2018-10-17 22:00","2018","10","17","22:00"
"-62.28","82.52","ALERT A","2400302","2018-10-17 23:00","2018","10","17","23:00"
"-62.28","82.52","ALERT A","2400302","2018-10-18 00:00","2018","10","18","00:00"
"-62.28","82.52","ALERT A","2400302","2018-10-18 01:00","2018","10","18","01:00"
"-62.28","82.52","ALERT A","2400302","2018-10-18 02:00","2018","10","18","02:00"
"-62.28","82.52","ALERT A","2400302","2018-10-18 03:00","2018","10","18","03:00"
"-62.28","82.52","ALERT A","2400302","2018-10-18 04:00","2018","10","18","04:00"
"-62.28","82.52","ALERT A","2400302","2018-10-18 05:00","2018","10","18","05:00"
"-62.28","82.52","ALERT A","2400302","2018-10-18 06:00","2018","10","18","06:00"
"-62.28","82.52","ALERT A","2400302","2018-10-18 07:00","2018","10","18","07:00"
"-62.28","82.52","ALERT A","2400302","2018-10-18 08:00","2018","10","18","08:00","-10.9","","-12.0","","92","","","","33","","28","","6.4","","99.72","","","","-20","","Snow"
"-62.28","82.52","ALERT A","2400302","2018-10-18 09:00","2018","10","18","09:00","-10.6","","-11.7","","92","","","","34","","28","","8.0","","99.69","","","","-20","","Snow"
"-62.28","82.52","ALERT A","2400302","2018-10-18 10:00","2018","10","18","10:00","-10.0","","-11.1","","92","","","","33","","37","","4.8","","99.66","","","","-20","","Snow"
"-62.28","82.52","ALERT A","2400302","2018-10-18 11:00","2018","10","18","11:00","-9.2","","-10.1","","93","","","","32","","35","","2.4","","99.63","","","","-19","","Snow"
"-62.28","82.52","ALERT A","2400302","2018-10-18 12:00","2018","10","18","12:00","-9.2","","-10.1","","93","","","","33","","35","","2.4","","99.61","","","","-19","","Snow"
"-62.28","82.52","ALERT A","2400302","2018-10-18 13:00","2018","10","18","13:00","-9.0","","-10.0","","92","","","","33","","32","","3.2","","99.60","","","","-18","","Snow"
"-62.28","82.52","ALERT A","2400302","2018-10-18 14:00","2018","10","18","14:00","-8.5","","-9.5","","92","","","","33","","44","","0.6","","99.59","","","","-19","","Moderate Snow"
"-62.28","82.52","ALERT A","2400302","2018-10-18 15:00","2018","10","18","15:00","-8.3","","-9.1","","94","","","","33","","39","","0.4","","99.63","","","","-18","","Heavy Snow"
"-62.28","82.52","ALERT A","2400302","2018-10-18 16:00","2018","10","18","16:00","-8.4","","-9.3","","93","","","","32","","46","","1.0","","99.63","","","","-19","","Moderate Snow,Blowing Snow"
"-62.28","82.52","ALERT A","2400302","2018-10-18 17:00","2018","10","18","17:00"
"-62.28","82.52","ALERT A","2400302","2018-10-18 18:00","2018","10","18","18:00"
"-62.28","82.52","ALERT A","2400302","2018-10-18 19:00","2018","10","18","19:00"
"-62.28","82.52","ALERT A","2400302","2018-10-18 20:00","2018","10","18","20:00"
"-62.28","82.52","ALERT A","2400302","2018-10-18 21:00","2018","10","18","21:00"
"-62.28","82.52","ALERT A","2400302","2018-10-18 22:00","2018","10","18","22:00"
"-62.28","82.52","ALERT A","2400302","2018-10-18 23:00","2018","10","18","23:00"
"-62.28","82.52","ALERT A","2400302","2018-10-19 00:00","2018","10","19","00:00"
"-62.28","82.52","ALERT A","2400302","2018-10-19 01:00","2018","10","19","01:00"
"-62.28","82.52","ALERT A","2400302","2018-10-19 02:00","2018","10","19","02:00"
"-62.28","82.52","ALERT A","2400302","2018-10-19 03:00","2018","10","19","03:00"
"-62.28","82.52","ALERT A","2400302","2018-10-19 04:00","2018","10","19","04:00"
"-62.28","82.52","ALERT A","2400302","2018-10-19 05:00","2018","10","19","05:00"
"-62.28","82.52","ALERT A","2400302","2018-10-19 06:00","2018","10","19","06:00"
"-62.28","82.52","ALERT A","2400302","2018-10-19 07:00","2018","10","19","07:00"
"-62.28","82.52","ALERT A","2400302","2018-10-19 08:00","2018","10","19","08:00"
"-62.28","82.52","ALERT A","2400302","2018-10-19 09:00","2018","10","19","09:00"
"-62.28","82.52","ALERT A","2400302","2018-10-19 10:00","2018","10","19","10:00"
"-62.28","82.52","ALERT A","2400302","2018-10-19 11:00","2018","10","19","11:00"
"-62.28","82.52","ALERT A","2400302","2018-10-19 12:00","2018","10","19","12:00"
"-62.28","82.52","ALERT A","2400302","2018-10-19 13:00","2018","10","19","13:00"
"-62.28","82.52","ALERT A","2400302","2018-10-19 14:00","2018","10","19","14:00"
"-62.28","82.52","ALERT A","2400302","2018-10-19 15:00","2018","10","19","15:00"
"-62.28","82.52","ALERT A","2400302","2018-10-19 16:00","2018","10","19","16:00"
"-62.28","82.52","ALERT A","2400302","2018-10-19 17:00","2018","10","19","17:00"
"-62.28","82.52","ALERT A","2400302","2018-10-19 18:00","2018","10","19","18:00"
"-62.28","82.52","ALERT A","2400302","2018-10-19 19:00","2018","10","19","19:00"
"-62.28","82.52","ALERT A","2400302","2018-10-19 20:00","2018","10","19","20:00"
"-62.28","82.52","ALERT A","2400302","2018-10-19 21:00","2018","10","19","21:00"
"-62.28","82.52","ALERT A","2400302","2018-10-19 22:00","2018","10","19","22:00"
"-62.28","82.52","ALERT A","2400302","2018-10-19 23:00","2018","10","19","23:00"
"-62.28","82.52","ALERT A","2400302","2018-10-20 00:00","2018","10","20","00:00"
"-62.28","82.52","ALERT A","2400302","2018-10-20 01:00","2018","10","20","01:00"
"-62.28","82.52","ALERT A","2400302","2018-10-20 02:00","2018","10","20","02:00"
"-62.28","82.52","ALERT A","2400302","2018-10-20 03:00","2018","10","20","03:00"
"-62.28","82.52","ALERT A","2400302","2018-10-20 04:00","2018","10","20","04:00"
"-62.28","82.52","ALERT A","2400302","2018-10-20 05:00","2018","10","20","05:00"
"-62.28","82.52","ALERT A","2400302","2018-10-20 06:00","2018","10","20","06:00"
"-62.28","82.52","ALERT A","2400302","2018-10-20 07:00","2018","10","20","07:00"
"-62.28","82.52","ALERT A","2400302","2018-10-20 08:00","2018","10","20","08:00"
"-62.28","82.52","ALERT A","2400302","2018-10-20 09:00","2018","10","20","09:00"
"-62.28","82.52","ALERT A","2400302","2018-10-20 10:00","2018","10","20","10:00"
"-62.28","82.52","ALERT A","2400302","2018-10-20 11:00","2018","10","20","11:00"
"-62.28","82.52","ALERT A","2400302","2018-10-20 12:00","2018","10","20","12:00"
"-62.28","82.52","ALERT A","2400302","2018-10-20 13:00","2018","10","20","13:00"
"-62.28","82.52","ALERT A","2400302","2018-10-20 14:00","2018","10","20","14:00"
"-62.28","82.52","ALERT A","2400302","2018-10-20 15:00","2018","10","20","15:00"
"-62.28","82.52","ALERT A","2400302","2018-10-20 16:00","2018","10","20","16:00"
"-62.28","82.52","ALERT A","2400302","2018-10-20 17:00","2018","10","20","17:00"
"-62.28","82.52","ALERT A","2400302","2018-10-20 18:00","2018","10","20","18:00"
"-62.28","82.52","ALERT A","2400302","2018-10-20 19:00","2018","10","20","19:00"
"-62.28","82.52","ALERT A","2400302","2018-10-20 20:00","2018","10","20","20:00"
"-62.28","82.52","ALERT A","2400302","2018-10-20 21:00","2018","10","20","21:00"
"-62.28","82.52","ALERT A","2400302","2018-10-20 22:00","2018","10","20","22:00"
"-62.28","82.52","ALERT A","2400302","2018-10-20 23:00","2018","10","20","23:00"
"-62.28","82.52","ALERT A","2400302","2018-10-21 00:00","2018","10","21","00:00"
"-62.28","82.52","ALERT A","2400302","2018-10-21 01:00","2018","10","21","01:00"
"-62.28","82.52","ALERT A","2400302","2018-10-21 02:00","2018","10","21","02:00"
"-62.28","82.52","ALERT A","2400302","2018-10-21 03:00","2018","10","21","03:00"
"-62.28","82.52","ALERT A","2400302","2018-10-21 04:00","2018","10","21","04:00"
"-62.28","82.52","ALERT A","2400302","2018-10-21 05:00","2018","10","21","05:00"
"-62.28","82.52","ALERT A","2400302","2018-10-21 06:00","2018","10","21","06:00"
"-62.28","82.52","ALERT A","2400302","2018-10-21 07:00","2018","10","21","07:00"
"-62.28","82.52","ALERT A","2400302","2018-10-21 08:00","2018","10","21","08:00"
"-62.28","82.52","ALERT A","2400302","2018-10-21 09:00","2018","10","21","09:00"
"-62.28","82.52","ALERT A","2400302","2018-10-21 10:00","2018","10","21","10:00"
"-62.28","82.52","ALERT A","2400302","2018-10-21 11:00","2018","10","21","11:00"
"-62.28","82.52","ALERT A","2400302","2018-10-21 12:00","2018","10","21","12:00"
"-62.28","82.52","ALERT A","2400302","2018-10-21 13:00","2018","10","21","13:00"
"-62.28","82.52","ALERT A","2400302","2018-10-21 14:00","2018","10","21","14:00"
"-62.28","82.52","ALERT A","2400302","2018-10-21 15:00","2018","10","21","15:00"
"-62.28","82.52","ALERT A","2400302","2018-10-21 16:00","2018","10","21","16:00"
"-62.28","82.52","ALERT A","2400302","2018-10-21 17:00","2018","10","21","17:00"
"-62.28","82.52","ALERT A","2400302","2018-10-21 18:00","2018","10","21","18:00"
"-62.28","82.52","ALERT A","2400302","2018-10-21 19:00","2018","10","21","19:00"
"-62.28","82.52","ALERT A","2400302","2018-10-21 20:00","2018","10","21","20:00"
"-62.28","82.52","ALERT A","2400302","2018-10-21 21:00","2018","10","21","21:00"
"-62.28","82.52","ALERT A","2400302","2018-10-21 22:00","2018","10","21","22:00"
"-62.28","82.52","ALERT A","2400302","2018-10-21 23:00","2018","10","21","23:00"
"-62.28","82.52","ALERT A","2400302","2018-10-22 00:00","2018","10","22","00:00"
"-62.28","82.52","ALERT A","2400302","2018-10-22 01:00","2018","10","22","01:00"
"-62.28","82.52","ALERT A","2400302","2018-10-22 02:00","2018","10","22","02:00","-15.2","","-18.1","","78","","","","23","","20","","16.1","","101.48","","","","-24","","Mainly Clear"
"-62.28","82.52","ALERT A","2400302","2018-10-22 03:00","2018","10","22","03:00","-15.2","","-18.0","","79","","","","23","","17","","16.1","","101.53","","","","-24","","Mainly Clear"
"-62.28","82.52","ALERT A","2400302","2018-10-22 04:00","2018","10","22","04:00","-16.3","","-19.1","","79","","","","24","","17","","16.1","","101.59","","","","-25","","Mainly Clear"
"-62.28","82.52","ALERT A","2400302","2018-10-22 05:00","2018","10","22","05:00","-18.0","","-20.3","","82","","","","2","","6","","16.1","","101.64","","","","-23","","Mainly Clear"
"-62.28","82.52","ALERT A","2400302","2018-10-22 06:00","2018","10","22","06:00","-16.2","","-19.0","","79","","","","10","","4","","16.1","","101.67","","","","-19","","Mostly Cloudy"
"-62.28","82.52","ALERT A","2400302","2018-10-22 07:00","2018","10","22","07:00","-17.4","","-19.4","","84","","","","18","","4","","16.1","","101.69","","","","-21","","Mostly Cloudy"
"-62.28","82.52","ALERT A","2400302","2018-10-22 08:00","2018","10","22","08:00","-16.7","","-18.7","","84","","","","18","","6","","12.9","","101.73","","","","-21","","Mostly Cloudy"
"-62.28","82.52","ALERT A","2400302","2018-10-22 09:00","2018","10","22","09:00","-18.1","","-19.3","","90","","","","21","","6","","12.9","","101.76","","","","-23","","Mostly Cloudy"
"-62.28","82.52","ALERT A","2400302","2018-10-22 10:00","2018","10","22","10:00","-19.5","","-21.4","","85","","","","13","","4","","24.1","","101.80","","","","-23","","Mostly Cloudy"
"-62.28","82.52","ALERT A","2400302","2018-10-22 11:00","2018","10","22","11:00","-15.7","","-17.5","","86","","","","25","","4","","24.1","","101.84","","","","-19","","Mostly Cloudy"
"-62.28","82.52","ALERT A","2400302","2018-10-22 12:00","2018","10","22","12:00","-18.3","","-19.6","","89","","","","30","","9","","24.1","","101.87","","","","-25","","Mostly Cloudy"
"-62.28","82.52","ALERT A","2400302","2018-10-22 13:00","2018","10","22","13:00","-17.3","","-19.4","","84","","","","19","","6","","24.1","","101.91","","","","-22","","Mostly Cloudy"
"-62.28","82.52","ALERT A","2400302","2018-10-22 14:00","2018","10","22","14:00","-15.8","","-18.2","","82","","","","22","","9","","24.1","","101.96","","","","-22","","Mostly Cloudy"
"-62.28","82.52","ALERT A","2400302","2018-10-22 15:00","2018","10","22","15:00","-15.7","","-18.7","","78","","","","25","","13","","24.1","","101.98","","","","-23","","Mostly Cloudy"
"-62.28","82.52","ALERT A","2400302","2018-10-22 16:00","2018","10","22","16:00","-15.2","","-18.6","","75","","","","23","","15","","24.1","","102.05","","","","-23","","Mostly Cloudy"
"-62.28","82.52","ALERT A","2400302","2018-10-22 17:00","2018","10","22","17:00"
"-62.28","82.52","ALERT A","2400302","2018-10-22 18:00","2018","10","22","18:00"
"-62.28","82.52","ALERT A","2400302","2018-10-22 19:00","2018","10","22","19:00"
"-62.28","82.52","ALERT A","2400302","2018-10-22 20:00","2018","10","22","20:00"
"-62.28","82.52","ALERT A","2400302","2018-10-22 21:00","2018","10","22","21:00"
"-62.28","82.52","ALERT A","2400302","2018-10-22 22:00","2018","10","22","22:00"
"-62.28","82.52","ALERT A","2400302","2018-10-22 23:00","2018","10","22","23:00"
"-62.28","82.52","ALERT A","2400302","2018-10-23 00:00","2018","10","23","00:00"
"-62.28","82.52","ALERT A","2400302","2018-10-23 01:00","2018","10","23","01:00"
"-62.28","82.52","ALERT A","2400302","2018-10-23 02:00","2018","10","23","02:00"
"-62.28","82.52","ALERT A","2400302","2018-10-23 03:00","2018","10","23","03:00"
"-62.28","82.52","ALERT A","2400302","2018-10-23 04:00","2018","10","23","04:00","-15.1","","-17.3","","83","","","","","","0","","24.1","","102.43","","","","","","Mostly Cloudy"
"-62.28","82.52","ALERT A","2400302","2018-10-23 05:00","2018","10","23","05:00","-17.0","","-19.3","","82","","","","16","","6","","24.1","","102.48","","","","-22","","Mostly Cloudy"
"-62.28","82.52","ALERT A","2400302","2018-10-23 06:00","2018","10","23","06:00","-17.1","","-19.4","","82","","","","27","","4","","24.1","","102.50","","","","-20","","Mostly Cloudy"
"-62.28","82.52","ALERT A","2400302","2018-10-23 07:00","2018","10","23","07:00","-19.2","","-20.5","","89","","","","26","","4","","24.1","","102.53","","","","-23","","Snow"
"-62.28","82.52","ALERT A","2400302","2018-10-23 08:00","2018","10","23","08:00","-17.6","","-19.7","","84","","","","","","0","","16.1","","102.55","","","","","","Snow"
"-62.28","82.52","ALERT A","2400302","2018-10-23 09:00","2018","10","23","09:00","-17.7","","-19.3","","87","","","","26","","4","","16.1","","102.57","","","","-21","","Snow"
"-62.28","82.52","ALERT A","2400302","2018-10-23 10:00","2018","10","23","10:00","-15.3","","-16.9","","88","","","","29","","7","","11.3","","102.59","","","","-20","","Snow"
"-62.28","82.52","ALERT A","2400302","2018-10-23 11:00","2018","10","23","11:00","-15.0","","-16.6","","88","","","","29","","11","","12.9","","102.60","","","","-22","","Snow"
"-62.28","82.52","ALERT A","2400302","2018-10-23 12:00","2018","10","23","12:00","-15.9","","-17.6","","87","","","","28","","13","","12.9","","102.62","","","","-23","","Snow"
"-62.28","82.52","ALERT A","2400302","2018-10-23 13:00","2018","10","23","13:00","-16.5","","-17.9","","89","","","","33","","11","","12.9","","102.62","","","","-23","","Snow"
"-62.28","82.52","ALERT A","2400302","2018-10-23 14:00","2018","10","23","14:00","-15.5","","-17.1","","88","","","","29","","6","","12.9","","102.62","","","","-20","","Snow"
"-62.28","82.52","ALERT A","2400302","2018-10-23 15:00","2018","10","23","15:00","-15.2","","-16.8","","88","","","","35","","7","","19.3","","102.64","","","","-20","","Snow"
"-62.28","82.52","ALERT A","2400302","2018-10-23 16:00","2018","10","23","16:00","-16.2","","-17.8","","87","","","","","","0","","19.3","","102.65","","","","","","Snow"
"-62.28","82.52","ALERT A","2400302","2018-10-23 17:00","2018","10","23","17:00"
"-62.28","82.52","ALERT A","2400302","2018-10-23 18:00","2018","10","23","18:00"
"-62.28","82.52","ALERT A","2400302","2018-10-23 19:00","2018","10","23","19:00"
"-62.28","82.52","ALERT A","2400302","2018-10-23 20:00","2018","10","23","20:00"
"-62.28","82.52","ALERT A","2400302","2018-10-23 21:00","2018","10","23","21:00"
"-62.28","82.52","ALERT A","2400302","2018-10-23 22:00","2018","10","23","22:00"
"-62.28","82.52","ALERT A","2400302","2018-10-23 23:00","2018","10","23","23:00"
"-62.28","82.52","ALERT A","2400302","2018-10-24 00:00","2018","10","24","00:00"
"-62.28","82.52","ALERT A","2400302","2018-10-24 01:00","2018","10","24","01:00"
"-62.28","82.52","ALERT A","2400302","2018-10-24 02:00","2018","10","24","02:00"
"-62.28","82.52","ALERT A","2400302","2018-10-24 03:00","2018","10","24","03:00"
"-62.28","82.52","ALERT A","2400302","2018-10-24 04:00","2018","10","24","04:00"
"-62.28","82.52","ALERT A","2400302","2018-10-24 05:00","2018","10","24","05:00"
"-62.28","82.52","ALERT A","2400302","2018-10-24 06:00","2018","10","24","06:00"
"-62.28","82.52","ALERT A","2400302","2018-10-24 07:00","2018","10","24","07:00"
"-62.28","82.52","ALERT A","2400302","2018-10-24 08:00","2018","10","24","08:00","-16.7","","-18.5","","86","","","","35","","11","","6.4","","102.69","","","","-24","","Snow,Fog"
"-62.28","82.52","ALERT A","2400302","2018-10-24 09:00","2018","10","24","09:00","-16.3","","-18.0","","87","","","","35","","11","","8.0","","102.70","","","","-23","","Snow,Fog"
"-62.28","82.52","ALERT A","2400302","2018-10-24 10:00","2018","10","24","10:00","-15.9","","-17.6","","87","","","","35","","13","","8.0","","102.71","","","","-23","","Snow,Fog"
"-62.28","82.52","ALERT A","2400302","2018-10-24 11:00","2018","10","24","11:00","-15.5","","-17.2","","87","","","","35","","17","","4.0","","102.72","","","","-24","","Snow,Fog"
"-62.28","82.52","ALERT A","2400302","2018-10-24 12:00","2018","10","24","12:00","-15.3","","-17.1","","86","","","","35","","15","","3.2","","102.73","","","","-23","","Snow,Fog"
"-62.28","82.52","ALERT A","2400302","2018-10-24 13:00","2018","10","24","13:00","-15.3","","-17.0","","87","","","","36","","15","","2.4","","102.74","","","","-23","","Snow,Fog"
"-62.28","82.52","ALERT A","2400302","2018-10-24 14:00","2018","10","24","14:00","-15.3","","-17.1","","86","","","","35","","13","","4.0","","102.75","","","","-23","","Snow,Fog"
"-62.28","82.52","ALERT A","2400302","2018-10-24 15:00","2018","10","24","15:00","-15.3","","-17.0","","87","","","","33","","9","","3.2","","102.79","","","","-21","","Snow,Fog"
"-62.28","82.52","ALERT A","2400302","2018-10-24 16:00","2018","10","24","16:00","-15.2","","-17.0","","86","","","","35","","9","","3.2","","102.83","","","","-21","","Snow,Fog"
"-62.28","82.52","ALERT A","2400302","2018-10-24 17:00","2018","10","24","17:00"
"-62.28","82.52","ALERT A","2400302","2018-10-24 18:00","2018","10","24","18:00"
"-62.28","82.52","ALERT A","2400302","2018-10-24 19:00","2018","10","24","19:00"
"-62.28","82.52","ALERT A","2400302","2018-10-24 20:00","2018","10","24","20:00"
"-62.28","82.52","ALERT A","2400302","2018-10-24 21:00","2018","10","24","21:00"
"-62.28","82.52","ALERT A","2400302","2018-10-24 22:00","2018","10","24","22:00"
"-62.28","82.52","ALERT A","2400302","2018-10-24 23:00","2018","10","24","23:00"
"-62.28","82.52","ALERT A","2400302","2018-10-25 00:00","2018","10","25","00:00"
"-62.28","82.52","ALERT A","2400302","2018-10-25 01:00","2018","10","25","01:00"
"-62.28","82.52","ALERT A","2400302","2018-10-25 02:00","2018","10","25","02:00","-20.9","","-23.5","","80","","","","19","","11","","16.1","","103.09","","","","-29","","Mainly Clear"
"-62.28","82.52","ALERT A","2400302","2018-10-25 03:00","2018","10","25","03:00","-22.2","","-25.1","","77","","","","22","","17","","24.1","","103.11","","","","-32","","Mainly Clear"
"-62.28","82.52","ALERT A","2400302","2018-10-25 04:00","2018","10","25","04:00","-23.6","","-26.6","","76","","","","27","","4","","24.1","","103.14","","","","-27","","Mainly Clear"
"-62.28","82.52","ALERT A","2400302","2018-10-25 05:00","2018","10","25","05:00","-22.5","","-25.1","","79","","","","22","","6","","24.1","","103.16","","","","-28","","Mainly Clear"
"-62.28","82.52","ALERT A","2400302","2018-10-25 06:00","2018","10","25","06:00","-24.4","","-26.7","","81","","","","19","","4","","24.1","","103.21","","","","-28","","Mainly Clear"
"-62.28","82.52","ALERT A","2400302","2018-10-25 07:00","2018","10","25","07:00","-20.8","","-24.7","","71","","","","","","0","","24.1","","103.23","","","","","","Mainly Clear"
"-62.28","82.52","ALERT A","2400302","2018-10-25 08:00","2018","10","25","08:00","-23.4","","-27.7","","68","","","","1","","4","","24.1","","103.26","","","","-27","","Mainly Clear"
"-62.28","82.52","ALERT A","2400302","2018-10-25 09:00","2018","10","25","09:00","-22.6","","-27.2","","66","","","","16","","6","","24.1","","103.26","","","","-28","","Mainly Clear"
"-62.28","82.52","ALERT A","2400302","2018-10-25 10:00","2018","10","25","10:00","-23.2","","-26.7","","73","","","","","","0","","24.1","","103.28","","","","","","Mainly Clear"
"-62.28","82.52","ALERT A","2400302","2018-10-25 11:00","2018","10","25","11:00","-25.8","","-30.0","","68","","","","","","0","","24.1","","103.28","","","","","","Mainly Clear"
"-62.28","82.52","ALERT A","2400302","2018-10-25 12:00","2018","10","25","12:00","-22.6","","-25.8","","75","","","","19","","4","","24.1","","103.29","","","","-26","","Mainly Clear"
"-62.28","82.52","ALERT A","2400302","2018-10-25 13:00","2018","10","25","13:00","-26.0","","-30.4","","66","","","","20","","7","","24.1","","103.30","","","","-33","","Mainly Clear"
"-62.28","82.52","ALERT A","2400302","2018-10-25 14:00","2018","10","25","14:00","-23.2","","-26.6","","74","","","","34","","11","","24.1","","103.32","","","","-31","","Mainly Clear"
"-62.28","82.52","ALERT A","2400302","2018-10-25 15:00","2018","10","25","15:00","-24.7","","-27.7","","76","","","","34","","7","","24.1","","103.37","","","","-31","","Mainly Clear"
"-62.28","82.52","ALERT A","2400302","2018-10-25 16:00","2018","10","25","16:00","-21.8","","-25.1","","75","","","","32","","7","","24.1","","103.41","","","","-28","","Mainly Clear"
"-62.28","82.52","ALERT A","2400302","2018-10-25 17:00","2018","10","25","17:00"
"-62.28","82.52","ALERT A","2400302","2018-10-25 18:00","2018","10","25","18:00"
"-62.28","82.52","ALERT A","2400302","2018-10-25 19:00","2018","10","25","19:00"
"-62.28","82.52","ALERT A","2400302","2018-10-25 20:00","2018","10","25","20:00"
"-62.28","82.52","ALERT A","2400302","2018-10-25 21:00","2018","10","25","21:00"
"-62.28","82.52","ALERT A","2400302","2018-10-25 22:00","2018","10","25","22:00"
"-62.28","82.52","ALERT A","2400302","2018-10-25 23:00","2018","10","25","23:00"
"-62.28","82.52","ALERT A","2400302","2018-10-26 00:00","2018","10","26","00:00"
"-62.28","82.52","ALERT A","2400302","2018-10-26 01:00","2018","10","26","01:00"
"-62.28","82.52","ALERT A","2400302","2018-10-26 02:00","2018","10","26","02:00","-24.3","","-27.3","","76","","","","","","0","","6.4","","103.69","","","","","","Fog"
"-62.28","82.52","ALERT A","2400302","2018-10-26 03:00","2018","10","26","03:00","-25.2","","-28.8","","72","","","","13","","6","","8.0","","103.70","","","","-31","","Fog"
"-62.28","82.52","ALERT A","2400302","2018-10-26 04:00","2018","10","26","04:00","-25.7","","-29.4","","71","","","","12","","6","","2.0","","103.70","","","","-32","","Fog"
"-62.28","82.52","ALERT A","2400302","2018-10-26 05:00","2018","10","26","05:00","-22.3","","-25.6","","74","","","","17","","6","","12.9","","103.72","","","","-28","","Mainly Clear"
"-62.28","82.52","ALERT A","2400302","2018-10-26 06:00","2018","10","26","06:00","-24.9","","-29.4","","66","","","","32","","6","","12.9","","103.69","","","","-31","","Clear"
"-62.28","82.52","ALERT A","2400302","2018-10-26 07:00","2018","10","26","07:00","-26.1","","-30.1","","69","","","","26","","4","","19.3","","103.67","","","","-30","","Mainly Clear"
"-62.28","82.52","ALERT A","2400302","2018-10-26 08:00","2018","10","26","08:00","-26.4","","-30.0","","72","","","","","","0","","24.1","","103.65","","","","","","Mainly Clear"
"-62.28","82.52","ALERT A","2400302","2018-10-26 09:00","2018","10","26","09:00","-24.2","","-27.4","","75","","","","32","","6","","24.1","","103.60","","","","-30","","Mainly Clear"
"-62.28","82.52","ALERT A","2400302","2018-10-26 10:00","2018","10","26","10:00","-22.7","","-25.6","","77","","","","18","","7","","24.1","","103.57","","","","-29","","Clear"
"-62.28","82.52","ALERT A","2400302","2018-10-26 11:00","2018","10","26","11:00","-25.6","","-29.7","","68","","","","33","","7","","24.1","","103.54","","","","-32","","Clear"
"-62.28","82.52","ALERT A","2400302","2018-10-26 12:00","2018","10","26","12:00","-25.4","","-28.8","","73","","","","2","","4","","24.1","","103.50","","","","-29","","Clear"
"-62.28","82.52","ALERT A","2400302","2018-10-26 13:00","2018","10","26","13:00","-26.3","","-29.8","","72","","","","33","","4","","24.1","","103.46","","","","-30","","Clear"
"-62.28","82.52","ALERT A","2400302","2018-10-26 14:00","2018","10","26","14:00","-24.6","","-29.2","","66","","","","33","","7","","24.1","","103.41","","","","-31","","Clear"
"-62.28","82.52","ALERT A","2400302","2018-10-26 15:00","2018","10","26","15:00","-26.5","","-31.2","","64","","","","34","","6","","24.1","","103.35","","","","-32","","Clear"
"-62.28","82.52","ALERT A","2400302","2018-10-26 16:00","2018","10","26","16:00","-27.1","","-30.7","","71","","","","32","","6","","24.1","","103.30","","","","-33","","Clear"
"-62.28","82.52","ALERT A","2400302","2018-10-26 17:00","2018","10","26","17:00"
"-62.28","82.52","ALERT A","2400302","2018-10-26 18:00","2018","10","26","18:00"
"-62.28","82.52","ALERT A","2400302","2018-10-26 19:00","2018","10","26","19:00"
"-62.28","82.52","ALERT A","2400302","2018-10-26 20:00","2018","10","26","20:00"
"-62.28","82.52","ALERT A","2400302","2018-10-26 21:00","2018","10","26","21:00"
"-62.28","82.52","ALERT A","2400302","2018-10-26 22:00","2018","10","26","22:00"
"-62.28","82.52","ALERT A","2400302","2018-10-26 23:00","2018","10","26","23:00"
"-62.28","82.52","ALERT A","2400302","2018-10-27 00:00","2018","10","27","00:00"
"-62.28","82.52","ALERT A","2400302","2018-10-27 01:00","2018","10","27","01:00"
"-62.28","82.52","ALERT A","2400302","2018-10-27 02:00","2018","10","27","02:00","-29.4","","-33.6","","67","","","","25","","9","","1.0","","102.02","","","","-38","","Snow,Fog"
"-62.28","82.52","ALERT A","2400302","2018-10-27 03:00","2018","10","27","03:00","-27.8","","-31.8","","69","","","","28","","17","","6.4","","101.83","","","","-39","","Snow,Fog"
"-62.28","82.52","ALERT A","2400302","2018-10-27 04:00","2018","10","27","04:00","-28.2","","-32.1","","69","","","","30","","19","","12.9","","101.65","","","","-41","","Mainly Clear"
"-62.28","82.52","ALERT A","2400302","2018-10-27 05:00","2018","10","27","05:00","-28.0","","-31.8","","70","","","","32","","15","","12.9","","101.45","","","","-39","","Mainly Clear"
"-62.28","82.52","ALERT A","2400302","2018-10-27 06:00","2018","10","27","06:00","-25.9","","-29.4","","72","","","","31","","20","","16.1","","101.26","","","","-38","","Mainly Clear"
"-62.28","82.52","ALERT A","2400302","2018-10-27 07:00","2018","10","27","07:00","-22.9","","-26.2","","74","","","","31","","33","","16.1","","101.00","","","","-37","","Mainly Clear"
"-62.28","82.52","ALERT A","2400302","2018-10-27 08:00","2018","10","27","08:00","-22.0","","-25.2","","75","","","","32","","39","","2.8","","100.76","","","","-37","","Fog"
"-62.28","82.52","ALERT A","2400302","2018-10-27 09:00","2018","10","27","09:00","-22.2","","-25.5","","74","","","","33","","41","","9.7","","100.57","","","","-37","","Fog"
"-62.28","82.52","ALERT A","2400302","2018-10-27 10:00","2018","10","27","10:00","-21.5","","-24.5","","77","","","","33","","35","","16.1","","100.44","","","","-35","","Mainly Clear"
"-62.28","82.52","ALERT A","2400302","2018-10-27 11:00","2018","10","27","11:00","-20.1","","-23.1","","77","","","","32","","56","","0.8","","100.27","","","","-36","","Blowing Snow"
"-62.28","82.52","ALERT A","2400302","2018-10-27 12:00","2018","10","27","12:00","-21.4","","-24.1","","79","","","","36","","28","","11.3","","100.23","","","","-34","","Mainly Clear"
"-62.28","82.52","ALERT A","2400302","2018-10-27 13:00","2018","10","27","13:00","-21.8","","-24.8","","77","","","","33","","28","","24.1","","100.16","","","","-35","","Mainly Clear"
"-62.28","82.52","ALERT A","2400302","2018-10-27 14:00","2018","10","27","14:00","-21.0","","-24.0","","77","","","","33","","33","","24.1","","100.05","","","","-34","","Mostly Cloudy"
"-62.28","82.52","ALERT A","2400302","2018-10-27 15:00","2018","10","27","15:00","-20.1","","-23.0","","78","","","","34","","26","","24.1","","100.03","","","","-32","","Mostly Cloudy"
"-62.28","82.52","ALERT A","2400302","2018-10-27 16:00","2018","10","27","16:00"
"-62.28","82.52","ALERT A","2400302","2018-10-27 17:00","2018","10","27","17:00"
"-62.28","82.52","ALERT A","2400302","2018-10-27 18:00","2018","10","27","18:00"
"-62.28","82.52","ALERT A","2400302","2018-10-27 19:00","2018","10","27","19:00"
"-62.28","82.52","ALERT A","2400302","2018-10-27 20:00","2018","10","27","20:00"
"-62.28","82.52","ALERT A","2400302","2018-10-27 21:00","2018","10","27","21:00"
"-62.28","82.52","ALERT A","2400302","2018-10-27 22:00","2018","10","27","22:00"
"-62.28","82.52","ALERT A","2400302","2018-10-27 23:00","2018","10","27","23:00"
"-62.28","82.52","ALERT A","2400302","2018-10-28 00:00","2018","10","28","00:00"
"-62.28","82.52","ALERT A","2400302","2018-10-28 01:00","2018","10","28","01:00"
"-62.28","82.52","ALERT A","2400302","2018-10-28 02:00","2018","10","28","02:00"
"-62.28","82.52","ALERT A","2400302","2018-10-28 03:00","2018","10","28","03:00"
"-62.28","82.52","ALERT A","2400302","2018-10-28 04:00","2018","10","28","04:00"
"-62.28","82.52","ALERT A","2400302","2018-10-28 05:00","2018","10","28","05:00"
"-62.28","82.52","ALERT A","2400302","2018-10-28 06:00","2018","10","28","06:00","-27.7","","-31.6","","69","","","","14","","9","","24.1","","100.01","","","","-36","","Mainly Clear"
"-62.28","82.52","ALERT A","2400302","2018-10-28 07:00","2018","10","28","07:00","-28.0","","-32.3","","67","","","","13","","15","","24.1","","100.03","","","","-39","","Mainly Clear"
"-62.28","82.52","ALERT A","2400302","2018-10-28 08:00","2018","10","28","08:00","-27.1","","-31.1","","69","","","","12","","17","","24.1","","100.05","","","","-39","","Mainly Clear"
"-62.28","82.52","ALERT A","2400302","2018-10-28 09:00","2018","10","28","09:00","-28.3","","-32.4","","68","","","","12","","13","","24.1","","100.04","","","","-39","","Mainly Clear"
"-62.28","82.52","ALERT A","2400302","2018-10-28 10:00","2018","10","28","10:00","-28.9","","-33.0","","68","","","","6","","4","","24.1","","100.11","","","","-33","","Mainly Clear"
"-62.28","82.52","ALERT A","2400302","2018-10-28 11:00","2018","10","28","11:00","-29.5","","-33.9","","66","","","","33","","7","","24.1","","100.16","","","","-37","","Mostly Cloudy"
"-62.28","82.52","ALERT A","2400302","2018-10-28 12:00","2018","10","28","12:00","-30.1","","-34.8","","64","","","","20","","6","","24.1","","100.17","","","","-37","","Mainly Clear"
"-62.28","82.52","ALERT A","2400302","2018-10-28 13:00","2018","10","28","13:00","-31.1","","-35.7","","64","","","","","","0","","24.1","","100.22","","","","","","Mainly Clear"
"-62.28","82.52","ALERT A","2400302","2018-10-28 14:00","2018","10","28","14:00","-30.7","","-36.6","","56","","","","17","","6","","24.1","","100.33","","","","-37","","Mainly Clear"
"-62.28","82.52","ALERT A","2400302","2018-10-28 15:00","2018","10","28","15:00","-30.2","","-33.5","","73","","","","","","0","","24.1","","100.29","","","","","","Mainly Clear"
"-62.28","82.52","ALERT A","2400302","2018-10-28 16:00","2018","10","28","16:00","-31.4","","-35.1","","70","","","","32","","6","","24.1","","100.38","","","","-38","","Mostly Cloudy"
"-62.28","82.52","ALERT A","2400302","2018-10-28 17:00","2018","10","28","17:00","-30.3","","-34.7","","65","","","","19","","4","","24.1","","100.45","","","","-35","","Mostly Cloudy"
"-62.28","82.52","ALERT A","2400302","2018-10-28 18:00","2018","10","28","18:00","-32.0","","-36.5","","64","","","","23","","11","","24.1","","100.49","","","","-42","","Mainly Clear"
"-62.28","82.52","ALERT A","2400302","2018-10-28 19:00","2018","10","28","19:00","-33.9","","-38.0","","66","","","","24","","6","","24.1","","100.57","","","","-41","","Mainly Clear"
"-62.28","82.52","ALERT A","2400302","2018-10-28 20:00","2018","10","28","20:00","-29.5","","-33.4","","69","","","","19","","6","","24.1","","100.61","","","","-36","","Mainly Clear"
"-62.28","82.52","ALERT A","2400302","2018-10-28 21:00","2018","10","28","21:00","-29.9","","-34.0","","67","","","","16","","7","","24.1","","100.61","","","","-37","","Clear"
"-62.28","82.52","ALERT A","2400302","2018-10-28 22:00","2018","10","28","22:00","-29.9","","-33.9","","68","","","","1","","4","","24.1","","100.66","","","","-34","","Clear"
"-62.28","82.52","ALERT A","2400302","2018-10-28 23:00","2018","10","28","23:00"
"-62.28","82.52","ALERT A","2400302","2018-10-29 00:00","2018","10","29","00:00"
"-62.28","82.52","ALERT A","2400302","2018-10-29 01:00","2018","10","29","01:00"
"-62.28","82.52","ALERT A","2400302","2018-10-29 02:00","2018","10","29","02:00"
"-62.28","82.52","ALERT A","2400302","2018-10-29 03:00","2018","10","29","03:00"
"-62.28","82.52","ALERT A","2400302","2018-10-29 04:00","2018","10","29","04:00"
"-62.28","82.52","ALERT A","2400302","2018-10-29 05:00","2018","10","29","05:00"
"-62.28","82.52","ALERT A","2400302","2018-10-29 06:00","2018","10","29","06:00"
"-62.28","82.52","ALERT A","2400302","2018-10-29 07:00","2018","10","29","07:00"
"-62.28","82.52","ALERT A","2400302","2018-10-29 08:00","2018","10","29","08:00","-19.9","","-23.2","","75","","","","25","","35","","24.1","","101.07","","","","-33","","Mainly Clear"
"-62.28","82.52","ALERT A","2400302","2018-10-29 09:00","2018","10","29","09:00","-19.7","","-23.5","","72","","","","25","","32","","24.1","","101.11","","","","-33","","Mainly Clear"
"-62.28","82.52","ALERT A","2400302","2018-10-29 10:00","2018","10","29","10:00","-19.0","","-22.8","","72","","","","24","","37","","24.1","","101.11","","","","-32","","Mainly Clear"
"-62.28","82.52","ALERT A","2400302","2018-10-29 11:00","2018","10","29","11:00"
"-62.28","82.52","ALERT A","2400302","2018-10-29 12:00","2018","10","29","12:00"
"-62.28","82.52","ALERT A","2400302","2018-10-29 13:00","2018","10","29","13:00"
"-62.28","82.52","ALERT A","2400302","2018-10-29 14:00","2018","10","29","14:00","-16.9","","-20.1","","76","","","","23","","44","","6.4","","101.15","","","","-30","","Fog,Blowing Snow"
"-62.28","82.52","ALERT A","2400302","2018-10-29 15:00","2018","10","29","15:00","-16.8","","-18.4","","87","","","","24","","35","","6.4","","101.15","","","","-29","","Blowing Snow"
"-62.28","82.52","ALERT A","2400302","2018-10-29 16:00","2018","10","29","16:00","-16.6","","-18.2","","87","","","","23","","39","","4.8","","101.21","","","","-29","","Blowing Snow"
"-62.28","82.52","ALERT A","2400302","2018-10-29 17:00","2018","10","29","17:00"
"-62.28","82.52","ALERT A","2400302","2018-10-29 18:00","2018","10","29","18:00"
"-62.28","82.52","ALERT A","2400302","2018-10-29 19:00","2018","10","29","19:00"
"-62.28","82.52","ALERT A","2400302","2018-10-29 20:00","2018","10","29","20:00"
"-62.28","82.52","ALERT A","2400302","2018-10-29 21:00","2018","10","29","21:00"
"-62.28","82.52","ALERT A","2400302","2018-10-29 22:00","2018","10","29","22:00"
"-62.28","82.52","ALERT A","2400302","2018-10-29 23:00","2018","10","29","23:00"
"-62.28","82.52","ALERT A","2400302","2018-10-30 00:00","2018","10","30","00:00"
"-62.28","82.52","ALERT A","2400302","2018-10-30 01:00","2018","10","30","01:00"
"-62.28","82.52","ALERT A","2400302","2018-10-30 02:00","2018","10","30","02:00"
"-62.28","82.52","ALERT A","2400302","2018-10-30 03:00","2018","10","30","03:00"
"-62.28","82.52","ALERT A","2400302","2018-10-30 04:00","2018","10","30","04:00"
"-62.28","82.52","ALERT A","2400302","2018-10-30 05:00","2018","10","30","05:00"
"-62.28","82.52","ALERT A","2400302","2018-10-30 06:00","2018","10","30","06:00"
"-62.28","82.52","ALERT A","2400302","2018-10-30 07:00","2018","10","30","07:00"
"-62.28","82.52","ALERT A","2400302","2018-10-30 08:00","2018","10","30","08:00","-13.6","","-17.3","","74","","","","25","","24","","16.1","","101.62","","","","-23","","Mostly Cloudy"
"-62.28","82.52","ALERT A","2400302","2018-10-30 09:00","2018","10","30","09:00","-13.5","","-17.5","","72","","","","25","","22","","16.1","","101.64","","","","-23","","Mostly Cloudy"
"-62.28","82.52","ALERT A","2400302","2018-10-30 10:00","2018","10","30","10:00","-13.0","","-17.3","","70","","","","23","","21","","16.1","","101.64","","","","-22","","Mostly Cloudy"
"-62.28","82.52","ALERT A","2400302","2018-10-30 11:00","2018","10","30","11:00","-13.2","","-17.2","","72","","","","23","","17","","16.1","","101.67","","","","-21","","Mostly Cloudy"
"-62.28","82.52","ALERT A","2400302","2018-10-30 12:00","2018","10","30","12:00","-13.1","","-16.8","","74","","","","23","","15","","16.1","","101.59","","","","-21","","Mostly Cloudy"
"-62.28","82.52","ALERT A","2400302","2018-10-30 13:00","2018","10","30","13:00","-13.1","","-17.0","","72","","","","23","","17","","16.1","","101.58","","","","-21","","Mostly Cloudy"
"-62.28","82.52","ALERT A","2400302","2018-10-30 14:00","2018","10","30","14:00","-13.6","","-17.6","","72","","","","23","","18","","16.1","","101.57","","","","-22","","Mostly Cloudy"
"-62.28","82.52","ALERT A","2400302","2018-10-30 15:00","2018","10","30","15:00","-14.3","","-18.2","","72","","","","23","","15","","16.1","","101.56","","","","-22","","Mainly Clear"
"-62.28","82.52","ALERT A","2400302","2018-10-30 16:00","2018","10","30","16:00","-14.1","","-18.3","","70","","","","23","","15","","16.1","","101.55","","","","-22","","Mainly Clear"
"-62.28","82.52","ALERT A","2400302","2018-10-30 17:00","2018","10","30","17:00"
"-62.28","82.52","ALERT A","2400302","2018-10-30 18:00","2018","10","30","18:00"
"-62.28","82.52","ALERT A","2400302","2018-10-30 19:00","2018","10","30","19:00"
"-62.28","82.52","ALERT A","2400302","2018-10-30 20:00","2018","10","30","20:00"
"-62.28","82.52","ALERT A","2400302","2018-10-30 21:00","2018","10","30","21:00"
"-62.28","82.52","ALERT A","2400302","2018-10-30 22:00","2018","10","30","22:00"
"-62.28","82.52","ALERT A","2400302","2018-10-30 23:00","2018","10","30","23:00"
"-62.28","82.52","ALERT A","2400302","2018-10-31 00:00","2018","10","31","00:00"
"-62.28","82.52","ALERT A","2400302","2018-10-31 01:00","2018","10","31","01:00","-13.3","","-16.4","","77","","","","23","","37","","16.1","","101.04","","","","-25","","Mainly Clear"
"-62.28","82.52","ALERT A","2400302","2018-10-31 02:00","2018","10","31","02:00","-13.2","","-16.2","","78","","","","23","","34","","8.1","","100.96","","","","-24","","Fog"
"-62.28","82.52","ALERT A","2400302","2018-10-31 03:00","2018","10","31","03:00","-12.9","","-15.9","","78","","","","23","","37","","6.4","","100.89","","","","-24","","Fog"
"-62.28","82.52","ALERT A","2400302","2018-10-31 04:00","2018","10","31","04:00","-12.5","","-15.4","","79","","","","23","","35","","6.4","","100.86","","","","-23","","Fog"
"-62.28","82.52","ALERT A","2400302","2018-10-31 05:00","2018","10","31","05:00","-10.8","","-14.0","","77","","","","23","","30","","8.1","","100.79","","","","-21","","Fog"
"-62.28","82.52","ALERT A","2400302","2018-10-31 06:00","2018","10","31","06:00","-10.6","","-13.4","","80","","","","23","","43","","4.0","","100.79","","","","-22","","Blowing Snow"
"-62.28","82.52","ALERT A","2400302","2018-10-31 07:00","2018","10","31","07:00","-10.6","","-13.0","","82","","","","23","","44","","2.0","","100.59","","","","-22","","Blowing Snow"
"-62.28","82.52","ALERT A","2400302","2018-10-31 08:00","2018","10","31","08:00","-10.1","","-13.4","","77","","","","24","","34","","6.4","","100.75","","","","-20","","Fog"
"-62.28","82.52","ALERT A","2400302","2018-10-31 09:00","2018","10","31","09:00","-9.9","","-13.3","","76","","","","23","","26","","16.1","","100.83","","","","-19","","Cloudy"
"-62.28","82.52","ALERT A","2400302","2018-10-31 10:00","2018","10","31","10:00","-10.1","","-12.1","","85","","","","23","","24","","9.7","","100.86","","","","-19","","Snow"
"-62.28","82.52","ALERT A","2400302","2018-10-31 11:00","2018","10","31","11:00","-10.1","","-11.6","","89","","","","23","","21","","4.0","","100.88","","","","-18","","Snow"
"-62.28","82.52","ALERT A","2400302","2018-10-31 12:00","2018","10","31","12:00","-10.1","","-11.6","","89","","","","23","","24","","6.4","","100.92","","","","-19","","Snow"
"-62.28","82.52","ALERT A","2400302","2018-10-31 13:00","2018","10","31","13:00","-9.9","","-11.4","","89","","","","23","","21","","6.4","","100.97","","","","-18","","Snow"
"-62.28","82.52","ALERT A","2400302","2018-10-31 14:00","2018","10","31","14:00","-10.0","","-11.6","","88","","","","23","","18","","8.1","","101.04","","","","-17","","Snow"
"-62.28","82.52","ALERT A","2400302","2018-10-31 15:00","2018","10","31","15:00","-10.0","","-11.6","","88","","","","23","","18","","8.1","","101.14","","","","-17","","Snow"
"-62.28","82.52","ALERT A","2400302","2018-10-31 16:00","2018","10","31","16:00","-11.7","","-13.7","","85","","","","34","","26","","6.4","","101.37","","","","-21","","Snow"
"-62.28","82.52","ALERT A","2400302","2018-10-31 17:00","2018","10","31","17:00"
"-62.28","82.52","ALERT A","2400302","2018-10-31 18:00","2018","10","31","18:00"
"-62.28","82.52","ALERT A","2400302","2018-10-31 19:00","2018","10","31","19:00"
"-62.28","82.52","ALERT A","2400302","2018-10-31 20:00","2018","10","31","20:00"
"-62.28","82.52","ALERT A","2400302","2018-10-31 21:00","2018","10","31","21:00"
"-62.28","82.52","ALERT A","2400302","2018-10-31 22:00","2018","10","31","22:00"
"-62.28","82.52","ALERT A","2400302","2018-10-31 23:00","2018","10","31","23:00"
