"Longitude (x)","Latitude (y)","Station Name","Climate ID","Date/Time (LST)","Year","Month","Day","Time (LST)","Temp (°C)","Temp Flag","Dew Point Temp (°C)","Dew Point Temp Flag","Rel Hum (%)","Rel Hum Flag","Precip. Amount (mm)","Precip. Amount Flag","Wind Dir (10s deg)","Wind Dir Flag","Wind Spd (km/h)","Wind Spd Flag","Visibility (km)","Visibility Flag","Stn Press (kPa)","Stn Press Flag","Hmdx","Hmdx Flag","Wind Chill","Wind Chill Flag","Weather"
"-94.97","74.72","RESOLUTE BAY A","2403498","2019-06-01 00:00","2019","06","01","00:00","-2.6","","-3.0","","97","","","","19","","7","","0.8","","101.36","","","","-5","","Freezing Fog"
"-94.97","74.72","RESOLUTE BAY A","2403498","2019-06-01 01:00","2019","06","01","01:00","-3.4","","-3.9","","96","","","","13","","12","","0.6","","101.38","","","","-8","","Freezing Fog"
"-94.97","74.72","RESOLUTE BAY A","2403498","2019-06-01 02:00","2019","06","01","02:00","-4.0","","-4.7","","95","","","","14","","9","","4.0","","101.39","","","","-8","","Snow,Fog"
"-94.97","74.72","RESOLUTE BAY A","2403498","2019-06-01 03:00","2019","06","01","03:00","-3.8","","-4.4","","95","","","","19","","9","","14.5","","101.40","","","","-8","","Snow"
"-94.97","74.72","RESOLUTE BAY A","2403498","2019-06-01 04:00","2019","06","01","04:00","-3.7","","-4.3","","95","","","","12","","3","","12.9","","101.43","","","","-5","","Snow"
"-94.97","74.72","RESOLUTE BAY A","2403498","2019-06-01 05:00","2019","06","01","05:00","-4.1","","-4.8","","95","","","","15","","4","","14.5","","101.44","","","","-6","","Snow"
"-94.97","74.72","RESOLUTE BAY A","2403498","2019-06-01 06:00","2019","06","01","06:00","-4.1","","-4.8","","95","","","","14","","5","","12.9","","101.44","","","","-6","","Snow"
"-94.97","74.72","RESOLUTE BAY A","2403498","2019-06-01 07:00","2019","06","01","07:00","-4.3","","-5.0","","95","","","","36","","2","","12.9","","101.43","","","","-5","","Snow"
"-94.97","74.72","RESOLUTE BAY A","2403498","2019-06-01 08:00","2019","06","01","08:00","-4.2","","-4.9","","95","","","","19","","6","","1.0","","101.42","","","","-7","","Snow,Fog"
"-94.97","74.72","RESOLUTE BAY A","2403498","2019-06-01 09:00","2019","06","01","09:00","-4.3","","-5.1","","95","","","","26","","8","","0.6","","101.41","","","","-8","","Snow,Freezing Fog"
"-94.97","74.72","RESOLUTE BAY A","2403498","2019-06-01 10:00","2019","06","01","10:00","-4.8","","-5.6","","94","","","","27","","10","","0.4","","101.42","","","","-9","","Snow,Freezing Fog"
"-94.97","74.72","RESOLUTE BAY A","2403498","2019-06-01 11:00","2019","06","01","11:00","-5.1","","-5.8","","94","","","","27","","9","","0.4","","101.42","","","","-9","","Snow,Freezing Fog"
"-94.97","74.72","RESOLUTE BAY A","2403498","2019-06-01 12:00","2019","06","01","12:00","-5.3","","-6.1","","94","","","","27","","7","","0.4","","101.41","","","","-9","","Snow,Freezing Fog"
"-94.97","74.72","RESOLUTE BAY A","2403498","2019-06-01 13:00","2019","06","01","13:00","-5.2","","-6.0","","94","","","","27","","6","","1.2","","101.41","","","","-8","","Fog"
"-94.97","74.72","RESOLUTE BAY A","2403498","2019-06-01 14:00","2019","06","01","14:00","-5.0","","-5.8","","94","","","","27","","12","","1.0","","101.42","","","","-10","","Fog"
"-94.97","74.72","RESOLUTE BAY A","2403498","2019-06-01 15:00","2019","06","01","15:00","-4.9","","-5.7","","94","","","","29","","6","","1.0","","101.42","","","","-8","","Fog"
"-94.97","74.72","RESOLUTE BAY A","2403498","2019-06-01 16:00","2019","06","01","16:00","-4.4","","-5.1","","95","","","","28","","8","","0.6","","101.41","","","","-8","","Freezing Fog"
"-94.97","74.72","RESOLUTE BAY A","2403498","2019-06-01 17:00","2019","06","01","17:00","-4.0","","-4.7","","95","","","","26","","14","","1.0","","101.41","","","","-9","","Snow,Fog"
"-94.97","74.72","RESOLUTE BAY A","2403498","2019-06-01 18:00","2019","06","01","18:00","-3.6","","-4.2","","95","","","","26","","11","","1.0","","101.41","","","","-8","","Snow,Fog"
"-94.97","74.72","RESOLUTE BAY A","2403498","2019-06-01 19:00","2019","06","01","19:00","-4.0","","-4.6","","95","","","","29","","10","","2.8","","101.41","","","","-8","","Snow,Fog"
"-94.97","74.72","RESOLUTE BAY A","2403498","2019-06-01 20:00","2019","06","01","20:00","-3.7","","-4.4","","95","","","","27","","14","","12.9","","101.41","","","","-9","","Snow"
"-94.97","74.72","RESOLUTE BAY A","2403498","2019-06-01 21:00","2019","06","01","21:00","-3.9","","-4.6","","95","","","","26","","10","","14.5","","101.38","","","","-8","","Snow"
"-94.97","74.72","RESOLUTE BAY A","2403498","2019-06-01 22:00","2019","06","01","22:00","-3.8","","-4.6","","94","","","","26","","16","","14.5","","101.37","","","","-9","","Snow"
"-94.97","74.72","RESOLUTE BAY A","2403498","2019-06-01 23:00","2019","06","01","23:00","-3.8","","-4.5","","94","","","","25","","12","","16.1","","101.35","","","","-8","","Snow"
"-94.97","74.72","RESOLUTE BAY A","2403498","2019-06-02 00:00","2019","06","02","00:00","-4.8","","-5.5","","95","","","","24","","13","","14.5","","101.35","","","","-10","","Snow"
"-94.97","74.72","RESOLUTE BAY A","2403498","2019-06-02 01:00","2019","06","02","01:00","-4.9","","-5.6","","95","","","","26","","22","","12.9","","101.35","","","","-12","","Snow"
"-94.97","74.72","RESOLUTE BAY A","2403498","2019-06-02 02:00","2019","06","02","02:00","-5.5","","-6.3","","94","","","","27","","11","","1.0","","101.34","","","","-10","","Fog"
"-94.97","74.72","RESOLUTE BAY A","2403498","2019-06-02 03:00","2019","06","02","03:00","-6.2","","-7.1","","94","","","","24","","9","","1.0","","101.33","","","","-10","","Fog"
"-94.97","74.72","RESOLUTE BAY A","2403498","2019-06-02 04:00","2019","06","02","04:00","-6.6","","-7.5","","93","","","","26","","13","","4.8","","101.32","","","","-12","","Fog"
"-94.97","74.72","RESOLUTE BAY A","2403498","2019-06-02 05:00","2019","06","02","05:00","-6.9","","-7.8","","93","","","","26","","9","","4.8","","101.31","","","","-11","","Fog"
"-94.97","74.72","RESOLUTE BAY A","2403498","2019-06-02 06:00","2019","06","02","06:00","-6.3","","-7.2","","93","","","","24","","13","","1.2","","101.29","","","","-12","","Fog"
"-94.97","74.72","RESOLUTE BAY A","2403498","2019-06-02 07:00","2019","06","02","07:00","-6.1","","-7.1","","93","","","","25","","16","","12.9","","101.28","","","","-12","","NA"
"-94.97","74.72","RESOLUTE BAY A","2403498","2019-06-02 08:00","2019","06","02","08:00","-6.3","","-7.3","","93","","","","25","","17","","1.2","","101.26","","","","-13","","Freezing Drizzle,Fog"
"-94.97","74.72","RESOLUTE BAY A","2403498","2019-06-02 09:00","2019","06","02","09:00","-5.8","","-6.7","","94","","","","25","","17","","1.2","","101.23","","","","-12","","Freezing Drizzle,Fog"
"-94.97","74.72","RESOLUTE BAY A","2403498","2019-06-02 10:00","2019","06","02","10:00","-5.3","","-6.2","","94","","","","24","","15","","1.2","","101.19","","","","-11","","Freezing Drizzle,Fog"
"-94.97","74.72","RESOLUTE BAY A","2403498","2019-06-02 11:00","2019","06","02","11:00","-5.2","","-6.0","","94","","","","25","","17","","1.2","","101.19","","","","-11","","Freezing Drizzle,Fog"
"-94.97","74.72","RESOLUTE BAY A","2403498","2019-06-02 12:00","2019","06","02","12:00","-5.0","","-5.8","","94","","","","25","","18","","3.2","","101.18","","","","-11","","Fog"
"-94.97","74.72","RESOLUTE BAY A","2403498","2019-06-02 13:00","2019","06","02","13:00","-4.7","","-5.4","","94","","","","25","","17","","3.2","","101.18","","","","-11","","Fog"
"-94.97","74.72","RESOLUTE BAY A","2403498","2019-06-02 14:00","2019","06","02","14:00","-4.7","","-5.5","","94","","","","25","","17","","1.0","","101.17","","","","-11","","Fog"
"-94.97","74.72","RESOLUTE BAY A","2403498","2019-06-02 15:00","2019","06","02","15:00","-4.5","","-5.2","","95","","","","26","","20","","1.6","","101.17","","","","-11","","Fog"
"-94.97","74.72","RESOLUTE BAY A","2403498","2019-06-02 16:00","2019","06","02","16:00","-3.8","","-4.5","","95","","","","25","","20","","1.6","","101.15","","","","-10","","Fog"
"-94.97","74.72","RESOLUTE BAY A","2403498","2019-06-02 17:00","2019","06","02","17:00","-3.3","","-3.9","","96","","","","25","","19","","1.6","","101.13","","","","-9","","Fog"
"-94.97","74.72","RESOLUTE BAY A","2403498","2019-06-02 18:00","2019","06","02","18:00","-3.5","","-4.1","","95","","","","25","","22","","2.0","","101.11","","","","-10","","Fog"
"-94.97","74.72","RESOLUTE BAY A","2403498","2019-06-02 19:00","2019","06","02","19:00","-3.1","","-3.7","","96","","","","25","","22","","2.0","","101.09","","","","-9","","Fog"
"-94.97","74.72","RESOLUTE BAY A","2403498","2019-06-02 20:00","2019","06","02","20:00","-2.8","","-3.4","","96","","","","26","","26","","12.9","","101.06","","","","-10","","Snow"
"-94.97","74.72","RESOLUTE BAY A","2403498","2019-06-02 21:00","2019","06","02","21:00","-3.2","","-4.1","","94","","","","28","","19","","16.1","","101.04","","","","-9","","Snow"
"-94.97","74.72","RESOLUTE BAY A","2403498","2019-06-02 22:00","2019","06","02","22:00","-3.4","","-4.3","","94","","","","25","","17","","24.1","","101.03","","","","-9","","Snow"
"-94.97","74.72","RESOLUTE BAY A","2403498","2019-06-02 23:00","2019","06","02","23:00","-3.5","","-4.5","","93","","","","26","","19","","14.5","","101.02","","","","-9","","Snow"
"-94.97","74.72","RESOLUTE BAY A","2403498","2019-06-03 00:00","2019","06","03","00:00","-3.7","","-4.4","","95","","","","26","","23","","4.8","","101.00","","","","-10","","Freezing Drizzle,Fog"
"-94.97","74.72","RESOLUTE BAY A","2403498","2019-06-03 01:00","2019","06","03","01:00","-3.4","","-3.9","","96","","","","24","","18","","3.6","","100.98","","","","-9","","Freezing Drizzle,Fog"
"-94.97","74.72","RESOLUTE BAY A","2403498","2019-06-03 02:00","2019","06","03","02:00","-3.3","","-3.8","","96","","","","25","","16","","14.5","","100.96","","","","-9","","Snow"
"-94.97","74.72","RESOLUTE BAY A","2403498","2019-06-03 03:00","2019","06","03","03:00","-3.3","","-3.9","","96","","","","29","","16","","24.1","","100.96","","","","-9","","Snow"
"-94.97","74.72","RESOLUTE BAY A","2403498","2019-06-03 04:00","2019","06","03","04:00","-3.4","","-4.0","","96","","","","28","","16","","24.1","","100.96","","","","-9","","NA"
"-94.97","74.72","RESOLUTE BAY A","2403498","2019-06-03 05:00","2019","06","03","05:00","-3.3","","-3.8","","96","","","","27","","19","","12.9","","100.96","","","","-9","","Snow"
"-94.97","74.72","RESOLUTE BAY A","2403498","2019-06-03 06:00","2019","06","03","06:00","-3.1","","-3.6","","96","","","","28","","20","","16.1","","100.97","","","","-9","","Snow"
"-94.97","74.72","RESOLUTE BAY A","2403498","2019-06-03 07:00","2019","06","03","07:00","-3.2","","-4.3","","92","","","","30","","21","","24.1","","100.97","","","","-9","","Snow"
"-94.97","74.72","RESOLUTE BAY A","2403498","2019-06-03 08:00","2019","06","03","08:00","-2.9","","-4.1","","92","","","","28","","19","","16.1","","100.96","","","","-9","","Snow"
"-94.97","74.72","RESOLUTE BAY A","2403498","2019-06-03 09:00","2019","06","03","09:00","-2.8","","-4.0","","92","","","","29","","17","","12.9","","100.95","","","","-8","","Snow"
"-94.97","74.72","RESOLUTE BAY A","2403498","2019-06-03 10:00","2019","06","03","10:00","-2.7","","-3.8","","92","","","","29","","19","","11.3","","100.94","","","","-8","","Snow"
"-94.97","74.72","RESOLUTE BAY A","2403498","2019-06-03 11:00","2019","06","03","11:00","-2.3","","-3.7","","90","","","","30","","16","","14.5","","100.93","","","","-7","","Snow"
"-94.97","74.72","RESOLUTE BAY A","2403498","2019-06-03 12:00","2019","06","03","12:00","-1.8","","-2.6","","94","","","","29","","16","","16.1","","100.92","","","","-7","","Snow"
"-94.97","74.72","RESOLUTE BAY A","2403498","2019-06-03 13:00","2019","06","03","13:00","-1.5","","-3.1","","89","","","","30","","22","","16.1","","100.96","","","","-7","","Snow"
"-94.97","74.72","RESOLUTE BAY A","2403498","2019-06-03 14:00","2019","06","03","14:00","-1.6","","-3.0","","90","","","","29","","25","","19.3","","100.97","","","","-8","","Snow"
"-94.97","74.72","RESOLUTE BAY A","2403498","2019-06-03 15:00","2019","06","03","15:00","-1.6","","-3.0","","90","","","","29","","21","","16.1","","100.99","","","","-7","","Snow"
"-94.97","74.72","RESOLUTE BAY A","2403498","2019-06-03 16:00","2019","06","03","16:00","-1.2","","-2.5","","91","","","","29","","17","","24.1","","100.99","","","","-6","","Snow"
"-94.97","74.72","RESOLUTE BAY A","2403498","2019-06-03 17:00","2019","06","03","17:00","-1.1","","-2.6","","89","","","","31","","16","","19.3","","101.00","","","","-6","","Snow Showers"
"-94.97","74.72","RESOLUTE BAY A","2403498","2019-06-03 18:00","2019","06","03","18:00","-1.1","","-3.4","","85","","","","4","","18","","24.1","","101.03","","","","-6","","Snow Showers"
"-94.97","74.72","RESOLUTE BAY A","2403498","2019-06-03 19:00","2019","06","03","19:00","-2.0","","-4.2","","85","","","","4","","34","","24.1","","101.07","","","","-10","","NA"
"-94.97","74.72","RESOLUTE BAY A","2403498","2019-06-03 20:00","2019","06","03","20:00","-3.0","","-4.8","","87","","","","2","","26","","24.1","","101.14","","","","-10","","NA"
"-94.97","74.72","RESOLUTE BAY A","2403498","2019-06-03 21:00","2019","06","03","21:00","-3.0","","-4.8","","87","","","","1","","18","","24.1","","101.18","","","","-9","","Mostly Cloudy"
"-94.97","74.72","RESOLUTE BAY A","2403498","2019-06-03 22:00","2019","06","03","22:00","-4.0","","-5.3","","91","","","","1","","26","","24.1","","101.19","","","","-11","","NA"
"-94.97","74.72","RESOLUTE BAY A","2403498","2019-06-03 23:00","2019","06","03","23:00","-5.3","","-6.9","","88","","","","4","","28","","24.1","","101.20","","","","-13","","NA"
"-94.97","74.72","RESOLUTE BAY A","2403498","2019-06-04 00:00","2019","06","04","00:00","-3.9","","-6.2","","84","","","","4","","28","","24.1","","101.25","","","","-11","","Mainly Clear"
"-94.97","74.72","RESOLUTE BAY A","2403498","2019-06-04 01:00","2019","06","04","01:00","-5.4","","-7.4","","86","","","","4","","22","","24.1","","101.30","","","","-12","","NA"
"-94.97","74.72","RESOLUTE BAY A","2403498","2019-06-04 02:00","2019","06","04","02:00","-5.2","","-7.0","","87","","","","4","","28","","24.1","","101.32","","","","-13","","NA"
"-94.97","74.72","RESOLUTE BAY A","2403498","2019-06-04 03:00","2019","06","04","03:00","-4.8","","-6.7","","87","","","","4","","29","","24.1","","101.34","","","","-13","","Mainly Clear"
"-94.97","74.72","RESOLUTE BAY A","2403498","2019-06-04 04:00","2019","06","04","04:00","-5.1","","-7.3","","85","","","","4","","26","","24.1","","101.38","","","","-13","","NA"
"-94.97","74.72","RESOLUTE BAY A","2403498","2019-06-04 05:00","2019","06","04","05:00","-5.9","","-8.0","","85","","","","3","","29","","24.1","","101.42","","","","-14","","NA"
"-94.97","74.72","RESOLUTE BAY A","2403498","2019-06-04 06:00","2019","06","04","06:00","-5.1","","-7.6","","83","","","","3","","29","","24.1","","101.44","","","","-13","","Clear"
"-94.97","74.72","RESOLUTE BAY A","2403498","2019-06-04 07:00","2019","06","04","07:00","-3.9","","-5.5","","89","","","","2","","31","","24.1","","101.43","","","","-12","","NA"
"-94.97","74.72","RESOLUTE BAY A","2403498","2019-06-04 08:00","2019","06","04","08:00","-2.3","","-3.7","","90","","","","1","","22","","12.9","","101.44","","","","-8","","NA"
"-94.97","74.72","RESOLUTE BAY A","2403498","2019-06-04 09:00","2019","06","04","09:00","-1.1","","-2.8","","89","","","","35","","22","","19.3","","101.44","","","","-7","","Mainly Clear"
"-94.97","74.72","RESOLUTE BAY A","2403498","2019-06-04 10:00","2019","06","04","10:00","0.5","","-1.9","","84","","","","1","","25","","19.3","","101.42","","","","","","NA"
"-94.97","74.72","RESOLUTE BAY A","2403498","2019-06-04 11:00","2019","06","04","11:00","0.3","","-1.4","","88","","","","36","","28","","16.1","","101.44","","","","","","Snow"
"-94.97","74.72","RESOLUTE BAY A","2403498","2019-06-04 12:00","2019","06","04","12:00","0.6","","-1.0","","90","","","","35","","25","","12.9","","101.45","","","","","","Snow"
"-94.97","74.72","RESOLUTE BAY A","2403498","2019-06-04 13:00","2019","06","04","13:00","0.6","","-0.9","","89","","","","35","","26","","12.9","","101.45","","","","","","NA"
"-94.97","74.72","RESOLUTE BAY A","2403498","2019-06-04 14:00","2019","06","04","14:00","0.8","","-1.2","","87","","","","36","","29","","19.3","","101.47","","","","","","NA"
"-94.97","74.72","RESOLUTE BAY A","2403498","2019-06-04 15:00","2019","06","04","15:00","0.4","","-1.4","","88","","","","35","","29","","16.1","","101.48","","","","","","Mostly Cloudy"
"-94.97","74.72","RESOLUTE BAY A","2403498","2019-06-04 16:00","2019","06","04","16:00","-0.2","","-1.9","","88","","","","36","","30","","19.3","","101.48","","","","-7","","NA"
"-94.97","74.72","RESOLUTE BAY A","2403498","2019-06-04 17:00","2019","06","04","17:00","-0.3","","-2.3","","86","","","","34","","23","","19.3","","101.51","","","","-6","","NA"
"-94.97","74.72","RESOLUTE BAY A","2403498","2019-06-04 18:00","2019","06","04","18:00","-0.6","","-3.2","","83","","","","1","","30","","19.3","","101.50","","","","-7","","Mostly Cloudy"
"-94.97","74.72","RESOLUTE BAY A","2403498","2019-06-04 19:00","2019","06","04","19:00"
"-94.97","74.72","RESOLUTE BAY A","2403498","2019-06-04 20:00","2019","06","04","20:00","-1.7","","-4.0","","85","","","","32","","17","","24.1","","101.56","","","","-7","","NA"
"-94.97","74.72","RESOLUTE BAY A","2403498","2019-06-04 21:00","2019","06","04","21:00","-2.1","","-4.1","","86","","","","32","","17","","24.1","","101.55","","","","-7","","Mostly Cloudy"
"-94.97","74.72","RESOLUTE BAY A","2403498","2019-06-04 22:00","2019","06","04","22:00","-2.4","","-3.9","","89","","","","35","","16","","24.1","","101.55","","","","-8","","NA"
"-94.97","74.72","RESOLUTE BAY A","2403498","2019-06-04 23:00","2019","06","04","23:00","-2.4","","-3.8","","90","","","","35","","16","","24.1","","101.58","","","","-8","","NA"
"-94.97","74.72","RESOLUTE BAY A","2403498","2019-06-05 00:00","2019","06","05","00:00","-2.7","","-4.4","","88","","","","29","","14","","24.1","","101.58","","","","-8","","Mostly Cloudy"
"-94.97","74.72","RESOLUTE BAY A","2403498","2019-06-05 01:00","2019","06","05","01:00","-3.1","","-5.0","","87","","","","2","","10","","24.1","","101.60","","","","-7","","NA"
"-94.97","74.72","RESOLUTE BAY A","2403498","2019-06-05 02:00","2019","06","05","02:00","-2.8","","-4.8","","87","","","","2","","14","","24.1","","101.61","","","","-8","","NA"
"-94.97","74.72","RESOLUTE BAY A","2403498","2019-06-05 03:00","2019","06","05","03:00","-2.3","","-4.3","","86","","","","3","","21","","24.1","","101.60","","","","-8","","Mostly Cloudy"
"-94.97","74.72","RESOLUTE BAY A","2403498","2019-06-05 04:00","2019","06","05","04:00","-3.2","","-4.8","","89","","","","34","","16","","24.1","","101.61","","","","-9","","NA"
"-94.97","74.72","RESOLUTE BAY A","2403498","2019-06-05 05:00","2019","06","05","05:00","-3.6","","-5.4","","88","","","","4","","25","","24.1","","101.61","","","","-11","","NA"
"-94.97","74.72","RESOLUTE BAY A","2403498","2019-06-05 06:00","2019","06","05","06:00","-2.7","","-5.1","","84","","","","3","","16","","24.1","","101.63","","","","-8","","Mostly Cloudy"
"-94.97","74.72","RESOLUTE BAY A","2403498","2019-06-05 07:00","2019","06","05","07:00","-2.5","","-4.7","","85","","","","4","","16","","24.1","","101.64","","","","-8","","NA"
"-94.97","74.72","RESOLUTE BAY A","2403498","2019-06-05 08:00","2019","06","05","08:00","-2.4","","-4.4","","86","","","","30","","12","","19.3","","101.64","","","","-7","","NA"
"-94.97","74.72","RESOLUTE BAY A","2403498","2019-06-05 09:00","2019","06","05","09:00","-2.7","","-4.5","","88","","","","31","","14","","19.3","","101.63","","","","-8","","Mostly Cloudy"
"-94.97","74.72","RESOLUTE BAY A","2403498","2019-06-05 10:00","2019","06","05","10:00","-2.5","","-4.5","","86","","","","30","","17","","19.3","","101.62","","","","-8","","NA"
"-94.97","74.72","RESOLUTE BAY A","2403498","2019-06-05 11:00","2019","06","05","11:00","-1.7","","-4.3","","82","","","","34","","14","","19.3","","101.60","","","","-6","","NA"
"-94.97","74.72","RESOLUTE BAY A","2403498","2019-06-05 12:00","2019","06","05","12:00","-1.7","","-3.9","","85","","","","33","","17","","19.3","","101.63","","","","-7","","Mostly Cloudy"
"-94.97","74.72","RESOLUTE BAY A","2403498","2019-06-05 13:00","2019","06","05","13:00","-1.1","","-3.0","","87","","","","33","","15","","19.3","","101.62","","","","-6","","NA"
"-94.97","74.72","RESOLUTE BAY A","2403498","2019-06-05 14:00","2019","06","05","14:00","-1.1","","-3.4","","85","","","","34","","16","","19.3","","101.61","","","","-6","","NA"
"-94.97","74.72","RESOLUTE BAY A","2403498","2019-06-05 15:00","2019","06","05","15:00","-1.0","","-3.1","","86","","","","33","","22","","19.3","","101.61","","","","-7","","Cloudy"
"-94.97","74.72","RESOLUTE BAY A","2403498","2019-06-05 16:00","2019","06","05","16:00","-1.5","","-3.3","","87","","","","33","","24","","19.3","","101.61","","","","-8","","NA"
"-94.97","74.72","RESOLUTE BAY A","2403498","2019-06-05 17:00","2019","06","05","17:00","-1.3","","-3.3","","86","","","","32","","22","","19.3","","101.60","","","","-7","","NA"
"-94.97","74.72","RESOLUTE BAY A","2403498","2019-06-05 18:00","2019","06","05","18:00","-1.9","","-4.0","","86","","","","34","","29","","19.3","","101.62","","","","-9","","Mainly Clear"
"-94.97","74.72","RESOLUTE BAY A","2403498","2019-06-05 19:00","2019","06","05","19:00","-2.4","","-4.0","","88","","","","34","","20","","19.3","","101.61","","","","-8","","NA"
"-94.97","74.72","RESOLUTE BAY A","2403498","2019-06-05 20:00","2019","06","05","20:00","-3.0","","-4.2","","92","","","","31","","24","","24.1","","101.59","","","","-10","","NA"
"-94.97","74.72","RESOLUTE BAY A","2403498","2019-06-05 21:00","2019","06","05","21:00","-3.8","","-4.6","","94","","","","32","","21","","24.1","","101.56","","","","-10","","Cloudy"
"-94.97","74.72","RESOLUTE BAY A","2403498","2019-06-05 22:00","2019","06","05","22:00","-4.5","","-5.2","","95","","","","34","","17","","24.1","","101.53","","","","-10","","NA"
"-94.97","74.72","RESOLUTE BAY A","2403498","2019-06-05 23:00","2019","06","05","23:00","-4.7","","-5.4","","95","","","","34","","14","","4.0","","101.51","","","","-10","","Fog"
"-94.97","74.72","RESOLUTE BAY A","2403498","2019-06-06 00:00","2019","06","06","00:00","-5.4","","-6.3","","94","","","","30","","16","","14.5","","101.47","","","","-11","","Cloudy"
"-94.97","74.72","RESOLUTE BAY A","2403498","2019-06-06 01:00","2019","06","06","01:00","-4.7","","-5.4","","95","","","","30","","18","","4.0","","101.45","","","","-11","","Fog"
"-94.97","74.72","RESOLUTE BAY A","2403498","2019-06-06 02:00","2019","06","06","02:00","-4.6","","-5.3","","95","","","","30","","20","","16.1","","101.44","","","","-11","","NA"
"-94.97","74.72","RESOLUTE BAY A","2403498","2019-06-06 03:00","2019","06","06","03:00","-4.3","","-5.0","","95","","","","29","","14","","24.1","","101.41","","","","-9","","Cloudy"
"-94.97","74.72","RESOLUTE BAY A","2403498","2019-06-06 04:00","2019","06","06","04:00","-3.9","","-4.5","","95","","","","30","","17","","24.1","","101.39","","","","-10","","NA"
"-94.97","74.72","RESOLUTE BAY A","2403498","2019-06-06 05:00","2019","06","06","05:00","-3.5","","-4.1","","96","","","","30","","15","","24.1","","101.37","","","","-9","","NA"
"-94.97","74.72","RESOLUTE BAY A","2403498","2019-06-06 06:00","2019","06","06","06:00","-3.0","","-3.6","","96","","","","30","","14","","24.1","","101.35","","","","-8","","Cloudy"
"-94.97","74.72","RESOLUTE BAY A","2403498","2019-06-06 07:00","2019","06","06","07:00","-2.1","","-2.8","","95","","","","31","","13","","24.1","","101.33","","","","-7","","NA"
"-94.97","74.72","RESOLUTE BAY A","2403498","2019-06-06 08:00","2019","06","06","08:00","-1.4","","-3.1","","88","","","","30","","17","","19.3","","101.30","","","","-7","","NA"
"-94.97","74.72","RESOLUTE BAY A","2403498","2019-06-06 09:00","2019","06","06","09:00","-0.4","","-2.7","","85","","","","29","","15","","24.1","","101.28","","","","-5","","Mainly Clear"
"-94.97","74.72","RESOLUTE BAY A","2403498","2019-06-06 10:00","2019","06","06","10:00","0.1","","-2.6","","82","","","","32","","14","","24.1","","101.26","","","","","","NA"
"-94.97","74.72","RESOLUTE BAY A","2403498","2019-06-06 11:00","2019","06","06","11:00","0.8","","-2.7","","77","","","","33","","18","","24.1","","101.26","","","","","","NA"
"-94.97","74.72","RESOLUTE BAY A","2403498","2019-06-06 12:00","2019","06","06","12:00","0.4","","-2.2","","83","","","","27","","20","","24.1","","101.26","","","","","","Mostly Cloudy"
"-94.97","74.72","RESOLUTE BAY A","2403498","2019-06-06 13:00","2019","06","06","13:00","0.3","","-1.8","","86","","","","32","","24","","24.1","","101.26","","","","","","NA"
"-94.97","74.72","RESOLUTE BAY A","2403498","2019-06-06 14:00","2019","06","06","14:00","0.3","","-1.9","","85","","","","32","","19","","24.1","","101.27","","","","","","NA"
"-94.97","74.72","RESOLUTE BAY A","2403498","2019-06-06 15:00","2019","06","06","15:00","0.3","","-1.8","","86","","","","34","","18","","24.1","","101.28","","","","","","Mostly Cloudy"
"-94.97","74.72","RESOLUTE BAY A","2403498","2019-06-06 16:00","2019","06","06","16:00","0.4","","-1.6","","86","","","","33","","16","","24.1","","101.29","","","","","","NA"
"-94.97","74.72","RESOLUTE BAY A","2403498","2019-06-06 17:00","2019","06","06","17:00","0.2","","-1.5","","88","","","","33","","19","","24.1","","101.29","","","","","","NA"
"-94.97","74.72","RESOLUTE BAY A","2403498","2019-06-06 18:00","2019","06","06","18:00","0.0","","-1.9","","87","","","","34","","20","","24.1","","101.29","","","","-5","","Mostly Cloudy"
"-94.97","74.72","RESOLUTE BAY A","2403498","2019-06-06 19:00","2019","06","06","19:00","-0.3","","-2.0","","88","","","","36","","16","","24.1","","101.29","","","","-5","","NA"
"-94.97","74.72","RESOLUTE BAY A","2403498","2019-06-06 20:00","2019","06","06","20:00","-1.4","","-2.4","","93","","","","36","","14","","24.1","","101.29","","","","-6","","NA"
"-94.97","74.72","RESOLUTE BAY A","2403498","2019-06-06 21:00","2019","06","06","21:00","-0.8","","-2.7","","87","","","","35","","11","","24.1","","101.29","","","","-5","","Mostly Cloudy"
"-94.97","74.72","RESOLUTE BAY A","2403498","2019-06-06 22:00","2019","06","06","22:00","-0.9","","-2.4","","89","","","","35","","16","","24.1","","101.30","","","","-6","","NA"
"-94.97","74.72","RESOLUTE BAY A","2403498","2019-06-06 23:00","2019","06","06","23:00","-1.0","","-2.4","","90","","","","35","","10","","24.1","","101.30","","","","-5","","NA"
"-94.97","74.72","RESOLUTE BAY A","2403498","2019-06-07 00:00","2019","06","07","00:00","-1.5","","-2.8","","91","","","","1","","18","","24.1","","101.32","","","","-7","","Cloudy"
"-94.97","74.72","RESOLUTE BAY A","2403498","2019-06-07 01:00","2019","06","07","01:00","-0.7","","-3.3","","83","","","","3","","9","","24.1","","101.33","","","","-4","","NA"
"-94.97","74.72","RESOLUTE BAY A","2403498","2019-06-07 02:00","2019","06","07","02:00","-0.9","","-3.3","","84","","","","2","","9","","24.1","","101.37","","","","-4","","NA"
"-94.97","74.72","RESOLUTE BAY A","2403498","2019-06-07 03:00","2019","06","07","03:00","-0.7","","-3.5","","81","","","","4","","10","","24.1","","101.38","","","","-4","","Cloudy"
"-94.97","74.72","RESOLUTE BAY A","2403498","2019-06-07 04:00","2019","06","07","04:00","-0.3","","-3.5","","79","","","","3","","10","","24.1","","101.40","","","","-4","","NA"
"-94.97","74.72","RESOLUTE BAY A","2403498","2019-06-07 05:00","2019","06","07","05:00","-0.1","","-3.2","","80","","","","9","","3","","24.1","","101.42","","","","-1","","NA"
"-94.97","74.72","RESOLUTE BAY A","2403498","2019-06-07 06:00","2019","06","07","06:00","0.3","","-3.2","","77","","","","5","","9","","24.1","","101.44","","","","","","Cloudy"
"-94.97","74.72","RESOLUTE BAY A","2403498","2019-06-07 07:00","2019","06","07","07:00","0.6","","-3.0","","76","","","","4","","12","","24.1","","101.47","","","","","","NA"
"-94.97","74.72","RESOLUTE BAY A","2403498","2019-06-07 08:00","2019","06","07","08:00","0.9","","-2.4","","79","","","","36","","1","","24.1","","101.48","","","","","","NA"
"-94.97","74.72","RESOLUTE BAY A","2403498","2019-06-07 09:00","2019","06","07","09:00","0.9","","-2.4","","78","","","","31","","10","","24.1","","101.48","","","","","","Mostly Cloudy"
"-94.97","74.72","RESOLUTE BAY A","2403498","2019-06-07 10:00","2019","06","07","10:00","1.1","","-1.9","","81","","","","36","","13","","24.1","","101.49","","","","","","NA"
"-94.97","74.72","RESOLUTE BAY A","2403498","2019-06-07 11:00","2019","06","07","11:00","1.5","","-1.5","","80","","","","4","","15","","24.1","","101.51","","","","","","NA"
"-94.97","74.72","RESOLUTE BAY A","2403498","2019-06-07 12:00","2019","06","07","12:00","1.2","","-1.4","","83","","","","4","","21","","24.1","","101.52","","","","","","Mostly Cloudy"
"-94.97","74.72","RESOLUTE BAY A","2403498","2019-06-07 13:00","2019","06","07","13:00","1.7","","-0.6","","85","","","","3","","15","","24.1","","101.51","","","","","","NA"
"-94.97","74.72","RESOLUTE BAY A","2403498","2019-06-07 14:00","2019","06","07","14:00","2.9","","-0.9","","76","","","","8","","14","","24.1","","101.53","","","","","","NA"
"-94.97","74.72","RESOLUTE BAY A","2403498","2019-06-07 15:00","2019","06","07","15:00","2.8","","-0.8","","77","","","","5","","17","","24.1","","101.54","","","","","","Mainly Clear"
"-94.97","74.72","RESOLUTE BAY A","2403498","2019-06-07 16:00","2019","06","07","16:00","3.0","","-0.7","","77","","","","6","","16","","24.1","","101.55","","","","","","NA"
"-94.97","74.72","RESOLUTE BAY A","2403498","2019-06-07 17:00","2019","06","07","17:00","2.4","","-0.7","","80","","","","5","","16","","24.1","","101.55","","","","","","NA"
"-94.97","74.72","RESOLUTE BAY A","2403498","2019-06-07 18:00","2019","06","07","18:00","2.7","","-0.9","","77","","","","4","","13","","24.1","","101.55","","","","","","Mainly Clear"
"-94.97","74.72","RESOLUTE BAY A","2403498","2019-06-07 19:00","2019","06","07","19:00","2.7","","-0.6","","79","","","","36","","1","","24.1","","101.57","","","","","","NA"
"-94.97","74.72","RESOLUTE BAY A","2403498","2019-06-07 20:00","2019","06","07","20:00","1.5","","-1.1","","83","","","","4","","17","","24.1","","101.57","","","","","","NA"
"-94.97","74.72","RESOLUTE BAY A","2403498","2019-06-07 21:00","2019","06","07","21:00","2.0","","-1.1","","80","","","","36","","2","","24.1","","101.57","","","","","","Mostly Cloudy"
"-94.97","74.72","RESOLUTE BAY A","2403498","2019-06-07 22:00","2019","06","07","22:00","2.3","","-1.4","","77","","","","19","","3","","24.1","","101.54","","","","","","NA"
"-94.97","74.72","RESOLUTE BAY A","2403498","2019-06-07 23:00","2019","06","07","23:00","1.9","","-1.7","","77","","","","","","0","","24.1","","101.55","","","","","","NA"
"-94.97","74.72","RESOLUTE BAY A","2403498","2019-06-08 00:00","2019","06","08","00:00","1.9","","-1.5","","78","","","","32","","3","","24.1","","101.55","","","","","","Mostly Cloudy"
"-94.97","74.72","RESOLUTE BAY A","2403498","2019-06-08 01:00","2019","06","08","01:00","2.6","","-1.4","","75","","","","36","","3","","24.1","","101.54","","","","","","NA"
"-94.97","74.72","RESOLUTE BAY A","2403498","2019-06-08 02:00","2019","06","08","02:00","2.7","","-1.7","","73","","","","36","","3","","24.1","","101.53","","","","","","NA"
"-94.97","74.72","RESOLUTE BAY A","2403498","2019-06-08 03:00","2019","06","08","03:00","1.1","","-0.9","","86","","","","36","","2","","24.1","","101.54","","","","","","Mostly Cloudy"
"-94.97","74.72","RESOLUTE BAY A","2403498","2019-06-08 04:00","2019","06","08","04:00","1.2","","-1.0","","85","","","","36","","3","","24.1","","101.55","","","","","","NA"
"-94.97","74.72","RESOLUTE BAY A","2403498","2019-06-08 05:00","2019","06","08","05:00","1.1","","-1.0","","86","","","","18","","5","","24.1","","101.56","","","","","","NA"
"-94.97","74.72","RESOLUTE BAY A","2403498","2019-06-08 06:00","2019","06","08","06:00","1.4","","-0.9","","85","","","","27","","3","","24.1","","101.56","","","","","","Mostly Cloudy"
"-94.97","74.72","RESOLUTE BAY A","2403498","2019-06-08 07:00","2019","06","08","07:00","1.9","","-0.8","","82","","","","36","","2","","24.1","","101.59","","","","","","NA"
"-94.97","74.72","RESOLUTE BAY A","2403498","2019-06-08 08:00","2019","06","08","08:00","5.2","","0.7","","72","","","","","","0","","32.2","","101.59","","","","","","NA"
"-94.97","74.72","RESOLUTE BAY A","2403498","2019-06-08 09:00","2019","06","08","09:00","5.9","","0.5","","68","","","","","","0","","32.2","","101.59","","","","","","Mostly Cloudy"
"-94.97","74.72","RESOLUTE BAY A","2403498","2019-06-08 10:00","2019","06","08","10:00","6.5","","1.3","","69","","","","18","","5","","32.2","","101.61","","","","","","NA"
"-94.97","74.72","RESOLUTE BAY A","2403498","2019-06-08 11:00","2019","06","08","11:00","5.7","","1.3","","73","","","","27","","5","","32.2","","101.62","","","","","","NA"
"-94.97","74.72","RESOLUTE BAY A","2403498","2019-06-08 12:00","2019","06","08","12:00","4.9","","1.6","","78","","","","27","","5","","32.2","","101.62","","","","","","Mostly Cloudy"
"-94.97","74.72","RESOLUTE BAY A","2403498","2019-06-08 13:00","2019","06","08","13:00","5.0","","1.1","","76","","","","32","","8","","32.2","","101.61","","","","","","NA"
"-94.97","74.72","RESOLUTE BAY A","2403498","2019-06-08 14:00","2019","06","08","14:00","2.3","","1.0","","90","","","","32","","5","","24.1","","101.64","","","","","","NA"
"-94.97","74.72","RESOLUTE BAY A","2403498","2019-06-08 15:00","2019","06","08","15:00","3.0","","2.3","","95","","","","18","","9","","32.2","","101.67","","","","","","Mostly Cloudy"
"-94.97","74.72","RESOLUTE BAY A","2403498","2019-06-08 16:00","2019","06","08","16:00","2.3","","1.1","","92","","","","18","","5","","32.2","","101.69","","","","","","NA"
"-94.97","74.72","RESOLUTE BAY A","2403498","2019-06-08 17:00","2019","06","08","17:00","3.0","","0.4","","83","","","","23","","5","","32.2","","101.68","","","","","","NA"
"-94.97","74.72","RESOLUTE BAY A","2403498","2019-06-08 18:00","2019","06","08","18:00","3.1","","0.7","","84","","","","27","","5","","32.2","","101.69","","","","","","Mostly Cloudy"
"-94.97","74.72","RESOLUTE BAY A","2403498","2019-06-08 19:00","2019","06","08","19:00","4.0","","0.3","","76","","","","32","","5","","32.2","","101.68","","","","","","NA"
"-94.97","74.72","RESOLUTE BAY A","2403498","2019-06-08 20:00","2019","06","08","20:00","3.6","","-0.1","","76","","","","5","","11","","32.2","","101.68","","","","","","NA"
"-94.97","74.72","RESOLUTE BAY A","2403498","2019-06-08 21:00","2019","06","08","21:00","3.5","","-1.0","","72","","","","27","","4","","32.2","","101.67","","","","","","Mainly Clear"
"-94.97","74.72","RESOLUTE BAY A","2403498","2019-06-08 22:00","2019","06","08","22:00","2.7","","0.4","","84","","","","18","","11","","32.2","","101.67","","","","","","NA"
"-94.97","74.72","RESOLUTE BAY A","2403498","2019-06-08 23:00","2019","06","08","23:00","2.6","","0.0","","82","","","","18","","9","","32.2","","101.71","","","","","","NA"
"-94.97","74.72","RESOLUTE BAY A","2403498","2019-06-09 00:00","2019","06","09","00:00","1.3","","-0.1","","90","","","","9","","13","","32.2","","101.69","","","","","","Mainly Clear"
"-94.97","74.72","RESOLUTE BAY A","2403498","2019-06-09 01:00","2019","06","09","01:00","1.6","","-0.4","","86","","","","9","","8","","32.2","","101.71","","","","","","NA"
"-94.97","74.72","RESOLUTE BAY A","2403498","2019-06-09 02:00","2019","06","09","02:00","1.4","","-1.3","","82","","","","18","","4","","32.2","","101.69","","","","","","NA"
"-94.97","74.72","RESOLUTE BAY A","2403498","2019-06-09 03:00","2019","06","09","03:00","0.4","","-1.0","","90","","","","0","","1","","32.2","","101.68","","","","","","Mainly Clear"
"-94.97","74.72","RESOLUTE BAY A","2403498","2019-06-09 04:00","2019","06","09","04:00","1.7","","-2.4","","74","","","","18","","4","","32.2","","101.68","","","","","","NA"
"-94.97","74.72","RESOLUTE BAY A","2403498","2019-06-09 05:00","2019","06","09","05:00","-1.7","","-2.7","","92","","","","18","","13","","24.1","","101.70","","","","-6","","NA"
"-94.97","74.72","RESOLUTE BAY A","2403498","2019-06-09 06:00","2019","06","09","06:00","-3.3","","-3.3","","100","","","","27","","15","","11.3","","101.69","","","","-8","","Mainly Clear"
"-94.97","74.72","RESOLUTE BAY A","2403498","2019-06-09 07:00","2019","06","09","07:00","-1.0","","-2.1","","92","","","","18","","5","","11.3","","101.69","","","","-3","","NA"
"-94.97","74.72","RESOLUTE BAY A","2403498","2019-06-09 08:00","2019","06","09","08:00","-0.3","","-1.7","","90","","","","18","","8","","24.1","","101.70","","","","-3","","NA"
"-94.97","74.72","RESOLUTE BAY A","2403498","2019-06-09 09:00","2019","06","09","09:00","0.7","","-1.1","","87","","","","18","","9","","24.1","","101.69","","","","","","Mostly Cloudy"
"-94.97","74.72","RESOLUTE BAY A","2403498","2019-06-09 10:00","2019","06","09","10:00","1.2","","-1.2","","84","","","","18","","5","","32.2","","101.70","","","","","","NA"
"-94.97","74.72","RESOLUTE BAY A","2403498","2019-06-09 11:00","2019","06","09","11:00","2.7","","-0.8","","77","","","","18","","11","","32.2","","101.69","","","","","","NA"
"-94.97","74.72","RESOLUTE BAY A","2403498","2019-06-09 12:00","2019","06","09","12:00","2.9","","-0.1","","80","","","","18","","13","","32.2","","101.68","","","","","","Mostly Cloudy"
"-94.97","74.72","RESOLUTE BAY A","2403498","2019-06-09 13:00","2019","06","09","13:00","3.4","","-0.4","","76","","","","18","","13","","32.2","","101.67","","","","","","NA"
"-94.97","74.72","RESOLUTE BAY A","2403498","2019-06-09 14:00","2019","06","09","14:00","2.7","","0.2","","83","","","","27","","8","","32.2","","101.66","","","","","","NA"
"-94.97","74.72","RESOLUTE BAY A","2403498","2019-06-09 15:00","2019","06","09","15:00","3.5","","-0.4","","75","","","","27","","9","","32.2","","101.63","","","","","","Mostly Cloudy"
"-94.97","74.72","RESOLUTE BAY A","2403498","2019-06-09 16:00","2019","06","09","16:00","2.7","","-1.3","","74","","","","27","","9","","32.2","","101.62","","","","","","NA"
"-94.97","74.72","RESOLUTE BAY A","2403498","2019-06-09 17:00","2019","06","09","17:00","2.4","","-1.8","","73","","","","32","","11","","32.2","","101.59","","","","","","NA"
"-94.97","74.72","RESOLUTE BAY A","2403498","2019-06-09 18:00","2019","06","09","18:00","3.6","","-1.1","","71","","","","9","","17","","32.2","","101.57","","","","","","Cloudy"
"-94.97","74.72","RESOLUTE BAY A","2403498","2019-06-09 19:00","2019","06","09","19:00","4.6","","-1.6","","64","","","","27","","18","","32.2","","101.54","","","","","","NA"
"-94.97","74.72","RESOLUTE BAY A","2403498","2019-06-09 20:00","2019","06","09","20:00","3.0","","-1.6","","71","","","","9","","24","","24.1","","101.51","","","","","","NA"
"-94.97","74.72","RESOLUTE BAY A","2403498","2019-06-09 21:00","2019","06","09","21:00","2.6","","-1.8","","73","","","","9","","32","","32.2","","101.45","","","","","","Mostly Cloudy"
"-94.97","74.72","RESOLUTE BAY A","2403498","2019-06-09 22:00","2019","06","09","22:00","2.3","","-2.0","","73","","","","9","","37","","32.2","","101.36","","","","","","NA"
"-94.97","74.72","RESOLUTE BAY A","2403498","2019-06-09 23:00","2019","06","09","23:00","3.1","","-2.3","","67","","","","9","","24","","32.2","","101.36","","","","","","NA"
"-94.97","74.72","RESOLUTE BAY A","2403498","2019-06-10 00:00","2019","06","10","00:00","2.6","","-2.2","","70","","","","9","","35","","32.2","","101.30","","","","","","Mostly Cloudy"
"-94.97","74.72","RESOLUTE BAY A","2403498","2019-06-10 01:00","2019","06","10","01:00","2.7","","-2.4","","69","","","","9","","28","","24.1","","101.30","","","","","","NA"
"-94.97","74.72","RESOLUTE BAY A","2403498","2019-06-10 02:00","2019","06","10","02:00","2.3","","-1.7","","74","","","","9","","30","","24.1","","101.18","","","","","","NA"
"-94.97","74.72","RESOLUTE BAY A","2403498","2019-06-10 03:00","2019","06","10","03:00","2.2","","-0.8","","80","","","","9","","28","","24.1","","101.13","","","","","","Mostly Cloudy"
"-94.97","74.72","RESOLUTE BAY A","2403498","2019-06-10 04:00","2019","06","10","04:00","3.3","","-1.8","","69","","","","9","","30","","32.2","","101.08","","","","","","NA"
"-94.97","74.72","RESOLUTE BAY A","2403498","2019-06-10 05:00","2019","06","10","05:00","2.7","","-0.7","","78","","","","9","","32","","24.1","","101.00","","","","","","NA"
"-94.97","74.72","RESOLUTE BAY A","2403498","2019-06-10 06:00","2019","06","10","06:00","3.5","","-1.6","","69","","","","9","","34","","24.1","","100.91","","","","","","Cloudy"
"-94.97","74.72","RESOLUTE BAY A","2403498","2019-06-10 07:00","2019","06","10","07:00","3.5","","-1.4","","70","","","","9","","22","","24.1","","100.84","","","","","","NA"
"-94.97","74.72","RESOLUTE BAY A","2403498","2019-06-10 08:00","2019","06","10","08:00","3.5","","-1.2","","71","","","","9","","34","","24.1","","100.80","","","","","","NA"
"-94.97","74.72","RESOLUTE BAY A","2403498","2019-06-10 09:00","2019","06","10","09:00","2.9","","-0.5","","78","","","","9","","41","","24.1","","100.71","","","","","","Cloudy"
"-94.97","74.72","RESOLUTE BAY A","2403498","2019-06-10 10:00","2019","06","10","10:00","2.5","","-1.1","","77","","","","9","","41","","24.1","","100.62","","","","","","NA"
"-94.97","74.72","RESOLUTE BAY A","2403498","2019-06-10 11:00","2019","06","10","11:00","2.1","","-0.8","","81","","","","9","","35","","24.1","","100.46","","","","","","NA"
"-94.97","74.72","RESOLUTE BAY A","2403498","2019-06-10 12:00","2019","06","10","12:00","2.0","","1.4","","95","","","","9","","41","","11.3","","100.36","","","","","","Rain,Snow"
"-94.97","74.72","RESOLUTE BAY A","2403498","2019-06-10 13:00","2019","06","10","13:00","1.8","","1.8","","100","","","","9","","41","","12.9","","100.24","","","","","","Rain,Snow"
"-94.97","74.72","RESOLUTE BAY A","2403498","2019-06-10 14:00","2019","06","10","14:00","1.7","","1.7","","100","","","","9","","43","","8.1","","100.15","","","","","","Rain,Snow"
"-94.97","74.72","RESOLUTE BAY A","2403498","2019-06-10 15:00","2019","06","10","15:00","1.8","","1.8","","100","","","","9","","39","","6.4","","100.01","","","","","","Rain,Snow"
"-94.97","74.72","RESOLUTE BAY A","2403498","2019-06-10 16:00","2019","06","10","16:00","1.4","","0.4","","93","","","","6","","40","","9.7","","99.88","","","","","","Rain,Snow"
"-94.97","74.72","RESOLUTE BAY A","2403498","2019-06-10 17:00","2019","06","10","17:00","1.4","","0.2","","92","","","","7","","52","","4.8","","99.75","","","","","","Rain,Snow"
"-94.97","74.72","RESOLUTE BAY A","2403498","2019-06-10 18:00","2019","06","10","18:00","1.0","","0.1","","94","","","","7","","46","","4.8","","99.64","","","","","","Rain,Snow"
"-94.97","74.72","RESOLUTE BAY A","2403498","2019-06-10 19:00","2019","06","10","19:00","0.9","","0.0","","94","","","","8","","58","","4.8","","99.54","","","","","","Rain,Snow"
"-94.97","74.72","RESOLUTE BAY A","2403498","2019-06-10 20:00","2019","06","10","20:00","0.7","","-0.2","","94","","","","10","","56","","11.3","","99.47","","","","","","Rain,Snow"
"-94.97","74.72","RESOLUTE BAY A","2403498","2019-06-10 21:00","2019","06","10","21:00","0.4","","-0.4","","95","","","","10","","53","","14.5","","99.40","","","","","","Rain,Snow"
"-94.97","74.72","RESOLUTE BAY A","2403498","2019-06-10 22:00","2019","06","10","22:00","0.3","","-0.5","","95","","","","10","","53","","9.7","","99.34","","","","","","Rain,Snow"
"-94.97","74.72","RESOLUTE BAY A","2403498","2019-06-10 23:00","2019","06","10","23:00","0.2","","-0.5","","95","","","","11","","45","","14.5","","99.32","","","","","","Rain,Snow"
"-94.97","74.72","RESOLUTE BAY A","2403498","2019-06-11 00:00","2019","06","11","00:00","0.2","","-0.4","","96","","","","11","","41","","14.5","","99.33","","","","","","Rain,Snow"
"-94.97","74.72","RESOLUTE BAY A","2403498","2019-06-11 01:00","2019","06","11","01:00","0.3","","-0.2","","97","","","","10","","37","","14.5","","99.32","","","","","","NA"
"-94.97","74.72","RESOLUTE BAY A","2403498","2019-06-11 02:00","2019","06","11","02:00","0.7","","-0.1","","94","","","","9","","31","","16.1","","99.33","","","","","","NA"
"-94.97","74.72","RESOLUTE BAY A","2403498","2019-06-11 03:00","2019","06","11","03:00","0.6","","-0.2","","94","","","","10","","38","","16.1","","99.34","","","","","","Cloudy"
"-94.97","74.72","RESOLUTE BAY A","2403498","2019-06-11 04:00","2019","06","11","04:00","0.7","","-0.3","","93","","","","10","","39","","16.1","","99.34","","","","","","Snow"
"-94.97","74.72","RESOLUTE BAY A","2403498","2019-06-11 05:00","2019","06","11","05:00","0.7","","-0.2","","94","","","","11","","34","","16.1","","99.33","","","","","","Snow"
"-94.97","74.72","RESOLUTE BAY A","2403498","2019-06-11 06:00","2019","06","11","06:00","1.0","","-0.2","","92","","","","10","","39","","12.9","","99.34","","","","","","Snow"
"-94.97","74.72","RESOLUTE BAY A","2403498","2019-06-11 07:00","2019","06","11","07:00","0.8","","-0.1","","94","","","","10","","40","","12.9","","99.31","","","","","","Snow"
"-94.97","74.72","RESOLUTE BAY A","2403498","2019-06-11 08:00","2019","06","11","08:00","1.0","","0.0","","93","","","","10","","43","","11.3","","99.29","","","","","","Snow"
"-94.97","74.72","RESOLUTE BAY A","2403498","2019-06-11 09:00","2019","06","11","09:00","1.0","","0.1","","93","","","","10","","43","","12.9","","99.27","","","","","","Snow"
"-94.97","74.72","RESOLUTE BAY A","2403498","2019-06-11 10:00","2019","06","11","10:00","1.1","","0.2","","93","","","","10","","37","","16.1","","99.26","","","","","","Snow"
"-94.97","74.72","RESOLUTE BAY A","2403498","2019-06-11 11:00","2019","06","11","11:00","1.1","","0.2","","93","","","","10","","37","","16.1","","99.23","","","","","","Snow"
"-94.97","74.72","RESOLUTE BAY A","2403498","2019-06-11 12:00","2019","06","11","12:00","1.1","","0.2","","93","","","","10","","42","","16.1","","99.24","","","","","","Snow"
"-94.97","74.72","RESOLUTE BAY A","2403498","2019-06-11 13:00","2019","06","11","13:00","1.1","","0.2","","93","","","","10","","35","","16.1","","99.25","","","","","","Snow"
"-94.97","74.72","RESOLUTE BAY A","2403498","2019-06-11 14:00","2019","06","11","14:00","1.1","","0.1","","93","","","","10","","42","","14.5","","99.27","","","","","","Snow"
"-94.97","74.72","RESOLUTE BAY A","2403498","2019-06-11 15:00","2019","06","11","15:00","1.0","","0.1","","94","","","","11","","37","","6.4","","99.28","","","","","","Snow"
"-94.97","74.72","RESOLUTE BAY A","2403498","2019-06-11 16:00","2019","06","11","16:00","0.9","","0.1","","94","","","","11","","41","","9.7","","99.31","","","","","","Snow"
"-94.97","74.72","RESOLUTE BAY A","2403498","2019-06-11 17:00","2019","06","11","17:00","1.2","","0.2","","93","","","","11","","37","","14.5","","99.32","","","","","","Snow"
"-94.97","74.72","RESOLUTE BAY A","2403498","2019-06-11 18:00","2019","06","11","18:00","1.0","","0.1","","94","","","","11","","35","","11.3","","99.37","","","","","","Snow"
"-94.97","74.72","RESOLUTE BAY A","2403498","2019-06-11 19:00","2019","06","11","19:00","1.2","","0.2","","93","","","","12","","32","","19.3","","99.40","","","","","","Snow"
"-94.97","74.72","RESOLUTE BAY A","2403498","2019-06-11 20:00","2019","06","11","20:00","1.3","","-0.1","","90","","","","13","","29","","24.1","","99.46","","","","","","NA"
"-94.97","74.72","RESOLUTE BAY A","2403498","2019-06-11 21:00","2019","06","11","21:00","1.1","","-0.1","","92","","","","15","","21","","24.1","","99.51","","","","","","Cloudy"
"-94.97","74.72","RESOLUTE BAY A","2403498","2019-06-11 22:00","2019","06","11","22:00","0.7","","-0.2","","93","","","","14","","24","","24.1","","99.56","","","","","","NA"
"-94.97","74.72","RESOLUTE BAY A","2403498","2019-06-11 23:00","2019","06","11","23:00","0.6","","-0.3","","94","","","","14","","20","","24.1","","99.61","","","","","","NA"
"-94.97","74.72","RESOLUTE BAY A","2403498","2019-06-12 00:00","2019","06","12","00:00","0.6","","-0.2","","94","","","","14","","20","","24.1","","99.66","","","","","","Cloudy"
"-94.97","74.72","RESOLUTE BAY A","2403498","2019-06-12 01:00","2019","06","12","01:00","0.4","","-0.3","","95","","","","13","","21","","16.1","","99.73","","","","","","Drizzle"
"-94.97","74.72","RESOLUTE BAY A","2403498","2019-06-12 02:00","2019","06","12","02:00","0.4","","-0.1","","96","","","","14","","18","","12.9","","99.79","","","","","","Drizzle"
"-94.97","74.72","RESOLUTE BAY A","2403498","2019-06-12 03:00","2019","06","12","03:00","0.2","","-0.2","","97","","","","15","","16","","3.2","","99.86","","","","","","Drizzle,Fog"
"-94.97","74.72","RESOLUTE BAY A","2403498","2019-06-12 04:00","2019","06","12","04:00","0.1","","-0.2","","98","","","","15","","9","","0.8","","99.93","","","","","","Drizzle,Fog"
"-94.97","74.72","RESOLUTE BAY A","2403498","2019-06-12 05:00","2019","06","12","05:00","0.0","","-0.3","","98","","","","16","","14","","0.6","","100.00","","","","-4","","Fog"
"-94.97","74.72","RESOLUTE BAY A","2403498","2019-06-12 06:00","2019","06","12","06:00","0.0","","-0.3","","98","","","","16","","15","","0.6","","100.06","","","","-4","","Fog"
"-94.97","74.72","RESOLUTE BAY A","2403498","2019-06-12 07:00","2019","06","12","07:00","-0.1","","-0.4","","98","","","","15","","14","","0.8","","100.11","","","","-4","","Freezing Fog"
"-94.97","74.72","RESOLUTE BAY A","2403498","2019-06-12 08:00","2019","06","12","08:00","0.0","","-0.3","","98","","","","15","","15","","1.0","","100.16","","","","-4","","Fog"
"-94.97","74.72","RESOLUTE BAY A","2403498","2019-06-12 09:00","2019","06","12","09:00","-0.1","","-0.3","","98","","","","16","","13","","0.8","","100.21","","","","-4","","Freezing Fog"
"-94.97","74.72","RESOLUTE BAY A","2403498","2019-06-12 10:00","2019","06","12","10:00","0.4","","0.2","","98","","","","14","","15","","1.0","","100.24","","","","","","Fog"
"-94.97","74.72","RESOLUTE BAY A","2403498","2019-06-12 11:00","2019","06","12","11:00","0.4","","0.1","","98","","","","15","","14","","1.0","","100.28","","","","","","Fog"
"-94.97","74.72","RESOLUTE BAY A","2403498","2019-06-12 12:00","2019","06","12","12:00","0.8","","0.1","","95","","","","16","","13","","8.1","","100.31","","","","","","Fog"
"-94.97","74.72","RESOLUTE BAY A","2403498","2019-06-12 13:00","2019","06","12","13:00","1.2","","0.0","","92","","","","16","","8","","11.3","","100.36","","","","","","NA"
"-94.97","74.72","RESOLUTE BAY A","2403498","2019-06-12 14:00","2019","06","12","14:00","1.0","","-0.1","","93","","","","15","","11","","11.3","","100.43","","","","","","NA"
"-94.97","74.72","RESOLUTE BAY A","2403498","2019-06-12 15:00","2019","06","12","15:00","0.6","","-0.4","","93","","","","18","","10","","11.3","","100.46","","","","","","Mostly Cloudy"
"-94.97","74.72","RESOLUTE BAY A","2403498","2019-06-12 16:00","2019","06","12","16:00","0.9","","-0.3","","92","","","","16","","7","","19.3","","100.46","","","","","","NA"
"-94.97","74.72","RESOLUTE BAY A","2403498","2019-06-12 17:00","2019","06","12","17:00","1.4","","-0.9","","85","","","","14","","8","","16.1","","100.48","","","","","","NA"
"-94.97","74.72","RESOLUTE BAY A","2403498","2019-06-12 18:00","2019","06","12","18:00","0.9","","-0.9","","87","","","","23","","6","","16.1","","100.49","","","","","","Mostly Cloudy"
"-94.97","74.72","RESOLUTE BAY A","2403498","2019-06-12 19:00","2019","06","12","19:00","0.5","","-0.7","","91","","","","27","","8","","16.1","","100.47","","","","","","NA"
"-94.97","74.72","RESOLUTE BAY A","2403498","2019-06-12 20:00","2019","06","12","20:00","0.6","","-0.8","","90","","","","16","","4","","24.1","","100.49","","","","","","NA"
"-94.97","74.72","RESOLUTE BAY A","2403498","2019-06-12 21:00","2019","06","12","21:00","0.1","","-0.7","","94","","","","26","","3","","24.1","","100.45","","","","","","Cloudy"
"-94.97","74.72","RESOLUTE BAY A","2403498","2019-06-12 22:00","2019","06","12","22:00","-0.2","","-0.8","","96","","","","32","","9","","16.1","","100.42","","","","-3","","NA"
"-94.97","74.72","RESOLUTE BAY A","2403498","2019-06-12 23:00","2019","06","12","23:00","-0.1","","-1.1","","93","","","","4","","9","","24.1","","100.39","","","","-3","","NA"
"-94.97","74.72","RESOLUTE BAY A","2403498","2019-06-13 00:00","2019","06","13","00:00","-1.0","","-1.7","","95","","","","36","","7","","14.5","","100.38","","","","-4","","Mostly Cloudy"
"-94.97","74.72","RESOLUTE BAY A","2403498","2019-06-13 01:00","2019","06","13","01:00","-0.9","","-1.9","","93","","","","4","","10","","14.5","","100.35","","","","-4","","NA"
"-94.97","74.72","RESOLUTE BAY A","2403498","2019-06-13 02:00","2019","06","13","02:00","-0.8","","-2.2","","90","","","","4","","9","","16.1","","100.32","","","","-4","","NA"
"-94.97","74.72","RESOLUTE BAY A","2403498","2019-06-13 03:00","2019","06","13","03:00","-0.6","","-2.2","","89","","","","6","","9","","16.1","","100.31","","","","-4","","Mainly Clear"
"-94.97","74.72","RESOLUTE BAY A","2403498","2019-06-13 04:00","2019","06","13","04:00","-0.6","","-1.6","","93","","","","36","","2","","24.1","","100.29","","","","-1","","NA"
"-94.97","74.72","RESOLUTE BAY A","2403498","2019-06-13 05:00","2019","06","13","05:00","-0.5","","-1.2","","95","","","","30","","5","","24.1","","100.27","","","","-2","","NA"
"-94.97","74.72","RESOLUTE BAY A","2403498","2019-06-13 06:00","2019","06","13","06:00","-0.9","","-1.6","","95","","","","27","","9","","14.5","","100.25","","","","-4","","Mostly Cloudy"
"-94.97","74.72","RESOLUTE BAY A","2403498","2019-06-13 07:00","2019","06","13","07:00","-1.8","","-2.5","","95","","","","28","","10","","9.7","","100.23","","","","-5","","Fog"
"-94.97","74.72","RESOLUTE BAY A","2403498","2019-06-13 08:00","2019","06","13","08:00","-0.8","","-1.5","","95","","","","33","","9","","19.3","","100.23","","","","-4","","NA"
"-94.97","74.72","RESOLUTE BAY A","2403498","2019-06-13 09:00","2019","06","13","09:00","-0.1","","-1.3","","92","","","","31","","9","","19.3","","100.22","","","","-3","","Mostly Cloudy"
"-94.97","74.72","RESOLUTE BAY A","2403498","2019-06-13 10:00","2019","06","13","10:00","-0.3","","-1.2","","93","","","","29","","13","","19.3","","100.24","","","","-4","","NA"
"-94.97","74.72","RESOLUTE BAY A","2403498","2019-06-13 11:00","2019","06","13","11:00","-0.1","","-1.7","","89","","","","28","","13","","19.3","","100.27","","","","-4","","NA"
"-94.97","74.72","RESOLUTE BAY A","2403498","2019-06-13 12:00","2019","06","13","12:00","-0.1","","-1.9","","88","","","","28","","13","","19.3","","100.28","","","","-4","","Mainly Clear"
"-94.97","74.72","RESOLUTE BAY A","2403498","2019-06-13 13:00","2019","06","13","13:00","0.1","","-1.6","","88","","","","27","","12","","16.1","","100.33","","","","","","NA"
"-94.97","74.72","RESOLUTE BAY A","2403498","2019-06-13 14:00","2019","06","13","14:00","0.0","","-1.6","","89","","","","20","","9","","19.3","","100.38","","","","-3","","NA"
"-94.97","74.72","RESOLUTE BAY A","2403498","2019-06-13 15:00","2019","06","13","15:00","0.0","","-1.5","","90","","","","25","","8","","19.3","","100.45","","","","-3","","Cloudy"
"-94.97","74.72","RESOLUTE BAY A","2403498","2019-06-13 16:00","2019","06","13","16:00","0.1","","-1.0","","92","","","","18","","15","","19.3","","100.51","","","","","","NA"
"-94.97","74.72","RESOLUTE BAY A","2403498","2019-06-13 17:00","2019","06","13","17:00","0.2","","-0.8","","93","","","","16","","18","","19.3","","100.56","","","","","","NA"
"-94.97","74.72","RESOLUTE BAY A","2403498","2019-06-13 18:00","2019","06","13","18:00","0.2","","-0.7","","93","","","","18","","21","","16.1","","100.60","","","","","","Cloudy"
"-94.97","74.72","RESOLUTE BAY A","2403498","2019-06-13 19:00","2019","06","13","19:00","0.2","","-1.4","","89","","","","18","","25","","24.1","","100.65","","","","","","NA"
"-94.97","74.72","RESOLUTE BAY A","2403498","2019-06-13 20:00","2019","06","13","20:00","0.3","","-1.4","","89","","","","17","","25","","14.5","","100.66","","","","","","Snow"
"-94.97","74.72","RESOLUTE BAY A","2403498","2019-06-13 21:00","2019","06","13","21:00","0.2","","-1.0","","91","","","","16","","19","","16.1","","100.68","","","","","","Cloudy"
"-94.97","74.72","RESOLUTE BAY A","2403498","2019-06-13 22:00","2019","06","13","22:00","0.2","","-0.8","","93","","","","14","","26","","16.1","","100.70","","","","","","Drizzle"
"-94.97","74.72","RESOLUTE BAY A","2403498","2019-06-13 23:00","2019","06","13","23:00","0.2","","-0.5","","95","","","","14","","27","","16.1","","100.71","","","","","","Drizzle"
"-94.97","74.72","RESOLUTE BAY A","2403498","2019-06-14 00:00","2019","06","14","00:00","0.0","","-0.5","","96","","","","13","","25","","14.5","","100.73","","","","-6","","Drizzle"
"-94.97","74.72","RESOLUTE BAY A","2403498","2019-06-14 01:00","2019","06","14","01:00","0.0","","-0.4","","97","","","","13","","17","","1.0","","100.75","","","","-5","","Drizzle,Fog"
"-94.97","74.72","RESOLUTE BAY A","2403498","2019-06-14 02:00","2019","06","14","02:00","0.0","","-0.5","","97","","","","13","","27","","16.1","","100.76","","","","-6","","NA"
"-94.97","74.72","RESOLUTE BAY A","2403498","2019-06-14 03:00","2019","06","14","03:00","0.0","","-1.4","","90","","","","13","","32","","24.1","","100.74","","","","-7","","Cloudy"
"-94.97","74.72","RESOLUTE BAY A","2403498","2019-06-14 04:00","2019","06","14","04:00","0.1","","-1.3","","91","","","","13","","32","","24.1","","100.77","","","","","","NA"
"-94.97","74.72","RESOLUTE BAY A","2403498","2019-06-14 05:00","2019","06","14","05:00","0.4","","-1.3","","88","","","","13","","32","","24.1","","100.77","","","","","","NA"
"-94.97","74.72","RESOLUTE BAY A","2403498","2019-06-14 06:00","2019","06","14","06:00","0.7","","-1.1","","88","","","","12","","33","","24.1","","100.77","","","","","","Cloudy"
"-94.97","74.72","RESOLUTE BAY A","2403498","2019-06-14 07:00","2019","06","14","07:00","1.0","","-0.8","","87","","","","12","","28","","24.1","","100.76","","","","","","NA"
"-94.97","74.72","RESOLUTE BAY A","2403498","2019-06-14 08:00","2019","06","14","08:00","1.7","","-0.3","","86","","","","12","","29","","24.1","","100.76","","","","","","NA"
"-94.97","74.72","RESOLUTE BAY A","2403498","2019-06-14 09:00","2019","06","14","09:00","2.0","","-0.3","","85","","","","13","","32","","19.3","","100.77","","","","","","Mostly Cloudy"
"-94.97","74.72","RESOLUTE BAY A","2403498","2019-06-14 10:00","2019","06","14","10:00","2.3","","-0.2","","84","","","","13","","34","","19.3","","100.75","","","","","","NA"
"-94.97","74.72","RESOLUTE BAY A","2403498","2019-06-14 11:00","2019","06","14","11:00","2.5","","-0.1","","83","","","","14","","34","","19.3","","100.74","","","","","","NA"
"-94.97","74.72","RESOLUTE BAY A","2403498","2019-06-14 12:00","2019","06","14","12:00","2.5","","0.1","","84","","","","13","","31","","19.3","","100.73","","","","","","Rain"
"-94.97","74.72","RESOLUTE BAY A","2403498","2019-06-14 13:00","2019","06","14","13:00","2.2","","0.4","","88","","","","14","","29","","12.9","","100.75","","","","","","Freezing Rain"
"-94.97","74.72","RESOLUTE BAY A","2403498","2019-06-14 14:00","2019","06","14","14:00","1.6","","0.2","","91","","","","15","","27","","11.3","","100.77","","","","","","Rain,Snow"
"-94.97","74.72","RESOLUTE BAY A","2403498","2019-06-14 15:00","2019","06","14","15:00","0.5","","-0.1","","96","","","","14","","23","","1.6","","100.78","","","","","","Snow"
"-94.97","74.72","RESOLUTE BAY A","2403498","2019-06-14 16:00","2019","06","14","16:00","0.5","","0.1","","97","","","","14","","26","","2.0","","100.80","","","","","","Snow"
"-94.97","74.72","RESOLUTE BAY A","2403498","2019-06-14 17:00","2019","06","14","17:00","0.3","","-0.2","","97","","","","14","","23","","2.0","","100.81","","","","","","Rain,Snow"
"-94.97","74.72","RESOLUTE BAY A","2403498","2019-06-14 18:00","2019","06","14","18:00","0.0","","-0.4","","98","","","","14","","27","","0.4","","100.81","","","","-6","","Heavy Snow"
"-94.97","74.72","RESOLUTE BAY A","2403498","2019-06-14 19:00","2019","06","14","19:00","0.1","","-0.2","","98","","","","13","","26","","0.8","","100.81","","","","","","Moderate Snow"
"-94.97","74.72","RESOLUTE BAY A","2403498","2019-06-14 20:00","2019","06","14","20:00","0.2","","-0.1","","98","","","","14","","27","","1.0","","100.82","","","","","","Snow,Fog"
"-94.97","74.72","RESOLUTE BAY A","2403498","2019-06-14 21:00","2019","06","14","21:00","0.1","","-0.2","","98","","","","14","","25","","1.6","","100.83","","","","","","Snow,Fog"
"-94.97","74.72","RESOLUTE BAY A","2403498","2019-06-14 22:00","2019","06","14","22:00","0.2","","0.0","","98","","","","13","","26","","1.6","","100.82","","","","","","Snow,Fog"
"-94.97","74.72","RESOLUTE BAY A","2403498","2019-06-14 23:00","2019","06","14","23:00","0.5","","0.3","","98","","","","14","","25","","1.6","","100.84","","","","","","Snow,Fog"
"-94.97","74.72","RESOLUTE BAY A","2403498","2019-06-15 00:00","2019","06","15","00:00","0.8","","0.5","","98","","","","14","","30","","2.0","","100.83","","","","","","Snow,Fog"
"-94.97","74.72","RESOLUTE BAY A","2403498","2019-06-15 01:00","2019","06","15","01:00","0.8","","0.6","","98","","","","14","","27","","1.6","","100.84","","","","","","Snow,Fog"
"-94.97","74.72","RESOLUTE BAY A","2403498","2019-06-15 02:00","2019","06","15","02:00","0.9","","0.7","","98","","","","13","","30","","1.6","","100.84","","","","","","Drizzle,Fog"
"-94.97","74.72","RESOLUTE BAY A","2403498","2019-06-15 03:00","2019","06","15","03:00","1.0","","0.7","","98","","","","12","","34","","2.0","","100.86","","","","","","Drizzle,Fog"
"-94.97","74.72","RESOLUTE BAY A","2403498","2019-06-15 04:00","2019","06","15","04:00","1.1","","0.8","","98","","","","13","","27","","2.0","","100.86","","","","","","Drizzle,Fog"
"-94.97","74.72","RESOLUTE BAY A","2403498","2019-06-15 05:00","2019","06","15","05:00","1.1","","0.8","","98","","","","13","","28","","1.6","","100.87","","","","","","Drizzle,Fog"
"-94.97","74.72","RESOLUTE BAY A","2403498","2019-06-15 06:00","2019","06","15","06:00","1.1","","0.8","","98","","","","13","","28","","2.0","","100.86","","","","","","Drizzle,Fog"
"-94.97","74.72","RESOLUTE BAY A","2403498","2019-06-15 07:00","2019","06","15","07:00","1.4","","1.0","","98","","","","13","","28","","14.5","","100.85","","","","","","Drizzle"
"-94.97","74.72","RESOLUTE BAY A","2403498","2019-06-15 08:00","2019","06","15","08:00","1.9","","1.2","","95","","","","12","","28","","19.3","","100.84","","","","","","NA"
"-94.97","74.72","RESOLUTE BAY A","2403498","2019-06-15 09:00","2019","06","15","09:00","1.9","","1.2","","95","","","","12","","32","","16.1","","100.81","","","","","","Cloudy"
"-94.97","74.72","RESOLUTE BAY A","2403498","2019-06-15 10:00","2019","06","15","10:00","2.2","","1.3","","94","","","","12","","30","","16.1","","100.79","","","","","","NA"
"-94.97","74.72","RESOLUTE BAY A","2403498","2019-06-15 11:00","2019","06","15","11:00","1.8","","1.2","","96","","","","11","","32","","2.8","","100.76","","","","","","Fog"
"-94.97","74.72","RESOLUTE BAY A","2403498","2019-06-15 12:00","2019","06","15","12:00","1.8","","1.4","","97","","","","11","","32","","2.8","","100.74","","","","","","Fog"
"-94.97","74.72","RESOLUTE BAY A","2403498","2019-06-15 13:00","2019","06","15","13:00","1.9","","1.4","","96","","","","12","","32","","11.3","","100.70","","","","","","Drizzle"
"-94.97","74.72","RESOLUTE BAY A","2403498","2019-06-15 14:00","2019","06","15","14:00","2.2","","1.6","","96","","","","12","","34","","12.9","","100.68","","","","","","Rain"
"-94.97","74.72","RESOLUTE BAY A","2403498","2019-06-15 15:00","2019","06","15","15:00","2.2","","1.4","","94","","","","11","","36","","11.3","","100.63","","","","","","Drizzle"
"-94.97","74.72","RESOLUTE BAY A","2403498","2019-06-15 16:00","2019","06","15","16:00","2.3","","1.4","","93","","","","11","","42","","16.1","","100.55","","","","","","NA"
"-94.97","74.72","RESOLUTE BAY A","2403498","2019-06-15 17:00","2019","06","15","17:00","2.2","","1.0","","92","","","","12","","41","","19.3","","100.50","","","","","","NA"
"-94.97","74.72","RESOLUTE BAY A","2403498","2019-06-15 18:00","2019","06","15","18:00","1.8","","1.0","","95","","","","11","","44","","11.3","","100.44","","","","","","Drizzle"
"-94.97","74.72","RESOLUTE BAY A","2403498","2019-06-15 19:00","2019","06","15","19:00","1.9","","1.4","","96","","","","12","","40","","2.0","","100.42","","","","","","Heavy Drizzle"
"-94.97","74.72","RESOLUTE BAY A","2403498","2019-06-15 20:00","2019","06","15","20:00","1.9","","1.4","","96","","","","12","","34","","3.6","","100.38","","","","","","Heavy Drizzle"
"-94.97","74.72","RESOLUTE BAY A","2403498","2019-06-15 21:00","2019","06","15","21:00","2.2","","1.2","","94","","","","13","","42","","4.0","","100.34","","","","","","Heavy Drizzle"
"-94.97","74.72","RESOLUTE BAY A","2403498","2019-06-15 22:00","2019","06","15","22:00","1.7","","1.1","","96","","","","14","","34","","1.6","","100.34","","","","","","Moderate Drizzle,Fog"
"-94.97","74.72","RESOLUTE BAY A","2403498","2019-06-15 23:00","2019","06","15","23:00","1.1","","0.8","","97","","","","14","","32","","0.8","","100.32","","","","","","Rain,Fog"
"-94.97","74.72","RESOLUTE BAY A","2403498","2019-06-16 00:00","2019","06","16","00:00","0.3","","0.0","","98","","","","15","","27","","0.8","","100.35","","","","","","Rain,Fog"
"-94.97","74.72","RESOLUTE BAY A","2403498","2019-06-16 01:00","2019","06","16","01:00","0.0","","-0.3","","98","","","","14","","24","","0.6","","100.32","","","","-6","","Snow,Fog"
"-94.97","74.72","RESOLUTE BAY A","2403498","2019-06-16 02:00","2019","06","16","02:00","-0.2","","-0.4","","98","","","","14","","23","","0.4","","100.35","","","","-6","","Snow,Freezing Fog"
"-94.97","74.72","RESOLUTE BAY A","2403498","2019-06-16 03:00","2019","06","16","03:00","-0.2","","-0.4","","98","","","","14","","18","","0.4","","100.36","","","","-5","","Snow,Freezing Fog"
"-94.97","74.72","RESOLUTE BAY A","2403498","2019-06-16 04:00","2019","06","16","04:00","-0.2","","-0.4","","98","","","","13","","15","","0.4","","100.38","","","","-5","","Snow,Freezing Fog"
"-94.97","74.72","RESOLUTE BAY A","2403498","2019-06-16 05:00","2019","06","16","05:00","-0.2","","-0.4","","98","","","","14","","13","","0.4","","100.38","","","","-4","","Snow,Freezing Fog"
"-94.97","74.72","RESOLUTE BAY A","2403498","2019-06-16 06:00","2019","06","16","06:00","-0.1","","-0.3","","98","","","","15","","13","","0.2","","100.39","","","","-4","","Moderate Freezing Drizzle,Snow"
"-94.97","74.72","RESOLUTE BAY A","2403498","2019-06-16 07:00","2019","06","16","07:00","-0.1","","-0.4","","98","","","","17","","13","","0.4","","100.42","","","","-4","","Snow,Freezing Fog"
"-94.97","74.72","RESOLUTE BAY A","2403498","2019-06-16 08:00","2019","06","16","08:00","-0.1","","-0.3","","98","","","","15","","14","","0.2","","100.42","","","","-4","","Snow,Freezing Fog"
"-94.97","74.72","RESOLUTE BAY A","2403498","2019-06-16 09:00","2019","06","16","09:00","0.0","","-0.2","","98","","","","19","","11","","0.4","","100.43","","","","-4","","Snow,Fog"
"-94.97","74.72","RESOLUTE BAY A","2403498","2019-06-16 10:00","2019","06","16","10:00","0.4","","0.1","","98","","","","22","","16","","0.4","","100.46","","","","","","Snow,Fog"
"-94.97","74.72","RESOLUTE BAY A","2403498","2019-06-16 11:00","2019","06","16","11:00","0.2","","-0.1","","98","","","","25","","12","","8.1","","100.51","","","","","","Fog"
"-94.97","74.72","RESOLUTE BAY A","2403498","2019-06-16 12:00","2019","06","16","12:00","0.4","","-0.3","","95","","","","24","","11","","19.3","","100.52","","","","","","Mostly Cloudy"
"-94.97","74.72","RESOLUTE BAY A","2403498","2019-06-16 13:00","2019","06","16","13:00","0.8","","-3.4","","74","","","","25","","10","","24.1","","100.56","","","","","","NA"
"-94.97","74.72","RESOLUTE BAY A","2403498","2019-06-16 14:00","2019","06","16","14:00","1.2","","-2.8","","75","","","","24","","19","","32.2","","100.57","","","","","","NA"
"-94.97","74.72","RESOLUTE BAY A","2403498","2019-06-16 15:00","2019","06","16","15:00","1.1","","-3.1","","74","","","","21","","18","","32.2","","100.60","","","","","","Mainly Clear"
"-94.97","74.72","RESOLUTE BAY A","2403498","2019-06-16 16:00","2019","06","16","16:00","0.9","","-2.2","","80","","","","18","","15","","32.2","","100.61","","","","","","NA"
"-94.97","74.72","RESOLUTE BAY A","2403498","2019-06-16 17:00","2019","06","16","17:00","0.8","","-1.9","","82","","","","20","","17","","24.1","","100.63","","","","","","NA"
"-94.97","74.72","RESOLUTE BAY A","2403498","2019-06-16 18:00","2019","06","16","18:00","0.7","","-1.7","","84","","","","20","","14","","24.1","","100.65","","","","","","Mostly Cloudy"
"-94.97","74.72","RESOLUTE BAY A","2403498","2019-06-16 19:00","2019","06","16","19:00","0.7","","-1.6","","84","","","","19","","12","","24.1","","100.65","","","","","","NA"
"-94.97","74.72","RESOLUTE BAY A","2403498","2019-06-16 20:00","2019","06","16","20:00","0.8","","-2.5","","79","","","","23","","9","","24.1","","100.66","","","","","","NA"
"-94.97","74.72","RESOLUTE BAY A","2403498","2019-06-16 21:00","2019","06","16","21:00","0.6","","-2.5","","80","","","","19","","8","","24.1","","100.67","","","","","","Mostly Cloudy"
"-94.97","74.72","RESOLUTE BAY A","2403498","2019-06-16 22:00","2019","06","16","22:00","0.6","","-2.5","","80","","","","16","","9","","24.1","","100.65","","","","","","NA"
"-94.97","74.72","RESOLUTE BAY A","2403498","2019-06-16 23:00","2019","06","16","23:00","0.0","","-2.1","","86","","","","15","","10","","24.1","","100.63","","","","-3","","NA"
"-94.97","74.72","RESOLUTE BAY A","2403498","2019-06-17 00:00","2019","06","17","00:00","-0.4","","-1.6","","91","","","","14","","11","","24.1","","100.64","","","","-4","","Mainly Clear"
"-94.97","74.72","RESOLUTE BAY A","2403498","2019-06-17 01:00","2019","06","17","01:00","-0.5","","-1.7","","92","","","","13","","10","","24.1","","100.64","","","","-4","","NA"
"-94.97","74.72","RESOLUTE BAY A","2403498","2019-06-17 02:00","2019","06","17","02:00","-0.5","","-2.0","","90","","","","16","","8","","24.1","","100.67","","","","-3","","NA"
"-94.97","74.72","RESOLUTE BAY A","2403498","2019-06-17 03:00","2019","06","17","03:00","-0.4","","-1.6","","92","","","","13","","10","","24.1","","100.67","","","","-4","","Mainly Clear"
"-94.97","74.72","RESOLUTE BAY A","2403498","2019-06-17 04:00","2019","06","17","04:00","-0.3","","-1.8","","90","","","","14","","8","","24.1","","100.67","","","","-3","","NA"
"-94.97","74.72","RESOLUTE BAY A","2403498","2019-06-17 05:00","2019","06","17","05:00","0.1","","-1.3","","90","","","","15","","6","","24.1","","100.67","","","","","","NA"
"-94.97","74.72","RESOLUTE BAY A","2403498","2019-06-17 06:00","2019","06","17","06:00"
"-94.97","74.72","RESOLUTE BAY A","2403498","2019-06-17 07:00","2019","06","17","07:00","-0.1","","-1.3","","92","","","","16","","12","","24.1","","100.69","","","","-4","","NA"
"-94.97","74.72","RESOLUTE BAY A","2403498","2019-06-17 08:00","2019","06","17","08:00","0.0","","-0.9","","94","","","","16","","18","","24.1","","100.67","","","","-5","","NA"
"-94.97","74.72","RESOLUTE BAY A","2403498","2019-06-17 09:00","2019","06","17","09:00","0.4","","-0.6","","93","","","","20","","16","","24.1","","100.65","","","","","","Cloudy"
"-94.97","74.72","RESOLUTE BAY A","2403498","2019-06-17 10:00","2019","06","17","10:00","0.6","","-2.1","","82","","","","23","","16","","24.1","","100.64","","","","","","NA"
"-94.97","74.72","RESOLUTE BAY A","2403498","2019-06-17 11:00","2019","06","17","11:00","0.8","","-2.8","","77","","","","22","","19","","24.1","","100.60","","","","","","NA"
"-94.97","74.72","RESOLUTE BAY A","2403498","2019-06-17 12:00","2019","06","17","12:00","0.7","","-1.6","","85","","","","19","","22","","24.1","","100.59","","","","","","Cloudy"
"-94.97","74.72","RESOLUTE BAY A","2403498","2019-06-17 13:00","2019","06","17","13:00","1.0","","-2.0","","80","","","","19","","21","","24.1","","100.55","","","","","","NA"
"-94.97","74.72","RESOLUTE BAY A","2403498","2019-06-17 14:00","2019","06","17","14:00","0.3","","-0.8","","92","","","","17","","22","","24.1","","100.52","","","","","","NA"
"-94.97","74.72","RESOLUTE BAY A","2403498","2019-06-17 15:00","2019","06","17","15:00","0.8","","-1.2","","86","","","","19","","24","","24.1","","100.48","","","","","","Cloudy"
"-94.97","74.72","RESOLUTE BAY A","2403498","2019-06-17 16:00","2019","06","17","16:00","0.2","","-0.9","","92","","","","19","","28","","2.0","","100.46","","","","","","Snow,Fog"
"-94.97","74.72","RESOLUTE BAY A","2403498","2019-06-17 17:00","2019","06","17","17:00","0.2","","-0.4","","96","","","","19","","30","","3.2","","100.39","","","","","","Snow,Fog"
"-94.97","74.72","RESOLUTE BAY A","2403498","2019-06-17 18:00","2019","06","17","18:00","0.1","","-0.2","","97","","","","18","","28","","4.0","","100.34","","","","","","Snow,Fog"
"-94.97","74.72","RESOLUTE BAY A","2403498","2019-06-17 19:00","2019","06","17","19:00","0.4","","0.0","","97","","","","19","","27","","24.1","","100.27","","","","","","NA"
"-94.97","74.72","RESOLUTE BAY A","2403498","2019-06-17 20:00","2019","06","17","20:00","0.3","","-0.2","","97","","","","19","","34","","16.1","","100.20","","","","","","NA"
"-94.97","74.72","RESOLUTE BAY A","2403498","2019-06-17 21:00","2019","06","17","21:00","0.1","","-0.3","","97","","","","18","","33","","14.5","","100.17","","","","","","Snow"
"-94.97","74.72","RESOLUTE BAY A","2403498","2019-06-17 22:00","2019","06","17","22:00","-0.2","","-0.5","","98","","","","18","","31","","4.0","","100.12","","","","-7","","Snow,Fog"
"-94.97","74.72","RESOLUTE BAY A","2403498","2019-06-17 23:00","2019","06","17","23:00","-0.4","","-0.7","","98","","","","18","","34","","3.2","","100.04","","","","-7","","Snow,Fog"
"-94.97","74.72","RESOLUTE BAY A","2403498","2019-06-18 00:00","2019","06","18","00:00","-0.4","","-0.6","","98","","","","18","","32","","3.2","","99.97","","","","-7","","Snow,Fog"
"-94.97","74.72","RESOLUTE BAY A","2403498","2019-06-18 01:00","2019","06","18","01:00","-0.4","","-0.6","","98","","","","19","","38","","4.0","","99.91","","","","-8","","Snow,Fog"
"-94.97","74.72","RESOLUTE BAY A","2403498","2019-06-18 02:00","2019","06","18","02:00","-0.4","","-0.6","","98","","","","19","","39","","11.3","","99.85","","","","-8","","Snow"
"-94.97","74.72","RESOLUTE BAY A","2403498","2019-06-18 03:00","2019","06","18","03:00","-0.4","","-0.7","","98","","","","19","","34","","11.3","","99.80","","","","-7","","Snow"
"-94.97","74.72","RESOLUTE BAY A","2403498","2019-06-18 04:00","2019","06","18","04:00","-0.4","","-0.8","","98","","","","19","","32","","12.9","","99.74","","","","-7","","Snow"
"-94.97","74.72","RESOLUTE BAY A","2403498","2019-06-18 05:00","2019","06","18","05:00","-0.4","","-0.7","","98","","","","20","","33","","12.9","","99.70","","","","-7","","Snow"
"-94.97","74.72","RESOLUTE BAY A","2403498","2019-06-18 06:00","2019","06","18","06:00","-0.2","","-0.5","","98","","","","20","","27","","1.0","","99.71","","","","-6","","Freezing Drizzle,Fog"
"-94.97","74.72","RESOLUTE BAY A","2403498","2019-06-18 07:00","2019","06","18","07:00","-0.3","","-0.5","","98","","","","23","","13","","24.1","","99.68","","","","-4","","NA"
"-94.97","74.72","RESOLUTE BAY A","2403498","2019-06-18 08:00","2019","06","18","08:00","-0.2","","-0.5","","98","","","","21","","12","","16.1","","99.65","","","","-4","","NA"
"-94.97","74.72","RESOLUTE BAY A","2403498","2019-06-18 09:00","2019","06","18","09:00","-0.5","","-0.7","","98","","","","25","","16","","6.4","","99.62","","","","-5","","Snow,Fog"
"-94.97","74.72","RESOLUTE BAY A","2403498","2019-06-18 10:00","2019","06","18","10:00","-1.0","","-1.5","","96","","","","25","","23","","16.1","","99.61","","","","-7","","Snow"
"-94.97","74.72","RESOLUTE BAY A","2403498","2019-06-18 11:00","2019","06","18","11:00","-0.4","","-2.9","","84","","","","25","","23","","24.1","","99.59","","","","-6","","NA"
"-94.97","74.72","RESOLUTE BAY A","2403498","2019-06-18 12:00","2019","06","18","12:00","-0.1","","-2.2","","86","","","","24","","24","","24.1","","99.56","","","","-6","","Mostly Cloudy"
"-94.97","74.72","RESOLUTE BAY A","2403498","2019-06-18 13:00","2019","06","18","13:00","0.0","","-2.0","","86","","","","25","","25","","4.0","","99.57","","","","-6","","Snow,Fog"
"-94.97","74.72","RESOLUTE BAY A","2403498","2019-06-18 14:00","2019","06","18","14:00","0.2","","-1.9","","86","","","","24","","27","","24.1","","99.57","","","","","","Snow"
"-94.97","74.72","RESOLUTE BAY A","2403498","2019-06-18 15:00","2019","06","18","15:00","0.0","","-2.2","","85","","","","26","","26","","24.1","","99.57","","","","-6","","Snow"
"-94.97","74.72","RESOLUTE BAY A","2403498","2019-06-18 16:00","2019","06","18","16:00","-0.2","","-1.9","","88","","","","26","","31","","12.9","","99.58","","","","-7","","Snow Showers"
"-94.97","74.72","RESOLUTE BAY A","2403498","2019-06-18 17:00","2019","06","18","17:00","-0.6","","-1.9","","91","","","","27","","27","","16.1","","99.59","","","","-7","","Snow Showers"
"-94.97","74.72","RESOLUTE BAY A","2403498","2019-06-18 18:00","2019","06","18","18:00","-0.2","","-1.6","","91","","","","27","","34","","16.1","","99.60","","","","-7","","Snow Showers"
"-94.97","74.72","RESOLUTE BAY A","2403498","2019-06-18 19:00","2019","06","18","19:00","-0.4","","-1.5","","92","","","","27","","32","","24.1","","99.64","","","","-7","","Snow Showers"
"-94.97","74.72","RESOLUTE BAY A","2403498","2019-06-18 20:00","2019","06","18","20:00","-0.8","","-1.8","","93","","","","27","","33","","24.1","","99.66","","","","-8","","NA"
"-94.97","74.72","RESOLUTE BAY A","2403498","2019-06-18 21:00","2019","06","18","21:00","-1.0","","-2.0","","93","","","","27","","32","","16.1","","99.70","","","","-8","","Snow"
"-94.97","74.72","RESOLUTE BAY A","2403498","2019-06-18 22:00","2019","06","18","22:00","-1.1","","-1.7","","96","","","","26","","19","","1.0","","99.70","","","","-6","","Snow,Fog"
"-94.97","74.72","RESOLUTE BAY A","2403498","2019-06-18 23:00","2019","06","18","23:00","-0.5","","-0.8","","97","","","","27","","27","","0.8","","99.69","","","","-7","","Freezing Drizzle,Freezing Fog"
"-94.97","74.72","RESOLUTE BAY A","2403498","2019-06-19 00:00","2019","06","19","00:00","-1.2","","-1.6","","97","","","","30","","22","","0.8","","99.71","","","","-7","","Freezing Drizzle,Freezing Fog"
"-94.97","74.72","RESOLUTE BAY A","2403498","2019-06-19 01:00","2019","06","19","01:00","-1.8","","-2.2","","98","","","","32","","18","","14.5","","99.81","","","","-7","","NA"
"-94.97","74.72","RESOLUTE BAY A","2403498","2019-06-19 02:00","2019","06","19","02:00","-2.4","","-2.8","","97","","","","31","","11","","0.8","","99.86","","","","-6","","Freezing Fog"
"-94.97","74.72","RESOLUTE BAY A","2403498","2019-06-19 03:00","2019","06","19","03:00","-2.5","","-2.9","","97","","","","32","","10","","0.8","","99.90","","","","-6","","Freezing Fog"
"-94.97","74.72","RESOLUTE BAY A","2403498","2019-06-19 04:00","2019","06","19","04:00","-2.0","","-2.4","","97","","","","28","","7","","0.8","","99.94","","","","-5","","Freezing Drizzle,Freezing Fog"
"-94.97","74.72","RESOLUTE BAY A","2403498","2019-06-19 05:00","2019","06","19","05:00","-1.3","","-1.6","","98","","","","30","","17","","14.5","","99.98","","","","-6","","NA"
"-94.97","74.72","RESOLUTE BAY A","2403498","2019-06-19 06:00","2019","06","19","06:00","-1.6","","-2.0","","98","","","","30","","18","","14.5","","99.99","","","","-7","","Cloudy"
"-94.97","74.72","RESOLUTE BAY A","2403498","2019-06-19 07:00","2019","06","19","07:00","-1.6","","-1.9","","97","","","","30","","25","","14.5","","100.03","","","","-8","","NA"
"-94.97","74.72","RESOLUTE BAY A","2403498","2019-06-19 08:00","2019","06","19","08:00","-1.8","","-2.4","","95","","","","31","","16","","12.9","","100.07","","","","-7","","NA"
"-94.97","74.72","RESOLUTE BAY A","2403498","2019-06-19 09:00","2019","06","19","09:00","-1.3","","-2.4","","92","","","","29","","19","","19.3","","100.08","","","","-7","","Cloudy"
"-94.97","74.72","RESOLUTE BAY A","2403498","2019-06-19 10:00","2019","06","19","10:00","-1.2","","-2.4","","92","","","","30","","8","","19.3","","100.12","","","","-4","","NA"
"-94.97","74.72","RESOLUTE BAY A","2403498","2019-06-19 11:00","2019","06","19","11:00","-1.0","","-2.2","","92","","","","24","","16","","24.1","","100.15","","","","-6","","NA"
"-94.97","74.72","RESOLUTE BAY A","2403498","2019-06-19 12:00","2019","06","19","12:00","-0.9","","-1.7","","95","","","","24","","20","","12.9","","100.17","","","","-6","","Cloudy"
"-94.97","74.72","RESOLUTE BAY A","2403498","2019-06-19 13:00","2019","06","19","13:00","-0.7","","-1.3","","96","","","","27","","23","","4.0","","100.19","","","","-7","","Fog"
"-94.97","74.72","RESOLUTE BAY A","2403498","2019-06-19 14:00","2019","06","19","14:00","0.0","","-0.7","","96","","","","26","","20","","4.0","","100.22","","","","-5","","Fog"
"-94.97","74.72","RESOLUTE BAY A","2403498","2019-06-19 15:00","2019","06","19","15:00","-0.2","","-0.7","","96","","","","26","","23","","1.0","","100.24","","","","-6","","Fog"
"-94.97","74.72","RESOLUTE BAY A","2403498","2019-06-19 16:00","2019","06","19","16:00","-0.2","","-0.8","","96","","","","27","","23","","1.0","","100.28","","","","-6","","Fog"
"-94.97","74.72","RESOLUTE BAY A","2403498","2019-06-19 17:00","2019","06","19","17:00","-0.1","","-0.5","","97","","","","27","","20","","1.0","","100.29","","","","-5","","Fog"
"-94.97","74.72","RESOLUTE BAY A","2403498","2019-06-19 18:00","2019","06","19","18:00","0.1","","-0.3","","97","","","","27","","19","","0.4","","100.32","","","","","","Snow Showers,Fog"
"-94.97","74.72","RESOLUTE BAY A","2403498","2019-06-19 19:00","2019","06","19","19:00","0.1","","-0.2","","97","","","","27","","19","","0.8","","100.37","","","","","","Fog"
"-94.97","74.72","RESOLUTE BAY A","2403498","2019-06-19 20:00","2019","06","19","20:00","0.4","","0.0","","98","","","","28","","18","","12.9","","100.42","","","","","","NA"
"-94.97","74.72","RESOLUTE BAY A","2403498","2019-06-19 21:00","2019","06","19","21:00","0.7","","0.0","","95","","","","33","","21","","24.1","","100.45","","","","","","Cloudy"
"-94.97","74.72","RESOLUTE BAY A","2403498","2019-06-19 22:00","2019","06","19","22:00","1.1","","-1.0","","86","","","","34","","13","","32.2","","100.48","","","","","","NA"
"-94.97","74.72","RESOLUTE BAY A","2403498","2019-06-19 23:00","2019","06","19","23:00","0.5","","-1.0","","90","","","","26","","9","","32.2","","100.53","","","","","","NA"
"-94.97","74.72","RESOLUTE BAY A","2403498","2019-06-20 00:00","2019","06","20","00:00","-0.4","","-1.2","","95","","","","31","","13","","32.2","","100.57","","","","-5","","Mainly Clear"
"-94.97","74.72","RESOLUTE BAY A","2403498","2019-06-20 01:00","2019","06","20","01:00","-0.5","","-1.5","","93","","","","31","","14","","32.2","","100.60","","","","-5","","NA"
"-94.97","74.72","RESOLUTE BAY A","2403498","2019-06-20 02:00","2019","06","20","02:00","-0.6","","-1.3","","95","","","","31","","7","","32.2","","100.62","","","","-3","","NA"
"-94.97","74.72","RESOLUTE BAY A","2403498","2019-06-20 03:00","2019","06","20","03:00","-0.2","","-1.0","","94","","","","29","","10","","24.1","","100.63","","","","-4","","Cloudy"
"-94.97","74.72","RESOLUTE BAY A","2403498","2019-06-20 04:00","2019","06","20","04:00","-0.1","","-0.7","","96","","","","28","","17","","16.1","","100.66","","","","-5","","NA"
"-94.97","74.72","RESOLUTE BAY A","2403498","2019-06-20 05:00","2019","06","20","05:00","-1.6","","-2.0","","97","","","","28","","20","","0.4","","100.71","","","","-7","","Freezing Fog"
"-94.97","74.72","RESOLUTE BAY A","2403498","2019-06-20 06:00","2019","06","20","06:00","-1.4","","-1.8","","97","","","","29","","21","","16.1","","100.74","","","","-7","","Cloudy"
"-94.97","74.72","RESOLUTE BAY A","2403498","2019-06-20 07:00","2019","06","20","07:00","-0.8","","-1.9","","92","","","","29","","24","","24.1","","100.76","","","","-7","","NA"
"-94.97","74.72","RESOLUTE BAY A","2403498","2019-06-20 08:00","2019","06","20","08:00","-0.4","","-2.0","","89","","","","29","","22","","12.9","","100.76","","","","-6","","NA"
"-94.97","74.72","RESOLUTE BAY A","2403498","2019-06-20 09:00","2019","06","20","09:00","-0.1","","-1.5","","91","","","","29","","22","","16.1","","100.78","","","","-6","","Snow Showers"
"-94.97","74.72","RESOLUTE BAY A","2403498","2019-06-20 10:00","2019","06","20","10:00","-0.3","","-2.2","","87","","","","28","","28","","24.1","","100.80","","","","-7","","Snow Showers"
"-94.97","74.72","RESOLUTE BAY A","2403498","2019-06-20 11:00","2019","06","20","11:00","-0.1","","-2.4","","84","","","","29","","26","","24.1","","100.81","","","","-6","","NA"
"-94.97","74.72","RESOLUTE BAY A","2403498","2019-06-20 12:00","2019","06","20","12:00","-0.8","","-2.5","","88","","","","27","","23","","24.1","","100.84","","","","-7","","Mostly Cloudy"
"-94.97","74.72","RESOLUTE BAY A","2403498","2019-06-20 13:00","2019","06","20","13:00","-0.5","","-2.4","","87","","","","27","","24","","24.1","","100.87","","","","-6","","NA"
"-94.97","74.72","RESOLUTE BAY A","2403498","2019-06-20 14:00","2019","06","20","14:00","-0.3","","-1.5","","91","","","","27","","27","","24.1","","100.85","","","","-7","","NA"
"-94.97","74.72","RESOLUTE BAY A","2403498","2019-06-20 15:00","2019","06","20","15:00","0.0","","-1.0","","93","","","","28","","27","","24.1","","100.86","","","","-6","","Cloudy"
"-94.97","74.72","RESOLUTE BAY A","2403498","2019-06-20 16:00","2019","06","20","16:00","-0.1","","-0.7","","96","","","","27","","28","","6.4","","100.86","","","","-6","","Fog"
"-94.97","74.72","RESOLUTE BAY A","2403498","2019-06-20 17:00","2019","06","20","17:00","-0.2","","-0.6","","97","","","","27","","25","","1.6","","100.87","","","","-6","","Snow,Fog"
"-94.97","74.72","RESOLUTE BAY A","2403498","2019-06-20 18:00","2019","06","20","18:00","-0.1","","-0.5","","98","","","","26","","18","","1.6","","100.86","","","","-5","","Snow,Fog"
"-94.97","74.72","RESOLUTE BAY A","2403498","2019-06-20 19:00","2019","06","20","19:00","-0.2","","-0.5","","98","","","","26","","23","","0.8","","100.83","","","","-6","","Snow,Freezing Fog"
"-94.97","74.72","RESOLUTE BAY A","2403498","2019-06-20 20:00","2019","06","20","20:00","-0.1","","-0.4","","98","","","","27","","25","","0.6","","100.82","","","","-6","","Snow,Freezing Fog"
"-94.97","74.72","RESOLUTE BAY A","2403498","2019-06-20 21:00","2019","06","20","21:00","-0.2","","-0.4","","98","","","","27","","27","","0.4","","100.80","","","","-6","","Snow,Freezing Fog"
"-94.97","74.72","RESOLUTE BAY A","2403498","2019-06-20 22:00","2019","06","20","22:00","-0.2","","-0.4","","98","","","","27","","22","","0.6","","100.77","","","","-6","","Snow,Freezing Fog"
"-94.97","74.72","RESOLUTE BAY A","2403498","2019-06-20 23:00","2019","06","20","23:00","-0.1","","-0.4","","98","","","","27","","26","","0.6","","100.71","","","","-6","","Snow,Freezing Fog"
"-94.97","74.72","RESOLUTE BAY A","2403498","2019-06-21 00:00","2019","06","21","00:00","-0.1","","-0.4","","98","","","","26","","27","","0.6","","100.69","","","","-6","","Snow,Freezing Fog"
"-94.97","74.72","RESOLUTE BAY A","2403498","2019-06-21 01:00","2019","06","21","01:00","-0.1","","-0.3","","98","","","","25","","26","","0.8","","100.67","","","","-6","","Snow,Freezing Fog"
"-94.97","74.72","RESOLUTE BAY A","2403498","2019-06-21 02:00","2019","06","21","02:00","-0.1","","-0.3","","98","","","","26","","27","","0.6","","100.64","","","","-6","","Snow,Freezing Fog"
"-94.97","74.72","RESOLUTE BAY A","2403498","2019-06-21 03:00","2019","06","21","03:00","-0.1","","-0.3","","98","","","","26","","26","","0.4","","100.59","","","","-6","","Snow,Freezing Fog"
"-94.97","74.72","RESOLUTE BAY A","2403498","2019-06-21 04:00","2019","06","21","04:00","-0.1","","-0.3","","99","","","","27","","24","","0.4","","100.57","","","","-6","","Snow,Freezing Fog"
"-94.97","74.72","RESOLUTE BAY A","2403498","2019-06-21 05:00","2019","06","21","05:00","-0.1","","-0.3","","99","","","","27","","26","","0.4","","100.58","","","","-6","","Snow,Freezing Fog"
"-94.97","74.72","RESOLUTE BAY A","2403498","2019-06-21 06:00","2019","06","21","06:00","-0.2","","-0.4","","99","","","","27","","27","","0.6","","100.55","","","","-6","","Snow,Freezing Fog"
"-94.97","74.72","RESOLUTE BAY A","2403498","2019-06-21 07:00","2019","06","21","07:00","0.0","","-0.2","","99","","","","27","","22","","16.1","","100.53","","","","-6","","Snow"
"-94.97","74.72","RESOLUTE BAY A","2403498","2019-06-21 08:00","2019","06","21","08:00","-0.2","","-0.4","","99","","","","27","","26","","0.8","","100.53","","","","-6","","Snow,Freezing Fog"
"-94.97","74.72","RESOLUTE BAY A","2403498","2019-06-21 09:00","2019","06","21","09:00","0.0","","-0.2","","99","","","","27","","30","","0.8","","100.46","","","","-6","","Snow,Fog"
"-94.97","74.72","RESOLUTE BAY A","2403498","2019-06-21 10:00","2019","06","21","10:00","0.2","","0.0","","99","","","","26","","28","","0.8","","100.42","","","","","","Snow,Fog"
"-94.97","74.72","RESOLUTE BAY A","2403498","2019-06-21 11:00","2019","06","21","11:00","0.3","","0.1","","98","","","","26","","27","","0.8","","100.36","","","","","","Snow,Fog"
"-94.97","74.72","RESOLUTE BAY A","2403498","2019-06-21 12:00","2019","06","21","12:00","0.2","","0.0","","99","","","","26","","29","","0.6","","100.29","","","","","","Snow,Fog"
"-94.97","74.72","RESOLUTE BAY A","2403498","2019-06-21 13:00","2019","06","21","13:00","0.0","","-0.1","","99","","","","25","","27","","14.5","","100.26","","","","-6","","Snow"
"-94.97","74.72","RESOLUTE BAY A","2403498","2019-06-21 14:00","2019","06","21","14:00","0.0","","-0.2","","99","","","","26","","30","","1.6","","100.24","","","","-6","","Snow,Fog"
"-94.97","74.72","RESOLUTE BAY A","2403498","2019-06-21 15:00","2019","06","21","15:00","0.0","","-0.2","","99","","","","25","","28","","2.0","","100.17","","","","-6","","Snow,Fog"
"-94.97","74.72","RESOLUTE BAY A","2403498","2019-06-21 16:00","2019","06","21","16:00","0.0","","-0.2","","99","","","","26","","30","","14.5","","100.10","","","","-6","","Snow"
"-94.97","74.72","RESOLUTE BAY A","2403498","2019-06-21 17:00","2019","06","21","17:00","0.0","","-0.2","","99","","","","26","","30","","14.5","","100.07","","","","-6","","Snow"
"-94.97","74.72","RESOLUTE BAY A","2403498","2019-06-21 18:00","2019","06","21","18:00","-0.1","","-0.3","","99","","","","27","","29","","0.8","","100.05","","","","-6","","Freezing Fog"
"-94.97","74.72","RESOLUTE BAY A","2403498","2019-06-21 19:00","2019","06","21","19:00","-0.1","","-0.3","","99","","","","27","","33","","0.4","","99.99","","","","-7","","Freezing Fog"
"-94.97","74.72","RESOLUTE BAY A","2403498","2019-06-21 20:00","2019","06","21","20:00","0.0","","-0.2","","99","","","","26","","28","","0.4","","99.97","","","","-6","","Fog"
"-94.97","74.72","RESOLUTE BAY A","2403498","2019-06-21 21:00","2019","06","21","21:00","-0.1","","-0.3","","99","","","","26","","25","","0.2","","99.92","","","","-6","","Freezing Fog"
"-94.97","74.72","RESOLUTE BAY A","2403498","2019-06-21 22:00","2019","06","21","22:00","0.0","","-0.2","","99","","","","26","","29","","0.2","","99.85","","","","-6","","Fog"
"-94.97","74.72","RESOLUTE BAY A","2403498","2019-06-21 23:00","2019","06","21","23:00","0.0","","-0.2","","99","","","","26","","27","","0.2","","99.80","","","","-6","","Fog"
"-94.97","74.72","RESOLUTE BAY A","2403498","2019-06-22 00:00","2019","06","22","00:00","-0.1","","-0.3","","99","","","","27","","32","","0.2","","99.76","","","","-7","","Freezing Fog"
"-94.97","74.72","RESOLUTE BAY A","2403498","2019-06-22 01:00","2019","06","22","01:00","-0.2","","-0.3","","99","","","","29","","33","","16.1","","99.73","","","","-7","","NA"
"-94.97","74.72","RESOLUTE BAY A","2403498","2019-06-22 02:00","2019","06","22","02:00","-0.2","","-0.4","","99","","","","28","","32","","24.1","","99.72","","","","-7","","Freezing Drizzle"
"-94.97","74.72","RESOLUTE BAY A","2403498","2019-06-22 03:00","2019","06","22","03:00","-0.1","","-0.3","","99","","","","29","","31","","24.1","","99.75","","","","-7","","Cloudy"
"-94.97","74.72","RESOLUTE BAY A","2403498","2019-06-22 04:00","2019","06","22","04:00","-0.3","","-0.5","","98","","","","30","","33","","24.1","","99.76","","","","-7","","NA"
"-94.97","74.72","RESOLUTE BAY A","2403498","2019-06-22 05:00","2019","06","22","05:00","-0.3","","-0.6","","98","","","","29","","27","","24.1","","99.79","","","","-7","","NA"
"-94.97","74.72","RESOLUTE BAY A","2403498","2019-06-22 06:00","2019","06","22","06:00","-0.1","","-0.5","","98","","","","29","","33","","24.1","","99.82","","","","-7","","Cloudy"
"-94.97","74.72","RESOLUTE BAY A","2403498","2019-06-22 07:00","2019","06","22","07:00","0.1","","-0.4","","97","","","","29","","32","","24.1","","99.84","","","","","","NA"
"-94.97","74.72","RESOLUTE BAY A","2403498","2019-06-22 08:00","2019","06","22","08:00","0.2","","-0.4","","96","","","","29","","30","","24.1","","99.85","","","","","","NA"
"-94.97","74.72","RESOLUTE BAY A","2403498","2019-06-22 09:00","2019","06","22","09:00","0.4","","-0.4","","94","","","","29","","32","","24.1","","99.88","","","","","","Cloudy"
"-94.97","74.72","RESOLUTE BAY A","2403498","2019-06-22 10:00","2019","06","22","10:00","0.5","","-0.2","","95","","","","29","","31","","6.4","","99.92","","","","","","Drizzle,Fog"
"-94.97","74.72","RESOLUTE BAY A","2403498","2019-06-22 11:00","2019","06","22","11:00","1.2","","0.0","","92","","","","28","","34","","14.5","","99.91","","","","","","NA"
"-94.97","74.72","RESOLUTE BAY A","2403498","2019-06-22 12:00","2019","06","22","12:00","0.9","","-0.3","","92","","","","27","","34","","16.1","","99.95","","","","","","Mostly Cloudy"
"-94.97","74.72","RESOLUTE BAY A","2403498","2019-06-22 13:00","2019","06","22","13:00","0.5","","-0.1","","95","","","","27","","33","","2.4","","99.97","","","","","","Drizzle,Fog"
"-94.97","74.72","RESOLUTE BAY A","2403498","2019-06-22 14:00","2019","06","22","14:00","0.4","","-0.1","","96","","","","27","","36","","0.8","","99.98","","","","","","Drizzle,Fog"
"-94.97","74.72","RESOLUTE BAY A","2403498","2019-06-22 15:00","2019","06","22","15:00","0.8","","0.3","","96","","","","28","","35","","1.6","","99.99","","","","","","Fog"
"-94.97","74.72","RESOLUTE BAY A","2403498","2019-06-22 16:00","2019","06","22","16:00","0.8","","0.1","","95","","","","28","","31","","4.8","","100.00","","","","","","Fog"
"-94.97","74.72","RESOLUTE BAY A","2403498","2019-06-22 17:00","2019","06","22","17:00","0.6","","0.0","","96","","","","27","","31","","4.8","","100.02","","","","","","Fog"
"-94.97","74.72","RESOLUTE BAY A","2403498","2019-06-22 18:00","2019","06","22","18:00","0.2","","-0.3","","96","","","","27","","32","","4.8","","100.02","","","","","","Fog"
"-94.97","74.72","RESOLUTE BAY A","2403498","2019-06-22 19:00","2019","06","22","19:00","0.0","","-0.4","","97","","","","28","","30","","1.2","","100.01","","","","-6","","Drizzle,Fog"
"-94.97","74.72","RESOLUTE BAY A","2403498","2019-06-22 20:00","2019","06","22","20:00","0.1","","-0.4","","97","","","","28","","26","","6.4","","100.04","","","","","","Fog"
"-94.97","74.72","RESOLUTE BAY A","2403498","2019-06-22 21:00","2019","06","22","21:00","-0.3","","-0.7","","97","","","","25","","22","","3.2","","100.00","","","","-6","","Fog"
"-94.97","74.72","RESOLUTE BAY A","2403498","2019-06-22 22:00","2019","06","22","22:00","-0.6","","-0.9","","98","","","","26","","20","","1.0","","99.98","","","","-6","","Fog"
"-94.97","74.72","RESOLUTE BAY A","2403498","2019-06-22 23:00","2019","06","22","23:00","-0.9","","-1.2","","98","","","","26","","19","","1.0","","99.95","","","","-6","","Fog"
"-94.97","74.72","RESOLUTE BAY A","2403498","2019-06-23 00:00","2019","06","23","00:00","-1.2","","-1.4","","98","","","","26","","18","","1.0","","99.93","","","","-6","","Fog"
"-94.97","74.72","RESOLUTE BAY A","2403498","2019-06-23 01:00","2019","06","23","01:00","-1.3","","-1.6","","98","","","","26","","17","","1.0","","99.92","","","","-6","","Fog"
"-94.97","74.72","RESOLUTE BAY A","2403498","2019-06-23 02:00","2019","06","23","02:00","-1.1","","-1.4","","98","","","","25","","16","","0.8","","99.90","","","","-6","","Freezing Fog"
"-94.97","74.72","RESOLUTE BAY A","2403498","2019-06-23 03:00","2019","06","23","03:00","-0.9","","-1.2","","98","","","","25","","16","","0.8","","99.86","","","","-6","","Freezing Fog"
"-94.97","74.72","RESOLUTE BAY A","2403498","2019-06-23 04:00","2019","06","23","04:00","-0.6","","-0.8","","98","","","","25","","21","","0.8","","99.80","","","","-6","","Freezing Fog"
"-94.97","74.72","RESOLUTE BAY A","2403498","2019-06-23 05:00","2019","06","23","05:00","-0.5","","-0.8","","98","","","","24","","21","","1.0","","99.79","","","","-6","","Snow,Fog"
"-94.97","74.72","RESOLUTE BAY A","2403498","2019-06-23 06:00","2019","06","23","06:00","-0.6","","-0.8","","98","","","","25","","22","","1.0","","99.75","","","","-6","","Snow,Fog"
"-94.97","74.72","RESOLUTE BAY A","2403498","2019-06-23 07:00","2019","06","23","07:00","-0.6","","-0.8","","98","","","","26","","23","","1.0","","99.72","","","","-6","","Snow,Fog"
"-94.97","74.72","RESOLUTE BAY A","2403498","2019-06-23 08:00","2019","06","23","08:00","-0.5","","-0.7","","98","","","","29","","22","","3.2","","99.71","","","","-6","","Snow,Fog"
"-94.97","74.72","RESOLUTE BAY A","2403498","2019-06-23 09:00","2019","06","23","09:00","-0.5","","-0.8","","98","","","","28","","24","","6.4","","99.70","","","","-6","","Snow,Fog"
"-94.97","74.72","RESOLUTE BAY A","2403498","2019-06-23 10:00","2019","06","23","10:00","-0.4","","-0.6","","98","","","","27","","25","","4.8","","99.71","","","","-6","","Snow,Fog"
"-94.97","74.72","RESOLUTE BAY A","2403498","2019-06-23 11:00","2019","06","23","11:00","0.0","","-0.4","","97","","","","29","","23","","6.4","","99.70","","","","-6","","Snow,Fog"
"-94.97","74.72","RESOLUTE BAY A","2403498","2019-06-23 12:00","2019","06","23","12:00","0.3","","-1.4","","88","","","","29","","23","","8.1","","99.73","","","","","","Snow,Fog"
"-94.97","74.72","RESOLUTE BAY A","2403498","2019-06-23 13:00","2019","06","23","13:00","0.5","","-1.4","","87","","","","29","","23","","9.7","","99.74","","","","","","Snow,Fog"
"-94.97","74.72","RESOLUTE BAY A","2403498","2019-06-23 14:00","2019","06","23","14:00","1.3","","-0.9","","85","","","","29","","22","","16.1","","99.78","","","","","","Snow Showers"
"-94.97","74.72","RESOLUTE BAY A","2403498","2019-06-23 15:00","2019","06","23","15:00","1.0","","-1.8","","82","","","","33","","19","","11.3","","99.81","","","","","","Snow Showers"
"-94.97","74.72","RESOLUTE BAY A","2403498","2019-06-23 16:00","2019","06","23","16:00","1.1","","-0.2","","91","","","","31","","18","","16.1","","99.85","","","","","","Snow Showers"
"-94.97","74.72","RESOLUTE BAY A","2403498","2019-06-23 17:00","2019","06","23","17:00","1.3","","-1.3","","83","","","","34","","22","","24.1","","99.88","","","","","","Snow Showers"
"-94.97","74.72","RESOLUTE BAY A","2403498","2019-06-23 18:00","2019","06","23","18:00","1.1","","-1.1","","85","","","","35","","24","","24.1","","99.93","","","","","","Mostly Cloudy"
"-94.97","74.72","RESOLUTE BAY A","2403498","2019-06-23 19:00","2019","06","23","19:00","1.6","","-1.3","","81","","","","33","","24","","24.1","","99.96","","","","","","NA"
"-94.97","74.72","RESOLUTE BAY A","2403498","2019-06-23 20:00","2019","06","23","20:00","1.4","","-1.4","","82","","","","34","","18","","24.1","","100.01","","","","","","NA"
"-94.97","74.72","RESOLUTE BAY A","2403498","2019-06-23 21:00","2019","06","23","21:00","1.0","","-1.2","","86","","","","32","","14","","24.1","","100.03","","","","","","Mainly Clear"
"-94.97","74.72","RESOLUTE BAY A","2403498","2019-06-23 22:00","2019","06","23","22:00","1.1","","-0.5","","89","","","","32","","19","","24.1","","100.05","","","","","","NA"
"-94.97","74.72","RESOLUTE BAY A","2403498","2019-06-23 23:00","2019","06","23","23:00","0.1","","-1.2","","91","","","","33","","12","","32.2","","100.10","","","","","","NA"
"-94.97","74.72","RESOLUTE BAY A","2403498","2019-06-24 00:00","2019","06","24","00:00","-0.6","","-1.3","","95","","","","32","","13","","32.2","","100.13","","","","-5","","Mainly Clear"
"-94.97","74.72","RESOLUTE BAY A","2403498","2019-06-24 01:00","2019","06","24","01:00","-0.6","","-1.5","","94","","","","36","","15","","32.2","","100.16","","","","-5","","NA"
"-94.97","74.72","RESOLUTE BAY A","2403498","2019-06-24 02:00","2019","06","24","02:00","-0.4","","-2.0","","89","","","","2","","12","","32.2","","100.22","","","","-4","","NA"
"-94.97","74.72","RESOLUTE BAY A","2403498","2019-06-24 03:00","2019","06","24","03:00","0.0","","-1.4","","91","","","","34","","5","","32.2","","100.25","","","","-2","","Clear"
"-94.97","74.72","RESOLUTE BAY A","2403498","2019-06-24 04:00","2019","06","24","04:00","-0.2","","-1.6","","90","","","","36","","3","","32.2","","100.30","","","","-1","","NA"
"-94.97","74.72","RESOLUTE BAY A","2403498","2019-06-24 05:00","2019","06","24","05:00","-0.1","","-1.1","","93","","","","30","","7","","32.2","","100.32","","","","-3","","NA"
"-94.97","74.72","RESOLUTE BAY A","2403498","2019-06-24 06:00","2019","06","24","06:00","0.2","","-1.1","","91","","","","30","","10","","32.2","","100.36","","","","","","Mainly Clear"
"-94.97","74.72","RESOLUTE BAY A","2403498","2019-06-24 07:00","2019","06","24","07:00","0.6","","-0.7","","91","","","","29","","10","","32.2","","100.39","","","","","","NA"
"-94.97","74.72","RESOLUTE BAY A","2403498","2019-06-24 08:00","2019","06","24","08:00","1.2","","-0.4","","89","","","","32","","10","","32.2","","100.42","","","","","","NA"
"-94.97","74.72","RESOLUTE BAY A","2403498","2019-06-24 09:00","2019","06","24","09:00","1.5","","-0.6","","86","","","","36","","10","","24.1","","100.45","","","","","","Mostly Cloudy"
"-94.97","74.72","RESOLUTE BAY A","2403498","2019-06-24 10:00","2019","06","24","10:00","1.8","","-0.6","","84","","","","1","","12","","24.1","","100.47","","","","","","NA"
"-94.97","74.72","RESOLUTE BAY A","2403498","2019-06-24 11:00","2019","06","24","11:00","1.8","","-0.8","","83","","","","35","","13","","24.1","","100.50","","","","","","NA"
"-94.97","74.72","RESOLUTE BAY A","2403498","2019-06-24 12:00","2019","06","24","12:00","2.1","","-0.4","","83","","","","35","","11","","24.1","","100.52","","","","","","Cloudy"
"-94.97","74.72","RESOLUTE BAY A","2403498","2019-06-24 13:00","2019","06","24","13:00","2.7","","-0.4","","80","","","","4","","8","","24.1","","100.55","","","","","","NA"
"-94.97","74.72","RESOLUTE BAY A","2403498","2019-06-24 14:00","2019","06","24","14:00","2.6","","-0.9","","78","","","","32","","4","","24.1","","100.60","","","","","","NA"
"-94.97","74.72","RESOLUTE BAY A","2403498","2019-06-24 15:00","2019","06","24","15:00","1.6","","0.4","","91","","","","28","","14","","24.1","","100.61","","","","","","Cloudy"
"-94.97","74.72","RESOLUTE BAY A","2403498","2019-06-24 16:00","2019","06","24","16:00","1.1","","0.1","","93","","","","26","","15","","24.1","","100.65","","","","","","NA"
"-94.97","74.72","RESOLUTE BAY A","2403498","2019-06-24 17:00","2019","06","24","17:00","1.0","","0.2","","95","","","","29","","14","","16.1","","100.70","","","","","","NA"
"-94.97","74.72","RESOLUTE BAY A","2403498","2019-06-24 18:00","2019","06","24","18:00","0.6","","0.0","","96","","","","29","","12","","16.1","","100.73","","","","","","Cloudy"
"-94.97","74.72","RESOLUTE BAY A","2403498","2019-06-24 19:00","2019","06","24","19:00","1.0","","0.2","","94","","","","30","","14","","16.1","","100.74","","","","","","NA"
"-94.97","74.72","RESOLUTE BAY A","2403498","2019-06-24 20:00","2019","06","24","20:00","0.5","","-0.4","","94","","","","29","","16","","24.1","","100.76","","","","","","NA"
"-94.97","74.72","RESOLUTE BAY A","2403498","2019-06-24 21:00","2019","06","24","21:00","0.7","","-0.3","","93","","","","29","","11","","24.1","","100.75","","","","","","Mainly Clear"
"-94.97","74.72","RESOLUTE BAY A","2403498","2019-06-24 22:00","2019","06","24","22:00","-0.5","","-1.1","","96","","","","29","","9","","1.0","","100.76","","","","-4","","Fog"
"-94.97","74.72","RESOLUTE BAY A","2403498","2019-06-24 23:00","2019","06","24","23:00","-1.0","","-1.4","","97","","","","30","","11","","0.6","","100.78","","","","-5","","Freezing Fog"
"-94.97","74.72","RESOLUTE BAY A","2403498","2019-06-25 00:00","2019","06","25","00:00","-1.1","","-1.4","","97","","","","31","","9","","11.3","","100.81","","","","-4","","Cloudy"
"-94.97","74.72","RESOLUTE BAY A","2403498","2019-06-25 01:00","2019","06","25","01:00","-1.0","","-1.4","","97","","","","30","","8","","12.9","","100.85","","","","-4","","NA"
"-94.97","74.72","RESOLUTE BAY A","2403498","2019-06-25 02:00","2019","06","25","02:00","-1.1","","-1.6","","97","","","","32","","7","","16.1","","100.87","","","","-4","","NA"
"-94.97","74.72","RESOLUTE BAY A","2403498","2019-06-25 03:00","2019","06","25","03:00","-0.9","","-1.5","","96","","","","30","","4","","16.1","","100.91","","","","-2","","Cloudy"
"-94.97","74.72","RESOLUTE BAY A","2403498","2019-06-25 04:00","2019","06","25","04:00","-0.4","","-1.0","","95","","","","16","","4","","24.1","","100.94","","","","-2","","NA"
"-94.97","74.72","RESOLUTE BAY A","2403498","2019-06-25 05:00","2019","06","25","05:00","-0.5","","-1.9","","90","","","","19","","6","","24.1","","100.96","","","","-3","","NA"
"-94.97","74.72","RESOLUTE BAY A","2403498","2019-06-25 06:00","2019","06","25","06:00","-0.8","","-1.7","","94","","","","22","","9","","24.1","","100.99","","","","-4","","Cloudy"
"-94.97","74.72","RESOLUTE BAY A","2403498","2019-06-25 07:00","2019","06","25","07:00","-0.1","","-1.1","","93","","","","15","","7","","14.5","","101.00","","","","-3","","NA"
"-94.97","74.72","RESOLUTE BAY A","2403498","2019-06-25 08:00","2019","06","25","08:00","0.4","","-1.8","","86","","","","15","","4","","16.1","","101.01","","","","","","NA"
"-94.97","74.72","RESOLUTE BAY A","2403498","2019-06-25 09:00","2019","06","25","09:00","1.4","","-1.7","","79","","","","15","","6","","24.1","","101.02","","","","","","Mostly Cloudy"
"-94.97","74.72","RESOLUTE BAY A","2403498","2019-06-25 10:00","2019","06","25","10:00","1.5","","-2.0","","78","","","","16","","13","","24.1","","101.05","","","","","","NA"
"-94.97","74.72","RESOLUTE BAY A","2403498","2019-06-25 11:00","2019","06","25","11:00","2.1","","-2.3","","73","","","","14","","13","","32.2","","101.06","","","","","","NA"
"-94.97","74.72","RESOLUTE BAY A","2403498","2019-06-25 12:00","2019","06","25","12:00","3.2","","-0.5","","76","","","","15","","12","","32.2","","101.08","","","","","","Mainly Clear"
"-94.97","74.72","RESOLUTE BAY A","2403498","2019-06-25 13:00","2019","06","25","13:00","3.7","","-0.1","","76","","","","15","","18","","32.2","","101.11","","","","","","NA"
"-94.97","74.72","RESOLUTE BAY A","2403498","2019-06-25 14:00","2019","06","25","14:00","3.9","","0.6","","79","","","","14","","21","","32.2","","101.16","","","","","","NA"
"-94.97","74.72","RESOLUTE BAY A","2403498","2019-06-25 15:00","2019","06","25","15:00","4.2","","0.6","","78","","","","12","","26","","32.2","","101.17","","","","","","Mainly Clear"
"-94.97","74.72","RESOLUTE BAY A","2403498","2019-06-25 16:00","2019","06","25","16:00","4.3","","0.7","","77","","","","12","","25","","24.1","","101.18","","","","","","NA"
"-94.97","74.72","RESOLUTE BAY A","2403498","2019-06-25 17:00","2019","06","25","17:00","4.7","","0.4","","74","","","","13","","25","","32.2","","101.20","","","","","","NA"
"-94.97","74.72","RESOLUTE BAY A","2403498","2019-06-25 18:00","2019","06","25","18:00","4.9","","1.0","","76","","","","12","","21","","32.2","","101.22","","","","","","Mainly Clear"
"-94.97","74.72","RESOLUTE BAY A","2403498","2019-06-25 19:00","2019","06","25","19:00","4.4","","0.7","","77","","","","12","","20","","32.2","","101.24","","","","","","NA"
"-94.97","74.72","RESOLUTE BAY A","2403498","2019-06-25 20:00","2019","06","25","20:00","3.9","","0.6","","79","","","","11","","22","","32.2","","101.26","","","","","","NA"
"-94.97","74.72","RESOLUTE BAY A","2403498","2019-06-25 21:00","2019","06","25","21:00","3.8","","0.2","","78","","","","12","","22","","32.2","","101.26","","","","","","Cloudy"
"-94.97","74.72","RESOLUTE BAY A","2403498","2019-06-25 22:00","2019","06","25","22:00","3.3","","0.5","","82","","","","11","","21","","32.2","","101.26","","","","","","NA"
"-94.97","74.72","RESOLUTE BAY A","2403498","2019-06-25 23:00","2019","06","25","23:00","3.3","","0.3","","81","","","","11","","23","","32.2","","101.28","","","","","","NA"
"-94.97","74.72","RESOLUTE BAY A","2403498","2019-06-26 00:00","2019","06","26","00:00","3.2","","0.4","","82","","","","12","","22","","32.2","","101.30","","","","","","Cloudy"
"-94.97","74.72","RESOLUTE BAY A","2403498","2019-06-26 01:00","2019","06","26","01:00","3.3","","0.5","","82","","","","11","","25","","32.2","","101.32","","","","","","NA"
"-94.97","74.72","RESOLUTE BAY A","2403498","2019-06-26 02:00","2019","06","26","02:00","3.2","","0.3","","81","","","","11","","26","","48.3","","101.33","","","","","","NA"
"-94.97","74.72","RESOLUTE BAY A","2403498","2019-06-26 03:00","2019","06","26","03:00","3.0","","0.2","","82","","","","10","","27","","48.3","","101.35","","","","","","Cloudy"
"-94.97","74.72","RESOLUTE BAY A","2403498","2019-06-26 04:00","2019","06","26","04:00","2.7","","-0.8","","78","","","","9","","26","","48.3","","101.35","","","","","","NA"
"-94.97","74.72","RESOLUTE BAY A","2403498","2019-06-26 05:00","2019","06","26","05:00","3.1","","-0.6","","76","","","","10","","30","","48.3","","101.34","","","","","","NA"
"-94.97","74.72","RESOLUTE BAY A","2403498","2019-06-26 06:00","2019","06","26","06:00","3.3","","-0.4","","77","","","","10","","31","","48.3","","101.34","","","","","","Cloudy"
"-94.97","74.72","RESOLUTE BAY A","2403498","2019-06-26 07:00","2019","06","26","07:00","3.3","","-0.2","","77","","","","10","","36","","48.3","","101.33","","","","","","NA"
"-94.97","74.72","RESOLUTE BAY A","2403498","2019-06-26 08:00","2019","06","26","08:00","3.8","","0.3","","78","","","","10","","35","","48.3","","101.30","","","","","","NA"
"-94.97","74.72","RESOLUTE BAY A","2403498","2019-06-26 09:00","2019","06","26","09:00","4.6","","0.7","","76","","","","10","","37","","48.3","","101.28","","","","","","Cloudy"
"-94.97","74.72","RESOLUTE BAY A","2403498","2019-06-26 10:00","2019","06","26","10:00","4.8","","0.5","","74","","","","10","","43","","48.3","","101.26","","","","","","NA"
"-94.97","74.72","RESOLUTE BAY A","2403498","2019-06-26 11:00","2019","06","26","11:00","5.1","","-0.2","","68","","","","11","","48","","48.3","","101.22","","","","","","NA"
"-94.97","74.72","RESOLUTE BAY A","2403498","2019-06-26 12:00","2019","06","26","12:00","5.2","","-0.3","","68","","","","10","","53","","48.3","","101.19","","","","","","Cloudy"
"-94.97","74.72","RESOLUTE BAY A","2403498","2019-06-26 13:00","2019","06","26","13:00","4.4","","-1.2","","67","","","","11","","54","","40.2","","101.20","","","","","","NA"
"-94.97","74.72","RESOLUTE BAY A","2403498","2019-06-26 14:00","2019","06","26","14:00","5.1","","-1.0","","65","","","","10","","57","","32.2","","101.21","","","","","","NA"
"-94.97","74.72","RESOLUTE BAY A","2403498","2019-06-26 15:00","2019","06","26","15:00","4.2","","-0.6","","71","","","","10","","54","","24.1","","101.22","","","","","","Rain"
"-94.97","74.72","RESOLUTE BAY A","2403498","2019-06-26 16:00","2019","06","26","16:00","3.9","","0.2","","77","","","","10","","53","","24.1","","101.22","","","","","","Rain"
"-94.97","74.72","RESOLUTE BAY A","2403498","2019-06-26 17:00","2019","06","26","17:00","3.5","","1.0","","83","","","","11","","52","","24.1","","101.21","","","","","","Rain"
"-94.97","74.72","RESOLUTE BAY A","2403498","2019-06-26 18:00","2019","06","26","18:00","3.6","","1.1","","84","","","","11","","50","","16.1","","101.23","","","","","","Rain"
"-94.97","74.72","RESOLUTE BAY A","2403498","2019-06-26 19:00","2019","06","26","19:00","4.0","","1.5","","84","","","","11","","51","","12.9","","101.23","","","","","","Rain"
"-94.97","74.72","RESOLUTE BAY A","2403498","2019-06-26 20:00","2019","06","26","20:00","4.3","","2.0","","85","","","","11","","47","","24.1","","101.24","","","","","","Rain"
"-94.97","74.72","RESOLUTE BAY A","2403498","2019-06-26 21:00","2019","06","26","21:00","4.0","","1.6","","84","","","","10","","45","","24.1","","101.26","","","","","","Rain"
"-94.97","74.72","RESOLUTE BAY A","2403498","2019-06-26 22:00","2019","06","26","22:00","3.5","","1.4","","86","","","","10","","46","","32.2","","101.27","","","","","","NA"
"-94.97","74.72","RESOLUTE BAY A","2403498","2019-06-26 23:00","2019","06","26","23:00","3.8","","1.5","","85","","","","10","","40","","48.3","","101.33","","","","","","NA"
"-94.97","74.72","RESOLUTE BAY A","2403498","2019-06-27 00:00","2019","06","27","00:00","3.6","","1.2","","84","","","","10","","45","","48.3","","101.37","","","","","","Mostly Cloudy"
"-94.97","74.72","RESOLUTE BAY A","2403498","2019-06-27 01:00","2019","06","27","01:00","2.7","","0.1","","83","","","","9","","35","","48.3","","101.40","","","","","","NA"
"-94.97","74.72","RESOLUTE BAY A","2403498","2019-06-27 02:00","2019","06","27","02:00","3.0","","0.3","","83","","","","9","","40","","40.2","","101.43","","","","","","NA"
"-94.97","74.72","RESOLUTE BAY A","2403498","2019-06-27 03:00","2019","06","27","03:00","2.8","","0.2","","83","","","","9","","41","","48.3","","101.44","","","","","","Cloudy"
"-94.97","74.72","RESOLUTE BAY A","2403498","2019-06-27 04:00","2019","06","27","04:00","2.7","","0.3","","84","","","","10","","50","","48.3","","101.43","","","","","","Rain"
"-94.97","74.72","RESOLUTE BAY A","2403498","2019-06-27 05:00","2019","06","27","05:00","3.1","","0.5","","83","","","","9","","51","","24.1","","101.40","","","","","","NA"
"-94.97","74.72","RESOLUTE BAY A","2403498","2019-06-27 06:00","2019","06","27","06:00","3.1","","0.9","","85","","","","10","","55","","24.1","","101.43","","","","","","Cloudy"
"-94.97","74.72","RESOLUTE BAY A","2403498","2019-06-27 07:00","2019","06","27","07:00","3.8","","1.7","","86","","","","10","","48","","24.1","","101.46","","","","","","NA"
"-94.97","74.72","RESOLUTE BAY A","2403498","2019-06-27 08:00","2019","06","27","08:00","3.3","","1.6","","89","","","","10","","46","","16.1","","101.47","","","","","","Drizzle"
"-94.97","74.72","RESOLUTE BAY A","2403498","2019-06-27 09:00","2019","06","27","09:00","3.4","","2.5","","93","","","","10","","47","","16.1","","101.49","","","","","","Drizzle"
"-94.97","74.72","RESOLUTE BAY A","2403498","2019-06-27 10:00","2019","06","27","10:00","3.3","","2.5","","94","","","","10","","47","","14.5","","101.51","","","","","","Drizzle"
"-94.97","74.72","RESOLUTE BAY A","2403498","2019-06-27 11:00","2019","06","27","11:00","2.9","","2.0","","94","","","","11","","42","","12.9","","101.55","","","","","","Drizzle"
"-94.97","74.72","RESOLUTE BAY A","2403498","2019-06-27 12:00","2019","06","27","12:00","3.5","","2.5","","94","","","","12","","28","","14.5","","101.61","","","","","","Drizzle"
"-94.97","74.72","RESOLUTE BAY A","2403498","2019-06-27 13:00","2019","06","27","13:00","3.7","","2.9","","94","","","","11","","30","","16.1","","101.66","","","","","","Drizzle"
"-94.97","74.72","RESOLUTE BAY A","2403498","2019-06-27 14:00","2019","06","27","14:00","3.7","","2.7","","93","","","","12","","29","","20.9","","101.71","","","","","","Drizzle"
"-94.97","74.72","RESOLUTE BAY A","2403498","2019-06-27 15:00","2019","06","27","15:00","4.1","","3.3","","94","","","","12","","33","","8.1","","101.77","","","","","","Fog"
"-94.97","74.72","RESOLUTE BAY A","2403498","2019-06-27 16:00","2019","06","27","16:00","4.1","","3.5","","96","","","","12","","24","","4.0","","101.80","","","","","","Fog"
"-94.97","74.72","RESOLUTE BAY A","2403498","2019-06-27 17:00","2019","06","27","17:00","4.2","","3.7","","97","","","","13","","21","","1.6","","101.84","","","","","","Fog"
"-94.97","74.72","RESOLUTE BAY A","2403498","2019-06-27 18:00","2019","06","27","18:00","4.1","","3.6","","97","","","","13","","17","","0.8","","101.87","","","","","","Fog"
"-94.97","74.72","RESOLUTE BAY A","2403498","2019-06-27 19:00","2019","06","27","19:00","4.2","","3.3","","94","","","","12","","19","","11.3","","101.86","","","","","","NA"
"-94.97","74.72","RESOLUTE BAY A","2403498","2019-06-27 20:00","2019","06","27","20:00","4.4","","3.4","","93","","","","9","","19","","14.5","","101.86","","","","","","NA"
"-94.97","74.72","RESOLUTE BAY A","2403498","2019-06-27 21:00","2019","06","27","21:00","4.1","","2.9","","92","","","","9","","20","","16.1","","101.86","","","","","","Drizzle"
"-94.97","74.72","RESOLUTE BAY A","2403498","2019-06-27 22:00","2019","06","27","22:00","4.6","","3.3","","92","","","","9","","16","","16.1","","101.83","","","","","","Drizzle"
"-94.97","74.72","RESOLUTE BAY A","2403498","2019-06-27 23:00","2019","06","27","23:00","4.6","","3.2","","91","","","","14","","14","","16.1","","101.80","","","","","","Rain"
"-94.97","74.72","RESOLUTE BAY A","2403498","2019-06-28 00:00","2019","06","28","00:00","5.9","","4.5","","90","","","","12","","30","","16.1","","101.75","","","","","","Rain"
"-94.97","74.72","RESOLUTE BAY A","2403498","2019-06-28 01:00","2019","06","28","01:00","5.0","","3.2","","88","","","","10","","28","","17.7","","101.71","","","","","","Rain"
"-94.97","74.72","RESOLUTE BAY A","2403498","2019-06-28 02:00","2019","06","28","02:00","5.8","","3.6","","86","","","","12","","34","","19.3","","101.70","","","","","","Rain"
"-94.97","74.72","RESOLUTE BAY A","2403498","2019-06-28 03:00","2019","06","28","03:00","4.6","","1.4","","80","","","","10","","32","","19.3","","101.68","","","","","","Rain"
"-94.97","74.72","RESOLUTE BAY A","2403498","2019-06-28 04:00","2019","06","28","04:00","4.4","","0.4","","76","","","","10","","34","","20.9","","101.70","","","","","","Rain"
"-94.97","74.72","RESOLUTE BAY A","2403498","2019-06-28 05:00","2019","06","28","05:00","4.5","","-0.1","","72","","","","10","","36","","19.3","","101.68","","","","","","NA"
"-94.97","74.72","RESOLUTE BAY A","2403498","2019-06-28 06:00","2019","06","28","06:00","4.2","","0.1","","75","","","","9","","37","","14.5","","101.67","","","","","","Rain"
"-94.97","74.72","RESOLUTE BAY A","2403498","2019-06-28 07:00","2019","06","28","07:00","6.2","","2.5","","77","","","","10","","25","","24.1","","101.63","","","","","","Rain Showers"
"-94.97","74.72","RESOLUTE BAY A","2403498","2019-06-28 08:00","2019","06","28","08:00","5.7","","1.5","","74","","","","10","","32","","19.3","","101.60","","","","","","NA"
"-94.97","74.72","RESOLUTE BAY A","2403498","2019-06-28 09:00","2019","06","28","09:00","7.0","","2.3","","72","","","","11","","28","","19.3","","101.61","","","","","","Mostly Cloudy"
"-94.97","74.72","RESOLUTE BAY A","2403498","2019-06-28 10:00","2019","06","28","10:00","6.5","","1.7","","71","","","","11","","25","","19.3","","101.61","","","","","","NA"
"-94.97","74.72","RESOLUTE BAY A","2403498","2019-06-28 11:00","2019","06","28","11:00","7.1","","2.8","","74","","","","11","","22","","19.3","","101.62","","","","","","NA"
"-94.97","74.72","RESOLUTE BAY A","2403498","2019-06-28 12:00","2019","06","28","12:00","6.9","","2.1","","72","","","","14","","17","","19.3","","101.64","","","","","","Mostly Cloudy"
"-94.97","74.72","RESOLUTE BAY A","2403498","2019-06-28 13:00","2019","06","28","13:00","7.2","","3.6","","78","","","","17","","10","","19.3","","101.66","","","","","","NA"
"-94.97","74.72","RESOLUTE BAY A","2403498","2019-06-28 14:00","2019","06","28","14:00","5.8","","2.3","","78","","","","16","","11","","19.3","","101.68","","","","","","NA"
"-94.97","74.72","RESOLUTE BAY A","2403498","2019-06-28 15:00","2019","06","28","15:00","4.7","","1.2","","78","","","","16","","10","","19.3","","101.66","","","","","","Mostly Cloudy"
"-94.97","74.72","RESOLUTE BAY A","2403498","2019-06-28 16:00","2019","06","28","16:00","3.8","","0.7","","80","","","","15","","11","","19.3","","101.65","","","","","","NA"
"-94.97","74.72","RESOLUTE BAY A","2403498","2019-06-28 17:00","2019","06","28","17:00","3.6","","0.4","","80","","","","14","","10","","16.1","","101.63","","","","","","NA"
"-94.97","74.72","RESOLUTE BAY A","2403498","2019-06-28 18:00","2019","06","28","18:00","3.6","","0.5","","80","","","","19","","3","","16.1","","101.62","","","","","","Cloudy"
"-94.97","74.72","RESOLUTE BAY A","2403498","2019-06-28 19:00","2019","06","28","19:00","2.6","","0.6","","87","","","","32","","8","","16.1","","101.59","","","","","","NA"
"-94.97","74.72","RESOLUTE BAY A","2403498","2019-06-28 20:00","2019","06","28","20:00","3.5","","1.4","","86","","","","32","","10","","24.1","","101.59","","","","","","NA"
"-94.97","74.72","RESOLUTE BAY A","2403498","2019-06-28 21:00","2019","06","28","21:00","3.8","","2.1","","89","","","","34","","8","","24.1","","101.54","","","","","","Cloudy"
"-94.97","74.72","RESOLUTE BAY A","2403498","2019-06-28 22:00","2019","06","28","22:00","3.5","","2.6","","94","","","","31","","9","","24.1","","101.50","","","","","","NA"
"-94.97","74.72","RESOLUTE BAY A","2403498","2019-06-28 23:00","2019","06","28","23:00","2.2","","1.6","","96","","","","32","","8","","24.1","","101.49","","","","","","NA"
"-94.97","74.72","RESOLUTE BAY A","2403498","2019-06-29 00:00","2019","06","29","00:00","2.6","","1.9","","95","","","","31","","10","","24.1","","101.47","","","","","","Cloudy"
"-94.97","74.72","RESOLUTE BAY A","2403498","2019-06-29 01:00","2019","06","29","01:00","3.6","","3.1","","96","","","","4","","4","","24.1","","101.45","","","","","","NA"
"-94.97","74.72","RESOLUTE BAY A","2403498","2019-06-29 02:00","2019","06","29","02:00","2.7","","2.0","","95","","","","36","","3","","24.1","","101.42","","","","","","NA"
"-94.97","74.72","RESOLUTE BAY A","2403498","2019-06-29 03:00","2019","06","29","03:00","3.8","","3.0","","94","","","","14","","4","","24.1","","101.41","","","","","","Cloudy"
"-94.97","74.72","RESOLUTE BAY A","2403498","2019-06-29 04:00","2019","06","29","04:00","3.7","","2.8","","94","","","","27","","4","","24.1","","101.39","","","","","","NA"
"-94.97","74.72","RESOLUTE BAY A","2403498","2019-06-29 05:00","2019","06","29","05:00","3.3","","2.4","","94","","","","12","","5","","2.0","","101.39","","","","","","Fog"
"-94.97","74.72","RESOLUTE BAY A","2403498","2019-06-29 06:00","2019","06","29","06:00","2.6","","1.2","","91","","","","19","","4","","11.3","","101.37","","","","","","Cloudy"
"-94.97","74.72","RESOLUTE BAY A","2403498","2019-06-29 07:00","2019","06","29","07:00","3.2","","1.7","","90","","","","18","","5","","24.1","","101.36","","","","","","NA"
"-94.97","74.72","RESOLUTE BAY A","2403498","2019-06-29 08:00","2019","06","29","08:00","5.5","","3.7","","88","","","","36","","3","","19.3","","101.31","","","","","","NA"
"-94.97","74.72","RESOLUTE BAY A","2403498","2019-06-29 09:00","2019","06","29","09:00","5.4","","3.3","","86","","","","15","","8","","19.3","","101.31","","","","","","Mostly Cloudy"
"-94.97","74.72","RESOLUTE BAY A","2403498","2019-06-29 10:00","2019","06","29","10:00","6.0","","2.0","","76","","","","18","","5","","24.1","","101.30","","","","","","NA"
"-94.97","74.72","RESOLUTE BAY A","2403498","2019-06-29 11:00","2019","06","29","11:00","6.8","","2.9","","76","","","","34","","5","","19.3","","101.26","","","","","","NA"
"-94.97","74.72","RESOLUTE BAY A","2403498","2019-06-29 12:00","2019","06","29","12:00","8.1","","4.2","","76","","","","4","","8","","19.3","","101.24","","","","","","Mostly Cloudy"
"-94.97","74.72","RESOLUTE BAY A","2403498","2019-06-29 13:00","2019","06","29","13:00","7.5","","2.1","","68","","","","31","","4","","24.1","","101.25","","","","","","NA"
"-94.97","74.72","RESOLUTE BAY A","2403498","2019-06-29 14:00","2019","06","29","14:00","7.8","","2.5","","69","","","","28","","11","","19.3","","101.25","","","","","","NA"
"-94.97","74.72","RESOLUTE BAY A","2403498","2019-06-29 15:00","2019","06","29","15:00","9.8","","3.7","","66","","","","28","","5","","19.3","","101.22","","","","","","Mostly Cloudy"
"-94.97","74.72","RESOLUTE BAY A","2403498","2019-06-29 16:00","2019","06","29","16:00","9.5","","4.2","","70","","","","26","","7","","19.3","","101.18","","","","","","NA"
"-94.97","74.72","RESOLUTE BAY A","2403498","2019-06-29 17:00","2019","06","29","17:00","9.8","","4.2","","68","","","","25","","4","","19.3","","101.16","","","","","","NA"
"-94.97","74.72","RESOLUTE BAY A","2403498","2019-06-29 18:00","2019","06","29","18:00","9.4","","4.9","","73","","","","26","","4","","19.3","","101.12","","","","","","Mostly Cloudy"
"-94.97","74.72","RESOLUTE BAY A","2403498","2019-06-29 19:00","2019","06","29","19:00","11.2","","1.0","","49","","","","14","","7","","32.2","","101.09","","","","","","NA"
"-94.97","74.72","RESOLUTE BAY A","2403498","2019-06-29 20:00","2019","06","29","20:00","10.6","","3.6","","62","","","","21","","4","","48.3","","101.10","","","","","","NA"
"-94.97","74.72","RESOLUTE BAY A","2403498","2019-06-29 21:00","2019","06","29","21:00","11.0","","4.4","","64","","","","28","","4","","48.3","","101.08","","","","","","Mostly Cloudy"
"-94.97","74.72","RESOLUTE BAY A","2403498","2019-06-29 22:00","2019","06","29","22:00","10.6","","3.5","","61","","","","5","","7","","48.3","","101.03","","","","","","NA"
"-94.97","74.72","RESOLUTE BAY A","2403498","2019-06-29 23:00","2019","06","29","23:00","10.3","","2.6","","59","","","","5","","27","","48.3","","101.00","","","","","","NA"
"-94.97","74.72","RESOLUTE BAY A","2403498","2019-06-30 00:00","2019","06","30","00:00","9.1","","2.0","","61","","","","5","","23","","48.3","","100.99","","","","","","Mostly Cloudy"
"-94.97","74.72","RESOLUTE BAY A","2403498","2019-06-30 01:00","2019","06","30","01:00","3.4","","1.1","","84","","","","19","","9","","48.3","","100.99","","","","","","NA"
"-94.97","74.72","RESOLUTE BAY A","2403498","2019-06-30 02:00","2019","06","30","02:00","3.5","","1.1","","84","","","","19","","8","","48.3","","100.98","","","","","","NA"
"-94.97","74.72","RESOLUTE BAY A","2403498","2019-06-30 03:00","2019","06","30","03:00","4.8","","2.2","","83","","","","14","","5","","48.3","","100.98","","","","","","Mainly Clear"
"-94.97","74.72","RESOLUTE BAY A","2403498","2019-06-30 04:00","2019","06","30","04:00","5.8","","2.3","","78","","","","14","","13","","48.3","","100.97","","","","","","NA"
"-94.97","74.72","RESOLUTE BAY A","2403498","2019-06-30 05:00","2019","06","30","05:00","7.6","","0.7","","61","","","","12","","30","","48.3","","100.98","","","","","","NA"
"-94.97","74.72","RESOLUTE BAY A","2403498","2019-06-30 06:00","2019","06","30","06:00","7.5","","0.3","","60","","","","10","","26","","48.3","","100.98","","","","","","Mainly Clear"
"-94.97","74.72","RESOLUTE BAY A","2403498","2019-06-30 07:00","2019","06","30","07:00","8.1","","0.4","","58","","","","10","","24","","48.3","","101.00","","","","","","NA"
"-94.97","74.72","RESOLUTE BAY A","2403498","2019-06-30 08:00","2019","06","30","08:00","8.4","","2.0","","64","","","","10","","18","","48.3","","101.02","","","","","","NA"
"-94.97","74.72","RESOLUTE BAY A","2403498","2019-06-30 09:00","2019","06","30","09:00","7.2","","1.1","","65","","","","10","","31","","48.3","","101.04","","","","","","Mainly Clear"
"-94.97","74.72","RESOLUTE BAY A","2403498","2019-06-30 10:00","2019","06","30","10:00","8.8","","1.8","","61","","","","8","","29","","48.3","","101.02","","","","","","NA"
"-94.97","74.72","RESOLUTE BAY A","2403498","2019-06-30 11:00","2019","06","30","11:00","8.4","","1.8","","63","","","","14","","23","","19.3","","101.06","","","","","","NA"
"-94.97","74.72","RESOLUTE BAY A","2403498","2019-06-30 12:00","2019","06","30","12:00","8.6","","2.3","","65","","","","10","","13","","19.3","","101.09","","","","","","Mainly Clear"
"-94.97","74.72","RESOLUTE BAY A","2403498","2019-06-30 13:00","2019","06","30","13:00","9.1","","2.6","","63","","","","13","","17","","24.1","","101.10","","","","","","NA"
"-94.97","74.72","RESOLUTE BAY A","2403498","2019-06-30 14:00","2019","06","30","14:00","8.8","","1.7","","61","","","","11","","25","","16.1","","101.13","","","","","","NA"
"-94.97","74.72","RESOLUTE BAY A","2403498","2019-06-30 15:00","2019","06","30","15:00","8.0","","2.1","","66","","","","7","","43","","19.3","","101.07","","","","","","Mainly Clear"
"-94.97","74.72","RESOLUTE BAY A","2403498","2019-06-30 16:00","2019","06","30","16:00","7.8","","1.2","","63","","","","7","","40","","19.3","","101.09","","","","","","NA"
"-94.97","74.72","RESOLUTE BAY A","2403498","2019-06-30 17:00","2019","06","30","17:00","8.1","","1.4","","63","","","","7","","42","","19.3","","101.12","","","","","","NA"
"-94.97","74.72","RESOLUTE BAY A","2403498","2019-06-30 18:00","2019","06","30","18:00","9.0","","1.5","","59","","","","8","","24","","19.3","","101.17","","","","","","Mainly Clear"
"-94.97","74.72","RESOLUTE BAY A","2403498","2019-06-30 19:00","2019","06","30","19:00","9.1","","0.8","","56","","","","10","","21","","19.3","","101.20","","","","","","NA"
"-94.97","74.72","RESOLUTE BAY A","2403498","2019-06-30 20:00","2019","06","30","20:00","8.2","","1.3","","61","","","","7","","18","","24.1","","101.21","","","","","","NA"
"-94.97","74.72","RESOLUTE BAY A","2403498","2019-06-30 21:00","2019","06","30","21:00","7.2","","1.6","","68","","","","36","","3","","48.3","","101.21","","","","","","Mainly Clear"
"-94.97","74.72","RESOLUTE BAY A","2403498","2019-06-30 22:00","2019","06","30","22:00","6.3","","2.2","","75","","","","26","","3","","48.3","","101.23","","","","","","NA"
"-94.97","74.72","RESOLUTE BAY A","2403498","2019-06-30 23:00","2019","06","30","23:00","4.9","","1.6","","79","","","","24","","3","","48.3","","101.28","","","","","","NA"
