"Longitude (x)","Latitude (y)","Station Name","Climate ID","Date/Time (LST)","Year","Month","Day","Time (LST)","Temp (°C)","Temp Flag","Dew Point Temp (°C)","Dew Point Temp Flag","Rel Hum (%)","Rel Hum Flag","Precip. Amount (mm)","Precip. Amount Flag","Wind Dir (10s deg)","Wind Dir Flag","Wind Spd (km/h)","Wind Spd Flag","Visibility (km)","Visibility Flag","Stn Press (kPa)","Stn Press Flag","Hmdx","Hmdx Flag","Wind Chill","Wind Chill Flag","Weather"
"-94.97","74.72","RESOLUTE BAY A","2403498","2019-07-01 00:00","2019","07","01","00:00","4.0","","1.4","","83","","","","26","","7","","48.3","","101.29","","","","","","Mainly Clear"
"-94.97","74.72","RESOLUTE BAY A","2403498","2019-07-01 01:00","2019","07","01","01:00","4.9","","1.7","","79","","","","4","","3","","48.3","","101.31","","","","","","NA"
"-94.97","74.72","RESOLUTE BAY A","2403498","2019-07-01 02:00","2019","07","01","02:00","5.7","","1.4","","74","","","","13","","4","","48.3","","101.32","","","","","","NA"
"-94.97","74.72","RESOLUTE BAY A","2403498","2019-07-01 03:00","2019","07","01","03:00","5.2","","2.0","","79","","","","36","","1","","48.3","","101.31","","","","","","Clear"
"-94.97","74.72","RESOLUTE BAY A","2403498","2019-07-01 04:00","2019","07","01","04:00","6.9","","3.1","","77","","","","","","0","","48.3","","101.30","","","","","","NA"
"-94.97","74.72","RESOLUTE BAY A","2403498","2019-07-01 05:00","2019","07","01","05:00","7.6","","2.3","","69","","","","35","","5","","48.3","","101.29","","","","","","NA"
"-94.97","74.72","RESOLUTE BAY A","2403498","2019-07-01 06:00","2019","07","01","06:00","9.4","","1.1","","56","","","","35","","3","","48.3","","101.30","","","","","","Clear"
"-94.97","74.72","RESOLUTE BAY A","2403498","2019-07-01 07:00","2019","07","01","07:00","10.6","","-0.3","","47","","","","36","","2","","48.3","","101.28","","","","","","NA"
"-94.97","74.72","RESOLUTE BAY A","2403498","2019-07-01 08:00","2019","07","01","08:00","11.3","","1.0","","49","","","","35","","3","","24.1","","101.26","","","","","","NA"
"-94.97","74.72","RESOLUTE BAY A","2403498","2019-07-01 09:00","2019","07","01","09:00","10.5","","1.7","","54","","","","32","","11","","24.1","","101.26","","","","","","Clear"
"-94.97","74.72","RESOLUTE BAY A","2403498","2019-07-01 10:00","2019","07","01","10:00","10.5","","2.0","","56","","","","29","","13","","24.1","","101.25","","","","","","NA"
"-94.97","74.72","RESOLUTE BAY A","2403498","2019-07-01 11:00","2019","07","01","11:00","11.8","","3.9","","58","","","","30","","12","","24.1","","101.22","","","","","","NA"
"-94.97","74.72","RESOLUTE BAY A","2403498","2019-07-01 12:00","2019","07","01","12:00","11.8","","5.0","","63","","","","35","","17","","24.1","","101.22","","","","","","Clear"
"-94.97","74.72","RESOLUTE BAY A","2403498","2019-07-01 13:00","2019","07","01","13:00","11.8","","4.6","","61","","","","27","","11","","19.3","","101.19","","","","","","NA"
"-94.97","74.72","RESOLUTE BAY A","2403498","2019-07-01 14:00","2019","07","01","14:00","13.1","","5.5","","60","","","","28","","13","","24.1","","101.17","","","","","","NA"
"-94.97","74.72","RESOLUTE BAY A","2403498","2019-07-01 15:00","2019","07","01","15:00","14.1","","6.5","","60","","","","36","","16","","19.3","","101.15","","","","","","Clear"
"-94.97","74.72","RESOLUTE BAY A","2403498","2019-07-01 16:00","2019","07","01","16:00","13.2","","6.2","","63","","","","35","","16","","24.1","","101.14","","","","","","NA"
"-94.97","74.72","RESOLUTE BAY A","2403498","2019-07-01 17:00","2019","07","01","17:00","13.8","","7.8","","67","","","","1","","22","","24.1","","101.11","","","","","","NA"
"-94.97","74.72","RESOLUTE BAY A","2403498","2019-07-01 18:00","2019","07","01","18:00","13.5","","7.1","","65","","","","36","","25","","19.3","","101.07","","","","","","Clear"
"-94.97","74.72","RESOLUTE BAY A","2403498","2019-07-01 19:00","2019","07","01","19:00","13.3","","7.0","","65","","","","1","","21","","24.1","","101.06","","","","","","NA"
"-94.97","74.72","RESOLUTE BAY A","2403498","2019-07-01 20:00","2019","07","01","20:00","12.0","","6.2","","67","","","","36","","16","","24.1","","101.04","","","","","","NA"
"-94.97","74.72","RESOLUTE BAY A","2403498","2019-07-01 21:00","2019","07","01","21:00","11.5","","5.7","","67","","","","1","","10","","48.3","","101.03","","","","","","Clear"
"-94.97","74.72","RESOLUTE BAY A","2403498","2019-07-01 22:00","2019","07","01","22:00","9.9","","5.2","","73","","","","32","","12","","48.3","","101.01","","","","","","NA"
"-94.97","74.72","RESOLUTE BAY A","2403498","2019-07-01 23:00","2019","07","01","23:00","9.2","","4.7","","73","","","","25","","3","","48.3","","100.97","","","","","","NA"
"-94.97","74.72","RESOLUTE BAY A","2403498","2019-07-02 00:00","2019","07","02","00:00","8.5","","4.2","","74","","","","5","","22","","48.3","","100.93","","","","","","Clear"
"-94.97","74.72","RESOLUTE BAY A","2403498","2019-07-02 01:00","2019","07","02","01:00","9.1","","4.0","","70","","","","2","","5","","48.3","","100.94","","","","","","NA"
"-94.97","74.72","RESOLUTE BAY A","2403498","2019-07-02 02:00","2019","07","02","02:00","9.9","","4.7","","70","","","","9","","5","","48.3","","100.89","","","","","","NA"
"-94.97","74.72","RESOLUTE BAY A","2403498","2019-07-02 03:00","2019","07","02","03:00","8.3","","4.3","","76","","","","18","","4","","48.3","","100.88","","","","","","Clear"
"-94.97","74.72","RESOLUTE BAY A","2403498","2019-07-02 04:00","2019","07","02","04:00","9.7","","4.3","","69","","","","3","","8","","48.3","","100.85","","","","","","NA"
"-94.97","74.72","RESOLUTE BAY A","2403498","2019-07-02 05:00","2019","07","02","05:00","9.1","","4.5","","73","","","","18","","7","","48.3","","100.86","","","","","","NA"
"-94.97","74.72","RESOLUTE BAY A","2403498","2019-07-02 06:00","2019","07","02","06:00","10.2","","4.8","","69","","","","5","","10","","48.3","","100.87","","","","","","Clear"
"-94.97","74.72","RESOLUTE BAY A","2403498","2019-07-02 07:00","2019","07","02","07:00","10.8","","4.7","","66","","","","2","","9","","48.3","","100.85","","","","","","NA"
"-94.97","74.72","RESOLUTE BAY A","2403498","2019-07-02 08:00","2019","07","02","08:00","10.9","","5.1","","67","","","","7","","13","","48.3","","100.86","","","","","","NA"
"-94.97","74.72","RESOLUTE BAY A","2403498","2019-07-02 09:00","2019","07","02","09:00","11.7","","5.2","","64","","","","12","","9","","48.3","","100.86","","","","","","Clear"
"-94.97","74.72","RESOLUTE BAY A","2403498","2019-07-02 10:00","2019","07","02","10:00","10.2","","4.8","","69","","","","15","","9","","48.3","","100.83","","","","","","NA"
"-94.97","74.72","RESOLUTE BAY A","2403498","2019-07-02 11:00","2019","07","02","11:00","9.8","","4.5","","69","","","","13","","13","","48.3","","100.83","","","","","","NA"
"-94.97","74.72","RESOLUTE BAY A","2403498","2019-07-02 12:00","2019","07","02","12:00","9.9","","4.4","","69","","","","15","","12","","48.3","","100.82","","","","","","Clear"
"-94.97","74.72","RESOLUTE BAY A","2403498","2019-07-02 13:00","2019","07","02","13:00","10.1","","4.5","","68","","","","15","","7","","48.3","","100.82","","","","","","NA"
"-94.97","74.72","RESOLUTE BAY A","2403498","2019-07-02 14:00","2019","07","02","14:00","9.8","","4.4","","69","","","","15","","11","","48.3","","100.83","","","","","","NA"
"-94.97","74.72","RESOLUTE BAY A","2403498","2019-07-02 15:00","2019","07","02","15:00","11.4","","5.0","","65","","","","17","","7","","48.3","","100.83","","","","","","Clear"
"-94.97","74.72","RESOLUTE BAY A","2403498","2019-07-02 16:00","2019","07","02","16:00","11.2","","4.8","","64","","","","22","","7","","48.3","","100.85","","","","","","NA"
"-94.97","74.72","RESOLUTE BAY A","2403498","2019-07-02 17:00","2019","07","02","17:00","11.6","","4.5","","61","","","","16","","5","","32.2","","100.83","","","","","","NA"
"-94.97","74.72","RESOLUTE BAY A","2403498","2019-07-02 18:00","2019","07","02","18:00","11.6","","4.6","","62","","","","23","","4","","32.2","","100.83","","","","","","Mainly Clear"
"-94.97","74.72","RESOLUTE BAY A","2403498","2019-07-02 19:00","2019","07","02","19:00","12.2","","5.3","","63","","","","36","","3","","32.2","","100.83","","","","","","NA"
"-94.97","74.72","RESOLUTE BAY A","2403498","2019-07-02 20:00","2019","07","02","20:00","11.2","","2.9","","56","","","","14","","3","","48.3","","100.81","","","","","","NA"
"-94.97","74.72","RESOLUTE BAY A","2403498","2019-07-02 21:00","2019","07","02","21:00","9.1","","3.1","","66","","","","15","","7","","48.3","","100.83","","","","","","Mostly Cloudy"
"-94.97","74.72","RESOLUTE BAY A","2403498","2019-07-02 22:00","2019","07","02","22:00","8.9","","4.1","","72","","","","36","","1","","48.3","","100.81","","","","","","NA"
"-94.97","74.72","RESOLUTE BAY A","2403498","2019-07-02 23:00","2019","07","02","23:00","8.9","","4.4","","73","","","","19","","4","","48.3","","100.81","","","","","","NA"
"-94.97","74.72","RESOLUTE BAY A","2403498","2019-07-03 00:00","2019","07","03","00:00","8.0","","4.3","","77","","","","0","","1","","48.3","","100.83","","","","","","Mostly Cloudy"
"-94.97","74.72","RESOLUTE BAY A","2403498","2019-07-03 01:00","2019","07","03","01:00","7.5","","4.5","","81","","","","14","","3","","48.3","","100.82","","","","","","NA"
"-94.97","74.72","RESOLUTE BAY A","2403498","2019-07-03 02:00","2019","07","03","02:00","8.1","","5.2","","82","","","","22","","3","","48.3","","100.82","","","","","","NA"
"-94.97","74.72","RESOLUTE BAY A","2403498","2019-07-03 03:00","2019","07","03","03:00","8.8","","3.4","","69","","","","","","0","","48.3","","100.82","","","","","","Cloudy"
"-94.97","74.72","RESOLUTE BAY A","2403498","2019-07-03 04:00","2019","07","03","04:00","8.8","","4.3","","73","","","","22","","3","","48.3","","100.83","","","","","","NA"
"-94.97","74.72","RESOLUTE BAY A","2403498","2019-07-03 05:00","2019","07","03","05:00","6.6","","2.7","","76","","","","21","","4","","48.3","","100.84","","","","","","NA"
"-94.97","74.72","RESOLUTE BAY A","2403498","2019-07-03 06:00","2019","07","03","06:00","8.1","","4.0","","76","","","","27","","3","","48.3","","100.84","","","","","","Cloudy"
"-94.97","74.72","RESOLUTE BAY A","2403498","2019-07-03 07:00","2019","07","03","07:00","8.5","","3.5","","71","","","","25","","4","","48.3","","100.86","","","","","","NA"
"-94.97","74.72","RESOLUTE BAY A","2403498","2019-07-03 08:00","2019","07","03","08:00","11.3","","0.8","","48","","","","15","","9","","48.3","","100.87","","","","","","NA"
"-94.97","74.72","RESOLUTE BAY A","2403498","2019-07-03 09:00","2019","07","03","09:00","8.9","","3.2","","67","","","","24","","5","","48.3","","100.88","","","","","","Cloudy"
"-94.97","74.72","RESOLUTE BAY A","2403498","2019-07-03 10:00","2019","07","03","10:00","9.1","","3.0","","65","","","","23","","7","","32.2","","100.90","","","","","","NA"
"-94.97","74.72","RESOLUTE BAY A","2403498","2019-07-03 11:00","2019","07","03","11:00","10.5","","2.3","","57","","","","23","","4","","32.2","","100.89","","","","","","NA"
"-94.97","74.72","RESOLUTE BAY A","2403498","2019-07-03 12:00","2019","07","03","12:00","9.9","","0.8","","53","","","","18","","10","","32.2","","100.90","","","","","","Cloudy"
"-94.97","74.72","RESOLUTE BAY A","2403498","2019-07-03 13:00","2019","07","03","13:00","12.3","","2.0","","49","","","","15","","16","","32.2","","100.89","","","","","","NA"
"-94.97","74.72","RESOLUTE BAY A","2403498","2019-07-03 14:00","2019","07","03","14:00","12.7","","0.7","","44","","","","16","","16","","32.2","","100.90","","","","","","NA"
"-94.97","74.72","RESOLUTE BAY A","2403498","2019-07-03 15:00","2019","07","03","15:00","12.6","","1.3","","46","","","","16","","18","","48.3","","100.91","","","","","","Mostly Cloudy"
"-94.97","74.72","RESOLUTE BAY A","2403498","2019-07-03 16:00","2019","07","03","16:00","11.4","","1.3","","50","","","","16","","15","","48.3","","100.90","","","","","","NA"
"-94.97","74.72","RESOLUTE BAY A","2403498","2019-07-03 17:00","2019","07","03","17:00","9.9","","0.4","","52","","","","14","","10","","48.3","","100.92","","","","","","NA"
"-94.97","74.72","RESOLUTE BAY A","2403498","2019-07-03 18:00","2019","07","03","18:00","11.0","","0.7","","49","","","","15","","9","","48.3","","100.92","","","","","","Mostly Cloudy"
"-94.97","74.72","RESOLUTE BAY A","2403498","2019-07-03 19:00","2019","07","03","19:00","11.1","","0.3","","47","","","","16","","8","","32.2","","100.92","","","","","","NA"
"-94.97","74.72","RESOLUTE BAY A","2403498","2019-07-03 20:00","2019","07","03","20:00","10.6","","0.3","","49","","","","16","","5","","48.3","","100.92","","","","","","NA"
"-94.97","74.72","RESOLUTE BAY A","2403498","2019-07-03 21:00","2019","07","03","21:00","8.7","","-1.5","","48","","","","18","","5","","48.3","","100.91","","","","","","Mainly Clear"
"-94.97","74.72","RESOLUTE BAY A","2403498","2019-07-03 22:00","2019","07","03","22:00","7.6","","-0.1","","58","","","","17","","7","","48.3","","100.92","","","","","","NA"
"-94.97","74.72","RESOLUTE BAY A","2403498","2019-07-03 23:00","2019","07","03","23:00","7.9","","0.7","","60","","","","36","","2","","48.3","","100.93","","","","","","NA"
"-94.97","74.72","RESOLUTE BAY A","2403498","2019-07-04 00:00","2019","07","04","00:00","8.0","","2.2","","67","","","","11","","3","","48.3","","100.93","","","","","","Mainly Clear"
"-94.97","74.72","RESOLUTE BAY A","2403498","2019-07-04 01:00","2019","07","04","01:00","7.5","","0.8","","62","","","","20","","4","","48.3","","100.93","","","","","","NA"
"-94.97","74.72","RESOLUTE BAY A","2403498","2019-07-04 02:00","2019","07","04","02:00","7.3","","1.6","","67","","","","14","","4","","48.3","","100.94","","","","","","NA"
"-94.97","74.72","RESOLUTE BAY A","2403498","2019-07-04 03:00","2019","07","04","03:00","5.5","","1.1","","73","","","","14","","5","","48.3","","100.94","","","","","","Mostly Cloudy"
"-94.97","74.72","RESOLUTE BAY A","2403498","2019-07-04 04:00","2019","07","04","04:00","7.0","","2.3","","72","","","","23","","4","","48.3","","100.95","","","","","","NA"
"-94.97","74.72","RESOLUTE BAY A","2403498","2019-07-04 05:00","2019","07","04","05:00","5.8","","0.4","","68","","","","19","","6","","48.3","","100.96","","","","","","NA"
"-94.97","74.72","RESOLUTE BAY A","2403498","2019-07-04 06:00","2019","07","04","06:00","7.5","","1.6","","67","","","","16","","5","","48.3","","100.96","","","","","","Mostly Cloudy"
"-94.97","74.72","RESOLUTE BAY A","2403498","2019-07-04 07:00","2019","07","04","07:00","9.4","","0.7","","54","","","","11","","19","","48.3","","100.96","","","","","","NA"
"-94.97","74.72","RESOLUTE BAY A","2403498","2019-07-04 08:00","2019","07","04","08:00","10.2","","0.2","","50","","","","12","","18","","48.3","","100.98","","","","","","NA"
"-94.97","74.72","RESOLUTE BAY A","2403498","2019-07-04 09:00","2019","07","04","09:00","10.3","","-0.3","","48","","","","12","","25","","48.3","","100.96","","","","","","Mostly Cloudy"
"-94.97","74.72","RESOLUTE BAY A","2403498","2019-07-04 10:00","2019","07","04","10:00","10.2","","-0.2","","48","","","","12","","20","","48.3","","100.95","","","","","","NA"
"-94.97","74.72","RESOLUTE BAY A","2403498","2019-07-04 11:00","2019","07","04","11:00","10.9","","-1.2","","43","","","","9","","35","","48.3","","100.91","","","","","","NA"
"-94.97","74.72","RESOLUTE BAY A","2403498","2019-07-04 12:00","2019","07","04","12:00","11.6","","-0.5","","43","","","","11","","31","","32.2","","100.91","","","","","","Mostly Cloudy"
"-94.97","74.72","RESOLUTE BAY A","2403498","2019-07-04 13:00","2019","07","04","13:00","11.3","","-1.6","","40","","","","11","","36","","48.3","","100.91","","","","","","NA"
"-94.97","74.72","RESOLUTE BAY A","2403498","2019-07-04 14:00","2019","07","04","14:00","10.8","","-0.7","","45","","","","11","","37","","48.3","","100.90","","","","","","NA"
"-94.97","74.72","RESOLUTE BAY A","2403498","2019-07-04 15:00","2019","07","04","15:00","10.6","","-0.5","","46","","","","11","","35","","48.3","","100.89","","","","","","Mainly Clear"
"-94.97","74.72","RESOLUTE BAY A","2403498","2019-07-04 16:00","2019","07","04","16:00","9.6","","0.4","","52","","","","11","","33","","48.3","","100.89","","","","","","NA"
"-94.97","74.72","RESOLUTE BAY A","2403498","2019-07-04 17:00","2019","07","04","17:00","9.2","","0.6","","55","","","","11","","34","","32.2","","100.89","","","","","","NA"
"-94.97","74.72","RESOLUTE BAY A","2403498","2019-07-04 18:00","2019","07","04","18:00","8.5","","0.9","","59","","","","10","","35","","48.3","","100.90","","","","","","Mainly Clear"
"-94.97","74.72","RESOLUTE BAY A","2403498","2019-07-04 19:00","2019","07","04","19:00","6.9","","0.2","","62","","","","11","","29","","48.3","","100.90","","","","","","NA"
"-94.97","74.72","RESOLUTE BAY A","2403498","2019-07-04 20:00","2019","07","04","20:00","6.5","","0.2","","64","","","","10","","42","","48.3","","100.87","","","","","","NA"
"-94.97","74.72","RESOLUTE BAY A","2403498","2019-07-04 21:00","2019","07","04","21:00","6.3","","-0.2","","63","","","","9","","53","","48.3","","100.82","","","","","","Mainly Clear"
"-94.97","74.72","RESOLUTE BAY A","2403498","2019-07-04 22:00","2019","07","04","22:00","5.8","","-0.1","","66","","","","10","","42","","48.3","","100.82","","","","","","NA"
"-94.97","74.72","RESOLUTE BAY A","2403498","2019-07-04 23:00","2019","07","04","23:00","4.0","","0.1","","76","","","","10","","32","","48.3","","100.83","","","","","","NA"
"-94.97","74.72","RESOLUTE BAY A","2403498","2019-07-05 00:00","2019","07","05","00:00","2.0","","-0.4","","84","","","","10","","41","","48.3","","100.81","","","","","","Clear"
"-94.97","74.72","RESOLUTE BAY A","2403498","2019-07-05 01:00","2019","07","05","01:00","1.5","","-0.2","","89","","","","11","","39","","40.2","","100.79","","","","","","NA"
"-94.97","74.72","RESOLUTE BAY A","2403498","2019-07-05 02:00","2019","07","05","02:00","1.9","","0.0","","87","","","","11","","40","","16.1","","100.80","","","","","","NA"
"-94.97","74.72","RESOLUTE BAY A","2403498","2019-07-05 03:00","2019","07","05","03:00","1.9","","0.2","","89","","","","10","","57","","16.1","","100.75","","","","","","Mainly Clear"
"-94.97","74.72","RESOLUTE BAY A","2403498","2019-07-05 04:00","2019","07","05","04:00","2.2","","0.2","","87","","","","9","","57","","11.3","","100.75","","","","","","NA"
"-94.97","74.72","RESOLUTE BAY A","2403498","2019-07-05 05:00","2019","07","05","05:00","2.7","","0.6","","86","","","","10","","51","","16.1","","100.73","","","","","","NA"
"-94.97","74.72","RESOLUTE BAY A","2403498","2019-07-05 06:00","2019","07","05","06:00","3.3","","0.3","","81","","","","10","","61","","19.3","","100.69","","","","","","Mainly Clear"
"-94.97","74.72","RESOLUTE BAY A","2403498","2019-07-05 07:00","2019","07","05","07:00","4.0","","0.3","","77","","","","9","","63","","17.7","","100.65","","","","","","NA"
"-94.97","74.72","RESOLUTE BAY A","2403498","2019-07-05 08:00","2019","07","05","08:00","4.5","","0.6","","76","","","","9","","67","","24.1","","100.62","","","","","","NA"
"-94.97","74.72","RESOLUTE BAY A","2403498","2019-07-05 09:00","2019","07","05","09:00","4.9","","0.8","","75","","","","9","","61","","24.1","","100.61","","","","","","Clear"
"-94.97","74.72","RESOLUTE BAY A","2403498","2019-07-05 10:00","2019","07","05","10:00","5.1","","0.9","","75","","","","9","","59","","24.1","","100.59","","","","","","NA"
"-94.97","74.72","RESOLUTE BAY A","2403498","2019-07-05 11:00","2019","07","05","11:00","5.1","","1.1","","75","","","","9","","58","","24.1","","100.58","","","","","","NA"
"-94.97","74.72","RESOLUTE BAY A","2403498","2019-07-05 12:00","2019","07","05","12:00","4.6","","0.8","","76","","","","9","","64","","24.1","","100.54","","","","","","Clear"
"-94.97","74.72","RESOLUTE BAY A","2403498","2019-07-05 13:00","2019","07","05","13:00","4.8","","0.9","","76","","","","8","","54","","24.1","","100.57","","","","","","NA"
"-94.97","74.72","RESOLUTE BAY A","2403498","2019-07-05 14:00","2019","07","05","14:00","4.9","","1.1","","77","","","","9","","51","","32.2","","100.57","","","","","","NA"
"-94.97","74.72","RESOLUTE BAY A","2403498","2019-07-05 15:00","2019","07","05","15:00","4.5","","1.0","","78","","","","9","","48","","24.1","","100.56","","","","","","Mainly Clear"
"-94.97","74.72","RESOLUTE BAY A","2403498","2019-07-05 16:00","2019","07","05","16:00","4.7","","1.1","","77","","","","11","","38","","24.1","","100.57","","","","","","NA"
"-94.97","74.72","RESOLUTE BAY A","2403498","2019-07-05 17:00","2019","07","05","17:00","5.2","","1.1","","75","","","","10","","34","","24.1","","100.55","","","","","","NA"
"-94.97","74.72","RESOLUTE BAY A","2403498","2019-07-05 18:00","2019","07","05","18:00","4.7","","1.1","","77","","","","8","","42","","24.1","","100.52","","","","","","Mainly Clear"
"-94.97","74.72","RESOLUTE BAY A","2403498","2019-07-05 19:00","2019","07","05","19:00","5.1","","0.9","","74","","","","10","","35","","24.1","","100.52","","","","","","NA"
"-94.97","74.72","RESOLUTE BAY A","2403498","2019-07-05 20:00","2019","07","05","20:00","3.9","","0.5","","79","","","","8","","43","","16.1","","100.49","","","","","","NA"
"-94.97","74.72","RESOLUTE BAY A","2403498","2019-07-05 21:00","2019","07","05","21:00","3.0","","0.3","","82","","","","9","","49","","16.1","","100.48","","","","","","Mainly Clear"
"-94.97","74.72","RESOLUTE BAY A","2403498","2019-07-05 22:00","2019","07","05","22:00","1.8","","-0.1","","88","","","","8","","57","","16.1","","100.44","","","","","","NA"
"-94.97","74.72","RESOLUTE BAY A","2403498","2019-07-05 23:00","2019","07","05","23:00","1.8","","-0.3","","86","","","","7","","61","","16.1","","100.40","","","","","","NA"
"-94.97","74.72","RESOLUTE BAY A","2403498","2019-07-06 00:00","2019","07","06","00:00","1.3","","-0.4","","89","","","","7","","53","","16.1","","100.39","","","","","","Mainly Clear"
"-94.97","74.72","RESOLUTE BAY A","2403498","2019-07-06 01:00","2019","07","06","01:00","1.1","","-0.5","","89","","","","8","","48","","11.3","","100.41","","","","","","NA"
"-94.97","74.72","RESOLUTE BAY A","2403498","2019-07-06 02:00","2019","07","06","02:00","0.7","","-0.6","","91","","","","7","","49","","11.3","","100.39","","","","","","NA"
"-94.97","74.72","RESOLUTE BAY A","2403498","2019-07-06 03:00","2019","07","06","03:00","1.6","","0.0","","89","","","","8","","40","","11.3","","100.39","","","","","","Mainly Clear"
"-94.97","74.72","RESOLUTE BAY A","2403498","2019-07-06 04:00","2019","07","06","04:00","1.1","","-0.3","","91","","","","7","","51","","9.7","","100.38","","","","","","Fog"
"-94.97","74.72","RESOLUTE BAY A","2403498","2019-07-06 05:00","2019","07","06","05:00","0.9","","-0.3","","91","","","","7","","57","","16.1","","100.37","","","","","","NA"
"-94.97","74.72","RESOLUTE BAY A","2403498","2019-07-06 06:00","2019","07","06","06:00","2.5","","0.0","","83","","","","11","","30","","16.1","","100.41","","","","","","Mainly Clear"
"-94.97","74.72","RESOLUTE BAY A","2403498","2019-07-06 07:00","2019","07","06","07:00","1.9","","0.1","","88","","","","11","","45","","16.1","","100.36","","","","","","NA"
"-94.97","74.72","RESOLUTE BAY A","2403498","2019-07-06 08:00","2019","07","06","08:00","2.8","","0.2","","83","","","","9","","43","","16.1","","100.34","","","","","","NA"
"-94.97","74.72","RESOLUTE BAY A","2403498","2019-07-06 09:00","2019","07","06","09:00","4.3","","1.0","","79","","","","10","","36","","16.1","","100.34","","","","","","Mainly Clear"
"-94.97","74.72","RESOLUTE BAY A","2403498","2019-07-06 10:00","2019","07","06","10:00","6.0","","0.9","","69","","","","11","","46","","19.3","","100.31","","","","","","NA"
"-94.97","74.72","RESOLUTE BAY A","2403498","2019-07-06 11:00","2019","07","06","11:00","5.4","","0.9","","73","","","","9","","48","","19.3","","100.34","","","","","","NA"
"-94.97","74.72","RESOLUTE BAY A","2403498","2019-07-06 12:00","2019","07","06","12:00","5.2","","1.4","","76","","","","10","","58","","19.3","","100.34","","","","","","Mainly Clear"
"-94.97","74.72","RESOLUTE BAY A","2403498","2019-07-06 13:00","2019","07","06","13:00","6.0","","1.2","","71","","","","9","","60","","19.3","","100.34","","","","","","NA"
"-94.97","74.72","RESOLUTE BAY A","2403498","2019-07-06 14:00","2019","07","06","14:00","6.0","","1.2","","71","","","","9","","59","","19.3","","100.36","","","","","","NA"
"-94.97","74.72","RESOLUTE BAY A","2403498","2019-07-06 15:00","2019","07","06","15:00","6.0","","1.9","","75","","","","9","","59","","19.3","","100.34","","","","","","Mainly Clear"
"-94.97","74.72","RESOLUTE BAY A","2403498","2019-07-06 16:00","2019","07","06","16:00","6.1","","2.4","","77","","","","9","","61","","19.3","","100.36","","","","","","NA"
"-94.97","74.72","RESOLUTE BAY A","2403498","2019-07-06 17:00","2019","07","06","17:00","6.0","","2.2","","77","","","","9","","58","","19.3","","100.38","","","","","","NA"
"-94.97","74.72","RESOLUTE BAY A","2403498","2019-07-06 18:00","2019","07","06","18:00","5.0","","2.2","","83","","","","10","","58","","19.3","","100.39","","","","","","Mainly Clear"
"-94.97","74.72","RESOLUTE BAY A","2403498","2019-07-06 19:00","2019","07","06","19:00","4.4","","2.2","","85","","","","10","","57","","19.3","","100.38","","","","","","NA"
"-94.97","74.72","RESOLUTE BAY A","2403498","2019-07-06 20:00","2019","07","06","20:00","4.4","","2.5","","88","","","","8","","56","","16.1","","100.38","","","","","","NA"
"-94.97","74.72","RESOLUTE BAY A","2403498","2019-07-06 21:00","2019","07","06","21:00","4.4","","2.5","","87","","","","9","","57","","16.1","","100.35","","","","","","Mainly Clear"
"-94.97","74.72","RESOLUTE BAY A","2403498","2019-07-06 22:00","2019","07","06","22:00","3.0","","1.5","","90","","","","8","","56","","14.5","","100.34","","","","","","NA"
"-94.97","74.72","RESOLUTE BAY A","2403498","2019-07-06 23:00","2019","07","06","23:00","3.0","","1.9","","92","","","","9","","51","","14.5","","100.37","","","","","","NA"
"-94.97","74.72","RESOLUTE BAY A","2403498","2019-07-07 00:00","2019","07","07","00:00","2.5","","1.6","","94","","","","10","","50","","11.3","","100.37","","","","","","Mainly Clear"
"-94.97","74.72","RESOLUTE BAY A","2403498","2019-07-07 01:00","2019","07","07","01:00","3.4","","2.7","","95","","","","9","","36","","14.5","","100.42","","","","","","NA"
"-94.97","74.72","RESOLUTE BAY A","2403498","2019-07-07 02:00","2019","07","07","02:00","4.2","","2.0","","86","","","","10","","38","","32.2","","100.41","","","","","","NA"
"-94.97","74.72","RESOLUTE BAY A","2403498","2019-07-07 03:00","2019","07","07","03:00","5.0","","2.3","","82","","","","9","","22","","40.2","","100.42","","","","","","Mainly Clear"
"-94.97","74.72","RESOLUTE BAY A","2403498","2019-07-07 04:00","2019","07","07","04:00","5.3","","2.1","","80","","","","12","","7","","48.3","","100.40","","","","","","NA"
"-94.97","74.72","RESOLUTE BAY A","2403498","2019-07-07 05:00","2019","07","07","05:00","6.0","","2.5","","78","","","","8","","18","","48.3","","100.38","","","","","","NA"
"-94.97","74.72","RESOLUTE BAY A","2403498","2019-07-07 06:00","2019","07","07","06:00","5.7","","2.7","","81","","","","31","","10","","48.3","","100.40","","","","","","Mainly Clear"
"-94.97","74.72","RESOLUTE BAY A","2403498","2019-07-07 07:00","2019","07","07","07:00","7.6","","3.5","","75","","","","3","","20","","48.3","","100.38","","","","","","NA"
"-94.97","74.72","RESOLUTE BAY A","2403498","2019-07-07 08:00","2019","07","07","08:00","8.3","","3.2","","70","","","","6","","33","","19.3","","100.35","","","","","","NA"
"-94.97","74.72","RESOLUTE BAY A","2403498","2019-07-07 09:00","2019","07","07","09:00","7.6","","3.2","","73","","","","4","","37","","19.3","","100.34","","","","","","Mainly Clear"
"-94.97","74.72","RESOLUTE BAY A","2403498","2019-07-07 10:00","2019","07","07","10:00","8.1","","3.7","","74","","","","5","","43","","19.3","","100.31","","","","","","NA"
"-94.97","74.72","RESOLUTE BAY A","2403498","2019-07-07 11:00","2019","07","07","11:00","7.7","","4.3","","79","","","","4","","46","","19.3","","100.24","","","","","","NA"
"-94.97","74.72","RESOLUTE BAY A","2403498","2019-07-07 12:00","2019","07","07","12:00","6.9","","4.4","","84","","","","3","","40","","19.3","","100.26","","","","","","Rain"
"-94.97","74.72","RESOLUTE BAY A","2403498","2019-07-07 13:00","2019","07","07","13:00","7.5","","3.7","","77","","","","3","","30","","19.3","","100.32","","","","","","NA"
"-94.97","74.72","RESOLUTE BAY A","2403498","2019-07-07 14:00","2019","07","07","14:00","7.8","","4.5","","80","","","","2","","26","","19.3","","100.29","","","","","","Rain"
"-94.97","74.72","RESOLUTE BAY A","2403498","2019-07-07 15:00","2019","07","07","15:00","7.4","","5.1","","85","","","","1","","35","","16.1","","100.28","","","","","","Rain"
"-94.97","74.72","RESOLUTE BAY A","2403498","2019-07-07 16:00","2019","07","07","16:00","6.8","","4.5","","85","","","","3","","36","","16.1","","100.28","","","","","","NA"
"-94.97","74.72","RESOLUTE BAY A","2403498","2019-07-07 17:00","2019","07","07","17:00","6.5","","4.2","","86","","","","3","","37","","19.3","","100.26","","","","","","NA"
"-94.97","74.72","RESOLUTE BAY A","2403498","2019-07-07 18:00","2019","07","07","18:00","5.9","","3.8","","86","","","","4","","30","","19.3","","100.26","","","","","","Cloudy"
"-94.97","74.72","RESOLUTE BAY A","2403498","2019-07-07 19:00","2019","07","07","19:00","4.2","","2.7","","90","","","","7","","21","","19.3","","100.32","","","","","","NA"
"-94.97","74.72","RESOLUTE BAY A","2403498","2019-07-07 20:00","2019","07","07","20:00","3.8","","2.7","","93","","","","9","","21","","16.1","","100.33","","","","","","NA"
"-94.97","74.72","RESOLUTE BAY A","2403498","2019-07-07 21:00","2019","07","07","21:00","3.2","","2.1","","92","","","","9","","15","","24.1","","100.37","","","","","","Cloudy"
"-94.97","74.72","RESOLUTE BAY A","2403498","2019-07-07 22:00","2019","07","07","22:00","3.2","","1.9","","91","","","","7","","12","","24.1","","100.39","","","","","","NA"
"-94.97","74.72","RESOLUTE BAY A","2403498","2019-07-07 23:00","2019","07","07","23:00","3.0","","1.9","","93","","","","7","","17","","24.1","","100.40","","","","","","NA"
"-94.97","74.72","RESOLUTE BAY A","2403498","2019-07-08 00:00","2019","07","08","00:00","3.3","","1.8","","90","","","","9","","12","","24.1","","100.42","","","","","","Cloudy"
"-94.97","74.72","RESOLUTE BAY A","2403498","2019-07-08 01:00","2019","07","08","01:00","2.8","","1.3","","90","","","","11","","16","","24.1","","100.44","","","","","","NA"
"-94.97","74.72","RESOLUTE BAY A","2403498","2019-07-08 02:00","2019","07","08","02:00","2.6","","1.5","","92","","","","11","","15","","16.1","","100.47","","","","","","Drizzle"
"-94.97","74.72","RESOLUTE BAY A","2403498","2019-07-08 03:00","2019","07","08","03:00","2.4","","1.3","","92","","","","12","","15","","24.1","","100.51","","","","","","Drizzle"
"-94.97","74.72","RESOLUTE BAY A","2403498","2019-07-08 04:00","2019","07","08","04:00","1.2","","0.6","","96","","","","16","","10","","24.1","","100.52","","","","","","NA"
"-94.97","74.72","RESOLUTE BAY A","2403498","2019-07-08 05:00","2019","07","08","05:00","2.4","","1.4","","93","","","","7","","12","","16.1","","100.54","","","","","","NA"
"-94.97","74.72","RESOLUTE BAY A","2403498","2019-07-08 06:00","2019","07","08","06:00","2.4","","1.3","","93","","","","36","","1","","24.1","","100.56","","","","","","Cloudy"
"-94.97","74.72","RESOLUTE BAY A","2403498","2019-07-08 07:00","2019","07","08","07:00","2.8","","1.3","","90","","","","14","","4","","24.1","","100.57","","","","","","NA"
"-94.97","74.72","RESOLUTE BAY A","2403498","2019-07-08 08:00","2019","07","08","08:00","2.2","","1.5","","95","","","","28","","8","","24.1","","100.60","","","","","","NA"
"-94.97","74.72","RESOLUTE BAY A","2403498","2019-07-08 09:00","2019","07","08","09:00","2.5","","1.6","","94","","","","29","","5","","16.1","","100.63","","","","","","Cloudy"
"-94.97","74.72","RESOLUTE BAY A","2403498","2019-07-08 10:00","2019","07","08","10:00","2.4","","1.3","","93","","","","30","","8","","19.3","","100.66","","","","","","NA"
"-94.97","74.72","RESOLUTE BAY A","2403498","2019-07-08 11:00","2019","07","08","11:00","2.8","","1.5","","92","","","","30","","11","","19.3","","100.68","","","","","","NA"
"-94.97","74.72","RESOLUTE BAY A","2403498","2019-07-08 12:00","2019","07","08","12:00","4.2","","2.4","","88","","","","31","","14","","19.3","","100.70","","","","","","Mostly Cloudy"
"-94.97","74.72","RESOLUTE BAY A","2403498","2019-07-08 13:00","2019","07","08","13:00","4.9","","2.2","","83","","","","28","","16","","19.3","","100.74","","","","","","NA"
"-94.97","74.72","RESOLUTE BAY A","2403498","2019-07-08 14:00","2019","07","08","14:00","3.9","","1.8","","86","","","","27","","15","","16.1","","100.77","","","","","","NA"
"-94.97","74.72","RESOLUTE BAY A","2403498","2019-07-08 15:00","2019","07","08","15:00","4.4","","1.9","","84","","","","28","","15","","19.3","","100.81","","","","","","Mostly Cloudy"
"-94.97","74.72","RESOLUTE BAY A","2403498","2019-07-08 16:00","2019","07","08","16:00","4.4","","1.8","","83","","","","29","","17","","19.3","","100.86","","","","","","NA"
"-94.97","74.72","RESOLUTE BAY A","2403498","2019-07-08 17:00","2019","07","08","17:00","4.5","","1.5","","81","","","","28","","16","","19.3","","100.87","","","","","","NA"
"-94.97","74.72","RESOLUTE BAY A","2403498","2019-07-08 18:00","2019","07","08","18:00","4.0","","1.2","","82","","","","28","","14","","19.3","","100.88","","","","","","Mostly Cloudy"
"-94.97","74.72","RESOLUTE BAY A","2403498","2019-07-08 19:00","2019","07","08","19:00","3.7","","1.2","","84","","","","28","","8","","32.2","","100.90","","","","","","NA"
"-94.97","74.72","RESOLUTE BAY A","2403498","2019-07-08 20:00","2019","07","08","20:00","3.4","","1.3","","86","","","","28","","10","","32.2","","100.93","","","","","","NA"
"-94.97","74.72","RESOLUTE BAY A","2403498","2019-07-08 21:00","2019","07","08","21:00","2.8","","1.4","","90","","","","27","","8","","32.2","","100.95","","","","","","Cloudy"
"-94.97","74.72","RESOLUTE BAY A","2403498","2019-07-08 22:00","2019","07","08","22:00","2.8","","1.4","","90","","","","32","","5","","24.1","","100.93","","","","","","NA"
"-94.97","74.72","RESOLUTE BAY A","2403498","2019-07-08 23:00","2019","07","08","23:00","2.9","","1.4","","90","","","","29","","4","","16.1","","100.96","","","","","","NA"
"-94.97","74.72","RESOLUTE BAY A","2403498","2019-07-09 00:00","2019","07","09","00:00","2.8","","1.6","","91","","","","36","","1","","14.5","","100.93","","","","","","Mostly Cloudy"
"-94.97","74.72","RESOLUTE BAY A","2403498","2019-07-09 01:00","2019","07","09","01:00","3.0","","1.8","","92","","","","36","","3","","14.5","","100.93","","","","","","NA"
"-94.97","74.72","RESOLUTE BAY A","2403498","2019-07-09 02:00","2019","07","09","02:00","2.7","","1.7","","93","","","","36","","1","","16.1","","100.97","","","","","","NA"
"-94.97","74.72","RESOLUTE BAY A","2403498","2019-07-09 03:00","2019","07","09","03:00","1.8","","1.2","","96","","","","14","","10","","14.5","","101.00","","","","","","Cloudy"
"-94.97","74.72","RESOLUTE BAY A","2403498","2019-07-09 04:00","2019","07","09","04:00","1.0","","0.4","","96","","","","18","","5","","14.5","","101.01","","","","","","NA"
"-94.97","74.72","RESOLUTE BAY A","2403498","2019-07-09 05:00","2019","07","09","05:00","1.2","","0.4","","94","","","","17","","9","","14.5","","101.02","","","","","","NA"
"-94.97","74.72","RESOLUTE BAY A","2403498","2019-07-09 06:00","2019","07","09","06:00","4.0","","1.7","","85","","","","12","","11","","14.5","","101.01","","","","","","Mainly Clear"
"-94.97","74.72","RESOLUTE BAY A","2403498","2019-07-09 07:00","2019","07","09","07:00","4.7","","1.6","","81","","","","13","","14","","24.1","","101.01","","","","","","NA"
"-94.97","74.72","RESOLUTE BAY A","2403498","2019-07-09 08:00","2019","07","09","08:00","5.7","","2.0","","77","","","","15","","18","","16.1","","100.99","","","","","","NA"
"-94.97","74.72","RESOLUTE BAY A","2403498","2019-07-09 09:00","2019","07","09","09:00","6.1","","2.2","","76","","","","10","","27","","19.3","","100.98","","","","","","Mainly Clear"
"-94.97","74.72","RESOLUTE BAY A","2403498","2019-07-09 10:00","2019","07","09","10:00","7.0","","2.9","","75","","","","8","","26","","19.3","","100.95","","","","","","NA"
"-94.97","74.72","RESOLUTE BAY A","2403498","2019-07-09 11:00","2019","07","09","11:00","7.1","","2.7","","73","","","","10","","27","","19.3","","100.95","","","","","","NA"
"-94.97","74.72","RESOLUTE BAY A","2403498","2019-07-09 12:00","2019","07","09","12:00","7.0","","2.6","","73","","","","12","","26","","19.3","","100.97","","","","","","Mostly Cloudy"
"-94.97","74.72","RESOLUTE BAY A","2403498","2019-07-09 13:00","2019","07","09","13:00","6.6","","2.6","","76","","","","9","","26","","19.3","","100.97","","","","","","NA"
"-94.97","74.72","RESOLUTE BAY A","2403498","2019-07-09 14:00","2019","07","09","14:00","7.4","","3.2","","75","","","","8","","34","","19.3","","100.91","","","","","","NA"
"-94.97","74.72","RESOLUTE BAY A","2403498","2019-07-09 15:00","2019","07","09","15:00","7.9","","3.7","","75","","","","9","","35","","19.3","","100.91","","","","","","Mostly Cloudy"
"-94.97","74.72","RESOLUTE BAY A","2403498","2019-07-09 16:00","2019","07","09","16:00","6.2","","3.5","","83","","","","8","","36","","17.7","","100.91","","","","","","NA"
"-94.97","74.72","RESOLUTE BAY A","2403498","2019-07-09 17:00","2019","07","09","17:00","6.5","","4.2","","85","","","","7","","36","","19.3","","100.85","","","","","","Rain"
"-94.97","74.72","RESOLUTE BAY A","2403498","2019-07-09 18:00","2019","07","09","18:00","6.6","","5.1","","90","","","","6","","32","","19.3","","100.79","","","","","","Rain"
"-94.97","74.72","RESOLUTE BAY A","2403498","2019-07-09 19:00","2019","07","09","19:00","5.5","","4.4","","92","","","","12","","30","","19.3","","100.82","","","","","","Rain"
"-94.97","74.72","RESOLUTE BAY A","2403498","2019-07-09 20:00","2019","07","09","20:00","6.2","","4.9","","91","","","","10","","28","","32.2","","100.77","","","","","","NA"
"-94.97","74.72","RESOLUTE BAY A","2403498","2019-07-09 21:00","2019","07","09","21:00","6.6","","4.5","","87","","","","11","","24","","40.2","","100.76","","","","","","Cloudy"
"-94.97","74.72","RESOLUTE BAY A","2403498","2019-07-09 22:00","2019","07","09","22:00","5.4","","3.3","","86","","","","12","","24","","48.3","","100.75","","","","","","NA"
"-94.97","74.72","RESOLUTE BAY A","2403498","2019-07-09 23:00","2019","07","09","23:00","5.8","","3.4","","84","","","","10","","28","","48.3","","100.70","","","","","","NA"
"-94.97","74.72","RESOLUTE BAY A","2403498","2019-07-10 00:00","2019","07","10","00:00","6.7","","3.4","","79","","","","12","","22","","48.3","","100.64","","","","","","Cloudy"
"-94.97","74.72","RESOLUTE BAY A","2403498","2019-07-10 01:00","2019","07","10","01:00","7.6","","3.8","","77","","","","8","","46","","48.3","","100.52","","","","","","NA"
"-94.97","74.72","RESOLUTE BAY A","2403498","2019-07-10 02:00","2019","07","10","02:00","7.7","","4.3","","79","","","","9","","45","","32.2","","100.48","","","","","","NA"
"-94.97","74.72","RESOLUTE BAY A","2403498","2019-07-10 03:00","2019","07","10","03:00","7.2","","3.9","","79","","","","9","","46","","48.3","","100.46","","","","","","Cloudy"
"-94.97","74.72","RESOLUTE BAY A","2403498","2019-07-10 04:00","2019","07","10","04:00","7.0","","3.8","","80","","","","9","","46","","48.3","","100.45","","","","","","NA"
"-94.97","74.72","RESOLUTE BAY A","2403498","2019-07-10 05:00","2019","07","10","05:00","8.1","","4.1","","76","","","","11","","47","","48.3","","100.42","","","","","","NA"
"-94.97","74.72","RESOLUTE BAY A","2403498","2019-07-10 06:00","2019","07","10","06:00","8.2","","4.5","","78","","","","9","","35","","48.3","","100.40","","","","","","Cloudy"
"-94.97","74.72","RESOLUTE BAY A","2403498","2019-07-10 07:00","2019","07","10","07:00","8.4","","4.2","","75","","","","9","","43","","48.3","","100.32","","","","","","NA"
"-94.97","74.72","RESOLUTE BAY A","2403498","2019-07-10 08:00","2019","07","10","08:00","7.4","","3.7","","78","","","","7","","55","","24.1","","100.24","","","","","","NA"
"-94.97","74.72","RESOLUTE BAY A","2403498","2019-07-10 09:00","2019","07","10","09:00","7.8","","3.9","","77","","","","8","","56","","24.1","","100.16","","","","","","Cloudy"
"-94.97","74.72","RESOLUTE BAY A","2403498","2019-07-10 10:00","2019","07","10","10:00","7.7","","3.7","","76","","","","9","","53","","24.1","","100.15","","","","","","NA"
"-94.97","74.72","RESOLUTE BAY A","2403498","2019-07-10 11:00","2019","07","10","11:00","7.7","","3.8","","76","","","","9","","55","","24.1","","100.07","","","","","","NA"
"-94.97","74.72","RESOLUTE BAY A","2403498","2019-07-10 12:00","2019","07","10","12:00","7.5","","3.7","","76","","","","7","","48","","24.1","","100.00","","","","","","Cloudy"
"-94.97","74.72","RESOLUTE BAY A","2403498","2019-07-10 13:00","2019","07","10","13:00","7.1","","3.6","","78","","","","7","","47","","24.1","","99.98","","","","","","NA"
"-94.97","74.72","RESOLUTE BAY A","2403498","2019-07-10 14:00","2019","07","10","14:00","8.4","","4.6","","77","","","","8","","41","","24.1","","99.96","","","","","","NA"
"-94.97","74.72","RESOLUTE BAY A","2403498","2019-07-10 15:00","2019","07","10","15:00","8.2","","4.8","","79","","","","8","","42","","24.1","","99.93","","","","","","Cloudy"
"-94.97","74.72","RESOLUTE BAY A","2403498","2019-07-10 16:00","2019","07","10","16:00","8.5","","4.5","","76","","","","8","","38","","24.1","","99.89","","","","","","NA"
"-94.97","74.72","RESOLUTE BAY A","2403498","2019-07-10 17:00","2019","07","10","17:00","7.9","","4.0","","76","","","","7","","45","","24.1","","99.84","","","","","","NA"
"-94.97","74.72","RESOLUTE BAY A","2403498","2019-07-10 18:00","2019","07","10","18:00","7.6","","4.1","","79","","","","7","","42","","24.1","","99.81","","","","","","Mostly Cloudy"
"-94.97","74.72","RESOLUTE BAY A","2403498","2019-07-10 19:00","2019","07","10","19:00","6.8","","3.6","","80","","","","8","","44","","32.2","","99.74","","","","","","NA"
"-94.97","74.72","RESOLUTE BAY A","2403498","2019-07-10 20:00","2019","07","10","20:00","7.1","","3.6","","78","","","","9","","50","","32.2","","99.68","","","","","","NA"
"-94.97","74.72","RESOLUTE BAY A","2403498","2019-07-10 21:00","2019","07","10","21:00","8.0","","4.3","","77","","","","8","","48","","40.2","","99.61","","","","","","Cloudy"
"-94.97","74.72","RESOLUTE BAY A","2403498","2019-07-10 22:00","2019","07","10","22:00","8.0","","4.7","","80","","","","8","","43","","48.3","","99.57","","","","","","NA"
"-94.97","74.72","RESOLUTE BAY A","2403498","2019-07-10 23:00","2019","07","10","23:00","7.6","","5.3","","85","","","","8","","48","","24.1","","99.52","","","","","","Rain"
"-94.97","74.72","RESOLUTE BAY A","2403498","2019-07-11 00:00","2019","07","11","00:00","7.9","","5.4","","84","","","","7","","39","","32.2","","99.47","","","","","","Cloudy"
"-94.97","74.72","RESOLUTE BAY A","2403498","2019-07-11 01:00","2019","07","11","01:00","7.3","","4.7","","84","","","","9","","32","","32.2","","99.43","","","","","","NA"
"-94.97","74.72","RESOLUTE BAY A","2403498","2019-07-11 02:00","2019","07","11","02:00","6.9","","4.3","","83","","","","8","","37","","24.1","","99.40","","","","","","NA"
"-94.97","74.72","RESOLUTE BAY A","2403498","2019-07-11 03:00","2019","07","11","03:00","6.0","","3.8","","86","","","","7","","35","","32.2","","99.34","","","","","","Cloudy"
"-94.97","74.72","RESOLUTE BAY A","2403498","2019-07-11 04:00","2019","07","11","04:00","5.9","","3.4","","84","","","","6","","33","","32.2","","99.32","","","","","","NA"
"-94.97","74.72","RESOLUTE BAY A","2403498","2019-07-11 05:00","2019","07","11","05:00","6.1","","4.3","","88","","","","8","","58","","14.5","","99.26","","","","","","Rain"
"-94.97","74.72","RESOLUTE BAY A","2403498","2019-07-11 06:00","2019","07","11","06:00","6.0","","4.6","","91","","","","8","","61","","14.5","","99.23","","","","","","Rain"
"-94.97","74.72","RESOLUTE BAY A","2403498","2019-07-11 07:00","2019","07","11","07:00","5.3","","3.6","","89","","","","7","","43","","24.1","","99.24","","","","","","NA"
"-94.97","74.72","RESOLUTE BAY A","2403498","2019-07-11 08:00","2019","07","11","08:00","6.3","","4.2","","86","","","","7","","33","","24.1","","99.24","","","","","","NA"
"-94.97","74.72","RESOLUTE BAY A","2403498","2019-07-11 09:00","2019","07","11","09:00","7.0","","4.7","","85","","","","10","","41","","24.1","","99.24","","","","","","Mainly Clear"
"-94.97","74.72","RESOLUTE BAY A","2403498","2019-07-11 10:00","2019","07","11","10:00","8.4","","5.4","","81","","","","10","","30","","24.1","","99.27","","","","","","NA"
"-94.97","74.72","RESOLUTE BAY A","2403498","2019-07-11 11:00","2019","07","11","11:00","7.8","","4.7","","80","","","","11","","37","","24.1","","99.26","","","","","","NA"
"-94.97","74.72","RESOLUTE BAY A","2403498","2019-07-11 12:00","2019","07","11","12:00","7.8","","4.9","","82","","","","10","","34","","24.1","","99.29","","","","","","Cloudy"
"-94.97","74.72","RESOLUTE BAY A","2403498","2019-07-11 13:00","2019","07","11","13:00","8.4","","5.3","","81","","","","9","","32","","24.1","","99.27","","","","","","NA"
"-94.97","74.72","RESOLUTE BAY A","2403498","2019-07-11 14:00","2019","07","11","14:00","8.3","","5.0","","79","","","","8","","30","","24.1","","99.26","","","","","","NA"
"-94.97","74.72","RESOLUTE BAY A","2403498","2019-07-11 15:00","2019","07","11","15:00","8.7","","5.3","","79","","","","10","","21","","24.1","","99.26","","","","","","Mostly Cloudy"
"-94.97","74.72","RESOLUTE BAY A","2403498","2019-07-11 16:00","2019","07","11","16:00","9.2","","5.6","","78","","","","11","","30","","24.1","","99.26","","","","","","NA"
"-94.97","74.72","RESOLUTE BAY A","2403498","2019-07-11 17:00","2019","07","11","17:00","8.3","","5.4","","82","","","","10","","37","","24.1","","99.21","","","","","","NA"
"-94.97","74.72","RESOLUTE BAY A","2403498","2019-07-11 18:00","2019","07","11","18:00","7.8","","5.4","","85","","","","9","","37","","24.1","","99.19","","","","","","Cloudy"
"-94.97","74.72","RESOLUTE BAY A","2403498","2019-07-11 19:00","2019","07","11","19:00","7.2","","5.0","","85","","","","9","","32","","24.1","","99.19","","","","","","NA"
"-94.97","74.72","RESOLUTE BAY A","2403498","2019-07-11 20:00","2019","07","11","20:00","6.9","","4.8","","86","","","","11","","21","","32.2","","99.17","","","","","","NA"
"-94.97","74.72","RESOLUTE BAY A","2403498","2019-07-11 21:00","2019","07","11","21:00","6.7","","4.9","","88","","","","13","","13","","32.2","","99.16","","","","","","Cloudy"
"-94.97","74.72","RESOLUTE BAY A","2403498","2019-07-11 22:00","2019","07","11","22:00","5.9","","4.6","","91","","","","8","","16","","24.1","","99.19","","","","","","NA"
"-94.97","74.72","RESOLUTE BAY A","2403498","2019-07-11 23:00","2019","07","11","23:00","5.4","","4.3","","93","","","","13","","21","","14.5","","99.14","","","","","","NA"
"-94.97","74.72","RESOLUTE BAY A","2403498","2019-07-12 00:00","2019","07","12","00:00","4.7","","3.8","","94","","","","9","","45","","14.5","","99.06","","","","","","Mostly Cloudy"
"-94.97","74.72","RESOLUTE BAY A","2403498","2019-07-12 01:00","2019","07","12","01:00","4.7","","3.9","","95","","","","8","","51","","14.5","","99.01","","","","","","NA"
"-94.97","74.72","RESOLUTE BAY A","2403498","2019-07-12 02:00","2019","07","12","02:00","5.2","","4.6","","96","","","","9","","53","","14.5","","99.00","","","","","","NA"
"-94.97","74.72","RESOLUTE BAY A","2403498","2019-07-12 03:00","2019","07","12","03:00","5.3","","4.3","","93","","","","8","","53","","14.5","","98.99","","","","","","Cloudy"
"-94.97","74.72","RESOLUTE BAY A","2403498","2019-07-12 04:00","2019","07","12","04:00","5.2","","4.0","","92","","","","10","","32","","14.5","","99.05","","","","","","NA"
"-94.97","74.72","RESOLUTE BAY A","2403498","2019-07-12 05:00","2019","07","12","05:00","5.2","","4.2","","93","","","","7","","48","","14.5","","99.03","","","","","","NA"
"-94.97","74.72","RESOLUTE BAY A","2403498","2019-07-12 06:00","2019","07","12","06:00","5.1","","4.0","","93","","","","7","","43","","14.5","","99.03","","","","","","Cloudy"
"-94.97","74.72","RESOLUTE BAY A","2403498","2019-07-12 07:00","2019","07","12","07:00","5.9","","4.3","","90","","","","7","","51","","14.5","","99.02","","","","","","NA"
"-94.97","74.72","RESOLUTE BAY A","2403498","2019-07-12 08:00","2019","07","12","08:00","4.8","","3.6","","92","","","","8","","54","","24.1","","99.02","","","","","","NA"
"-94.97","74.72","RESOLUTE BAY A","2403498","2019-07-12 09:00","2019","07","12","09:00","5.5","","3.9","","90","","","","7","","50","","12.9","","99.07","","","","","","Cloudy"
"-94.97","74.72","RESOLUTE BAY A","2403498","2019-07-12 10:00","2019","07","12","10:00","6.4","","4.2","","86","","","","8","","41","","24.1","","99.11","","","","","","NA"
"-94.97","74.72","RESOLUTE BAY A","2403498","2019-07-12 11:00","2019","07","12","11:00","7.7","","5.3","","85","","","","8","","38","","16.1","","99.13","","","","","","NA"
"-94.97","74.72","RESOLUTE BAY A","2403498","2019-07-12 12:00","2019","07","12","12:00","7.7","","4.7","","81","","","","8","","35","","19.3","","99.18","","","","","","Mostly Cloudy"
"-94.97","74.72","RESOLUTE BAY A","2403498","2019-07-12 13:00","2019","07","12","13:00","7.9","","4.9","","81","","","","9","","35","","19.3","","99.20","","","","","","NA"
"-94.97","74.72","RESOLUTE BAY A","2403498","2019-07-12 14:00","2019","07","12","14:00","7.5","","4.2","","79","","","","9","","47","","22.5","","99.22","","","","","","NA"
"-94.97","74.72","RESOLUTE BAY A","2403498","2019-07-12 15:00","2019","07","12","15:00","8.3","","4.7","","78","","","","9","","36","","24.1","","99.24","","","","","","Mostly Cloudy"
"-94.97","74.72","RESOLUTE BAY A","2403498","2019-07-12 16:00","2019","07","12","16:00","7.3","","4.0","","80","","","","10","","41","","24.1","","99.26","","","","","","NA"
"-94.97","74.72","RESOLUTE BAY A","2403498","2019-07-12 17:00","2019","07","12","17:00","6.5","","3.2","","79","","","","9","","32","","24.1","","99.30","","","","","","NA"
"-94.97","74.72","RESOLUTE BAY A","2403498","2019-07-12 18:00","2019","07","12","18:00","6.1","","3.9","","86","","","","9","","38","","11.3","","99.26","","","","","","Cloudy"
"-94.97","74.72","RESOLUTE BAY A","2403498","2019-07-12 19:00","2019","07","12","19:00","5.7","","3.6","","86","","","","10","","30","","11.3","","99.27","","","","","","NA"
"-94.97","74.72","RESOLUTE BAY A","2403498","2019-07-12 20:00","2019","07","12","20:00","4.7","","2.8","","88","","","","13","","22","","24.1","","99.28","","","","","","NA"
"-94.97","74.72","RESOLUTE BAY A","2403498","2019-07-12 21:00","2019","07","12","21:00","3.9","","2.8","","93","","","","11","","24","","16.1","","99.28","","","","","","Rain"
"-94.97","74.72","RESOLUTE BAY A","2403498","2019-07-12 22:00","2019","07","12","22:00","3.8","","2.9","","93","","","","10","","31","","14.5","","99.26","","","","","","Rain"
"-94.97","74.72","RESOLUTE BAY A","2403498","2019-07-12 23:00","2019","07","12","23:00","4.2","","2.8","","91","","","","10","","42","","16.1","","99.23","","","","","","Rain"
"-94.97","74.72","RESOLUTE BAY A","2403498","2019-07-13 00:00","2019","07","13","00:00","3.1","","1.9","","92","","","","10","","45","","14.5","","99.21","","","","","","Rain"
"-94.97","74.72","RESOLUTE BAY A","2403498","2019-07-13 01:00","2019","07","13","01:00","2.7","","1.7","","93","","","","10","","46","","16.1","","99.19","","","","","","Rain"
"-94.97","74.72","RESOLUTE BAY A","2403498","2019-07-13 02:00","2019","07","13","02:00","2.8","","1.6","","92","","","","9","","42","","16.1","","99.22","","","","","","Rain"
"-94.97","74.72","RESOLUTE BAY A","2403498","2019-07-13 03:00","2019","07","13","03:00","2.6","","1.4","","92","","","","9","","59","","16.1","","99.16","","","","","","Rain"
"-94.97","74.72","RESOLUTE BAY A","2403498","2019-07-13 04:00","2019","07","13","04:00","2.2","","1.1","","93","","","","10","","48","","16.1","","99.23","","","","","","NA"
"-94.97","74.72","RESOLUTE BAY A","2403498","2019-07-13 05:00","2019","07","13","05:00","2.0","","1.2","","94","","","","9","","60","","12.9","","99.18","","","","","","NA"
"-94.97","74.72","RESOLUTE BAY A","2403498","2019-07-13 06:00","2019","07","13","06:00","2.2","","1.5","","95","","","","9","","50","","14.5","","99.17","","","","","","Cloudy"
"-94.97","74.72","RESOLUTE BAY A","2403498","2019-07-13 07:00","2019","07","13","07:00","2.4","","1.7","","95","","","","8","","53","","12.9","","99.18","","","","","","NA"
"-94.97","74.72","RESOLUTE BAY A","2403498","2019-07-13 08:00","2019","07","13","08:00","2.4","","1.8","","96","","","","10","","43","","11.3","","99.27","","","","","","NA"
"-94.97","74.72","RESOLUTE BAY A","2403498","2019-07-13 09:00","2019","07","13","09:00","2.9","","2.2","","95","","","","12","","36","","11.3","","99.28","","","","","","Cloudy"
"-94.97","74.72","RESOLUTE BAY A","2403498","2019-07-13 10:00","2019","07","13","10:00","4.2","","3.3","","94","","","","8","","42","","11.3","","99.29","","","","","","NA"
"-94.97","74.72","RESOLUTE BAY A","2403498","2019-07-13 11:00","2019","07","13","11:00","4.2","","2.9","","91","","","","12","","36","","12.9","","99.33","","","","","","NA"
"-94.97","74.72","RESOLUTE BAY A","2403498","2019-07-13 12:00","2019","07","13","12:00","4.1","","3.2","","94","","","","9","","44","","8.1","","99.33","","","","","","Rain"
"-94.97","74.72","RESOLUTE BAY A","2403498","2019-07-13 13:00","2019","07","13","13:00","4.5","","3.0","","90","","","","9","","43","","14.5","","99.33","","","","","","NA"
"-94.97","74.72","RESOLUTE BAY A","2403498","2019-07-13 14:00","2019","07","13","14:00","4.6","","2.7","","87","","","","10","","40","","14.5","","99.37","","","","","","NA"
"-94.97","74.72","RESOLUTE BAY A","2403498","2019-07-13 15:00","2019","07","13","15:00","3.8","","2.5","","91","","","","9","","49","","12.9","","99.37","","","","","","Cloudy"
"-94.97","74.72","RESOLUTE BAY A","2403498","2019-07-13 16:00","2019","07","13","16:00","3.7","","2.0","","89","","","","9","","46","","11.3","","99.39","","","","","","NA"
"-94.97","74.72","RESOLUTE BAY A","2403498","2019-07-13 17:00","2019","07","13","17:00","4.1","","1.9","","85","","","","10","","48","","14.5","","99.41","","","","","","NA"
"-94.97","74.72","RESOLUTE BAY A","2403498","2019-07-13 18:00","2019","07","13","18:00","4.2","","2.0","","86","","","","10","","42","","16.1","","99.40","","","","","","Mostly Cloudy"
"-94.97","74.72","RESOLUTE BAY A","2403498","2019-07-13 19:00","2019","07","13","19:00","4.1","","2.0","","86","","","","9","","46","","16.1","","99.41","","","","","","NA"
"-94.97","74.72","RESOLUTE BAY A","2403498","2019-07-13 20:00","2019","07","13","20:00","3.4","","1.5","","87","","","","10","","35","","24.1","","99.49","","","","","","NA"
"-94.97","74.72","RESOLUTE BAY A","2403498","2019-07-13 21:00","2019","07","13","21:00","2.9","","1.4","","90","","","","10","","46","","14.5","","99.46","","","","","","Mainly Clear"
"-94.97","74.72","RESOLUTE BAY A","2403498","2019-07-13 22:00","2019","07","13","22:00","2.0","","1.0","","93","","","","11","","43","","14.5","","99.46","","","","","","NA"
"-94.97","74.72","RESOLUTE BAY A","2403498","2019-07-13 23:00","2019","07","13","23:00","1.8","","1.2","","96","","","","12","","37","","14.5","","99.43","","","","","","NA"
"-94.97","74.72","RESOLUTE BAY A","2403498","2019-07-14 00:00","2019","07","14","00:00","1.7","","1.1","","95","","","","10","","22","","14.5","","99.47","","","","","","Mostly Cloudy"
"-94.97","74.72","RESOLUTE BAY A","2403498","2019-07-14 01:00","2019","07","14","01:00","2.1","","1.5","","95","","","","13","","11","","14.5","","99.45","","","","","","NA"
"-94.97","74.72","RESOLUTE BAY A","2403498","2019-07-14 02:00","2019","07","14","02:00","2.0","","1.5","","96","","","","21","","7","","14.5","","99.43","","","","","","NA"
"-94.97","74.72","RESOLUTE BAY A","2403498","2019-07-14 03:00","2019","07","14","03:00","1.4","","0.9","","97","","","","15","","7","","12.9","","99.41","","","","","","Cloudy"
"-94.97","74.72","RESOLUTE BAY A","2403498","2019-07-14 04:00","2019","07","14","04:00","2.5","","2.3","","98","","","","36","","4","","4.0","","99.36","","","","","","Fog"
"-94.97","74.72","RESOLUTE BAY A","2403498","2019-07-14 05:00","2019","07","14","05:00","2.1","","1.8","","98","","","","29","","7","","12.9","","99.33","","","","","","Rain"
"-94.97","74.72","RESOLUTE BAY A","2403498","2019-07-14 06:00","2019","07","14","06:00","3.2","","2.5","","95","","","","12","","7","","14.5","","99.28","","","","","","Cloudy"
"-94.97","74.72","RESOLUTE BAY A","2403498","2019-07-14 07:00","2019","07","14","07:00","2.3","","1.8","","96","","","","12","","11","","24.1","","99.24","","","","","","Rain"
"-94.97","74.72","RESOLUTE BAY A","2403498","2019-07-14 08:00","2019","07","14","08:00","1.8","","1.4","","97","","","","13","","12","","16.1","","99.24","","","","","","Rain"
"-94.97","74.72","RESOLUTE BAY A","2403498","2019-07-14 09:00","2019","07","14","09:00","1.7","","1.2","","97","","","","12","","13","","0.6","","99.26","","","","","","Fog"
"-94.97","74.72","RESOLUTE BAY A","2403498","2019-07-14 10:00","2019","07","14","10:00","3.5","","3.1","","97","","","","15","","8","","16.1","","99.22","","","","","","NA"
"-94.97","74.72","RESOLUTE BAY A","2403498","2019-07-14 11:00","2019","07","14","11:00","5.1","","3.4","","89","","","","10","","20","","16.1","","99.20","","","","","","Rain"
"-94.97","74.72","RESOLUTE BAY A","2403498","2019-07-14 12:00","2019","07","14","12:00","4.3","","3.1","","91","","","","11","","18","","11.3","","99.20","","","","","","Rain"
"-94.97","74.72","RESOLUTE BAY A","2403498","2019-07-14 13:00","2019","07","14","13:00","4.2","","3.0","","92","","","","10","","34","","12.9","","99.19","","","","","","Rain"
"-94.97","74.72","RESOLUTE BAY A","2403498","2019-07-14 14:00","2019","07","14","14:00","5.1","","3.9","","92","","","","11","","23","","12.9","","99.21","","","","","","Rain"
"-94.97","74.72","RESOLUTE BAY A","2403498","2019-07-14 15:00","2019","07","14","15:00","5.3","","4.1","","92","","","","8","","36","","16.1","","99.19","","","","","","Rain"
"-94.97","74.72","RESOLUTE BAY A","2403498","2019-07-14 16:00","2019","07","14","16:00","5.5","","4.6","","94","","","","10","","35","","19.3","","99.23","","","","","","Rain"
"-94.97","74.72","RESOLUTE BAY A","2403498","2019-07-14 17:00","2019","07","14","17:00","5.3","","4.0","","92","","","","11","","37","","16.1","","99.19","","","","","","Rain"
"-94.97","74.72","RESOLUTE BAY A","2403498","2019-07-14 18:00","2019","07","14","18:00","5.4","","4.2","","92","","","","9","","38","","11.3","","99.22","","","","","","Rain"
"-94.97","74.72","RESOLUTE BAY A","2403498","2019-07-14 19:00","2019","07","14","19:00","5.4","","4.5","","94","","","","10","","31","","12.9","","99.23","","","","","","Rain"
"-94.97","74.72","RESOLUTE BAY A","2403498","2019-07-14 20:00","2019","07","14","20:00","5.0","","4.3","","96","","","","9","","26","","12.9","","99.23","","","","","","Rain"
"-94.97","74.72","RESOLUTE BAY A","2403498","2019-07-14 21:00","2019","07","14","21:00","4.8","","4.1","","96","","","","9","","31","","14.5","","99.23","","","","","","Rain"
"-94.97","74.72","RESOLUTE BAY A","2403498","2019-07-14 22:00","2019","07","14","22:00","4.2","","3.6","","96","","","","8","","28","","14.5","","99.24","","","","","","Rain"
"-94.97","74.72","RESOLUTE BAY A","2403498","2019-07-14 23:00","2019","07","14","23:00","3.9","","3.2","","95","","","","8","","33","","14.5","","99.22","","","","","","Rain"
"-94.97","74.72","RESOLUTE BAY A","2403498","2019-07-15 00:00","2019","07","15","00:00","3.1","","2.6","","97","","","","8","","32","","11.3","","99.23","","","","","","Rain"
"-94.97","74.72","RESOLUTE BAY A","2403498","2019-07-15 01:00","2019","07","15","01:00","3.7","","3.3","","97","","","","10","","32","","14.5","","99.25","","","","","","NA"
"-94.97","74.72","RESOLUTE BAY A","2403498","2019-07-15 02:00","2019","07","15","02:00","3.8","","3.3","","96","","","","10","","35","","14.5","","99.27","","","","","","NA"
"-94.97","74.72","RESOLUTE BAY A","2403498","2019-07-15 03:00","2019","07","15","03:00","3.6","","3.1","","96","","","","10","","32","","14.5","","99.29","","","","","","Cloudy"
"-94.97","74.72","RESOLUTE BAY A","2403498","2019-07-15 04:00","2019","07","15","04:00","3.5","","3.0","","96","","","","10","","22","","14.5","","99.35","","","","","","NA"
"-94.97","74.72","RESOLUTE BAY A","2403498","2019-07-15 05:00","2019","07","15","05:00","3.1","","2.6","","96","","","","10","","26","","14.5","","99.34","","","","","","NA"
"-94.97","74.72","RESOLUTE BAY A","2403498","2019-07-15 06:00","2019","07","15","06:00","2.8","","2.3","","96","","","","12","","18","","12.9","","99.38","","","","","","Cloudy"
"-94.97","74.72","RESOLUTE BAY A","2403498","2019-07-15 07:00","2019","07","15","07:00","3.0","","2.5","","96","","","","13","","19","","14.5","","99.39","","","","","","NA"
"-94.97","74.72","RESOLUTE BAY A","2403498","2019-07-15 08:00","2019","07","15","08:00","3.1","","2.6","","97","","","","15","","21","","1.2","","99.43","","","","","","Drizzle,Fog"
"-94.97","74.72","RESOLUTE BAY A","2403498","2019-07-15 09:00","2019","07","15","09:00","3.0","","2.6","","97","","","","14","","18","","16.1","","99.46","","","","","","Drizzle"
"-94.97","74.72","RESOLUTE BAY A","2403498","2019-07-15 10:00","2019","07","15","10:00","3.9","","3.5","","97","","","","14","","21","","0.6","","99.47","","","","","","Fog"
"-94.97","74.72","RESOLUTE BAY A","2403498","2019-07-15 11:00","2019","07","15","11:00","5.2","","4.9","","98","","","","13","","22","","12.9","","99.49","","","","","","NA"
"-94.97","74.72","RESOLUTE BAY A","2403498","2019-07-15 12:00","2019","07","15","12:00","6.8","","6.0","","94","","","","13","","24","","12.9","","99.53","","","","","","Cloudy"
"-94.97","74.72","RESOLUTE BAY A","2403498","2019-07-15 13:00","2019","07","15","13:00","7.2","","5.7","","90","","","","11","","25","","16.1","","99.55","","","","","","NA"
"-94.97","74.72","RESOLUTE BAY A","2403498","2019-07-15 14:00","2019","07","15","14:00","7.6","","5.9","","89","","","","12","","25","","19.3","","99.56","","","","","","NA"
"-94.97","74.72","RESOLUTE BAY A","2403498","2019-07-15 15:00","2019","07","15","15:00","6.9","","4.8","","86","","","","11","","30","","11.3","","99.57","","","","","","Mostly Cloudy"
"-94.97","74.72","RESOLUTE BAY A","2403498","2019-07-15 16:00","2019","07","15","16:00","6.1","","4.5","","89","","","","13","","25","","11.3","","99.62","","","","","","Drizzle"
"-94.97","74.72","RESOLUTE BAY A","2403498","2019-07-15 17:00","2019","07","15","17:00","5.8","","4.2","","90","","","","11","","30","","11.3","","99.62","","","","","","NA"
"-94.97","74.72","RESOLUTE BAY A","2403498","2019-07-15 18:00","2019","07","15","18:00","5.2","","3.8","","91","","","","12","","30","","11.3","","99.64","","","","","","Drizzle"
"-94.97","74.72","RESOLUTE BAY A","2403498","2019-07-15 19:00","2019","07","15","19:00","5.8","","4.6","","92","","","","12","","25","","12.9","","99.62","","","","","","NA"
"-94.97","74.72","RESOLUTE BAY A","2403498","2019-07-15 20:00","2019","07","15","20:00","5.2","","3.9","","91","","","","8","","30","","14.5","","99.62","","","","","","NA"
"-94.97","74.72","RESOLUTE BAY A","2403498","2019-07-15 21:00","2019","07","15","21:00","5.0","","4.1","","94","","","","11","","33","","14.5","","99.62","","","","","","Cloudy"
"-94.97","74.72","RESOLUTE BAY A","2403498","2019-07-15 22:00","2019","07","15","22:00","5.3","","4.3","","93","","","","11","","28","","14.5","","99.61","","","","","","NA"
"-94.97","74.72","RESOLUTE BAY A","2403498","2019-07-15 23:00","2019","07","15","23:00","4.4","","3.6","","94","","","","12","","27","","14.5","","99.62","","","","","","NA"
"-94.97","74.72","RESOLUTE BAY A","2403498","2019-07-16 00:00","2019","07","16","00:00","3.5","","2.4","","92","","","","8","","29","","14.5","","99.61","","","","","","Cloudy"
"-94.97","74.72","RESOLUTE BAY A","2403498","2019-07-16 01:00","2019","07","16","01:00","3.9","","2.5","","91","","","","7","","25","","14.5","","99.62","","","","","","NA"
"-94.97","74.72","RESOLUTE BAY A","2403498","2019-07-16 02:00","2019","07","16","02:00","5.3","","3.7","","89","","","","13","","26","","14.5","","99.62","","","","","","NA"
"-94.97","74.72","RESOLUTE BAY A","2403498","2019-07-16 03:00","2019","07","16","03:00","5.0","","3.4","","89","","","","10","","23","","14.5","","99.60","","","","","","Cloudy"
"-94.97","74.72","RESOLUTE BAY A","2403498","2019-07-16 04:00","2019","07","16","04:00","4.2","","2.6","","89","","","","10","","27","","14.5","","99.59","","","","","","NA"
"-94.97","74.72","RESOLUTE BAY A","2403498","2019-07-16 05:00","2019","07","16","05:00","4.5","","2.6","","87","","","","6","","32","","14.5","","99.57","","","","","","NA"
"-94.97","74.72","RESOLUTE BAY A","2403498","2019-07-16 06:00","2019","07","16","06:00","5.1","","3.4","","89","","","","8","","33","","14.5","","99.58","","","","","","Cloudy"
"-94.97","74.72","RESOLUTE BAY A","2403498","2019-07-16 07:00","2019","07","16","07:00","4.2","","2.8","","91","","","","7","","32","","14.5","","99.59","","","","","","NA"
"-94.97","74.72","RESOLUTE BAY A","2403498","2019-07-16 08:00","2019","07","16","08:00","4.8","","3.4","","90","","","","8","","31","","14.5","","99.54","","","","","","NA"
"-94.97","74.72","RESOLUTE BAY A","2403498","2019-07-16 09:00","2019","07","16","09:00","5.4","","3.6","","88","","","","8","","35","","12.9","","99.54","","","","","","Mostly Cloudy"
"-94.97","74.72","RESOLUTE BAY A","2403498","2019-07-16 10:00","2019","07","16","10:00","5.2","","3.5","","89","","","","7","","41","","19.3","","99.52","","","","","","NA"
"-94.97","74.72","RESOLUTE BAY A","2403498","2019-07-16 11:00","2019","07","16","11:00","7.2","","4.6","","84","","","","8","","36","","19.3","","99.49","","","","","","NA"
"-94.97","74.72","RESOLUTE BAY A","2403498","2019-07-16 12:00","2019","07","16","12:00","7.2","","4.6","","84","","","","8","","40","","11.3","","99.47","","","","","","Mainly Clear"
"-94.97","74.72","RESOLUTE BAY A","2403498","2019-07-16 13:00","2019","07","16","13:00","7.8","","4.5","","80","","","","9","","39","","11.3","","99.47","","","","","","NA"
"-94.97","74.72","RESOLUTE BAY A","2403498","2019-07-16 14:00","2019","07","16","14:00","7.8","","4.7","","81","","","","8","","36","","12.9","","99.47","","","","","","NA"
"-94.97","74.72","RESOLUTE BAY A","2403498","2019-07-16 15:00","2019","07","16","15:00","8.0","","5.1","","82","","","","8","","40","","12.9","","99.46","","","","","","Mostly Cloudy"
"-94.97","74.72","RESOLUTE BAY A","2403498","2019-07-16 16:00","2019","07","16","16:00","7.8","","5.5","","86","","","","9","","39","","12.9","","99.47","","","","","","NA"
"-94.97","74.72","RESOLUTE BAY A","2403498","2019-07-16 17:00","2019","07","16","17:00","8.2","","5.5","","83","","","","9","","40","","12.9","","99.44","","","","","","NA"
"-94.97","74.72","RESOLUTE BAY A","2403498","2019-07-16 18:00","2019","07","16","18:00","7.9","","5.4","","84","","","","8","","39","","12.9","","99.43","","","","","","Mostly Cloudy"
"-94.97","74.72","RESOLUTE BAY A","2403498","2019-07-16 19:00","2019","07","16","19:00","6.8","","4.2","","83","","","","9","","43","","24.1","","99.42","","","","","","NA"
"-94.97","74.72","RESOLUTE BAY A","2403498","2019-07-16 20:00","2019","07","16","20:00","6.6","","3.9","","83","","","","8","","42","","24.1","","99.43","","","","","","NA"
"-94.97","74.72","RESOLUTE BAY A","2403498","2019-07-16 21:00","2019","07","16","21:00","6.0","","3.6","","84","","","","8","","48","","24.1","","99.43","","","","","","Mostly Cloudy"
"-94.97","74.72","RESOLUTE BAY A","2403498","2019-07-16 22:00","2019","07","16","22:00","5.2","","3.0","","86","","","","8","","48","","24.1","","99.41","","","","","","NA"
"-94.97","74.72","RESOLUTE BAY A","2403498","2019-07-16 23:00","2019","07","16","23:00","5.1","","3.0","","86","","","","8","","45","","24.1","","99.42","","","","","","NA"
"-94.97","74.72","RESOLUTE BAY A","2403498","2019-07-17 00:00","2019","07","17","00:00","4.3","","2.4","","88","","","","9","","48","","24.1","","99.40","","","","","","Mostly Cloudy"
"-94.97","74.72","RESOLUTE BAY A","2403498","2019-07-17 01:00","2019","07","17","01:00","3.7","","2.3","","90","","","","7","","49","","24.1","","99.40","","","","","","NA"
"-94.97","74.72","RESOLUTE BAY A","2403498","2019-07-17 02:00","2019","07","17","02:00","4.1","","2.9","","92","","","","8","","46","","24.1","","99.42","","","","","","NA"
"-94.97","74.72","RESOLUTE BAY A","2403498","2019-07-17 03:00","2019","07","17","03:00","4.0","","3.0","","93","","","","8","","43","","12.9","","99.43","","","","","","Cloudy"
"-94.97","74.72","RESOLUTE BAY A","2403498","2019-07-17 04:00","2019","07","17","04:00","4.3","","3.3","","93","","","","8","","38","","12.9","","99.44","","","","","","NA"
"-94.97","74.72","RESOLUTE BAY A","2403498","2019-07-17 05:00","2019","07","17","05:00","4.3","","3.1","","92","","","","9","","36","","14.5","","99.46","","","","","","NA"
"-94.97","74.72","RESOLUTE BAY A","2403498","2019-07-17 06:00","2019","07","17","06:00","5.2","","3.4","","88","","","","8","","39","","24.1","","99.45","","","","","","Cloudy"
"-94.97","74.72","RESOLUTE BAY A","2403498","2019-07-17 07:00","2019","07","17","07:00","5.9","","4.0","","87","","","","10","","27","","17.7","","99.48","","","","","","NA"
"-94.97","74.72","RESOLUTE BAY A","2403498","2019-07-17 08:00","2019","07","17","08:00","5.7","","3.7","","87","","","","12","","27","","24.1","","99.47","","","","","","NA"
"-94.97","74.72","RESOLUTE BAY A","2403498","2019-07-17 09:00","2019","07","17","09:00","5.8","","3.9","","88","","","","13","","24","","19.3","","99.46","","","","","","Mostly Cloudy"
"-94.97","74.72","RESOLUTE BAY A","2403498","2019-07-17 10:00","2019","07","17","10:00","6.4","","3.9","","84","","","","12","","17","","16.1","","99.47","","","","","","NA"
"-94.97","74.72","RESOLUTE BAY A","2403498","2019-07-17 11:00","2019","07","17","11:00","6.3","","4.0","","85","","","","14","","16","","16.1","","99.47","","","","","","NA"
"-94.97","74.72","RESOLUTE BAY A","2403498","2019-07-17 12:00","2019","07","17","12:00","5.5","","3.9","","89","","","","16","","7","","16.1","","99.47","","","","","","Drizzle"
"-94.97","74.72","RESOLUTE BAY A","2403498","2019-07-17 13:00","2019","07","17","13:00","5.7","","4.4","","91","","","","26","","3","","8.1","","99.47","","","","","","Fog"
"-94.97","74.72","RESOLUTE BAY A","2403498","2019-07-17 14:00","2019","07","17","14:00","5.7","","5.0","","95","","","","32","","14","","11.3","","99.46","","","","","","Drizzle"
"-94.97","74.72","RESOLUTE BAY A","2403498","2019-07-17 15:00","2019","07","17","15:00","5.8","","4.9","","94","","","","32","","16","","16.1","","99.47","","","","","","Cloudy"
"-94.97","74.72","RESOLUTE BAY A","2403498","2019-07-17 16:00","2019","07","17","16:00","6.1","","4.8","","91","","","","33","","9","","16.1","","99.48","","","","","","NA"
"-94.97","74.72","RESOLUTE BAY A","2403498","2019-07-17 17:00","2019","07","17","17:00","6.2","","4.7","","90","","","","33","","6","","16.1","","99.48","","","","","","NA"
"-94.97","74.72","RESOLUTE BAY A","2403498","2019-07-17 18:00","2019","07","17","18:00","5.9","","4.0","","87","","","","24","","3","","24.1","","99.51","","","","","","Cloudy"
"-94.97","74.72","RESOLUTE BAY A","2403498","2019-07-17 19:00","2019","07","17","19:00","6.3","","5.1","","92","","","","16","","5","","16.1","","99.52","","","","","","NA"
"-94.97","74.72","RESOLUTE BAY A","2403498","2019-07-17 20:00","2019","07","17","20:00","6.1","","5.1","","94","","","","16","","5","","16.1","","99.53","","","","","","NA"
"-94.97","74.72","RESOLUTE BAY A","2403498","2019-07-17 21:00","2019","07","17","21:00","6.0","","5.3","","96","","","","36","","2","","12.9","","99.52","","","","","","Cloudy"
"-94.97","74.72","RESOLUTE BAY A","2403498","2019-07-17 22:00","2019","07","17","22:00","6.2","","5.5","","96","","","","33","","7","","9.7","","99.52","","","","","","Drizzle"
"-94.97","74.72","RESOLUTE BAY A","2403498","2019-07-17 23:00","2019","07","17","23:00","6.4","","5.9","","97","","","","36","","13","","6.4","","99.52","","","","","","Rain,Fog"
"-94.97","74.72","RESOLUTE BAY A","2403498","2019-07-18 00:00","2019","07","18","00:00","6.6","","5.2","","91","","","","2","","19","","11.3","","99.52","","","","","","Rain"
"-94.97","74.72","RESOLUTE BAY A","2403498","2019-07-18 01:00","2019","07","18","01:00","6.5","","4.7","","88","","","","3","","32","","16.1","","99.47","","","","","","NA"
"-94.97","74.72","RESOLUTE BAY A","2403498","2019-07-18 02:00","2019","07","18","02:00","6.3","","4.2","","87","","","","4","","33","","19.3","","99.48","","","","","","NA"
"-94.97","74.72","RESOLUTE BAY A","2403498","2019-07-18 03:00","2019","07","18","03:00","6.2","","3.8","","84","","","","4","","33","","16.1","","99.50","","","","","","Cloudy"
"-94.97","74.72","RESOLUTE BAY A","2403498","2019-07-18 04:00","2019","07","18","04:00","6.1","","3.7","","85","","","","4","","35","","24.1","","99.52","","","","","","NA"
"-94.97","74.72","RESOLUTE BAY A","2403498","2019-07-18 05:00","2019","07","18","05:00","6.2","","3.6","","84","","","","3","","36","","24.1","","99.50","","","","","","NA"
"-94.97","74.72","RESOLUTE BAY A","2403498","2019-07-18 06:00","2019","07","18","06:00","6.1","","3.6","","84","","","","4","","33","","24.1","","99.56","","","","","","Cloudy"
"-94.97","74.72","RESOLUTE BAY A","2403498","2019-07-18 07:00","2019","07","18","07:00","6.6","","3.7","","81","","","","3","","32","","24.1","","99.56","","","","","","NA"
"-94.97","74.72","RESOLUTE BAY A","2403498","2019-07-18 08:00","2019","07","18","08:00","7.2","","3.5","","77","","","","3","","39","","19.3","","99.53","","","","","","NA"
"-94.97","74.72","RESOLUTE BAY A","2403498","2019-07-18 09:00","2019","07","18","09:00","7.6","","3.5","","75","","","","4","","39","","19.3","","99.56","","","","","","Mostly Cloudy"
"-94.97","74.72","RESOLUTE BAY A","2403498","2019-07-18 10:00","2019","07","18","10:00","8.2","","4.1","","75","","","","3","","40","","19.3","","99.55","","","","","","NA"
"-94.97","74.72","RESOLUTE BAY A","2403498","2019-07-18 11:00","2019","07","18","11:00","9.2","","4.5","","73","","","","4","","31","","19.3","","99.59","","","","","","NA"
"-94.97","74.72","RESOLUTE BAY A","2403498","2019-07-18 12:00","2019","07","18","12:00","10.5","","4.9","","68","","","","2","","21","","19.3","","99.63","","","","","","Mainly Clear"
"-94.97","74.72","RESOLUTE BAY A","2403498","2019-07-18 13:00","2019","07","18","13:00","11.0","","4.8","","65","","","","2","","25","","19.3","","99.61","","","","","","NA"
"-94.97","74.72","RESOLUTE BAY A","2403498","2019-07-18 14:00","2019","07","18","14:00","11.8","","4.9","","63","","","","2","","27","","19.3","","99.63","","","","","","NA"
"-94.97","74.72","RESOLUTE BAY A","2403498","2019-07-18 15:00","2019","07","18","15:00","12.0","","5.1","","63","","","","1","","25","","19.3","","99.64","","","","","","Mostly Cloudy"
"-94.97","74.72","RESOLUTE BAY A","2403498","2019-07-18 16:00","2019","07","18","16:00","11.8","","4.6","","61","","","","1","","23","","19.3","","99.64","","","","","","NA"
"-94.97","74.72","RESOLUTE BAY A","2403498","2019-07-18 17:00","2019","07","18","17:00","11.5","","5.4","","66","","","","3","","17","","19.3","","99.64","","","","","","NA"
"-94.97","74.72","RESOLUTE BAY A","2403498","2019-07-18 18:00","2019","07","18","18:00","10.9","","7.0","","77","","","","34","","18","","16.1","","99.63","","","","","","Rain"
"-94.97","74.72","RESOLUTE BAY A","2403498","2019-07-18 19:00","2019","07","18","19:00","10.5","","6.9","","78","","","","34","","22","","32.2","","99.60","","","","","","Rain"
"-94.97","74.72","RESOLUTE BAY A","2403498","2019-07-18 20:00","2019","07","18","20:00","10.3","","6.8","","79","","","","34","","18","","48.3","","99.58","","","","","","Rain"
"-94.97","74.72","RESOLUTE BAY A","2403498","2019-07-18 21:00","2019","07","18","21:00","9.6","","7.1","","85","","","","34","","18","","48.3","","99.54","","","","","","Rain"
"-94.97","74.72","RESOLUTE BAY A","2403498","2019-07-18 22:00","2019","07","18","22:00","8.9","","6.8","","87","","","","34","","14","","48.3","","99.52","","","","","","NA"
"-94.97","74.72","RESOLUTE BAY A","2403498","2019-07-18 23:00","2019","07","18","23:00","8.0","","6.2","","88","","","","1","","17","","48.3","","99.50","","","","","","NA"
"-94.97","74.72","RESOLUTE BAY A","2403498","2019-07-19 00:00","2019","07","19","00:00","7.6","","5.8","","89","","","","34","","18","","48.3","","99.49","","","","","","Cloudy"
"-94.97","74.72","RESOLUTE BAY A","2403498","2019-07-19 01:00","2019","07","19","01:00","6.7","","4.7","","87","","","","36","","30","","48.3","","99.48","","","","","","NA"
"-94.97","74.72","RESOLUTE BAY A","2403498","2019-07-19 02:00","2019","07","19","02:00","6.5","","4.7","","88","","","","35","","28","","48.3","","99.47","","","","","","NA"
"-94.97","74.72","RESOLUTE BAY A","2403498","2019-07-19 03:00","2019","07","19","03:00","6.5","","4.5","","87","","","","36","","32","","48.3","","99.46","","","","","","Cloudy"
"-94.97","74.72","RESOLUTE BAY A","2403498","2019-07-19 04:00","2019","07","19","04:00","6.3","","4.4","","87","","","","34","","25","","48.3","","99.52","","","","","","NA"
"-94.97","74.72","RESOLUTE BAY A","2403498","2019-07-19 05:00","2019","07","19","05:00","5.8","","4.0","","89","","","","32","","22","","32.2","","99.54","","","","","","Rain"
"-94.97","74.72","RESOLUTE BAY A","2403498","2019-07-19 06:00","2019","07","19","06:00","5.1","","3.9","","92","","","","31","","16","","32.2","","99.57","","","","","","Rain"
"-94.97","74.72","RESOLUTE BAY A","2403498","2019-07-19 07:00","2019","07","19","07:00","5.7","","4.7","","93","","","","34","","22","","16.1","","99.58","","","","","","Rain"
"-94.97","74.72","RESOLUTE BAY A","2403498","2019-07-19 08:00","2019","07","19","08:00","5.9","","5.0","","94","","","","32","","22","","14.5","","99.61","","","","","","Rain"
"-94.97","74.72","RESOLUTE BAY A","2403498","2019-07-19 09:00","2019","07","19","09:00","6.8","","5.2","","89","","","","35","","23","","16.1","","99.60","","","","","","Cloudy"
"-94.97","74.72","RESOLUTE BAY A","2403498","2019-07-19 10:00","2019","07","19","10:00","6.8","","5.4","","91","","","","34","","24","","19.3","","99.63","","","","","","Rain"
"-94.97","74.72","RESOLUTE BAY A","2403498","2019-07-19 11:00","2019","07","19","11:00","7.1","","5.3","","88","","","","35","","23","","19.3","","99.66","","","","","","Rain"
"-94.97","74.72","RESOLUTE BAY A","2403498","2019-07-19 12:00","2019","07","19","12:00","7.2","","4.9","","86","","","","36","","27","","19.3","","99.69","","","","","","Cloudy"
"-94.97","74.72","RESOLUTE BAY A","2403498","2019-07-19 13:00","2019","07","19","13:00","7.1","","4.8","","85","","","","35","","29","","19.3","","99.72","","","","","","NA"
"-94.97","74.72","RESOLUTE BAY A","2403498","2019-07-19 14:00","2019","07","19","14:00","7.1","","4.3","","83","","","","36","","32","","19.3","","99.76","","","","","","NA"
"-94.97","74.72","RESOLUTE BAY A","2403498","2019-07-19 15:00","2019","07","19","15:00","7.2","","4.3","","82","","","","35","","23","","19.3","","99.84","","","","","","Cloudy"
"-94.97","74.72","RESOLUTE BAY A","2403498","2019-07-19 16:00","2019","07","19","16:00","7.3","","4.7","","83","","","","33","","23","","19.3","","99.88","","","","","","NA"
"-94.97","74.72","RESOLUTE BAY A","2403498","2019-07-19 17:00","2019","07","19","17:00","7.5","","4.4","","80","","","","34","","27","","19.3","","99.91","","","","","","NA"
"-94.97","74.72","RESOLUTE BAY A","2403498","2019-07-19 18:00","2019","07","19","18:00","7.2","","4.6","","83","","","","35","","23","","19.3","","99.95","","","","","","Cloudy"
"-94.97","74.72","RESOLUTE BAY A","2403498","2019-07-19 19:00","2019","07","19","19:00","6.9","","4.6","","85","","","","34","","19","","19.3","","100.00","","","","","","NA"
"-94.97","74.72","RESOLUTE BAY A","2403498","2019-07-19 20:00","2019","07","19","20:00","6.7","","4.1","","83","","","","33","","22","","48.3","","100.01","","","","","","NA"
"-94.97","74.72","RESOLUTE BAY A","2403498","2019-07-19 21:00","2019","07","19","21:00","6.0","","3.7","","85","","","","29","","12","","48.3","","100.02","","","","","","Cloudy"
"-94.97","74.72","RESOLUTE BAY A","2403498","2019-07-19 22:00","2019","07","19","22:00","4.0","","2.9","","92","","","","28","","13","","48.3","","100.03","","","","","","NA"
"-94.97","74.72","RESOLUTE BAY A","2403498","2019-07-19 23:00","2019","07","19","23:00","3.5","","2.2","","91","","","","31","","12","","48.3","","100.09","","","","","","NA"
"-94.97","74.72","RESOLUTE BAY A","2403498","2019-07-20 00:00","2019","07","20","00:00","3.8","","2.5","","92","","","","33","","7","","48.3","","100.11","","","","","","Cloudy"
"-94.97","74.72","RESOLUTE BAY A","2403498","2019-07-20 01:00","2019","07","20","01:00","3.4","","2.5","","94","","","","34","","7","","48.3","","100.12","","","","","","NA"
"-94.97","74.72","RESOLUTE BAY A","2403498","2019-07-20 02:00","2019","07","20","02:00","0.8","","0.2","","96","","","","30","","13","","11.3","","100.15","","","","","","NA"
"-94.97","74.72","RESOLUTE BAY A","2403498","2019-07-20 03:00","2019","07","20","03:00","0.6","","0.1","","97","","","","32","","11","","24.1","","100.20","","","","","","Mostly Cloudy"
"-94.97","74.72","RESOLUTE BAY A","2403498","2019-07-20 04:00","2019","07","20","04:00","1.5","","1.0","","97","","","","35","","13","","40.2","","100.22","","","","","","NA"
"-94.97","74.72","RESOLUTE BAY A","2403498","2019-07-20 05:00","2019","07","20","05:00","1.1","","0.1","","93","","","","28","","16","","32.2","","100.25","","","","","","NA"
"-94.97","74.72","RESOLUTE BAY A","2403498","2019-07-20 06:00","2019","07","20","06:00","0.6","","0.0","","96","","","","31","","5","","6.4","","100.25","","","","","","Fog"
"-94.97","74.72","RESOLUTE BAY A","2403498","2019-07-20 07:00","2019","07","20","07:00","0.7","","0.1","","96","","","","28","","18","","24.1","","100.30","","","","","","NA"
"-94.97","74.72","RESOLUTE BAY A","2403498","2019-07-20 08:00","2019","07","20","08:00","1.0","","0.4","","96","","","","30","","7","","3.2","","100.29","","","","","","Fog"
"-94.97","74.72","RESOLUTE BAY A","2403498","2019-07-20 09:00","2019","07","20","09:00","1.1","","0.6","","96","","","","26","","10","","1.2","","100.27","","","","","","Fog"
"-94.97","74.72","RESOLUTE BAY A","2403498","2019-07-20 10:00","2019","07","20","10:00","2.0","","1.6","","97","","","","26","","5","","0.6","","100.27","","","","","","Fog"
"-94.97","74.72","RESOLUTE BAY A","2403498","2019-07-20 11:00","2019","07","20","11:00","2.5","","2.1","","97","","","","27","","11","","2.8","","100.30","","","","","","Fog"
"-94.97","74.72","RESOLUTE BAY A","2403498","2019-07-20 12:00","2019","07","20","12:00","3.4","","1.4","","87","","","","28","","9","","16.1","","100.30","","","","","","Cloudy"
"-94.97","74.72","RESOLUTE BAY A","2403498","2019-07-20 13:00","2019","07","20","13:00","3.6","","1.3","","85","","","","30","","7","","16.1","","100.29","","","","","","NA"
"-94.97","74.72","RESOLUTE BAY A","2403498","2019-07-20 14:00","2019","07","20","14:00","3.2","","1.5","","89","","","","14","","12","","6.4","","100.28","","","","","","Fog"
"-94.97","74.72","RESOLUTE BAY A","2403498","2019-07-20 15:00","2019","07","20","15:00"
"-94.97","74.72","RESOLUTE BAY A","2403498","2019-07-20 16:00","2019","07","20","16:00"
"-94.97","74.72","RESOLUTE BAY A","2403498","2019-07-20 17:00","2019","07","20","17:00","2.7","","2.4","","98","","","","12","","22","","1.6","","100.27","","","","","","Rain,Fog"
"-94.97","74.72","RESOLUTE BAY A","2403498","2019-07-20 18:00","2019","07","20","18:00","2.7","","2.4","","98","","","","13","","20","","3.6","","100.24","","","","","","Drizzle,Fog"
"-94.97","74.72","RESOLUTE BAY A","2403498","2019-07-20 19:00","2019","07","20","19:00","2.8","","2.6","","98","","","","14","","21","","1.0","","100.21","","","","","","Drizzle,Fog"
"-94.97","74.72","RESOLUTE BAY A","2403498","2019-07-20 20:00","2019","07","20","20:00","3.0","","2.7","","98","","","","14","","21","","1.0","","100.17","","","","","","Drizzle,Fog"
"-94.97","74.72","RESOLUTE BAY A","2403498","2019-07-20 21:00","2019","07","20","21:00","2.8","","2.5","","98","","","","15","","17","","0.6","","100.13","","","","","","Drizzle,Fog"
"-94.97","74.72","RESOLUTE BAY A","2403498","2019-07-20 22:00","2019","07","20","22:00","2.5","","2.2","","98","","","","22","","4","","0.6","","100.14","","","","","","Drizzle,Fog"
"-94.97","74.72","RESOLUTE BAY A","2403498","2019-07-20 23:00","2019","07","20","23:00","1.9","","1.7","","98","","","","26","","13","","0.4","","100.17","","","","","","Fog"
"-94.97","74.72","RESOLUTE BAY A","2403498","2019-07-21 00:00","2019","07","21","00:00","1.4","","1.1","","98","","","","26","","14","","0.6","","100.18","","","","","","Fog"
"-94.97","74.72","RESOLUTE BAY A","2403498","2019-07-21 01:00","2019","07","21","01:00","1.0","","0.7","","98","","","","25","","9","","0.6","","100.20","","","","","","Fog"
"-94.97","74.72","RESOLUTE BAY A","2403498","2019-07-21 02:00","2019","07","21","02:00","1.1","","0.9","","98","","","","25","","14","","0.4","","100.22","","","","","","Fog"
"-94.97","74.72","RESOLUTE BAY A","2403498","2019-07-21 03:00","2019","07","21","03:00","1.1","","0.9","","98","","","","26","","14","","0.4","","100.27","","","","","","Fog"
"-94.97","74.72","RESOLUTE BAY A","2403498","2019-07-21 04:00","2019","07","21","04:00","1.3","","1.1","","98","","","","28","","13","","0.2","","100.30","","","","","","Fog"
"-94.97","74.72","RESOLUTE BAY A","2403498","2019-07-21 05:00","2019","07","21","05:00","0.8","","0.6","","99","","","","25","","17","","0.8","","100.33","","","","","","Fog"
"-94.97","74.72","RESOLUTE BAY A","2403498","2019-07-21 06:00","2019","07","21","06:00","0.2","","0.0","","99","","","","25","","12","","0.4","","100.34","","","","","","Fog"
"-94.97","74.72","RESOLUTE BAY A","2403498","2019-07-21 07:00","2019","07","21","07:00","0.9","","0.7","","99","","","","23","","13","","0.4","","100.34","","","","","","Fog"
"-94.97","74.72","RESOLUTE BAY A","2403498","2019-07-21 08:00","2019","07","21","08:00","1.0","","0.8","","99","","","","25","","18","","0.4","","100.34","","","","","","Drizzle,Fog"
"-94.97","74.72","RESOLUTE BAY A","2403498","2019-07-21 09:00","2019","07","21","09:00","0.3","","0.1","","99","","","","27","","11","","0.4","","100.33","","","","","","Fog"
"-94.97","74.72","RESOLUTE BAY A","2403498","2019-07-21 10:00","2019","07","21","10:00","0.9","","0.8","","99","","","","23","","3","","0.4","","100.32","","","","","","Fog"
"-94.97","74.72","RESOLUTE BAY A","2403498","2019-07-21 11:00","2019","07","21","11:00","2.4","","2.2","","99","","","","36","","2","","1.2","","100.29","","","","","","Fog"
"-94.97","74.72","RESOLUTE BAY A","2403498","2019-07-21 12:00","2019","07","21","12:00","2.2","","2.0","","99","","","","13","","15","","8.1","","100.24","","","","","","Fog"
"-94.97","74.72","RESOLUTE BAY A","2403498","2019-07-21 13:00","2019","07","21","13:00","1.1","","1.0","","99","","","","14","","20","","6.4","","100.22","","","","","","Fog"
"-94.97","74.72","RESOLUTE BAY A","2403498","2019-07-21 14:00","2019","07","21","14:00","3.2","","3.0","","99","","","","13","","23","","0.4","","100.16","","","","","","Fog"
"-94.97","74.72","RESOLUTE BAY A","2403498","2019-07-21 15:00","2019","07","21","15:00","4.1","","3.8","","98","","","","15","","26","","11.3","","100.07","","","","","","Cloudy"
"-94.97","74.72","RESOLUTE BAY A","2403498","2019-07-21 16:00","2019","07","21","16:00","6.1","","5.8","","98","","","","12","","25","","19.3","","100.01","","","","","","NA"
"-94.97","74.72","RESOLUTE BAY A","2403498","2019-07-21 17:00","2019","07","21","17:00","6.5","","4.7","","88","","","","11","","34","","24.1","","99.89","","","","","","NA"
"-94.97","74.72","RESOLUTE BAY A","2403498","2019-07-21 18:00","2019","07","21","18:00","7.0","","4.6","","84","","","","12","","43","","24.1","","99.76","","","","","","Cloudy"
"-94.97","74.72","RESOLUTE BAY A","2403498","2019-07-21 19:00","2019","07","21","19:00","6.7","","4.2","","84","","","","13","","43","","24.1","","99.64","","","","","","Rain"
"-94.97","74.72","RESOLUTE BAY A","2403498","2019-07-21 20:00","2019","07","21","20:00","6.8","","5.2","","89","","","","13","","45","","14.5","","99.50","","","","","","Rain"
"-94.97","74.72","RESOLUTE BAY A","2403498","2019-07-21 21:00","2019","07","21","21:00","6.9","","5.8","","93","","","","12","","49","","14.5","","99.28","","","","","","Rain"
"-94.97","74.72","RESOLUTE BAY A","2403498","2019-07-21 22:00","2019","07","21","22:00","6.2","","5.2","","94","","","","14","","49","","12.9","","99.19","","","","","","Rain"
"-94.97","74.72","RESOLUTE BAY A","2403498","2019-07-21 23:00","2019","07","21","23:00","4.5","","4.0","","97","","","","18","","34","","0.4","","99.14","","","","","","Fog"
"-94.97","74.72","RESOLUTE BAY A","2403498","2019-07-22 00:00","2019","07","22","00:00","2.7","","2.4","","98","","","","20","","23","","0.4","","99.18","","","","","","Fog"
"-94.97","74.72","RESOLUTE BAY A","2403498","2019-07-22 01:00","2019","07","22","01:00","1.8","","1.5","","98","","","","18","","19","","0.4","","99.18","","","","","","Fog"
"-94.97","74.72","RESOLUTE BAY A","2403498","2019-07-22 02:00","2019","07","22","02:00","1.8","","1.5","","98","","","","16","","25","","0.4","","99.19","","","","","","Fog"
"-94.97","74.72","RESOLUTE BAY A","2403498","2019-07-22 03:00","2019","07","22","03:00","2.1","","1.9","","98","","","","18","","26","","0.6","","99.21","","","","","","Fog"
"-94.97","74.72","RESOLUTE BAY A","2403498","2019-07-22 04:00","2019","07","22","04:00","1.4","","1.2","","98","","","","18","","15","","12.9","","99.24","","","","","","NA"
"-94.97","74.72","RESOLUTE BAY A","2403498","2019-07-22 05:00","2019","07","22","05:00","0.9","","0.7","","98","","","","21","","30","","0.8","","99.24","","","","","","Fog"
"-94.97","74.72","RESOLUTE BAY A","2403498","2019-07-22 06:00","2019","07","22","06:00","0.7","","0.5","","98","","","","22","","24","","1.2","","99.31","","","","","","Fog"
"-94.97","74.72","RESOLUTE BAY A","2403498","2019-07-22 07:00","2019","07","22","07:00","0.6","","0.4","","99","","","","23","","27","","0.8","","99.36","","","","","","Fog"
"-94.97","74.72","RESOLUTE BAY A","2403498","2019-07-22 08:00","2019","07","22","08:00","0.8","","0.6","","99","","","","24","","26","","0.6","","99.41","","","","","","Fog"
"-94.97","74.72","RESOLUTE BAY A","2403498","2019-07-22 09:00","2019","07","22","09:00","0.6","","0.4","","99","","","","26","","35","","0.6","","99.47","","","","","","Fog"
"-94.97","74.72","RESOLUTE BAY A","2403498","2019-07-22 10:00","2019","07","22","10:00","0.3","","0.1","","99","","","","27","","32","","9.7","","99.56","","","","","","Fog"
"-94.97","74.72","RESOLUTE BAY A","2403498","2019-07-22 11:00","2019","07","22","11:00","0.0","","-0.3","","98","","","","27","","30","","12.9","","99.66","","","","-6","","NA"
"-94.97","74.72","RESOLUTE BAY A","2403498","2019-07-22 12:00","2019","07","22","12:00","0.3","","-0.2","","96","","","","27","","25","","19.3","","99.77","","","","","","Cloudy"
"-94.97","74.72","RESOLUTE BAY A","2403498","2019-07-22 13:00","2019","07","22","13:00","0.7","","-0.1","","95","","","","27","","31","","19.3","","99.85","","","","","","NA"
"-94.97","74.72","RESOLUTE BAY A","2403498","2019-07-22 14:00","2019","07","22","14:00","1.2","","0.7","","96","","","","26","","30","","11.3","","99.90","","","","","","NA"
"-94.97","74.72","RESOLUTE BAY A","2403498","2019-07-22 15:00","2019","07","22","15:00","1.0","","0.4","","96","","","","26","","32","","11.3","","99.96","","","","","","Cloudy"
"-94.97","74.72","RESOLUTE BAY A","2403498","2019-07-22 16:00","2019","07","22","16:00","1.6","","0.7","","94","","","","26","","31","","16.1","","99.97","","","","","","NA"
"-94.97","74.72","RESOLUTE BAY A","2403498","2019-07-22 17:00","2019","07","22","17:00","0.8","","0.2","","95","","","","25","","28","","3.6","","100.01","","","","","","Fog"
"-94.97","74.72","RESOLUTE BAY A","2403498","2019-07-22 18:00","2019","07","22","18:00","0.4","","0.0","","97","","","","25","","24","","0.4","","100.02","","","","","","Fog"
"-94.97","74.72","RESOLUTE BAY A","2403498","2019-07-22 19:00","2019","07","22","19:00","0.2","","-0.1","","98","","","","25","","17","","0.6","","100.03","","","","","","Fog"
"-94.97","74.72","RESOLUTE BAY A","2403498","2019-07-22 20:00","2019","07","22","20:00","0.2","","-0.1","","98","","","","25","","19","","0.4","","100.02","","","","","","Snow,Fog"
"-94.97","74.72","RESOLUTE BAY A","2403498","2019-07-22 21:00","2019","07","22","21:00","0.0","","-0.2","","98","","","","26","","20","","0.4","","100.01","","","","-5","","Fog"
"-94.97","74.72","RESOLUTE BAY A","2403498","2019-07-22 22:00","2019","07","22","22:00","-0.1","","-0.3","","98","","","","25","","15","","0.4","","100.01","","","","-5","","Freezing Fog"
"-94.97","74.72","RESOLUTE BAY A","2403498","2019-07-22 23:00","2019","07","22","23:00","-0.2","","-0.4","","98","","","","26","","14","","0.2","","99.99","","","","-4","","Freezing Fog"
"-94.97","74.72","RESOLUTE BAY A","2403498","2019-07-23 00:00","2019","07","23","00:00","-0.2","","-0.4","","99","","","","23","","19","","0.4","","100.01","","","","-5","","Freezing Fog"
"-94.97","74.72","RESOLUTE BAY A","2403498","2019-07-23 01:00","2019","07","23","01:00","-0.2","","-0.4","","98","","","","21","","15","","14.5","","99.99","","","","-5","","Snow"
"-94.97","74.72","RESOLUTE BAY A","2403498","2019-07-23 02:00","2019","07","23","02:00","-0.3","","-0.6","","98","","","","21","","15","","14.5","","99.98","","","","-5","","Snow"
"-94.97","74.72","RESOLUTE BAY A","2403498","2019-07-23 03:00","2019","07","23","03:00","-0.3","","-0.5","","98","","","","22","","18","","3.2","","99.98","","","","-5","","Fog"
"-94.97","74.72","RESOLUTE BAY A","2403498","2019-07-23 04:00","2019","07","23","04:00","-0.8","","-1.1","","98","","","","23","","22","","24.1","","99.97","","","","-7","","NA"
"-94.97","74.72","RESOLUTE BAY A","2403498","2019-07-23 05:00","2019","07","23","05:00","-0.5","","-1.4","","94","","","","22","","26","","24.1","","99.94","","","","-7","","NA"
"-94.97","74.72","RESOLUTE BAY A","2403498","2019-07-23 06:00","2019","07","23","06:00","-0.6","","-1.1","","96","","","","21","","23","","12.9","","99.92","","","","-6","","Cloudy"
"-94.97","74.72","RESOLUTE BAY A","2403498","2019-07-23 07:00","2019","07","23","07:00","-0.5","","-0.9","","98","","","","22","","19","","12.9","","99.91","","","","-6","","NA"
"-94.97","74.72","RESOLUTE BAY A","2403498","2019-07-23 08:00","2019","07","23","08:00","-0.3","","-0.6","","97","","","","21","","21","","4.8","","99.89","","","","-6","","Fog"
"-94.97","74.72","RESOLUTE BAY A","2403498","2019-07-23 09:00","2019","07","23","09:00","-0.2","","-0.6","","97","","","","21","","18","","1.6","","99.89","","","","-5","","Fog"
"-94.97","74.72","RESOLUTE BAY A","2403498","2019-07-23 10:00","2019","07","23","10:00","-0.3","","-0.6","","97","","","","25","","18","","0.4","","99.89","","","","-5","","Freezing Drizzle,Snow,Freezing Fog"
"-94.97","74.72","RESOLUTE BAY A","2403498","2019-07-23 11:00","2019","07","23","11:00","0.0","","-0.3","","98","","","","25","","12","","2.4","","99.89","","","","-4","","Fog"
"-94.97","74.72","RESOLUTE BAY A","2403498","2019-07-23 12:00","2019","07","23","12:00","0.1","","-0.2","","98","","","","26","","10","","4.8","","99.87","","","","","","Fog"
"-94.97","74.72","RESOLUTE BAY A","2403498","2019-07-23 13:00","2019","07","23","13:00","0.4","","-0.2","","96","","","","25","","10","","4.0","","99.88","","","","","","NA"
"-94.97","74.72","RESOLUTE BAY A","2403498","2019-07-23 14:00","2019","07","23","14:00","0.0","","-0.3","","97","","","","28","","11","","0.8","","99.89","","","","-4","","Fog"
"-94.97","74.72","RESOLUTE BAY A","2403498","2019-07-23 15:00","2019","07","23","15:00","0.0","","-0.4","","97","","","","28","","7","","6.4","","99.91","","","","-2","","Fog"
"-94.97","74.72","RESOLUTE BAY A","2403498","2019-07-23 16:00","2019","07","23","16:00","0.9","","-0.5","","90","","","","36","","2","","12.9","","99.91","","","","","","NA"
"-94.97","74.72","RESOLUTE BAY A","2403498","2019-07-23 17:00","2019","07","23","17:00","1.1","","-0.1","","92","","","","29","","7","","12.9","","99.91","","","","","","NA"
"-94.97","74.72","RESOLUTE BAY A","2403498","2019-07-23 18:00","2019","07","23","18:00","0.5","","-0.5","","93","","","","30","","12","","12.9","","99.91","","","","","","Mostly Cloudy"
"-94.97","74.72","RESOLUTE BAY A","2403498","2019-07-23 19:00","2019","07","23","19:00","0.2","","-0.6","","95","","","","29","","13","","8.1","","99.91","","","","","","Fog"
"-94.97","74.72","RESOLUTE BAY A","2403498","2019-07-23 20:00","2019","07","23","20:00","-0.2","","-0.6","","97","","","","29","","15","","0.6","","99.92","","","","-5","","Freezing Fog"
"-94.97","74.72","RESOLUTE BAY A","2403498","2019-07-23 21:00","2019","07","23","21:00","-0.6","","-0.9","","98","","","","32","","13","","0.8","","99.90","","","","-5","","Freezing Fog"
"-94.97","74.72","RESOLUTE BAY A","2403498","2019-07-23 22:00","2019","07","23","22:00","-0.6","","-0.9","","98","","","","31","","14","","0.6","","99.90","","","","-5","","Freezing Fog"
"-94.97","74.72","RESOLUTE BAY A","2403498","2019-07-23 23:00","2019","07","23","23:00","-0.7","","-0.9","","98","","","","32","","12","","0.4","","99.90","","","","-5","","Freezing Fog"
"-94.97","74.72","RESOLUTE BAY A","2403498","2019-07-24 00:00","2019","07","24","00:00","0.1","","-0.1","","98","","","","33","","13","","11.3","","99.89","","","","","","Cloudy"
"-94.97","74.72","RESOLUTE BAY A","2403498","2019-07-24 01:00","2019","07","24","01:00","2.1","","1.7","","97","","","","36","","13","","14.5","","99.90","","","","","","NA"
"-94.97","74.72","RESOLUTE BAY A","2403498","2019-07-24 02:00","2019","07","24","02:00","2.1","","0.7","","90","","","","3","","24","","24.1","","99.90","","","","","","NA"
"-94.97","74.72","RESOLUTE BAY A","2403498","2019-07-24 03:00","2019","07","24","03:00","2.3","","0.6","","89","","","","3","","25","","32.2","","99.92","","","","","","Cloudy"
"-94.97","74.72","RESOLUTE BAY A","2403498","2019-07-24 04:00","2019","07","24","04:00","2.6","","0.4","","85","","","","3","","32","","32.2","","99.95","","","","","","Rain"
"-94.97","74.72","RESOLUTE BAY A","2403498","2019-07-24 05:00","2019","07","24","05:00","2.8","","0.2","","83","","","","3","","29","","32.2","","99.98","","","","","","NA"
"-94.97","74.72","RESOLUTE BAY A","2403498","2019-07-24 06:00","2019","07","24","06:00","3.4","","1.0","","85","","","","3","","26","","32.2","","99.99","","","","","","Cloudy"
"-94.97","74.72","RESOLUTE BAY A","2403498","2019-07-24 07:00","2019","07","24","07:00","4.2","","1.6","","83","","","","3","","19","","40.2","","100.04","","","","","","NA"
"-94.97","74.72","RESOLUTE BAY A","2403498","2019-07-24 08:00","2019","07","24","08:00","4.6","","2.0","","83","","","","1","","22","","48.3","","100.04","","","","","","NA"
"-94.97","74.72","RESOLUTE BAY A","2403498","2019-07-24 09:00","2019","07","24","09:00","4.7","","2.1","","83","","","","3","","22","","48.3","","100.04","","","","","","Cloudy"
"-94.97","74.72","RESOLUTE BAY A","2403498","2019-07-24 10:00","2019","07","24","10:00","5.4","","1.9","","78","","","","3","","17","","19.3","","100.07","","","","","","NA"
"-94.97","74.72","RESOLUTE BAY A","2403498","2019-07-24 11:00","2019","07","24","11:00","5.0","","0.5","","73","","","","36","","21","","19.3","","100.08","","","","","","Rain"
"-94.97","74.72","RESOLUTE BAY A","2403498","2019-07-24 12:00","2019","07","24","12:00","5.2","","1.3","","75","","","","35","","18","","16.1","","100.09","","","","","","Rain"
"-94.97","74.72","RESOLUTE BAY A","2403498","2019-07-24 13:00","2019","07","24","13:00","5.4","","0.3","","70","","","","2","","20","","19.3","","100.11","","","","","","NA"
"-94.97","74.72","RESOLUTE BAY A","2403498","2019-07-24 14:00","2019","07","24","14:00","5.7","","0.2","","68","","","","36","","20","","19.3","","100.14","","","","","","NA"
"-94.97","74.72","RESOLUTE BAY A","2403498","2019-07-24 15:00","2019","07","24","15:00","6.2","","0.4","","66","","","","36","","16","","19.3","","100.17","","","","","","Mainly Clear"
"-94.97","74.72","RESOLUTE BAY A","2403498","2019-07-24 16:00","2019","07","24","16:00","6.2","","0.4","","66","","","","36","","17","","19.3","","100.18","","","","","","NA"
"-94.97","74.72","RESOLUTE BAY A","2403498","2019-07-24 17:00","2019","07","24","17:00","6.9","","0.4","","63","","","","1","","12","","19.3","","100.22","","","","","","NA"
"-94.97","74.72","RESOLUTE BAY A","2403498","2019-07-24 18:00","2019","07","24","18:00","6.5","","0.5","","65","","","","3","","15","","19.3","","100.23","","","","","","Mostly Cloudy"
"-94.97","74.72","RESOLUTE BAY A","2403498","2019-07-24 19:00","2019","07","24","19:00","7.0","","0.7","","64","","","","4","","18","","19.3","","100.24","","","","","","NA"
"-94.97","74.72","RESOLUTE BAY A","2403498","2019-07-24 20:00","2019","07","24","20:00","6.5","","1.4","","70","","","","3","","18","","19.3","","100.26","","","","","","NA"
"-94.97","74.72","RESOLUTE BAY A","2403498","2019-07-24 21:00","2019","07","24","21:00","6.3","","1.6","","72","","","","4","","17","","48.3","","100.29","","","","","","Cloudy"
"-94.97","74.72","RESOLUTE BAY A","2403498","2019-07-24 22:00","2019","07","24","22:00","5.4","","1.3","","75","","","","15","","5","","48.3","","100.34","","","","","","NA"
"-94.97","74.72","RESOLUTE BAY A","2403498","2019-07-24 23:00","2019","07","24","23:00","5.2","","2.5","","82","","","","5","","19","","48.3","","100.37","","","","","","NA"
"-94.97","74.72","RESOLUTE BAY A","2403498","2019-07-25 00:00","2019","07","25","00:00","5.1","","2.2","","82","","","","5","","16","","48.3","","100.39","","","","","","Mainly Clear"
"-94.97","74.72","RESOLUTE BAY A","2403498","2019-07-25 01:00","2019","07","25","01:00","3.9","","2.2","","89","","","","4","","20","","48.3","","100.42","","","","","","NA"
"-94.97","74.72","RESOLUTE BAY A","2403498","2019-07-25 02:00","2019","07","25","02:00","1.5","","0.5","","93","","","","14","","10","","48.3","","100.48","","","","","","NA"
"-94.97","74.72","RESOLUTE BAY A","2403498","2019-07-25 03:00","2019","07","25","03:00","1.2","","0.1","","92","","","","36","","3","","48.3","","100.51","","","","","","Clear"
"-94.97","74.72","RESOLUTE BAY A","2403498","2019-07-25 04:00","2019","07","25","04:00","4.3","","2.3","","87","","","","3","","24","","48.3","","100.53","","","","","","NA"
"-94.97","74.72","RESOLUTE BAY A","2403498","2019-07-25 05:00","2019","07","25","05:00","4.8","","1.9","","81","","","","3","","26","","48.3","","100.54","","","","","","NA"
"-94.97","74.72","RESOLUTE BAY A","2403498","2019-07-25 06:00","2019","07","25","06:00","4.4","","2.0","","85","","","","2","","32","","48.3","","100.52","","","","","","Mostly Cloudy"
"-94.97","74.72","RESOLUTE BAY A","2403498","2019-07-25 07:00","2019","07","25","07:00","4.7","","2.1","","83","","","","2","","32","","48.3","","100.50","","","","","","NA"
"-94.97","74.72","RESOLUTE BAY A","2403498","2019-07-25 08:00","2019","07","25","08:00","5.5","","2.6","","82","","","","2","","30","","24.1","","100.48","","","","","","NA"
"-94.97","74.72","RESOLUTE BAY A","2403498","2019-07-25 09:00","2019","07","25","09:00","5.6","","3.2","","85","","","","1","","36","","19.3","","100.46","","","","","","Mostly Cloudy"
"-94.97","74.72","RESOLUTE BAY A","2403498","2019-07-25 10:00","2019","07","25","10:00","6.4","","3.9","","84","","","","2","","35","","19.3","","100.44","","","","","","NA"
"-94.97","74.72","RESOLUTE BAY A","2403498","2019-07-25 11:00","2019","07","25","11:00","7.9","","4.3","","78","","","","3","","40","","24.1","","100.40","","","","","","NA"
"-94.97","74.72","RESOLUTE BAY A","2403498","2019-07-25 12:00","2019","07","25","12:00","8.3","","4.6","","77","","","","4","","44","","16.1","","100.37","","","","","","Rain"
"-94.97","74.72","RESOLUTE BAY A","2403498","2019-07-25 13:00","2019","07","25","13:00","7.6","","5.4","","86","","","","5","","38","","12.9","","100.36","","","","","","Rain"
"-94.97","74.72","RESOLUTE BAY A","2403498","2019-07-25 14:00","2019","07","25","14:00","8.3","","6.3","","87","","","","6","","37","","14.5","","100.37","","","","","","Rain"
"-94.97","74.72","RESOLUTE BAY A","2403498","2019-07-25 15:00","2019","07","25","15:00","8.6","","6.6","","87","","","","5","","32","","19.3","","100.40","","","","","","Rain"
"-94.97","74.72","RESOLUTE BAY A","2403498","2019-07-25 16:00","2019","07","25","16:00","8.5","","6.6","","88","","","","4","","33","","19.3","","100.40","","","","","","NA"
"-94.97","74.72","RESOLUTE BAY A","2403498","2019-07-25 17:00","2019","07","25","17:00","8.2","","6.0","","86","","","","4","","35","","19.3","","100.42","","","","","","NA"
"-94.97","74.72","RESOLUTE BAY A","2403498","2019-07-25 18:00","2019","07","25","18:00","8.1","","5.8","","85","","","","7","","31","","19.3","","100.48","","","","","","Mostly Cloudy"
"-94.97","74.72","RESOLUTE BAY A","2403498","2019-07-25 19:00","2019","07","25","19:00","7.6","","5.9","","89","","","","13","","8","","19.3","","100.56","","","","","","NA"
"-94.97","74.72","RESOLUTE BAY A","2403498","2019-07-25 20:00","2019","07","25","20:00","6.7","","5.2","","90","","","","13","","6","","40.2","","100.58","","","","","","NA"
"-94.97","74.72","RESOLUTE BAY A","2403498","2019-07-25 21:00","2019","07","25","21:00","6.8","","5.1","","89","","","","11","","22","","32.2","","100.62","","","","","","Mainly Clear"
"-94.97","74.72","RESOLUTE BAY A","2403498","2019-07-25 22:00","2019","07","25","22:00","6.1","","4.5","","90","","","","9","","32","","32.2","","100.64","","","","","","NA"
"-94.97","74.72","RESOLUTE BAY A","2403498","2019-07-25 23:00","2019","07","25","23:00","4.9","","4.1","","94","","","","26","","4","","32.2","","100.71","","","","","","NA"
"-94.97","74.72","RESOLUTE BAY A","2403498","2019-07-26 00:00","2019","07","26","00:00","5.1","","4.5","","96","","","","10","","14","","12.9","","100.71","","","","","","Mostly Cloudy"
"-94.97","74.72","RESOLUTE BAY A","2403498","2019-07-26 01:00","2019","07","26","01:00","3.6","","3.1","","96","","","","13","","19","","14.5","","100.77","","","","","","NA"
"-94.97","74.72","RESOLUTE BAY A","2403498","2019-07-26 02:00","2019","07","26","02:00","4.4","","4.0","","97","","","","11","","15","","12.9","","100.81","","","","","","NA"
"-94.97","74.72","RESOLUTE BAY A","2403498","2019-07-26 03:00","2019","07","26","03:00","5.4","","3.4","","87","","","","16","","7","","14.5","","100.83","","","","","","Mainly Clear"
"-94.97","74.72","RESOLUTE BAY A","2403498","2019-07-26 04:00","2019","07","26","04:00","4.8","","4.2","","96","","","","5","","5","","24.1","","100.82","","","","","","NA"
"-94.97","74.72","RESOLUTE BAY A","2403498","2019-07-26 05:00","2019","07","26","05:00","6.3","","4.4","","88","","","","16","","4","","24.1","","100.83","","","","","","NA"
"-94.97","74.72","RESOLUTE BAY A","2403498","2019-07-26 06:00","2019","07","26","06:00","6.1","","4.2","","88","","","","18","","5","","32.2","","100.83","","","","","","Mainly Clear"
"-94.97","74.72","RESOLUTE BAY A","2403498","2019-07-26 07:00","2019","07","26","07:00","6.0","","4.2","","88","","","","17","","4","","40.2","","100.83","","","","","","NA"
"-94.97","74.72","RESOLUTE BAY A","2403498","2019-07-26 08:00","2019","07","26","08:00","6.5","","5.0","","90","","","","29","","12","","19.3","","100.81","","","","","","NA"
"-94.97","74.72","RESOLUTE BAY A","2403498","2019-07-26 09:00","2019","07","26","09:00","7.9","","5.8","","86","","","","32","","18","","19.3","","100.77","","","","","","Clear"
"-94.97","74.72","RESOLUTE BAY A","2403498","2019-07-26 10:00","2019","07","26","10:00","12.0","","5.3","","63","","","","1","","18","","19.3","","100.73","","","","","","NA"
"-94.97","74.72","RESOLUTE BAY A","2403498","2019-07-26 11:00","2019","07","26","11:00","13.2","","5.8","","60","","","","1","","27","","19.3","","100.70","","","","","","NA"
"-94.97","74.72","RESOLUTE BAY A","2403498","2019-07-26 12:00","2019","07","26","12:00","13.9","","5.8","","58","","","","1","","32","","24.1","","100.66","","","","","","Mainly Clear"
"-94.97","74.72","RESOLUTE BAY A","2403498","2019-07-26 13:00","2019","07","26","13:00","14.4","","7.7","","64","","","","1","","26","","19.3","","100.62","","","","","","NA"
"-94.97","74.72","RESOLUTE BAY A","2403498","2019-07-26 14:00","2019","07","26","14:00","14.6","","6.0","","56","","","","1","","22","","19.3","","100.62","","","","","","NA"
"-94.97","74.72","RESOLUTE BAY A","2403498","2019-07-26 15:00","2019","07","26","15:00","15.3","","6.3","","55","","","","4","","18","","19.3","","100.60","","","","","","Mainly Clear"
"-94.97","74.72","RESOLUTE BAY A","2403498","2019-07-26 16:00","2019","07","26","16:00","15.6","","5.9","","52","","","","1","","23","","19.3","","100.58","","","","","","NA"
"-94.97","74.72","RESOLUTE BAY A","2403498","2019-07-26 17:00","2019","07","26","17:00","16.0","","5.8","","50","","","","3","","21","","19.3","","100.56","","","","","","NA"
"-94.97","74.72","RESOLUTE BAY A","2403498","2019-07-26 18:00","2019","07","26","18:00","15.7","","5.8","","51","","","","3","","27","","24.1","","100.53","","","","","","Clear"
"-94.97","74.72","RESOLUTE BAY A","2403498","2019-07-26 19:00","2019","07","26","19:00","14.9","","6.6","","57","","","","1","","26","","19.3","","100.52","","","","","","NA"
"-94.97","74.72","RESOLUTE BAY A","2403498","2019-07-26 20:00","2019","07","26","20:00","14.1","","7.2","","63","","","","1","","23","","24.1","","100.50","","","","","","NA"
"-94.97","74.72","RESOLUTE BAY A","2403498","2019-07-26 21:00","2019","07","26","21:00","13.0","","7.7","","70","","","","3","","25","","24.1","","100.47","","","","","","Mainly Clear"
"-94.97","74.72","RESOLUTE BAY A","2403498","2019-07-26 22:00","2019","07","26","22:00","12.3","","6.8","","69","","","","3","","26","","24.1","","100.44","","","","","","NA"
"-94.97","74.72","RESOLUTE BAY A","2403498","2019-07-26 23:00","2019","07","26","23:00","11.3","","6.5","","72","","","","3","","24","","24.1","","100.41","","","","","","NA"
"-94.97","74.72","RESOLUTE BAY A","2403498","2019-07-27 00:00","2019","07","27","00:00","9.7","","6.4","","80","","","","4","","30","","24.1","","100.39","","","","","","Mainly Clear"
"-94.97","74.72","RESOLUTE BAY A","2403498","2019-07-27 01:00","2019","07","27","01:00","10.1","","5.5","","73","","","","4","","30","","24.1","","100.38","","","","","","NA"
"-94.97","74.72","RESOLUTE BAY A","2403498","2019-07-27 02:00","2019","07","27","02:00","9.4","","5.5","","77","","","","4","","29","","24.1","","100.35","","","","","","NA"
"-94.97","74.72","RESOLUTE BAY A","2403498","2019-07-27 03:00","2019","07","27","03:00","8.1","","4.9","","80","","","","21","","11","","24.1","","100.35","","","","","","Mainly Clear"
"-94.97","74.72","RESOLUTE BAY A","2403498","2019-07-27 04:00","2019","07","27","04:00","9.1","","5.1","","76","","","","2","","4","","24.1","","100.34","","","","","","NA"
"-94.97","74.72","RESOLUTE BAY A","2403498","2019-07-27 05:00","2019","07","27","05:00","10.4","","5.9","","73","","","","8","","6","","24.1","","100.31","","","","","","NA"
"-94.97","74.72","RESOLUTE BAY A","2403498","2019-07-27 06:00","2019","07","27","06:00","5.6","","3.4","","85","","","","15","","12","","24.1","","100.29","","","","","","Mostly Cloudy"
"-94.97","74.72","RESOLUTE BAY A","2403498","2019-07-27 07:00","2019","07","27","07:00","4.9","","2.7","","86","","","","13","","22","","24.1","","100.31","","","","","","NA"
"-94.97","74.72","RESOLUTE BAY A","2403498","2019-07-27 08:00","2019","07","27","08:00","6.5","","3.3","","80","","","","13","","16","","19.3","","100.28","","","","","","NA"
"-94.97","74.72","RESOLUTE BAY A","2403498","2019-07-27 09:00","2019","07","27","09:00","5.5","","2.5","","81","","","","16","","12","","19.3","","100.25","","","","","","Mainly Clear"
"-94.97","74.72","RESOLUTE BAY A","2403498","2019-07-27 10:00","2019","07","27","10:00","7.8","","3.2","","73","","","","13","","18","","19.3","","100.22","","","","","","NA"
"-94.97","74.72","RESOLUTE BAY A","2403498","2019-07-27 11:00","2019","07","27","11:00","6.3","","1.9","","73","","","","13","","19","","19.3","","100.21","","","","","","NA"
"-94.97","74.72","RESOLUTE BAY A","2403498","2019-07-27 12:00","2019","07","27","12:00","8.1","","2.7","","69","","","","14","","21","","19.3","","100.21","","","","","","Mainly Clear"
"-94.97","74.72","RESOLUTE BAY A","2403498","2019-07-27 13:00","2019","07","27","13:00","8.2","","2.5","","67","","","","15","","29","","19.3","","100.19","","","","","","NA"
"-94.97","74.72","RESOLUTE BAY A","2403498","2019-07-27 14:00","2019","07","27","14:00","8.1","","2.9","","70","","","","16","","28","","19.3","","100.19","","","","","","NA"
"-94.97","74.72","RESOLUTE BAY A","2403498","2019-07-27 15:00","2019","07","27","15:00","6.4","","2.4","","76","","","","14","","27","","19.3","","100.19","","","","","","Mostly Cloudy"
"-94.97","74.72","RESOLUTE BAY A","2403498","2019-07-27 16:00","2019","07","27","16:00","6.3","","2.0","","74","","","","15","","28","","19.3","","100.21","","","","","","NA"
"-94.97","74.72","RESOLUTE BAY A","2403498","2019-07-27 17:00","2019","07","27","17:00","5.9","","1.9","","76","","","","14","","29","","19.3","","100.18","","","","","","NA"
"-94.97","74.72","RESOLUTE BAY A","2403498","2019-07-27 18:00","2019","07","27","18:00","4.8","","1.7","","81","","","","14","","32","","19.3","","100.18","","","","","","Mostly Cloudy"
"-94.97","74.72","RESOLUTE BAY A","2403498","2019-07-27 19:00","2019","07","27","19:00","3.8","","1.5","","85","","","","13","","29","","11.3","","100.18","","","","","","NA"
"-94.97","74.72","RESOLUTE BAY A","2403498","2019-07-27 20:00","2019","07","27","20:00","2.3","","0.7","","89","","","","15","","23","","8.1","","100.17","","","","","","Fog"
"-94.97","74.72","RESOLUTE BAY A","2403498","2019-07-27 21:00","2019","07","27","21:00","3.3","","0.9","","84","","","","11","","22","","8.1","","100.16","","","","","","Fog"
"-94.97","74.72","RESOLUTE BAY A","2403498","2019-07-27 22:00","2019","07","27","22:00","3.3","","1.0","","85","","","","11","","25","","11.3","","100.15","","","","","","NA"
"-94.97","74.72","RESOLUTE BAY A","2403498","2019-07-27 23:00","2019","07","27","23:00","2.5","","0.7","","88","","","","9","","29","","4.8","","100.15","","","","","","Fog"
"-94.97","74.72","RESOLUTE BAY A","2403498","2019-07-28 00:00","2019","07","28","00:00","4.4","","2.0","","85","","","","11","","14","","6.4","","100.18","","","","","","Fog"
"-94.97","74.72","RESOLUTE BAY A","2403498","2019-07-28 01:00","2019","07","28","01:00","4.1","","2.2","","87","","","","14","","22","","8.1","","100.18","","","","","","Fog"
"-94.97","74.72","RESOLUTE BAY A","2403498","2019-07-28 02:00","2019","07","28","02:00","3.1","","1.7","","90","","","","11","","33","","8.1","","100.18","","","","","","Fog"
"-94.97","74.72","RESOLUTE BAY A","2403498","2019-07-28 03:00","2019","07","28","03:00","2.3","","1.1","","92","","","","11","","31","","6.4","","100.22","","","","","","Fog"
"-94.97","74.72","RESOLUTE BAY A","2403498","2019-07-28 04:00","2019","07","28","04:00","2.4","","1.7","","95","","","","11","","28","","2.4","","100.24","","","","","","Drizzle,Fog"
"-94.97","74.72","RESOLUTE BAY A","2403498","2019-07-28 05:00","2019","07","28","05:00","3.7","","2.9","","94","","","","10","","22","","2.8","","100.25","","","","","","Fog"
"-94.97","74.72","RESOLUTE BAY A","2403498","2019-07-28 06:00","2019","07","28","06:00","3.2","","1.6","","90","","","","14","","21","","9.7","","100.26","","","","","","Fog"
"-94.97","74.72","RESOLUTE BAY A","2403498","2019-07-28 07:00","2019","07","28","07:00","2.2","","1.2","","93","","","","17","","18","","6.4","","100.26","","","","","","Drizzle,Fog"
"-94.97","74.72","RESOLUTE BAY A","2403498","2019-07-28 08:00","2019","07","28","08:00","3.0","","2.1","","94","","","","9","","28","","11.3","","100.23","","","","","","Drizzle"
"-94.97","74.72","RESOLUTE BAY A","2403498","2019-07-28 09:00","2019","07","28","09:00","3.1","","1.8","","91","","","","14","","23","","14.5","","100.27","","","","","","Cloudy"
"-94.97","74.72","RESOLUTE BAY A","2403498","2019-07-28 10:00","2019","07","28","10:00","3.6","","2.6","","93","","","","13","","22","","11.3","","100.29","","","","","","NA"
"-94.97","74.72","RESOLUTE BAY A","2403498","2019-07-28 11:00","2019","07","28","11:00","4.7","","3.5","","92","","","","13","","20","","19.3","","100.31","","","","","","NA"
"-94.97","74.72","RESOLUTE BAY A","2403498","2019-07-28 12:00","2019","07","28","12:00","5.8","","3.9","","88","","","","11","","24","","16.1","","100.33","","","","","","Cloudy"
"-94.97","74.72","RESOLUTE BAY A","2403498","2019-07-28 13:00","2019","07","28","13:00","6.5","","4.0","","84","","","","11","","29","","19.3","","100.34","","","","","","NA"
"-94.97","74.72","RESOLUTE BAY A","2403498","2019-07-28 14:00","2019","07","28","14:00","6.3","","3.4","","82","","","","13","","26","","19.3","","100.38","","","","","","NA"
"-94.97","74.72","RESOLUTE BAY A","2403498","2019-07-28 15:00","2019","07","28","15:00","5.3","","2.9","","84","","","","13","","27","","19.3","","100.43","","","","","","Cloudy"
"-94.97","74.72","RESOLUTE BAY A","2403498","2019-07-28 16:00","2019","07","28","16:00","7.6","","4.0","","78","","","","12","","18","","19.3","","100.45","","","","","","NA"
"-94.97","74.72","RESOLUTE BAY A","2403498","2019-07-28 17:00","2019","07","28","17:00","7.6","","3.7","","76","","","","13","","21","","19.3","","100.47","","","","","","NA"
"-94.97","74.72","RESOLUTE BAY A","2403498","2019-07-28 18:00","2019","07","28","18:00","6.4","","3.3","","81","","","","12","","25","","16.1","","100.49","","","","","","Mostly Cloudy"
"-94.97","74.72","RESOLUTE BAY A","2403498","2019-07-28 19:00","2019","07","28","19:00","4.7","","2.4","","85","","","","11","","33","","12.9","","100.51","","","","","","NA"
"-94.97","74.72","RESOLUTE BAY A","2403498","2019-07-28 20:00","2019","07","28","20:00","5.3","","2.3","","81","","","","10","","31","","19.3","","100.51","","","","","","NA"
"-94.97","74.72","RESOLUTE BAY A","2403498","2019-07-28 21:00","2019","07","28","21:00","4.6","","1.7","","82","","","","9","","35","","20.9","","100.51","","","","","","Mainly Clear"
"-94.97","74.72","RESOLUTE BAY A","2403498","2019-07-28 22:00","2019","07","28","22:00","3.8","","1.8","","87","","","","9","","34","","16.1","","100.53","","","","","","NA"
"-94.97","74.72","RESOLUTE BAY A","2403498","2019-07-28 23:00","2019","07","28","23:00","3.0","","1.7","","91","","","","8","","37","","16.1","","100.54","","","","","","NA"
"-94.97","74.72","RESOLUTE BAY A","2403498","2019-07-29 00:00","2019","07","29","00:00","3.4","","1.9","","90","","","","9","","32","","16.1","","100.53","","","","","","Mainly Clear"
"-94.97","74.72","RESOLUTE BAY A","2403498","2019-07-29 01:00","2019","07","29","01:00","1.9","","0.8","","92","","","","8","","49","","11.3","","100.51","","","","","","NA"
"-94.97","74.72","RESOLUTE BAY A","2403498","2019-07-29 02:00","2019","07","29","02:00","1.4","","0.5","","94","","","","8","","45","","12.9","","100.53","","","","","","NA"
"-94.97","74.72","RESOLUTE BAY A","2403498","2019-07-29 03:00","2019","07","29","03:00","1.8","","0.9","","94","","","","9","","34","","11.3","","100.56","","","","","","Cloudy"
"-94.97","74.72","RESOLUTE BAY A","2403498","2019-07-29 04:00","2019","07","29","04:00","2.0","","1.0","","93","","","","9","","39","","11.3","","100.54","","","","","","NA"
"-94.97","74.72","RESOLUTE BAY A","2403498","2019-07-29 05:00","2019","07","29","05:00","2.1","","1.2","","94","","","","9","","40","","11.3","","100.50","","","","","","NA"
"-94.97","74.72","RESOLUTE BAY A","2403498","2019-07-29 06:00","2019","07","29","06:00","2.8","","1.6","","91","","","","9","","54","","12.9","","100.42","","","","","","Cloudy"
"-94.97","74.72","RESOLUTE BAY A","2403498","2019-07-29 07:00","2019","07","29","07:00","2.8","","1.7","","93","","","","8","","54","","9.7","","100.39","","","","","","Rain"
"-94.97","74.72","RESOLUTE BAY A","2403498","2019-07-29 08:00","2019","07","29","08:00","2.7","","2.7","","100","","","","14","","46","","11.3","","100.38","","","","","","Rain"
"-94.97","74.72","RESOLUTE BAY A","2403498","2019-07-29 09:00","2019","07","29","09:00"
"-94.97","74.72","RESOLUTE BAY A","2403498","2019-07-29 10:00","2019","07","29","10:00"
"-94.97","74.72","RESOLUTE BAY A","2403498","2019-07-29 11:00","2019","07","29","11:00"
"-94.97","74.72","RESOLUTE BAY A","2403498","2019-07-29 12:00","2019","07","29","12:00"
"-94.97","74.72","RESOLUTE BAY A","2403498","2019-07-29 13:00","2019","07","29","13:00","3.4","","3.4","","100","","","","9","","46","","12.9","","100.54","","","","","","Rain"
"-94.97","74.72","RESOLUTE BAY A","2403498","2019-07-29 14:00","2019","07","29","14:00","3.3","","3.3","","100","","","","9","","46","","12.9","","100.31","","","","","","Rain"
"-94.97","74.72","RESOLUTE BAY A","2403498","2019-07-29 15:00","2019","07","29","15:00","2.8","","1.6","","91","","","","8","","53","","9.7","","100.26","","","","","","Rain"
"-94.97","74.72","RESOLUTE BAY A","2403498","2019-07-29 16:00","2019","07","29","16:00","2.8","","1.7","","92","","","","8","","53","","9.7","","100.21","","","","","","Rain"
"-94.97","74.72","RESOLUTE BAY A","2403498","2019-07-29 17:00","2019","07","29","17:00","2.7","","1.6","","93","","","","9","","49","","9.7","","100.20","","","","","","Rain"
"-94.97","74.72","RESOLUTE BAY A","2403498","2019-07-29 18:00","2019","07","29","18:00","2.8","","1.8","","93","","","","8","","49","","9.7","","100.12","","","","","","Rain"
"-94.97","74.72","RESOLUTE BAY A","2403498","2019-07-29 19:00","2019","07","29","19:00","3.1","","2.1","","93","","","","8","","54","","9.7","","100.06","","","","","","Rain"
"-94.97","74.72","RESOLUTE BAY A","2403498","2019-07-29 20:00","2019","07","29","20:00","3.0","","2.1","","94","","","","8","","50","","24.1","","100.00","","","","","","Rain"
"-94.97","74.72","RESOLUTE BAY A","2403498","2019-07-29 21:00","2019","07","29","21:00","3.1","","2.2","","94","","","","7","","48","","24.1","","99.98","","","","","","Cloudy"
"-94.97","74.72","RESOLUTE BAY A","2403498","2019-07-29 22:00","2019","07","29","22:00","3.6","","2.5","","93","","","","8","","59","","24.1","","99.87","","","","","","NA"
"-94.97","74.72","RESOLUTE BAY A","2403498","2019-07-29 23:00","2019","07","29","23:00","3.9","","2.7","","92","","","","8","","55","","14.5","","99.81","","","","","","Rain"
"-94.97","74.72","RESOLUTE BAY A","2403498","2019-07-30 00:00","2019","07","30","00:00","3.6","","2.6","","93","","","","9","","64","","14.5","","99.78","","","","","","Rain"
"-94.97","74.72","RESOLUTE BAY A","2403498","2019-07-30 01:00","2019","07","30","01:00","3.8","","2.6","","92","","","","10","","64","","16.1","","99.74","","","","","","NA"
"-94.97","74.72","RESOLUTE BAY A","2403498","2019-07-30 02:00","2019","07","30","02:00","3.0","","2.0","","93","","","","9","","54","","16.1","","99.73","","","","","","NA"
"-94.97","74.72","RESOLUTE BAY A","2403498","2019-07-30 03:00","2019","07","30","03:00","3.5","","2.5","","93","","","","10","","64","","16.1","","99.69","","","","","","Rain"
"-94.97","74.72","RESOLUTE BAY A","2403498","2019-07-30 04:00","2019","07","30","04:00","3.4","","2.4","","93","","","","9","","59","","16.1","","99.67","","","","","","NA"
"-94.97","74.72","RESOLUTE BAY A","2403498","2019-07-30 05:00","2019","07","30","05:00","3.7","","2.7","","93","","","","10","","56","","16.1","","99.67","","","","","","NA"
"-94.97","74.72","RESOLUTE BAY A","2403498","2019-07-30 06:00","2019","07","30","06:00","3.2","","2.3","","94","","","","11","","56","","16.1","","99.66","","","","","","Cloudy"
"-94.97","74.72","RESOLUTE BAY A","2403498","2019-07-30 07:00","2019","07","30","07:00","2.6","","1.9","","95","","","","11","","46","","12.9","","99.74","","","","","","Rain"
"-94.97","74.72","RESOLUTE BAY A","2403498","2019-07-30 08:00","2019","07","30","08:00","3.1","","1.7","","91","","","","13","","43","","24.1","","99.84","","","","","","NA"
"-94.97","74.72","RESOLUTE BAY A","2403498","2019-07-30 09:00","2019","07","30","09:00","3.3","","1.4","","88","","","","13","","36","","24.1","","99.93","","","","","","Cloudy"
"-94.97","74.72","RESOLUTE BAY A","2403498","2019-07-30 10:00","2019","07","30","10:00","3.1","","1.4","","89","","","","14","","43","","24.1","","99.99","","","","","","NA"
"-94.97","74.72","RESOLUTE BAY A","2403498","2019-07-30 11:00","2019","07","30","11:00","3.5","","2.4","","93","","","","14","","43","","6.4","","100.09","","","","","","Rain"
"-94.97","74.72","RESOLUTE BAY A","2403498","2019-07-30 12:00","2019","07","30","12:00","4.1","","2.5","","89","","","","14","","39","","24.1","","100.17","","","","","","Cloudy"
"-94.97","74.72","RESOLUTE BAY A","2403498","2019-07-30 13:00","2019","07","30","13:00","6.0","","3.3","","83","","","","14","","42","","32.2","","100.26","","","","","","NA"
"-94.97","74.72","RESOLUTE BAY A","2403498","2019-07-30 14:00","2019","07","30","14:00","6.2","","3.0","","80","","","","12","","43","","32.2","","100.31","","","","","","NA"
"-94.97","74.72","RESOLUTE BAY A","2403498","2019-07-30 15:00","2019","07","30","15:00","5.6","","2.7","","82","","","","11","","45","","32.2","","100.36","","","","","","Mostly Cloudy"
"-94.97","74.72","RESOLUTE BAY A","2403498","2019-07-30 16:00","2019","07","30","16:00","4.9","","2.6","","85","","","","11","","49","","32.2","","100.38","","","","","","NA"
"-94.97","74.72","RESOLUTE BAY A","2403498","2019-07-30 17:00","2019","07","30","17:00","4.7","","2.5","","85","","","","11","","46","","32.2","","100.42","","","","","","NA"
"-94.97","74.72","RESOLUTE BAY A","2403498","2019-07-30 18:00","2019","07","30","18:00","4.7","","2.2","","84","","","","10","","45","","32.2","","100.44","","","","","","Mostly Cloudy"
"-94.97","74.72","RESOLUTE BAY A","2403498","2019-07-30 19:00","2019","07","30","19:00","4.2","","2.1","","86","","","","10","","40","","32.2","","100.44","","","","","","NA"
"-94.97","74.72","RESOLUTE BAY A","2403498","2019-07-30 20:00","2019","07","30","20:00","3.9","","2.2","","88","","","","11","","44","","24.1","","100.45","","","","","","NA"
"-94.97","74.72","RESOLUTE BAY A","2403498","2019-07-30 21:00","2019","07","30","21:00","4.4","","2.4","","87","","","","11","","42","","24.1","","100.40","","","","","","Cloudy"
"-94.97","74.72","RESOLUTE BAY A","2403498","2019-07-30 22:00","2019","07","30","22:00","4.5","","2.5","","87","","","","11","","50","","24.1","","100.34","","","","","","NA"
"-94.97","74.72","RESOLUTE BAY A","2403498","2019-07-30 23:00","2019","07","30","23:00","4.8","","2.6","","86","","","","11","","49","","24.1","","100.29","","","","","","NA"
"-94.97","74.72","RESOLUTE BAY A","2403498","2019-07-31 00:00","2019","07","31","00:00","4.9","","3.1","","88","","","","11","","47","","16.1","","100.30","","","","","","Rain"
"-94.97","74.72","RESOLUTE BAY A","2403498","2019-07-31 01:00","2019","07","31","01:00","4.4","","2.9","","90","","","","11","","48","","24.1","","100.27","","","","","","NA"
"-94.97","74.72","RESOLUTE BAY A","2403498","2019-07-31 02:00","2019","07","31","02:00","4.8","","3.4","","91","","","","11","","47","","16.1","","100.27","","","","","","Rain"
"-94.97","74.72","RESOLUTE BAY A","2403498","2019-07-31 03:00","2019","07","31","03:00","4.8","","3.5","","92","","","","11","","48","","12.9","","100.27","","","","","","Rain"
"-94.97","74.72","RESOLUTE BAY A","2403498","2019-07-31 04:00","2019","07","31","04:00","4.9","","3.6","","92","","","","11","","53","","14.5","","100.21","","","","","","Rain"
"-94.97","74.72","RESOLUTE BAY A","2403498","2019-07-31 05:00","2019","07","31","05:00","4.8","","3.7","","93","","","","11","","53","","14.5","","100.22","","","","","","Rain"
"-94.97","74.72","RESOLUTE BAY A","2403498","2019-07-31 06:00","2019","07","31","06:00","5.2","","4.0","","91","","","","12","","42","","14.5","","100.26","","","","","","Rain"
"-94.97","74.72","RESOLUTE BAY A","2403498","2019-07-31 07:00","2019","07","31","07:00","5.5","","4.4","","92","","","","12","","38","","14.5","","100.29","","","","","","Rain"
"-94.97","74.72","RESOLUTE BAY A","2403498","2019-07-31 08:00","2019","07","31","08:00","5.9","","5.0","","94","","","","11","","34","","14.5","","100.32","","","","","","Rain"
"-94.97","74.72","RESOLUTE BAY A","2403498","2019-07-31 09:00","2019","07","31","09:00","5.5","","4.2","","91","","","","11","","38","","19.3","","100.32","","","","","","Rain"
"-94.97","74.72","RESOLUTE BAY A","2403498","2019-07-31 10:00","2019","07","31","10:00","5.7","","4.7","","93","","","","11","","36","","9.7","","100.26","","","","","","Rain"
"-94.97","74.72","RESOLUTE BAY A","2403498","2019-07-31 11:00","2019","07","31","11:00","6.5","","5.0","","90","","","","11","","37","","14.5","","100.32","","","","","","Rain"
"-94.97","74.72","RESOLUTE BAY A","2403498","2019-07-31 12:00","2019","07","31","12:00","5.4","","4.0","","91","","","","11","","40","","11.3","","100.35","","","","","","Rain"
"-94.97","74.72","RESOLUTE BAY A","2403498","2019-07-31 13:00","2019","07","31","13:00","5.1","","4.1","","93","","","","11","","40","","14.5","","100.38","","","","","","Rain"
"-94.97","74.72","RESOLUTE BAY A","2403498","2019-07-31 14:00","2019","07","31","14:00","5.8","","4.3","","90","","","","10","","49","","8.1","","100.34","","","","","","Rain"
"-94.97","74.72","RESOLUTE BAY A","2403498","2019-07-31 15:00","2019","07","31","15:00","5.9","","4.0","","87","","","","11","","52","","12.9","","100.30","","","","","","Rain"
"-94.97","74.72","RESOLUTE BAY A","2403498","2019-07-31 16:00","2019","07","31","16:00","6.3","","4.1","","86","","","","11","","49","","12.9","","100.29","","","","","","Rain"
"-94.97","74.72","RESOLUTE BAY A","2403498","2019-07-31 17:00","2019","07","31","17:00","6.8","","4.0","","82","","","","10","","51","","11.3","","100.25","","","","","","Rain"
"-94.97","74.72","RESOLUTE BAY A","2403498","2019-07-31 18:00","2019","07","31","18:00","6.7","","4.0","","83","","","","10","","49","","19.3","","100.22","","","","","","Mostly Cloudy"
"-94.97","74.72","RESOLUTE BAY A","2403498","2019-07-31 19:00","2019","07","31","19:00","6.7","","3.9","","82","","","","11","","46","","16.1","","100.16","","","","","","NA"
"-94.97","74.72","RESOLUTE BAY A","2403498","2019-07-31 20:00","2019","07","31","20:00","6.2","","3.7","","84","","","","10","","39","","16.1","","100.13","","","","","","NA"
"-94.97","74.72","RESOLUTE BAY A","2403498","2019-07-31 21:00","2019","07","31","21:00","5.4","","2.9","","84","","","","9","","34","","24.1","","100.07","","","","","","Cloudy"
"-94.97","74.72","RESOLUTE BAY A","2403498","2019-07-31 22:00","2019","07","31","22:00","5.7","","3.4","","85","","","","10","","49","","14.5","","100.01","","","","","","Rain"
"-94.97","74.72","RESOLUTE BAY A","2403498","2019-07-31 23:00","2019","07","31","23:00","5.3","","3.7","","89","","","","10","","39","","14.5","","99.96","","","","","","Rain"
