"Longitude (x)","Latitude (y)","Station Name","Climate ID","Date/Time (LST)","Year","Month","Day","Time (LST)","Temp (°C)","Temp Flag","Dew Point Temp (°C)","Dew Point Temp Flag","Rel Hum (%)","Rel Hum Flag","Precip. Amount (mm)","Precip. Amount Flag","Wind Dir (10s deg)","Wind Dir Flag","Wind Spd (km/h)","Wind Spd Flag","Visibility (km)","Visibility Flag","Stn Press (kPa)","Stn Press Flag","Hmdx","Hmdx Flag","Wind Chill","Wind Chill Flag","Weather"
"-79.25","42.87","PORT COLBORNE (AUT)","613F606","2020-02-01 00:00","2020","02","01","00:00","-0.9","","-4.0","","80","","","","4","","4","","","","99.71","","","","-2","","NA"
"-79.25","42.87","PORT COLBORNE (AUT)","613F606","2020-02-01 01:00","2020","02","01","01:00","-1.0","","-4.0","","80","","","","6","","3","","","","99.67","","","","-2","","NA"
"-79.25","42.87","PORT COLBORNE (AUT)","613F606","2020-02-01 02:00","2020","02","01","02:00","-1.0","","-3.5","","83","","","","30","","4","","","","99.64","","","","-2","","NA"
"-79.25","42.87","PORT COLBORNE (AUT)","613F606","2020-02-01 03:00","2020","02","01","03:00","-1.1","","-3.5","","84","","","","34","","3","","","","99.59","","","","-2","","NA"
"-79.25","42.87","PORT COLBORNE (AUT)","613F606","2020-02-01 04:00","2020","02","01","04:00","-1.3","","-3.4","","85","","","","34","","7","","","","99.54","","","","-4","","NA"
"-79.25","42.87","PORT COLBORNE (AUT)","613F606","2020-02-01 05:00","2020","02","01","05:00","-1.3","","-3.7","","84","","","","34","","8","","","","99.50","","","","-4","","NA"
"-79.25","42.87","PORT COLBORNE (AUT)","613F606","2020-02-01 06:00","2020","02","01","06:00","-1.3","","-3.8","","83","","","","36","","4","","","","99.46","","","","-3","","NA"
"-79.25","42.87","PORT COLBORNE (AUT)","613F606","2020-02-01 07:00","2020","02","01","07:00","-1.3","","-3.9","","82","","","","31","","1","","","","99.46","","","","-2","","NA"
"-79.25","42.87","PORT COLBORNE (AUT)","613F606","2020-02-01 08:00","2020","02","01","08:00","-1.2","","-4.3","","79","","","","23","","4","","","","99.42","","","","-3","","NA"
"-79.25","42.87","PORT COLBORNE (AUT)","613F606","2020-02-01 09:00","2020","02","01","09:00","-0.9","","-3.9","","80","","","","0","","1","","","","99.38","","","","-1","","NA"
"-79.25","42.87","PORT COLBORNE (AUT)","613F606","2020-02-01 10:00","2020","02","01","10:00","-0.7","","-3.7","","80","","","","21","","3","","","","99.30","","","","-2","","NA"
"-79.25","42.87","PORT COLBORNE (AUT)","613F606","2020-02-01 11:00","2020","02","01","11:00","-0.5","","-4.1","","76","","","","25","","3","","","","99.26","","","","-1","","NA"
"-79.25","42.87","PORT COLBORNE (AUT)","613F606","2020-02-01 12:00","2020","02","01","12:00","-0.4","","-5.2","","70","","","","27","","5","","","","99.15","","","","-2","","NA"
"-79.25","42.87","PORT COLBORNE (AUT)","613F606","2020-02-01 13:00","2020","02","01","13:00","-0.4","","-4.8","","72","","","","24","","5","","","","99.03","","","","-2","","NA"
"-79.25","42.87","PORT COLBORNE (AUT)","613F606","2020-02-01 14:00","2020","02","01","14:00","-0.4","","-5.0","","71","","","","21","","9","","","","98.87","","","","-4","","NA"
"-79.25","42.87","PORT COLBORNE (AUT)","613F606","2020-02-01 15:00","2020","02","01","15:00","-0.3","","-5.3","","69","","","","22","","10","","","","98.78","","","","-4","","NA"
"-79.25","42.87","PORT COLBORNE (AUT)","613F606","2020-02-01 16:00","2020","02","01","16:00","-0.4","","-5.2","","70","","","","21","","13","","","","98.69","","","","-5","","NA"
"-79.25","42.87","PORT COLBORNE (AUT)","613F606","2020-02-01 17:00","2020","02","01","17:00","-0.5","","-4.4","","74","","","","23","","14","","","","98.61","","","","-5","","NA"
"-79.25","42.87","PORT COLBORNE (AUT)","613F606","2020-02-01 18:00","2020","02","01","18:00","-1.2","","-3.5","","84","","","","25","","16","","","","98.60","","","","-6","","NA"
"-79.25","42.87","PORT COLBORNE (AUT)","613F606","2020-02-01 19:00","2020","02","01","19:00","-1.4","","-2.5","","92","","","","25","","11","","","","98.59","","","","-5","","NA"
"-79.25","42.87","PORT COLBORNE (AUT)","613F606","2020-02-01 20:00","2020","02","01","20:00","-1.0","","-1.8","","94","","","","23","","17","","","","98.52","","","","-6","","NA"
"-79.25","42.87","PORT COLBORNE (AUT)","613F606","2020-02-01 21:00","2020","02","01","21:00","-0.5","","-1.3","","95","","","","24","","23","","","","98.44","","","","-6","","NA"
"-79.25","42.87","PORT COLBORNE (AUT)","613F606","2020-02-01 22:00","2020","02","01","22:00","-0.4","","-1.5","","92","","","","23","","31","","","","98.37","","","","-7","","NA"
"-79.25","42.87","PORT COLBORNE (AUT)","613F606","2020-02-01 23:00","2020","02","01","23:00","-0.2","","-1.4","","92","","","","23","","31","","","","98.29","","","","-7","","NA"
"-79.25","42.87","PORT COLBORNE (AUT)","613F606","2020-02-02 00:00","2020","02","02","00:00","0.2","","-0.9","","92","","","","23","","26","","","","98.21","","","","","","NA"
"-79.25","42.87","PORT COLBORNE (AUT)","613F606","2020-02-02 01:00","2020","02","02","01:00","0.8","","-0.2","","93","","","","23","","21","","","","98.11","","","","","","NA"
"-79.25","42.87","PORT COLBORNE (AUT)","613F606","2020-02-02 02:00","2020","02","02","02:00","1.0","","-0.5","","90","","","","27","","29","","","","98.08","","","","","","NA"
"-79.25","42.87","PORT COLBORNE (AUT)","613F606","2020-02-02 03:00","2020","02","02","03:00","1.1","","-0.5","","89","","","","28","","23","","","","98.07","","","","","","NA"
"-79.25","42.87","PORT COLBORNE (AUT)","613F606","2020-02-02 04:00","2020","02","02","04:00","1.2","","-0.8","","86","","","","27","","32","","","","98.04","","","","","","NA"
"-79.25","42.87","PORT COLBORNE (AUT)","613F606","2020-02-02 05:00","2020","02","02","05:00","1.1","","-1.2","","85","","","","27","","34","","","","98.00","","","","","","NA"
"-79.25","42.87","PORT COLBORNE (AUT)","613F606","2020-02-02 06:00","2020","02","02","06:00","0.8","","-1.9","","82","","","","27","","26","","","","97.99","","","","","","NA"
"-79.25","42.87","PORT COLBORNE (AUT)","613F606","2020-02-02 07:00","2020","02","02","07:00","0.8","","-1.7","","83","","","","27","","28","","","","97.97","","","","","","NA"
"-79.25","42.87","PORT COLBORNE (AUT)","613F606","2020-02-02 08:00","2020","02","02","08:00","1.3","","-1.1","","84","","","","25","","30","","","","97.88","","","","","","NA"
"-79.25","42.87","PORT COLBORNE (AUT)","613F606","2020-02-02 09:00","2020","02","02","09:00","0.6","","-0.3","","94","","","","24","","33","","","","97.81","","","","","","NA"
"-79.25","42.87","PORT COLBORNE (AUT)","613F606","2020-02-02 10:00","2020","02","02","10:00","0.3","","-0.4","","95","","","","22","","35","","","","97.69","","","","","","NA"
"-79.25","42.87","PORT COLBORNE (AUT)","613F606","2020-02-02 11:00","2020","02","02","11:00","0.1","","-0.5","","96","","","","21","","33","","","","97.60","","","","","","NA"
"-79.25","42.87","PORT COLBORNE (AUT)","613F606","2020-02-02 12:00","2020","02","02","12:00","0.2","","-0.3","","96","","","","21","","26","","","","97.47","","","","","","NA"
"-79.25","42.87","PORT COLBORNE (AUT)","613F606","2020-02-02 13:00","2020","02","02","13:00","0.4","","-0.1","","96","","","","20","","26","","","","97.31","","","","","","NA"
"-79.25","42.87","PORT COLBORNE (AUT)","613F606","2020-02-02 14:00","2020","02","02","14:00","0.8","","0.3","","96","","","","19","","24","","","","97.25","","","","","","NA"
"-79.25","42.87","PORT COLBORNE (AUT)","613F606","2020-02-02 15:00","2020","02","02","15:00","1.2","","0.6","","96","","","","17","","17","","","","97.22","","","","","","NA"
"-79.25","42.87","PORT COLBORNE (AUT)","613F606","2020-02-02 16:00","2020","02","02","16:00","1.8","","1.2","","96","","","","25","","19","","","","97.25","","","","","","NA"
"-79.25","42.87","PORT COLBORNE (AUT)","613F606","2020-02-02 17:00","2020","02","02","17:00","1.6","","0.4","","92","","","","28","","21","","","","97.38","","","","","","NA"
"-79.25","42.87","PORT COLBORNE (AUT)","613F606","2020-02-02 18:00","2020","02","02","18:00","1.6","","0.3","","91","","","","28","","19","","","","97.49","","","","","","NA"
"-79.25","42.87","PORT COLBORNE (AUT)","613F606","2020-02-02 19:00","2020","02","02","19:00","1.6","","0.2","","91","","","","28","","20","","","","97.59","","","","","","NA"
"-79.25","42.87","PORT COLBORNE (AUT)","613F606","2020-02-02 20:00","2020","02","02","20:00","1.8","","0.7","","93","","","","27","","18","","","","97.66","","","","","","NA"
"-79.25","42.87","PORT COLBORNE (AUT)","613F606","2020-02-02 21:00","2020","02","02","21:00","1.9","","0.8","","92","","","","27","","17","","","","97.72","","","","","","NA"
"-79.25","42.87","PORT COLBORNE (AUT)","613F606","2020-02-02 22:00","2020","02","02","22:00","1.9","","0.9","","93","","","","28","","17","","","","97.80","","","","","","NA"
"-79.25","42.87","PORT COLBORNE (AUT)","613F606","2020-02-02 23:00","2020","02","02","23:00","2.0","","0.8","","92","","","","27","","27","","","","97.93","","","","","","NA"
"-79.25","42.87","PORT COLBORNE (AUT)","613F606","2020-02-03 00:00","2020","02","03","00:00","2.4","","0.8","","89","","","","28","","25","","","","98.00","","","","","","NA"
"-79.25","42.87","PORT COLBORNE (AUT)","613F606","2020-02-03 01:00","2020","02","03","01:00","2.6","","0.9","","88","","","","26","","27","","","","98.08","","","","","","NA"
"-79.25","42.87","PORT COLBORNE (AUT)","613F606","2020-02-03 02:00","2020","02","03","02:00","3.0","","0.9","","86","","","","27","","32","","","","98.18","","","","","","NA"
"-79.25","42.87","PORT COLBORNE (AUT)","613F606","2020-02-03 03:00","2020","02","03","03:00","3.2","","0.5","","82","","","","26","","33","","","","98.28","","","","","","NA"
"-79.25","42.87","PORT COLBORNE (AUT)","613F606","2020-02-03 04:00","2020","02","03","04:00","3.2","","0.4","","82","","","","25","","33","","","","98.41","","","","","","NA"
"-79.25","42.87","PORT COLBORNE (AUT)","613F606","2020-02-03 05:00","2020","02","03","05:00","3.2","","0.3","","81","","","","26","","31","","","","98.54","","","","","","NA"
"-79.25","42.87","PORT COLBORNE (AUT)","613F606","2020-02-03 06:00","2020","02","03","06:00","2.9","","0.1","","82","","","","26","","29","","","","98.67","","","","","","NA"
"-79.25","42.87","PORT COLBORNE (AUT)","613F606","2020-02-03 07:00","2020","02","03","07:00","2.6","","0.0","","83","","","","27","","25","","","","98.78","","","","","","NA"
"-79.25","42.87","PORT COLBORNE (AUT)","613F606","2020-02-03 08:00","2020","02","03","08:00","2.7","","-0.3","","81","","","","26","","29","","","","98.83","","","","","","NA"
"-79.25","42.87","PORT COLBORNE (AUT)","613F606","2020-02-03 09:00","2020","02","03","09:00","2.5","","0.1","","84","","","","28","","15","","","","98.90","","","","","","NA"
"-79.25","42.87","PORT COLBORNE (AUT)","613F606","2020-02-03 10:00","2020","02","03","10:00","2.4","","0.2","","85","","","","26","","21","","","","98.90","","","","","","NA"
"-79.25","42.87","PORT COLBORNE (AUT)","613F606","2020-02-03 11:00","2020","02","03","11:00","2.4","","0.3","","86","","","","25","","23","","","","98.97","","","","","","NA"
"-79.25","42.87","PORT COLBORNE (AUT)","613F606","2020-02-03 12:00","2020","02","03","12:00","2.3","","0.2","","86","","","","26","","18","","","","98.92","","","","","","NA"
"-79.25","42.87","PORT COLBORNE (AUT)","613F606","2020-02-03 13:00","2020","02","03","13:00","2.6","","-0.4","","81","","","","25","","19","","","","98.83","","","","","","NA"
"-79.25","42.87","PORT COLBORNE (AUT)","613F606","2020-02-03 14:00","2020","02","03","14:00","2.5","","-0.4","","81","","","","26","","18","","","","98.78","","","","","","NA"
"-79.25","42.87","PORT COLBORNE (AUT)","613F606","2020-02-03 15:00","2020","02","03","15:00","3.3","","0.2","","80","","","","28","","14","","","","98.76","","","","","","NA"
"-79.25","42.87","PORT COLBORNE (AUT)","613F606","2020-02-03 16:00","2020","02","03","16:00","5.7","","-0.3","","65","","","","2","","9","","","","98.78","","","","","","NA"
"-79.25","42.87","PORT COLBORNE (AUT)","613F606","2020-02-03 17:00","2020","02","03","17:00","2.5","","0.9","","89","","","","15","","9","","","","98.81","","","","","","NA"
"-79.25","42.87","PORT COLBORNE (AUT)","613F606","2020-02-03 18:00","2020","02","03","18:00","2.9","","-0.7","","77","","","","12","","12","","","","98.82","","","","","","NA"
"-79.25","42.87","PORT COLBORNE (AUT)","613F606","2020-02-03 19:00","2020","02","03","19:00","2.9","","-0.3","","79","","","","5","","13","","","","98.81","","","","","","NA"
"-79.25","42.87","PORT COLBORNE (AUT)","613F606","2020-02-03 20:00","2020","02","03","20:00","2.6","","-0.9","","77","","","","6","","17","","","","98.76","","","","","","NA"
"-79.25","42.87","PORT COLBORNE (AUT)","613F606","2020-02-03 21:00","2020","02","03","21:00","3.0","","-1.2","","74","","","","7","","18","","","","98.68","","","","","","NA"
"-79.25","42.87","PORT COLBORNE (AUT)","613F606","2020-02-03 22:00","2020","02","03","22:00","2.7","","-1.1","","76","","","","5","","16","","","","98.62","","","","","","NA"
"-79.25","42.87","PORT COLBORNE (AUT)","613F606","2020-02-03 23:00","2020","02","03","23:00","2.5","","-1.0","","77","","","","4","","17","","","","98.51","","","","","","NA"
"-79.25","42.87","PORT COLBORNE (AUT)","613F606","2020-02-04 00:00","2020","02","04","00:00","2.4","","-0.9","","79","","","","5","","19","","","","98.43","","","","","","NA"
"-79.25","42.87","PORT COLBORNE (AUT)","613F606","2020-02-04 01:00","2020","02","04","01:00","2.2","","-0.8","","81","","","","4","","14","","","","98.44","","","","","","NA"
"-79.25","42.87","PORT COLBORNE (AUT)","613F606","2020-02-04 02:00","2020","02","04","02:00","2.1","","-0.8","","81","","","","3","","15","","","","98.38","","","","","","NA"
"-79.25","42.87","PORT COLBORNE (AUT)","613F606","2020-02-04 03:00","2020","02","04","03:00","1.4","","-1.3","","82","","","","1","","16","","","","98.41","","","","","","NA"
"-79.25","42.87","PORT COLBORNE (AUT)","613F606","2020-02-04 04:00","2020","02","04","04:00","1.4","","-1.4","","82","","","","1","","18","","","","98.40","","","","","","NA"
"-79.25","42.87","PORT COLBORNE (AUT)","613F606","2020-02-04 05:00","2020","02","04","05:00","1.7","","-1.1","","81","","","","2","","16","","","","98.43","","","","","","NA"
"-79.25","42.87","PORT COLBORNE (AUT)","613F606","2020-02-04 06:00","2020","02","04","06:00","2.0","","0.5","","90","","","","2","","26","","","","98.51","","","","","","NA"
"-79.25","42.87","PORT COLBORNE (AUT)","613F606","2020-02-04 07:00","2020","02","04","07:00","1.9","","-0.5","","84","","","","2","","21","","","","98.68","","","","","","NA"
"-79.25","42.87","PORT COLBORNE (AUT)","613F606","2020-02-04 08:00","2020","02","04","08:00","1.9","","-1.3","","79","","","","3","","14","","","","98.80","","","","","","NA"
"-79.25","42.87","PORT COLBORNE (AUT)","613F606","2020-02-04 09:00","2020","02","04","09:00","2.0","","-2.4","","73","","","","1","","14","","","","98.88","","","","","","NA"
"-79.25","42.87","PORT COLBORNE (AUT)","613F606","2020-02-04 10:00","2020","02","04","10:00","2.0","","-2.6","","72","","","","1","","15","","","","98.95","","","","","","NA"
"-79.25","42.87","PORT COLBORNE (AUT)","613F606","2020-02-04 11:00","2020","02","04","11:00","1.6","","-3.4","","69","","","","1","","18","","","","98.98","","","","","","NA"
"-79.25","42.87","PORT COLBORNE (AUT)","613F606","2020-02-04 12:00","2020","02","04","12:00","1.5","","-4.0","","67","","","","1","","20","","","","98.96","","","","","","NA"
"-79.25","42.87","PORT COLBORNE (AUT)","613F606","2020-02-04 13:00","2020","02","04","13:00","1.7","","-4.0","","66","","","","1","","19","","","","98.96","","","","","","NA"
"-79.25","42.87","PORT COLBORNE (AUT)","613F606","2020-02-04 14:00","2020","02","04","14:00","1.7","","-3.9","","66","","","","1","","11","","","","98.94","","","","","","NA"
"-79.25","42.87","PORT COLBORNE (AUT)","613F606","2020-02-04 15:00","2020","02","04","15:00","1.7","","-3.5","","68","","","","1","","10","","","","98.98","","","","","","NA"
"-79.25","42.87","PORT COLBORNE (AUT)","613F606","2020-02-04 16:00","2020","02","04","16:00","1.9","","-2.8","","71","","","","1","","11","","","","99.04","","","","","","NA"
"-79.25","42.87","PORT COLBORNE (AUT)","613F606","2020-02-04 17:00","2020","02","04","17:00","1.8","","-2.3","","74","","","","35","","7","","","","99.09","","","","","","NA"
"-79.25","42.87","PORT COLBORNE (AUT)","613F606","2020-02-04 18:00","2020","02","04","18:00","1.7","","-2.2","","75","","","","32","","5","","","","99.19","","","","","","NA"
"-79.25","42.87","PORT COLBORNE (AUT)","613F606","2020-02-04 19:00","2020","02","04","19:00","1.5","","-1.8","","78","","","","0","","1","","","","99.22","","","","","","NA"
"-79.25","42.87","PORT COLBORNE (AUT)","613F606","2020-02-04 20:00","2020","02","04","20:00","1.3","","-4.3","","66","","","","1","","11","","","","99.31","","","","","","NA"
"-79.25","42.87","PORT COLBORNE (AUT)","613F606","2020-02-04 21:00","2020","02","04","21:00","0.8","","-5.2","","64","","","","1","","14","","","","99.30","","","","","","NA"
"-79.25","42.87","PORT COLBORNE (AUT)","613F606","2020-02-04 22:00","2020","02","04","22:00","0.3","","-5.5","","65","","","","36","","19","","","","99.41","","","","","","NA"
"-79.25","42.87","PORT COLBORNE (AUT)","613F606","2020-02-04 23:00","2020","02","04","23:00","-0.5","","-6.2","","65","","","","1","","19","","","","99.43","","","","-6","","NA"
"-79.25","42.87","PORT COLBORNE (AUT)","613F606","2020-02-05 00:00","2020","02","05","00:00","-1.5","","-7.0","","66","","","","36","","25","","","","99.48","","","","-8","","NA"
"-79.25","42.87","PORT COLBORNE (AUT)","613F606","2020-02-05 01:00","2020","02","05","01:00","-1.8","","-7.7","","64","","","","1","","22","","","","99.47","","","","-8","","NA"
"-79.25","42.87","PORT COLBORNE (AUT)","613F606","2020-02-05 02:00","2020","02","05","02:00","-2.6","","-8.5","","64","","","","36","","24","","","","99.57","","","","-9","","NA"
"-79.25","42.87","PORT COLBORNE (AUT)","613F606","2020-02-05 03:00","2020","02","05","03:00","-3.5","","-10.9","","56","","","","1","","30","","","","99.66","","","","-11","","NA"
"-79.25","42.87","PORT COLBORNE (AUT)","613F606","2020-02-05 04:00","2020","02","05","04:00","-4.3","","-11.1","","59","","","","36","","24","","","","99.74","","","","-11","","NA"
"-79.25","42.87","PORT COLBORNE (AUT)","613F606","2020-02-05 05:00","2020","02","05","05:00","-4.2","","-10.7","","61","","","","1","","21","","","","99.82","","","","-11","","NA"
"-79.25","42.87","PORT COLBORNE (AUT)","613F606","2020-02-05 06:00","2020","02","05","06:00","-4.4","","-10.7","","61","","","","2","","19","","","","99.83","","","","-11","","NA"
"-79.25","42.87","PORT COLBORNE (AUT)","613F606","2020-02-05 07:00","2020","02","05","07:00","-4.4","","-9.8","","66","","","","1","","18","","","","99.92","","","","-10","","NA"
"-79.25","42.87","PORT COLBORNE (AUT)","613F606","2020-02-05 08:00","2020","02","05","08:00","-4.3","","-9.3","","68","","","","2","","15","","","","99.95","","","","-10","","NA"
"-79.25","42.87","PORT COLBORNE (AUT)","613F606","2020-02-05 09:00","2020","02","05","09:00","-4.6","","-10.2","","65","","","","3","","18","","","","99.98","","","","-11","","NA"
"-79.25","42.87","PORT COLBORNE (AUT)","613F606","2020-02-05 10:00","2020","02","05","10:00","-4.6","","-10.5","","63","","","","6","","16","","","","99.94","","","","-10","","NA"
"-79.25","42.87","PORT COLBORNE (AUT)","613F606","2020-02-05 11:00","2020","02","05","11:00","-4.2","","-10.1","","64","","","","2","","13","","","","100.00","","","","-9","","NA"
"-79.25","42.87","PORT COLBORNE (AUT)","613F606","2020-02-05 12:00","2020","02","05","12:00","-4.0","","-9.4","","66","","","","4","","11","","","","99.99","","","","-8","","NA"
"-79.25","42.87","PORT COLBORNE (AUT)","613F606","2020-02-05 13:00","2020","02","05","13:00","-3.7","","-9.8","","63","","","","4","","13","","","","99.86","","","","-9","","NA"
"-79.25","42.87","PORT COLBORNE (AUT)","613F606","2020-02-05 14:00","2020","02","05","14:00","-3.2","","-10.1","","59","","","","5","","14","","","","99.72","","","","-8","","NA"
"-79.25","42.87","PORT COLBORNE (AUT)","613F606","2020-02-05 15:00","2020","02","05","15:00","-2.7","","-9.2","","61","","","","5","","9","","","","99.68","","","","-6","","NA"
"-79.25","42.87","PORT COLBORNE (AUT)","613F606","2020-02-05 16:00","2020","02","05","16:00","-2.7","","-8.8","","63","","","","4","","15","","","","99.65","","","","-8","","NA"
"-79.25","42.87","PORT COLBORNE (AUT)","613F606","2020-02-05 17:00","2020","02","05","17:00","-2.9","","-8.8","","64","","","","4","","22","","","","99.51","","","","-9","","NA"
"-79.25","42.87","PORT COLBORNE (AUT)","613F606","2020-02-05 18:00","2020","02","05","18:00","-3.2","","-8.2","","68","","","","4","","21","","","","99.47","","","","-9","","NA"
"-79.25","42.87","PORT COLBORNE (AUT)","613F606","2020-02-05 19:00","2020","02","05","19:00","-3.6","","-8.0","","72","","","","5","","21","","","","99.41","","","","-10","","NA"
"-79.25","42.87","PORT COLBORNE (AUT)","613F606","2020-02-05 20:00","2020","02","05","20:00","-3.7","","-7.7","","74","","","","4","","23","","","","99.30","","","","-10","","NA"
"-79.25","42.87","PORT COLBORNE (AUT)","613F606","2020-02-05 21:00","2020","02","05","21:00","-3.4","","-8.0","","70","","","","5","","22","","","","99.18","","","","-10","","NA"
"-79.25","42.87","PORT COLBORNE (AUT)","613F606","2020-02-05 22:00","2020","02","05","22:00","-3.6","","-7.6","","73","","","","6","","23","","","","99.03","","","","-10","","NA"
"-79.25","42.87","PORT COLBORNE (AUT)","613F606","2020-02-05 23:00","2020","02","05","23:00","-4.0","","-5.7","","89","","","","7","","18","","","","98.90","","","","-10","","NA"
"-79.25","42.87","PORT COLBORNE (AUT)","613F606","2020-02-06 00:00","2020","02","06","00:00","-3.8","","-4.8","","93","","","","7","","18","","","","98.77","","","","-10","","NA"
"-79.25","42.87","PORT COLBORNE (AUT)","613F606","2020-02-06 01:00","2020","02","06","01:00","-4.0","","-4.8","","94","","","","5","","23","","","","98.56","","","","-11","","NA"
"-79.25","42.87","PORT COLBORNE (AUT)","613F606","2020-02-06 02:00","2020","02","06","02:00","-4.1","","-5.0","","94","","","","4","","27","","","","98.52","","","","-11","","NA"
"-79.25","42.87","PORT COLBORNE (AUT)","613F606","2020-02-06 03:00","2020","02","06","03:00","-4.1","","-5.1","","93","","","","4","","27","","","","98.43","","","","-11","","NA"
"-79.25","42.87","PORT COLBORNE (AUT)","613F606","2020-02-06 04:00","2020","02","06","04:00","-4.2","","-5.3","","93","","","","5","","26","","","","98.36","","","","-11","","NA"
"-79.25","42.87","PORT COLBORNE (AUT)","613F606","2020-02-06 05:00","2020","02","06","05:00","-4.2","","-5.4","","92","","","","6","","25","","","","98.21","","","","-11","","NA"
"-79.25","42.87","PORT COLBORNE (AUT)","613F606","2020-02-06 06:00","2020","02","06","06:00","-4.1","","-5.2","","92","","","","6","","24","","","","98.20","","","","-11","","NA"
"-79.25","42.87","PORT COLBORNE (AUT)","613F606","2020-02-06 07:00","2020","02","06","07:00","-3.8","","-4.8","","93","","","","6","","23","","","","98.09","","","","-11","","NA"
"-79.25","42.87","PORT COLBORNE (AUT)","613F606","2020-02-06 08:00","2020","02","06","08:00","-3.3","","-4.4","","92","","","","5","","21","","","","98.10","","","","-10","","NA"
"-79.25","42.87","PORT COLBORNE (AUT)","613F606","2020-02-06 09:00","2020","02","06","09:00","-3.1","","-4.3","","92","","","","4","","20","","","","97.95","","","","-9","","NA"
"-79.25","42.87","PORT COLBORNE (AUT)","613F606","2020-02-06 10:00","2020","02","06","10:00","-2.7","","-4.0","","91","","","","5","","22","","","","97.87","","","","-9","","NA"
"-79.25","42.87","PORT COLBORNE (AUT)","613F606","2020-02-06 11:00","2020","02","06","11:00","-2.3","","-3.5","","91","","","","3","","22","","","","97.98","","","","-8","","NA"
"-79.25","42.87","PORT COLBORNE (AUT)","613F606","2020-02-06 12:00","2020","02","06","12:00","-1.6","","-3.0","","91","","","","3","","21","","","","97.90","","","","-7","","NA"
"-79.25","42.87","PORT COLBORNE (AUT)","613F606","2020-02-06 13:00","2020","02","06","13:00","-1.8","","-2.8","","93","","","","4","","21","","","","97.85","","","","-8","","NA"
"-79.25","42.87","PORT COLBORNE (AUT)","613F606","2020-02-06 14:00","2020","02","06","14:00","-1.9","","-3.2","","91","","","","4","","19","","","","97.65","","","","-7","","NA"
"-79.25","42.87","PORT COLBORNE (AUT)","613F606","2020-02-06 15:00","2020","02","06","15:00","-2.0","","-3.4","","90","","","","5","","15","","","","97.55","","","","-7","","NA"
"-79.25","42.87","PORT COLBORNE (AUT)","613F606","2020-02-06 16:00","2020","02","06","16:00","-2.1","","-3.5","","90","","","","3","","15","","","","97.57","","","","-7","","NA"
"-79.25","42.87","PORT COLBORNE (AUT)","613F606","2020-02-06 17:00","2020","02","06","17:00","-2.7","","-3.9","","91","","","","4","","20","","","","97.52","","","","-9","","NA"
"-79.25","42.87","PORT COLBORNE (AUT)","613F606","2020-02-06 18:00","2020","02","06","18:00","-3.0","","-3.8","","94","","","","5","","20","","","","97.43","","","","-9","","NA"
"-79.25","42.87","PORT COLBORNE (AUT)","613F606","2020-02-06 19:00","2020","02","06","19:00","-2.9","","-3.5","","96","","","","4","","18","","","","97.48","","","","-9","","NA"
"-79.25","42.87","PORT COLBORNE (AUT)","613F606","2020-02-06 20:00","2020","02","06","20:00","-2.8","","-3.5","","96","","","","4","","12","","","","97.50","","","","-7","","NA"
"-79.25","42.87","PORT COLBORNE (AUT)","613F606","2020-02-06 21:00","2020","02","06","21:00","-2.8","","-3.9","","93","","","","3","","13","","","","97.44","","","","-7","","NA"
"-79.25","42.87","PORT COLBORNE (AUT)","613F606","2020-02-06 22:00","2020","02","06","22:00","-2.8","","-3.7","","94","","","","4","","12","","","","97.41","","","","-7","","NA"
"-79.25","42.87","PORT COLBORNE (AUT)","613F606","2020-02-06 23:00","2020","02","06","23:00","-2.9","","-4.3","","91","","","","4","","14","","","","97.30","","","","-8","","NA"
"-79.25","42.87","PORT COLBORNE (AUT)","613F606","2020-02-07 00:00","2020","02","07","00:00","-3.2","","-4.3","","92","","","","3","","10","","","","97.36","","","","-7","","NA"
"-79.25","42.87","PORT COLBORNE (AUT)","613F606","2020-02-07 01:00","2020","02","07","01:00","-3.6","","-4.4","","94","","","","3","","9","","","","97.28","","","","-7","","NA"
"-79.25","42.87","PORT COLBORNE (AUT)","613F606","2020-02-07 02:00","2020","02","07","02:00","-3.7","","-4.6","","93","","","","4","","10","","","","97.19","","","","-8","","NA"
"-79.25","42.87","PORT COLBORNE (AUT)","613F606","2020-02-07 03:00","2020","02","07","03:00","-3.7","","-4.8","","92","","","","3","","10","","","","97.18","","","","-8","","NA"
"-79.25","42.87","PORT COLBORNE (AUT)","613F606","2020-02-07 04:00","2020","02","07","04:00","-3.8","","-4.9","","92","","","","3","","11","","","","97.13","","","","-8","","NA"
"-79.25","42.87","PORT COLBORNE (AUT)","613F606","2020-02-07 05:00","2020","02","07","05:00","-3.8","","-5.1","","91","","","","4","","12","","","","97.03","","","","-8","","NA"
"-79.25","42.87","PORT COLBORNE (AUT)","613F606","2020-02-07 06:00","2020","02","07","06:00","-3.7","","-5.2","","89","","","","5","","11","","","","96.97","","","","-8","","NA"
"-79.25","42.87","PORT COLBORNE (AUT)","613F606","2020-02-07 07:00","2020","02","07","07:00","-3.9","","-5.5","","89","","","","2","","12","","","","96.98","","","","-9","","NA"
"-79.25","42.87","PORT COLBORNE (AUT)","613F606","2020-02-07 08:00","2020","02","07","08:00","-4.0","","-5.3","","91","","","","2","","10","","","","97.04","","","","-8","","NA"
"-79.25","42.87","PORT COLBORNE (AUT)","613F606","2020-02-07 09:00","2020","02","07","09:00","-4.2","","-5.3","","93","","","","1","","9","","","","96.99","","","","-8","","NA"
"-79.25","42.87","PORT COLBORNE (AUT)","613F606","2020-02-07 10:00","2020","02","07","10:00","-3.9","","-5.1","","92","","","","36","","9","","","","97.08","","","","-8","","NA"
"-79.25","42.87","PORT COLBORNE (AUT)","613F606","2020-02-07 11:00","2020","02","07","11:00","-4.1","","-5.2","","92","","","","1","","11","","","","97.14","","","","-9","","NA"
"-79.25","42.87","PORT COLBORNE (AUT)","613F606","2020-02-07 12:00","2020","02","07","12:00","-4.2","","-5.9","","88","","","","35","","14","","","","97.24","","","","-9","","NA"
"-79.25","42.87","PORT COLBORNE (AUT)","613F606","2020-02-07 13:00","2020","02","07","13:00","-4.1","","-5.9","","88","","","","35","","14","","","","97.26","","","","-9","","NA"
"-79.25","42.87","PORT COLBORNE (AUT)","613F606","2020-02-07 14:00","2020","02","07","14:00","-4.4","","-6.3","","86","","","","33","","15","","","","97.38","","","","-10","","NA"
"-79.25","42.87","PORT COLBORNE (AUT)","613F606","2020-02-07 15:00","2020","02","07","15:00","-3.7","","-6.8","","79","","","","33","","13","","","","97.57","","","","-9","","NA"
"-79.25","42.87","PORT COLBORNE (AUT)","613F606","2020-02-07 16:00","2020","02","07","16:00","-3.6","","-6.2","","82","","","","33","","10","","","","97.75","","","","-8","","NA"
"-79.25","42.87","PORT COLBORNE (AUT)","613F606","2020-02-07 17:00","2020","02","07","17:00","-2.9","","-6.0","","79","","","","32","","11","","","","97.92","","","","-7","","NA"
"-79.25","42.87","PORT COLBORNE (AUT)","613F606","2020-02-07 18:00","2020","02","07","18:00","-3.5","","-8.7","","67","","","","31","","16","","","","98.10","","","","-9","","NA"
"-79.25","42.87","PORT COLBORNE (AUT)","613F606","2020-02-07 19:00","2020","02","07","19:00","-4.4","","-10.3","","63","","","","31","","18","","","","98.30","","","","-10","","NA"
"-79.25","42.87","PORT COLBORNE (AUT)","613F606","2020-02-07 20:00","2020","02","07","20:00","-4.5","","-10.0","","65","","","","30","","27","","","","98.48","","","","-12","","NA"
"-79.25","42.87","PORT COLBORNE (AUT)","613F606","2020-02-07 21:00","2020","02","07","21:00","-5.0","","-10.4","","66","","","","30","","28","","","","98.66","","","","-13","","NA"
"-79.25","42.87","PORT COLBORNE (AUT)","613F606","2020-02-07 22:00","2020","02","07","22:00","-5.8","","-11.0","","67","","","","30","","19","","","","98.79","","","","-12","","NA"
"-79.25","42.87","PORT COLBORNE (AUT)","613F606","2020-02-07 23:00","2020","02","07","23:00","-5.8","","-10.8","","68","","","","29","","20","","","","98.87","","","","-13","","NA"
"-79.25","42.87","PORT COLBORNE (AUT)","613F606","2020-02-08 00:00","2020","02","08","00:00","-6.3","","-10.8","","71","","","","30","","23","","","","98.99","","","","-14","","NA"
"-79.25","42.87","PORT COLBORNE (AUT)","613F606","2020-02-08 01:00","2020","02","08","01:00","-6.5","","-10.9","","71","","","","30","","19","","","","99.04","","","","-13","","NA"
"-79.25","42.87","PORT COLBORNE (AUT)","613F606","2020-02-08 02:00","2020","02","08","02:00","-6.0","","-10.6","","70","","","","30","","15","","","","99.10","","","","-12","","NA"
"-79.25","42.87","PORT COLBORNE (AUT)","613F606","2020-02-08 03:00","2020","02","08","03:00","-6.1","","-10.2","","73","","","","32","","9","","","","99.16","","","","-10","","NA"
"-79.25","42.87","PORT COLBORNE (AUT)","613F606","2020-02-08 04:00","2020","02","08","04:00","-5.8","","-8.9","","79","","","","29","","16","","","","99.23","","","","-12","","NA"
"-79.25","42.87","PORT COLBORNE (AUT)","613F606","2020-02-08 05:00","2020","02","08","05:00","-6.6","","-9.1","","83","","","","32","","13","","","","99.34","","","","-12","","NA"
"-79.25","42.87","PORT COLBORNE (AUT)","613F606","2020-02-08 06:00","2020","02","08","06:00","-7.5","","-9.7","","85","","","","36","","14","","","","99.42","","","","-13","","NA"
"-79.25","42.87","PORT COLBORNE (AUT)","613F606","2020-02-08 07:00","2020","02","08","07:00","-7.9","","-9.8","","86","","","","1","","12","","","","99.53","","","","-13","","NA"
"-79.25","42.87","PORT COLBORNE (AUT)","613F606","2020-02-08 08:00","2020","02","08","08:00","-8.3","","-10.6","","84","","","","36","","11","","","","99.64","","","","-14","","NA"
"-79.25","42.87","PORT COLBORNE (AUT)","613F606","2020-02-08 09:00","2020","02","08","09:00","-7.8","","-10.1","","83","","","","3","","16","","","","99.75","","","","-14","","NA"
"-79.25","42.87","PORT COLBORNE (AUT)","613F606","2020-02-08 10:00","2020","02","08","10:00","-7.7","","-10.7","","79","","","","4","","17","","","","99.85","","","","-14","","NA"
"-79.25","42.87","PORT COLBORNE (AUT)","613F606","2020-02-08 11:00","2020","02","08","11:00","-7.2","","-10.6","","77","","","","3","","14","","","","99.93","","","","-13","","NA"
"-79.25","42.87","PORT COLBORNE (AUT)","613F606","2020-02-08 12:00","2020","02","08","12:00","-7.0","","-10.3","","77","","","","5","","12","","","","99.95","","","","-12","","NA"
"-79.25","42.87","PORT COLBORNE (AUT)","613F606","2020-02-08 13:00","2020","02","08","13:00","-6.8","","-10.4","","75","","","","3","","11","","","","99.94","","","","-12","","NA"
"-79.25","42.87","PORT COLBORNE (AUT)","613F606","2020-02-08 14:00","2020","02","08","14:00","-6.6","","-10.1","","76","","","","4","","13","","","","99.93","","","","-12","","NA"
"-79.25","42.87","PORT COLBORNE (AUT)","613F606","2020-02-08 15:00","2020","02","08","15:00","-6.2","","-10.1","","74","","","","4","","12","","","","99.98","","","","-11","","NA"
"-79.25","42.87","PORT COLBORNE (AUT)","613F606","2020-02-08 16:00","2020","02","08","16:00","-5.8","","-10.0","","72","","","","7","","8","","","","100.04","","","","-10","","NA"
"-79.25","42.87","PORT COLBORNE (AUT)","613F606","2020-02-08 17:00","2020","02","08","17:00","-6.3","","-10.5","","72","","","","4","","13","","","","100.12","","","","-12","","NA"
"-79.25","42.87","PORT COLBORNE (AUT)","613F606","2020-02-08 18:00","2020","02","08","18:00","-6.5","","-10.1","","76","","","","6","","14","","","","100.19","","","","-12","","NA"
"-79.25","42.87","PORT COLBORNE (AUT)","613F606","2020-02-08 19:00","2020","02","08","19:00","-6.6","","-9.8","","78","","","","5","","15","","","","100.27","","","","-13","","NA"
"-79.25","42.87","PORT COLBORNE (AUT)","613F606","2020-02-08 20:00","2020","02","08","20:00","-7.3","","-10.3","","79","","","","6","","14","","","","100.28","","","","-13","","NA"
"-79.25","42.87","PORT COLBORNE (AUT)","613F606","2020-02-08 21:00","2020","02","08","21:00","-7.7","","-10.4","","81","","","","7","","13","","","","100.33","","","","-13","","NA"
"-79.25","42.87","PORT COLBORNE (AUT)","613F606","2020-02-08 22:00","2020","02","08","22:00","-7.6","","-10.1","","83","","","","8","","13","","","","100.35","","","","-13","","NA"
"-79.25","42.87","PORT COLBORNE (AUT)","613F606","2020-02-08 23:00","2020","02","08","23:00","-7.7","","-9.8","","84","","","","5","","10","","","","100.34","","","","-13","","NA"
"-79.25","42.87","PORT COLBORNE (AUT)","613F606","2020-02-09 00:00","2020","02","09","00:00","-7.4","","-9.5","","85","","","","4","","12","","","","100.35","","","","-13","","NA"
"-79.25","42.87","PORT COLBORNE (AUT)","613F606","2020-02-09 01:00","2020","02","09","01:00","-7.2","","-9.2","","85","","","","4","","10","","","","100.37","","","","-12","","NA"
"-79.25","42.87","PORT COLBORNE (AUT)","613F606","2020-02-09 02:00","2020","02","09","02:00","-7.2","","-8.9","","87","","","","4","","10","","","","100.41","","","","-12","","NA"
"-79.25","42.87","PORT COLBORNE (AUT)","613F606","2020-02-09 03:00","2020","02","09","03:00","-7.0","","-8.5","","89","","","","4","","11","","","","100.43","","","","-12","","NA"
"-79.25","42.87","PORT COLBORNE (AUT)","613F606","2020-02-09 04:00","2020","02","09","04:00","-6.8","","-8.3","","89","","","","4","","11","","","","100.46","","","","-12","","NA"
"-79.25","42.87","PORT COLBORNE (AUT)","613F606","2020-02-09 05:00","2020","02","09","05:00","-6.7","","-8.1","","89","","","","3","","13","","","","100.51","","","","-12","","NA"
"-79.25","42.87","PORT COLBORNE (AUT)","613F606","2020-02-09 06:00","2020","02","09","06:00","-6.4","","-7.9","","89","","","","3","","16","","","","100.54","","","","-13","","NA"
"-79.25","42.87","PORT COLBORNE (AUT)","613F606","2020-02-09 07:00","2020","02","09","07:00","-5.8","","-7.3","","89","","","","5","","13","","","","100.58","","","","-11","","NA"
"-79.25","42.87","PORT COLBORNE (AUT)","613F606","2020-02-09 08:00","2020","02","09","08:00","-5.0","","-6.2","","91","","","","8","","13","","","","100.60","","","","-10","","NA"
"-79.25","42.87","PORT COLBORNE (AUT)","613F606","2020-02-09 09:00","2020","02","09","09:00","-2.2","","-3.0","","94","","","","10","","6","","","","100.60","","","","-5","","NA"
"-79.25","42.87","PORT COLBORNE (AUT)","613F606","2020-02-09 10:00","2020","02","09","10:00","0.2","","-0.7","","94","","","","23","","28","","","","100.64","","","","","","NA"
"-79.25","42.87","PORT COLBORNE (AUT)","613F606","2020-02-09 11:00","2020","02","09","11:00","0.8","","-2.1","","81","","","","23","","31","","","","100.60","","","","","","NA"
"-79.25","42.87","PORT COLBORNE (AUT)","613F606","2020-02-09 12:00","2020","02","09","12:00","1.0","","-1.9","","81","","","","23","","31","","","","100.64","","","","","","NA"
"-79.25","42.87","PORT COLBORNE (AUT)","613F606","2020-02-09 13:00","2020","02","09","13:00","1.2","","-1.7","","81","","","","23","","34","","","","100.52","","","","","","NA"
"-79.25","42.87","PORT COLBORNE (AUT)","613F606","2020-02-09 14:00","2020","02","09","14:00","1.3","","-1.6","","81","","","","23","","27","","","","100.39","","","","","","NA"
"-79.25","42.87","PORT COLBORNE (AUT)","613F606","2020-02-09 15:00","2020","02","09","15:00","1.4","","-1.6","","80","","","","24","","24","","","","100.35","","","","","","NA"
"-79.25","42.87","PORT COLBORNE (AUT)","613F606","2020-02-09 16:00","2020","02","09","16:00","1.7","","-1.8","","78","","","","23","","21","","","","100.34","","","","","","NA"
"-79.25","42.87","PORT COLBORNE (AUT)","613F606","2020-02-09 17:00","2020","02","09","17:00","1.8","","-1.8","","77","","","","21","","20","","","","100.29","","","","","","NA"
"-79.25","42.87","PORT COLBORNE (AUT)","613F606","2020-02-09 18:00","2020","02","09","18:00","1.8","","-1.1","","81","","","","19","","18","","","","100.15","","","","","","NA"
"-79.25","42.87","PORT COLBORNE (AUT)","613F606","2020-02-09 19:00","2020","02","09","19:00","1.5","","-1.8","","79","","","","21","","35","","","","100.03","","","","","","NA"
"-79.25","42.87","PORT COLBORNE (AUT)","613F606","2020-02-09 20:00","2020","02","09","20:00","0.2","","-0.6","","94","","","","19","","31","","","","99.91","","","","","","NA"
"-79.25","42.87","PORT COLBORNE (AUT)","613F606","2020-02-09 21:00","2020","02","09","21:00","0.3","","-0.3","","96","","","","17","","30","","","","99.75","","","","","","NA"
"-79.25","42.87","PORT COLBORNE (AUT)","613F606","2020-02-09 22:00","2020","02","09","22:00","0.2","","-0.4","","96","","","","17","","27","","","","99.62","","","","","","NA"
"-79.25","42.87","PORT COLBORNE (AUT)","613F606","2020-02-09 23:00","2020","02","09","23:00","0.7","","0.2","","96","","","","18","","29","","","","99.45","","","","","","NA"
"-79.25","42.87","PORT COLBORNE (AUT)","613F606","2020-02-10 00:00","2020","02","10","00:00","1.8","","0.5","","92","","","","21","","34","","","","99.29","","","","","","NA"
"-79.25","42.87","PORT COLBORNE (AUT)","613F606","2020-02-10 01:00","2020","02","10","01:00","2.7","","0.9","","88","","","","21","","38","","","","99.20","","","","","","NA"
"-79.25","42.87","PORT COLBORNE (AUT)","613F606","2020-02-10 02:00","2020","02","10","02:00","3.0","","1.3","","89","","","","21","","36","","","","99.08","","","","","","NA"
"-79.25","42.87","PORT COLBORNE (AUT)","613F606","2020-02-10 03:00","2020","02","10","03:00","3.5","","1.0","","83","","","","22","","42","","","","99.05","","","","","","NA"
"-79.25","42.87","PORT COLBORNE (AUT)","613F606","2020-02-10 04:00","2020","02","10","04:00","3.2","","1.4","","88","","","","24","","39","","","","99.00","","","","","","NA"
"-79.25","42.87","PORT COLBORNE (AUT)","613F606","2020-02-10 05:00","2020","02","10","05:00","2.6","","1.5","","93","","","","24","","31","","","","99.04","","","","","","NA"
"-79.25","42.87","PORT COLBORNE (AUT)","613F606","2020-02-10 06:00","2020","02","10","06:00","2.5","","1.8","","95","","","","26","","37","","","","99.08","","","","","","NA"
"-79.25","42.87","PORT COLBORNE (AUT)","613F606","2020-02-10 07:00","2020","02","10","07:00","2.0","","1.3","","96","","","","28","","27","","","","99.19","","","","","","NA"
"-79.25","42.87","PORT COLBORNE (AUT)","613F606","2020-02-10 08:00","2020","02","10","08:00","1.7","","1.1","","96","","","","27","","22","","","","99.30","","","","","","NA"
"-79.25","42.87","PORT COLBORNE (AUT)","613F606","2020-02-10 09:00","2020","02","10","09:00","1.6","","1.0","","96","","","","27","","17","","","","99.39","","","","","","NA"
"-79.25","42.87","PORT COLBORNE (AUT)","613F606","2020-02-10 10:00","2020","02","10","10:00","1.4","","0.9","","96","","","","27","","16","","","","99.46","","","","","","NA"
"-79.25","42.87","PORT COLBORNE (AUT)","613F606","2020-02-10 11:00","2020","02","10","11:00","1.5","","1.0","","96","","","","27","","18","","","","99.53","","","","","","NA"
"-79.25","42.87","PORT COLBORNE (AUT)","613F606","2020-02-10 12:00","2020","02","10","12:00","2.3","","0.2","","86","","","","30","","21","","","","99.56","","","","","","NA"
"-79.25","42.87","PORT COLBORNE (AUT)","613F606","2020-02-10 13:00","2020","02","10","13:00","2.4","","-1.0","","78","","","","29","","14","","","","99.54","","","","","","NA"
"-79.25","42.87","PORT COLBORNE (AUT)","613F606","2020-02-10 14:00","2020","02","10","14:00","2.9","","-2.8","","66","","","","32","","18","","","","99.53","","","","","","NA"
"-79.25","42.87","PORT COLBORNE (AUT)","613F606","2020-02-10 15:00","2020","02","10","15:00","2.7","","-3.1","","65","","","","28","","14","","","","99.61","","","","","","NA"
"-79.25","42.87","PORT COLBORNE (AUT)","613F606","2020-02-10 16:00","2020","02","10","16:00","1.7","","-1.5","","79","","","","27","","11","","","","99.65","","","","","","NA"
"-79.25","42.87","PORT COLBORNE (AUT)","613F606","2020-02-10 17:00","2020","02","10","17:00","1.8","","-1.2","","81","","","","26","","12","","","","99.64","","","","","","NA"
"-79.25","42.87","PORT COLBORNE (AUT)","613F606","2020-02-10 18:00","2020","02","10","18:00","1.8","","-1.8","","77","","","","34","","3","","","","99.69","","","","","","NA"
"-79.25","42.87","PORT COLBORNE (AUT)","613F606","2020-02-10 19:00","2020","02","10","19:00","1.4","","-3.3","","71","","","","6","","2","","","","99.71","","","","","","NA"
"-79.25","42.87","PORT COLBORNE (AUT)","613F606","2020-02-10 20:00","2020","02","10","20:00","0.8","","-2.3","","80","","","","14","","4","","","","99.67","","","","","","NA"
"-79.25","42.87","PORT COLBORNE (AUT)","613F606","2020-02-10 21:00","2020","02","10","21:00","0.5","","-2.1","","82","","","","11","","2","","","","99.70","","","","","","NA"
"-79.25","42.87","PORT COLBORNE (AUT)","613F606","2020-02-10 22:00","2020","02","10","22:00","0.2","","-1.5","","88","","","","13","","1","","","","99.66","","","","","","NA"
"-79.25","42.87","PORT COLBORNE (AUT)","613F606","2020-02-10 23:00","2020","02","10","23:00","0.1","","-1.4","","89","","","","","","0","","","","99.64","","","","","","NA"
"-79.25","42.87","PORT COLBORNE (AUT)","613F606","2020-02-11 00:00","2020","02","11","00:00","0.2","","-1.9","","86","","","","2","","5","","","","99.59","","","","","","NA"
"-79.25","42.87","PORT COLBORNE (AUT)","613F606","2020-02-11 01:00","2020","02","11","01:00","-0.3","","-2.4","","86","","","","5","","3","","","","99.52","","","","-1","","NA"
"-79.25","42.87","PORT COLBORNE (AUT)","613F606","2020-02-11 02:00","2020","02","11","02:00","0.1","","-2.4","","83","","","","6","","7","","","","99.49","","","","","","NA"
"-79.25","42.87","PORT COLBORNE (AUT)","613F606","2020-02-11 03:00","2020","02","11","03:00","0.1","","-2.1","","85","","","","31","","4","","","","99.51","","","","","","NA"
"-79.25","42.87","PORT COLBORNE (AUT)","613F606","2020-02-11 04:00","2020","02","11","04:00","-0.3","","-2.5","","85","","","","34","","6","","","","99.48","","","","-2","","NA"
"-79.25","42.87","PORT COLBORNE (AUT)","613F606","2020-02-11 05:00","2020","02","11","05:00","-0.4","","-2.8","","84","","","","36","","3","","","","99.43","","","","-1","","NA"
"-79.25","42.87","PORT COLBORNE (AUT)","613F606","2020-02-11 06:00","2020","02","11","06:00","-0.3","","-2.5","","85","","","","29","","11","","","","99.45","","","","-4","","NA"
"-79.25","42.87","PORT COLBORNE (AUT)","613F606","2020-02-11 07:00","2020","02","11","07:00","-0.3","","-2.5","","85","","","","32","","5","","","","99.40","","","","-2","","NA"
"-79.25","42.87","PORT COLBORNE (AUT)","613F606","2020-02-11 08:00","2020","02","11","08:00","0.1","","-2.1","","85","","","","28","","9","","","","99.45","","","","","","NA"
"-79.25","42.87","PORT COLBORNE (AUT)","613F606","2020-02-11 09:00","2020","02","11","09:00","0.3","","-2.6","","81","","","","26","","14","","","","99.42","","","","","","NA"
"-79.25","42.87","PORT COLBORNE (AUT)","613F606","2020-02-11 10:00","2020","02","11","10:00","0.2","","-3.6","","76","","","","27","","18","","","","99.36","","","","","","NA"
"-79.25","42.87","PORT COLBORNE (AUT)","613F606","2020-02-11 11:00","2020","02","11","11:00","0.1","","-3.7","","76","","","","27","","19","","","","99.29","","","","","","NA"
"-79.25","42.87","PORT COLBORNE (AUT)","613F606","2020-02-11 12:00","2020","02","11","12:00","0.0","","-4.1","","74","","","","27","","28","","","","99.28","","","","-6","","NA"
"-79.25","42.87","PORT COLBORNE (AUT)","613F606","2020-02-11 13:00","2020","02","11","13:00","0.1","","-4.6","","71","","","","26","","34","","","","99.18","","","","","","NA"
"-79.25","42.87","PORT COLBORNE (AUT)","613F606","2020-02-11 14:00","2020","02","11","14:00","0.3","","-3.6","","75","","","","26","","35","","","","99.11","","","","","","NA"
"-79.25","42.87","PORT COLBORNE (AUT)","613F606","2020-02-11 15:00","2020","02","11","15:00","0.8","","-2.7","","78","","","","26","","37","","","","99.03","","","","","","NA"
"-79.25","42.87","PORT COLBORNE (AUT)","613F606","2020-02-11 16:00","2020","02","11","16:00","0.4","","-2.8","","80","","","","26","","44","","","","99.10","","","","","","NA"
"-79.25","42.87","PORT COLBORNE (AUT)","613F606","2020-02-11 17:00","2020","02","11","17:00","0.5","","-2.8","","79","","","","25","","43","","","","99.07","","","","","","NA"
"-79.25","42.87","PORT COLBORNE (AUT)","613F606","2020-02-11 18:00","2020","02","11","18:00","0.6","","-3.1","","76","","","","26","","44","","","","99.08","","","","","","NA"
"-79.25","42.87","PORT COLBORNE (AUT)","613F606","2020-02-11 19:00","2020","02","11","19:00","0.8","","-2.1","","81","","","","26","","47","","","","99.19","","","","","","NA"
"-79.25","42.87","PORT COLBORNE (AUT)","613F606","2020-02-11 20:00","2020","02","11","20:00","1.1","","-1.5","","83","","","","27","","47","","","","99.18","","","","","","NA"
"-79.25","42.87","PORT COLBORNE (AUT)","613F606","2020-02-11 21:00","2020","02","11","21:00","1.1","","-2.3","","78","","","","29","","34","","","","99.26","","","","","","NA"
"-79.25","42.87","PORT COLBORNE (AUT)","613F606","2020-02-11 22:00","2020","02","11","22:00","1.2","","-3.6","","70","","","","29","","28","","","","99.39","","","","","","NA"
"-79.25","42.87","PORT COLBORNE (AUT)","613F606","2020-02-11 23:00","2020","02","11","23:00","0.3","","-4.3","","71","","","","29","","27","","","","99.49","","","","","","NA"
"-79.25","42.87","PORT COLBORNE (AUT)","613F606","2020-02-12 00:00","2020","02","12","00:00","-1.0","","-6.6","","66","","","","30","","28","","","","99.57","","","","-8","","NA"
"-79.25","42.87","PORT COLBORNE (AUT)","613F606","2020-02-12 01:00","2020","02","12","01:00","-1.5","","-7.7","","63","","","","30","","27","","","","99.66","","","","-8","","NA"
"-79.25","42.87","PORT COLBORNE (AUT)","613F606","2020-02-12 02:00","2020","02","12","02:00","-1.5","","-7.6","","63","","","","28","","29","","","","99.71","","","","-8","","NA"
"-79.25","42.87","PORT COLBORNE (AUT)","613F606","2020-02-12 03:00","2020","02","12","03:00","-1.9","","-8.2","","62","","","","29","","26","","","","99.79","","","","-8","","NA"
"-79.25","42.87","PORT COLBORNE (AUT)","613F606","2020-02-12 04:00","2020","02","12","04:00","-1.9","","-7.9","","63","","","","29","","22","","","","99.80","","","","-8","","NA"
"-79.25","42.87","PORT COLBORNE (AUT)","613F606","2020-02-12 05:00","2020","02","12","05:00","-1.8","","-7.4","","66","","","","29","","19","","","","99.84","","","","-7","","NA"
"-79.25","42.87","PORT COLBORNE (AUT)","613F606","2020-02-12 06:00","2020","02","12","06:00","-1.6","","-6.8","","67","","","","28","","28","","","","99.87","","","","-8","","NA"
"-79.25","42.87","PORT COLBORNE (AUT)","613F606","2020-02-12 07:00","2020","02","12","07:00","-2.0","","-6.9","","69","","","","31","","11","","","","99.83","","","","-6","","NA"
"-79.25","42.87","PORT COLBORNE (AUT)","613F606","2020-02-12 08:00","2020","02","12","08:00","-1.5","","-6.3","","70","","","","28","","16","","","","99.83","","","","-6","","NA"
"-79.25","42.87","PORT COLBORNE (AUT)","613F606","2020-02-12 09:00","2020","02","12","09:00","-0.6","","-4.9","","73","","","","25","","31","","","","99.82","","","","-7","","NA"
"-79.25","42.87","PORT COLBORNE (AUT)","613F606","2020-02-12 10:00","2020","02","12","10:00","-0.3","","-4.5","","73","","","","25","","32","","","","99.77","","","","-7","","NA"
"-79.25","42.87","PORT COLBORNE (AUT)","613F606","2020-02-12 11:00","2020","02","12","11:00","-0.1","","-4.1","","74","","","","23","","42","","","","99.82","","","","-8","","NA"
"-79.25","42.87","PORT COLBORNE (AUT)","613F606","2020-02-12 12:00","2020","02","12","12:00","-0.2","","-4.6","","72","","","","23","","39","","","","99.81","","","","-8","","NA"
"-79.25","42.87","PORT COLBORNE (AUT)","613F606","2020-02-12 13:00","2020","02","12","13:00","-0.2","","-4.2","","75","","","","24","","35","","","","99.64","","","","-7","","NA"
"-79.25","42.87","PORT COLBORNE (AUT)","613F606","2020-02-12 14:00","2020","02","12","14:00","0.0","","-4.1","","74","","","","25","","33","","","","99.65","","","","-7","","NA"
"-79.25","42.87","PORT COLBORNE (AUT)","613F606","2020-02-12 15:00","2020","02","12","15:00","0.6","","-3.7","","73","","","","24","","27","","","","99.54","","","","","","NA"
"-79.25","42.87","PORT COLBORNE (AUT)","613F606","2020-02-12 16:00","2020","02","12","16:00","1.1","","-3.0","","74","","","","25","","26","","","","99.49","","","","","","NA"
"-79.25","42.87","PORT COLBORNE (AUT)","613F606","2020-02-12 17:00","2020","02","12","17:00","1.1","","-2.9","","75","","","","27","","20","","","","99.36","","","","","","NA"
"-79.25","42.87","PORT COLBORNE (AUT)","613F606","2020-02-12 18:00","2020","02","12","18:00","1.1","","-2.7","","76","","","","26","","16","","","","99.26","","","","","","NA"
"-79.25","42.87","PORT COLBORNE (AUT)","613F606","2020-02-12 19:00","2020","02","12","19:00","1.2","","-2.5","","77","","","","23","","10","","","","99.17","","","","","","NA"
"-79.25","42.87","PORT COLBORNE (AUT)","613F606","2020-02-12 20:00","2020","02","12","20:00","1.1","","-2.0","","80","","","","19","","12","","","","99.04","","","","","","NA"
"-79.25","42.87","PORT COLBORNE (AUT)","613F606","2020-02-12 21:00","2020","02","12","21:00","1.1","","-0.8","","87","","","","19","","11","","","","98.97","","","","","","NA"
"-79.25","42.87","PORT COLBORNE (AUT)","613F606","2020-02-12 22:00","2020","02","12","22:00","1.8","","-1.9","","77","","","","21","","19","","","","98.88","","","","","","NA"
"-79.25","42.87","PORT COLBORNE (AUT)","613F606","2020-02-12 23:00","2020","02","12","23:00","0.3","","-0.6","","93","","","","24","","27","","","","98.83","","","","","","NA"
"-79.25","42.87","PORT COLBORNE (AUT)","613F606","2020-02-13 00:00","2020","02","13","00:00","-0.3","","-0.9","","96","","","","32","","15","","","","98.73","","","","-5","","NA"
"-79.25","42.87","PORT COLBORNE (AUT)","613F606","2020-02-13 01:00","2020","02","13","01:00","-0.4","","-0.9","","96","","","","34","","10","","","","98.62","","","","-4","","NA"
"-79.25","42.87","PORT COLBORNE (AUT)","613F606","2020-02-13 02:00","2020","02","13","02:00","-0.6","","-1.0","","97","","","","1","","17","","","","98.46","","","","-6","","NA"
"-79.25","42.87","PORT COLBORNE (AUT)","613F606","2020-02-13 03:00","2020","02","13","03:00","-0.7","","-1.2","","97","","","","2","","10","","","","98.35","","","","-4","","NA"
"-79.25","42.87","PORT COLBORNE (AUT)","613F606","2020-02-13 04:00","2020","02","13","04:00","-0.9","","-1.4","","97","","","","1","","11","","","","98.44","","","","-5","","NA"
"-79.25","42.87","PORT COLBORNE (AUT)","613F606","2020-02-13 05:00","2020","02","13","05:00","-1.3","","-1.8","","97","","","","1","","13","","","","98.41","","","","-6","","NA"
"-79.25","42.87","PORT COLBORNE (AUT)","613F606","2020-02-13 06:00","2020","02","13","06:00","-1.5","","-2.0","","96","","","","1","","12","","","","98.34","","","","-6","","NA"
"-79.25","42.87","PORT COLBORNE (AUT)","613F606","2020-02-13 07:00","2020","02","13","07:00","-1.6","","-2.1","","96","","","","1","","10","","","","98.38","","","","-5","","NA"
"-79.25","42.87","PORT COLBORNE (AUT)","613F606","2020-02-13 08:00","2020","02","13","08:00","-1.5","","-2.1","","96","","","","36","","7","","","","98.46","","","","-4","","NA"
"-79.25","42.87","PORT COLBORNE (AUT)","613F606","2020-02-13 09:00","2020","02","13","09:00","-1.4","","-2.0","","96","","","","34","","8","","","","98.48","","","","-4","","NA"
"-79.25","42.87","PORT COLBORNE (AUT)","613F606","2020-02-13 10:00","2020","02","13","10:00","-1.3","","-1.8","","96","","","","31","","8","","","","98.48","","","","-4","","NA"
"-79.25","42.87","PORT COLBORNE (AUT)","613F606","2020-02-13 11:00","2020","02","13","11:00","-1.1","","-1.7","","96","","","","27","","9","","","","98.48","","","","-4","","NA"
"-79.25","42.87","PORT COLBORNE (AUT)","613F606","2020-02-13 12:00","2020","02","13","12:00","-0.9","","-1.7","","94","","","","28","","11","","","","98.52","","","","-5","","NA"
"-79.25","42.87","PORT COLBORNE (AUT)","613F606","2020-02-13 13:00","2020","02","13","13:00","-0.8","","-2.0","","92","","","","27","","25","","","","98.50","","","","-7","","NA"
"-79.25","42.87","PORT COLBORNE (AUT)","613F606","2020-02-13 14:00","2020","02","13","14:00","-0.3","","-1.3","","93","","","","26","","28","","","","98.55","","","","-7","","NA"
"-79.25","42.87","PORT COLBORNE (AUT)","613F606","2020-02-13 15:00","2020","02","13","15:00","-0.1","","-1.3","","92","","","","27","","33","","","","98.62","","","","-7","","NA"
"-79.25","42.87","PORT COLBORNE (AUT)","613F606","2020-02-13 16:00","2020","02","13","16:00","0.1","","-0.9","","93","","","","27","","36","","","","98.71","","","","","","NA"
"-79.25","42.87","PORT COLBORNE (AUT)","613F606","2020-02-13 17:00","2020","02","13","17:00","-3.1","","-4.1","","92","","","","1","","24","","","","98.88","","","","-10","","NA"
"-79.25","42.87","PORT COLBORNE (AUT)","613F606","2020-02-13 18:00","2020","02","13","18:00","-4.2","","-5.6","","90","","","","1","","18","","","","99.08","","","","-10","","NA"
"-79.25","42.87","PORT COLBORNE (AUT)","613F606","2020-02-13 19:00","2020","02","13","19:00","-4.3","","-5.6","","91","","","","1","","17","","","","99.19","","","","-10","","NA"
"-79.25","42.87","PORT COLBORNE (AUT)","613F606","2020-02-13 20:00","2020","02","13","20:00","-5.2","","-7.1","","87","","","","34","","27","","","","99.35","","","","-13","","NA"
"-79.25","42.87","PORT COLBORNE (AUT)","613F606","2020-02-13 21:00","2020","02","13","21:00","-7.2","","-9.5","","83","","","","33","","28","","","","99.50","","","","-16","","NA"
"-79.25","42.87","PORT COLBORNE (AUT)","613F606","2020-02-13 22:00","2020","02","13","22:00","-8.8","","-11.5","","81","","","","32","","27","","","","99.65","","","","-18","","NA"
"-79.25","42.87","PORT COLBORNE (AUT)","613F606","2020-02-13 23:00","2020","02","13","23:00","-10.1","","-12.7","","81","","","","31","","28","","","","99.80","","","","-19","","NA"
"-79.25","42.87","PORT COLBORNE (AUT)","613F606","2020-02-14 00:00","2020","02","14","00:00","-10.6","","-14.1","","75","","","","32","","24","","","","99.92","","","","-19","","NA"
"-79.25","42.87","PORT COLBORNE (AUT)","613F606","2020-02-14 01:00","2020","02","14","01:00","-11.1","","-15.5","","70","","","","33","","24","","","","100.02","","","","-20","","NA"
"-79.25","42.87","PORT COLBORNE (AUT)","613F606","2020-02-14 02:00","2020","02","14","02:00","-11.3","","-16.1","","68","","","","31","","23","","","","100.15","","","","-20","","NA"
"-79.25","42.87","PORT COLBORNE (AUT)","613F606","2020-02-14 03:00","2020","02","14","03:00","-11.6","","-16.4","","67","","","","33","","26","","","","100.24","","","","-21","","NA"
"-79.25","42.87","PORT COLBORNE (AUT)","613F606","2020-02-14 04:00","2020","02","14","04:00","-12.6","","-16.0","","75","","","","1","","20","","","","100.32","","","","-21","","NA"
"-79.25","42.87","PORT COLBORNE (AUT)","613F606","2020-02-14 05:00","2020","02","14","05:00","-13.5","","-16.2","","80","","","","36","","14","","","","100.46","","","","-21","","NA"
"-79.25","42.87","PORT COLBORNE (AUT)","613F606","2020-02-14 06:00","2020","02","14","06:00","-14.2","","-16.3","","84","","","","36","","18","","","","100.58","","","","-23","","NA"
"-79.25","42.87","PORT COLBORNE (AUT)","613F606","2020-02-14 07:00","2020","02","14","07:00","-14.4","","-16.7","","83","","","","35","","16","","","","100.66","","","","-22","","NA"
"-79.25","42.87","PORT COLBORNE (AUT)","613F606","2020-02-14 08:00","2020","02","14","08:00","-14.2","","-16.9","","80","","","","35","","17","","","","100.81","","","","-22","","NA"
"-79.25","42.87","PORT COLBORNE (AUT)","613F606","2020-02-14 09:00","2020","02","14","09:00","-14.6","","-17.3","","79","","","","35","","14","","","","100.91","","","","-22","","NA"
"-79.25","42.87","PORT COLBORNE (AUT)","613F606","2020-02-14 10:00","2020","02","14","10:00","-13.9","","-18.2","","70","","","","3","","18","","","","100.98","","","","-22","","NA"
"-79.25","42.87","PORT COLBORNE (AUT)","613F606","2020-02-14 11:00","2020","02","14","11:00","-13.3","","-17.5","","71","","","","1","","12","","","","101.08","","","","-20","","NA"
"-79.25","42.87","PORT COLBORNE (AUT)","613F606","2020-02-14 12:00","2020","02","14","12:00","-12.7","","-18.0","","65","","","","3","","16","","","","101.13","","","","-20","","NA"
"-79.25","42.87","PORT COLBORNE (AUT)","613F606","2020-02-14 13:00","2020","02","14","13:00","-12.2","","-17.3","","66","","","","7","","6","","","","101.11","","","","-16","","NA"
"-79.25","42.87","PORT COLBORNE (AUT)","613F606","2020-02-14 14:00","2020","02","14","14:00","-11.4","","-18.1","","58","","","","34","","4","","","","101.11","","","","-14","","NA"
"-79.25","42.87","PORT COLBORNE (AUT)","613F606","2020-02-14 15:00","2020","02","14","15:00","-11.4","","-18.0","","58","","","","19","","10","","","","101.11","","","","-17","","NA"
"-79.25","42.87","PORT COLBORNE (AUT)","613F606","2020-02-14 16:00","2020","02","14","16:00","-10.4","","-17.0","","59","","","","21","","7","","","","101.15","","","","-14","","NA"
"-79.25","42.87","PORT COLBORNE (AUT)","613F606","2020-02-14 17:00","2020","02","14","17:00","-10.3","","-17.4","","56","","","","17","","10","","","","101.17","","","","-16","","NA"
"-79.25","42.87","PORT COLBORNE (AUT)","613F606","2020-02-14 18:00","2020","02","14","18:00","-10.2","","-16.7","","59","","","","20","","11","","","","101.20","","","","-16","","NA"
"-79.25","42.87","PORT COLBORNE (AUT)","613F606","2020-02-14 19:00","2020","02","14","19:00","-9.6","","-16.3","","58","","","","22","","12","","","","101.23","","","","-15","","NA"
"-79.25","42.87","PORT COLBORNE (AUT)","613F606","2020-02-14 20:00","2020","02","14","20:00","-9.2","","-15.5","","60","","","","21","","11","","","","101.20","","","","-15","","NA"
"-79.25","42.87","PORT COLBORNE (AUT)","613F606","2020-02-14 21:00","2020","02","14","21:00","-8.6","","-15.9","","56","","","","22","","17","","","","101.20","","","","-15","","NA"
"-79.25","42.87","PORT COLBORNE (AUT)","613F606","2020-02-14 22:00","2020","02","14","22:00","-8.3","","-15.7","","55","","","","22","","22","","","","101.18","","","","-16","","NA"
"-79.25","42.87","PORT COLBORNE (AUT)","613F606","2020-02-14 23:00","2020","02","14","23:00","-7.9","","-14.4","","59","","","","23","","25","","","","101.12","","","","-16","","NA"
"-79.25","42.87","PORT COLBORNE (AUT)","613F606","2020-02-15 00:00","2020","02","15","00:00","-7.7","","-14.4","","59","","","","23","","24","","","","101.10","","","","-16","","NA"
"-79.25","42.87","PORT COLBORNE (AUT)","613F606","2020-02-15 01:00","2020","02","15","01:00","-7.4","","-13.7","","61","","","","23","","28","","","","101.09","","","","-16","","NA"
"-79.25","42.87","PORT COLBORNE (AUT)","613F606","2020-02-15 02:00","2020","02","15","02:00","-6.6","","-10.9","","72","","","","22","","34","","","","101.07","","","","-16","","NA"
"-79.25","42.87","PORT COLBORNE (AUT)","613F606","2020-02-15 03:00","2020","02","15","03:00","-6.8","","-11.6","","69","","","","23","","36","","","","101.00","","","","-16","","NA"
"-79.25","42.87","PORT COLBORNE (AUT)","613F606","2020-02-15 04:00","2020","02","15","04:00","-7.3","","-12.0","","69","","","","22","","39","","","","100.96","","","","-17","","NA"
"-79.25","42.87","PORT COLBORNE (AUT)","613F606","2020-02-15 05:00","2020","02","15","05:00","-6.9","","-11.2","","71","","","","23","","34","","","","100.94","","","","-16","","NA"
"-79.25","42.87","PORT COLBORNE (AUT)","613F606","2020-02-15 06:00","2020","02","15","06:00","-6.6","","-11.8","","67","","","","23","","40","","","","100.93","","","","-16","","NA"
"-79.25","42.87","PORT COLBORNE (AUT)","613F606","2020-02-15 07:00","2020","02","15","07:00","-6.8","","-11.3","","71","","","","23","","37","","","","100.90","","","","-16","","NA"
"-79.25","42.87","PORT COLBORNE (AUT)","613F606","2020-02-15 08:00","2020","02","15","08:00","-6.4","","-11.7","","66","","","","24","","39","","","","100.91","","","","-16","","NA"
"-79.25","42.87","PORT COLBORNE (AUT)","613F606","2020-02-15 09:00","2020","02","15","09:00","-6.2","","-11.4","","66","","","","23","","41","","","","100.80","","","","-16","","NA"
"-79.25","42.87","PORT COLBORNE (AUT)","613F606","2020-02-15 10:00","2020","02","15","10:00","-6.6","","-11.9","","66","","","","21","","42","","","","100.63","","","","-16","","NA"
"-79.25","42.87","PORT COLBORNE (AUT)","613F606","2020-02-15 11:00","2020","02","15","11:00","-5.7","","-11.6","","63","","","","23","","47","","","","100.61","","","","-16","","NA"
"-79.25","42.87","PORT COLBORNE (AUT)","613F606","2020-02-15 12:00","2020","02","15","12:00","-4.8","","-10.9","","62","","","","23","","48","","","","100.46","","","","-15","","NA"
"-79.25","42.87","PORT COLBORNE (AUT)","613F606","2020-02-15 13:00","2020","02","15","13:00","-4.2","","-11.1","","59","","","","24","","45","","","","100.31","","","","-13","","NA"
"-79.25","42.87","PORT COLBORNE (AUT)","613F606","2020-02-15 14:00","2020","02","15","14:00","-3.3","","-10.8","","56","","","","22","","34","","","","100.15","","","","-11","","NA"
"-79.25","42.87","PORT COLBORNE (AUT)","613F606","2020-02-15 15:00","2020","02","15","15:00","-2.3","","-10.8","","52","","","","22","","29","","","","100.05","","","","-9","","NA"
"-79.25","42.87","PORT COLBORNE (AUT)","613F606","2020-02-15 16:00","2020","02","15","16:00","-1.2","","-9.2","","54","","","","24","","35","","","","99.93","","","","-9","","NA"
"-79.25","42.87","PORT COLBORNE (AUT)","613F606","2020-02-15 17:00","2020","02","15","17:00","-0.1","","-8.6","","53","","","","22","","33","","","","99.77","","","","-7","","NA"
"-79.25","42.87","PORT COLBORNE (AUT)","613F606","2020-02-15 18:00","2020","02","15","18:00","0.6","","-8.8","","49","","","","20","","37","","","","99.68","","","","","","NA"
"-79.25","42.87","PORT COLBORNE (AUT)","613F606","2020-02-15 19:00","2020","02","15","19:00","1.2","","-8.4","","49","","","","21","","44","","","","99.57","","","","","","NA"
"-79.25","42.87","PORT COLBORNE (AUT)","613F606","2020-02-15 20:00","2020","02","15","20:00","1.5","","-7.5","","51","","","","22","","45","","","","99.51","","","","","","NA"
"-79.25","42.87","PORT COLBORNE (AUT)","613F606","2020-02-15 21:00","2020","02","15","21:00","1.6","","-5.9","","57","","","","22","","40","","","","99.49","","","","","","NA"
"-79.25","42.87","PORT COLBORNE (AUT)","613F606","2020-02-15 22:00","2020","02","15","22:00","2.0","","-4.5","","62","","","","23","","39","","","","99.46","","","","","","NA"
"-79.25","42.87","PORT COLBORNE (AUT)","613F606","2020-02-15 23:00","2020","02","15","23:00","2.5","","-4.9","","58","","","","26","","69","","","","99.45","","","","","","NA"
"-79.25","42.87","PORT COLBORNE (AUT)","613F606","2020-02-16 00:00","2020","02","16","00:00","0.7","","-2.5","","79","","","","25","","65","","","","99.48","","","","","","NA"
"-79.25","42.87","PORT COLBORNE (AUT)","613F606","2020-02-16 01:00","2020","02","16","01:00","0.7","","-1.5","","86","","","","24","","58","","","","99.46","","","","","","NA"
"-79.25","42.87","PORT COLBORNE (AUT)","613F606","2020-02-16 02:00","2020","02","16","02:00","0.8","","-1.6","","84","","","","23","","52","","","","99.45","","","","","","NA"
"-79.25","42.87","PORT COLBORNE (AUT)","613F606","2020-02-16 03:00","2020","02","16","03:00","1.3","","-1.3","","83","","","","24","","45","","","","99.44","","","","","","NA"
"-79.25","42.87","PORT COLBORNE (AUT)","613F606","2020-02-16 04:00","2020","02","16","04:00","1.5","","-0.9","","84","","","","25","","40","","","","99.43","","","","","","NA"
"-79.25","42.87","PORT COLBORNE (AUT)","613F606","2020-02-16 05:00","2020","02","16","05:00","1.5","","-1.4","","81","","","","27","","32","","","","99.44","","","","","","NA"
"-79.25","42.87","PORT COLBORNE (AUT)","613F606","2020-02-16 06:00","2020","02","16","06:00","1.2","","-1.2","","84","","","","27","","26","","","","99.49","","","","","","NA"
"-79.25","42.87","PORT COLBORNE (AUT)","613F606","2020-02-16 07:00","2020","02","16","07:00","1.3","","-1.5","","82","","","","26","","28","","","","99.49","","","","","","NA"
"-79.25","42.87","PORT COLBORNE (AUT)","613F606","2020-02-16 08:00","2020","02","16","08:00","1.3","","-0.8","","86","","","","26","","28","","","","99.50","","","","","","NA"
"-79.25","42.87","PORT COLBORNE (AUT)","613F606","2020-02-16 09:00","2020","02","16","09:00","1.0","","-1.2","","85","","","","27","","23","","","","99.54","","","","","","NA"
"-79.25","42.87","PORT COLBORNE (AUT)","613F606","2020-02-16 10:00","2020","02","16","10:00","1.0","","-2.2","","79","","","","27","","37","","","","99.52","","","","","","NA"
"-79.25","42.87","PORT COLBORNE (AUT)","613F606","2020-02-16 11:00","2020","02","16","11:00","0.8","","-2.6","","78","","","","28","","30","","","","99.53","","","","","","NA"
"-79.25","42.87","PORT COLBORNE (AUT)","613F606","2020-02-16 12:00","2020","02","16","12:00","0.7","","-3.2","","75","","","","28","","31","","","","99.54","","","","","","NA"
"-79.25","42.87","PORT COLBORNE (AUT)","613F606","2020-02-16 13:00","2020","02","16","13:00","0.9","","-2.5","","78","","","","26","","31","","","","99.48","","","","","","NA"
"-79.25","42.87","PORT COLBORNE (AUT)","613F606","2020-02-16 14:00","2020","02","16","14:00","1.0","","-2.6","","77","","","","26","","34","","","","99.43","","","","","","NA"
"-79.25","42.87","PORT COLBORNE (AUT)","613F606","2020-02-16 15:00","2020","02","16","15:00","0.9","","-2.5","","78","","","","26","","35","","","","99.43","","","","","","NA"
"-79.25","42.87","PORT COLBORNE (AUT)","613F606","2020-02-16 16:00","2020","02","16","16:00","0.8","","-2.5","","78","","","","26","","39","","","","99.50","","","","","","NA"
"-79.25","42.87","PORT COLBORNE (AUT)","613F606","2020-02-16 17:00","2020","02","16","17:00","0.6","","-2.7","","78","","","","26","","36","","","","99.51","","","","","","NA"
"-79.25","42.87","PORT COLBORNE (AUT)","613F606","2020-02-16 18:00","2020","02","16","18:00","0.6","","-2.9","","77","","","","25","","37","","","","99.51","","","","","","NA"
"-79.25","42.87","PORT COLBORNE (AUT)","613F606","2020-02-16 19:00","2020","02","16","19:00","0.6","","-2.4","","80","","","","25","","32","","","","99.57","","","","","","NA"
"-79.25","42.87","PORT COLBORNE (AUT)","613F606","2020-02-16 20:00","2020","02","16","20:00","0.7","","-2.5","","79","","","","26","","30","","","","99.61","","","","","","NA"
"-79.25","42.87","PORT COLBORNE (AUT)","613F606","2020-02-16 21:00","2020","02","16","21:00","0.7","","-2.0","","82","","","","26","","26","","","","99.66","","","","","","NA"
"-79.25","42.87","PORT COLBORNE (AUT)","613F606","2020-02-16 22:00","2020","02","16","22:00","0.5","","-1.6","","86","","","","27","","24","","","","99.69","","","","","","NA"
"-79.25","42.87","PORT COLBORNE (AUT)","613F606","2020-02-16 23:00","2020","02","16","23:00","0.6","","-1.7","","85","","","","26","","26","","","","99.71","","","","","","NA"
"-79.25","42.87","PORT COLBORNE (AUT)","613F606","2020-02-17 00:00","2020","02","17","00:00","0.7","","-1.5","","85","","","","26","","23","","","","99.73","","","","","","NA"
"-79.25","42.87","PORT COLBORNE (AUT)","613F606","2020-02-17 01:00","2020","02","17","01:00","0.7","","-1.1","","88","","","","26","","17","","","","99.80","","","","","","NA"
"-79.25","42.87","PORT COLBORNE (AUT)","613F606","2020-02-17 02:00","2020","02","17","02:00","0.0","","-1.6","","89","","","","29","","12","","","","99.82","","","","-4","","NA"
"-79.25","42.87","PORT COLBORNE (AUT)","613F606","2020-02-17 03:00","2020","02","17","03:00","-0.9","","-2.6","","88","","","","30","","8","","","","99.85","","","","-4","","NA"
"-79.25","42.87","PORT COLBORNE (AUT)","613F606","2020-02-17 04:00","2020","02","17","04:00","-2.4","","-3.5","","92","","","","36","","12","","","","99.91","","","","-7","","NA"
"-79.25","42.87","PORT COLBORNE (AUT)","613F606","2020-02-17 05:00","2020","02","17","05:00","-2.5","","-3.9","","90","","","","2","","11","","","","100.00","","","","-7","","NA"
"-79.25","42.87","PORT COLBORNE (AUT)","613F606","2020-02-17 06:00","2020","02","17","06:00","-3.0","","-4.3","","91","","","","3","","12","","","","100.05","","","","-7","","NA"
"-79.25","42.87","PORT COLBORNE (AUT)","613F606","2020-02-17 07:00","2020","02","17","07:00","-2.7","","-4.7","","86","","","","2","","16","","","","100.14","","","","-8","","NA"
"-79.25","42.87","PORT COLBORNE (AUT)","613F606","2020-02-17 08:00","2020","02","17","08:00","-2.8","","-4.9","","86","","","","4","","16","","","","100.22","","","","-8","","NA"
"-79.25","42.87","PORT COLBORNE (AUT)","613F606","2020-02-17 09:00","2020","02","17","09:00","-2.9","","-6.0","","79","","","","5","","17","","","","100.33","","","","-8","","NA"
"-79.25","42.87","PORT COLBORNE (AUT)","613F606","2020-02-17 10:00","2020","02","17","10:00","-2.1","","-6.5","","72","","","","5","","15","","","","100.37","","","","-7","","NA"
"-79.25","42.87","PORT COLBORNE (AUT)","613F606","2020-02-17 11:00","2020","02","17","11:00","-1.5","","-7.1","","66","","","","7","","10","","","","100.43","","","","-5","","NA"
"-79.25","42.87","PORT COLBORNE (AUT)","613F606","2020-02-17 12:00","2020","02","17","12:00","-0.9","","-7.2","","63","","","","11","","7","","","","100.43","","","","-3","","NA"
"-79.25","42.87","PORT COLBORNE (AUT)","613F606","2020-02-17 13:00","2020","02","17","13:00","-0.6","","-6.1","","67","","","","14","","13","","","","100.34","","","","-5","","NA"
"-79.25","42.87","PORT COLBORNE (AUT)","613F606","2020-02-17 14:00","2020","02","17","14:00","-0.1","","-6.2","","64","","","","16","","6","","","","100.34","","","","-2","","NA"
"-79.25","42.87","PORT COLBORNE (AUT)","613F606","2020-02-17 15:00","2020","02","17","15:00","0.2","","-10.0","","46","","","","2","","2","","","","100.31","","","","","","NA"
"-79.25","42.87","PORT COLBORNE (AUT)","613F606","2020-02-17 16:00","2020","02","17","16:00","0.7","","-8.9","","49","","","","7","","12","","","","100.26","","","","","","NA"
"-79.25","42.87","PORT COLBORNE (AUT)","613F606","2020-02-17 17:00","2020","02","17","17:00","0.8","","-8.5","","50","","","","7","","15","","","","100.18","","","","","","NA"
"-79.25","42.87","PORT COLBORNE (AUT)","613F606","2020-02-17 18:00","2020","02","17","18:00","0.5","","-8.2","","52","","","","4","","10","","","","100.20","","","","","","NA"
"-79.25","42.87","PORT COLBORNE (AUT)","613F606","2020-02-17 19:00","2020","02","17","19:00","-0.3","","-6.9","","61","","","","6","","17","","","","100.20","","","","-5","","NA"
"-79.25","42.87","PORT COLBORNE (AUT)","613F606","2020-02-17 20:00","2020","02","17","20:00","-1.0","","-6.9","","64","","","","7","","19","","","","100.14","","","","-6","","NA"
"-79.25","42.87","PORT COLBORNE (AUT)","613F606","2020-02-17 21:00","2020","02","17","21:00","-1.2","","-6.9","","65","","","","8","","20","","","","100.08","","","","-7","","NA"
"-79.25","42.87","PORT COLBORNE (AUT)","613F606","2020-02-17 22:00","2020","02","17","22:00","-1.1","","-6.9","","65","","","","7","","20","","","","100.06","","","","-7","","NA"
"-79.25","42.87","PORT COLBORNE (AUT)","613F606","2020-02-17 23:00","2020","02","17","23:00","-0.8","","-6.4","","66","","","","7","","19","","","","99.94","","","","-6","","NA"
"-79.25","42.87","PORT COLBORNE (AUT)","613F606","2020-02-18 00:00","2020","02","18","00:00","-0.5","","-6.1","","66","","","","5","","18","","","","99.82","","","","-6","","NA"
"-79.25","42.87","PORT COLBORNE (AUT)","613F606","2020-02-18 01:00","2020","02","18","01:00","0.2","","-4.7","","69","","","","9","","14","","","","99.74","","","","","","NA"
"-79.25","42.87","PORT COLBORNE (AUT)","613F606","2020-02-18 02:00","2020","02","18","02:00","-0.3","","-1.7","","90","","","","6","","19","","","","99.60","","","","-5","","NA"
"-79.25","42.87","PORT COLBORNE (AUT)","613F606","2020-02-18 03:00","2020","02","18","03:00","2.4","","-1.1","","78","","","","14","","31","","","","99.45","","","","","","NA"
"-79.25","42.87","PORT COLBORNE (AUT)","613F606","2020-02-18 04:00","2020","02","18","04:00","2.3","","0.0","","85","","","","14","","29","","","","99.26","","","","","","NA"
"-79.25","42.87","PORT COLBORNE (AUT)","613F606","2020-02-18 05:00","2020","02","18","05:00","1.6","","0.1","","90","","","","13","","24","","","","99.12","","","","","","NA"
"-79.25","42.87","PORT COLBORNE (AUT)","613F606","2020-02-18 06:00","2020","02","18","06:00","2.1","","0.9","","92","","","","14","","26","","","","99.02","","","","","","NA"
"-79.25","42.87","PORT COLBORNE (AUT)","613F606","2020-02-18 07:00","2020","02","18","07:00","3.1","","1.1","","87","","","","17","","29","","","","98.90","","","","","","NA"
"-79.25","42.87","PORT COLBORNE (AUT)","613F606","2020-02-18 08:00","2020","02","18","08:00","3.8","","0.9","","82","","","","19","","39","","","","98.89","","","","","","NA"
"-79.25","42.87","PORT COLBORNE (AUT)","613F606","2020-02-18 09:00","2020","02","18","09:00","3.9","","1.4","","84","","","","20","","54","","","","98.80","","","","","","NA"
"-79.25","42.87","PORT COLBORNE (AUT)","613F606","2020-02-18 10:00","2020","02","18","10:00","4.3","","1.5","","82","","","","20","","49","","","","98.81","","","","","","NA"
"-79.25","42.87","PORT COLBORNE (AUT)","613F606","2020-02-18 11:00","2020","02","18","11:00","4.2","","2.4","","88","","","","21","","42","","","","98.83","","","","","","NA"
"-79.25","42.87","PORT COLBORNE (AUT)","613F606","2020-02-18 12:00","2020","02","18","12:00","3.9","","3.1","","94","","","","24","","38","","","","98.88","","","","","","NA"
"-79.25","42.87","PORT COLBORNE (AUT)","613F606","2020-02-18 13:00","2020","02","18","13:00","3.0","","2.2","","94","","","","25","","52","","","","98.89","","","","","","NA"
"-79.25","42.87","PORT COLBORNE (AUT)","613F606","2020-02-18 14:00","2020","02","18","14:00","3.0","","1.7","","91","","","","25","","49","","","","98.98","","","","","","NA"
"-79.25","42.87","PORT COLBORNE (AUT)","613F606","2020-02-18 15:00","2020","02","18","15:00","3.1","","1.1","","87","","","","25","","51","","","","99.07","","","","","","NA"
"-79.25","42.87","PORT COLBORNE (AUT)","613F606","2020-02-18 16:00","2020","02","18","16:00","2.8","","0.9","","88","","","","25","","44","","","","99.16","","","","","","NA"
"-79.25","42.87","PORT COLBORNE (AUT)","613F606","2020-02-18 17:00","2020","02","18","17:00","2.4","","0.7","","88","","","","25","","45","","","","99.26","","","","","","NA"
"-79.25","42.87","PORT COLBORNE (AUT)","613F606","2020-02-18 18:00","2020","02","18","18:00","2.0","","0.6","","90","","","","26","","30","","","","99.41","","","","","","NA"
"-79.25","42.87","PORT COLBORNE (AUT)","613F606","2020-02-18 19:00","2020","02","18","19:00","2.0","","0.3","","88","","","","27","","26","","","","99.53","","","","","","NA"
"-79.25","42.87","PORT COLBORNE (AUT)","613F606","2020-02-18 20:00","2020","02","18","20:00","2.4","","-2.1","","72","","","","27","","31","","","","99.59","","","","","","NA"
"-79.25","42.87","PORT COLBORNE (AUT)","613F606","2020-02-18 21:00","2020","02","18","21:00","2.3","","-3.1","","68","","","","28","","29","","","","99.69","","","","","","NA"
"-79.25","42.87","PORT COLBORNE (AUT)","613F606","2020-02-18 22:00","2020","02","18","22:00","1.9","","-4.0","","65","","","","28","","37","","","","99.76","","","","","","NA"
"-79.25","42.87","PORT COLBORNE (AUT)","613F606","2020-02-18 23:00","2020","02","18","23:00","1.4","","-4.8","","63","","","","28","","36","","","","99.79","","","","","","NA"
"-79.25","42.87","PORT COLBORNE (AUT)","613F606","2020-02-19 00:00","2020","02","19","00:00","1.0","","-4.6","","66","","","","28","","37","","","","99.84","","","","","","NA"
"-79.25","42.87","PORT COLBORNE (AUT)","613F606","2020-02-19 01:00","2020","02","19","01:00","0.7","","-4.9","","67","","","","29","","35","","","","99.91","","","","","","NA"
"-79.25","42.87","PORT COLBORNE (AUT)","613F606","2020-02-19 02:00","2020","02","19","02:00","0.6","","-4.8","","67","","","","29","","28","","","","99.98","","","","","","NA"
"-79.25","42.87","PORT COLBORNE (AUT)","613F606","2020-02-19 03:00","2020","02","19","03:00","0.2","","-7.0","","58","","","","29","","39","","","","100.02","","","","","","NA"
"-79.25","42.87","PORT COLBORNE (AUT)","613F606","2020-02-19 04:00","2020","02","19","04:00","-0.1","","-6.1","","64","","","","28","","43","","","","100.06","","","","-8","","NA"
"-79.25","42.87","PORT COLBORNE (AUT)","613F606","2020-02-19 05:00","2020","02","19","05:00","-0.8","","-7.8","","59","","","","29","","35","","","","100.15","","","","-8","","NA"
"-79.25","42.87","PORT COLBORNE (AUT)","613F606","2020-02-19 06:00","2020","02","19","06:00","-1.1","","-7.6","","61","","","","28","","39","","","","100.23","","","","-9","","NA"
"-79.25","42.87","PORT COLBORNE (AUT)","613F606","2020-02-19 07:00","2020","02","19","07:00","-1.7","","-8.1","","62","","","","29","","37","","","","100.31","","","","-9","","NA"
"-79.25","42.87","PORT COLBORNE (AUT)","613F606","2020-02-19 08:00","2020","02","19","08:00","-1.8","","-7.2","","66","","","","29","","39","","","","100.42","","","","-10","","NA"
"-79.25","42.87","PORT COLBORNE (AUT)","613F606","2020-02-19 09:00","2020","02","19","09:00","-2.5","","-7.9","","66","","","","30","","32","","","","100.58","","","","-10","","NA"
"-79.25","42.87","PORT COLBORNE (AUT)","613F606","2020-02-19 10:00","2020","02","19","10:00","-2.5","","-9.0","","61","","","","33","","35","","","","100.64","","","","-10","","NA"
"-79.25","42.87","PORT COLBORNE (AUT)","613F606","2020-02-19 11:00","2020","02","19","11:00","-2.8","","-9.8","","59","","","","32","","28","","","","100.70","","","","-10","","NA"
"-79.25","42.87","PORT COLBORNE (AUT)","613F606","2020-02-19 12:00","2020","02","19","12:00","-2.8","","-12.6","","47","","","","30","","32","","","","100.74","","","","-10","","NA"
"-79.25","42.87","PORT COLBORNE (AUT)","613F606","2020-02-19 13:00","2020","02","19","13:00","-2.4","","-12.1","","48","","","","29","","28","","","","100.70","","","","-9","","NA"
"-79.25","42.87","PORT COLBORNE (AUT)","613F606","2020-02-19 14:00","2020","02","19","14:00","-2.5","","-12.4","","46","","","","30","","22","","","","100.69","","","","-9","","NA"
"-79.25","42.87","PORT COLBORNE (AUT)","613F606","2020-02-19 15:00","2020","02","19","15:00","-2.4","","-9.3","","59","","","","26","","40","","","","100.67","","","","-11","","NA"
"-79.25","42.87","PORT COLBORNE (AUT)","613F606","2020-02-19 16:00","2020","02","19","16:00","-2.5","","-9.4","","59","","","","27","","38","","","","100.71","","","","-11","","NA"
"-79.25","42.87","PORT COLBORNE (AUT)","613F606","2020-02-19 17:00","2020","02","19","17:00","-2.8","","-11.2","","53","","","","28","","35","","","","100.74","","","","-11","","NA"
"-79.25","42.87","PORT COLBORNE (AUT)","613F606","2020-02-19 18:00","2020","02","19","18:00","-3.0","","-11.2","","53","","","","29","","35","","","","100.75","","","","-11","","NA"
"-79.25","42.87","PORT COLBORNE (AUT)","613F606","2020-02-19 19:00","2020","02","19","19:00","-3.6","","-11.5","","55","","","","31","","24","","","","100.79","","","","-10","","NA"
"-79.25","42.87","PORT COLBORNE (AUT)","613F606","2020-02-19 20:00","2020","02","19","20:00","-4.2","","-11.3","","58","","","","31","","21","","","","100.83","","","","-11","","NA"
"-79.25","42.87","PORT COLBORNE (AUT)","613F606","2020-02-19 21:00","2020","02","19","21:00","-4.9","","-11.4","","60","","","","32","","24","","","","100.85","","","","-12","","NA"
"-79.25","42.87","PORT COLBORNE (AUT)","613F606","2020-02-19 22:00","2020","02","19","22:00","-5.2","","-12.3","","57","","","","33","","26","","","","100.87","","","","-13","","NA"
"-79.25","42.87","PORT COLBORNE (AUT)","613F606","2020-02-19 23:00","2020","02","19","23:00","-5.3","","-12.1","","59","","","","32","","19","","","","100.89","","","","-12","","NA"
"-79.25","42.87","PORT COLBORNE (AUT)","613F606","2020-02-20 00:00","2020","02","20","00:00","-5.5","","-12.0","","60","","","","31","","16","","","","100.87","","","","-11","","NA"
"-79.25","42.87","PORT COLBORNE (AUT)","613F606","2020-02-20 01:00","2020","02","20","01:00","-5.3","","-12.4","","57","","","","30","","23","","","","100.88","","","","-12","","NA"
"-79.25","42.87","PORT COLBORNE (AUT)","613F606","2020-02-20 02:00","2020","02","20","02:00","-4.6","","-12.6","","53","","","","29","","24","","","","100.85","","","","-12","","NA"
"-79.25","42.87","PORT COLBORNE (AUT)","613F606","2020-02-20 03:00","2020","02","20","03:00","-4.5","","-12.8","","52","","","","30","","24","","","","100.82","","","","-12","","NA"
"-79.25","42.87","PORT COLBORNE (AUT)","613F606","2020-02-20 04:00","2020","02","20","04:00","-5.4","","-11.7","","61","","","","33","","28","","","","100.83","","","","-13","","NA"
"-79.25","42.87","PORT COLBORNE (AUT)","613F606","2020-02-20 05:00","2020","02","20","05:00","-6.3","","-11.2","","68","","","","33","","20","","","","100.86","","","","-13","","NA"
"-79.25","42.87","PORT COLBORNE (AUT)","613F606","2020-02-20 06:00","2020","02","20","06:00","-6.6","","-12.5","","63","","","","33","","16","","","","100.88","","","","-13","","NA"
"-79.25","42.87","PORT COLBORNE (AUT)","613F606","2020-02-20 07:00","2020","02","20","07:00","-6.8","","-12.2","","65","","","","32","","17","","","","100.93","","","","-13","","NA"
"-79.25","42.87","PORT COLBORNE (AUT)","613F606","2020-02-20 08:00","2020","02","20","08:00","-7.1","","-12.1","","67","","","","31","","17","","","","101.01","","","","-14","","NA"
"-79.25","42.87","PORT COLBORNE (AUT)","613F606","2020-02-20 09:00","2020","02","20","09:00","-6.5","","-12.0","","65","","","","33","","21","","","","101.06","","","","-14","","NA"
"-79.25","42.87","PORT COLBORNE (AUT)","613F606","2020-02-20 10:00","2020","02","20","10:00","-5.9","","-13.6","","54","","","","34","","21","","","","101.08","","","","-13","","NA"
"-79.25","42.87","PORT COLBORNE (AUT)","613F606","2020-02-20 11:00","2020","02","20","11:00","-5.8","","-14.6","","50","","","","34","","23","","","","101.10","","","","-13","","NA"
"-79.25","42.87","PORT COLBORNE (AUT)","613F606","2020-02-20 12:00","2020","02","20","12:00","-5.8","","-15.0","","48","","","","32","","21","","","","101.11","","","","-13","","NA"
"-79.25","42.87","PORT COLBORNE (AUT)","613F606","2020-02-20 13:00","2020","02","20","13:00","-5.6","","-15.5","","45","","","","32","","19","","","","101.04","","","","-12","","NA"
"-79.25","42.87","PORT COLBORNE (AUT)","613F606","2020-02-20 14:00","2020","02","20","14:00","-5.2","","-15.3","","45","","","","29","","9","","","","101.00","","","","-9","","NA"
"-79.25","42.87","PORT COLBORNE (AUT)","613F606","2020-02-20 15:00","2020","02","20","15:00","-5.2","","-14.0","","50","","","","33","","15","","","","101.01","","","","-11","","NA"
"-79.25","42.87","PORT COLBORNE (AUT)","613F606","2020-02-20 16:00","2020","02","20","16:00","-5.0","","-14.9","","45","","","","32","","23","","","","101.00","","","","-12","","NA"
"-79.25","42.87","PORT COLBORNE (AUT)","613F606","2020-02-20 17:00","2020","02","20","17:00","-5.3","","-14.9","","47","","","","32","","23","","","","101.01","","","","-12","","NA"
"-79.25","42.87","PORT COLBORNE (AUT)","613F606","2020-02-20 18:00","2020","02","20","18:00","-5.4","","-14.8","","48","","","","32","","21","","","","101.02","","","","-12","","NA"
"-79.25","42.87","PORT COLBORNE (AUT)","613F606","2020-02-20 19:00","2020","02","20","19:00","-5.7","","-12.4","","59","","","","34","","23","","","","101.08","","","","-13","","NA"
"-79.25","42.87","PORT COLBORNE (AUT)","613F606","2020-02-20 20:00","2020","02","20","20:00","-6.4","","-15.6","","48","","","","33","","26","","","","101.13","","","","-14","","NA"
"-79.25","42.87","PORT COLBORNE (AUT)","613F606","2020-02-20 21:00","2020","02","20","21:00","-6.9","","-14.7","","54","","","","32","","17","","","","101.13","","","","-13","","NA"
"-79.25","42.87","PORT COLBORNE (AUT)","613F606","2020-02-20 22:00","2020","02","20","22:00","-7.2","","-14.0","","58","","","","32","","15","","","","101.19","","","","-13","","NA"
"-79.25","42.87","PORT COLBORNE (AUT)","613F606","2020-02-20 23:00","2020","02","20","23:00","-7.5","","-14.4","","58","","","","32","","14","","","","101.17","","","","-13","","NA"
"-79.25","42.87","PORT COLBORNE (AUT)","613F606","2020-02-21 00:00","2020","02","21","00:00","-7.8","","-14.4","","59","","","","30","","15","","","","101.15","","","","-14","","NA"
"-79.25","42.87","PORT COLBORNE (AUT)","613F606","2020-02-21 01:00","2020","02","21","01:00","-7.8","","-13.6","","63","","","","30","","14","","","","101.14","","","","-14","","NA"
"-79.25","42.87","PORT COLBORNE (AUT)","613F606","2020-02-21 02:00","2020","02","21","02:00","-7.6","","-13.7","","62","","","","30","","17","","","","101.10","","","","-14","","NA"
"-79.25","42.87","PORT COLBORNE (AUT)","613F606","2020-02-21 03:00","2020","02","21","03:00","-7.6","","-13.3","","64","","","","31","","19","","","","101.07","","","","-15","","NA"
"-79.25","42.87","PORT COLBORNE (AUT)","613F606","2020-02-21 04:00","2020","02","21","04:00","-6.6","","-12.0","","66","","","","30","","17","","","","101.02","","","","-13","","NA"
"-79.25","42.87","PORT COLBORNE (AUT)","613F606","2020-02-21 05:00","2020","02","21","05:00","-6.8","","-14.3","","56","","","","30","","27","","","","101.02","","","","-15","","NA"
"-79.25","42.87","PORT COLBORNE (AUT)","613F606","2020-02-21 06:00","2020","02","21","06:00","-6.4","","-14.4","","53","","","","29","","32","","","","101.01","","","","-15","","NA"
"-79.25","42.87","PORT COLBORNE (AUT)","613F606","2020-02-21 07:00","2020","02","21","07:00","-6.4","","-13.7","","56","","","","29","","30","","","","100.99","","","","-15","","NA"
"-79.25","42.87","PORT COLBORNE (AUT)","613F606","2020-02-21 08:00","2020","02","21","08:00","-5.8","","-11.5","","64","","","","29","","25","","","","101.00","","","","-13","","NA"
"-79.25","42.87","PORT COLBORNE (AUT)","613F606","2020-02-21 09:00","2020","02","21","09:00","-4.8","","-11.2","","61","","","","26","","45","","","","101.00","","","","-14","","NA"
"-79.25","42.87","PORT COLBORNE (AUT)","613F606","2020-02-21 10:00","2020","02","21","10:00","-4.4","","-10.2","","64","","","","26","","45","","","","100.96","","","","-14","","NA"
"-79.25","42.87","PORT COLBORNE (AUT)","613F606","2020-02-21 11:00","2020","02","21","11:00","-4.0","","-10.1","","63","","","","26","","47","","","","100.94","","","","-13","","NA"
"-79.25","42.87","PORT COLBORNE (AUT)","613F606","2020-02-21 12:00","2020","02","21","12:00","-3.3","","-8.3","","68","","","","26","","50","","","","100.91","","","","-13","","NA"
"-79.25","42.87","PORT COLBORNE (AUT)","613F606","2020-02-21 13:00","2020","02","21","13:00","-3.2","","-8.6","","66","","","","25","","54","","","","100.85","","","","-13","","NA"
"-79.25","42.87","PORT COLBORNE (AUT)","613F606","2020-02-21 14:00","2020","02","21","14:00","-2.8","","-8.8","","63","","","","25","","59","","","","100.73","","","","-13","","NA"
"-79.25","42.87","PORT COLBORNE (AUT)","613F606","2020-02-21 15:00","2020","02","21","15:00","-2.4","","-8.0","","65","","","","25","","58","","","","100.65","","","","-12","","NA"
"-79.25","42.87","PORT COLBORNE (AUT)","613F606","2020-02-21 16:00","2020","02","21","16:00","-2.1","","-7.5","","67","","","","25","","57","","","","100.61","","","","-11","","NA"
"-79.25","42.87","PORT COLBORNE (AUT)","613F606","2020-02-21 17:00","2020","02","21","17:00","-1.6","","-7.0","","67","","","","25","","55","","","","100.52","","","","-11","","NA"
"-79.25","42.87","PORT COLBORNE (AUT)","613F606","2020-02-21 18:00","2020","02","21","18:00","-1.2","","-8.0","","60","","","","25","","57","","","","100.41","","","","-10","","NA"
"-79.25","42.87","PORT COLBORNE (AUT)","613F606","2020-02-21 19:00","2020","02","21","19:00","-0.4","","-7.6","","58","","","","26","","60","","","","100.40","","","","-9","","NA"
"-79.25","42.87","PORT COLBORNE (AUT)","613F606","2020-02-21 20:00","2020","02","21","20:00","0.1","","-7.1","","59","","","","26","","59","","","","100.36","","","","","","NA"
"-79.25","42.87","PORT COLBORNE (AUT)","613F606","2020-02-21 21:00","2020","02","21","21:00","0.5","","-6.8","","58","","","","25","","58","","","","100.23","","","","","","NA"
"-79.25","42.87","PORT COLBORNE (AUT)","613F606","2020-02-21 22:00","2020","02","21","22:00","0.7","","-6.5","","59","","","","25","","60","","","","100.18","","","","","","NA"
"-79.25","42.87","PORT COLBORNE (AUT)","613F606","2020-02-21 23:00","2020","02","21","23:00","0.5","","-6.1","","61","","","","24","","63","","","","100.08","","","","","","NA"
"-79.25","42.87","PORT COLBORNE (AUT)","613F606","2020-02-22 00:00","2020","02","22","00:00","0.4","","-6.5","","60","","","","25","","68","","","","100.06","","","","","","NA"
"-79.25","42.87","PORT COLBORNE (AUT)","613F606","2020-02-22 01:00","2020","02","22","01:00","0.5","","-6.0","","62","","","","26","","64","","","","100.10","","","","","","NA"
"-79.25","42.87","PORT COLBORNE (AUT)","613F606","2020-02-22 02:00","2020","02","22","02:00","0.4","","-6.1","","62","","","","26","","65","","","","100.10","","","","","","NA"
"-79.25","42.87","PORT COLBORNE (AUT)","613F606","2020-02-22 03:00","2020","02","22","03:00","0.4","","-6.3","","61","","","","26","","66","","","","100.02","","","","","","NA"
"-79.25","42.87","PORT COLBORNE (AUT)","613F606","2020-02-22 04:00","2020","02","22","04:00","0.3","","-5.8","","63","","","","26","","59","","","","100.06","","","","","","NA"
"-79.25","42.87","PORT COLBORNE (AUT)","613F606","2020-02-22 05:00","2020","02","22","05:00","0.2","","-5.6","","65","","","","26","","56","","","","100.05","","","","","","NA"
"-79.25","42.87","PORT COLBORNE (AUT)","613F606","2020-02-22 06:00","2020","02","22","06:00","0.1","","-5.3","","67","","","","26","","52","","","","100.08","","","","","","NA"
"-79.25","42.87","PORT COLBORNE (AUT)","613F606","2020-02-22 07:00","2020","02","22","07:00","0.1","","-5.0","","68","","","","26","","53","","","","100.09","","","","","","NA"
"-79.25","42.87","PORT COLBORNE (AUT)","613F606","2020-02-22 08:00","2020","02","22","08:00","0.0","","-4.9","","70","","","","26","","53","","","","100.07","","","","-8","","NA"
"-79.25","42.87","PORT COLBORNE (AUT)","613F606","2020-02-22 09:00","2020","02","22","09:00","-0.1","","-5.0","","70","","","","25","","52","","","","100.11","","","","-8","","NA"
"-79.25","42.87","PORT COLBORNE (AUT)","613F606","2020-02-22 10:00","2020","02","22","10:00","0.0","","-4.4","","72","","","","25","","50","","","","100.13","","","","-8","","NA"
"-79.25","42.87","PORT COLBORNE (AUT)","613F606","2020-02-22 11:00","2020","02","22","11:00","0.1","","-4.7","","70","","","","25","","54","","","","100.10","","","","","","NA"
"-79.25","42.87","PORT COLBORNE (AUT)","613F606","2020-02-22 12:00","2020","02","22","12:00","0.1","","-4.5","","71","","","","25","","52","","","","100.11","","","","","","NA"
"-79.25","42.87","PORT COLBORNE (AUT)","613F606","2020-02-22 13:00","2020","02","22","13:00","0.1","","-4.4","","72","","","","25","","54","","","","100.02","","","","","","NA"
"-79.25","42.87","PORT COLBORNE (AUT)","613F606","2020-02-22 14:00","2020","02","22","14:00","0.4","","-4.9","","67","","","","25","","55","","","","99.94","","","","","","NA"
"-79.25","42.87","PORT COLBORNE (AUT)","613F606","2020-02-22 15:00","2020","02","22","15:00","0.8","","-4.2","","69","","","","25","","43","","","","99.93","","","","","","NA"
"-79.25","42.87","PORT COLBORNE (AUT)","613F606","2020-02-22 16:00","2020","02","22","16:00","1.4","","-4.6","","64","","","","26","","44","","","","99.89","","","","","","NA"
"-79.25","42.87","PORT COLBORNE (AUT)","613F606","2020-02-22 17:00","2020","02","22","17:00","1.7","","-3.2","","70","","","","26","","37","","","","99.86","","","","","","NA"
"-79.25","42.87","PORT COLBORNE (AUT)","613F606","2020-02-22 18:00","2020","02","22","18:00","2.0","","-2.3","","73","","","","25","","31","","","","99.87","","","","","","NA"
"-79.25","42.87","PORT COLBORNE (AUT)","613F606","2020-02-22 19:00","2020","02","22","19:00","2.4","","-2.9","","68","","","","26","","36","","","","99.87","","","","","","NA"
"-79.25","42.87","PORT COLBORNE (AUT)","613F606","2020-02-22 20:00","2020","02","22","20:00","2.3","","-2.1","","73","","","","27","","32","","","","99.88","","","","","","NA"
"-79.25","42.87","PORT COLBORNE (AUT)","613F606","2020-02-22 21:00","2020","02","22","21:00","2.8","","-2.3","","69","","","","25","","32","","","","99.83","","","","","","NA"
"-79.25","42.87","PORT COLBORNE (AUT)","613F606","2020-02-22 22:00","2020","02","22","22:00","2.9","","-1.9","","70","","","","24","","34","","","","99.81","","","","","","NA"
"-79.25","42.87","PORT COLBORNE (AUT)","613F606","2020-02-22 23:00","2020","02","22","23:00","2.4","","-1.5","","76","","","","24","","33","","","","99.81","","","","","","NA"
"-79.25","42.87","PORT COLBORNE (AUT)","613F606","2020-02-23 00:00","2020","02","23","00:00","2.4","","-2.4","","70","","","","24","","29","","","","99.79","","","","","","NA"
"-79.25","42.87","PORT COLBORNE (AUT)","613F606","2020-02-23 01:00","2020","02","23","01:00","2.7","","-2.7","","67","","","","25","","31","","","","99.79","","","","","","NA"
"-79.25","42.87","PORT COLBORNE (AUT)","613F606","2020-02-23 02:00","2020","02","23","02:00","2.6","","-2.7","","68","","","","25","","30","","","","99.79","","","","","","NA"
"-79.25","42.87","PORT COLBORNE (AUT)","613F606","2020-02-23 03:00","2020","02","23","03:00","2.4","","-2.3","","71","","","","25","","28","","","","99.76","","","","","","NA"
"-79.25","42.87","PORT COLBORNE (AUT)","613F606","2020-02-23 04:00","2020","02","23","04:00","2.3","","-2.3","","72","","","","25","","28","","","","99.74","","","","","","NA"
"-79.25","42.87","PORT COLBORNE (AUT)","613F606","2020-02-23 05:00","2020","02","23","05:00","2.3","","-2.6","","70","","","","24","","27","","","","99.74","","","","","","NA"
"-79.25","42.87","PORT COLBORNE (AUT)","613F606","2020-02-23 06:00","2020","02","23","06:00","2.2","","-2.5","","71","","","","23","","22","","","","99.74","","","","","","NA"
"-79.25","42.87","PORT COLBORNE (AUT)","613F606","2020-02-23 07:00","2020","02","23","07:00","1.9","","-2.7","","72","","","","21","","20","","","","99.70","","","","","","NA"
"-79.25","42.87","PORT COLBORNE (AUT)","613F606","2020-02-23 08:00","2020","02","23","08:00","2.1","","-3.1","","69","","","","22","","25","","","","99.68","","","","","","NA"
"-79.25","42.87","PORT COLBORNE (AUT)","613F606","2020-02-23 09:00","2020","02","23","09:00","2.1","","-3.7","","65","","","","21","","27","","","","99.67","","","","","","NA"
"-79.25","42.87","PORT COLBORNE (AUT)","613F606","2020-02-23 10:00","2020","02","23","10:00","2.1","","-5.3","","58","","","","21","","32","","","","99.62","","","","","","NA"
"-79.25","42.87","PORT COLBORNE (AUT)","613F606","2020-02-23 11:00","2020","02","23","11:00","2.5","","-3.8","","63","","","","22","","25","","","","99.61","","","","","","NA"
"-79.25","42.87","PORT COLBORNE (AUT)","613F606","2020-02-23 12:00","2020","02","23","12:00","2.6","","-3.5","","64","","","","22","","20","","","","99.58","","","","","","NA"
"-79.25","42.87","PORT COLBORNE (AUT)","613F606","2020-02-23 13:00","2020","02","23","13:00","3.2","","-4.6","","56","","","","25","","26","","","","99.47","","","","","","NA"
"-79.25","42.87","PORT COLBORNE (AUT)","613F606","2020-02-23 14:00","2020","02","23","14:00","3.0","","-3.7","","62","","","","25","","26","","","","99.37","","","","","","NA"
"-79.25","42.87","PORT COLBORNE (AUT)","613F606","2020-02-23 15:00","2020","02","23","15:00","2.8","","-2.6","","67","","","","25","","20","","","","99.31","","","","","","NA"
"-79.25","42.87","PORT COLBORNE (AUT)","613F606","2020-02-23 16:00","2020","02","23","16:00","2.9","","-2.4","","68","","","","25","","16","","","","99.24","","","","","","NA"
"-79.25","42.87","PORT COLBORNE (AUT)","613F606","2020-02-23 17:00","2020","02","23","17:00","2.7","","-1.9","","72","","","","20","","9","","","","99.19","","","","","","NA"
"-79.25","42.87","PORT COLBORNE (AUT)","613F606","2020-02-23 18:00","2020","02","23","18:00","3.0","","-2.1","","69","","","","20","","6","","","","99.20","","","","","","NA"
"-79.25","42.87","PORT COLBORNE (AUT)","613F606","2020-02-23 19:00","2020","02","23","19:00","2.9","","-1.7","","72","","","","24","","17","","","","99.22","","","","","","NA"
"-79.25","42.87","PORT COLBORNE (AUT)","613F606","2020-02-23 20:00","2020","02","23","20:00","3.9","","-2.1","","65","","","","23","","26","","","","99.18","","","","","","NA"
"-79.25","42.87","PORT COLBORNE (AUT)","613F606","2020-02-23 21:00","2020","02","23","21:00","4.3","","-3.3","","58","","","","22","","31","","","","99.14","","","","","","NA"
"-79.25","42.87","PORT COLBORNE (AUT)","613F606","2020-02-23 22:00","2020","02","23","22:00","4.0","","-2.5","","62","","","","23","","28","","","","99.17","","","","","","NA"
"-79.25","42.87","PORT COLBORNE (AUT)","613F606","2020-02-23 23:00","2020","02","23","23:00","4.3","","-2.6","","61","","","","24","","36","","","","99.13","","","","","","NA"
"-79.25","42.87","PORT COLBORNE (AUT)","613F606","2020-02-24 00:00","2020","02","24","00:00","4.3","","-2.6","","61","","","","24","","41","","","","99.10","","","","","","NA"
"-79.25","42.87","PORT COLBORNE (AUT)","613F606","2020-02-24 01:00","2020","02","24","01:00","4.6","","-2.7","","59","","","","23","","42","","","","99.08","","","","","","NA"
"-79.25","42.87","PORT COLBORNE (AUT)","613F606","2020-02-24 02:00","2020","02","24","02:00","4.7","","-2.7","","59","","","","24","","42","","","","99.06","","","","","","NA"
"-79.25","42.87","PORT COLBORNE (AUT)","613F606","2020-02-24 03:00","2020","02","24","03:00","4.0","","-2.2","","64","","","","24","","36","","","","99.03","","","","","","NA"
"-79.25","42.87","PORT COLBORNE (AUT)","613F606","2020-02-24 04:00","2020","02","24","04:00","3.0","","-1.4","","72","","","","25","","26","","","","99.03","","","","","","NA"
"-79.25","42.87","PORT COLBORNE (AUT)","613F606","2020-02-24 05:00","2020","02","24","05:00","3.7","","-1.5","","69","","","","24","","30","","","","99.05","","","","","","NA"
"-79.25","42.87","PORT COLBORNE (AUT)","613F606","2020-02-24 06:00","2020","02","24","06:00","3.9","","-1.4","","68","","","","24","","32","","","","99.06","","","","","","NA"
"-79.25","42.87","PORT COLBORNE (AUT)","613F606","2020-02-24 07:00","2020","02","24","07:00","3.7","","-1.3","","70","","","","23","","32","","","","99.07","","","","","","NA"
"-79.25","42.87","PORT COLBORNE (AUT)","613F606","2020-02-24 08:00","2020","02","24","08:00","3.3","","-0.9","","74","","","","24","","25","","","","99.15","","","","","","NA"
"-79.25","42.87","PORT COLBORNE (AUT)","613F606","2020-02-24 09:00","2020","02","24","09:00","3.5","","-1.1","","72","","","","25","","23","","","","99.18","","","","","","NA"
"-79.25","42.87","PORT COLBORNE (AUT)","613F606","2020-02-24 10:00","2020","02","24","10:00","3.4","","-1.5","","71","","","","24","","26","","","","99.19","","","","","","NA"
"-79.25","42.87","PORT COLBORNE (AUT)","613F606","2020-02-24 11:00","2020","02","24","11:00","3.1","","-0.9","","75","","","","24","","21","","","","99.20","","","","","","NA"
"-79.25","42.87","PORT COLBORNE (AUT)","613F606","2020-02-24 12:00","2020","02","24","12:00","3.2","","-0.7","","75","","","","25","","25","","","","99.20","","","","","","NA"
"-79.25","42.87","PORT COLBORNE (AUT)","613F606","2020-02-24 13:00","2020","02","24","13:00","2.9","","-0.5","","78","","","","26","","25","","","","99.12","","","","","","NA"
"-79.25","42.87","PORT COLBORNE (AUT)","613F606","2020-02-24 14:00","2020","02","24","14:00","3.0","","-0.6","","78","","","","26","","27","","","","99.06","","","","","","NA"
"-79.25","42.87","PORT COLBORNE (AUT)","613F606","2020-02-24 15:00","2020","02","24","15:00","2.8","","-0.1","","81","","","","27","","12","","","","99.00","","","","","","NA"
"-79.25","42.87","PORT COLBORNE (AUT)","613F606","2020-02-24 16:00","2020","02","24","16:00","2.8","","-0.2","","81","","","","22","","12","","","","98.96","","","","","","NA"
"-79.25","42.87","PORT COLBORNE (AUT)","613F606","2020-02-24 17:00","2020","02","24","17:00","2.0","","0.1","","87","","","","21","","10","","","","99.11","","","","","","NA"
"-79.25","42.87","PORT COLBORNE (AUT)","613F606","2020-02-24 18:00","2020","02","24","18:00","1.9","","0.0","","87","","","","16","","8","","","","99.11","","","","","","NA"
"-79.25","42.87","PORT COLBORNE (AUT)","613F606","2020-02-24 19:00","2020","02","24","19:00","2.1","","0.2","","87","","","","14","","9","","","","99.09","","","","","","NA"
"-79.25","42.87","PORT COLBORNE (AUT)","613F606","2020-02-24 20:00","2020","02","24","20:00","1.9","","0.3","","90","","","","15","","6","","","","99.12","","","","","","NA"
"-79.25","42.87","PORT COLBORNE (AUT)","613F606","2020-02-24 21:00","2020","02","24","21:00","2.2","","0.2","","87","","","","","","0","","","","99.09","","","","","","NA"
"-79.25","42.87","PORT COLBORNE (AUT)","613F606","2020-02-24 22:00","2020","02","24","22:00","3.2","","-0.4","","78","","","","7","","3","","","","99.06","","","","","","NA"
"-79.25","42.87","PORT COLBORNE (AUT)","613F606","2020-02-24 23:00","2020","02","24","23:00","2.9","","-0.2","","80","","","","3","","6","","","","99.00","","","","","","NA"
"-79.25","42.87","PORT COLBORNE (AUT)","613F606","2020-02-25 00:00","2020","02","25","00:00","2.8","","-0.4","","80","","","","3","","15","","","","98.98","","","","","","NA"
"-79.25","42.87","PORT COLBORNE (AUT)","613F606","2020-02-25 01:00","2020","02","25","01:00","3.3","","0.0","","79","","","","4","","17","","","","98.95","","","","","","NA"
"-79.25","42.87","PORT COLBORNE (AUT)","613F606","2020-02-25 02:00","2020","02","25","02:00","3.6","","0.4","","80","","","","4","","13","","","","98.97","","","","","","NA"
"-79.25","42.87","PORT COLBORNE (AUT)","613F606","2020-02-25 03:00","2020","02","25","03:00","3.4","","0.1","","79","","","","2","","17","","","","98.98","","","","","","NA"
"-79.25","42.87","PORT COLBORNE (AUT)","613F606","2020-02-25 04:00","2020","02","25","04:00","2.6","","-0.3","","81","","","","4","","17","","","","98.98","","","","","","NA"
"-79.25","42.87","PORT COLBORNE (AUT)","613F606","2020-02-25 05:00","2020","02","25","05:00","1.9","","-0.1","","86","","","","5","","28","","","","98.92","","","","","","NA"
"-79.25","42.87","PORT COLBORNE (AUT)","613F606","2020-02-25 06:00","2020","02","25","06:00","1.6","","0.0","","89","","","","4","","24","","","","98.99","","","","","","NA"
"-79.25","42.87","PORT COLBORNE (AUT)","613F606","2020-02-25 07:00","2020","02","25","07:00","1.4","","0.1","","91","","","","5","","25","","","","98.98","","","","","","NA"
"-79.25","42.87","PORT COLBORNE (AUT)","613F606","2020-02-25 08:00","2020","02","25","08:00","1.7","","0.3","","90","","","","5","","25","","","","99.03","","","","","","NA"
"-79.25","42.87","PORT COLBORNE (AUT)","613F606","2020-02-25 09:00","2020","02","25","09:00","1.7","","0.3","","91","","","","4","","25","","","","99.04","","","","","","NA"
"-79.25","42.87","PORT COLBORNE (AUT)","613F606","2020-02-25 10:00","2020","02","25","10:00","1.9","","0.5","","91","","","","5","","27","","","","99.06","","","","","","NA"
"-79.25","42.87","PORT COLBORNE (AUT)","613F606","2020-02-25 11:00","2020","02","25","11:00","2.1","","0.6","","90","","","","4","","26","","","","99.07","","","","","","NA"
"-79.25","42.87","PORT COLBORNE (AUT)","613F606","2020-02-25 12:00","2020","02","25","12:00","2.2","","0.5","","89","","","","5","","28","","","","99.06","","","","","","NA"
"-79.25","42.87","PORT COLBORNE (AUT)","613F606","2020-02-25 13:00","2020","02","25","13:00","2.8","","0.8","","87","","","","6","","26","","","","99.02","","","","","","NA"
"-79.25","42.87","PORT COLBORNE (AUT)","613F606","2020-02-25 14:00","2020","02","25","14:00","3.4","","0.6","","82","","","","7","","27","","","","98.97","","","","","","NA"
"-79.25","42.87","PORT COLBORNE (AUT)","613F606","2020-02-25 15:00","2020","02","25","15:00","3.4","","0.5","","82","","","","3","","28","","","","98.98","","","","","","NA"
"-79.25","42.87","PORT COLBORNE (AUT)","613F606","2020-02-25 16:00","2020","02","25","16:00","2.7","","0.6","","86","","","","4","","26","","","","99.01","","","","","","NA"
"-79.25","42.87","PORT COLBORNE (AUT)","613F606","2020-02-25 17:00","2020","02","25","17:00","2.0","","0.6","","90","","","","4","","28","","","","99.02","","","","","","NA"
"-79.25","42.87","PORT COLBORNE (AUT)","613F606","2020-02-25 18:00","2020","02","25","18:00","1.8","","0.6","","92","","","","4","","20","","","","99.14","","","","","","NA"
"-79.25","42.87","PORT COLBORNE (AUT)","613F606","2020-02-25 19:00","2020","02","25","19:00","2.0","","0.1","","87","","","","5","","19","","","","99.22","","","","","","NA"
"-79.25","42.87","PORT COLBORNE (AUT)","613F606","2020-02-25 20:00","2020","02","25","20:00","2.1","","-0.1","","86","","","","5","","16","","","","99.25","","","","","","NA"
"-79.25","42.87","PORT COLBORNE (AUT)","613F606","2020-02-25 21:00","2020","02","25","21:00","2.3","","-0.3","","83","","","","5","","16","","","","99.21","","","","","","NA"
"-79.25","42.87","PORT COLBORNE (AUT)","613F606","2020-02-25 22:00","2020","02","25","22:00","2.4","","-1.1","","78","","","","6","","16","","","","99.23","","","","","","NA"
"-79.25","42.87","PORT COLBORNE (AUT)","613F606","2020-02-25 23:00","2020","02","25","23:00","2.4","","-1.7","","74","","","","4","","18","","","","99.21","","","","","","NA"
"-79.25","42.87","PORT COLBORNE (AUT)","613F606","2020-02-26 00:00","2020","02","26","00:00","2.3","","-1.5","","76","","","","5","","18","","","","99.19","","","","","","NA"
"-79.25","42.87","PORT COLBORNE (AUT)","613F606","2020-02-26 01:00","2020","02","26","01:00","2.1","","-2.4","","72","","","","6","","22","","","","99.16","","","","","","NA"
"-79.25","42.87","PORT COLBORNE (AUT)","613F606","2020-02-26 02:00","2020","02","26","02:00","1.6","","-2.7","","73","","","","6","","26","","","","99.16","","","","","","NA"
"-79.25","42.87","PORT COLBORNE (AUT)","613F606","2020-02-26 03:00","2020","02","26","03:00","1.3","","-2.4","","76","","","","5","","26","","","","99.12","","","","","","NA"
"-79.25","42.87","PORT COLBORNE (AUT)","613F606","2020-02-26 04:00","2020","02","26","04:00","0.8","","-1.8","","82","","","","5","","17","","","","99.10","","","","","","NA"
"-79.25","42.87","PORT COLBORNE (AUT)","613F606","2020-02-26 05:00","2020","02","26","05:00","0.6","","-1.6","","85","","","","6","","21","","","","99.09","","","","","","NA"
"-79.25","42.87","PORT COLBORNE (AUT)","613F606","2020-02-26 06:00","2020","02","26","06:00","0.6","","-1.9","","83","","","","6","","26","","","","99.05","","","","","","NA"
"-79.25","42.87","PORT COLBORNE (AUT)","613F606","2020-02-26 07:00","2020","02","26","07:00","0.4","","-2.0","","84","","","","5","","20","","","","99.08","","","","","","NA"
"-79.25","42.87","PORT COLBORNE (AUT)","613F606","2020-02-26 08:00","2020","02","26","08:00","0.1","","-1.6","","89","","","","5","","22","","","","99.06","","","","","","NA"
"-79.25","42.87","PORT COLBORNE (AUT)","613F606","2020-02-26 09:00","2020","02","26","09:00","0.1","","-1.4","","90","","","","5","","26","","","","99.00","","","","","","NA"
"-79.25","42.87","PORT COLBORNE (AUT)","613F606","2020-02-26 10:00","2020","02","26","10:00","0.2","","-1.2","","90","","","","7","","20","","","","98.97","","","","","","NA"
"-79.25","42.87","PORT COLBORNE (AUT)","613F606","2020-02-26 11:00","2020","02","26","11:00","0.2","","-0.7","","93","","","","5","","18","","","","98.95","","","","","","NA"
"-79.25","42.87","PORT COLBORNE (AUT)","613F606","2020-02-26 12:00","2020","02","26","12:00","0.5","","-0.5","","93","","","","5","","24","","","","98.80","","","","","","NA"
"-79.25","42.87","PORT COLBORNE (AUT)","613F606","2020-02-26 13:00","2020","02","26","13:00","0.8","","-0.3","","93","","","","5","","19","","","","98.69","","","","","","NA"
"-79.25","42.87","PORT COLBORNE (AUT)","613F606","2020-02-26 14:00","2020","02","26","14:00","0.7","","-0.2","","94","","","","4","","20","","","","98.56","","","","","","NA"
"-79.25","42.87","PORT COLBORNE (AUT)","613F606","2020-02-26 15:00","2020","02","26","15:00","0.7","","0.0","","95","","","","4","","21","","","","98.49","","","","","","NA"
"-79.25","42.87","PORT COLBORNE (AUT)","613F606","2020-02-26 16:00","2020","02","26","16:00","0.8","","0.2","","95","","","","4","","22","","","","98.45","","","","","","NA"
"-79.25","42.87","PORT COLBORNE (AUT)","613F606","2020-02-26 17:00","2020","02","26","17:00","0.9","","0.2","","95","","","","4","","22","","","","98.36","","","","","","NA"
"-79.25","42.87","PORT COLBORNE (AUT)","613F606","2020-02-26 18:00","2020","02","26","18:00","0.9","","0.2","","95","","","","5","","17","","","","98.26","","","","","","NA"
"-79.25","42.87","PORT COLBORNE (AUT)","613F606","2020-02-26 19:00","2020","02","26","19:00","0.9","","0.1","","95","","","","4","","18","","","","98.16","","","","","","NA"
"-79.25","42.87","PORT COLBORNE (AUT)","613F606","2020-02-26 20:00","2020","02","26","20:00","0.7","","0.0","","95","","","","3","","13","","","","98.06","","","","","","NA"
"-79.25","42.87","PORT COLBORNE (AUT)","613F606","2020-02-26 21:00","2020","02","26","21:00","0.5","","-0.2","","95","","","","1","","21","","","","97.90","","","","","","NA"
"-79.25","42.87","PORT COLBORNE (AUT)","613F606","2020-02-26 22:00","2020","02","26","22:00","0.2","","-0.4","","96","","","","1","","18","","","","97.87","","","","","","NA"
"-79.25","42.87","PORT COLBORNE (AUT)","613F606","2020-02-26 23:00","2020","02","26","23:00","-0.1","","-0.7","","96","","","","1","","26","","","","97.83","","","","-6","","NA"
"-79.25","42.87","PORT COLBORNE (AUT)","613F606","2020-02-27 00:00","2020","02","27","00:00","-1.3","","-1.8","","96","","","","34","","22","","","","97.81","","","","-7","","NA"
"-79.25","42.87","PORT COLBORNE (AUT)","613F606","2020-02-27 01:00","2020","02","27","01:00","-2.8","","-3.3","","96","","","","32","","28","","","","97.79","","","","-10","","NA"
"-79.25","42.87","PORT COLBORNE (AUT)","613F606","2020-02-27 02:00","2020","02","27","02:00","-3.2","","-3.8","","96","","","","29","","25","","","","97.83","","","","-10","","NA"
"-79.25","42.87","PORT COLBORNE (AUT)","613F606","2020-02-27 03:00","2020","02","27","03:00","-3.3","","-3.9","","95","","","","29","","35","","","","97.78","","","","-11","","NA"
"-79.25","42.87","PORT COLBORNE (AUT)","613F606","2020-02-27 04:00","2020","02","27","04:00","-3.9","","-4.9","","92","","","","29","","40","","","","97.81","","","","-13","","NA"
"-79.25","42.87","PORT COLBORNE (AUT)","613F606","2020-02-27 05:00","2020","02","27","05:00","-5.2","","-7.2","","86","","","","29","","46","","","","97.90","","","","-15","","NA"
"-79.25","42.87","PORT COLBORNE (AUT)","613F606","2020-02-27 06:00","2020","02","27","06:00","-4.9","","-7.3","","83","","","","28","","48","","","","97.98","","","","-15","","NA"
"-79.25","42.87","PORT COLBORNE (AUT)","613F606","2020-02-27 07:00","2020","02","27","07:00","-4.3","","-6.9","","82","","","","28","","54","","","","98.00","","","","-14","","NA"
"-79.25","42.87","PORT COLBORNE (AUT)","613F606","2020-02-27 08:00","2020","02","27","08:00","-3.8","","-7.8","","74","","","","28","","60","","","","98.08","","","","-14","","NA"
"-79.25","42.87","PORT COLBORNE (AUT)","613F606","2020-02-27 09:00","2020","02","27","09:00","-4.6","","-8.3","","75","","","","28","","72","","","","98.10","","","","-16","","NA"
"-79.25","42.87","PORT COLBORNE (AUT)","613F606","2020-02-27 10:00","2020","02","27","10:00","-4.7","","-9.2","","71","","","","28","","70","","","","98.16","","","","-16","","NA"
"-79.25","42.87","PORT COLBORNE (AUT)","613F606","2020-02-27 11:00","2020","02","27","11:00","-4.6","","-9.6","","68","","","","28","","68","","","","98.17","","","","-16","","NA"
"-79.25","42.87","PORT COLBORNE (AUT)","613F606","2020-02-27 12:00","2020","02","27","12:00","-4.2","","-9.0","","69","","","","28","","67","","","","98.19","","","","-15","","NA"
"-79.25","42.87","PORT COLBORNE (AUT)","613F606","2020-02-27 13:00","2020","02","27","13:00","-4.4","","-8.6","","73","","","","28","","72","","","","98.18","","","","-16","","NA"
"-79.25","42.87","PORT COLBORNE (AUT)","613F606","2020-02-27 14:00","2020","02","27","14:00","-4.1","","-9.3","","67","","","","27","","69","","","","98.21","","","","-15","","NA"
"-79.25","42.87","PORT COLBORNE (AUT)","613F606","2020-02-27 15:00","2020","02","27","15:00","-3.6","","-9.9","","61","","","","28","","63","","","","98.27","","","","-14","","NA"
"-79.25","42.87","PORT COLBORNE (AUT)","613F606","2020-02-27 16:00","2020","02","27","16:00","-3.8","","-9.8","","63","","","","27","","72","","","","98.30","","","","-15","","NA"
"-79.25","42.87","PORT COLBORNE (AUT)","613F606","2020-02-27 17:00","2020","02","27","17:00","-3.6","","-10.9","","57","","","","28","","66","","","","98.34","","","","-14","","NA"
"-79.25","42.87","PORT COLBORNE (AUT)","613F606","2020-02-27 18:00","2020","02","27","18:00","-3.8","","-12.0","","53","","","","28","","70","","","","98.39","","","","-15","","NA"
"-79.25","42.87","PORT COLBORNE (AUT)","613F606","2020-02-27 19:00","2020","02","27","19:00","-4.3","","-10.5","","62","","","","28","","63","","","","98.44","","","","-15","","NA"
"-79.25","42.87","PORT COLBORNE (AUT)","613F606","2020-02-27 20:00","2020","02","27","20:00","-3.9","","-10.9","","58","","","","28","","71","","","","98.42","","","","-15","","NA"
"-79.25","42.87","PORT COLBORNE (AUT)","613F606","2020-02-27 21:00","2020","02","27","21:00","-4.1","","-11.0","","58","","","","27","","73","","","","98.43","","","","-15","","NA"
"-79.25","42.87","PORT COLBORNE (AUT)","613F606","2020-02-27 22:00","2020","02","27","22:00","-4.1","","-9.7","","65","","","","27","","72","","","","98.45","","","","-15","","NA"
"-79.25","42.87","PORT COLBORNE (AUT)","613F606","2020-02-27 23:00","2020","02","27","23:00","-4.6","","-10.2","","64","","","","27","","74","","","","98.47","","","","-16","","NA"
"-79.25","42.87","PORT COLBORNE (AUT)","613F606","2020-02-28 00:00","2020","02","28","00:00","-4.4","","-9.5","","67","","","","27","","75","","","","98.46","","","","-16","","NA"
"-79.25","42.87","PORT COLBORNE (AUT)","613F606","2020-02-28 01:00","2020","02","28","01:00","-4.7","","-10.2","","66","","","","27","","74","","","","98.49","","","","-16","","NA"
"-79.25","42.87","PORT COLBORNE (AUT)","613F606","2020-02-28 02:00","2020","02","28","02:00","-4.8","","-10.1","","66","","","","27","","66","","","","98.49","","","","-16","","NA"
"-79.25","42.87","PORT COLBORNE (AUT)","613F606","2020-02-28 03:00","2020","02","28","03:00","-4.8","","-10.0","","67","","","","27","","69","","","","98.48","","","","-16","","NA"
"-79.25","42.87","PORT COLBORNE (AUT)","613F606","2020-02-28 04:00","2020","02","28","04:00","-5.2","","-11.2","","63","","","","27","","70","","","","98.48","","","","-17","","NA"
"-79.25","42.87","PORT COLBORNE (AUT)","613F606","2020-02-28 05:00","2020","02","28","05:00","-5.4","","-11.7","","61","","","","27","","66","","","","98.52","","","","-17","","NA"
"-79.25","42.87","PORT COLBORNE (AUT)","613F606","2020-02-28 06:00","2020","02","28","06:00","-5.3","","-10.7","","66","","","","27","","68","","","","98.50","","","","-17","","NA"
"-79.25","42.87","PORT COLBORNE (AUT)","613F606","2020-02-28 07:00","2020","02","28","07:00","-5.9","","-12.3","","61","","","","27","","70","","","","98.51","","","","-18","","NA"
"-79.25","42.87","PORT COLBORNE (AUT)","613F606","2020-02-28 08:00","2020","02","28","08:00","-5.7","","-12.3","","60","","","","28","","67","","","","98.50","","","","-17","","NA"
"-79.25","42.87","PORT COLBORNE (AUT)","613F606","2020-02-28 09:00","2020","02","28","09:00","-5.8","","-12.9","","57","","","","28","","63","","","","98.52","","","","-17","","NA"
"-79.25","42.87","PORT COLBORNE (AUT)","613F606","2020-02-28 10:00","2020","02","28","10:00","-5.8","","-12.8","","58","","","","28","","60","","","","98.50","","","","-17","","NA"
"-79.25","42.87","PORT COLBORNE (AUT)","613F606","2020-02-28 11:00","2020","02","28","11:00","-5.6","","-12.4","","59","","","","28","","51","","","","98.52","","","","-16","","NA"
"-79.25","42.87","PORT COLBORNE (AUT)","613F606","2020-02-28 12:00","2020","02","28","12:00","-4.9","","-10.8","","64","","","","27","","59","","","","98.49","","","","-15","","NA"
"-79.25","42.87","PORT COLBORNE (AUT)","613F606","2020-02-28 13:00","2020","02","28","13:00","-4.9","","-11.3","","61","","","","28","","52","","","","98.49","","","","-15","","NA"
"-79.25","42.87","PORT COLBORNE (AUT)","613F606","2020-02-28 14:00","2020","02","28","14:00","-4.6","","-10.8","","62","","","","27","","56","","","","98.46","","","","-15","","NA"
"-79.25","42.87","PORT COLBORNE (AUT)","613F606","2020-02-28 15:00","2020","02","28","15:00","-4.2","","-9.9","","64","","","","26","","59","","","","98.48","","","","-15","","NA"
"-79.25","42.87","PORT COLBORNE (AUT)","613F606","2020-02-28 16:00","2020","02","28","16:00","-3.8","","-9.5","","65","","","","27","","58","","","","98.51","","","","-14","","NA"
"-79.25","42.87","PORT COLBORNE (AUT)","613F606","2020-02-28 17:00","2020","02","28","17:00","-3.5","","-9.9","","61","","","","27","","60","","","","98.54","","","","-14","","NA"
"-79.25","42.87","PORT COLBORNE (AUT)","613F606","2020-02-28 18:00","2020","02","28","18:00","-3.5","","-8.8","","67","","","","28","","54","","","","98.64","","","","-13","","NA"
"-79.25","42.87","PORT COLBORNE (AUT)","613F606","2020-02-28 19:00","2020","02","28","19:00","-3.3","","-10.2","","59","","","","27","","61","","","","98.63","","","","-13","","NA"
"-79.25","42.87","PORT COLBORNE (AUT)","613F606","2020-02-28 20:00","2020","02","28","20:00","-3.3","","-9.2","","64","","","","28","","53","","","","98.69","","","","-13","","NA"
"-79.25","42.87","PORT COLBORNE (AUT)","613F606","2020-02-28 21:00","2020","02","28","21:00","-3.4","","-9.4","","63","","","","28","","57","","","","98.69","","","","-13","","NA"
"-79.25","42.87","PORT COLBORNE (AUT)","613F606","2020-02-28 22:00","2020","02","28","22:00","-3.7","","-9.1","","66","","","","28","","56","","","","98.69","","","","-14","","NA"
"-79.25","42.87","PORT COLBORNE (AUT)","613F606","2020-02-28 23:00","2020","02","28","23:00","-4.0","","-9.2","","67","","","","28","","54","","","","98.66","","","","-14","","NA"
"-79.25","42.87","PORT COLBORNE (AUT)","613F606","2020-02-29 00:00","2020","02","29","00:00","-4.6","","-8.0","","77","","","","28","","48","","","","98.67","","","","-14","","NA"
"-79.25","42.87","PORT COLBORNE (AUT)","613F606","2020-02-29 01:00","2020","02","29","01:00","-5.5","","-8.2","","82","","","","30","","27","","","","98.70","","","","-13","","NA"
"-79.25","42.87","PORT COLBORNE (AUT)","613F606","2020-02-29 02:00","2020","02","29","02:00","-7.0","","-8.9","","87","","","","33","","19","","","","98.74","","","","-14","","NA"
"-79.25","42.87","PORT COLBORNE (AUT)","613F606","2020-02-29 03:00","2020","02","29","03:00","-7.4","","-10.1","","81","","","","33","","24","","","","98.78","","","","-15","","NA"
"-79.25","42.87","PORT COLBORNE (AUT)","613F606","2020-02-29 04:00","2020","02","29","04:00","-7.8","","-12.6","","69","","","","33","","27","","","","98.80","","","","-16","","NA"
"-79.25","42.87","PORT COLBORNE (AUT)","613F606","2020-02-29 05:00","2020","02","29","05:00","-8.1","","-13.4","","66","","","","31","","27","","","","98.87","","","","-17","","NA"
"-79.25","42.87","PORT COLBORNE (AUT)","613F606","2020-02-29 06:00","2020","02","29","06:00","-9.1","","-14.6","","64","","","","31","","25","","","","98.98","","","","-18","","NA"
"-79.25","42.87","PORT COLBORNE (AUT)","613F606","2020-02-29 07:00","2020","02","29","07:00","-9.7","","-14.7","","67","","","","30","","23","","","","99.08","","","","-18","","NA"
"-79.25","42.87","PORT COLBORNE (AUT)","613F606","2020-02-29 08:00","2020","02","29","08:00","-9.9","","-14.5","","69","","","","31","","21","","","","99.14","","","","-18","","NA"
"-79.25","42.87","PORT COLBORNE (AUT)","613F606","2020-02-29 09:00","2020","02","29","09:00","-9.4","","-14.4","","67","","","","32","","18","","","","99.19","","","","-17","","NA"
"-79.25","42.87","PORT COLBORNE (AUT)","613F606","2020-02-29 10:00","2020","02","29","10:00","-9.1","","-15.4","","60","","","","32","","22","","","","99.24","","","","-17","","NA"
"-79.25","42.87","PORT COLBORNE (AUT)","613F606","2020-02-29 11:00","2020","02","29","11:00","-8.1","","-14.7","","59","","","","30","","23","","","","99.30","","","","-16","","NA"
"-79.25","42.87","PORT COLBORNE (AUT)","613F606","2020-02-29 12:00","2020","02","29","12:00","-7.6","","-14.3","","58","","","","29","","32","","","","99.32","","","","-17","","NA"
"-79.25","42.87","PORT COLBORNE (AUT)","613F606","2020-02-29 13:00","2020","02","29","13:00","-7.0","","-11.9","","68","","","","30","","25","","","","99.33","","","","-15","","NA"
"-79.25","42.87","PORT COLBORNE (AUT)","613F606","2020-02-29 14:00","2020","02","29","14:00","-6.9","","-11.2","","72","","","","30","","31","","","","99.35","","","","-16","","NA"
"-79.25","42.87","PORT COLBORNE (AUT)","613F606","2020-02-29 15:00","2020","02","29","15:00","-5.8","","-10.6","","69","","","","30","","25","","","","99.36","","","","-13","","NA"
"-79.25","42.87","PORT COLBORNE (AUT)","613F606","2020-02-29 16:00","2020","02","29","16:00","-5.0","","-8.5","","76","","","","29","","33","","","","99.37","","","","-13","","NA"
"-79.25","42.87","PORT COLBORNE (AUT)","613F606","2020-02-29 17:00","2020","02","29","17:00","-3.9","","-9.0","","68","","","","29","","31","","","","99.41","","","","-12","","NA"
"-79.25","42.87","PORT COLBORNE (AUT)","613F606","2020-02-29 18:00","2020","02","29","18:00","-3.7","","-11.4","","56","","","","30","","31","","","","99.50","","","","-11","","NA"
"-79.25","42.87","PORT COLBORNE (AUT)","613F606","2020-02-29 19:00","2020","02","29","19:00","-3.9","","-10.7","","59","","","","29","","31","","","","99.59","","","","-12","","NA"
"-79.25","42.87","PORT COLBORNE (AUT)","613F606","2020-02-29 20:00","2020","02","29","20:00","-3.9","","-9.8","","63","","","","29","","35","","","","99.64","","","","-12","","NA"
"-79.25","42.87","PORT COLBORNE (AUT)","613F606","2020-02-29 21:00","2020","02","29","21:00","-4.1","","-10.0","","64","","","","29","","28","","","","99.68","","","","-12","","NA"
"-79.25","42.87","PORT COLBORNE (AUT)","613F606","2020-02-29 22:00","2020","02","29","22:00","-4.0","","-10.1","","62","","","","29","","23","","","","99.69","","","","-11","","NA"
"-79.25","42.87","PORT COLBORNE (AUT)","613F606","2020-02-29 23:00","2020","02","29","23:00","-3.4","","-9.9","","61","","","","29","","24","","","","99.67","","","","-10","","NA"
