"Longitude (x)","Latitude (y)","Station Name","Climate ID","Date/Time (LST)","Year","Month","Day","Time (LST)","Temp (°C)","Temp Flag","Dew Point Temp (°C)","Dew Point Temp Flag","Rel Hum (%)","Rel Hum Flag","Precip. Amount (mm)","Precip. Amount Flag","Wind Dir (10s deg)","Wind Dir Flag","Wind Spd (km/h)","Wind Spd Flag","Visibility (km)","Visibility Flag","Stn Press (kPa)","Stn Press Flag","Hmdx","Hmdx Flag","Wind Chill","Wind Chill Flag","Weather"
"-79.16","44.10","UXBRIDGE WEST","6159123","2020-03-01 00:00","2020","03","01","00:00","-14.8","","","M","","M","","M","16","","1","","","","97.85","","","","-16","","NA"
"-79.16","44.10","UXBRIDGE WEST","6159123","2020-03-01 01:00","2020","03","01","01:00","-16.3","","","M","","M","","M","21","","4","","","","97.85","","","","-19","","NA"
"-79.16","44.10","UXBRIDGE WEST","6159123","2020-03-01 02:00","2020","03","01","02:00","-14.3","","","M","","M","","M","19","","5","","","","97.86","","","","-18","","NA"
"-79.16","44.10","UXBRIDGE WEST","6159123","2020-03-01 03:00","2020","03","01","03:00","-12.6","","","M","","M","","M","21","","4","","","","97.84","","","","-15","","NA"
"-79.16","44.10","UXBRIDGE WEST","6159123","2020-03-01 04:00","2020","03","01","04:00","-11.9","","","M","","M","","M","22","","4","","","","97.85","","","","-14","","NA"
"-79.16","44.10","UXBRIDGE WEST","6159123","2020-03-01 05:00","2020","03","01","05:00","-9.0","","","M","","M","","M","25","","6","","","","97.91","","","","-12","","NA"
"-79.16","44.10","UXBRIDGE WEST","6159123","2020-03-01 06:00","2020","03","01","06:00","-9.5","","","M","","M","","M","30","","5","","","","97.96","","","","-12","","NA"
"-79.16","44.10","UXBRIDGE WEST","6159123","2020-03-01 07:00","2020","03","01","07:00","-10.1","","","M","","M","","M","26","","2","","","","97.98","","","","-11","","NA"
"-79.16","44.10","UXBRIDGE WEST","6159123","2020-03-01 08:00","2020","03","01","08:00","-8.2","","","M","","M","","M","24","","2","","","","98.00","","","","-9","","NA"
"-79.16","44.10","UXBRIDGE WEST","6159123","2020-03-01 09:00","2020","03","01","09:00","-5.1","","","M","","M","","M","25","","3","","","","98.02","","","","-6","","NA"
"-79.16","44.10","UXBRIDGE WEST","6159123","2020-03-01 10:00","2020","03","01","10:00","-3.5","","","M","","M","","M","30","","6","","","","98.03","","","","-6","","NA"
"-79.16","44.10","UXBRIDGE WEST","6159123","2020-03-01 11:00","2020","03","01","11:00","-1.2","","","M","","M","","M","22","","6","","","","97.97","","","","-3","","NA"
"-79.16","44.10","UXBRIDGE WEST","6159123","2020-03-01 12:00","2020","03","01","12:00","-0.7","","","M","","M","","M","20","","8","","","","97.97","","","","-4","","NA"
"-79.16","44.10","UXBRIDGE WEST","6159123","2020-03-01 13:00","2020","03","01","13:00","-1.0","","","M","","M","","M","19","","15","","","","97.89","","","","-6","","NA"
"-79.16","44.10","UXBRIDGE WEST","6159123","2020-03-01 14:00","2020","03","01","14:00","-0.1","","","M","","M","","M","18","","16","","","","97.81","","","","-5","","NA"
"-79.16","44.10","UXBRIDGE WEST","6159123","2020-03-01 15:00","2020","03","01","15:00","0.2","","","M","","M","","M","18","","14","","","","97.79","","","","","","NA"
"-79.16","44.10","UXBRIDGE WEST","6159123","2020-03-01 16:00","2020","03","01","16:00","-0.8","","","M","","M","","M","18","","19","","","","97.72","","","","-6","","NA"
"-79.16","44.10","UXBRIDGE WEST","6159123","2020-03-01 17:00","2020","03","01","17:00","-1.0","","","M","","M","","M","17","","19","","","","97.67","","","","-6","","NA"
"-79.16","44.10","UXBRIDGE WEST","6159123","2020-03-01 18:00","2020","03","01","18:00","-1.1","","","M","","M","","M","16","","21","","","","97.58","","","","-7","","NA"
"-79.16","44.10","UXBRIDGE WEST","6159123","2020-03-01 19:00","2020","03","01","19:00","-0.8","","","M","","M","","M","16","","25","","","","97.45","","","","-7","","NA"
"-79.16","44.10","UXBRIDGE WEST","6159123","2020-03-01 20:00","2020","03","01","20:00","-0.7","","","M","","M","","M","15","","21","","","","97.38","","","","-6","","NA"
"-79.16","44.10","UXBRIDGE WEST","6159123","2020-03-01 21:00","2020","03","01","21:00","-0.7","","","M","","M","","M","14","","22","","","","97.29","","","","-6","","NA"
"-79.16","44.10","UXBRIDGE WEST","6159123","2020-03-01 22:00","2020","03","01","22:00","0.4","","","M","","M","","M","15","","19","","","","97.27","","","","","","NA"
"-79.16","44.10","UXBRIDGE WEST","6159123","2020-03-01 23:00","2020","03","01","23:00","0.6","","","M","","M","","M","16","","26","","","","97.11","","","","","","NA"
"-79.16","44.10","UXBRIDGE WEST","6159123","2020-03-02 00:00","2020","03","02","00:00","0.8","","","M","","M","","M","16","","23","","","","97.00","","","","","","NA"
"-79.16","44.10","UXBRIDGE WEST","6159123","2020-03-02 01:00","2020","03","02","01:00","1.7","","","M","","M","","M","17","","23","","","","96.94","","","","","","NA"
"-79.16","44.10","UXBRIDGE WEST","6159123","2020-03-02 02:00","2020","03","02","02:00","2.3","","","M","","M","","M","18","","13","","","","96.87","","","","","","NA"
"-79.16","44.10","UXBRIDGE WEST","6159123","2020-03-02 03:00","2020","03","02","03:00","2.3","","","M","","M","","M","18","","14","","","","96.75","","","","","","NA"
"-79.16","44.10","UXBRIDGE WEST","6159123","2020-03-02 04:00","2020","03","02","04:00","2.6","","","M","","M","","M","19","","16","","","","96.69","","","","","","NA"
"-79.16","44.10","UXBRIDGE WEST","6159123","2020-03-02 05:00","2020","03","02","05:00","3.8","","","M","","M","","M","21","","17","","","","96.66","","","","","","NA"
"-79.16","44.10","UXBRIDGE WEST","6159123","2020-03-02 06:00","2020","03","02","06:00","2.9","","","M","","M","","M","20","","12","","","","96.63","","","","","","NA"
"-79.16","44.10","UXBRIDGE WEST","6159123","2020-03-02 07:00","2020","03","02","07:00","2.4","","","M","","M","","M","19","","11","","","","96.58","","","","","","NA"
"-79.16","44.10","UXBRIDGE WEST","6159123","2020-03-02 08:00","2020","03","02","08:00","3.5","","","M","","M","","M","21","","11","","","","96.58","","","","","","NA"
"-79.16","44.10","UXBRIDGE WEST","6159123","2020-03-02 09:00","2020","03","02","09:00","4.0","","","M","","M","","M","20","","15","","","","96.56","","","","","","NA"
"-79.16","44.10","UXBRIDGE WEST","6159123","2020-03-02 10:00","2020","03","02","10:00","4.9","","","M","","M","","M","21","","12","","","","96.55","","","","","","NA"
"-79.16","44.10","UXBRIDGE WEST","6159123","2020-03-02 11:00","2020","03","02","11:00","3.7","","","M","","M","","M","19","","11","","","","96.51","","","","","","NA"
"-79.16","44.10","UXBRIDGE WEST","6159123","2020-03-02 12:00","2020","03","02","12:00","4.3","","","M","","M","","M","22","","9","","","","96.47","","","","","","NA"
"-79.16","44.10","UXBRIDGE WEST","6159123","2020-03-02 13:00","2020","03","02","13:00","4.3","","","M","","M","","M","24","","7","","","","96.43","","","","","","NA"
"-79.16","44.10","UXBRIDGE WEST","6159123","2020-03-02 14:00","2020","03","02","14:00","4.4","","","M","","M","","M","25","","9","","","","96.38","","","","","","NA"
"-79.16","44.10","UXBRIDGE WEST","6159123","2020-03-02 15:00","2020","03","02","15:00","5.0","","","M","","M","","M","23","","12","","","","96.36","","","","","","NA"
"-79.16","44.10","UXBRIDGE WEST","6159123","2020-03-02 16:00","2020","03","02","16:00","4.8","","","M","","M","","M","25","","12","","","","96.39","","","","","","NA"
"-79.16","44.10","UXBRIDGE WEST","6159123","2020-03-02 17:00","2020","03","02","17:00","4.5","","","M","","M","","M","24","","13","","","","96.41","","","","","","NA"
"-79.16","44.10","UXBRIDGE WEST","6159123","2020-03-02 18:00","2020","03","02","18:00","4.0","","","M","","M","","M","25","","9","","","","96.47","","","","","","NA"
"-79.16","44.10","UXBRIDGE WEST","6159123","2020-03-02 19:00","2020","03","02","19:00","3.2","","","M","","M","","M","26","","8","","","","96.55","","","","","","NA"
"-79.16","44.10","UXBRIDGE WEST","6159123","2020-03-02 20:00","2020","03","02","20:00","2.3","","","M","","M","","M","31","","9","","","","96.62","","","","","","NA"
"-79.16","44.10","UXBRIDGE WEST","6159123","2020-03-02 21:00","2020","03","02","21:00","0.1","","","M","","M","","M","36","","3","","","","96.66","","","","","","NA"
"-79.16","44.10","UXBRIDGE WEST","6159123","2020-03-02 22:00","2020","03","02","22:00","-2.3","","","M","","M","","M","18","","2","","","","96.69","","","","-3","","NA"
"-79.16","44.10","UXBRIDGE WEST","6159123","2020-03-02 23:00","2020","03","02","23:00","-2.9","","","M","","M","","M","","","0","","","","96.68","","","","","","NA"
"-79.16","44.10","UXBRIDGE WEST","6159123","2020-03-03 00:00","2020","03","03","00:00","-3.9","","","M","","M","","M","19","","4","","","","96.66","","","","-6","","NA"
"-79.16","44.10","UXBRIDGE WEST","6159123","2020-03-03 01:00","2020","03","03","01:00","-3.3","","","M","","M","","M","17","","4","","","","96.67","","","","-5","","NA"
"-79.16","44.10","UXBRIDGE WEST","6159123","2020-03-03 02:00","2020","03","03","02:00","-2.9","","","M","","M","","M","7","","2","","","","96.68","","","","-4","","NA"
"-79.16","44.10","UXBRIDGE WEST","6159123","2020-03-03 03:00","2020","03","03","03:00","-1.2","","","M","","M","","M","14","","3","","","","96.66","","","","-2","","NA"
"-79.16","44.10","UXBRIDGE WEST","6159123","2020-03-03 04:00","2020","03","03","04:00","-1.4","","","M","","M","","M","7","","7","","","","96.57","","","","-4","","NA"
"-79.16","44.10","UXBRIDGE WEST","6159123","2020-03-03 05:00","2020","03","03","05:00","-1.4","","","M","","M","","M","8","","6","","","","96.56","","","","-4","","NA"
"-79.16","44.10","UXBRIDGE WEST","6159123","2020-03-03 06:00","2020","03","03","06:00","-1.7","","","M","","M","","M","12","","7","","","","96.54","","","","-4","","NA"
"-79.16","44.10","UXBRIDGE WEST","6159123","2020-03-03 07:00","2020","03","03","07:00","-2.6","","","M","","M","","M","10","","6","","","","96.52","","","","-5","","NA"
"-79.16","44.10","UXBRIDGE WEST","6159123","2020-03-03 08:00","2020","03","03","08:00","-1.1","","","M","","M","","M","11","","5","","","","96.47","","","","-3","","NA"
"-79.16","44.10","UXBRIDGE WEST","6159123","2020-03-03 09:00","2020","03","03","09:00","1.1","","","M","","M","","M","12","","12","","","","96.39","","","","","","NA"
"-79.16","44.10","UXBRIDGE WEST","6159123","2020-03-03 10:00","2020","03","03","10:00","2.4","","","M","","M","","M","13","","9","","","","96.32","","","","","","NA"
"-79.16","44.10","UXBRIDGE WEST","6159123","2020-03-03 11:00","2020","03","03","11:00","3.0","","","M","","M","","M","12","","9","","","","96.20","","","","","","NA"
"-79.16","44.10","UXBRIDGE WEST","6159123","2020-03-03 12:00","2020","03","03","12:00","2.9","","","M","","M","","M","12","","11","","","","96.05","","","","","","NA"
"-79.16","44.10","UXBRIDGE WEST","6159123","2020-03-03 13:00","2020","03","03","13:00","3.0","","","M","","M","","M","11","","6","","","","95.93","","","","","","NA"
"-79.16","44.10","UXBRIDGE WEST","6159123","2020-03-03 14:00","2020","03","03","14:00","2.3","","","M","","M","","M","4","","6","","","","95.77","","","","","","NA"
"-79.16","44.10","UXBRIDGE WEST","6159123","2020-03-03 15:00","2020","03","03","15:00","1.5","","","M","","M","","M","34","","9","","","","95.74","","","","","","NA"
"-79.16","44.10","UXBRIDGE WEST","6159123","2020-03-03 16:00","2020","03","03","16:00","1.4","","","M","","M","","M","32","","4","","","","95.74","","","","","","NA"
"-79.16","44.10","UXBRIDGE WEST","6159123","2020-03-03 17:00","2020","03","03","17:00","0.7","","","M","","M","","M","33","","7","","","","95.72","","","","","","NA"
"-79.16","44.10","UXBRIDGE WEST","6159123","2020-03-03 18:00","2020","03","03","18:00","0.7","","","M","","M","","M","28","","7","","","","95.81","","","","","","NA"
"-79.16","44.10","UXBRIDGE WEST","6159123","2020-03-03 19:00","2020","03","03","19:00","0.9","","","M","","M","","M","28","","12","","","","95.86","","","","","","NA"
"-79.16","44.10","UXBRIDGE WEST","6159123","2020-03-03 20:00","2020","03","03","20:00","1.1","","","M","","M","","M","28","","14","","","","95.92","","","","","","NA"
"-79.16","44.10","UXBRIDGE WEST","6159123","2020-03-03 21:00","2020","03","03","21:00","1.2","","","M","","M","","M","28","","14","","","","95.97","","","","","","NA"
"-79.16","44.10","UXBRIDGE WEST","6159123","2020-03-03 22:00","2020","03","03","22:00","0.7","","","M","","M","","M","29","","13","","","","96.02","","","","","","NA"
"-79.16","44.10","UXBRIDGE WEST","6159123","2020-03-03 23:00","2020","03","03","23:00","0.6","","","M","","M","","M","29","","13","","","","96.07","","","","","","NA"
"-79.16","44.10","UXBRIDGE WEST","6159123","2020-03-04 00:00","2020","03","04","00:00","0.1","","","M","","M","","M","28","","9","","","","96.16","","","","","","NA"
"-79.16","44.10","UXBRIDGE WEST","6159123","2020-03-04 01:00","2020","03","04","01:00","0.3","","","M","","M","","M","28","","13","","","","96.20","","","","","","NA"
"-79.16","44.10","UXBRIDGE WEST","6159123","2020-03-04 02:00","2020","03","04","02:00","0.7","","","M","","M","","M","28","","12","","","","96.23","","","","","","NA"
"-79.16","44.10","UXBRIDGE WEST","6159123","2020-03-04 03:00","2020","03","04","03:00","1.0","","","M","","M","","M","28","","13","","","","96.22","","","","","","NA"
"-79.16","44.10","UXBRIDGE WEST","6159123","2020-03-04 04:00","2020","03","04","04:00","0.9","","","M","","M","","M","28","","18","","","","96.27","","","","","","NA"
"-79.16","44.10","UXBRIDGE WEST","6159123","2020-03-04 05:00","2020","03","04","05:00","0.9","","","M","","M","","M","28","","16","","","","96.38","","","","","","NA"
"-79.16","44.10","UXBRIDGE WEST","6159123","2020-03-04 06:00","2020","03","04","06:00","0.6","","","M","","M","","M","28","","14","","","","96.49","","","","","","NA"
"-79.16","44.10","UXBRIDGE WEST","6159123","2020-03-04 07:00","2020","03","04","07:00","-0.2","","","M","","M","","M","28","","14","","","","96.58","","","","-4","","NA"
"-79.16","44.10","UXBRIDGE WEST","6159123","2020-03-04 08:00","2020","03","04","08:00","-0.1","","","M","","M","","M","27","","12","","","","96.67","","","","-4","","NA"
"-79.16","44.10","UXBRIDGE WEST","6159123","2020-03-04 09:00","2020","03","04","09:00","1.3","","","M","","M","","M","25","","9","","","","96.69","","","","","","NA"
"-79.16","44.10","UXBRIDGE WEST","6159123","2020-03-04 10:00","2020","03","04","10:00","1.7","","","M","","M","","M","24","","14","","","","96.73","","","","","","NA"
"-79.16","44.10","UXBRIDGE WEST","6159123","2020-03-04 11:00","2020","03","04","11:00","2.2","","","M","","M","","M","27","","19","","","","96.72","","","","","","NA"
"-79.16","44.10","UXBRIDGE WEST","6159123","2020-03-04 12:00","2020","03","04","12:00","2.4","","","M","","M","","M","28","","21","","","","96.72","","","","","","NA"
"-79.16","44.10","UXBRIDGE WEST","6159123","2020-03-04 13:00","2020","03","04","13:00","2.8","","","M","","M","","M","28","","23","","","","96.69","","","","","","NA"
"-79.16","44.10","UXBRIDGE WEST","6159123","2020-03-04 14:00","2020","03","04","14:00","2.9","","","M","","M","","M","28","","24","","","","96.71","","","","","","NA"
"-79.16","44.10","UXBRIDGE WEST","6159123","2020-03-04 15:00","2020","03","04","15:00","2.3","","","M","","M","","M","29","","25","","","","96.82","","","","","","NA"
"-79.16","44.10","UXBRIDGE WEST","6159123","2020-03-04 16:00","2020","03","04","16:00","0.2","","","M","","M","","M","30","","14","","","","96.93","","","","","","NA"
"-79.16","44.10","UXBRIDGE WEST","6159123","2020-03-04 17:00","2020","03","04","17:00","0.1","","","M","","M","","M","29","","15","","","","97.04","","","","","","NA"
"-79.16","44.10","UXBRIDGE WEST","6159123","2020-03-04 18:00","2020","03","04","18:00","0.3","","","M","","M","","M","30","","19","","","","97.17","","","","","","NA"
"-79.16","44.10","UXBRIDGE WEST","6159123","2020-03-04 19:00","2020","03","04","19:00","0.0","","","M","","M","","M","29","","15","","","","97.27","","","","-4","","NA"
"-79.16","44.10","UXBRIDGE WEST","6159123","2020-03-04 20:00","2020","03","04","20:00","-0.1","","","M","","M","","M","30","","14","","","","97.36","","","","-4","","NA"
"-79.16","44.10","UXBRIDGE WEST","6159123","2020-03-04 21:00","2020","03","04","21:00","-0.2","","","M","","M","","M","31","","17","","","","97.42","","","","-5","","NA"
"-79.16","44.10","UXBRIDGE WEST","6159123","2020-03-04 22:00","2020","03","04","22:00","-0.4","","","M","","M","","M","31","","18","","","","97.49","","","","-5","","NA"
"-79.16","44.10","UXBRIDGE WEST","6159123","2020-03-04 23:00","2020","03","04","23:00","-0.6","","","M","","M","","M","29","","19","","","","97.61","","","","-6","","NA"
"-79.16","44.10","UXBRIDGE WEST","6159123","2020-03-05 00:00","2020","03","05","00:00","-0.7","","","M","","M","","M","30","","22","","","","97.68","","","","-6","","NA"
"-79.16","44.10","UXBRIDGE WEST","6159123","2020-03-05 01:00","2020","03","05","01:00","-0.8","","","M","","M","","M","31","","22","","","","97.73","","","","-7","","NA"
"-79.16","44.10","UXBRIDGE WEST","6159123","2020-03-05 02:00","2020","03","05","02:00","-1.0","","","M","","M","","M","30","","18","","","","97.79","","","","-6","","NA"
"-79.16","44.10","UXBRIDGE WEST","6159123","2020-03-05 03:00","2020","03","05","03:00","-1.3","","","M","","M","","M","31","","16","","","","97.80","","","","-6","","NA"
"-79.16","44.10","UXBRIDGE WEST","6159123","2020-03-05 04:00","2020","03","05","04:00","-1.6","","","M","","M","","M","31","","23","","","","97.86","","","","-8","","NA"
"-79.16","44.10","UXBRIDGE WEST","6159123","2020-03-05 05:00","2020","03","05","05:00","-2.2","","","M","","M","","M","31","","21","","","","97.92","","","","-8","","NA"
"-79.16","44.10","UXBRIDGE WEST","6159123","2020-03-05 06:00","2020","03","05","06:00","-2.5","","","M","","M","","M","30","","15","","","","97.96","","","","-7","","NA"
"-79.16","44.10","UXBRIDGE WEST","6159123","2020-03-05 07:00","2020","03","05","07:00","-3.7","","","M","","M","","M","28","","7","","","","98.02","","","","-7","","NA"
"-79.16","44.10","UXBRIDGE WEST","6159123","2020-03-05 08:00","2020","03","05","08:00","-2.9","","","M","","M","","M","27","","8","","","","98.03","","","","-6","","NA"
"-79.16","44.10","UXBRIDGE WEST","6159123","2020-03-05 09:00","2020","03","05","09:00","-2.3","","","M","","M","","M","28","","9","","","","98.05","","","","-6","","NA"
"-79.16","44.10","UXBRIDGE WEST","6159123","2020-03-05 10:00","2020","03","05","10:00","-1.2","","","M","","M","","M","27","","8","","","","98.00","","","","-4","","NA"
"-79.16","44.10","UXBRIDGE WEST","6159123","2020-03-05 11:00","2020","03","05","11:00","0.1","","","M","","M","","M","21","","10","","","","98.02","","","","","","NA"
"-79.16","44.10","UXBRIDGE WEST","6159123","2020-03-05 12:00","2020","03","05","12:00","1.2","","","M","","M","","M","21","","12","","","","98.01","","","","","","NA"
"-79.16","44.10","UXBRIDGE WEST","6159123","2020-03-05 13:00","2020","03","05","13:00","2.3","","","M","","M","","M","21","","11","","","","97.98","","","","","","NA"
"-79.16","44.10","UXBRIDGE WEST","6159123","2020-03-05 14:00","2020","03","05","14:00","3.1","","","M","","M","","M","25","","8","","","","97.91","","","","","","NA"
"-79.16","44.10","UXBRIDGE WEST","6159123","2020-03-05 15:00","2020","03","05","15:00","3.5","","","M","","M","","M","26","","5","","","","97.87","","","","","","NA"
"-79.16","44.10","UXBRIDGE WEST","6159123","2020-03-05 16:00","2020","03","05","16:00","3.9","","","M","","M","","M","22","","9","","","","97.85","","","","","","NA"
"-79.16","44.10","UXBRIDGE WEST","6159123","2020-03-05 17:00","2020","03","05","17:00","3.0","","","M","","M","","M","17","","5","","","","97.82","","","","","","NA"
"-79.16","44.10","UXBRIDGE WEST","6159123","2020-03-05 18:00","2020","03","05","18:00","2.2","","","M","","M","","M","15","","4","","","","97.78","","","","","","NA"
"-79.16","44.10","UXBRIDGE WEST","6159123","2020-03-05 19:00","2020","03","05","19:00","0.2","","","M","","M","","M","9","","7","","","","97.74","","","","","","NA"
"-79.16","44.10","UXBRIDGE WEST","6159123","2020-03-05 20:00","2020","03","05","20:00","0.1","","","M","","M","","M","10","","6","","","","97.73","","","","","","NA"
"-79.16","44.10","UXBRIDGE WEST","6159123","2020-03-05 21:00","2020","03","05","21:00","-0.3","","","M","","M","","M","11","","7","","","","97.66","","","","-3","","NA"
"-79.16","44.10","UXBRIDGE WEST","6159123","2020-03-05 22:00","2020","03","05","22:00","-0.3","","","M","","M","","M","12","","12","","","","97.61","","","","-4","","NA"
"-79.16","44.10","UXBRIDGE WEST","6159123","2020-03-05 23:00","2020","03","05","23:00","-1.1","","","M","","M","","M","12","","12","","","","97.53","","","","-5","","NA"
"-79.16","44.10","UXBRIDGE WEST","6159123","2020-03-06 00:00","2020","03","06","00:00","-1.2","","","M","","M","","M","12","","12","","","","97.44","","","","-5","","NA"
"-79.16","44.10","UXBRIDGE WEST","6159123","2020-03-06 01:00","2020","03","06","01:00","-1.7","","","M","","M","","M","12","","9","","","","97.40","","","","-5","","NA"
"-79.16","44.10","UXBRIDGE WEST","6159123","2020-03-06 02:00","2020","03","06","02:00","-1.6","","","M","","M","","M","11","","5","","","","97.35","","","","-3","","NA"
"-79.16","44.10","UXBRIDGE WEST","6159123","2020-03-06 03:00","2020","03","06","03:00","-1.8","","","M","","M","","M","10","","7","","","","97.26","","","","-4","","NA"
"-79.16","44.10","UXBRIDGE WEST","6159123","2020-03-06 04:00","2020","03","06","04:00","-1.5","","","M","","M","","M","8","","16","","","","97.19","","","","-6","","NA"
"-79.16","44.10","UXBRIDGE WEST","6159123","2020-03-06 05:00","2020","03","06","05:00","-1.3","","","M","","M","","M","8","","16","","","","97.11","","","","-6","","NA"
"-79.16","44.10","UXBRIDGE WEST","6159123","2020-03-06 06:00","2020","03","06","06:00","-1.5","","","M","","M","","M","5","","12","","","","97.21","","","","-6","","NA"
"-79.16","44.10","UXBRIDGE WEST","6159123","2020-03-06 07:00","2020","03","06","07:00","-1.6","","","M","","M","","M","5","","15","","","","97.25","","","","-6","","NA"
"-79.16","44.10","UXBRIDGE WEST","6159123","2020-03-06 08:00","2020","03","06","08:00","-1.2","","","M","","M","","M","5","","19","","","","97.30","","","","-7","","NA"
"-79.16","44.10","UXBRIDGE WEST","6159123","2020-03-06 09:00","2020","03","06","09:00","-0.8","","","M","","M","","M","5","","20","","","","97.37","","","","-6","","NA"
"-79.16","44.10","UXBRIDGE WEST","6159123","2020-03-06 10:00","2020","03","06","10:00","-0.3","","","M","","M","","M","5","","16","","","","97.43","","","","-5","","NA"
"-79.16","44.10","UXBRIDGE WEST","6159123","2020-03-06 11:00","2020","03","06","11:00","-0.5","","","M","","M","","M","4","","19","","","","97.49","","","","-6","","NA"
"-79.16","44.10","UXBRIDGE WEST","6159123","2020-03-06 12:00","2020","03","06","12:00","0.5","","","M","","M","","M","4","","22","","","","97.57","","","","","","NA"
"-79.16","44.10","UXBRIDGE WEST","6159123","2020-03-06 13:00","2020","03","06","13:00","1.1","","","M","","M","","M","3","","13","","","","97.63","","","","","","NA"
"-79.16","44.10","UXBRIDGE WEST","6159123","2020-03-06 14:00","2020","03","06","14:00","0.6","","","M","","M","","M","2","","14","","","","97.68","","","","","","NA"
"-79.16","44.10","UXBRIDGE WEST","6159123","2020-03-06 15:00","2020","03","06","15:00","0.0","","","M","","M","","M","2","","17","","","","97.77","","","","-5","","NA"
"-79.16","44.10","UXBRIDGE WEST","6159123","2020-03-06 16:00","2020","03","06","16:00","-0.5","","","M","","M","","M","1","","13","","","","97.88","","","","-5","","NA"
"-79.16","44.10","UXBRIDGE WEST","6159123","2020-03-06 17:00","2020","03","06","17:00","0.0","","","M","","M","","M","36","","22","","","","98.01","","","","-6","","NA"
"-79.16","44.10","UXBRIDGE WEST","6159123","2020-03-06 18:00","2020","03","06","18:00","-0.3","","","M","","M","","M","36","","22","","","","98.16","","","","-6","","NA"
"-79.16","44.10","UXBRIDGE WEST","6159123","2020-03-06 19:00","2020","03","06","19:00","-0.6","","","M","","M","","M","1","","17","","","","98.28","","","","-6","","NA"
"-79.16","44.10","UXBRIDGE WEST","6159123","2020-03-06 20:00","2020","03","06","20:00","-1.1","","","M","","M","","M","1","","16","","","","98.37","","","","-6","","NA"
"-79.16","44.10","UXBRIDGE WEST","6159123","2020-03-06 21:00","2020","03","06","21:00","-1.6","","","M","","M","","M","1","","16","","","","98.49","","","","-7","","NA"
"-79.16","44.10","UXBRIDGE WEST","6159123","2020-03-06 22:00","2020","03","06","22:00","-2.2","","","M","","M","","M","1","","16","","","","98.55","","","","-7","","NA"
"-79.16","44.10","UXBRIDGE WEST","6159123","2020-03-06 23:00","2020","03","06","23:00","-2.8","","","M","","M","","M","36","","16","","","","98.63","","","","-8","","NA"
"-79.16","44.10","UXBRIDGE WEST","6159123","2020-03-07 00:00","2020","03","07","00:00","-3.7","","","M","","M","","M","35","","14","","","","98.69","","","","-9","","NA"
"-79.16","44.10","UXBRIDGE WEST","6159123","2020-03-07 01:00","2020","03","07","01:00","-4.9","","","M","","M","","M","35","","15","","","","98.79","","","","-10","","NA"
"-79.16","44.10","UXBRIDGE WEST","6159123","2020-03-07 02:00","2020","03","07","02:00","-6.0","","","M","","M","","M","34","","12","","","","98.82","","","","-11","","NA"
"-79.16","44.10","UXBRIDGE WEST","6159123","2020-03-07 03:00","2020","03","07","03:00","-7.0","","","M","","M","","M","34","","10","","","","98.83","","","","-12","","NA"
"-79.16","44.10","UXBRIDGE WEST","6159123","2020-03-07 04:00","2020","03","07","04:00","-7.8","","","M","","M","","M","34","","13","","","","98.90","","","","-14","","NA"
"-79.16","44.10","UXBRIDGE WEST","6159123","2020-03-07 05:00","2020","03","07","05:00","-8.7","","","M","","M","","M","35","","11","","","","98.95","","","","-14","","NA"
"-79.16","44.10","UXBRIDGE WEST","6159123","2020-03-07 06:00","2020","03","07","06:00","-9.5","","","M","","M","","M","35","","9","","","","98.99","","","","-14","","NA"
"-79.16","44.10","UXBRIDGE WEST","6159123","2020-03-07 07:00","2020","03","07","07:00","-10.3","","","M","","M","","M","35","","7","","","","99.07","","","","-14","","NA"
"-79.16","44.10","UXBRIDGE WEST","6159123","2020-03-07 08:00","2020","03","07","08:00","-9.4","","","M","","M","","M","36","","6","","","","99.15","","","","-13","","NA"
"-79.16","44.10","UXBRIDGE WEST","6159123","2020-03-07 09:00","2020","03","07","09:00","-8.1","","","M","","M","","M","34","","4","","","","99.20","","","","-10","","NA"
"-79.16","44.10","UXBRIDGE WEST","6159123","2020-03-07 10:00","2020","03","07","10:00","-5.9","","","M","","M","","M","27","","9","","","","99.26","","","","-10","","NA"
"-79.16","44.10","UXBRIDGE WEST","6159123","2020-03-07 11:00","2020","03","07","11:00","-4.4","","","M","","M","","M","31","","10","","","","99.24","","","","-9","","NA"
"-79.16","44.10","UXBRIDGE WEST","6159123","2020-03-07 12:00","2020","03","07","12:00","-2.8","","","M","","M","","M","30","","7","","","","99.19","","","","-6","","NA"
"-79.16","44.10","UXBRIDGE WEST","6159123","2020-03-07 13:00","2020","03","07","13:00","-1.9","","","M","","M","","M","29","","10","","","","99.14","","","","-6","","NA"
"-79.16","44.10","UXBRIDGE WEST","6159123","2020-03-07 14:00","2020","03","07","14:00","-0.6","","","M","","M","","M","28","","10","","","","99.08","","","","-4","","NA"
"-79.16","44.10","UXBRIDGE WEST","6159123","2020-03-07 15:00","2020","03","07","15:00","0.6","","","M","","M","","M","27","","9","","","","99.05","","","","","","NA"
"-79.16","44.10","UXBRIDGE WEST","6159123","2020-03-07 16:00","2020","03","07","16:00","1.8","","","M","","M","","M","25","","7","","","","98.99","","","","","","NA"
"-79.16","44.10","UXBRIDGE WEST","6159123","2020-03-07 17:00","2020","03","07","17:00","1.1","","","M","","M","","M","22","","11","","","","98.94","","","","","","NA"
"-79.16","44.10","UXBRIDGE WEST","6159123","2020-03-07 18:00","2020","03","07","18:00","1.0","","","M","","M","","M","22","","8","","","","98.88","","","","","","NA"
"-79.16","44.10","UXBRIDGE WEST","6159123","2020-03-07 19:00","2020","03","07","19:00","-0.4","","","M","","M","","M","24","","5","","","","98.89","","","","-2","","NA"
"-79.16","44.10","UXBRIDGE WEST","6159123","2020-03-07 20:00","2020","03","07","20:00","-1.1","","","M","","M","","M","24","","11","","","","98.86","","","","-5","","NA"
"-79.16","44.10","UXBRIDGE WEST","6159123","2020-03-07 21:00","2020","03","07","21:00","-1.2","","","M","","M","","M","22","","10","","","","98.87","","","","-5","","NA"
"-79.16","44.10","UXBRIDGE WEST","6159123","2020-03-07 22:00","2020","03","07","22:00","-1.3","","","M","","M","","M","20","","9","","","","98.84","","","","-5","","NA"
"-79.16","44.10","UXBRIDGE WEST","6159123","2020-03-07 23:00","2020","03","07","23:00","-1.6","","","M","","M","","M","20","","10","","","","98.83","","","","-5","","NA"
"-79.16","44.10","UXBRIDGE WEST","6159123","2020-03-08 00:00","2020","03","08","00:00","-1.4","","","M","","M","","M","21","","11","","","","98.77","","","","-5","","NA"
"-79.16","44.10","UXBRIDGE WEST","6159123","2020-03-08 01:00","2020","03","08","01:00","-1.1","","","M","","M","","M","21","","13","","","","98.78","","","","-5","","NA"
"-79.16","44.10","UXBRIDGE WEST","6159123","2020-03-08 02:00","2020","03","08","02:00","-0.8","","","M","","M","","M","22","","9","","","","98.79","","","","-4","","NA"
"-79.16","44.10","UXBRIDGE WEST","6159123","2020-03-08 03:00","2020","03","08","03:00","-0.8","","","M","","M","","M","21","","10","","","","98.71","","","","-4","","NA"
"-79.16","44.10","UXBRIDGE WEST","6159123","2020-03-08 04:00","2020","03","08","04:00","-1.5","","","M","","M","","M","21","","10","","","","98.70","","","","-5","","NA"
"-79.16","44.10","UXBRIDGE WEST","6159123","2020-03-08 05:00","2020","03","08","05:00","-1.2","","","M","","M","","M","22","","7","","","","98.70","","","","-4","","NA"
"-79.16","44.10","UXBRIDGE WEST","6159123","2020-03-08 06:00","2020","03","08","06:00","-1.2","","","M","","M","","M","22","","9","","","","98.72","","","","-4","","NA"
"-79.16","44.10","UXBRIDGE WEST","6159123","2020-03-08 07:00","2020","03","08","07:00","-1.3","","","M","","M","","M","21","","8","","","","98.75","","","","-4","","NA"
"-79.16","44.10","UXBRIDGE WEST","6159123","2020-03-08 08:00","2020","03","08","08:00","0.5","","","M","","M","","M","22","","9","","","","98.73","","","","","","NA"
"-79.16","44.10","UXBRIDGE WEST","6159123","2020-03-08 09:00","2020","03","08","09:00","2.8","","","M","","M","","M","24","","11","","","","98.74","","","","","","NA"
"-79.16","44.10","UXBRIDGE WEST","6159123","2020-03-08 10:00","2020","03","08","10:00","5.1","","","M","","M","","M","24","","10","","","","98.73","","","","","","NA"
"-79.16","44.10","UXBRIDGE WEST","6159123","2020-03-08 11:00","2020","03","08","11:00","6.2","","","M","","M","","M","22","","10","","","","98.69","","","","","","NA"
"-79.16","44.10","UXBRIDGE WEST","6159123","2020-03-08 12:00","2020","03","08","12:00","6.3","","","M","","M","","M","19","","15","","","","98.65","","","","","","NA"
"-79.16","44.10","UXBRIDGE WEST","6159123","2020-03-08 13:00","2020","03","08","13:00","7.8","","","M","","M","","M","20","","16","","","","98.54","","","","","","NA"
"-79.16","44.10","UXBRIDGE WEST","6159123","2020-03-08 14:00","2020","03","08","14:00","8.8","","","M","","M","","M","20","","18","","","","98.42","","","","","","NA"
"-79.16","44.10","UXBRIDGE WEST","6159123","2020-03-08 15:00","2020","03","08","15:00","8.9","","","M","","M","","M","18","","16","","","","98.35","","","","","","NA"
"-79.16","44.10","UXBRIDGE WEST","6159123","2020-03-08 16:00","2020","03","08","16:00","9.0","","","M","","M","","M","19","","14","","","","98.29","","","","","","NA"
"-79.16","44.10","UXBRIDGE WEST","6159123","2020-03-08 17:00","2020","03","08","17:00","8.2","","","M","","M","","M","19","","14","","","","98.23","","","","","","NA"
"-79.16","44.10","UXBRIDGE WEST","6159123","2020-03-08 18:00","2020","03","08","18:00","7.7","","","M","","M","","M","20","","12","","","","98.18","","","","","","NA"
"-79.16","44.10","UXBRIDGE WEST","6159123","2020-03-08 19:00","2020","03","08","19:00","8.0","","","M","","M","","M","22","","14","","","","98.20","","","","","","NA"
"-79.16","44.10","UXBRIDGE WEST","6159123","2020-03-08 20:00","2020","03","08","20:00","8.0","","","M","","M","","M","23","","14","","","","98.22","","","","","","NA"
"-79.16","44.10","UXBRIDGE WEST","6159123","2020-03-08 21:00","2020","03","08","21:00","8.5","","","M","","M","","M","22","","18","","","","98.17","","","","","","NA"
"-79.16","44.10","UXBRIDGE WEST","6159123","2020-03-08 22:00","2020","03","08","22:00","8.7","","","M","","M","","M","23","","18","","","","98.13","","","","","","NA"
"-79.16","44.10","UXBRIDGE WEST","6159123","2020-03-08 23:00","2020","03","08","23:00","8.8","","","M","","M","","M","22","","16","","","","98.09","","","","","","NA"
"-79.16","44.10","UXBRIDGE WEST","6159123","2020-03-09 00:00","2020","03","09","00:00","9.2","","","M","","M","","M","23","","15","","","","98.10","","","","","","NA"
"-79.16","44.10","UXBRIDGE WEST","6159123","2020-03-09 01:00","2020","03","09","01:00","9.6","","","M","","M","","M","23","","17","","","","98.11","","","","","","NA"
"-79.16","44.10","UXBRIDGE WEST","6159123","2020-03-09 02:00","2020","03","09","02:00","9.1","","","M","","M","","M","25","","11","","","","98.21","","","","","","NA"
"-79.16","44.10","UXBRIDGE WEST","6159123","2020-03-09 03:00","2020","03","09","03:00","8.4","","","M","","M","","M","24","","9","","","","98.17","","","","","","NA"
"-79.16","44.10","UXBRIDGE WEST","6159123","2020-03-09 04:00","2020","03","09","04:00","7.6","","","M","","M","","M","21","","11","","","","98.12","","","","","","NA"
"-79.16","44.10","UXBRIDGE WEST","6159123","2020-03-09 05:00","2020","03","09","05:00","7.0","","","M","","M","","M","22","","11","","","","98.08","","","","","","NA"
"-79.16","44.10","UXBRIDGE WEST","6159123","2020-03-09 06:00","2020","03","09","06:00","6.0","","","M","","M","","M","21","","10","","","","98.09","","","","","","NA"
"-79.16","44.10","UXBRIDGE WEST","6159123","2020-03-09 07:00","2020","03","09","07:00","5.9","","","M","","M","","M","20","","12","","","","98.12","","","","","","NA"
"-79.16","44.10","UXBRIDGE WEST","6159123","2020-03-09 08:00","2020","03","09","08:00","7.5","","","M","","M","","M","22","","13","","","","98.11","","","","","","NA"
"-79.16","44.10","UXBRIDGE WEST","6159123","2020-03-09 09:00","2020","03","09","09:00","9.3","","","M","","M","","M","22","","12","","","","98.10","","","","","","NA"
"-79.16","44.10","UXBRIDGE WEST","6159123","2020-03-09 10:00","2020","03","09","10:00","10.1","","","M","","M","","M","21","","15","","","","98.10","","","","","","NA"
"-79.16","44.10","UXBRIDGE WEST","6159123","2020-03-09 11:00","2020","03","09","11:00","12.2","","","M","","M","","M","24","","16","","","","98.09","","","","","","NA"
"-79.16","44.10","UXBRIDGE WEST","6159123","2020-03-09 12:00","2020","03","09","12:00","13.2","","","M","","M","","M","24","","13","","","","98.12","","","","","","NA"
"-79.16","44.10","UXBRIDGE WEST","6159123","2020-03-09 13:00","2020","03","09","13:00","13.1","","","M","","M","","M","25","","16","","","","98.08","","","","","","NA"
"-79.16","44.10","UXBRIDGE WEST","6159123","2020-03-09 14:00","2020","03","09","14:00","12.8","","","M","","M","","M","21","","13","","","","98.04","","","","","","NA"
"-79.16","44.10","UXBRIDGE WEST","6159123","2020-03-09 15:00","2020","03","09","15:00","12.5","","","M","","M","","M","26","","9","","","","98.04","","","","","","NA"
"-79.16","44.10","UXBRIDGE WEST","6159123","2020-03-09 16:00","2020","03","09","16:00","13.7","","","M","","M","","M","24","","10","","","","98.01","","","","","","NA"
"-79.16","44.10","UXBRIDGE WEST","6159123","2020-03-09 17:00","2020","03","09","17:00","12.7","","","M","","M","","M","24","","9","","","","98.01","","","","","","NA"
"-79.16","44.10","UXBRIDGE WEST","6159123","2020-03-09 18:00","2020","03","09","18:00","11.4","","","M","","M","","M","24","","11","","","","98.06","","","","","","NA"
"-79.16","44.10","UXBRIDGE WEST","6159123","2020-03-09 19:00","2020","03","09","19:00","10.7","","","M","","M","","M","21","","9","","","","98.05","","","","","","NA"
"-79.16","44.10","UXBRIDGE WEST","6159123","2020-03-09 20:00","2020","03","09","20:00","10.8","","","M","","M","","M","21","","12","","","","98.06","","","","","","NA"
"-79.16","44.10","UXBRIDGE WEST","6159123","2020-03-09 21:00","2020","03","09","21:00","11.5","","","M","","M","","M","23","","20","","","","98.06","","","","","","NA"
"-79.16","44.10","UXBRIDGE WEST","6159123","2020-03-09 22:00","2020","03","09","22:00","10.0","","","M","","M","","M","21","","17","","","","98.01","","","","","","NA"
"-79.16","44.10","UXBRIDGE WEST","6159123","2020-03-09 23:00","2020","03","09","23:00","10.0","","","M","","M","","M","21","","13","","","","97.94","","","","","","NA"
"-79.16","44.10","UXBRIDGE WEST","6159123","2020-03-10 00:00","2020","03","10","00:00","8.6","","","M","","M","","M","20","","9","","","","97.83","","","","","","NA"
"-79.16","44.10","UXBRIDGE WEST","6159123","2020-03-10 01:00","2020","03","10","01:00","9.2","","","M","","M","","M","20","","12","","","","97.72","","","","","","NA"
"-79.16","44.10","UXBRIDGE WEST","6159123","2020-03-10 02:00","2020","03","10","02:00","8.5","","","M","","M","","M","19","","12","","","","97.58","","","","","","NA"
"-79.16","44.10","UXBRIDGE WEST","6159123","2020-03-10 03:00","2020","03","10","03:00","7.5","","","M","","M","","M","17","","14","","","","97.44","","","","","","NA"
"-79.16","44.10","UXBRIDGE WEST","6159123","2020-03-10 04:00","2020","03","10","04:00","7.5","","","M","","M","","M","19","","15","","","","97.31","","","","","","NA"
"-79.16","44.10","UXBRIDGE WEST","6159123","2020-03-10 05:00","2020","03","10","05:00","7.4","","","M","","M","","M","18","","20","","","","97.22","","","","","","NA"
"-79.16","44.10","UXBRIDGE WEST","6159123","2020-03-10 06:00","2020","03","10","06:00","7.1","","","M","","M","","M","19","","22","","","","97.12","","","","","","NA"
"-79.16","44.10","UXBRIDGE WEST","6159123","2020-03-10 07:00","2020","03","10","07:00","7.5","","","M","","M","","M","20","","23","","","","97.05","","","","","","NA"
"-79.16","44.10","UXBRIDGE WEST","6159123","2020-03-10 08:00","2020","03","10","08:00","7.5","","","M","","M","","M","20","","17","","","","96.99","","","","","","NA"
"-79.16","44.10","UXBRIDGE WEST","6159123","2020-03-10 09:00","2020","03","10","09:00","8.0","","","M","","M","","M","20","","14","","","","96.96","","","","","","NA"
"-79.16","44.10","UXBRIDGE WEST","6159123","2020-03-10 10:00","2020","03","10","10:00","8.6","","","M","","M","","M","23","","9","","","","96.94","","","","","","NA"
"-79.16","44.10","UXBRIDGE WEST","6159123","2020-03-10 11:00","2020","03","10","11:00","8.0","","","M","","M","","M","29","","20","","","","97.01","","","","","","NA"
"-79.16","44.10","UXBRIDGE WEST","6159123","2020-03-10 12:00","2020","03","10","12:00","4.5","","","M","","M","","M","30","","22","","","","97.13","","","","","","NA"
"-79.16","44.10","UXBRIDGE WEST","6159123","2020-03-10 13:00","2020","03","10","13:00","1.8","","","M","","M","","M","30","","25","","","","97.22","","","","","","NA"
"-79.16","44.10","UXBRIDGE WEST","6159123","2020-03-10 14:00","2020","03","10","14:00","0.4","","","M","","M","","M","30","","27","","","","97.33","","","","","","NA"
"-79.16","44.10","UXBRIDGE WEST","6159123","2020-03-10 15:00","2020","03","10","15:00","-0.2","","","M","","M","","M","31","","32","","","","97.52","","","","-7","","NA"
"-79.16","44.10","UXBRIDGE WEST","6159123","2020-03-10 16:00","2020","03","10","16:00","-0.6","","","M","","M","","M","31","","27","","","","97.62","","","","-7","","NA"
"-79.16","44.10","UXBRIDGE WEST","6159123","2020-03-10 17:00","2020","03","10","17:00","-0.9","","","M","","M","","M","30","","29","","","","97.75","","","","-8","","NA"
"-79.16","44.10","UXBRIDGE WEST","6159123","2020-03-10 18:00","2020","03","10","18:00","-1.4","","","M","","M","","M","31","","24","","","","97.91","","","","-8","","NA"
"-79.16","44.10","UXBRIDGE WEST","6159123","2020-03-10 19:00","2020","03","10","19:00","-2.1","","","M","","M","","M","31","","22","","","","98.09","","","","-8","","NA"
"-79.16","44.10","UXBRIDGE WEST","6159123","2020-03-10 20:00","2020","03","10","20:00","-2.3","","","M","","M","","M","31","","16","","","","98.20","","","","-7","","NA"
"-79.16","44.10","UXBRIDGE WEST","6159123","2020-03-10 21:00","2020","03","10","21:00","-2.4","","","M","","M","","M","31","","13","","","","98.27","","","","-7","","NA"
"-79.16","44.10","UXBRIDGE WEST","6159123","2020-03-10 22:00","2020","03","10","22:00","-2.8","","","M","","M","","M","31","","9","","","","98.30","","","","-6","","NA"
"-79.16","44.10","UXBRIDGE WEST","6159123","2020-03-10 23:00","2020","03","10","23:00","-3.7","","","M","","M","","M","29","","5","","","","98.36","","","","-6","","NA"
"-79.16","44.10","UXBRIDGE WEST","6159123","2020-03-11 00:00","2020","03","11","00:00","-4.1","","","M","","M","","M","32","","5","","","","98.32","","","","-6","","NA"
"-79.16","44.10","UXBRIDGE WEST","6159123","2020-03-11 01:00","2020","03","11","01:00","-5.1","","","M","","M","","M","29","","3","","","","98.33","","","","-6","","NA"
"-79.16","44.10","UXBRIDGE WEST","6159123","2020-03-11 02:00","2020","03","11","02:00","-4.5","","","M","","M","","M","32","","5","","","","98.30","","","","-7","","NA"
"-79.16","44.10","UXBRIDGE WEST","6159123","2020-03-11 03:00","2020","03","11","03:00","-4.8","","","M","","M","","M","21","","2","","","","98.27","","","","-6","","NA"
"-79.16","44.10","UXBRIDGE WEST","6159123","2020-03-11 04:00","2020","03","11","04:00","-5.5","","","M","","M","","M","15","","4","","","","98.22","","","","-7","","NA"
"-79.16","44.10","UXBRIDGE WEST","6159123","2020-03-11 05:00","2020","03","11","05:00","-5.0","","","M","","M","","M","17","","6","","","","98.27","","","","-8","","NA"
"-79.16","44.10","UXBRIDGE WEST","6159123","2020-03-11 06:00","2020","03","11","06:00","-4.7","","","M","","M","","M","16","","4","","","","98.29","","","","-6","","NA"
"-79.16","44.10","UXBRIDGE WEST","6159123","2020-03-11 07:00","2020","03","11","07:00","-4.2","","","M","","M","","M","18","","3","","","","98.32","","","","-5","","NA"
"-79.16","44.10","UXBRIDGE WEST","6159123","2020-03-11 08:00","2020","03","11","08:00","-3.3","","","M","","M","","M","13","","2","","","","98.33","","","","-4","","NA"
"-79.16","44.10","UXBRIDGE WEST","6159123","2020-03-11 09:00","2020","03","11","09:00","-1.4","","","M","","M","","M","14","","8","","","","98.31","","","","-4","","NA"
"-79.16","44.10","UXBRIDGE WEST","6159123","2020-03-11 10:00","2020","03","11","10:00","-0.2","","","M","","M","","M","15","","12","","","","98.22","","","","-4","","NA"
"-79.16","44.10","UXBRIDGE WEST","6159123","2020-03-11 11:00","2020","03","11","11:00","0.1","","","M","","M","","M","15","","14","","","","98.21","","","","","","NA"
"-79.16","44.10","UXBRIDGE WEST","6159123","2020-03-11 12:00","2020","03","11","12:00","0.6","","","M","","M","","M","15","","16","","","","98.15","","","","","","NA"
"-79.16","44.10","UXBRIDGE WEST","6159123","2020-03-11 13:00","2020","03","11","13:00","0.8","","","M","","M","","M","14","","14","","","","98.05","","","","","","NA"
"-79.16","44.10","UXBRIDGE WEST","6159123","2020-03-11 14:00","2020","03","11","14:00","0.7","","","M","","M","","M","15","","20","","","","97.98","","","","","","NA"
"-79.16","44.10","UXBRIDGE WEST","6159123","2020-03-11 15:00","2020","03","11","15:00","0.4","","","M","","M","","M","13","","16","","","","98.00","","","","","","NA"
"-79.16","44.10","UXBRIDGE WEST","6159123","2020-03-11 16:00","2020","03","11","16:00","-0.4","","","M","","M","","M","14","","13","","","","97.99","","","","-5","","NA"
"-79.16","44.10","UXBRIDGE WEST","6159123","2020-03-11 17:00","2020","03","11","17:00","-0.8","","","M","","M","","M","13","","8","","","","97.95","","","","-4","","NA"
"-79.16","44.10","UXBRIDGE WEST","6159123","2020-03-11 18:00","2020","03","11","18:00","-1.2","","","M","","M","","M","13","","9","","","","97.91","","","","-4","","NA"
"-79.16","44.10","UXBRIDGE WEST","6159123","2020-03-11 19:00","2020","03","11","19:00","-1.4","","","M","","M","","M","13","","7","","","","97.90","","","","-4","","NA"
"-79.16","44.10","UXBRIDGE WEST","6159123","2020-03-11 20:00","2020","03","11","20:00","-1.6","","","M","","M","","M","12","","4","","","","97.93","","","","-3","","NA"
"-79.16","44.10","UXBRIDGE WEST","6159123","2020-03-11 21:00","2020","03","11","21:00","-1.6","","","M","","M","","M","12","","5","","","","97.88","","","","-3","","NA"
"-79.16","44.10","UXBRIDGE WEST","6159123","2020-03-11 22:00","2020","03","11","22:00","-1.6","","","M","","M","","M","10","","2","","","","97.90","","","","-2","","NA"
"-79.16","44.10","UXBRIDGE WEST","6159123","2020-03-11 23:00","2020","03","11","23:00","-1.7","","","M","","M","","M","11","","3","","","","97.86","","","","-3","","NA"
"-79.16","44.10","UXBRIDGE WEST","6159123","2020-03-12 00:00","2020","03","12","00:00","-1.8","","","M","","M","","M","10","","4","","","","97.82","","","","-3","","NA"
"-79.16","44.10","UXBRIDGE WEST","6159123","2020-03-12 01:00","2020","03","12","01:00","-2.1","","","M","","M","","M","12","","4","","","","97.81","","","","-4","","NA"
"-79.16","44.10","UXBRIDGE WEST","6159123","2020-03-12 02:00","2020","03","12","02:00","-2.0","","","M","","M","","M","10","","4","","","","97.80","","","","-3","","NA"
"-79.16","44.10","UXBRIDGE WEST","6159123","2020-03-12 03:00","2020","03","12","03:00","-1.8","","","M","","M","","M","12","","5","","","","97.79","","","","-4","","NA"
"-79.16","44.10","UXBRIDGE WEST","6159123","2020-03-12 04:00","2020","03","12","04:00","-2.2","","","M","","M","","M","1","","3","","","","97.83","","","","-3","","NA"
"-79.16","44.10","UXBRIDGE WEST","6159123","2020-03-12 05:00","2020","03","12","05:00","-2.3","","","M","","M","","M","10","","2","","","","97.87","","","","-3","","NA"
"-79.16","44.10","UXBRIDGE WEST","6159123","2020-03-12 06:00","2020","03","12","06:00","-2.5","","","M","","M","","M","10","","4","","","","97.85","","","","-4","","NA"
"-79.16","44.10","UXBRIDGE WEST","6159123","2020-03-12 07:00","2020","03","12","07:00","-3.1","","","M","","M","","M","13","","3","","","","97.89","","","","-4","","NA"
"-79.16","44.10","UXBRIDGE WEST","6159123","2020-03-12 08:00","2020","03","12","08:00","-1.6","","","M","","M","","M","10","","5","","","","97.92","","","","-3","","NA"
"-79.16","44.10","UXBRIDGE WEST","6159123","2020-03-12 09:00","2020","03","12","09:00","0.5","","","M","","M","","M","11","","5","","","","97.89","","","","","","NA"
"-79.16","44.10","UXBRIDGE WEST","6159123","2020-03-12 10:00","2020","03","12","10:00","2.5","","","M","","M","","M","10","","6","","","","97.79","","","","","","NA"
"-79.16","44.10","UXBRIDGE WEST","6159123","2020-03-12 11:00","2020","03","12","11:00","3.7","","","M","","M","","M","15","","13","","","","97.77","","","","","","NA"
"-79.16","44.10","UXBRIDGE WEST","6159123","2020-03-12 12:00","2020","03","12","12:00","4.2","","","M","","M","","M","17","","13","","","","97.77","","","","","","NA"
"-79.16","44.10","UXBRIDGE WEST","6159123","2020-03-12 13:00","2020","03","12","13:00","5.0","","","M","","M","","M","15","","16","","","","97.68","","","","","","NA"
"-79.16","44.10","UXBRIDGE WEST","6159123","2020-03-12 14:00","2020","03","12","14:00","4.2","","","M","","M","","M","14","","16","","","","97.62","","","","","","NA"
"-79.16","44.10","UXBRIDGE WEST","6159123","2020-03-12 15:00","2020","03","12","15:00","4.0","","","M","","M","","M","15","","13","","","","97.60","","","","","","NA"
"-79.16","44.10","UXBRIDGE WEST","6159123","2020-03-12 16:00","2020","03","12","16:00","3.6","","","M","","M","","M","12","","8","","","","97.55","","","","","","NA"
"-79.16","44.10","UXBRIDGE WEST","6159123","2020-03-12 17:00","2020","03","12","17:00","3.3","","","M","","M","","M","10","","11","","","","97.38","","","","","","NA"
"-79.16","44.10","UXBRIDGE WEST","6159123","2020-03-12 18:00","2020","03","12","18:00","3.1","","","M","","M","","M","11","","10","","","","97.31","","","","","","NA"
"-79.16","44.10","UXBRIDGE WEST","6159123","2020-03-12 19:00","2020","03","12","19:00","3.0","","","M","","M","","M","12","","9","","","","97.26","","","","","","NA"
"-79.16","44.10","UXBRIDGE WEST","6159123","2020-03-12 20:00","2020","03","12","20:00","3.5","","","M","","M","","M","12","","12","","","","97.14","","","","","","NA"
"-79.16","44.10","UXBRIDGE WEST","6159123","2020-03-12 21:00","2020","03","12","21:00","4.5","","","M","","M","","M","13","","15","","","","97.02","","","","","","NA"
"-79.16","44.10","UXBRIDGE WEST","6159123","2020-03-12 22:00","2020","03","12","22:00","5.0","","","M","","M","","M","13","","12","","","","96.90","","","","","","NA"
"-79.16","44.10","UXBRIDGE WEST","6159123","2020-03-12 23:00","2020","03","12","23:00","5.3","","","M","","M","","M","12","","14","","","","96.75","","","","","","NA"
"-79.16","44.10","UXBRIDGE WEST","6159123","2020-03-13 00:00","2020","03","13","00:00","5.7","","","M","","M","","M","14","","16","","","","96.58","","","","","","NA"
"-79.16","44.10","UXBRIDGE WEST","6159123","2020-03-13 01:00","2020","03","13","01:00","5.7","","","M","","M","","M","15","","19","","","","96.48","","","","","","NA"
"-79.16","44.10","UXBRIDGE WEST","6159123","2020-03-13 02:00","2020","03","13","02:00","6.2","","","M","","M","","M","14","","16","","","","96.31","","","","","","NA"
"-79.16","44.10","UXBRIDGE WEST","6159123","2020-03-13 03:00","2020","03","13","03:00","6.2","","","M","","M","","M","15","","19","","","","96.11","","","","","","NA"
"-79.16","44.10","UXBRIDGE WEST","6159123","2020-03-13 04:00","2020","03","13","04:00","6.3","","","M","","M","","M","17","","20","","","","96.05","","","","","","NA"
"-79.16","44.10","UXBRIDGE WEST","6159123","2020-03-13 05:00","2020","03","13","05:00","6.1","","","M","","M","","M","19","","14","","","","95.99","","","","","","NA"
"-79.16","44.10","UXBRIDGE WEST","6159123","2020-03-13 06:00","2020","03","13","06:00","6.8","","","M","","M","","M","25","","15","","","","96.03","","","","","","NA"
"-79.16","44.10","UXBRIDGE WEST","6159123","2020-03-13 07:00","2020","03","13","07:00","5.2","","","M","","M","","M","29","","37","","","","96.21","","","","","","NA"
"-79.16","44.10","UXBRIDGE WEST","6159123","2020-03-13 08:00","2020","03","13","08:00","2.7","","","M","","M","","M","29","","33","","","","96.50","","","","","","NA"
"-79.16","44.10","UXBRIDGE WEST","6159123","2020-03-13 09:00","2020","03","13","09:00","3.4","","","M","","M","","M","28","","28","","","","96.59","","","","","","NA"
"-79.16","44.10","UXBRIDGE WEST","6159123","2020-03-13 10:00","2020","03","13","10:00","3.2","","","M","","M","","M","27","","26","","","","96.76","","","","","","NA"
"-79.16","44.10","UXBRIDGE WEST","6159123","2020-03-13 11:00","2020","03","13","11:00","3.7","","","M","","M","","M","28","","36","","","","96.88","","","","","","NA"
"-79.16","44.10","UXBRIDGE WEST","6159123","2020-03-13 12:00","2020","03","13","12:00","3.1","","","M","","M","","M","28","","31","","","","97.01","","","","","","NA"
"-79.16","44.10","UXBRIDGE WEST","6159123","2020-03-13 13:00","2020","03","13","13:00","2.9","","","M","","M","","M","27","","26","","","","97.16","","","","","","NA"
"-79.16","44.10","UXBRIDGE WEST","6159123","2020-03-13 14:00","2020","03","13","14:00","2.4","","","M","","M","","M","26","","24","","","","97.28","","","","","","NA"
"-79.16","44.10","UXBRIDGE WEST","6159123","2020-03-13 15:00","2020","03","13","15:00","2.7","","","M","","M","","M","27","","26","","","","97.40","","","","","","NA"
"-79.16","44.10","UXBRIDGE WEST","6159123","2020-03-13 16:00","2020","03","13","16:00","2.6","","","M","","M","","M","28","","33","","","","97.53","","","","","","NA"
"-79.16","44.10","UXBRIDGE WEST","6159123","2020-03-13 17:00","2020","03","13","17:00","2.4","","","M","","M","","M","27","","25","","","","97.61","","","","","","NA"
"-79.16","44.10","UXBRIDGE WEST","6159123","2020-03-13 18:00","2020","03","13","18:00","2.1","","","M","","M","","M","28","","28","","","","97.74","","","","","","NA"
"-79.16","44.10","UXBRIDGE WEST","6159123","2020-03-13 19:00","2020","03","13","19:00","1.7","","","M","","M","","M","28","","21","","","","97.84","","","","","","NA"
"-79.16","44.10","UXBRIDGE WEST","6159123","2020-03-13 20:00","2020","03","13","20:00","1.7","","","M","","M","","M","28","","17","","","","97.97","","","","","","NA"
"-79.16","44.10","UXBRIDGE WEST","6159123","2020-03-13 21:00","2020","03","13","21:00","1.8","","","M","","M","","M","30","","27","","","","98.05","","","","","","NA"
"-79.16","44.10","UXBRIDGE WEST","6159123","2020-03-13 22:00","2020","03","13","22:00","1.1","","","M","","M","","M","28","","21","","","","98.12","","","","","","NA"
"-79.16","44.10","UXBRIDGE WEST","6159123","2020-03-13 23:00","2020","03","13","23:00","0.7","","","M","","M","","M","28","","19","","","","98.15","","","","","","NA"
"-79.16","44.10","UXBRIDGE WEST","6159123","2020-03-14 00:00","2020","03","14","00:00","0.9","","","M","","M","","M","28","","20","","","","98.22","","","","","","NA"
"-79.16","44.10","UXBRIDGE WEST","6159123","2020-03-14 01:00","2020","03","14","01:00","0.8","","","M","","M","","M","29","","16","","","","98.28","","","","","","NA"
"-79.16","44.10","UXBRIDGE WEST","6159123","2020-03-14 02:00","2020","03","14","02:00","-0.3","","","M","","M","","M","30","","24","","","","98.42","","","","-6","","NA"
"-79.16","44.10","UXBRIDGE WEST","6159123","2020-03-14 03:00","2020","03","14","03:00","-0.6","","","M","","M","","M","30","","32","","","","98.49","","","","-7","","NA"
"-79.16","44.10","UXBRIDGE WEST","6159123","2020-03-14 04:00","2020","03","14","04:00","-1.0","","","M","","M","","M","30","","31","","","","98.50","","","","-8","","NA"
"-79.16","44.10","UXBRIDGE WEST","6159123","2020-03-14 05:00","2020","03","14","05:00","-1.0","","","M","","M","","M","30","","20","","","","98.64","","","","-7","","NA"
"-79.16","44.10","UXBRIDGE WEST","6159123","2020-03-14 06:00","2020","03","14","06:00","-1.0","","","M","","M","","M","30","","20","","","","98.75","","","","-7","","NA"
"-79.16","44.10","UXBRIDGE WEST","6159123","2020-03-14 07:00","2020","03","14","07:00","-1.0","","","M","","M","","M","31","","22","","","","98.78","","","","-7","","NA"
"-79.16","44.10","UXBRIDGE WEST","6159123","2020-03-14 08:00","2020","03","14","08:00","-0.9","","","M","","M","","M","31","","18","","","","98.87","","","","-6","","NA"
"-79.16","44.10","UXBRIDGE WEST","6159123","2020-03-14 09:00","2020","03","14","09:00","-0.7","","","M","","M","","M","30","","19","","","","98.95","","","","-6","","NA"
"-79.16","44.10","UXBRIDGE WEST","6159123","2020-03-14 10:00","2020","03","14","10:00","-0.7","","","M","","M","","M","32","","18","","","","98.98","","","","-6","","NA"
"-79.16","44.10","UXBRIDGE WEST","6159123","2020-03-14 11:00","2020","03","14","11:00","-0.6","","","M","","M","","M","32","","24","","","","99.01","","","","-7","","NA"
"-79.16","44.10","UXBRIDGE WEST","6159123","2020-03-14 12:00","2020","03","14","12:00","0.1","","","M","","M","","M","31","","25","","","","99.05","","","","","","NA"
"-79.16","44.10","UXBRIDGE WEST","6159123","2020-03-14 13:00","2020","03","14","13:00","0.0","","","M","","M","","M","30","","24","","","","99.05","","","","-6","","NA"
"-79.16","44.10","UXBRIDGE WEST","6159123","2020-03-14 14:00","2020","03","14","14:00","-0.2","","","M","","M","","M","31","","19","","","","99.04","","","","-5","","NA"
"-79.16","44.10","UXBRIDGE WEST","6159123","2020-03-14 15:00","2020","03","14","15:00","-0.2","","","M","","M","","M","31","","20","","","","99.12","","","","-5","","NA"
"-79.16","44.10","UXBRIDGE WEST","6159123","2020-03-14 16:00","2020","03","14","16:00","-0.4","","","M","","M","","M","32","","18","","","","99.06","","","","-5","","NA"
"-79.16","44.10","UXBRIDGE WEST","6159123","2020-03-14 17:00","2020","03","14","17:00","-1.0","","","M","","M","","M","31","","14","","","","99.07","","","","-5","","NA"
"-79.16","44.10","UXBRIDGE WEST","6159123","2020-03-14 18:00","2020","03","14","18:00","-1.4","","","M","","M","","M","31","","13","","","","99.16","","","","-6","","NA"
"-79.16","44.10","UXBRIDGE WEST","6159123","2020-03-14 19:00","2020","03","14","19:00","-1.4","","","M","","M","","M","31","","16","","","","99.21","","","","-6","","NA"
"-79.16","44.10","UXBRIDGE WEST","6159123","2020-03-14 20:00","2020","03","14","20:00","-1.6","","","M","","M","","M","31","","12","","","","99.24","","","","-6","","NA"
"-79.16","44.10","UXBRIDGE WEST","6159123","2020-03-14 21:00","2020","03","14","21:00","-1.8","","","M","","M","","M","32","","13","","","","99.26","","","","-6","","NA"
"-79.16","44.10","UXBRIDGE WEST","6159123","2020-03-14 22:00","2020","03","14","22:00","-2.0","","","M","","M","","M","34","","12","","","","99.25","","","","-6","","NA"
"-79.16","44.10","UXBRIDGE WEST","6159123","2020-03-14 23:00","2020","03","14","23:00","-2.3","","","M","","M","","M","34","","11","","","","99.23","","","","-6","","NA"
"-79.16","44.10","UXBRIDGE WEST","6159123","2020-03-15 00:00","2020","03","15","00:00","-3.0","","","M","","M","","M","32","","8","","","","99.28","","","","-6","","NA"
"-79.16","44.10","UXBRIDGE WEST","6159123","2020-03-15 01:00","2020","03","15","01:00","-3.9","","","M","","M","","M","33","","4","","","","99.33","","","","-6","","NA"
"-79.16","44.10","UXBRIDGE WEST","6159123","2020-03-15 02:00","2020","03","15","02:00","-3.5","","","M","","M","","M","36","","9","","","","99.34","","","","-7","","NA"
"-79.16","44.10","UXBRIDGE WEST","6159123","2020-03-15 03:00","2020","03","15","03:00","-4.4","","","M","","M","","M","35","","7","","","","99.39","","","","-8","","NA"
"-79.16","44.10","UXBRIDGE WEST","6159123","2020-03-15 04:00","2020","03","15","04:00","-4.8","","","M","","M","","M","1","","7","","","","99.43","","","","-8","","NA"
"-79.16","44.10","UXBRIDGE WEST","6159123","2020-03-15 05:00","2020","03","15","05:00","-5.5","","","M","","M","","M","36","","7","","","","99.54","","","","-9","","NA"
"-79.16","44.10","UXBRIDGE WEST","6159123","2020-03-15 06:00","2020","03","15","06:00","-6.5","","","M","","M","","M","33","","4","","","","99.62","","","","-8","","NA"
"-79.16","44.10","UXBRIDGE WEST","6159123","2020-03-15 07:00","2020","03","15","07:00","-6.4","","","M","","M","","M","36","","7","","","","99.70","","","","-10","","NA"
"-79.16","44.10","UXBRIDGE WEST","6159123","2020-03-15 08:00","2020","03","15","08:00","-5.5","","","M","","M","","M","2","","9","","","","99.74","","","","-10","","NA"
"-79.16","44.10","UXBRIDGE WEST","6159123","2020-03-15 09:00","2020","03","15","09:00","-4.1","","","M","","M","","M","4","","10","","","","99.82","","","","-8","","NA"
"-79.16","44.10","UXBRIDGE WEST","6159123","2020-03-15 10:00","2020","03","15","10:00","-3.1","","","M","","M","","M","1","","8","","","","99.86","","","","-6","","NA"
"-79.16","44.10","UXBRIDGE WEST","6159123","2020-03-15 11:00","2020","03","15","11:00","-2.1","","","M","","M","","M","5","","11","","","","99.83","","","","-6","","NA"
"-79.16","44.10","UXBRIDGE WEST","6159123","2020-03-15 12:00","2020","03","15","12:00","-1.3","","","M","","M","","M","4","","12","","","","99.84","","","","-5","","NA"
"-79.16","44.10","UXBRIDGE WEST","6159123","2020-03-15 13:00","2020","03","15","13:00","-0.5","","","M","","M","","M","36","","11","","","","99.83","","","","-4","","NA"
"-79.16","44.10","UXBRIDGE WEST","6159123","2020-03-15 14:00","2020","03","15","14:00","0.4","","","M","","M","","M","34","","10","","","","99.75","","","","","","NA"
"-79.16","44.10","UXBRIDGE WEST","6159123","2020-03-15 15:00","2020","03","15","15:00","0.7","","","M","","M","","M","1","","12","","","","99.74","","","","","","NA"
"-79.16","44.10","UXBRIDGE WEST","6159123","2020-03-15 16:00","2020","03","15","16:00","0.2","","","M","","M","","M","35","","11","","","","99.70","","","","","","NA"
"-79.16","44.10","UXBRIDGE WEST","6159123","2020-03-15 17:00","2020","03","15","17:00","0.0","","","M","","M","","M","35","","11","","","","99.67","","","","-4","","NA"
"-79.16","44.10","UXBRIDGE WEST","6159123","2020-03-15 18:00","2020","03","15","18:00","-0.7","","","M","","M","","M","35","","10","","","","99.65","","","","-4","","NA"
"-79.16","44.10","UXBRIDGE WEST","6159123","2020-03-15 19:00","2020","03","15","19:00","-2.0","","","M","","M","","M","35","","8","","","","99.67","","","","-5","","NA"
"-79.16","44.10","UXBRIDGE WEST","6159123","2020-03-15 20:00","2020","03","15","20:00","-2.9","","","M","","M","","M","34","","4","","","","99.70","","","","-4","","NA"
"-79.16","44.10","UXBRIDGE WEST","6159123","2020-03-15 21:00","2020","03","15","21:00","-4.1","","","M","","M","","M","32","","4","","","","99.70","","","","-6","","NA"
"-79.16","44.10","UXBRIDGE WEST","6159123","2020-03-15 22:00","2020","03","15","22:00","-5.0","","","M","","M","","M","26","","2","","","","99.70","","","","-6","","NA"
"-79.16","44.10","UXBRIDGE WEST","6159123","2020-03-15 23:00","2020","03","15","23:00","-5.7","","","M","","M","","M","","","0","","","","99.68","","","","","","NA"
"-79.16","44.10","UXBRIDGE WEST","6159123","2020-03-16 00:00","2020","03","16","00:00","-6.5","","","M","","M","","M","","","0","","","","99.60","","","","","","NA"
"-79.16","44.10","UXBRIDGE WEST","6159123","2020-03-16 01:00","2020","03","16","01:00","-6.6","","","M","","M","","M","11","","4","","","","99.58","","","","-9","","NA"
"-79.16","44.10","UXBRIDGE WEST","6159123","2020-03-16 02:00","2020","03","16","02:00","-5.4","","","M","","M","","M","12","","5","","","","99.57","","","","-8","","NA"
"-79.16","44.10","UXBRIDGE WEST","6159123","2020-03-16 03:00","2020","03","16","03:00","-5.8","","","M","","M","","M","11","","7","","","","99.51","","","","-9","","NA"
"-79.16","44.10","UXBRIDGE WEST","6159123","2020-03-16 04:00","2020","03","16","04:00","-6.4","","","M","","M","","M","11","","6","","","","99.45","","","","-9","","NA"
"-79.16","44.10","UXBRIDGE WEST","6159123","2020-03-16 05:00","2020","03","16","05:00","-6.1","","","M","","M","","M","12","","9","","","","99.42","","","","-10","","NA"
"-79.16","44.10","UXBRIDGE WEST","6159123","2020-03-16 06:00","2020","03","16","06:00","-5.6","","","M","","M","","M","13","","11","","","","99.40","","","","-10","","NA"
"-79.16","44.10","UXBRIDGE WEST","6159123","2020-03-16 07:00","2020","03","16","07:00","-5.3","","","M","","M","","M","13","","10","","","","99.36","","","","-10","","NA"
"-79.16","44.10","UXBRIDGE WEST","6159123","2020-03-16 08:00","2020","03","16","08:00","-3.3","","","M","","M","","M","13","","12","","","","99.36","","","","-8","","NA"
"-79.16","44.10","UXBRIDGE WEST","6159123","2020-03-16 09:00","2020","03","16","09:00","-2.2","","","M","","M","","M","14","","21","","","","99.34","","","","-8","","NA"
"-79.16","44.10","UXBRIDGE WEST","6159123","2020-03-16 10:00","2020","03","16","10:00","-1.2","","","M","","M","","M","14","","18","","","","99.25","","","","-6","","NA"
"-79.16","44.10","UXBRIDGE WEST","6159123","2020-03-16 11:00","2020","03","16","11:00","-0.5","","","M","","M","","M","14","","20","","","","99.12","","","","-6","","NA"
"-79.16","44.10","UXBRIDGE WEST","6159123","2020-03-16 12:00","2020","03","16","12:00","0.5","","","M","","M","","M","12","","14","","","","99.01","","","","","","NA"
"-79.16","44.10","UXBRIDGE WEST","6159123","2020-03-16 13:00","2020","03","16","13:00","1.8","","","M","","M","","M","14","","11","","","","98.86","","","","","","NA"
"-79.16","44.10","UXBRIDGE WEST","6159123","2020-03-16 14:00","2020","03","16","14:00","1.9","","","M","","M","","M","15","","17","","","","98.71","","","","","","NA"
"-79.16","44.10","UXBRIDGE WEST","6159123","2020-03-16 15:00","2020","03","16","15:00","2.0","","","M","","M","","M","15","","15","","","","98.62","","","","","","NA"
"-79.16","44.10","UXBRIDGE WEST","6159123","2020-03-16 16:00","2020","03","16","16:00","2.1","","","M","","M","","M","15","","13","","","","98.45","","","","","","NA"
"-79.16","44.10","UXBRIDGE WEST","6159123","2020-03-16 17:00","2020","03","16","17:00","2.2","","","M","","M","","M","15","","12","","","","98.35","","","","","","NA"
"-79.16","44.10","UXBRIDGE WEST","6159123","2020-03-16 18:00","2020","03","16","18:00","1.1","","","M","","M","","M","14","","7","","","","98.32","","","","","","NA"
"-79.16","44.10","UXBRIDGE WEST","6159123","2020-03-16 19:00","2020","03","16","19:00","0.5","","","M","","M","","M","14","","7","","","","98.27","","","","","","NA"
"-79.16","44.10","UXBRIDGE WEST","6159123","2020-03-16 20:00","2020","03","16","20:00","0.6","","","M","","M","","M","14","","9","","","","98.21","","","","","","NA"
"-79.16","44.10","UXBRIDGE WEST","6159123","2020-03-16 21:00","2020","03","16","21:00","1.6","","","M","","M","","M","18","","10","","","","98.20","","","","","","NA"
"-79.16","44.10","UXBRIDGE WEST","6159123","2020-03-16 22:00","2020","03","16","22:00","-0.8","","","M","","M","","M","18","","13","","","","98.11","","","","-5","","NA"
"-79.16","44.10","UXBRIDGE WEST","6159123","2020-03-16 23:00","2020","03","16","23:00","-0.6","","","M","","M","","M","19","","9","","","","98.01","","","","-4","","NA"
"-79.16","44.10","UXBRIDGE WEST","6159123","2020-03-17 00:00","2020","03","17","00:00","0.1","","","M","","M","","M","20","","12","","","","97.89","","","","","","NA"
"-79.16","44.10","UXBRIDGE WEST","6159123","2020-03-17 01:00","2020","03","17","01:00","0.4","","","M","","M","","M","22","","9","","","","97.84","","","","","","NA"
"-79.16","44.10","UXBRIDGE WEST","6159123","2020-03-17 02:00","2020","03","17","02:00","0.1","","","M","","M","","M","20","","11","","","","97.77","","","","","","NA"
"-79.16","44.10","UXBRIDGE WEST","6159123","2020-03-17 03:00","2020","03","17","03:00","0.2","","","M","","M","","M","20","","11","","","","97.69","","","","","","NA"
"-79.16","44.10","UXBRIDGE WEST","6159123","2020-03-17 04:00","2020","03","17","04:00","0.8","","","M","","M","","M","21","","10","","","","97.63","","","","","","NA"
"-79.16","44.10","UXBRIDGE WEST","6159123","2020-03-17 05:00","2020","03","17","05:00","0.8","","","M","","M","","M","22","","11","","","","97.65","","","","","","NA"
"-79.16","44.10","UXBRIDGE WEST","6159123","2020-03-17 06:00","2020","03","17","06:00","1.0","","","M","","M","","M","23","","9","","","","97.66","","","","","","NA"
"-79.16","44.10","UXBRIDGE WEST","6159123","2020-03-17 07:00","2020","03","17","07:00","1.0","","","M","","M","","M","24","","8","","","","97.70","","","","","","NA"
"-79.16","44.10","UXBRIDGE WEST","6159123","2020-03-17 08:00","2020","03","17","08:00","1.0","","","M","","M","","M","23","","7","","","","97.71","","","","","","NA"
"-79.16","44.10","UXBRIDGE WEST","6159123","2020-03-17 09:00","2020","03","17","09:00","1.7","","","M","","M","","M","22","","8","","","","97.71","","","","","","NA"
"-79.16","44.10","UXBRIDGE WEST","6159123","2020-03-17 10:00","2020","03","17","10:00","2.3","","","M","","M","","M","26","","13","","","","97.75","","","","","","NA"
"-79.16","44.10","UXBRIDGE WEST","6159123","2020-03-17 11:00","2020","03","17","11:00","2.8","","","M","","M","","M","27","","16","","","","97.78","","","","","","NA"
"-79.16","44.10","UXBRIDGE WEST","6159123","2020-03-17 12:00","2020","03","17","12:00","3.6","","","M","","M","","M","28","","25","","","","97.84","","","","","","NA"
"-79.16","44.10","UXBRIDGE WEST","6159123","2020-03-17 13:00","2020","03","17","13:00","4.8","","","M","","M","","M","28","","23","","","","97.85","","","","","","NA"
"-79.16","44.10","UXBRIDGE WEST","6159123","2020-03-17 14:00","2020","03","17","14:00","3.8","","","M","","M","","M","30","","26","","","","97.92","","","","","","NA"
"-79.16","44.10","UXBRIDGE WEST","6159123","2020-03-17 15:00","2020","03","17","15:00","4.2","","","M","","M","","M","30","","27","","","","98.00","","","","","","NA"
"-79.16","44.10","UXBRIDGE WEST","6159123","2020-03-17 16:00","2020","03","17","16:00","4.1","","","M","","M","","M","30","","24","","","","98.07","","","","","","NA"
"-79.16","44.10","UXBRIDGE WEST","6159123","2020-03-17 17:00","2020","03","17","17:00","3.9","","","M","","M","","M","31","","18","","","","98.13","","","","","","NA"
"-79.16","44.10","UXBRIDGE WEST","6159123","2020-03-17 18:00","2020","03","17","18:00","3.0","","","M","","M","","M","30","","19","","","","98.22","","","","","","NA"
"-79.16","44.10","UXBRIDGE WEST","6159123","2020-03-17 19:00","2020","03","17","19:00","0.5","","","M","","M","","M","28","","7","","","","98.34","","","","","","NA"
"-79.16","44.10","UXBRIDGE WEST","6159123","2020-03-17 20:00","2020","03","17","20:00","0.0","","","M","","M","","M","31","","12","","","","98.47","","","","-4","","NA"
"-79.16","44.10","UXBRIDGE WEST","6159123","2020-03-17 21:00","2020","03","17","21:00","-0.7","","","M","","M","","M","30","","11","","","","98.56","","","","-4","","NA"
"-79.16","44.10","UXBRIDGE WEST","6159123","2020-03-17 22:00","2020","03","17","22:00","-1.2","","","M","","M","","M","29","","9","","","","98.64","","","","-4","","NA"
"-79.16","44.10","UXBRIDGE WEST","6159123","2020-03-17 23:00","2020","03","17","23:00","-1.8","","","M","","M","","M","28","","6","","","","98.73","","","","-4","","NA"
"-79.16","44.10","UXBRIDGE WEST","6159123","2020-03-18 00:00","2020","03","18","00:00","-2.3","","","M","","M","","M","29","","10","","","","98.77","","","","-6","","NA"
"-79.16","44.10","UXBRIDGE WEST","6159123","2020-03-18 01:00","2020","03","18","01:00","-3.3","","","M","","M","","M","30","","5","","","","98.82","","","","-5","","NA"
"-79.16","44.10","UXBRIDGE WEST","6159123","2020-03-18 02:00","2020","03","18","02:00","-3.6","","","M","","M","","M","30","","5","","","","98.88","","","","-6","","NA"
"-79.16","44.10","UXBRIDGE WEST","6159123","2020-03-18 03:00","2020","03","18","03:00","-4.5","","","M","","M","","M","30","","3","","","","98.85","","","","-6","","NA"
"-79.16","44.10","UXBRIDGE WEST","6159123","2020-03-18 04:00","2020","03","18","04:00","-4.5","","","M","","M","","M","33","","3","","","","98.91","","","","-6","","NA"
"-79.16","44.10","UXBRIDGE WEST","6159123","2020-03-18 05:00","2020","03","18","05:00","-5.0","","","M","","M","","M","0","","1","","","","99.00","","","","-5","","NA"
"-79.16","44.10","UXBRIDGE WEST","6159123","2020-03-18 06:00","2020","03","18","06:00","-5.3","","","M","","M","","M","0","","1","","","","99.05","","","","-6","","NA"
"-79.16","44.10","UXBRIDGE WEST","6159123","2020-03-18 07:00","2020","03","18","07:00","-5.1","","","M","","M","","M","34","","2","","","","99.10","","","","-6","","NA"
"-79.16","44.10","UXBRIDGE WEST","6159123","2020-03-18 08:00","2020","03","18","08:00","-1.7","","","M","","M","","M","8","","5","","","","99.11","","","","-4","","NA"
"-79.16","44.10","UXBRIDGE WEST","6159123","2020-03-18 09:00","2020","03","18","09:00","0.1","","","M","","M","","M","9","","9","","","","99.06","","","","","","NA"
"-79.16","44.10","UXBRIDGE WEST","6159123","2020-03-18 10:00","2020","03","18","10:00","2.0","","","M","","M","","M","13","","8","","","","99.10","","","","","","NA"
"-79.16","44.10","UXBRIDGE WEST","6159123","2020-03-18 11:00","2020","03","18","11:00","2.0","","","M","","M","","M","14","","10","","","","99.06","","","","","","NA"
"-79.16","44.10","UXBRIDGE WEST","6159123","2020-03-18 12:00","2020","03","18","12:00","2.3","","","M","","M","","M","14","","11","","","","98.96","","","","","","NA"
"-79.16","44.10","UXBRIDGE WEST","6159123","2020-03-18 13:00","2020","03","18","13:00","2.8","","","M","","M","","M","14","","10","","","","98.89","","","","","","NA"
"-79.16","44.10","UXBRIDGE WEST","6159123","2020-03-18 14:00","2020","03","18","14:00","2.6","","","M","","M","","M","14","","13","","","","98.81","","","","","","NA"
"-79.16","44.10","UXBRIDGE WEST","6159123","2020-03-18 15:00","2020","03","18","15:00","2.7","","","M","","M","","M","12","","14","","","","98.76","","","","","","NA"
"-79.16","44.10","UXBRIDGE WEST","6159123","2020-03-18 16:00","2020","03","18","16:00","2.6","","","M","","M","","M","12","","11","","","","98.67","","","","","","NA"
"-79.16","44.10","UXBRIDGE WEST","6159123","2020-03-18 17:00","2020","03","18","17:00","2.1","","","M","","M","","M","10","","9","","","","98.60","","","","","","NA"
"-79.16","44.10","UXBRIDGE WEST","6159123","2020-03-18 18:00","2020","03","18","18:00","1.8","","","M","","M","","M","11","","8","","","","98.54","","","","","","NA"
"-79.16","44.10","UXBRIDGE WEST","6159123","2020-03-18 19:00","2020","03","18","19:00","1.6","","","M","","M","","M","9","","9","","","","98.52","","","","","","NA"
"-79.16","44.10","UXBRIDGE WEST","6159123","2020-03-18 20:00","2020","03","18","20:00","1.4","","","M","","M","","M","8","","14","","","","98.45","","","","","","NA"
"-79.16","44.10","UXBRIDGE WEST","6159123","2020-03-18 21:00","2020","03","18","21:00","1.2","","","M","","M","","M","10","","12","","","","98.44","","","","","","NA"
"-79.16","44.10","UXBRIDGE WEST","6159123","2020-03-18 22:00","2020","03","18","22:00","1.2","","","M","","M","","M","9","","13","","","","98.37","","","","","","NA"
"-79.16","44.10","UXBRIDGE WEST","6159123","2020-03-18 23:00","2020","03","18","23:00","1.4","","","M","","M","","M","8","","17","","","","98.34","","","","","","NA"
"-79.16","44.10","UXBRIDGE WEST","6159123","2020-03-19 00:00","2020","03","19","00:00","1.5","","","M","","M","","M","9","","14","","","","98.31","","","","","","NA"
"-79.16","44.10","UXBRIDGE WEST","6159123","2020-03-19 01:00","2020","03","19","01:00","1.5","","","M","","M","","M","12","","9","","","","98.28","","","","","","NA"
"-79.16","44.10","UXBRIDGE WEST","6159123","2020-03-19 02:00","2020","03","19","02:00","1.4","","","M","","M","","M","9","","10","","","","98.23","","","","","","NA"
"-79.16","44.10","UXBRIDGE WEST","6159123","2020-03-19 03:00","2020","03","19","03:00","1.6","","","M","","M","","M","7","","6","","","","98.21","","","","","","NA"
"-79.16","44.10","UXBRIDGE WEST","6159123","2020-03-19 04:00","2020","03","19","04:00","0.7","","","M","","M","","M","1","","4","","","","98.30","","","","","","NA"
"-79.16","44.10","UXBRIDGE WEST","6159123","2020-03-19 05:00","2020","03","19","05:00","-0.2","","","M","","M","","M","9","","6","","","","98.25","","","","-2","","NA"
"-79.16","44.10","UXBRIDGE WEST","6159123","2020-03-19 06:00","2020","03","19","06:00","0.7","","","M","","M","","M","4","","2","","","","98.36","","","","","","NA"
"-79.16","44.10","UXBRIDGE WEST","6159123","2020-03-19 07:00","2020","03","19","07:00","0.4","","","M","","M","","M","36","","6","","","","98.40","","","","","","NA"
"-79.16","44.10","UXBRIDGE WEST","6159123","2020-03-19 08:00","2020","03","19","08:00","1.0","","","M","","M","","M","6","","3","","","","98.42","","","","","","NA"
"-79.16","44.10","UXBRIDGE WEST","6159123","2020-03-19 09:00","2020","03","19","09:00","2.2","","","M","","M","","M","9","","9","","","","98.38","","","","","","NA"
"-79.16","44.10","UXBRIDGE WEST","6159123","2020-03-19 10:00","2020","03","19","10:00","3.9","","","M","","M","","M","9","","9","","","","98.40","","","","","","NA"
"-79.16","44.10","UXBRIDGE WEST","6159123","2020-03-19 11:00","2020","03","19","11:00","5.4","","","M","","M","","M","9","","9","","","","98.31","","","","","","NA"
"-79.16","44.10","UXBRIDGE WEST","6159123","2020-03-19 12:00","2020","03","19","12:00","6.7","","","M","","M","","M","14","","4","","","","98.29","","","","","","NA"
"-79.16","44.10","UXBRIDGE WEST","6159123","2020-03-19 13:00","2020","03","19","13:00","7.2","","","M","","M","","M","12","","8","","","","98.26","","","","","","NA"
"-79.16","44.10","UXBRIDGE WEST","6159123","2020-03-19 14:00","2020","03","19","14:00","7.7","","","M","","M","","M","14","","9","","","","98.19","","","","","","NA"
"-79.16","44.10","UXBRIDGE WEST","6159123","2020-03-19 15:00","2020","03","19","15:00","7.3","","","M","","M","","M","16","","11","","","","98.16","","","","","","NA"
"-79.16","44.10","UXBRIDGE WEST","6159123","2020-03-19 16:00","2020","03","19","16:00","6.6","","","M","","M","","M","15","","10","","","","98.10","","","","","","NA"
"-79.16","44.10","UXBRIDGE WEST","6159123","2020-03-19 17:00","2020","03","19","17:00","6.3","","","M","","M","","M","14","","13","","","","98.03","","","","","","NA"
"-79.16","44.10","UXBRIDGE WEST","6159123","2020-03-19 18:00","2020","03","19","18:00","5.8","","","M","","M","","M","14","","10","","","","97.97","","","","","","NA"
"-79.16","44.10","UXBRIDGE WEST","6159123","2020-03-19 19:00","2020","03","19","19:00","5.3","","","M","","M","","M","13","","9","","","","97.86","","","","","","NA"
"-79.16","44.10","UXBRIDGE WEST","6159123","2020-03-19 20:00","2020","03","19","20:00","5.1","","","M","","M","","M","14","","15","","","","97.74","","","","","","NA"
"-79.16","44.10","UXBRIDGE WEST","6159123","2020-03-19 21:00","2020","03","19","21:00","5.3","","","M","","M","","M","13","","17","","","","97.61","","","","","","NA"
"-79.16","44.10","UXBRIDGE WEST","6159123","2020-03-19 22:00","2020","03","19","22:00","5.4","","","M","","M","","M","13","","19","","","","97.38","","","","","","NA"
"-79.16","44.10","UXBRIDGE WEST","6159123","2020-03-19 23:00","2020","03","19","23:00","5.9","","","M","","M","","M","13","","19","","","","97.18","","","","","","NA"
"-79.16","44.10","UXBRIDGE WEST","6159123","2020-03-20 00:00","2020","03","20","00:00","6.0","","","M","","M","","M","13","","15","","","","96.99","","","","","","NA"
"-79.16","44.10","UXBRIDGE WEST","6159123","2020-03-20 01:00","2020","03","20","01:00","7.0","","","M","","M","","M","15","","20","","","","96.83","","","","","","NA"
"-79.16","44.10","UXBRIDGE WEST","6159123","2020-03-20 02:00","2020","03","20","02:00","8.4","","","M","","M","","M","18","","17","","","","96.73","","","","","","NA"
"-79.16","44.10","UXBRIDGE WEST","6159123","2020-03-20 03:00","2020","03","20","03:00","8.5","","","M","","M","","M","20","","13","","","","96.61","","","","","","NA"
"-79.16","44.10","UXBRIDGE WEST","6159123","2020-03-20 04:00","2020","03","20","04:00","9.1","","","M","","M","","M","21","","14","","","","96.55","","","","","","NA"
"-79.16","44.10","UXBRIDGE WEST","6159123","2020-03-20 05:00","2020","03","20","05:00","9.7","","","M","","M","","M","20","","10","","","","96.49","","","","","","NA"
"-79.16","44.10","UXBRIDGE WEST","6159123","2020-03-20 06:00","2020","03","20","06:00","11.3","","","M","","M","","M","20","","14","","","","96.42","","","","","","NA"
"-79.16","44.10","UXBRIDGE WEST","6159123","2020-03-20 07:00","2020","03","20","07:00","12.9","","","M","","M","","M","20","","17","","","","96.35","","","","","","NA"
"-79.16","44.10","UXBRIDGE WEST","6159123","2020-03-20 08:00","2020","03","20","08:00","14.4","","","M","","M","","M","21","","20","","","","96.26","","","","","","NA"
"-79.16","44.10","UXBRIDGE WEST","6159123","2020-03-20 09:00","2020","03","20","09:00","15.2","","","M","","M","","M","21","","22","","","","96.21","","","","","","NA"
"-79.16","44.10","UXBRIDGE WEST","6159123","2020-03-20 10:00","2020","03","20","10:00","15.2","","","M","","M","","M","22","","24","","","","96.18","","","","","","NA"
"-79.16","44.10","UXBRIDGE WEST","6159123","2020-03-20 11:00","2020","03","20","11:00","11.2","","","M","","M","","M","29","","27","","","","96.35","","","","","","NA"
"-79.16","44.10","UXBRIDGE WEST","6159123","2020-03-20 12:00","2020","03","20","12:00","7.8","","","M","","M","","M","29","","30","","","","96.56","","","","","","NA"
"-79.16","44.10","UXBRIDGE WEST","6159123","2020-03-20 13:00","2020","03","20","13:00","6.0","","","M","","M","","M","30","","34","","","","96.77","","","","","","NA"
"-79.16","44.10","UXBRIDGE WEST","6159123","2020-03-20 14:00","2020","03","20","14:00","5.1","","","M","","M","","M","29","","31","","","","96.86","","","","","","NA"
"-79.16","44.10","UXBRIDGE WEST","6159123","2020-03-20 15:00","2020","03","20","15:00","3.6","","","M","","M","","M","31","","30","","","","97.10","","","","","","NA"
"-79.16","44.10","UXBRIDGE WEST","6159123","2020-03-20 16:00","2020","03","20","16:00","1.5","","","M","","M","","M","31","","29","","","","97.32","","","","","","NA"
"-79.16","44.10","UXBRIDGE WEST","6159123","2020-03-20 17:00","2020","03","20","17:00","-1.0","","","M","","M","","M","30","","28","","","","97.56","","","","-8","","NA"
"-79.16","44.10","UXBRIDGE WEST","6159123","2020-03-20 18:00","2020","03","20","18:00","-2.6","","","M","","M","","M","31","","33","","","","97.79","","","","-10","","NA"
"-79.16","44.10","UXBRIDGE WEST","6159123","2020-03-20 19:00","2020","03","20","19:00","-3.4","","","M","","M","","M","31","","34","","","","98.04","","","","-11","","NA"
"-79.16","44.10","UXBRIDGE WEST","6159123","2020-03-20 20:00","2020","03","20","20:00","-3.9","","","M","","M","","M","30","","32","","","","98.21","","","","-12","","NA"
"-79.16","44.10","UXBRIDGE WEST","6159123","2020-03-20 21:00","2020","03","20","21:00","-4.4","","","M","","M","","M","32","","25","","","","98.38","","","","-12","","NA"
"-79.16","44.10","UXBRIDGE WEST","6159123","2020-03-20 22:00","2020","03","20","22:00","-4.7","","","M","","M","","M","33","","22","","","","98.47","","","","-12","","NA"
"-79.16","44.10","UXBRIDGE WEST","6159123","2020-03-20 23:00","2020","03","20","23:00","-5.2","","","M","","M","","M","32","","24","","","","98.67","","","","-12","","NA"
"-79.16","44.10","UXBRIDGE WEST","6159123","2020-03-21 00:00","2020","03","21","00:00","-5.6","","","M","","M","","M","33","","28","","","","98.74","","","","-14","","NA"
"-79.16","44.10","UXBRIDGE WEST","6159123","2020-03-21 01:00","2020","03","21","01:00","-6.0","","","M","","M","","M","33","","22","","","","98.86","","","","-13","","NA"
"-79.16","44.10","UXBRIDGE WEST","6159123","2020-03-21 02:00","2020","03","21","02:00","-6.9","","","M","","M","","M","33","","23","","","","98.92","","","","-14","","NA"
"-79.16","44.10","UXBRIDGE WEST","6159123","2020-03-21 03:00","2020","03","21","03:00","-8.3","","","M","","M","","M","33","","20","","","","98.97","","","","-16","","NA"
"-79.16","44.10","UXBRIDGE WEST","6159123","2020-03-21 04:00","2020","03","21","04:00","-9.2","","","M","","M","","M","34","","18","","","","99.03","","","","-16","","NA"
"-79.16","44.10","UXBRIDGE WEST","6159123","2020-03-21 05:00","2020","03","21","05:00","-10.4","","","M","","M","","M","35","","18","","","","99.08","","","","-18","","NA"
"-79.16","44.10","UXBRIDGE WEST","6159123","2020-03-21 06:00","2020","03","21","06:00","-11.0","","","M","","M","","M","34","","17","","","","99.18","","","","-18","","NA"
"-79.16","44.10","UXBRIDGE WEST","6159123","2020-03-21 07:00","2020","03","21","07:00","-11.4","","","M","","M","","M","34","","14","","","","99.30","","","","-18","","NA"
"-79.16","44.10","UXBRIDGE WEST","6159123","2020-03-21 08:00","2020","03","21","08:00","-10.9","","","M","","M","","M","34","","16","","","","99.38","","","","-18","","NA"
"-79.16","44.10","UXBRIDGE WEST","6159123","2020-03-21 09:00","2020","03","21","09:00","-9.9","","","M","","M","","M","35","","11","","","","99.49","","","","-15","","NA"
"-79.16","44.10","UXBRIDGE WEST","6159123","2020-03-21 10:00","2020","03","21","10:00","-8.4","","","M","","M","","M","1","","9","","","","99.53","","","","-13","","NA"
"-79.16","44.10","UXBRIDGE WEST","6159123","2020-03-21 11:00","2020","03","21","11:00","-7.2","","","M","","M","","M","34","","10","","","","99.51","","","","-12","","NA"
"-79.16","44.10","UXBRIDGE WEST","6159123","2020-03-21 12:00","2020","03","21","12:00","-5.7","","","M","","M","","M","36","","12","","","","99.50","","","","-11","","NA"
"-79.16","44.10","UXBRIDGE WEST","6159123","2020-03-21 13:00","2020","03","21","13:00","-4.0","","","M","","M","","M","2","","11","","","","99.45","","","","-8","","NA"
"-79.16","44.10","UXBRIDGE WEST","6159123","2020-03-21 14:00","2020","03","21","14:00","-3.4","","","M","","M","","M","36","","13","","","","99.39","","","","-8","","NA"
"-79.16","44.10","UXBRIDGE WEST","6159123","2020-03-21 15:00","2020","03","21","15:00","-3.1","","","M","","M","","M","1","","10","","","","99.38","","","","-7","","NA"
"-79.16","44.10","UXBRIDGE WEST","6159123","2020-03-21 16:00","2020","03","21","16:00","-3.0","","","M","","M","","M","31","","15","","","","99.40","","","","-8","","NA"
"-79.16","44.10","UXBRIDGE WEST","6159123","2020-03-21 17:00","2020","03","21","17:00","-3.1","","","M","","M","","M","33","","13","","","","99.42","","","","-8","","NA"
"-79.16","44.10","UXBRIDGE WEST","6159123","2020-03-21 18:00","2020","03","21","18:00","-3.4","","","M","","M","","M","35","","12","","","","99.43","","","","-8","","NA"
"-79.16","44.10","UXBRIDGE WEST","6159123","2020-03-21 19:00","2020","03","21","19:00","-4.4","","","M","","M","","M","32","","6","","","","99.46","","","","-7","","NA"
"-79.16","44.10","UXBRIDGE WEST","6159123","2020-03-21 20:00","2020","03","21","20:00","-5.4","","","M","","M","","M","32","","9","","","","99.53","","","","-9","","NA"
"-79.16","44.10","UXBRIDGE WEST","6159123","2020-03-21 21:00","2020","03","21","21:00","-6.5","","","M","","M","","M","31","","7","","","","99.58","","","","-10","","NA"
"-79.16","44.10","UXBRIDGE WEST","6159123","2020-03-21 22:00","2020","03","21","22:00","-7.3","","","M","","M","","M","32","","7","","","","99.61","","","","-11","","NA"
"-79.16","44.10","UXBRIDGE WEST","6159123","2020-03-21 23:00","2020","03","21","23:00","-8.3","","","M","","M","","M","32","","2","","","","99.62","","","","-9","","NA"
"-79.16","44.10","UXBRIDGE WEST","6159123","2020-03-22 00:00","2020","03","22","00:00","-8.6","","","M","","M","","M","32","","5","","","","99.63","","","","-11","","NA"
"-79.16","44.10","UXBRIDGE WEST","6159123","2020-03-22 01:00","2020","03","22","01:00","-9.2","","","M","","M","","M","34","","1","","","","99.67","","","","-10","","NA"
"-79.16","44.10","UXBRIDGE WEST","6159123","2020-03-22 02:00","2020","03","22","02:00","-8.0","","","M","","M","","M","4","","5","","","","99.69","","","","-11","","NA"
"-79.16","44.10","UXBRIDGE WEST","6159123","2020-03-22 03:00","2020","03","22","03:00","-7.8","","","M","","M","","M","8","","7","","","","99.67","","","","-11","","NA"
"-79.16","44.10","UXBRIDGE WEST","6159123","2020-03-22 04:00","2020","03","22","04:00","-7.9","","","M","","M","","M","8","","9","","","","99.70","","","","-12","","NA"
"-79.16","44.10","UXBRIDGE WEST","6159123","2020-03-22 05:00","2020","03","22","05:00","-7.8","","","M","","M","","M","8","","11","","","","99.80","","","","-13","","NA"
"-79.16","44.10","UXBRIDGE WEST","6159123","2020-03-22 06:00","2020","03","22","06:00","-8.1","","","M","","M","","M","9","","10","","","","99.83","","","","-13","","NA"
"-79.16","44.10","UXBRIDGE WEST","6159123","2020-03-22 07:00","2020","03","22","07:00","-7.6","","","M","","M","","M","9","","10","","","","99.86","","","","-12","","NA"
"-79.16","44.10","UXBRIDGE WEST","6159123","2020-03-22 08:00","2020","03","22","08:00","-5.8","","","M","","M","","M","10","","13","","","","99.87","","","","-11","","NA"
"-79.16","44.10","UXBRIDGE WEST","6159123","2020-03-22 09:00","2020","03","22","09:00","-3.7","","","M","","M","","M","10","","13","","","","99.89","","","","-9","","NA"
"-79.16","44.10","UXBRIDGE WEST","6159123","2020-03-22 10:00","2020","03","22","10:00","-2.9","","","M","","M","","M","13","","15","","","","99.99","","","","-8","","NA"
"-79.16","44.10","UXBRIDGE WEST","6159123","2020-03-22 11:00","2020","03","22","11:00","-2.0","","","M","","M","","M","13","","16","","","","99.90","","","","-7","","NA"
"-79.16","44.10","UXBRIDGE WEST","6159123","2020-03-22 12:00","2020","03","22","12:00","-1.2","","","M","","M","","M","11","","15","","","","99.88","","","","-6","","NA"
"-79.16","44.10","UXBRIDGE WEST","6159123","2020-03-22 13:00","2020","03","22","13:00","-1.1","","","M","","M","","M","13","","16","","","","99.76","","","","-6","","NA"
"-79.16","44.10","UXBRIDGE WEST","6159123","2020-03-22 14:00","2020","03","22","14:00","-0.2","","","M","","M","","M","14","","15","","","","99.64","","","","-5","","NA"
"-79.16","44.10","UXBRIDGE WEST","6159123","2020-03-22 15:00","2020","03","22","15:00","-0.2","","","M","","M","","M","14","","17","","","","99.52","","","","-5","","NA"
"-79.16","44.10","UXBRIDGE WEST","6159123","2020-03-22 16:00","2020","03","22","16:00","-0.4","","","M","","M","","M","11","","14","","","","99.46","","","","-5","","NA"
"-79.16","44.10","UXBRIDGE WEST","6159123","2020-03-22 17:00","2020","03","22","17:00","-0.4","","","M","","M","","M","14","","13","","","","99.43","","","","-5","","NA"
"-79.16","44.10","UXBRIDGE WEST","6159123","2020-03-22 18:00","2020","03","22","18:00","-2.2","","","M","","M","","M","14","","17","","","","99.43","","","","-8","","NA"
"-79.16","44.10","UXBRIDGE WEST","6159123","2020-03-22 19:00","2020","03","22","19:00","-3.1","","","M","","M","","M","12","","9","","","","99.31","","","","-7","","NA"
"-79.16","44.10","UXBRIDGE WEST","6159123","2020-03-22 20:00","2020","03","22","20:00","-3.2","","","M","","M","","M","11","","12","","","","99.24","","","","-8","","NA"
"-79.16","44.10","UXBRIDGE WEST","6159123","2020-03-22 21:00","2020","03","22","21:00","-3.1","","","M","","M","","M","11","","9","","","","99.18","","","","-7","","NA"
"-79.16","44.10","UXBRIDGE WEST","6159123","2020-03-22 22:00","2020","03","22","22:00","-2.3","","","M","","M","","M","11","","9","","","","99.08","","","","-6","","NA"
"-79.16","44.10","UXBRIDGE WEST","6159123","2020-03-22 23:00","2020","03","22","23:00","-1.8","","","M","","M","","M","11","","10","","","","98.97","","","","-5","","NA"
"-79.16","44.10","UXBRIDGE WEST","6159123","2020-03-23 00:00","2020","03","23","00:00","-1.5","","","M","","M","","M","10","","9","","","","98.89","","","","-5","","NA"
"-79.16","44.10","UXBRIDGE WEST","6159123","2020-03-23 01:00","2020","03","23","01:00","-1.2","","","M","","M","","M","12","","10","","","","98.81","","","","-5","","NA"
"-79.16","44.10","UXBRIDGE WEST","6159123","2020-03-23 02:00","2020","03","23","02:00","-1.2","","","M","","M","","M","11","","14","","","","98.72","","","","-6","","NA"
"-79.16","44.10","UXBRIDGE WEST","6159123","2020-03-23 03:00","2020","03","23","03:00","-1.4","","","M","","M","","M","11","","7","","","","98.63","","","","-4","","NA"
"-79.16","44.10","UXBRIDGE WEST","6159123","2020-03-23 04:00","2020","03","23","04:00","-1.6","","","M","","M","","M","11","","8","","","","98.53","","","","-5","","NA"
"-79.16","44.10","UXBRIDGE WEST","6159123","2020-03-23 05:00","2020","03","23","05:00","-1.7","","","M","","M","","M","10","","10","","","","98.41","","","","-5","","NA"
"-79.16","44.10","UXBRIDGE WEST","6159123","2020-03-23 06:00","2020","03","23","06:00","-1.6","","","M","","M","","M","11","","8","","","","98.38","","","","-5","","NA"
"-79.16","44.10","UXBRIDGE WEST","6159123","2020-03-23 07:00","2020","03","23","07:00","-1.0","","","M","","M","","M","11","","8","","","","98.31","","","","-4","","NA"
"-79.16","44.10","UXBRIDGE WEST","6159123","2020-03-23 08:00","2020","03","23","08:00","-0.2","","","M","","M","","M","12","","11","","","","98.26","","","","-4","","NA"
"-79.16","44.10","UXBRIDGE WEST","6159123","2020-03-23 09:00","2020","03","23","09:00","0.3","","","M","","M","","M","12","","13","","","","98.22","","","","","","NA"
"-79.16","44.10","UXBRIDGE WEST","6159123","2020-03-23 10:00","2020","03","23","10:00","0.3","","","M","","M","","M","13","","10","","","","98.19","","","","","","NA"
"-79.16","44.10","UXBRIDGE WEST","6159123","2020-03-23 11:00","2020","03","23","11:00","0.5","","","M","","M","","M","13","","13","","","","98.15","","","","","","NA"
"-79.16","44.10","UXBRIDGE WEST","6159123","2020-03-23 12:00","2020","03","23","12:00","0.9","","","M","","M","","M","14","","12","","","","98.09","","","","","","NA"
"-79.16","44.10","UXBRIDGE WEST","6159123","2020-03-23 13:00","2020","03","23","13:00","0.7","","","M","","M","","M","14","","9","","","","98.04","","","","","","NA"
"-79.16","44.10","UXBRIDGE WEST","6159123","2020-03-23 14:00","2020","03","23","14:00","0.9","","","M","","M","","M","14","","10","","","","97.95","","","","","","NA"
"-79.16","44.10","UXBRIDGE WEST","6159123","2020-03-23 15:00","2020","03","23","15:00","0.9","","","M","","M","","M","11","","6","","","","97.91","","","","","","NA"
"-79.16","44.10","UXBRIDGE WEST","6159123","2020-03-23 16:00","2020","03","23","16:00","1.1","","","M","","M","","M","10","","4","","","","97.91","","","","","","NA"
"-79.16","44.10","UXBRIDGE WEST","6159123","2020-03-23 17:00","2020","03","23","17:00","0.8","","","M","","M","","M","5","","3","","","","97.93","","","","","","NA"
"-79.16","44.10","UXBRIDGE WEST","6159123","2020-03-23 18:00","2020","03","23","18:00","0.8","","","M","","M","","M","3","","4","","","","97.96","","","","","","NA"
"-79.16","44.10","UXBRIDGE WEST","6159123","2020-03-23 19:00","2020","03","23","19:00","0.7","","","M","","M","","M","2","","3","","","","97.98","","","","","","NA"
"-79.16","44.10","UXBRIDGE WEST","6159123","2020-03-23 20:00","2020","03","23","20:00","0.7","","","M","","M","","M","32","","3","","","","98.06","","","","","","NA"
"-79.16","44.10","UXBRIDGE WEST","6159123","2020-03-23 21:00","2020","03","23","21:00","0.6","","","M","","M","","M","33","","8","","","","98.09","","","","","","NA"
"-79.16","44.10","UXBRIDGE WEST","6159123","2020-03-23 22:00","2020","03","23","22:00","0.4","","","M","","M","","M","30","","3","","","","98.11","","","","","","NA"
"-79.16","44.10","UXBRIDGE WEST","6159123","2020-03-23 23:00","2020","03","23","23:00","0.3","","","M","","M","","M","30","","6","","","","98.10","","","","","","NA"
"-79.16","44.10","UXBRIDGE WEST","6159123","2020-03-24 00:00","2020","03","24","00:00","0.2","","","M","","M","","M","31","","9","","","","98.11","","","","","","NA"
"-79.16","44.10","UXBRIDGE WEST","6159123","2020-03-24 01:00","2020","03","24","01:00","0.0","","","M","","M","","M","31","","10","","","","98.17","","","","-3","","NA"
"-79.16","44.10","UXBRIDGE WEST","6159123","2020-03-24 02:00","2020","03","24","02:00","-0.1","","","M","","M","","M","31","","10","","","","98.19","","","","-3","","NA"
"-79.16","44.10","UXBRIDGE WEST","6159123","2020-03-24 03:00","2020","03","24","03:00","-0.5","","","M","","M","","M","31","","10","","","","98.15","","","","-4","","NA"
"-79.16","44.10","UXBRIDGE WEST","6159123","2020-03-24 04:00","2020","03","24","04:00","-0.9","","","M","","M","","M","34","","10","","","","98.20","","","","-4","","NA"
"-79.16","44.10","UXBRIDGE WEST","6159123","2020-03-24 05:00","2020","03","24","05:00","-1.1","","","M","","M","","M","30","","11","","","","98.33","","","","-5","","NA"
"-79.16","44.10","UXBRIDGE WEST","6159123","2020-03-24 06:00","2020","03","24","06:00","-0.9","","","M","","M","","M","32","","7","","","","98.34","","","","-3","","NA"
"-79.16","44.10","UXBRIDGE WEST","6159123","2020-03-24 07:00","2020","03","24","07:00","-0.8","","","M","","M","","M","33","","7","","","","98.36","","","","-3","","NA"
"-79.16","44.10","UXBRIDGE WEST","6159123","2020-03-24 08:00","2020","03","24","08:00","-0.4","","","M","","M","","M","34","","7","","","","98.38","","","","-3","","NA"
"-79.16","44.10","UXBRIDGE WEST","6159123","2020-03-24 09:00","2020","03","24","09:00","-0.1","","","M","","M","","M","32","","6","","","","98.43","","","","-2","","NA"
"-79.16","44.10","UXBRIDGE WEST","6159123","2020-03-24 10:00","2020","03","24","10:00","0.2","","","M","","M","","M","35","","3","","","","98.45","","","","","","NA"
"-79.16","44.10","UXBRIDGE WEST","6159123","2020-03-24 11:00","2020","03","24","11:00","2.2","","","M","","M","","M","6","","4","","","","98.40","","","","","","NA"
"-79.16","44.10","UXBRIDGE WEST","6159123","2020-03-24 12:00","2020","03","24","12:00","2.2","","","M","","M","","M","8","","4","","","","98.38","","","","","","NA"
"-79.16","44.10","UXBRIDGE WEST","6159123","2020-03-24 13:00","2020","03","24","13:00","2.3","","","M","","M","","M","5","","4","","","","98.34","","","","","","NA"
"-79.16","44.10","UXBRIDGE WEST","6159123","2020-03-24 14:00","2020","03","24","14:00","3.2","","","M","","M","","M","4","","1","","","","98.27","","","","","","NA"
"-79.16","44.10","UXBRIDGE WEST","6159123","2020-03-24 15:00","2020","03","24","15:00","4.5","","","M","","M","","M","16","","7","","","","98.22","","","","","","NA"
"-79.16","44.10","UXBRIDGE WEST","6159123","2020-03-24 16:00","2020","03","24","16:00","4.4","","","M","","M","","M","14","","4","","","","98.21","","","","","","NA"
"-79.16","44.10","UXBRIDGE WEST","6159123","2020-03-24 17:00","2020","03","24","17:00","3.1","","","M","","M","","M","18","","15","","","","98.24","","","","","","NA"
"-79.16","44.10","UXBRIDGE WEST","6159123","2020-03-24 18:00","2020","03","24","18:00","2.8","","","M","","M","","M","16","","7","","","","98.25","","","","","","NA"
"-79.16","44.10","UXBRIDGE WEST","6159123","2020-03-24 19:00","2020","03","24","19:00","0.3","","","M","","M","","M","13","","6","","","","98.22","","","","","","NA"
"-79.16","44.10","UXBRIDGE WEST","6159123","2020-03-24 20:00","2020","03","24","20:00","-0.4","","","M","","M","","M","13","","7","","","","98.18","","","","-3","","NA"
"-79.16","44.10","UXBRIDGE WEST","6159123","2020-03-24 21:00","2020","03","24","21:00","-0.4","","","M","","M","","M","15","","6","","","","98.17","","","","-2","","NA"
"-79.16","44.10","UXBRIDGE WEST","6159123","2020-03-24 22:00","2020","03","24","22:00","-0.7","","","M","","M","","M","14","","7","","","","98.11","","","","-3","","NA"
"-79.16","44.10","UXBRIDGE WEST","6159123","2020-03-24 23:00","2020","03","24","23:00","-0.3","","","M","","M","","M","14","","8","","","","98.04","","","","-3","","NA"
"-79.16","44.10","UXBRIDGE WEST","6159123","2020-03-25 00:00","2020","03","25","00:00","-0.4","","","M","","M","","M","13","","9","","","","97.97","","","","-4","","NA"
"-79.16","44.10","UXBRIDGE WEST","6159123","2020-03-25 01:00","2020","03","25","01:00","-0.1","","","M","","M","","M","13","","10","","","","97.93","","","","-3","","NA"
"-79.16","44.10","UXBRIDGE WEST","6159123","2020-03-25 02:00","2020","03","25","02:00","-0.5","","","M","","M","","M","12","","9","","","","97.84","","","","-4","","NA"
"-79.16","44.10","UXBRIDGE WEST","6159123","2020-03-25 03:00","2020","03","25","03:00","-0.4","","","M","","M","","M","12","","9","","","","97.75","","","","-4","","NA"
"-79.16","44.10","UXBRIDGE WEST","6159123","2020-03-25 04:00","2020","03","25","04:00","-0.2","","","M","","M","","M","13","","13","","","","97.74","","","","-4","","NA"
"-79.16","44.10","UXBRIDGE WEST","6159123","2020-03-25 05:00","2020","03","25","05:00","-0.6","","","M","","M","","M","11","","10","","","","97.72","","","","-4","","NA"
"-79.16","44.10","UXBRIDGE WEST","6159123","2020-03-25 06:00","2020","03","25","06:00","-0.7","","","M","","M","","M","11","","8","","","","97.69","","","","-4","","NA"
"-79.16","44.10","UXBRIDGE WEST","6159123","2020-03-25 07:00","2020","03","25","07:00","-0.5","","","M","","M","","M","11","","8","","","","97.68","","","","-3","","NA"
"-79.16","44.10","UXBRIDGE WEST","6159123","2020-03-25 08:00","2020","03","25","08:00","0.2","","","M","","M","","M","12","","13","","","","97.68","","","","","","NA"
"-79.16","44.10","UXBRIDGE WEST","6159123","2020-03-25 09:00","2020","03","25","09:00","0.8","","","M","","M","","M","13","","12","","","","97.71","","","","","","NA"
"-79.16","44.10","UXBRIDGE WEST","6159123","2020-03-25 10:00","2020","03","25","10:00","1.9","","","M","","M","","M","15","","14","","","","97.67","","","","","","NA"
"-79.16","44.10","UXBRIDGE WEST","6159123","2020-03-25 11:00","2020","03","25","11:00","3.3","","","M","","M","","M","14","","15","","","","97.65","","","","","","NA"
"-79.16","44.10","UXBRIDGE WEST","6159123","2020-03-25 12:00","2020","03","25","12:00","4.8","","","M","","M","","M","14","","11","","","","97.60","","","","","","NA"
"-79.16","44.10","UXBRIDGE WEST","6159123","2020-03-25 13:00","2020","03","25","13:00","7.8","","","M","","M","","M","15","","9","","","","97.57","","","","","","NA"
"-79.16","44.10","UXBRIDGE WEST","6159123","2020-03-25 14:00","2020","03","25","14:00","9.2","","","M","","M","","M","17","","10","","","","97.51","","","","","","NA"
"-79.16","44.10","UXBRIDGE WEST","6159123","2020-03-25 15:00","2020","03","25","15:00","7.4","","","M","","M","","M","18","","12","","","","97.51","","","","","","NA"
"-79.16","44.10","UXBRIDGE WEST","6159123","2020-03-25 16:00","2020","03","25","16:00","7.3","","","M","","M","","M","17","","10","","","","97.50","","","","","","NA"
"-79.16","44.10","UXBRIDGE WEST","6159123","2020-03-25 17:00","2020","03","25","17:00","7.3","","","M","","M","","M","18","","10","","","","97.51","","","","","","NA"
"-79.16","44.10","UXBRIDGE WEST","6159123","2020-03-25 18:00","2020","03","25","18:00","7.4","","","M","","M","","M","18","","9","","","","97.50","","","","","","NA"
"-79.16","44.10","UXBRIDGE WEST","6159123","2020-03-25 19:00","2020","03","25","19:00","3.9","","","M","","M","","M","16","","6","","","","97.51","","","","","","NA"
"-79.16","44.10","UXBRIDGE WEST","6159123","2020-03-25 20:00","2020","03","25","20:00","3.4","","","M","","M","","M","16","","13","","","","97.51","","","","","","NA"
"-79.16","44.10","UXBRIDGE WEST","6159123","2020-03-25 21:00","2020","03","25","21:00","2.5","","","M","","M","","M","15","","10","","","","97.50","","","","","","NA"
"-79.16","44.10","UXBRIDGE WEST","6159123","2020-03-25 22:00","2020","03","25","22:00","2.2","","","M","","M","","M","16","","10","","","","97.49","","","","","","NA"
"-79.16","44.10","UXBRIDGE WEST","6159123","2020-03-25 23:00","2020","03","25","23:00","2.4","","","M","","M","","M","18","","7","","","","97.47","","","","","","NA"
"-79.16","44.10","UXBRIDGE WEST","6159123","2020-03-26 00:00","2020","03","26","00:00","2.2","","","M","","M","","M","19","","7","","","","97.47","","","","","","NA"
"-79.16","44.10","UXBRIDGE WEST","6159123","2020-03-26 01:00","2020","03","26","01:00","1.8","","","M","","M","","M","16","","9","","","","97.37","","","","","","NA"
"-79.16","44.10","UXBRIDGE WEST","6159123","2020-03-26 02:00","2020","03","26","02:00","2.3","","","M","","M","","M","17","","9","","","","97.37","","","","","","NA"
"-79.16","44.10","UXBRIDGE WEST","6159123","2020-03-26 03:00","2020","03","26","03:00","2.6","","","M","","M","","M","17","","17","","","","97.31","","","","","","NA"
"-79.16","44.10","UXBRIDGE WEST","6159123","2020-03-26 04:00","2020","03","26","04:00","2.7","","","M","","M","","M","21","","11","","","","97.32","","","","","","NA"
"-79.16","44.10","UXBRIDGE WEST","6159123","2020-03-26 05:00","2020","03","26","05:00","3.5","","","M","","M","","M","23","","10","","","","97.28","","","","","","NA"
"-79.16","44.10","UXBRIDGE WEST","6159123","2020-03-26 06:00","2020","03","26","06:00","3.9","","","M","","M","","M","21","","10","","","","97.27","","","","","","NA"
"-79.16","44.10","UXBRIDGE WEST","6159123","2020-03-26 07:00","2020","03","26","07:00","3.7","","","M","","M","","M","20","","13","","","","97.27","","","","","","NA"
"-79.16","44.10","UXBRIDGE WEST","6159123","2020-03-26 08:00","2020","03","26","08:00","4.4","","","M","","M","","M","19","","11","","","","97.19","","","","","","NA"
"-79.16","44.10","UXBRIDGE WEST","6159123","2020-03-26 09:00","2020","03","26","09:00","6.6","","","M","","M","","M","18","","20","","","","97.09","","","","","","NA"
"-79.16","44.10","UXBRIDGE WEST","6159123","2020-03-26 10:00","2020","03","26","10:00","7.2","","","M","","M","","M","19","","23","","","","97.07","","","","","","NA"
"-79.16","44.10","UXBRIDGE WEST","6159123","2020-03-26 11:00","2020","03","26","11:00","8.8","","","M","","M","","M","20","","16","","","","97.02","","","","","","NA"
"-79.16","44.10","UXBRIDGE WEST","6159123","2020-03-26 12:00","2020","03","26","12:00","8.9","","","M","","M","","M","22","","11","","","","96.94","","","","","","NA"
"-79.16","44.10","UXBRIDGE WEST","6159123","2020-03-26 13:00","2020","03","26","13:00","10.0","","","M","","M","","M","23","","8","","","","96.91","","","","","","NA"
"-79.16","44.10","UXBRIDGE WEST","6159123","2020-03-26 14:00","2020","03","26","14:00","9.2","","","M","","M","","M","28","","16","","","","96.90","","","","","","NA"
"-79.16","44.10","UXBRIDGE WEST","6159123","2020-03-26 15:00","2020","03","26","15:00","5.4","","","M","","M","","M","33","","18","","","","97.00","","","","","","NA"
"-79.16","44.10","UXBRIDGE WEST","6159123","2020-03-26 16:00","2020","03","26","16:00","5.2","","","M","","M","","M","30","","14","","","","97.00","","","","","","NA"
"-79.16","44.10","UXBRIDGE WEST","6159123","2020-03-26 17:00","2020","03","26","17:00","4.8","","","M","","M","","M","32","","17","","","","97.01","","","","","","NA"
"-79.16","44.10","UXBRIDGE WEST","6159123","2020-03-26 18:00","2020","03","26","18:00","4.0","","","M","","M","","M","31","","15","","","","97.06","","","","","","NA"
"-79.16","44.10","UXBRIDGE WEST","6159123","2020-03-26 19:00","2020","03","26","19:00","3.2","","","M","","M","","M","30","","10","","","","97.19","","","","","","NA"
"-79.16","44.10","UXBRIDGE WEST","6159123","2020-03-26 20:00","2020","03","26","20:00","2.7","","","M","","M","","M","32","","10","","","","97.21","","","","","","NA"
"-79.16","44.10","UXBRIDGE WEST","6159123","2020-03-26 21:00","2020","03","26","21:00","2.5","","","M","","M","","M","34","","14","","","","97.23","","","","","","NA"
"-79.16","44.10","UXBRIDGE WEST","6159123","2020-03-26 22:00","2020","03","26","22:00","2.2","","","M","","M","","M","35","","14","","","","97.29","","","","","","NA"
"-79.16","44.10","UXBRIDGE WEST","6159123","2020-03-26 23:00","2020","03","26","23:00","2.2","","","M","","M","","M","36","","9","","","","97.32","","","","","","NA"
"-79.16","44.10","UXBRIDGE WEST","6159123","2020-03-27 00:00","2020","03","27","00:00","2.0","","","M","","M","","M","36","","9","","","","97.34","","","","","","NA"
"-79.16","44.10","UXBRIDGE WEST","6159123","2020-03-27 01:00","2020","03","27","01:00","1.7","","","M","","M","","M","36","","13","","","","97.36","","","","","","NA"
"-79.16","44.10","UXBRIDGE WEST","6159123","2020-03-27 02:00","2020","03","27","02:00","1.4","","","M","","M","","M","34","","12","","","","97.37","","","","","","NA"
"-79.16","44.10","UXBRIDGE WEST","6159123","2020-03-27 03:00","2020","03","27","03:00","1.0","","","M","","M","","M","34","","9","","","","97.41","","","","","","NA"
"-79.16","44.10","UXBRIDGE WEST","6159123","2020-03-27 04:00","2020","03","27","04:00","0.7","","","M","","M","","M","36","","12","","","","97.43","","","","","","NA"
"-79.16","44.10","UXBRIDGE WEST","6159123","2020-03-27 05:00","2020","03","27","05:00","0.4","","","M","","M","","M","35","","12","","","","97.47","","","","","","NA"
"-79.16","44.10","UXBRIDGE WEST","6159123","2020-03-27 06:00","2020","03","27","06:00","-0.1","","","M","","M","","M","1","","9","","","","97.49","","","","-3","","NA"
"-79.16","44.10","UXBRIDGE WEST","6159123","2020-03-27 07:00","2020","03","27","07:00","-0.4","","","M","","M","","M","32","","9","","","","97.61","","","","-4","","NA"
"-79.16","44.10","UXBRIDGE WEST","6159123","2020-03-27 08:00","2020","03","27","08:00","-0.4","","","M","","M","","M","35","","10","","","","97.73","","","","-4","","NA"
"-79.16","44.10","UXBRIDGE WEST","6159123","2020-03-27 09:00","2020","03","27","09:00","0.2","","","M","","M","","M","33","","8","","","","97.76","","","","","","NA"
"-79.16","44.10","UXBRIDGE WEST","6159123","2020-03-27 10:00","2020","03","27","10:00","1.2","","","M","","M","","M","31","","11","","","","97.80","","","","","","NA"
"-79.16","44.10","UXBRIDGE WEST","6159123","2020-03-27 11:00","2020","03","27","11:00","2.7","","","M","","M","","M","36","","9","","","","97.78","","","","","","NA"
"-79.16","44.10","UXBRIDGE WEST","6159123","2020-03-27 12:00","2020","03","27","12:00","4.7","","","M","","M","","M","36","","9","","","","97.74","","","","","","NA"
"-79.16","44.10","UXBRIDGE WEST","6159123","2020-03-27 13:00","2020","03","27","13:00","6.9","","","M","","M","","M","8","","5","","","","97.77","","","","","","NA"
"-79.16","44.10","UXBRIDGE WEST","6159123","2020-03-27 14:00","2020","03","27","14:00","8.0","","","M","","M","","M","3","","5","","","","97.70","","","","","","NA"
"-79.16","44.10","UXBRIDGE WEST","6159123","2020-03-27 15:00","2020","03","27","15:00","9.5","","","M","","M","","M","34","","6","","","","97.69","","","","","","NA"
"-79.16","44.10","UXBRIDGE WEST","6159123","2020-03-27 16:00","2020","03","27","16:00","9.5","","","M","","M","","M","35","","10","","","","97.69","","","","","","NA"
"-79.16","44.10","UXBRIDGE WEST","6159123","2020-03-27 17:00","2020","03","27","17:00","9.0","","","M","","M","","M","35","","10","","","","97.74","","","","","","NA"
"-79.16","44.10","UXBRIDGE WEST","6159123","2020-03-27 18:00","2020","03","27","18:00","8.3","","","M","","M","","M","32","","6","","","","97.79","","","","","","NA"
"-79.16","44.10","UXBRIDGE WEST","6159123","2020-03-27 19:00","2020","03","27","19:00","5.1","","","M","","M","","M","24","","2","","","","97.86","","","","","","NA"
"-79.16","44.10","UXBRIDGE WEST","6159123","2020-03-27 20:00","2020","03","27","20:00","3.2","","","M","","M","","M","17","","4","","","","97.88","","","","","","NA"
"-79.16","44.10","UXBRIDGE WEST","6159123","2020-03-27 21:00","2020","03","27","21:00","1.5","","","M","","M","","M","17","","5","","","","97.89","","","","","","NA"
"-79.16","44.10","UXBRIDGE WEST","6159123","2020-03-27 22:00","2020","03","27","22:00","0.6","","","M","","M","","M","16","","4","","","","97.89","","","","","","NA"
"-79.16","44.10","UXBRIDGE WEST","6159123","2020-03-27 23:00","2020","03","27","23:00","1.1","","","M","","M","","M","15","","8","","","","97.89","","","","","","NA"
"-79.16","44.10","UXBRIDGE WEST","6159123","2020-03-28 00:00","2020","03","28","00:00","1.3","","","M","","M","","M","15","","8","","","","97.84","","","","","","NA"
"-79.16","44.10","UXBRIDGE WEST","6159123","2020-03-28 01:00","2020","03","28","01:00","1.2","","","M","","M","","M","15","","8","","","","97.82","","","","","","NA"
"-79.16","44.10","UXBRIDGE WEST","6159123","2020-03-28 02:00","2020","03","28","02:00","1.3","","","M","","M","","M","13","","8","","","","97.76","","","","","","NA"
"-79.16","44.10","UXBRIDGE WEST","6159123","2020-03-28 03:00","2020","03","28","03:00","2.9","","","M","","M","","M","14","","10","","","","97.69","","","","","","NA"
"-79.16","44.10","UXBRIDGE WEST","6159123","2020-03-28 04:00","2020","03","28","04:00","3.4","","","M","","M","","M","12","","12","","","","97.61","","","","","","NA"
"-79.16","44.10","UXBRIDGE WEST","6159123","2020-03-28 05:00","2020","03","28","05:00","3.5","","","M","","M","","M","12","","12","","","","97.63","","","","","","NA"
"-79.16","44.10","UXBRIDGE WEST","6159123","2020-03-28 06:00","2020","03","28","06:00","3.3","","","M","","M","","M","12","","10","","","","97.61","","","","","","NA"
"-79.16","44.10","UXBRIDGE WEST","6159123","2020-03-28 07:00","2020","03","28","07:00","3.9","","","M","","M","","M","11","","10","","","","97.64","","","","","","NA"
"-79.16","44.10","UXBRIDGE WEST","6159123","2020-03-28 08:00","2020","03","28","08:00","5.3","","","M","","M","","M","11","","11","","","","97.66","","","","","","NA"
"-79.16","44.10","UXBRIDGE WEST","6159123","2020-03-28 09:00","2020","03","28","09:00","4.3","","","M","","M","","M","8","","13","","","","97.61","","","","","","NA"
"-79.16","44.10","UXBRIDGE WEST","6159123","2020-03-28 10:00","2020","03","28","10:00","5.8","","","M","","M","","M","11","","12","","","","97.58","","","","","","NA"
"-79.16","44.10","UXBRIDGE WEST","6159123","2020-03-28 11:00","2020","03","28","11:00","6.8","","","M","","M","","M","13","","19","","","","97.52","","","","","","NA"
"-79.16","44.10","UXBRIDGE WEST","6159123","2020-03-28 12:00","2020","03","28","12:00","6.5","","","M","","M","","M","12","","12","","","","97.52","","","","","","NA"
"-79.16","44.10","UXBRIDGE WEST","6159123","2020-03-28 13:00","2020","03","28","13:00","6.6","","","M","","M","","M","12","","11","","","","97.46","","","","","","NA"
"-79.16","44.10","UXBRIDGE WEST","6159123","2020-03-28 14:00","2020","03","28","14:00","7.3","","","M","","M","","M","10","","10","","","","97.42","","","","","","NA"
"-79.16","44.10","UXBRIDGE WEST","6159123","2020-03-28 15:00","2020","03","28","15:00","8.9","","","M","","M","","M","8","","13","","","","97.34","","","","","","NA"
"-79.16","44.10","UXBRIDGE WEST","6159123","2020-03-28 16:00","2020","03","28","16:00","7.5","","","M","","M","","M","7","","15","","","","97.40","","","","","","NA"
"-79.16","44.10","UXBRIDGE WEST","6159123","2020-03-28 17:00","2020","03","28","17:00","6.4","","","M","","M","","M","8","","23","","","","97.37","","","","","","NA"
"-79.16","44.10","UXBRIDGE WEST","6159123","2020-03-28 18:00","2020","03","28","18:00","6.1","","","M","","M","","M","9","","14","","","","97.54","","","","","","NA"
"-79.16","44.10","UXBRIDGE WEST","6159123","2020-03-28 19:00","2020","03","28","19:00","5.4","","","M","","M","","M","9","","20","","","","97.58","","","","","","NA"
"-79.16","44.10","UXBRIDGE WEST","6159123","2020-03-28 20:00","2020","03","28","20:00","5.1","","","M","","M","","M","9","","16","","","","97.54","","","","","","NA"
"-79.16","44.10","UXBRIDGE WEST","6159123","2020-03-28 21:00","2020","03","28","21:00","4.7","","","M","","M","","M","10","","12","","","","97.55","","","","","","NA"
"-79.16","44.10","UXBRIDGE WEST","6159123","2020-03-28 22:00","2020","03","28","22:00","4.3","","","M","","M","","M","9","","17","","","","97.47","","","","","","NA"
"-79.16","44.10","UXBRIDGE WEST","6159123","2020-03-28 23:00","2020","03","28","23:00","4.4","","","M","","M","","M","10","","15","","","","97.44","","","","","","NA"
"-79.16","44.10","UXBRIDGE WEST","6159123","2020-03-29 00:00","2020","03","29","00:00","4.7","","","M","","M","","M","11","","12","","","","97.38","","","","","","NA"
"-79.16","44.10","UXBRIDGE WEST","6159123","2020-03-29 01:00","2020","03","29","01:00","5.0","","","M","","M","","M","12","","17","","","","97.27","","","","","","NA"
"-79.16","44.10","UXBRIDGE WEST","6159123","2020-03-29 02:00","2020","03","29","02:00","5.0","","","M","","M","","M","12","","17","","","","97.18","","","","","","NA"
"-79.16","44.10","UXBRIDGE WEST","6159123","2020-03-29 03:00","2020","03","29","03:00","4.9","","","M","","M","","M","12","","14","","","","97.19","","","","","","NA"
"-79.16","44.10","UXBRIDGE WEST","6159123","2020-03-29 04:00","2020","03","29","04:00","4.8","","","M","","M","","M","11","","16","","","","96.99","","","","","","NA"
"-79.16","44.10","UXBRIDGE WEST","6159123","2020-03-29 05:00","2020","03","29","05:00","4.8","","","M","","M","","M","12","","17","","","","96.94","","","","","","NA"
"-79.16","44.10","UXBRIDGE WEST","6159123","2020-03-29 06:00","2020","03","29","06:00","4.7","","","M","","M","","M","11","","16","","","","96.79","","","","","","NA"
"-79.16","44.10","UXBRIDGE WEST","6159123","2020-03-29 07:00","2020","03","29","07:00","4.9","","","M","","M","","M","12","","18","","","","96.71","","","","","","NA"
"-79.16","44.10","UXBRIDGE WEST","6159123","2020-03-29 08:00","2020","03","29","08:00","5.2","","","M","","M","","M","11","","17","","","","96.56","","","","","","NA"
"-79.16","44.10","UXBRIDGE WEST","6159123","2020-03-29 09:00","2020","03","29","09:00","5.6","","","M","","M","","M","12","","18","","","","96.43","","","","","","NA"
"-79.16","44.10","UXBRIDGE WEST","6159123","2020-03-29 10:00","2020","03","29","10:00","6.8","","","M","","M","","M","13","","19","","","","96.28","","","","","","NA"
"-79.16","44.10","UXBRIDGE WEST","6159123","2020-03-29 11:00","2020","03","29","11:00","8.3","","","M","","M","","M","15","","19","","","","96.23","","","","","","NA"
"-79.16","44.10","UXBRIDGE WEST","6159123","2020-03-29 12:00","2020","03","29","12:00","9.2","","","M","","M","","M","16","","17","","","","96.18","","","","","","NA"
"-79.16","44.10","UXBRIDGE WEST","6159123","2020-03-29 13:00","2020","03","29","13:00","11.0","","","M","","M","","M","17","","16","","","","96.14","","","","","","NA"
"-79.16","44.10","UXBRIDGE WEST","6159123","2020-03-29 14:00","2020","03","29","14:00","13.1","","","M","","M","","M","23","","12","","","","96.15","","","","","","NA"
"-79.16","44.10","UXBRIDGE WEST","6159123","2020-03-29 15:00","2020","03","29","15:00","13.7","","","M","","M","","M","27","","10","","","","96.22","","","","","","NA"
"-79.16","44.10","UXBRIDGE WEST","6159123","2020-03-29 16:00","2020","03","29","16:00","14.0","","","M","","M","","M","25","","12","","","","96.29","","","","","","NA"
"-79.16","44.10","UXBRIDGE WEST","6159123","2020-03-29 17:00","2020","03","29","17:00","14.0","","","M","","M","","M","24","","16","","","","96.39","","","","","","NA"
"-79.16","44.10","UXBRIDGE WEST","6159123","2020-03-29 18:00","2020","03","29","18:00","12.1","","","M","","M","","M","26","","21","","","","96.53","","","","","","NA"
"-79.16","44.10","UXBRIDGE WEST","6159123","2020-03-29 19:00","2020","03","29","19:00","10.1","","","M","","M","","M","25","","14","","","","96.64","","","","","","NA"
"-79.16","44.10","UXBRIDGE WEST","6159123","2020-03-29 20:00","2020","03","29","20:00","9.1","","","M","","M","","M","25","","13","","","","96.74","","","","","","NA"
"-79.16","44.10","UXBRIDGE WEST","6159123","2020-03-29 21:00","2020","03","29","21:00","8.8","","","M","","M","","M","26","","15","","","","96.82","","","","","","NA"
"-79.16","44.10","UXBRIDGE WEST","6159123","2020-03-29 22:00","2020","03","29","22:00","8.4","","","M","","M","","M","23","","18","","","","96.83","","","","","","NA"
"-79.16","44.10","UXBRIDGE WEST","6159123","2020-03-29 23:00","2020","03","29","23:00","7.2","","","M","","M","","M","26","","11","","","","96.86","","","","","","NA"
"-79.16","44.10","UXBRIDGE WEST","6159123","2020-03-30 00:00","2020","03","30","00:00","6.6","","","M","","M","","M","22","","6","","","","96.81","","","","","","NA"
"-79.16","44.10","UXBRIDGE WEST","6159123","2020-03-30 01:00","2020","03","30","01:00","6.7","","","M","","M","","M","24","","14","","","","96.80","","","","","","NA"
"-79.16","44.10","UXBRIDGE WEST","6159123","2020-03-30 02:00","2020","03","30","02:00","6.4","","","M","","M","","M","23","","12","","","","96.76","","","","","","NA"
"-79.16","44.10","UXBRIDGE WEST","6159123","2020-03-30 03:00","2020","03","30","03:00","6.2","","","M","","M","","M","26","","18","","","","96.74","","","","","","NA"
"-79.16","44.10","UXBRIDGE WEST","6159123","2020-03-30 04:00","2020","03","30","04:00","5.9","","","M","","M","","M","25","","11","","","","96.74","","","","","","NA"
"-79.16","44.10","UXBRIDGE WEST","6159123","2020-03-30 05:00","2020","03","30","05:00","5.7","","","M","","M","","M","25","","10","","","","96.78","","","","","","NA"
"-79.16","44.10","UXBRIDGE WEST","6159123","2020-03-30 06:00","2020","03","30","06:00","4.9","","","M","","M","","M","26","","10","","","","96.84","","","","","","NA"
"-79.16","44.10","UXBRIDGE WEST","6159123","2020-03-30 07:00","2020","03","30","07:00","4.2","","","M","","M","","M","26","","10","","","","96.92","","","","","","NA"
"-79.16","44.10","UXBRIDGE WEST","6159123","2020-03-30 08:00","2020","03","30","08:00","4.0","","","M","","M","","M","23","","8","","","","96.96","","","","","","NA"
"-79.16","44.10","UXBRIDGE WEST","6159123","2020-03-30 09:00","2020","03","30","09:00","4.3","","","M","","M","","M","26","","12","","","","97.00","","","","","","NA"
"-79.16","44.10","UXBRIDGE WEST","6159123","2020-03-30 10:00","2020","03","30","10:00","4.9","","","M","","M","","M","25","","13","","","","97.01","","","","","","NA"
"-79.16","44.10","UXBRIDGE WEST","6159123","2020-03-30 11:00","2020","03","30","11:00","5.3","","","M","","M","","M","25","","11","","","","97.06","","","","","","NA"
"-79.16","44.10","UXBRIDGE WEST","6159123","2020-03-30 12:00","2020","03","30","12:00","5.1","","","M","","M","","M","25","","10","","","","97.09","","","","","","NA"
"-79.16","44.10","UXBRIDGE WEST","6159123","2020-03-30 13:00","2020","03","30","13:00","5.6","","","M","","M","","M","24","","10","","","","97.14","","","","","","NA"
"-79.16","44.10","UXBRIDGE WEST","6159123","2020-03-30 14:00","2020","03","30","14:00","5.2","","","M","","M","","M","28","","16","","","","97.17","","","","","","NA"
"-79.16","44.10","UXBRIDGE WEST","6159123","2020-03-30 15:00","2020","03","30","15:00","3.6","","","M","","M","","M","32","","17","","","","97.26","","","","","","NA"
"-79.16","44.10","UXBRIDGE WEST","6159123","2020-03-30 16:00","2020","03","30","16:00","3.0","","","M","","M","","M","30","","14","","","","97.33","","","","","","NA"
"-79.16","44.10","UXBRIDGE WEST","6159123","2020-03-30 17:00","2020","03","30","17:00","2.9","","","M","","M","","M","30","","13","","","","97.38","","","","","","NA"
"-79.16","44.10","UXBRIDGE WEST","6159123","2020-03-30 18:00","2020","03","30","18:00","2.7","","","M","","M","","M","29","","15","","","","97.45","","","","","","NA"
"-79.16","44.10","UXBRIDGE WEST","6159123","2020-03-30 19:00","2020","03","30","19:00","2.4","","","M","","M","","M","32","","15","","","","97.51","","","","","","NA"
"-79.16","44.10","UXBRIDGE WEST","6159123","2020-03-30 20:00","2020","03","30","20:00","2.3","","","M","","M","","M","32","","13","","","","97.57","","","","","","NA"
"-79.16","44.10","UXBRIDGE WEST","6159123","2020-03-30 21:00","2020","03","30","21:00","2.4","","","M","","M","","M","31","","12","","","","97.60","","","","","","NA"
"-79.16","44.10","UXBRIDGE WEST","6159123","2020-03-30 22:00","2020","03","30","22:00","2.5","","","M","","M","","M","31","","8","","","","97.60","","","","","","NA"
"-79.16","44.10","UXBRIDGE WEST","6159123","2020-03-30 23:00","2020","03","30","23:00","2.8","","","M","","M","","M","32","","8","","","","97.58","","","","","","NA"
"-79.16","44.10","UXBRIDGE WEST","6159123","2020-03-31 00:00","2020","03","31","00:00","3.0","","","M","","M","","M","32","","8","","","","97.58","","","","","","NA"
"-79.16","44.10","UXBRIDGE WEST","6159123","2020-03-31 01:00","2020","03","31","01:00","3.1","","","M","","M","","M","31","","5","","","","97.62","","","","","","NA"
"-79.16","44.10","UXBRIDGE WEST","6159123","2020-03-31 02:00","2020","03","31","02:00","3.2","","","M","","M","","M","31","","6","","","","97.64","","","","","","NA"
"-79.16","44.10","UXBRIDGE WEST","6159123","2020-03-31 03:00","2020","03","31","03:00","3.4","","","M","","M","","M","32","","7","","","","97.66","","","","","","NA"
"-79.16","44.10","UXBRIDGE WEST","6159123","2020-03-31 04:00","2020","03","31","04:00","3.5","","","M","","M","","M","33","","6","","","","97.66","","","","","","NA"
"-79.16","44.10","UXBRIDGE WEST","6159123","2020-03-31 05:00","2020","03","31","05:00","3.4","","","M","","M","","M","36","","7","","","","97.68","","","","","","NA"
"-79.16","44.10","UXBRIDGE WEST","6159123","2020-03-31 06:00","2020","03","31","06:00","3.6","","","M","","M","","M","2","","6","","","","97.76","","","","","","NA"
"-79.16","44.10","UXBRIDGE WEST","6159123","2020-03-31 07:00","2020","03","31","07:00","4.0","","","M","","M","","M","5","","9","","","","97.82","","","","","","NA"
"-79.16","44.10","UXBRIDGE WEST","6159123","2020-03-31 08:00","2020","03","31","08:00","3.5","","","M","","M","","M","7","","11","","","","97.81","","","","","","NA"
"-79.16","44.10","UXBRIDGE WEST","6159123","2020-03-31 09:00","2020","03","31","09:00","3.3","","","M","","M","","M","8","","14","","","","97.83","","","","","","NA"
"-79.16","44.10","UXBRIDGE WEST","6159123","2020-03-31 10:00","2020","03","31","10:00","3.3","","","M","","M","","M","8","","16","","","","97.80","","","","","","NA"
"-79.16","44.10","UXBRIDGE WEST","6159123","2020-03-31 11:00","2020","03","31","11:00","3.3","","","M","","M","","M","8","","15","","","","97.82","","","","","","NA"
"-79.16","44.10","UXBRIDGE WEST","6159123","2020-03-31 12:00","2020","03","31","12:00","3.8","","","M","","M","","M","9","","13","","","","97.79","","","","","","NA"
"-79.16","44.10","UXBRIDGE WEST","6159123","2020-03-31 13:00","2020","03","31","13:00","4.1","","","M","","M","","M","11","","10","","","","97.79","","","","","","NA"
"-79.16","44.10","UXBRIDGE WEST","6159123","2020-03-31 14:00","2020","03","31","14:00","4.2","","","M","","M","","M","10","","12","","","","97.76","","","","","","NA"
"-79.16","44.10","UXBRIDGE WEST","6159123","2020-03-31 15:00","2020","03","31","15:00","4.8","","","M","","M","","M","10","","7","","","","97.76","","","","","","NA"
"-79.16","44.10","UXBRIDGE WEST","6159123","2020-03-31 16:00","2020","03","31","16:00","4.3","","","M","","M","","M","8","","12","","","","97.71","","","","","","NA"
"-79.16","44.10","UXBRIDGE WEST","6159123","2020-03-31 17:00","2020","03","31","17:00","4.2","","","M","","M","","M","6","","14","","","","97.69","","","","","","NA"
"-79.16","44.10","UXBRIDGE WEST","6159123","2020-03-31 18:00","2020","03","31","18:00","4.1","","","M","","M","","M","6","","12","","","","97.72","","","","","","NA"
"-79.16","44.10","UXBRIDGE WEST","6159123","2020-03-31 19:00","2020","03","31","19:00","3.6","","","M","","M","","M","6","","16","","","","97.74","","","","","","NA"
"-79.16","44.10","UXBRIDGE WEST","6159123","2020-03-31 20:00","2020","03","31","20:00","3.5","","","M","","M","","M","6","","7","","","","97.80","","","","","","NA"
"-79.16","44.10","UXBRIDGE WEST","6159123","2020-03-31 21:00","2020","03","31","21:00","2.7","","","M","","M","","M","4","","6","","","","97.78","","","","","","NA"
"-79.16","44.10","UXBRIDGE WEST","6159123","2020-03-31 22:00","2020","03","31","22:00","2.4","","","M","","M","","M","5","","8","","","","97.76","","","","","","NA"
"-79.16","44.10","UXBRIDGE WEST","6159123","2020-03-31 23:00","2020","03","31","23:00","2.1","","","M","","M","","M","36","","4","","","","97.73","","","","","","NA"
