"Longitude (x)","Latitude (y)","Station Name","Climate ID","Date/Time (LST)","Year","Month","Day","Time (LST)","Temp (°C)","Temp Flag","Dew Point Temp (°C)","Dew Point Temp Flag","Rel Hum (%)","Rel Hum Flag","Precip. Amount (mm)","Precip. Amount Flag","Wind Dir (10s deg)","Wind Dir Flag","Wind Spd (km/h)","Wind Spd Flag","Visibility (km)","Visibility Flag","Stn Press (kPa)","Stn Press Flag","Hmdx","Hmdx Flag","Wind Chill","Wind Chill Flag","Weather"
"-105.14","69.11","CAMBRIDGE BAY A","2400601","2022-01-01 00:00","2022","01","01","00:00","-24.8","","-28.2","","74","","","","1","","22","","9.7","","101.11","","","","-37","","Snow,Blowing Snow"
"-105.14","69.11","CAMBRIDGE BAY A","2400601","2022-01-01 01:00","2022","01","01","01:00","-24.7","","-28.0","","75","","","","1","","15","","9.7","","101.11","","","","-35","","Snow,Blowing Snow"
"-105.14","69.11","CAMBRIDGE BAY A","2400601","2022-01-01 02:00","2022","01","01","02:00","-24.6","","-27.9","","75","","","","35","","13","","16.1","","101.12","","","","-34","","Snow,Blowing Snow"
"-105.14","69.11","CAMBRIDGE BAY A","2400601","2022-01-01 03:00","2022","01","01","03:00","-24.3","","-27.7","","74","","","","35","","14","","16.1","","101.12","","","","-34","","NA"
"-105.14","69.11","CAMBRIDGE BAY A","2400601","2022-01-01 04:00","2022","01","01","04:00","-24.1","","-27.5","","74","","","","1","","16","","16.1","","101.10","","","","-34","","Snow,Blowing Snow"
"-105.14","69.11","CAMBRIDGE BAY A","2400601","2022-01-01 05:00","2022","01","01","05:00","-24.0","","-27.6","","73","","","","2","","17","","16.1","","101.09","","","","-35","","Snow,Blowing Snow"
"-105.14","69.11","CAMBRIDGE BAY A","2400601","2022-01-01 06:00","2022","01","01","06:00","-24.1","","-27.5","","74","","","","1","","16","","12.9","","101.09","","","","-34","","Snow,Blowing Snow"
"-105.14","69.11","CAMBRIDGE BAY A","2400601","2022-01-01 07:00","2022","01","01","07:00","-24.3","","-27.6","","74","","","","1","","18","","9.7","","101.07","","","","-35","","Snow,Blowing Snow"
"-105.14","69.11","CAMBRIDGE BAY A","2400601","2022-01-01 08:00","2022","01","01","08:00","-24.8","","-28.2","","73","","","","1","","14","","9.7","","101.10","","","","-35","","Snow,Blowing Snow"
"-105.14","69.11","CAMBRIDGE BAY A","2400601","2022-01-01 09:00","2022","01","01","09:00","-24.8","","-28.2","","74","","","","36","","13","","16.1","","101.07","","","","-34","","Snow"
"-105.14","69.11","CAMBRIDGE BAY A","2400601","2022-01-01 10:00","2022","01","01","10:00","-24.7","","-28.0","","75","","","","1","","12","","16.1","","101.09","","","","-34","","Snow"
"-105.14","69.11","CAMBRIDGE BAY A","2400601","2022-01-01 11:00","2022","01","01","11:00","-24.5","","-27.8","","75","","","","36","","9","","16.1","","101.10","","","","-32","","Snow"
"-105.14","69.11","CAMBRIDGE BAY A","2400601","2022-01-01 12:00","2022","01","01","12:00","-24.7","","-28.0","","74","","","","35","","12","","16.1","","101.11","","","","-34","","Snow"
"-105.14","69.11","CAMBRIDGE BAY A","2400601","2022-01-01 13:00","2022","01","01","13:00","-25.0","","-28.3","","74","","","","35","","9","","19.3","","101.14","","","","-33","","Snow"
"-105.14","69.11","CAMBRIDGE BAY A","2400601","2022-01-01 14:00","2022","01","01","14:00","-25.4","","-28.8","","74","","","","34","","8","","24.1","","101.17","","","","-33","","Snow"
"-105.14","69.11","CAMBRIDGE BAY A","2400601","2022-01-01 15:00","2022","01","01","15:00","-25.7","","-29.1","","74","","","","33","","13","","24.1","","101.21","","","","-35","","Snow"
"-105.14","69.11","CAMBRIDGE BAY A","2400601","2022-01-01 16:00","2022","01","01","16:00","-25.8","","-29.0","","75","","","","33","","13","","24.1","","101.23","","","","-35","","Snow"
"-105.14","69.11","CAMBRIDGE BAY A","2400601","2022-01-01 17:00","2022","01","01","17:00","-26.0","","-29.3","","74","","","","34","","12","","24.1","","101.25","","","","-35","","Ice Crystals"
"-105.14","69.11","CAMBRIDGE BAY A","2400601","2022-01-01 18:00","2022","01","01","18:00","-27.8","","-31.0","","75","","","","31","","13","","24.1","","101.30","","","","-38","","Ice Crystals"
"-105.14","69.11","CAMBRIDGE BAY A","2400601","2022-01-01 19:00","2022","01","01","19:00","-28.8","","-32.0","","74","","","","31","","16","","24.1","","101.32","","","","-40","","Ice Crystals"
"-105.14","69.11","CAMBRIDGE BAY A","2400601","2022-01-01 20:00","2022","01","01","20:00","-29.6","","-32.8","","74","","","","32","","20","","19.3","","101.35","","","","-43","","Ice Crystals,Blowing Snow"
"-105.14","69.11","CAMBRIDGE BAY A","2400601","2022-01-01 21:00","2022","01","01","21:00","-28.9","","-32.2","","74","","","","31","","17","","19.3","","101.38","","","","-41","","Snow,Blowing Snow"
"-105.14","69.11","CAMBRIDGE BAY A","2400601","2022-01-01 22:00","2022","01","01","22:00","-26.6","","-29.9","","74","","","","32","","14","","24.1","","101.42","","","","-37","","Snow,Blowing Snow"
"-105.14","69.11","CAMBRIDGE BAY A","2400601","2022-01-01 23:00","2022","01","01","23:00","-25.8","","-29.1","","74","","","","32","","15","","24.1","","101.45","","","","-36","","Mostly Cloudy"
"-105.14","69.11","CAMBRIDGE BAY A","2400601","2022-01-02 00:00","2022","01","02","00:00","-25.1","","-28.5","","74","","","","34","","14","","24.1","","101.49","","","","-35","","NA"
"-105.14","69.11","CAMBRIDGE BAY A","2400601","2022-01-02 01:00","2022","01","02","01:00","-25.1","","-28.6","","74","","","","36","","14","","24.1","","101.52","","","","-35","","Snow"
"-105.14","69.11","CAMBRIDGE BAY A","2400601","2022-01-02 02:00","2022","01","02","02:00","-26.1","","-29.5","","74","","","","35","","11","","24.1","","101.57","","","","-35","","Snow"
"-105.14","69.11","CAMBRIDGE BAY A","2400601","2022-01-02 03:00","2022","01","02","03:00","-27.1","","-30.6","","73","","","","34","","13","","24.1","","101.61","","","","-37","","Snow"
"-105.14","69.11","CAMBRIDGE BAY A","2400601","2022-01-02 04:00","2022","01","02","04:00","-27.3","","-30.9","","72","","","","33","","13","","24.1","","101.66","","","","-37","","Snow"
"-105.14","69.11","CAMBRIDGE BAY A","2400601","2022-01-02 05:00","2022","01","02","05:00","-27.5","","-30.9","","73","","","","33","","21","","24.1","","101.70","","","","-40","","Snow"
"-105.14","69.11","CAMBRIDGE BAY A","2400601","2022-01-02 06:00","2022","01","02","06:00","-27.6","","-31.0","","74","","","","34","","14","","24.1","","101.74","","","","-38","","NA"
"-105.14","69.11","CAMBRIDGE BAY A","2400601","2022-01-02 07:00","2022","01","02","07:00","-28.3","","-31.8","","73","","","","32","","17","","24.1","","101.77","","","","-40","","NA"
"-105.14","69.11","CAMBRIDGE BAY A","2400601","2022-01-02 08:00","2022","01","02","08:00","-28.5","","-32.0","","73","","","","32","","18","","24.1","","101.82","","","","-41","","Mainly Clear"
"-105.14","69.11","CAMBRIDGE BAY A","2400601","2022-01-02 09:00","2022","01","02","09:00","-28.1","","-31.7","","72","","","","36","","16","","24.1","","101.83","","","","-39","","Snow"
"-105.14","69.11","CAMBRIDGE BAY A","2400601","2022-01-02 10:00","2022","01","02","10:00","-28.6","","-32.3","","71","","","","34","","17","","19.3","","101.88","","","","-40","","Snow,Blowing Snow"
"-105.14","69.11","CAMBRIDGE BAY A","2400601","2022-01-02 11:00","2022","01","02","11:00","-28.5","","-32.1","","72","","","","36","","21","","24.1","","101.90","","","","-41","","Snow,Blowing Snow"
"-105.14","69.11","CAMBRIDGE BAY A","2400601","2022-01-02 12:00","2022","01","02","12:00","-27.4","","-31.0","","72","","","","36","","22","","22.5","","101.93","","","","-40","","Snow,Blowing Snow"
"-105.14","69.11","CAMBRIDGE BAY A","2400601","2022-01-02 13:00","2022","01","02","13:00","-27.0","","-30.5","","73","","","","36","","21","","19.3","","102.00","","","","-40","","Snow,Blowing Snow"
"-105.14","69.11","CAMBRIDGE BAY A","2400601","2022-01-02 14:00","2022","01","02","14:00","-27.5","","-31.0","","73","","","","1","","20","","16.1","","102.05","","","","-40","","Snow,Blowing Snow"
"-105.14","69.11","CAMBRIDGE BAY A","2400601","2022-01-02 15:00","2022","01","02","15:00","-28.5","","-32.0","","73","","","","1","","25","","4.8","","102.10","","","","-43","","Snow,Blowing Snow"
"-105.14","69.11","CAMBRIDGE BAY A","2400601","2022-01-02 16:00","2022","01","02","16:00","-29.5","","-33.0","","72","","","","2","","27","","19.3","","102.15","","","","-44","","Snow,Blowing Snow"
"-105.14","69.11","CAMBRIDGE BAY A","2400601","2022-01-02 17:00","2022","01","02","17:00","-30.1","","-33.6","","72","","","","35","","15","","19.3","","102.19","","","","-42","","Snow,Blowing Snow"
"-105.14","69.11","CAMBRIDGE BAY A","2400601","2022-01-02 18:00","2022","01","02","18:00","-30.3","","-33.8","","73","","","","35","","13","","19.3","","102.21","","","","-41","","Ice Crystals"
"-105.14","69.11","CAMBRIDGE BAY A","2400601","2022-01-02 19:00","2022","01","02","19:00","-30.6","","-34.1","","72","","","","32","","16","","16.1","","102.25","","","","-43","","Ice Crystals"
"-105.14","69.11","CAMBRIDGE BAY A","2400601","2022-01-02 20:00","2022","01","02","20:00","-31.0","","-34.6","","71","","","","30","","14","","19.3","","102.28","","","","-42","","Ice Crystals"
"-105.14","69.11","CAMBRIDGE BAY A","2400601","2022-01-02 21:00","2022","01","02","21:00","-30.4","","-33.9","","72","","","","35","","18","","9.7","","102.29","","","","-43","","Ice Crystals,Blowing Snow"
"-105.14","69.11","CAMBRIDGE BAY A","2400601","2022-01-02 22:00","2022","01","02","22:00","-31.4","","-35.0","","71","","","","31","","17","","6.4","","102.32","","","","-44","","Ice Crystals,Blowing Snow"
"-105.14","69.11","CAMBRIDGE BAY A","2400601","2022-01-02 23:00","2022","01","02","23:00","-30.2","","-33.6","","73","","","","34","","18","","6.4","","102.33","","","","-43","","Ice Crystals,Fog,Blowing Snow"
"-105.14","69.11","CAMBRIDGE BAY A","2400601","2022-01-03 00:00","2022","01","03","00:00","-30.1","","-33.4","","74","","","","33","","16","","2.0","","102.36","","","","-42","","Ice Crystals,Fog,Blowing Snow"
"-105.14","69.11","CAMBRIDGE BAY A","2400601","2022-01-03 01:00","2022","01","03","01:00","-29.3","","-32.6","","74","","","","36","","23","","2.0","","102.33","","","","-43","","Ice Crystals,Fog,Blowing Snow"
"-105.14","69.11","CAMBRIDGE BAY A","2400601","2022-01-03 02:00","2022","01","03","02:00","-29.3","","-32.5","","74","","","","36","","29","","1.2","","102.35","","","","-44","","Ice Crystals,Fog,Blowing Snow"
"-105.14","69.11","CAMBRIDGE BAY A","2400601","2022-01-03 03:00","2022","01","03","03:00","-28.7","","-31.9","","75","","","","36","","34","","1.2","","102.42","","","","-45","","Ice Crystals,Fog,Blowing Snow"
"-105.14","69.11","CAMBRIDGE BAY A","2400601","2022-01-03 04:00","2022","01","03","04:00","-28.5","","-31.7","","75","","","","1","","32","","1.2","","102.46","","","","-44","","Ice Crystals,Fog,Blowing Snow"
"-105.14","69.11","CAMBRIDGE BAY A","2400601","2022-01-03 05:00","2022","01","03","05:00","-28.1","","-31.2","","75","","","","35","","18","","1.2","","102.52","","","","-40","","Ice Crystals,Fog,Blowing Snow"
"-105.14","69.11","CAMBRIDGE BAY A","2400601","2022-01-03 06:00","2022","01","03","06:00","-27.7","","-30.9","","75","","","","34","","26","","1.2","","102.50","","","","-42","","Ice Crystals,Blowing Snow,Blowing Sand"
"-105.14","69.11","CAMBRIDGE BAY A","2400601","2022-01-03 07:00","2022","01","03","07:00","-27.7","","-30.8","","75","","","","35","","18","","2.0","","102.52","","","","-40","","Ice Crystals,Fog,Blowing Snow"
"-105.14","69.11","CAMBRIDGE BAY A","2400601","2022-01-03 08:00","2022","01","03","08:00","-27.1","","-30.1","","76","","","","34","","26","","2.4","","102.56","","","","-41","","Ice Crystals,Fog,Blowing Snow"
"-105.14","69.11","CAMBRIDGE BAY A","2400601","2022-01-03 09:00","2022","01","03","09:00","-26.7","","-29.8","","76","","","","34","","29","","1.2","","102.58","","","","-41","","Snow,Fog,Blowing Snow"
"-105.14","69.11","CAMBRIDGE BAY A","2400601","2022-01-03 10:00","2022","01","03","10:00","-27.2","","-30.4","","75","","","","34","","35","","1.6","","102.61","","","","-43","","Blowing Snow"
"-105.14","69.11","CAMBRIDGE BAY A","2400601","2022-01-03 11:00","2022","01","03","11:00","-27.7","","-30.9","","75","","","","35","","24","","2.4","","102.65","","","","-41","","Snow,Blowing Snow"
"-105.14","69.11","CAMBRIDGE BAY A","2400601","2022-01-03 12:00","2022","01","03","12:00","-27.8","","-31.0","","75","","","","33","","24","","2.4","","102.70","","","","-41","","Snow,Blowing Snow"
"-105.14","69.11","CAMBRIDGE BAY A","2400601","2022-01-03 13:00","2022","01","03","13:00","-27.3","","-30.4","","75","","","","34","","41","","1.6","","102.66","","","","-44","","Blowing Snow"
"-105.14","69.11","CAMBRIDGE BAY A","2400601","2022-01-03 14:00","2022","01","03","14:00","-28.3","","-31.6","","74","","","","35","","24","","4.8","","102.74","","","","-42","","Ice Crystals,Blowing Snow"
"-105.14","69.11","CAMBRIDGE BAY A","2400601","2022-01-03 15:00","2022","01","03","15:00","-28.6","","-32.0","","73","","","","31","","14","","16.1","","102.85","","","","-39","","Ice Crystals"
"-105.14","69.11","CAMBRIDGE BAY A","2400601","2022-01-03 16:00","2022","01","03","16:00","-28.1","","-31.6","","73","","","","31","","20","","11.3","","102.87","","","","-41","","Ice Crystals"
"-105.14","69.11","CAMBRIDGE BAY A","2400601","2022-01-03 17:00","2022","01","03","17:00","-29.2","","-32.6","","73","","","","25","","17","","16.1","","102.88","","","","-41","","Ice Crystals"
"-105.14","69.11","CAMBRIDGE BAY A","2400601","2022-01-03 18:00","2022","01","03","18:00","-29.1","","-32.7","","72","","","","29","","24","","16.1","","102.85","","","","-43","","Ice Crystals"
"-105.14","69.11","CAMBRIDGE BAY A","2400601","2022-01-03 19:00","2022","01","03","19:00","-29.5","","-33.1","","71","","","","31","","21","","16.1","","102.82","","","","-43","","Ice Crystals"
"-105.14","69.11","CAMBRIDGE BAY A","2400601","2022-01-03 20:00","2022","01","03","20:00","-30.0","","-33.6","","72","","","","31","","25","","19.3","","102.81","","","","-44","","Ice Crystals"
"-105.14","69.11","CAMBRIDGE BAY A","2400601","2022-01-03 21:00","2022","01","03","21:00","-31.0","","-34.4","","72","","","","31","","18","","19.3","","102.79","","","","-44","","Ice Crystals"
"-105.14","69.11","CAMBRIDGE BAY A","2400601","2022-01-03 22:00","2022","01","03","22:00","-31.0","","-34.5","","72","","","","32","","18","","19.3","","102.77","","","","-44","","Ice Crystals"
"-105.14","69.11","CAMBRIDGE BAY A","2400601","2022-01-03 23:00","2022","01","03","23:00","-31.4","","-34.8","","73","","","","29","","15","","24.1","","102.74","","","","-43","","Mainly Clear"
"-105.14","69.11","CAMBRIDGE BAY A","2400601","2022-01-04 00:00","2022","01","04","00:00","-32.1","","-35.5","","72","","","","27","","17","","24.1","","102.68","","","","-45","","Ice Crystals"
"-105.14","69.11","CAMBRIDGE BAY A","2400601","2022-01-04 01:00","2022","01","04","01:00","-32.6","","-36.2","","71","","","","31","","21","","24.1","","102.65","","","","-47","","Ice Crystals"
"-105.14","69.11","CAMBRIDGE BAY A","2400601","2022-01-04 02:00","2022","01","04","02:00","-33.5","","-37.0","","71","","","","27","","16","","24.1","","102.67","","","","-46","","Ice Crystals"
"-105.14","69.11","CAMBRIDGE BAY A","2400601","2022-01-04 03:00","2022","01","04","03:00","-33.6","","-37.1","","71","","","","24","","11","","24.1","","102.68","","","","-44","","Ice Crystals"
"-105.14","69.11","CAMBRIDGE BAY A","2400601","2022-01-04 04:00","2022","01","04","04:00","-34.2","","-37.8","","71","","","","26","","16","","24.1","","102.66","","","","-47","","Ice Crystals"
"-105.14","69.11","CAMBRIDGE BAY A","2400601","2022-01-04 05:00","2022","01","04","05:00","-34.2","","-37.9","","70","","","","28","","13","","24.1","","102.62","","","","-46","","Ice Crystals"
"-105.14","69.11","CAMBRIDGE BAY A","2400601","2022-01-04 06:00","2022","01","04","06:00","-34.3","","-37.9","","70","","","","27","","21","","24.1","","102.59","","","","-49","","Ice Crystals"
"-105.14","69.11","CAMBRIDGE BAY A","2400601","2022-01-04 07:00","2022","01","04","07:00","-33.8","","-37.4","","70","","","","26","","15","","24.1","","102.59","","","","-46","","Ice Crystals"
"-105.14","69.11","CAMBRIDGE BAY A","2400601","2022-01-04 08:00","2022","01","04","08:00","-34.4","","-38.1","","70","","","","26","","15","","24.1","","102.56","","","","-47","","Ice Crystals"
"-105.14","69.11","CAMBRIDGE BAY A","2400601","2022-01-04 09:00","2022","01","04","09:00","-34.5","","-38.1","","70","","","","27","","19","","24.1","","102.54","","","","-48","","Ice Crystals"
"-105.14","69.11","CAMBRIDGE BAY A","2400601","2022-01-04 10:00","2022","01","04","10:00","-34.9","","-38.6","","70","","","","28","","24","","24.1","","102.49","","","","-50","","Ice Crystals"
"-105.14","69.11","CAMBRIDGE BAY A","2400601","2022-01-04 11:00","2022","01","04","11:00","-35.5","","-39.3","","69","","","","29","","25","","22.5","","102.46","","","","-52","","Ice Crystals,Blowing Snow"
"-105.14","69.11","CAMBRIDGE BAY A","2400601","2022-01-04 12:00","2022","01","04","12:00","-36.0","","-39.8","","69","","","","28","","18","","24.1","","102.42","","","","-50","","Ice Crystals"
"-105.14","69.11","CAMBRIDGE BAY A","2400601","2022-01-04 13:00","2022","01","04","13:00","-36.4","","-40.2","","69","","","","28","","16","","24.1","","102.40","","","","-50","","Ice Crystals"
"-105.14","69.11","CAMBRIDGE BAY A","2400601","2022-01-04 14:00","2022","01","04","14:00","-36.8","","-40.5","","69","","","","31","","17","","24.1","","102.35","","","","-51","","Ice Crystals"
"-105.14","69.11","CAMBRIDGE BAY A","2400601","2022-01-04 15:00","2022","01","04","15:00","-37.2","","-41.0","","69","","","","31","","20","","24.1","","102.33","","","","-52","","Ice Crystals"
"-105.14","69.11","CAMBRIDGE BAY A","2400601","2022-01-04 16:00","2022","01","04","16:00","-37.7","","-41.5","","68","","","","27","","16","","24.1","","102.31","","","","-51","","Ice Crystals"
"-105.14","69.11","CAMBRIDGE BAY A","2400601","2022-01-04 17:00","2022","01","04","17:00","-37.1","","-40.9","","69","","","","27","","18","","24.1","","102.28","","","","-51","","Ice Crystals"
"-105.14","69.11","CAMBRIDGE BAY A","2400601","2022-01-04 18:00","2022","01","04","18:00","-36.4","","-40.1","","69","","","","28","","25","","22.5","","102.21","","","","-53","","Ice Crystals,Blowing Snow"
"-105.14","69.11","CAMBRIDGE BAY A","2400601","2022-01-04 19:00","2022","01","04","19:00","-36.6","","-40.4","","69","","","","29","","24","","22.5","","102.12","","","","-53","","Ice Crystals,Blowing Snow"
"-105.14","69.11","CAMBRIDGE BAY A","2400601","2022-01-04 20:00","2022","01","04","20:00","-35.9","","-39.7","","69","","","","27","","20","","22.5","","102.06","","","","-51","","Ice Crystals,Blowing Snow"
"-105.14","69.11","CAMBRIDGE BAY A","2400601","2022-01-04 21:00","2022","01","04","21:00","-34.9","","-38.6","","70","","","","29","","27","","4.8","","102.02","","","","-51","","Ice Crystals,Blowing Snow"
"-105.14","69.11","CAMBRIDGE BAY A","2400601","2022-01-04 22:00","2022","01","04","22:00","-33.2","","-36.9","","71","","","","30","","30","","9.7","","101.89","","","","-50","","Ice Crystals,Blowing Snow"
"-105.14","69.11","CAMBRIDGE BAY A","2400601","2022-01-04 23:00","2022","01","04","23:00","-31.2","","-34.7","","72","","","","28","","22","","9.7","","101.84","","","","-45","","Snow,Blowing Snow"
"-105.14","69.11","CAMBRIDGE BAY A","2400601","2022-01-05 00:00","2022","01","05","00:00","-30.7","","-34.2","","72","","","","31","","30","","4.8","","101.78","","","","-47","","Snow,Blowing Snow"
"-105.14","69.11","CAMBRIDGE BAY A","2400601","2022-01-05 01:00","2022","01","05","01:00","-29.2","","-32.6","","73","","","","31","","29","","4.8","","101.70","","","","-44","","Snow,Blowing Snow"
"-105.14","69.11","CAMBRIDGE BAY A","2400601","2022-01-05 02:00","2022","01","05","02:00","-29.4","","-32.7","","73","","","","31","","36","","4.8","","101.62","","","","-46","","Snow,Blowing Snow"
"-105.14","69.11","CAMBRIDGE BAY A","2400601","2022-01-05 03:00","2022","01","05","03:00","-30.5","","-33.9","","73","","","","31","","33","","4.8","","101.62","","","","-47","","Snow,Blowing Snow"
"-105.14","69.11","CAMBRIDGE BAY A","2400601","2022-01-05 04:00","2022","01","05","04:00","-29.2","","-32.5","","74","","","","32","","27","","3.2","","101.59","","","","-44","","Snow,Blowing Snow"
"-105.14","69.11","CAMBRIDGE BAY A","2400601","2022-01-05 05:00","2022","01","05","05:00","-29.3","","-32.7","","73","","","","29","","23","","9.7","","101.56","","","","-43","","Snow,Blowing Snow"
"-105.14","69.11","CAMBRIDGE BAY A","2400601","2022-01-05 06:00","2022","01","05","06:00","-30.1","","-33.6","","72","","","","31","","28","","9.7","","101.48","","","","-45","","Ice Crystals,Blowing Snow"
"-105.14","69.11","CAMBRIDGE BAY A","2400601","2022-01-05 07:00","2022","01","05","07:00","-30.5","","-34.0","","72","","","","28","","22","","6.4","","101.45","","","","-44","","Ice Crystals,Blowing Snow"
"-105.14","69.11","CAMBRIDGE BAY A","2400601","2022-01-05 08:00","2022","01","05","08:00","-30.4","","-33.8","","73","","","","26","","22","","9.7","","101.40","","","","-44","","Ice Crystals,Blowing Snow"
"-105.14","69.11","CAMBRIDGE BAY A","2400601","2022-01-05 09:00","2022","01","05","09:00","-30.2","","-33.6","","73","","","","30","","27","","9.7","","101.26","","","","-45","","Ice Crystals,Blowing Snow"
"-105.14","69.11","CAMBRIDGE BAY A","2400601","2022-01-05 10:00","2022","01","05","10:00","-29.1","","-32.5","","73","","","","29","","28","","8.1","","101.20","","","","-44","","Ice Crystals,Blowing Snow"
"-105.14","69.11","CAMBRIDGE BAY A","2400601","2022-01-05 11:00","2022","01","05","11:00","-28.4","","-31.7","","74","","","","29","","31","","4.8","","101.10","","","","-44","","Ice Crystals,Blowing Snow"
"-105.14","69.11","CAMBRIDGE BAY A","2400601","2022-01-05 12:00","2022","01","05","12:00","-27.4","","-30.4","","76","","","","26","","27","","4.8","","101.04","","","","-42","","Ice Crystals,Blowing Snow"
"-105.14","69.11","CAMBRIDGE BAY A","2400601","2022-01-05 13:00","2022","01","05","13:00","-25.5","","-28.5","","77","","","","27","","29","","4.8","","100.88","","","","-40","","Snow,Blowing Snow"
"-105.14","69.11","CAMBRIDGE BAY A","2400601","2022-01-05 14:00","2022","01","05","14:00","-24.6","","-27.5","","77","","","","25","","29","","4.8","","100.77","","","","-38","","Snow,Blowing Snow"
"-105.14","69.11","CAMBRIDGE BAY A","2400601","2022-01-05 15:00","2022","01","05","15:00","-23.8","","-26.5","","79","","","","26","","34","","8.1","","100.67","","","","-38","","Snow,Blowing Snow"
"-105.14","69.11","CAMBRIDGE BAY A","2400601","2022-01-05 16:00","2022","01","05","16:00","-23.2","","-25.9","","79","","","","25","","36","","3.2","","100.52","","","","-38","","Blowing Snow"
"-105.14","69.11","CAMBRIDGE BAY A","2400601","2022-01-05 17:00","2022","01","05","17:00","-22.3","","-25.0","","79","","","","27","","32","","3.2","","100.38","","","","-36","","Blowing Snow"
"-105.14","69.11","CAMBRIDGE BAY A","2400601","2022-01-05 18:00","2022","01","05","18:00","-22.8","","-25.5","","79","","","","26","","41","","2.4","","100.24","","","","-38","","Blowing Snow"
"-105.14","69.11","CAMBRIDGE BAY A","2400601","2022-01-05 19:00","2022","01","05","19:00","-22.5","","-25.2","","79","","","","26","","46","","2.4","","100.04","","","","-38","","Blowing Snow"
"-105.14","69.11","CAMBRIDGE BAY A","2400601","2022-01-05 20:00","2022","01","05","20:00","-22.0","","-24.6","","79","","","","25","","42","","2.4","","99.88","","","","-37","","Blowing Snow"
"-105.14","69.11","CAMBRIDGE BAY A","2400601","2022-01-05 21:00","2022","01","05","21:00","-21.5","","-24.1","","80","","","","25","","39","","2.4","","99.73","","","","-36","","Blowing Snow"
"-105.14","69.11","CAMBRIDGE BAY A","2400601","2022-01-05 22:00","2022","01","05","22:00","-21.0","","-23.5","","80","","","","25","","38","","2.4","","99.60","","","","-35","","Blowing Snow"
"-105.14","69.11","CAMBRIDGE BAY A","2400601","2022-01-05 23:00","2022","01","05","23:00","-20.4","","-22.9","","81","","","","25","","39","","3.2","","99.44","","","","-35","","Blowing Snow"
"-105.14","69.11","CAMBRIDGE BAY A","2400601","2022-01-06 00:00","2022","01","06","00:00","-20.3","","-22.7","","81","","","","25","","33","","3.6","","99.33","","","","-33","","Blowing Snow"
"-105.14","69.11","CAMBRIDGE BAY A","2400601","2022-01-06 01:00","2022","01","06","01:00","-19.9","","-22.3","","82","","","","25","","32","","4.8","","99.21","","","","-33","","Snow,Blowing Snow"
"-105.14","69.11","CAMBRIDGE BAY A","2400601","2022-01-06 02:00","2022","01","06","02:00","-19.0","","-21.3","","82","","","","25","","28","","6.4","","99.12","","","","-31","","Snow,Blowing Snow"
"-105.14","69.11","CAMBRIDGE BAY A","2400601","2022-01-06 03:00","2022","01","06","03:00","-18.9","","-21.2","","83","","","","25","","27","","4.8","","99.02","","","","-31","","Snow,Blowing Snow"
"-105.14","69.11","CAMBRIDGE BAY A","2400601","2022-01-06 04:00","2022","01","06","04:00","-18.9","","-21.1","","83","","","","25","","25","","6.4","","98.92","","","","-30","","Snow,Blowing Snow"
"-105.14","69.11","CAMBRIDGE BAY A","2400601","2022-01-06 05:00","2022","01","06","05:00","-18.9","","-21.3","","82","","","","26","","21","","6.4","","98.82","","","","-29","","Snow,Blowing Snow"
"-105.14","69.11","CAMBRIDGE BAY A","2400601","2022-01-06 06:00","2022","01","06","06:00","-19.1","","-21.3","","83","","","","26","","21","","6.4","","98.74","","","","-30","","Snow,Blowing Snow"
"-105.14","69.11","CAMBRIDGE BAY A","2400601","2022-01-06 07:00","2022","01","06","07:00","-19.3","","-21.6","","83","","","","27","","23","","6.4","","98.65","","","","-30","","Snow"
"-105.14","69.11","CAMBRIDGE BAY A","2400601","2022-01-06 08:00","2022","01","06","08:00","-19.7","","-22.1","","81","","","","28","","17","","8.1","","98.62","","","","-29","","Snow"
"-105.14","69.11","CAMBRIDGE BAY A","2400601","2022-01-06 09:00","2022","01","06","09:00","-20.6","","-23.1","","80","","","","31","","17","","6.4","","98.58","","","","-30","","Snow"
"-105.14","69.11","CAMBRIDGE BAY A","2400601","2022-01-06 10:00","2022","01","06","10:00","-20.2","","-22.9","","80","","","","30","","19","","12.9","","98.56","","","","-30","","Snow"
"-105.14","69.11","CAMBRIDGE BAY A","2400601","2022-01-06 11:00","2022","01","06","11:00","-20.2","","-23.0","","79","","","","33","","21","","6.4","","98.51","","","","-31","","Snow,Blowing Snow"
"-105.14","69.11","CAMBRIDGE BAY A","2400601","2022-01-06 12:00","2022","01","06","12:00","-20.2","","-23.1","","78","","","","34","","20","","4.8","","98.51","","","","-31","","Snow,Blowing Snow"
"-105.14","69.11","CAMBRIDGE BAY A","2400601","2022-01-06 13:00","2022","01","06","13:00","-20.1","","-23.0","","78","","","","34","","19","","4.8","","98.54","","","","-30","","Snow,Blowing Snow"
"-105.14","69.11","CAMBRIDGE BAY A","2400601","2022-01-06 14:00","2022","01","06","14:00","-20.3","","-23.3","","77","","","","35","","10","","4.0","","98.54","","","","-28","","Snow"
"-105.14","69.11","CAMBRIDGE BAY A","2400601","2022-01-06 15:00","2022","01","06","15:00","-21.1","","-24.1","","77","","","","34","","14","","9.7","","98.58","","","","-30","","Snow"
"-105.14","69.11","CAMBRIDGE BAY A","2400601","2022-01-06 16:00","2022","01","06","16:00","-22.1","","-25.2","","77","","","","35","","14","","6.4","","98.63","","","","-31","","Snow"
"-105.14","69.11","CAMBRIDGE BAY A","2400601","2022-01-06 17:00","2022","01","06","17:00","-22.7","","-25.7","","77","","","","36","","12","","6.4","","98.64","","","","-31","","Snow"
"-105.14","69.11","CAMBRIDGE BAY A","2400601","2022-01-06 18:00","2022","01","06","18:00","-23.2","","-26.2","","77","","","","33","","19","","4.8","","98.63","","","","-34","","Snow,Blowing Snow"
"-105.14","69.11","CAMBRIDGE BAY A","2400601","2022-01-06 19:00","2022","01","06","19:00","-23.9","","-27.1","","76","","","","33","","18","","4.8","","98.62","","","","-35","","Snow,Blowing Snow"
"-105.14","69.11","CAMBRIDGE BAY A","2400601","2022-01-06 20:00","2022","01","06","20:00","-24.6","","-27.7","","75","","","","32","","20","","6.4","","98.62","","","","-36","","Snow,Blowing Snow"
"-105.14","69.11","CAMBRIDGE BAY A","2400601","2022-01-06 21:00","2022","01","06","21:00","-25.3","","-28.5","","75","","","","32","","22","","8.1","","98.65","","","","-38","","Snow,Blowing Snow"
"-105.14","69.11","CAMBRIDGE BAY A","2400601","2022-01-06 22:00","2022","01","06","22:00","-25.8","","-29.0","","75","","","","33","","22","","12.9","","98.66","","","","-38","","Snow,Blowing Snow"
"-105.14","69.11","CAMBRIDGE BAY A","2400601","2022-01-06 23:00","2022","01","06","23:00","-25.9","","-29.0","","76","","","","32","","17","","19.3","","98.65","","","","-37","","Snow"
"-105.14","69.11","CAMBRIDGE BAY A","2400601","2022-01-07 00:00","2022","01","07","00:00","-25.4","","-28.5","","76","","","","33","","20","","19.3","","98.67","","","","-37","","Snow"
"-105.14","69.11","CAMBRIDGE BAY A","2400601","2022-01-07 01:00","2022","01","07","01:00","-25.2","","-28.3","","75","","","","33","","24","","19.3","","98.67","","","","-38","","Snow"
"-105.14","69.11","CAMBRIDGE BAY A","2400601","2022-01-07 02:00","2022","01","07","02:00","-25.7","","-28.9","","75","","","","33","","18","","19.3","","98.68","","","","-37","","Snow"
"-105.14","69.11","CAMBRIDGE BAY A","2400601","2022-01-07 03:00","2022","01","07","03:00","-27.0","","-30.1","","75","","","","32","","17","","19.3","","98.72","","","","-38","","Snow"
"-105.14","69.11","CAMBRIDGE BAY A","2400601","2022-01-07 04:00","2022","01","07","04:00","-27.5","","-30.5","","77","","","","25","","13","","19.3","","98.76","","","","-38","","Snow"
"-105.14","69.11","CAMBRIDGE BAY A","2400601","2022-01-07 05:00","2022","01","07","05:00","-29.3","","-32.3","","76","","","","31","","14","","19.3","","98.78","","","","-40","","Snow"
"-105.14","69.11","CAMBRIDGE BAY A","2400601","2022-01-07 06:00","2022","01","07","06:00","-30.5","","-33.6","","75","","","","31","","16","","24.1","","98.77","","","","-42","","Ice Crystals"
"-105.14","69.11","CAMBRIDGE BAY A","2400601","2022-01-07 07:00","2022","01","07","07:00","-30.0","","-33.1","","75","","","","31","","17","","24.1","","98.78","","","","-42","","Ice Crystals"
"-105.14","69.11","CAMBRIDGE BAY A","2400601","2022-01-07 08:00","2022","01","07","08:00","-31.2","","-34.4","","74","","","","31","","17","","24.1","","98.78","","","","-44","","Ice Crystals"
"-105.14","69.11","CAMBRIDGE BAY A","2400601","2022-01-07 09:00","2022","01","07","09:00","-31.8","","-35.0","","74","","","","32","","12","","24.1","","98.82","","","","-42","","Ice Crystals"
"-105.14","69.11","CAMBRIDGE BAY A","2400601","2022-01-07 10:00","2022","01","07","10:00","-33.0","","-36.2","","73","","","","33","","13","","16.1","","98.85","","","","-44","","Ice Crystals"
"-105.14","69.11","CAMBRIDGE BAY A","2400601","2022-01-07 11:00","2022","01","07","11:00","-31.2","","-34.3","","75","","","","33","","17","","16.1","","98.88","","","","-44","","Ice Crystals"
"-105.14","69.11","CAMBRIDGE BAY A","2400601","2022-01-07 12:00","2022","01","07","12:00","-32.7","","-36.0","","74","","","","33","","16","","16.1","","98.91","","","","-45","","Ice Crystals"
"-105.14","69.11","CAMBRIDGE BAY A","2400601","2022-01-07 13:00","2022","01","07","13:00","-32.4","","-35.6","","74","","","","33","","19","","16.1","","98.95","","","","-46","","Ice Crystals"
"-105.14","69.11","CAMBRIDGE BAY A","2400601","2022-01-07 14:00","2022","01","07","14:00","-32.4","","-35.6","","74","","","","32","","14","","16.1","","98.99","","","","-44","","Ice Crystals"
"-105.14","69.11","CAMBRIDGE BAY A","2400601","2022-01-07 15:00","2022","01","07","15:00","-32.0","","-35.2","","74","","","","33","","14","","16.1","","99.02","","","","-43","","Ice Crystals"
"-105.14","69.11","CAMBRIDGE BAY A","2400601","2022-01-07 16:00","2022","01","07","16:00","-32.0","","-35.3","","73","","","","32","","21","","19.3","","99.07","","","","-46","","Ice Crystals"
"-105.14","69.11","CAMBRIDGE BAY A","2400601","2022-01-07 17:00","2022","01","07","17:00","-30.4","","-33.6","","74","","","","34","","17","","19.3","","99.12","","","","-43","","Ice Crystals"
"-105.14","69.11","CAMBRIDGE BAY A","2400601","2022-01-07 18:00","2022","01","07","18:00","-29.3","","-32.5","","74","","","","36","","21","","9.7","","99.14","","","","-43","","Snow"
"-105.14","69.11","CAMBRIDGE BAY A","2400601","2022-01-07 19:00","2022","01","07","19:00","-29.5","","-32.8","","74","","","","36","","18","","16.1","","99.19","","","","-42","","Snow"
"-105.14","69.11","CAMBRIDGE BAY A","2400601","2022-01-07 20:00","2022","01","07","20:00","-29.8","","-33.1","","73","","","","1","","18","","19.3","","99.23","","","","-42","","Snow"
"-105.14","69.11","CAMBRIDGE BAY A","2400601","2022-01-07 21:00","2022","01","07","21:00","-30.5","","-33.9","","73","","","","36","","14","","19.3","","99.28","","","","-42","","Snow"
"-105.14","69.11","CAMBRIDGE BAY A","2400601","2022-01-07 22:00","2022","01","07","22:00","-30.3","","-33.8","","72","","","","36","","19","","19.3","","99.31","","","","-43","","Snow"
"-105.14","69.11","CAMBRIDGE BAY A","2400601","2022-01-07 23:00","2022","01","07","23:00","-30.7","","-34.1","","73","","","","33","","13","","19.3","","99.40","","","","-41","","Snow"
"-105.14","69.11","CAMBRIDGE BAY A","2400601","2022-01-08 00:00","2022","01","08","00:00","-30.9","","-34.3","","73","","","","36","","19","","12.9","","99.45","","","","-44","","Snow"
"-105.14","69.11","CAMBRIDGE BAY A","2400601","2022-01-08 01:00","2022","01","08","01:00","-31.8","","-35.2","","72","","","","1","","14","","19.3","","99.50","","","","-43","","Ice Crystals"
"-105.14","69.11","CAMBRIDGE BAY A","2400601","2022-01-08 02:00","2022","01","08","02:00","-31.8","","-35.3","","72","","","","1","","17","","19.3","","99.56","","","","-44","","Ice Crystals"
"-105.14","69.11","CAMBRIDGE BAY A","2400601","2022-01-08 03:00","2022","01","08","03:00","-32.1","","-35.6","","72","","","","1","","22","","19.3","","99.60","","","","-46","","Ice Crystals"
"-105.14","69.11","CAMBRIDGE BAY A","2400601","2022-01-08 04:00","2022","01","08","04:00","-32.5","","-36.0","","72","","","","36","","12","","24.1","","99.69","","","","-43","","Ice Crystals"
"-105.14","69.11","CAMBRIDGE BAY A","2400601","2022-01-08 05:00","2022","01","08","05:00","-32.4","","-35.9","","72","","","","1","","15","","24.1","","99.75","","","","-44","","Ice Crystals"
"-105.14","69.11","CAMBRIDGE BAY A","2400601","2022-01-08 06:00","2022","01","08","06:00","-32.1","","-35.5","","73","","","","1","","10","","3.2","","99.79","","","","-42","","Snow,Blowing Snow"
"-105.14","69.11","CAMBRIDGE BAY A","2400601","2022-01-08 07:00","2022","01","08","07:00","-32.5","","-36.0","","72","","","","4","","17","","4.0","","99.87","","","","-45","","Snow"
"-105.14","69.11","CAMBRIDGE BAY A","2400601","2022-01-08 08:00","2022","01","08","08:00","-32.7","","-36.2","","72","","","","4","","24","","4.0","","99.93","","","","-48","","Snow,Blowing Snow"
"-105.14","69.11","CAMBRIDGE BAY A","2400601","2022-01-08 09:00","2022","01","08","09:00","-33.0","","-36.5","","72","","","","2","","27","","12.9","","99.96","","","","-49","","Ice Crystals,Blowing Snow"
"-105.14","69.11","CAMBRIDGE BAY A","2400601","2022-01-08 10:00","2022","01","08","10:00","-33.6","","-37.1","","71","","","","2","","22","","16.1","","100.04","","","","-48","","Ice Crystals,Blowing Snow"
"-105.14","69.11","CAMBRIDGE BAY A","2400601","2022-01-08 11:00","2022","01","08","11:00","-33.9","","-37.4","","71","","","","2","","19","","12.9","","100.11","","","","-48","","Ice Crystals,Blowing Snow"
"-105.14","69.11","CAMBRIDGE BAY A","2400601","2022-01-08 12:00","2022","01","08","12:00","-34.4","","-38.0","","71","","","","2","","17","","12.9","","100.16","","","","-48","","Ice Crystals,Blowing Snow"
"-105.14","69.11","CAMBRIDGE BAY A","2400601","2022-01-08 13:00","2022","01","08","13:00","-33.6","","-37.1","","71","","","","36","","14","","9.7","","100.24","","","","-45","","Ice Crystals,Fog"
"-105.14","69.11","CAMBRIDGE BAY A","2400601","2022-01-08 14:00","2022","01","08","14:00","-34.0","","-37.5","","71","","","","1","","18","","9.7","","100.29","","","","-47","","Ice Crystals,Fog"
"-105.14","69.11","CAMBRIDGE BAY A","2400601","2022-01-08 15:00","2022","01","08","15:00","-34.5","","-38.0","","71","","","","1","","16","","16.1","","100.38","","","","-47","","Ice Crystals"
"-105.14","69.11","CAMBRIDGE BAY A","2400601","2022-01-08 16:00","2022","01","08","16:00","-34.5","","-38.1","","71","","","","35","","16","","16.1","","100.45","","","","-47","","Ice Crystals"
"-105.14","69.11","CAMBRIDGE BAY A","2400601","2022-01-08 17:00","2022","01","08","17:00","-34.6","","-38.2","","70","","","","36","","12","","16.1","","100.50","","","","-46","","Ice Crystals"
"-105.14","69.11","CAMBRIDGE BAY A","2400601","2022-01-08 18:00","2022","01","08","18:00","-34.9","","-38.5","","70","","","","31","","9","","16.1","","100.51","","","","-44","","Ice Crystals"
"-105.14","69.11","CAMBRIDGE BAY A","2400601","2022-01-08 19:00","2022","01","08","19:00","-35.7","","-39.3","","71","","","","34","","15","","16.1","","100.53","","","","-48","","Ice Crystals"
"-105.14","69.11","CAMBRIDGE BAY A","2400601","2022-01-08 20:00","2022","01","08","20:00","-35.2","","-38.8","","71","","","","33","","9","","16.1","","100.59","","","","-45","","Ice Crystals"
"-105.14","69.11","CAMBRIDGE BAY A","2400601","2022-01-08 21:00","2022","01","08","21:00","-36.2","","-39.8","","70","","","","32","","17","","16.1","","100.63","","","","-50","","Ice Crystals"
"-105.14","69.11","CAMBRIDGE BAY A","2400601","2022-01-08 22:00","2022","01","08","22:00","-35.2","","-38.6","","72","","","","35","","10","","24.1","","100.67","","","","-45","","Ice Crystals"
"-105.14","69.11","CAMBRIDGE BAY A","2400601","2022-01-08 23:00","2022","01","08","23:00","-36.1","","-39.6","","71","","","","31","","17","","24.1","","100.70","","","","-50","","Ice Crystals"
"-105.14","69.11","CAMBRIDGE BAY A","2400601","2022-01-09 00:00","2022","01","09","00:00","-36.4","","-39.9","","71","","","","32","","18","","24.1","","100.72","","","","-50","","Ice Crystals"
"-105.14","69.11","CAMBRIDGE BAY A","2400601","2022-01-09 01:00","2022","01","09","01:00","-35.7","","-39.2","","71","","","","31","","21","","24.1","","100.77","","","","-51","","Ice Crystals"
"-105.14","69.11","CAMBRIDGE BAY A","2400601","2022-01-09 02:00","2022","01","09","02:00","-35.6","","-39.4","","69","","","","31","","20","","24.1","","100.82","","","","-50","","Ice Crystals"
"-105.14","69.11","CAMBRIDGE BAY A","2400601","2022-01-09 03:00","2022","01","09","03:00","-35.5","","-39.3","","70","","","","31","","22","","24.1","","100.84","","","","-51","","Ice Crystals"
"-105.14","69.11","CAMBRIDGE BAY A","2400601","2022-01-09 04:00","2022","01","09","04:00","-35.6","","-39.3","","70","","","","32","","23","","16.1","","100.88","","","","-51","","Ice Crystals"
"-105.14","69.11","CAMBRIDGE BAY A","2400601","2022-01-09 05:00","2022","01","09","05:00","-34.7","","-38.4","","70","","","","31","","26","","24.1","","100.92","","","","-51","","Ice Crystals"
"-105.14","69.11","CAMBRIDGE BAY A","2400601","2022-01-09 06:00","2022","01","09","06:00","-31.9","","-35.5","","72","","","","33","","20","","16.1","","100.89","","","","-45","","Ice Crystals"
"-105.14","69.11","CAMBRIDGE BAY A","2400601","2022-01-09 07:00","2022","01","09","07:00","-30.1","","-33.6","","72","","","","30","","18","","24.1","","100.90","","","","-43","","Ice Crystals"
"-105.14","69.11","CAMBRIDGE BAY A","2400601","2022-01-09 08:00","2022","01","09","08:00","-28.8","","-32.2","","73","","","","29","","21","","24.1","","100.92","","","","-42","","Ice Crystals"
"-105.14","69.11","CAMBRIDGE BAY A","2400601","2022-01-09 09:00","2022","01","09","09:00","-28.4","","-31.8","","73","","","","29","","20","","16.1","","100.98","","","","-41","","Snow"
"-105.14","69.11","CAMBRIDGE BAY A","2400601","2022-01-09 10:00","2022","01","09","10:00","-28.8","","-32.3","","72","","","","28","","18","","16.1","","100.94","","","","-41","","Snow"
"-105.14","69.11","CAMBRIDGE BAY A","2400601","2022-01-09 11:00","2022","01","09","11:00","-29.1","","-32.5","","73","","","","28","","24","","8.1","","100.97","","","","-43","","Snow,Blowing Snow"
"-105.14","69.11","CAMBRIDGE BAY A","2400601","2022-01-09 12:00","2022","01","09","12:00","-29.9","","-33.3","","73","","","","27","","33","","4.8","","101.02","","","","-46","","Ice Crystals,Blowing Snow"
"-105.14","69.11","CAMBRIDGE BAY A","2400601","2022-01-09 13:00","2022","01","09","13:00","-30.4","","-33.9","","72","","","","27","","22","","4.0","","101.02","","","","-44","","Ice Crystals,Blowing Snow"
"-105.14","69.11","CAMBRIDGE BAY A","2400601","2022-01-09 14:00","2022","01","09","14:00","-30.3","","-33.7","","73","","","","27","","22","","12.9","","100.99","","","","-44","","Ice Crystals,Blowing Snow"
"-105.14","69.11","CAMBRIDGE BAY A","2400601","2022-01-09 15:00","2022","01","09","15:00","-29.5","","-32.8","","74","","","","26","","26","","12.9","","101.01","","","","-44","","Ice Crystals,Blowing Snow"
"-105.14","69.11","CAMBRIDGE BAY A","2400601","2022-01-09 16:00","2022","01","09","16:00","-29.4","","-32.6","","74","","","","27","","20","","6.4","","101.02","","","","-42","","Ice Crystals,Blowing Snow"
"-105.14","69.11","CAMBRIDGE BAY A","2400601","2022-01-09 17:00","2022","01","09","17:00","-28.3","","-31.5","","75","","","","27","","20","","6.4","","100.96","","","","-41","","Ice Crystals,Blowing Snow"
"-105.14","69.11","CAMBRIDGE BAY A","2400601","2022-01-09 18:00","2022","01","09","18:00","-29.2","","-32.5","","74","","","","28","","26","","16.1","","100.92","","","","-44","","Ice Crystals,Blowing Snow"
"-105.14","69.11","CAMBRIDGE BAY A","2400601","2022-01-09 19:00","2022","01","09","19:00","-30.8","","-34.2","","73","","","","29","","28","","12.9","","100.88","","","","-46","","Ice Crystals,Blowing Snow"
"-105.14","69.11","CAMBRIDGE BAY A","2400601","2022-01-09 20:00","2022","01","09","20:00","-32.2","","-35.7","","72","","","","31","","29","","6.4","","100.89","","","","-48","","Ice Crystals,Blowing Snow"
"-105.14","69.11","CAMBRIDGE BAY A","2400601","2022-01-09 21:00","2022","01","09","21:00","-32.8","","-36.4","","71","","","","31","","34","","16.1","","100.88","","","","-50","","Ice Crystals,Blowing Snow"
"-105.14","69.11","CAMBRIDGE BAY A","2400601","2022-01-09 22:00","2022","01","09","22:00","-33.0","","-36.6","","71","","","","29","","35","","22.5","","100.89","","","","-51","","Ice Crystals,Blowing Snow"
"-105.14","69.11","CAMBRIDGE BAY A","2400601","2022-01-09 23:00","2022","01","09","23:00","-33.0","","-36.6","","71","","","","28","","27","","22.5","","100.86","","","","-49","","Ice Crystals,Blowing Snow"
"-105.14","69.11","CAMBRIDGE BAY A","2400601","2022-01-10 00:00","2022","01","10","00:00","-33.0","","-36.6","","71","","","","27","","28","","22.5","","100.86","","","","-49","","Ice Crystals,Blowing Snow"
"-105.14","69.11","CAMBRIDGE BAY A","2400601","2022-01-10 01:00","2022","01","10","01:00","-33.6","","-37.2","","71","","","","29","","22","","22.5","","100.82","","","","-48","","Ice Crystals,Blowing Snow"
"-105.14","69.11","CAMBRIDGE BAY A","2400601","2022-01-10 02:00","2022","01","10","02:00","-33.9","","-37.6","","70","","","","29","","27","","22.5","","100.79","","","","-50","","Ice Crystals,Blowing Snow"
"-105.14","69.11","CAMBRIDGE BAY A","2400601","2022-01-10 03:00","2022","01","10","03:00","-33.7","","-37.4","","70","","","","30","","26","","22.5","","100.78","","","","-49","","Ice Crystals,Blowing Snow"
"-105.14","69.11","CAMBRIDGE BAY A","2400601","2022-01-10 04:00","2022","01","10","04:00","-33.9","","-37.5","","71","","","","28","","23","","22.5","","100.79","","","","-49","","Ice Crystals,Blowing Snow"
"-105.14","69.11","CAMBRIDGE BAY A","2400601","2022-01-10 05:00","2022","01","10","05:00","-33.4","","-37.0","","71","","","","29","","22","","22.5","","100.70","","","","-48","","Ice Crystals,Blowing Snow"
"-105.14","69.11","CAMBRIDGE BAY A","2400601","2022-01-10 06:00","2022","01","10","06:00","-32.4","","-35.9","","71","","","","28","","28","","22.5","","100.68","","","","-48","","Ice Crystals,Blowing Snow"
"-105.14","69.11","CAMBRIDGE BAY A","2400601","2022-01-10 07:00","2022","01","10","07:00","-31.1","","-34.6","","72","","","","27","","27","","22.5","","100.60","","","","-46","","Ice Crystals,Blowing Snow"
"-105.14","69.11","CAMBRIDGE BAY A","2400601","2022-01-10 08:00","2022","01","10","08:00","-29.7","","-33.1","","73","","","","28","","29","","22.5","","100.47","","","","-45","","Ice Crystals,Blowing Snow"
"-105.14","69.11","CAMBRIDGE BAY A","2400601","2022-01-10 09:00","2022","01","10","09:00","-28.9","","-32.3","","73","","","","28","","27","","3.2","","100.40","","","","-44","","Snow,Blowing Snow"
"-105.14","69.11","CAMBRIDGE BAY A","2400601","2022-01-10 10:00","2022","01","10","10:00","-28.2","","-31.5","","74","","","","28","","26","","3.2","","100.34","","","","-42","","Snow,Blowing Snow"
"-105.14","69.11","CAMBRIDGE BAY A","2400601","2022-01-10 11:00","2022","01","10","11:00","-28.0","","-31.2","","74","","","","29","","27","","2.4","","100.27","","","","-42","","Snow,Blowing Snow"
"-105.14","69.11","CAMBRIDGE BAY A","2400601","2022-01-10 12:00","2022","01","10","12:00","-28.7","","-31.9","","74","","","","28","","18","","4.0","","100.23","","","","-41","","Ice Crystals,Blowing Snow"
"-105.14","69.11","CAMBRIDGE BAY A","2400601","2022-01-10 13:00","2022","01","10","13:00","-29.0","","-32.4","","73","","","","29","","28","","3.6","","100.17","","","","-44","","Ice Crystals,Blowing Snow"
"-105.14","69.11","CAMBRIDGE BAY A","2400601","2022-01-10 14:00","2022","01","10","14:00","-29.8","","-33.3","","73","","","","28","","22","","3.6","","100.15","","","","-43","","Ice Crystals,Blowing Snow"
"-105.14","69.11","CAMBRIDGE BAY A","2400601","2022-01-10 15:00","2022","01","10","15:00","-31.1","","-34.6","","72","","","","28","","34","","4.8","","100.08","","","","-48","","Ice Crystals,Blowing Snow"
"-105.14","69.11","CAMBRIDGE BAY A","2400601","2022-01-10 16:00","2022","01","10","16:00","-31.8","","-35.3","","72","","","","29","","27","","4.8","","100.07","","","","-47","","Ice Crystals,Blowing Snow"
"-105.14","69.11","CAMBRIDGE BAY A","2400601","2022-01-10 17:00","2022","01","10","17:00","-32.1","","-35.8","","71","","","","30","","28","","4.8","","100.01","","","","-48","","Ice Crystals,Blowing Snow"
"-105.14","69.11","CAMBRIDGE BAY A","2400601","2022-01-10 18:00","2022","01","10","18:00","-33.3","","-36.9","","71","","","","29","","25","","6.4","","99.95","","","","-49","","Ice Crystals,Blowing Snow"
"-105.14","69.11","CAMBRIDGE BAY A","2400601","2022-01-10 19:00","2022","01","10","19:00","-33.5","","-37.1","","71","","","","29","","14","","6.4","","99.95","","","","-45","","Ice Crystals"
"-105.14","69.11","CAMBRIDGE BAY A","2400601","2022-01-10 20:00","2022","01","10","20:00","-33.7","","-37.4","","70","","","","31","","26","","6.4","","99.91","","","","-49","","Ice Crystals,Blowing Snow"
"-105.14","69.11","CAMBRIDGE BAY A","2400601","2022-01-10 21:00","2022","01","10","21:00","-34.1","","-37.8","","70","","","","30","","23","","12.9","","99.90","","","","-49","","Ice Crystals,Blowing Snow"
"-105.14","69.11","CAMBRIDGE BAY A","2400601","2022-01-10 22:00","2022","01","10","22:00","-34.2","","-37.9","","70","","","","31","","17","","19.3","","99.96","","","","-47","","Ice Crystals,Blowing Snow"
"-105.14","69.11","CAMBRIDGE BAY A","2400601","2022-01-10 23:00","2022","01","10","23:00","-34.0","","-37.7","","70","","","","31","","21","","19.3","","99.93","","","","-48","","Ice Crystals,Blowing Snow"
"-105.14","69.11","CAMBRIDGE BAY A","2400601","2022-01-11 00:00","2022","01","11","00:00","-33.7","","-37.5","","70","","","","32","","23","","19.3","","99.96","","","","-49","","Ice Crystals,Blowing Snow"
"-105.14","69.11","CAMBRIDGE BAY A","2400601","2022-01-11 01:00","2022","01","11","01:00","-32.5","","-36.2","","70","","","","31","","31","","9.7","","100.00","","","","-49","","Ice Crystals,Blowing Snow"
"-105.14","69.11","CAMBRIDGE BAY A","2400601","2022-01-11 02:00","2022","01","11","02:00","-32.6","","-36.3","","70","","","","32","","34","","4.8","","99.97","","","","-50","","Ice Crystals,Blowing Snow"
"-105.14","69.11","CAMBRIDGE BAY A","2400601","2022-01-11 03:00","2022","01","11","03:00","-33.6","","-37.4","","70","","","","31","","32","","4.8","","99.92","","","","-51","","Ice Crystals,Blowing Snow"
"-105.14","69.11","CAMBRIDGE BAY A","2400601","2022-01-11 04:00","2022","01","11","04:00","-33.7","","-37.4","","70","","","","32","","41","","4.8","","99.90","","","","-53","","Ice Crystals,Blowing Snow"
"-105.14","69.11","CAMBRIDGE BAY A","2400601","2022-01-11 05:00","2022","01","11","05:00","-33.9","","-37.6","","70","","","","32","","42","","4.8","","99.95","","","","-53","","Ice Crystals,Blowing Snow"
"-105.14","69.11","CAMBRIDGE BAY A","2400601","2022-01-11 06:00","2022","01","11","06:00","-34.7","","-38.4","","70","","","","31","","33","","3.2","","99.94","","","","-52","","Blowing Snow"
"-105.14","69.11","CAMBRIDGE BAY A","2400601","2022-01-11 07:00","2022","01","11","07:00","-34.8","","-38.6","","69","","","","31","","38","","3.2","","99.88","","","","-54","","Blowing Snow"
"-105.14","69.11","CAMBRIDGE BAY A","2400601","2022-01-11 08:00","2022","01","11","08:00","-34.6","","-38.5","","69","","","","30","","36","","3.2","","99.86","","","","-53","","Blowing Snow"
"-105.14","69.11","CAMBRIDGE BAY A","2400601","2022-01-11 09:00","2022","01","11","09:00","-34.6","","-38.3","","70","","","","29","","30","","3.2","","99.90","","","","-52","","Blowing Snow"
"-105.14","69.11","CAMBRIDGE BAY A","2400601","2022-01-11 10:00","2022","01","11","10:00","-34.2","","-37.8","","71","","","","29","","36","","1.6","","99.85","","","","-52","","Blowing Snow"
"-105.14","69.11","CAMBRIDGE BAY A","2400601","2022-01-11 11:00","2022","01","11","11:00","-33.6","","-37.3","","71","","","","28","","41","","1.2","","99.82","","","","-52","","Blowing Snow"
"-105.14","69.11","CAMBRIDGE BAY A","2400601","2022-01-11 12:00","2022","01","11","12:00","-33.3","","-36.9","","71","","","","29","","40","","0.6","","99.74","","","","-52","","Blowing Snow"
"-105.14","69.11","CAMBRIDGE BAY A","2400601","2022-01-11 13:00","2022","01","11","13:00","-33.0","","-36.6","","71","","","","30","","43","","0.2","","99.73","","","","-52","","Blowing Snow"
"-105.14","69.11","CAMBRIDGE BAY A","2400601","2022-01-11 14:00","2022","01","11","14:00","-32.6","","-36.2","","71","","","","30","","45","","0.2","","99.71","","","","-52","","Blowing Snow"
"-105.14","69.11","CAMBRIDGE BAY A","2400601","2022-01-11 15:00","2022","01","11","15:00","-31.9","","-35.5","","72","","","","31","","52","","0.2","","99.64","","","","-52","","Blowing Snow"
"-105.14","69.11","CAMBRIDGE BAY A","2400601","2022-01-11 16:00","2022","01","11","16:00","-31.4","","-34.9","","72","","","","30","","51","","0.6","","99.66","","","","-51","","Blowing Snow"
"-105.14","69.11","CAMBRIDGE BAY A","2400601","2022-01-11 17:00","2022","01","11","17:00","-31.2","","-34.7","","72","","","","29","","44","","0.8","","99.71","","","","-50","","Blowing Snow"
"-105.14","69.11","CAMBRIDGE BAY A","2400601","2022-01-11 18:00","2022","01","11","18:00","-30.0","","-33.3","","73","","","","30","","46","","0.8","","99.70","","","","-48","","Blowing Snow"
"-105.14","69.11","CAMBRIDGE BAY A","2400601","2022-01-11 19:00","2022","01","11","19:00","-30.6","","-34.1","","72","","","","30","","47","","0.8","","99.68","","","","-49","","Blowing Snow"
"-105.14","69.11","CAMBRIDGE BAY A","2400601","2022-01-11 20:00","2022","01","11","20:00","-30.4","","-33.9","","73","","","","32","","48","","0.8","","99.67","","","","-49","","Blowing Snow"
"-105.14","69.11","CAMBRIDGE BAY A","2400601","2022-01-11 21:00","2022","01","11","21:00","-30.3","","-33.8","","72","","","","31","","41","","1.2","","99.75","","","","-48","","Blowing Snow"
"-105.14","69.11","CAMBRIDGE BAY A","2400601","2022-01-11 22:00","2022","01","11","22:00","-30.7","","-34.2","","72","","","","32","","37","","1.6","","99.80","","","","-48","","Blowing Snow"
"-105.14","69.11","CAMBRIDGE BAY A","2400601","2022-01-11 23:00","2022","01","11","23:00","-30.2","","-33.7","","72","","","","31","","35","","1.6","","99.92","","","","-47","","Blowing Snow"
"-105.14","69.11","CAMBRIDGE BAY A","2400601","2022-01-12 00:00","2022","01","12","00:00","-30.1","","-33.6","","72","","","","31","","41","","1.6","","99.92","","","","-48","","Blowing Snow"
"-105.14","69.11","CAMBRIDGE BAY A","2400601","2022-01-12 01:00","2022","01","12","01:00","-30.4","","-33.8","","72","","","","31","","39","","1.6","","99.95","","","","-48","","Blowing Snow"
"-105.14","69.11","CAMBRIDGE BAY A","2400601","2022-01-12 02:00","2022","01","12","02:00","-30.4","","-33.9","","72","","","","31","","32","","1.6","","100.05","","","","-47","","Blowing Snow"
"-105.14","69.11","CAMBRIDGE BAY A","2400601","2022-01-12 03:00","2022","01","12","03:00","-30.6","","-34.2","","71","","","","31","","27","","9.7","","100.14","","","","-46","","Ice Crystals,Blowing Snow"
"-105.14","69.11","CAMBRIDGE BAY A","2400601","2022-01-12 04:00","2022","01","12","04:00","-30.7","","-34.4","","71","","","","31","","22","","9.7","","100.27","","","","-45","","Ice Crystals,Blowing Snow"
"-105.14","69.11","CAMBRIDGE BAY A","2400601","2022-01-12 05:00","2022","01","12","05:00","-31.0","","-34.6","","71","","","","32","","24","","9.7","","100.31","","","","-45","","Ice Crystals,Blowing Snow"
"-105.14","69.11","CAMBRIDGE BAY A","2400601","2022-01-12 06:00","2022","01","12","06:00","-31.1","","-34.8","","71","","","","29","","18","","16.1","","100.44","","","","-44","","Ice Crystals,Blowing Snow"
"-105.14","69.11","CAMBRIDGE BAY A","2400601","2022-01-12 07:00","2022","01","12","07:00","-31.6","","-35.4","","70","","","","31","","24","","19.3","","100.48","","","","-46","","Ice Crystals,Blowing Snow"
"-105.14","69.11","CAMBRIDGE BAY A","2400601","2022-01-12 08:00","2022","01","12","08:00","-31.9","","-35.7","","70","","","","32","","20","","19.3","","100.57","","","","-45","","Ice Crystals,Blowing Snow"
"-105.14","69.11","CAMBRIDGE BAY A","2400601","2022-01-12 09:00","2022","01","12","09:00","-32.3","","-36.0","","70","","","","31","","24","","19.3","","100.62","","","","-47","","Ice Crystals,Blowing Snow"
"-105.14","69.11","CAMBRIDGE BAY A","2400601","2022-01-12 10:00","2022","01","12","10:00","-33.2","","-37.1","","69","","","","31","","22","","19.3","","100.72","","","","-48","","Ice Crystals,Blowing Snow"
"-105.14","69.11","CAMBRIDGE BAY A","2400601","2022-01-12 11:00","2022","01","12","11:00","-33.4","","-37.2","","70","","","","31","","16","","24.1","","100.81","","","","-46","","Ice Crystals"
"-105.14","69.11","CAMBRIDGE BAY A","2400601","2022-01-12 12:00","2022","01","12","12:00","-33.3","","-37.0","","70","","","","35","","15","","24.1","","100.87","","","","-45","","NA"
"-105.14","69.11","CAMBRIDGE BAY A","2400601","2022-01-12 13:00","2022","01","12","13:00","-33.6","","-37.4","","70","","","","33","","18","","24.1","","100.97","","","","-47","","NA"
"-105.14","69.11","CAMBRIDGE BAY A","2400601","2022-01-12 14:00","2022","01","12","14:00","-33.3","","-37.0","","70","","","","30","","15","","24.1","","101.11","","","","-45","","Mainly Clear"
"-105.14","69.11","CAMBRIDGE BAY A","2400601","2022-01-12 15:00","2022","01","12","15:00","-33.2","","-36.9","","70","","","","29","","13","","24.1","","101.18","","","","-44","","NA"
"-105.14","69.11","CAMBRIDGE BAY A","2400601","2022-01-12 16:00","2022","01","12","16:00","-33.6","","-37.3","","70","","","","33","","10","","24.1","","101.20","","","","-43","","NA"
"-105.14","69.11","CAMBRIDGE BAY A","2400601","2022-01-12 17:00","2022","01","12","17:00","-33.6","","-37.2","","70","","","","36","","1","","24.1","","101.26","","","","-35","","Mainly Clear"
"-105.14","69.11","CAMBRIDGE BAY A","2400601","2022-01-12 18:00","2022","01","12","18:00","-32.8","","-36.4","","71","","","","22","","3","","24.1","","101.30","","","","-36","","NA"
"-105.14","69.11","CAMBRIDGE BAY A","2400601","2022-01-12 19:00","2022","01","12","19:00","-33.2","","-36.7","","72","","","","36","","1","","24.1","","101.29","","","","-34","","NA"
"-105.14","69.11","CAMBRIDGE BAY A","2400601","2022-01-12 20:00","2022","01","12","20:00","-33.0","","-36.4","","72","","","","13","","5","","24.1","","101.33","","","","-39","","Mainly Clear"
"-105.14","69.11","CAMBRIDGE BAY A","2400601","2022-01-12 21:00","2022","01","12","21:00","-32.0","","-35.2","","74","","","","16","","8","","24.1","","101.33","","","","-40","","NA"
"-105.14","69.11","CAMBRIDGE BAY A","2400601","2022-01-12 22:00","2022","01","12","22:00","-31.2","","-34.5","","73","","","","17","","7","","24.1","","101.34","","","","-39","","NA"
"-105.14","69.11","CAMBRIDGE BAY A","2400601","2022-01-12 23:00","2022","01","12","23:00","-30.0","","-33.4","","73","","","","18","","16","","24.1","","101.36","","","","-42","","Mainly Clear"
"-105.14","69.11","CAMBRIDGE BAY A","2400601","2022-01-13 00:00","2022","01","13","00:00","-29.4","","-32.8","","73","","","","18","","14","","24.1","","101.31","","","","-40","","NA"
"-105.14","69.11","CAMBRIDGE BAY A","2400601","2022-01-13 01:00","2022","01","13","01:00","-28.9","","-32.5","","72","","","","14","","13","","24.1","","101.25","","","","-39","","NA"
"-105.14","69.11","CAMBRIDGE BAY A","2400601","2022-01-13 02:00","2022","01","13","02:00","-28.5","","-32.2","","71","","","","15","","14","","24.1","","101.28","","","","-39","","Mainly Clear"
"-105.14","69.11","CAMBRIDGE BAY A","2400601","2022-01-13 03:00","2022","01","13","03:00","-28.0","","-31.5","","73","","","","14","","16","","24.1","","101.24","","","","-39","","NA"
"-105.14","69.11","CAMBRIDGE BAY A","2400601","2022-01-13 04:00","2022","01","13","04:00","-27.2","","-30.8","","72","","","","16","","15","","24.1","","101.23","","","","-38","","NA"
"-105.14","69.11","CAMBRIDGE BAY A","2400601","2022-01-13 05:00","2022","01","13","05:00","-26.7","","-30.1","","73","","","","16","","21","","24.1","","101.22","","","","-39","","Mainly Clear"
"-105.14","69.11","CAMBRIDGE BAY A","2400601","2022-01-13 06:00","2022","01","13","06:00","-26.6","","-30.0","","73","","","","16","","16","","24.1","","101.18","","","","-38","","NA"
"-105.14","69.11","CAMBRIDGE BAY A","2400601","2022-01-13 07:00","2022","01","13","07:00","-26.0","","-29.3","","74","","","","18","","14","","24.1","","101.16","","","","-36","","NA"
"-105.14","69.11","CAMBRIDGE BAY A","2400601","2022-01-13 08:00","2022","01","13","08:00","-25.8","","-28.9","","76","","","","17","","14","","19.3","","101.16","","","","-36","","Snow"
"-105.14","69.11","CAMBRIDGE BAY A","2400601","2022-01-13 09:00","2022","01","13","09:00","-25.6","","-28.7","","76","","","","18","","14","","17.7","","101.16","","","","-36","","Snow"
"-105.14","69.11","CAMBRIDGE BAY A","2400601","2022-01-13 10:00","2022","01","13","10:00","-25.1","","-28.0","","77","","","","20","","10","","16.1","","101.15","","","","-33","","Snow"
"-105.14","69.11","CAMBRIDGE BAY A","2400601","2022-01-13 11:00","2022","01","13","11:00","-24.8","","-27.6","","78","","","","19","","9","","16.1","","101.19","","","","-32","","Snow"
"-105.14","69.11","CAMBRIDGE BAY A","2400601","2022-01-13 12:00","2022","01","13","12:00","-24.1","","-26.9","","78","","","","19","","9","","16.1","","101.18","","","","-32","","NA"
"-105.14","69.11","CAMBRIDGE BAY A","2400601","2022-01-13 13:00","2022","01","13","13:00","-23.9","","-26.5","","80","","","","26","","7","","24.1","","101.21","","","","-30","","NA"
"-105.14","69.11","CAMBRIDGE BAY A","2400601","2022-01-13 14:00","2022","01","13","14:00","-26.2","","-28.9","","78","","","","29","","12","","24.1","","101.26","","","","-36","","Mostly Cloudy"
"-105.14","69.11","CAMBRIDGE BAY A","2400601","2022-01-13 15:00","2022","01","13","15:00","-27.7","","-30.9","","75","","","","31","","28","","24.1","","101.32","","","","-42","","Blowing Snow"
"-105.14","69.11","CAMBRIDGE BAY A","2400601","2022-01-13 16:00","2022","01","13","16:00","-28.0","","-31.3","","74","","","","31","","28","","24.1","","101.38","","","","-43","","Blowing Snow"
"-105.14","69.11","CAMBRIDGE BAY A","2400601","2022-01-13 17:00","2022","01","13","17:00","-28.7","","-32.0","","73","","","","29","","25","","19.3","","101.42","","","","-43","","Snow"
"-105.14","69.11","CAMBRIDGE BAY A","2400601","2022-01-13 18:00","2022","01","13","18:00","-29.5","","-32.8","","73","","","","28","","31","","19.3","","101.45","","","","-45","","Snow,Blowing Snow"
"-105.14","69.11","CAMBRIDGE BAY A","2400601","2022-01-13 19:00","2022","01","13","19:00","-29.8","","-33.2","","73","","","","27","","23","","24.1","","101.46","","","","-44","","Blowing Snow"
"-105.14","69.11","CAMBRIDGE BAY A","2400601","2022-01-13 20:00","2022","01","13","20:00","-29.4","","-32.8","","73","","","","28","","21","","24.1","","101.46","","","","-43","","Blowing Snow"
"-105.14","69.11","CAMBRIDGE BAY A","2400601","2022-01-13 21:00","2022","01","13","21:00","-29.2","","-32.4","","75","","","","27","","20","","24.1","","101.43","","","","-42","","Ice Crystals,Blowing Snow"
"-105.14","69.11","CAMBRIDGE BAY A","2400601","2022-01-13 22:00","2022","01","13","22:00","-27.1","","-30.4","","74","","","","29","","26","","24.1","","101.44","","","","-41","","Ice Crystals,Blowing Snow"
"-105.14","69.11","CAMBRIDGE BAY A","2400601","2022-01-13 23:00","2022","01","13","23:00","-29.4","","-32.8","","73","","","","28","","27","","24.1","","101.46","","","","-44","","Ice Crystals,Blowing Snow"
"-105.14","69.11","CAMBRIDGE BAY A","2400601","2022-01-14 00:00","2022","01","14","00:00","-30.1","","-33.5","","73","","","","28","","26","","24.1","","101.48","","","","-45","","Ice Crystals,Blowing Snow"
"-105.14","69.11","CAMBRIDGE BAY A","2400601","2022-01-14 01:00","2022","01","14","01:00","-30.7","","-34.1","","73","","","","28","","19","","24.1","","101.49","","","","-44","","Ice Crystals"
"-105.14","69.11","CAMBRIDGE BAY A","2400601","2022-01-14 02:00","2022","01","14","02:00","-31.0","","-34.4","","73","","","","28","","23","","24.1","","101.47","","","","-45","","Ice Crystals"
"-105.14","69.11","CAMBRIDGE BAY A","2400601","2022-01-14 03:00","2022","01","14","03:00","-31.6","","-35.0","","72","","","","25","","17","","24.1","","101.50","","","","-44","","Ice Crystals"
"-105.14","69.11","CAMBRIDGE BAY A","2400601","2022-01-14 04:00","2022","01","14","04:00","-31.6","","-35.1","","72","","","","26","","25","","16.1","","101.52","","","","-47","","Ice Crystals"
"-105.14","69.11","CAMBRIDGE BAY A","2400601","2022-01-14 05:00","2022","01","14","05:00","-32.3","","-35.7","","72","","","","28","","22","","17.7","","101.47","","","","-47","","Ice Crystals"
"-105.14","69.11","CAMBRIDGE BAY A","2400601","2022-01-14 06:00","2022","01","14","06:00","-33.1","","-36.7","","71","","","","30","","21","","16.1","","101.39","","","","-47","","Ice Crystals"
"-105.14","69.11","CAMBRIDGE BAY A","2400601","2022-01-14 07:00","2022","01","14","07:00","-33.0","","-36.5","","71","","","","25","","4","","20.9","","101.42","","","","-38","","Ice Crystals"
"-105.14","69.11","CAMBRIDGE BAY A","2400601","2022-01-14 08:00","2022","01","14","08:00","-33.2","","-36.8","","71","","","","23","","7","","20.9","","101.43","","","","-41","","Ice Crystals"
"-105.14","69.11","CAMBRIDGE BAY A","2400601","2022-01-14 09:00","2022","01","14","09:00","-33.2","","-36.8","","71","","","","28","","15","","24.1","","101.35","","","","-45","","Ice Crystals"
"-105.14","69.11","CAMBRIDGE BAY A","2400601","2022-01-14 10:00","2022","01","14","10:00","-33.9","","-37.3","","72","","","","28","","14","","24.1","","101.31","","","","-46","","Ice Crystals"
"-105.14","69.11","CAMBRIDGE BAY A","2400601","2022-01-14 11:00","2022","01","14","11:00","-34.0","","-37.6","","71","","","","25","","7","","24.1","","101.28","","","","-42","","Ice Crystals"
"-105.14","69.11","CAMBRIDGE BAY A","2400601","2022-01-14 12:00","2022","01","14","12:00","-34.8","","-38.4","","71","","","","34","","8","","24.1","","101.23","","","","-44","","NA"
"-105.14","69.11","CAMBRIDGE BAY A","2400601","2022-01-14 13:00","2022","01","14","13:00","-35.3","","-38.8","","71","","","","34","","6","","24.1","","101.21","","","","-43","","NA"
"-105.14","69.11","CAMBRIDGE BAY A","2400601","2022-01-14 14:00","2022","01","14","14:00","-35.1","","-38.5","","72","","","","35","","8","","24.1","","101.19","","","","-44","","Mainly Clear"
"-105.14","69.11","CAMBRIDGE BAY A","2400601","2022-01-14 15:00","2022","01","14","15:00","-35.8","","-39.2","","72","","","","2","","14","","24.1","","101.17","","","","-48","","NA"
"-105.14","69.11","CAMBRIDGE BAY A","2400601","2022-01-14 16:00","2022","01","14","16:00","-32.6","","-35.7","","74","","","","2","","19","","24.1","","101.15","","","","-46","","NA"
"-105.14","69.11","CAMBRIDGE BAY A","2400601","2022-01-14 17:00","2022","01","14","17:00","-34.2","","-37.4","","73","","","","36","","2","","24.1","","101.16","","","","-37","","Mainly Clear"
"-105.14","69.11","CAMBRIDGE BAY A","2400601","2022-01-14 18:00","2022","01","14","18:00","-34.1","","-37.3","","74","","","","33","","7","","24.1","","101.16","","","","-42","","Ice Crystals"
"-105.14","69.11","CAMBRIDGE BAY A","2400601","2022-01-14 19:00","2022","01","14","19:00","-34.8","","-38.1","","73","","","","34","","13","","24.1","","101.15","","","","-46","","Ice Crystals"
"-105.14","69.11","CAMBRIDGE BAY A","2400601","2022-01-14 20:00","2022","01","14","20:00","-35.3","","-38.8","","72","","","","34","","9","","24.1","","101.15","","","","-45","","Ice Crystals"
"-105.14","69.11","CAMBRIDGE BAY A","2400601","2022-01-14 21:00","2022","01","14","21:00","-36.0","","-39.6","","71","","","","32","","19","","24.1","","101.12","","","","-50","","NA"
"-105.14","69.11","CAMBRIDGE BAY A","2400601","2022-01-14 22:00","2022","01","14","22:00","-34.5","","-38.0","","71","","","","33","","19","","24.1","","101.13","","","","-48","","NA"
"-105.14","69.11","CAMBRIDGE BAY A","2400601","2022-01-14 23:00","2022","01","14","23:00","-35.4","","-39.1","","70","","","","33","","17","","19.3","","101.13","","","","-49","","Ice Crystals"
"-105.14","69.11","CAMBRIDGE BAY A","2400601","2022-01-15 00:00","2022","01","15","00:00","-35.6","","-39.3","","70","","","","32","","26","","16.1","","101.13","","","","-52","","Ice Crystals,Blowing Snow"
"-105.14","69.11","CAMBRIDGE BAY A","2400601","2022-01-15 01:00","2022","01","15","01:00","-35.5","","-39.2","","70","","","","33","","20","","19.3","","101.14","","","","-50","","Ice Crystals"
"-105.14","69.11","CAMBRIDGE BAY A","2400601","2022-01-15 02:00","2022","01","15","02:00","-35.3","","-39.0","","70","","","","33","","35","","16.1","","101.16","","","","-54","","Ice Crystals,Blowing Snow"
"-105.14","69.11","CAMBRIDGE BAY A","2400601","2022-01-15 03:00","2022","01","15","03:00","-35.1","","-38.8","","70","","","","32","","28","","16.1","","101.16","","","","-52","","Ice Crystals,Blowing Snow"
"-105.14","69.11","CAMBRIDGE BAY A","2400601","2022-01-15 04:00","2022","01","15","04:00","-35.0","","-38.7","","70","","","","32","","25","","4.8","","101.16","","","","-51","","Ice Crystals,Blowing Snow"
"-105.14","69.11","CAMBRIDGE BAY A","2400601","2022-01-15 05:00","2022","01","15","05:00","-34.6","","-38.3","","70","","","","31","","17","","6.4","","101.18","","","","-48","","Snow,Blowing Snow"
"-105.14","69.11","CAMBRIDGE BAY A","2400601","2022-01-15 06:00","2022","01","15","06:00","-34.0","","-37.7","","70","","","","33","","16","","12.9","","101.16","","","","-47","","Snow,Blowing Snow"
"-105.14","69.11","CAMBRIDGE BAY A","2400601","2022-01-15 07:00","2022","01","15","07:00","-33.0","","-36.7","","71","","","","30","","17","","12.9","","101.18","","","","-46","","Snow,Blowing Snow"
"-105.14","69.11","CAMBRIDGE BAY A","2400601","2022-01-15 08:00","2022","01","15","08:00","-32.9","","-36.5","","71","","","","31","","19","","16.1","","101.12","","","","-46","","Snow,Blowing Snow"
"-105.14","69.11","CAMBRIDGE BAY A","2400601","2022-01-15 09:00","2022","01","15","09:00","-33.2","","-36.8","","71","","","","31","","10","","16.1","","101.12","","","","-43","","Snow"
"-105.14","69.11","CAMBRIDGE BAY A","2400601","2022-01-15 10:00","2022","01","15","10:00","-31.6","","-35.3","","71","","","","27","","8","","12.9","","101.20","","","","-40","","NA"
"-105.14","69.11","CAMBRIDGE BAY A","2400601","2022-01-15 11:00","2022","01","15","11:00","-30.5","","-34.3","","70","","","","1","","6","","12.9","","101.23","","","","-37","","Cloudy"
"-105.14","69.11","CAMBRIDGE BAY A","2400601","2022-01-15 12:00","2022","01","15","12:00","-30.4","","-34.0","","72","","","","33","","13","","12.9","","101.23","","","","-41","","Snow"
"-105.14","69.11","CAMBRIDGE BAY A","2400601","2022-01-15 13:00","2022","01","15","13:00","-30.1","","-33.8","","71","","","","34","","21","","12.9","","101.27","","","","-44","","Snow"
"-105.14","69.11","CAMBRIDGE BAY A","2400601","2022-01-15 14:00","2022","01","15","14:00","-30.6","","-34.2","","71","","","","35","","14","","12.9","","101.30","","","","-42","","Snow,Blowing Snow"
"-105.14","69.11","CAMBRIDGE BAY A","2400601","2022-01-15 15:00","2022","01","15","15:00","-30.6","","-34.4","","70","","","","34","","14","","16.1","","101.34","","","","-42","","Snow"
"-105.14","69.11","CAMBRIDGE BAY A","2400601","2022-01-15 16:00","2022","01","15","16:00","-31.1","","-34.8","","70","","","","35","","19","","24.1","","101.37","","","","-44","","Snow"
"-105.14","69.11","CAMBRIDGE BAY A","2400601","2022-01-15 17:00","2022","01","15","17:00","-32.7","","-36.4","","70","","","","34","","17","","24.1","","101.40","","","","-45","","Ice Crystals,Blowing Snow"
"-105.14","69.11","CAMBRIDGE BAY A","2400601","2022-01-15 18:00","2022","01","15","18:00","-33.5","","-37.1","","70","","","","35","","14","","24.1","","101.46","","","","-45","","Ice Crystals,Blowing Snow"
"-105.14","69.11","CAMBRIDGE BAY A","2400601","2022-01-15 19:00","2022","01","15","19:00","-33.4","","-37.0","","70","","","","34","","18","","24.1","","101.51","","","","-47","","Ice Crystals,Blowing Snow"
"-105.14","69.11","CAMBRIDGE BAY A","2400601","2022-01-15 20:00","2022","01","15","20:00","-34.4","","-38.0","","71","","","","34","","13","","24.1","","101.53","","","","-46","","Ice Crystals"
"-105.14","69.11","CAMBRIDGE BAY A","2400601","2022-01-15 21:00","2022","01","15","21:00","-35.0","","-38.7","","70","","","","34","","17","","24.1","","101.55","","","","-48","","Ice Crystals"
"-105.14","69.11","CAMBRIDGE BAY A","2400601","2022-01-15 22:00","2022","01","15","22:00","-35.2","","-38.9","","70","","","","34","","15","","24.1","","101.58","","","","-48","","Ice Crystals"
"-105.14","69.11","CAMBRIDGE BAY A","2400601","2022-01-15 23:00","2022","01","15","23:00","-34.3","","-37.9","","70","","","","34","","14","","24.1","","101.64","","","","-46","","Ice Crystals"
"-105.14","69.11","CAMBRIDGE BAY A","2400601","2022-01-16 00:00","2022","01","16","00:00","-34.6","","-38.3","","70","","","","32","","8","","24.1","","101.63","","","","-43","","Ice Crystals"
"-105.14","69.11","CAMBRIDGE BAY A","2400601","2022-01-16 01:00","2022","01","16","01:00","-35.8","","-39.6","","69","","","","31","","17","","24.1","","101.66","","","","-49","","Ice Crystals"
"-105.14","69.11","CAMBRIDGE BAY A","2400601","2022-01-16 02:00","2022","01","16","02:00","-35.7","","-39.5","","69","","","","31","","23","","24.1","","101.68","","","","-51","","Ice Crystals"
"-105.14","69.11","CAMBRIDGE BAY A","2400601","2022-01-16 03:00","2022","01","16","03:00","-35.7","","-39.5","","69","","","","32","","23","","24.1","","101.66","","","","-51","","Ice Crystals"
"-105.14","69.11","CAMBRIDGE BAY A","2400601","2022-01-16 04:00","2022","01","16","04:00","-35.0","","-38.8","","69","","","","32","","23","","24.1","","101.71","","","","-50","","Ice Crystals"
"-105.14","69.11","CAMBRIDGE BAY A","2400601","2022-01-16 05:00","2022","01","16","05:00","-34.2","","-38.0","","69","","","","32","","25","","24.1","","101.70","","","","-50","","Ice Crystals"
"-105.14","69.11","CAMBRIDGE BAY A","2400601","2022-01-16 06:00","2022","01","16","06:00","-33.1","","-36.8","","70","","","","33","","29","","19.3","","101.68","","","","-49","","Ice Crystals,Blowing Snow"
"-105.14","69.11","CAMBRIDGE BAY A","2400601","2022-01-16 07:00","2022","01","16","07:00","-32.5","","-36.4","","69","","","","32","","28","","19.3","","101.66","","","","-48","","Ice Crystals,Blowing Snow"
"-105.14","69.11","CAMBRIDGE BAY A","2400601","2022-01-16 08:00","2022","01","16","08:00","-33.5","","-37.3","","69","","","","32","","25","","19.3","","101.66","","","","-49","","Ice Crystals,Blowing Snow"
"-105.14","69.11","CAMBRIDGE BAY A","2400601","2022-01-16 09:00","2022","01","16","09:00","-32.6","","-36.5","","69","","","","32","","20","","19.3","","101.66","","","","-46","","Ice Crystals"
"-105.14","69.11","CAMBRIDGE BAY A","2400601","2022-01-16 10:00","2022","01","16","10:00","-31.5","","-35.7","","67","","","","33","","19","","16.1","","101.62","","","","-45","","Ice Crystals"
"-105.14","69.11","CAMBRIDGE BAY A","2400601","2022-01-16 11:00","2022","01","16","11:00","-31.7","","-35.8","","68","","","","33","","20","","16.1","","101.58","","","","-45","","Ice Crystals"
"-105.14","69.11","CAMBRIDGE BAY A","2400601","2022-01-16 12:00","2022","01","16","12:00","-33.0","","-37.0","","68","","","","32","","20","","19.3","","101.57","","","","-47","","Ice Crystals"
"-105.14","69.11","CAMBRIDGE BAY A","2400601","2022-01-16 13:00","2022","01","16","13:00","-33.2","","-37.2","","69","","","","32","","17","","16.1","","101.56","","","","-46","","Ice Crystals"
"-105.14","69.11","CAMBRIDGE BAY A","2400601","2022-01-16 14:00","2022","01","16","14:00","-33.5","","-37.4","","69","","","","32","","23","","19.3","","101.55","","","","-48","","Ice Crystals"
"-105.14","69.11","CAMBRIDGE BAY A","2400601","2022-01-16 15:00","2022","01","16","15:00","-34.0","","-38.0","","68","","","","31","","16","","19.3","","101.54","","","","-47","","Ice Crystals"
"-105.14","69.11","CAMBRIDGE BAY A","2400601","2022-01-16 16:00","2022","01","16","16:00","-34.4","","-38.5","","68","","","","31","","22","","19.3","","101.53","","","","-49","","Ice Crystals"
"-105.14","69.11","CAMBRIDGE BAY A","2400601","2022-01-16 17:00","2022","01","16","17:00","-34.7","","-38.6","","68","","","","32","","17","","19.3","","101.54","","","","-48","","Ice Crystals"
"-105.14","69.11","CAMBRIDGE BAY A","2400601","2022-01-16 18:00","2022","01","16","18:00","-33.8","","-37.8","","69","","","","31","","17","","19.3","","101.53","","","","-47","","Ice Crystals"
"-105.14","69.11","CAMBRIDGE BAY A","2400601","2022-01-16 19:00","2022","01","16","19:00","-33.6","","-37.5","","69","","","","32","","21","","19.3","","101.49","","","","-48","","Ice Crystals"
"-105.14","69.11","CAMBRIDGE BAY A","2400601","2022-01-16 20:00","2022","01","16","20:00","-33.5","","-37.5","","68","","","","32","","23","","19.3","","101.54","","","","-48","","Ice Crystals"
"-105.14","69.11","CAMBRIDGE BAY A","2400601","2022-01-16 21:00","2022","01","16","21:00","-33.1","","-37.0","","68","","","","32","","26","","19.3","","101.49","","","","-49","","Ice Crystals,Blowing Snow"
"-105.14","69.11","CAMBRIDGE BAY A","2400601","2022-01-16 22:00","2022","01","16","22:00","-32.9","","-36.8","","69","","","","33","","31","","19.3","","101.45","","","","-50","","Ice Crystals,Blowing Snow"
"-105.14","69.11","CAMBRIDGE BAY A","2400601","2022-01-16 23:00","2022","01","16","23:00","-32.2","","-36.0","","70","","","","30","","28","","19.3","","101.45","","","","-48","","Ice Crystals,Blowing Snow"
"-105.14","69.11","CAMBRIDGE BAY A","2400601","2022-01-17 00:00","2022","01","17","00:00","-32.6","","-36.4","","70","","","","31","","34","","24.1","","101.46","","","","-50","","Ice Crystals,Blowing Snow"
"-105.14","69.11","CAMBRIDGE BAY A","2400601","2022-01-17 01:00","2022","01","17","01:00","-32.6","","-36.3","","70","","","","32","","29","","19.3","","101.45","","","","-49","","Ice Crystals,Blowing Snow"
"-105.14","69.11","CAMBRIDGE BAY A","2400601","2022-01-17 02:00","2022","01","17","02:00","-32.3","","-36.0","","70","","","","31","","21","","24.1","","101.50","","","","-46","","Ice Crystals,Blowing Snow"
"-105.14","69.11","CAMBRIDGE BAY A","2400601","2022-01-17 03:00","2022","01","17","03:00","-32.4","","-36.1","","70","","","","30","","22","","19.3","","101.52","","","","-47","","Ice Crystals,Blowing Snow"
"-105.14","69.11","CAMBRIDGE BAY A","2400601","2022-01-17 04:00","2022","01","17","04:00","-32.6","","-36.3","","71","","","","31","","30","","24.1","","101.46","","","","-49","","Ice Crystals,Blowing Snow"
"-105.14","69.11","CAMBRIDGE BAY A","2400601","2022-01-17 05:00","2022","01","17","05:00","-32.8","","-36.6","","70","","","","32","","32","","24.1","","101.49","","","","-50","","Ice Crystals,Blowing Snow"
"-105.14","69.11","CAMBRIDGE BAY A","2400601","2022-01-17 06:00","2022","01","17","06:00","-33.2","","-37.0","","69","","","","32","","20","","24.1","","101.49","","","","-47","","Ice Crystals,Blowing Snow"
"-105.14","69.11","CAMBRIDGE BAY A","2400601","2022-01-17 07:00","2022","01","17","07:00","-33.7","","-37.6","","69","","","","29","","11","","24.1","","101.48","","","","-44","","Ice Crystals"
"-105.14","69.11","CAMBRIDGE BAY A","2400601","2022-01-17 08:00","2022","01","17","08:00","-32.5","","-36.2","","70","","","","29","","19","","24.1","","101.49","","","","-46","","Snow"
"-105.14","69.11","CAMBRIDGE BAY A","2400601","2022-01-17 09:00","2022","01","17","09:00","-31.1","","-34.9","","70","","","","31","","28","","8.1","","101.47","","","","-47","","Snow,Fog,Blowing Snow"
"-105.14","69.11","CAMBRIDGE BAY A","2400601","2022-01-17 10:00","2022","01","17","10:00","-29.4","","-32.9","","72","","","","29","","25","","12.9","","101.46","","","","-44","","Snow,Fog,Blowing Snow"
"-105.14","69.11","CAMBRIDGE BAY A","2400601","2022-01-17 11:00","2022","01","17","11:00","-27.8","","-31.1","","74","","","","29","","26","","3.2","","101.40","","","","-42","","Snow,Blowing Snow"
"-105.14","69.11","CAMBRIDGE BAY A","2400601","2022-01-17 12:00","2022","01","17","12:00","-25.8","","-28.9","","75","","","","30","","38","","0.8","","101.36","","","","-42","","Snow,Blowing Snow"
"-105.14","69.11","CAMBRIDGE BAY A","2400601","2022-01-17 13:00","2022","01","17","13:00","-26.1","","-29.2","","76","","","","31","","27","","1.2","","101.40","","","","-40","","Snow,Blowing Snow"
"-105.14","69.11","CAMBRIDGE BAY A","2400601","2022-01-17 14:00","2022","01","17","14:00","-27.1","","-30.2","","75","","","","32","","30","","1.2","","101.47","","","","-42","","Blowing Snow"
"-105.14","69.11","CAMBRIDGE BAY A","2400601","2022-01-17 15:00","2022","01","17","15:00","-27.1","","-30.3","","75","","","","31","","26","","2.4","","101.51","","","","-41","","Blowing Snow"
"-105.14","69.11","CAMBRIDGE BAY A","2400601","2022-01-17 16:00","2022","01","17","16:00","-27.6","","-30.8","","75","","","","31","","25","","4.8","","101.54","","","","-41","","Ice Crystals,Blowing Snow"
"-105.14","69.11","CAMBRIDGE BAY A","2400601","2022-01-17 17:00","2022","01","17","17:00","-27.4","","-30.6","","75","","","","32","","41","","1.6","","101.51","","","","-44","","Blowing Snow"
"-105.14","69.11","CAMBRIDGE BAY A","2400601","2022-01-17 18:00","2022","01","17","18:00","-27.6","","-30.8","","75","","","","31","","19","","1.6","","101.61","","","","-40","","Blowing Snow"
"-105.14","69.11","CAMBRIDGE BAY A","2400601","2022-01-17 19:00","2022","01","17","19:00","-27.4","","-30.5","","76","","","","28","","14","","3.2","","101.66","","","","-38","","Ice Crystals,Fog"
"-105.14","69.11","CAMBRIDGE BAY A","2400601","2022-01-17 20:00","2022","01","17","20:00","-24.5","","-27.8","","75","","","","35","","27","","3.2","","101.59","","","","-38","","Ice Crystals,Blowing Snow"
"-105.14","69.11","CAMBRIDGE BAY A","2400601","2022-01-17 21:00","2022","01","17","21:00","-25.4","","-28.6","","75","","","","34","","32","","2.4","","101.66","","","","-40","","Ice Crystals,Blowing Snow"
"-105.14","69.11","CAMBRIDGE BAY A","2400601","2022-01-17 22:00","2022","01","17","22:00","-25.8","","-28.9","","76","","","","34","","31","","4.8","","101.66","","","","-40","","Ice Crystals,Blowing Snow"
"-105.14","69.11","CAMBRIDGE BAY A","2400601","2022-01-17 23:00","2022","01","17","23:00","-25.7","","-28.7","","76","","","","30","","20","","2.4","","101.74","","","","-38","","Fog,Blowing Snow"
"-105.14","69.11","CAMBRIDGE BAY A","2400601","2022-01-18 00:00","2022","01","18","00:00","-23.4","","-26.2","","79","","","","36","","25","","2.4","","101.75","","","","-36","","Ice Crystals,Fog,Blowing Snow"
"-105.14","69.11","CAMBRIDGE BAY A","2400601","2022-01-18 01:00","2022","01","18","01:00","-23.7","","-26.5","","78","","","","34","","31","","2.4","","101.79","","","","-38","","Ice Crystals,Fog,Blowing Snow"
"-105.14","69.11","CAMBRIDGE BAY A","2400601","2022-01-18 02:00","2022","01","18","02:00","-23.5","","-26.4","","77","","","","31","","20","","4.8","","101.92","","","","-35","","Ice Crystals,Fog"
"-105.14","69.11","CAMBRIDGE BAY A","2400601","2022-01-18 03:00","2022","01","18","03:00","-23.6","","-26.8","","75","","","","31","","21","","4.8","","101.97","","","","-35","","Ice Crystals,Fog,Blowing Snow"
"-105.14","69.11","CAMBRIDGE BAY A","2400601","2022-01-18 04:00","2022","01","18","04:00","-23.6","","-27.0","","74","","","","35","","29","","9.7","","101.98","","","","-37","","Ice Crystals,Blowing Snow"
"-105.14","69.11","CAMBRIDGE BAY A","2400601","2022-01-18 05:00","2022","01","18","05:00","-23.3","","-26.9","","73","","","","35","","37","","6.4","","101.99","","","","-38","","Ice Crystals,Blowing Snow"
"-105.14","69.11","CAMBRIDGE BAY A","2400601","2022-01-18 06:00","2022","01","18","06:00","-24.1","","-27.7","","73","","","","35","","28","","4.8","","102.02","","","","-38","","Ice Crystals,Blowing Snow"
"-105.14","69.11","CAMBRIDGE BAY A","2400601","2022-01-18 07:00","2022","01","18","07:00","-24.7","","-27.9","","75","","","","34","","30","","12.9","","102.08","","","","-39","","Ice Crystals,Blowing Snow"
"-105.14","69.11","CAMBRIDGE BAY A","2400601","2022-01-18 08:00","2022","01","18","08:00","-24.6","","-28.0","","74","","","","34","","28","","19.3","","102.15","","","","-38","","Ice Crystals,Blowing Snow"
"-105.14","69.11","CAMBRIDGE BAY A","2400601","2022-01-18 09:00","2022","01","18","09:00","-27.2","","-30.5","","74","","","","29","","21","","24.1","","102.23","","","","-40","","Ice Crystals"
"-105.14","69.11","CAMBRIDGE BAY A","2400601","2022-01-18 10:00","2022","01","18","10:00","-27.5","","-30.8","","74","","","","31","","27","","24.1","","102.25","","","","-42","","Ice Crystals"
"-105.14","69.11","CAMBRIDGE BAY A","2400601","2022-01-18 11:00","2022","01","18","11:00","-27.1","","-30.5","","73","","","","31","","28","","24.1","","102.24","","","","-41","","Ice Crystals"
"-105.14","69.11","CAMBRIDGE BAY A","2400601","2022-01-18 12:00","2022","01","18","12:00","-27.8","","-31.4","","72","","","","31","","30","","24.1","","102.28","","","","-43","","Ice Crystals,Blowing Snow"
"-105.14","69.11","CAMBRIDGE BAY A","2400601","2022-01-18 13:00","2022","01","18","13:00","-28.3","","-31.7","","73","","","","30","","24","","24.1","","102.34","","","","-42","","Ice Crystals,Blowing Snow"
"-105.14","69.11","CAMBRIDGE BAY A","2400601","2022-01-18 14:00","2022","01","18","14:00","-27.5","","-30.9","","74","","","","31","","26","","22.5","","102.32","","","","-41","","Ice Crystals,Blowing Snow"
"-105.14","69.11","CAMBRIDGE BAY A","2400601","2022-01-18 15:00","2022","01","18","15:00","-27.2","","-30.5","","74","","","","32","","27","","12.9","","102.33","","","","-41","","Ice Crystals,Blowing Snow"
"-105.14","69.11","CAMBRIDGE BAY A","2400601","2022-01-18 16:00","2022","01","18","16:00","-27.0","","-30.4","","73","","","","32","","25","","22.5","","102.34","","","","-41","","Ice Crystals,Blowing Snow"
"-105.14","69.11","CAMBRIDGE BAY A","2400601","2022-01-18 17:00","2022","01","18","17:00","-27.2","","-30.6","","74","","","","30","","21","","24.1","","102.36","","","","-40","","Ice Crystals,Blowing Snow"
"-105.14","69.11","CAMBRIDGE BAY A","2400601","2022-01-18 18:00","2022","01","18","18:00","-28.5","","-31.6","","75","","","","24","","15","","24.1","","102.38","","","","-40","","Ice Crystals"
"-105.14","69.11","CAMBRIDGE BAY A","2400601","2022-01-18 19:00","2022","01","18","19:00","-27.1","","-30.2","","76","","","","29","","19","","24.1","","102.34","","","","-39","","Ice Crystals"
"-105.14","69.11","CAMBRIDGE BAY A","2400601","2022-01-18 20:00","2022","01","18","20:00","-26.2","","-29.3","","75","","","","28","","23","","4.8","","102.28","","","","-39","","Snow,Blowing Snow"
"-105.14","69.11","CAMBRIDGE BAY A","2400601","2022-01-18 21:00","2022","01","18","21:00","-25.8","","-28.9","","75","","","","29","","15","","12.9","","102.27","","","","-36","","Snow"
"-105.14","69.11","CAMBRIDGE BAY A","2400601","2022-01-18 22:00","2022","01","18","22:00","-26.0","","-29.1","","75","","","","30","","22","","16.1","","102.20","","","","-39","","Snow"
"-105.14","69.11","CAMBRIDGE BAY A","2400601","2022-01-18 23:00","2022","01","18","23:00","-26.6","","-29.7","","75","","","","27","","22","","14.5","","102.17","","","","-39","","Snow"
"-105.14","69.11","CAMBRIDGE BAY A","2400601","2022-01-19 00:00","2022","01","19","00:00","-27.2","","-30.4","","75","","","","28","","18","","12.9","","102.19","","","","-39","","Snow"
"-105.14","69.11","CAMBRIDGE BAY A","2400601","2022-01-19 01:00","2022","01","19","01:00","-27.6","","-30.7","","76","","","","28","","16","","14.5","","102.14","","","","-39","","Snow"
"-105.14","69.11","CAMBRIDGE BAY A","2400601","2022-01-19 02:00","2022","01","19","02:00","-28.9","","-32.0","","75","","","","28","","19","","16.1","","102.12","","","","-41","","Snow"
"-105.14","69.11","CAMBRIDGE BAY A","2400601","2022-01-19 03:00","2022","01","19","03:00","-30.1","","-33.3","","75","","","","31","","10","","24.1","","102.12","","","","-39","","NA"
"-105.14","69.11","CAMBRIDGE BAY A","2400601","2022-01-19 04:00","2022","01","19","04:00","-30.7","","-33.8","","75","","","","20","","3","","24.1","","102.05","","","","-34","","NA"
"-105.14","69.11","CAMBRIDGE BAY A","2400601","2022-01-19 05:00","2022","01","19","05:00","-30.3","","-33.3","","76","","","","25","","8","","24.1","","102.02","","","","-38","","Mostly Cloudy"
"-105.14","69.11","CAMBRIDGE BAY A","2400601","2022-01-19 06:00","2022","01","19","06:00","-30.9","","-34.1","","75","","","","27","","12","","24.1","","101.96","","","","-41","","NA"
"-105.14","69.11","CAMBRIDGE BAY A","2400601","2022-01-19 07:00","2022","01","19","07:00","-31.2","","-34.4","","75","","","","26","","13","","24.1","","101.88","","","","-42","","NA"
"-105.14","69.11","CAMBRIDGE BAY A","2400601","2022-01-19 08:00","2022","01","19","08:00","-32.0","","-35.1","","74","","","","28","","12","","24.1","","101.78","","","","-43","","Mainly Clear"
"-105.14","69.11","CAMBRIDGE BAY A","2400601","2022-01-19 09:00","2022","01","19","09:00","-32.0","","-35.1","","75","","","","26","","12","","24.1","","101.71","","","","-43","","NA"
"-105.14","69.11","CAMBRIDGE BAY A","2400601","2022-01-19 10:00","2022","01","19","10:00","-31.5","","-34.5","","76","","","","23","","7","","24.1","","101.63","","","","-39","","NA"
"-105.14","69.11","CAMBRIDGE BAY A","2400601","2022-01-19 11:00","2022","01","19","11:00","-31.9","","-35.0","","74","","","","18","","4","","24.1","","101.53","","","","-37","","Mainly Clear"
"-105.14","69.11","CAMBRIDGE BAY A","2400601","2022-01-19 12:00","2022","01","19","12:00","-31.3","","-34.4","","75","","","","21","","9","","24.1","","101.48","","","","-40","","NA"
"-105.14","69.11","CAMBRIDGE BAY A","2400601","2022-01-19 13:00","2022","01","19","13:00","-31.3","","-34.3","","75","","","","22","","8","","24.1","","101.44","","","","-40","","NA"
"-105.14","69.11","CAMBRIDGE BAY A","2400601","2022-01-19 14:00","2022","01","19","14:00","-31.4","","-34.4","","76","","","","36","","2","","24.1","","101.34","","","","-34","","Mainly Clear"
"-105.14","69.11","CAMBRIDGE BAY A","2400601","2022-01-19 15:00","2022","01","19","15:00","-32.2","","-35.4","","74","","","","12","","5","","24.1","","101.27","","","","-38","","NA"
"-105.14","69.11","CAMBRIDGE BAY A","2400601","2022-01-19 16:00","2022","01","19","16:00","-30.7","","-33.9","","75","","","","12","","5","","24.1","","101.20","","","","-36","","NA"
"-105.14","69.11","CAMBRIDGE BAY A","2400601","2022-01-19 17:00","2022","01","19","17:00","-32.0","","-35.3","","73","","","","12","","8","","24.1","","101.07","","","","-40","","Mainly Clear"
"-105.14","69.11","CAMBRIDGE BAY A","2400601","2022-01-19 18:00","2022","01","19","18:00","-30.5","","-33.6","","74","","","","10","","3","","24.1","","100.98","","","","-34","","NA"
"-105.14","69.11","CAMBRIDGE BAY A","2400601","2022-01-19 19:00","2022","01","19","19:00","-29.2","","-32.3","","75","","","","18","","4","","24.1","","100.84","","","","-34","","NA"
"-105.14","69.11","CAMBRIDGE BAY A","2400601","2022-01-19 20:00","2022","01","19","20:00","-28.8","","-31.9","","75","","","","15","","14","","24.1","","100.69","","","","-40","","Mainly Clear"
"-105.14","69.11","CAMBRIDGE BAY A","2400601","2022-01-19 21:00","2022","01","19","21:00","-28.4","","-31.4","","76","","","","16","","8","","24.1","","100.57","","","","-36","","NA"
"-105.14","69.11","CAMBRIDGE BAY A","2400601","2022-01-19 22:00","2022","01","19","22:00","-27.9","","-30.9","","76","","","","18","","12","","24.1","","100.44","","","","-38","","NA"
"-105.14","69.11","CAMBRIDGE BAY A","2400601","2022-01-19 23:00","2022","01","19","23:00","-27.7","","-30.7","","76","","","","21","","8","","24.1","","100.36","","","","-35","","Mostly Cloudy"
"-105.14","69.11","CAMBRIDGE BAY A","2400601","2022-01-20 00:00","2022","01","20","00:00","-27.6","","-30.6","","76","","","","22","","7","","24.1","","100.26","","","","-34","","NA"
"-105.14","69.11","CAMBRIDGE BAY A","2400601","2022-01-20 01:00","2022","01","20","01:00","-27.1","","-30.0","","76","","","","20","","9","","24.1","","100.16","","","","-35","","NA"
"-105.14","69.11","CAMBRIDGE BAY A","2400601","2022-01-20 02:00","2022","01","20","02:00","-25.6","","-28.4","","78","","","","21","","10","","16.1","","100.03","","","","-34","","Mostly Cloudy"
"-105.14","69.11","CAMBRIDGE BAY A","2400601","2022-01-20 03:00","2022","01","20","03:00","-24.4","","-27.2","","78","","","","26","","15","","24.1","","99.96","","","","-35","","NA"
"-105.14","69.11","CAMBRIDGE BAY A","2400601","2022-01-20 04:00","2022","01","20","04:00","-24.3","","-27.1","","78","","","","28","","13","","14.5","","99.87","","","","-34","","Snow"
"-105.14","69.11","CAMBRIDGE BAY A","2400601","2022-01-20 05:00","2022","01","20","05:00","-24.4","","-27.2","","78","","","","29","","15","","8.1","","99.77","","","","-35","","Snow"
"-105.14","69.11","CAMBRIDGE BAY A","2400601","2022-01-20 06:00","2022","01","20","06:00","-24.4","","-27.2","","78","","","","28","","18","","9.7","","99.73","","","","-35","","Snow"
"-105.14","69.11","CAMBRIDGE BAY A","2400601","2022-01-20 07:00","2022","01","20","07:00","-27.4","","-30.4","","76","","","","29","","21","","14.5","","99.66","","","","-40","","Snow"
"-105.14","69.11","CAMBRIDGE BAY A","2400601","2022-01-20 08:00","2022","01","20","08:00","-28.7","","-31.9","","75","","","","27","","15","","24.1","","99.62","","","","-40","","Mainly Clear"
"-105.14","69.11","CAMBRIDGE BAY A","2400601","2022-01-20 09:00","2022","01","20","09:00","-29.8","","-33.0","","74","","","","29","","25","","24.1","","99.55","","","","-44","","NA"
"-105.14","69.11","CAMBRIDGE BAY A","2400601","2022-01-20 10:00","2022","01","20","10:00","-29.0","","-32.2","","75","","","","30","","26","","19.3","","99.56","","","","-43","","Blowing Snow"
"-105.14","69.11","CAMBRIDGE BAY A","2400601","2022-01-20 11:00","2022","01","20","11:00","-28.9","","-32.1","","74","","","","31","","34","","12.9","","99.52","","","","-45","","Blowing Snow"
"-105.14","69.11","CAMBRIDGE BAY A","2400601","2022-01-20 12:00","2022","01","20","12:00","-30.7","","-34.0","","73","","","","32","","37","","12.9","","99.49","","","","-48","","Blowing Snow"
"-105.14","69.11","CAMBRIDGE BAY A","2400601","2022-01-20 13:00","2022","01","20","13:00","-31.1","","-34.5","","73","","","","31","","26","","12.9","","99.59","","","","-46","","Blowing Snow"
"-105.14","69.11","CAMBRIDGE BAY A","2400601","2022-01-20 14:00","2022","01","20","14:00","-31.6","","-35.1","","72","","","","30","","32","","12.9","","99.63","","","","-48","","Blowing Snow"
"-105.14","69.11","CAMBRIDGE BAY A","2400601","2022-01-20 15:00","2022","01","20","15:00","-31.7","","-35.1","","73","","","","31","","28","","16.1","","99.68","","","","-47","","Blowing Snow"
"-105.14","69.11","CAMBRIDGE BAY A","2400601","2022-01-20 16:00","2022","01","20","16:00","-31.8","","-35.2","","72","","","","31","","31","","19.3","","99.71","","","","-48","","Blowing Snow"
"-105.14","69.11","CAMBRIDGE BAY A","2400601","2022-01-20 17:00","2022","01","20","17:00","-32.7","","-36.2","","72","","","","31","","31","","11.3","","99.74","","","","-49","","Blowing Snow"
"-105.14","69.11","CAMBRIDGE BAY A","2400601","2022-01-20 18:00","2022","01","20","18:00","-33.3","","-36.9","","71","","","","30","","31","","12.9","","99.78","","","","-50","","Blowing Snow"
"-105.14","69.11","CAMBRIDGE BAY A","2400601","2022-01-20 19:00","2022","01","20","19:00","-33.0","","-36.5","","71","","","","31","","40","","4.8","","99.75","","","","-52","","Snow,Blowing Snow"
"-105.14","69.11","CAMBRIDGE BAY A","2400601","2022-01-20 20:00","2022","01","20","20:00","-33.7","","-37.3","","71","","","","30","","32","","4.8","","99.79","","","","-51","","Snow,Blowing Snow"
"-105.14","69.11","CAMBRIDGE BAY A","2400601","2022-01-20 21:00","2022","01","20","21:00","-33.8","","-37.4","","71","","","","31","","43","","4.8","","99.77","","","","-53","","Snow,Blowing Snow"
"-105.14","69.11","CAMBRIDGE BAY A","2400601","2022-01-20 22:00","2022","01","20","22:00","-33.8","","-37.4","","71","","","","31","","31","","2.4","","99.88","","","","-51","","Blowing Snow"
"-105.14","69.11","CAMBRIDGE BAY A","2400601","2022-01-20 23:00","2022","01","20","23:00","-33.6","","-37.2","","71","","","","32","","30","","2.4","","99.88","","","","-50","","Blowing Snow"
"-105.14","69.11","CAMBRIDGE BAY A","2400601","2022-01-21 00:00","2022","01","21","00:00","-33.1","","-36.6","","71","","","","32","","28","","4.8","","100.00","","","","-49","","Ice Crystals,Blowing Snow"
"-105.14","69.11","CAMBRIDGE BAY A","2400601","2022-01-21 01:00","2022","01","21","01:00","-32.0","","-35.4","","72","","","","32","","37","","2.4","","100.07","","","","-50","","Blowing Snow"
"-105.14","69.11","CAMBRIDGE BAY A","2400601","2022-01-21 02:00","2022","01","21","02:00","-31.7","","-35.2","","72","","","","32","","41","","1.6","","100.14","","","","-50","","Blowing Snow"
"-105.14","69.11","CAMBRIDGE BAY A","2400601","2022-01-21 03:00","2022","01","21","03:00","-32.3","","-35.8","","72","","","","32","","30","","1.6","","100.28","","","","-49","","Blowing Snow"
"-105.14","69.11","CAMBRIDGE BAY A","2400601","2022-01-21 04:00","2022","01","21","04:00","-32.4","","-35.9","","72","","","","31","","35","","1.6","","100.31","","","","-50","","Blowing Snow"
"-105.14","69.11","CAMBRIDGE BAY A","2400601","2022-01-21 05:00","2022","01","21","05:00","-32.1","","-35.6","","72","","","","30","","30","","1.6","","100.35","","","","-48","","Blowing Snow"
"-105.14","69.11","CAMBRIDGE BAY A","2400601","2022-01-21 06:00","2022","01","21","06:00","-31.6","","-35.0","","72","","","","27","","26","","4.0","","100.40","","","","-47","","Ice Crystals,Blowing Snow"
"-105.14","69.11","CAMBRIDGE BAY A","2400601","2022-01-21 07:00","2022","01","21","07:00","-31.4","","-34.9","","72","","","","28","","26","","3.2","","100.39","","","","-47","","Snow,Blowing Snow"
"-105.14","69.11","CAMBRIDGE BAY A","2400601","2022-01-21 08:00","2022","01","21","08:00","-31.6","","-35.1","","72","","","","31","","34","","1.6","","100.38","","","","-49","","Blowing Snow"
"-105.14","69.11","CAMBRIDGE BAY A","2400601","2022-01-21 09:00","2022","01","21","09:00","-31.5","","-35.0","","72","","","","32","","40","","2.0","","100.38","","","","-50","","Blowing Snow"
"-105.14","69.11","CAMBRIDGE BAY A","2400601","2022-01-21 10:00","2022","01","21","10:00","-31.9","","-35.6","","71","","","","27","","27","","4.0","","100.49","","","","-47","","Fog,Blowing Snow"
"-105.14","69.11","CAMBRIDGE BAY A","2400601","2022-01-21 11:00","2022","01","21","11:00","-32.2","","-35.8","","71","","","","29","","26","","4.8","","100.53","","","","-48","","Fog,Blowing Snow"
"-105.14","69.11","CAMBRIDGE BAY A","2400601","2022-01-21 12:00","2022","01","21","12:00","-31.6","","-35.3","","71","","","","30","","27","","2.8","","100.57","","","","-47","","Fog,Blowing Snow"
"-105.14","69.11","CAMBRIDGE BAY A","2400601","2022-01-21 13:00","2022","01","21","13:00","-32.1","","-35.8","","70","","","","31","","32","","4.8","","100.59","","","","-49","","Blowing Snow"
"-105.14","69.11","CAMBRIDGE BAY A","2400601","2022-01-21 14:00","2022","01","21","14:00","-32.7","","-36.5","","70","","","","31","","34","","4.8","","100.65","","","","-50","","Blowing Snow"
"-105.14","69.11","CAMBRIDGE BAY A","2400601","2022-01-21 15:00","2022","01","21","15:00","-32.9","","-36.8","","69","","","","30","","34","","19.3","","100.69","","","","-50","","Blowing Snow"
"-105.14","69.11","CAMBRIDGE BAY A","2400601","2022-01-21 16:00","2022","01","21","16:00","-33.4","","-37.2","","69","","","","31","","29","","19.3","","100.72","","","","-50","","Blowing Snow"
"-105.14","69.11","CAMBRIDGE BAY A","2400601","2022-01-21 17:00","2022","01","21","17:00","-33.1","","-36.9","","70","","","","31","","33","","19.3","","100.76","","","","-50","","Blowing Snow"
"-105.14","69.11","CAMBRIDGE BAY A","2400601","2022-01-21 18:00","2022","01","21","18:00","-33.2","","-36.9","","70","","","","30","","32","","19.3","","100.82","","","","-50","","Blowing Snow"
"-105.14","69.11","CAMBRIDGE BAY A","2400601","2022-01-21 19:00","2022","01","21","19:00","-33.1","","-36.8","","70","","","","29","","31","","12.9","","100.86","","","","-50","","Blowing Snow"
"-105.14","69.11","CAMBRIDGE BAY A","2400601","2022-01-21 20:00","2022","01","21","20:00","-32.6","","-36.1","","71","","","","32","","36","","2.4","","100.82","","","","-50","","Ice Crystals,Blowing Snow"
"-105.14","69.11","CAMBRIDGE BAY A","2400601","2022-01-21 21:00","2022","01","21","21:00","-32.2","","-35.8","","71","","","","30","","37","","1.6","","100.92","","","","-50","","Blowing Snow"
"-105.14","69.11","CAMBRIDGE BAY A","2400601","2022-01-21 22:00","2022","01","21","22:00","-32.0","","-35.6","","72","","","","32","","42","","1.2","","100.92","","","","-51","","Blowing Snow"
"-105.14","69.11","CAMBRIDGE BAY A","2400601","2022-01-21 23:00","2022","01","21","23:00","-32.2","","-35.8","","72","","","","32","","35","","1.2","","100.95","","","","-50","","Blowing Snow"
"-105.14","69.11","CAMBRIDGE BAY A","2400601","2022-01-22 00:00","2022","01","22","00:00","-31.9","","-35.5","","71","","","","31","","41","","1.2","","101.02","","","","-50","","Blowing Snow"
"-105.14","69.11","CAMBRIDGE BAY A","2400601","2022-01-22 01:00","2022","01","22","01:00","-32.1","","-35.8","","71","","","","32","","37","","1.2","","101.08","","","","-50","","Blowing Snow"
"-105.14","69.11","CAMBRIDGE BAY A","2400601","2022-01-22 02:00","2022","01","22","02:00","-33.2","","-37.0","","70","","","","29","","31","","1.0","","101.16","","","","-50","","Blowing Snow"
"-105.14","69.11","CAMBRIDGE BAY A","2400601","2022-01-22 03:00","2022","01","22","03:00","-32.6","","-36.5","","69","","","","29","","32","","1.6","","101.22","","","","-49","","Blowing Snow"
"-105.14","69.11","CAMBRIDGE BAY A","2400601","2022-01-22 04:00","2022","01","22","04:00","-33.1","","-36.9","","70","","","","30","","36","","2.4","","101.17","","","","-51","","Ice Crystals,Blowing Snow"
"-105.14","69.11","CAMBRIDGE BAY A","2400601","2022-01-22 05:00","2022","01","22","05:00","-33.2","","-36.9","","70","","","","28","","26","","4.0","","101.20","","","","-49","","Ice Crystals,Blowing Snow"
"-105.14","69.11","CAMBRIDGE BAY A","2400601","2022-01-22 06:00","2022","01","22","06:00","-32.5","","-36.2","","71","","","","31","","29","","2.4","","101.18","","","","-49","","Ice Crystals,Blowing Snow"
"-105.14","69.11","CAMBRIDGE BAY A","2400601","2022-01-22 07:00","2022","01","22","07:00","-32.6","","-36.2","","71","","","","30","","31","","2.4","","101.19","","","","-49","","Ice Crystals,Blowing Snow"
"-105.14","69.11","CAMBRIDGE BAY A","2400601","2022-01-22 08:00","2022","01","22","08:00","-32.3","","-35.9","","71","","","","31","","30","","9.7","","101.22","","","","-49","","Ice Crystals,Blowing Snow"
"-105.14","69.11","CAMBRIDGE BAY A","2400601","2022-01-22 09:00","2022","01","22","09:00","-31.9","","-35.5","","71","","","","31","","30","","9.7","","101.23","","","","-48","","Ice Crystals,Blowing Snow"
"-105.14","69.11","CAMBRIDGE BAY A","2400601","2022-01-22 10:00","2022","01","22","10:00","-31.9","","-35.5","","71","","","","30","","30","","9.7","","101.23","","","","-48","","Ice Crystals,Blowing Snow"
"-105.14","69.11","CAMBRIDGE BAY A","2400601","2022-01-22 11:00","2022","01","22","11:00","-31.7","","-35.3","","72","","","","29","","22","","9.7","","101.27","","","","-46","","Ice Crystals,Blowing Snow"
"-105.14","69.11","CAMBRIDGE BAY A","2400601","2022-01-22 12:00","2022","01","22","12:00","-31.5","","-35.0","","72","","","","30","","28","","4.8","","101.25","","","","-47","","Ice Crystals,Blowing Snow"
"-105.14","69.11","CAMBRIDGE BAY A","2400601","2022-01-22 13:00","2022","01","22","13:00","-31.9","","-35.4","","72","","","","29","","22","","4.8","","101.28","","","","-46","","Ice Crystals,Blowing Snow"
"-105.14","69.11","CAMBRIDGE BAY A","2400601","2022-01-22 14:00","2022","01","22","14:00","-32.0","","-35.6","","71","","","","31","","29","","4.8","","101.30","","","","-48","","Ice Crystals,Blowing Snow"
"-105.14","69.11","CAMBRIDGE BAY A","2400601","2022-01-22 15:00","2022","01","22","15:00","-32.2","","-35.7","","72","","","","30","","21","","3.2","","101.38","","","","-46","","Blowing Snow"
"-105.14","69.11","CAMBRIDGE BAY A","2400601","2022-01-22 16:00","2022","01","22","16:00","-32.5","","-36.0","","72","","","","31","","27","","3.2","","101.32","","","","-48","","Blowing Snow"
"-105.14","69.11","CAMBRIDGE BAY A","2400601","2022-01-22 17:00","2022","01","22","17:00","-32.4","","-36.0","","72","","","","33","","30","","3.2","","101.36","","","","-49","","Blowing Snow"
"-105.14","69.11","CAMBRIDGE BAY A","2400601","2022-01-22 18:00","2022","01","22","18:00","-32.6","","-36.2","","71","","","","32","","34","","6.4","","101.31","","","","-50","","Blowing Snow"
"-105.14","69.11","CAMBRIDGE BAY A","2400601","2022-01-22 19:00","2022","01","22","19:00","-32.4","","-36.0","","71","","","","32","","34","","9.7","","101.32","","","","-50","","Blowing Snow"
"-105.14","69.11","CAMBRIDGE BAY A","2400601","2022-01-22 20:00","2022","01","22","20:00","-32.4","","-36.0","","71","","","","23","","10","","19.3","","101.41","","","","-42","","Mainly Clear"
"-105.14","69.11","CAMBRIDGE BAY A","2400601","2022-01-22 21:00","2022","01","22","21:00","-32.5","","-36.0","","72","","","","32","","17","","6.4","","101.35","","","","-45","","Snow"
"-105.14","69.11","CAMBRIDGE BAY A","2400601","2022-01-22 22:00","2022","01","22","22:00","-32.8","","-36.4","","71","","","","30","","19","","9.7","","101.39","","","","-46","","Snow"
"-105.14","69.11","CAMBRIDGE BAY A","2400601","2022-01-22 23:00","2022","01","22","23:00","-32.7","","-36.3","","71","","","","32","","23","","16.1","","101.37","","","","-47","","Ice Crystals"
"-105.14","69.11","CAMBRIDGE BAY A","2400601","2022-01-23 00:00","2022","01","23","00:00","-31.6","","-35.1","","72","","","","34","","30","","6.4","","101.34","","","","-48","","Ice Crystals"
"-105.14","69.11","CAMBRIDGE BAY A","2400601","2022-01-23 01:00","2022","01","23","01:00","-32.3","","-35.9","","71","","","","30","","24","","4.8","","101.43","","","","-47","","Ice Crystals"
"-105.14","69.11","CAMBRIDGE BAY A","2400601","2022-01-23 02:00","2022","01","23","02:00","-30.8","","-34.3","","72","","","","29","","14","","4.0","","101.45","","","","-42","","Ice Crystals"
"-105.14","69.11","CAMBRIDGE BAY A","2400601","2022-01-23 03:00","2022","01","23","03:00","-31.0","","-34.4","","73","","","","32","","35","","4.0","","101.39","","","","-48","","Ice Crystals"
"-105.14","69.11","CAMBRIDGE BAY A","2400601","2022-01-23 04:00","2022","01","23","04:00","-31.1","","-34.6","","72","","","","30","","26","","3.6","","101.48","","","","-46","","Ice Crystals"
"-105.14","69.11","CAMBRIDGE BAY A","2400601","2022-01-23 05:00","2022","01","23","05:00","-31.4","","-35.0","","72","","","","32","","32","","3.6","","101.44","","","","-48","","Ice Crystals,Blowing Snow"
"-105.14","69.11","CAMBRIDGE BAY A","2400601","2022-01-23 06:00","2022","01","23","06:00","-31.8","","-35.3","","72","","","","32","","25","","3.6","","101.48","","","","-47","","Ice Crystals,Blowing Snow"
"-105.14","69.11","CAMBRIDGE BAY A","2400601","2022-01-23 07:00","2022","01","23","07:00","-31.2","","-34.7","","72","","","","31","","27","","3.6","","101.50","","","","-46","","Ice Crystals,Blowing Snow"
"-105.14","69.11","CAMBRIDGE BAY A","2400601","2022-01-23 08:00","2022","01","23","08:00","-31.9","","-35.4","","72","","","","32","","18","","3.6","","101.50","","","","-45","","Ice Crystals,Blowing Snow"
"-105.14","69.11","CAMBRIDGE BAY A","2400601","2022-01-23 09:00","2022","01","23","09:00","-31.4","","-34.8","","72","","","","33","","16","","3.6","","101.56","","","","-44","","Ice Crystals"
"-105.14","69.11","CAMBRIDGE BAY A","2400601","2022-01-23 10:00","2022","01","23","10:00","-30.9","","-34.3","","72","","","","34","","16","","6.4","","101.59","","","","-43","","Ice Crystals"
"-105.14","69.11","CAMBRIDGE BAY A","2400601","2022-01-23 11:00","2022","01","23","11:00","-30.9","","-34.4","","72","","","","34","","18","","6.4","","101.67","","","","-44","","Ice Crystals"
"-105.14","69.11","CAMBRIDGE BAY A","2400601","2022-01-23 12:00","2022","01","23","12:00","-30.8","","-34.5","","71","","","","35","","20","","9.7","","101.72","","","","-44","","Ice Crystals"
"-105.14","69.11","CAMBRIDGE BAY A","2400601","2022-01-23 13:00","2022","01","23","13:00","-31.1","","-34.7","","72","","","","35","","12","","16.1","","101.81","","","","-41","","Ice Crystals"
"-105.14","69.11","CAMBRIDGE BAY A","2400601","2022-01-23 14:00","2022","01","23","14:00","-31.8","","-35.5","","70","","","","30","","14","","16.1","","101.90","","","","-43","","Ice Crystals"
"-105.14","69.11","CAMBRIDGE BAY A","2400601","2022-01-23 15:00","2022","01","23","15:00","-32.7","","-36.4","","70","","","","29","","15","","16.1","","101.97","","","","-45","","Ice Crystals"
"-105.14","69.11","CAMBRIDGE BAY A","2400601","2022-01-23 16:00","2022","01","23","16:00","-32.5","","-36.1","","71","","","","33","","17","","19.3","","102.01","","","","-45","","Ice Crystals"
"-105.14","69.11","CAMBRIDGE BAY A","2400601","2022-01-23 17:00","2022","01","23","17:00","-32.9","","-36.8","","69","","","","30","","17","","19.3","","102.10","","","","-46","","Ice Crystals"
"-105.14","69.11","CAMBRIDGE BAY A","2400601","2022-01-23 18:00","2022","01","23","18:00","-33.2","","-37.0","","70","","","","30","","13","","19.3","","102.10","","","","-44","","Ice Crystals"
"-105.14","69.11","CAMBRIDGE BAY A","2400601","2022-01-23 19:00","2022","01","23","19:00","-33.1","","-36.8","","70","","","","30","","19","","19.3","","102.14","","","","-47","","NA"
"-105.14","69.11","CAMBRIDGE BAY A","2400601","2022-01-23 20:00","2022","01","23","20:00","-32.3","","-35.9","","71","","","","31","","24","","19.3","","102.14","","","","-47","","Ice Crystals"
"-105.14","69.11","CAMBRIDGE BAY A","2400601","2022-01-23 21:00","2022","01","23","21:00","-32.6","","-36.1","","71","","","","32","","26","","6.4","","102.13","","","","-48","","Blowing Snow"
"-105.14","69.11","CAMBRIDGE BAY A","2400601","2022-01-23 22:00","2022","01","23","22:00","-32.4","","-35.9","","72","","","","32","","22","","6.4","","102.18","","","","-47","","Blowing Snow"
"-105.14","69.11","CAMBRIDGE BAY A","2400601","2022-01-23 23:00","2022","01","23","23:00"
"-105.14","69.11","CAMBRIDGE BAY A","2400601","2022-01-24 00:00","2022","01","24","00:00","-32.4","","-36.0","","72","","","","28","","13","","6.4","","102.29","","","","-44","","Ice Crystals"
"-105.14","69.11","CAMBRIDGE BAY A","2400601","2022-01-24 01:00","2022","01","24","01:00","-31.8","","-35.3","","71","","","","26","","13","","12.9","","102.37","","","","-43","","Ice Crystals"
"-105.14","69.11","CAMBRIDGE BAY A","2400601","2022-01-24 02:00","2022","01","24","02:00","-31.7","","-35.4","","71","","","","31","","27","","12.9","","102.38","","","","-47","","Ice Crystals"
"-105.14","69.11","CAMBRIDGE BAY A","2400601","2022-01-24 03:00","2022","01","24","03:00","-31.9","","-35.6","","70","","","","31","","26","","9.7","","102.39","","","","-47","","Ice Crystals"
"-105.14","69.11","CAMBRIDGE BAY A","2400601","2022-01-24 04:00","2022","01","24","04:00","-31.4","","-35.1","","71","","","","31","","28","","9.7","","102.41","","","","-47","","Ice Crystals"
"-105.14","69.11","CAMBRIDGE BAY A","2400601","2022-01-24 05:00","2022","01","24","05:00","-32.2","","-35.9","","70","","","","31","","24","","16.1","","102.39","","","","-47","","Ice Crystals"
"-105.14","69.11","CAMBRIDGE BAY A","2400601","2022-01-24 06:00","2022","01","24","06:00","-32.5","","-36.2","","70","","","","30","","24","","16.1","","102.43","","","","-47","","Ice Crystals"
"-105.14","69.11","CAMBRIDGE BAY A","2400601","2022-01-24 07:00","2022","01","24","07:00","-32.6","","-36.1","","71","","","","27","","17","","16.1","","102.42","","","","-45","","Ice Crystals"
"-105.14","69.11","CAMBRIDGE BAY A","2400601","2022-01-24 08:00","2022","01","24","08:00","-33.2","","-36.8","","71","","","","32","","26","","24.1","","102.36","","","","-49","","Ice Crystals"
"-105.14","69.11","CAMBRIDGE BAY A","2400601","2022-01-24 09:00","2022","01","24","09:00","-32.5","","-35.9","","72","","","","27","","17","","24.1","","102.34","","","","-45","","NA"
"-105.14","69.11","CAMBRIDGE BAY A","2400601","2022-01-24 10:00","2022","01","24","10:00","-32.7","","-35.9","","74","","","","25","","17","","24.1","","102.30","","","","-45","","NA"
"-105.14","69.11","CAMBRIDGE BAY A","2400601","2022-01-24 11:00","2022","01","24","11:00","-32.4","","-35.6","","74","","","","28","","13","","16.1","","102.25","","","","-44","","Mainly Clear"
"-105.14","69.11","CAMBRIDGE BAY A","2400601","2022-01-24 12:00","2022","01","24","12:00","-32.1","","-35.3","","74","","","","30","","12","","19.3","","102.19","","","","-43","","NA"
"-105.14","69.11","CAMBRIDGE BAY A","2400601","2022-01-24 13:00","2022","01","24","13:00","-32.1","","-35.3","","74","","","","2","","4","","19.3","","102.15","","","","-37","","NA"
"-105.14","69.11","CAMBRIDGE BAY A","2400601","2022-01-24 14:00","2022","01","24","14:00","-32.0","","-35.1","","75","","","","26","","12","","19.3","","102.03","","","","-43","","Mainly Clear"
"-105.14","69.11","CAMBRIDGE BAY A","2400601","2022-01-24 15:00","2022","01","24","15:00","-32.2","","-35.4","","74","","","","26","","16","","19.3","","102.01","","","","-45","","NA"
"-105.14","69.11","CAMBRIDGE BAY A","2400601","2022-01-24 16:00","2022","01","24","16:00","-32.0","","-35.2","","74","","","","30","","6","","24.1","","101.92","","","","-39","","NA"
"-105.14","69.11","CAMBRIDGE BAY A","2400601","2022-01-24 17:00","2022","01","24","17:00","-31.7","","-34.8","","74","","","","33","","4","","24.1","","101.82","","","","-36","","Mainly Clear"
"-105.14","69.11","CAMBRIDGE BAY A","2400601","2022-01-24 18:00","2022","01","24","18:00","-31.4","","-34.6","","74","","","","24","","16","","19.3","","101.69","","","","-44","","NA"
"-105.14","69.11","CAMBRIDGE BAY A","2400601","2022-01-24 19:00","2022","01","24","19:00","-31.2","","-34.5","","74","","","","16","","4","","24.1","","101.58","","","","-36","","NA"
"-105.14","69.11","CAMBRIDGE BAY A","2400601","2022-01-24 20:00","2022","01","24","20:00","-31.0","","-34.1","","75","","","","21","","6","","19.3","","101.40","","","","-38","","Mainly Clear"
"-105.14","69.11","CAMBRIDGE BAY A","2400601","2022-01-24 21:00","2022","01","24","21:00","-31.9","","-35.1","","74","","","","9","","5","","19.3","","101.28","","","","-38","","NA"
"-105.14","69.11","CAMBRIDGE BAY A","2400601","2022-01-24 22:00","2022","01","24","22:00","-31.0","","-34.2","","74","","","","12","","9","","24.1","","101.15","","","","-40","","NA"
"-105.14","69.11","CAMBRIDGE BAY A","2400601","2022-01-24 23:00","2022","01","24","23:00","-31.8","","-35.0","","73","","","","9","","11","","24.1","","101.03","","","","-42","","Mainly Clear"
"-105.14","69.11","CAMBRIDGE BAY A","2400601","2022-01-25 00:00","2022","01","25","00:00","-33.4","","-36.8","","73","","","","8","","11","","24.1","","100.88","","","","-44","","NA"
"-105.14","69.11","CAMBRIDGE BAY A","2400601","2022-01-25 01:00","2022","01","25","01:00","-32.8","","-36.0","","74","","","","8","","9","","24.1","","100.76","","","","-42","","NA"
"-105.14","69.11","CAMBRIDGE BAY A","2400601","2022-01-25 02:00","2022","01","25","02:00","-32.2","","-35.4","","74","","","","8","","9","","24.1","","100.67","","","","-41","","Mainly Clear"
"-105.14","69.11","CAMBRIDGE BAY A","2400601","2022-01-25 03:00","2022","01","25","03:00","-34.6","","-38.0","","72","","","","6","","12","","24.1","","100.58","","","","-46","","NA"
"-105.14","69.11","CAMBRIDGE BAY A","2400601","2022-01-25 04:00","2022","01","25","04:00","-33.7","","-37.1","","72","","","","4","","12","","24.1","","100.46","","","","-45","","NA"
"-105.14","69.11","CAMBRIDGE BAY A","2400601","2022-01-25 05:00","2022","01","25","05:00","-34.3","","-37.7","","72","","","","6","","14","","24.1","","100.36","","","","-46","","Mainly Clear"
"-105.14","69.11","CAMBRIDGE BAY A","2400601","2022-01-25 06:00","2022","01","25","06:00","-34.1","","-37.4","","73","","","","5","","19","","24.1","","100.28","","","","-48","","Ice Crystals"
"-105.14","69.11","CAMBRIDGE BAY A","2400601","2022-01-25 07:00","2022","01","25","07:00","-32.5","","-35.8","","73","","","","6","","25","","24.1","","100.22","","","","-48","","Snow"
"-105.14","69.11","CAMBRIDGE BAY A","2400601","2022-01-25 08:00","2022","01","25","08:00","-31.3","","-34.5","","74","","","","6","","22","","12.9","","100.20","","","","-45","","Snow,Blowing Snow"
"-105.14","69.11","CAMBRIDGE BAY A","2400601","2022-01-25 09:00","2022","01","25","09:00","-30.3","","-33.5","","74","","","","7","","22","","2.0","","100.17","","","","-44","","Snow,Blowing Snow"
"-105.14","69.11","CAMBRIDGE BAY A","2400601","2022-01-25 10:00","2022","01","25","10:00","-29.6","","-32.9","","74","","","","5","","21","","3.2","","100.12","","","","-43","","Fog"
"-105.14","69.11","CAMBRIDGE BAY A","2400601","2022-01-25 11:00","2022","01","25","11:00","-30.2","","-33.4","","74","","","","4","","27","","2.4","","100.09","","","","-45","","Snow,Blowing Snow"
"-105.14","69.11","CAMBRIDGE BAY A","2400601","2022-01-25 12:00","2022","01","25","12:00","-30.9","","-34.2","","73","","","","4","","22","","11.3","","100.09","","","","-45","","Snow,Blowing Snow"
"-105.14","69.11","CAMBRIDGE BAY A","2400601","2022-01-25 13:00","2022","01","25","13:00","-32.4","","-35.9","","72","","","","5","","16","","16.1","","100.15","","","","-45","","Ice Crystals,Blowing Snow"
"-105.14","69.11","CAMBRIDGE BAY A","2400601","2022-01-25 14:00","2022","01","25","14:00","-32.0","","-35.4","","73","","","","3","","25","","12.9","","100.14","","","","-47","","Ice Crystals,Blowing Snow"
"-105.14","69.11","CAMBRIDGE BAY A","2400601","2022-01-25 15:00","2022","01","25","15:00","-33.4","","-36.9","","72","","","","3","","19","","12.9","","100.17","","","","-47","","Ice Crystals,Blowing Snow"
"-105.14","69.11","CAMBRIDGE BAY A","2400601","2022-01-25 16:00","2022","01","25","16:00","-33.6","","-37.1","","71","","","","4","","33","","12.9","","100.19","","","","-51","","Ice Crystals,Blowing Snow"
"-105.14","69.11","CAMBRIDGE BAY A","2400601","2022-01-25 17:00","2022","01","25","17:00","-34.2","","-37.8","","71","","","","3","","32","","12.9","","100.26","","","","-52","","Ice Crystals,Blowing Snow"
"-105.14","69.11","CAMBRIDGE BAY A","2400601","2022-01-25 18:00","2022","01","25","18:00","-35.1","","-38.8","","70","","","","4","","29","","4.8","","100.34","","","","-52","","Ice Crystals,Blowing Snow"
"-105.14","69.11","CAMBRIDGE BAY A","2400601","2022-01-25 19:00","2022","01","25","19:00","-35.7","","-39.3","","70","","","","3","","26","","12.9","","100.37","","","","-52","","Ice Crystals,Blowing Snow"
"-105.14","69.11","CAMBRIDGE BAY A","2400601","2022-01-25 20:00","2022","01","25","20:00","-36.1","","-39.8","","70","","","","5","","19","","16.1","","100.41","","","","-50","","Ice Crystals,Blowing Snow"
"-105.14","69.11","CAMBRIDGE BAY A","2400601","2022-01-25 21:00","2022","01","25","21:00","-36.1","","-39.8","","70","","","","3","","27","","16.1","","100.48","","","","-53","","Ice Crystals,Blowing Snow"
"-105.14","69.11","CAMBRIDGE BAY A","2400601","2022-01-25 22:00","2022","01","25","22:00","-36.0","","-39.7","","70","","","","5","","19","","24.1","","100.59","","","","-50","","Ice Crystals,Blowing Snow"
"-105.14","69.11","CAMBRIDGE BAY A","2400601","2022-01-25 23:00","2022","01","25","23:00","-36.1","","-39.8","","70","","","","2","","28","","24.1","","100.70","","","","-53","","Ice Crystals"
"-105.14","69.11","CAMBRIDGE BAY A","2400601","2022-01-26 00:00","2022","01","26","00:00","-36.5","","-40.3","","69","","","","3","","29","","24.1","","100.75","","","","-54","","Ice Crystals"
"-105.14","69.11","CAMBRIDGE BAY A","2400601","2022-01-26 01:00","2022","01","26","01:00","-36.6","","-40.3","","69","","","","3","","22","","24.1","","100.86","","","","-52","","Ice Crystals"
"-105.14","69.11","CAMBRIDGE BAY A","2400601","2022-01-26 02:00","2022","01","26","02:00","-36.6","","-40.4","","69","","","","4","","17","","24.1","","100.95","","","","-50","","Ice Crystals"
"-105.14","69.11","CAMBRIDGE BAY A","2400601","2022-01-26 03:00","2022","01","26","03:00","-36.2","","-39.9","","70","","","","1","","28","","24.1","","101.04","","","","-53","","Ice Crystals"
"-105.14","69.11","CAMBRIDGE BAY A","2400601","2022-01-26 04:00","2022","01","26","04:00","-36.6","","-40.3","","69","","","","2","","22","","24.1","","101.14","","","","-52","","Ice Crystals"
"-105.14","69.11","CAMBRIDGE BAY A","2400601","2022-01-26 05:00","2022","01","26","05:00","-35.7","","-39.4","","70","","","","34","","10","","24.1","","101.24","","","","-46","","Ice Crystals"
"-105.14","69.11","CAMBRIDGE BAY A","2400601","2022-01-26 06:00","2022","01","26","06:00","-36.5","","-40.2","","69","","","","31","","11","","24.1","","101.32","","","","-47","","Ice Crystals"
"-105.14","69.11","CAMBRIDGE BAY A","2400601","2022-01-26 07:00","2022","01","26","07:00","-36.6","","-40.2","","70","","","","30","","13","","24.1","","101.39","","","","-49","","Ice Crystals"
"-105.14","69.11","CAMBRIDGE BAY A","2400601","2022-01-26 08:00","2022","01","26","08:00","-36.7","","-40.4","","69","","","","32","","14","","24.1","","101.44","","","","-49","","Clear"
"-105.14","69.11","CAMBRIDGE BAY A","2400601","2022-01-26 09:00","2022","01","26","09:00","-35.8","","-39.4","","70","","","","31","","22","","24.1","","101.49","","","","-51","","NA"
"-105.14","69.11","CAMBRIDGE BAY A","2400601","2022-01-26 10:00","2022","01","26","10:00","-35.6","","-39.3","","70","","","","28","","16","","24.1","","101.53","","","","-49","","NA"
"-105.14","69.11","CAMBRIDGE BAY A","2400601","2022-01-26 11:00","2022","01","26","11:00","-36.0","","-39.6","","70","","","","26","","9","","24.1","","101.55","","","","-46","","Clear"
"-105.14","69.11","CAMBRIDGE BAY A","2400601","2022-01-26 12:00","2022","01","26","12:00","-35.5","","-39.1","","70","","","","26","","16","","24.1","","101.58","","","","-49","","NA"
"-105.14","69.11","CAMBRIDGE BAY A","2400601","2022-01-26 13:00","2022","01","26","13:00","-35.6","","-39.2","","70","","","","25","","14","","24.1","","101.58","","","","-48","","NA"
"-105.14","69.11","CAMBRIDGE BAY A","2400601","2022-01-26 14:00","2022","01","26","14:00","-35.4","","-39.1","","70","","","","25","","10","","24.1","","101.58","","","","-46","","Clear"
"-105.14","69.11","CAMBRIDGE BAY A","2400601","2022-01-26 15:00","2022","01","26","15:00","-35.6","","-39.2","","70","","","","26","","12","","24.1","","101.56","","","","-47","","NA"
"-105.14","69.11","CAMBRIDGE BAY A","2400601","2022-01-26 16:00","2022","01","26","16:00","-35.4","","-39.0","","70","","","","25","","15","","24.1","","101.55","","","","-48","","NA"
"-105.14","69.11","CAMBRIDGE BAY A","2400601","2022-01-26 17:00","2022","01","26","17:00","-35.9","","-39.5","","70","","","","26","","9","","24.1","","101.52","","","","-46","","Mainly Clear"
"-105.14","69.11","CAMBRIDGE BAY A","2400601","2022-01-26 18:00","2022","01","26","18:00","-36.0","","-39.6","","70","","","","23","","8","","24.1","","101.45","","","","-45","","NA"
"-105.14","69.11","CAMBRIDGE BAY A","2400601","2022-01-26 19:00","2022","01","26","19:00","-36.2","","-39.8","","70","","","","24","","4","","24.1","","101.40","","","","-41","","NA"
"-105.14","69.11","CAMBRIDGE BAY A","2400601","2022-01-26 20:00","2022","01","26","20:00","-36.2","","-39.9","","70","","","","26","","8","","24.1","","101.34","","","","-45","","Mainly Clear"
"-105.14","69.11","CAMBRIDGE BAY A","2400601","2022-01-26 21:00","2022","01","26","21:00","-36.0","","-39.7","","70","","","","21","","3","","24.1","","101.29","","","","-40","","NA"
"-105.14","69.11","CAMBRIDGE BAY A","2400601","2022-01-26 22:00","2022","01","26","22:00","-35.7","","-39.4","","70","","","","25","","4","","24.1","","101.22","","","","-41","","NA"
"-105.14","69.11","CAMBRIDGE BAY A","2400601","2022-01-26 23:00","2022","01","26","23:00","-36.3","","-40.0","","70","","","","24","","7","","24.1","","101.21","","","","-45","","Mainly Clear"
"-105.14","69.11","CAMBRIDGE BAY A","2400601","2022-01-27 00:00","2022","01","27","00:00","-35.2","","-38.8","","71","","","","22","","4","","24.1","","101.19","","","","-40","","NA"
"-105.14","69.11","CAMBRIDGE BAY A","2400601","2022-01-27 01:00","2022","01","27","01:00","-35.8","","-39.5","","70","","","","26","","12","","24.1","","101.19","","","","-47","","NA"
"-105.14","69.11","CAMBRIDGE BAY A","2400601","2022-01-27 02:00","2022","01","27","02:00","-36.0","","-39.7","","70","","","","25","","9","","24.1","","101.19","","","","-46","","Mainly Clear"
"-105.14","69.11","CAMBRIDGE BAY A","2400601","2022-01-27 03:00","2022","01","27","03:00","-36.3","","-39.9","","70","","","","27","","14","","24.1","","101.15","","","","-49","","NA"
"-105.14","69.11","CAMBRIDGE BAY A","2400601","2022-01-27 04:00","2022","01","27","04:00","-36.4","","-40.1","","70","","","","26","","18","","24.1","","101.14","","","","-50","","NA"
"-105.14","69.11","CAMBRIDGE BAY A","2400601","2022-01-27 05:00","2022","01","27","05:00","-36.4","","-40.1","","69","","","","28","","15","","24.1","","101.14","","","","-49","","Mainly Clear"
"-105.14","69.11","CAMBRIDGE BAY A","2400601","2022-01-27 06:00","2022","01","27","06:00","-35.7","","-39.3","","70","","","","27","","23","","12.9","","101.10","","","","-51","","Ice Crystals,Blowing Snow"
"-105.14","69.11","CAMBRIDGE BAY A","2400601","2022-01-27 07:00","2022","01","27","07:00","-34.5","","-38.1","","71","","","","27","","27","","16.1","","101.09","","","","-51","","Ice Crystals,Blowing Snow"
"-105.14","69.11","CAMBRIDGE BAY A","2400601","2022-01-27 08:00","2022","01","27","08:00","-33.0","","-36.5","","72","","","","27","","20","","19.3","","101.09","","","","-47","","Ice Crystals"
"-105.14","69.11","CAMBRIDGE BAY A","2400601","2022-01-27 09:00","2022","01","27","09:00","-31.0","","-34.3","","73","","","","29","","19","","16.1","","101.07","","","","-44","","Ice Crystals"
"-105.14","69.11","CAMBRIDGE BAY A","2400601","2022-01-27 10:00","2022","01","27","10:00","-28.8","","-31.9","","75","","","","30","","30","","19.3","","101.05","","","","-44","","Ice Crystals,Blowing Snow"
"-105.14","69.11","CAMBRIDGE BAY A","2400601","2022-01-27 11:00","2022","01","27","11:00","-29.2","","-32.4","","74","","","","31","","31","","19.3","","101.04","","","","-45","","Ice Crystals,Blowing Snow"
"-105.14","69.11","CAMBRIDGE BAY A","2400601","2022-01-27 12:00","2022","01","27","12:00","-28.9","","-32.1","","75","","","","31","","22","","19.3","","101.07","","","","-42","","Ice Crystals,Blowing Snow"
"-105.14","69.11","CAMBRIDGE BAY A","2400601","2022-01-27 13:00","2022","01","27","13:00","-28.0","","-31.2","","75","","","","29","","31","","19.3","","101.09","","","","-43","","Ice Crystals,Blowing Snow"
"-105.14","69.11","CAMBRIDGE BAY A","2400601","2022-01-27 14:00","2022","01","27","14:00","-27.3","","-30.4","","76","","","","31","","28","","4.8","","101.10","","","","-42","","Snow,Blowing Snow"
"-105.14","69.11","CAMBRIDGE BAY A","2400601","2022-01-27 15:00","2022","01","27","15:00","-27.6","","-30.8","","75","","","","32","","28","","9.7","","101.15","","","","-42","","Snow,Blowing Snow"
"-105.14","69.11","CAMBRIDGE BAY A","2400601","2022-01-27 16:00","2022","01","27","16:00","-27.4","","-30.5","","76","","","","30","","26","","12.9","","101.21","","","","-41","","Snow,Blowing Snow"
"-105.14","69.11","CAMBRIDGE BAY A","2400601","2022-01-27 17:00","2022","01","27","17:00","-26.7","","-29.7","","76","","","","30","","25","","12.9","","101.22","","","","-40","","Snow,Blowing Snow"
"-105.14","69.11","CAMBRIDGE BAY A","2400601","2022-01-27 18:00","2022","01","27","18:00","-26.6","","-29.6","","76","","","","30","","19","","12.9","","101.28","","","","-39","","Snow,Blowing Snow"
"-105.14","69.11","CAMBRIDGE BAY A","2400601","2022-01-27 19:00","2022","01","27","19:00","-26.5","","-29.5","","76","","","","31","","29","","12.9","","101.27","","","","-41","","Snow,Blowing Snow"
"-105.14","69.11","CAMBRIDGE BAY A","2400601","2022-01-27 20:00","2022","01","27","20:00","-26.9","","-29.9","","76","","","","31","","27","","19.3","","101.30","","","","-41","","Snow,Blowing Snow"
"-105.14","69.11","CAMBRIDGE BAY A","2400601","2022-01-27 21:00","2022","01","27","21:00","-28.5","","-31.6","","75","","","","32","","28","","19.3","","101.29","","","","-43","","Ice Crystals,Blowing Snow"
"-105.14","69.11","CAMBRIDGE BAY A","2400601","2022-01-27 22:00","2022","01","27","22:00","-29.4","","-32.7","","74","","","","29","","25","","19.3","","101.37","","","","-44","","Ice Crystals,Blowing Snow"
"-105.14","69.11","CAMBRIDGE BAY A","2400601","2022-01-27 23:00","2022","01","27","23:00","-30.6","","-33.9","","73","","","","30","","29","","16.1","","101.38","","","","-46","","Ice Crystals,Blowing Snow"
"-105.14","69.11","CAMBRIDGE BAY A","2400601","2022-01-28 00:00","2022","01","28","00:00","-30.2","","-33.6","","74","","","","31","","27","","19.3","","101.39","","","","-45","","Ice Crystals,Blowing Snow"
"-105.14","69.11","CAMBRIDGE BAY A","2400601","2022-01-28 01:00","2022","01","28","01:00","-30.4","","-33.7","","74","","","","31","","31","","12.9","","101.41","","","","-46","","Ice Crystals,Blowing Snow"
"-105.14","69.11","CAMBRIDGE BAY A","2400601","2022-01-28 02:00","2022","01","28","02:00","-30.3","","-33.6","","74","","","","33","","28","","19.3","","101.35","","","","-46","","Ice Crystals,Blowing Snow"
"-105.14","69.11","CAMBRIDGE BAY A","2400601","2022-01-28 03:00","2022","01","28","03:00","-29.9","","-33.2","","74","","","","31","","27","","19.3","","101.33","","","","-45","","Ice Crystals,Blowing Snow"
"-105.14","69.11","CAMBRIDGE BAY A","2400601","2022-01-28 04:00","2022","01","28","04:00","-31.2","","-34.6","","73","","","","27","","17","","19.3","","101.37","","","","-44","","Ice Crystals"
"-105.14","69.11","CAMBRIDGE BAY A","2400601","2022-01-28 05:00","2022","01","28","05:00","-30.8","","-34.2","","73","","","","25","","14","","19.3","","101.34","","","","-42","","Ice Crystals"
"-105.14","69.11","CAMBRIDGE BAY A","2400601","2022-01-28 06:00","2022","01","28","06:00","-30.8","","-34.1","","73","","","","25","","22","","19.3","","101.32","","","","-45","","Ice Crystals"
"-105.14","69.11","CAMBRIDGE BAY A","2400601","2022-01-28 07:00","2022","01","28","07:00","-31.3","","-34.6","","73","","","","26","","14","","19.3","","101.30","","","","-43","","Ice Crystals"
"-105.14","69.11","CAMBRIDGE BAY A","2400601","2022-01-28 08:00","2022","01","28","08:00","-31.5","","-34.9","","73","","","","28","","18","","12.9","","101.31","","","","-44","","Ice Crystals"
"-105.14","69.11","CAMBRIDGE BAY A","2400601","2022-01-28 09:00","2022","01","28","09:00","-31.9","","-35.3","","72","","","","26","","17","","16.1","","101.29","","","","-44","","Ice Crystals"
"-105.14","69.11","CAMBRIDGE BAY A","2400601","2022-01-28 10:00","2022","01","28","10:00","-31.8","","-35.2","","72","","","","27","","21","","24.1","","101.28","","","","-46","","Ice Crystals"
"-105.14","69.11","CAMBRIDGE BAY A","2400601","2022-01-28 11:00","2022","01","28","11:00","-31.4","","-34.8","","73","","","","24","","10","","22.5","","101.28","","","","-41","","Ice Crystals"
"-105.14","69.11","CAMBRIDGE BAY A","2400601","2022-01-28 12:00","2022","01","28","12:00","-31.1","","-34.5","","73","","","","27","","23","","22.5","","101.25","","","","-45","","Ice Crystals,Blowing Snow"
"-105.14","69.11","CAMBRIDGE BAY A","2400601","2022-01-28 13:00","2022","01","28","13:00","-30.5","","-33.8","","73","","","","28","","37","","3.2","","101.20","","","","-48","","Blowing Snow"
"-105.14","69.11","CAMBRIDGE BAY A","2400601","2022-01-28 14:00","2022","01","28","14:00","-30.2","","-33.5","","74","","","","27","","36","","16.1","","101.21","","","","-47","","Ice Crystals,Blowing Snow"
"-105.14","69.11","CAMBRIDGE BAY A","2400601","2022-01-28 15:00","2022","01","28","15:00","-30.3","","-33.6","","74","","","","25","","32","","19.3","","101.20","","","","-46","","Ice Crystals,Blowing Snow"
"-105.14","69.11","CAMBRIDGE BAY A","2400601","2022-01-28 16:00","2022","01","28","16:00","-30.5","","-33.8","","74","","","","26","","26","","22.5","","101.16","","","","-45","","Ice Crystals,Blowing Snow"
"-105.14","69.11","CAMBRIDGE BAY A","2400601","2022-01-28 17:00","2022","01","28","17:00","-30.7","","-34.0","","74","","","","26","","22","","19.3","","101.14","","","","-45","","Ice Crystals,Blowing Snow"
"-105.14","69.11","CAMBRIDGE BAY A","2400601","2022-01-28 18:00","2022","01","28","18:00","-31.2","","-34.6","","73","","","","25","","24","","22.5","","101.11","","","","-46","","Ice Crystals,Blowing Snow"
"-105.14","69.11","CAMBRIDGE BAY A","2400601","2022-01-28 19:00","2022","01","28","19:00","-31.2","","-34.5","","73","","","","25","","21","","22.5","","101.05","","","","-45","","Ice Crystals,Blowing Snow"
"-105.14","69.11","CAMBRIDGE BAY A","2400601","2022-01-28 20:00","2022","01","28","20:00","-30.7","","-34.0","","73","","","","26","","26","","22.5","","100.98","","","","-46","","Ice Crystals,Blowing Snow"
"-105.14","69.11","CAMBRIDGE BAY A","2400601","2022-01-28 21:00","2022","01","28","21:00","-29.6","","-32.9","","74","","","","26","","33","","12.9","","100.91","","","","-46","","Ice Crystals,Blowing Snow"
"-105.14","69.11","CAMBRIDGE BAY A","2400601","2022-01-28 22:00","2022","01","28","22:00","-28.4","","-31.5","","75","","","","26","","35","","14.5","","100.83","","","","-45","","Blowing Snow"
"-105.14","69.11","CAMBRIDGE BAY A","2400601","2022-01-28 23:00","2022","01","28","23:00","-27.1","","-30.2","","76","","","","26","","24","","4.8","","100.81","","","","-40","","Ice Crystals,Blowing Snow"
"-105.14","69.11","CAMBRIDGE BAY A","2400601","2022-01-29 00:00","2022","01","29","00:00","-26.0","","-28.9","","77","","","","27","","36","","6.4","","100.74","","","","-42","","Ice Crystals,Blowing Snow"
"-105.14","69.11","CAMBRIDGE BAY A","2400601","2022-01-29 01:00","2022","01","29","01:00","-25.8","","-28.7","","77","","","","28","","40","","4.8","","100.68","","","","-42","","Ice Crystals,Blowing Snow"
"-105.14","69.11","CAMBRIDGE BAY A","2400601","2022-01-29 02:00","2022","01","29","02:00","-26.0","","-28.9","","77","","","","27","","27","","4.8","","100.71","","","","-40","","Ice Crystals,Blowing Snow"
"-105.14","69.11","CAMBRIDGE BAY A","2400601","2022-01-29 03:00","2022","01","29","03:00","-26.4","","-29.4","","76","","","","27","","25","","14.5","","100.69","","","","-40","","Blowing Snow"
"-105.14","69.11","CAMBRIDGE BAY A","2400601","2022-01-29 04:00","2022","01","29","04:00","-26.9","","-30.0","","76","","","","27","","19","","16.1","","100.68","","","","-39","","Blowing Snow"
"-105.14","69.11","CAMBRIDGE BAY A","2400601","2022-01-29 05:00","2022","01","29","05:00","-26.4","","-29.5","","76","","","","27","","21","","14.5","","100.63","","","","-39","","Blowing Snow"
"-105.14","69.11","CAMBRIDGE BAY A","2400601","2022-01-29 06:00","2022","01","29","06:00","-26.7","","-29.7","","76","","","","28","","33","","12.9","","100.56","","","","-42","","Blowing Snow"
"-105.14","69.11","CAMBRIDGE BAY A","2400601","2022-01-29 07:00","2022","01","29","07:00","-28.4","","-31.6","","74","","","","28","","22","","16.1","","100.60","","","","-42","","Blowing Snow"
"-105.14","69.11","CAMBRIDGE BAY A","2400601","2022-01-29 08:00","2022","01","29","08:00","-29.9","","-33.2","","74","","","","26","","17","","16.1","","100.60","","","","-42","","Blowing Snow"
"-105.14","69.11","CAMBRIDGE BAY A","2400601","2022-01-29 09:00","2022","01","29","09:00","-30.6","","-33.9","","73","","","","28","","30","","19.3","","100.54","","","","-46","","Blowing Snow"
"-105.14","69.11","CAMBRIDGE BAY A","2400601","2022-01-29 10:00","2022","01","29","10:00","-30.8","","-34.2","","73","","","","28","","26","","19.3","","100.58","","","","-46","","Blowing Snow"
"-105.14","69.11","CAMBRIDGE BAY A","2400601","2022-01-29 11:00","2022","01","29","11:00","-30.9","","-34.3","","73","","","","28","","29","","19.3","","100.56","","","","-47","","Blowing Snow"
"-105.14","69.11","CAMBRIDGE BAY A","2400601","2022-01-29 12:00","2022","01","29","12:00","-31.2","","-34.6","","72","","","","27","","25","","19.3","","100.56","","","","-46","","NA"
"-105.14","69.11","CAMBRIDGE BAY A","2400601","2022-01-29 13:00","2022","01","29","13:00","-31.2","","-34.7","","72","","","","25","","17","","19.3","","100.58","","","","-44","","Blowing Snow"
"-105.14","69.11","CAMBRIDGE BAY A","2400601","2022-01-29 14:00","2022","01","29","14:00","-29.8","","-33.3","","72","","","","27","","22","","19.3","","100.58","","","","-43","","Blowing Snow"
"-105.14","69.11","CAMBRIDGE BAY A","2400601","2022-01-29 15:00","2022","01","29","15:00","-29.5","","-32.9","","73","","","","27","","29","","19.3","","100.59","","","","-45","","Blowing Snow"
"-105.14","69.11","CAMBRIDGE BAY A","2400601","2022-01-29 16:00","2022","01","29","16:00","-29.9","","-33.3","","73","","","","26","","23","","19.3","","100.59","","","","-44","","Blowing Snow"
"-105.14","69.11","CAMBRIDGE BAY A","2400601","2022-01-29 17:00","2022","01","29","17:00","-29.6","","-33.0","","73","","","","28","","26","","19.3","","100.55","","","","-44","","Blowing Snow"
"-105.14","69.11","CAMBRIDGE BAY A","2400601","2022-01-29 18:00","2022","01","29","18:00","-29.6","","-33.0","","73","","","","25","","22","","19.3","","100.60","","","","-43","","Blowing Snow"
"-105.14","69.11","CAMBRIDGE BAY A","2400601","2022-01-29 19:00","2022","01","29","19:00","-29.0","","-32.2","","74","","","","26","","26","","19.3","","100.53","","","","-43","","Blowing Snow"
"-105.14","69.11","CAMBRIDGE BAY A","2400601","2022-01-29 20:00","2022","01","29","20:00","-28.4","","-31.6","","75","","","","27","","27","","24.1","","100.50","","","","-43","","Blowing Snow"
"-105.14","69.11","CAMBRIDGE BAY A","2400601","2022-01-29 21:00","2022","01","29","21:00","-27.8","","-31.0","","75","","","","26","","16","","24.1","","100.49","","","","-39","","NA"
"-105.14","69.11","CAMBRIDGE BAY A","2400601","2022-01-29 22:00","2022","01","29","22:00","-28.3","","-31.5","","75","","","","25","","23","","24.1","","100.44","","","","-42","","NA"
"-105.14","69.11","CAMBRIDGE BAY A","2400601","2022-01-29 23:00","2022","01","29","23:00","-27.6","","-30.9","","75","","","","27","","30","","24.1","","100.42","","","","-42","","Mainly Clear"
"-105.14","69.11","CAMBRIDGE BAY A","2400601","2022-01-30 00:00","2022","01","30","00:00","-25.9","","-28.9","","76","","","","26","","28","","24.1","","100.46","","","","-40","","NA"
"-105.14","69.11","CAMBRIDGE BAY A","2400601","2022-01-30 01:00","2022","01","30","01:00","-24.7","","-27.6","","77","","","","26","","38","","6.4","","100.44","","","","-40","","Fog,Blowing Snow"
"-105.14","69.11","CAMBRIDGE BAY A","2400601","2022-01-30 02:00","2022","01","30","02:00","-24.3","","-27.1","","78","","","","27","","37","","4.8","","100.43","","","","-39","","Fog,Blowing Snow"
"-105.14","69.11","CAMBRIDGE BAY A","2400601","2022-01-30 03:00","2022","01","30","03:00","-24.0","","-26.7","","78","","","","27","","33","","4.8","","100.42","","","","-38","","Fog,Blowing Snow"
"-105.14","69.11","CAMBRIDGE BAY A","2400601","2022-01-30 04:00","2022","01","30","04:00","-23.6","","-26.4","","79","","","","27","","40","","4.0","","100.39","","","","-39","","Blowing Snow"
"-105.14","69.11","CAMBRIDGE BAY A","2400601","2022-01-30 05:00","2022","01","30","05:00","-23.8","","-26.6","","78","","","","27","","29","","4.8","","100.39","","","","-37","","Blowing Snow"
"-105.14","69.11","CAMBRIDGE BAY A","2400601","2022-01-30 06:00","2022","01","30","06:00","-24.1","","-27.0","","78","","","","27","","23","","14.5","","100.42","","","","-36","","Blowing Snow"
"-105.14","69.11","CAMBRIDGE BAY A","2400601","2022-01-30 07:00","2022","01","30","07:00","-25.5","","-28.3","","78","","","","26","","29","","19.3","","100.35","","","","-40","","NA"
"-105.14","69.11","CAMBRIDGE BAY A","2400601","2022-01-30 08:00","2022","01","30","08:00","-26.5","","-29.5","","77","","","","26","","23","","8.1","","100.37","","","","-39","","Fog,Blowing Snow"
"-105.14","69.11","CAMBRIDGE BAY A","2400601","2022-01-30 09:00","2022","01","30","09:00","-27.8","","-30.9","","76","","","","25","","21","","8.1","","100.35","","","","-41","","Fog,Blowing Snow"
"-105.14","69.11","CAMBRIDGE BAY A","2400601","2022-01-30 10:00","2022","01","30","10:00","-28.4","","-31.5","","76","","","","26","","21","","9.7","","100.33","","","","-41","","Fog,Blowing Snow"
"-105.14","69.11","CAMBRIDGE BAY A","2400601","2022-01-30 11:00","2022","01","30","11:00","-27.0","","-30.0","","76","","","","26","","25","","4.8","","100.32","","","","-41","","Fog,Blowing Snow"
"-105.14","69.11","CAMBRIDGE BAY A","2400601","2022-01-30 12:00","2022","01","30","12:00","-26.0","","-28.9","","77","","","","27","","24","","4.8","","100.30","","","","-39","","Fog,Blowing Snow"
"-105.14","69.11","CAMBRIDGE BAY A","2400601","2022-01-30 13:00","2022","01","30","13:00","-26.2","","-29.1","","77","","","","27","","25","","4.8","","100.29","","","","-40","","Fog,Blowing Snow"
"-105.14","69.11","CAMBRIDGE BAY A","2400601","2022-01-30 14:00","2022","01","30","14:00","-27.6","","-30.6","","76","","","","25","","22","","4.8","","100.27","","","","-41","","Fog,Blowing Snow"
"-105.14","69.11","CAMBRIDGE BAY A","2400601","2022-01-30 15:00","2022","01","30","15:00","-27.7","","-30.7","","76","","","","25","","24","","4.8","","100.27","","","","-41","","Fog,Blowing Snow"
"-105.14","69.11","CAMBRIDGE BAY A","2400601","2022-01-30 16:00","2022","01","30","16:00","-28.9","","-32.0","","75","","","","25","","17","","6.4","","100.27","","","","-41","","Fog,Blowing Snow"
"-105.14","69.11","CAMBRIDGE BAY A","2400601","2022-01-30 17:00","2022","01","30","17:00","-29.4","","-32.4","","75","","","","25","","14","","8.1","","100.26","","","","-40","","Fog"
"-105.14","69.11","CAMBRIDGE BAY A","2400601","2022-01-30 18:00","2022","01","30","18:00","-29.7","","-32.7","","75","","","","27","","12","","9.7","","100.22","","","","-40","","Fog"
"-105.14","69.11","CAMBRIDGE BAY A","2400601","2022-01-30 19:00","2022","01","30","19:00","-29.7","","-32.7","","76","","","","22","","8","","9.7","","100.20","","","","-38","","Fog"
"-105.14","69.11","CAMBRIDGE BAY A","2400601","2022-01-30 20:00","2022","01","30","20:00","-29.5","","-32.6","","75","","","","27","","11","","16.1","","100.14","","","","-39","","Mainly Clear"
"-105.14","69.11","CAMBRIDGE BAY A","2400601","2022-01-30 21:00","2022","01","30","21:00","-29.4","","-32.5","","75","","","","26","","17","","16.1","","100.10","","","","-41","","NA"
"-105.14","69.11","CAMBRIDGE BAY A","2400601","2022-01-30 22:00","2022","01","30","22:00","-30.7","","-34.0","","74","","","","28","","18","","19.3","","100.01","","","","-43","","NA"
"-105.14","69.11","CAMBRIDGE BAY A","2400601","2022-01-30 23:00","2022","01","30","23:00","-31.5","","-34.8","","74","","","","27","","12","","19.3","","99.99","","","","-42","","Mainly Clear"
"-105.14","69.11","CAMBRIDGE BAY A","2400601","2022-01-31 00:00","2022","01","31","00:00","-32.1","","-35.2","","75","","","","36","","3","","19.3","","99.99","","","","-36","","NA"
"-105.14","69.11","CAMBRIDGE BAY A","2400601","2022-01-31 01:00","2022","01","31","01:00","-33.4","","-36.5","","74","","","","35","","12","","19.3","","99.98","","","","-44","","NA"
"-105.14","69.11","CAMBRIDGE BAY A","2400601","2022-01-31 02:00","2022","01","31","02:00","-34.7","","-38.2","","71","","","","3","","14","","19.3","","100.00","","","","-47","","Mainly Clear"
"-105.14","69.11","CAMBRIDGE BAY A","2400601","2022-01-31 03:00","2022","01","31","03:00","-34.8","","-38.4","","71","","","","2","","17","","19.3","","99.98","","","","-48","","NA"
"-105.14","69.11","CAMBRIDGE BAY A","2400601","2022-01-31 04:00","2022","01","31","04:00","-35.3","","-39.0","","70","","","","3","","15","","19.3","","99.99","","","","-48","","NA"
"-105.14","69.11","CAMBRIDGE BAY A","2400601","2022-01-31 05:00","2022","01","31","05:00","-34.4","","-37.9","","71","","","","3","","22","","19.3","","100.00","","","","-49","","Mainly Clear"
"-105.14","69.11","CAMBRIDGE BAY A","2400601","2022-01-31 06:00","2022","01","31","06:00","-34.2","","-37.8","","71","","","","2","","23","","9.7","","100.01","","","","-49","","Snow,Blowing Snow"
"-105.14","69.11","CAMBRIDGE BAY A","2400601","2022-01-31 07:00","2022","01","31","07:00","-33.6","","-37.2","","71","","","","1","","12","","6.4","","100.09","","","","-45","","Snow"
"-105.14","69.11","CAMBRIDGE BAY A","2400601","2022-01-31 08:00","2022","01","31","08:00","-33.5","","-37.1","","71","","","","34","","24","","6.4","","100.12","","","","-49","","Snow,Blowing Snow"
"-105.14","69.11","CAMBRIDGE BAY A","2400601","2022-01-31 09:00","2022","01","31","09:00","-33.9","","-37.7","","70","","","","32","","26","","2.4","","100.15","","","","-50","","Snow,Blowing Snow"
"-105.14","69.11","CAMBRIDGE BAY A","2400601","2022-01-31 10:00","2022","01","31","10:00","-34.2","","-37.9","","70","","","","32","","30","","2.0","","100.18","","","","-51","","Snow,Blowing Snow"
"-105.14","69.11","CAMBRIDGE BAY A","2400601","2022-01-31 11:00","2022","01","31","11:00","-34.1","","-37.8","","70","","","","31","","19","","9.7","","100.24","","","","-48","","Snow,Blowing Snow"
"-105.14","69.11","CAMBRIDGE BAY A","2400601","2022-01-31 12:00","2022","01","31","12:00","-33.6","","-37.3","","70","","","","32","","21","","4.8","","100.29","","","","-48","","Snow,Blowing Snow"
"-105.14","69.11","CAMBRIDGE BAY A","2400601","2022-01-31 13:00","2022","01","31","13:00","-33.1","","-36.8","","71","","","","33","","20","","4.8","","100.37","","","","-47","","Snow,Blowing Snow"
"-105.14","69.11","CAMBRIDGE BAY A","2400601","2022-01-31 14:00","2022","01","31","14:00","-33.0","","-36.8","","70","","","","35","","25","","4.8","","100.45","","","","-48","","Snow,Blowing Snow"
"-105.14","69.11","CAMBRIDGE BAY A","2400601","2022-01-31 15:00","2022","01","31","15:00","-32.7","","-36.5","","70","","","","34","","22","","12.9","","100.60","","","","-47","","Snow,Blowing Snow"
"-105.14","69.11","CAMBRIDGE BAY A","2400601","2022-01-31 16:00","2022","01","31","16:00","-31.7","","-35.4","","71","","","","36","","32","","2.4","","100.68","","","","-48","","Snow,Blowing Snow"
"-105.14","69.11","CAMBRIDGE BAY A","2400601","2022-01-31 17:00","2022","01","31","17:00","-32.4","","-36.1","","71","","","","35","","27","","1.6","","100.83","","","","-48","","Snow,Blowing Snow"
"-105.14","69.11","CAMBRIDGE BAY A","2400601","2022-01-31 18:00","2022","01","31","18:00","-32.4","","-35.9","","71","","","","1","","23","","1.0","","100.97","","","","-47","","Snow,Blowing Snow"
"-105.14","69.11","CAMBRIDGE BAY A","2400601","2022-01-31 19:00","2022","01","31","19:00","-32.2","","-35.8","","71","","","","1","","31","","1.0","","101.07","","","","-49","","Snow,Blowing Snow"
"-105.14","69.11","CAMBRIDGE BAY A","2400601","2022-01-31 20:00","2022","01","31","20:00","-33.0","","-36.7","","71","","","","36","","27","","3.2","","101.20","","","","-49","","Snow,Blowing Snow"
"-105.14","69.11","CAMBRIDGE BAY A","2400601","2022-01-31 21:00","2022","01","31","21:00","-32.8","","-36.6","","70","","","","36","","30","","6.4","","101.26","","","","-49","","Blowing Snow"
"-105.14","69.11","CAMBRIDGE BAY A","2400601","2022-01-31 22:00","2022","01","31","22:00","-31.8","","-35.5","","71","","","","33","","21","","6.4","","101.39","","","","-46","","Blowing Snow"
"-105.14","69.11","CAMBRIDGE BAY A","2400601","2022-01-31 23:00","2022","01","31","23:00","-30.1","","-33.6","","72","","","","36","","22","","6.4","","101.49","","","","-44","","Snow,Blowing Snow"
