"Longitude (x)","Latitude (y)","Station Name","Climate ID","Date/Time (LST)","Year","Month","Day","Time (LST)","Temp (°C)","Temp Flag","Dew Point Temp (°C)","Dew Point Temp Flag","Rel Hum (%)","Rel Hum Flag","Precip. Amount (mm)","Precip. Amount Flag","Wind Dir (10s deg)","Wind Dir Flag","Wind Spd (km/h)","Wind Spd Flag","Visibility (km)","Visibility Flag","Stn Press (kPa)","Stn Press Flag","Hmdx","Hmdx Flag","Wind Chill","Wind Chill Flag","Weather"
"-56.07","51.39","ST. ANTHONY A","8403389","2022-10-01 00:30","2022","10","01","00:30","10.8","","8.1","","83","","0.0","","23","","54","","16.1","","100.54","","","","","","NA"
"-56.07","51.39","ST. ANTHONY A","8403389","2022-10-01 01:30","2022","10","01","01:30","10.8","","8.2","","84","","0.0","","23","","39","","16.1","","100.53","","","","","","NA"
"-56.07","51.39","ST. ANTHONY A","8403389","2022-10-01 02:30","2022","10","01","02:30","10.6","","8.4","","86","","0.0","","25","","34","","16.1","","100.55","","","","","","NA"
"-56.07","51.39","ST. ANTHONY A","8403389","2022-10-01 03:30","2022","10","01","03:30","10.6","","8.1","","84","","0.0","","24","","26","","16.1","","100.49","","","","","","NA"
"-56.07","51.39","ST. ANTHONY A","8403389","2022-10-01 04:30","2022","10","01","04:30","10.6","","8.2","","85","","0.0","","23","","28","","16.1","","100.52","","","","","","NA"
"-56.07","51.39","ST. ANTHONY A","8403389","2022-10-01 05:30","2022","10","01","05:30","9.9","","8.4","","90","","0.0","","24","","22","","16.1","","100.53","","","","","","Rain"
"-56.07","51.39","ST. ANTHONY A","8403389","2022-10-01 06:30","2022","10","01","06:30","9.4","","8.5","","94","","0.0","","24","","17","","16.1","","100.56","","","","","","Rain"
"-56.07","51.39","ST. ANTHONY A","8403389","2022-10-01 07:30","2022","10","01","07:30","9.4","","8.7","","95","","0.2","","23","","18","","16.1","","100.56","","","","","","Rain"
"-56.07","51.39","ST. ANTHONY A","8403389","2022-10-01 08:30","2022","10","01","08:30","9.6","","9.0","","96","","0.5","","23","","13","","16.1","","100.58","","","","","","Rain"
"-56.07","51.39","ST. ANTHONY A","8403389","2022-10-01 09:30","2022","10","01","09:30","9.5","","8.7","","95","","1.0","","27","","18","","16.1","","100.62","","","","","","Rain"
"-56.07","51.39","ST. ANTHONY A","8403389","2022-10-01 10:30","2022","10","01","10:30","9.3","","7.6","","89","","0.2","","26","","15","","16.1","","100.61","","","","","","NA"
"-56.07","51.39","ST. ANTHONY A","8403389","2022-10-01 11:30","2022","10","01","11:30","9.2","","6.7","","84","","0.0","","25","","15","","16.1","","100.59","","","","","","NA"
"-56.07","51.39","ST. ANTHONY A","8403389","2022-10-01 12:30","2022","10","01","12:30","11.0","","6.2","","72","","0.0","","29","","22","","16.1","","100.60","","","","","","NA"
"-56.07","51.39","ST. ANTHONY A","8403389","2022-10-01 13:30","2022","10","01","13:30","11.4","","2.4","","54","","0.0","","27","","24","","16.1","","100.60","","","","","","NA"
"-56.07","51.39","ST. ANTHONY A","8403389","2022-10-01 14:30","2022","10","01","14:30","11.6","","2.1","","52","","0.0","","25","","26","","16.1","","100.61","","","","","","NA"
"-56.07","51.39","ST. ANTHONY A","8403389","2022-10-01 15:30","2022","10","01","15:30","11.3","","3.1","","57","","0.0","","24","","30","","16.1","","100.64","","","","","","NA"
"-56.07","51.39","ST. ANTHONY A","8403389","2022-10-01 16:30","2022","10","01","16:30","10.7","","2.7","","57","","0.0","","25","","26","","16.1","","100.70","","","","","","NA"
"-56.07","51.39","ST. ANTHONY A","8403389","2022-10-01 17:30","2022","10","01","17:30","9.1","","3.4","","68","","0.0","","24","","21","","16.1","","100.77","","","","","","NA"
"-56.07","51.39","ST. ANTHONY A","8403389","2022-10-01 18:30","2022","10","01","18:30","8.0","","0.0","","57","","0.0","","31","","22","","16.1","","100.88","","","","","","NA"
"-56.07","51.39","ST. ANTHONY A","8403389","2022-10-01 19:30","2022","10","01","19:30","6.4","","-0.8","","60","","0.0","","31","","15","","16.1","","100.96","","","","","","NA"
"-56.07","51.39","ST. ANTHONY A","8403389","2022-10-01 20:30","2022","10","01","20:30","4.8","","-0.2","","70","","0.0","","25","","11","","16.1","","101.00","","","","","","NA"
"-56.07","51.39","ST. ANTHONY A","8403389","2022-10-01 21:30","2022","10","01","21:30","6.5","","-0.5","","61","","0.0","","27","","18","","16.1","","101.03","","","","","","NA"
"-56.07","51.39","ST. ANTHONY A","8403389","2022-10-01 22:30","2022","10","01","22:30","6.3","","-0.5","","62","","0.0","","27","","18","","16.1","","101.02","","","","","","NA"
"-56.07","51.39","ST. ANTHONY A","8403389","2022-10-01 23:30","2022","10","01","23:30","5.7","","-0.6","","64","","0.0","","27","","17","","16.1","","101.01","","","","","","NA"
"-56.07","51.39","ST. ANTHONY A","8403389","2022-10-02 00:30","2022","10","02","00:30","5.3","","-0.5","","66","","0.0","","28","","21","","16.1","","100.98","","","","","","NA"
"-56.07","51.39","ST. ANTHONY A","8403389","2022-10-02 01:30","2022","10","02","01:30","4.6","","0.0","","72","","0.0","","29","","17","","16.1","","101.00","","","","","","NA"
"-56.07","51.39","ST. ANTHONY A","8403389","2022-10-02 02:30","2022","10","02","02:30","4.3","","-0.1","","73","","0.0","","27","","13","","16.1","","101.01","","","","","","NA"
"-56.07","51.39","ST. ANTHONY A","8403389","2022-10-02 03:30","2022","10","02","03:30","4.6","","0.2","","73","","0.0","","29","","17","","16.1","","100.98","","","","","","NA"
"-56.07","51.39","ST. ANTHONY A","8403389","2022-10-02 04:30","2022","10","02","04:30","4.5","","0.5","","75","","0.0","","30","","15","","16.1","","101.01","","","","","","NA"
"-56.07","51.39","ST. ANTHONY A","8403389","2022-10-02 05:30","2022","10","02","05:30","4.2","","0.7","","78","","0.0","","27","","13","","16.1","","101.04","","","","","","NA"
"-56.07","51.39","ST. ANTHONY A","8403389","2022-10-02 06:30","2022","10","02","06:30","3.9","","0.9","","81","","0.0","","30","","11","","16.1","","101.07","","","","","","NA"
"-56.07","51.39","ST. ANTHONY A","8403389","2022-10-02 07:30","2022","10","02","07:30","4.1","","0.8","","79","","0.0","","31","","13","","16.1","","101.12","","","","","","NA"
"-56.07","51.39","ST. ANTHONY A","8403389","2022-10-02 08:30","2022","10","02","08:30","5.3","","1.1","","74","","0.0","","30","","15","","16.1","","101.18","","","","","","NA"
"-56.07","51.39","ST. ANTHONY A","8403389","2022-10-02 09:30","2022","10","02","09:30","6.3","","1.3","","70","","0.0","","28","","15","","16.1","","101.20","","","","","","NA"
"-56.07","51.39","ST. ANTHONY A","8403389","2022-10-02 10:30","2022","10","02","10:30","7.0","","0.6","","64","","0.0","","31","","13","","16.1","","101.20","","","","","","NA"
"-56.07","51.39","ST. ANTHONY A","8403389","2022-10-02 11:30","2022","10","02","11:30","7.7","","0.0","","58","","0.0","","27","","13","","16.1","","101.20","","","","","","NA"
"-56.07","51.39","ST. ANTHONY A","8403389","2022-10-02 12:30","2022","10","02","12:30","8.0","","0.5","","59","","0.0","","27","","21","","16.1","","101.17","","","","","","NA"
"-56.07","51.39","ST. ANTHONY A","8403389","2022-10-02 13:30","2022","10","02","13:30","8.1","","-0.2","","56","","0.0","","28","","21","","16.1","","101.15","","","","","","NA"
"-56.07","51.39","ST. ANTHONY A","8403389","2022-10-02 14:30","2022","10","02","14:30","9.3","","-1.7","","46","","0.0","","27","","24","","16.1","","101.16","","","","","","NA"
"-56.07","51.39","ST. ANTHONY A","8403389","2022-10-02 15:30","2022","10","02","15:30","8.5","","-3.4","","43","","0.0","","28","","30","","16.1","","101.19","","","","","","NA"
"-56.07","51.39","ST. ANTHONY A","8403389","2022-10-02 16:30","2022","10","02","16:30","7.8","","-1.5","","52","","0.0","","32","","21","","16.1","","101.25","","","","","","NA"
"-56.07","51.39","ST. ANTHONY A","8403389","2022-10-02 17:30","2022","10","02","17:30","6.6","","-1.4","","57","","0.0","","29","","13","","16.1","","101.27","","","","","","NA"
"-56.07","51.39","ST. ANTHONY A","8403389","2022-10-02 18:30","2022","10","02","18:30","5.8","","-1.1","","61","","0.0","","30","","21","","16.1","","101.34","","","","","","NA"
"-56.07","51.39","ST. ANTHONY A","8403389","2022-10-02 19:30","2022","10","02","19:30","4.9","","-2.5","","59","","0.0","","31","","28","","16.1","","101.41","","","","","","NA"
"-56.07","51.39","ST. ANTHONY A","8403389","2022-10-02 20:30","2022","10","02","20:30","4.8","","-3.5","","55","","0.0","","31","","18","","16.1","","101.44","","","","","","NA"
"-56.07","51.39","ST. ANTHONY A","8403389","2022-10-02 21:30","2022","10","02","21:30","4.1","","-2.5","","62","","0.0","","30","","18","","16.1","","101.48","","","","","","NA"
"-56.07","51.39","ST. ANTHONY A","8403389","2022-10-02 22:30","2022","10","02","22:30","3.3","","-2.4","","66","","0.0","","29","","17","","16.1","","101.47","","","","","","NA"
"-56.07","51.39","ST. ANTHONY A","8403389","2022-10-02 23:30","2022","10","02","23:30","3.4","","-3.0","","63","","0.0","","30","","24","","16.1","","101.48","","","","","","NA"
"-56.07","51.39","ST. ANTHONY A","8403389","2022-10-03 00:30","2022","10","03","00:30","3.2","","-2.5","","66","","0.0","","29","","22","","16.1","","101.45","","","","","","NA"
"-56.07","51.39","ST. ANTHONY A","8403389","2022-10-03 01:30","2022","10","03","01:30","2.7","","-2.8","","67","","0.0","","30","","15","","16.1","","101.47","","","","","","NA"
"-56.07","51.39","ST. ANTHONY A","8403389","2022-10-03 02:30","2022","10","03","02:30","2.8","","-4.2","","60","","0.0","","29","","17","","16.1","","101.44","","","","","","NA"
"-56.07","51.39","ST. ANTHONY A","8403389","2022-10-03 03:30","2022","10","03","03:30","3.4","","-4.1","","58","","0.0","","28","","17","","16.1","","101.43","","","","","","NA"
"-56.07","51.39","ST. ANTHONY A","8403389","2022-10-03 04:30","2022","10","03","04:30","0.8","","-3.1","","75","","0.0","","22","","15","","16.1","","101.44","","","","","","NA"
"-56.07","51.39","ST. ANTHONY A","8403389","2022-10-03 05:30","2022","10","03","05:30","-0.2","","-3.1","","81","","0.0","","26","","13","","16.1","","101.46","","","","-4","","NA"
"-56.07","51.39","ST. ANTHONY A","8403389","2022-10-03 06:30","2022","10","03","06:30","1.1","","-3.2","","73","","0.0","","28","","18","","16.1","","101.47","","","","","","NA"
"-56.07","51.39","ST. ANTHONY A","8403389","2022-10-03 07:30","2022","10","03","07:30","3.4","","-3.4","","61","","0.0","","27","","21","","16.1","","101.49","","","","","","NA"
"-56.07","51.39","ST. ANTHONY A","8403389","2022-10-03 08:30","2022","10","03","08:30","4.9","","-1.8","","62","","0.0","","26","","28","","16.1","","101.46","","","","","","NA"
"-56.07","51.39","ST. ANTHONY A","8403389","2022-10-03 09:30","2022","10","03","09:30","5.6","","-2.3","","57","","0.0","","27","","26","","16.1","","101.43","","","","","","NA"
"-56.07","51.39","ST. ANTHONY A","8403389","2022-10-03 10:30","2022","10","03","10:30","6.5","","-3.4","","49","","0.0","","25","","35","","16.1","","101.38","","","","","","NA"
"-56.07","51.39","ST. ANTHONY A","8403389","2022-10-03 11:30","2022","10","03","11:30","7.0","","-3.2","","48","","0.0","","26","","34","","16.1","","101.34","","","","","","NA"
"-56.07","51.39","ST. ANTHONY A","8403389","2022-10-03 12:30","2022","10","03","12:30","7.2","","-3.5","","46","","0.0","","25","","41","","16.1","","101.32","","","","","","NA"
"-56.07","51.39","ST. ANTHONY A","8403389","2022-10-03 13:30","2022","10","03","13:30","8.0","","-2.6","","47","","0.0","","25","","30","","16.1","","101.28","","","","","","NA"
"-56.07","51.39","ST. ANTHONY A","8403389","2022-10-03 14:30","2022","10","03","14:30","8.1","","-2.1","","49","","0.0","","25","","32","","16.1","","101.25","","","","","","NA"
"-56.07","51.39","ST. ANTHONY A","8403389","2022-10-03 15:30","2022","10","03","15:30","7.7","","-1.2","","53","","0.0","","23","","41","","16.1","","101.27","","","","","","NA"
"-56.07","51.39","ST. ANTHONY A","8403389","2022-10-03 16:30","2022","10","03","16:30","7.5","","-0.7","","56","","0.0","","23","","32","","16.1","","101.30","","","","","","NA"
"-56.07","51.39","ST. ANTHONY A","8403389","2022-10-03 17:30","2022","10","03","17:30","6.6","","0.3","","64","","0.0","","23","","22","","16.1","","101.31","","","","","","NA"
"-56.07","51.39","ST. ANTHONY A","8403389","2022-10-03 18:30","2022","10","03","18:30","5.7","","0.9","","71","","0.0","","22","","21","","16.1","","101.36","","","","","","NA"
"-56.07","51.39","ST. ANTHONY A","8403389","2022-10-03 19:30","2022","10","03","19:30","4.7","","1.2","","78","","0.0","","23","","17","","16.1","","101.36","","","","","","NA"
"-56.07","51.39","ST. ANTHONY A","8403389","2022-10-03 20:30","2022","10","03","20:30","4.6","","1.6","","81","","0.0","","23","","21","","16.1","","101.34","","","","","","NA"
"-56.07","51.39","ST. ANTHONY A","8403389","2022-10-03 21:30","2022","10","03","21:30","5.6","","2.1","","78","","0.0","","22","","22","","16.1","","101.37","","","","","","NA"
"-56.07","51.39","ST. ANTHONY A","8403389","2022-10-03 22:30","2022","10","03","22:30","5.3","","2.3","","81","","0.0","","21","","15","","16.1","","101.35","","","","","","NA"
"-56.07","51.39","ST. ANTHONY A","8403389","2022-10-03 23:30","2022","10","03","23:30","4.9","","2.4","","84","","0.0","","20","","21","","16.1","","101.31","","","","","","NA"
"-56.07","51.39","ST. ANTHONY A","8403389","2022-10-04 00:30","2022","10","04","00:30","3.3","","1.5","","88","","0.0","","20","","13","","16.1","","101.27","","","","","","NA"
"-56.07","51.39","ST. ANTHONY A","8403389","2022-10-04 01:30","2022","10","04","01:30","3.4","","1.8","","89","","0.0","","17","","18","","16.1","","101.24","","","","","","NA"
"-56.07","51.39","ST. ANTHONY A","8403389","2022-10-04 02:30","2022","10","04","02:30","3.6","","2.0","","89","","0.0","","18","","17","","16.1","","101.20","","","","","","NA"
"-56.07","51.39","ST. ANTHONY A","8403389","2022-10-04 03:30","2022","10","04","03:30","3.9","","2.6","","91","","0.0","","18","","13","","16.1","","101.12","","","","","","NA"
"-56.07","51.39","ST. ANTHONY A","8403389","2022-10-04 04:30","2022","10","04","04:30","7.3","","4.1","","80","","0.0","","21","","26","","16.1","","101.06","","","","","","NA"
"-56.07","51.39","ST. ANTHONY A","8403389","2022-10-04 05:30","2022","10","04","05:30","7.9","","5.0","","82","","0.0","","20","","17","","16.1","","101.02","","","","","","NA"
"-56.07","51.39","ST. ANTHONY A","8403389","2022-10-04 06:30","2022","10","04","06:30","8.5","","5.4","","81","","0.0","","23","","39","","16.1","","100.96","","","","","","NA"
"-56.07","51.39","ST. ANTHONY A","8403389","2022-10-04 07:30","2022","10","04","07:30","9.4","","5.2","","75","","0.0","","24","","45","","16.1","","100.91","","","","","","NA"
"-56.07","51.39","ST. ANTHONY A","8403389","2022-10-04 08:30","2022","10","04","08:30","10.3","","5.3","","71","","0.0","","23","","37","","16.1","","100.99","","","","","","NA"
"-56.07","51.39","ST. ANTHONY A","8403389","2022-10-04 09:30","2022","10","04","09:30","11.5","","5.2","","65","","0.0","","23","","50","","16.1","","100.86","","","","","","NA"
"-56.07","51.39","ST. ANTHONY A","8403389","2022-10-04 10:30","2022","10","04","10:30","11.1","","5.6","","69","","0.0","","24","","61","","16.1","","100.84","","","","","","NA"
"-56.07","51.39","ST. ANTHONY A","8403389","2022-10-04 11:30","2022","10","04","11:30","11.6","","3.7","","58","","0.0","","24","","58","","16.1","","100.84","","","","","","NA"
"-56.07","51.39","ST. ANTHONY A","8403389","2022-10-04 12:30","2022","10","04","12:30","13.2","","4.1","","54","","0.0","","24","","58","","16.1","","100.84","","","","","","NA"
"-56.07","51.39","ST. ANTHONY A","8403389","2022-10-04 13:30","2022","10","04","13:30","12.5","","3.5","","54","","0.0","","24","","59","","16.1","","100.81","","","","","","NA"
"-56.07","51.39","ST. ANTHONY A","8403389","2022-10-04 14:30","2022","10","04","14:30","12.7","","4.2","","56","","0.0","","24","","50","","16.1","","100.89","","","","","","NA"
"-56.07","51.39","ST. ANTHONY A","8403389","2022-10-04 15:30","2022","10","04","15:30","12.5","","4.8","","59","","0.0","","24","","35","","16.1","","100.91","","","","","","NA"
"-56.07","51.39","ST. ANTHONY A","8403389","2022-10-04 16:30","2022","10","04","16:30","12.5","","5.5","","62","","0.0","","24","","41","","16.1","","100.89","","","","","","NA"
"-56.07","51.39","ST. ANTHONY A","8403389","2022-10-04 17:30","2022","10","04","17:30","11.6","","5.3","","65","","0.0","","24","","45","","16.1","","100.94","","","","","","NA"
"-56.07","51.39","ST. ANTHONY A","8403389","2022-10-04 18:30","2022","10","04","18:30","11.1","","6.1","","71","","0.0","","24","","45","","16.1","","100.95","","","","","","NA"
"-56.07","51.39","ST. ANTHONY A","8403389","2022-10-04 19:30","2022","10","04","19:30","10.9","","6.3","","73","","0.0","","24","","37","","16.1","","101.02","","","","","","NA"
"-56.07","51.39","ST. ANTHONY A","8403389","2022-10-04 20:30","2022","10","04","20:30","10.8","","7.0","","77","","0.0","","23","","45","","16.1","","101.05","","","","","","NA"
"-56.07","51.39","ST. ANTHONY A","8403389","2022-10-04 21:30","2022","10","04","21:30","10.7","","7.2","","79","","0.0","","24","","35","","16.1","","101.04","","","","","","NA"
"-56.07","51.39","ST. ANTHONY A","8403389","2022-10-04 22:30","2022","10","04","22:30","10.6","","7.3","","80","","0.0","","24","","35","","16.1","","101.06","","","","","","NA"
"-56.07","51.39","ST. ANTHONY A","8403389","2022-10-04 23:30","2022","10","04","23:30","10.5","","7.8","","83","","0.0","","24","","24","","16.1","","101.07","","","","","","NA"
"-56.07","51.39","ST. ANTHONY A","8403389","2022-10-05 00:30","2022","10","05","00:30","10.3","","7.7","","84","","0.0","","23","","35","","16.1","","101.00","","","","","","NA"
"-56.07","51.39","ST. ANTHONY A","8403389","2022-10-05 01:30","2022","10","05","01:30","10.2","","8.2","","87","","0.0","","23","","37","","16.1","","101.00","","","","","","NA"
"-56.07","51.39","ST. ANTHONY A","8403389","2022-10-05 02:30","2022","10","05","02:30","10.1","","8.1","","87","","0.0","","23","","26","","16.1","","101.02","","","","","","NA"
"-56.07","51.39","ST. ANTHONY A","8403389","2022-10-05 03:30","2022","10","05","03:30","10.1","","8.2","","88","","0.0","","22","","24","","16.1","","101.03","","","","","","NA"
"-56.07","51.39","ST. ANTHONY A","8403389","2022-10-05 04:30","2022","10","05","04:30","9.5","","7.8","","89","","0.0","","23","","26","","16.1","","101.02","","","","","","NA"
"-56.07","51.39","ST. ANTHONY A","8403389","2022-10-05 05:30","2022","10","05","05:30","9.5","","7.9","","90","","0.0","","23","","24","","16.1","","101.03","","","","","","NA"
"-56.07","51.39","ST. ANTHONY A","8403389","2022-10-05 06:30","2022","10","05","06:30","9.7","","8.0","","89","","0.0","","23","","13","","16.1","","101.04","","","","","","NA"
"-56.07","51.39","ST. ANTHONY A","8403389","2022-10-05 07:30","2022","10","05","07:30","10.1","","7.9","","86","","0.0","","24","","26","","16.1","","101.06","","","","","","NA"
"-56.07","51.39","ST. ANTHONY A","8403389","2022-10-05 08:30","2022","10","05","08:30","11.5","","8.0","","79","","0.0","","23","","37","","16.1","","101.07","","","","","","NA"
"-56.07","51.39","ST. ANTHONY A","8403389","2022-10-05 09:30","2022","10","05","09:30","12.6","","8.3","","75","","0.0","","24","","35","","16.1","","101.08","","","","","","NA"
"-56.07","51.39","ST. ANTHONY A","8403389","2022-10-05 10:30","2022","10","05","10:30","13.0","","8.6","","74","","0.0","","23","","35","","16.1","","101.07","","","","","","NA"
"-56.07","51.39","ST. ANTHONY A","8403389","2022-10-05 11:30","2022","10","05","11:30","13.7","","8.6","","71","","0.0","","24","","41","","16.1","","101.07","","","","","","NA"
"-56.07","51.39","ST. ANTHONY A","8403389","2022-10-05 12:30","2022","10","05","12:30","14.5","","8.5","","67","","0.0","","24","","43","","16.1","","101.04","","","","","","NA"
"-56.07","51.39","ST. ANTHONY A","8403389","2022-10-05 13:30","2022","10","05","13:30","14.3","","9.3","","72","","0.0","","23","","37","","16.1","","101.04","","","","","","NA"
"-56.07","51.39","ST. ANTHONY A","8403389","2022-10-05 14:30","2022","10","05","14:30","14.3","","9.2","","71","","0.0","","23","","39","","16.1","","101.06","","","","","","NA"
"-56.07","51.39","ST. ANTHONY A","8403389","2022-10-05 15:30","2022","10","05","15:30","13.5","","9.0","","74","","0.0","","24","","30","","16.1","","101.11","","","","","","NA"
"-56.07","51.39","ST. ANTHONY A","8403389","2022-10-05 16:30","2022","10","05","16:30","12.7","","8.8","","77","","0.0","","24","","37","","16.1","","101.15","","","","","","NA"
"-56.07","51.39","ST. ANTHONY A","8403389","2022-10-05 17:30","2022","10","05","17:30","11.0","","8.6","","85","","0.0","","23","","28","","16.1","","101.22","","","","","","NA"
"-56.07","51.39","ST. ANTHONY A","8403389","2022-10-05 18:30","2022","10","05","18:30","9.9","","8.4","","90","","0.0","","24","","24","","16.1","","101.25","","","","","","NA"
"-56.07","51.39","ST. ANTHONY A","8403389","2022-10-05 19:30","2022","10","05","19:30","9.6","","8.5","","93","","0.0","","23","","18","","16.1","","101.34","","","","","","NA"
"-56.07","51.39","ST. ANTHONY A","8403389","2022-10-05 20:30","2022","10","05","20:30","9.8","","8.7","","93","","0.0","","25","","21","","16.1","","101.34","","","","","","NA"
"-56.07","51.39","ST. ANTHONY A","8403389","2022-10-05 21:30","2022","10","05","21:30","9.5","","8.4","","93","","0.0","","23","","17","","16.1","","101.34","","","","","","NA"
"-56.07","51.39","ST. ANTHONY A","8403389","2022-10-05 22:30","2022","10","05","22:30","9.2","","8.3","","94","","0.0","","21","","8","","16.1","","101.33","","","","","","NA"
"-56.07","51.39","ST. ANTHONY A","8403389","2022-10-05 23:30","2022","10","05","23:30","9.4","","8.6","","95","","0.0","","18","","5","","16.1","","101.31","","","","","","NA"
"-56.07","51.39","ST. ANTHONY A","8403389","2022-10-06 00:30","2022","10","06","00:30","8.7","","8.1","","96","","0.0","","17","","9","","16.1","","101.28","","","","","","NA"
"-56.07","51.39","ST. ANTHONY A","8403389","2022-10-06 01:30","2022","10","06","01:30","8.5","","8.1","","97","","0.0","","17","","8","","16.1","","101.24","","","","","","NA"
"-56.07","51.39","ST. ANTHONY A","8403389","2022-10-06 02:30","2022","10","06","02:30","8.1","","7.5","","96","","0.0","","14","","9","","16.1","","101.25","","","","","","NA"
"-56.07","51.39","ST. ANTHONY A","8403389","2022-10-06 03:30","2022","10","06","03:30","8.3","","7.7","","96","","0.0","","17","","13","","16.1","","101.22","","","","","","NA"
"-56.07","51.39","ST. ANTHONY A","8403389","2022-10-06 04:30","2022","10","06","04:30","8.9","","7.7","","92","","0.0","","18","","8","","16.1","","101.24","","","","","","NA"
"-56.07","51.39","ST. ANTHONY A","8403389","2022-10-06 05:30","2022","10","06","05:30","9.5","","7.3","","86","","0.0","","20","","8","","16.1","","101.20","","","","","","NA"
"-56.07","51.39","ST. ANTHONY A","8403389","2022-10-06 06:30","2022","10","06","06:30","8.1","","6.7","","91","","0.0","","15","","11","","16.1","","101.17","","","","","","NA"
"-56.07","51.39","ST. ANTHONY A","8403389","2022-10-06 07:30","2022","10","06","07:30","8.7","","6.5","","86","","0.0","","15","","11","","16.1","","101.16","","","","","","NA"
"-56.07","51.39","ST. ANTHONY A","8403389","2022-10-06 08:30","2022","10","06","08:30","10.3","","6.6","","78","","0.0","","14","","15","","16.1","","101.18","","","","","","NA"
"-56.07","51.39","ST. ANTHONY A","8403389","2022-10-06 09:30","2022","10","06","09:30","11.4","","6.6","","72","","0.0","","15","","15","","16.1","","101.16","","","","","","NA"
"-56.07","51.39","ST. ANTHONY A","8403389","2022-10-06 10:30","2022","10","06","10:30","14.8","","7.0","","59","","0.0","","14","","17","","16.1","","101.09","","","","","","NA"
"-56.07","51.39","ST. ANTHONY A","8403389","2022-10-06 11:30","2022","10","06","11:30","14.7","","6.6","","58","","0.0","","15","","13","","16.1","","101.01","","","","","","NA"
"-56.07","51.39","ST. ANTHONY A","8403389","2022-10-06 12:30","2022","10","06","12:30","16.4","","5.7","","49","","0.0","","13","","13","","16.1","","100.90","","","","","","NA"
"-56.07","51.39","ST. ANTHONY A","8403389","2022-10-06 13:30","2022","10","06","13:30","16.2","","9.3","","64","","0.0","","30","","15","","16.1","","100.82","","","","","","NA"
"-56.07","51.39","ST. ANTHONY A","8403389","2022-10-06 14:30","2022","10","06","14:30","17.2","","8.2","","55","","0.0","","25","","11","","16.1","","100.79","","","","","","NA"
"-56.07","51.39","ST. ANTHONY A","8403389","2022-10-06 15:30","2022","10","06","15:30","15.8","","5.9","","51","","0.0","","25","","21","","16.1","","100.77","","","","","","NA"
"-56.07","51.39","ST. ANTHONY A","8403389","2022-10-06 16:30","2022","10","06","16:30","14.6","","3.0","","46","","0.0","","23","","21","","16.1","","100.75","","","","","","NA"
"-56.07","51.39","ST. ANTHONY A","8403389","2022-10-06 17:30","2022","10","06","17:30","11.3","","6.9","","74","","0.0","","25","","15","","16.1","","100.78","","","","","","NA"
"-56.07","51.39","ST. ANTHONY A","8403389","2022-10-06 18:30","2022","10","06","18:30","9.3","","7.3","","87","","0.0","","23","","15","","16.1","","100.81","","","","","","NA"
"-56.07","51.39","ST. ANTHONY A","8403389","2022-10-06 19:30","2022","10","06","19:30","8.6","","7.5","","92","","0.0","","23","","17","","16.1","","100.82","","","","","","NA"
"-56.07","51.39","ST. ANTHONY A","8403389","2022-10-06 20:30","2022","10","06","20:30","7.9","","7.0","","94","","0.0","","23","","11","","16.1","","100.87","","","","","","NA"
"-56.07","51.39","ST. ANTHONY A","8403389","2022-10-06 21:30","2022","10","06","21:30","8.3","","7.2","","93","","0.0","","20","","8","","16.1","","100.83","","","","","","NA"
"-56.07","51.39","ST. ANTHONY A","8403389","2022-10-06 22:30","2022","10","06","22:30","9.2","","8.0","","92","","0.0","","24","","15","","16.1","","100.78","","","","","","NA"
"-56.07","51.39","ST. ANTHONY A","8403389","2022-10-06 23:30","2022","10","06","23:30","10.1","","8.2","","88","","0.0","","27","","22","","16.1","","100.81","","","","","","NA"
"-56.07","51.39","ST. ANTHONY A","8403389","2022-10-07 00:30","2022","10","07","00:30","9.9","","7.7","","86","","0.0","","24","","30","","16.1","","100.77","","","","","","NA"
"-56.07","51.39","ST. ANTHONY A","8403389","2022-10-07 01:30","2022","10","07","01:30","9.8","","7.9","","88","","0.0","","24","","15","","16.1","","100.80","","","","","","NA"
"-56.07","51.39","ST. ANTHONY A","8403389","2022-10-07 02:30","2022","10","07","02:30","9.3","","8.0","","91","","0.0","","25","","11","","16.1","","100.80","","","","","","NA"
"-56.07","51.39","ST. ANTHONY A","8403389","2022-10-07 03:30","2022","10","07","03:30","10.0","","8.9","","93","","0.0","","34","","13","","16.1","","100.91","","","","","","NA"
"-56.07","51.39","ST. ANTHONY A","8403389","2022-10-07 04:30","2022","10","07","04:30","6.0","","4.5","","90","","0.0","","3","","30","","16.1","","100.99","","","","","","NA"
"-56.07","51.39","ST. ANTHONY A","8403389","2022-10-07 05:30","2022","10","07","05:30","6.0","","3.9","","86","","0.0","","3","","28","","16.1","","101.06","","","","","","NA"
"-56.07","51.39","ST. ANTHONY A","8403389","2022-10-07 06:30","2022","10","07","06:30","5.7","","3.7","","87","","0.0","","1","","24","","16.1","","101.16","","","","","","NA"
"-56.07","51.39","ST. ANTHONY A","8403389","2022-10-07 07:30","2022","10","07","07:30","4.9","","3.9","","93","","0.0","","1","","24","","12.9","","101.23","","","","","","NA"
"-56.07","51.39","ST. ANTHONY A","8403389","2022-10-07 08:30","2022","10","07","08:30","5.1","","4.4","","95","","0.2","","2","","22","","16.1","","101.28","","","","","","NA"
"-56.07","51.39","ST. ANTHONY A","8403389","2022-10-07 09:30","2022","10","07","09:30","5.3","","3.3","","87","","0.0","","2","","26","","16.1","","101.34","","","","","","NA"
"-56.07","51.39","ST. ANTHONY A","8403389","2022-10-07 10:30","2022","10","07","10:30","5.2","","3.2","","87","","0.0","","2","","30","","16.1","","101.34","","","","","","NA"
"-56.07","51.39","ST. ANTHONY A","8403389","2022-10-07 11:30","2022","10","07","11:30","5.4","","1.9","","78","","0.0","","3","","32","","16.1","","101.35","","","","","","NA"
"-56.07","51.39","ST. ANTHONY A","8403389","2022-10-07 12:30","2022","10","07","12:30","5.8","","2.6","","80","","0.0","","2","","26","","16.1","","101.36","","","","","","NA"
"-56.07","51.39","ST. ANTHONY A","8403389","2022-10-07 13:30","2022","10","07","13:30","5.7","","2.7","","81","","0.0","","3","","22","","16.1","","101.42","","","","","","NA"
"-56.07","51.39","ST. ANTHONY A","8403389","2022-10-07 14:30","2022","10","07","14:30","5.4","","2.8","","83","","0.0","","3","","22","","16.1","","101.42","","","","","","NA"
"-56.07","51.39","ST. ANTHONY A","8403389","2022-10-07 15:30","2022","10","07","15:30","5.4","","2.0","","79","","0.0","","3","","30","","16.1","","101.45","","","","","","NA"
"-56.07","51.39","ST. ANTHONY A","8403389","2022-10-07 16:30","2022","10","07","16:30","5.2","","1.5","","77","","0.0","","3","","18","","16.1","","101.49","","","","","","NA"
"-56.07","51.39","ST. ANTHONY A","8403389","2022-10-07 17:30","2022","10","07","17:30","5.0","","1.6","","79","","0.0","","4","","21","","16.1","","101.53","","","","","","NA"
"-56.07","51.39","ST. ANTHONY A","8403389","2022-10-07 18:30","2022","10","07","18:30","4.8","","1.8","","81","","0.0","","5","","17","","16.1","","101.58","","","","","","NA"
"-56.07","51.39","ST. ANTHONY A","8403389","2022-10-07 19:30","2022","10","07","19:30","4.6","","1.5","","80","","0.0","","6","","21","","16.1","","101.58","","","","","","NA"
"-56.07","51.39","ST. ANTHONY A","8403389","2022-10-07 20:30","2022","10","07","20:30","4.4","","0.6","","76","","0.0","","6","","21","","16.1","","101.64","","","","","","NA"
"-56.07","51.39","ST. ANTHONY A","8403389","2022-10-07 21:30","2022","10","07","21:30","4.4","","0.7","","77","","0.0","","5","","21","","16.1","","101.64","","","","","","NA"
"-56.07","51.39","ST. ANTHONY A","8403389","2022-10-07 22:30","2022","10","07","22:30","4.1","","0.6","","78","","0.0","","7","","13","","16.1","","101.64","","","","","","Rain"
"-56.07","51.39","ST. ANTHONY A","8403389","2022-10-07 23:30","2022","10","07","23:30","4.0","","1.2","","82","","0.0","","8","","8","","16.1","","101.63","","","","","","NA"
"-56.07","51.39","ST. ANTHONY A","8403389","2022-10-08 00:30","2022","10","08","00:30","4.0","","1.7","","85","","0.0","","5","","11","","16.1","","101.61","","","","","","NA"
"-56.07","51.39","ST. ANTHONY A","8403389","2022-10-08 01:30","2022","10","08","01:30","3.9","","2.1","","88","","0.0","","6","","15","","16.1","","101.55","","","","","","Rain"
"-56.07","51.39","ST. ANTHONY A","8403389","2022-10-08 02:30","2022","10","08","02:30","3.8","","2.6","","92","","0.2","","7","","17","","16.1","","101.52","","","","","","Rain"
"-56.07","51.39","ST. ANTHONY A","8403389","2022-10-08 03:30","2022","10","08","03:30","3.9","","2.6","","91","","0.0","","6","","15","","16.1","","101.52","","","","","","NA"
"-56.07","51.39","ST. ANTHONY A","8403389","2022-10-08 04:30","2022","10","08","04:30","3.9","","2.7","","92","","0.0","","6","","15","","16.1","","101.47","","","","","","Rain"
"-56.07","51.39","ST. ANTHONY A","8403389","2022-10-08 05:30","2022","10","08","05:30","4.1","","3.1","","93","","0.8","","8","","22","","14.5","","101.42","","","","","","Rain"
"-56.07","51.39","ST. ANTHONY A","8403389","2022-10-08 06:30","2022","10","08","06:30","4.3","","3.6","","95","","0.5","","9","","18","","16.1","","101.36","","","","","","Rain"
"-56.07","51.39","ST. ANTHONY A","8403389","2022-10-08 07:30","2022","10","08","07:30","5.0","","4.1","","94","","0.2","","10","","18","","16.1","","101.35","","","","","","NA"
"-56.07","51.39","ST. ANTHONY A","8403389","2022-10-08 08:30","2022","10","08","08:30","5.6","","4.3","","91","","0.0","","11","","21","","16.1","","101.30","","","","","","NA"
"-56.07","51.39","ST. ANTHONY A","8403389","2022-10-08 09:30","2022","10","08","09:30","6.1","","4.8","","91","","0.0","","12","","28","","16.1","","101.21","","","","","","NA"
"-56.07","51.39","ST. ANTHONY A","8403389","2022-10-08 10:30","2022","10","08","10:30","6.9","","5.3","","89","","0.0","","12","","34","","16.1","","101.09","","","","","","NA"
"-56.07","51.39","ST. ANTHONY A","8403389","2022-10-08 11:30","2022","10","08","11:30","7.4","","6.2","","92","","0.0","","13","","28","","16.1","","101.02","","","","","","NA"
"-56.07","51.39","ST. ANTHONY A","8403389","2022-10-08 12:30","2022","10","08","12:30","7.9","","7.0","","94","","0.0","","13","","34","","16.1","","100.86","","","","","","NA"
"-56.07","51.39","ST. ANTHONY A","8403389","2022-10-08 13:30","2022","10","08","13:30","8.7","","7.5","","92","","0.0","","13","","34","","16.1","","100.75","","","","","","NA"
"-56.07","51.39","ST. ANTHONY A","8403389","2022-10-08 14:30","2022","10","08","14:30","8.7","","7.0","","89","","0.0","","13","","34","","16.1","","100.64","","","","","","NA"
"-56.07","51.39","ST. ANTHONY A","8403389","2022-10-08 15:30","2022","10","08","15:30","8.3","","6.8","","90","","0.0","","14","","34","","16.1","","100.56","","","","","","NA"
"-56.07","51.39","ST. ANTHONY A","8403389","2022-10-08 16:30","2022","10","08","16:30","8.2","","7.0","","92","","0.0","","14","","28","","16.1","","100.51","","","","","","NA"
"-56.07","51.39","ST. ANTHONY A","8403389","2022-10-08 17:30","2022","10","08","17:30","8.2","","7.5","","95","","0.2","","14","","32","","16.1","","100.40","","","","","","Rain"
"-56.07","51.39","ST. ANTHONY A","8403389","2022-10-08 18:30","2022","10","08","18:30","8.2","","7.8","","97","","0.8","","13","","24","","16.1","","100.34","","","","","","Rain"
"-56.07","51.39","ST. ANTHONY A","8403389","2022-10-08 19:30","2022","10","08","19:30","8.5","","8.1","","97","","1.5","","14","","22","","14.5","","100.28","","","","","","Rain"
"-56.07","51.39","ST. ANTHONY A","8403389","2022-10-08 20:30","2022","10","08","20:30","8.7","","8.1","","96","","0.8","","14","","18","","16.1","","100.21","","","","","","Rain"
"-56.07","51.39","ST. ANTHONY A","8403389","2022-10-08 21:30","2022","10","08","21:30","8.8","","8.4","","97","","0.5","","14","","15","","16.1","","100.14","","","","","","Rain"
"-56.07","51.39","ST. ANTHONY A","8403389","2022-10-08 22:30","2022","10","08","22:30","9.5","","9.1","","97","","0.5","","17","","22","","16.1","","100.11","","","","","","NA"
"-56.07","51.39","ST. ANTHONY A","8403389","2022-10-08 23:30","2022","10","08","23:30","7.6","","6.6","","93","","1.0","","21","","24","","16.1","","100.12","","","","","","Rain"
"-56.07","51.39","ST. ANTHONY A","8403389","2022-10-09 00:30","2022","10","09","00:30","6.4","","4.6","","88","","0.0","","22","","32","","16.1","","100.14","","","","","","NA"
"-56.07","51.39","ST. ANTHONY A","8403389","2022-10-09 01:30","2022","10","09","01:30","6.0","","4.0","","87","","0.0","","22","","24","","16.1","","100.17","","","","","","NA"
"-56.07","51.39","ST. ANTHONY A","8403389","2022-10-09 02:30","2022","10","09","02:30","6.0","","3.7","","85","","0.0","","22","","24","","16.1","","100.20","","","","","","NA"
"-56.07","51.39","ST. ANTHONY A","8403389","2022-10-09 03:30","2022","10","09","03:30","6.3","","4.0","","85","","0.0","","24","","18","","16.1","","100.25","","","","","","NA"
"-56.07","51.39","ST. ANTHONY A","8403389","2022-10-09 04:30","2022","10","09","04:30","6.1","","3.8","","85","","0.0","","26","","24","","16.1","","100.29","","","","","","NA"
"-56.07","51.39","ST. ANTHONY A","8403389","2022-10-09 05:30","2022","10","09","05:30","5.9","","4.2","","89","","0.0","","26","","15","","16.1","","100.27","","","","","","NA"
"-56.07","51.39","ST. ANTHONY A","8403389","2022-10-09 06:30","2022","10","09","06:30","5.3","","4.0","","91","","0.0","","24","","18","","16.1","","100.29","","","","","","NA"
"-56.07","51.39","ST. ANTHONY A","8403389","2022-10-09 07:30","2022","10","09","07:30","6.4","","3.7","","83","","0.0","","22","","26","","16.1","","100.32","","","","","","NA"
"-56.07","51.39","ST. ANTHONY A","8403389","2022-10-09 08:30","2022","10","09","08:30","7.5","","2.4","","70","","0.0","","22","","35","","16.1","","100.36","","","","","","NA"
"-56.07","51.39","ST. ANTHONY A","8403389","2022-10-09 09:30","2022","10","09","09:30","7.3","","1.5","","66","","0.0","","24","","37","","16.1","","100.35","","","","","","NA"
"-56.07","51.39","ST. ANTHONY A","8403389","2022-10-09 10:30","2022","10","09","10:30","7.4","","1.5","","66","","0.0","","25","","35","","16.1","","100.36","","","","","","NA"
"-56.07","51.39","ST. ANTHONY A","8403389","2022-10-09 11:30","2022","10","09","11:30","7.9","","1.4","","64","","0.0","","24","","37","","16.1","","100.36","","","","","","NA"
"-56.07","51.39","ST. ANTHONY A","8403389","2022-10-09 12:30","2022","10","09","12:30","7.8","","0.3","","59","","0.0","","23","","46","","16.1","","100.40","","","","","","NA"
"-56.07","51.39","ST. ANTHONY A","8403389","2022-10-09 13:30","2022","10","09","13:30","7.2","","0.4","","62","","0.0","","22","","39","","16.1","","100.40","","","","","","NA"
"-56.07","51.39","ST. ANTHONY A","8403389","2022-10-09 14:30","2022","10","09","14:30","7.3","","-0.2","","59","","0.0","","22","","39","","16.1","","100.36","","","","","","NA"
"-56.07","51.39","ST. ANTHONY A","8403389","2022-10-09 15:30","2022","10","09","15:30","7.7","","-0.3","","57","","0.0","","23","","37","","16.1","","100.31","","","","","","NA"
"-56.07","51.39","ST. ANTHONY A","8403389","2022-10-09 16:30","2022","10","09","16:30","7.0","","0.3","","63","","0.0","","24","","34","","16.1","","100.27","","","","","","NA"
"-56.07","51.39","ST. ANTHONY A","8403389","2022-10-09 17:30","2022","10","09","17:30","6.1","","0.8","","69","","0.0","","23","","18","","16.1","","100.30","","","","","","NA"
"-56.07","51.39","ST. ANTHONY A","8403389","2022-10-09 18:30","2022","10","09","18:30","5.2","","1.0","","74","","0.0","","20","","15","","16.1","","100.31","","","","","","NA"
"-56.07","51.39","ST. ANTHONY A","8403389","2022-10-09 19:30","2022","10","09","19:30","4.5","","1.4","","80","","0.0","","17","","11","","16.1","","100.29","","","","","","NA"
"-56.07","51.39","ST. ANTHONY A","8403389","2022-10-09 20:30","2022","10","09","20:30","5.1","","1.8","","79","","0.0","","18","","15","","16.1","","100.28","","","","","","NA"
"-56.07","51.39","ST. ANTHONY A","8403389","2022-10-09 21:30","2022","10","09","21:30","4.6","","2.6","","87","","0.0","","22","","21","","16.1","","100.24","","","","","","Rain"
"-56.07","51.39","ST. ANTHONY A","8403389","2022-10-09 22:30","2022","10","09","22:30","4.2","","2.9","","91","","0.0","","21","","17","","16.1","","100.24","","","","","","Rain"
"-56.07","51.39","ST. ANTHONY A","8403389","2022-10-09 23:30","2022","10","09","23:30","3.4","","2.5","","94","","0.2","","19","","11","","16.1","","100.19","","","","","","NA"
"-56.07","51.39","ST. ANTHONY A","8403389","2022-10-10 00:30","2022","10","10","00:30","3.0","","2.4","","96","","0.0","","17","","11","","16.1","","100.14","","","","","","NA"
"-56.07","51.39","ST. ANTHONY A","8403389","2022-10-10 01:30","2022","10","10","01:30","3.3","","2.6","","95","","0.0","","19","","11","","16.1","","100.12","","","","","","NA"
"-56.07","51.39","ST. ANTHONY A","8403389","2022-10-10 02:30","2022","10","10","02:30","3.1","","2.4","","95","","0.0","","17","","11","","16.1","","100.07","","","","","","NA"
"-56.07","51.39","ST. ANTHONY A","8403389","2022-10-10 03:30","2022","10","10","03:30","3.7","","2.5","","92","","0.0","","16","","17","","16.1","","100.04","","","","","","NA"
"-56.07","51.39","ST. ANTHONY A","8403389","2022-10-10 04:30","2022","10","10","04:30","3.7","","2.8","","94","","0.0","","17","","15","","16.1","","100.01","","","","","","Rain"
"-56.07","51.39","ST. ANTHONY A","8403389","2022-10-10 05:30","2022","10","10","05:30","3.9","","3.2","","95","","1.0","","22","","9","","12.9","","100.01","","","","","","Rain"
"-56.07","51.39","ST. ANTHONY A","8403389","2022-10-10 06:30","2022","10","10","06:30","3.6","","3.0","","96","","2.2","","11","","5","","16.1","","100.00","","","","","","Rain"
"-56.07","51.39","ST. ANTHONY A","8403389","2022-10-10 07:30","2022","10","10","07:30","3.9","","3.3","","96","","1.0","","28","","13","","16.1","","100.08","","","","","","Rain"
"-56.07","51.39","ST. ANTHONY A","8403389","2022-10-10 08:30","2022","10","10","08:30","4.6","","3.4","","92","","0.0","","27","","11","","16.1","","100.18","","","","","","NA"
"-56.07","51.39","ST. ANTHONY A","8403389","2022-10-10 09:30","2022","10","10","09:30","5.4","","3.9","","90","","0.0","","27","","15","","16.1","","100.31","","","","","","NA"
"-56.07","51.39","ST. ANTHONY A","8403389","2022-10-10 10:30","2022","10","10","10:30","5.9","","3.2","","83","","0.0","","26","","26","","16.1","","100.40","","","","","","NA"
"-56.07","51.39","ST. ANTHONY A","8403389","2022-10-10 11:30","2022","10","10","11:30","7.2","","2.7","","73","","0.0","","25","","24","","16.1","","100.48","","","","","","NA"
"-56.07","51.39","ST. ANTHONY A","8403389","2022-10-10 12:30","2022","10","10","12:30","8.6","","1.4","","61","","0.0","","25","","32","","16.1","","100.49","","","","","","NA"
"-56.07","51.39","ST. ANTHONY A","8403389","2022-10-10 13:30","2022","10","10","13:30","7.4","","0.1","","60","","0.0","","24","","34","","16.1","","100.54","","","","","","NA"
"-56.07","51.39","ST. ANTHONY A","8403389","2022-10-10 14:30","2022","10","10","14:30","7.8","","0.2","","59","","0.0","","24","","35","","16.1","","100.59","","","","","","NA"
"-56.07","51.39","ST. ANTHONY A","8403389","2022-10-10 15:30","2022","10","10","15:30","6.3","","-0.6","","61","","0.0","","24","","32","","16.1","","100.64","","","","","","NA"
"-56.07","51.39","ST. ANTHONY A","8403389","2022-10-10 16:30","2022","10","10","16:30","6.1","","0.2","","66","","0.0","","23","","34","","16.1","","100.68","","","","","","NA"
"-56.07","51.39","ST. ANTHONY A","8403389","2022-10-10 17:30","2022","10","10","17:30","4.8","","-1.2","","65","","0.0","","25","","24","","16.1","","100.73","","","","","","NA"
"-56.07","51.39","ST. ANTHONY A","8403389","2022-10-10 18:30","2022","10","10","18:30","4.0","","-0.6","","72","","0.0","","20","","11","","16.1","","100.80","","","","","","NA"
"-56.07","51.39","ST. ANTHONY A","8403389","2022-10-10 19:30","2022","10","10","19:30","4.4","","-0.6","","70","","0.0","","20","","11","","16.1","","100.83","","","","","","NA"
"-56.07","51.39","ST. ANTHONY A","8403389","2022-10-10 20:30","2022","10","10","20:30","4.6","","-0.9","","67","","0.0","","21","","9","","16.1","","100.84","","","","","","NA"
"-56.07","51.39","ST. ANTHONY A","8403389","2022-10-10 21:30","2022","10","10","21:30","4.4","","-0.2","","72","","0.0","","24","","5","","16.1","","100.85","","","","","","NA"
"-56.07","51.39","ST. ANTHONY A","8403389","2022-10-10 22:30","2022","10","10","22:30","2.7","","-0.2","","81","","0.0","","16","","11","","16.1","","100.86","","","","","","NA"
"-56.07","51.39","ST. ANTHONY A","8403389","2022-10-10 23:30","2022","10","10","23:30","2.1","","-1.0","","80","","0.0","","16","","13","","16.1","","100.84","","","","","","NA"
"-56.07","51.39","ST. ANTHONY A","8403389","2022-10-11 00:30","2022","10","11","00:30","2.7","","0.1","","83","","0.0","","18","","15","","16.1","","100.84","","","","","","NA"
"-56.07","51.39","ST. ANTHONY A","8403389","2022-10-11 01:30","2022","10","11","01:30","2.1","","1.2","","94","","1.2","","16","","11","","16.1","","100.85","","","","","","Rain"
"-56.07","51.39","ST. ANTHONY A","8403389","2022-10-11 02:30","2022","10","11","02:30","1.5","","0.8","","95","","0.0","","14","","9","","16.1","","100.74","","","","","","NA"
"-56.07","51.39","ST. ANTHONY A","8403389","2022-10-11 03:30","2022","10","11","03:30","2.9","","1.9","","93","","0.2","","18","","18","","16.1","","100.71","","","","","","Rain"
"-56.07","51.39","ST. ANTHONY A","8403389","2022-10-11 04:30","2022","10","11","04:30","3.3","","2.0","","91","","0.2","","23","","17","","16.1","","100.76","","","","","","Rain"
"-56.07","51.39","ST. ANTHONY A","8403389","2022-10-11 05:30","2022","10","11","05:30","2.8","","1.2","","89","","0.0","","25","","15","","16.1","","100.80","","","","","","NA"
"-56.07","51.39","ST. ANTHONY A","8403389","2022-10-11 06:30","2022","10","11","06:30","0.9","","0.0","","94","","0.0","","16","","8","","16.1","","100.80","","","","","","NA"
"-56.07","51.39","ST. ANTHONY A","8403389","2022-10-11 07:30","2022","10","11","07:30","1.9","","1.0","","94","","0.0","","15","","13","","16.1","","100.83","","","","","","NA"
"-56.07","51.39","ST. ANTHONY A","8403389","2022-10-11 08:30","2022","10","11","08:30","4.8","","3.6","","92","","0.0","","19","","11","","16.1","","100.84","","","","","","NA"
"-56.07","51.39","ST. ANTHONY A","8403389","2022-10-11 09:30","2022","10","11","09:30","6.6","","3.1","","78","","0.0","","24","","21","","16.1","","100.83","","","","","","NA"
"-56.07","51.39","ST. ANTHONY A","8403389","2022-10-11 10:30","2022","10","11","10:30","7.6","","2.5","","70","","0.0","","22","","35","","16.1","","100.77","","","","","","NA"
"-56.07","51.39","ST. ANTHONY A","8403389","2022-10-11 11:30","2022","10","11","11:30","8.9","","1.8","","61","","0.0","","23","","46","","16.1","","100.74","","","","","","NA"
"-56.07","51.39","ST. ANTHONY A","8403389","2022-10-11 12:30","2022","10","11","12:30","8.7","","1.5","","60","","0.0","","23","","61","","16.1","","100.66","","","","","","NA"
"-56.07","51.39","ST. ANTHONY A","8403389","2022-10-11 13:30","2022","10","11","13:30","6.8","","4.4","","84","","0.0","","22","","30","","16.1","","100.59","","","","","","Rain"
"-56.07","51.39","ST. ANTHONY A","8403389","2022-10-11 14:30","2022","10","11","14:30","6.5","","4.5","","87","","0.2","","21","","35","","16.1","","100.47","","","","","","Rain"
"-56.07","51.39","ST. ANTHONY A","8403389","2022-10-11 15:30","2022","10","11","15:30","6.5","","4.6","","87","","1.0","","21","","35","","16.1","","100.39","","","","","","Rain"
"-56.07","51.39","ST. ANTHONY A","8403389","2022-10-11 16:30","2022","10","11","16:30","6.9","","5.2","","89","","1.0","","22","","37","","14.5","","100.32","","","","","","Rain"
"-56.07","51.39","ST. ANTHONY A","8403389","2022-10-11 17:30","2022","10","11","17:30","6.8","","5.3","","90","","1.5","","22","","43","","9.7","","100.29","","","","","","Rain,Fog"
"-56.07","51.39","ST. ANTHONY A","8403389","2022-10-11 18:30","2022","10","11","18:30","6.8","","5.3","","90","","1.8","","23","","45","","14.5","","100.27","","","","","","Rain"
"-56.07","51.39","ST. ANTHONY A","8403389","2022-10-11 19:30","2022","10","11","19:30","6.7","","5.0","","89","","1.0","","24","","35","","14.5","","100.24","","","","","","Rain"
"-56.07","51.39","ST. ANTHONY A","8403389","2022-10-11 20:30","2022","10","11","20:30","6.7","","4.6","","86","","0.0","","24","","34","","16.1","","100.27","","","","","","Rain"
"-56.07","51.39","ST. ANTHONY A","8403389","2022-10-11 21:30","2022","10","11","21:30","6.4","","4.1","","85","","0.0","","24","","32","","16.1","","100.32","","","","","","NA"
"-56.07","51.39","ST. ANTHONY A","8403389","2022-10-11 22:30","2022","10","11","22:30","6.2","","3.9","","85","","0.0","","25","","30","","16.1","","100.36","","","","","","NA"
"-56.07","51.39","ST. ANTHONY A","8403389","2022-10-11 23:30","2022","10","11","23:30","4.4","","1.5","","81","","0.0","","28","","26","","16.1","","100.50","","","","","","NA"
"-56.07","51.39","ST. ANTHONY A","8403389","2022-10-12 00:30","2022","10","12","00:30","3.1","","0.2","","81","","0.0","","31","","28","","16.1","","100.67","","","","","","NA"
"-56.07","51.39","ST. ANTHONY A","8403389","2022-10-12 01:30","2022","10","12","01:30","2.0","","-0.4","","84","","0.0","","30","","11","","16.1","","100.81","","","","","","NA"
"-56.07","51.39","ST. ANTHONY A","8403389","2022-10-12 02:30","2022","10","12","02:30","1.5","","-0.9","","84","","0.0","","30","","11","","16.1","","100.89","","","","","","NA"
"-56.07","51.39","ST. ANTHONY A","8403389","2022-10-12 03:30","2022","10","12","03:30","0.7","","-1.4","","86","","0.0","","28","","13","","16.1","","100.97","","","","","","NA"
"-56.07","51.39","ST. ANTHONY A","8403389","2022-10-12 04:30","2022","10","12","04:30","0.8","","-1.5","","85","","0.0","","26","","9","","16.1","","101.06","","","","","","NA"
"-56.07","51.39","ST. ANTHONY A","8403389","2022-10-12 05:30","2022","10","12","05:30","0.0","","-1.5","","90","","0.0","","26","","15","","16.1","","101.13","","","","-4","","NA"
"-56.07","51.39","ST. ANTHONY A","8403389","2022-10-12 06:30","2022","10","12","06:30","0.1","","-1.7","","88","","0.0","","25","","13","","16.1","","101.20","","","","","","NA"
"-56.07","51.39","ST. ANTHONY A","8403389","2022-10-12 07:30","2022","10","12","07:30","0.1","","-1.2","","91","","0.0","","23","","18","","16.1","","101.29","","","","","","NA"
"-56.07","51.39","ST. ANTHONY A","8403389","2022-10-12 08:30","2022","10","12","08:30","2.9","","0.1","","82","","0.0","","25","","8","","16.1","","101.31","","","","","","NA"
"-56.07","51.39","ST. ANTHONY A","8403389","2022-10-12 09:30","2022","10","12","09:30","4.2","","0.3","","76","","0.0","","25","","13","","16.1","","101.30","","","","","","NA"
"-56.07","51.39","ST. ANTHONY A","8403389","2022-10-12 10:30","2022","10","12","10:30","5.1","","-1.3","","63","","0.0","","24","","9","","16.1","","101.31","","","","","","NA"
"-56.07","51.39","ST. ANTHONY A","8403389","2022-10-12 11:30","2022","10","12","11:30","6.4","","-1.9","","55","","0.0","","22","","21","","16.1","","101.31","","","","","","NA"
"-56.07","51.39","ST. ANTHONY A","8403389","2022-10-12 12:30","2022","10","12","12:30","7.4","","-2.5","","49","","0.0","","24","","30","","16.1","","101.31","","","","","","NA"
"-56.07","51.39","ST. ANTHONY A","8403389","2022-10-12 13:30","2022","10","12","13:30","6.8","","-1.7","","55","","0.0","","24","","26","","16.1","","101.30","","","","","","NA"
"-56.07","51.39","ST. ANTHONY A","8403389","2022-10-12 14:30","2022","10","12","14:30","5.5","","-2.3","","57","","0.0","","25","","24","","16.1","","101.32","","","","","","NA"
"-56.07","51.39","ST. ANTHONY A","8403389","2022-10-12 15:30","2022","10","12","15:30","4.9","","-2.4","","59","","0.0","","24","","22","","16.1","","101.33","","","","","","NA"
"-56.07","51.39","ST. ANTHONY A","8403389","2022-10-12 16:30","2022","10","12","16:30","4.7","","-1.5","","64","","0.0","","24","","22","","16.1","","101.34","","","","","","NA"
"-56.07","51.39","ST. ANTHONY A","8403389","2022-10-12 17:30","2022","10","12","17:30","4.5","","-0.9","","68","","0.0","","24","","13","","16.1","","101.38","","","","","","NA"
"-56.07","51.39","ST. ANTHONY A","8403389","2022-10-12 18:30","2022","10","12","18:30","4.4","","-0.4","","71","","0.0","","23","","18","","16.1","","101.40","","","","","","NA"
"-56.07","51.39","ST. ANTHONY A","8403389","2022-10-12 19:30","2022","10","12","19:30","4.3","","0.5","","76","","0.0","","23","","15","","16.1","","101.43","","","","","","NA"
"-56.07","51.39","ST. ANTHONY A","8403389","2022-10-12 20:30","2022","10","12","20:30","4.2","","2.3","","87","","0.0","","23","","17","","16.1","","101.49","","","","","","NA"
"-56.07","51.39","ST. ANTHONY A","8403389","2022-10-12 21:30","2022","10","12","21:30","4.2","","2.4","","88","","0.0","","24","","15","","16.1","","101.54","","","","","","NA"
"-56.07","51.39","ST. ANTHONY A","8403389","2022-10-12 22:30","2022","10","12","22:30","4.1","","2.5","","89","","0.0","","26","","9","","16.1","","101.57","","","","","","NA"
"-56.07","51.39","ST. ANTHONY A","8403389","2022-10-12 23:30","2022","10","12","23:30","3.7","","2.4","","91","","0.0","","28","","4","","16.1","","101.59","","","","","","NA"
"-56.07","51.39","ST. ANTHONY A","8403389","2022-10-13 00:30","2022","10","13","00:30","2.5","","1.6","","94","","0.0","","","","0","","16.1","","101.60","","","","","","NA"
"-56.07","51.39","ST. ANTHONY A","8403389","2022-10-13 01:30","2022","10","13","01:30","0.5","","0.2","","98","","0.0","","32","","5","","16.1","","101.63","","","","","","NA"
"-56.07","51.39","ST. ANTHONY A","8403389","2022-10-13 02:30","2022","10","13","02:30","-0.4","","-1.1","","95","","0.0","","34","","9","","16.1","","101.64","","","","-4","","NA"
"-56.07","51.39","ST. ANTHONY A","8403389","2022-10-13 03:30","2022","10","13","03:30","1.0","","0.0","","93","","0.0","","33","","8","","16.1","","101.66","","","","","","NA"
"-56.07","51.39","ST. ANTHONY A","8403389","2022-10-13 04:30","2022","10","13","04:30","1.4","","0.2","","92","","0.0","","35","","4","","16.1","","101.72","","","","","","NA"
"-56.07","51.39","ST. ANTHONY A","8403389","2022-10-13 05:30","2022","10","13","05:30","1.3","","0.3","","93","","0.0","","2","","8","","16.1","","101.78","","","","","","NA"
"-56.07","51.39","ST. ANTHONY A","8403389","2022-10-13 06:30","2022","10","13","06:30","1.8","","0.6","","92","","0.0","","3","","5","","16.1","","101.83","","","","","","NA"
"-56.07","51.39","ST. ANTHONY A","8403389","2022-10-13 07:30","2022","10","13","07:30","2.4","","0.6","","88","","0.0","","4","","4","","16.1","","101.91","","","","","","NA"
"-56.07","51.39","ST. ANTHONY A","8403389","2022-10-13 08:30","2022","10","13","08:30","3.6","","1.2","","84","","0.0","","4","","9","","16.1","","101.98","","","","","","NA"
"-56.07","51.39","ST. ANTHONY A","8403389","2022-10-13 09:30","2022","10","13","09:30","4.1","","0.9","","80","","0.0","","6","","9","","16.1","","102.03","","","","","","NA"
"-56.07","51.39","ST. ANTHONY A","8403389","2022-10-13 10:30","2022","10","13","10:30","4.4","","0.9","","78","","0.0","","","","0","","16.1","","102.09","","","","","","NA"
"-56.07","51.39","ST. ANTHONY A","8403389","2022-10-13 11:30","2022","10","13","11:30","4.5","","2.9","","89","","0.0","","","M","4","","4.8","","102.13","","","","","","Rain,Fog"
"-56.07","51.39","ST. ANTHONY A","8403389","2022-10-13 12:30","2022","10","13","12:30","4.3","","2.9","","90","","0.0","","","","0","","16.1","","102.18","","","","","","NA"
"-56.07","51.39","ST. ANTHONY A","8403389","2022-10-13 13:30","2022","10","13","13:30","5.1","","3.3","","88","","0.0","","15","","8","","16.1","","102.19","","","","","","NA"
"-56.07","51.39","ST. ANTHONY A","8403389","2022-10-13 14:30","2022","10","13","14:30","5.4","","3.1","","85","","0.0","","14","","5","","16.1","","102.23","","","","","","NA"
"-56.07","51.39","ST. ANTHONY A","8403389","2022-10-13 15:30","2022","10","13","15:30","5.8","","2.8","","81","","0.0","","15","","9","","16.1","","102.24","","","","","","NA"
"-56.07","51.39","ST. ANTHONY A","8403389","2022-10-13 16:30","2022","10","13","16:30","5.6","","3.0","","83","","0.0","","13","","13","","16.1","","102.29","","","","","","NA"
"-56.07","51.39","ST. ANTHONY A","8403389","2022-10-13 17:30","2022","10","13","17:30","5.3","","3.2","","86","","0.0","","12","","9","","16.1","","102.33","","","","","","NA"
"-56.07","51.39","ST. ANTHONY A","8403389","2022-10-13 18:30","2022","10","13","18:30","5.3","","3.5","","88","","0.0","","12","","11","","16.1","","102.40","","","","","","NA"
"-56.07","51.39","ST. ANTHONY A","8403389","2022-10-13 19:30","2022","10","13","19:30","5.4","","3.5","","88","","0.0","","13","","15","","16.1","","102.47","","","","","","NA"
"-56.07","51.39","ST. ANTHONY A","8403389","2022-10-13 20:30","2022","10","13","20:30","5.6","","4.0","","89","","0.0","","12","","13","","16.1","","102.52","","","","","","NA"
"-56.07","51.39","ST. ANTHONY A","8403389","2022-10-13 21:30","2022","10","13","21:30","5.9","","4.7","","92","","0.0","","13","","9","","16.1","","102.55","","","","","","NA"
"-56.07","51.39","ST. ANTHONY A","8403389","2022-10-13 22:30","2022","10","13","22:30","6.1","","5.1","","93","","0.0","","13","","15","","16.1","","102.54","","","","","","NA"
"-56.07","51.39","ST. ANTHONY A","8403389","2022-10-13 23:30","2022","10","13","23:30","6.3","","5.3","","93","","0.0","","14","","13","","16.1","","102.56","","","","","","NA"
"-56.07","51.39","ST. ANTHONY A","8403389","2022-10-14 00:30","2022","10","14","00:30","6.3","","5.3","","93","","0.0","","14","","11","","16.1","","102.57","","","","","","NA"
"-56.07","51.39","ST. ANTHONY A","8403389","2022-10-14 01:30","2022","10","14","01:30","5.9","","5.3","","96","","0.0","","14","","11","","16.1","","102.57","","","","","","NA"
"-56.07","51.39","ST. ANTHONY A","8403389","2022-10-14 02:30","2022","10","14","02:30","5.6","","5.2","","97","","0.0","","16","","11","","16.1","","102.60","","","","","","NA"
"-56.07","51.39","ST. ANTHONY A","8403389","2022-10-14 03:30","2022","10","14","03:30","5.4","","5.0","","97","","0.0","","18","","8","","16.1","","102.61","","","","","","NA"
"-56.07","51.39","ST. ANTHONY A","8403389","2022-10-14 04:30","2022","10","14","04:30","5.0","","4.6","","97","","0.0","","17","","5","","16.1","","102.63","","","","","","NA"
"-56.07","51.39","ST. ANTHONY A","8403389","2022-10-14 05:30","2022","10","14","05:30","4.8","","4.5","","98","","0.0","","19","","11","","16.1","","102.68","","","","","","NA"
"-56.07","51.39","ST. ANTHONY A","8403389","2022-10-14 06:30","2022","10","14","06:30","3.9","","3.6","","98","","0.0","","","","0","","16.1","","102.70","","","","","","NA"
"-56.07","51.39","ST. ANTHONY A","8403389","2022-10-14 07:30","2022","10","14","07:30","4.8","","4.7","","99","","0.0","","17","","8","","16.1","","102.73","","","","","","NA"
"-56.07","51.39","ST. ANTHONY A","8403389","2022-10-14 08:30","2022","10","14","08:30","5.7","","5.4","","98","","0.0","","","M","4","","16.1","","102.77","","","","","","NA"
"-56.07","51.39","ST. ANTHONY A","8403389","2022-10-14 09:30","2022","10","14","09:30","7.7","","7.1","","96","","0.0","","18","","5","","16.1","","102.78","","","","","","NA"
"-56.07","51.39","ST. ANTHONY A","8403389","2022-10-14 10:30","2022","10","14","10:30","11.0","","8.3","","83","","0.0","","","M","4","","16.1","","102.79","","","","","","NA"
"-56.07","51.39","ST. ANTHONY A","8403389","2022-10-14 11:30","2022","10","14","11:30","14.1","","7.7","","65","","0.0","","23","","17","","16.1","","102.79","","","","","","NA"
"-56.07","51.39","ST. ANTHONY A","8403389","2022-10-14 12:30","2022","10","14","12:30","15.6","","7.4","","58","","0.0","","26","","13","","16.1","","102.75","","","","","","NA"
"-56.07","51.39","ST. ANTHONY A","8403389","2022-10-14 13:30","2022","10","14","13:30","15.2","","6.9","","57","","0.0","","24","","21","","16.1","","102.78","","","","","","NA"
"-56.07","51.39","ST. ANTHONY A","8403389","2022-10-14 14:30","2022","10","14","14:30","15.0","","7.6","","61","","0.0","","25","","21","","16.1","","102.75","","","","","","NA"
"-56.07","51.39","ST. ANTHONY A","8403389","2022-10-14 15:30","2022","10","14","15:30","13.8","","7.3","","65","","0.0","","25","","18","","16.1","","102.77","","","","","","NA"
"-56.07","51.39","ST. ANTHONY A","8403389","2022-10-14 16:30","2022","10","14","16:30","12.0","","7.4","","73","","0.0","","25","","18","","16.1","","102.81","","","","","","NA"
"-56.07","51.39","ST. ANTHONY A","8403389","2022-10-14 17:30","2022","10","14","17:30","9.8","","7.2","","84","","0.0","","25","","13","","16.1","","102.85","","","","","","NA"
"-56.07","51.39","ST. ANTHONY A","8403389","2022-10-14 18:30","2022","10","14","18:30","7.8","","7.2","","96","","0.0","","24","","21","","14.5","","102.86","","","","","","NA"
"-56.07","51.39","ST. ANTHONY A","8403389","2022-10-14 19:30","2022","10","14","19:30","7.9","","7.5","","97","","0.0","","24","","17","","14.5","","102.91","","","","","","NA"
"-56.07","51.39","ST. ANTHONY A","8403389","2022-10-14 20:30","2022","10","14","20:30","7.9","","7.5","","97","","0.0","","24","","13","","16.1","","102.91","","","","","","NA"
"-56.07","51.39","ST. ANTHONY A","8403389","2022-10-14 21:30","2022","10","14","21:30","8.0","","7.6","","97","","0.0","","25","","21","","16.1","","102.91","","","","","","NA"
"-56.07","51.39","ST. ANTHONY A","8403389","2022-10-14 22:30","2022","10","14","22:30","8.2","","7.8","","97","","0.0","","23","","11","","14.5","","102.90","","","","","","NA"
"-56.07","51.39","ST. ANTHONY A","8403389","2022-10-14 23:30","2022","10","14","23:30","8.0","","7.7","","98","","0.0","","23","","13","","3.2","","102.86","","","","","","Fog"
"-56.07","51.39","ST. ANTHONY A","8403389","2022-10-15 00:30","2022","10","15","00:30","7.9","","7.6","","98","","0.0","","22","","15","","2.0","","102.83","","","","","","Fog"
"-56.07","51.39","ST. ANTHONY A","8403389","2022-10-15 01:30","2022","10","15","01:30","8.0","","7.9","","99","","0.0","","23","","13","","1.2","","102.83","","","","","","Fog"
"-56.07","51.39","ST. ANTHONY A","8403389","2022-10-15 02:30","2022","10","15","02:30","7.8","","7.7","","99","","0.0","","24","","8","","1.2","","102.82","","","","","","Fog"
"-56.07","51.39","ST. ANTHONY A","8403389","2022-10-15 03:30","2022","10","15","03:30","7.6","","7.5","","99","","0.0","","24","","9","","0.8","","102.83","","","","","","Fog"
"-56.07","51.39","ST. ANTHONY A","8403389","2022-10-15 04:30","2022","10","15","04:30","7.6","","7.5","","99","","0.0","","22","","9","","0.8","","102.83","","","","","","Fog"
"-56.07","51.39","ST. ANTHONY A","8403389","2022-10-15 05:30","2022","10","15","05:30","7.5","","7.4","","99","","0.0","","21","","5","","0.8","","102.82","","","","","","Fog"
"-56.07","51.39","ST. ANTHONY A","8403389","2022-10-15 06:30","2022","10","15","06:30","7.1","","7.0","","99","","0.0","","20","","8","","0.4","","102.78","","","","","","Fog"
"-56.07","51.39","ST. ANTHONY A","8403389","2022-10-15 07:30","2022","10","15","07:30","7.0","","6.9","","99","","0.0","","17","","9","","0.2","","102.75","","","","","","Fog"
"-56.07","51.39","ST. ANTHONY A","8403389","2022-10-15 08:30","2022","10","15","08:30","7.2","","7.1","","99","","0.0","","14","","11","","0.2","","102.74","","","","","","Fog"
"-56.07","51.39","ST. ANTHONY A","8403389","2022-10-15 09:30","2022","10","15","09:30","7.4","","7.3","","99","","0.0","","15","","8","","0.2","","102.72","","","","","","Fog"
"-56.07","51.39","ST. ANTHONY A","8403389","2022-10-15 10:30","2022","10","15","10:30","8.0","","7.9","","99","","0.0","","15","","4","","0.6","","102.67","","","","","","Fog"
"-56.07","51.39","ST. ANTHONY A","8403389","2022-10-15 11:30","2022","10","15","11:30","12.5","","9.3","","81","","0.0","","17","","5","","16.1","","102.59","","","","","","NA"
"-56.07","51.39","ST. ANTHONY A","8403389","2022-10-15 12:30","2022","10","15","12:30","14.5","","8.9","","69","","0.0","","15","","9","","16.1","","102.54","","","","","","NA"
"-56.07","51.39","ST. ANTHONY A","8403389","2022-10-15 13:30","2022","10","15","13:30","12.3","","7.8","","74","","0.0","","15","","11","","16.1","","102.47","","","","","","NA"
"-56.07","51.39","ST. ANTHONY A","8403389","2022-10-15 14:30","2022","10","15","14:30","13.5","","8.1","","70","","0.0","","16","","8","","16.1","","102.40","","","","","","NA"
"-56.07","51.39","ST. ANTHONY A","8403389","2022-10-15 15:30","2022","10","15","15:30","11.5","","8.0","","79","","0.0","","19","","5","","16.1","","102.37","","","","","","NA"
"-56.07","51.39","ST. ANTHONY A","8403389","2022-10-15 16:30","2022","10","15","16:30","11.3","","7.8","","79","","0.0","","","","0","","16.1","","102.32","","","","","","NA"
"-56.07","51.39","ST. ANTHONY A","8403389","2022-10-15 17:30","2022","10","15","17:30","10.6","","7.5","","81","","0.0","","13","","8","","16.1","","102.30","","","","","","NA"
"-56.07","51.39","ST. ANTHONY A","8403389","2022-10-15 18:30","2022","10","15","18:30","9.3","","6.9","","85","","0.0","","12","","11","","16.1","","102.27","","","","","","NA"
"-56.07","51.39","ST. ANTHONY A","8403389","2022-10-15 19:30","2022","10","15","19:30","8.3","","6.3","","87","","0.0","","14","","9","","16.1","","102.23","","","","","","NA"
"-56.07","51.39","ST. ANTHONY A","8403389","2022-10-15 20:30","2022","10","15","20:30","7.8","","6.3","","90","","0.0","","12","","11","","16.1","","102.18","","","","","","NA"
"-56.07","51.39","ST. ANTHONY A","8403389","2022-10-15 21:30","2022","10","15","21:30","7.5","","6.1","","91","","0.0","","13","","11","","16.1","","102.14","","","","","","NA"
"-56.07","51.39","ST. ANTHONY A","8403389","2022-10-15 22:30","2022","10","15","22:30","7.8","","6.6","","92","","0.0","","13","","15","","16.1","","102.09","","","","","","NA"
"-56.07","51.39","ST. ANTHONY A","8403389","2022-10-15 23:30","2022","10","15","23:30","7.2","","6.3","","94","","0.0","","14","","13","","16.1","","102.02","","","","","","NA"
"-56.07","51.39","ST. ANTHONY A","8403389","2022-10-16 00:30","2022","10","16","00:30","7.3","","6.7","","96","","0.0","","15","","15","","16.1","","101.96","","","","","","NA"
"-56.07","51.39","ST. ANTHONY A","8403389","2022-10-16 01:30","2022","10","16","01:30","6.7","","6.3","","97","","0.0","","14","","11","","16.1","","101.92","","","","","","NA"
"-56.07","51.39","ST. ANTHONY A","8403389","2022-10-16 02:30","2022","10","16","02:30","6.2","","5.8","","97","","0.0","","16","","13","","16.1","","101.92","","","","","","NA"
"-56.07","51.39","ST. ANTHONY A","8403389","2022-10-16 03:30","2022","10","16","03:30","5.8","","5.7","","99","","0.0","","14","","8","","1.6","","101.85","","","","","","Fog"
"-56.07","51.39","ST. ANTHONY A","8403389","2022-10-16 04:30","2022","10","16","04:30","4.4","","4.3","","99","","0.0","","13","","9","","0.4","","101.84","","","","","","Fog"
"-56.07","51.39","ST. ANTHONY A","8403389","2022-10-16 05:30","2022","10","16","05:30","3.2","","3.1","","99","","0.0","","","","0","","0.4","","101.82","","","","","","Fog"
"-56.07","51.39","ST. ANTHONY A","8403389","2022-10-16 06:30","2022","10","16","06:30","2.6","","2.5","","99","","0.2","","","","0","","0.2","","101.82","","","","","","Fog"
"-56.07","51.39","ST. ANTHONY A","8403389","2022-10-16 07:30","2022","10","16","07:30","2.4","","2.3","","99","","0.0","","","","0","","0.6","","101.77","","","","","","Fog"
"-56.07","51.39","ST. ANTHONY A","8403389","2022-10-16 08:30","2022","10","16","08:30","3.8","","3.7","","99","","0.0","","","","0","","0.0","","101.77","","","","","","Fog"
"-56.07","51.39","ST. ANTHONY A","8403389","2022-10-16 09:30","2022","10","16","09:30","7.0","","6.9","","99","","0.0","","14","","8","","0.2","","101.73","","","","","","Fog"
"-56.07","51.39","ST. ANTHONY A","8403389","2022-10-16 10:30","2022","10","16","10:30","8.9","","8.9","","100","","0.0","","13","","11","","12.9","","101.66","","","","","","NA"
"-56.07","51.39","ST. ANTHONY A","8403389","2022-10-16 11:30","2022","10","16","11:30","11.1","","8.1","","82","","0.0","","12","","15","","16.1","","101.64","","","","","","NA"
"-56.07","51.39","ST. ANTHONY A","8403389","2022-10-16 12:30","2022","10","16","12:30","12.5","","8.2","","75","","0.0","","14","","15","","16.1","","101.58","","","","","","NA"
"-56.07","51.39","ST. ANTHONY A","8403389","2022-10-16 13:30","2022","10","16","13:30","11.9","","7.4","","74","","0.0","","10","","11","","16.1","","101.52","","","","","","NA"
"-56.07","51.39","ST. ANTHONY A","8403389","2022-10-16 14:30","2022","10","16","14:30","12.4","","6.5","","67","","0.0","","10","","13","","16.1","","101.44","","","","","","NA"
"-56.07","51.39","ST. ANTHONY A","8403389","2022-10-16 15:30","2022","10","16","15:30","12.0","","4.5","","60","","0.0","","12","","15","","16.1","","101.44","","","","","","NA"
"-56.07","51.39","ST. ANTHONY A","8403389","2022-10-16 16:30","2022","10","16","16:30","9.3","","6.4","","82","","0.0","","9","","9","","16.1","","101.42","","","","","","NA"
"-56.07","51.39","ST. ANTHONY A","8403389","2022-10-16 17:30","2022","10","16","17:30","8.5","","6.0","","84","","0.0","","12","","18","","16.1","","101.40","","","","","","NA"
"-56.07","51.39","ST. ANTHONY A","8403389","2022-10-16 18:30","2022","10","16","18:30","8.0","","6.3","","89","","0.0","","11","","15","","16.1","","101.43","","","","","","NA"
"-56.07","51.39","ST. ANTHONY A","8403389","2022-10-16 19:30","2022","10","16","19:30","7.5","","6.3","","92","","0.0","","8","","18","","16.1","","101.40","","","","","","NA"
"-56.07","51.39","ST. ANTHONY A","8403389","2022-10-16 20:30","2022","10","16","20:30","7.3","","6.6","","95","","0.0","","10","","17","","16.1","","101.44","","","","","","NA"
"-56.07","51.39","ST. ANTHONY A","8403389","2022-10-16 21:30","2022","10","16","21:30","7.3","","7.0","","98","","0.0","","8","","17","","2.4","","101.39","","","","","","Fog"
"-56.07","51.39","ST. ANTHONY A","8403389","2022-10-16 22:30","2022","10","16","22:30","7.5","","7.4","","99","","0.0","","11","","21","","1.6","","101.38","","","","","","Rain,Fog"
"-56.07","51.39","ST. ANTHONY A","8403389","2022-10-16 23:30","2022","10","16","23:30","7.8","","7.7","","99","","0.0","","10","","30","","4.8","","101.30","","","","","","Fog"
"-56.07","51.39","ST. ANTHONY A","8403389","2022-10-17 00:30","2022","10","17","00:30","7.8","","7.7","","99","","0.0","","11","","22","","6.4","","101.20","","","","","","Fog"
"-56.07","51.39","ST. ANTHONY A","8403389","2022-10-17 01:30","2022","10","17","01:30","7.8","","7.5","","98","","0.0","","12","","30","","11.3","","101.28","","","","","","Rain"
"-56.07","51.39","ST. ANTHONY A","8403389","2022-10-17 02:30","2022","10","17","02:30","7.9","","7.6","","98","","0.2","","12","","26","","16.1","","101.21","","","","","","Rain"
"-56.07","51.39","ST. ANTHONY A","8403389","2022-10-17 03:30","2022","10","17","03:30","7.8","","7.5","","98","","1.2","","9","","22","","12.9","","101.14","","","","","","Rain"
"-56.07","51.39","ST. ANTHONY A","8403389","2022-10-17 04:30","2022","10","17","04:30","7.9","","7.6","","98","","0.2","","10","","26","","14.5","","101.12","","","","","","Rain"
"-56.07","51.39","ST. ANTHONY A","8403389","2022-10-17 05:30","2022","10","17","05:30","7.5","","7.2","","98","","0.0","","10","","24","","6.4","","101.09","","","","","","Fog"
"-56.07","51.39","ST. ANTHONY A","8403389","2022-10-17 06:30","2022","10","17","06:30","7.4","","7.0","","97","","0.0","","9","","28","","14.5","","101.05","","","","","","NA"
"-56.07","51.39","ST. ANTHONY A","8403389","2022-10-17 07:30","2022","10","17","07:30","7.6","","7.0","","96","","1.8","","8","","28","","11.3","","101.01","","","","","","Rain"
"-56.07","51.39","ST. ANTHONY A","8403389","2022-10-17 08:30","2022","10","17","08:30","7.7","","7.1","","96","","1.5","","8","","28","","14.5","","100.96","","","","","","Rain"
"-56.07","51.39","ST. ANTHONY A","8403389","2022-10-17 09:30","2022","10","17","09:30","8.1","","7.2","","94","","2.8","","7","","35","","9.7","","100.83","","","","","","Rain,Fog"
"-56.07","51.39","ST. ANTHONY A","8403389","2022-10-17 10:30","2022","10","17","10:30","8.2","","7.3","","94","","2.5","","8","","32","","16.1","","100.70","","","","","","Rain"
"-56.07","51.39","ST. ANTHONY A","8403389","2022-10-17 11:30","2022","10","17","11:30","8.1","","7.4","","95","","1.5","","9","","34","","16.1","","100.62","","","","","","Rain"
"-56.07","51.39","ST. ANTHONY A","8403389","2022-10-17 12:30","2022","10","17","12:30","8.0","","7.4","","96","","2.0","","9","","28","","6.4","","100.53","","","","","","Rain,Fog"
"-56.07","51.39","ST. ANTHONY A","8403389","2022-10-17 13:30","2022","10","17","13:30","8.2","","7.8","","97","","5.5","","10","","32","","4.8","","100.43","","","","","","Rain,Fog"
"-56.07","51.39","ST. ANTHONY A","8403389","2022-10-17 14:30","2022","10","17","14:30","8.4","","8.0","","97","","2.2","","11","","28","","16.1","","100.35","","","","","","Rain"
"-56.07","51.39","ST. ANTHONY A","8403389","2022-10-17 15:30","2022","10","17","15:30","8.3","","8.0","","98","","0.8","","12","","26","","16.1","","100.40","","","","","","Rain"
"-56.07","51.39","ST. ANTHONY A","8403389","2022-10-17 16:30","2022","10","17","16:30","8.5","","8.2","","98","","0.5","","11","","17","","16.1","","100.35","","","","","","Rain"
"-56.07","51.39","ST. ANTHONY A","8403389","2022-10-17 17:30","2022","10","17","17:30","8.7","","8.4","","98","","0.0","","13","","13","","16.1","","100.39","","","","","","NA"
"-56.07","51.39","ST. ANTHONY A","8403389","2022-10-17 18:30","2022","10","17","18:30","8.8","","8.5","","98","","0.0","","15","","8","","16.1","","100.42","","","","","","NA"
"-56.07","51.39","ST. ANTHONY A","8403389","2022-10-17 19:30","2022","10","17","19:30","8.5","","8.4","","99","","0.0","","13","","8","","1.0","","100.42","","","","","","Fog"
"-56.07","51.39","ST. ANTHONY A","8403389","2022-10-17 20:30","2022","10","17","20:30","8.1","","8.0","","99","","0.0","","18","","8","","0.6","","100.52","","","","","","Fog"
"-56.07","51.39","ST. ANTHONY A","8403389","2022-10-17 21:30","2022","10","17","21:30","8.6","","8.5","","99","","0.0","","25","","15","","1.6","","100.61","","","","","","Fog"
"-56.07","51.39","ST. ANTHONY A","8403389","2022-10-17 22:30","2022","10","17","22:30","8.5","","8.4","","99","","0.0","","25","","15","","3.6","","100.67","","","","","","Fog"
"-56.07","51.39","ST. ANTHONY A","8403389","2022-10-17 23:30","2022","10","17","23:30","8.1","","8.0","","99","","0.0","","25","","15","","9.7","","100.76","","","","","","Fog"
"-56.07","51.39","ST. ANTHONY A","8403389","2022-10-18 00:30","2022","10","18","00:30","8.5","","8.4","","99","","0.0","","25","","18","","4.8","","100.79","","","","","","Fog"
"-56.07","51.39","ST. ANTHONY A","8403389","2022-10-18 01:30","2022","10","18","01:30","8.2","","7.8","","97","","0.0","","24","","21","","16.1","","100.91","","","","","","NA"
"-56.07","51.39","ST. ANTHONY A","8403389","2022-10-18 02:30","2022","10","18","02:30","7.4","","7.0","","97","","0.0","","25","","21","","16.1","","101.00","","","","","","NA"
"-56.07","51.39","ST. ANTHONY A","8403389","2022-10-18 03:30","2022","10","18","03:30","6.8","","6.4","","97","","0.0","","24","","21","","16.1","","101.06","","","","","","NA"
"-56.07","51.39","ST. ANTHONY A","8403389","2022-10-18 04:30","2022","10","18","04:30","6.8","","6.2","","96","","0.0","","24","","15","","16.1","","101.18","","","","","","NA"
"-56.07","51.39","ST. ANTHONY A","8403389","2022-10-18 05:30","2022","10","18","05:30","6.2","","5.8","","97","","0.0","","24","","11","","16.1","","101.28","","","","","","NA"
"-56.07","51.39","ST. ANTHONY A","8403389","2022-10-18 06:30","2022","10","18","06:30","5.6","","5.3","","98","","0.0","","26","","11","","16.1","","101.40","","","","","","NA"
"-56.07","51.39","ST. ANTHONY A","8403389","2022-10-18 07:30","2022","10","18","07:30","5.6","","5.3","","98","","0.0","","26","","11","","16.1","","101.53","","","","","","NA"
"-56.07","51.39","ST. ANTHONY A","8403389","2022-10-18 08:30","2022","10","18","08:30","7.4","","6.6","","95","","0.0","","24","","9","","16.1","","101.59","","","","","","NA"
"-56.07","51.39","ST. ANTHONY A","8403389","2022-10-18 09:30","2022","10","18","09:30","9.6","","7.3","","85","","0.0","","25","","13","","16.1","","101.62","","","","","","NA"
"-56.07","51.39","ST. ANTHONY A","8403389","2022-10-18 10:30","2022","10","18","10:30","11.2","","8.2","","81","","0.0","","23","","18","","16.1","","101.66","","","","","","NA"
"-56.07","51.39","ST. ANTHONY A","8403389","2022-10-18 11:30","2022","10","18","11:30","12.7","","9.0","","78","","0.0","","23","","22","","16.1","","101.73","","","","","","NA"
"-56.07","51.39","ST. ANTHONY A","8403389","2022-10-18 12:30","2022","10","18","12:30","12.6","","9.2","","80","","0.0","","26","","26","","16.1","","101.78","","","","","","NA"
"-56.07","51.39","ST. ANTHONY A","8403389","2022-10-18 13:30","2022","10","18","13:30","13.1","","9.0","","76","","0.0","","24","","22","","16.1","","101.81","","","","","","NA"
"-56.07","51.39","ST. ANTHONY A","8403389","2022-10-18 14:30","2022","10","18","14:30","12.7","","8.9","","78","","0.0","","26","","18","","16.1","","101.88","","","","","","NA"
"-56.07","51.39","ST. ANTHONY A","8403389","2022-10-18 15:30","2022","10","18","15:30","12.2","","8.8","","80","","0.0","","27","","13","","16.1","","101.93","","","","","","NA"
"-56.07","51.39","ST. ANTHONY A","8403389","2022-10-18 16:30","2022","10","18","16:30","11.2","","8.6","","84","","0.0","","21","","13","","16.1","","102.00","","","","","","NA"
"-56.07","51.39","ST. ANTHONY A","8403389","2022-10-18 17:30","2022","10","18","17:30","9.3","","8.1","","92","","0.0","","20","","9","","16.1","","102.07","","","","","","NA"
"-56.07","51.39","ST. ANTHONY A","8403389","2022-10-18 18:30","2022","10","18","18:30","7.4","","7.0","","97","","0.0","","13","","5","","16.1","","102.13","","","","","","NA"
"-56.07","51.39","ST. ANTHONY A","8403389","2022-10-18 19:30","2022","10","18","19:30","6.5","","6.2","","98","","0.0","","14","","9","","16.1","","102.17","","","","","","NA"
"-56.07","51.39","ST. ANTHONY A","8403389","2022-10-18 20:30","2022","10","18","20:30","6.1","","5.8","","98","","0.0","","12","","8","","1.2","","102.20","","","","","","Fog"
"-56.07","51.39","ST. ANTHONY A","8403389","2022-10-18 21:30","2022","10","18","21:30","5.2","","5.1","","99","","0.0","","13","","8","","0.6","","102.25","","","","","","Fog"
"-56.07","51.39","ST. ANTHONY A","8403389","2022-10-18 22:30","2022","10","18","22:30","4.8","","4.7","","99","","0.0","","6","","8","","12.9","","102.28","","","","","","NA"
"-56.07","51.39","ST. ANTHONY A","8403389","2022-10-18 23:30","2022","10","18","23:30","4.2","","4.1","","99","","0.0","","3","","5","","0.4","","102.28","","","","","","Fog"
"-56.07","51.39","ST. ANTHONY A","8403389","2022-10-19 00:30","2022","10","19","00:30","4.0","","3.9","","99","","0.0","","2","","8","","2.8","","102.31","","","","","","Fog"
"-56.07","51.39","ST. ANTHONY A","8403389","2022-10-19 01:30","2022","10","19","01:30","4.3","","4.2","","99","","0.0","","5","","9","","16.1","","102.34","","","","","","NA"
"-56.07","51.39","ST. ANTHONY A","8403389","2022-10-19 02:30","2022","10","19","02:30","4.2","","4.2","","100","","0.2","","6","","11","","1.2","","102.34","","","","","","Fog"
"-56.07","51.39","ST. ANTHONY A","8403389","2022-10-19 03:30","2022","10","19","03:30","5.0","","5.0","","100","","0.0","","9","","9","","4.8","","102.38","","","","","","Fog"
"-56.07","51.39","ST. ANTHONY A","8403389","2022-10-19 04:30","2022","10","19","04:30","4.6","","4.6","","100","","0.0","","6","","13","","2.8","","102.38","","","","","","Fog"
"-56.07","51.39","ST. ANTHONY A","8403389","2022-10-19 05:30","2022","10","19","05:30","5.2","","5.2","","100","","0.0","","7","","15","","16.1","","102.40","","","","","","NA"
"-56.07","51.39","ST. ANTHONY A","8403389","2022-10-19 06:30","2022","10","19","06:30","4.6","","4.6","","100","","0.0","","6","","9","","16.1","","102.42","","","","","","NA"
"-56.07","51.39","ST. ANTHONY A","8403389","2022-10-19 07:30","2022","10","19","07:30","6.7","","6.7","","100","","0.0","","7","","8","","16.1","","102.45","","","","","","NA"
"-56.07","51.39","ST. ANTHONY A","8403389","2022-10-19 08:30","2022","10","19","08:30","8.1","","8.0","","99","","0.0","","9","","13","","16.1","","102.48","","","","","","NA"
"-56.07","51.39","ST. ANTHONY A","8403389","2022-10-19 09:30","2022","10","19","09:30","9.0","","8.0","","94","","0.0","","11","","22","","16.1","","102.47","","","","","","NA"
"-56.07","51.39","ST. ANTHONY A","8403389","2022-10-19 10:30","2022","10","19","10:30","10.5","","8.1","","85","","0.0","","11","","24","","16.1","","102.47","","","","","","NA"
"-56.07","51.39","ST. ANTHONY A","8403389","2022-10-19 11:30","2022","10","19","11:30","11.5","","8.2","","80","","0.0","","11","","24","","16.1","","102.46","","","","","","NA"
"-56.07","51.39","ST. ANTHONY A","8403389","2022-10-19 12:30","2022","10","19","12:30"
"-56.07","51.39","ST. ANTHONY A","8403389","2022-10-19 13:30","2022","10","19","13:30","11.8","","6.3","","69","","0.0","","11","","24","","16.1","","102.36","","","","","","NA"
"-56.07","51.39","ST. ANTHONY A","8403389","2022-10-19 14:30","2022","10","19","14:30","9.4","","6.9","","85","","0.0","","10","","21","","16.1","","102.32","","","","","","NA"
"-56.07","51.39","ST. ANTHONY A","8403389","2022-10-19 15:30","2022","10","19","15:30","8.3","","6.6","","89","","0.0","","8","","22","","16.1","","102.28","","","","","","NA"
"-56.07","51.39","ST. ANTHONY A","8403389","2022-10-19 16:30","2022","10","19","16:30","6.7","","6.0","","96","","0.0","","9","","15","","16.1","","102.28","","","","","","NA"
"-56.07","51.39","ST. ANTHONY A","8403389","2022-10-19 17:30","2022","10","19","17:30","6.3","","6.0","","98","","0.0","","10","","21","","2.0","","102.30","","","","","","Fog"
"-56.07","51.39","ST. ANTHONY A","8403389","2022-10-19 18:30","2022","10","19","18:30","6.5","","6.4","","99","","0.0","","11","","21","","2.0","","102.32","","","","","","Fog"
"-56.07","51.39","ST. ANTHONY A","8403389","2022-10-19 19:30","2022","10","19","19:30","6.8","","6.7","","99","","0.0","","9","","24","","2.8","","102.23","","","","","","Rain,Fog"
"-56.07","51.39","ST. ANTHONY A","8403389","2022-10-19 20:30","2022","10","19","20:30","7.0","","6.9","","99","","0.0","","12","","22","","4.8","","102.20","","","","","","Fog"
"-56.07","51.39","ST. ANTHONY A","8403389","2022-10-19 21:30","2022","10","19","21:30","7.0","","6.9","","99","","0.0","","12","","17","","1.6","","102.16","","","","","","Fog"
"-56.07","51.39","ST. ANTHONY A","8403389","2022-10-19 22:30","2022","10","19","22:30","7.4","","7.3","","99","","0.0","","11","","17","","16.1","","102.04","","","","","","NA"
"-56.07","51.39","ST. ANTHONY A","8403389","2022-10-19 23:30","2022","10","19","23:30","8.0","","7.9","","99","","0.0","","12","","24","","16.1","","101.98","","","","","","NA"
"-56.07","51.39","ST. ANTHONY A","8403389","2022-10-20 00:30","2022","10","20","00:30","7.8","","7.7","","99","","0.0","","12","","24","","4.0","","101.92","","","","","","Fog"
"-56.07","51.39","ST. ANTHONY A","8403389","2022-10-20 01:30","2022","10","20","01:30","7.8","","7.7","","99","","0.0","","13","","22","","1.0","","101.83","","","","","","Fog"
"-56.07","51.39","ST. ANTHONY A","8403389","2022-10-20 02:30","2022","10","20","02:30","8.3","","8.2","","99","","0.0","","12","","28","","1.2","","101.70","","","","","","Rain,Fog"
"-56.07","51.39","ST. ANTHONY A","8403389","2022-10-20 03:30","2022","10","20","03:30","8.1","","8.0","","99","","0.2","","12","","39","","16.1","","101.53","","","","","","NA"
"-56.07","51.39","ST. ANTHONY A","8403389","2022-10-20 04:30","2022","10","20","04:30","9.4","","9.1","","98","","0.0","","12","","34","","16.1","","101.45","","","","","","NA"
"-56.07","51.39","ST. ANTHONY A","8403389","2022-10-20 05:30","2022","10","20","05:30","10.4","","9.8","","96","","0.0","","13","","28","","16.1","","101.41","","","","","","NA"
"-56.07","51.39","ST. ANTHONY A","8403389","2022-10-20 06:30","2022","10","20","06:30","10.6","","10.0","","96","","0.0","","12","","32","","16.1","","101.28","","","","","","NA"
"-56.07","51.39","ST. ANTHONY A","8403389","2022-10-20 07:30","2022","10","20","07:30","11.1","","10.5","","96","","0.0","","12","","35","","16.1","","101.19","","","","","","NA"
"-56.07","51.39","ST. ANTHONY A","8403389","2022-10-20 08:30","2022","10","20","08:30","11.4","","10.6","","95","","0.0","","12","","37","","16.1","","101.11","","","","","","NA"
"-56.07","51.39","ST. ANTHONY A","8403389","2022-10-20 09:30","2022","10","20","09:30","10.7","","10.3","","97","","0.0","","12","","34","","16.1","","101.03","","","","","","NA"
"-56.07","51.39","ST. ANTHONY A","8403389","2022-10-20 10:30","2022","10","20","10:30","10.9","","10.4","","97","","0.0","","12","","41","","16.1","","100.85","","","","","","NA"
"-56.07","51.39","ST. ANTHONY A","8403389","2022-10-20 11:30","2022","10","20","11:30","11.8","","10.7","","93","","0.0","","12","","35","","16.1","","100.76","","","","","","NA"
"-56.07","51.39","ST. ANTHONY A","8403389","2022-10-20 12:30","2022","10","20","12:30","12.0","","10.6","","91","","0.0","","12","","32","","16.1","","100.66","","","","","","NA"
"-56.07","51.39","ST. ANTHONY A","8403389","2022-10-20 13:30","2022","10","20","13:30","11.5","","10.9","","96","","0.2","","13","","28","","12.9","","100.59","","","","","","Rain"
"-56.07","51.39","ST. ANTHONY A","8403389","2022-10-20 14:30","2022","10","20","14:30","11.6","","11.1","","97","","1.2","","13","","24","","9.7","","100.59","","","","","","Rain,Fog"
"-56.07","51.39","ST. ANTHONY A","8403389","2022-10-20 15:30","2022","10","20","15:30","11.9","","11.6","","98","","1.5","","13","","18","","14.5","","100.53","","","","","","Rain"
"-56.07","51.39","ST. ANTHONY A","8403389","2022-10-20 16:30","2022","10","20","16:30","11.7","","11.6","","99","","1.5","","13","","18","","14.5","","100.49","","","","","","Rain"
"-56.07","51.39","ST. ANTHONY A","8403389","2022-10-20 17:30","2022","10","20","17:30","11.7","","11.6","","99","","0.8","","14","","15","","16.1","","100.49","","","","","","Rain"
"-56.07","51.39","ST. ANTHONY A","8403389","2022-10-20 18:30","2022","10","20","18:30","11.5","","11.0","","97","","1.2","","23","","18","","6.4","","100.60","","","","","","Rain,Fog"
"-56.07","51.39","ST. ANTHONY A","8403389","2022-10-20 19:30","2022","10","20","19:30","10.2","","9.4","","95","","0.2","","23","","24","","16.1","","100.58","","","","","","NA"
"-56.07","51.39","ST. ANTHONY A","8403389","2022-10-20 20:30","2022","10","20","20:30","9.6","","8.2","","91","","0.0","","23","","30","","16.1","","100.63","","","","","","NA"
"-56.07","51.39","ST. ANTHONY A","8403389","2022-10-20 21:30","2022","10","20","21:30","9.2","","7.3","","88","","0.0","","22","","24","","16.1","","100.74","","","","","","NA"
"-56.07","51.39","ST. ANTHONY A","8403389","2022-10-20 22:30","2022","10","20","22:30","9.2","","7.3","","88","","0.0","","23","","24","","16.1","","100.76","","","","","","NA"
"-56.07","51.39","ST. ANTHONY A","8403389","2022-10-20 23:30","2022","10","20","23:30","8.9","","7.0","","88","","0.0","","23","","34","","16.1","","100.79","","","","","","NA"
"-56.07","51.39","ST. ANTHONY A","8403389","2022-10-21 00:30","2022","10","21","00:30","8.5","","6.8","","89","","0.0","","23","","24","","16.1","","100.86","","","","","","NA"
"-56.07","51.39","ST. ANTHONY A","8403389","2022-10-21 01:30","2022","10","21","01:30","8.4","","6.9","","90","","0.0","","24","","24","","16.1","","100.90","","","","","","NA"
"-56.07","51.39","ST. ANTHONY A","8403389","2022-10-21 02:30","2022","10","21","02:30","7.9","","5.2","","83","","0.0","","23","","22","","16.1","","100.98","","","","","","NA"
"-56.07","51.39","ST. ANTHONY A","8403389","2022-10-21 03:30","2022","10","21","03:30","7.0","","5.2","","88","","0.0","","22","","17","","16.1","","101.01","","","","","","NA"
"-56.07","51.39","ST. ANTHONY A","8403389","2022-10-21 04:30","2022","10","21","04:30","5.7","","4.5","","92","","0.0","","22","","5","","16.1","","101.08","","","","","","NA"
"-56.07","51.39","ST. ANTHONY A","8403389","2022-10-21 05:30","2022","10","21","05:30","5.0","","4.6","","97","","0.0","","14","","8","","16.1","","101.08","","","","","","NA"
"-56.07","51.39","ST. ANTHONY A","8403389","2022-10-21 06:30","2022","10","21","06:30","5.4","","5.0","","97","","0.0","","18","","9","","16.1","","101.14","","","","","","NA"
"-56.07","51.39","ST. ANTHONY A","8403389","2022-10-21 07:30","2022","10","21","07:30","5.6","","5.0","","96","","0.0","","17","","15","","16.1","","101.16","","","","","","NA"
"-56.07","51.39","ST. ANTHONY A","8403389","2022-10-21 08:30","2022","10","21","08:30","6.7","","5.8","","94","","0.0","","16","","13","","16.1","","101.19","","","","","","NA"
"-56.07","51.39","ST. ANTHONY A","8403389","2022-10-21 09:30","2022","10","21","09:30","9.1","","6.7","","85","","0.0","","16","","13","","16.1","","101.17","","","","","","NA"
"-56.07","51.39","ST. ANTHONY A","8403389","2022-10-21 10:30","2022","10","21","10:30","11.0","","6.5","","74","","0.0","","19","","32","","16.1","","101.13","","","","","","NA"
"-56.07","51.39","ST. ANTHONY A","8403389","2022-10-21 11:30","2022","10","21","11:30","11.3","","4.6","","63","","0.0","","22","","28","","16.1","","101.13","","","","","","NA"
"-56.07","51.39","ST. ANTHONY A","8403389","2022-10-21 12:30","2022","10","21","12:30","10.8","","5.6","","70","","0.0","","20","","37","","16.1","","101.07","","","","","","NA"
"-56.07","51.39","ST. ANTHONY A","8403389","2022-10-21 13:30","2022","10","21","13:30","11.4","","5.9","","69","","0.0","","23","","35","","16.1","","101.01","","","","","","NA"
"-56.07","51.39","ST. ANTHONY A","8403389","2022-10-21 14:30","2022","10","21","14:30","11.5","","5.2","","65","","0.0","","23","","43","","16.1","","101.02","","","","","","NA"
"-56.07","51.39","ST. ANTHONY A","8403389","2022-10-21 15:30","2022","10","21","15:30","11.1","","3.0","","57","","0.0","","23","","46","","16.1","","101.08","","","","","","NA"
"-56.07","51.39","ST. ANTHONY A","8403389","2022-10-21 16:30","2022","10","21","16:30","10.0","","2.7","","60","","0.0","","22","","37","","16.1","","101.09","","","","","","NA"
"-56.07","51.39","ST. ANTHONY A","8403389","2022-10-21 17:30","2022","10","21","17:30","8.9","","3.8","","70","","0.0","","22","","35","","16.1","","101.15","","","","","","NA"
"-56.07","51.39","ST. ANTHONY A","8403389","2022-10-21 18:30","2022","10","21","18:30","8.3","","3.6","","72","","0.0","","22","","24","","16.1","","101.22","","","","","","NA"
"-56.07","51.39","ST. ANTHONY A","8403389","2022-10-21 19:30","2022","10","21","19:30","7.4","","4.5","","82","","0.0","","21","","17","","16.1","","101.28","","","","","","NA"
"-56.07","51.39","ST. ANTHONY A","8403389","2022-10-21 20:30","2022","10","21","20:30","5.7","","4.0","","89","","0.0","","17","","9","","16.1","","101.35","","","","","","NA"
"-56.07","51.39","ST. ANTHONY A","8403389","2022-10-21 21:30","2022","10","21","21:30","7.1","","5.1","","87","","0.0","","21","","15","","16.1","","101.37","","","","","","NA"
"-56.07","51.39","ST. ANTHONY A","8403389","2022-10-21 22:30","2022","10","21","22:30","6.4","","4.9","","90","","0.0","","19","","11","","16.1","","101.36","","","","","","NA"
"-56.07","51.39","ST. ANTHONY A","8403389","2022-10-21 23:30","2022","10","21","23:30","5.4","","4.4","","93","","0.0","","17","","15","","16.1","","101.41","","","","","","NA"
"-56.07","51.39","ST. ANTHONY A","8403389","2022-10-22 00:30","2022","10","22","00:30","4.6","","3.7","","94","","0.0","","18","","13","","16.1","","101.43","","","","","","NA"
"-56.07","51.39","ST. ANTHONY A","8403389","2022-10-22 01:30","2022","10","22","01:30","4.7","","3.9","","95","","0.0","","17","","15","","16.1","","101.45","","","","","","NA"
"-56.07","51.39","ST. ANTHONY A","8403389","2022-10-22 02:30","2022","10","22","02:30","5.0","","4.3","","95","","0.0","","18","","15","","16.1","","101.43","","","","","","NA"
"-56.07","51.39","ST. ANTHONY A","8403389","2022-10-22 03:30","2022","10","22","03:30","4.2","","3.6","","96","","0.0","","16","","17","","16.1","","101.42","","","","","","NA"
"-56.07","51.39","ST. ANTHONY A","8403389","2022-10-22 04:30","2022","10","22","04:30","3.8","","3.1","","95","","0.0","","16","","17","","16.1","","101.43","","","","","","NA"
"-56.07","51.39","ST. ANTHONY A","8403389","2022-10-22 05:30","2022","10","22","05:30","4.1","","3.2","","94","","0.0","","17","","17","","16.1","","101.44","","","","","","NA"
"-56.07","51.39","ST. ANTHONY A","8403389","2022-10-22 06:30","2022","10","22","06:30","4.3","","3.3","","93","","0.0","","16","","15","","16.1","","101.47","","","","","","NA"
"-56.07","51.39","ST. ANTHONY A","8403389","2022-10-22 07:30","2022","10","22","07:30","4.2","","3.5","","95","","0.0","","15","","15","","16.1","","101.48","","","","","","NA"
"-56.07","51.39","ST. ANTHONY A","8403389","2022-10-22 08:30","2022","10","22","08:30","7.0","","5.3","","89","","0.0","","14","","13","","16.1","","101.51","","","","","","NA"
"-56.07","51.39","ST. ANTHONY A","8403389","2022-10-22 09:30","2022","10","22","09:30","10.3","","7.2","","81","","0.0","","20","","17","","16.1","","101.46","","","","","","NA"
"-56.07","51.39","ST. ANTHONY A","8403389","2022-10-22 10:30","2022","10","22","10:30","11.4","","6.4","","71","","0.0","","21","","26","","16.1","","101.42","","","","","","NA"
"-56.07","51.39","ST. ANTHONY A","8403389","2022-10-22 11:30","2022","10","22","11:30","13.5","","5.2","","57","","0.0","","23","","45","","16.1","","101.38","","","","","","NA"
"-56.07","51.39","ST. ANTHONY A","8403389","2022-10-22 12:30","2022","10","22","12:30","13.4","","5.2","","57","","0.0","","23","","46","","16.1","","101.31","","","","","","NA"
"-56.07","51.39","ST. ANTHONY A","8403389","2022-10-22 13:30","2022","10","22","13:30","13.1","","4.6","","56","","0.0","","22","","48","","16.1","","101.30","","","","","","NA"
"-56.07","51.39","ST. ANTHONY A","8403389","2022-10-22 14:30","2022","10","22","14:30","12.9","","5.0","","58","","0.0","","22","","46","","16.1","","101.31","","","","","","NA"
"-56.07","51.39","ST. ANTHONY A","8403389","2022-10-22 15:30","2022","10","22","15:30","12.4","","5.8","","64","","0.0","","22","","46","","16.1","","101.33","","","","","","NA"
"-56.07","51.39","ST. ANTHONY A","8403389","2022-10-22 16:30","2022","10","22","16:30","11.1","","5.5","","68","","0.0","","23","","43","","16.1","","101.40","","","","","","NA"
"-56.07","51.39","ST. ANTHONY A","8403389","2022-10-22 17:30","2022","10","22","17:30","9.8","","6.4","","79","","0.0","","22","","35","","16.1","","101.39","","","","","","NA"
"-56.07","51.39","ST. ANTHONY A","8403389","2022-10-22 18:30","2022","10","22","18:30","9.6","","6.7","","82","","0.0","","23","","37","","16.1","","101.43","","","","","","NA"
"-56.07","51.39","ST. ANTHONY A","8403389","2022-10-22 19:30","2022","10","22","19:30","9.4","","6.7","","83","","0.0","","24","","37","","16.1","","101.46","","","","","","NA"
"-56.07","51.39","ST. ANTHONY A","8403389","2022-10-22 20:30","2022","10","22","20:30","9.8","","6.7","","81","","0.0","","23","","39","","16.1","","101.45","","","","","","NA"
"-56.07","51.39","ST. ANTHONY A","8403389","2022-10-22 21:30","2022","10","22","21:30","10.0","","7.1","","82","","0.0","","22","","41","","16.1","","101.45","","","","","","NA"
"-56.07","51.39","ST. ANTHONY A","8403389","2022-10-22 22:30","2022","10","22","22:30","10.0","","7.3","","83","","0.0","","22","","45","","16.1","","101.46","","","","","","NA"
"-56.07","51.39","ST. ANTHONY A","8403389","2022-10-22 23:30","2022","10","22","23:30","10.0","","7.3","","83","","0.0","","22","","39","","16.1","","101.41","","","","","","NA"
"-56.07","51.39","ST. ANTHONY A","8403389","2022-10-23 00:30","2022","10","23","00:30","10.2","","7.5","","83","","0.0","","22","","32","","16.1","","101.41","","","","","","NA"
"-56.07","51.39","ST. ANTHONY A","8403389","2022-10-23 01:30","2022","10","23","01:30","10.4","","7.8","","84","","0.0","","22","","30","","16.1","","101.37","","","","","","NA"
"-56.07","51.39","ST. ANTHONY A","8403389","2022-10-23 02:30","2022","10","23","02:30","10.4","","7.7","","83","","0.0","","22","","30","","16.1","","101.38","","","","","","NA"
"-56.07","51.39","ST. ANTHONY A","8403389","2022-10-23 03:30","2022","10","23","03:30","10.2","","7.6","","84","","0.0","","23","","28","","16.1","","101.37","","","","","","NA"
"-56.07","51.39","ST. ANTHONY A","8403389","2022-10-23 04:30","2022","10","23","04:30","9.8","","7.6","","86","","0.0","","22","","22","","16.1","","101.34","","","","","","NA"
"-56.07","51.39","ST. ANTHONY A","8403389","2022-10-23 05:30","2022","10","23","05:30","9.4","","7.5","","88","","0.0","","23","","28","","16.1","","101.37","","","","","","NA"
"-56.07","51.39","ST. ANTHONY A","8403389","2022-10-23 06:30","2022","10","23","06:30","8.8","","7.3","","90","","0.0","","22","","22","","16.1","","101.35","","","","","","NA"
"-56.07","51.39","ST. ANTHONY A","8403389","2022-10-23 07:30","2022","10","23","07:30","8.6","","7.4","","92","","0.0","","22","","18","","16.1","","101.41","","","","","","NA"
"-56.07","51.39","ST. ANTHONY A","8403389","2022-10-23 08:30","2022","10","23","08:30","9.5","","7.5","","87","","0.0","","23","","24","","16.1","","101.46","","","","","","NA"
"-56.07","51.39","ST. ANTHONY A","8403389","2022-10-23 09:30","2022","10","23","09:30","11.0","","6.2","","72","","0.0","","24","","24","","16.1","","101.47","","","","","","NA"
"-56.07","51.39","ST. ANTHONY A","8403389","2022-10-23 10:30","2022","10","23","10:30","11.8","","6.1","","68","","0.0","","26","","26","","16.1","","101.49","","","","","","NA"
"-56.07","51.39","ST. ANTHONY A","8403389","2022-10-23 11:30","2022","10","23","11:30","13.4","","5.6","","59","","0.0","","25","","24","","16.1","","101.51","","","","","","NA"
"-56.07","51.39","ST. ANTHONY A","8403389","2022-10-23 12:30","2022","10","23","12:30","13.9","","5.1","","55","","0.0","","26","","28","","16.1","","101.49","","","","","","NA"
"-56.07","51.39","ST. ANTHONY A","8403389","2022-10-23 13:30","2022","10","23","13:30","14.1","","5.1","","54","","0.0","","25","","30","","16.1","","101.51","","","","","","NA"
"-56.07","51.39","ST. ANTHONY A","8403389","2022-10-23 14:30","2022","10","23","14:30","13.7","","4.7","","54","","0.0","","25","","39","","16.1","","101.55","","","","","","NA"
"-56.07","51.39","ST. ANTHONY A","8403389","2022-10-23 15:30","2022","10","23","15:30","13.3","","4.9","","57","","0.0","","25","","32","","16.1","","101.60","","","","","","NA"
"-56.07","51.39","ST. ANTHONY A","8403389","2022-10-23 16:30","2022","10","23","16:30","12.2","","5.0","","61","","0.0","","25","","24","","16.1","","101.64","","","","","","NA"
"-56.07","51.39","ST. ANTHONY A","8403389","2022-10-23 17:30","2022","10","23","17:30","11.1","","5.2","","67","","0.0","","25","","24","","16.1","","101.68","","","","","","NA"
"-56.07","51.39","ST. ANTHONY A","8403389","2022-10-23 18:30","2022","10","23","18:30","10.2","","5.6","","73","","0.0","","26","","22","","16.1","","101.76","","","","","","NA"
"-56.07","51.39","ST. ANTHONY A","8403389","2022-10-23 19:30","2022","10","23","19:30","9.0","","5.8","","80","","0.0","","26","","17","","16.1","","101.84","","","","","","NA"
"-56.07","51.39","ST. ANTHONY A","8403389","2022-10-23 20:30","2022","10","23","20:30","8.3","","4.3","","76","","0.0","","26","","15","","16.1","","101.85","","","","","","NA"
"-56.07","51.39","ST. ANTHONY A","8403389","2022-10-23 21:30","2022","10","23","21:30","6.9","","3.7","","80","","0.0","","24","","18","","16.1","","101.90","","","","","","NA"
"-56.07","51.39","ST. ANTHONY A","8403389","2022-10-23 22:30","2022","10","23","22:30","7.6","","4.1","","78","","0.0","","28","","15","","16.1","","101.96","","","","","","NA"
"-56.07","51.39","ST. ANTHONY A","8403389","2022-10-23 23:30","2022","10","23","23:30","7.1","","4.7","","85","","0.0","","28","","11","","16.1","","101.99","","","","","","NA"
"-56.07","51.39","ST. ANTHONY A","8403389","2022-10-24 00:30","2022","10","24","00:30","5.4","","3.6","","88","","0.0","","27","","17","","16.1","","102.01","","","","","","NA"
"-56.07","51.39","ST. ANTHONY A","8403389","2022-10-24 01:30","2022","10","24","01:30","6.0","","2.6","","79","","0.0","","29","","15","","16.1","","102.05","","","","","","NA"
"-56.07","51.39","ST. ANTHONY A","8403389","2022-10-24 02:30","2022","10","24","02:30","4.7","","1.7","","81","","0.0","","28","","11","","16.1","","102.07","","","","","","NA"
"-56.07","51.39","ST. ANTHONY A","8403389","2022-10-24 03:30","2022","10","24","03:30","4.1","","1.1","","81","","0.0","","27","","15","","16.1","","102.13","","","","","","NA"
"-56.07","51.39","ST. ANTHONY A","8403389","2022-10-24 04:30","2022","10","24","04:30","2.9","","1.0","","87","","0.0","","27","","13","","16.1","","102.19","","","","","","NA"
"-56.07","51.39","ST. ANTHONY A","8403389","2022-10-24 05:30","2022","10","24","05:30","3.7","","1.1","","83","","0.0","","27","","13","","16.1","","102.24","","","","","","NA"
"-56.07","51.39","ST. ANTHONY A","8403389","2022-10-24 06:30","2022","10","24","06:30","2.4","","0.8","","89","","0.0","","25","","9","","16.1","","102.26","","","","","","NA"
"-56.07","51.39","ST. ANTHONY A","8403389","2022-10-24 07:30","2022","10","24","07:30","2.6","","1.0","","89","","0.0","","26","","15","","16.1","","102.33","","","","","","NA"
"-56.07","51.39","ST. ANTHONY A","8403389","2022-10-24 08:30","2022","10","24","08:30","5.5","","2.2","","79","","0.0","","27","","11","","16.1","","102.37","","","","","","NA"
"-56.07","51.39","ST. ANTHONY A","8403389","2022-10-24 09:30","2022","10","24","09:30","7.4","","0.8","","63","","0.0","","28","","17","","16.1","","102.34","","","","","","NA"
"-56.07","51.39","ST. ANTHONY A","8403389","2022-10-24 10:30","2022","10","24","10:30","8.6","","0.9","","58","","0.0","","24","","11","","16.1","","102.34","","","","","","NA"
"-56.07","51.39","ST. ANTHONY A","8403389","2022-10-24 11:30","2022","10","24","11:30","9.7","","0.2","","52","","0.0","","23","","17","","16.1","","102.34","","","","","","NA"
"-56.07","51.39","ST. ANTHONY A","8403389","2022-10-24 12:30","2022","10","24","12:30","10.6","","-0.8","","45","","0.0","","25","","22","","16.1","","102.27","","","","","","NA"
"-56.07","51.39","ST. ANTHONY A","8403389","2022-10-24 13:30","2022","10","24","13:30","10.7","","0.2","","48","","0.0","","23","","24","","16.1","","102.23","","","","","","NA"
"-56.07","51.39","ST. ANTHONY A","8403389","2022-10-24 14:30","2022","10","24","14:30","9.2","","0.6","","55","","0.0","","24","","24","","16.1","","102.22","","","","","","NA"
"-56.07","51.39","ST. ANTHONY A","8403389","2022-10-24 15:30","2022","10","24","15:30","9.0","","1.4","","59","","0.0","","24","","21","","16.1","","102.19","","","","","","NA"
"-56.07","51.39","ST. ANTHONY A","8403389","2022-10-24 16:30","2022","10","24","16:30","8.9","","2.5","","64","","0.0","","25","","24","","16.1","","102.20","","","","","","NA"
"-56.07","51.39","ST. ANTHONY A","8403389","2022-10-24 17:30","2022","10","24","17:30","8.1","","3.0","","70","","0.0","","25","","17","","16.1","","102.21","","","","","","NA"
"-56.07","51.39","ST. ANTHONY A","8403389","2022-10-24 18:30","2022","10","24","18:30","7.9","","3.0","","71","","0.0","","26","","15","","16.1","","102.21","","","","","","NA"
"-56.07","51.39","ST. ANTHONY A","8403389","2022-10-24 19:30","2022","10","24","19:30","6.8","","3.4","","79","","0.0","","25","","9","","16.1","","102.20","","","","","","NA"
"-56.07","51.39","ST. ANTHONY A","8403389","2022-10-24 20:30","2022","10","24","20:30","7.0","","4.2","","82","","0.0","","25","","17","","16.1","","102.16","","","","","","NA"
"-56.07","51.39","ST. ANTHONY A","8403389","2022-10-24 21:30","2022","10","24","21:30","6.0","","3.9","","86","","0.0","","24","","13","","16.1","","102.19","","","","","","NA"
"-56.07","51.39","ST. ANTHONY A","8403389","2022-10-24 22:30","2022","10","24","22:30","5.6","","4.3","","91","","0.0","","34","","8","","16.1","","102.17","","","","","","NA"
"-56.07","51.39","ST. ANTHONY A","8403389","2022-10-24 23:30","2022","10","24","23:30","5.4","","4.4","","93","","0.0","","32","","8","","16.1","","102.16","","","","","","NA"
"-56.07","51.39","ST. ANTHONY A","8403389","2022-10-25 00:30","2022","10","25","00:30","4.3","","2.8","","90","","0.0","","36","","8","","16.1","","102.14","","","","","","NA"
"-56.07","51.39","ST. ANTHONY A","8403389","2022-10-25 01:30","2022","10","25","01:30","3.5","","2.2","","91","","0.0","","2","","5","","16.1","","102.14","","","","","","NA"
"-56.07","51.39","ST. ANTHONY A","8403389","2022-10-25 02:30","2022","10","25","02:30","4.5","","2.2","","85","","0.0","","3","","15","","16.1","","102.11","","","","","","NA"
"-56.07","51.39","ST. ANTHONY A","8403389","2022-10-25 03:30","2022","10","25","03:30","3.5","","2.0","","90","","0.0","","8","","5","","16.1","","102.08","","","","","","NA"
"-56.07","51.39","ST. ANTHONY A","8403389","2022-10-25 04:30","2022","10","25","04:30","4.0","","2.5","","90","","0.0","","2","","5","","16.1","","102.12","","","","","","NA"
"-56.07","51.39","ST. ANTHONY A","8403389","2022-10-25 05:30","2022","10","25","05:30","4.3","","2.8","","90","","0.0","","13","","5","","12.9","","102.06","","","","","","NA"
"-56.07","51.39","ST. ANTHONY A","8403389","2022-10-25 06:30","2022","10","25","06:30","5.4","","3.3","","86","","0.0","","12","","15","","16.1","","102.04","","","","","","NA"
"-56.07","51.39","ST. ANTHONY A","8403389","2022-10-25 07:30","2022","10","25","07:30","5.5","","3.7","","88","","0.0","","11","","4","","16.1","","102.07","","","","","","NA"
"-56.07","51.39","ST. ANTHONY A","8403389","2022-10-25 08:30","2022","10","25","08:30","5.7","","3.9","","88","","0.0","","10","","9","","16.1","","102.03","","","","","","NA"
"-56.07","51.39","ST. ANTHONY A","8403389","2022-10-25 09:30","2022","10","25","09:30","6.1","","4.3","","88","","0.0","","12","","13","","16.1","","102.03","","","","","","NA"
"-56.07","51.39","ST. ANTHONY A","8403389","2022-10-25 10:30","2022","10","25","10:30","6.4","","5.7","","95","","0.0","","12","","13","","16.1","","101.99","","","","","","NA"
"-56.07","51.39","ST. ANTHONY A","8403389","2022-10-25 11:30","2022","10","25","11:30","6.8","","6.1","","95","","0.0","","12","","15","","16.1","","101.86","","","","","","NA"
"-56.07","51.39","ST. ANTHONY A","8403389","2022-10-25 12:30","2022","10","25","12:30"
"-56.07","51.39","ST. ANTHONY A","8403389","2022-10-25 13:30","2022","10","25","13:30","8.8","","7.1","","89","","0.0","","14","","9","","16.1","","101.67","","","","","","NA"
"-56.07","51.39","ST. ANTHONY A","8403389","2022-10-25 14:30","2022","10","25","14:30","8.7","","6.9","","88","","0.0","","14","","15","","16.1","","101.61","","","","","","NA"
"-56.07","51.39","ST. ANTHONY A","8403389","2022-10-25 15:30","2022","10","25","15:30","8.8","","7.3","","90","","0.0","","17","","11","","16.1","","101.55","","","","","","NA"
"-56.07","51.39","ST. ANTHONY A","8403389","2022-10-25 16:30","2022","10","25","16:30","9.7","","8.7","","93","","0.0","","23","","17","","16.1","","101.50","","","","","","NA"
"-56.07","51.39","ST. ANTHONY A","8403389","2022-10-25 17:30","2022","10","25","17:30","10.0","","8.6","","91","","0.0","","23","","17","","16.1","","101.51","","","","","","NA"
"-56.07","51.39","ST. ANTHONY A","8403389","2022-10-25 18:30","2022","10","25","18:30","10.0","","8.8","","92","","0.0","","21","","18","","16.1","","101.44","","","","","","NA"
"-56.07","51.39","ST. ANTHONY A","8403389","2022-10-25 19:30","2022","10","25","19:30","10.0","","8.9","","93","","0.0","","23","","22","","16.1","","101.42","","","","","","NA"
"-56.07","51.39","ST. ANTHONY A","8403389","2022-10-25 20:30","2022","10","25","20:30","10.2","","9.1","","93","","0.0","","24","","26","","16.1","","101.33","","","","","","NA"
"-56.07","51.39","ST. ANTHONY A","8403389","2022-10-25 21:30","2022","10","25","21:30","10.0","","8.8","","92","","0.0","","25","","24","","16.1","","101.31","","","","","","NA"
"-56.07","51.39","ST. ANTHONY A","8403389","2022-10-25 22:30","2022","10","25","22:30","11.2","","10.3","","94","","0.0","","24","","34","","16.1","","101.23","","","","","","NA"
"-56.07","51.39","ST. ANTHONY A","8403389","2022-10-25 23:30","2022","10","25","23:30","11.1","","10.7","","97","","0.0","","24","","41","","16.1","","101.20","","","","","","NA"
"-56.07","51.39","ST. ANTHONY A","8403389","2022-10-26 00:30","2022","10","26","00:30","11.0","","10.7","","98","","0.0","","24","","28","","3.2","","101.17","","","","","","Fog"
"-56.07","51.39","ST. ANTHONY A","8403389","2022-10-26 01:30","2022","10","26","01:30","10.8","","10.5","","98","","0.0","","25","","34","","6.4","","101.13","","","","","","Fog"
"-56.07","51.39","ST. ANTHONY A","8403389","2022-10-26 02:30","2022","10","26","02:30","11.0","","10.7","","98","","0.0","","24","","35","","8.1","","101.02","","","","","","Fog"
"-56.07","51.39","ST. ANTHONY A","8403389","2022-10-26 03:30","2022","10","26","03:30","11.2","","10.6","","96","","0.0","","24","","34","","16.1","","101.00","","","","","","NA"
"-56.07","51.39","ST. ANTHONY A","8403389","2022-10-26 04:30","2022","10","26","04:30","11.2","","10.6","","96","","0.0","","24","","22","","16.1","","100.98","","","","","","NA"
"-56.07","51.39","ST. ANTHONY A","8403389","2022-10-26 05:30","2022","10","26","05:30","11.2","","10.8","","97","","0.0","","24","","30","","14.5","","100.96","","","","","","NA"
"-56.07","51.39","ST. ANTHONY A","8403389","2022-10-26 06:30","2022","10","26","06:30","11.2","","10.6","","96","","0.0","","24","","22","","16.1","","100.95","","","","","","NA"
"-56.07","51.39","ST. ANTHONY A","8403389","2022-10-26 07:30","2022","10","26","07:30","11.1","","10.5","","96","","0.0","","24","","28","","16.1","","100.94","","","","","","NA"
"-56.07","51.39","ST. ANTHONY A","8403389","2022-10-26 08:30","2022","10","26","08:30","11.5","","10.4","","93","","0.0","","25","","32","","16.1","","100.95","","","","","","NA"
"-56.07","51.39","ST. ANTHONY A","8403389","2022-10-26 09:30","2022","10","26","09:30","11.8","","10.4","","91","","0.0","","24","","37","","16.1","","100.94","","","","","","NA"
"-56.07","51.39","ST. ANTHONY A","8403389","2022-10-26 10:30","2022","10","26","10:30","11.6","","10.2","","91","","0.0","","24","","35","","16.1","","100.88","","","","","","NA"
"-56.07","51.39","ST. ANTHONY A","8403389","2022-10-26 11:30","2022","10","26","11:30","11.5","","10.4","","93","","0.0","","24","","28","","14.5","","100.84","","","","","","NA"
"-56.07","51.39","ST. ANTHONY A","8403389","2022-10-26 12:30","2022","10","26","12:30","11.7","","10.3","","91","","0.0","","23","","30","","16.1","","100.78","","","","","","NA"
"-56.07","51.39","ST. ANTHONY A","8403389","2022-10-26 13:30","2022","10","26","13:30","11.7","","10.1","","90","","0.0","","24","","41","","16.1","","100.72","","","","","","NA"
"-56.07","51.39","ST. ANTHONY A","8403389","2022-10-26 14:30","2022","10","26","14:30","11.7","","10.1","","90","","0.0","","24","","43","","16.1","","100.72","","","","","","NA"
"-56.07","51.39","ST. ANTHONY A","8403389","2022-10-26 15:30","2022","10","26","15:30","11.3","","10.1","","92","","0.0","","24","","43","","16.1","","100.71","","","","","","NA"
"-56.07","51.39","ST. ANTHONY A","8403389","2022-10-26 16:30","2022","10","26","16:30","11.8","","10.4","","91","","0.0","","25","","34","","16.1","","100.72","","","","","","NA"
"-56.07","51.39","ST. ANTHONY A","8403389","2022-10-26 17:30","2022","10","26","17:30","11.5","","10.4","","93","","0.0","","24","","32","","16.1","","100.78","","","","","","NA"
"-56.07","51.39","ST. ANTHONY A","8403389","2022-10-26 18:30","2022","10","26","18:30","11.2","","10.9","","98","","0.0","","24","","32","","4.8","","100.76","","","","","","Fog"
"-56.07","51.39","ST. ANTHONY A","8403389","2022-10-26 19:30","2022","10","26","19:30","11.2","","10.9","","98","","0.0","","24","","26","","3.2","","100.83","","","","","","Fog"
"-56.07","51.39","ST. ANTHONY A","8403389","2022-10-26 20:30","2022","10","26","20:30","11.1","","11.0","","99","","0.0","","26","","26","","2.4","","100.85","","","","","","Fog"
"-56.07","51.39","ST. ANTHONY A","8403389","2022-10-26 21:30","2022","10","26","21:30","11.1","","11.0","","99","","0.0","","26","","24","","2.4","","100.87","","","","","","Fog"
"-56.07","51.39","ST. ANTHONY A","8403389","2022-10-26 22:30","2022","10","26","22:30","11.4","","11.3","","99","","0.0","","25","","18","","2.0","","100.88","","","","","","Fog"
"-56.07","51.39","ST. ANTHONY A","8403389","2022-10-26 23:30","2022","10","26","23:30","11.6","","11.5","","99","","0.0","","26","","22","","1.2","","100.89","","","","","","Fog"
"-56.07","51.39","ST. ANTHONY A","8403389","2022-10-27 00:30","2022","10","27","00:30","10.9","","10.8","","99","","0.0","","27","","22","","8.1","","100.88","","","","","","Fog"
"-56.07","51.39","ST. ANTHONY A","8403389","2022-10-27 01:30","2022","10","27","01:30","10.9","","10.6","","98","","0.0","","25","","24","","4.8","","100.88","","","","","","Fog"
"-56.07","51.39","ST. ANTHONY A","8403389","2022-10-27 02:30","2022","10","27","02:30","11.4","","11.1","","98","","0.0","","24","","18","","9.7","","100.88","","","","","","Fog"
"-56.07","51.39","ST. ANTHONY A","8403389","2022-10-27 03:30","2022","10","27","03:30","11.6","","11.3","","98","","0.0","","26","","9","","16.1","","100.85","","","","","","NA"
"-56.07","51.39","ST. ANTHONY A","8403389","2022-10-27 04:30","2022","10","27","04:30","11.6","","11.3","","98","","0.0","","23","","8","","16.1","","100.85","","","","","","NA"
"-56.07","51.39","ST. ANTHONY A","8403389","2022-10-27 05:30","2022","10","27","05:30","11.5","","11.4","","99","","0.0","","18","","8","","16.1","","100.84","","","","","","NA"
"-56.07","51.39","ST. ANTHONY A","8403389","2022-10-27 06:30","2022","10","27","06:30","11.9","","11.8","","99","","0.0","","21","","8","","6.4","","100.77","","","","","","Fog"
"-56.07","51.39","ST. ANTHONY A","8403389","2022-10-27 07:30","2022","10","27","07:30","12.1","","12.0","","99","","0.0","","18","","4","","6.4","","100.76","","","","","","Fog"
"-56.07","51.39","ST. ANTHONY A","8403389","2022-10-27 08:30","2022","10","27","08:30","12.3","","12.2","","99","","0.0","","15","","9","","1.0","","100.69","","","","","","Fog"
"-56.07","51.39","ST. ANTHONY A","8403389","2022-10-27 09:30","2022","10","27","09:30","12.3","","12.2","","99","","0.0","","12","","13","","16.1","","100.63","","","","","","NA"
"-56.07","51.39","ST. ANTHONY A","8403389","2022-10-27 10:30","2022","10","27","10:30","13.7","","12.3","","91","","0.0","","13","","22","","16.1","","100.54","","","","","","NA"
"-56.07","51.39","ST. ANTHONY A","8403389","2022-10-27 11:30","2022","10","27","11:30","12.7","","11.5","","92","","0.0","","11","","28","","16.1","","100.41","","","","","","NA"
"-56.07","51.39","ST. ANTHONY A","8403389","2022-10-27 12:30","2022","10","27","12:30","12.1","","11.2","","94","","0.0","","12","","34","","16.1","","100.27","","","","","","NA"
"-56.07","51.39","ST. ANTHONY A","8403389","2022-10-27 13:30","2022","10","27","13:30","11.3","","11.0","","98","","0.0","","13","","32","","16.1","","100.16","","","","","","NA"
"-56.07","51.39","ST. ANTHONY A","8403389","2022-10-27 14:30","2022","10","27","14:30","11.2","","10.9","","98","","0.8","","13","","28","","16.1","","100.08","","","","","","Rain"
"-56.07","51.39","ST. ANTHONY A","8403389","2022-10-27 15:30","2022","10","27","15:30","11.4","","11.1","","98","","4.8","","13","","26","","16.1","","100.01","","","","","","Rain"
"-56.07","51.39","ST. ANTHONY A","8403389","2022-10-27 16:30","2022","10","27","16:30","11.5","","11.2","","98","","0.0","","13","","28","","16.1","","99.94","","","","","","NA"
"-56.07","51.39","ST. ANTHONY A","8403389","2022-10-27 17:30","2022","10","27","17:30","11.6","","11.3","","98","","0.0","","14","","18","","16.1","","99.89","","","","","","NA"
"-56.07","51.39","ST. ANTHONY A","8403389","2022-10-27 18:30","2022","10","27","18:30","11.5","","11.4","","99","","0.0","","16","","13","","1.6","","99.90","","","","","","Fog"
"-56.07","51.39","ST. ANTHONY A","8403389","2022-10-27 19:30","2022","10","27","19:30","12.3","","12.2","","99","","0.0","","15","","13","","4.8","","99.88","","","","","","Fog"
"-56.07","51.39","ST. ANTHONY A","8403389","2022-10-27 20:30","2022","10","27","20:30","13.9","","13.7","","99","","0.0","","22","","22","","16.1","","99.91","","","","","","NA"
"-56.07","51.39","ST. ANTHONY A","8403389","2022-10-27 21:30","2022","10","27","21:30","12.7","","12.2","","97","","0.0","","23","","43","","6.4","","99.94","","","","","","Fog"
"-56.07","51.39","ST. ANTHONY A","8403389","2022-10-27 22:30","2022","10","27","22:30","12.1","","11.6","","97","","0.0","","22","","32","","16.1","","99.94","","","","","","NA"
"-56.07","51.39","ST. ANTHONY A","8403389","2022-10-27 23:30","2022","10","27","23:30","12.0","","11.4","","96","","0.0","","23","","32","","16.1","","100.01","","","","","","NA"
"-56.07","51.39","ST. ANTHONY A","8403389","2022-10-28 00:30","2022","10","28","00:30","10.9","","10.5","","97","","0.0","","22","","28","","16.1","","100.06","","","","","","NA"
"-56.07","51.39","ST. ANTHONY A","8403389","2022-10-28 01:30","2022","10","28","01:30","10.3","","9.5","","95","","0.0","","22","","37","","9.7","","100.13","","","","","","Fog"
"-56.07","51.39","ST. ANTHONY A","8403389","2022-10-28 02:30","2022","10","28","02:30","10.4","","8.4","","87","","0.0","","28","","34","","16.1","","100.24","","","","","","NA"
"-56.07","51.39","ST. ANTHONY A","8403389","2022-10-28 03:30","2022","10","28","03:30","6.5","","3.4","","80","","0.0","","28","","26","","16.1","","100.49","","","","","","NA"
"-56.07","51.39","ST. ANTHONY A","8403389","2022-10-28 04:30","2022","10","28","04:30","5.0","","1.3","","77","","0.0","","27","","26","","16.1","","100.68","","","","","","NA"
"-56.07","51.39","ST. ANTHONY A","8403389","2022-10-28 05:30","2022","10","28","05:30","4.2","","0.3","","76","","0.0","","27","","28","","16.1","","100.84","","","","","","NA"
"-56.07","51.39","ST. ANTHONY A","8403389","2022-10-28 06:30","2022","10","28","06:30","3.6","","-0.2","","76","","0.0","","26","","24","","16.1","","100.98","","","","","","NA"
"-56.07","51.39","ST. ANTHONY A","8403389","2022-10-28 07:30","2022","10","28","07:30","3.7","","-0.3","","75","","0.0","","26","","26","","16.1","","101.12","","","","","","NA"
"-56.07","51.39","ST. ANTHONY A","8403389","2022-10-28 08:30","2022","10","28","08:30","4.4","","-1.0","","68","","0.0","","26","","37","","16.1","","101.23","","","","","","NA"
"-56.07","51.39","ST. ANTHONY A","8403389","2022-10-28 09:30","2022","10","28","09:30","5.2","","-1.3","","63","","0.2","","26","","26","","16.1","","101.29","","","","","","NA"
"-56.07","51.39","ST. ANTHONY A","8403389","2022-10-28 10:30","2022","10","28","10:30","5.9","","-1.3","","60","","0.0","","28","","21","","16.1","","101.29","","","","","","NA"
"-56.07","51.39","ST. ANTHONY A","8403389","2022-10-28 11:30","2022","10","28","11:30","6.5","","-1.2","","58","","0.0","","25","","32","","16.1","","101.31","","","","","","NA"
"-56.07","51.39","ST. ANTHONY A","8403389","2022-10-28 12:30","2022","10","28","12:30","6.3","","-1.5","","57","","0.0","","25","","32","","16.1","","101.32","","","","","","NA"
"-56.07","51.39","ST. ANTHONY A","8403389","2022-10-28 13:30","2022","10","28","13:30","5.9","","-3.2","","52","","0.0","","26","","32","","16.1","","101.32","","","","","","NA"
"-56.07","51.39","ST. ANTHONY A","8403389","2022-10-28 14:30","2022","10","28","14:30","6.2","","-4.5","","46","","0.0","","25","","32","","16.1","","101.36","","","","","","NA"
"-56.07","51.39","ST. ANTHONY A","8403389","2022-10-28 15:30","2022","10","28","15:30","6.0","","-5.1","","45","","0.0","","25","","35","","16.1","","101.41","","","","","","NA"
"-56.07","51.39","ST. ANTHONY A","8403389","2022-10-28 16:30","2022","10","28","16:30","5.4","","-5.9","","44","","0.0","","26","","39","","16.1","","101.45","","","","","","NA"
"-56.07","51.39","ST. ANTHONY A","8403389","2022-10-28 17:30","2022","10","28","17:30","4.5","","-5.9","","47","","0.0","","25","","26","","16.1","","101.57","","","","","","NA"
"-56.07","51.39","ST. ANTHONY A","8403389","2022-10-28 18:30","2022","10","28","18:30","4.8","","-5.3","","48","","0.0","","26","","30","","16.1","","101.62","","","","","","NA"
"-56.07","51.39","ST. ANTHONY A","8403389","2022-10-28 19:30","2022","10","28","19:30","4.9","","-5.8","","46","","0.0","","26","","35","","16.1","","101.66","","","","","","NA"
"-56.07","51.39","ST. ANTHONY A","8403389","2022-10-28 20:30","2022","10","28","20:30","4.7","","-4.9","","50","","0.0","","26","","30","","16.1","","101.69","","","","","","NA"
"-56.07","51.39","ST. ANTHONY A","8403389","2022-10-28 21:30","2022","10","28","21:30","4.7","","-4.6","","51","","0.0","","25","","30","","16.1","","101.74","","","","","","NA"
"-56.07","51.39","ST. ANTHONY A","8403389","2022-10-28 22:30","2022","10","28","22:30","4.9","","-4.3","","52","","0.0","","24","","28","","16.1","","101.72","","","","","","NA"
"-56.07","51.39","ST. ANTHONY A","8403389","2022-10-28 23:30","2022","10","28","23:30","5.5","","-3.4","","53","","0.0","","25","","32","","16.1","","101.66","","","","","","NA"
"-56.07","51.39","ST. ANTHONY A","8403389","2022-10-29 00:30","2022","10","29","00:30","4.9","","-1.8","","62","","0.0","","25","","24","","16.1","","101.60","","","","","","NA"
"-56.07","51.39","ST. ANTHONY A","8403389","2022-10-29 01:30","2022","10","29","01:30","4.8","","-1.9","","62","","0.0","","24","","21","","16.1","","101.66","","","","","","NA"
"-56.07","51.39","ST. ANTHONY A","8403389","2022-10-29 02:30","2022","10","29","02:30","4.4","","-1.6","","65","","0.0","","24","","22","","16.1","","101.60","","","","","","NA"
"-56.07","51.39","ST. ANTHONY A","8403389","2022-10-29 03:30","2022","10","29","03:30","3.3","","-1.5","","71","","0.0","","25","","11","","16.1","","101.55","","","","","","NA"
"-56.07","51.39","ST. ANTHONY A","8403389","2022-10-29 04:30","2022","10","29","04:30","3.3","","-0.2","","78","","0.0","","23","","13","","16.1","","101.53","","","","","","NA"
"-56.07","51.39","ST. ANTHONY A","8403389","2022-10-29 05:30","2022","10","29","05:30","4.5","","1.4","","80","","0.0","","22","","22","","16.1","","101.45","","","","","","NA"
"-56.07","51.39","ST. ANTHONY A","8403389","2022-10-29 06:30","2022","10","29","06:30","5.2","","2.0","","80","","0.0","","23","","30","","16.1","","101.39","","","","","","NA"
"-56.07","51.39","ST. ANTHONY A","8403389","2022-10-29 07:30","2022","10","29","07:30","5.7","","2.4","","79","","0.0","","23","","30","","16.1","","101.40","","","","","","NA"
"-56.07","51.39","ST. ANTHONY A","8403389","2022-10-29 08:30","2022","10","29","08:30","6.8","","2.7","","75","","0.0","","23","","41","","16.1","","101.35","","","","","","NA"
"-56.07","51.39","ST. ANTHONY A","8403389","2022-10-29 09:30","2022","10","29","09:30","7.8","","2.7","","70","","0.0","","24","","37","","16.1","","101.27","","","","","","NA"
"-56.07","51.39","ST. ANTHONY A","8403389","2022-10-29 10:30","2022","10","29","10:30","7.9","","2.8","","70","","0.0","","23","","50","","16.1","","101.18","","","","","","NA"
"-56.07","51.39","ST. ANTHONY A","8403389","2022-10-29 11:30","2022","10","29","11:30","8.4","","3.5","","71","","0.0","","23","","46","","16.1","","101.10","","","","","","NA"
"-56.07","51.39","ST. ANTHONY A","8403389","2022-10-29 12:30","2022","10","29","12:30","8.5","","3.6","","71","","0.0","","23","","41","","16.1","","101.03","","","","","","NA"
"-56.07","51.39","ST. ANTHONY A","8403389","2022-10-29 13:30","2022","10","29","13:30","8.5","","3.6","","71","","0.0","","23","","45","","16.1","","100.92","","","","","","NA"
"-56.07","51.39","ST. ANTHONY A","8403389","2022-10-29 14:30","2022","10","29","14:30","9.0","","3.2","","67","","0.0","","23","","55","","16.1","","100.82","","","","","","NA"
"-56.07","51.39","ST. ANTHONY A","8403389","2022-10-29 15:30","2022","10","29","15:30","8.3","","3.0","","69","","0.0","","23","","63","","16.1","","100.77","","","","","","NA"
"-56.07","51.39","ST. ANTHONY A","8403389","2022-10-29 16:30","2022","10","29","16:30","8.1","","3.2","","71","","0.0","","23","","55","","16.1","","100.71","","","","","","NA"
"-56.07","51.39","ST. ANTHONY A","8403389","2022-10-29 17:30","2022","10","29","17:30","8.0","","3.7","","74","","0.0","","23","","50","","16.1","","100.69","","","","","","NA"
"-56.07","51.39","ST. ANTHONY A","8403389","2022-10-29 18:30","2022","10","29","18:30","7.9","","3.6","","74","","0.0","","23","","50","","16.1","","100.64","","","","","","NA"
"-56.07","51.39","ST. ANTHONY A","8403389","2022-10-29 19:30","2022","10","29","19:30","7.7","","3.2","","73","","0.0","","23","","37","","16.1","","100.62","","","","","","NA"
"-56.07","51.39","ST. ANTHONY A","8403389","2022-10-29 20:30","2022","10","29","20:30","7.9","","2.6","","69","","0.0","","24","","45","","16.1","","100.59","","","","","","NA"
"-56.07","51.39","ST. ANTHONY A","8403389","2022-10-29 21:30","2022","10","29","21:30","7.3","","3.0","","74","","0.0","","24","","32","","16.1","","100.54","","","","","","NA"
"-56.07","51.39","ST. ANTHONY A","8403389","2022-10-29 22:30","2022","10","29","22:30","7.0","","3.1","","76","","0.0","","23","","28","","16.1","","100.51","","","","","","NA"
"-56.07","51.39","ST. ANTHONY A","8403389","2022-10-29 23:30","2022","10","29","23:30","6.9","","3.5","","79","","0.0","","23","","28","","16.1","","100.46","","","","","","NA"
"-56.07","51.39","ST. ANTHONY A","8403389","2022-10-30 00:30","2022","10","30","00:30","6.9","","3.3","","78","","0.0","","24","","34","","16.1","","100.36","","","","","","NA"
"-56.07","51.39","ST. ANTHONY A","8403389","2022-10-30 01:30","2022","10","30","01:30","7.0","","3.9","","80","","0.0","","24","","32","","16.1","","100.30","","","","","","Rain"
"-56.07","51.39","ST. ANTHONY A","8403389","2022-10-30 02:30","2022","10","30","02:30","7.1","","3.9","","80","","0.0","","24","","32","","16.1","","100.23","","","","","","NA"
"-56.07","51.39","ST. ANTHONY A","8403389","2022-10-30 03:30","2022","10","30","03:30","6.6","","4.1","","84","","0.0","","24","","28","","16.1","","100.19","","","","","","NA"
"-56.07","51.39","ST. ANTHONY A","8403389","2022-10-30 04:30","2022","10","30","04:30","6.5","","4.3","","86","","0.0","","24","","24","","16.1","","100.11","","","","","","NA"
"-56.07","51.39","ST. ANTHONY A","8403389","2022-10-30 05:30","2022","10","30","05:30","7.2","","4.5","","83","","0.0","","25","","37","","16.1","","100.13","","","","","","NA"
"-56.07","51.39","ST. ANTHONY A","8403389","2022-10-30 06:30","2022","10","30","06:30","7.4","","4.6","","82","","0.0","","24","","32","","16.1","","100.18","","","","","","NA"
"-56.07","51.39","ST. ANTHONY A","8403389","2022-10-30 07:30","2022","10","30","07:30","7.4","","3.5","","76","","0.0","","25","","22","","16.1","","100.24","","","","","","NA"
"-56.07","51.39","ST. ANTHONY A","8403389","2022-10-30 08:30","2022","10","30","08:30","7.9","","3.4","","73","","0.0","","24","","28","","16.1","","100.27","","","","","","NA"
"-56.07","51.39","ST. ANTHONY A","8403389","2022-10-30 09:30","2022","10","30","09:30","9.1","","3.8","","69","","0.0","","24","","28","","16.1","","100.28","","","","","","NA"
"-56.07","51.39","ST. ANTHONY A","8403389","2022-10-30 10:30","2022","10","30","10:30","10.0","","3.3","","63","","0.0","","24","","32","","16.1","","100.29","","","","","","NA"
"-56.07","51.39","ST. ANTHONY A","8403389","2022-10-30 11:30","2022","10","30","11:30","9.9","","2.8","","61","","0.0","","23","","39","","16.1","","100.28","","","","","","NA"
"-56.07","51.39","ST. ANTHONY A","8403389","2022-10-30 12:30","2022","10","30","12:30","10.5","","2.9","","59","","0.0","","24","","35","","16.1","","100.24","","","","","","NA"
"-56.07","51.39","ST. ANTHONY A","8403389","2022-10-30 13:30","2022","10","30","13:30","11.0","","0.4","","48","","0.0","","25","","45","","16.1","","100.24","","","","","","NA"
"-56.07","51.39","ST. ANTHONY A","8403389","2022-10-30 14:30","2022","10","30","14:30","10.9","","0.1","","47","","0.0","","25","","35","","16.1","","100.31","","","","","","NA"
"-56.07","51.39","ST. ANTHONY A","8403389","2022-10-30 15:30","2022","10","30","15:30","10.3","","0.1","","49","","0.0","","25","","32","","16.1","","100.32","","","","","","NA"
"-56.07","51.39","ST. ANTHONY A","8403389","2022-10-30 16:30","2022","10","30","16:30","8.6","","3.8","","72","","0.0","","24","","24","","16.1","","100.37","","","","","","NA"
"-56.07","51.39","ST. ANTHONY A","8403389","2022-10-30 17:30","2022","10","30","17:30","8.1","","2.6","","68","","0.0","","24","","28","","16.1","","100.42","","","","","","NA"
"-56.07","51.39","ST. ANTHONY A","8403389","2022-10-30 18:30","2022","10","30","18:30","7.1","","3.7","","79","","0.0","","23","","24","","16.1","","100.49","","","","","","NA"
"-56.07","51.39","ST. ANTHONY A","8403389","2022-10-30 19:30","2022","10","30","19:30","6.8","","3.3","","78","","0.0","","24","","18","","16.1","","100.54","","","","","","NA"
"-56.07","51.39","ST. ANTHONY A","8403389","2022-10-30 20:30","2022","10","30","20:30","6.4","","3.9","","84","","0.0","","24","","22","","16.1","","100.54","","","","","","NA"
"-56.07","51.39","ST. ANTHONY A","8403389","2022-10-30 21:30","2022","10","30","21:30","6.7","","3.7","","81","","0.0","","24","","18","","16.1","","100.58","","","","","","NA"
"-56.07","51.39","ST. ANTHONY A","8403389","2022-10-30 22:30","2022","10","30","22:30","6.0","","4.0","","87","","0.0","","24","","18","","16.1","","100.60","","","","","","NA"
"-56.07","51.39","ST. ANTHONY A","8403389","2022-10-30 23:30","2022","10","30","23:30","6.7","","3.9","","82","","0.0","","25","","21","","16.1","","100.56","","","","","","NA"
"-56.07","51.39","ST. ANTHONY A","8403389","2022-10-31 00:30","2022","10","31","00:30","6.3","","3.2","","81","","0.0","","23","","17","","16.1","","100.53","","","","","","NA"
"-56.07","51.39","ST. ANTHONY A","8403389","2022-10-31 01:30","2022","10","31","01:30","6.0","","2.6","","79","","0.0","","25","","17","","16.1","","100.52","","","","","","NA"
"-56.07","51.39","ST. ANTHONY A","8403389","2022-10-31 02:30","2022","10","31","02:30","5.2","","2.9","","85","","0.0","","25","","13","","16.1","","100.49","","","","","","NA"
"-56.07","51.39","ST. ANTHONY A","8403389","2022-10-31 03:30","2022","10","31","03:30","2.4","","1.1","","91","","0.0","","17","","4","","16.1","","100.45","","","","","","NA"
"-56.07","51.39","ST. ANTHONY A","8403389","2022-10-31 04:30","2022","10","31","04:30","3.7","","2.8","","94","","0.0","","20","","13","","16.1","","100.46","","","","","","NA"
"-56.07","51.39","ST. ANTHONY A","8403389","2022-10-31 05:30","2022","10","31","05:30","4.0","","3.4","","96","","0.0","","18","","17","","16.1","","100.40","","","","","","NA"
"-56.07","51.39","ST. ANTHONY A","8403389","2022-10-31 06:30","2022","10","31","06:30","4.1","","3.4","","95","","0.0","","16","","13","","16.1","","100.34","","","","","","NA"
"-56.07","51.39","ST. ANTHONY A","8403389","2022-10-31 07:30","2022","10","31","07:30","5.1","","3.9","","92","","0.0","","16","","18","","16.1","","100.28","","","","","","NA"
"-56.07","51.39","ST. ANTHONY A","8403389","2022-10-31 08:30","2022","10","31","08:30","7.1","","4.9","","86","","0.0","","18","","21","","16.1","","100.19","","","","","","NA"
"-56.07","51.39","ST. ANTHONY A","8403389","2022-10-31 09:30","2022","10","31","09:30","9.1","","5.3","","77","","0.0","","18","","18","","16.1","","100.10","","","","","","NA"
"-56.07","51.39","ST. ANTHONY A","8403389","2022-10-31 10:30","2022","10","31","10:30","9.4","","5.8","","78","","0.0","","17","","11","","16.1","","99.96","","","","","","NA"
"-56.07","51.39","ST. ANTHONY A","8403389","2022-10-31 11:30","2022","10","31","11:30","10.3","","6.5","","77","","0.0","","21","","21","","16.1","","99.83","","","","","","NA"
"-56.07","51.39","ST. ANTHONY A","8403389","2022-10-31 12:30","2022","10","31","12:30","10.0","","7.4","","84","","0.0","","23","","37","","16.1","","99.71","","","","","","Rain"
"-56.07","51.39","ST. ANTHONY A","8403389","2022-10-31 13:30","2022","10","31","13:30","9.2","","6.7","","84","","0.0","","24","","37","","16.1","","99.72","","","","","","Rain"
"-56.07","51.39","ST. ANTHONY A","8403389","2022-10-31 14:30","2022","10","31","14:30","10.3","","6.1","","75","","0.0","","24","","35","","16.1","","99.80","","","","","","NA"
"-56.07","51.39","ST. ANTHONY A","8403389","2022-10-31 15:30","2022","10","31","15:30","10.4","","5.2","","70","","0.0","","25","","30","","16.1","","99.90","","","","","","NA"
"-56.07","51.39","ST. ANTHONY A","8403389","2022-10-31 16:30","2022","10","31","16:30","7.6","","3.3","","74","","0.0","","31","","35","","16.1","","100.19","","","","","","NA"
"-56.07","51.39","ST. ANTHONY A","8403389","2022-10-31 17:30","2022","10","31","17:30","3.6","","-0.4","","75","","0.0","","33","","24","","16.1","","100.48","","","","","","NA"
"-56.07","51.39","ST. ANTHONY A","8403389","2022-10-31 18:30","2022","10","31","18:30","3.2","","-0.8","","75","","0.0","","31","","34","","16.1","","100.72","","","","","","NA"
"-56.07","51.39","ST. ANTHONY A","8403389","2022-10-31 19:30","2022","10","31","19:30","2.6","","-0.8","","78","","0.0","","30","","17","","16.1","","100.86","","","","","","NA"
"-56.07","51.39","ST. ANTHONY A","8403389","2022-10-31 20:30","2022","10","31","20:30","2.4","","-1.2","","77","","0.0","","32","","17","","16.1","","101.00","","","","","","NA"
"-56.07","51.39","ST. ANTHONY A","8403389","2022-10-31 21:30","2022","10","31","21:30","0.8","","-1.7","","83","","0.0","","","","0","","16.1","","101.09","","","","","","NA"
"-56.07","51.39","ST. ANTHONY A","8403389","2022-10-31 22:30","2022","10","31","22:30","2.0","","-0.9","","81","","0.0","","32","","13","","16.1","","101.15","","","","","","NA"
"-56.07","51.39","ST. ANTHONY A","8403389","2022-10-31 23:30","2022","10","31","23:30","0.3","","-2.1","","84","","0.0","","29","","11","","16.1","","101.20","","","","","","NA"
