"Longitude (x)","Latitude (y)","Station Name","Climate ID","Date/Time (LST)","Year","Month","Day","Time (LST)","Temp (°C)","Temp Flag","Dew Point Temp (°C)","Dew Point Temp Flag","Rel Hum (%)","Rel Hum Flag","Precip. Amount (mm)","Precip. Amount Flag","Wind Dir (10s deg)","Wind Dir Flag","Wind Spd (km/h)","Wind Spd Flag","Visibility (km)","Visibility Flag","Stn Press (kPa)","Stn Press Flag","Hmdx","Hmdx Flag","Wind Chill","Wind Chill Flag","Weather"
"-61.68","56.55","NAIN A","8502801","2023-01-01 00:00","2023","01","01","00:00"
"-61.68","56.55","NAIN A","8502801","2023-01-01 01:00","2023","01","01","01:00"
"-61.68","56.55","NAIN A","8502801","2023-01-01 02:00","2023","01","01","02:00"
"-61.68","56.55","NAIN A","8502801","2023-01-01 03:00","2023","01","01","03:00"
"-61.68","56.55","NAIN A","8502801","2023-01-01 04:00","2023","01","01","04:00"
"-61.68","56.55","NAIN A","8502801","2023-01-01 05:00","2023","01","01","05:00","-6.4","","-8.5","","85","","","","31","","35","","24.1","","100.34","","","","-15","","Mainly Clear"
"-61.68","56.55","NAIN A","8502801","2023-01-01 06:00","2023","01","01","06:00","-6.2","","-8.5","","84","","","","30","","32","","24.1","","100.41","","","","-15","","NA"
"-61.68","56.55","NAIN A","8502801","2023-01-01 07:00","2023","01","01","07:00","-5.9","","-8.7","","81","","","","29","","32","","24.1","","100.46","","","","-14","","NA"
"-61.68","56.55","NAIN A","8502801","2023-01-01 08:00","2023","01","01","08:00","-6.1","","-8.7","","82","","","","30","","32","","24.1","","100.52","","","","-15","","Mostly Cloudy"
"-61.68","56.55","NAIN A","8502801","2023-01-01 09:00","2023","01","01","09:00","-6.5","","-8.8","","84","","","","30","","18","","24.1","","100.56","","","","-13","","NA"
"-61.68","56.55","NAIN A","8502801","2023-01-01 10:00","2023","01","01","10:00","-5.8","","-8.2","","83","","","","31","","28","","24.1","","100.62","","","","-14","","NA"
"-61.68","56.55","NAIN A","8502801","2023-01-01 11:00","2023","01","01","11:00","-6.1","","-8.5","","83","","","","30","","21","","24.1","","100.63","","","","-13","","Mostly Cloudy"
"-61.68","56.55","NAIN A","8502801","2023-01-01 12:00","2023","01","01","12:00","-5.7","","-8.0","","84","","","","30","","26","","24.1","","100.63","","","","-13","","NA"
"-61.68","56.55","NAIN A","8502801","2023-01-01 13:00","2023","01","01","13:00","-5.2","","-7.6","","83","","","","31","","21","","24.1","","100.66","","","","-12","","Snow Showers"
"-61.68","56.55","NAIN A","8502801","2023-01-01 14:00","2023","01","01","14:00","-5.5","","-7.9","","83","","","","31","","20","","24.1","","100.67","","","","-12","","Snow Showers"
"-61.68","56.55","NAIN A","8502801","2023-01-01 15:00","2023","01","01","15:00","-5.9","","-8.2","","84","","","","31","","27","","24.1","","100.69","","","","-14","","Snow Showers"
"-61.68","56.55","NAIN A","8502801","2023-01-01 16:00","2023","01","01","16:00","-6.2","","-8.3","","85","","","","30","","28","","24.1","","100.72","","","","-14","","Snow Showers"
"-61.68","56.55","NAIN A","8502801","2023-01-01 17:00","2023","01","01","17:00","-6.1","","-8.2","","85","","","","30","","23","","24.1","","100.75","","","","-13","","Snow Showers"
"-61.68","56.55","NAIN A","8502801","2023-01-01 18:00","2023","01","01","18:00","-6.4","","-8.8","","83","","","","29","","19","","24.1","","100.78","","","","-13","","Snow Showers"
"-61.68","56.55","NAIN A","8502801","2023-01-01 19:00","2023","01","01","19:00","-6.1","","-8.4","","84","","","","30","","18","","24.1","","100.80","","","","-13","","Snow Showers"
"-61.68","56.55","NAIN A","8502801","2023-01-01 20:00","2023","01","01","20:00","-6.1","","-8.4","","84","","","","31","","16","","24.1","","100.79","","","","-12","","Snow Showers"
"-61.68","56.55","NAIN A","8502801","2023-01-01 21:00","2023","01","01","21:00"
"-61.68","56.55","NAIN A","8502801","2023-01-01 22:00","2023","01","01","22:00"
"-61.68","56.55","NAIN A","8502801","2023-01-01 23:00","2023","01","01","23:00"
"-61.68","56.55","NAIN A","8502801","2023-01-02 00:00","2023","01","02","00:00"
"-61.68","56.55","NAIN A","8502801","2023-01-02 01:00","2023","01","02","01:00"
"-61.68","56.55","NAIN A","8502801","2023-01-02 02:00","2023","01","02","02:00"
"-61.68","56.55","NAIN A","8502801","2023-01-02 03:00","2023","01","02","03:00"
"-61.68","56.55","NAIN A","8502801","2023-01-02 04:00","2023","01","02","04:00"
"-61.68","56.55","NAIN A","8502801","2023-01-02 05:00","2023","01","02","05:00","-7.5","","-9.3","","87","","","","36","","1","","24.1","","100.71","","","","-8","","Cloudy"
"-61.68","56.55","NAIN A","8502801","2023-01-02 06:00","2023","01","02","06:00","-7.7","","-9.8","","85","","","","29","","5","","24.1","","100.74","","","","-10","","NA"
"-61.68","56.55","NAIN A","8502801","2023-01-02 07:00","2023","01","02","07:00","-7.3","","-9.4","","85","","","","19","","4","","24.1","","100.74","","","","-9","","NA"
"-61.68","56.55","NAIN A","8502801","2023-01-02 08:00","2023","01","02","08:00","-7.2","","-9.6","","83","","","","19","","7","","24.1","","100.73","","","","-11","","Cloudy"
"-61.68","56.55","NAIN A","8502801","2023-01-02 09:00","2023","01","02","09:00","-7.2","","-9.5","","84","","","","22","","14","","24.1","","100.73","","","","-13","","Snow Showers"
"-61.68","56.55","NAIN A","8502801","2023-01-02 10:00","2023","01","02","10:00","-7.0","","-9.0","","86","","","","21","","13","","24.1","","100.74","","","","-13","","Snow Showers"
"-61.68","56.55","NAIN A","8502801","2023-01-02 11:00","2023","01","02","11:00","-7.0","","-9.0","","86","","","","25","","9","","24.1","","100.70","","","","-11","","Snow Showers"
"-61.68","56.55","NAIN A","8502801","2023-01-02 12:00","2023","01","02","12:00","-8.9","","-11.9","","79","","","","27","","7","","24.1","","100.69","","","","-13","","NA"
"-61.68","56.55","NAIN A","8502801","2023-01-02 13:00","2023","01","02","13:00","-8.8","","-13.3","","70","","","","26","","15","","24.1","","100.63","","","","-15","","NA"
"-61.68","56.55","NAIN A","8502801","2023-01-02 14:00","2023","01","02","14:00","-9.7","","-13.5","","74","","","","29","","17","","24.1","","100.63","","","","-17","","Mainly Clear"
"-61.68","56.55","NAIN A","8502801","2023-01-02 15:00","2023","01","02","15:00","-10.8","","-14.6","","74","","","","27","","6","","24.1","","100.67","","","","-14","","NA"
"-61.68","56.55","NAIN A","8502801","2023-01-02 16:00","2023","01","02","16:00","-12.6","","-16.3","","74","","","","22","","19","","24.1","","100.70","","","","-21","","NA"
"-61.68","56.55","NAIN A","8502801","2023-01-02 17:00","2023","01","02","17:00","-1.3","","-5.2","","75","","","","22","","19","","24.1","","100.68","","","","-7","","Clear"
"-61.68","56.55","NAIN A","8502801","2023-01-02 18:00","2023","01","02","18:00","-13.9","","-17.6","","74","","","","20","","10","","24.1","","100.70","","","","-20","","NA"
"-61.68","56.55","NAIN A","8502801","2023-01-02 19:00","2023","01","02","19:00","-11.2","","-16.4","","66","","","","28","","30","","24.1","","100.70","","","","-21","","NA"
"-61.68","56.55","NAIN A","8502801","2023-01-02 20:00","2023","01","02","20:00","-12.6","","-16.8","","71","","","","36","","2","","24.1","","100.74","","","","-14","","Mainly Clear"
"-61.68","56.55","NAIN A","8502801","2023-01-02 21:00","2023","01","02","21:00"
"-61.68","56.55","NAIN A","8502801","2023-01-02 22:00","2023","01","02","22:00"
"-61.68","56.55","NAIN A","8502801","2023-01-02 23:00","2023","01","02","23:00"
"-61.68","56.55","NAIN A","8502801","2023-01-03 00:00","2023","01","03","00:00"
"-61.68","56.55","NAIN A","8502801","2023-01-03 01:00","2023","01","03","01:00"
"-61.68","56.55","NAIN A","8502801","2023-01-03 02:00","2023","01","03","02:00"
"-61.68","56.55","NAIN A","8502801","2023-01-03 03:00","2023","01","03","03:00"
"-61.68","56.55","NAIN A","8502801","2023-01-03 04:00","2023","01","03","04:00"
"-61.68","56.55","NAIN A","8502801","2023-01-03 05:00","2023","01","03","05:00","-11.7","","-16.1","","70","","","","23","","13","","24.1","","100.53","","","","-18","","Mainly Clear"
"-61.68","56.55","NAIN A","8502801","2023-01-03 06:00","2023","01","03","06:00","-12.8","","-16.5","","74","","","","22","","12","","24.1","","100.52","","","","-19","","NA"
"-61.68","56.55","NAIN A","8502801","2023-01-03 07:00","2023","01","03","07:00","-12.1","","-16.9","","68","","","","24","","11","","24.1","","100.49","","","","-18","","NA"
"-61.68","56.55","NAIN A","8502801","2023-01-03 08:00","2023","01","03","08:00","-11.9","","-16.7","","68","","","","26","","9","","24.1","","100.51","","","","-17","","Mostly Cloudy"
"-61.68","56.55","NAIN A","8502801","2023-01-03 09:00","2023","01","03","09:00","-11.5","","-16.5","","67","","","","26","","18","","24.1","","100.47","","","","-19","","NA"
"-61.68","56.55","NAIN A","8502801","2023-01-03 10:00","2023","01","03","10:00","-12.8","","-16.9","","72","","","","19","","13","","24.1","","100.44","","","","-20","","NA"
"-61.68","56.55","NAIN A","8502801","2023-01-03 11:00","2023","01","03","11:00","-11.9","","-16.9","","67","","","","24","","10","","24.1","","100.38","","","","-18","","Mostly Cloudy"
"-61.68","56.55","NAIN A","8502801","2023-01-03 12:00","2023","01","03","12:00","-11.8","","-16.9","","66","","","","24","","18","","24.1","","100.28","","","","-20","","NA"
"-61.68","56.55","NAIN A","8502801","2023-01-03 13:00","2023","01","03","13:00","-11.8","","-16.7","","67","","","","25","","26","","24.1","","100.18","","","","-21","","NA"
"-61.68","56.55","NAIN A","8502801","2023-01-03 14:00","2023","01","03","14:00","-11.0","","-16.0","","67","","","","27","","14","","24.1","","100.12","","","","-18","","Mostly Cloudy"
"-61.68","56.55","NAIN A","8502801","2023-01-03 15:00","2023","01","03","15:00","-11.8","","-16.3","","69","","","","24","","28","","24.1","","100.11","","","","-22","","NA"
"-61.68","56.55","NAIN A","8502801","2023-01-03 16:00","2023","01","03","16:00","-12.0","","-16.0","","73","","","","24","","20","","24.1","","100.05","","","","-20","","NA"
"-61.68","56.55","NAIN A","8502801","2023-01-03 17:00","2023","01","03","17:00","-11.7","","-15.7","","72","","","","25","","23","","24.1","","100.02","","","","-21","","Cloudy"
"-61.68","56.55","NAIN A","8502801","2023-01-03 18:00","2023","01","03","18:00","-11.7","","-16.0","","70","","","","26","","18","","24.1","","99.96","","","","-20","","NA"
"-61.68","56.55","NAIN A","8502801","2023-01-03 19:00","2023","01","03","19:00","-12.5","","-16.6","","72","","","","19","","9","","24.1","","99.89","","","","-18","","NA"
"-61.68","56.55","NAIN A","8502801","2023-01-03 20:00","2023","01","03","20:00","-11.3","","-15.6","","71","","","","31","","9","","24.1","","99.80","","","","-16","","Cloudy"
"-61.68","56.55","NAIN A","8502801","2023-01-03 21:00","2023","01","03","21:00"
"-61.68","56.55","NAIN A","8502801","2023-01-03 22:00","2023","01","03","22:00"
"-61.68","56.55","NAIN A","8502801","2023-01-03 23:00","2023","01","03","23:00"
"-61.68","56.55","NAIN A","8502801","2023-01-04 00:00","2023","01","04","00:00"
"-61.68","56.55","NAIN A","8502801","2023-01-04 01:00","2023","01","04","01:00"
"-61.68","56.55","NAIN A","8502801","2023-01-04 02:00","2023","01","04","02:00"
"-61.68","56.55","NAIN A","8502801","2023-01-04 03:00","2023","01","04","03:00"
"-61.68","56.55","NAIN A","8502801","2023-01-04 04:00","2023","01","04","04:00"
"-61.68","56.55","NAIN A","8502801","2023-01-04 05:00","2023","01","04","05:00","-13.5","","-18.8","","65","","","","28","","26","","24.1","","99.69","","","","-23","","Mostly Cloudy"
"-61.68","56.55","NAIN A","8502801","2023-01-04 06:00","2023","01","04","06:00","-14.1","","-19.4","","64","","","","28","","29","","24.1","","99.71","","","","-25","","NA"
"-61.68","56.55","NAIN A","8502801","2023-01-04 07:00","2023","01","04","07:00","-14.7","","-20.7","","61","","","","27","","19","","24.1","","99.75","","","","-24","","NA"
"-61.68","56.55","NAIN A","8502801","2023-01-04 08:00","2023","01","04","08:00","-16.2","","-21.7","","64","","","","27","","24","","24.1","","99.75","","","","-27","","Mainly Clear"
"-61.68","56.55","NAIN A","8502801","2023-01-04 09:00","2023","01","04","09:00","-15.9","","-21.5","","63","","","","29","","37","","24.1","","99.78","","","","-28","","NA"
"-61.68","56.55","NAIN A","8502801","2023-01-04 10:00","2023","01","04","10:00","-16.0","","-21.2","","65","","","","28","","46","","24.1","","99.75","","","","-30","","NA"
"-61.68","56.55","NAIN A","8502801","2023-01-04 11:00","2023","01","04","11:00","-15.3","","-20.6","","65","","","","28","","53","","24.1","","99.71","","","","-29","","Blowing Snow"
"-61.68","56.55","NAIN A","8502801","2023-01-04 12:00","2023","01","04","12:00","-15.3","","-20.2","","67","","","","28","","54","","24.1","","99.65","","","","-29","","Blowing Snow"
"-61.68","56.55","NAIN A","8502801","2023-01-04 13:00","2023","01","04","13:00","-15.0","","-20.0","","66","","","","28","","46","","24.1","","99.61","","","","-28","","Blowing Snow"
"-61.68","56.55","NAIN A","8502801","2023-01-04 14:00","2023","01","04","14:00","-14.5","","-19.4","","67","","","","29","","45","","24.1","","99.63","","","","-27","","Blowing Snow"
"-61.68","56.55","NAIN A","8502801","2023-01-04 15:00","2023","01","04","15:00","-13.7","","-18.0","","71","","","","30","","55","","24.1","","99.68","","","","-27","","Blowing Snow"
"-61.68","56.55","NAIN A","8502801","2023-01-04 16:00","2023","01","04","16:00","-13.0","","-17.3","","70","","","","29","","49","","24.1","","99.76","","","","-26","","Blowing Snow"
"-61.68","56.55","NAIN A","8502801","2023-01-04 17:00","2023","01","04","17:00","-12.3","","-16.7","","70","","","","30","","63","","24.1","","99.80","","","","-26","","Blowing Snow"
"-61.68","56.55","NAIN A","8502801","2023-01-04 18:00","2023","01","04","18:00","-11.8","","-16.7","","67","","","","30","","71","","24.1","","99.92","","","","-26","","Blowing Snow"
"-61.68","56.55","NAIN A","8502801","2023-01-04 19:00","2023","01","04","19:00","-12.2","","-17.0","","68","","","","31","","79","","24.1","","100.00","","","","-27","","Blowing Snow"
"-61.68","56.55","NAIN A","8502801","2023-01-04 20:00","2023","01","04","20:00","-11.6","","-16.2","","69","","","","30","","67","","24.1","","100.11","","","","-25","","Blowing Snow"
"-61.68","56.55","NAIN A","8502801","2023-01-04 21:00","2023","01","04","21:00"
"-61.68","56.55","NAIN A","8502801","2023-01-04 22:00","2023","01","04","22:00"
"-61.68","56.55","NAIN A","8502801","2023-01-04 23:00","2023","01","04","23:00"
"-61.68","56.55","NAIN A","8502801","2023-01-05 00:00","2023","01","05","00:00"
"-61.68","56.55","NAIN A","8502801","2023-01-05 01:00","2023","01","05","01:00"
"-61.68","56.55","NAIN A","8502801","2023-01-05 02:00","2023","01","05","02:00"
"-61.68","56.55","NAIN A","8502801","2023-01-05 03:00","2023","01","05","03:00"
"-61.68","56.55","NAIN A","8502801","2023-01-05 04:00","2023","01","05","04:00"
"-61.68","56.55","NAIN A","8502801","2023-01-05 05:00","2023","01","05","05:00","-18.3","","-23.4","","65","","","","29","","63","","24.1","","100.80","","","","-34","","Blowing Snow"
"-61.68","56.55","NAIN A","8502801","2023-01-05 06:00","2023","01","05","06:00","-18.6","","-24.8","","59","","","","28","","19","","24.1","","100.88","","","","-28","","NA"
"-61.68","56.55","NAIN A","8502801","2023-01-05 07:00","2023","01","05","07:00","-18.8","","-24.3","","63","","","","29","","52","","24.1","","100.91","","","","-34","","Blowing Snow"
"-61.68","56.55","NAIN A","8502801","2023-01-05 08:00","2023","01","05","08:00","-19.1","","-24.3","","64","","","","29","","58","","24.1","","100.99","","","","-35","","Blowing Snow"
"-61.68","56.55","NAIN A","8502801","2023-01-05 09:00","2023","01","05","09:00","-19.5","","-25.5","","60","","","","30","","58","","24.1","","101.01","","","","-36","","Blowing Snow"
"-61.68","56.55","NAIN A","8502801","2023-01-05 10:00","2023","01","05","10:00","-20.0","","-25.8","","61","","","","29","","41","","24.1","","101.11","","","","-34","","Blowing Snow"
"-61.68","56.55","NAIN A","8502801","2023-01-05 11:00","2023","01","05","11:00","-19.8","","-24.9","","64","","","","30","","57","","24.1","","101.18","","","","-36","","Blowing Snow"
"-61.68","56.55","NAIN A","8502801","2023-01-05 12:00","2023","01","05","12:00","-19.6","","-24.3","","67","","","","29","","59","","24.1","","101.21","","","","-36","","Blowing Snow"
"-61.68","56.55","NAIN A","8502801","2023-01-05 13:00","2023","01","05","13:00","-19.2","","-24.9","","62","","","","29","","40","","24.1","","101.23","","","","-33","","Blowing Snow"
"-61.68","56.55","NAIN A","8502801","2023-01-05 14:00","2023","01","05","14:00","-18.7","","-24.7","","60","","","","29","","43","","24.1","","101.23","","","","-33","","Blowing Snow"
"-61.68","56.55","NAIN A","8502801","2023-01-05 15:00","2023","01","05","15:00","-18.3","","-25.5","","54","","","","29","","53","","24.1","","101.29","","","","-33","","Blowing Snow"
"-61.68","56.55","NAIN A","8502801","2023-01-05 16:00","2023","01","05","16:00","-18.6","","-25.5","","55","","","","29","","52","","24.1","","101.38","","","","-34","","Blowing Snow"
"-61.68","56.55","NAIN A","8502801","2023-01-05 17:00","2023","01","05","17:00","-18.5","","-25.7","","54","","","","29","","43","","24.1","","101.47","","","","-33","","Clear"
"-61.68","56.55","NAIN A","8502801","2023-01-05 18:00","2023","01","05","18:00","-19.1","","-26.3","","54","","","","28","","39","","24.1","","101.47","","","","-33","","NA"
"-61.68","56.55","NAIN A","8502801","2023-01-05 19:00","2023","01","05","19:00","-18.5","","-25.1","","57","","","","28","","22","","24.1","","101.58","","","","-29","","NA"
"-61.68","56.55","NAIN A","8502801","2023-01-05 20:00","2023","01","05","20:00","-18.7","","-25.8","","54","","","","27","","17","","24.1","","101.65","","","","-28","","Clear"
"-61.68","56.55","NAIN A","8502801","2023-01-05 21:00","2023","01","05","21:00"
"-61.68","56.55","NAIN A","8502801","2023-01-05 22:00","2023","01","05","22:00"
"-61.68","56.55","NAIN A","8502801","2023-01-05 23:00","2023","01","05","23:00"
"-61.68","56.55","NAIN A","8502801","2023-01-06 00:00","2023","01","06","00:00"
"-61.68","56.55","NAIN A","8502801","2023-01-06 01:00","2023","01","06","01:00"
"-61.68","56.55","NAIN A","8502801","2023-01-06 02:00","2023","01","06","02:00"
"-61.68","56.55","NAIN A","8502801","2023-01-06 03:00","2023","01","06","03:00"
"-61.68","56.55","NAIN A","8502801","2023-01-06 04:00","2023","01","06","04:00"
"-61.68","56.55","NAIN A","8502801","2023-01-06 05:00","2023","01","06","05:00","-19.9","","-27.1","","53","","","","20","","9","","24.1","","101.98","","","","-27","","Clear"
"-61.68","56.55","NAIN A","8502801","2023-01-06 06:00","2023","01","06","06:00","-20.3","","-25.3","","65","","","","19","","7","","24.1","","101.98","","","","-26","","NA"
"-61.68","56.55","NAIN A","8502801","2023-01-06 07:00","2023","01","06","07:00","-19.3","","-25.2","","60","","","","17","","7","","24.1","","101.98","","","","-25","","NA"
"-61.68","56.55","NAIN A","8502801","2023-01-06 08:00","2023","01","06","08:00","-18.4","","-24.9","","57","","","","36","","3","","24.1","","102.01","","","","-21","","Mainly Clear"
"-61.68","56.55","NAIN A","8502801","2023-01-06 09:00","2023","01","06","09:00"
"-61.68","56.55","NAIN A","8502801","2023-01-06 10:00","2023","01","06","10:00","-17.0","","-24.4","","53","","","","36","","1","","24.1","","102.04","","","","-18","","NA"
"-61.68","56.55","NAIN A","8502801","2023-01-06 11:00","2023","01","06","11:00","-17.2","","-25.3","","50","","","","24","","4","","24.1","","102.01","","","","-20","","Cloudy"
"-61.68","56.55","NAIN A","8502801","2023-01-06 12:00","2023","01","06","12:00","-15.8","","-24.4","","49","","","","30","","7","","24.1","","101.97","","","","-21","","NA"
"-61.68","56.55","NAIN A","8502801","2023-01-06 13:00","2023","01","06","13:00","-16.1","","-24.2","","51","","","","22","","5","","24.1","","101.92","","","","-20","","NA"
"-61.68","56.55","NAIN A","8502801","2023-01-06 14:00","2023","01","06","14:00","-15.7","","-23.5","","52","","","","22","","13","","24.1","","101.87","","","","-23","","Cloudy"
"-61.68","56.55","NAIN A","8502801","2023-01-06 15:00","2023","01","06","15:00","-16.2","","-23.0","","56","","","","18","","3","","24.1","","101.84","","","","-18","","NA"
"-61.68","56.55","NAIN A","8502801","2023-01-06 16:00","2023","01","06","16:00","-15.8","","-22.8","","55","","","","22","","7","","24.1","","101.81","","","","-21","","NA"
"-61.68","56.55","NAIN A","8502801","2023-01-06 17:00","2023","01","06","17:00","-15.0","","-22.1","","55","","","","30","","4","","24.1","","101.78","","","","-18","","Mainly Clear"
"-61.68","56.55","NAIN A","8502801","2023-01-06 18:00","2023","01","06","18:00","-15.7","","-22.8","","55","","","","28","","9","","24.1","","101.79","","","","-22","","NA"
"-61.68","56.55","NAIN A","8502801","2023-01-06 19:00","2023","01","06","19:00","-15.4","","-21.7","","59","","","","36","","1","","24.1","","101.75","","","","-16","","NA"
"-61.68","56.55","NAIN A","8502801","2023-01-06 20:00","2023","01","06","20:00","-15.1","","-21.8","","57","","","","36","","1","","24.1","","101.69","","","","-16","","Cloudy"
"-61.68","56.55","NAIN A","8502801","2023-01-06 21:00","2023","01","06","21:00"
"-61.68","56.55","NAIN A","8502801","2023-01-06 22:00","2023","01","06","22:00"
"-61.68","56.55","NAIN A","8502801","2023-01-06 23:00","2023","01","06","23:00"
"-61.68","56.55","NAIN A","8502801","2023-01-07 00:00","2023","01","07","00:00"
"-61.68","56.55","NAIN A","8502801","2023-01-07 01:00","2023","01","07","01:00"
"-61.68","56.55","NAIN A","8502801","2023-01-07 02:00","2023","01","07","02:00"
"-61.68","56.55","NAIN A","8502801","2023-01-07 03:00","2023","01","07","03:00"
"-61.68","56.55","NAIN A","8502801","2023-01-07 04:00","2023","01","07","04:00"
"-61.68","56.55","NAIN A","8502801","2023-01-07 05:00","2023","01","07","05:00","-12.6","","-18.8","","60","","","","25","","5","","24.1","","101.08","","","","-16","","Cloudy"
"-61.68","56.55","NAIN A","8502801","2023-01-07 06:00","2023","01","07","06:00","-12.4","","-18.1","","63","","","","36","","2","","24.1","","101.03","","","","-14","","NA"
"-61.68","56.55","NAIN A","8502801","2023-01-07 07:00","2023","01","07","07:00","-12.7","","-17.9","","66","","","","18","","8","","24.1","","100.98","","","","-18","","NA"
"-61.68","56.55","NAIN A","8502801","2023-01-07 08:00","2023","01","07","08:00","-13.1","","-17.2","","72","","","","18","","5","","24.1","","100.94","","","","-16","","Snow Showers"
"-61.68","56.55","NAIN A","8502801","2023-01-07 09:00","2023","01","07","09:00","-12.9","","-17.2","","71","","","","26","","14","","24.1","","100.91","","","","-20","","Snow Showers"
"-61.68","56.55","NAIN A","8502801","2023-01-07 10:00","2023","01","07","10:00","-12.8","","-16.1","","77","","","","20","","5","","19.3","","100.86","","","","-16","","Snow Showers"
"-61.68","56.55","NAIN A","8502801","2023-01-07 11:00","2023","01","07","11:00","-13.2","","-16.6","","75","","","","36","","3","","24.1","","100.79","","","","-15","","Snow Showers"
"-61.68","56.55","NAIN A","8502801","2023-01-07 12:00","2023","01","07","12:00","-12.7","","-16.2","","76","","","","18","","4","","24.1","","100.69","","","","-15","","Snow Showers"
"-61.68","56.55","NAIN A","8502801","2023-01-07 13:00","2023","01","07","13:00","-12.8","","-16.7","","73","","","","23","","7","","24.1","","100.62","","","","-17","","Snow Showers"
"-61.68","56.55","NAIN A","8502801","2023-01-07 14:00","2023","01","07","14:00","-12.7","","-16.9","","71","","","","22","","11","","24.1","","100.57","","","","-19","","Cloudy"
"-61.68","56.55","NAIN A","8502801","2023-01-07 15:00","2023","01","07","15:00","-12.8","","-16.7","","73","","","","21","","8","","24.1","","100.56","","","","-18","","NA"
"-61.68","56.55","NAIN A","8502801","2023-01-07 16:00","2023","01","07","16:00","-12.4","","-16.1","","74","","","","24","","12","","24.1","","100.58","","","","-19","","Snow Showers"
"-61.68","56.55","NAIN A","8502801","2023-01-07 17:00","2023","01","07","17:00","-11.6","","-15.2","","75","","","","27","","18","","24.1","","100.55","","","","-19","","Snow Showers"
"-61.68","56.55","NAIN A","8502801","2023-01-07 18:00","2023","01","07","18:00","-11.4","","-15.0","","75","","","","29","","24","","24.1","","100.55","","","","-20","","Snow Showers"
"-61.68","56.55","NAIN A","8502801","2023-01-07 19:00","2023","01","07","19:00","-11.8","","-15.8","","72","","","","30","","24","","24.1","","100.55","","","","-21","","Snow Showers"
"-61.68","56.55","NAIN A","8502801","2023-01-07 20:00","2023","01","07","20:00","-12.2","","-16.3","","72","","","","29","","29","","24.1","","100.55","","","","-22","","Mainly Clear"
"-61.68","56.55","NAIN A","8502801","2023-01-07 21:00","2023","01","07","21:00"
"-61.68","56.55","NAIN A","8502801","2023-01-07 22:00","2023","01","07","22:00"
"-61.68","56.55","NAIN A","8502801","2023-01-07 23:00","2023","01","07","23:00"
"-61.68","56.55","NAIN A","8502801","2023-01-08 00:00","2023","01","08","00:00"
"-61.68","56.55","NAIN A","8502801","2023-01-08 01:00","2023","01","08","01:00"
"-61.68","56.55","NAIN A","8502801","2023-01-08 02:00","2023","01","08","02:00"
"-61.68","56.55","NAIN A","8502801","2023-01-08 03:00","2023","01","08","03:00"
"-61.68","56.55","NAIN A","8502801","2023-01-08 04:00","2023","01","08","04:00"
"-61.68","56.55","NAIN A","8502801","2023-01-08 05:00","2023","01","08","05:00","-15.9","","-20.5","","69","","","","30","","49","","24.1","","100.67","","","","-30","","Snow Showers,Blowing Snow"
"-61.68","56.55","NAIN A","8502801","2023-01-08 06:00","2023","01","08","06:00","-16.8","","-23.0","","59","","","","30","","50","","24.1","","100.70","","","","-31","","Snow Showers,Blowing Snow"
"-61.68","56.55","NAIN A","8502801","2023-01-08 07:00","2023","01","08","07:00","-17.6","","-24.2","","57","","","","30","","49","","24.1","","100.74","","","","-32","","Snow Showers,Blowing Snow"
"-61.68","56.55","NAIN A","8502801","2023-01-08 08:00","2023","01","08","08:00","-18.3","","-24.9","","57","","","","29","","50","","24.1","","100.72","","","","-33","","Blowing Snow"
"-61.68","56.55","NAIN A","8502801","2023-01-08 09:00","2023","01","08","09:00","-20.4","","-26.6","","59","","","","29","","34","","24.1","","100.80","","","","-34","","NA"
"-61.68","56.55","NAIN A","8502801","2023-01-08 10:00","2023","01","08","10:00","-21.2","","-27.3","","59","","","","29","","41","","24.1","","100.79","","","","-36","","Blowing Snow"
"-61.68","56.55","NAIN A","8502801","2023-01-08 11:00","2023","01","08","11:00","-21.0","","-27.6","","56","","","","29","","33","","24.1","","100.79","","","","-34","","Clear"
"-61.68","56.55","NAIN A","8502801","2023-01-08 12:00","2023","01","08","12:00","-21.1","","-27.8","","55","","","","29","","28","","24.1","","100.77","","","","-34","","NA"
"-61.68","56.55","NAIN A","8502801","2023-01-08 13:00","2023","01","08","13:00","-21.3","","-27.8","","57","","","","28","","22","","24.1","","100.67","","","","-33","","NA"
"-61.68","56.55","NAIN A","8502801","2023-01-08 14:00","2023","01","08","14:00","-21.3","","-27.7","","57","","","","29","","36","","24.1","","100.58","","","","-35","","Clear"
"-61.68","56.55","NAIN A","8502801","2023-01-08 15:00","2023","01","08","15:00","-22.0","","-28.3","","57","","","","28","","41","","24.1","","100.49","","","","-37","","NA"
"-61.68","56.55","NAIN A","8502801","2023-01-08 16:00","2023","01","08","16:00","-21.9","","-28.4","","57","","","","27","","39","","24.1","","100.48","","","","-37","","NA"
"-61.68","56.55","NAIN A","8502801","2023-01-08 17:00","2023","01","08","17:00","-22.4","","-28.3","","60","","","","26","","21","","24.1","","100.46","","","","-34","","Clear"
"-61.68","56.55","NAIN A","8502801","2023-01-08 18:00","2023","01","08","18:00","-24.5","","-29.9","","62","","","","22","","18","","24.1","","100.42","","","","-36","","NA"
"-61.68","56.55","NAIN A","8502801","2023-01-08 19:00","2023","01","08","19:00","-24.3","","-29.6","","62","","","","6","","11","","24.1","","100.35","","","","-33","","NA"
"-61.68","56.55","NAIN A","8502801","2023-01-08 20:00","2023","01","08","20:00","-24.8","","-30.1","","62","","","","23","","15","","24.1","","100.27","","","","-35","","Clear"
"-61.68","56.55","NAIN A","8502801","2023-01-08 21:00","2023","01","08","21:00"
"-61.68","56.55","NAIN A","8502801","2023-01-08 22:00","2023","01","08","22:00"
"-61.68","56.55","NAIN A","8502801","2023-01-08 23:00","2023","01","08","23:00"
"-61.68","56.55","NAIN A","8502801","2023-01-09 00:00","2023","01","09","00:00"
"-61.68","56.55","NAIN A","8502801","2023-01-09 01:00","2023","01","09","01:00"
"-61.68","56.55","NAIN A","8502801","2023-01-09 02:00","2023","01","09","02:00"
"-61.68","56.55","NAIN A","8502801","2023-01-09 03:00","2023","01","09","03:00"
"-61.68","56.55","NAIN A","8502801","2023-01-09 04:00","2023","01","09","04:00"
"-61.68","56.55","NAIN A","8502801","2023-01-09 05:00","2023","01","09","05:00","-21.2","","-25.3","","70","","","","30","","21","","24.1","","99.76","","","","-32","","Mainly Clear"
"-61.68","56.55","NAIN A","8502801","2023-01-09 06:00","2023","01","09","06:00","-20.9","","-25.3","","69","","","","29","","14","","24.1","","99.79","","","","-30","","NA"
"-61.68","56.55","NAIN A","8502801","2023-01-09 07:00","2023","01","09","07:00","-22.1","","-26.6","","68","","","","19","","9","","24.1","","99.84","","","","-29","","NA"
"-61.68","56.55","NAIN A","8502801","2023-01-09 08:00","2023","01","09","08:00","-19.6","","-24.6","","65","","","","36","","2","","24.1","","99.86","","","","-21","","Clear"
"-61.68","56.55","NAIN A","8502801","2023-01-09 09:00","2023","01","09","09:00","-18.5","","-24.2","","61","","","","27","","16","","24.1","","99.85","","","","-28","","NA"
"-61.68","56.55","NAIN A","8502801","2023-01-09 10:00","2023","01","09","10:00","-18.8","","-24.0","","64","","","","13","","7","","24.1","","99.87","","","","-24","","NA"
"-61.68","56.55","NAIN A","8502801","2023-01-09 11:00","2023","01","09","11:00","-16.8","","-22.9","","60","","","","19","","7","","24.1","","99.87","","","","-22","","Cloudy"
"-61.68","56.55","NAIN A","8502801","2023-01-09 12:00","2023","01","09","12:00","-15.3","","-20.4","","65","","","","13","","4","","24.1","","99.84","","","","-18","","Snow Showers"
"-61.68","56.55","NAIN A","8502801","2023-01-09 13:00","2023","01","09","13:00","-12.0","","-16.1","","72","","","","29","","30","","24.1","","99.80","","","","-22","","Snow Showers"
"-61.68","56.55","NAIN A","8502801","2023-01-09 14:00","2023","01","09","14:00","-11.2","","-14.9","","74","","","","29","","30","","24.1","","99.82","","","","-21","","Snow Showers"
"-61.68","56.55","NAIN A","8502801","2023-01-09 15:00","2023","01","09","15:00","-10.7","","-15.0","","71","","","","28","","40","","24.1","","99.88","","","","-22","","Snow Showers"
"-61.68","56.55","NAIN A","8502801","2023-01-09 16:00","2023","01","09","16:00","-10.4","","-15.6","","66","","","","29","","27","","24.1","","99.98","","","","-20","","NA"
"-61.68","56.55","NAIN A","8502801","2023-01-09 17:00","2023","01","09","17:00","-10.4","","-15.8","","65","","","","30","","53","","24.1","","100.03","","","","-23","","Cloudy"
"-61.68","56.55","NAIN A","8502801","2023-01-09 18:00","2023","01","09","18:00","-10.3","","-15.7","","65","","","","30","","43","","24.1","","100.10","","","","-21","","NA"
"-61.68","56.55","NAIN A","8502801","2023-01-09 19:00","2023","01","09","19:00","-10.5","","-15.2","","69","","","","30","","44","","24.1","","100.17","","","","-22","","NA"
"-61.68","56.55","NAIN A","8502801","2023-01-09 20:00","2023","01","09","20:00","-11.1","","-16.6","","64","","","","29","","32","","24.1","","100.23","","","","-21","","Cloudy"
"-61.68","56.55","NAIN A","8502801","2023-01-09 21:00","2023","01","09","21:00"
"-61.68","56.55","NAIN A","8502801","2023-01-09 22:00","2023","01","09","22:00"
"-61.68","56.55","NAIN A","8502801","2023-01-09 23:00","2023","01","09","23:00"
"-61.68","56.55","NAIN A","8502801","2023-01-10 00:00","2023","01","10","00:00"
"-61.68","56.55","NAIN A","8502801","2023-01-10 01:00","2023","01","10","01:00"
"-61.68","56.55","NAIN A","8502801","2023-01-10 02:00","2023","01","10","02:00"
"-61.68","56.55","NAIN A","8502801","2023-01-10 03:00","2023","01","10","03:00"
"-61.68","56.55","NAIN A","8502801","2023-01-10 04:00","2023","01","10","04:00"
"-61.68","56.55","NAIN A","8502801","2023-01-10 05:00","2023","01","10","05:00","-14.9","","-20.7","","62","","","","22","","7","","24.1","","100.63","","","","-20","","Mainly Clear"
"-61.68","56.55","NAIN A","8502801","2023-01-10 06:00","2023","01","10","06:00","-15.3","","-20.8","","63","","","","19","","7","","24.1","","100.65","","","","-20","","NA"
"-61.68","56.55","NAIN A","8502801","2023-01-10 07:00","2023","01","10","07:00","-16.3","","-21.1","","67","","","","16","","8","","24.1","","100.71","","","","-22","","NA"
"-61.68","56.55","NAIN A","8502801","2023-01-10 08:00","2023","01","10","08:00","-16.0","","-20.9","","67","","","","19","","7","","24.1","","100.74","","","","-21","","Mostly Cloudy"
"-61.68","56.55","NAIN A","8502801","2023-01-10 09:00","2023","01","10","09:00","-14.1","","-19.3","","65","","","","18","","5","","24.1","","100.79","","","","-18","","NA"
"-61.68","56.55","NAIN A","8502801","2023-01-10 10:00","2023","01","10","10:00","-14.3","","-19.3","","67","","","","20","","8","","24.1","","100.79","","","","-20","","NA"
"-61.68","56.55","NAIN A","8502801","2023-01-10 11:00","2023","01","10","11:00","-13.2","","-18.8","","63","","","","36","","1","","24.1","","100.78","","","","-14","","Mostly Cloudy"
"-61.68","56.55","NAIN A","8502801","2023-01-10 12:00","2023","01","10","12:00","-12.6","","-19.0","","59","","","","28","","16","","24.1","","100.75","","","","-20","","NA"
"-61.68","56.55","NAIN A","8502801","2023-01-10 13:00","2023","01","10","13:00","-12.6","","-18.5","","62","","","","29","","7","","24.1","","100.69","","","","-17","","NA"
"-61.68","56.55","NAIN A","8502801","2023-01-10 14:00","2023","01","10","14:00","-11.9","","-18.4","","59","","","","7","","10","","24.1","","100.64","","","","-18","","Mostly Cloudy"
"-61.68","56.55","NAIN A","8502801","2023-01-10 15:00","2023","01","10","15:00","-13.1","","-18.7","","63","","","","25","","12","","24.1","","100.71","","","","-20","","NA"
"-61.68","56.55","NAIN A","8502801","2023-01-10 16:00","2023","01","10","16:00","-14.8","","-20.2","","64","","","","23","","17","","24.1","","100.71","","","","-23","","NA"
"-61.68","56.55","NAIN A","8502801","2023-01-10 17:00","2023","01","10","17:00","-14.6","","-19.9","","64","","","","17","","18","","24.1","","100.72","","","","-23","","Mainly Clear"
"-61.68","56.55","NAIN A","8502801","2023-01-10 18:00","2023","01","10","18:00","-14.8","","-19.7","","66","","","","19","","13","","24.1","","100.70","","","","-22","","NA"
"-61.68","56.55","NAIN A","8502801","2023-01-10 19:00","2023","01","10","19:00","-13.0","","-18.3","","65","","","","32","","7","","24.1","","100.68","","","","-18","","NA"
"-61.68","56.55","NAIN A","8502801","2023-01-10 20:00","2023","01","10","20:00","-12.9","","-17.8","","67","","","","29","","6","","24.1","","100.67","","","","-17","","Cloudy"
"-61.68","56.55","NAIN A","8502801","2023-01-10 21:00","2023","01","10","21:00"
"-61.68","56.55","NAIN A","8502801","2023-01-10 22:00","2023","01","10","22:00"
"-61.68","56.55","NAIN A","8502801","2023-01-10 23:00","2023","01","10","23:00"
"-61.68","56.55","NAIN A","8502801","2023-01-11 00:00","2023","01","11","00:00"
"-61.68","56.55","NAIN A","8502801","2023-01-11 01:00","2023","01","11","01:00"
"-61.68","56.55","NAIN A","8502801","2023-01-11 02:00","2023","01","11","02:00"
"-61.68","56.55","NAIN A","8502801","2023-01-11 03:00","2023","01","11","03:00"
"-61.68","56.55","NAIN A","8502801","2023-01-11 04:00","2023","01","11","04:00"
"-61.68","56.55","NAIN A","8502801","2023-01-11 05:00","2023","01","11","05:00","-7.2","","-10.9","","75","","","","30","","38","","24.1","","100.46","","","","-17","","Snow Showers"
"-61.68","56.55","NAIN A","8502801","2023-01-11 06:00","2023","01","11","06:00","-6.8","","-10.7","","74","","","","31","","44","","24.1","","100.50","","","","-17","","Snow Showers,Blowing Snow"
"-61.68","56.55","NAIN A","8502801","2023-01-11 07:00","2023","01","11","07:00","-7.1","","-10.9","","74","","","","31","","38","","24.1","","100.55","","","","-17","","Snow Showers"
"-61.68","56.55","NAIN A","8502801","2023-01-11 08:00","2023","01","11","08:00","-7.3","","-10.6","","77","","","","31","","42","","24.1","","100.59","","","","-17","","Snow Showers"
"-61.68","56.55","NAIN A","8502801","2023-01-11 09:00","2023","01","11","09:00","-7.3","","-10.4","","79","","","","32","","39","","24.1","","100.65","","","","-17","","NA"
"-61.68","56.55","NAIN A","8502801","2023-01-11 10:00","2023","01","11","10:00","-7.3","","-9.9","","82","","","","33","","40","","24.1","","100.71","","","","-17","","NA"
"-61.68","56.55","NAIN A","8502801","2023-01-11 11:00","2023","01","11","11:00","-7.3","","-9.2","","87","","","","33","","44","","1.6","","100.75","","","","-18","","Snow,Blowing Snow"
"-61.68","56.55","NAIN A","8502801","2023-01-11 12:00","2023","01","11","12:00","-7.1","","-8.6","","89","","","","33","","42","","0.8","","100.83","","","","-17","","Moderate Snow,Blowing Snow"
"-61.68","56.55","NAIN A","8502801","2023-01-11 13:00","2023","01","11","13:00","-6.5","","-8.1","","89","","","","33","","26","","1.0","","100.88","","","","-14","","Snow,Blowing Snow"
"-61.68","56.55","NAIN A","8502801","2023-01-11 14:00","2023","01","11","14:00","-5.8","","-7.8","","86","","","","34","","39","","1.6","","101.00","","","","-15","","Snow,Blowing Snow"
"-61.68","56.55","NAIN A","8502801","2023-01-11 15:00","2023","01","11","15:00","-5.9","","-8.9","","79","","","","35","","41","","4.8","","101.11","","","","-15","","Snow,Blowing Snow"
"-61.68","56.55","NAIN A","8502801","2023-01-11 16:00","2023","01","11","16:00","-6.3","","-9.8","","76","","","","34","","36","","16.1","","101.26","","","","-15","","Snow,Blowing Snow"
"-61.68","56.55","NAIN A","8502801","2023-01-11 17:00","2023","01","11","17:00","-7.4","","-10.8","","77","","","","33","","31","","16.1","","101.39","","","","-16","","Snow,Blowing Snow"
"-61.68","56.55","NAIN A","8502801","2023-01-11 18:00","2023","01","11","18:00","-8.0","","-11.0","","79","","","","32","","34","","22.5","","101.49","","","","-17","","Snow"
"-61.68","56.55","NAIN A","8502801","2023-01-11 19:00","2023","01","11","19:00","-8.5","","-11.2","","81","","","","32","","30","","24.1","","101.59","","","","-18","","NA"
"-61.68","56.55","NAIN A","8502801","2023-01-11 20:00","2023","01","11","20:00","-9.4","","-11.3","","87","","","","31","","40","","4.8","","101.67","","","","-20","","Snow"
"-61.68","56.55","NAIN A","8502801","2023-01-11 21:00","2023","01","11","21:00"
"-61.68","56.55","NAIN A","8502801","2023-01-11 22:00","2023","01","11","22:00"
"-61.68","56.55","NAIN A","8502801","2023-01-11 23:00","2023","01","11","23:00"
"-61.68","56.55","NAIN A","8502801","2023-01-12 00:00","2023","01","12","00:00"
"-61.68","56.55","NAIN A","8502801","2023-01-12 01:00","2023","01","12","01:00"
"-61.68","56.55","NAIN A","8502801","2023-01-12 02:00","2023","01","12","02:00"
"-61.68","56.55","NAIN A","8502801","2023-01-12 03:00","2023","01","12","03:00"
"-61.68","56.55","NAIN A","8502801","2023-01-12 04:00","2023","01","12","04:00"
"-61.68","56.55","NAIN A","8502801","2023-01-12 05:00","2023","01","12","05:00","-11.6","","-15.0","","76","","","","29","","16","","24.1","","102.16","","","","-19","","Cloudy"
"-61.68","56.55","NAIN A","8502801","2023-01-12 06:00","2023","01","12","06:00","-11.6","","-14.9","","77","","","","21","","3","","24.1","","102.19","","","","-13","","NA"
"-61.68","56.55","NAIN A","8502801","2023-01-12 07:00","2023","01","12","07:00","-13.6","","-18.0","","69","","","","26","","24","","24.1","","102.20","","","","-23","","NA"
"-61.68","56.55","NAIN A","8502801","2023-01-12 08:00","2023","01","12","08:00","-14.3","","-20.4","","61","","","","30","","10","","24.1","","102.22","","","","-20","","Mostly Cloudy"
"-61.68","56.55","NAIN A","8502801","2023-01-12 09:00","2023","01","12","09:00","-15.8","","-21.9","","60","","","","27","","16","","24.1","","102.26","","","","-24","","NA"
"-61.68","56.55","NAIN A","8502801","2023-01-12 10:00","2023","01","12","10:00","-16.2","","-22.3","","60","","","","2","","6","","24.1","","102.29","","","","-21","","NA"
"-61.68","56.55","NAIN A","8502801","2023-01-12 11:00","2023","01","12","11:00","-16.7","","-22.9","","59","","","","23","","20","","24.1","","102.26","","","","-26","","Cloudy"
"-61.68","56.55","NAIN A","8502801","2023-01-12 12:00","2023","01","12","12:00","-17.6","","-23.3","","62","","","","23","","26","","24.1","","102.21","","","","-29","","NA"
"-61.68","56.55","NAIN A","8502801","2023-01-12 13:00","2023","01","12","13:00","-16.5","","-23.5","","55","","","","25","","9","","24.1","","102.13","","","","-23","","NA"
"-61.68","56.55","NAIN A","8502801","2023-01-12 14:00","2023","01","12","14:00","-17.3","","-23.7","","58","","","","24","","19","","24.1","","102.10","","","","-27","","Mainly Clear"
"-61.68","56.55","NAIN A","8502801","2023-01-12 15:00","2023","01","12","15:00","-18.2","","-24.2","","60","","","","23","","24","","24.1","","102.11","","","","-29","","NA"
"-61.68","56.55","NAIN A","8502801","2023-01-12 16:00","2023","01","12","16:00","-17.2","","-22.5","","64","","","","25","","19","","24.1","","102.11","","","","-27","","NA"
"-61.68","56.55","NAIN A","8502801","2023-01-12 17:00","2023","01","12","17:00","-19.9","","-24.6","","67","","","","21","","16","","24.1","","102.16","","","","-29","","Clear"
"-61.68","56.55","NAIN A","8502801","2023-01-12 18:00","2023","01","12","18:00","-18.8","","-24.1","","64","","","","21","","13","","24.1","","102.11","","","","-27","","NA"
"-61.68","56.55","NAIN A","8502801","2023-01-12 19:00","2023","01","12","19:00","-20.4","","-25.6","","64","","","","19","","17","","24.1","","102.06","","","","-30","","NA"
"-61.68","56.55","NAIN A","8502801","2023-01-12 20:00","2023","01","12","20:00","-16.2","","-22.8","","58","","","","26","","11","","24.1","","102.01","","","","-23","","Mainly Clear"
"-61.68","56.55","NAIN A","8502801","2023-01-12 21:00","2023","01","12","21:00"
"-61.68","56.55","NAIN A","8502801","2023-01-12 22:00","2023","01","12","22:00"
"-61.68","56.55","NAIN A","8502801","2023-01-12 23:00","2023","01","12","23:00"
"-61.68","56.55","NAIN A","8502801","2023-01-13 00:00","2023","01","13","00:00"
"-61.68","56.55","NAIN A","8502801","2023-01-13 01:00","2023","01","13","01:00"
"-61.68","56.55","NAIN A","8502801","2023-01-13 02:00","2023","01","13","02:00"
"-61.68","56.55","NAIN A","8502801","2023-01-13 03:00","2023","01","13","03:00"
"-61.68","56.55","NAIN A","8502801","2023-01-13 04:00","2023","01","13","04:00"
"-61.68","56.55","NAIN A","8502801","2023-01-13 05:00","2023","01","13","05:00","-15.6","","-21.2","","63","","","","22","","13","","24.1","","101.22","","","","-23","","Cloudy"
"-61.68","56.55","NAIN A","8502801","2023-01-13 06:00","2023","01","13","06:00","-14.4","","-19.3","","67","","","","24","","29","","24.1","","101.18","","","","-25","","NA"
"-61.68","56.55","NAIN A","8502801","2023-01-13 07:00","2023","01","13","07:00","-14.1","","-19.1","","66","","","","25","","31","","24.1","","101.19","","","","-25","","NA"
"-61.68","56.55","NAIN A","8502801","2023-01-13 08:00","2023","01","13","08:00","-14.0","","-19.1","","65","","","","26","","35","","24.1","","101.20","","","","-25","","Mostly Cloudy"
"-61.68","56.55","NAIN A","8502801","2023-01-13 09:00","2023","01","13","09:00","-13.5","","-19.2","","63","","","","26","","34","","24.1","","101.24","","","","-25","","NA"
"-61.68","56.55","NAIN A","8502801","2023-01-13 10:00","2023","01","13","10:00","-13.6","","-19.4","","62","","","","28","","16","","24.1","","101.30","","","","-21","","NA"
"-61.68","56.55","NAIN A","8502801","2023-01-13 11:00","2023","01","13","11:00","-12.6","","-18.4","","62","","","","29","","26","","24.1","","101.30","","","","-22","","Mostly Cloudy"
"-61.68","56.55","NAIN A","8502801","2023-01-13 12:00","2023","01","13","12:00","-13.1","","-19.3","","60","","","","29","","45","","24.1","","101.36","","","","-25","","NA"
"-61.68","56.55","NAIN A","8502801","2023-01-13 13:00","2023","01","13","13:00","-14.4","","-20.6","","60","","","","29","","32","","24.1","","101.42","","","","-26","","NA"
"-61.68","56.55","NAIN A","8502801","2023-01-13 14:00","2023","01","13","14:00","-16.7","","-23.6","","56","","","","27","","35","","24.1","","101.53","","","","-29","","Mainly Clear"
"-61.68","56.55","NAIN A","8502801","2023-01-13 15:00","2023","01","13","15:00","-19.6","","-25.4","","61","","","","27","","57","","24.1","","101.57","","","","-36","","NA"
"-61.68","56.55","NAIN A","8502801","2023-01-13 16:00","2023","01","13","16:00","-20.5","","-26.4","","60","","","","28","","30","","24.1","","101.70","","","","-33","","NA"
"-61.68","56.55","NAIN A","8502801","2023-01-13 17:00","2023","01","13","17:00","-21.0","","-26.9","","60","","","","28","","37","","24.1","","101.75","","","","-35","","Clear"
"-61.68","56.55","NAIN A","8502801","2023-01-13 18:00","2023","01","13","18:00","-21.0","","-27.3","","58","","","","28","","26","","24.1","","101.81","","","","-33","","NA"
"-61.68","56.55","NAIN A","8502801","2023-01-13 19:00","2023","01","13","19:00","-21.3","","-27.3","","59","","","","29","","43","","24.1","","101.82","","","","-36","","NA"
"-61.68","56.55","NAIN A","8502801","2023-01-13 20:00","2023","01","13","20:00","-21.5","","-27.4","","59","","","","28","","38","","24.1","","101.89","","","","-36","","Clear"
"-61.68","56.55","NAIN A","8502801","2023-01-13 21:00","2023","01","13","21:00"
"-61.68","56.55","NAIN A","8502801","2023-01-13 22:00","2023","01","13","22:00"
"-61.68","56.55","NAIN A","8502801","2023-01-13 23:00","2023","01","13","23:00"
"-61.68","56.55","NAIN A","8502801","2023-01-14 00:00","2023","01","14","00:00"
"-61.68","56.55","NAIN A","8502801","2023-01-14 01:00","2023","01","14","01:00"
"-61.68","56.55","NAIN A","8502801","2023-01-14 02:00","2023","01","14","02:00"
"-61.68","56.55","NAIN A","8502801","2023-01-14 03:00","2023","01","14","03:00"
"-61.68","56.55","NAIN A","8502801","2023-01-14 04:00","2023","01","14","04:00"
"-61.68","56.55","NAIN A","8502801","2023-01-14 05:00","2023","01","14","05:00"
"-61.68","56.55","NAIN A","8502801","2023-01-14 06:00","2023","01","14","06:00","-23.9","","-29.9","","58","","","","21","","19","","24.1","","102.14","","","","-35","","NA"
"-61.68","56.55","NAIN A","8502801","2023-01-14 07:00","2023","01","14","07:00","-22.4","","-29.2","","55","","","","23","","16","","24.1","","102.20","","","","-32","","NA"
"-61.68","56.55","NAIN A","8502801","2023-01-14 08:00","2023","01","14","08:00","-21.1","","-28.9","","50","","","","22","","5","","24.1","","102.21","","","","-26","","Clear"
"-61.68","56.55","NAIN A","8502801","2023-01-14 09:00","2023","01","14","09:00","-20.1","","-28.4","","49","","","","26","","12","","24.1","","102.20","","","","-28","","NA"
"-61.68","56.55","NAIN A","8502801","2023-01-14 10:00","2023","01","14","10:00","-19.1","","-27.8","","47","","","","24","","13","","24.1","","102.27","","","","-27","","NA"
"-61.68","56.55","NAIN A","8502801","2023-01-14 11:00","2023","01","14","11:00","-19.9","","-27.7","","51","","","","29","","4","","24.1","","102.25","","","","-23","","Clear"
"-61.68","56.55","NAIN A","8502801","2023-01-14 12:00","2023","01","14","12:00","-19.8","","-28.0","","49","","","","22","","25","","24.1","","102.20","","","","-31","","NA"
"-61.68","56.55","NAIN A","8502801","2023-01-14 13:00","2023","01","14","13:00","-19.4","","-27.4","","50","","","","23","","17","","24.1","","102.12","","","","-29","","NA"
"-61.68","56.55","NAIN A","8502801","2023-01-14 14:00","2023","01","14","14:00","-18.9","","-26.4","","52","","","","36","","2","","24.1","","102.12","","","","-21","","Clear"
"-61.68","56.55","NAIN A","8502801","2023-01-14 15:00","2023","01","14","15:00","-19.0","","-26.6","","52","","","","13","","4","","24.1","","102.14","","","","-22","","NA"
"-61.68","56.55","NAIN A","8502801","2023-01-14 16:00","2023","01","14","16:00","-19.5","","-26.9","","53","","","","27","","3","","24.1","","102.15","","","","-22","","NA"
"-61.68","56.55","NAIN A","8502801","2023-01-14 17:00","2023","01","14","17:00","-19.7","","-27.2","","52","","","","0","","1","","24.1","","102.14","","","","-21","","Clear"
"-61.68","56.55","NAIN A","8502801","2023-01-14 18:00","2023","01","14","18:00","-19.3","","-28.5","","45","","","","21","","17","","24.1","","102.09","","","","-29","","NA"
"-61.68","56.55","NAIN A","8502801","2023-01-14 19:00","2023","01","14","19:00","-20.0","","-28.7","","47","","","","22","","26","","24.1","","102.06","","","","-32","","NA"
"-61.68","56.55","NAIN A","8502801","2023-01-14 20:00","2023","01","14","20:00","-20.2","","-28.5","","49","","","","23","","14","","24.1","","102.06","","","","-29","","Mainly Clear"
"-61.68","56.55","NAIN A","8502801","2023-01-14 21:00","2023","01","14","21:00"
"-61.68","56.55","NAIN A","8502801","2023-01-14 22:00","2023","01","14","22:00"
"-61.68","56.55","NAIN A","8502801","2023-01-14 23:00","2023","01","14","23:00"
"-61.68","56.55","NAIN A","8502801","2023-01-15 00:00","2023","01","15","00:00"
"-61.68","56.55","NAIN A","8502801","2023-01-15 01:00","2023","01","15","01:00"
"-61.68","56.55","NAIN A","8502801","2023-01-15 02:00","2023","01","15","02:00"
"-61.68","56.55","NAIN A","8502801","2023-01-15 03:00","2023","01","15","03:00"
"-61.68","56.55","NAIN A","8502801","2023-01-15 04:00","2023","01","15","04:00"
"-61.68","56.55","NAIN A","8502801","2023-01-15 05:00","2023","01","15","05:00","-14.5","","-20.2","","62","","","","26","","30","","24.1","","102.03","","","","-25","","Mainly Clear"
"-61.68","56.55","NAIN A","8502801","2023-01-15 06:00","2023","01","15","06:00","-15.0","","-20.6","","63","","","","21","","11","","24.1","","102.11","","","","-22","","NA"
"-61.68","56.55","NAIN A","8502801","2023-01-15 07:00","2023","01","15","07:00","-13.6","","-20.0","","59","","","","28","","21","","24.1","","102.17","","","","-23","","NA"
"-61.68","56.55","NAIN A","8502801","2023-01-15 08:00","2023","01","15","08:00","-13.8","","-20.5","","58","","","","30","","43","","24.1","","102.24","","","","-26","","Clear"
"-61.68","56.55","NAIN A","8502801","2023-01-15 09:00","2023","01","15","09:00","-14.4","","-20.7","","59","","","","29","","26","","24.1","","102.43","","","","-25","","NA"
"-61.68","56.55","NAIN A","8502801","2023-01-15 10:00","2023","01","15","10:00","-14.7","","-22.0","","55","","","","32","","32","","24.1","","102.58","","","","-26","","NA"
"-61.68","56.55","NAIN A","8502801","2023-01-15 11:00","2023","01","15","11:00","-16.3","","-23.3","","55","","","","31","","60","","24.1","","102.69","","","","-31","","Clear"
"-61.68","56.55","NAIN A","8502801","2023-01-15 12:00","2023","01","15","12:00","-16.9","","-24.1","","54","","","","27","","17","","24.1","","102.75","","","","-26","","NA"
"-61.68","56.55","NAIN A","8502801","2023-01-15 13:00","2023","01","15","13:00","-17.4","","-24.7","","54","","","","29","","48","","24.1","","102.80","","","","-32","","NA"
"-61.68","56.55","NAIN A","8502801","2023-01-15 14:00","2023","01","15","14:00","-17.5","","-25.3","","51","","","","25","","13","","24.1","","102.98","","","","-25","","Clear"
"-61.68","56.55","NAIN A","8502801","2023-01-15 15:00","2023","01","15","15:00","-17.7","","-26.4","","47","","","","28","","27","","24.1","","103.06","","","","-29","","NA"
"-61.68","56.55","NAIN A","8502801","2023-01-15 16:00","2023","01","15","16:00","-18.0","","-26.7","","47","","","","28","","18","","24.1","","103.19","","","","-27","","NA"
"-61.68","56.55","NAIN A","8502801","2023-01-15 17:00","2023","01","15","17:00","-19.1","","-26.7","","52","","","","26","","9","","24.1","","103.31","","","","-26","","Clear"
"-61.68","56.55","NAIN A","8502801","2023-01-15 18:00","2023","01","15","18:00","-18.4","","-27.3","","47","","","","31","","11","","24.1","","103.33","","","","-26","","NA"
"-61.68","56.55","NAIN A","8502801","2023-01-15 19:00","2023","01","15","19:00","-19.3","","-27.5","","49","","","","28","","3","","24.1","","103.43","","","","-22","","NA"
"-61.68","56.55","NAIN A","8502801","2023-01-15 20:00","2023","01","15","20:00","-19.8","","-27.3","","52","","","","4","","4","","24.1","","103.47","","","","-23","","Mainly Clear"
"-61.68","56.55","NAIN A","8502801","2023-01-15 21:00","2023","01","15","21:00"
"-61.68","56.55","NAIN A","8502801","2023-01-15 22:00","2023","01","15","22:00"
"-61.68","56.55","NAIN A","8502801","2023-01-15 23:00","2023","01","15","23:00"
"-61.68","56.55","NAIN A","8502801","2023-01-16 00:00","2023","01","16","00:00"
"-61.68","56.55","NAIN A","8502801","2023-01-16 01:00","2023","01","16","01:00"
"-61.68","56.55","NAIN A","8502801","2023-01-16 02:00","2023","01","16","02:00"
"-61.68","56.55","NAIN A","8502801","2023-01-16 03:00","2023","01","16","03:00"
"-61.68","56.55","NAIN A","8502801","2023-01-16 04:00","2023","01","16","04:00"
"-61.68","56.55","NAIN A","8502801","2023-01-16 05:00","2023","01","16","05:00","-19.8","","-24.9","","64","","","","23","","18","","24.1","","103.35","","","","-30","","Mainly Clear"
"-61.68","56.55","NAIN A","8502801","2023-01-16 06:00","2023","01","16","06:00","-20.1","","-24.5","","69","","","","23","","17","","24.1","","103.29","","","","-30","","NA"
"-61.68","56.55","NAIN A","8502801","2023-01-16 07:00","2023","01","16","07:00","-18.3","","-23.1","","67","","","","20","","21","","24.1","","103.21","","","","-29","","NA"
"-61.68","56.55","NAIN A","8502801","2023-01-16 08:00","2023","01","16","08:00","-16.4","","-21.2","","67","","","","27","","13","","24.1","","103.12","","","","-24","","Cloudy"
"-61.68","56.55","NAIN A","8502801","2023-01-16 09:00","2023","01","16","09:00","-16.4","","-21.5","","66","","","","23","","20","","24.1","","103.11","","","","-26","","NA"
"-61.68","56.55","NAIN A","8502801","2023-01-16 10:00","2023","01","16","10:00","-15.8","","-20.3","","69","","","","19","","15","","24.1","","103.08","","","","-24","","NA"
"-61.68","56.55","NAIN A","8502801","2023-01-16 11:00","2023","01","16","11:00","-13.9","","-19.4","","64","","","","17","","5","","24.1","","103.01","","","","-17","","Cloudy"
"-61.68","56.55","NAIN A","8502801","2023-01-16 12:00","2023","01","16","12:00","-12.9","","-18.9","","61","","","","27","","4","","24.1","","102.88","","","","-16","","NA"
"-61.68","56.55","NAIN A","8502801","2023-01-16 13:00","2023","01","16","13:00","-12.6","","-18.2","","63","","","","16","","21","","24.1","","102.74","","","","-21","","NA"
"-61.68","56.55","NAIN A","8502801","2023-01-16 14:00","2023","01","16","14:00","-11.8","","-17.3","","64","","","","19","","19","","24.1","","102.66","","","","-20","","Mostly Cloudy"
"-61.68","56.55","NAIN A","8502801","2023-01-16 15:00","2023","01","16","15:00","-11.1","","-16.6","","64","","","","24","","4","","24.1","","102.53","","","","-14","","NA"
"-61.68","56.55","NAIN A","8502801","2023-01-16 16:00","2023","01","16","16:00","-10.8","","-16.6","","63","","","","0","","1","","24.1","","102.51","","","","-11","","NA"
"-61.68","56.55","NAIN A","8502801","2023-01-16 17:00","2023","01","16","17:00","-10.0","","-16.0","","62","","","","24","","8","","24.1","","102.43","","","","-14","","Cloudy"
"-61.68","56.55","NAIN A","8502801","2023-01-16 18:00","2023","01","16","18:00","-9.7","","-15.4","","63","","","","21","","14","","24.1","","102.39","","","","-16","","NA"
"-61.68","56.55","NAIN A","8502801","2023-01-16 19:00","2023","01","16","19:00","-9.5","","-15.0","","65","","","","21","","9","","24.1","","102.33","","","","-14","","NA"
"-61.68","56.55","NAIN A","8502801","2023-01-16 20:00","2023","01","16","20:00","-9.4","","-14.6","","66","","","","20","","7","","24.1","","102.23","","","","-13","","Cloudy"
"-61.68","56.55","NAIN A","8502801","2023-01-16 21:00","2023","01","16","21:00"
"-61.68","56.55","NAIN A","8502801","2023-01-16 22:00","2023","01","16","22:00"
"-61.68","56.55","NAIN A","8502801","2023-01-16 23:00","2023","01","16","23:00"
"-61.68","56.55","NAIN A","8502801","2023-01-17 00:00","2023","01","17","00:00"
"-61.68","56.55","NAIN A","8502801","2023-01-17 01:00","2023","01","17","01:00"
"-61.68","56.55","NAIN A","8502801","2023-01-17 02:00","2023","01","17","02:00"
"-61.68","56.55","NAIN A","8502801","2023-01-17 03:00","2023","01","17","03:00"
"-61.68","56.55","NAIN A","8502801","2023-01-17 04:00","2023","01","17","04:00"
"-61.68","56.55","NAIN A","8502801","2023-01-17 05:00","2023","01","17","05:00","-10.2","","-16.0","","63","","","","20","","9","","24.1","","101.46","","","","-15","","Clear"
"-61.68","56.55","NAIN A","8502801","2023-01-17 06:00","2023","01","17","06:00","-10.6","","-15.1","","70","","","","0","","1","","24.1","","101.38","","","","-11","","NA"
"-61.68","56.55","NAIN A","8502801","2023-01-17 07:00","2023","01","17","07:00","-11.7","","-15.8","","72","","","","33","","4","","24.1","","101.38","","","","-14","","NA"
"-61.68","56.55","NAIN A","8502801","2023-01-17 08:00","2023","01","17","08:00","-10.7","","-16.2","","64","","","","18","","4","","24.1","","101.35","","","","-13","","Mostly Cloudy"
"-61.68","56.55","NAIN A","8502801","2023-01-17 09:00","2023","01","17","09:00","-11.6","","-15.2","","75","","","","2","","3","","24.1","","101.34","","","","-13","","NA"
"-61.68","56.55","NAIN A","8502801","2023-01-17 10:00","2023","01","17","10:00","-10.5","","-15.1","","69","","","","36","","1","","24.1","","101.27","","","","-11","","NA"
"-61.68","56.55","NAIN A","8502801","2023-01-17 11:00","2023","01","17","11:00","-10.9","","-14.3","","77","","","","3","","3","","24.1","","101.23","","","","-13","","Cloudy"
"-61.68","56.55","NAIN A","8502801","2023-01-17 12:00","2023","01","17","12:00","-9.1","","-12.6","","76","","","","33","","7","","24.1","","101.11","","","","-13","","NA"
"-61.68","56.55","NAIN A","8502801","2023-01-17 13:00","2023","01","17","13:00","-7.1","","-11.1","","74","","","","31","","20","","24.1","","101.02","","","","-14","","NA"
"-61.68","56.55","NAIN A","8502801","2023-01-17 14:00","2023","01","17","14:00","-7.0","","-10.3","","77","","","","31","","20","","24.1","","100.94","","","","-14","","Cloudy"
"-61.68","56.55","NAIN A","8502801","2023-01-17 15:00","2023","01","17","15:00","-6.0","","-8.6","","82","","","","32","","19","","24.1","","100.93","","","","-13","","NA"
"-61.68","56.55","NAIN A","8502801","2023-01-17 16:00","2023","01","17","16:00","-6.2","","-8.8","","82","","","","31","","15","","24.1","","100.95","","","","-12","","NA"
"-61.68","56.55","NAIN A","8502801","2023-01-17 17:00","2023","01","17","17:00","-6.1","","-8.4","","83","","","","32","","13","","24.1","","100.93","","","","-11","","Cloudy"
"-61.68","56.55","NAIN A","8502801","2023-01-17 18:00","2023","01","17","18:00","-6.9","","-8.9","","86","","","","34","","10","","24.1","","100.88","","","","-12","","NA"
"-61.68","56.55","NAIN A","8502801","2023-01-17 19:00","2023","01","17","19:00","-6.7","","-8.3","","88","","","","32","","14","","24.1","","100.85","","","","-12","","NA"
"-61.68","56.55","NAIN A","8502801","2023-01-17 20:00","2023","01","17","20:00","-6.7","","-8.8","","85","","","","31","","16","","24.1","","100.81","","","","-13","","Cloudy"
"-61.68","56.55","NAIN A","8502801","2023-01-17 21:00","2023","01","17","21:00"
"-61.68","56.55","NAIN A","8502801","2023-01-17 22:00","2023","01","17","22:00"
"-61.68","56.55","NAIN A","8502801","2023-01-17 23:00","2023","01","17","23:00"
"-61.68","56.55","NAIN A","8502801","2023-01-18 00:00","2023","01","18","00:00"
"-61.68","56.55","NAIN A","8502801","2023-01-18 01:00","2023","01","18","01:00"
"-61.68","56.55","NAIN A","8502801","2023-01-18 02:00","2023","01","18","02:00"
"-61.68","56.55","NAIN A","8502801","2023-01-18 03:00","2023","01","18","03:00"
"-61.68","56.55","NAIN A","8502801","2023-01-18 04:00","2023","01","18","04:00"
"-61.68","56.55","NAIN A","8502801","2023-01-18 05:00","2023","01","18","05:00","-6.7","","-8.9","","84","","","","31","","21","","24.1","","100.30","","","","-14","","Snow"
"-61.68","56.55","NAIN A","8502801","2023-01-18 06:00","2023","01","18","06:00","-6.5","","-8.6","","85","","","","31","","14","","14.5","","100.26","","","","-12","","Snow"
"-61.68","56.55","NAIN A","8502801","2023-01-18 07:00","2023","01","18","07:00","-5.9","","-8.2","","84","","","","31","","18","","22.5","","100.23","","","","-12","","Snow"
"-61.68","56.55","NAIN A","8502801","2023-01-18 08:00","2023","01","18","08:00","-5.7","","-8.2","","82","","","","31","","21","","24.1","","100.19","","","","-13","","Snow"
"-61.68","56.55","NAIN A","8502801","2023-01-18 09:00","2023","01","18","09:00","-5.4","","-7.9","","83","","","","31","","18","","4.8","","100.16","","","","-12","","Snow"
"-61.68","56.55","NAIN A","8502801","2023-01-18 10:00","2023","01","18","10:00","-5.3","","-6.8","","90","","","","31","","23","","1.6","","100.14","","","","-12","","Snow"
"-61.68","56.55","NAIN A","8502801","2023-01-18 11:00","2023","01","18","11:00","-5.0","","-6.3","","91","","","","31","","23","","2.4","","100.08","","","","-12","","Snow"
"-61.68","56.55","NAIN A","8502801","2023-01-18 12:00","2023","01","18","12:00","-4.5","","-5.9","","90","","","","31","","26","","3.2","","100.02","","","","-12","","Snow"
"-61.68","56.55","NAIN A","8502801","2023-01-18 13:00","2023","01","18","13:00","-4.2","","-5.6","","90","","","","30","","27","","2.4","","99.97","","","","-12","","Snow"
"-61.68","56.55","NAIN A","8502801","2023-01-18 14:00","2023","01","18","14:00","-4.3","","-5.3","","92","","","","30","","28","","1.6","","99.96","","","","-12","","Snow"
"-61.68","56.55","NAIN A","8502801","2023-01-18 15:00","2023","01","18","15:00","-3.7","","-4.8","","93","","","","32","","22","","1.6","","99.98","","","","-10","","Snow"
"-61.68","56.55","NAIN A","8502801","2023-01-18 16:00","2023","01","18","16:00","-3.5","","-5.1","","89","","","","32","","28","","2.4","","100.03","","","","-11","","Snow"
"-61.68","56.55","NAIN A","8502801","2023-01-18 17:00","2023","01","18","17:00","-3.6","","-5.0","","90","","","","31","","32","","2.0","","100.09","","","","-11","","Snow"
"-61.68","56.55","NAIN A","8502801","2023-01-18 18:00","2023","01","18","18:00","-3.6","","-4.9","","90","","","","32","","32","","1.6","","100.15","","","","-11","","Snow"
"-61.68","56.55","NAIN A","8502801","2023-01-18 19:00","2023","01","18","19:00","-3.8","","-5.6","","87","","","","33","","28","","8.1","","100.21","","","","-11","","Snow"
"-61.68","56.55","NAIN A","8502801","2023-01-18 20:00","2023","01","18","20:00","-4.0","","-6.0","","86","","","","33","","38","","6.4","","100.26","","","","-13","","Snow,Blowing Snow"
"-61.68","56.55","NAIN A","8502801","2023-01-18 21:00","2023","01","18","21:00"
"-61.68","56.55","NAIN A","8502801","2023-01-18 22:00","2023","01","18","22:00"
"-61.68","56.55","NAIN A","8502801","2023-01-18 23:00","2023","01","18","23:00"
"-61.68","56.55","NAIN A","8502801","2023-01-19 00:00","2023","01","19","00:00"
"-61.68","56.55","NAIN A","8502801","2023-01-19 01:00","2023","01","19","01:00"
"-61.68","56.55","NAIN A","8502801","2023-01-19 02:00","2023","01","19","02:00"
"-61.68","56.55","NAIN A","8502801","2023-01-19 03:00","2023","01","19","03:00"
"-61.68","56.55","NAIN A","8502801","2023-01-19 04:00","2023","01","19","04:00"
"-61.68","56.55","NAIN A","8502801","2023-01-19 05:00","2023","01","19","05:00","-8.8","","-12.1","","78","","","","32","","44","","12.9","","101.31","","","","-20","","Snow,Blowing Snow"
"-61.68","56.55","NAIN A","8502801","2023-01-19 06:00","2023","01","19","06:00","-9.5","","-13.0","","76","","","","31","","43","","19.3","","101.42","","","","-20","","Snow Showers,Blowing Snow"
"-61.68","56.55","NAIN A","8502801","2023-01-19 07:00","2023","01","19","07:00","-10.1","","-13.7","","75","","","","32","","41","","24.1","","101.50","","","","-21","","Snow Showers,Blowing Snow"
"-61.68","56.55","NAIN A","8502801","2023-01-19 08:00","2023","01","19","08:00","-10.9","","-14.7","","74","","","","32","","46","","24.1","","101.57","","","","-23","","Snow Showers,Blowing Snow"
"-61.68","56.55","NAIN A","8502801","2023-01-19 09:00","2023","01","19","09:00","-11.3","","-15.2","","73","","","","32","","49","","24.1","","101.62","","","","-23","","Snow Showers,Blowing Snow"
"-61.68","56.55","NAIN A","8502801","2023-01-19 10:00","2023","01","19","10:00","-11.8","","-16.5","","69","","","","32","","47","","24.1","","101.76","","","","-24","","Blowing Snow"
"-61.68","56.55","NAIN A","8502801","2023-01-19 11:00","2023","01","19","11:00","-12.1","","-17.5","","64","","","","33","","37","","24.1","","101.81","","","","-23","","Blowing Snow"
"-61.68","56.55","NAIN A","8502801","2023-01-19 12:00","2023","01","19","12:00","-11.8","","-16.9","","66","","","","32","","37","","24.1","","101.80","","","","-23","","Blowing Snow"
"-61.68","56.55","NAIN A","8502801","2023-01-19 13:00","2023","01","19","13:00","-11.8","","-17.8","","61","","","","31","","20","","24.1","","101.81","","","","-20","","NA"
"-61.68","56.55","NAIN A","8502801","2023-01-19 14:00","2023","01","19","14:00","-12.3","","-17.6","","65","","","","33","","37","","24.1","","101.80","","","","-23","","Clear"
"-61.68","56.55","NAIN A","8502801","2023-01-19 15:00","2023","01","19","15:00","-12.6","","-19.0","","60","","","","34","","24","","24.1","","101.87","","","","-22","","NA"
"-61.68","56.55","NAIN A","8502801","2023-01-19 16:00","2023","01","19","16:00","-12.6","","-19.3","","58","","","","32","","18","","24.1","","101.97","","","","-21","","NA"
"-61.68","56.55","NAIN A","8502801","2023-01-19 17:00","2023","01","19","17:00","-12.9","","-19.5","","59","","","","32","","26","","24.1","","102.00","","","","-23","","Clear"
"-61.68","56.55","NAIN A","8502801","2023-01-19 18:00","2023","01","19","18:00","-12.9","","-20.7","","53","","","","31","","26","","24.1","","102.01","","","","-23","","NA"
"-61.68","56.55","NAIN A","8502801","2023-01-19 19:00","2023","01","19","19:00","-13.8","","-20.7","","56","","","","29","","19","","24.1","","102.02","","","","-22","","NA"
"-61.68","56.55","NAIN A","8502801","2023-01-19 20:00","2023","01","19","20:00","-15.6","","-21.1","","63","","","","30","","17","","24.1","","102.01","","","","-24","","Clear"
"-61.68","56.55","NAIN A","8502801","2023-01-19 21:00","2023","01","19","21:00"
"-61.68","56.55","NAIN A","8502801","2023-01-19 22:00","2023","01","19","22:00"
"-61.68","56.55","NAIN A","8502801","2023-01-19 23:00","2023","01","19","23:00"
"-61.68","56.55","NAIN A","8502801","2023-01-20 00:00","2023","01","20","00:00"
"-61.68","56.55","NAIN A","8502801","2023-01-20 01:00","2023","01","20","01:00"
"-61.68","56.55","NAIN A","8502801","2023-01-20 02:00","2023","01","20","02:00"
"-61.68","56.55","NAIN A","8502801","2023-01-20 03:00","2023","01","20","03:00"
"-61.68","56.55","NAIN A","8502801","2023-01-20 04:00","2023","01","20","04:00"
"-61.68","56.55","NAIN A","8502801","2023-01-20 05:00","2023","01","20","05:00"
"-61.68","56.55","NAIN A","8502801","2023-01-20 06:00","2023","01","20","06:00"
"-61.68","56.55","NAIN A","8502801","2023-01-20 07:00","2023","01","20","07:00"
"-61.68","56.55","NAIN A","8502801","2023-01-20 08:00","2023","01","20","08:00","-18.8","","-23.7","","66","","","","14","","5","","24.1","","101.55","","","","-23","","Mainly Clear"
"-61.68","56.55","NAIN A","8502801","2023-01-20 09:00","2023","01","20","09:00","-19.9","","-25.2","","63","","","","16","","10","","24.1","","101.53","","","","-27","","NA"
"-61.68","56.55","NAIN A","8502801","2023-01-20 10:00","2023","01","20","10:00","-17.1","","-23.0","","61","","","","36","","1","","24.1","","101.50","","","","-18","","NA"
"-61.68","56.55","NAIN A","8502801","2023-01-20 11:00","2023","01","20","11:00","-18.1","","-23.0","","66","","","","30","","8","","24.1","","101.42","","","","-24","","Mainly Clear"
"-61.68","56.55","NAIN A","8502801","2023-01-20 12:00","2023","01","20","12:00","-15.9","","-22.0","","60","","","","36","","1","","24.1","","101.38","","","","-17","","NA"
"-61.68","56.55","NAIN A","8502801","2023-01-20 13:00","2023","01","20","13:00","-13.7","","-21.3","","53","","","","23","","7","","24.1","","101.34","","","","-18","","NA"
"-61.68","56.55","NAIN A","8502801","2023-01-20 14:00","2023","01","20","14:00","-13.3","","-21.1","","53","","","","14","","4","","24.1","","101.30","","","","-16","","Mainly Clear"
"-61.68","56.55","NAIN A","8502801","2023-01-20 15:00","2023","01","20","15:00","-13.8","","-21.5","","53","","","","21","","16","","24.1","","101.26","","","","-22","","NA"
"-61.68","56.55","NAIN A","8502801","2023-01-20 16:00","2023","01","20","16:00","-12.9","","-21.6","","49","","","","34","","8","","24.1","","101.24","","","","-18","","NA"
"-61.68","56.55","NAIN A","8502801","2023-01-20 17:00","2023","01","20","17:00","-14.9","","-21.6","","57","","","","33","","5","","24.1","","101.25","","","","-18","","Mainly Clear"
"-61.68","56.55","NAIN A","8502801","2023-01-20 18:00","2023","01","20","18:00","-13.4","","-20.9","","54","","","","36","","1","","24.1","","101.18","","","","-14","","NA"
"-61.68","56.55","NAIN A","8502801","2023-01-20 19:00","2023","01","20","19:00","-13.4","","-20.7","","55","","","","31","","17","","24.1","","101.16","","","","-21","","NA"
"-61.68","56.55","NAIN A","8502801","2023-01-20 20:00","2023","01","20","20:00","-13.0","","-20.7","","53","","","","24","","20","","24.1","","101.14","","","","-22","","Clear"
"-61.68","56.55","NAIN A","8502801","2023-01-20 21:00","2023","01","20","21:00"
"-61.68","56.55","NAIN A","8502801","2023-01-20 22:00","2023","01","20","22:00"
"-61.68","56.55","NAIN A","8502801","2023-01-20 23:00","2023","01","20","23:00"
"-61.68","56.55","NAIN A","8502801","2023-01-21 00:00","2023","01","21","00:00"
"-61.68","56.55","NAIN A","8502801","2023-01-21 01:00","2023","01","21","01:00"
"-61.68","56.55","NAIN A","8502801","2023-01-21 02:00","2023","01","21","02:00"
"-61.68","56.55","NAIN A","8502801","2023-01-21 03:00","2023","01","21","03:00"
"-61.68","56.55","NAIN A","8502801","2023-01-21 04:00","2023","01","21","04:00"
"-61.68","56.55","NAIN A","8502801","2023-01-21 05:00","2023","01","21","05:00","-10.2","","-14.7","","70","","","","22","","10","","24.1","","101.16","","","","-15","","Cloudy"
"-61.68","56.55","NAIN A","8502801","2023-01-21 06:00","2023","01","21","06:00","-10.0","","-14.6","","69","","","","20","","11","","24.1","","101.17","","","","-16","","NA"
"-61.68","56.55","NAIN A","8502801","2023-01-21 07:00","2023","01","21","07:00","-7.9","","-12.8","","68","","","","29","","18","","24.1","","101.17","","","","-15","","NA"
"-61.68","56.55","NAIN A","8502801","2023-01-21 08:00","2023","01","21","08:00","-8.2","","-13.7","","65","","","","21","","3","","24.1","","101.17","","","","-10","","Mainly Clear"
"-61.68","56.55","NAIN A","8502801","2023-01-21 09:00","2023","01","21","09:00","-8.1","","-14.4","","61","","","","24","","24","","24.1","","101.20","","","","-16","","NA"
"-61.68","56.55","NAIN A","8502801","2023-01-21 10:00","2023","01","21","10:00","-9.1","","-15.2","","61","","","","31","","6","","24.1","","101.20","","","","-12","","NA"
"-61.68","56.55","NAIN A","8502801","2023-01-21 11:00","2023","01","21","11:00","-7.4","","-14.7","","56","","","","26","","17","","24.1","","101.15","","","","-14","","Mostly Cloudy"
"-61.68","56.55","NAIN A","8502801","2023-01-21 12:00","2023","01","21","12:00","-7.2","","-13.7","","60","","","","24","","14","","24.1","","101.08","","","","-13","","NA"
"-61.68","56.55","NAIN A","8502801","2023-01-21 13:00","2023","01","21","13:00","-6.5","","-13.6","","58","","","","24","","17","","24.1","","101.02","","","","-13","","NA"
"-61.68","56.55","NAIN A","8502801","2023-01-21 14:00","2023","01","21","14:00","-6.9","","-13.2","","61","","","","18","","18","","24.1","","101.00","","","","-14","","Mainly Clear"
"-61.68","56.55","NAIN A","8502801","2023-01-21 15:00","2023","01","21","15:00","-6.6","","-12.6","","63","","","","23","","6","","24.1","","101.02","","","","-10","","NA"
"-61.68","56.55","NAIN A","8502801","2023-01-21 16:00","2023","01","21","16:00","-8.2","","-13.7","","65","","","","24","","19","","24.1","","101.04","","","","-15","","NA"
"-61.68","56.55","NAIN A","8502801","2023-01-21 17:00","2023","01","21","17:00","-9.2","","-14.7","","64","","","","19","","9","","24.1","","101.05","","","","-14","","Clear"
"-61.68","56.55","NAIN A","8502801","2023-01-21 18:00","2023","01","21","18:00","-8.9","","-14.0","","67","","","","23","","10","","24.1","","101.03","","","","-14","","NA"
"-61.68","56.55","NAIN A","8502801","2023-01-21 19:00","2023","01","21","19:00","-8.5","","-15.8","","56","","","","24","","28","","24.1","","100.95","","","","-17","","NA"
"-61.68","56.55","NAIN A","8502801","2023-01-21 20:00","2023","01","21","20:00","-10.2","","-16.8","","59","","","","11","","9","","24.1","","100.89","","","","-15","","Clear"
"-61.68","56.55","NAIN A","8502801","2023-01-21 21:00","2023","01","21","21:00"
"-61.68","56.55","NAIN A","8502801","2023-01-21 22:00","2023","01","21","22:00"
"-61.68","56.55","NAIN A","8502801","2023-01-21 23:00","2023","01","21","23:00"
"-61.68","56.55","NAIN A","8502801","2023-01-22 00:00","2023","01","22","00:00"
"-61.68","56.55","NAIN A","8502801","2023-01-22 01:00","2023","01","22","01:00"
"-61.68","56.55","NAIN A","8502801","2023-01-22 02:00","2023","01","22","02:00"
"-61.68","56.55","NAIN A","8502801","2023-01-22 03:00","2023","01","22","03:00"
"-61.68","56.55","NAIN A","8502801","2023-01-22 04:00","2023","01","22","04:00"
"-61.68","56.55","NAIN A","8502801","2023-01-22 05:00","2023","01","22","05:00","-13.7","","-20.9","","55","","","","20","","23","","24.1","","100.44","","","","-23","","Clear"
"-61.68","56.55","NAIN A","8502801","2023-01-22 06:00","2023","01","22","06:00","-14.1","","-20.6","","58","","","","22","","24","","24.1","","100.44","","","","-24","","NA"
"-61.68","56.55","NAIN A","8502801","2023-01-22 07:00","2023","01","22","07:00","-13.8","","-20.1","","60","","","","22","","14","","24.1","","100.43","","","","-21","","NA"
"-61.68","56.55","NAIN A","8502801","2023-01-22 08:00","2023","01","22","08:00","-14.3","","-20.0","","63","","","","22","","23","","24.1","","100.45","","","","-24","","Clear"
"-61.68","56.55","NAIN A","8502801","2023-01-22 09:00","2023","01","22","09:00","-14.2","","-19.7","","64","","","","24","","14","","24.1","","100.47","","","","-22","","NA"
"-61.68","56.55","NAIN A","8502801","2023-01-22 10:00","2023","01","22","10:00","-13.1","","-18.3","","65","","","","25","","20","","24.1","","100.46","","","","-22","","NA"
"-61.68","56.55","NAIN A","8502801","2023-01-22 11:00","2023","01","22","11:00","-13.2","","-18.8","","63","","","","22","","20","","24.1","","100.45","","","","-22","","Mainly Clear"
"-61.68","56.55","NAIN A","8502801","2023-01-22 12:00","2023","01","22","12:00","-12.2","","-17.2","","66","","","","25","","8","","24.1","","100.41","","","","-17","","Snow Showers"
"-61.68","56.55","NAIN A","8502801","2023-01-22 13:00","2023","01","22","13:00","-10.8","","-15.9","","66","","","","26","","18","","24.1","","100.39","","","","-18","","NA"
"-61.68","56.55","NAIN A","8502801","2023-01-22 14:00","2023","01","22","14:00","-10.2","","-15.5","","65","","","","26","","20","","24.1","","100.38","","","","-18","","Mostly Cloudy"
"-61.68","56.55","NAIN A","8502801","2023-01-22 15:00","2023","01","22","15:00","-10.4","","-15.4","","67","","","","25","","24","","24.1","","100.43","","","","-19","","NA"
"-61.68","56.55","NAIN A","8502801","2023-01-22 16:00","2023","01","22","16:00","-10.2","","-15.6","","65","","","","25","","23","","24.1","","100.44","","","","-19","","NA"
"-61.68","56.55","NAIN A","8502801","2023-01-22 17:00","2023","01","22","17:00","-9.9","","-15.7","","63","","","","26","","28","","24.1","","100.44","","","","-19","","Mostly Cloudy"
"-61.68","56.55","NAIN A","8502801","2023-01-22 18:00","2023","01","22","18:00","-10.1","","-15.5","","65","","","","27","","27","","24.1","","100.47","","","","-19","","NA"
"-61.68","56.55","NAIN A","8502801","2023-01-22 19:00","2023","01","22","19:00","-9.9","","-14.9","","67","","","","28","","25","","24.1","","100.47","","","","-19","","NA"
"-61.68","56.55","NAIN A","8502801","2023-01-22 20:00","2023","01","22","20:00","-9.2","","-14.4","","66","","","","28","","30","","24.1","","100.47","","","","-18","","Mostly Cloudy"
"-61.68","56.55","NAIN A","8502801","2023-01-22 21:00","2023","01","22","21:00"
"-61.68","56.55","NAIN A","8502801","2023-01-22 22:00","2023","01","22","22:00"
"-61.68","56.55","NAIN A","8502801","2023-01-22 23:00","2023","01","22","23:00"
"-61.68","56.55","NAIN A","8502801","2023-01-23 00:00","2023","01","23","00:00"
"-61.68","56.55","NAIN A","8502801","2023-01-23 01:00","2023","01","23","01:00"
"-61.68","56.55","NAIN A","8502801","2023-01-23 02:00","2023","01","23","02:00"
"-61.68","56.55","NAIN A","8502801","2023-01-23 03:00","2023","01","23","03:00"
"-61.68","56.55","NAIN A","8502801","2023-01-23 04:00","2023","01","23","04:00"
"-61.68","56.55","NAIN A","8502801","2023-01-23 05:00","2023","01","23","05:00","-11.5","","-15.8","","71","","","","21","","6","","24.1","","100.40","","","","-15","","Clear"
"-61.68","56.55","NAIN A","8502801","2023-01-23 06:00","2023","01","23","06:00","-11.2","","-16.5","","66","","","","29","","6","","24.1","","100.39","","","","-15","","NA"
"-61.68","56.55","NAIN A","8502801","2023-01-23 07:00","2023","01","23","07:00","-12.8","","-17.4","","68","","","","2","","4","","24.1","","100.43","","","","-15","","NA"
"-61.68","56.55","NAIN A","8502801","2023-01-23 08:00","2023","01","23","08:00","-11.8","","-16.7","","67","","","","27","","7","","24.1","","100.45","","","","-16","","Mostly Cloudy"
"-61.68","56.55","NAIN A","8502801","2023-01-23 09:00","2023","01","23","09:00","-12.3","","-16.6","","71","","","","17","","16","","24.1","","100.46","","","","-20","","NA"
"-61.68","56.55","NAIN A","8502801","2023-01-23 10:00","2023","01","23","10:00","-11.3","","-15.8","","70","","","","12","","9","","24.1","","100.46","","","","-16","","NA"
"-61.68","56.55","NAIN A","8502801","2023-01-23 11:00","2023","01","23","11:00","-11.1","","-16.1","","67","","","","9","","7","","24.1","","100.46","","","","-15","","Mainly Clear"
"-61.68","56.55","NAIN A","8502801","2023-01-23 12:00","2023","01","23","12:00","-11.1","","-16.3","","66","","","","24","","17","","24.1","","100.42","","","","-19","","NA"
"-61.68","56.55","NAIN A","8502801","2023-01-23 13:00","2023","01","23","13:00","-10.7","","-15.9","","66","","","","29","","9","","24.1","","100.35","","","","-16","","NA"
"-61.68","56.55","NAIN A","8502801","2023-01-23 14:00","2023","01","23","14:00","-10.3","","-16.0","","63","","","","25","","20","","24.1","","100.35","","","","-18","","Clear"
"-61.68","56.55","NAIN A","8502801","2023-01-23 15:00","2023","01","23","15:00","-10.5","","-15.9","","65","","","","25","","18","","24.1","","100.41","","","","-18","","NA"
"-61.68","56.55","NAIN A","8502801","2023-01-23 16:00","2023","01","23","16:00","-11.2","","-16.6","","65","","","","24","","29","","24.1","","100.40","","","","-21","","NA"
"-61.68","56.55","NAIN A","8502801","2023-01-23 17:00","2023","01","23","17:00","-12.6","","-17.4","","68","","","","20","","13","","24.1","","100.45","","","","-19","","Clear"
"-61.68","56.55","NAIN A","8502801","2023-01-23 18:00","2023","01","23","18:00","-13.1","","-17.9","","68","","","","24","","21","","24.1","","100.52","","","","-22","","NA"
"-61.68","56.55","NAIN A","8502801","2023-01-23 19:00","2023","01","23","19:00","-14.0","","-18.6","","69","","","","20","","10","","24.1","","100.51","","","","-20","","NA"
"-61.68","56.55","NAIN A","8502801","2023-01-23 20:00","2023","01","23","20:00","-15.1","","-18.8","","74","","","","19","","12","","24.1","","100.48","","","","-22","","Clear"
"-61.68","56.55","NAIN A","8502801","2023-01-23 21:00","2023","01","23","21:00"
"-61.68","56.55","NAIN A","8502801","2023-01-23 22:00","2023","01","23","22:00"
"-61.68","56.55","NAIN A","8502801","2023-01-23 23:00","2023","01","23","23:00"
"-61.68","56.55","NAIN A","8502801","2023-01-24 00:00","2023","01","24","00:00"
"-61.68","56.55","NAIN A","8502801","2023-01-24 01:00","2023","01","24","01:00"
"-61.68","56.55","NAIN A","8502801","2023-01-24 02:00","2023","01","24","02:00"
"-61.68","56.55","NAIN A","8502801","2023-01-24 03:00","2023","01","24","03:00"
"-61.68","56.55","NAIN A","8502801","2023-01-24 04:00","2023","01","24","04:00"
"-61.68","56.55","NAIN A","8502801","2023-01-24 05:00","2023","01","24","05:00","-13.4","","-17.3","","73","","","","23","","7","","24.1","","100.16","","","","-18","","Mostly Cloudy"
"-61.68","56.55","NAIN A","8502801","2023-01-24 06:00","2023","01","24","06:00","-15.1","","-18.1","","78","","","","36","","2","","24.1","","100.14","","","","-17","","NA"
"-61.68","56.55","NAIN A","8502801","2023-01-24 07:00","2023","01","24","07:00","-13.2","","-16.7","","75","","","","20","","12","","24.1","","100.12","","","","-20","","NA"
"-61.68","56.55","NAIN A","8502801","2023-01-24 08:00","2023","01","24","08:00","-15.1","","-17.8","","80","","","","36","","1","","22.5","","100.08","","","","-16","","Mainly Clear"
"-61.68","56.55","NAIN A","8502801","2023-01-24 09:00","2023","01","24","09:00","-15.4","","-17.7","","83","","","","36","","1","","24.1","","100.06","","","","-16","","NA"
"-61.68","56.55","NAIN A","8502801","2023-01-24 10:00","2023","01","24","10:00","-14.9","","-17.3","","83","","","","36","","3","","24.1","","99.97","","","","-17","","NA"
"-61.68","56.55","NAIN A","8502801","2023-01-24 11:00","2023","01","24","11:00","-14.7","","-17.1","","82","","","","36","","2","","24.1","","99.91","","","","-16","","Cloudy"
"-61.68","56.55","NAIN A","8502801","2023-01-24 12:00","2023","01","24","12:00","-13.7","","-16.6","","79","","","","13","","3","","24.1","","99.84","","","","-16","","NA"
"-61.68","56.55","NAIN A","8502801","2023-01-24 13:00","2023","01","24","13:00","-13.3","","-16.1","","80","","","","28","","4","","24.1","","99.77","","","","-16","","NA"
"-61.68","56.55","NAIN A","8502801","2023-01-24 14:00","2023","01","24","14:00","-12.2","","-14.6","","82","","","","36","","4","","24.1","","99.66","","","","-15","","Cloudy"
"-61.68","56.55","NAIN A","8502801","2023-01-24 15:00","2023","01","24","15:00","-11.0","","-15.0","","72","","","","30","","13","","24.1","","99.64","","","","-17","","NA"
"-61.68","56.55","NAIN A","8502801","2023-01-24 16:00","2023","01","24","16:00","-10.9","","-14.2","","77","","","","29","","9","","24.1","","99.65","","","","-16","","NA"
"-61.68","56.55","NAIN A","8502801","2023-01-24 17:00","2023","01","24","17:00","-10.8","","-13.7","","79","","","","29","","14","","24.1","","99.63","","","","-17","","Snow Showers"
"-61.68","56.55","NAIN A","8502801","2023-01-24 18:00","2023","01","24","18:00","-10.9","","-13.4","","82","","","","28","","18","","19.3","","99.53","","","","-19","","Snow Showers"
"-61.68","56.55","NAIN A","8502801","2023-01-24 19:00","2023","01","24","19:00","-10.4","","-12.7","","84","","","","30","","29","","17.7","","99.47","","","","-20","","Snow Showers"
"-61.68","56.55","NAIN A","8502801","2023-01-24 20:00","2023","01","24","20:00","-10.4","","-12.7","","83","","","","30","","32","","24.1","","99.43","","","","-20","","Snow Showers,Blowing Snow"
"-61.68","56.55","NAIN A","8502801","2023-01-24 21:00","2023","01","24","21:00"
"-61.68","56.55","NAIN A","8502801","2023-01-24 22:00","2023","01","24","22:00"
"-61.68","56.55","NAIN A","8502801","2023-01-24 23:00","2023","01","24","23:00"
"-61.68","56.55","NAIN A","8502801","2023-01-25 00:00","2023","01","25","00:00"
"-61.68","56.55","NAIN A","8502801","2023-01-25 01:00","2023","01","25","01:00"
"-61.68","56.55","NAIN A","8502801","2023-01-25 02:00","2023","01","25","02:00"
"-61.68","56.55","NAIN A","8502801","2023-01-25 03:00","2023","01","25","03:00"
"-61.68","56.55","NAIN A","8502801","2023-01-25 04:00","2023","01","25","04:00"
"-61.68","56.55","NAIN A","8502801","2023-01-25 05:00","2023","01","25","05:00","-20.1","","-24.9","","66","","","","29","","50","","24.1","","100.19","","","","-36","","Mostly Cloudy"
"-61.68","56.55","NAIN A","8502801","2023-01-25 06:00","2023","01","25","06:00","-20.8","","-26.1","","63","","","","29","","44","","24.1","","100.34","","","","-36","","NA"
"-61.68","56.55","NAIN A","8502801","2023-01-25 07:00","2023","01","25","07:00","-21.1","","-26.2","","64","","","","29","","53","","24.1","","100.48","","","","-37","","Blowing Snow"
"-61.68","56.55","NAIN A","8502801","2023-01-25 08:00","2023","01","25","08:00","-20.9","","-25.8","","65","","","","30","","52","","24.1","","100.60","","","","-37","","Snow Showers,Blowing Snow"
"-61.68","56.55","NAIN A","8502801","2023-01-25 09:00","2023","01","25","09:00","-21.3","","-26.5","","63","","","","29","","59","","24.1","","100.78","","","","-38","","Snow Showers,Blowing Snow"
"-61.68","56.55","NAIN A","8502801","2023-01-25 10:00","2023","01","25","10:00","-21.4","","-27.0","","61","","","","29","","58","","24.1","","100.93","","","","-38","","Snow Showers,Blowing Snow"
"-61.68","56.55","NAIN A","8502801","2023-01-25 11:00","2023","01","25","11:00","-21.9","","-27.7","","60","","","","29","","53","","24.1","","101.00","","","","-38","","Snow Showers,Blowing Snow"
"-61.68","56.55","NAIN A","8502801","2023-01-25 12:00","2023","01","25","12:00","-22.1","","-28.1","","59","","","","28","","40","","24.1","","101.08","","","","-37","","Blowing Snow"
"-61.68","56.55","NAIN A","8502801","2023-01-25 13:00","2023","01","25","13:00","-22.4","","-28.4","","59","","","","29","","46","","24.1","","101.14","","","","-38","","NA"
"-61.68","56.55","NAIN A","8502801","2023-01-25 14:00","2023","01","25","14:00","-22.6","","-28.5","","59","","","","28","","40","","24.1","","101.22","","","","-38","","Clear"
"-61.68","56.55","NAIN A","8502801","2023-01-25 15:00","2023","01","25","15:00","-22.2","","-27.8","","61","","","","28","","45","","24.1","","101.30","","","","-38","","NA"
"-61.68","56.55","NAIN A","8502801","2023-01-25 16:00","2023","01","25","16:00","-22.6","","-28.5","","60","","","","28","","13","","24.1","","101.48","","","","-32","","NA"
"-61.68","56.55","NAIN A","8502801","2023-01-25 17:00","2023","01","25","17:00","-23.7","","-29.9","","58","","","","29","","39","","24.1","","101.60","","","","-39","","Clear"
"-61.68","56.55","NAIN A","8502801","2023-01-25 18:00","2023","01","25","18:00","-24.2","","-30.5","","57","","","","27","","21","","24.1","","101.70","","","","-36","","NA"
"-61.68","56.55","NAIN A","8502801","2023-01-25 19:00","2023","01","25","19:00","-24.4","","-30.5","","57","","","","29","","48","","24.1","","101.73","","","","-41","","NA"
"-61.68","56.55","NAIN A","8502801","2023-01-25 20:00","2023","01","25","20:00","-24.8","","-30.8","","58","","","","28","","42","","24.1","","101.77","","","","-41","","Clear"
"-61.68","56.55","NAIN A","8502801","2023-01-25 21:00","2023","01","25","21:00"
"-61.68","56.55","NAIN A","8502801","2023-01-25 22:00","2023","01","25","22:00"
"-61.68","56.55","NAIN A","8502801","2023-01-25 23:00","2023","01","25","23:00"
"-61.68","56.55","NAIN A","8502801","2023-01-26 00:00","2023","01","26","00:00"
"-61.68","56.55","NAIN A","8502801","2023-01-26 01:00","2023","01","26","01:00"
"-61.68","56.55","NAIN A","8502801","2023-01-26 02:00","2023","01","26","02:00"
"-61.68","56.55","NAIN A","8502801","2023-01-26 03:00","2023","01","26","03:00"
"-61.68","56.55","NAIN A","8502801","2023-01-26 04:00","2023","01","26","04:00"
"-61.68","56.55","NAIN A","8502801","2023-01-26 05:00","2023","01","26","05:00","-25.3","","-31.9","","55","","","","19","","5","","24.1","","102.02","","","","-30","","Mainly Clear"
"-61.68","56.55","NAIN A","8502801","2023-01-26 06:00","2023","01","26","06:00","-24.9","","-31.4","","56","","","","10","","5","","24.1","","101.97","","","","-30","","NA"
"-61.68","56.55","NAIN A","8502801","2023-01-26 07:00","2023","01","26","07:00","-26.6","","-32.4","","59","","","","22","","19","","24.1","","102.01","","","","-39","","NA"
"-61.68","56.55","NAIN A","8502801","2023-01-26 08:00","2023","01","26","08:00","-25.2","","-31.0","","59","","","","6","","5","","24.1","","101.96","","","","-30","","Clear"
"-61.68","56.55","NAIN A","8502801","2023-01-26 09:00","2023","01","26","09:00"
"-61.68","56.55","NAIN A","8502801","2023-01-26 10:00","2023","01","26","10:00","-24.3","","-31.0","","55","","","","36","","3","","24.1","","102.03","","","","-27","","NA"
"-61.68","56.55","NAIN A","8502801","2023-01-26 11:00","2023","01","26","11:00","-23.5","","-29.8","","57","","","","18","","10","","24.1","","101.97","","","","-31","","Mostly Cloudy"
"-61.68","56.55","NAIN A","8502801","2023-01-26 12:00","2023","01","26","12:00","-22.7","","-29.3","","56","","","","21","","18","","24.1","","101.87","","","","-33","","NA"
"-61.68","56.55","NAIN A","8502801","2023-01-26 13:00","2023","01","26","13:00","-22.1","","-28.5","","57","","","","17","","11","","24.1","","101.81","","","","-30","","NA"
"-61.68","56.55","NAIN A","8502801","2023-01-26 14:00","2023","01","26","14:00","-21.4","","-28.2","","55","","","","31","","9","","24.1","","101.74","","","","-28","","Mainly Clear"
"-61.68","56.55","NAIN A","8502801","2023-01-26 15:00","2023","01","26","15:00","-21.7","","-27.7","","59","","","","16","","5","","24.1","","101.65","","","","-26","","NA"
"-61.68","56.55","NAIN A","8502801","2023-01-26 16:00","2023","01","26","16:00","-21.2","","-27.5","","58","","","","36","","2","","24.1","","101.53","","","","-23","","NA"
"-61.68","56.55","NAIN A","8502801","2023-01-26 17:00","2023","01","26","17:00","-20.5","","-26.9","","57","","","","18","","8","","24.1","","101.43","","","","-27","","Cloudy"
"-61.68","56.55","NAIN A","8502801","2023-01-26 18:00","2023","01","26","18:00","-20.0","","-26.1","","59","","","","1","","4","","24.1","","101.24","","","","-23","","NA"
"-61.68","56.55","NAIN A","8502801","2023-01-26 19:00","2023","01","26","19:00","-19.9","","-25.2","","64","","","","34","","9","","24.1","","101.07","","","","-27","","NA"
"-61.68","56.55","NAIN A","8502801","2023-01-26 20:00","2023","01","26","20:00","-19.8","","-25.5","","61","","","","29","","10","","19.3","","100.95","","","","-27","","Snow"
"-61.68","56.55","NAIN A","8502801","2023-01-26 21:00","2023","01","26","21:00"
"-61.68","56.55","NAIN A","8502801","2023-01-26 22:00","2023","01","26","22:00"
"-61.68","56.55","NAIN A","8502801","2023-01-26 23:00","2023","01","26","23:00"
"-61.68","56.55","NAIN A","8502801","2023-01-27 00:00","2023","01","27","00:00"
"-61.68","56.55","NAIN A","8502801","2023-01-27 01:00","2023","01","27","01:00"
"-61.68","56.55","NAIN A","8502801","2023-01-27 02:00","2023","01","27","02:00"
"-61.68","56.55","NAIN A","8502801","2023-01-27 03:00","2023","01","27","03:00"
"-61.68","56.55","NAIN A","8502801","2023-01-27 04:00","2023","01","27","04:00"
"-61.68","56.55","NAIN A","8502801","2023-01-27 05:00","2023","01","27","05:00","-14.8","","-17.1","","83","","","","32","","50","","1.2","","98.73","","","","-28","","Snow,Blowing Snow"
"-61.68","56.55","NAIN A","8502801","2023-01-27 06:00","2023","01","27","06:00","-13.8","","-16.0","","83","","","","32","","59","","1.2","","98.70","","","","-28","","Snow,Blowing Snow"
"-61.68","56.55","NAIN A","8502801","2023-01-27 07:00","2023","01","27","07:00","-13.7","","-16.4","","81","","","","33","","52","","1.6","","98.69","","","","-27","","Snow,Blowing Snow"
"-61.68","56.55","NAIN A","8502801","2023-01-27 08:00","2023","01","27","08:00","-13.5","","-16.4","","79","","","","31","","45","","4.8","","98.78","","","","-26","","Snow,Blowing Snow"
"-61.68","56.55","NAIN A","8502801","2023-01-27 09:00","2023","01","27","09:00","-13.5","","-16.6","","78","","","","31","","50","","24.1","","98.67","","","","-27","","Snow,Blowing Snow"
"-61.68","56.55","NAIN A","8502801","2023-01-27 10:00","2023","01","27","10:00","-13.6","","-16.9","","76","","","","31","","63","","24.1","","98.89","","","","-28","","Snow Showers,Blowing Snow"
"-61.68","56.55","NAIN A","8502801","2023-01-27 11:00","2023","01","27","11:00","-13.6","","-18.3","","68","","","","32","","45","","24.1","","98.96","","","","-26","","Blowing Snow"
"-61.68","56.55","NAIN A","8502801","2023-01-27 12:00","2023","01","27","12:00","-13.8","","-18.6","","68","","","","31","","38","","24.1","","99.15","","","","-26","","Blowing Snow"
"-61.68","56.55","NAIN A","8502801","2023-01-27 13:00","2023","01","27","13:00","-15.1","","-19.7","","68","","","","29","","42","","24.1","","99.23","","","","-28","","Blowing Snow"
"-61.68","56.55","NAIN A","8502801","2023-01-27 14:00","2023","01","27","14:00","-16.4","","-20.9","","69","","","","30","","50","","24.1","","99.35","","","","-30","","Blowing Snow"
"-61.68","56.55","NAIN A","8502801","2023-01-27 15:00","2023","01","27","15:00","-17.5","","-22.2","","67","","","","29","","36","","24.1","","99.57","","","","-30","","Blowing Snow"
"-61.68","56.55","NAIN A","8502801","2023-01-27 16:00","2023","01","27","16:00","-18.8","","-23.4","","68","","","","30","","47","","24.1","","99.80","","","","-33","","NA"
"-61.68","56.55","NAIN A","8502801","2023-01-27 17:00","2023","01","27","17:00","-20.1","","-24.9","","66","","","","29","","41","","24.1","","99.99","","","","-34","","Blowing Snow"
"-61.68","56.55","NAIN A","8502801","2023-01-27 18:00","2023","01","27","18:00","-21.1","","-26.2","","64","","","","29","","48","","24.1","","100.17","","","","-37","","Blowing Snow"
"-61.68","56.55","NAIN A","8502801","2023-01-27 19:00","2023","01","27","19:00","-21.9","","-27.9","","59","","","","28","","17","","24.1","","100.35","","","","-32","","NA"
"-61.68","56.55","NAIN A","8502801","2023-01-27 20:00","2023","01","27","20:00","-22.2","","-28.8","","56","","","","28","","31","","24.1","","100.52","","","","-36","","Mostly Cloudy"
"-61.68","56.55","NAIN A","8502801","2023-01-27 21:00","2023","01","27","21:00"
"-61.68","56.55","NAIN A","8502801","2023-01-27 22:00","2023","01","27","22:00"
"-61.68","56.55","NAIN A","8502801","2023-01-27 23:00","2023","01","27","23:00"
"-61.68","56.55","NAIN A","8502801","2023-01-28 00:00","2023","01","28","00:00"
"-61.68","56.55","NAIN A","8502801","2023-01-28 01:00","2023","01","28","01:00"
"-61.68","56.55","NAIN A","8502801","2023-01-28 02:00","2023","01","28","02:00"
"-61.68","56.55","NAIN A","8502801","2023-01-28 03:00","2023","01","28","03:00"
"-61.68","56.55","NAIN A","8502801","2023-01-28 04:00","2023","01","28","04:00"
"-61.68","56.55","NAIN A","8502801","2023-01-28 05:00","2023","01","28","05:00","-26.4","","-34.1","","49","","","","23","","28","","24.1","","101.46","","","","-41","","Clear"
"-61.68","56.55","NAIN A","8502801","2023-01-28 06:00","2023","01","28","06:00","-26.3","","-34.0","","49","","","","23","","28","","24.1","","101.46","","","","-40","","NA"
"-61.68","56.55","NAIN A","8502801","2023-01-28 07:00","2023","01","28","07:00","-26.4","","-34.0","","50","","","","23","","15","","24.1","","101.48","","","","-37","","NA"
"-61.68","56.55","NAIN A","8502801","2023-01-28 08:00","2023","01","28","08:00","-25.8","","-32.9","","53","","","","22","","22","","24.1","","101.45","","","","-38","","Mostly Cloudy"
"-61.68","56.55","NAIN A","8502801","2023-01-28 09:00","2023","01","28","09:00","-25.6","","-32.0","","56","","","","27","","10","","24.1","","101.41","","","","-34","","NA"
"-61.68","56.55","NAIN A","8502801","2023-01-28 10:00","2023","01","28","10:00","-24.7","","-31.4","","55","","","","20","","19","","24.1","","101.33","","","","-36","","NA"
"-61.68","56.55","NAIN A","8502801","2023-01-28 11:00","2023","01","28","11:00","-23.1","","-29.6","","56","","","","17","","21","","24.1","","101.22","","","","-35","","Cloudy"
"-61.68","56.55","NAIN A","8502801","2023-01-28 12:00","2023","01","28","12:00","-22.4","","-29.1","","56","","","","17","","20","","24.1","","101.06","","","","-34","","NA"
"-61.68","56.55","NAIN A","8502801","2023-01-28 13:00","2023","01","28","13:00","-21.8","","-28.2","","57","","","","13","","19","","24.1","","100.92","","","","-32","","NA"
"-61.68","56.55","NAIN A","8502801","2023-01-28 14:00","2023","01","28","14:00","-20.6","","-26.8","","59","","","","17","","7","","24.1","","100.79","","","","-26","","Cloudy"
"-61.68","56.55","NAIN A","8502801","2023-01-28 15:00","2023","01","28","15:00","-20.6","","-26.2","","61","","","","35","","16","","24.1","","100.79","","","","-30","","NA"
"-61.68","56.55","NAIN A","8502801","2023-01-28 16:00","2023","01","28","16:00","-20.4","","-26.1","","61","","","","33","","12","","24.1","","100.80","","","","-29","","NA"
"-61.68","56.55","NAIN A","8502801","2023-01-28 17:00","2023","01","28","17:00","-20.0","","-25.1","","65","","","","29","","7","","16.1","","100.76","","","","-26","","Snow"
"-61.68","56.55","NAIN A","8502801","2023-01-28 18:00","2023","01","28","18:00","-19.4","","-22.9","","75","","","","20","","10","","8.1","","100.74","","","","-26","","Snow"
"-61.68","56.55","NAIN A","8502801","2023-01-28 19:00","2023","01","28","19:00","-18.8","","-21.5","","80","","","","8","","3","","12.9","","100.71","","","","-21","","Snow"
"-61.68","56.55","NAIN A","8502801","2023-01-28 20:00","2023","01","28","20:00","-18.8","","-21.4","","80","","","","1","","5","","17.7","","100.66","","","","-23","","Snow"
"-61.68","56.55","NAIN A","8502801","2023-01-28 21:00","2023","01","28","21:00"
"-61.68","56.55","NAIN A","8502801","2023-01-28 22:00","2023","01","28","22:00"
"-61.68","56.55","NAIN A","8502801","2023-01-28 23:00","2023","01","28","23:00"
"-61.68","56.55","NAIN A","8502801","2023-01-29 00:00","2023","01","29","00:00"
"-61.68","56.55","NAIN A","8502801","2023-01-29 01:00","2023","01","29","01:00"
"-61.68","56.55","NAIN A","8502801","2023-01-29 02:00","2023","01","29","02:00"
"-61.68","56.55","NAIN A","8502801","2023-01-29 03:00","2023","01","29","03:00"
"-61.68","56.55","NAIN A","8502801","2023-01-29 04:00","2023","01","29","04:00"
"-61.68","56.55","NAIN A","8502801","2023-01-29 05:00","2023","01","29","05:00","-13.3","","-15.4","","84","","","","29","","16","","8.1","","100.31","","","","-21","","Snow"
"-61.68","56.55","NAIN A","8502801","2023-01-29 06:00","2023","01","29","06:00","-13.0","","-15.6","","81","","","","30","","18","","4.8","","100.39","","","","-21","","Snow"
"-61.68","56.55","NAIN A","8502801","2023-01-29 07:00","2023","01","29","07:00","-13.4","","-16.2","","80","","","","25","","8","","20.9","","100.48","","","","-18","","Snow"
"-61.68","56.55","NAIN A","8502801","2023-01-29 08:00","2023","01","29","08:00","-14.5","","-17.3","","79","","","","28","","20","","4.8","","100.62","","","","-24","","Snow"
"-61.68","56.55","NAIN A","8502801","2023-01-29 09:00","2023","01","29","09:00"
"-61.68","56.55","NAIN A","8502801","2023-01-29 10:00","2023","01","29","10:00","-18.0","","-21.2","","76","","","","30","","56","","3.2","","100.91","","","","-33","","Snow,Blowing Snow"
"-61.68","56.55","NAIN A","8502801","2023-01-29 11:00","2023","01","29","11:00","-19.4","","-22.9","","74","","","","29","","58","","4.0","","101.01","","","","-35","","Snow,Blowing Snow"
"-61.68","56.55","NAIN A","8502801","2023-01-29 12:00","2023","01","29","12:00","-20.5","","-24.1","","74","","","","29","","55","","3.2","","101.09","","","","-37","","Snow,Blowing Snow"
"-61.68","56.55","NAIN A","8502801","2023-01-29 13:00","2023","01","29","13:00","-21.5","","-25.2","","72","","","","29","","56","","3.6","","101.21","","","","-38","","Snow,Blowing Snow"
"-61.68","56.55","NAIN A","8502801","2023-01-29 14:00","2023","01","29","14:00","-22.6","","-26.8","","69","","","","29","","61","","8.1","","101.30","","","","-40","","Blowing Snow"
"-61.68","56.55","NAIN A","8502801","2023-01-29 15:00","2023","01","29","15:00","-23.2","","-28.1","","65","","","","29","","50","","17.7","","101.45","","","","-40","","Blowing Snow"
"-61.68","56.55","NAIN A","8502801","2023-01-29 16:00","2023","01","29","16:00","-24.5","","-29.7","","63","","","","28","","43","","22.5","","101.64","","","","-41","","Blowing Snow"
"-61.68","56.55","NAIN A","8502801","2023-01-29 17:00","2023","01","29","17:00","-25.1","","-30.9","","59","","","","29","","32","","24.1","","101.74","","","","-40","","Clear"
"-61.68","56.55","NAIN A","8502801","2023-01-29 18:00","2023","01","29","18:00","-25.6","","-31.6","","58","","","","28","","28","","24.1","","101.80","","","","-39","","NA"
"-61.68","56.55","NAIN A","8502801","2023-01-29 19:00","2023","01","29","19:00","-26.3","","-31.8","","60","","","","27","","40","","24.1","","101.87","","","","-43","","NA"
"-61.68","56.55","NAIN A","8502801","2023-01-29 20:00","2023","01","29","20:00","-26.2","","-31.8","","60","","","","29","","39","","24.1","","101.93","","","","-42","","Clear"
"-61.68","56.55","NAIN A","8502801","2023-01-29 21:00","2023","01","29","21:00"
"-61.68","56.55","NAIN A","8502801","2023-01-29 22:00","2023","01","29","22:00"
"-61.68","56.55","NAIN A","8502801","2023-01-29 23:00","2023","01","29","23:00"
"-61.68","56.55","NAIN A","8502801","2023-01-30 00:00","2023","01","30","00:00"
"-61.68","56.55","NAIN A","8502801","2023-01-30 01:00","2023","01","30","01:00"
"-61.68","56.55","NAIN A","8502801","2023-01-30 02:00","2023","01","30","02:00"
"-61.68","56.55","NAIN A","8502801","2023-01-30 03:00","2023","01","30","03:00"
"-61.68","56.55","NAIN A","8502801","2023-01-30 04:00","2023","01","30","04:00"
"-61.68","56.55","NAIN A","8502801","2023-01-30 05:00","2023","01","30","05:00","-26.8","","-33.3","","55","","","","30","","17","","24.1","","101.93","","","","-38","","Clear"
"-61.68","56.55","NAIN A","8502801","2023-01-30 06:00","2023","01","30","06:00","-28.3","","-33.9","","60","","","","20","","10","","24.1","","101.91","","","","-37","","NA"
"-61.68","56.55","NAIN A","8502801","2023-01-30 07:00","2023","01","30","07:00","-28.4","","-34.0","","59","","","","21","","13","","24.1","","101.88","","","","-39","","NA"
"-61.68","56.55","NAIN A","8502801","2023-01-30 08:00","2023","01","30","08:00","-26.6","","-32.8","","57","","","","25","","13","","24.1","","101.87","","","","-36","","Mainly Clear"
"-61.68","56.55","NAIN A","8502801","2023-01-30 09:00","2023","01","30","09:00","-27.3","","-33.0","","59","","","","36","","3","","24.1","","101.85","","","","-30","","NA"
"-61.68","56.55","NAIN A","8502801","2023-01-30 10:00","2023","01","30","10:00","-27.2","","-33.1","","58","","","","22","","21","","24.1","","101.80","","","","-40","","NA"
"-61.68","56.55","NAIN A","8502801","2023-01-30 11:00","2023","01","30","11:00","-26.3","","-32.4","","57","","","","22","","20","","24.1","","101.77","","","","-38","","Mostly Cloudy"
"-61.68","56.55","NAIN A","8502801","2023-01-30 12:00","2023","01","30","12:00","-25.4","","-31.8","","56","","","","22","","17","","24.1","","101.72","","","","-36","","NA"
"-61.68","56.55","NAIN A","8502801","2023-01-30 13:00","2023","01","30","13:00","-24.7","","-31.1","","56","","","","22","","14","","24.1","","101.63","","","","-35","","NA"
"-61.68","56.55","NAIN A","8502801","2023-01-30 14:00","2023","01","30","14:00","-24.3","","-30.6","","57","","","","24","","10","","24.1","","101.59","","","","-32","","Mostly Cloudy"
"-61.68","56.55","NAIN A","8502801","2023-01-30 15:00","2023","01","30","15:00","-24.4","","-30.5","","58","","","","24","","24","","24.1","","101.61","","","","-37","","NA"
"-61.68","56.55","NAIN A","8502801","2023-01-30 16:00","2023","01","30","16:00","-24.2","","-30.3","","58","","","","24","","12","","24.1","","101.65","","","","-33","","NA"
"-61.68","56.55","NAIN A","8502801","2023-01-30 17:00","2023","01","30","17:00","-23.3","","-29.7","","56","","","","26","","15","","24.1","","101.66","","","","-33","","Cloudy"
"-61.68","56.55","NAIN A","8502801","2023-01-30 18:00","2023","01","30","18:00","-24.2","","-29.8","","61","","","","27","","14","","24.1","","101.72","","","","-34","","NA"
"-61.68","56.55","NAIN A","8502801","2023-01-30 19:00","2023","01","30","19:00","-24.4","","-30.9","","56","","","","28","","25","","24.1","","101.74","","","","-37","","NA"
"-61.68","56.55","NAIN A","8502801","2023-01-30 20:00","2023","01","30","20:00","-25.2","","-31.9","","54","","","","27","","33","","24.1","","101.76","","","","-40","","Mainly Clear"
"-61.68","56.55","NAIN A","8502801","2023-01-30 21:00","2023","01","30","21:00"
"-61.68","56.55","NAIN A","8502801","2023-01-30 22:00","2023","01","30","22:00"
"-61.68","56.55","NAIN A","8502801","2023-01-30 23:00","2023","01","30","23:00"
"-61.68","56.55","NAIN A","8502801","2023-01-31 00:00","2023","01","31","00:00"
"-61.68","56.55","NAIN A","8502801","2023-01-31 01:00","2023","01","31","01:00"
"-61.68","56.55","NAIN A","8502801","2023-01-31 02:00","2023","01","31","02:00"
"-61.68","56.55","NAIN A","8502801","2023-01-31 03:00","2023","01","31","03:00"
"-61.68","56.55","NAIN A","8502801","2023-01-31 04:00","2023","01","31","04:00"
"-61.68","56.55","NAIN A","8502801","2023-01-31 05:00","2023","01","31","05:00","-27.7","","-34.3","","55","","","","29","","22","","24.1","","101.87","","","","-41","","Clear"
"-61.68","56.55","NAIN A","8502801","2023-01-31 06:00","2023","01","31","06:00","-27.6","","-34.6","","52","","","","27","","17","","24.1","","101.88","","","","-39","","NA"
"-61.68","56.55","NAIN A","8502801","2023-01-31 07:00","2023","01","31","07:00","-27.6","","-34.6","","52","","","","28","","14","","24.1","","101.88","","","","-38","","NA"
"-61.68","56.55","NAIN A","8502801","2023-01-31 08:00","2023","01","31","08:00","-30.3","","-36.3","","57","","","","9","","5","","24.1","","101.88","","","","-36","","Clear"
"-61.68","56.55","NAIN A","8502801","2023-01-31 09:00","2023","01","31","09:00","-30.0","","-34.9","","63","","","","11","","3","","24.1","","101.87","","","","-33","","NA"
"-61.68","56.55","NAIN A","8502801","2023-01-31 10:00","2023","01","31","10:00","-29.5","","-34.3","","64","","","","8","","4","","24.1","","101.86","","","","-34","","NA"
"-61.68","56.55","NAIN A","8502801","2023-01-31 11:00","2023","01","31","11:00","-28.9","","-34.9","","57","","","","36","","2","","24.1","","101.83","","","","-31","","Clear"
"-61.68","56.55","NAIN A","8502801","2023-01-31 12:00","2023","01","31","12:00","-28.0","","-34.3","","56","","","","10","","3","","24.1","","101.77","","","","-31","","NA"
"-61.68","56.55","NAIN A","8502801","2023-01-31 13:00","2023","01","31","13:00","-27.3","","-33.3","","58","","","","8","","3","","24.1","","101.70","","","","-30","","NA"
"-61.68","56.55","NAIN A","8502801","2023-01-31 14:00","2023","01","31","14:00","-26.9","","-33.0","","57","","","","15","","4","","24.1","","101.65","","","","-31","","Clear"
"-61.68","56.55","NAIN A","8502801","2023-01-31 15:00","2023","01","31","15:00","-26.6","","-34.2","","50","","","","24","","7","","24.1","","101.63","","","","-33","","NA"
"-61.68","56.55","NAIN A","8502801","2023-01-31 16:00","2023","01","31","16:00","-27.3","","-34.0","","54","","","","28","","7","","24.1","","101.57","","","","-34","","NA"
"-61.68","56.55","NAIN A","8502801","2023-01-31 17:00","2023","01","31","17:00","-27.8","","-33.8","","57","","","","26","","5","","24.1","","101.54","","","","-33","","Clear"
"-61.68","56.55","NAIN A","8502801","2023-01-31 18:00","2023","01","31","18:00","-27.4","","-34.2","","53","","","","28","","5","","24.1","","101.50","","","","-33","","NA"
"-61.68","56.55","NAIN A","8502801","2023-01-31 19:00","2023","01","31","19:00","-27.7","","-34.1","","55","","","","20","","3","","24.1","","101.47","","","","-31","","NA"
"-61.68","56.55","NAIN A","8502801","2023-01-31 20:00","2023","01","31","20:00","-28.0","","-34.4","","55","","","","28","","14","","24.1","","101.45","","","","-39","","Clear"
"-61.68","56.55","NAIN A","8502801","2023-01-31 21:00","2023","01","31","21:00"
"-61.68","56.55","NAIN A","8502801","2023-01-31 22:00","2023","01","31","22:00"
"-61.68","56.55","NAIN A","8502801","2023-01-31 23:00","2023","01","31","23:00"
