"Longitude (x)","Latitude (y)","Station Name","Climate ID","Date/Time (LST)","Year","Month","Day","Time (LST)","Temp (°C)","Temp Flag","Dew Point Temp (°C)","Dew Point Temp Flag","Rel Hum (%)","Rel Hum Flag","Precip. Amount (mm)","Precip. Amount Flag","Wind Dir (10s deg)","Wind Dir Flag","Wind Spd (km/h)","Wind Spd Flag","Visibility (km)","Visibility Flag","Stn Press (kPa)","Stn Press Flag","Hmdx","Hmdx Flag","Wind Chill","Wind Chill Flag","Weather"
"-81.24","68.78","SANIRAJAK AIRPORT","2402356","2021-04-01 00:00","2021","04","01","00:00"
"-81.24","68.78","SANIRAJAK AIRPORT","2402356","2021-04-01 01:00","2021","04","01","01:00"
"-81.24","68.78","SANIRAJAK AIRPORT","2402356","2021-04-01 02:00","2021","04","01","02:00"
"-81.24","68.78","SANIRAJAK AIRPORT","2402356","2021-04-01 03:00","2021","04","01","03:00"
"-81.24","68.78","SANIRAJAK AIRPORT","2402356","2021-04-01 04:00","2021","04","01","04:00"
"-81.24","68.78","SANIRAJAK AIRPORT","2402356","2021-04-01 05:00","2021","04","01","05:00"
"-81.24","68.78","SANIRAJAK AIRPORT","2402356","2021-04-01 06:00","2021","04","01","06:00"
"-81.24","68.78","SANIRAJAK AIRPORT","2402356","2021-04-01 07:00","2021","04","01","07:00","-41.0","","-45.4","","64","","","","30","","24","","16.1","","101.73","","","","-58","","Blowing Snow"
"-81.24","68.78","SANIRAJAK AIRPORT","2402356","2021-04-01 08:00","2021","04","01","08:00","-40.2","","-44.9","","62","","","","30","","17","","16.1","","101.74","","","","-55","","NA"
"-81.24","68.78","SANIRAJAK AIRPORT","2402356","2021-04-01 09:00","2021","04","01","09:00","-38.6","","-43.4","","62","","","","30","","23","","16.1","","101.75","","","","-55","","NA"
"-81.24","68.78","SANIRAJAK AIRPORT","2402356","2021-04-01 10:00","2021","04","01","10:00","-36.6","","-41.4","","62","","","","30","","20","","16.1","","101.75","","","","-51","","Clear"
"-81.24","68.78","SANIRAJAK AIRPORT","2402356","2021-04-01 11:00","2021","04","01","11:00","-34.9","","-40.0","","61","","","","30","","27","","16.1","","101.73","","","","-51","","Blowing Snow"
"-81.24","68.78","SANIRAJAK AIRPORT","2402356","2021-04-01 12:00","2021","04","01","12:00","-33.8","","-38.9","","61","","","","30","","26","","16.1","","101.75","","","","-50","","Blowing Snow"
"-81.24","68.78","SANIRAJAK AIRPORT","2402356","2021-04-01 13:00","2021","04","01","13:00","-32.6","","-37.4","","63","","","","31","","24","","16.1","","101.83","","","","-48","","Blowing Snow"
"-81.24","68.78","SANIRAJAK AIRPORT","2402356","2021-04-01 14:00","2021","04","01","14:00","-31.9","","-36.8","","63","","","","30","","18","","16.1","","101.90","","","","-45","","Blowing Snow"
"-81.24","68.78","SANIRAJAK AIRPORT","2402356","2021-04-01 15:00","2021","04","01","15:00","-31.6","","-36.2","","65","","","","30","","22","","14.5","","101.94","","","","-46","","Blowing Snow"
"-81.24","68.78","SANIRAJAK AIRPORT","2402356","2021-04-01 16:00","2021","04","01","16:00","-31.4","","-36.1","","64","","","","29","","19","","16.1","","102.00","","","","-45","","Blowing Snow"
"-81.24","68.78","SANIRAJAK AIRPORT","2402356","2021-04-01 17:00","2021","04","01","17:00","-31.9","","-36.5","","65","","","","28","","10","","16.1","","102.05","","","","-41","","NA"
"-81.24","68.78","SANIRAJAK AIRPORT","2402356","2021-04-01 18:00","2021","04","01","18:00","-33.0","","-37.2","","67","","","","29","","16","","16.1","","102.05","","","","-45","","NA"
"-81.24","68.78","SANIRAJAK AIRPORT","2402356","2021-04-01 19:00","2021","04","01","19:00","-34.2","","-38.2","","68","","","","25","","13","","9.7","","102.10","","","","-46","","Snow"
"-81.24","68.78","SANIRAJAK AIRPORT","2402356","2021-04-01 20:00","2021","04","01","20:00"
"-81.24","68.78","SANIRAJAK AIRPORT","2402356","2021-04-01 21:00","2021","04","01","21:00"
"-81.24","68.78","SANIRAJAK AIRPORT","2402356","2021-04-01 22:00","2021","04","01","22:00"
"-81.24","68.78","SANIRAJAK AIRPORT","2402356","2021-04-01 23:00","2021","04","01","23:00"
"-81.24","68.78","SANIRAJAK AIRPORT","2402356","2021-04-02 00:00","2021","04","02","00:00"
"-81.24","68.78","SANIRAJAK AIRPORT","2402356","2021-04-02 01:00","2021","04","02","01:00"
"-81.24","68.78","SANIRAJAK AIRPORT","2402356","2021-04-02 02:00","2021","04","02","02:00"
"-81.24","68.78","SANIRAJAK AIRPORT","2402356","2021-04-02 03:00","2021","04","02","03:00"
"-81.24","68.78","SANIRAJAK AIRPORT","2402356","2021-04-02 04:00","2021","04","02","04:00"
"-81.24","68.78","SANIRAJAK AIRPORT","2402356","2021-04-02 05:00","2021","04","02","05:00"
"-81.24","68.78","SANIRAJAK AIRPORT","2402356","2021-04-02 06:00","2021","04","02","06:00"
"-81.24","68.78","SANIRAJAK AIRPORT","2402356","2021-04-02 07:00","2021","04","02","07:00","-36.0","","-40.5","","64","","","","23","","17","","16.1","","103.10","","","","-50","","Clear"
"-81.24","68.78","SANIRAJAK AIRPORT","2402356","2021-04-02 08:00","2021","04","02","08:00","-34.4","","-39.2","","63","","","","24","","13","","16.1","","103.19","","","","-46","","NA"
"-81.24","68.78","SANIRAJAK AIRPORT","2402356","2021-04-02 09:00","2021","04","02","09:00","-33.4","","-38.4","","62","","","","25","","10","","16.1","","103.30","","","","-43","","NA"
"-81.24","68.78","SANIRAJAK AIRPORT","2402356","2021-04-02 10:00","2021","04","02","10:00","-31.2","","-36.1","","63","","","","31","","12","","16.1","","103.38","","","","-42","","Clear"
"-81.24","68.78","SANIRAJAK AIRPORT","2402356","2021-04-02 11:00","2021","04","02","11:00","-30.4","","-35.3","","63","","","","32","","12","","16.1","","103.46","","","","-41","","NA"
"-81.24","68.78","SANIRAJAK AIRPORT","2402356","2021-04-02 12:00","2021","04","02","12:00","-29.2","","-33.9","","65","","","","33","","9","","16.1","","103.53","","","","-38","","NA"
"-81.24","68.78","SANIRAJAK AIRPORT","2402356","2021-04-02 13:00","2021","04","02","13:00","-28.2","","-32.9","","65","","","","34","","10","","16.1","","103.56","","","","-37","","Mainly Clear"
"-81.24","68.78","SANIRAJAK AIRPORT","2402356","2021-04-02 14:00","2021","04","02","14:00","-27.0","","-31.4","","67","","","","33","","8","","16.1","","103.61","","","","-34","","NA"
"-81.24","68.78","SANIRAJAK AIRPORT","2402356","2021-04-02 15:00","2021","04","02","15:00","-26.3","","-30.1","","71","","","","36","","9","","4.8","","103.67","","","","-34","","Snow"
"-81.24","68.78","SANIRAJAK AIRPORT","2402356","2021-04-02 16:00","2021","04","02","16:00","-23.9","","-27.8","","71","","","","12","","12","","16.1","","103.67","","","","-33","","Snow"
"-81.24","68.78","SANIRAJAK AIRPORT","2402356","2021-04-02 17:00","2021","04","02","17:00","-24.1","","-27.4","","75","","","","13","","14","","16.1","","103.72","","","","-34","","NA"
"-81.24","68.78","SANIRAJAK AIRPORT","2402356","2021-04-02 18:00","2021","04","02","18:00","-25.1","","-28.6","","73","","","","13","","12","","16.1","","103.75","","","","-34","","NA"
"-81.24","68.78","SANIRAJAK AIRPORT","2402356","2021-04-02 19:00","2021","04","02","19:00","-25.2","","-28.1","","77","","","","11","","16","","16.1","","103.77","","","","-36","","Mainly Clear"
"-81.24","68.78","SANIRAJAK AIRPORT","2402356","2021-04-02 20:00","2021","04","02","20:00"
"-81.24","68.78","SANIRAJAK AIRPORT","2402356","2021-04-02 21:00","2021","04","02","21:00"
"-81.24","68.78","SANIRAJAK AIRPORT","2402356","2021-04-02 22:00","2021","04","02","22:00"
"-81.24","68.78","SANIRAJAK AIRPORT","2402356","2021-04-02 23:00","2021","04","02","23:00"
"-81.24","68.78","SANIRAJAK AIRPORT","2402356","2021-04-03 00:00","2021","04","03","00:00"
"-81.24","68.78","SANIRAJAK AIRPORT","2402356","2021-04-03 01:00","2021","04","03","01:00"
"-81.24","68.78","SANIRAJAK AIRPORT","2402356","2021-04-03 02:00","2021","04","03","02:00"
"-81.24","68.78","SANIRAJAK AIRPORT","2402356","2021-04-03 03:00","2021","04","03","03:00"
"-81.24","68.78","SANIRAJAK AIRPORT","2402356","2021-04-03 04:00","2021","04","03","04:00"
"-81.24","68.78","SANIRAJAK AIRPORT","2402356","2021-04-03 05:00","2021","04","03","05:00"
"-81.24","68.78","SANIRAJAK AIRPORT","2402356","2021-04-03 06:00","2021","04","03","06:00"
"-81.24","68.78","SANIRAJAK AIRPORT","2402356","2021-04-03 07:00","2021","04","03","07:00","-21.1","","-23.4","","82","","","","9","","37","","0.6","","103.54","","","","-35","","Snow,Blowing Snow"
"-81.24","68.78","SANIRAJAK AIRPORT","2402356","2021-04-03 08:00","2021","04","03","08:00","-19.8","","-22.1","","82","","","","10","","38","","1.0","","103.48","","","","-34","","Snow,Blowing Snow"
"-81.24","68.78","SANIRAJAK AIRPORT","2402356","2021-04-03 09:00","2021","04","03","09:00"
"-81.24","68.78","SANIRAJAK AIRPORT","2402356","2021-04-03 10:00","2021","04","03","10:00","-18.7","","-21.2","","81","","","","11","","40","","0.8","","103.40","","","","-32","","Snow,Blowing Snow"
"-81.24","68.78","SANIRAJAK AIRPORT","2402356","2021-04-03 11:00","2021","04","03","11:00","-18.1","","-20.5","","82","","","","11","","40","","0.4","","103.36","","","","-32","","Snow,Blowing Snow"
"-81.24","68.78","SANIRAJAK AIRPORT","2402356","2021-04-03 12:00","2021","04","03","12:00","-17.4","","-19.6","","83","","","","11","","43","","0.4","","103.33","","","","-31","","Snow,Blowing Snow"
"-81.24","68.78","SANIRAJAK AIRPORT","2402356","2021-04-03 13:00","2021","04","03","13:00","-16.6","","-19.0","","82","","","","11","","43","","1.0","","103.31","","","","-30","","Snow,Blowing Snow"
"-81.24","68.78","SANIRAJAK AIRPORT","2402356","2021-04-03 14:00","2021","04","03","14:00","-15.8","","-18.1","","83","","","","12","","41","","1.2","","103.29","","","","-29","","Snow,Blowing Snow,Blowing Sand"
"-81.24","68.78","SANIRAJAK AIRPORT","2402356","2021-04-03 15:00","2021","04","03","15:00","-15.1","","-17.2","","84","","","","12","","35","","1.0","","103.26","","","","-27","","Blowing Snow"
"-81.24","68.78","SANIRAJAK AIRPORT","2402356","2021-04-03 16:00","2021","04","03","16:00","-14.4","","-16.4","","85","","","","12","","44","","0.8","","103.26","","","","-27","","Snow,Blowing Snow"
"-81.24","68.78","SANIRAJAK AIRPORT","2402356","2021-04-03 17:00","2021","04","03","17:00","-13.9","","-15.8","","86","","","","12","","32","","0.8","","103.24","","","","-25","","Snow,Blowing Snow"
"-81.24","68.78","SANIRAJAK AIRPORT","2402356","2021-04-03 18:00","2021","04","03","18:00","-13.4","","-15.1","","87","","","","12","","44","","0.8","","103.19","","","","-26","","Snow,Blowing Snow"
"-81.24","68.78","SANIRAJAK AIRPORT","2402356","2021-04-03 19:00","2021","04","03","19:00","-13.3","","-15.0","","87","","","","13","","50","","0.8","","103.19","","","","-26","","Snow,Blowing Snow"
"-81.24","68.78","SANIRAJAK AIRPORT","2402356","2021-04-03 20:00","2021","04","03","20:00"
"-81.24","68.78","SANIRAJAK AIRPORT","2402356","2021-04-03 21:00","2021","04","03","21:00"
"-81.24","68.78","SANIRAJAK AIRPORT","2402356","2021-04-03 22:00","2021","04","03","22:00"
"-81.24","68.78","SANIRAJAK AIRPORT","2402356","2021-04-03 23:00","2021","04","03","23:00"
"-81.24","68.78","SANIRAJAK AIRPORT","2402356","2021-04-04 00:00","2021","04","04","00:00"
"-81.24","68.78","SANIRAJAK AIRPORT","2402356","2021-04-04 01:00","2021","04","04","01:00"
"-81.24","68.78","SANIRAJAK AIRPORT","2402356","2021-04-04 02:00","2021","04","04","02:00"
"-81.24","68.78","SANIRAJAK AIRPORT","2402356","2021-04-04 03:00","2021","04","04","03:00"
"-81.24","68.78","SANIRAJAK AIRPORT","2402356","2021-04-04 04:00","2021","04","04","04:00"
"-81.24","68.78","SANIRAJAK AIRPORT","2402356","2021-04-04 05:00","2021","04","04","05:00"
"-81.24","68.78","SANIRAJAK AIRPORT","2402356","2021-04-04 06:00","2021","04","04","06:00"
"-81.24","68.78","SANIRAJAK AIRPORT","2402356","2021-04-04 07:00","2021","04","04","07:00","-15.5","","-18.5","","78","","","","12","","45","","9.7","","102.73","","","","-29","","Blowing Snow"
"-81.24","68.78","SANIRAJAK AIRPORT","2402356","2021-04-04 08:00","2021","04","04","08:00","-15.2","","-18.4","","77","","","","12","","42","","9.7","","102.69","","","","-28","","Blowing Snow"
"-81.24","68.78","SANIRAJAK AIRPORT","2402356","2021-04-04 09:00","2021","04","04","09:00","-15.3","","-18.2","","79","","","","12","","41","","9.7","","102.62","","","","-28","","Blowing Snow"
"-81.24","68.78","SANIRAJAK AIRPORT","2402356","2021-04-04 10:00","2021","04","04","10:00","-15.1","","-18.0","","79","","","","12","","41","","9.7","","102.56","","","","-28","","Blowing Snow"
"-81.24","68.78","SANIRAJAK AIRPORT","2402356","2021-04-04 11:00","2021","04","04","11:00","-14.6","","-17.4","","80","","","","12","","37","","9.7","","102.50","","","","-27","","Blowing Snow"
"-81.24","68.78","SANIRAJAK AIRPORT","2402356","2021-04-04 12:00","2021","04","04","12:00","-14.1","","-16.8","","80","","","","12","","37","","9.7","","102.45","","","","-26","","Blowing Snow"
"-81.24","68.78","SANIRAJAK AIRPORT","2402356","2021-04-04 13:00","2021","04","04","13:00","-13.7","","-16.1","","82","","","","12","","37","","2.0","","102.38","","","","-25","","Snow,Blowing Snow"
"-81.24","68.78","SANIRAJAK AIRPORT","2402356","2021-04-04 14:00","2021","04","04","14:00","-13.3","","-16.0","","80","","","","13","","43","","9.7","","102.34","","","","-26","","Blowing Snow"
"-81.24","68.78","SANIRAJAK AIRPORT","2402356","2021-04-04 15:00","2021","04","04","15:00","-14.0","","-16.6","","81","","","","11","","41","","9.7","","102.31","","","","-26","","Snow,Blowing Snow"
"-81.24","68.78","SANIRAJAK AIRPORT","2402356","2021-04-04 16:00","2021","04","04","16:00","-14.4","","-16.7","","83","","","","14","","37","","16.1","","102.25","","","","-26","","Blowing Snow"
"-81.24","68.78","SANIRAJAK AIRPORT","2402356","2021-04-04 17:00","2021","04","04","17:00","-14.0","","-16.0","","85","","","","12","","33","","3.2","","102.24","","","","-25","","Snow,Blowing Snow"
"-81.24","68.78","SANIRAJAK AIRPORT","2402356","2021-04-04 18:00","2021","04","04","18:00","-14.0","","-16.1","","84","","","","12","","39","","1.6","","102.19","","","","-26","","Snow,Blowing Snow"
"-81.24","68.78","SANIRAJAK AIRPORT","2402356","2021-04-04 19:00","2021","04","04","19:00","-14.1","","-16.0","","86","","","","11","","32","","1.6","","102.15","","","","-25","","Snow,Blowing Snow"
"-81.24","68.78","SANIRAJAK AIRPORT","2402356","2021-04-04 20:00","2021","04","04","20:00"
"-81.24","68.78","SANIRAJAK AIRPORT","2402356","2021-04-04 21:00","2021","04","04","21:00"
"-81.24","68.78","SANIRAJAK AIRPORT","2402356","2021-04-04 22:00","2021","04","04","22:00"
"-81.24","68.78","SANIRAJAK AIRPORT","2402356","2021-04-04 23:00","2021","04","04","23:00"
"-81.24","68.78","SANIRAJAK AIRPORT","2402356","2021-04-05 00:00","2021","04","05","00:00"
"-81.24","68.78","SANIRAJAK AIRPORT","2402356","2021-04-05 01:00","2021","04","05","01:00"
"-81.24","68.78","SANIRAJAK AIRPORT","2402356","2021-04-05 02:00","2021","04","05","02:00"
"-81.24","68.78","SANIRAJAK AIRPORT","2402356","2021-04-05 03:00","2021","04","05","03:00"
"-81.24","68.78","SANIRAJAK AIRPORT","2402356","2021-04-05 04:00","2021","04","05","04:00"
"-81.24","68.78","SANIRAJAK AIRPORT","2402356","2021-04-05 05:00","2021","04","05","05:00"
"-81.24","68.78","SANIRAJAK AIRPORT","2402356","2021-04-05 06:00","2021","04","05","06:00"
"-81.24","68.78","SANIRAJAK AIRPORT","2402356","2021-04-05 07:00","2021","04","05","07:00","-12.0","","-13.6","","88","","","","11","","27","","4.8","","101.54","","","","-22","","Snow,Blowing Snow"
"-81.24","68.78","SANIRAJAK AIRPORT","2402356","2021-04-05 08:00","2021","04","05","08:00","-11.3","","-12.9","","88","","","","11","","28","","4.8","","101.48","","","","-21","","Snow,Blowing Snow"
"-81.24","68.78","SANIRAJAK AIRPORT","2402356","2021-04-05 09:00","2021","04","05","09:00","-10.7","","-12.5","","87","","","","12","","27","","4.8","","101.44","","","","-20","","Snow,Blowing Snow"
"-81.24","68.78","SANIRAJAK AIRPORT","2402356","2021-04-05 10:00","2021","04","05","10:00","-10.1","","-12.0","","86","","","","12","","24","","9.7","","101.38","","","","-19","","Snow,Blowing Snow"
"-81.24","68.78","SANIRAJAK AIRPORT","2402356","2021-04-05 11:00","2021","04","05","11:00","-9.4","","-11.2","","87","","","","12","","23","","2.0","","101.35","","","","-18","","Snow,Blowing Snow"
"-81.24","68.78","SANIRAJAK AIRPORT","2402356","2021-04-05 12:00","2021","04","05","12:00","-8.6","","-10.4","","87","","","","14","","22","","4.8","","101.33","","","","-16","","Snow,Blowing Snow"
"-81.24","68.78","SANIRAJAK AIRPORT","2402356","2021-04-05 13:00","2021","04","05","13:00","-8.2","","-10.3","","85","","","","16","","21","","8.1","","101.37","","","","-16","","Snow,Blowing Snow"
"-81.24","68.78","SANIRAJAK AIRPORT","2402356","2021-04-05 14:00","2021","04","05","14:00","-10.5","","-12.9","","83","","","","20","","20","","9.7","","101.41","","","","-18","","Snow,Blowing Snow"
"-81.24","68.78","SANIRAJAK AIRPORT","2402356","2021-04-05 15:00","2021","04","05","15:00","-11.2","","-14.0","","80","","","","20","","17","","16.1","","101.44","","","","-19","","NA"
"-81.24","68.78","SANIRAJAK AIRPORT","2402356","2021-04-05 16:00","2021","04","05","16:00","-12.2","","-15.6","","76","","","","19","","16","","16.1","","101.51","","","","-20","","Mainly Clear"
"-81.24","68.78","SANIRAJAK AIRPORT","2402356","2021-04-05 17:00","2021","04","05","17:00","-13.4","","-16.6","","77","","","","17","","21","","16.1","","101.54","","","","-22","","Blowing Snow"
"-81.24","68.78","SANIRAJAK AIRPORT","2402356","2021-04-05 18:00","2021","04","05","18:00","-14.6","","-17.3","","80","","","","17","","22","","16.1","","101.59","","","","-24","","Blowing Snow"
"-81.24","68.78","SANIRAJAK AIRPORT","2402356","2021-04-05 19:00","2021","04","05","19:00","-15.7","","-17.8","","84","","","","17","","23","","16.1","","101.62","","","","-26","","Blowing Snow"
"-81.24","68.78","SANIRAJAK AIRPORT","2402356","2021-04-05 20:00","2021","04","05","20:00"
"-81.24","68.78","SANIRAJAK AIRPORT","2402356","2021-04-05 21:00","2021","04","05","21:00"
"-81.24","68.78","SANIRAJAK AIRPORT","2402356","2021-04-05 22:00","2021","04","05","22:00"
"-81.24","68.78","SANIRAJAK AIRPORT","2402356","2021-04-05 23:00","2021","04","05","23:00"
"-81.24","68.78","SANIRAJAK AIRPORT","2402356","2021-04-06 00:00","2021","04","06","00:00"
"-81.24","68.78","SANIRAJAK AIRPORT","2402356","2021-04-06 01:00","2021","04","06","01:00"
"-81.24","68.78","SANIRAJAK AIRPORT","2402356","2021-04-06 02:00","2021","04","06","02:00"
"-81.24","68.78","SANIRAJAK AIRPORT","2402356","2021-04-06 03:00","2021","04","06","03:00"
"-81.24","68.78","SANIRAJAK AIRPORT","2402356","2021-04-06 04:00","2021","04","06","04:00"
"-81.24","68.78","SANIRAJAK AIRPORT","2402356","2021-04-06 05:00","2021","04","06","05:00"
"-81.24","68.78","SANIRAJAK AIRPORT","2402356","2021-04-06 06:00","2021","04","06","06:00"
"-81.24","68.78","SANIRAJAK AIRPORT","2402356","2021-04-06 07:00","2021","04","06","07:00","-19.2","","-21.3","","84","","","","24","","10","","16.1","","102.32","","","","-26","","Mostly Cloudy"
"-81.24","68.78","SANIRAJAK AIRPORT","2402356","2021-04-06 08:00","2021","04","06","08:00","-19.5","","-21.2","","87","","","","21","","11","","16.1","","102.38","","","","-27","","NA"
"-81.24","68.78","SANIRAJAK AIRPORT","2402356","2021-04-06 09:00","2021","04","06","09:00","-18.1","","-20.7","","80","","","","22","","10","","16.1","","102.44","","","","-25","","NA"
"-81.24","68.78","SANIRAJAK AIRPORT","2402356","2021-04-06 10:00","2021","04","06","10:00","-17.6","","-20.1","","81","","","","23","","11","","16.1","","102.49","","","","-25","","Clear"
"-81.24","68.78","SANIRAJAK AIRPORT","2402356","2021-04-06 11:00","2021","04","06","11:00","-17.4","","-20.2","","79","","","","23","","9","","16.1","","102.56","","","","-24","","NA"
"-81.24","68.78","SANIRAJAK AIRPORT","2402356","2021-04-06 12:00","2021","04","06","12:00","-16.7","","-19.5","","79","","","","26","","5","","16.1","","102.59","","","","-21","","NA"
"-81.24","68.78","SANIRAJAK AIRPORT","2402356","2021-04-06 13:00","2021","04","06","13:00","-16.2","","-19.4","","77","","","","23","","5","","16.1","","102.63","","","","-20","","Clear"
"-81.24","68.78","SANIRAJAK AIRPORT","2402356","2021-04-06 14:00","2021","04","06","14:00","-16.1","","-19.2","","77","","","","22","","3","","16.1","","102.66","","","","-18","","NA"
"-81.24","68.78","SANIRAJAK AIRPORT","2402356","2021-04-06 15:00","2021","04","06","15:00","-16.6","","-19.4","","79","","","","36","","2","","16.1","","102.73","","","","-18","","NA"
"-81.24","68.78","SANIRAJAK AIRPORT","2402356","2021-04-06 16:00","2021","04","06","16:00","-16.8","","-19.5","","80","","","","36","","1","","16.1","","102.77","","","","-18","","Mainly Clear"
"-81.24","68.78","SANIRAJAK AIRPORT","2402356","2021-04-06 17:00","2021","04","06","17:00","-17.3","","-19.8","","81","","","","12","","5","","16.1","","102.79","","","","-21","","NA"
"-81.24","68.78","SANIRAJAK AIRPORT","2402356","2021-04-06 18:00","2021","04","06","18:00","-16.1","","-18.0","","86","","","","9","","8","","16.1","","102.79","","","","-22","","NA"
"-81.24","68.78","SANIRAJAK AIRPORT","2402356","2021-04-06 19:00","2021","04","06","19:00","-17.3","","-19.0","","87","","","","9","","12","","16.1","","102.76","","","","-25","","Mostly Cloudy"
"-81.24","68.78","SANIRAJAK AIRPORT","2402356","2021-04-06 20:00","2021","04","06","20:00"
"-81.24","68.78","SANIRAJAK AIRPORT","2402356","2021-04-06 21:00","2021","04","06","21:00"
"-81.24","68.78","SANIRAJAK AIRPORT","2402356","2021-04-06 22:00","2021","04","06","22:00"
"-81.24","68.78","SANIRAJAK AIRPORT","2402356","2021-04-06 23:00","2021","04","06","23:00"
"-81.24","68.78","SANIRAJAK AIRPORT","2402356","2021-04-07 00:00","2021","04","07","00:00"
"-81.24","68.78","SANIRAJAK AIRPORT","2402356","2021-04-07 01:00","2021","04","07","01:00"
"-81.24","68.78","SANIRAJAK AIRPORT","2402356","2021-04-07 02:00","2021","04","07","02:00"
"-81.24","68.78","SANIRAJAK AIRPORT","2402356","2021-04-07 03:00","2021","04","07","03:00"
"-81.24","68.78","SANIRAJAK AIRPORT","2402356","2021-04-07 04:00","2021","04","07","04:00"
"-81.24","68.78","SANIRAJAK AIRPORT","2402356","2021-04-07 05:00","2021","04","07","05:00"
"-81.24","68.78","SANIRAJAK AIRPORT","2402356","2021-04-07 06:00","2021","04","07","06:00"
"-81.24","68.78","SANIRAJAK AIRPORT","2402356","2021-04-07 07:00","2021","04","07","07:00","-11.7","","-13.2","","89","","","","7","","24","","16.1","","102.00","","","","-21","","Blowing Snow"
"-81.24","68.78","SANIRAJAK AIRPORT","2402356","2021-04-07 08:00","2021","04","07","08:00","-11.4","","-13.2","","87","","","","7","","27","","16.1","","101.87","","","","-21","","Blowing Snow"
"-81.24","68.78","SANIRAJAK AIRPORT","2402356","2021-04-07 09:00","2021","04","07","09:00","-10.8","","-12.7","","86","","","","7","","30","","16.1","","101.79","","","","-21","","Blowing Snow"
"-81.24","68.78","SANIRAJAK AIRPORT","2402356","2021-04-07 10:00","2021","04","07","10:00","-10.3","","-12.4","","85","","","","8","","30","","16.1","","101.74","","","","-20","","Blowing Snow"
"-81.24","68.78","SANIRAJAK AIRPORT","2402356","2021-04-07 11:00","2021","04","07","11:00","-9.5","","-11.7","","84","","","","7","","24","","16.1","","101.62","","","","-18","","Blowing Snow"
"-81.24","68.78","SANIRAJAK AIRPORT","2402356","2021-04-07 12:00","2021","04","07","12:00","-9.3","","-11.5","","84","","","","7","","21","","16.1","","101.51","","","","-17","","Blowing Snow"
"-81.24","68.78","SANIRAJAK AIRPORT","2402356","2021-04-07 13:00","2021","04","07","13:00","-8.6","","-10.8","","84","","","","7","","27","","16.1","","101.43","","","","-17","","Blowing Snow"
"-81.24","68.78","SANIRAJAK AIRPORT","2402356","2021-04-07 14:00","2021","04","07","14:00","-7.7","","-9.8","","85","","","","9","","24","","16.1","","101.36","","","","-16","","Blowing Snow"
"-81.24","68.78","SANIRAJAK AIRPORT","2402356","2021-04-07 15:00","2021","04","07","15:00","-7.4","","-9.5","","85","","","","7","","26","","16.1","","101.29","","","","-16","","Blowing Snow"
"-81.24","68.78","SANIRAJAK AIRPORT","2402356","2021-04-07 16:00","2021","04","07","16:00","-7.5","","-8.7","","91","","","","6","","26","","1.6","","101.22","","","","-16","","Snow,Blowing Snow"
"-81.24","68.78","SANIRAJAK AIRPORT","2402356","2021-04-07 17:00","2021","04","07","17:00","-7.3","","-8.4","","92","","","","5","","26","","0.8","","101.15","","","","-15","","Moderate Snow,Blowing Snow"
"-81.24","68.78","SANIRAJAK AIRPORT","2402356","2021-04-07 18:00","2021","04","07","18:00","-7.0","","-8.0","","93","","","","5","","24","","1.2","","101.08","","","","-15","","Snow,Blowing Snow"
"-81.24","68.78","SANIRAJAK AIRPORT","2402356","2021-04-07 19:00","2021","04","07","19:00","-6.7","","-7.7","","93","","","","4","","28","","1.6","","101.04","","","","-15","","Snow,Blowing Snow"
"-81.24","68.78","SANIRAJAK AIRPORT","2402356","2021-04-07 20:00","2021","04","07","20:00"
"-81.24","68.78","SANIRAJAK AIRPORT","2402356","2021-04-07 21:00","2021","04","07","21:00"
"-81.24","68.78","SANIRAJAK AIRPORT","2402356","2021-04-07 22:00","2021","04","07","22:00"
"-81.24","68.78","SANIRAJAK AIRPORT","2402356","2021-04-07 23:00","2021","04","07","23:00"
"-81.24","68.78","SANIRAJAK AIRPORT","2402356","2021-04-08 00:00","2021","04","08","00:00"
"-81.24","68.78","SANIRAJAK AIRPORT","2402356","2021-04-08 01:00","2021","04","08","01:00"
"-81.24","68.78","SANIRAJAK AIRPORT","2402356","2021-04-08 02:00","2021","04","08","02:00","-7.7","","-8.6","","93","","","","1","","34","","2.0","","100.74","","","","-17","","Snow,Blowing Snow"
"-81.24","68.78","SANIRAJAK AIRPORT","2402356","2021-04-08 03:00","2021","04","08","03:00","-7.8","","-8.7","","93","","","","1","","30","","3.2","","100.76","","","","-17","","Snow,Blowing Snow"
"-81.24","68.78","SANIRAJAK AIRPORT","2402356","2021-04-08 04:00","2021","04","08","04:00","-8.6","","-9.7","","92","","","","36","","40","","2.4","","100.79","","","","-19","","Snow,Blowing Snow"
"-81.24","68.78","SANIRAJAK AIRPORT","2402356","2021-04-08 05:00","2021","04","08","05:00","-9.4","","-10.6","","91","","","","36","","41","","2.0","","100.85","","","","-20","","Snow,Blowing Snow"
"-81.24","68.78","SANIRAJAK AIRPORT","2402356","2021-04-08 06:00","2021","04","08","06:00","-10.0","","-11.2","","91","","","","36","","45","","1.0","","100.88","","","","-21","","Snow,Blowing Snow"
"-81.24","68.78","SANIRAJAK AIRPORT","2402356","2021-04-08 07:00","2021","04","08","07:00","-10.3","","-11.6","","90","","","","35","","48","","1.0","","100.95","","","","-22","","Snow,Blowing Snow"
"-81.24","68.78","SANIRAJAK AIRPORT","2402356","2021-04-08 08:00","2021","04","08","08:00","-10.5","","-11.8","","90","","","","35","","52","","0.4","","101.03","","","","-23","","Snow,Blowing Snow"
"-81.24","68.78","SANIRAJAK AIRPORT","2402356","2021-04-08 09:00","2021","04","08","09:00","-10.7","","-12.2","","89","","","","35","","46","","0.4","","101.06","","","","-22","","Snow,Blowing Snow"
"-81.24","68.78","SANIRAJAK AIRPORT","2402356","2021-04-08 10:00","2021","04","08","10:00","-10.7","","-12.3","","88","","","","35","","48","","1.0","","101.12","","","","-23","","Snow,Blowing Snow"
"-81.24","68.78","SANIRAJAK AIRPORT","2402356","2021-04-08 11:00","2021","04","08","11:00","-10.4","","-12.2","","87","","","","34","","46","","1.0","","101.18","","","","-22","","Snow,Blowing Snow"
"-81.24","68.78","SANIRAJAK AIRPORT","2402356","2021-04-08 12:00","2021","04","08","12:00","-10.1","","-12.0","","86","","","","34","","43","","2.0","","101.25","","","","-21","","Blowing Snow"
"-81.24","68.78","SANIRAJAK AIRPORT","2402356","2021-04-08 13:00","2021","04","08","13:00","-10.3","","-12.1","","87","","","","33","","50","","1.0","","101.32","","","","-22","","Blowing Snow"
"-81.24","68.78","SANIRAJAK AIRPORT","2402356","2021-04-08 14:00","2021","04","08","14:00","-10.5","","-12.4","","86","","","","33","","48","","1.2","","101.41","","","","-22","","Blowing Snow"
"-81.24","68.78","SANIRAJAK AIRPORT","2402356","2021-04-08 15:00","2021","04","08","15:00","-10.5","","-12.4","","86","","","","33","","43","","4.8","","101.50","","","","-22","","Blowing Snow"
"-81.24","68.78","SANIRAJAK AIRPORT","2402356","2021-04-08 16:00","2021","04","08","16:00","-11.9","","-13.9","","85","","","","32","","43","","9.7","","101.58","","","","-24","","Blowing Snow"
"-81.24","68.78","SANIRAJAK AIRPORT","2402356","2021-04-08 17:00","2021","04","08","17:00","-12.7","","-14.7","","85","","","","32","","46","","3.2","","101.66","","","","-25","","Blowing Snow"
"-81.24","68.78","SANIRAJAK AIRPORT","2402356","2021-04-08 18:00","2021","04","08","18:00","-13.8","","-15.8","","85","","","","32","","40","","4.8","","101.75","","","","-26","","Blowing Snow"
"-81.24","68.78","SANIRAJAK AIRPORT","2402356","2021-04-08 19:00","2021","04","08","19:00","-15.0","","-17.0","","85","","","","31","","34","","4.8","","101.86","","","","-27","","Blowing Snow"
"-81.24","68.78","SANIRAJAK AIRPORT","2402356","2021-04-08 20:00","2021","04","08","20:00"
"-81.24","68.78","SANIRAJAK AIRPORT","2402356","2021-04-08 21:00","2021","04","08","21:00"
"-81.24","68.78","SANIRAJAK AIRPORT","2402356","2021-04-08 22:00","2021","04","08","22:00"
"-81.24","68.78","SANIRAJAK AIRPORT","2402356","2021-04-08 23:00","2021","04","08","23:00"
"-81.24","68.78","SANIRAJAK AIRPORT","2402356","2021-04-09 00:00","2021","04","09","00:00"
"-81.24","68.78","SANIRAJAK AIRPORT","2402356","2021-04-09 01:00","2021","04","09","01:00"
"-81.24","68.78","SANIRAJAK AIRPORT","2402356","2021-04-09 02:00","2021","04","09","02:00"
"-81.24","68.78","SANIRAJAK AIRPORT","2402356","2021-04-09 03:00","2021","04","09","03:00"
"-81.24","68.78","SANIRAJAK AIRPORT","2402356","2021-04-09 04:00","2021","04","09","04:00"
"-81.24","68.78","SANIRAJAK AIRPORT","2402356","2021-04-09 05:00","2021","04","09","05:00"
"-81.24","68.78","SANIRAJAK AIRPORT","2402356","2021-04-09 06:00","2021","04","09","06:00"
"-81.24","68.78","SANIRAJAK AIRPORT","2402356","2021-04-09 07:00","2021","04","09","07:00","-19.8","","-22.1","","82","","","","23","","8","","16.1","","102.24","","","","-26","","Mostly Cloudy"
"-81.24","68.78","SANIRAJAK AIRPORT","2402356","2021-04-09 08:00","2021","04","09","08:00","-17.2","","-19.6","","82","","","","17","","10","","16.1","","102.18","","","","-24","","NA"
"-81.24","68.78","SANIRAJAK AIRPORT","2402356","2021-04-09 09:00","2021","04","09","09:00","-13.0","","-15.5","","82","","","","18","","20","","16.1","","102.16","","","","-22","","NA"
"-81.24","68.78","SANIRAJAK AIRPORT","2402356","2021-04-09 10:00","2021","04","09","10:00","-12.2","","-14.5","","83","","","","17","","23","","4.8","","102.11","","","","-21","","Snow,Blowing Snow"
"-81.24","68.78","SANIRAJAK AIRPORT","2402356","2021-04-09 11:00","2021","04","09","11:00","-11.2","","-13.2","","85","","","","16","","28","","4.8","","102.04","","","","-21","","Snow,Heavy Ice Pellet Showers,Blowing Snow"
"-81.24","68.78","SANIRAJAK AIRPORT","2402356","2021-04-09 12:00","2021","04","09","12:00","-10.6","","-12.7","","85","","","","16","","34","","9.7","","101.97","","","","-21","","Snow,Blowing Snow"
"-81.24","68.78","SANIRAJAK AIRPORT","2402356","2021-04-09 13:00","2021","04","09","13:00","-10.0","","-12.4","","83","","","","17","","38","","9.7","","101.92","","","","-21","","Snow,Blowing Snow"
"-81.24","68.78","SANIRAJAK AIRPORT","2402356","2021-04-09 14:00","2021","04","09","14:00","-9.6","","-11.8","","84","","","","17","","40","","6.4","","101.84","","","","-20","","Snow,Blowing Sand"
"-81.24","68.78","SANIRAJAK AIRPORT","2402356","2021-04-09 15:00","2021","04","09","15:00","-9.0","","-11.1","","85","","","","17","","43","","4.8","","101.77","","","","-20","","Snow,Blowing Snow"
"-81.24","68.78","SANIRAJAK AIRPORT","2402356","2021-04-09 16:00","2021","04","09","16:00","-8.4","","-10.6","","84","","","","17","","47","","4.8","","101.73","","","","-19","","Snow,Blowing Snow"
"-81.24","68.78","SANIRAJAK AIRPORT","2402356","2021-04-09 17:00","2021","04","09","17:00","-8.0","","-10.1","","85","","","","18","","44","","3.2","","101.66","","","","-18","","Snow,Blowing Snow"
"-81.24","68.78","SANIRAJAK AIRPORT","2402356","2021-04-09 18:00","2021","04","09","18:00","-7.8","","-10.0","","84","","","","18","","40","","4.8","","101.67","","","","-18","","Snow,Blowing Snow"
"-81.24","68.78","SANIRAJAK AIRPORT","2402356","2021-04-09 19:00","2021","04","09","19:00","-7.2","","-9.4","","85","","","","19","","34","","16.1","","101.66","","","","-16","","Snow,Blowing Snow"
"-81.24","68.78","SANIRAJAK AIRPORT","2402356","2021-04-09 20:00","2021","04","09","20:00"
"-81.24","68.78","SANIRAJAK AIRPORT","2402356","2021-04-09 21:00","2021","04","09","21:00"
"-81.24","68.78","SANIRAJAK AIRPORT","2402356","2021-04-09 22:00","2021","04","09","22:00"
"-81.24","68.78","SANIRAJAK AIRPORT","2402356","2021-04-09 23:00","2021","04","09","23:00"
"-81.24","68.78","SANIRAJAK AIRPORT","2402356","2021-04-10 00:00","2021","04","10","00:00"
"-81.24","68.78","SANIRAJAK AIRPORT","2402356","2021-04-10 01:00","2021","04","10","01:00"
"-81.24","68.78","SANIRAJAK AIRPORT","2402356","2021-04-10 02:00","2021","04","10","02:00"
"-81.24","68.78","SANIRAJAK AIRPORT","2402356","2021-04-10 03:00","2021","04","10","03:00"
"-81.24","68.78","SANIRAJAK AIRPORT","2402356","2021-04-10 04:00","2021","04","10","04:00"
"-81.24","68.78","SANIRAJAK AIRPORT","2402356","2021-04-10 05:00","2021","04","10","05:00"
"-81.24","68.78","SANIRAJAK AIRPORT","2402356","2021-04-10 06:00","2021","04","10","06:00"
"-81.24","68.78","SANIRAJAK AIRPORT","2402356","2021-04-10 07:00","2021","04","10","07:00","-6.1","","-7.0","","93","","","","18","","17","","4.8","","101.89","","","","-12","","Snow"
"-81.24","68.78","SANIRAJAK AIRPORT","2402356","2021-04-10 08:00","2021","04","10","08:00","-5.6","","-6.6","","93","","","","19","","18","","2.4","","101.85","","","","-12","","Snow"
"-81.24","68.78","SANIRAJAK AIRPORT","2402356","2021-04-10 09:00","2021","04","10","09:00","-5.4","","-6.6","","91","","","","17","","18","","4.8","","101.86","","","","-12","","Snow,Blowing Snow"
"-81.24","68.78","SANIRAJAK AIRPORT","2402356","2021-04-10 10:00","2021","04","10","10:00","-5.5","","-6.9","","90","","","","15","","25","","9.7","","101.85","","","","-13","","Snow,Blowing Snow"
"-81.24","68.78","SANIRAJAK AIRPORT","2402356","2021-04-10 11:00","2021","04","10","11:00","-5.5","","-7.2","","88","","","","14","","23","","16.1","","101.78","","","","-13","","Blowing Snow"
"-81.24","68.78","SANIRAJAK AIRPORT","2402356","2021-04-10 12:00","2021","04","10","12:00","-5.3","","-7.0","","88","","","","13","","24","","16.1","","101.71","","","","-13","","Blowing Snow"
"-81.24","68.78","SANIRAJAK AIRPORT","2402356","2021-04-10 13:00","2021","04","10","13:00","-4.9","","-6.4","","89","","","","12","","26","","2.0","","101.64","","","","-12","","Snow,Blowing Snow"
"-81.24","68.78","SANIRAJAK AIRPORT","2402356","2021-04-10 14:00","2021","04","10","14:00","-4.8","","-5.9","","92","","","","10","","26","","2.0","","101.47","","","","-12","","Snow,Blowing Snow"
"-81.24","68.78","SANIRAJAK AIRPORT","2402356","2021-04-10 15:00","2021","04","10","15:00","-4.4","","-5.5","","92","","","","12","","39","","1.6","","101.32","","","","-13","","Snow,Blowing Snow"
"-81.24","68.78","SANIRAJAK AIRPORT","2402356","2021-04-10 16:00","2021","04","10","16:00","-4.6","","-5.6","","93","","","","12","","36","","1.6","","101.22","","","","-13","","Snow,Blowing Snow"
"-81.24","68.78","SANIRAJAK AIRPORT","2402356","2021-04-10 17:00","2021","04","10","17:00","-4.6","","-5.4","","94","","","","13","","33","","3.2","","101.12","","","","-13","","Freezing Rain,Snow,Blowing Snow"
"-81.24","68.78","SANIRAJAK AIRPORT","2402356","2021-04-10 18:00","2021","04","10","18:00","-4.0","","-4.8","","94","","","","15","","39","","4.8","","101.02","","","","-13","","Freezing Rain,Snow,Fog,Blowing Snow"
"-81.24","68.78","SANIRAJAK AIRPORT","2402356","2021-04-10 19:00","2021","04","10","19:00","-4.7","","-6.0","","91","","","","14","","38","","6.4","","100.92","","","","-13","","Snow,Blowing Snow"
"-81.24","68.78","SANIRAJAK AIRPORT","2402356","2021-04-10 20:00","2021","04","10","20:00"
"-81.24","68.78","SANIRAJAK AIRPORT","2402356","2021-04-10 21:00","2021","04","10","21:00"
"-81.24","68.78","SANIRAJAK AIRPORT","2402356","2021-04-10 22:00","2021","04","10","22:00"
"-81.24","68.78","SANIRAJAK AIRPORT","2402356","2021-04-10 23:00","2021","04","10","23:00"
"-81.24","68.78","SANIRAJAK AIRPORT","2402356","2021-04-11 00:00","2021","04","11","00:00"
"-81.24","68.78","SANIRAJAK AIRPORT","2402356","2021-04-11 01:00","2021","04","11","01:00"
"-81.24","68.78","SANIRAJAK AIRPORT","2402356","2021-04-11 02:00","2021","04","11","02:00"
"-81.24","68.78","SANIRAJAK AIRPORT","2402356","2021-04-11 03:00","2021","04","11","03:00"
"-81.24","68.78","SANIRAJAK AIRPORT","2402356","2021-04-11 04:00","2021","04","11","04:00"
"-81.24","68.78","SANIRAJAK AIRPORT","2402356","2021-04-11 05:00","2021","04","11","05:00"
"-81.24","68.78","SANIRAJAK AIRPORT","2402356","2021-04-11 06:00","2021","04","11","06:00"
"-81.24","68.78","SANIRAJAK AIRPORT","2402356","2021-04-11 07:00","2021","04","11","07:00","-6.9","","-8.0","","92","","","","30","","27","","16.1","","100.97","","","","-15","","Blowing Snow"
"-81.24","68.78","SANIRAJAK AIRPORT","2402356","2021-04-11 08:00","2021","04","11","08:00","-9.1","","-10.6","","89","","","","30","","29","","16.1","","101.06","","","","-18","","Blowing Snow"
"-81.24","68.78","SANIRAJAK AIRPORT","2402356","2021-04-11 09:00","2021","04","11","09:00","-9.7","","-11.5","","87","","","","30","","29","","16.1","","101.15","","","","-19","","Blowing Snow"
"-81.24","68.78","SANIRAJAK AIRPORT","2402356","2021-04-11 10:00","2021","04","11","10:00","-10.1","","-12.0","","86","","","","30","","32","","16.1","","101.27","","","","-20","","Blowing Snow"
"-81.24","68.78","SANIRAJAK AIRPORT","2402356","2021-04-11 11:00","2021","04","11","11:00","-10.8","","-12.8","","85","","","","30","","35","","16.1","","101.34","","","","-21","","Blowing Snow"
"-81.24","68.78","SANIRAJAK AIRPORT","2402356","2021-04-11 12:00","2021","04","11","12:00","-10.4","","-12.8","","83","","","","30","","34","","16.1","","101.42","","","","-21","","Blowing Snow"
"-81.24","68.78","SANIRAJAK AIRPORT","2402356","2021-04-11 13:00","2021","04","11","13:00","-10.3","","-12.7","","83","","","","31","","33","","16.1","","101.51","","","","-20","","Blowing Snow"
"-81.24","68.78","SANIRAJAK AIRPORT","2402356","2021-04-11 14:00","2021","04","11","14:00","-10.5","","-12.6","","85","","","","30","","34","","16.1","","101.57","","","","-21","","Blowing Snow"
"-81.24","68.78","SANIRAJAK AIRPORT","2402356","2021-04-11 15:00","2021","04","11","15:00","-10.0","","-12.3","","83","","","","31","","32","","16.1","","101.64","","","","-20","","Blowing Snow"
"-81.24","68.78","SANIRAJAK AIRPORT","2402356","2021-04-11 16:00","2021","04","11","16:00","-10.8","","-12.8","","85","","","","31","","28","","16.1","","101.74","","","","-20","","Blowing Snow"
"-81.24","68.78","SANIRAJAK AIRPORT","2402356","2021-04-11 17:00","2021","04","11","17:00","-10.6","","-12.7","","85","","","","31","","28","","16.1","","101.83","","","","-20","","Blowing Snow"
"-81.24","68.78","SANIRAJAK AIRPORT","2402356","2021-04-11 18:00","2021","04","11","18:00","-11.4","","-13.4","","85","","","","31","","35","","16.1","","101.91","","","","-22","","Blowing Snow"
"-81.24","68.78","SANIRAJAK AIRPORT","2402356","2021-04-11 19:00","2021","04","11","19:00","-12.0","","-14.0","","85","","","","31","","32","","16.1","","102.01","","","","-22","","Blowing Snow"
"-81.24","68.78","SANIRAJAK AIRPORT","2402356","2021-04-11 20:00","2021","04","11","20:00"
"-81.24","68.78","SANIRAJAK AIRPORT","2402356","2021-04-11 21:00","2021","04","11","21:00"
"-81.24","68.78","SANIRAJAK AIRPORT","2402356","2021-04-11 22:00","2021","04","11","22:00"
"-81.24","68.78","SANIRAJAK AIRPORT","2402356","2021-04-11 23:00","2021","04","11","23:00"
"-81.24","68.78","SANIRAJAK AIRPORT","2402356","2021-04-12 00:00","2021","04","12","00:00"
"-81.24","68.78","SANIRAJAK AIRPORT","2402356","2021-04-12 01:00","2021","04","12","01:00"
"-81.24","68.78","SANIRAJAK AIRPORT","2402356","2021-04-12 02:00","2021","04","12","02:00"
"-81.24","68.78","SANIRAJAK AIRPORT","2402356","2021-04-12 03:00","2021","04","12","03:00"
"-81.24","68.78","SANIRAJAK AIRPORT","2402356","2021-04-12 04:00","2021","04","12","04:00"
"-81.24","68.78","SANIRAJAK AIRPORT","2402356","2021-04-12 05:00","2021","04","12","05:00"
"-81.24","68.78","SANIRAJAK AIRPORT","2402356","2021-04-12 06:00","2021","04","12","06:00"
"-81.24","68.78","SANIRAJAK AIRPORT","2402356","2021-04-12 07:00","2021","04","12","07:00","-15.4","","-17.7","","83","","","","32","","22","","16.1","","102.56","","","","-25","","Snow,Blowing Snow"
"-81.24","68.78","SANIRAJAK AIRPORT","2402356","2021-04-12 08:00","2021","04","12","08:00","-15.8","","-18.4","","81","","","","32","","28","","16.1","","102.58","","","","-27","","Snow,Blowing Snow"
"-81.24","68.78","SANIRAJAK AIRPORT","2402356","2021-04-12 09:00","2021","04","12","09:00","-16.2","","-18.8","","81","","","","32","","31","","9.7","","102.62","","","","-28","","Snow,Blowing Snow"
"-81.24","68.78","SANIRAJAK AIRPORT","2402356","2021-04-12 10:00","2021","04","12","10:00","-16.2","","-18.8","","81","","","","31","","30","","9.7","","102.64","","","","-28","","Snow,Blowing Snow"
"-81.24","68.78","SANIRAJAK AIRPORT","2402356","2021-04-12 11:00","2021","04","12","11:00","-16.1","","-18.6","","81","","","","31","","29","","4.8","","102.65","","","","-27","","Snow,Blowing Snow"
"-81.24","68.78","SANIRAJAK AIRPORT","2402356","2021-04-12 12:00","2021","04","12","12:00","-16.8","","-19.4","","81","","","","31","","36","","4.8","","102.69","","","","-29","","Snow,Blowing Snow"
"-81.24","68.78","SANIRAJAK AIRPORT","2402356","2021-04-12 13:00","2021","04","12","13:00","-17.2","","-19.9","","80","","","","31","","35","","4.8","","102.73","","","","-30","","Blowing Snow"
"-81.24","68.78","SANIRAJAK AIRPORT","2402356","2021-04-12 14:00","2021","04","12","14:00","-17.8","","-20.6","","79","","","","31","","40","","2.4","","102.76","","","","-31","","Snow,Blowing Snow"
"-81.24","68.78","SANIRAJAK AIRPORT","2402356","2021-04-12 15:00","2021","04","12","15:00","-18.4","","-21.2","","79","","","","31","","41","","2.4","","102.83","","","","-32","","Blowing Snow"
"-81.24","68.78","SANIRAJAK AIRPORT","2402356","2021-04-12 16:00","2021","04","12","16:00","-18.2","","-20.8","","80","","","","32","","43","","2.0","","102.89","","","","-32","","Snow,Blowing Snow"
"-81.24","68.78","SANIRAJAK AIRPORT","2402356","2021-04-12 17:00","2021","04","12","17:00","-18.4","","-20.9","","81","","","","31","","45","","2.0","","102.96","","","","-33","","Snow,Blowing Snow"
"-81.24","68.78","SANIRAJAK AIRPORT","2402356","2021-04-12 18:00","2021","04","12","18:00","-18.4","","-20.9","","81","","","","31","","41","","3.2","","103.00","","","","-32","","Snow,Blowing Snow"
"-81.24","68.78","SANIRAJAK AIRPORT","2402356","2021-04-12 19:00","2021","04","12","19:00","-18.4","","-20.9","","81","","","","31","","47","","1.2","","102.99","","","","-33","","Snow,Blowing Snow"
"-81.24","68.78","SANIRAJAK AIRPORT","2402356","2021-04-12 20:00","2021","04","12","20:00"
"-81.24","68.78","SANIRAJAK AIRPORT","2402356","2021-04-12 21:00","2021","04","12","21:00"
"-81.24","68.78","SANIRAJAK AIRPORT","2402356","2021-04-12 22:00","2021","04","12","22:00"
"-81.24","68.78","SANIRAJAK AIRPORT","2402356","2021-04-12 23:00","2021","04","12","23:00"
"-81.24","68.78","SANIRAJAK AIRPORT","2402356","2021-04-13 00:00","2021","04","13","00:00"
"-81.24","68.78","SANIRAJAK AIRPORT","2402356","2021-04-13 01:00","2021","04","13","01:00"
"-81.24","68.78","SANIRAJAK AIRPORT","2402356","2021-04-13 02:00","2021","04","13","02:00"
"-81.24","68.78","SANIRAJAK AIRPORT","2402356","2021-04-13 03:00","2021","04","13","03:00"
"-81.24","68.78","SANIRAJAK AIRPORT","2402356","2021-04-13 04:00","2021","04","13","04:00"
"-81.24","68.78","SANIRAJAK AIRPORT","2402356","2021-04-13 05:00","2021","04","13","05:00"
"-81.24","68.78","SANIRAJAK AIRPORT","2402356","2021-04-13 06:00","2021","04","13","06:00"
"-81.24","68.78","SANIRAJAK AIRPORT","2402356","2021-04-13 07:00","2021","04","13","07:00","-24.1","","-27.5","","74","","","","30","","28","","16.1","","103.49","","","","-38","","Blowing Snow"
"-81.24","68.78","SANIRAJAK AIRPORT","2402356","2021-04-13 08:00","2021","04","13","08:00","-23.0","","-26.6","","73","","","","32","","23","","16.1","","103.52","","","","-35","","Blowing Snow"
"-81.24","68.78","SANIRAJAK AIRPORT","2402356","2021-04-13 09:00","2021","04","13","09:00","-22.2","","-25.8","","73","","","","31","","26","","16.1","","103.55","","","","-35","","Blowing Snow"
"-81.24","68.78","SANIRAJAK AIRPORT","2402356","2021-04-13 10:00","2021","04","13","10:00","-21.4","","-24.9","","74","","","","31","","36","","16.1","","103.55","","","","-35","","Blowing Snow"
"-81.24","68.78","SANIRAJAK AIRPORT","2402356","2021-04-13 11:00","2021","04","13","11:00","-21.0","","-24.3","","75","","","","32","","37","","16.1","","103.55","","","","-35","","Blowing Snow"
"-81.24","68.78","SANIRAJAK AIRPORT","2402356","2021-04-13 12:00","2021","04","13","12:00","-20.2","","-23.6","","75","","","","31","","40","","16.1","","103.59","","","","-34","","Blowing Snow"
"-81.24","68.78","SANIRAJAK AIRPORT","2402356","2021-04-13 13:00","2021","04","13","13:00","-19.7","","-23.1","","75","","","","31","","37","","16.1","","103.65","","","","-33","","Blowing Snow"
"-81.24","68.78","SANIRAJAK AIRPORT","2402356","2021-04-13 14:00","2021","04","13","14:00","-19.7","","-23.1","","75","","","","31","","38","","16.1","","103.66","","","","-33","","Blowing Snow"
"-81.24","68.78","SANIRAJAK AIRPORT","2402356","2021-04-13 15:00","2021","04","13","15:00","-19.8","","-23.2","","75","","","","32","","36","","16.1","","103.67","","","","-33","","Blowing Snow"
"-81.24","68.78","SANIRAJAK AIRPORT","2402356","2021-04-13 16:00","2021","04","13","16:00","-19.9","","-23.4","","74","","","","32","","25","","16.1","","103.72","","","","-31","","Blowing Snow"
"-81.24","68.78","SANIRAJAK AIRPORT","2402356","2021-04-13 17:00","2021","04","13","17:00","-20.3","","-24.0","","73","","","","31","","23","","16.1","","103.75","","","","-32","","Blowing Snow"
"-81.24","68.78","SANIRAJAK AIRPORT","2402356","2021-04-13 18:00","2021","04","13","18:00","-21.2","","-24.8","","73","","","","31","","31","","16.1","","103.75","","","","-34","","Blowing Snow"
"-81.24","68.78","SANIRAJAK AIRPORT","2402356","2021-04-13 19:00","2021","04","13","19:00","-22.5","","-26.0","","73","","","","31","","20","","16.1","","103.76","","","","-34","","Blowing Snow"
"-81.24","68.78","SANIRAJAK AIRPORT","2402356","2021-04-13 20:00","2021","04","13","20:00"
"-81.24","68.78","SANIRAJAK AIRPORT","2402356","2021-04-13 21:00","2021","04","13","21:00"
"-81.24","68.78","SANIRAJAK AIRPORT","2402356","2021-04-13 22:00","2021","04","13","22:00"
"-81.24","68.78","SANIRAJAK AIRPORT","2402356","2021-04-13 23:00","2021","04","13","23:00"
"-81.24","68.78","SANIRAJAK AIRPORT","2402356","2021-04-14 00:00","2021","04","14","00:00"
"-81.24","68.78","SANIRAJAK AIRPORT","2402356","2021-04-14 01:00","2021","04","14","01:00"
"-81.24","68.78","SANIRAJAK AIRPORT","2402356","2021-04-14 02:00","2021","04","14","02:00"
"-81.24","68.78","SANIRAJAK AIRPORT","2402356","2021-04-14 03:00","2021","04","14","03:00"
"-81.24","68.78","SANIRAJAK AIRPORT","2402356","2021-04-14 04:00","2021","04","14","04:00"
"-81.24","68.78","SANIRAJAK AIRPORT","2402356","2021-04-14 05:00","2021","04","14","05:00"
"-81.24","68.78","SANIRAJAK AIRPORT","2402356","2021-04-14 06:00","2021","04","14","06:00"
"-81.24","68.78","SANIRAJAK AIRPORT","2402356","2021-04-14 07:00","2021","04","14","07:00","-27.9","","-30.9","","76","","","","29","","11","","16.1","","103.83","","","","-37","","Clear"
"-81.24","68.78","SANIRAJAK AIRPORT","2402356","2021-04-14 08:00","2021","04","14","08:00","-26.5","","-29.6","","76","","","","30","","11","","16.1","","103.85","","","","-35","","NA"
"-81.24","68.78","SANIRAJAK AIRPORT","2402356","2021-04-14 09:00","2021","04","14","09:00","-24.5","","-27.7","","75","","","","30","","15","","16.1","","103.82","","","","-35","","NA"
"-81.24","68.78","SANIRAJAK AIRPORT","2402356","2021-04-14 10:00","2021","04","14","10:00","-22.9","","-26.3","","74","","","","31","","15","","16.1","","103.81","","","","-33","","Clear"
"-81.24","68.78","SANIRAJAK AIRPORT","2402356","2021-04-14 11:00","2021","04","14","11:00","-21.6","","-25.1","","74","","","","33","","14","","16.1","","103.78","","","","-31","","NA"
"-81.24","68.78","SANIRAJAK AIRPORT","2402356","2021-04-14 12:00","2021","04","14","12:00","-20.7","","-24.2","","74","","","","31","","12","","16.1","","103.75","","","","-29","","NA"
"-81.24","68.78","SANIRAJAK AIRPORT","2402356","2021-04-14 13:00","2021","04","14","13:00","-19.8","","-23.4","","74","","","","32","","8","","16.1","","103.74","","","","-26","","Clear"
"-81.24","68.78","SANIRAJAK AIRPORT","2402356","2021-04-14 14:00","2021","04","14","14:00","-19.2","","-22.7","","74","","","","29","","11","","16.1","","103.72","","","","-27","","NA"
"-81.24","68.78","SANIRAJAK AIRPORT","2402356","2021-04-14 15:00","2021","04","14","15:00","-18.8","","-22.2","","75","","","","30","","10","","16.1","","103.71","","","","-26","","NA"
"-81.24","68.78","SANIRAJAK AIRPORT","2402356","2021-04-14 16:00","2021","04","14","16:00","-18.7","","-22.4","","73","","","","31","","6","","16.1","","103.66","","","","-24","","Mainly Clear"
"-81.24","68.78","SANIRAJAK AIRPORT","2402356","2021-04-14 17:00","2021","04","14","17:00","-19.0","","-22.1","","77","","","","27","","8","","16.1","","103.62","","","","-25","","NA"
"-81.24","68.78","SANIRAJAK AIRPORT","2402356","2021-04-14 18:00","2021","04","14","18:00","-20.6","","-23.4","","79","","","","33","","4","","16.1","","103.57","","","","-24","","NA"
"-81.24","68.78","SANIRAJAK AIRPORT","2402356","2021-04-14 19:00","2021","04","14","19:00","-21.4","","-24.1","","80","","","","27","","4","","16.1","","103.53","","","","-25","","Mainly Clear"
"-81.24","68.78","SANIRAJAK AIRPORT","2402356","2021-04-14 20:00","2021","04","14","20:00"
"-81.24","68.78","SANIRAJAK AIRPORT","2402356","2021-04-14 21:00","2021","04","14","21:00"
"-81.24","68.78","SANIRAJAK AIRPORT","2402356","2021-04-14 22:00","2021","04","14","22:00"
"-81.24","68.78","SANIRAJAK AIRPORT","2402356","2021-04-14 23:00","2021","04","14","23:00"
"-81.24","68.78","SANIRAJAK AIRPORT","2402356","2021-04-15 00:00","2021","04","15","00:00"
"-81.24","68.78","SANIRAJAK AIRPORT","2402356","2021-04-15 01:00","2021","04","15","01:00"
"-81.24","68.78","SANIRAJAK AIRPORT","2402356","2021-04-15 02:00","2021","04","15","02:00"
"-81.24","68.78","SANIRAJAK AIRPORT","2402356","2021-04-15 03:00","2021","04","15","03:00"
"-81.24","68.78","SANIRAJAK AIRPORT","2402356","2021-04-15 04:00","2021","04","15","04:00"
"-81.24","68.78","SANIRAJAK AIRPORT","2402356","2021-04-15 05:00","2021","04","15","05:00"
"-81.24","68.78","SANIRAJAK AIRPORT","2402356","2021-04-15 06:00","2021","04","15","06:00"
"-81.24","68.78","SANIRAJAK AIRPORT","2402356","2021-04-15 07:00","2021","04","15","07:00","-18.6","","-20.5","","85","","","","33","","7","","16.1","","103.08","","","","-24","","Mostly Cloudy"
"-81.24","68.78","SANIRAJAK AIRPORT","2402356","2021-04-15 08:00","2021","04","15","08:00","-19.4","","-21.6","","83","","","","1","","14","","16.1","","103.07","","","","-28","","NA"
"-81.24","68.78","SANIRAJAK AIRPORT","2402356","2021-04-15 09:00","2021","04","15","09:00","-19.2","","-21.7","","81","","","","35","","15","","16.1","","103.04","","","","-28","","NA"
"-81.24","68.78","SANIRAJAK AIRPORT","2402356","2021-04-15 10:00","2021","04","15","10:00","-18.1","","-20.6","","81","","","","35","","12","","16.1","","103.03","","","","-26","","Mainly Clear"
"-81.24","68.78","SANIRAJAK AIRPORT","2402356","2021-04-15 11:00","2021","04","15","11:00","-17.4","","-19.9","","81","","","","33","","13","","16.1","","103.04","","","","-25","","NA"
"-81.24","68.78","SANIRAJAK AIRPORT","2402356","2021-04-15 12:00","2021","04","15","12:00","-16.7","","-19.7","","78","","","","34","","14","","16.1","","103.01","","","","-25","","NA"
"-81.24","68.78","SANIRAJAK AIRPORT","2402356","2021-04-15 13:00","2021","04","15","13:00","-16.0","","-19.7","","74","","","","33","","13","","16.1","","102.98","","","","-24","","Mainly Clear"
"-81.24","68.78","SANIRAJAK AIRPORT","2402356","2021-04-15 14:00","2021","04","15","14:00","-15.8","","-19.4","","74","","","","35","","16","","16.1","","103.00","","","","-24","","NA"
"-81.24","68.78","SANIRAJAK AIRPORT","2402356","2021-04-15 15:00","2021","04","15","15:00","-15.7","","-18.9","","77","","","","33","","14","","16.1","","102.96","","","","-23","","NA"
"-81.24","68.78","SANIRAJAK AIRPORT","2402356","2021-04-15 16:00","2021","04","15","16:00","-15.7","","-18.7","","78","","","","33","","12","","16.1","","102.96","","","","-23","","Clear"
"-81.24","68.78","SANIRAJAK AIRPORT","2402356","2021-04-15 17:00","2021","04","15","17:00","-16.2","","-19.0","","79","","","","32","","14","","16.1","","102.92","","","","-24","","NA"
"-81.24","68.78","SANIRAJAK AIRPORT","2402356","2021-04-15 18:00","2021","04","15","18:00","-17.6","","-20.3","","80","","","","31","","14","","16.1","","102.89","","","","-26","","NA"
"-81.24","68.78","SANIRAJAK AIRPORT","2402356","2021-04-15 19:00","2021","04","15","19:00","-19.2","","-21.5","","82","","","","29","","16","","16.1","","102.83","","","","-28","","Clear"
"-81.24","68.78","SANIRAJAK AIRPORT","2402356","2021-04-15 20:00","2021","04","15","20:00"
"-81.24","68.78","SANIRAJAK AIRPORT","2402356","2021-04-15 21:00","2021","04","15","21:00"
"-81.24","68.78","SANIRAJAK AIRPORT","2402356","2021-04-15 22:00","2021","04","15","22:00"
"-81.24","68.78","SANIRAJAK AIRPORT","2402356","2021-04-15 23:00","2021","04","15","23:00"
"-81.24","68.78","SANIRAJAK AIRPORT","2402356","2021-04-16 00:00","2021","04","16","00:00"
"-81.24","68.78","SANIRAJAK AIRPORT","2402356","2021-04-16 01:00","2021","04","16","01:00"
"-81.24","68.78","SANIRAJAK AIRPORT","2402356","2021-04-16 02:00","2021","04","16","02:00"
"-81.24","68.78","SANIRAJAK AIRPORT","2402356","2021-04-16 03:00","2021","04","16","03:00"
"-81.24","68.78","SANIRAJAK AIRPORT","2402356","2021-04-16 04:00","2021","04","16","04:00"
"-81.24","68.78","SANIRAJAK AIRPORT","2402356","2021-04-16 05:00","2021","04","16","05:00"
"-81.24","68.78","SANIRAJAK AIRPORT","2402356","2021-04-16 06:00","2021","04","16","06:00"
"-81.24","68.78","SANIRAJAK AIRPORT","2402356","2021-04-16 07:00","2021","04","16","07:00","-20.8","","-23.7","","78","","","","31","","25","","16.1","","102.05","","","","-33","","Blowing Snow"
"-81.24","68.78","SANIRAJAK AIRPORT","2402356","2021-04-16 08:00","2021","04","16","08:00","-19.5","","-22.5","","78","","","","32","","27","","16.1","","101.99","","","","-31","","Blowing Snow"
"-81.24","68.78","SANIRAJAK AIRPORT","2402356","2021-04-16 09:00","2021","04","16","09:00","-19.0","","-21.9","","78","","","","31","","33","","16.1","","101.91","","","","-32","","Blowing Snow"
"-81.24","68.78","SANIRAJAK AIRPORT","2402356","2021-04-16 10:00","2021","04","16","10:00","-18.2","","-21.1","","78","","","","31","","29","","16.1","","101.86","","","","-30","","Blowing Snow"
"-81.24","68.78","SANIRAJAK AIRPORT","2402356","2021-04-16 11:00","2021","04","16","11:00","-17.1","","-20.1","","78","","","","32","","29","","16.1","","101.78","","","","-29","","Blowing Snow"
"-81.24","68.78","SANIRAJAK AIRPORT","2402356","2021-04-16 12:00","2021","04","16","12:00","-16.0","","-18.9","","79","","","","32","","29","","16.1","","101.72","","","","-27","","Blowing Snow"
"-81.24","68.78","SANIRAJAK AIRPORT","2402356","2021-04-16 13:00","2021","04","16","13:00","-15.3","","-18.0","","80","","","","32","","29","","16.1","","101.66","","","","-26","","Blowing Snow"
"-81.24","68.78","SANIRAJAK AIRPORT","2402356","2021-04-16 14:00","2021","04","16","14:00","-15.3","","-18.2","","79","","","","32","","25","","16.1","","101.63","","","","-26","","Blowing Snow"
"-81.24","68.78","SANIRAJAK AIRPORT","2402356","2021-04-16 15:00","2021","04","16","15:00","-15.1","","-17.8","","80","","","","31","","30","","16.1","","101.58","","","","-26","","Blowing Snow"
"-81.24","68.78","SANIRAJAK AIRPORT","2402356","2021-04-16 16:00","2021","04","16","16:00","-15.1","","-17.8","","80","","","","31","","30","","16.1","","101.52","","","","-26","","Blowing Snow"
"-81.24","68.78","SANIRAJAK AIRPORT","2402356","2021-04-16 17:00","2021","04","16","17:00","-15.4","","-18.1","","80","","","","32","","31","","16.1","","101.48","","","","-27","","Blowing Snow"
"-81.24","68.78","SANIRAJAK AIRPORT","2402356","2021-04-16 18:00","2021","04","16","18:00","-15.8","","-18.5","","80","","","","31","","27","","16.1","","101.45","","","","-27","","Blowing Snow"
"-81.24","68.78","SANIRAJAK AIRPORT","2402356","2021-04-16 19:00","2021","04","16","19:00","-17.1","","-19.5","","82","","","","30","","22","","16.1","","101.41","","","","-27","","Blowing Snow"
"-81.24","68.78","SANIRAJAK AIRPORT","2402356","2021-04-16 20:00","2021","04","16","20:00"
"-81.24","68.78","SANIRAJAK AIRPORT","2402356","2021-04-16 21:00","2021","04","16","21:00"
"-81.24","68.78","SANIRAJAK AIRPORT","2402356","2021-04-16 22:00","2021","04","16","22:00"
"-81.24","68.78","SANIRAJAK AIRPORT","2402356","2021-04-16 23:00","2021","04","16","23:00"
"-81.24","68.78","SANIRAJAK AIRPORT","2402356","2021-04-17 00:00","2021","04","17","00:00"
"-81.24","68.78","SANIRAJAK AIRPORT","2402356","2021-04-17 01:00","2021","04","17","01:00"
"-81.24","68.78","SANIRAJAK AIRPORT","2402356","2021-04-17 02:00","2021","04","17","02:00"
"-81.24","68.78","SANIRAJAK AIRPORT","2402356","2021-04-17 03:00","2021","04","17","03:00"
"-81.24","68.78","SANIRAJAK AIRPORT","2402356","2021-04-17 04:00","2021","04","17","04:00"
"-81.24","68.78","SANIRAJAK AIRPORT","2402356","2021-04-17 05:00","2021","04","17","05:00"
"-81.24","68.78","SANIRAJAK AIRPORT","2402356","2021-04-17 06:00","2021","04","17","06:00"
"-81.24","68.78","SANIRAJAK AIRPORT","2402356","2021-04-17 07:00","2021","04","17","07:00","-20.5","","-23.3","","79","","","","32","","27","","16.1","","100.92","","","","-33","","Blowing Snow"
"-81.24","68.78","SANIRAJAK AIRPORT","2402356","2021-04-17 08:00","2021","04","17","08:00","-19.7","","-22.6","","78","","","","32","","23","","16.1","","100.92","","","","-31","","Blowing Snow"
"-81.24","68.78","SANIRAJAK AIRPORT","2402356","2021-04-17 09:00","2021","04","17","09:00","-18.4","","-21.4","","78","","","","32","","27","","16.1","","100.88","","","","-30","","Blowing Snow"
"-81.24","68.78","SANIRAJAK AIRPORT","2402356","2021-04-17 10:00","2021","04","17","10:00","-17.2","","-20.3","","77","","","","32","","26","","16.1","","100.89","","","","-28","","Blowing Snow"
"-81.24","68.78","SANIRAJAK AIRPORT","2402356","2021-04-17 11:00","2021","04","17","11:00","-15.9","","-18.9","","78","","","","32","","32","","16.1","","100.87","","","","-28","","Blowing Snow"
"-81.24","68.78","SANIRAJAK AIRPORT","2402356","2021-04-17 12:00","2021","04","17","12:00","-15.8","","-19.1","","76","","","","33","","26","","16.1","","100.84","","","","-26","","Blowing Snow"
"-81.24","68.78","SANIRAJAK AIRPORT","2402356","2021-04-17 13:00","2021","04","17","13:00","-15.3","","-18.6","","77","","","","33","","26","","16.1","","100.82","","","","-26","","Blowing Snow"
"-81.24","68.78","SANIRAJAK AIRPORT","2402356","2021-04-17 14:00","2021","04","17","14:00","-14.8","","-18.3","","75","","","","33","","26","","16.1","","100.85","","","","-25","","Blowing Snow"
"-81.24","68.78","SANIRAJAK AIRPORT","2402356","2021-04-17 15:00","2021","04","17","15:00","-14.9","","-18.2","","76","","","","34","","20","","16.1","","100.87","","","","-24","","Blowing Snow"
"-81.24","68.78","SANIRAJAK AIRPORT","2402356","2021-04-17 16:00","2021","04","17","16:00","-14.9","","-17.8","","79","","","","35","","19","","16.1","","100.89","","","","-24","","Snow,Blowing Snow"
"-81.24","68.78","SANIRAJAK AIRPORT","2402356","2021-04-17 17:00","2021","04","17","17:00","-15.2","","-17.9","","80","","","","34","","17","","16.1","","100.92","","","","-24","","Snow,Blowing Snow"
"-81.24","68.78","SANIRAJAK AIRPORT","2402356","2021-04-17 18:00","2021","04","17","18:00","-15.4","","-18.0","","81","","","","34","","18","","6.4","","100.93","","","","-24","","Snow,Blowing Snow"
"-81.24","68.78","SANIRAJAK AIRPORT","2402356","2021-04-17 19:00","2021","04","17","19:00","-16.0","","-18.6","","81","","","","34","","18","","9.7","","100.94","","","","-25","","Snow,Blowing Snow"
"-81.24","68.78","SANIRAJAK AIRPORT","2402356","2021-04-17 20:00","2021","04","17","20:00"
"-81.24","68.78","SANIRAJAK AIRPORT","2402356","2021-04-17 21:00","2021","04","17","21:00"
"-81.24","68.78","SANIRAJAK AIRPORT","2402356","2021-04-17 22:00","2021","04","17","22:00"
"-81.24","68.78","SANIRAJAK AIRPORT","2402356","2021-04-17 23:00","2021","04","17","23:00"
"-81.24","68.78","SANIRAJAK AIRPORT","2402356","2021-04-18 00:00","2021","04","18","00:00"
"-81.24","68.78","SANIRAJAK AIRPORT","2402356","2021-04-18 01:00","2021","04","18","01:00"
"-81.24","68.78","SANIRAJAK AIRPORT","2402356","2021-04-18 02:00","2021","04","18","02:00"
"-81.24","68.78","SANIRAJAK AIRPORT","2402356","2021-04-18 03:00","2021","04","18","03:00"
"-81.24","68.78","SANIRAJAK AIRPORT","2402356","2021-04-18 04:00","2021","04","18","04:00"
"-81.24","68.78","SANIRAJAK AIRPORT","2402356","2021-04-18 05:00","2021","04","18","05:00"
"-81.24","68.78","SANIRAJAK AIRPORT","2402356","2021-04-18 06:00","2021","04","18","06:00"
"-81.24","68.78","SANIRAJAK AIRPORT","2402356","2021-04-18 07:00","2021","04","18","07:00","-13.8","","-17.1","","76","","","","7","","20","","16.1","","101.45","","","","-23","","Snow,Blowing Snow"
"-81.24","68.78","SANIRAJAK AIRPORT","2402356","2021-04-18 08:00","2021","04","18","08:00","-13.7","","-17.2","","75","","","","7","","17","","16.1","","101.49","","","","-22","","Snow,Blowing Snow"
"-81.24","68.78","SANIRAJAK AIRPORT","2402356","2021-04-18 09:00","2021","04","18","09:00","-13.6","","-16.7","","78","","","","7","","18","","16.1","","101.53","","","","-22","","Snow,Blowing Snow"
"-81.24","68.78","SANIRAJAK AIRPORT","2402356","2021-04-18 10:00","2021","04","18","10:00","-13.5","","-16.2","","80","","","","3","","27","","9.7","","101.56","","","","-24","","Snow,Blowing Snow"
"-81.24","68.78","SANIRAJAK AIRPORT","2402356","2021-04-18 11:00","2021","04","18","11:00","-13.7","","-16.7","","79","","","","5","","25","","9.7","","101.58","","","","-24","","Snow,Blowing Snow"
"-81.24","68.78","SANIRAJAK AIRPORT","2402356","2021-04-18 12:00","2021","04","18","12:00","-13.7","","-17.1","","76","","","","4","","23","","16.1","","101.61","","","","-23","","Snow,Blowing Snow"
"-81.24","68.78","SANIRAJAK AIRPORT","2402356","2021-04-18 13:00","2021","04","18","13:00","-13.6","","-16.7","","78","","","","2","","21","","16.1","","101.63","","","","-23","","Snow,Blowing Snow"
"-81.24","68.78","SANIRAJAK AIRPORT","2402356","2021-04-18 14:00","2021","04","18","14:00","-13.9","","-16.3","","82","","","","1","","26","","4.8","","101.68","","","","-24","","Snow,Blowing Snow"
"-81.24","68.78","SANIRAJAK AIRPORT","2402356","2021-04-18 15:00","2021","04","18","15:00","-13.4","","-16.1","","80","","","","36","","20","","9.7","","101.72","","","","-22","","Snow,Blowing Snow"
"-81.24","68.78","SANIRAJAK AIRPORT","2402356","2021-04-18 16:00","2021","04","18","16:00","-14.9","","-17.4","","81","","","","35","","30","","6.4","","101.75","","","","-26","","Snow,Blowing Snow"
"-81.24","68.78","SANIRAJAK AIRPORT","2402356","2021-04-18 17:00","2021","04","18","17:00","-15.5","","-17.9","","82","","","","35","","27","","9.7","","101.80","","","","-26","","Snow,Blowing Snow"
"-81.24","68.78","SANIRAJAK AIRPORT","2402356","2021-04-18 18:00","2021","04","18","18:00","-15.5","","-18.2","","80","","","","35","","22","","16.1","","101.80","","","","-25","","Snow,Blowing Snow"
"-81.24","68.78","SANIRAJAK AIRPORT","2402356","2021-04-18 19:00","2021","04","18","19:00","-17.2","","-20.0","","79","","","","35","","22","","16.1","","101.81","","","","-27","","Blowing Snow"
"-81.24","68.78","SANIRAJAK AIRPORT","2402356","2021-04-18 20:00","2021","04","18","20:00"
"-81.24","68.78","SANIRAJAK AIRPORT","2402356","2021-04-18 21:00","2021","04","18","21:00"
"-81.24","68.78","SANIRAJAK AIRPORT","2402356","2021-04-18 22:00","2021","04","18","22:00"
"-81.24","68.78","SANIRAJAK AIRPORT","2402356","2021-04-18 23:00","2021","04","18","23:00"
"-81.24","68.78","SANIRAJAK AIRPORT","2402356","2021-04-19 00:00","2021","04","19","00:00"
"-81.24","68.78","SANIRAJAK AIRPORT","2402356","2021-04-19 01:00","2021","04","19","01:00"
"-81.24","68.78","SANIRAJAK AIRPORT","2402356","2021-04-19 02:00","2021","04","19","02:00"
"-81.24","68.78","SANIRAJAK AIRPORT","2402356","2021-04-19 03:00","2021","04","19","03:00"
"-81.24","68.78","SANIRAJAK AIRPORT","2402356","2021-04-19 04:00","2021","04","19","04:00"
"-81.24","68.78","SANIRAJAK AIRPORT","2402356","2021-04-19 05:00","2021","04","19","05:00"
"-81.24","68.78","SANIRAJAK AIRPORT","2402356","2021-04-19 06:00","2021","04","19","06:00"
"-81.24","68.78","SANIRAJAK AIRPORT","2402356","2021-04-19 07:00","2021","04","19","07:00","-25.5","","-28.1","","79","","","","33","","17","","16.1","","101.87","","","","-37","","Blowing Snow"
"-81.24","68.78","SANIRAJAK AIRPORT","2402356","2021-04-19 08:00","2021","04","19","08:00","-24.2","","-27.0","","78","","","","33","","16","","16.1","","101.88","","","","-35","","NA"
"-81.24","68.78","SANIRAJAK AIRPORT","2402356","2021-04-19 09:00","2021","04","19","09:00","-22.3","","-25.2","","78","","","","32","","16","","16.1","","101.85","","","","-32","","NA"
"-81.24","68.78","SANIRAJAK AIRPORT","2402356","2021-04-19 10:00","2021","04","19","10:00","-20.8","","-23.8","","77","","","","33","","19","","16.1","","101.86","","","","-31","","Mainly Clear"
"-81.24","68.78","SANIRAJAK AIRPORT","2402356","2021-04-19 11:00","2021","04","19","11:00","-18.6","","-21.5","","78","","","","34","","18","","16.1","","101.84","","","","-28","","NA"
"-81.24","68.78","SANIRAJAK AIRPORT","2402356","2021-04-19 12:00","2021","04","19","12:00","-17.6","","-20.7","","77","","","","34","","14","","16.1","","101.79","","","","-26","","NA"
"-81.24","68.78","SANIRAJAK AIRPORT","2402356","2021-04-19 13:00","2021","04","19","13:00","-16.8","","-20.2","","75","","","","35","","18","","16.1","","101.77","","","","-26","","Clear"
"-81.24","68.78","SANIRAJAK AIRPORT","2402356","2021-04-19 14:00","2021","04","19","14:00","-16.7","","-20.0","","76","","","","34","","18","","16.1","","101.77","","","","-26","","NA"
"-81.24","68.78","SANIRAJAK AIRPORT","2402356","2021-04-19 15:00","2021","04","19","15:00","-16.4","","-19.5","","77","","","","34","","16","","16.1","","101.74","","","","-25","","NA"
"-81.24","68.78","SANIRAJAK AIRPORT","2402356","2021-04-19 16:00","2021","04","19","16:00","-16.6","","-19.7","","77","","","","34","","12","","16.1","","101.74","","","","-24","","Mainly Clear"
"-81.24","68.78","SANIRAJAK AIRPORT","2402356","2021-04-19 17:00","2021","04","19","17:00","-17.3","","-20.3","","78","","","","35","","12","","16.1","","101.72","","","","-25","","NA"
"-81.24","68.78","SANIRAJAK AIRPORT","2402356","2021-04-19 18:00","2021","04","19","18:00","-18.9","","-21.7","","79","","","","34","","13","","16.1","","101.70","","","","-27","","NA"
"-81.24","68.78","SANIRAJAK AIRPORT","2402356","2021-04-19 19:00","2021","04","19","19:00","-22.1","","-24.4","","82","","","","31","","13","","16.1","","101.67","","","","-31","","Mainly Clear"
"-81.24","68.78","SANIRAJAK AIRPORT","2402356","2021-04-19 20:00","2021","04","19","20:00"
"-81.24","68.78","SANIRAJAK AIRPORT","2402356","2021-04-19 21:00","2021","04","19","21:00"
"-81.24","68.78","SANIRAJAK AIRPORT","2402356","2021-04-19 22:00","2021","04","19","22:00"
"-81.24","68.78","SANIRAJAK AIRPORT","2402356","2021-04-19 23:00","2021","04","19","23:00"
"-81.24","68.78","SANIRAJAK AIRPORT","2402356","2021-04-20 00:00","2021","04","20","00:00"
"-81.24","68.78","SANIRAJAK AIRPORT","2402356","2021-04-20 01:00","2021","04","20","01:00"
"-81.24","68.78","SANIRAJAK AIRPORT","2402356","2021-04-20 02:00","2021","04","20","02:00"
"-81.24","68.78","SANIRAJAK AIRPORT","2402356","2021-04-20 03:00","2021","04","20","03:00"
"-81.24","68.78","SANIRAJAK AIRPORT","2402356","2021-04-20 04:00","2021","04","20","04:00"
"-81.24","68.78","SANIRAJAK AIRPORT","2402356","2021-04-20 05:00","2021","04","20","05:00"
"-81.24","68.78","SANIRAJAK AIRPORT","2402356","2021-04-20 06:00","2021","04","20","06:00"
"-81.24","68.78","SANIRAJAK AIRPORT","2402356","2021-04-20 07:00","2021","04","20","07:00","-22.8","","-25.1","","82","","","","34","","9","","16.1","","101.36","","","","-30","","Snow"
"-81.24","68.78","SANIRAJAK AIRPORT","2402356","2021-04-20 08:00","2021","04","20","08:00","-20.8","","-23.0","","83","","","","35","","5","","16.1","","101.34","","","","-25","","Snow"
"-81.24","68.78","SANIRAJAK AIRPORT","2402356","2021-04-20 09:00","2021","04","20","09:00","-19.1","","-21.0","","85","","","","28","","4","","16.1","","101.31","","","","-22","","Snow"
"-81.24","68.78","SANIRAJAK AIRPORT","2402356","2021-04-20 10:00","2021","04","20","10:00","-16.9","","-18.7","","86","","","","31","","7","","16.1","","101.33","","","","-22","","Snow"
"-81.24","68.78","SANIRAJAK AIRPORT","2402356","2021-04-20 11:00","2021","04","20","11:00","-16.2","","-17.9","","87","","","","28","","7","","16.1","","101.31","","","","-21","","Snow"
"-81.24","68.78","SANIRAJAK AIRPORT","2402356","2021-04-20 12:00","2021","04","20","12:00","-15.5","","-17.3","","86","","","","25","","5","","8.1","","101.31","","","","-19","","Snow"
"-81.24","68.78","SANIRAJAK AIRPORT","2402356","2021-04-20 13:00","2021","04","20","13:00","-15.3","","-17.4","","84","","","","31","","5","","16.1","","101.31","","","","-19","","Mostly Cloudy"
"-81.24","68.78","SANIRAJAK AIRPORT","2402356","2021-04-20 14:00","2021","04","20","14:00","-15.1","","-17.7","","81","","","","29","","8","","16.1","","101.31","","","","-20","","NA"
"-81.24","68.78","SANIRAJAK AIRPORT","2402356","2021-04-20 15:00","2021","04","20","15:00","-15.1","","-17.5","","82","","","","30","","6","","16.1","","101.30","","","","-19","","NA"
"-81.24","68.78","SANIRAJAK AIRPORT","2402356","2021-04-20 16:00","2021","04","20","16:00","-15.2","","-17.7","","82","","","","32","","9","","16.1","","101.31","","","","-21","","Mainly Clear"
"-81.24","68.78","SANIRAJAK AIRPORT","2402356","2021-04-20 17:00","2021","04","20","17:00","-16.5","","-19.0","","81","","","","31","","9","","16.1","","101.29","","","","-23","","NA"
"-81.24","68.78","SANIRAJAK AIRPORT","2402356","2021-04-20 18:00","2021","04","20","18:00","-18.1","","-20.6","","81","","","","32","","9","","16.1","","101.26","","","","-24","","NA"
"-81.24","68.78","SANIRAJAK AIRPORT","2402356","2021-04-20 19:00","2021","04","20","19:00","-20.8","","-23.1","","82","","","","32","","12","","16.1","","101.25","","","","-29","","Mainly Clear"
"-81.24","68.78","SANIRAJAK AIRPORT","2402356","2021-04-20 20:00","2021","04","20","20:00"
"-81.24","68.78","SANIRAJAK AIRPORT","2402356","2021-04-20 21:00","2021","04","20","21:00"
"-81.24","68.78","SANIRAJAK AIRPORT","2402356","2021-04-20 22:00","2021","04","20","22:00"
"-81.24","68.78","SANIRAJAK AIRPORT","2402356","2021-04-20 23:00","2021","04","20","23:00"
"-81.24","68.78","SANIRAJAK AIRPORT","2402356","2021-04-21 00:00","2021","04","21","00:00"
"-81.24","68.78","SANIRAJAK AIRPORT","2402356","2021-04-21 01:00","2021","04","21","01:00"
"-81.24","68.78","SANIRAJAK AIRPORT","2402356","2021-04-21 02:00","2021","04","21","02:00"
"-81.24","68.78","SANIRAJAK AIRPORT","2402356","2021-04-21 03:00","2021","04","21","03:00"
"-81.24","68.78","SANIRAJAK AIRPORT","2402356","2021-04-21 04:00","2021","04","21","04:00"
"-81.24","68.78","SANIRAJAK AIRPORT","2402356","2021-04-21 05:00","2021","04","21","05:00"
"-81.24","68.78","SANIRAJAK AIRPORT","2402356","2021-04-21 06:00","2021","04","21","06:00"
"-81.24","68.78","SANIRAJAK AIRPORT","2402356","2021-04-21 07:00","2021","04","21","07:00","-22.5","","-24.8","","82","","","","32","","23","","1.2","","100.55","","","","-34","","Snow,Blowing Snow"
"-81.24","68.78","SANIRAJAK AIRPORT","2402356","2021-04-21 08:00","2021","04","21","08:00","-21.1","","-23.3","","83","","","","32","","19","","4.8","","100.45","","","","-32","","Snow,Blowing Snow"
"-81.24","68.78","SANIRAJAK AIRPORT","2402356","2021-04-21 09:00","2021","04","21","09:00","-20.0","","-22.1","","84","","","","32","","19","","16.1","","100.34","","","","-30","","Snow,Blowing Snow"
"-81.24","68.78","SANIRAJAK AIRPORT","2402356","2021-04-21 10:00","2021","04","21","10:00","-19.8","","-21.9","","84","","","","30","","26","","16.1","","100.26","","","","-32","","Snow,Blowing Snow"
"-81.24","68.78","SANIRAJAK AIRPORT","2402356","2021-04-21 11:00","2021","04","21","11:00","-17.8","","-19.6","","86","","","","31","","24","","9.7","","100.19","","","","-29","","Snow,Blowing Snow"
"-81.24","68.78","SANIRAJAK AIRPORT","2402356","2021-04-21 12:00","2021","04","21","12:00","-15.8","","-17.6","","87","","","","30","","20","","16.1","","100.13","","","","-25","","Snow,Blowing Snow"
"-81.24","68.78","SANIRAJAK AIRPORT","2402356","2021-04-21 13:00","2021","04","21","13:00","-15.6","","-17.4","","87","","","","28","","18","","16.1","","100.11","","","","-24","","Snow,Blowing Snow"
"-81.24","68.78","SANIRAJAK AIRPORT","2402356","2021-04-21 14:00","2021","04","21","14:00","-15.0","","-16.8","","86","","","","28","","16","","16.1","","100.11","","","","-23","","Snow,Blowing Snow"
"-81.24","68.78","SANIRAJAK AIRPORT","2402356","2021-04-21 15:00","2021","04","21","15:00","-15.7","","-17.8","","84","","","","26","","13","","16.1","","100.11","","","","-23","","Snow"
"-81.24","68.78","SANIRAJAK AIRPORT","2402356","2021-04-21 16:00","2021","04","21","16:00","-15.1","","-18.0","","79","","","","24","","18","","16.1","","100.12","","","","-24","","Snow"
"-81.24","68.78","SANIRAJAK AIRPORT","2402356","2021-04-21 17:00","2021","04","21","17:00","-15.3","","-18.2","","79","","","","21","","17","","16.1","","100.09","","","","-24","","NA"
"-81.24","68.78","SANIRAJAK AIRPORT","2402356","2021-04-21 18:00","2021","04","21","18:00","-15.7","","-18.6","","79","","","","21","","15","","16.1","","100.07","","","","-24","","Snow"
"-81.24","68.78","SANIRAJAK AIRPORT","2402356","2021-04-21 19:00","2021","04","21","19:00","-16.0","","-18.7","","80","","","","19","","13","","16.1","","100.09","","","","-24","","Snow"
"-81.24","68.78","SANIRAJAK AIRPORT","2402356","2021-04-21 20:00","2021","04","21","20:00"
"-81.24","68.78","SANIRAJAK AIRPORT","2402356","2021-04-21 21:00","2021","04","21","21:00"
"-81.24","68.78","SANIRAJAK AIRPORT","2402356","2021-04-21 22:00","2021","04","21","22:00"
"-81.24","68.78","SANIRAJAK AIRPORT","2402356","2021-04-21 23:00","2021","04","21","23:00"
"-81.24","68.78","SANIRAJAK AIRPORT","2402356","2021-04-22 00:00","2021","04","22","00:00"
"-81.24","68.78","SANIRAJAK AIRPORT","2402356","2021-04-22 01:00","2021","04","22","01:00"
"-81.24","68.78","SANIRAJAK AIRPORT","2402356","2021-04-22 02:00","2021","04","22","02:00"
"-81.24","68.78","SANIRAJAK AIRPORT","2402356","2021-04-22 03:00","2021","04","22","03:00"
"-81.24","68.78","SANIRAJAK AIRPORT","2402356","2021-04-22 04:00","2021","04","22","04:00"
"-81.24","68.78","SANIRAJAK AIRPORT","2402356","2021-04-22 05:00","2021","04","22","05:00"
"-81.24","68.78","SANIRAJAK AIRPORT","2402356","2021-04-22 06:00","2021","04","22","06:00"
"-81.24","68.78","SANIRAJAK AIRPORT","2402356","2021-04-22 07:00","2021","04","22","07:00","-11.1","","-12.9","","87","","","","19","","26","","16.1","","100.13","","","","-20","","Snow,Blowing Snow"
"-81.24","68.78","SANIRAJAK AIRPORT","2402356","2021-04-22 08:00","2021","04","22","08:00","-10.8","","-12.6","","87","","","","19","","24","","8.1","","100.17","","","","-20","","Snow,Blowing Snow"
"-81.24","68.78","SANIRAJAK AIRPORT","2402356","2021-04-22 09:00","2021","04","22","09:00","-10.3","","-12.2","","86","","","","20","","22","","4.8","","100.24","","","","-19","","Snow,Blowing Snow"
"-81.24","68.78","SANIRAJAK AIRPORT","2402356","2021-04-22 10:00","2021","04","22","10:00","-9.8","","-11.7","","86","","","","20","","23","","4.8","","100.32","","","","-18","","Snow,Blowing Snow"
"-81.24","68.78","SANIRAJAK AIRPORT","2402356","2021-04-22 11:00","2021","04","22","11:00","-9.2","","-11.3","","85","","","","21","","21","","4.8","","100.39","","","","-17","","Snow,Blowing Snow"
"-81.24","68.78","SANIRAJAK AIRPORT","2402356","2021-04-22 12:00","2021","04","22","12:00","-9.1","","-11.0","","86","","","","21","","16","","4.8","","100.44","","","","-16","","Snow,Blowing Snow"
"-81.24","68.78","SANIRAJAK AIRPORT","2402356","2021-04-22 13:00","2021","04","22","13:00","-9.2","","-11.1","","86","","","","19","","15","","3.2","","100.50","","","","-16","","Snow"
"-81.24","68.78","SANIRAJAK AIRPORT","2402356","2021-04-22 14:00","2021","04","22","14:00","-9.2","","-11.1","","86","","","","21","","18","","4.8","","100.54","","","","-16","","Snow"
"-81.24","68.78","SANIRAJAK AIRPORT","2402356","2021-04-22 15:00","2021","04","22","15:00","-9.0","","-11.0","","85","","","","19","","16","","6.4","","100.58","","","","-16","","Snow"
"-81.24","68.78","SANIRAJAK AIRPORT","2402356","2021-04-22 16:00","2021","04","22","16:00","-9.0","","-10.9","","86","","","","21","","12","","8.1","","100.64","","","","-15","","Snow"
"-81.24","68.78","SANIRAJAK AIRPORT","2402356","2021-04-22 17:00","2021","04","22","17:00","-9.4","","-11.0","","88","","","","25","","6","","4.8","","100.68","","","","-13","","Snow"
"-81.24","68.78","SANIRAJAK AIRPORT","2402356","2021-04-22 18:00","2021","04","22","18:00","-10.8","","-12.3","","89","","","","26","","4","","6.4","","100.73","","","","-13","","Snow"
"-81.24","68.78","SANIRAJAK AIRPORT","2402356","2021-04-22 19:00","2021","04","22","19:00","-9.8","","-11.1","","91","","","","19","","10","","4.8","","100.75","","","","-15","","Snow"
"-81.24","68.78","SANIRAJAK AIRPORT","2402356","2021-04-22 20:00","2021","04","22","20:00"
"-81.24","68.78","SANIRAJAK AIRPORT","2402356","2021-04-22 21:00","2021","04","22","21:00"
"-81.24","68.78","SANIRAJAK AIRPORT","2402356","2021-04-22 22:00","2021","04","22","22:00"
"-81.24","68.78","SANIRAJAK AIRPORT","2402356","2021-04-22 23:00","2021","04","22","23:00"
"-81.24","68.78","SANIRAJAK AIRPORT","2402356","2021-04-23 00:00","2021","04","23","00:00"
"-81.24","68.78","SANIRAJAK AIRPORT","2402356","2021-04-23 01:00","2021","04","23","01:00"
"-81.24","68.78","SANIRAJAK AIRPORT","2402356","2021-04-23 02:00","2021","04","23","02:00"
"-81.24","68.78","SANIRAJAK AIRPORT","2402356","2021-04-23 03:00","2021","04","23","03:00"
"-81.24","68.78","SANIRAJAK AIRPORT","2402356","2021-04-23 04:00","2021","04","23","04:00"
"-81.24","68.78","SANIRAJAK AIRPORT","2402356","2021-04-23 05:00","2021","04","23","05:00"
"-81.24","68.78","SANIRAJAK AIRPORT","2402356","2021-04-23 06:00","2021","04","23","06:00"
"-81.24","68.78","SANIRAJAK AIRPORT","2402356","2021-04-23 07:00","2021","04","23","07:00","-9.7","","-11.3","","88","","","","14","","20","","9.7","","100.82","","","","-17","","Snow,Blowing Snow"
"-81.24","68.78","SANIRAJAK AIRPORT","2402356","2021-04-23 08:00","2021","04","23","08:00","-9.4","","-11.0","","88","","","","14","","21","","9.7","","100.81","","","","-17","","Snow,Blowing Snow"
"-81.24","68.78","SANIRAJAK AIRPORT","2402356","2021-04-23 09:00","2021","04","23","09:00","-9.0","","-10.9","","86","","","","14","","19","","9.7","","100.83","","","","-16","","Snow,Blowing Snow"
"-81.24","68.78","SANIRAJAK AIRPORT","2402356","2021-04-23 10:00","2021","04","23","10:00","-8.5","","-10.4","","86","","","","14","","21","","16.1","","100.83","","","","-16","","Snow,Blowing Snow"
"-81.24","68.78","SANIRAJAK AIRPORT","2402356","2021-04-23 11:00","2021","04","23","11:00","-7.9","","-10.0","","85","","","","13","","20","","9.7","","100.83","","","","-15","","Snow,Blowing Snow"
"-81.24","68.78","SANIRAJAK AIRPORT","2402356","2021-04-23 12:00","2021","04","23","12:00","-7.9","","-10.0","","85","","","","13","","21","","16.1","","100.84","","","","-15","","Blowing Snow"
"-81.24","68.78","SANIRAJAK AIRPORT","2402356","2021-04-23 13:00","2021","04","23","13:00","-8.2","","-10.3","","85","","","","12","","22","","16.1","","100.82","","","","-16","","Snow,Blowing Snow"
"-81.24","68.78","SANIRAJAK AIRPORT","2402356","2021-04-23 14:00","2021","04","23","14:00","-8.7","","-10.6","","86","","","","12","","23","","4.8","","100.83","","","","-17","","Snow,Blowing Snow"
"-81.24","68.78","SANIRAJAK AIRPORT","2402356","2021-04-23 15:00","2021","04","23","15:00","-9.3","","-11.1","","87","","","","11","","22","","12.9","","100.81","","","","-17","","Snow,Blowing Snow"
"-81.24","68.78","SANIRAJAK AIRPORT","2402356","2021-04-23 16:00","2021","04","23","16:00","-9.5","","-11.4","","86","","","","12","","27","","16.1","","100.79","","","","-18","","Snow,Blowing Snow"
"-81.24","68.78","SANIRAJAK AIRPORT","2402356","2021-04-23 17:00","2021","04","23","17:00","-9.3","","-11.1","","87","","","","13","","27","","16.1","","100.78","","","","-18","","Snow,Blowing Snow"
"-81.24","68.78","SANIRAJAK AIRPORT","2402356","2021-04-23 18:00","2021","04","23","18:00","-9.2","","-10.7","","89","","","","13","","22","","9.7","","100.80","","","","-17","","Snow,Blowing Snow"
"-81.24","68.78","SANIRAJAK AIRPORT","2402356","2021-04-23 19:00","2021","04","23","19:00","-8.7","","-10.1","","90","","","","13","","21","","4.8","","100.79","","","","-16","","Snow,Blowing Snow"
"-81.24","68.78","SANIRAJAK AIRPORT","2402356","2021-04-23 20:00","2021","04","23","20:00"
"-81.24","68.78","SANIRAJAK AIRPORT","2402356","2021-04-23 21:00","2021","04","23","21:00"
"-81.24","68.78","SANIRAJAK AIRPORT","2402356","2021-04-23 22:00","2021","04","23","22:00"
"-81.24","68.78","SANIRAJAK AIRPORT","2402356","2021-04-23 23:00","2021","04","23","23:00"
"-81.24","68.78","SANIRAJAK AIRPORT","2402356","2021-04-24 00:00","2021","04","24","00:00"
"-81.24","68.78","SANIRAJAK AIRPORT","2402356","2021-04-24 01:00","2021","04","24","01:00"
"-81.24","68.78","SANIRAJAK AIRPORT","2402356","2021-04-24 02:00","2021","04","24","02:00"
"-81.24","68.78","SANIRAJAK AIRPORT","2402356","2021-04-24 03:00","2021","04","24","03:00"
"-81.24","68.78","SANIRAJAK AIRPORT","2402356","2021-04-24 04:00","2021","04","24","04:00"
"-81.24","68.78","SANIRAJAK AIRPORT","2402356","2021-04-24 05:00","2021","04","24","05:00"
"-81.24","68.78","SANIRAJAK AIRPORT","2402356","2021-04-24 06:00","2021","04","24","06:00"
"-81.24","68.78","SANIRAJAK AIRPORT","2402356","2021-04-24 07:00","2021","04","24","07:00","-4.9","","-5.9","","93","","","","14","","24","","16.1","","100.67","","","","-12","","Snow,Blowing Snow"
"-81.24","68.78","SANIRAJAK AIRPORT","2402356","2021-04-24 08:00","2021","04","24","08:00","-4.5","","-5.6","","92","","","","14","","28","","9.7","","100.69","","","","-12","","Snow,Blowing Snow"
"-81.24","68.78","SANIRAJAK AIRPORT","2402356","2021-04-24 09:00","2021","04","24","09:00","-4.2","","-5.5","","91","","","","14","","27","","9.7","","100.71","","","","-12","","Snow,Blowing Snow"
"-81.24","68.78","SANIRAJAK AIRPORT","2402356","2021-04-24 10:00","2021","04","24","10:00","-3.8","","-5.2","","90","","","","14","","25","","4.8","","100.76","","","","-11","","Snow,Blowing Snow"
"-81.24","68.78","SANIRAJAK AIRPORT","2402356","2021-04-24 11:00","2021","04","24","11:00","-3.6","","-5.0","","90","","","","14","","23","","8.1","","100.80","","","","-10","","Snow,Blowing Snow"
"-81.24","68.78","SANIRAJAK AIRPORT","2402356","2021-04-24 12:00","2021","04","24","12:00","-3.0","","-4.4","","90","","","","14","","26","","9.7","","100.85","","","","-10","","Snow,Blowing Snow"
"-81.24","68.78","SANIRAJAK AIRPORT","2402356","2021-04-24 13:00","2021","04","24","13:00","-2.6","","-4.0","","90","","","","14","","25","","9.7","","100.89","","","","-9","","Snow,Blowing Snow"
"-81.24","68.78","SANIRAJAK AIRPORT","2402356","2021-04-24 14:00","2021","04","24","14:00","-2.6","","-4.0","","90","","","","14","","22","","16.1","","100.91","","","","-9","","Snow,Blowing Snow"
"-81.24","68.78","SANIRAJAK AIRPORT","2402356","2021-04-24 15:00","2021","04","24","15:00","-2.1","","-3.8","","88","","","","16","","22","","16.1","","100.97","","","","-8","","Blowing Snow"
"-81.24","68.78","SANIRAJAK AIRPORT","2402356","2021-04-24 16:00","2021","04","24","16:00","-2.2","","-3.9","","88","","","","16","","19","","16.1","","101.01","","","","-8","","Blowing Snow"
"-81.24","68.78","SANIRAJAK AIRPORT","2402356","2021-04-24 17:00","2021","04","24","17:00","-2.7","","-4.0","","91","","","","16","","15","","16.1","","101.04","","","","-8","","Snow"
"-81.24","68.78","SANIRAJAK AIRPORT","2402356","2021-04-24 18:00","2021","04","24","18:00","-3.7","","-4.8","","92","","","","17","","11","","16.1","","101.08","","","","-8","","NA"
"-81.24","68.78","SANIRAJAK AIRPORT","2402356","2021-04-24 19:00","2021","04","24","19:00","-4.5","","-5.2","","95","","","","15","","9","","16.1","","101.13","","","","-8","","Snow"
"-81.24","68.78","SANIRAJAK AIRPORT","2402356","2021-04-24 20:00","2021","04","24","20:00"
"-81.24","68.78","SANIRAJAK AIRPORT","2402356","2021-04-24 21:00","2021","04","24","21:00"
"-81.24","68.78","SANIRAJAK AIRPORT","2402356","2021-04-24 22:00","2021","04","24","22:00"
"-81.24","68.78","SANIRAJAK AIRPORT","2402356","2021-04-24 23:00","2021","04","24","23:00"
"-81.24","68.78","SANIRAJAK AIRPORT","2402356","2021-04-25 00:00","2021","04","25","00:00"
"-81.24","68.78","SANIRAJAK AIRPORT","2402356","2021-04-25 01:00","2021","04","25","01:00"
"-81.24","68.78","SANIRAJAK AIRPORT","2402356","2021-04-25 02:00","2021","04","25","02:00"
"-81.24","68.78","SANIRAJAK AIRPORT","2402356","2021-04-25 03:00","2021","04","25","03:00"
"-81.24","68.78","SANIRAJAK AIRPORT","2402356","2021-04-25 04:00","2021","04","25","04:00"
"-81.24","68.78","SANIRAJAK AIRPORT","2402356","2021-04-25 05:00","2021","04","25","05:00"
"-81.24","68.78","SANIRAJAK AIRPORT","2402356","2021-04-25 06:00","2021","04","25","06:00"
"-81.24","68.78","SANIRAJAK AIRPORT","2402356","2021-04-25 07:00","2021","04","25","07:00","-10.1","","-11.4","","90","","","","32","","26","","4.8","","101.40","","","","-19","","Snow,Blowing Snow"
"-81.24","68.78","SANIRAJAK AIRPORT","2402356","2021-04-25 08:00","2021","04","25","08:00","-9.7","","-11.0","","90","","","","32","","25","","4.8","","101.40","","","","-18","","Snow,Blowing Snow"
"-81.24","68.78","SANIRAJAK AIRPORT","2402356","2021-04-25 09:00","2021","04","25","09:00","-9.5","","-11.1","","88","","","","32","","26","","3.2","","101.40","","","","-18","","Snow,Blowing Snow"
"-81.24","68.78","SANIRAJAK AIRPORT","2402356","2021-04-25 10:00","2021","04","25","10:00","-8.7","","-10.3","","88","","","","33","","27","","4.8","","101.39","","","","-17","","Snow,Blowing Snow"
"-81.24","68.78","SANIRAJAK AIRPORT","2402356","2021-04-25 11:00","2021","04","25","11:00","-7.7","","-9.5","","87","","","","34","","25","","8.1","","101.39","","","","-16","","Snow,Blowing Snow"
"-81.24","68.78","SANIRAJAK AIRPORT","2402356","2021-04-25 12:00","2021","04","25","12:00","-7.5","","-9.3","","87","","","","35","","28","","2.4","","101.38","","","","-16","","Snow,Blowing Snow"
"-81.24","68.78","SANIRAJAK AIRPORT","2402356","2021-04-25 13:00","2021","04","25","13:00","-7.3","","-9.1","","87","","","","34","","25","","3.2","","101.35","","","","-15","","Snow,Blowing Snow"
"-81.24","68.78","SANIRAJAK AIRPORT","2402356","2021-04-25 14:00","2021","04","25","14:00","-7.4","","-9.1","","88","","","","34","","32","","3.2","","101.32","","","","-16","","Snow,Blowing Snow"
"-81.24","68.78","SANIRAJAK AIRPORT","2402356","2021-04-25 15:00","2021","04","25","15:00","-7.4","","-8.9","","89","","","","34","","35","","1.6","","101.30","","","","-17","","Snow,Blowing Snow"
"-81.24","68.78","SANIRAJAK AIRPORT","2402356","2021-04-25 16:00","2021","04","25","16:00","-7.2","","-8.6","","90","","","","35","","31","","1.6","","101.28","","","","-16","","Snow,Blowing Snow"
"-81.24","68.78","SANIRAJAK AIRPORT","2402356","2021-04-25 17:00","2021","04","25","17:00","-6.9","","-8.1","","91","","","","35","","34","","3.2","","101.26","","","","-16","","Snow,Blowing Snow"
"-81.24","68.78","SANIRAJAK AIRPORT","2402356","2021-04-25 18:00","2021","04","25","18:00","-6.8","","-8.0","","91","","","","35","","30","","8.1","","101.25","","","","-15","","Snow,Blowing Snow"
"-81.24","68.78","SANIRAJAK AIRPORT","2402356","2021-04-25 19:00","2021","04","25","19:00","-6.9","","-8.0","","92","","","","35","","28","","12.9","","101.23","","","","-15","","Snow,Blowing Snow"
"-81.24","68.78","SANIRAJAK AIRPORT","2402356","2021-04-25 20:00","2021","04","25","20:00"
"-81.24","68.78","SANIRAJAK AIRPORT","2402356","2021-04-25 21:00","2021","04","25","21:00"
"-81.24","68.78","SANIRAJAK AIRPORT","2402356","2021-04-25 22:00","2021","04","25","22:00"
"-81.24","68.78","SANIRAJAK AIRPORT","2402356","2021-04-25 23:00","2021","04","25","23:00"
"-81.24","68.78","SANIRAJAK AIRPORT","2402356","2021-04-26 00:00","2021","04","26","00:00"
"-81.24","68.78","SANIRAJAK AIRPORT","2402356","2021-04-26 01:00","2021","04","26","01:00"
"-81.24","68.78","SANIRAJAK AIRPORT","2402356","2021-04-26 02:00","2021","04","26","02:00"
"-81.24","68.78","SANIRAJAK AIRPORT","2402356","2021-04-26 03:00","2021","04","26","03:00"
"-81.24","68.78","SANIRAJAK AIRPORT","2402356","2021-04-26 04:00","2021","04","26","04:00"
"-81.24","68.78","SANIRAJAK AIRPORT","2402356","2021-04-26 05:00","2021","04","26","05:00"
"-81.24","68.78","SANIRAJAK AIRPORT","2402356","2021-04-26 06:00","2021","04","26","06:00"
"-81.24","68.78","SANIRAJAK AIRPORT","2402356","2021-04-26 07:00","2021","04","26","07:00","-1.1","","-1.4","","98","","","","10","","14","","9.7","","101.09","","","","-6","","Snow"
"-81.24","68.78","SANIRAJAK AIRPORT","2402356","2021-04-26 08:00","2021","04","26","08:00","-0.8","","-1.2","","97","","","","10","","15","","16.1","","101.09","","","","-5","","Snow"
"-81.24","68.78","SANIRAJAK AIRPORT","2402356","2021-04-26 09:00","2021","04","26","09:00","-0.3","","-0.9","","96","","","","10","","20","","4.8","","101.09","","","","-6","","Snow,Blowing Snow"
"-81.24","68.78","SANIRAJAK AIRPORT","2402356","2021-04-26 10:00","2021","04","26","10:00","-0.1","","-0.8","","95","","","","11","","18","","9.7","","101.09","","","","-5","","Snow,Blowing Snow"
"-81.24","68.78","SANIRAJAK AIRPORT","2402356","2021-04-26 11:00","2021","04","26","11:00","0.0","","-0.7","","95","","","","11","","19","","4.8","","101.08","","","","-5","","Snow,Blowing Snow"
"-81.24","68.78","SANIRAJAK AIRPORT","2402356","2021-04-26 12:00","2021","04","26","12:00","0.3","","-0.8","","92","","","","11","","24","","16.1","","101.08","","","","","","NA"
"-81.24","68.78","SANIRAJAK AIRPORT","2402356","2021-04-26 13:00","2021","04","26","13:00","0.0","","-0.8","","94","","","","12","","26","","16.1","","101.10","","","","-6","","Cloudy"
"-81.24","68.78","SANIRAJAK AIRPORT","2402356","2021-04-26 14:00","2021","04","26","14:00","0.1","","-1.3","","90","","","","14","","23","","16.1","","101.13","","","","","","NA"
"-81.24","68.78","SANIRAJAK AIRPORT","2402356","2021-04-26 15:00","2021","04","26","15:00","-0.8","","-2.3","","90","","","","15","","27","","16.1","","101.18","","","","-7","","Snow"
"-81.24","68.78","SANIRAJAK AIRPORT","2402356","2021-04-26 16:00","2021","04","26","16:00","-3.2","","-4.5","","91","","","","17","","30","","16.1","","101.26","","","","-11","","Cloudy"
"-81.24","68.78","SANIRAJAK AIRPORT","2402356","2021-04-26 17:00","2021","04","26","17:00","-4.5","","-6.0","","89","","","","17","","28","","16.1","","101.31","","","","-12","","NA"
"-81.24","68.78","SANIRAJAK AIRPORT","2402356","2021-04-26 18:00","2021","04","26","18:00","-5.7","","-7.0","","91","","","","17","","27","","16.1","","101.39","","","","-14","","NA"
"-81.24","68.78","SANIRAJAK AIRPORT","2402356","2021-04-26 19:00","2021","04","26","19:00","-6.7","","-8.0","","91","","","","16","","21","","16.1","","101.44","","","","-14","","Mainly Clear"
"-81.24","68.78","SANIRAJAK AIRPORT","2402356","2021-04-26 20:00","2021","04","26","20:00"
"-81.24","68.78","SANIRAJAK AIRPORT","2402356","2021-04-26 21:00","2021","04","26","21:00"
"-81.24","68.78","SANIRAJAK AIRPORT","2402356","2021-04-26 22:00","2021","04","26","22:00"
"-81.24","68.78","SANIRAJAK AIRPORT","2402356","2021-04-26 23:00","2021","04","26","23:00"
"-81.24","68.78","SANIRAJAK AIRPORT","2402356","2021-04-27 00:00","2021","04","27","00:00"
"-81.24","68.78","SANIRAJAK AIRPORT","2402356","2021-04-27 01:00","2021","04","27","01:00"
"-81.24","68.78","SANIRAJAK AIRPORT","2402356","2021-04-27 02:00","2021","04","27","02:00"
"-81.24","68.78","SANIRAJAK AIRPORT","2402356","2021-04-27 03:00","2021","04","27","03:00"
"-81.24","68.78","SANIRAJAK AIRPORT","2402356","2021-04-27 04:00","2021","04","27","04:00"
"-81.24","68.78","SANIRAJAK AIRPORT","2402356","2021-04-27 05:00","2021","04","27","05:00"
"-81.24","68.78","SANIRAJAK AIRPORT","2402356","2021-04-27 06:00","2021","04","27","06:00"
"-81.24","68.78","SANIRAJAK AIRPORT","2402356","2021-04-27 07:00","2021","04","27","07:00","-19.4","","-21.2","","86","","","","20","","17","","16.1","","102.19","","","","-29","","Mainly Clear"
"-81.24","68.78","SANIRAJAK AIRPORT","2402356","2021-04-27 08:00","2021","04","27","08:00","-18.4","","-20.2","","86","","","","20","","19","","16.1","","102.26","","","","-28","","NA"
"-81.24","68.78","SANIRAJAK AIRPORT","2402356","2021-04-27 09:00","2021","04","27","09:00","-17.9","","-19.7","","86","","","","24","","16","","16.1","","102.34","","","","-27","","NA"
"-81.24","68.78","SANIRAJAK AIRPORT","2402356","2021-04-27 10:00","2021","04","27","10:00","-15.1","","-16.7","","88","","","","19","","14","","16.1","","102.40","","","","-23","","Mainly Clear"
"-81.24","68.78","SANIRAJAK AIRPORT","2402356","2021-04-27 11:00","2021","04","27","11:00","-14.4","","-17.0","","81","","","","23","","18","","16.1","","102.46","","","","-23","","NA"
"-81.24","68.78","SANIRAJAK AIRPORT","2402356","2021-04-27 12:00","2021","04","27","12:00","-13.7","","-16.7","","79","","","","20","","13","","16.1","","102.52","","","","-21","","NA"
"-81.24","68.78","SANIRAJAK AIRPORT","2402356","2021-04-27 13:00","2021","04","27","13:00","-10.9","","-13.6","","81","","","","21","","15","","16.1","","102.58","","","","-18","","Snow"
"-81.24","68.78","SANIRAJAK AIRPORT","2402356","2021-04-27 14:00","2021","04","27","14:00","-9.7","","-12.5","","80","","","","18","","18","","16.1","","102.61","","","","-17","","Snow"
"-81.24","68.78","SANIRAJAK AIRPORT","2402356","2021-04-27 15:00","2021","04","27","15:00","-9.5","","-12.1","","81","","","","18","","20","","16.1","","102.66","","","","-17","","Snow"
"-81.24","68.78","SANIRAJAK AIRPORT","2402356","2021-04-27 16:00","2021","04","27","16:00","-9.8","","-12.4","","82","","","","15","","18","","16.1","","102.68","","","","-17","","Snow"
"-81.24","68.78","SANIRAJAK AIRPORT","2402356","2021-04-27 17:00","2021","04","27","17:00","-9.9","","-12.1","","84","","","","15","","17","","16.1","","102.70","","","","-17","","Snow"
"-81.24","68.78","SANIRAJAK AIRPORT","2402356","2021-04-27 18:00","2021","04","27","18:00","-10.0","","-12.1","","85","","","","14","","25","","16.1","","102.69","","","","-19","","Snow"
"-81.24","68.78","SANIRAJAK AIRPORT","2402356","2021-04-27 19:00","2021","04","27","19:00","-9.7","","-11.5","","87","","","","13","","21","","16.1","","102.70","","","","-18","","Snow"
"-81.24","68.78","SANIRAJAK AIRPORT","2402356","2021-04-27 20:00","2021","04","27","20:00"
"-81.24","68.78","SANIRAJAK AIRPORT","2402356","2021-04-27 21:00","2021","04","27","21:00"
"-81.24","68.78","SANIRAJAK AIRPORT","2402356","2021-04-27 22:00","2021","04","27","22:00"
"-81.24","68.78","SANIRAJAK AIRPORT","2402356","2021-04-27 23:00","2021","04","27","23:00"
"-81.24","68.78","SANIRAJAK AIRPORT","2402356","2021-04-28 00:00","2021","04","28","00:00"
"-81.24","68.78","SANIRAJAK AIRPORT","2402356","2021-04-28 01:00","2021","04","28","01:00"
"-81.24","68.78","SANIRAJAK AIRPORT","2402356","2021-04-28 02:00","2021","04","28","02:00"
"-81.24","68.78","SANIRAJAK AIRPORT","2402356","2021-04-28 03:00","2021","04","28","03:00"
"-81.24","68.78","SANIRAJAK AIRPORT","2402356","2021-04-28 04:00","2021","04","28","04:00"
"-81.24","68.78","SANIRAJAK AIRPORT","2402356","2021-04-28 05:00","2021","04","28","05:00"
"-81.24","68.78","SANIRAJAK AIRPORT","2402356","2021-04-28 06:00","2021","04","28","06:00"
"-81.24","68.78","SANIRAJAK AIRPORT","2402356","2021-04-28 07:00","2021","04","28","07:00","-5.6","","-7.7","","85","","","","14","","30","","16.1","","102.50","","","","-14","","Blowing Snow"
"-81.24","68.78","SANIRAJAK AIRPORT","2402356","2021-04-28 08:00","2021","04","28","08:00","-5.7","","-6.9","","91","","","","11","","26","","16.1","","102.43","","","","-13","","Blowing Snow"
"-81.24","68.78","SANIRAJAK AIRPORT","2402356","2021-04-28 09:00","2021","04","28","09:00","-5.6","","-7.0","","90","","","","10","","30","","16.1","","102.31","","","","-14","","Blowing Snow"
"-81.24","68.78","SANIRAJAK AIRPORT","2402356","2021-04-28 10:00","2021","04","28","10:00","-5.3","","-7.0","","88","","","","10","","32","","16.1","","102.20","","","","-14","","Blowing Snow"
"-81.24","68.78","SANIRAJAK AIRPORT","2402356","2021-04-28 11:00","2021","04","28","11:00","-4.2","","-6.5","","84","","","","10","","34","","16.1","","102.11","","","","-12","","Blowing Snow"
"-81.24","68.78","SANIRAJAK AIRPORT","2402356","2021-04-28 12:00","2021","04","28","12:00","-3.9","","-6.3","","84","","","","10","","35","","16.1","","101.99","","","","-12","","Blowing Snow"
"-81.24","68.78","SANIRAJAK AIRPORT","2402356","2021-04-28 13:00","2021","04","28","13:00","-3.3","","-5.9","","82","","","","11","","43","","9.7","","101.90","","","","-12","","Blowing Snow"
"-81.24","68.78","SANIRAJAK AIRPORT","2402356","2021-04-28 14:00","2021","04","28","14:00","-3.3","","-6.1","","81","","","","12","","37","","9.7","","101.83","","","","-12","","Blowing Snow"
"-81.24","68.78","SANIRAJAK AIRPORT","2402356","2021-04-28 15:00","2021","04","28","15:00","-4.0","","-5.8","","87","","","","12","","40","","1.6","","101.76","","","","-13","","Snow,Blowing Snow"
"-81.24","68.78","SANIRAJAK AIRPORT","2402356","2021-04-28 16:00","2021","04","28","16:00","-4.3","","-5.3","","93","","","","12","","38","","1.0","","101.68","","","","-13","","Snow,Blowing Snow"
"-81.24","68.78","SANIRAJAK AIRPORT","2402356","2021-04-28 17:00","2021","04","28","17:00","-4.2","","-5.2","","93","","","","12","","36","","1.2","","101.63","","","","-13","","Snow,Blowing Snow"
"-81.24","68.78","SANIRAJAK AIRPORT","2402356","2021-04-28 18:00","2021","04","28","18:00","-4.1","","-5.1","","93","","","","13","","36","","2.4","","101.60","","","","-12","","Snow,Blowing Snow"
"-81.24","68.78","SANIRAJAK AIRPORT","2402356","2021-04-28 19:00","2021","04","28","19:00","-4.0","","-4.8","","94","","","","12","","31","","2.4","","101.55","","","","-12","","Snow,Blowing Snow"
"-81.24","68.78","SANIRAJAK AIRPORT","2402356","2021-04-28 20:00","2021","04","28","20:00"
"-81.24","68.78","SANIRAJAK AIRPORT","2402356","2021-04-28 21:00","2021","04","28","21:00"
"-81.24","68.78","SANIRAJAK AIRPORT","2402356","2021-04-28 22:00","2021","04","28","22:00"
"-81.24","68.78","SANIRAJAK AIRPORT","2402356","2021-04-28 23:00","2021","04","28","23:00"
"-81.24","68.78","SANIRAJAK AIRPORT","2402356","2021-04-29 00:00","2021","04","29","00:00"
"-81.24","68.78","SANIRAJAK AIRPORT","2402356","2021-04-29 01:00","2021","04","29","01:00"
"-81.24","68.78","SANIRAJAK AIRPORT","2402356","2021-04-29 02:00","2021","04","29","02:00"
"-81.24","68.78","SANIRAJAK AIRPORT","2402356","2021-04-29 03:00","2021","04","29","03:00"
"-81.24","68.78","SANIRAJAK AIRPORT","2402356","2021-04-29 04:00","2021","04","29","04:00"
"-81.24","68.78","SANIRAJAK AIRPORT","2402356","2021-04-29 05:00","2021","04","29","05:00"
"-81.24","68.78","SANIRAJAK AIRPORT","2402356","2021-04-29 06:00","2021","04","29","06:00"
"-81.24","68.78","SANIRAJAK AIRPORT","2402356","2021-04-29 07:00","2021","04","29","07:00","-14.9","","-16.9","","85","","","","30","","22","","16.1","","101.86","","","","-24","","Blowing Snow"
"-81.24","68.78","SANIRAJAK AIRPORT","2402356","2021-04-29 08:00","2021","04","29","08:00","-13.3","","-15.5","","84","","","","31","","23","","16.1","","101.87","","","","-23","","Blowing Snow"
"-81.24","68.78","SANIRAJAK AIRPORT","2402356","2021-04-29 09:00","2021","04","29","09:00","-12.2","","-14.4","","84","","","","30","","21","","16.1","","101.90","","","","-21","","Blowing Snow"
"-81.24","68.78","SANIRAJAK AIRPORT","2402356","2021-04-29 10:00","2021","04","29","10:00","-10.6","","-12.8","","84","","","","31","","18","","16.1","","101.90","","","","-18","","Mainly Clear"
"-81.24","68.78","SANIRAJAK AIRPORT","2402356","2021-04-29 11:00","2021","04","29","11:00","-9.3","","-11.5","","84","","","","31","","20","","16.1","","101.91","","","","-17","","Blowing Snow"
"-81.24","68.78","SANIRAJAK AIRPORT","2402356","2021-04-29 12:00","2021","04","29","12:00","-8.2","","-10.6","","83","","","","31","","19","","16.1","","101.95","","","","-15","","Blowing Snow"
"-81.24","68.78","SANIRAJAK AIRPORT","2402356","2021-04-29 13:00","2021","04","29","13:00","-7.0","","-9.5","","83","","","","34","","17","","16.1","","101.97","","","","-13","","Blowing Snow"
"-81.24","68.78","SANIRAJAK AIRPORT","2402356","2021-04-29 14:00","2021","04","29","14:00","-7.1","","-9.7","","82","","","","32","","20","","16.1","","102.01","","","","-14","","NA"
"-81.24","68.78","SANIRAJAK AIRPORT","2402356","2021-04-29 15:00","2021","04","29","15:00","-7.5","","-10.2","","81","","","","34","","14","","16.1","","102.08","","","","-13","","NA"
"-81.24","68.78","SANIRAJAK AIRPORT","2402356","2021-04-29 16:00","2021","04","29","16:00","-8.2","","-10.6","","83","","","","33","","12","","16.1","","102.11","","","","-14","","Mainly Clear"
"-81.24","68.78","SANIRAJAK AIRPORT","2402356","2021-04-29 17:00","2021","04","29","17:00","-9.1","","-11.3","","84","","","","31","","13","","16.1","","102.15","","","","-15","","NA"
"-81.24","68.78","SANIRAJAK AIRPORT","2402356","2021-04-29 18:00","2021","04","29","18:00","-11.3","","-13.5","","84","","","","31","","16","","16.1","","102.14","","","","-19","","NA"
"-81.24","68.78","SANIRAJAK AIRPORT","2402356","2021-04-29 19:00","2021","04","29","19:00","-13.7","","-15.8","","84","","","","32","","16","","16.1","","102.18","","","","-22","","Mainly Clear"
"-81.24","68.78","SANIRAJAK AIRPORT","2402356","2021-04-29 20:00","2021","04","29","20:00"
"-81.24","68.78","SANIRAJAK AIRPORT","2402356","2021-04-29 21:00","2021","04","29","21:00"
"-81.24","68.78","SANIRAJAK AIRPORT","2402356","2021-04-29 22:00","2021","04","29","22:00"
"-81.24","68.78","SANIRAJAK AIRPORT","2402356","2021-04-29 23:00","2021","04","29","23:00"
"-81.24","68.78","SANIRAJAK AIRPORT","2402356","2021-04-30 00:00","2021","04","30","00:00"
"-81.24","68.78","SANIRAJAK AIRPORT","2402356","2021-04-30 01:00","2021","04","30","01:00"
"-81.24","68.78","SANIRAJAK AIRPORT","2402356","2021-04-30 02:00","2021","04","30","02:00"
"-81.24","68.78","SANIRAJAK AIRPORT","2402356","2021-04-30 03:00","2021","04","30","03:00"
"-81.24","68.78","SANIRAJAK AIRPORT","2402356","2021-04-30 04:00","2021","04","30","04:00"
"-81.24","68.78","SANIRAJAK AIRPORT","2402356","2021-04-30 05:00","2021","04","30","05:00"
"-81.24","68.78","SANIRAJAK AIRPORT","2402356","2021-04-30 06:00","2021","04","30","06:00"
"-81.24","68.78","SANIRAJAK AIRPORT","2402356","2021-04-30 07:00","2021","04","30","07:00","-9.2","","-10.0","","94","","","","35","","13","","0.4","","102.19","","","","-15","","Freezing Fog"
"-81.24","68.78","SANIRAJAK AIRPORT","2402356","2021-04-30 08:00","2021","04","30","08:00","-7.7","","-8.4","","95","","","","4","","9","","0.4","","102.18","","","","-12","","Freezing Fog"
"-81.24","68.78","SANIRAJAK AIRPORT","2402356","2021-04-30 09:00","2021","04","30","09:00","-6.7","","-7.4","","95","","","","2","","11","","4.8","","102.16","","","","-12","","Fog"
"-81.24","68.78","SANIRAJAK AIRPORT","2402356","2021-04-30 10:00","2021","04","30","10:00","-5.8","","-6.3","","96","","","","1","","13","","4.8","","102.10","","","","-11","","Fog"
"-81.24","68.78","SANIRAJAK AIRPORT","2402356","2021-04-30 11:00","2021","04","30","11:00","-5.1","","-5.6","","96","","","","2","","16","","1.0","","102.08","","","","-11","","Fog"
"-81.24","68.78","SANIRAJAK AIRPORT","2402356","2021-04-30 12:00","2021","04","30","12:00","-4.4","","-4.8","","97","","","","1","","18","","1.0","","102.02","","","","-10","","Fog"
"-81.24","68.78","SANIRAJAK AIRPORT","2402356","2021-04-30 13:00","2021","04","30","13:00","-3.7","","-4.1","","97","","","","2","","23","","9.7","","101.96","","","","-10","","Fog,Blowing Snow"
"-81.24","68.78","SANIRAJAK AIRPORT","2402356","2021-04-30 14:00","2021","04","30","14:00","-3.0","","-3.4","","97","","","","2","","24","","2.4","","101.91","","","","-10","","Snow,Fog,Blowing Snow"
"-81.24","68.78","SANIRAJAK AIRPORT","2402356","2021-04-30 15:00","2021","04","30","15:00","-2.3","","-3.0","","95","","","","3","","26","","4.8","","101.85","","","","-9","","Snow,Fog,Blowing Snow"
"-81.24","68.78","SANIRAJAK AIRPORT","2402356","2021-04-30 16:00","2021","04","30","16:00","-1.8","","-2.6","","94","","","","3","","23","","3.2","","101.79","","","","-8","","Snow,Fog,Blowing Snow"
"-81.24","68.78","SANIRAJAK AIRPORT","2402356","2021-04-30 17:00","2021","04","30","17:00","-1.1","","-1.8","","95","","","","4","","20","","4.8","","101.74","","","","-7","","Snow,Fog,Blowing Snow"
"-81.24","68.78","SANIRAJAK AIRPORT","2402356","2021-04-30 18:00","2021","04","30","18:00","-0.5","","-0.9","","97","","","","6","","16","","4.8","","101.69","","","","-5","","Snow,Fog"
"-81.24","68.78","SANIRAJAK AIRPORT","2402356","2021-04-30 19:00","2021","04","30","19:00","-0.3","","-0.6","","98","","","","9","","13","","4.8","","101.67","","","","-4","","Snow,Fog"
"-81.24","68.78","SANIRAJAK AIRPORT","2402356","2021-04-30 20:00","2021","04","30","20:00"
"-81.24","68.78","SANIRAJAK AIRPORT","2402356","2021-04-30 21:00","2021","04","30","21:00"
"-81.24","68.78","SANIRAJAK AIRPORT","2402356","2021-04-30 22:00","2021","04","30","22:00"
"-81.24","68.78","SANIRAJAK AIRPORT","2402356","2021-04-30 23:00","2021","04","30","23:00"
