"Longitude (x)","Latitude (y)","Station Name","Climate ID","Date/Time (LST)","Year","Month","Day","Time (LST)","Temp (°C)","Temp Flag","Dew Point Temp (°C)","Dew Point Temp Flag","Rel Hum (%)","Rel Hum Flag","Precip. Amount (mm)","Precip. Amount Flag","Wind Dir (10s deg)","Wind Dir Flag","Wind Spd (km/h)","Wind Spd Flag","Visibility (km)","Visibility Flag","Stn Press (kPa)","Stn Press Flag","Hmdx","Hmdx Flag","Wind Chill","Wind Chill Flag","Weather"
"-78.84","48.21","ROUYN-NORANDA A","7086719","2018-02-01 00:00","2018","02","01","00:00","-7.0","","-8.2","","91","","","","21","","19","","16.1","","96.16","","","","-14","","Snow"
"-78.84","48.21","ROUYN-NORANDA A","7086719","2018-02-01 01:00","2018","02","01","01:00","-6.5","","-7.9","","90","","","","22","","19","","16.1","","96.17","","","","-13","","Snow"
"-78.84","48.21","ROUYN-NORANDA A","7086719","2018-02-01 02:00","2018","02","01","02:00","-6.0","","-8.2","","84","","","","26","","17","","24.1","","96.23","","","","-12","","Snow"
"-78.84","48.21","ROUYN-NORANDA A","7086719","2018-02-01 03:00","2018","02","01","03:00","-6.6","","-8.6","","86","","","","25","","14","","24.1","","96.30","","","","-12","","Snow"
"-78.84","48.21","ROUYN-NORANDA A","7086719","2018-02-01 04:00","2018","02","01","04:00","-6.9","","-8.6","","88","","","","28","","5","","24.1","","96.29","","","","-9","","Snow"
"-78.84","48.21","ROUYN-NORANDA A","7086719","2018-02-01 05:00","2018","02","01","05:00","-7.9","","-11.1","","78","","","","29","","17","","24.1","","96.40","","","","-15","","Snow"
"-78.84","48.21","ROUYN-NORANDA A","7086719","2018-02-01 06:00","2018","02","01","06:00","-9.2","","-11.3","","85","","","","33","","16","","4.0","","96.39","","","","-16","","Snow"
"-78.84","48.21","ROUYN-NORANDA A","7086719","2018-02-01 07:00","2018","02","01","07:00","-11.4","","-13.5","","85","","","","35","","9","","3.2","","96.44","","","","-17","","Snow"
"-78.84","48.21","ROUYN-NORANDA A","7086719","2018-02-01 08:00","2018","02","01","08:00","-12.5","","-15.0","","82","","","","32","","16","","3.2","","96.55","","","","-20","","Snow"
"-78.84","48.21","ROUYN-NORANDA A","7086719","2018-02-01 09:00","2018","02","01","09:00","-13.6","","-16.0","","82","","","","33","","16","","2.0","","96.56","","","","-21","","Snow"
"-78.84","48.21","ROUYN-NORANDA A","7086719","2018-02-01 10:00","2018","02","01","10:00","-14.7","","-18.7","","72","","","","32","","17","","8.1","","96.64","","","","-23","","Snow"
"-78.84","48.21","ROUYN-NORANDA A","7086719","2018-02-01 11:00","2018","02","01","11:00","-15.2","","-20.5","","64","","","","31","","13","","24.1","","96.71","","","","-23","","NA"
"-78.84","48.21","ROUYN-NORANDA A","7086719","2018-02-01 12:00","2018","02","01","12:00","-15.6","","-20.8","","65","","","","31","","14","","24.1","","96.77","","","","-23","","Snow"
"-78.84","48.21","ROUYN-NORANDA A","7086719","2018-02-01 13:00","2018","02","01","13:00","-14.8","","-22.0","","54","","","","28","","24","","24.1","","96.82","","","","-25","","Mostly Cloudy"
"-78.84","48.21","ROUYN-NORANDA A","7086719","2018-02-01 14:00","2018","02","01","14:00","-15.4","","-22.4","","56","","","","29","","23","","24.1","","96.89","","","","-25","","NA"
"-78.84","48.21","ROUYN-NORANDA A","7086719","2018-02-01 15:00","2018","02","01","15:00","-15.5","","-22.9","","53","","","","30","","26","","24.1","","97.01","","","","-26","","Blowing Snow"
"-78.84","48.21","ROUYN-NORANDA A","7086719","2018-02-01 16:00","2018","02","01","16:00","-16.9","","-23.0","","60","","","","29","","21","","19.3","","97.16","","","","-27","","Snow,Blowing Snow"
"-78.84","48.21","ROUYN-NORANDA A","7086719","2018-02-01 17:00","2018","02","01","17:00","-17.8","","-21.7","","72","","","","30","","16","","4.0","","97.31","","","","-27","","Snow,Blowing Snow"
"-78.84","48.21","ROUYN-NORANDA A","7086719","2018-02-01 18:00","2018","02","01","18:00","-18.3","","-22.2","","72","","","","33","","12","","19.3","","97.50","","","","-26","","Snow"
"-78.84","48.21","ROUYN-NORANDA A","7086719","2018-02-01 19:00","2018","02","01","19:00","-19.5","","-23.7","","70","","","","32","","19","","24.1","","97.64","","","","-30","","Snow"
"-78.84","48.21","ROUYN-NORANDA A","7086719","2018-02-01 20:00","2018","02","01","20:00","-20.0","","-24.3","","69","","","","30","","10","","24.1","","97.73","","","","-27","","Snow"
"-78.84","48.21","ROUYN-NORANDA A","7086719","2018-02-01 21:00","2018","02","01","21:00","-20.7","","-24.8","","71","","","","32","","18","","24.1","","97.82","","","","-31","","Snow"
"-78.84","48.21","ROUYN-NORANDA A","7086719","2018-02-01 22:00","2018","02","01","22:00","-21.5","","-25.6","","70","","","","33","","17","","24.1","","97.91","","","","-32","","Mainly Clear"
"-78.84","48.21","ROUYN-NORANDA A","7086719","2018-02-01 23:00","2018","02","01","23:00","-22.3","","-25.9","","73","","","","30","","9","","24.1","","97.97","","","","-29","","Snow"
"-78.84","48.21","ROUYN-NORANDA A","7086719","2018-02-02 00:00","2018","02","02","00:00","-22.9","","-26.3","","74","","","","29","","7","","24.1","","98.04","","","","-29","","Snow"
"-78.84","48.21","ROUYN-NORANDA A","7086719","2018-02-02 01:00","2018","02","02","01:00","-23.0","","-26.2","","75","","","","30","","9","","24.1","","98.07","","","","-30","","Snow"
"-78.84","48.21","ROUYN-NORANDA A","7086719","2018-02-02 02:00","2018","02","02","02:00","-23.0","","-26.4","","74","","","","31","","10","","24.1","","98.15","","","","-31","","Snow"
"-78.84","48.21","ROUYN-NORANDA A","7086719","2018-02-02 03:00","2018","02","02","03:00","-23.4","","-26.7","","75","","","","31","","11","","24.1","","98.23","","","","-32","","Snow"
"-78.84","48.21","ROUYN-NORANDA A","7086719","2018-02-02 04:00","2018","02","02","04:00","-24.2","","-27.4","","76","","","","29","","7","","24.1","","98.27","","","","-31","","Snow"
"-78.84","48.21","ROUYN-NORANDA A","7086719","2018-02-02 05:00","2018","02","02","05:00","-25.0","","-28.1","","76","","","","30","","10","","24.1","","98.30","","","","-33","","Snow"
"-78.84","48.21","ROUYN-NORANDA A","7086719","2018-02-02 06:00","2018","02","02","06:00","-24.6","","-27.7","","76","","","","31","","11","","24.1","","98.33","","","","-33","","Ice Crystals"
"-78.84","48.21","ROUYN-NORANDA A","7086719","2018-02-02 07:00","2018","02","02","07:00","-24.9","","-27.9","","76","","","","32","","16","","24.1","","98.42","","","","-35","","Snow"
"-78.84","48.21","ROUYN-NORANDA A","7086719","2018-02-02 08:00","2018","02","02","08:00","-25.6","","-28.8","","75","","","","33","","17","","24.1","","98.48","","","","-37","","Snow"
"-78.84","48.21","ROUYN-NORANDA A","7086719","2018-02-02 09:00","2018","02","02","09:00","-25.5","","-29.1","","73","","","","32","","11","","24.1","","98.55","","","","-34","","Snow"
"-78.84","48.21","ROUYN-NORANDA A","7086719","2018-02-02 10:00","2018","02","02","10:00","-25.0","","-29.6","","66","","","","29","","16","","24.1","","98.55","","","","-36","","Ice Crystals"
"-78.84","48.21","ROUYN-NORANDA A","7086719","2018-02-02 11:00","2018","02","02","11:00","-23.9","","-29.3","","62","","","","31","","14","","24.1","","98.59","","","","-34","","Ice Crystals"
"-78.84","48.21","ROUYN-NORANDA A","7086719","2018-02-02 12:00","2018","02","02","12:00","-22.9","","-29.0","","58","","","","33","","18","","24.1","","98.56","","","","-34","","Ice Crystals"
"-78.84","48.21","ROUYN-NORANDA A","7086719","2018-02-02 13:00","2018","02","02","13:00","-22.4","","-28.0","","61","","","","33","","14","","24.1","","98.47","","","","-32","","Ice Crystals"
"-78.84","48.21","ROUYN-NORANDA A","7086719","2018-02-02 14:00","2018","02","02","14:00","-20.8","","-27.8","","54","","","","27","","22","","24.1","","98.35","","","","-32","","Ice Crystals"
"-78.84","48.21","ROUYN-NORANDA A","7086719","2018-02-02 15:00","2018","02","02","15:00","-21.4","","-28.1","","56","","","","28","","22","","24.1","","98.36","","","","-33","","Ice Crystals"
"-78.84","48.21","ROUYN-NORANDA A","7086719","2018-02-02 16:00","2018","02","02","16:00","-21.1","","-26.9","","61","","","","29","","14","","24.1","","98.36","","","","-30","","Ice Crystals"
"-78.84","48.21","ROUYN-NORANDA A","7086719","2018-02-02 17:00","2018","02","02","17:00","-21.6","","-26.6","","64","","","","28","","12","","24.1","","98.36","","","","-30","","Ice Crystals"
"-78.84","48.21","ROUYN-NORANDA A","7086719","2018-02-02 18:00","2018","02","02","18:00","-22.4","","-25.9","","74","","","","28","","5","","24.1","","98.35","","","","-27","","Ice Crystals"
"-78.84","48.21","ROUYN-NORANDA A","7086719","2018-02-02 19:00","2018","02","02","19:00","-23.1","","-26.1","","77","","","","25","","3","","24.1","","98.35","","","","-26","","Ice Crystals"
"-78.84","48.21","ROUYN-NORANDA A","7086719","2018-02-02 20:00","2018","02","02","20:00","-24.7","","-27.4","","79","","","","23","","3","","16.1","","98.33","","","","-28","","Snow"
"-78.84","48.21","ROUYN-NORANDA A","7086719","2018-02-02 21:00","2018","02","02","21:00","-25.1","","-27.8","","79","","","","36","","1","","9.7","","98.30","","","","-26","","Snow"
"-78.84","48.21","ROUYN-NORANDA A","7086719","2018-02-02 22:00","2018","02","02","22:00","-26.9","","-29.7","","78","","","","36","","1","","24.1","","98.26","","","","-28","","Ice Crystals"
"-78.84","48.21","ROUYN-NORANDA A","7086719","2018-02-02 23:00","2018","02","02","23:00","-29.2","","-32.1","","77","","","","36","","2","","24.1","","98.24","","","","-31","","Ice Crystals"
"-78.84","48.21","ROUYN-NORANDA A","7086719","2018-02-03 00:00","2018","02","03","00:00","-30.1","","-33.1","","76","","","","4","","5","","24.1","","98.21","","","","-36","","Ice Crystals"
"-78.84","48.21","ROUYN-NORANDA A","7086719","2018-02-03 01:00","2018","02","03","01:00","-30.7","","-33.9","","74","","","","6","","3","","24.1","","98.18","","","","-34","","Ice Crystals"
"-78.84","48.21","ROUYN-NORANDA A","7086719","2018-02-03 02:00","2018","02","03","02:00","-33.1","","-36.5","","73","","","","6","","3","","24.1","","98.14","","","","-37","","Ice Crystals"
"-78.84","48.21","ROUYN-NORANDA A","7086719","2018-02-03 03:00","2018","02","03","03:00","-33.6","","-37.0","","73","","","","36","","3","","24.1","","98.15","","","","-37","","Ice Crystals"
"-78.84","48.21","ROUYN-NORANDA A","7086719","2018-02-03 04:00","2018","02","03","04:00","-33.3","","-36.7","","73","","","","36","","3","","24.1","","98.15","","","","-37","","Clear"
"-78.84","48.21","ROUYN-NORANDA A","7086719","2018-02-03 05:00","2018","02","03","05:00","-35.4","","-38.9","","71","","","","9","","4","","24.1","","98.17","","","","-40","","Ice Crystals"
"-78.84","48.21","ROUYN-NORANDA A","7086719","2018-02-03 06:00","2018","02","03","06:00","-35.3","","-38.8","","71","","","","0","","1","","24.1","","98.21","","","","-37","","Ice Crystals"
"-78.84","48.21","ROUYN-NORANDA A","7086719","2018-02-03 07:00","2018","02","03","07:00","-36.0","","-39.6","","71","","","","36","","2","","24.1","","98.24","","","","-39","","Ice Crystals"
"-78.84","48.21","ROUYN-NORANDA A","7086719","2018-02-03 08:00","2018","02","03","08:00","-36.7","","-40.3","","70","","","","36","","2","","24.1","","98.25","","","","-39","","Ice Crystals"
"-78.84","48.21","ROUYN-NORANDA A","7086719","2018-02-03 09:00","2018","02","03","09:00","-34.0","","-37.6","","71","","","","36","","1","","24.1","","98.25","","","","-35","","Ice Crystals"
"-78.84","48.21","ROUYN-NORANDA A","7086719","2018-02-03 10:00","2018","02","03","10:00","-28.5","","-31.9","","74","","","","20","","4","","24.1","","98.27","","","","-33","","Ice Crystals"
"-78.84","48.21","ROUYN-NORANDA A","7086719","2018-02-03 11:00","2018","02","03","11:00","-23.9","","-27.2","","74","","","","22","","4","","24.1","","98.25","","","","-28","","Ice Crystals"
"-78.84","48.21","ROUYN-NORANDA A","7086719","2018-02-03 12:00","2018","02","03","12:00","-21.6","","-27.0","","63","","","","23","","9","","24.1","","98.17","","","","-29","","NA"
"-78.84","48.21","ROUYN-NORANDA A","7086719","2018-02-03 13:00","2018","02","03","13:00","-20.5","","-27.4","","55","","","","25","","9","","24.1","","98.10","","","","-27","","Mainly Clear"
"-78.84","48.21","ROUYN-NORANDA A","7086719","2018-02-03 14:00","2018","02","03","14:00","-19.7","","-26.7","","54","","","","24","","16","","24.1","","98.00","","","","-29","","NA"
"-78.84","48.21","ROUYN-NORANDA A","7086719","2018-02-03 15:00","2018","02","03","15:00","-19.0","","-26.1","","54","","","","23","","13","","24.1","","97.95","","","","-27","","NA"
"-78.84","48.21","ROUYN-NORANDA A","7086719","2018-02-03 16:00","2018","02","03","16:00","-18.6","","-25.5","","55","","","","23","","9","","24.1","","97.93","","","","-25","","Mostly Cloudy"
"-78.84","48.21","ROUYN-NORANDA A","7086719","2018-02-03 17:00","2018","02","03","17:00","-18.9","","-24.6","","61","","","","22","","9","","24.1","","97.93","","","","-25","","NA"
"-78.84","48.21","ROUYN-NORANDA A","7086719","2018-02-03 18:00","2018","02","03","18:00","-19.8","","-24.8","","65","","","","20","","8","","24.1","","97.96","","","","-26","","NA"
"-78.84","48.21","ROUYN-NORANDA A","7086719","2018-02-03 19:00","2018","02","03","19:00","-20.6","","-25.0","","68","","","","17","","7","","24.1","","97.93","","","","-26","","Mostly Cloudy"
"-78.84","48.21","ROUYN-NORANDA A","7086719","2018-02-03 20:00","2018","02","03","20:00","-20.3","","-24.6","","69","","","","13","","4","","24.1","","97.87","","","","-24","","NA"
"-78.84","48.21","ROUYN-NORANDA A","7086719","2018-02-03 21:00","2018","02","03","21:00","-20.3","","-24.4","","71","","","","14","","3","","16.1","","97.83","","","","-23","","Snow"
"-78.84","48.21","ROUYN-NORANDA A","7086719","2018-02-03 22:00","2018","02","03","22:00","-20.2","","-23.3","","76","","","","36","","2","","4.8","","97.82","","","","-22","","Snow"
"-78.84","48.21","ROUYN-NORANDA A","7086719","2018-02-03 23:00","2018","02","03","23:00","-20.2","","-22.8","","80","","","","6","","3","","3.2","","97.79","","","","-23","","Snow"
"-78.84","48.21","ROUYN-NORANDA A","7086719","2018-02-04 00:00","2018","02","04","00:00","-19.9","","-22.4","","81","","","","9","","4","","4.0","","97.75","","","","-23","","Snow"
"-78.84","48.21","ROUYN-NORANDA A","7086719","2018-02-04 01:00","2018","02","04","01:00","-19.7","","-22.2","","81","","","","5","","5","","3.2","","97.73","","","","-24","","Snow"
"-78.84","48.21","ROUYN-NORANDA A","7086719","2018-02-04 02:00","2018","02","04","02:00","-19.7","","-22.1","","81","","","","3","","5","","3.2","","97.70","","","","-24","","Snow"
"-78.84","48.21","ROUYN-NORANDA A","7086719","2018-02-04 03:00","2018","02","04","03:00","-19.7","","-22.2","","81","","","","4","","5","","32.2","","97.68","","","","-24","","Snow"
"-78.84","48.21","ROUYN-NORANDA A","7086719","2018-02-04 04:00","2018","02","04","04:00","-19.9","","-22.4","","81","","","","5","","5","","9.7","","97.67","","","","-24","","Snow"
"-78.84","48.21","ROUYN-NORANDA A","7086719","2018-02-04 05:00","2018","02","04","05:00","-19.8","","-22.3","","81","","","","2","","7","","4.8","","97.67","","","","-25","","Snow"
"-78.84","48.21","ROUYN-NORANDA A","7086719","2018-02-04 06:00","2018","02","04","06:00","-20.0","","-22.5","","81","","","","4","","7","","24.1","","97.70","","","","-26","","Snow"
"-78.84","48.21","ROUYN-NORANDA A","7086719","2018-02-04 07:00","2018","02","04","07:00","-20.6","","-23.0","","81","","","","5","","8","","24.1","","97.73","","","","-27","","Snow"
"-78.84","48.21","ROUYN-NORANDA A","7086719","2018-02-04 08:00","2018","02","04","08:00","-21.2","","-23.7","","81","","","","2","","10","","24.1","","97.78","","","","-29","","NA"
"-78.84","48.21","ROUYN-NORANDA A","7086719","2018-02-04 09:00","2018","02","04","09:00","-20.8","","-23.6","","79","","","","4","","7","","24.1","","97.81","","","","-27","","NA"
"-78.84","48.21","ROUYN-NORANDA A","7086719","2018-02-04 10:00","2018","02","04","10:00","-18.9","","-22.5","","74","","","","6","","8","","24.1","","97.82","","","","-25","","Mostly Cloudy"
"-78.84","48.21","ROUYN-NORANDA A","7086719","2018-02-04 11:00","2018","02","04","11:00","-17.2","","-22.7","","63","","","","4","","9","","24.1","","97.77","","","","-23","","NA"
"-78.84","48.21","ROUYN-NORANDA A","7086719","2018-02-04 12:00","2018","02","04","12:00","-16.1","","-22.9","","57","","","","2","","8","","24.1","","97.73","","","","-22","","NA"
"-78.84","48.21","ROUYN-NORANDA A","7086719","2018-02-04 13:00","2018","02","04","13:00","-16.2","","-23.2","","56","","","","1","","13","","24.1","","97.63","","","","-24","","Mostly Cloudy"
"-78.84","48.21","ROUYN-NORANDA A","7086719","2018-02-04 14:00","2018","02","04","14:00","-15.6","","-22.4","","56","","","","3","","13","","24.1","","97.58","","","","-23","","NA"
"-78.84","48.21","ROUYN-NORANDA A","7086719","2018-02-04 15:00","2018","02","04","15:00","-15.6","","-23.6","","51","","","","35","","12","","24.1","","97.53","","","","-23","","NA"
"-78.84","48.21","ROUYN-NORANDA A","7086719","2018-02-04 16:00","2018","02","04","16:00","-15.7","","-23.5","","52","","","","2","","8","","24.1","","97.50","","","","-21","","Mostly Cloudy"
"-78.84","48.21","ROUYN-NORANDA A","7086719","2018-02-04 17:00","2018","02","04","17:00","-17.0","","-23.8","","56","","","","33","","7","","24.1","","97.55","","","","-22","","NA"
"-78.84","48.21","ROUYN-NORANDA A","7086719","2018-02-04 18:00","2018","02","04","18:00","-18.1","","-24.3","","59","","","","32","","6","","24.1","","97.55","","","","-23","","NA"
"-78.84","48.21","ROUYN-NORANDA A","7086719","2018-02-04 19:00","2018","02","04","19:00","-18.9","","-24.7","","61","","","","32","","7","","24.1","","97.55","","","","-24","","Mostly Cloudy"
"-78.84","48.21","ROUYN-NORANDA A","7086719","2018-02-04 20:00","2018","02","04","20:00","-19.9","","-25.0","","64","","","","36","","1","","24.1","","97.54","","","","-21","","NA"
"-78.84","48.21","ROUYN-NORANDA A","7086719","2018-02-04 21:00","2018","02","04","21:00","-23.1","","-26.4","","75","","","","36","","1","","24.1","","97.48","","","","-24","","NA"
"-78.84","48.21","ROUYN-NORANDA A","7086719","2018-02-04 22:00","2018","02","04","22:00","-25.8","","-28.6","","78","","","","36","","2","","24.1","","97.49","","","","-28","","Mainly Clear"
"-78.84","48.21","ROUYN-NORANDA A","7086719","2018-02-04 23:00","2018","02","04","23:00","-28.2","","-31.2","","76","","","","36","","2","","24.1","","97.47","","","","-30","","NA"
"-78.84","48.21","ROUYN-NORANDA A","7086719","2018-02-05 00:00","2018","02","05","00:00","-29.7","","-33.0","","73","","","","36","","1","","24.1","","97.48","","","","-31","","NA"
"-78.84","48.21","ROUYN-NORANDA A","7086719","2018-02-05 01:00","2018","02","05","01:00","-30.1","","-34.1","","69","","","","36","","2","","24.1","","97.44","","","","-32","","Clear"
"-78.84","48.21","ROUYN-NORANDA A","7086719","2018-02-05 02:00","2018","02","05","02:00","-31.2","","-35.2","","69","","","","36","","2","","24.1","","97.41","","","","-34","","NA"
"-78.84","48.21","ROUYN-NORANDA A","7086719","2018-02-05 03:00","2018","02","05","03:00","-32.2","","-36.5","","67","","","","24","","4","","24.1","","97.38","","","","-37","","NA"
"-78.84","48.21","ROUYN-NORANDA A","7086719","2018-02-05 04:00","2018","02","05","04:00","-29.3","","-32.4","","75","","","","23","","7","","24.1","","97.41","","","","-36","","Mainly Clear"
"-78.84","48.21","ROUYN-NORANDA A","7086719","2018-02-05 05:00","2018","02","05","05:00","-29.6","","-32.9","","74","","","","25","","6","","24.1","","97.44","","","","-36","","Snow"
"-78.84","48.21","ROUYN-NORANDA A","7086719","2018-02-05 06:00","2018","02","05","06:00","-26.8","","-29.7","","77","","","","26","","8","","24.1","","97.51","","","","-34","","Snow"
"-78.84","48.21","ROUYN-NORANDA A","7086719","2018-02-05 07:00","2018","02","05","07:00","-25.6","","-28.5","","77","","","","24","","9","","24.1","","97.52","","","","-33","","Ice Crystals"
"-78.84","48.21","ROUYN-NORANDA A","7086719","2018-02-05 08:00","2018","02","05","08:00","-25.4","","-28.3","","77","","","","25","","6","","24.1","","97.60","","","","-31","","Snow"
"-78.84","48.21","ROUYN-NORANDA A","7086719","2018-02-05 09:00","2018","02","05","09:00","-22.9","","-25.8","","78","","","","25","","12","","4.8","","97.66","","","","-32","","Snow"
"-78.84","48.21","ROUYN-NORANDA A","7086719","2018-02-05 10:00","2018","02","05","10:00","-21.6","","-24.8","","75","","","","25","","9","","9.7","","97.67","","","","-29","","Snow"
"-78.84","48.21","ROUYN-NORANDA A","7086719","2018-02-05 11:00","2018","02","05","11:00","-18.1","","-23.2","","65","","","","22","","7","","24.1","","97.66","","","","-23","","NA"
"-78.84","48.21","ROUYN-NORANDA A","7086719","2018-02-05 12:00","2018","02","05","12:00","-16.9","","-22.8","","61","","","","23","","18","","24.1","","97.67","","","","-26","","Ice Crystals"
"-78.84","48.21","ROUYN-NORANDA A","7086719","2018-02-05 13:00","2018","02","05","13:00","-16.5","","-21.4","","66","","","","25","","18","","8.1","","97.66","","","","-26","","Snow"
"-78.84","48.21","ROUYN-NORANDA A","7086719","2018-02-05 14:00","2018","02","05","14:00","-15.0","","-19.7","","68","","","","25","","17","","4.0","","97.65","","","","-23","","Snow"
"-78.84","48.21","ROUYN-NORANDA A","7086719","2018-02-05 15:00","2018","02","05","15:00","-14.9","","-19.8","","66","","","","23","","20","","24.1","","97.62","","","","-24","","NA"
"-78.84","48.21","ROUYN-NORANDA A","7086719","2018-02-05 16:00","2018","02","05","16:00","-14.4","","-20.1","","62","","","","24","","26","","24.1","","97.63","","","","-25","","Mostly Cloudy"
"-78.84","48.21","ROUYN-NORANDA A","7086719","2018-02-05 17:00","2018","02","05","17:00","-16.8","","-21.3","","68","","","","25","","13","","24.1","","97.64","","","","-25","","NA"
"-78.84","48.21","ROUYN-NORANDA A","7086719","2018-02-05 18:00","2018","02","05","18:00","-19.5","","-23.0","","74","","","","36","","2","","24.1","","97.67","","","","-21","","NA"
"-78.84","48.21","ROUYN-NORANDA A","7086719","2018-02-05 19:00","2018","02","05","19:00","-19.2","","-21.6","","82","","","","15","","3","","12.9","","97.72","","","","-22","","Snow"
"-78.84","48.21","ROUYN-NORANDA A","7086719","2018-02-05 20:00","2018","02","05","20:00","-18.2","","-20.3","","84","","","","3","","3","","16.1","","97.73","","","","-21","","Snow"
"-78.84","48.21","ROUYN-NORANDA A","7086719","2018-02-05 21:00","2018","02","05","21:00","-19.5","","-21.7","","83","","","","9","","3","","24.1","","97.75","","","","-22","","Snow"
"-78.84","48.21","ROUYN-NORANDA A","7086719","2018-02-05 22:00","2018","02","05","22:00","-19.6","","-21.9","","82","","","","36","","2","","24.1","","97.78","","","","-21","","Snow"
"-78.84","48.21","ROUYN-NORANDA A","7086719","2018-02-05 23:00","2018","02","05","23:00","-18.7","","-21.0","","82","","","","36","","2","","4.0","","97.78","","","","-20","","Snow"
"-78.84","48.21","ROUYN-NORANDA A","7086719","2018-02-06 00:00","2018","02","06","00:00","-18.1","","-20.2","","84","","","","36","","2","","24.1","","97.81","","","","-20","","Snow"
"-78.84","48.21","ROUYN-NORANDA A","7086719","2018-02-06 01:00","2018","02","06","01:00","-20.7","","-23.2","","81","","","","0","","1","","4.0","","97.83","","","","-22","","Snow"
"-78.84","48.21","ROUYN-NORANDA A","7086719","2018-02-06 02:00","2018","02","06","02:00","-21.8","","-24.2","","81","","","","36","","2","","24.1","","97.85","","","","-24","","Snow"
"-78.84","48.21","ROUYN-NORANDA A","7086719","2018-02-06 03:00","2018","02","06","03:00","-22.8","","-25.3","","80","","","","36","","1","","24.1","","97.89","","","","-24","","Snow"
"-78.84","48.21","ROUYN-NORANDA A","7086719","2018-02-06 04:00","2018","02","06","04:00","-23.6","","-26.2","","80","","","","0","","1","","24.1","","97.92","","","","-25","","Snow"
"-78.84","48.21","ROUYN-NORANDA A","7086719","2018-02-06 05:00","2018","02","06","05:00","-25.5","","-28.3","","78","","","","36","","2","","24.1","","98.00","","","","-28","","Snow"
"-78.84","48.21","ROUYN-NORANDA A","7086719","2018-02-06 06:00","2018","02","06","06:00","-24.4","","-27.0","","79","","","","36","","3","","24.1","","98.06","","","","-27","","Snow"
"-78.84","48.21","ROUYN-NORANDA A","7086719","2018-02-06 07:00","2018","02","06","07:00","-23.8","","-26.5","","79","","","","27","","4","","16.1","","98.16","","","","-28","","Snow"
"-78.84","48.21","ROUYN-NORANDA A","7086719","2018-02-06 08:00","2018","02","06","08:00","-24.9","","-27.5","","79","","","","24","","6","","24.1","","98.26","","","","-31","","Ice Crystals"
"-78.84","48.21","ROUYN-NORANDA A","7086719","2018-02-06 09:00","2018","02","06","09:00","-22.6","","-25.2","","79","","","","26","","11","","24.1","","98.37","","","","-31","","NA"
"-78.84","48.21","ROUYN-NORANDA A","7086719","2018-02-06 10:00","2018","02","06","10:00","-19.4","","-22.8","","75","","","","29","","13","","24.1","","98.46","","","","-28","","Clear"
"-78.84","48.21","ROUYN-NORANDA A","7086719","2018-02-06 11:00","2018","02","06","11:00","-17.9","","-23.6","","62","","","","30","","12","","24.1","","98.57","","","","-25","","NA"
"-78.84","48.21","ROUYN-NORANDA A","7086719","2018-02-06 12:00","2018","02","06","12:00","-17.1","","-24.3","","54","","","","29","","18","","24.1","","98.65","","","","-26","","NA"
"-78.84","48.21","ROUYN-NORANDA A","7086719","2018-02-06 13:00","2018","02","06","13:00","-16.2","","-24.0","","52","","","","27","","20","","24.1","","98.69","","","","-26","","Mainly Clear"
"-78.84","48.21","ROUYN-NORANDA A","7086719","2018-02-06 14:00","2018","02","06","14:00","-16.0","","-23.2","","54","","","","25","","23","","16.1","","98.72","","","","-26","","Snow"
"-78.84","48.21","ROUYN-NORANDA A","7086719","2018-02-06 15:00","2018","02","06","15:00","-15.7","","-22.9","","55","","","","29","","17","","24.1","","98.76","","","","-24","","Snow Showers"
"-78.84","48.21","ROUYN-NORANDA A","7086719","2018-02-06 16:00","2018","02","06","16:00","-15.9","","-23.8","","51","","","","26","","19","","24.1","","98.85","","","","-25","","Mainly Clear"
"-78.84","48.21","ROUYN-NORANDA A","7086719","2018-02-06 17:00","2018","02","06","17:00","-17.5","","-24.2","","56","","","","26","","10","","24.1","","98.91","","","","-24","","NA"
"-78.84","48.21","ROUYN-NORANDA A","7086719","2018-02-06 18:00","2018","02","06","18:00","-19.2","","-24.1","","66","","","","22","","6","","24.1","","98.99","","","","-24","","NA"
"-78.84","48.21","ROUYN-NORANDA A","7086719","2018-02-06 19:00","2018","02","06","19:00","-22.9","","-26.1","","76","","","","20","","3","","24.1","","99.06","","","","-26","","Clear"
"-78.84","48.21","ROUYN-NORANDA A","7086719","2018-02-06 20:00","2018","02","06","20:00","-25.2","","-28.3","","76","","","","20","","8","","24.1","","99.12","","","","-32","","NA"
"-78.84","48.21","ROUYN-NORANDA A","7086719","2018-02-06 21:00","2018","02","06","21:00","-23.5","","-26.6","","76","","","","21","","7","","24.1","","99.13","","","","-30","","NA"
"-78.84","48.21","ROUYN-NORANDA A","7086719","2018-02-06 22:00","2018","02","06","22:00","-23.2","","-26.4","","76","","","","18","","8","","24.1","","99.12","","","","-30","","Clear"
"-78.84","48.21","ROUYN-NORANDA A","7086719","2018-02-06 23:00","2018","02","06","23:00","-23.1","","-26.1","","77","","","","19","","5","","24.1","","99.14","","","","-28","","NA"
"-78.84","48.21","ROUYN-NORANDA A","7086719","2018-02-07 00:00","2018","02","07","00:00","-21.8","","-25.1","","75","","","","20","","11","","24.1","","99.15","","","","-30","","NA"
"-78.84","48.21","ROUYN-NORANDA A","7086719","2018-02-07 01:00","2018","02","07","01:00","-21.6","","-25.0","","75","","","","19","","8","","24.1","","99.15","","","","-28","","Mainly Clear"
"-78.84","48.21","ROUYN-NORANDA A","7086719","2018-02-07 02:00","2018","02","07","02:00","-22.9","","-26.4","","74","","","","22","","4","","24.1","","99.11","","","","-27","","NA"
"-78.84","48.21","ROUYN-NORANDA A","7086719","2018-02-07 03:00","2018","02","07","03:00","-22.1","","-25.2","","77","","","","20","","12","","24.1","","99.13","","","","-31","","NA"
"-78.84","48.21","ROUYN-NORANDA A","7086719","2018-02-07 04:00","2018","02","07","04:00","-22.3","","-25.5","","76","","","","21","","5","","24.1","","99.04","","","","-27","","Mainly Clear"
"-78.84","48.21","ROUYN-NORANDA A","7086719","2018-02-07 05:00","2018","02","07","05:00","-23.8","","-26.6","","78","","","","36","","2","","24.1","","98.99","","","","-26","","NA"
"-78.84","48.21","ROUYN-NORANDA A","7086719","2018-02-07 06:00","2018","02","07","06:00","-22.8","","-25.8","","77","","","","36","","1","","24.1","","98.92","","","","-24","","NA"
"-78.84","48.21","ROUYN-NORANDA A","7086719","2018-02-07 07:00","2018","02","07","07:00","-21.0","","-24.4","","74","","","","16","","8","","24.1","","98.84","","","","-27","","Cloudy"
"-78.84","48.21","ROUYN-NORANDA A","7086719","2018-02-07 08:00","2018","02","07","08:00","-19.9","","-23.8","","72","","","","16","","12","","24.1","","98.78","","","","-28","","NA"
"-78.84","48.21","ROUYN-NORANDA A","7086719","2018-02-07 09:00","2018","02","07","09:00","-18.7","","-23.0","","69","","","","20","","6","","24.1","","98.78","","","","-24","","NA"
"-78.84","48.21","ROUYN-NORANDA A","7086719","2018-02-07 10:00","2018","02","07","10:00","-17.9","","-22.0","","71","","","","19","","9","","24.1","","98.73","","","","-24","","Mostly Cloudy"
"-78.84","48.21","ROUYN-NORANDA A","7086719","2018-02-07 11:00","2018","02","07","11:00","-17.1","","-21.7","","68","","","","22","","9","","24.1","","98.69","","","","-23","","NA"
"-78.84","48.21","ROUYN-NORANDA A","7086719","2018-02-07 12:00","2018","02","07","12:00","-15.1","","-20.2","","65","","","","24","","12","","6.4","","98.56","","","","-22","","Snow"
"-78.84","48.21","ROUYN-NORANDA A","7086719","2018-02-07 13:00","2018","02","07","13:00","-13.5","","-18.1","","68","","","","24","","15","","12.9","","98.43","","","","-21","","Snow"
"-78.84","48.21","ROUYN-NORANDA A","7086719","2018-02-07 14:00","2018","02","07","14:00","-12.7","","-16.9","","71","","","","22","","4","","16.1","","98.32","","","","-15","","Snow"
"-78.84","48.21","ROUYN-NORANDA A","7086719","2018-02-07 15:00","2018","02","07","15:00","-12.3","","-17.3","","66","","","","24","","11","","24.1","","98.25","","","","-18","","NA"
"-78.84","48.21","ROUYN-NORANDA A","7086719","2018-02-07 16:00","2018","02","07","16:00","-12.0","","-17.2","","65","","","","23","","11","","24.1","","98.23","","","","-18","","Mostly Cloudy"
"-78.84","48.21","ROUYN-NORANDA A","7086719","2018-02-07 17:00","2018","02","07","17:00","-12.6","","-17.5","","68","","","","24","","9","","24.1","","98.23","","","","-18","","NA"
"-78.84","48.21","ROUYN-NORANDA A","7086719","2018-02-07 18:00","2018","02","07","18:00","-14.7","","-17.0","","83","","","","22","","6","","24.1","","98.24","","","","-19","","NA"
"-78.84","48.21","ROUYN-NORANDA A","7086719","2018-02-07 19:00","2018","02","07","19:00","-18.6","","-21.1","","81","","","","18","","7","","24.1","","98.25","","","","-24","","Snow"
"-78.84","48.21","ROUYN-NORANDA A","7086719","2018-02-07 20:00","2018","02","07","20:00","-18.9","","-20.7","","86","","","","22","","5","","24.1","","98.28","","","","-23","","NA"
"-78.84","48.21","ROUYN-NORANDA A","7086719","2018-02-07 21:00","2018","02","07","21:00","-17.1","","-18.7","","87","","","","26","","5","","24.1","","98.31","","","","-21","","Snow"
"-78.84","48.21","ROUYN-NORANDA A","7086719","2018-02-07 22:00","2018","02","07","22:00","-16.1","","-18.1","","85","","","","25","","8","","8.1","","98.37","","","","-22","","Snow"
"-78.84","48.21","ROUYN-NORANDA A","7086719","2018-02-07 23:00","2018","02","07","23:00","-16.0","","-17.9","","85","","","","23","","8","","24.1","","98.39","","","","-22","","Snow"
"-78.84","48.21","ROUYN-NORANDA A","7086719","2018-02-08 00:00","2018","02","08","00:00","-17.3","","-19.0","","86","","","","24","","9","","24.1","","98.41","","","","-24","","Snow"
"-78.84","48.21","ROUYN-NORANDA A","7086719","2018-02-08 01:00","2018","02","08","01:00","-18.8","","-20.7","","85","","","","22","","7","","24.1","","98.44","","","","-24","","Ice Crystals"
"-78.84","48.21","ROUYN-NORANDA A","7086719","2018-02-08 02:00","2018","02","08","02:00","-19.9","","-21.8","","85","","","","24","","5","","24.1","","98.46","","","","-24","","Ice Crystals"
"-78.84","48.21","ROUYN-NORANDA A","7086719","2018-02-08 03:00","2018","02","08","03:00","-21.6","","-23.9","","82","","","","27","","6","","24.1","","98.47","","","","-27","","NA"
"-78.84","48.21","ROUYN-NORANDA A","7086719","2018-02-08 04:00","2018","02","08","04:00","-25.3","","-28.0","","79","","","","22","","4","","24.1","","98.46","","","","-29","","Clear"
"-78.84","48.21","ROUYN-NORANDA A","7086719","2018-02-08 05:00","2018","02","08","05:00","-26.3","","-29.2","","77","","","","36","","2","","24.1","","98.47","","","","-28","","NA"
"-78.84","48.21","ROUYN-NORANDA A","7086719","2018-02-08 06:00","2018","02","08","06:00","-26.6","","-29.4","","77","","","","21","","6","","24.1","","98.48","","","","-33","","NA"
"-78.84","48.21","ROUYN-NORANDA A","7086719","2018-02-08 07:00","2018","02","08","07:00","-27.1","","-30.0","","77","","","","18","","7","","24.1","","98.50","","","","-34","","Ice Crystals"
"-78.84","48.21","ROUYN-NORANDA A","7086719","2018-02-08 08:00","2018","02","08","08:00","-25.1","","-27.6","","80","","","","19","","5","","24.1","","98.51","","","","-30","","NA"
"-78.84","48.21","ROUYN-NORANDA A","7086719","2018-02-08 09:00","2018","02","08","09:00","-22.6","","-25.3","","79","","","","23","","5","","24.1","","98.56","","","","-27","","NA"
"-78.84","48.21","ROUYN-NORANDA A","7086719","2018-02-08 10:00","2018","02","08","10:00","-19.5","","-22.0","","81","","","","23","","7","","24.1","","98.51","","","","-25","","Snow"
"-78.84","48.21","ROUYN-NORANDA A","7086719","2018-02-08 11:00","2018","02","08","11:00","-16.3","","-18.8","","82","","","","21","","8","","16.1","","98.45","","","","-22","","Snow"
"-78.84","48.21","ROUYN-NORANDA A","7086719","2018-02-08 12:00","2018","02","08","12:00","-14.1","","-16.9","","80","","","","21","","13","","6.4","","98.37","","","","-21","","Snow Showers"
"-78.84","48.21","ROUYN-NORANDA A","7086719","2018-02-08 13:00","2018","02","08","13:00","-11.9","","-16.8","","68","","","","20","","17","","9.7","","98.24","","","","-20","","Blowing Snow"
"-78.84","48.21","ROUYN-NORANDA A","7086719","2018-02-08 14:00","2018","02","08","14:00","-11.1","","-15.3","","71","","","","22","","27","","3.2","","98.17","","","","-21","","Snow Showers,Blowing Snow"
"-78.84","48.21","ROUYN-NORANDA A","7086719","2018-02-08 15:00","2018","02","08","15:00","-11.0","","-14.7","","74","","","","25","","18","","4.8","","98.15","","","","-19","","Snow Showers,Blowing Snow"
"-78.84","48.21","ROUYN-NORANDA A","7086719","2018-02-08 16:00","2018","02","08","16:00","-11.2","","-15.7","","69","","","","24","","15","","24.1","","98.15","","","","-18","","Mostly Cloudy"
"-78.84","48.21","ROUYN-NORANDA A","7086719","2018-02-08 17:00","2018","02","08","17:00","-11.7","","-13.8","","84","","","","25","","12","","6.4","","98.16","","","","-18","","Snow Showers"
"-78.84","48.21","ROUYN-NORANDA A","7086719","2018-02-08 18:00","2018","02","08","18:00","-11.8","","-13.8","","85","","","","22","","9","","4.0","","98.18","","","","-17","","Snow Showers"
"-78.84","48.21","ROUYN-NORANDA A","7086719","2018-02-08 19:00","2018","02","08","19:00","-13.2","","-15.5","","83","","","","36","","16","","1.6","","98.29","","","","-21","","Snow Showers"
"-78.84","48.21","ROUYN-NORANDA A","7086719","2018-02-08 20:00","2018","02","08","20:00","-14.3","","-17.0","","80","","","","35","","8","","9.7","","98.36","","","","-20","","Snow Showers"
"-78.84","48.21","ROUYN-NORANDA A","7086719","2018-02-08 21:00","2018","02","08","21:00","-15.3","","-17.7","","82","","","","32","","7","","24.1","","98.42","","","","-20","","Snow"
"-78.84","48.21","ROUYN-NORANDA A","7086719","2018-02-08 22:00","2018","02","08","22:00","-16.9","","-19.4","","81","","","","34","","9","","24.1","","98.52","","","","-23","","Snow"
"-78.84","48.21","ROUYN-NORANDA A","7086719","2018-02-08 23:00","2018","02","08","23:00","-18.3","","-20.4","","84","","","","32","","10","","24.1","","98.62","","","","-25","","Snow"
"-78.84","48.21","ROUYN-NORANDA A","7086719","2018-02-09 00:00","2018","02","09","00:00","-19.6","","-21.7","","84","","","","35","","5","","24.1","","98.69","","","","-24","","Ice Crystals"
"-78.84","48.21","ROUYN-NORANDA A","7086719","2018-02-09 01:00","2018","02","09","01:00","-25.8","","-28.5","","79","","","","36","","1","","24.1","","98.71","","","","-27","","Mainly Clear"
"-78.84","48.21","ROUYN-NORANDA A","7086719","2018-02-09 02:00","2018","02","09","02:00","-27.3","","-30.2","","77","","","","36","","1","","24.1","","98.76","","","","-28","","NA"
"-78.84","48.21","ROUYN-NORANDA A","7086719","2018-02-09 03:00","2018","02","09","03:00","-28.3","","-31.2","","77","","","","0","","1","","24.1","","98.81","","","","-29","","NA"
"-78.84","48.21","ROUYN-NORANDA A","7086719","2018-02-09 04:00","2018","02","09","04:00","-29.8","","-32.9","","75","","","","36","","1","","24.1","","98.86","","","","-31","","Clear"
"-78.84","48.21","ROUYN-NORANDA A","7086719","2018-02-09 05:00","2018","02","09","05:00","-30.5","","-33.7","","74","","","","36","","1","","24.1","","98.89","","","","-32","","Ice Crystals"
"-78.84","48.21","ROUYN-NORANDA A","7086719","2018-02-09 06:00","2018","02","09","06:00","-31.3","","-34.5","","74","","","","7","","4","","24.1","","98.86","","","","-36","","Ice Crystals"
"-78.84","48.21","ROUYN-NORANDA A","7086719","2018-02-09 07:00","2018","02","09","07:00","-32.5","","-35.9","","72","","","","36","","3","","24.1","","98.82","","","","-36","","Ice Crystals"
"-78.84","48.21","ROUYN-NORANDA A","7086719","2018-02-09 08:00","2018","02","09","08:00","-31.5","","-34.8","","73","","","","36","","1","","24.1","","98.85","","","","-33","","NA"
"-78.84","48.21","ROUYN-NORANDA A","7086719","2018-02-09 09:00","2018","02","09","09:00","-22.2","","-24.3","","83","","","","19","","11","","24.1","","98.84","","","","-30","","NA"
"-78.84","48.21","ROUYN-NORANDA A","7086719","2018-02-09 10:00","2018","02","09","10:00","-18.4","","-21.3","","78","","","","21","","17","","24.1","","98.84","","","","-28","","Mainly Clear"
"-78.84","48.21","ROUYN-NORANDA A","7086719","2018-02-09 11:00","2018","02","09","11:00","-15.6","","-19.9","","70","","","","21","","15","","24.1","","98.80","","","","-24","","NA"
"-78.84","48.21","ROUYN-NORANDA A","7086719","2018-02-09 12:00","2018","02","09","12:00","-13.5","","-21.3","","52","","","","24","","17","","24.1","","98.72","","","","-22","","NA"
"-78.84","48.21","ROUYN-NORANDA A","7086719","2018-02-09 13:00","2018","02","09","13:00","-13.4","","-20.0","","58","","","","25","","23","","24.1","","98.64","","","","-23","","Blowing Snow"
"-78.84","48.21","ROUYN-NORANDA A","7086719","2018-02-09 14:00","2018","02","09","14:00","-12.0","","-18.9","","57","","","","24","","24","","24.1","","98.55","","","","-21","","Blowing Snow"
"-78.84","48.21","ROUYN-NORANDA A","7086719","2018-02-09 15:00","2018","02","09","15:00","-11.6","","-19.1","","54","","","","25","","21","","24.1","","98.50","","","","-20","","Blowing Snow"
"-78.84","48.21","ROUYN-NORANDA A","7086719","2018-02-09 16:00","2018","02","09","16:00","-10.9","","-18.4","","54","","","","22","","25","","24.1","","98.44","","","","-20","","Blowing Snow"
"-78.84","48.21","ROUYN-NORANDA A","7086719","2018-02-09 17:00","2018","02","09","17:00","-11.8","","-18.6","","57","","","","22","","16","","24.1","","98.41","","","","-19","","NA"
"-78.84","48.21","ROUYN-NORANDA A","7086719","2018-02-09 18:00","2018","02","09","18:00","-13.7","","-18.4","","69","","","","20","","9","","24.1","","98.39","","","","-19","","NA"
"-78.84","48.21","ROUYN-NORANDA A","7086719","2018-02-09 19:00","2018","02","09","19:00","-15.9","","-18.7","","80","","","","18","","10","","24.1","","98.36","","","","-22","","Clear"
"-78.84","48.21","ROUYN-NORANDA A","7086719","2018-02-09 20:00","2018","02","09","20:00","-15.9","","-18.6","","80","","","","19","","14","","24.1","","98.34","","","","-24","","NA"
"-78.84","48.21","ROUYN-NORANDA A","7086719","2018-02-09 21:00","2018","02","09","21:00","-16.3","","-18.7","","82","","","","20","","8","","24.1","","98.33","","","","-22","","NA"
"-78.84","48.21","ROUYN-NORANDA A","7086719","2018-02-09 22:00","2018","02","09","22:00","-17.4","","-19.3","","85","","","","19","","13","","24.1","","98.29","","","","-25","","Clear"
"-78.84","48.21","ROUYN-NORANDA A","7086719","2018-02-09 23:00","2018","02","09","23:00","-17.7","","-19.5","","86","","","","18","","9","","24.1","","98.25","","","","-24","","NA"
"-78.84","48.21","ROUYN-NORANDA A","7086719","2018-02-10 00:00","2018","02","10","00:00","-18.4","","-19.9","","88","","","","22","","5","","24.1","","98.23","","","","-22","","NA"
"-78.84","48.21","ROUYN-NORANDA A","7086719","2018-02-10 01:00","2018","02","10","01:00","-19.6","","-21.0","","89","","","","22","","6","","24.1","","98.21","","","","-25","","Clear"
"-78.84","48.21","ROUYN-NORANDA A","7086719","2018-02-10 02:00","2018","02","10","02:00","-19.7","","-21.6","","86","","","","22","","4","","24.1","","98.20","","","","-23","","NA"
"-78.84","48.21","ROUYN-NORANDA A","7086719","2018-02-10 03:00","2018","02","10","03:00","-20.8","","-22.5","","86","","","","23","","4","","24.1","","98.20","","","","-24","","NA"
"-78.84","48.21","ROUYN-NORANDA A","7086719","2018-02-10 04:00","2018","02","10","04:00","-19.8","","-21.7","","85","","","","25","","13","","24.1","","98.22","","","","-28","","Mainly Clear"
"-78.84","48.21","ROUYN-NORANDA A","7086719","2018-02-10 05:00","2018","02","10","05:00","-17.7","","-20.0","","83","","","","24","","12","","16.1","","98.27","","","","-25","","Snow"
"-78.84","48.21","ROUYN-NORANDA A","7086719","2018-02-10 06:00","2018","02","10","06:00","-16.4","","-18.5","","84","","","","22","","14","","16.1","","98.25","","","","-24","","Snow"
"-78.84","48.21","ROUYN-NORANDA A","7086719","2018-02-10 07:00","2018","02","10","07:00","-16.1","","-18.2","","84","","","","20","","12","","24.1","","98.22","","","","-23","","Snow"
"-78.84","48.21","ROUYN-NORANDA A","7086719","2018-02-10 08:00","2018","02","10","08:00","-15.8","","-17.9","","84","","","","21","","9","","24.1","","98.30","","","","-22","","Snow"
"-78.84","48.21","ROUYN-NORANDA A","7086719","2018-02-10 09:00","2018","02","10","09:00","-15.2","","-17.3","","84","","","","19","","11","","24.1","","98.25","","","","-22","","NA"
"-78.84","48.21","ROUYN-NORANDA A","7086719","2018-02-10 10:00","2018","02","10","10:00","-13.8","","-16.0","","84","","","","19","","14","","24.1","","98.26","","","","-21","","Snow"
"-78.84","48.21","ROUYN-NORANDA A","7086719","2018-02-10 11:00","2018","02","10","11:00","-12.3","","-15.4","","78","","","","21","","18","","24.1","","98.29","","","","-20","","Snow"
"-78.84","48.21","ROUYN-NORANDA A","7086719","2018-02-10 12:00","2018","02","10","12:00","-11.2","","-15.6","","70","","","","22","","18","","24.1","","98.28","","","","-19","","Snow"
"-78.84","48.21","ROUYN-NORANDA A","7086719","2018-02-10 13:00","2018","02","10","13:00","-10.1","","-15.6","","64","","","","24","","17","","24.1","","98.27","","","","-17","","Mostly Cloudy"
"-78.84","48.21","ROUYN-NORANDA A","7086719","2018-02-10 14:00","2018","02","10","14:00","-9.9","","-16.1","","61","","","","24","","22","","24.1","","98.26","","","","-18","","NA"
"-78.84","48.21","ROUYN-NORANDA A","7086719","2018-02-10 15:00","2018","02","10","15:00","-9.4","","-16.1","","59","","","","28","","17","","24.1","","98.26","","","","-16","","NA"
"-78.84","48.21","ROUYN-NORANDA A","7086719","2018-02-10 16:00","2018","02","10","16:00","-9.4","","-15.9","","60","","","","26","","14","","24.1","","98.27","","","","-16","","Mostly Cloudy"
"-78.84","48.21","ROUYN-NORANDA A","7086719","2018-02-10 17:00","2018","02","10","17:00","-9.6","","-15.2","","64","","","","26","","8","","24.1","","98.31","","","","-14","","NA"
"-78.84","48.21","ROUYN-NORANDA A","7086719","2018-02-10 18:00","2018","02","10","18:00","-10.1","","-14.3","","72","","","","33","","5","","24.1","","98.36","","","","-13","","Snow"
"-78.84","48.21","ROUYN-NORANDA A","7086719","2018-02-10 19:00","2018","02","10","19:00","-10.8","","-14.3","","76","","","","2","","8","","24.1","","98.36","","","","-15","","Snow"
"-78.84","48.21","ROUYN-NORANDA A","7086719","2018-02-10 20:00","2018","02","10","20:00","-11.8","","-14.8","","78","","","","17","","7","","24.1","","98.40","","","","-16","","Snow"
"-78.84","48.21","ROUYN-NORANDA A","7086719","2018-02-10 21:00","2018","02","10","21:00","-12.2","","-15.4","","78","","","","12","","5","","24.1","","98.41","","","","-15","","NA"
"-78.84","48.21","ROUYN-NORANDA A","7086719","2018-02-10 22:00","2018","02","10","22:00","-12.3","","-14.8","","82","","","","36","","2","","24.1","","98.40","","","","-14","","Cloudy"
"-78.84","48.21","ROUYN-NORANDA A","7086719","2018-02-10 23:00","2018","02","10","23:00","-11.7","","-15.0","","77","","","","12","","4","","24.1","","98.44","","","","-14","","NA"
"-78.84","48.21","ROUYN-NORANDA A","7086719","2018-02-11 00:00","2018","02","11","00:00","-12.6","","-15.5","","79","","","","13","","7","","24.1","","98.45","","","","-17","","Snow"
"-78.84","48.21","ROUYN-NORANDA A","7086719","2018-02-11 01:00","2018","02","11","01:00","-11.8","","-15.1","","77","","","","16","","12","","24.1","","98.47","","","","-18","","Cloudy"
"-78.84","48.21","ROUYN-NORANDA A","7086719","2018-02-11 02:00","2018","02","11","02:00","-12.8","","-15.6","","80","","","","18","","9","","24.1","","98.47","","","","-18","","NA"
"-78.84","48.21","ROUYN-NORANDA A","7086719","2018-02-11 03:00","2018","02","11","03:00","-14.4","","-16.6","","84","","","","17","","6","","24.1","","98.43","","","","-19","","NA"
"-78.84","48.21","ROUYN-NORANDA A","7086719","2018-02-11 04:00","2018","02","11","04:00","-16.1","","-18.2","","84","","","","16","","9","","24.1","","98.37","","","","-22","","Mainly Clear"
"-78.84","48.21","ROUYN-NORANDA A","7086719","2018-02-11 05:00","2018","02","11","05:00","-17.2","","-19.4","","84","","","","13","","4","","24.1","","98.31","","","","-20","","NA"
"-78.84","48.21","ROUYN-NORANDA A","7086719","2018-02-11 06:00","2018","02","11","06:00","-16.4","","-18.7","","83","","","","16","","11","","24.1","","98.28","","","","-23","","NA"
"-78.84","48.21","ROUYN-NORANDA A","7086719","2018-02-11 07:00","2018","02","11","07:00","-16.4","","-18.8","","82","","","","17","","5","","24.1","","98.28","","","","-20","","Cloudy"
"-78.84","48.21","ROUYN-NORANDA A","7086719","2018-02-11 08:00","2018","02","11","08:00","-15.5","","-17.9","","82","","","","15","","8","","24.1","","98.30","","","","-21","","NA"
"-78.84","48.21","ROUYN-NORANDA A","7086719","2018-02-11 09:00","2018","02","11","09:00","-14.2","","-17.1","","79","","","","17","","12","","24.1","","98.28","","","","-21","","NA"
"-78.84","48.21","ROUYN-NORANDA A","7086719","2018-02-11 10:00","2018","02","11","10:00","-12.2","","-16.3","","72","","","","16","","16","","24.1","","98.18","","","","-20","","Cloudy"
"-78.84","48.21","ROUYN-NORANDA A","7086719","2018-02-11 11:00","2018","02","11","11:00","-11.3","","-16.2","","67","","","","15","","18","","24.1","","98.07","","","","-19","","NA"
"-78.84","48.21","ROUYN-NORANDA A","7086719","2018-02-11 12:00","2018","02","11","12:00","-11.0","","-16.1","","66","","","","14","","13","","24.1","","97.90","","","","-17","","NA"
"-78.84","48.21","ROUYN-NORANDA A","7086719","2018-02-11 13:00","2018","02","11","13:00","-10.6","","-15.4","","68","","","","15","","13","","24.1","","97.72","","","","-17","","Cloudy"
"-78.84","48.21","ROUYN-NORANDA A","7086719","2018-02-11 14:00","2018","02","11","14:00","-10.4","","-15.0","","70","","","","12","","14","","4.0","","97.52","","","","-17","","Snow"
"-78.84","48.21","ROUYN-NORANDA A","7086719","2018-02-11 15:00","2018","02","11","15:00","-11.1","","-13.7","","82","","","","11","","12","","1.6","","97.31","","","","-17","","Snow"
"-78.84","48.21","ROUYN-NORANDA A","7086719","2018-02-11 16:00","2018","02","11","16:00","-11.3","","-13.4","","84","","","","11","","9","","1.6","","97.23","","","","-16","","Snow"
"-78.84","48.21","ROUYN-NORANDA A","7086719","2018-02-11 17:00","2018","02","11","17:00","-11.3","","-13.1","","87","","","","36","","2","","1.6","","97.10","","","","-13","","Snow"
"-78.84","48.21","ROUYN-NORANDA A","7086719","2018-02-11 18:00","2018","02","11","18:00","-11.3","","-12.9","","88","","","","36","","2","","1.6","","97.04","","","","-13","","Snow"
"-78.84","48.21","ROUYN-NORANDA A","7086719","2018-02-11 19:00","2018","02","11","19:00","-11.4","","-12.9","","89","","","","25","","5","","2.0","","97.06","","","","-15","","Snow"
"-78.84","48.21","ROUYN-NORANDA A","7086719","2018-02-11 20:00","2018","02","11","20:00","-11.6","","-13.1","","88","","","","24","","9","","2.0","","97.06","","","","-17","","Snow"
"-78.84","48.21","ROUYN-NORANDA A","7086719","2018-02-11 21:00","2018","02","11","21:00","-12.7","","-14.1","","89","","","","22","","12","","16.1","","97.09","","","","-19","","Snow"
"-78.84","48.21","ROUYN-NORANDA A","7086719","2018-02-11 22:00","2018","02","11","22:00","-14.1","","-15.5","","89","","","","24","","11","","24.1","","97.12","","","","-21","","Snow"
"-78.84","48.21","ROUYN-NORANDA A","7086719","2018-02-11 23:00","2018","02","11","23:00","-12.8","","-14.5","","87","","","","23","","18","","24.1","","97.17","","","","-21","","Snow"
"-78.84","48.21","ROUYN-NORANDA A","7086719","2018-02-12 00:00","2018","02","12","00:00","-13.3","","-15.2","","86","","","","24","","24","","24.1","","97.27","","","","-23","","Snow"
"-78.84","48.21","ROUYN-NORANDA A","7086719","2018-02-12 01:00","2018","02","12","01:00","-12.2","","-14.4","","84","","","","25","","28","","24.1","","97.39","","","","-22","","Snow,Heavy Hail"
"-78.84","48.21","ROUYN-NORANDA A","7086719","2018-02-12 02:00","2018","02","12","02:00","-12.0","","-14.6","","81","","","","25","","26","","24.1","","97.53","","","","-22","","Snow"
"-78.84","48.21","ROUYN-NORANDA A","7086719","2018-02-12 03:00","2018","02","12","03:00","-11.5","","-14.0","","82","","","","26","","22","","16.1","","97.72","","","","-20","","Snow"
"-78.84","48.21","ROUYN-NORANDA A","7086719","2018-02-12 04:00","2018","02","12","04:00","-11.2","","-14.4","","77","","","","25","","16","","16.1","","97.86","","","","-18","","Snow"
"-78.84","48.21","ROUYN-NORANDA A","7086719","2018-02-12 05:00","2018","02","12","05:00","-11.2","","-16.0","","68","","","","28","","26","","24.1","","98.06","","","","-20","","Snow"
"-78.84","48.21","ROUYN-NORANDA A","7086719","2018-02-12 06:00","2018","02","12","06:00","-12.6","","-15.5","","79","","","","32","","22","","4.0","","98.30","","","","-22","","Snow"
"-78.84","48.21","ROUYN-NORANDA A","7086719","2018-02-12 07:00","2018","02","12","07:00","-13.8","","-17.7","","73","","","","30","","23","","24.1","","98.49","","","","-23","","Snow,Blowing Snow"
"-78.84","48.21","ROUYN-NORANDA A","7086719","2018-02-12 08:00","2018","02","12","08:00","-14.4","","-18.9","","69","","","","30","","17","","24.1","","98.69","","","","-23","","NA"
"-78.84","48.21","ROUYN-NORANDA A","7086719","2018-02-12 09:00","2018","02","12","09:00","-14.2","","-18.3","","71","","","","29","","19","","6.4","","98.87","","","","-23","","Snow,Blowing Snow"
"-78.84","48.21","ROUYN-NORANDA A","7086719","2018-02-12 10:00","2018","02","12","10:00","-14.1","","-17.4","","76","","","","31","","14","","2.4","","99.04","","","","-22","","Snow"
"-78.84","48.21","ROUYN-NORANDA A","7086719","2018-02-12 11:00","2018","02","12","11:00","-13.6","","-20.6","","56","","","","30","","18","","24.1","","99.18","","","","-22","","Blowing Snow"
"-78.84","48.21","ROUYN-NORANDA A","7086719","2018-02-12 12:00","2018","02","12","12:00","-13.8","","-19.5","","62","","","","31","","21","","24.1","","99.27","","","","-23","","Snow Showers,Blowing Snow"
"-78.84","48.21","ROUYN-NORANDA A","7086719","2018-02-12 13:00","2018","02","12","13:00","-13.7","","-21.7","","52","","","","30","","16","","24.1","","99.31","","","","-22","","Mainly Clear"
"-78.84","48.21","ROUYN-NORANDA A","7086719","2018-02-12 14:00","2018","02","12","14:00","-13.6","","-22.6","","47","","","","30","","22","","24.1","","99.39","","","","-23","","NA"
"-78.84","48.21","ROUYN-NORANDA A","7086719","2018-02-12 15:00","2018","02","12","15:00","-13.2","","-22.5","","46","","","","30","","22","","24.1","","99.49","","","","-22","","NA"
"-78.84","48.21","ROUYN-NORANDA A","7086719","2018-02-12 16:00","2018","02","12","16:00","-13.6","","-23.5","","44","","","","28","","27","","24.1","","99.59","","","","-24","","Clear"
"-78.84","48.21","ROUYN-NORANDA A","7086719","2018-02-12 17:00","2018","02","12","17:00","-14.4","","-23.6","","46","","","","30","","14","","24.1","","99.64","","","","-22","","NA"
"-78.84","48.21","ROUYN-NORANDA A","7086719","2018-02-12 18:00","2018","02","12","18:00","-15.9","","-23.5","","53","","","","32","","6","","24.1","","99.71","","","","-20","","NA"
"-78.84","48.21","ROUYN-NORANDA A","7086719","2018-02-12 19:00","2018","02","12","19:00","-21.5","","-25.4","","71","","","","36","","1","","24.1","","99.77","","","","-22","","Clear"
"-78.84","48.21","ROUYN-NORANDA A","7086719","2018-02-12 20:00","2018","02","12","20:00","-23.3","","-26.7","","74","","","","0","","1","","24.1","","99.81","","","","-24","","NA"
"-78.84","48.21","ROUYN-NORANDA A","7086719","2018-02-12 21:00","2018","02","12","21:00","-24.9","","-28.0","","76","","","","36","","2","","24.1","","99.85","","","","-27","","NA"
"-78.84","48.21","ROUYN-NORANDA A","7086719","2018-02-12 22:00","2018","02","12","22:00","-26.0","","-28.9","","77","","","","24","","5","","24.1","","99.90","","","","-31","","Clear"
"-78.84","48.21","ROUYN-NORANDA A","7086719","2018-02-12 23:00","2018","02","12","23:00","-26.8","","-30.2","","74","","","","24","","6","","24.1","","99.92","","","","-33","","NA"
"-78.84","48.21","ROUYN-NORANDA A","7086719","2018-02-13 00:00","2018","02","13","00:00","-27.2","","-30.1","","77","","","","24","","9","","24.1","","99.95","","","","-35","","NA"
"-78.84","48.21","ROUYN-NORANDA A","7086719","2018-02-13 01:00","2018","02","13","01:00","-26.4","","-29.5","","76","","","","23","","10","","24.1","","100.01","","","","-35","","Clear"
"-78.84","48.21","ROUYN-NORANDA A","7086719","2018-02-13 02:00","2018","02","13","02:00","-24.3","","-26.9","","79","","","","20","","3","","24.1","","100.06","","","","-27","","NA"
"-78.84","48.21","ROUYN-NORANDA A","7086719","2018-02-13 03:00","2018","02","13","03:00","-23.5","","-26.8","","75","","","","23","","4","","24.1","","100.09","","","","-27","","NA"
"-78.84","48.21","ROUYN-NORANDA A","7086719","2018-02-13 04:00","2018","02","13","04:00","-24.3","","-26.8","","81","","","","23","","10","","24.1","","100.06","","","","-32","","Clear"
"-78.84","48.21","ROUYN-NORANDA A","7086719","2018-02-13 05:00","2018","02","13","05:00","-24.9","","-27.4","","80","","","","24","","12","","24.1","","100.08","","","","-34","","NA"
"-78.84","48.21","ROUYN-NORANDA A","7086719","2018-02-13 06:00","2018","02","13","06:00","-23.2","","-25.4","","83","","","","23","","13","","24.1","","100.09","","","","-32","","NA"
"-78.84","48.21","ROUYN-NORANDA A","7086719","2018-02-13 07:00","2018","02","13","07:00","-23.2","","-25.9","","79","","","","19","","8","","24.1","","100.06","","","","-30","","Clear"
"-78.84","48.21","ROUYN-NORANDA A","7086719","2018-02-13 08:00","2018","02","13","08:00","-22.1","","-24.7","","80","","","","20","","12","","24.1","","100.02","","","","-31","","NA"
"-78.84","48.21","ROUYN-NORANDA A","7086719","2018-02-13 09:00","2018","02","13","09:00","-19.2","","-21.7","","81","","","","19","","16","","24.1","","99.95","","","","-28","","NA"
"-78.84","48.21","ROUYN-NORANDA A","7086719","2018-02-13 10:00","2018","02","13","10:00","-15.6","","-19.7","","71","","","","21","","15","","24.1","","99.86","","","","-24","","Mainly Clear"
"-78.84","48.21","ROUYN-NORANDA A","7086719","2018-02-13 11:00","2018","02","13","11:00","-12.7","","-17.8","","66","","","","22","","23","","24.1","","99.79","","","","-22","","NA"
"-78.84","48.21","ROUYN-NORANDA A","7086719","2018-02-13 12:00","2018","02","13","12:00","-10.5","","-16.6","","62","","","","22","","26","","24.1","","99.62","","","","-20","","Blowing Snow"
"-78.84","48.21","ROUYN-NORANDA A","7086719","2018-02-13 13:00","2018","02","13","13:00","-9.0","","-16.8","","53","","","","21","","30","","24.1","","99.47","","","","-18","","Blowing Snow"
"-78.84","48.21","ROUYN-NORANDA A","7086719","2018-02-13 14:00","2018","02","13","14:00","-9.1","","-16.1","","57","","","","22","","32","","19.3","","99.32","","","","-19","","Snow,Blowing Snow"
"-78.84","48.21","ROUYN-NORANDA A","7086719","2018-02-13 15:00","2018","02","13","15:00","-8.6","","-15.1","","60","","","","22","","24","","24.1","","99.15","","","","-17","","Snow,Blowing Snow"
"-78.84","48.21","ROUYN-NORANDA A","7086719","2018-02-13 16:00","2018","02","13","16:00","-8.1","","-14.0","","63","","","","22","","33","","24.1","","99.03","","","","-17","","Snow,Blowing Snow"
"-78.84","48.21","ROUYN-NORANDA A","7086719","2018-02-13 17:00","2018","02","13","17:00","-8.9","","-13.1","","72","","","","21","","26","","24.1","","98.89","","","","-18","","Snow,Blowing Snow"
"-78.84","48.21","ROUYN-NORANDA A","7086719","2018-02-13 18:00","2018","02","13","18:00","-8.9","","-11.7","","80","","","","20","","30","","3.2","","98.79","","","","-18","","Snow,Blowing Snow"
"-78.84","48.21","ROUYN-NORANDA A","7086719","2018-02-13 19:00","2018","02","13","19:00","-8.9","","-11.2","","83","","","","20","","31","","12.9","","98.56","","","","-18","","Snow,Blowing Snow"
"-78.84","48.21","ROUYN-NORANDA A","7086719","2018-02-13 20:00","2018","02","13","20:00","-8.3","","-11.6","","77","","","","21","","30","","24.1","","98.39","","","","-17","","Snow,Blowing Snow"
"-78.84","48.21","ROUYN-NORANDA A","7086719","2018-02-13 21:00","2018","02","13","21:00","-8.3","","-12.6","","71","","","","21","","22","","24.1","","98.24","","","","-16","","Snow"
"-78.84","48.21","ROUYN-NORANDA A","7086719","2018-02-13 22:00","2018","02","13","22:00","-8.4","","-13.6","","67","","","","21","","33","","24.1","","98.05","","","","-18","","Snow"
"-78.84","48.21","ROUYN-NORANDA A","7086719","2018-02-13 23:00","2018","02","13","23:00","-8.3","","-13.7","","66","","","","21","","32","","24.1","","97.95","","","","-18","","Snow"
"-78.84","48.21","ROUYN-NORANDA A","7086719","2018-02-14 00:00","2018","02","14","00:00","-8.2","","-13.7","","65","","","","22","","31","","24.1","","97.83","","","","-17","","Snow"
"-78.84","48.21","ROUYN-NORANDA A","7086719","2018-02-14 01:00","2018","02","14","01:00","-7.9","","-13.5","","64","","","","22","","23","","24.1","","97.79","","","","-16","","Snow"
"-78.84","48.21","ROUYN-NORANDA A","7086719","2018-02-14 02:00","2018","02","14","02:00","-7.1","","-12.7","","65","","","","22","","26","","24.1","","97.70","","","","-15","","NA"
"-78.84","48.21","ROUYN-NORANDA A","7086719","2018-02-14 03:00","2018","02","14","03:00","-6.9","","-11.4","","70","","","","23","","36","","24.1","","97.61","","","","-16","","Snow"
"-78.84","48.21","ROUYN-NORANDA A","7086719","2018-02-14 04:00","2018","02","14","04:00","-6.4","","-10.6","","73","","","","23","","26","","24.1","","97.52","","","","-14","","Snow"
"-78.84","48.21","ROUYN-NORANDA A","7086719","2018-02-14 05:00","2018","02","14","05:00","-6.0","","-10.2","","73","","","","23","","25","","24.1","","97.49","","","","-14","","Snow"
"-78.84","48.21","ROUYN-NORANDA A","7086719","2018-02-14 06:00","2018","02","14","06:00","-5.8","","-9.8","","74","","","","22","","22","","24.1","","97.46","","","","-13","","Snow"
"-78.84","48.21","ROUYN-NORANDA A","7086719","2018-02-14 07:00","2018","02","14","07:00","-5.9","","-9.6","","75","","","","22","","23","","24.1","","97.44","","","","-13","","Snow"
"-78.84","48.21","ROUYN-NORANDA A","7086719","2018-02-14 08:00","2018","02","14","08:00","-5.8","","-9.5","","75","","","","21","","18","","24.1","","97.37","","","","-12","","NA"
"-78.84","48.21","ROUYN-NORANDA A","7086719","2018-02-14 09:00","2018","02","14","09:00","-5.1","","-9.1","","74","","","","22","","26","","24.1","","97.38","","","","-13","","NA"
"-78.84","48.21","ROUYN-NORANDA A","7086719","2018-02-14 10:00","2018","02","14","10:00","-4.4","","-8.5","","73","","","","24","","21","","24.1","","97.37","","","","-11","","Cloudy"
"-78.84","48.21","ROUYN-NORANDA A","7086719","2018-02-14 11:00","2018","02","14","11:00","-4.0","","-8.3","","72","","","","23","","26","","24.1","","97.35","","","","-11","","NA"
"-78.84","48.21","ROUYN-NORANDA A","7086719","2018-02-14 12:00","2018","02","14","12:00","-3.5","","-8.0","","71","","","","24","","17","","24.1","","97.36","","","","-9","","NA"
"-78.84","48.21","ROUYN-NORANDA A","7086719","2018-02-14 13:00","2018","02","14","13:00","-3.1","","-7.9","","69","","","","23","","17","","24.1","","97.34","","","","-9","","Snow"
"-78.84","48.21","ROUYN-NORANDA A","7086719","2018-02-14 14:00","2018","02","14","14:00","-2.7","","-7.7","","69","","","","21","","17","","24.1","","97.28","","","","-8","","NA"
"-78.84","48.21","ROUYN-NORANDA A","7086719","2018-02-14 15:00","2018","02","14","15:00","-1.2","","-7.4","","63","","","","20","","18","","24.1","","97.22","","","","-6","","NA"
"-78.84","48.21","ROUYN-NORANDA A","7086719","2018-02-14 16:00","2018","02","14","16:00","0.0","","-7.1","","59","","","","22","","21","","24.1","","97.17","","","","-5","","Mostly Cloudy"
"-78.84","48.21","ROUYN-NORANDA A","7086719","2018-02-14 17:00","2018","02","14","17:00","0.0","","-6.8","","60","","","","20","","14","","24.1","","97.12","","","","-4","","NA"
"-78.84","48.21","ROUYN-NORANDA A","7086719","2018-02-14 18:00","2018","02","14","18:00","-1.9","","-7.0","","68","","","","19","","8","","24.1","","97.08","","","","-5","","NA"
"-78.84","48.21","ROUYN-NORANDA A","7086719","2018-02-14 19:00","2018","02","14","19:00","-2.4","","-6.4","","74","","","","19","","13","","24.1","","97.04","","","","-7","","Mainly Clear"
"-78.84","48.21","ROUYN-NORANDA A","7086719","2018-02-14 20:00","2018","02","14","20:00","-3.0","","-6.2","","79","","","","19","","14","","24.1","","97.04","","","","-8","","NA"
"-78.84","48.21","ROUYN-NORANDA A","7086719","2018-02-14 21:00","2018","02","14","21:00","-2.2","","-5.0","","81","","","","20","","19","","24.1","","97.04","","","","-8","","NA"
"-78.84","48.21","ROUYN-NORANDA A","7086719","2018-02-14 22:00","2018","02","14","22:00","-1.9","","-4.7","","81","","","","22","","17","","24.1","","97.02","","","","-7","","Cloudy"
"-78.84","48.21","ROUYN-NORANDA A","7086719","2018-02-14 23:00","2018","02","14","23:00","-2.0","","-4.7","","82","","","","22","","11","","24.1","","96.99","","","","-6","","NA"
"-78.84","48.21","ROUYN-NORANDA A","7086719","2018-02-15 00:00","2018","02","15","00:00","-2.3","","-4.7","","84","","","","21","","11","","24.1","","96.95","","","","-6","","NA"
"-78.84","48.21","ROUYN-NORANDA A","7086719","2018-02-15 01:00","2018","02","15","01:00","-2.5","","-4.7","","85","","","","19","","12","","24.1","","96.91","","","","-7","","Cloudy"
"-78.84","48.21","ROUYN-NORANDA A","7086719","2018-02-15 02:00","2018","02","15","02:00","-3.1","","-4.8","","88","","","","17","","8","","24.1","","96.87","","","","-6","","NA"
"-78.84","48.21","ROUYN-NORANDA A","7086719","2018-02-15 03:00","2018","02","15","03:00","-3.1","","-4.7","","89","","","","19","","12","","19.3","","96.76","","","","-8","","NA"
"-78.84","48.21","ROUYN-NORANDA A","7086719","2018-02-15 04:00","2018","02","15","04:00","-3.0","","-4.2","","91","","","","19","","9","","6.4","","96.64","","","","-7","","Fog"
"-78.84","48.21","ROUYN-NORANDA A","7086719","2018-02-15 05:00","2018","02","15","05:00","-2.9","","-3.8","","93","","","","19","","14","","4.0","","96.60","","","","-8","","Fog"
"-78.84","48.21","ROUYN-NORANDA A","7086719","2018-02-15 06:00","2018","02","15","06:00","-2.7","","-3.4","","95","","","","18","","9","","3.2","","96.49","","","","-6","","Fog"
"-78.84","48.21","ROUYN-NORANDA A","7086719","2018-02-15 07:00","2018","02","15","07:00","-2.5","","-2.9","","97","","","","18","","4","","2.4","","96.47","","","","-4","","Snow,Fog"
"-78.84","48.21","ROUYN-NORANDA A","7086719","2018-02-15 08:00","2018","02","15","08:00","-2.4","","-2.7","","98","","","","13","","9","","1.6","","96.36","","","","-6","","Fog"
"-78.84","48.21","ROUYN-NORANDA A","7086719","2018-02-15 09:00","2018","02","15","09:00","-2.1","","-2.4","","98","","","","14","","9","","1.2","","96.33","","","","-6","","Freezing Drizzle,Fog"
"-78.84","48.21","ROUYN-NORANDA A","7086719","2018-02-15 10:00","2018","02","15","10:00","-1.8","","-2.0","","98","","","","15","","7","","1.2","","96.26","","","","-4","","Freezing Drizzle,Fog"
"-78.84","48.21","ROUYN-NORANDA A","7086719","2018-02-15 11:00","2018","02","15","11:00","-1.1","","-1.4","","98","","","","21","","8","","2.0","","96.21","","","","-4","","Freezing Drizzle,Fog"
"-78.84","48.21","ROUYN-NORANDA A","7086719","2018-02-15 12:00","2018","02","15","12:00","-0.5","","-1.3","","94","","","","22","","9","","3.2","","96.14","","","","-4","","Freezing Drizzle,Fog"
"-78.84","48.21","ROUYN-NORANDA A","7086719","2018-02-15 13:00","2018","02","15","13:00","-0.3","","-0.8","","96","","","","26","","12","","4.0","","96.11","","","","-4","","Freezing Drizzle,Fog"
"-78.84","48.21","ROUYN-NORANDA A","7086719","2018-02-15 14:00","2018","02","15","14:00","-0.1","","-0.7","","95","","","","26","","11","","4.0","","96.12","","","","-4","","Freezing Drizzle,Fog"
"-78.84","48.21","ROUYN-NORANDA A","7086719","2018-02-15 15:00","2018","02","15","15:00","0.1","","-0.7","","95","","","","27","","13","","2.8","","96.17","","","","","","Snow"
"-78.84","48.21","ROUYN-NORANDA A","7086719","2018-02-15 16:00","2018","02","15","16:00","-0.2","","-0.9","","95","","","","30","","16","","1.6","","96.27","","","","-5","","Snow"
"-78.84","48.21","ROUYN-NORANDA A","7086719","2018-02-15 17:00","2018","02","15","17:00","-2.4","","-3.7","","91","","","","33","","20","","1.2","","96.39","","","","-8","","Snow"
"-78.84","48.21","ROUYN-NORANDA A","7086719","2018-02-15 18:00","2018","02","15","18:00","-5.1","","-6.6","","89","","","","34","","21","","2.4","","96.57","","","","-12","","Snow"
"-78.84","48.21","ROUYN-NORANDA A","7086719","2018-02-15 19:00","2018","02","15","19:00","-7.9","","-10.2","","84","","","","36","","22","","4.8","","96.72","","","","-16","","Snow"
"-78.84","48.21","ROUYN-NORANDA A","7086719","2018-02-15 20:00","2018","02","15","20:00","-9.9","","-11.9","","85","","","","33","","18","","8.1","","96.87","","","","-17","","Snow"
"-78.84","48.21","ROUYN-NORANDA A","7086719","2018-02-15 21:00","2018","02","15","21:00","-12.0","","-14.5","","82","","","","34","","15","","9.7","","97.00","","","","-19","","Snow"
"-78.84","48.21","ROUYN-NORANDA A","7086719","2018-02-15 22:00","2018","02","15","22:00","-13.7","","-16.2","","81","","","","35","","10","","24.1","","97.10","","","","-20","","Snow"
"-78.84","48.21","ROUYN-NORANDA A","7086719","2018-02-15 23:00","2018","02","15","23:00","-14.8","","-17.2","","82","","","","35","","17","","24.1","","97.16","","","","-23","","Ice Crystals"
"-78.84","48.21","ROUYN-NORANDA A","7086719","2018-02-16 00:00","2018","02","16","00:00","-15.9","","-18.1","","83","","","","34","","14","","24.1","","97.21","","","","-24","","Ice Crystals"
"-78.84","48.21","ROUYN-NORANDA A","7086719","2018-02-16 01:00","2018","02","16","01:00","-17.6","","-20.1","","81","","","","34","","14","","24.1","","97.29","","","","-26","","Ice Crystals"
"-78.84","48.21","ROUYN-NORANDA A","7086719","2018-02-16 02:00","2018","02","16","02:00","-19.0","","-21.9","","78","","","","34","","13","","24.1","","97.30","","","","-27","","NA"
"-78.84","48.21","ROUYN-NORANDA A","7086719","2018-02-16 03:00","2018","02","16","03:00","-19.6","","-22.7","","77","","","","33","","10","","24.1","","97.43","","","","-27","","NA"
"-78.84","48.21","ROUYN-NORANDA A","7086719","2018-02-16 04:00","2018","02","16","04:00","-20.0","","-23.6","","74","","","","34","","11","","24.1","","97.43","","","","-28","","Cloudy"
"-78.84","48.21","ROUYN-NORANDA A","7086719","2018-02-16 05:00","2018","02","16","05:00","-20.1","","-23.4","","75","","","","34","","10","","24.1","","97.46","","","","-27","","Snow"
"-78.84","48.21","ROUYN-NORANDA A","7086719","2018-02-16 06:00","2018","02","16","06:00","-20.2","","-23.3","","76","","","","33","","6","","24.1","","97.44","","","","-25","","Snow"
"-78.84","48.21","ROUYN-NORANDA A","7086719","2018-02-16 07:00","2018","02","16","07:00","-19.9","","-23.1","","76","","","","32","","10","","24.1","","97.48","","","","-27","","Cloudy"
"-78.84","48.21","ROUYN-NORANDA A","7086719","2018-02-16 08:00","2018","02","16","08:00","-19.5","","-22.7","","76","","","","32","","7","","24.1","","97.61","","","","-25","","NA"
"-78.84","48.21","ROUYN-NORANDA A","7086719","2018-02-16 09:00","2018","02","16","09:00","-18.9","","-22.1","","76","","","","30","","7","","24.1","","97.64","","","","-24","","Snow"
"-78.84","48.21","ROUYN-NORANDA A","7086719","2018-02-16 10:00","2018","02","16","10:00","-18.0","","-21.4","","75","","","","29","","9","","24.1","","97.66","","","","-24","","Snow"
"-78.84","48.21","ROUYN-NORANDA A","7086719","2018-02-16 11:00","2018","02","16","11:00","-15.9","","-20.5","","68","","","","26","","8","","24.1","","97.64","","","","-21","","Snow"
"-78.84","48.21","ROUYN-NORANDA A","7086719","2018-02-16 12:00","2018","02","16","12:00","-14.2","","-19.5","","65","","","","27","","13","","24.1","","97.63","","","","-21","","Snow"
"-78.84","48.21","ROUYN-NORANDA A","7086719","2018-02-16 13:00","2018","02","16","13:00","-12.5","","-18.4","","62","","","","27","","11","","24.1","","97.60","","","","-19","","Mostly Cloudy"
"-78.84","48.21","ROUYN-NORANDA A","7086719","2018-02-16 14:00","2018","02","16","14:00","-11.8","","-18.3","","59","","","","28","","23","","24.1","","97.56","","","","-21","","NA"
"-78.84","48.21","ROUYN-NORANDA A","7086719","2018-02-16 15:00","2018","02","16","15:00","-11.2","","-18.7","","54","","","","28","","19","","24.1","","97.57","","","","-19","","NA"
"-78.84","48.21","ROUYN-NORANDA A","7086719","2018-02-16 16:00","2018","02","16","16:00","-11.1","","-19.0","","52","","","","26","","21","","24.1","","97.64","","","","-19","","Mainly Clear"
"-78.84","48.21","ROUYN-NORANDA A","7086719","2018-02-16 17:00","2018","02","16","17:00","-11.6","","-18.9","","55","","","","25","","19","","24.1","","97.69","","","","-20","","NA"
"-78.84","48.21","ROUYN-NORANDA A","7086719","2018-02-16 18:00","2018","02","16","18:00","-14.3","","-19.8","","63","","","","24","","9","","24.1","","97.76","","","","-20","","NA"
"-78.84","48.21","ROUYN-NORANDA A","7086719","2018-02-16 19:00","2018","02","16","19:00","-15.1","","-19.8","","68","","","","22","","5","","24.1","","97.86","","","","-19","","Clear"
"-78.84","48.21","ROUYN-NORANDA A","7086719","2018-02-16 20:00","2018","02","16","20:00","-17.1","","-20.7","","74","","","","24","","5","","24.1","","97.91","","","","-21","","NA"
"-78.84","48.21","ROUYN-NORANDA A","7086719","2018-02-16 21:00","2018","02","16","21:00","-16.9","","-20.9","","72","","","","22","","8","","24.1","","97.97","","","","-23","","NA"
"-78.84","48.21","ROUYN-NORANDA A","7086719","2018-02-16 22:00","2018","02","16","22:00","-18.1","","-21.9","","73","","","","23","","7","","24.1","","98.00","","","","-23","","Clear"
"-78.84","48.21","ROUYN-NORANDA A","7086719","2018-02-16 23:00","2018","02","16","23:00","-17.6","","-21.2","","74","","","","23","","12","","24.1","","98.08","","","","-25","","NA"
"-78.84","48.21","ROUYN-NORANDA A","7086719","2018-02-17 00:00","2018","02","17","00:00","-18.4","","-22.1","","73","","","","24","","10","","24.1","","98.10","","","","-25","","NA"
"-78.84","48.21","ROUYN-NORANDA A","7086719","2018-02-17 01:00","2018","02","17","01:00","-16.9","","-20.5","","75","","","","23","","12","","24.1","","98.15","","","","-24","","Mostly Cloudy"
"-78.84","48.21","ROUYN-NORANDA A","7086719","2018-02-17 02:00","2018","02","17","02:00","-16.1","","-20.1","","72","","","","23","","11","","24.1","","98.19","","","","-23","","Snow"
"-78.84","48.21","ROUYN-NORANDA A","7086719","2018-02-17 03:00","2018","02","17","03:00","-15.3","","-18.9","","74","","","","20","","10","","24.1","","98.18","","","","-22","","Snow"
"-78.84","48.21","ROUYN-NORANDA A","7086719","2018-02-17 04:00","2018","02","17","04:00","-14.9","","-18.5","","74","","","","22","","19","","24.1","","98.13","","","","-24","","Cloudy"
"-78.84","48.21","ROUYN-NORANDA A","7086719","2018-02-17 05:00","2018","02","17","05:00","-16.2","","-19.1","","79","","","","20","","11","","24.1","","98.11","","","","-23","","NA"
"-78.84","48.21","ROUYN-NORANDA A","7086719","2018-02-17 06:00","2018","02","17","06:00","-16.9","","-19.4","","81","","","","19","","13","","24.1","","98.08","","","","-25","","NA"
"-78.84","48.21","ROUYN-NORANDA A","7086719","2018-02-17 07:00","2018","02","17","07:00","-16.3","","-19.0","","80","","","","19","","12","","24.1","","97.99","","","","-24","","Mostly Cloudy"
"-78.84","48.21","ROUYN-NORANDA A","7086719","2018-02-17 08:00","2018","02","17","08:00","-15.8","","-18.5","","80","","","","19","","18","","24.1","","98.00","","","","-25","","NA"
"-78.84","48.21","ROUYN-NORANDA A","7086719","2018-02-17 09:00","2018","02","17","09:00","-13.9","","-17.2","","76","","","","19","","19","","24.1","","97.95","","","","-23","","Blowing Snow"
"-78.84","48.21","ROUYN-NORANDA A","7086719","2018-02-17 10:00","2018","02","17","10:00","-11.6","","-15.5","","73","","","","19","","20","","16.1","","97.83","","","","-20","","Snow,Blowing Snow"
"-78.84","48.21","ROUYN-NORANDA A","7086719","2018-02-17 11:00","2018","02","17","11:00","-8.9","","-13.4","","71","","","","19","","20","","24.1","","97.70","","","","-16","","Blowing Snow"
"-78.84","48.21","ROUYN-NORANDA A","7086719","2018-02-17 12:00","2018","02","17","12:00","-6.3","","-11.5","","67","","","","22","","30","","24.1","","97.61","","","","-15","","Blowing Snow"
"-78.84","48.21","ROUYN-NORANDA A","7086719","2018-02-17 13:00","2018","02","17","13:00","-5.9","","-11.6","","64","","","","21","","30","","24.1","","97.44","","","","-14","","Blowing Snow"
"-78.84","48.21","ROUYN-NORANDA A","7086719","2018-02-17 14:00","2018","02","17","14:00","-4.1","","-10.9","","59","","","","21","","26","","24.1","","97.32","","","","-11","","Blowing Snow"
"-78.84","48.21","ROUYN-NORANDA A","7086719","2018-02-17 15:00","2018","02","17","15:00","-3.5","","-11.7","","53","","","","20","","31","","24.1","","97.20","","","","-11","","Blowing Snow"
"-78.84","48.21","ROUYN-NORANDA A","7086719","2018-02-17 16:00","2018","02","17","16:00","-3.3","","-10.9","","56","","","","20","","25","","24.1","","97.13","","","","-10","","Blowing Snow"
"-78.84","48.21","ROUYN-NORANDA A","7086719","2018-02-17 17:00","2018","02","17","17:00","-3.7","","-10.2","","61","","","","21","","23","","24.1","","97.09","","","","-10","","NA"
"-78.84","48.21","ROUYN-NORANDA A","7086719","2018-02-17 18:00","2018","02","17","18:00","-4.0","","-9.8","","64","","","","21","","22","","24.1","","97.17","","","","-11","","NA"
"-78.84","48.21","ROUYN-NORANDA A","7086719","2018-02-17 19:00","2018","02","17","19:00","-4.3","","-9.5","","67","","","","20","","21","","24.1","","97.18","","","","-11","","Cloudy"
"-78.84","48.21","ROUYN-NORANDA A","7086719","2018-02-17 20:00","2018","02","17","20:00","-4.1","","-9.4","","67","","","","20","","22","","24.1","","97.13","","","","-11","","NA"
"-78.84","48.21","ROUYN-NORANDA A","7086719","2018-02-17 21:00","2018","02","17","21:00","-3.8","","-8.8","","68","","","","21","","27","","24.1","","97.13","","","","-11","","Snow"
"-78.84","48.21","ROUYN-NORANDA A","7086719","2018-02-17 22:00","2018","02","17","22:00","-3.8","","-8.7","","69","","","","21","","22","","24.1","","97.10","","","","-10","","Snow"
"-78.84","48.21","ROUYN-NORANDA A","7086719","2018-02-17 23:00","2018","02","17","23:00","-3.8","","-8.5","","70","","","","23","","22","","24.1","","97.11","","","","-10","","Snow"
"-78.84","48.21","ROUYN-NORANDA A","7086719","2018-02-18 00:00","2018","02","18","00:00","-3.9","","-7.8","","74","","","","23","","29","","24.1","","97.15","","","","-11","","Snow"
"-78.84","48.21","ROUYN-NORANDA A","7086719","2018-02-18 01:00","2018","02","18","01:00","-4.5","","-7.0","","83","","","","25","","20","","9.7","","97.21","","","","-11","","Snow"
"-78.84","48.21","ROUYN-NORANDA A","7086719","2018-02-18 02:00","2018","02","18","02:00","-4.9","","-8.8","","74","","","","25","","14","","24.1","","97.28","","","","-10","","Snow"
"-78.84","48.21","ROUYN-NORANDA A","7086719","2018-02-18 03:00","2018","02","18","03:00","-5.4","","-8.9","","77","","","","25","","13","","24.1","","97.38","","","","-11","","Snow"
"-78.84","48.21","ROUYN-NORANDA A","7086719","2018-02-18 04:00","2018","02","18","04:00","-5.5","","-9.4","","74","","","","27","","8","","24.1","","97.47","","","","-9","","Cloudy"
"-78.84","48.21","ROUYN-NORANDA A","7086719","2018-02-18 05:00","2018","02","18","05:00","-5.9","","-9.3","","77","","","","31","","11","","9.7","","97.64","","","","-11","","Snow"
"-78.84","48.21","ROUYN-NORANDA A","7086719","2018-02-18 06:00","2018","02","18","06:00","-6.9","","-8.6","","88","","","","29","","5","","19.3","","97.79","","","","-9","","Snow"
"-78.84","48.21","ROUYN-NORANDA A","7086719","2018-02-18 07:00","2018","02","18","07:00","-10.0","","-10.9","","93","","","","23","","3","","24.1","","97.89","","","","-12","","Mostly Cloudy"
"-78.84","48.21","ROUYN-NORANDA A","7086719","2018-02-18 08:00","2018","02","18","08:00","-10.3","","-11.8","","89","","","","26","","6","","24.1","","98.05","","","","-14","","Snow"
"-78.84","48.21","ROUYN-NORANDA A","7086719","2018-02-18 09:00","2018","02","18","09:00","-7.6","","-10.6","","79","","","","23","","9","","24.1","","98.16","","","","-12","","NA"
"-78.84","48.21","ROUYN-NORANDA A","7086719","2018-02-18 10:00","2018","02","18","10:00","-6.5","","-10.8","","71","","","","32","","19","","24.1","","98.31","","","","-13","","Snow"
"-78.84","48.21","ROUYN-NORANDA A","7086719","2018-02-18 11:00","2018","02","18","11:00","-5.3","","-11.4","","63","","","","26","","19","","24.1","","98.39","","","","-12","","NA"
"-78.84","48.21","ROUYN-NORANDA A","7086719","2018-02-18 12:00","2018","02","18","12:00","-5.7","","-13.1","","56","","","","28","","20","","24.1","","98.49","","","","-12","","NA"
"-78.84","48.21","ROUYN-NORANDA A","7086719","2018-02-18 13:00","2018","02","18","13:00","-5.3","","-14.2","","50","","","","29","","17","","24.1","","98.47","","","","-11","","Mostly Cloudy"
"-78.84","48.21","ROUYN-NORANDA A","7086719","2018-02-18 14:00","2018","02","18","14:00","-4.0","","-15.2","","42","","","","26","","14","","24.1","","98.42","","","","-9","","NA"
"-78.84","48.21","ROUYN-NORANDA A","7086719","2018-02-18 15:00","2018","02","18","15:00","-4.2","","-14.1","","46","","","","26","","20","","24.1","","98.55","","","","-11","","NA"
"-78.84","48.21","ROUYN-NORANDA A","7086719","2018-02-18 16:00","2018","02","18","16:00","-4.2","","-14.0","","47","","","","23","","12","","24.1","","98.50","","","","-9","","Mostly Cloudy"
"-78.84","48.21","ROUYN-NORANDA A","7086719","2018-02-18 17:00","2018","02","18","17:00","-4.4","","-13.5","","50","","","","24","","6","","24.1","","98.45","","","","-7","","NA"
"-78.84","48.21","ROUYN-NORANDA A","7086719","2018-02-18 18:00","2018","02","18","18:00","-4.7","","-13.4","","51","","","","14","","7","","24.1","","98.41","","","","-8","","NA"
"-78.84","48.21","ROUYN-NORANDA A","7086719","2018-02-18 19:00","2018","02","18","19:00","-4.7","","-12.4","","55","","","","15","","9","","24.1","","98.37","","","","-9","","Cloudy"
"-78.84","48.21","ROUYN-NORANDA A","7086719","2018-02-18 20:00","2018","02","18","20:00","-3.6","","-11.7","","53","","","","19","","17","","24.1","","98.33","","","","-9","","NA"
"-78.84","48.21","ROUYN-NORANDA A","7086719","2018-02-18 21:00","2018","02","18","21:00","-3.7","","-8.0","","72","","","","21","","26","","12.9","","98.29","","","","-11","","Snow"
"-78.84","48.21","ROUYN-NORANDA A","7086719","2018-02-18 22:00","2018","02","18","22:00","-4.4","","-5.6","","91","","","","20","","16","","1.6","","98.24","","","","-10","","Snow"
"-78.84","48.21","ROUYN-NORANDA A","7086719","2018-02-18 23:00","2018","02","18","23:00","-4.1","","-5.3","","92","","","","19","","17","","2.0","","98.17","","","","-10","","Snow"
"-78.84","48.21","ROUYN-NORANDA A","7086719","2018-02-19 00:00","2018","02","19","00:00","-3.7","","-5.3","","89","","","","19","","17","","24.1","","98.11","","","","-9","","Snow"
"-78.84","48.21","ROUYN-NORANDA A","7086719","2018-02-19 01:00","2018","02","19","01:00","-3.6","","-5.7","","85","","","","20","","17","","24.1","","98.07","","","","-9","","Cloudy"
"-78.84","48.21","ROUYN-NORANDA A","7086719","2018-02-19 02:00","2018","02","19","02:00","-3.4","","-6.0","","82","","","","20","","19","","24.1","","98.03","","","","-9","","NA"
"-78.84","48.21","ROUYN-NORANDA A","7086719","2018-02-19 03:00","2018","02","19","03:00","-3.4","","-6.3","","80","","","","19","","20","","24.1","","97.99","","","","-10","","NA"
"-78.84","48.21","ROUYN-NORANDA A","7086719","2018-02-19 04:00","2018","02","19","04:00","-3.3","","-6.5","","79","","","","18","","16","","24.1","","97.95","","","","-9","","Cloudy"
"-78.84","48.21","ROUYN-NORANDA A","7086719","2018-02-19 05:00","2018","02","19","05:00","-3.1","","-6.3","","79","","","","19","","19","","24.1","","97.90","","","","-9","","NA"
"-78.84","48.21","ROUYN-NORANDA A","7086719","2018-02-19 06:00","2018","02","19","06:00","-3.0","","-5.7","","82","","","","18","","12","","24.1","","97.89","","","","-7","","NA"
"-78.84","48.21","ROUYN-NORANDA A","7086719","2018-02-19 07:00","2018","02","19","07:00","-2.5","","-5.1","","82","","","","19","","16","","24.1","","97.79","","","","-8","","Snow"
"-78.84","48.21","ROUYN-NORANDA A","7086719","2018-02-19 08:00","2018","02","19","08:00","-1.9","","-4.7","","81","","","","21","","14","","19.3","","97.90","","","","-7","","NA"
"-78.84","48.21","ROUYN-NORANDA A","7086719","2018-02-19 09:00","2018","02","19","09:00","-1.5","","-4.5","","80","","","","22","","14","","19.3","","97.98","","","","-6","","Snow"
"-78.84","48.21","ROUYN-NORANDA A","7086719","2018-02-19 10:00","2018","02","19","10:00","-1.2","","-4.3","","79","","","","21","","18","","19.3","","97.97","","","","-6","","Snow"
"-78.84","48.21","ROUYN-NORANDA A","7086719","2018-02-19 11:00","2018","02","19","11:00","-0.9","","-4.2","","79","","","","22","","12","","19.3","","97.99","","","","-5","","Snow"
"-78.84","48.21","ROUYN-NORANDA A","7086719","2018-02-19 12:00","2018","02","19","12:00","-0.8","","-4.0","","79","","","","22","","10","","19.3","","98.03","","","","-4","","Snow"
"-78.84","48.21","ROUYN-NORANDA A","7086719","2018-02-19 13:00","2018","02","19","13:00","-0.6","","-3.7","","80","","","","23","","8","","19.3","","98.01","","","","-3","","Snow"
"-78.84","48.21","ROUYN-NORANDA A","7086719","2018-02-19 14:00","2018","02","19","14:00","-4.1","","-6.7","","82","","","","36","","26","","9.7","","98.21","","","","-11","","Snow,Blowing Snow"
"-78.84","48.21","ROUYN-NORANDA A","7086719","2018-02-19 15:00","2018","02","19","15:00","-9.8","","-12.5","","80","","","","35","","20","","19.3","","98.35","","","","-18","","Snow,Blowing Snow"
"-78.84","48.21","ROUYN-NORANDA A","7086719","2018-02-19 16:00","2018","02","19","16:00","-10.9","","-14.2","","77","","","","1","","22","","19.3","","98.48","","","","-19","","Freezing Drizzle,Snow,Blowing Snow"
"-78.84","48.21","ROUYN-NORANDA A","7086719","2018-02-19 17:00","2018","02","19","17:00","-12.4","","-15.4","","78","","","","2","","16","","9.7","","98.59","","","","-20","","Freezing Drizzle,Snow,Blowing Snow"
"-78.84","48.21","ROUYN-NORANDA A","7086719","2018-02-19 18:00","2018","02","19","18:00","-13.5","","-16.3","","80","","","","3","","25","","1.6","","98.74","","","","-23","","Snow,Blowing Snow"
"-78.84","48.21","ROUYN-NORANDA A","7086719","2018-02-19 19:00","2018","02","19","19:00","-14.2","","-17.0","","79","","","","4","","23","","4.8","","98.78","","","","-24","","Snow,Blowing Snow"
"-78.84","48.21","ROUYN-NORANDA A","7086719","2018-02-19 20:00","2018","02","19","20:00","-14.7","","-17.6","","79","","","","4","","15","","4.8","","98.82","","","","-23","","Snow"
"-78.84","48.21","ROUYN-NORANDA A","7086719","2018-02-19 21:00","2018","02","19","21:00","-15.1","","-18.4","","76","","","","4","","19","","24.1","","98.90","","","","-24","","Snow"
"-78.84","48.21","ROUYN-NORANDA A","7086719","2018-02-19 22:00","2018","02","19","22:00","-15.6","","-18.5","","79","","","","3","","18","","24.1","","98.88","","","","-24","","Snow"
"-78.84","48.21","ROUYN-NORANDA A","7086719","2018-02-19 23:00","2018","02","19","23:00","-16.1","","-19.4","","77","","","","5","","25","","24.1","","98.94","","","","-27","","Snow"
"-78.84","48.21","ROUYN-NORANDA A","7086719","2018-02-20 00:00","2018","02","20","00:00","-16.6","","-19.6","","78","","","","5","","22","","24.1","","98.89","","","","-27","","Snow"
"-78.84","48.21","ROUYN-NORANDA A","7086719","2018-02-20 01:00","2018","02","20","01:00","-16.8","","-19.8","","78","","","","3","","17","","24.1","","98.95","","","","-26","","Snow"
"-78.84","48.21","ROUYN-NORANDA A","7086719","2018-02-20 02:00","2018","02","20","02:00","-16.8","","-19.8","","78","","","","5","","14","","24.1","","98.94","","","","-25","","Snow"
"-78.84","48.21","ROUYN-NORANDA A","7086719","2018-02-20 03:00","2018","02","20","03:00","-17.2","","-20.1","","78","","","","7","","20","","24.1","","98.86","","","","-27","","Snow"
"-78.84","48.21","ROUYN-NORANDA A","7086719","2018-02-20 04:00","2018","02","20","04:00","-17.3","","-20.1","","79","","","","6","","21","","24.1","","98.85","","","","-27","","Snow"
"-78.84","48.21","ROUYN-NORANDA A","7086719","2018-02-20 05:00","2018","02","20","05:00","-17.2","","-20.2","","78","","","","5","","16","","24.1","","98.87","","","","-26","","Snow"
"-78.84","48.21","ROUYN-NORANDA A","7086719","2018-02-20 06:00","2018","02","20","06:00","-16.6","","-19.6","","78","","","","7","","19","","24.1","","98.80","","","","-26","","Snow"
"-78.84","48.21","ROUYN-NORANDA A","7086719","2018-02-20 07:00","2018","02","20","07:00","-16.4","","-19.3","","79","","","","7","","16","","24.1","","98.74","","","","-25","","Snow"
"-78.84","48.21","ROUYN-NORANDA A","7086719","2018-02-20 08:00","2018","02","20","08:00","-15.6","","-18.6","","78","","","","6","","19","","24.1","","98.62","","","","-25","","Snow"
"-78.84","48.21","ROUYN-NORANDA A","7086719","2018-02-20 09:00","2018","02","20","09:00","-14.2","","-17.4","","77","","","","7","","20","","24.1","","98.54","","","","-23","","Snow"
"-78.84","48.21","ROUYN-NORANDA A","7086719","2018-02-20 10:00","2018","02","20","10:00","-12.8","","-15.8","","78","","","","8","","18","","24.1","","98.33","","","","-21","","Snow"
"-78.84","48.21","ROUYN-NORANDA A","7086719","2018-02-20 11:00","2018","02","20","11:00","-11.8","","-14.8","","78","","","","6","","16","","24.1","","98.26","","","","-19","","NA"
"-78.84","48.21","ROUYN-NORANDA A","7086719","2018-02-20 12:00","2018","02","20","12:00","-10.9","","-13.0","","85","","","","6","","17","","2.4","","98.13","","","","-18","","Snow,Ice Pellets"
"-78.84","48.21","ROUYN-NORANDA A","7086719","2018-02-20 13:00","2018","02","20","13:00","-9.1","","-10.9","","87","","","","7","","21","","4.0","","97.91","","","","-17","","Freezing Drizzle,Ice Pellets"
"-78.84","48.21","ROUYN-NORANDA A","7086719","2018-02-20 14:00","2018","02","20","14:00","-7.9","","-9.5","","88","","","","10","","18","","6.4","","97.72","","","","-15","","Freezing Rain,Snow,Ice Pellets"
"-78.84","48.21","ROUYN-NORANDA A","7086719","2018-02-20 15:00","2018","02","20","15:00","-6.2","","-7.7","","90","","","","10","","11","","24.1","","97.65","","","","-11","","Freezing Rain,Snow"
"-78.84","48.21","ROUYN-NORANDA A","7086719","2018-02-20 16:00","2018","02","20","16:00","-4.8","","-6.0","","92","","","","12","","12","","24.1","","97.59","","","","-10","","Cloudy"
"-78.84","48.21","ROUYN-NORANDA A","7086719","2018-02-20 17:00","2018","02","20","17:00","-4.2","","-5.1","","93","","","","11","","3","","12.9","","97.60","","","","-5","","NA"
"-78.84","48.21","ROUYN-NORANDA A","7086719","2018-02-20 18:00","2018","02","20","18:00","-3.6","","-3.8","","98","","","","36","","2","","1.6","","97.54","","","","-4","","Freezing Drizzle,Fog"
"-78.84","48.21","ROUYN-NORANDA A","7086719","2018-02-20 19:00","2018","02","20","19:00","-3.0","","-3.2","","98","","","","13","","5","","1.6","","97.47","","","","-5","","Freezing Drizzle,Snow,Fog"
"-78.84","48.21","ROUYN-NORANDA A","7086719","2018-02-20 20:00","2018","02","20","20:00","-1.3","","-1.5","","99","","","","20","","9","","0.8","","97.43","","","","-5","","Freezing Rain,Fog"
"-78.84","48.21","ROUYN-NORANDA A","7086719","2018-02-20 21:00","2018","02","20","21:00","0.2","","0.2","","99","","","","21","","14","","0.8","","97.34","","","","","","Drizzle,Fog"
"-78.84","48.21","ROUYN-NORANDA A","7086719","2018-02-20 22:00","2018","02","20","22:00","0.5","","0.4","","99","","","","25","","16","","0.8","","97.37","","","","","","Drizzle,Fog"
"-78.84","48.21","ROUYN-NORANDA A","7086719","2018-02-20 23:00","2018","02","20","23:00","2.3","","2.2","","99","","","","23","","16","","9.7","","97.26","","","","","","Drizzle"
"-78.84","48.21","ROUYN-NORANDA A","7086719","2018-02-21 00:00","2018","02","21","00:00","2.0","","1.9","","99","","","","26","","10","","2.0","","97.34","","","","","","Drizzle"
"-78.84","48.21","ROUYN-NORANDA A","7086719","2018-02-21 01:00","2018","02","21","01:00","1.2","","0.9","","98","","","","28","","18","","2.4","","97.45","","","","","","Drizzle"
"-78.84","48.21","ROUYN-NORANDA A","7086719","2018-02-21 02:00","2018","02","21","02:00","-0.9","","-1.7","","94","","","","29","","21","","3.2","","97.62","","","","-7","","Freezing Drizzle"
"-78.84","48.21","ROUYN-NORANDA A","7086719","2018-02-21 03:00","2018","02","21","03:00","-4.1","","-6.2","","86","","","","30","","21","","24.1","","97.75","","","","-11","","NA"
"-78.84","48.21","ROUYN-NORANDA A","7086719","2018-02-21 04:00","2018","02","21","04:00","-5.3","","-7.3","","85","","","","28","","12","","24.1","","97.82","","","","-10","","Cloudy"
"-78.84","48.21","ROUYN-NORANDA A","7086719","2018-02-21 05:00","2018","02","21","05:00","-6.3","","-8.3","","86","","","","26","","13","","24.1","","97.92","","","","-12","","NA"
"-78.84","48.21","ROUYN-NORANDA A","7086719","2018-02-21 06:00","2018","02","21","06:00","-7.3","","-10.1","","80","","","","28","","22","","24.1","","98.07","","","","-15","","NA"
"-78.84","48.21","ROUYN-NORANDA A","7086719","2018-02-21 07:00","2018","02","21","07:00","-8.2","","-10.9","","81","","","","29","","22","","24.1","","98.20","","","","-16","","Snow"
"-78.84","48.21","ROUYN-NORANDA A","7086719","2018-02-21 08:00","2018","02","21","08:00","-9.5","","-12.5","","79","","","","29","","21","","19.3","","98.39","","","","-17","","Snow"
"-78.84","48.21","ROUYN-NORANDA A","7086719","2018-02-21 09:00","2018","02","21","09:00","-10.2","","-14.2","","73","","","","29","","25","","24.1","","98.51","","","","-19","","Snow"
"-78.84","48.21","ROUYN-NORANDA A","7086719","2018-02-21 10:00","2018","02","21","10:00","-11.2","","-15.2","","73","","","","30","","21","","24.1","","98.68","","","","-20","","Snow Showers"
"-78.84","48.21","ROUYN-NORANDA A","7086719","2018-02-21 11:00","2018","02","21","11:00","-12.2","","-17.9","","63","","","","30","","23","","24.1","","98.86","","","","-21","","NA"
"-78.84","48.21","ROUYN-NORANDA A","7086719","2018-02-21 12:00","2018","02","21","12:00","-11.8","","-17.8","","62","","","","31","","18","","24.1","","99.02","","","","-20","","NA"
"-78.84","48.21","ROUYN-NORANDA A","7086719","2018-02-21 13:00","2018","02","21","13:00","-11.1","","-17.6","","59","","","","31","","19","","24.1","","99.15","","","","-19","","Mostly Cloudy"
"-78.84","48.21","ROUYN-NORANDA A","7086719","2018-02-21 14:00","2018","02","21","14:00","-9.9","","-17.1","","56","","","","31","","18","","24.1","","99.22","","","","-17","","NA"
"-78.84","48.21","ROUYN-NORANDA A","7086719","2018-02-21 15:00","2018","02","21","15:00","-9.3","","-17.1","","54","","","","30","","18","","24.1","","99.34","","","","-17","","NA"
"-78.84","48.21","ROUYN-NORANDA A","7086719","2018-02-21 16:00","2018","02","21","16:00","-9.8","","-17.2","","55","","","","29","","12","","24.1","","99.42","","","","-16","","Mostly Cloudy"
"-78.84","48.21","ROUYN-NORANDA A","7086719","2018-02-21 17:00","2018","02","21","17:00","-9.9","","-17.4","","55","","","","28","","15","","24.1","","99.54","","","","-17","","NA"
"-78.84","48.21","ROUYN-NORANDA A","7086719","2018-02-21 18:00","2018","02","21","18:00","-11.4","","-17.3","","62","","","","28","","6","","24.1","","99.67","","","","-15","","NA"
"-78.84","48.21","ROUYN-NORANDA A","7086719","2018-02-21 19:00","2018","02","21","19:00","-14.7","","-17.7","","79","","","","36","","2","","24.1","","99.75","","","","-16","","Mainly Clear"
"-78.84","48.21","ROUYN-NORANDA A","7086719","2018-02-21 20:00","2018","02","21","20:00","-16.5","","-19.5","","78","","","","0","","1","","24.1","","99.79","","","","-17","","NA"
"-78.84","48.21","ROUYN-NORANDA A","7086719","2018-02-21 21:00","2018","02","21","21:00","-18.6","","-20.9","","82","","","","36","","2","","24.1","","99.85","","","","-20","","NA"
"-78.84","48.21","ROUYN-NORANDA A","7086719","2018-02-21 22:00","2018","02","21","22:00","-19.2","","-21.5","","82","","","","36","","1","","24.1","","99.89","","","","-20","","Mainly Clear"
"-78.84","48.21","ROUYN-NORANDA A","7086719","2018-02-21 23:00","2018","02","21","23:00","-20.4","","-22.9","","81","","","","36","","3","","24.1","","99.99","","","","-23","","NA"
"-78.84","48.21","ROUYN-NORANDA A","7086719","2018-02-22 00:00","2018","02","22","00:00","-22.1","","-24.8","","79","","","","36","","2","","24.1","","100.06","","","","-24","","NA"
"-78.84","48.21","ROUYN-NORANDA A","7086719","2018-02-22 01:00","2018","02","22","01:00","-22.2","","-25.1","","78","","","","18","","3","","24.1","","100.09","","","","-25","","Clear"
"-78.84","48.21","ROUYN-NORANDA A","7086719","2018-02-22 02:00","2018","02","22","02:00","-21.0","","-23.3","","82","","","","36","","3","","24.1","","100.10","","","","-24","","Snow"
"-78.84","48.21","ROUYN-NORANDA A","7086719","2018-02-22 03:00","2018","02","22","03:00","-18.9","","-21.4","","81","","","","19","","4","","24.1","","100.11","","","","-22","","Snow"
"-78.84","48.21","ROUYN-NORANDA A","7086719","2018-02-22 04:00","2018","02","22","04:00","-18.2","","-20.4","","84","","","","20","","7","","24.1","","100.10","","","","-24","","Mainly Clear"
"-78.84","48.21","ROUYN-NORANDA A","7086719","2018-02-22 05:00","2018","02","22","05:00","-19.2","","-20.9","","87","","","","19","","6","","24.1","","100.12","","","","-24","","NA"
"-78.84","48.21","ROUYN-NORANDA A","7086719","2018-02-22 06:00","2018","02","22","06:00","-18.7","","-20.8","","84","","","","19","","7","","24.1","","100.12","","","","-24","","Snow"
"-78.84","48.21","ROUYN-NORANDA A","7086719","2018-02-22 07:00","2018","02","22","07:00","-19.4","","-21.4","","85","","","","20","","5","","24.1","","100.16","","","","-24","","Mostly Cloudy"
"-78.84","48.21","ROUYN-NORANDA A","7086719","2018-02-22 08:00","2018","02","22","08:00","-18.9","","-21.1","","83","","","","19","","5","","24.1","","100.20","","","","-23","","NA"
"-78.84","48.21","ROUYN-NORANDA A","7086719","2018-02-22 09:00","2018","02","22","09:00","-16.5","","-18.8","","83","","","","20","","3","","24.1","","100.22","","","","-19","","NA"
"-78.84","48.21","ROUYN-NORANDA A","7086719","2018-02-22 10:00","2018","02","22","10:00","-13.7","","-16.3","","81","","","","25","","13","","24.1","","100.27","","","","-21","","Mainly Clear"
"-78.84","48.21","ROUYN-NORANDA A","7086719","2018-02-22 11:00","2018","02","22","11:00","-9.2","","-13.5","","71","","","","25","","15","","24.1","","100.32","","","","-16","","NA"
"-78.84","48.21","ROUYN-NORANDA A","7086719","2018-02-22 12:00","2018","02","22","12:00","-6.8","","-12.7","","63","","","","25","","10","","24.1","","100.26","","","","-11","","NA"
"-78.84","48.21","ROUYN-NORANDA A","7086719","2018-02-22 13:00","2018","02","22","13:00","-5.2","","-12.8","","56","","","","25","","10","","24.1","","100.19","","","","-10","","Mainly Clear"
"-78.84","48.21","ROUYN-NORANDA A","7086719","2018-02-22 14:00","2018","02","22","14:00","-4.4","","-13.1","","51","","","","23","","11","","24.1","","100.11","","","","-9","","NA"
"-78.84","48.21","ROUYN-NORANDA A","7086719","2018-02-22 15:00","2018","02","22","15:00","-4.0","","-12.9","","50","","","","23","","13","","24.1","","100.09","","","","-9","","NA"
"-78.84","48.21","ROUYN-NORANDA A","7086719","2018-02-22 16:00","2018","02","22","16:00","-3.9","","-13.6","","47","","","","24","","13","","24.1","","100.06","","","","-9","","Mainly Clear"
"-78.84","48.21","ROUYN-NORANDA A","7086719","2018-02-22 17:00","2018","02","22","17:00","-4.1","","-12.6","","52","","","","20","","10","","24.1","","100.01","","","","-8","","NA"
"-78.84","48.21","ROUYN-NORANDA A","7086719","2018-02-22 18:00","2018","02","22","18:00","-5.7","","-13.2","","56","","","","21","","13","","24.1","","100.04","","","","-11","","NA"
"-78.84","48.21","ROUYN-NORANDA A","7086719","2018-02-22 19:00","2018","02","22","19:00","-7.5","","-14.1","","59","","","","20","","11","","24.1","","100.07","","","","-13","","Mainly Clear"
"-78.84","48.21","ROUYN-NORANDA A","7086719","2018-02-22 20:00","2018","02","22","20:00","-9.2","","-14.6","","65","","","","18","","10","","24.1","","100.03","","","","-14","","NA"
"-78.84","48.21","ROUYN-NORANDA A","7086719","2018-02-22 21:00","2018","02","22","21:00","-9.5","","-14.7","","66","","","","21","","8","","24.1","","100.09","","","","-14","","NA"
"-78.84","48.21","ROUYN-NORANDA A","7086719","2018-02-22 22:00","2018","02","22","22:00","-11.1","","-15.4","","71","","","","36","","1","","24.1","","100.04","","","","-12","","Clear"
"-78.84","48.21","ROUYN-NORANDA A","7086719","2018-02-22 23:00","2018","02","22","23:00","-12.0","","-15.3","","77","","","","36","","1","","24.1","","99.96","","","","-13","","NA"
"-78.84","48.21","ROUYN-NORANDA A","7086719","2018-02-23 00:00","2018","02","23","00:00","-10.8","","-15.5","","69","","","","18","","12","","24.1","","99.90","","","","-17","","NA"
"-78.84","48.21","ROUYN-NORANDA A","7086719","2018-02-23 01:00","2018","02","23","01:00","-10.9","","-15.1","","72","","","","18","","12","","24.1","","99.81","","","","-17","","Mainly Clear"
"-78.84","48.21","ROUYN-NORANDA A","7086719","2018-02-23 02:00","2018","02","23","02:00","-11.5","","-15.1","","75","","","","19","","4","","24.1","","99.70","","","","-14","","NA"
"-78.84","48.21","ROUYN-NORANDA A","7086719","2018-02-23 03:00","2018","02","23","03:00","-11.1","","-14.6","","76","","","","19","","13","","24.1","","99.62","","","","-18","","NA"
"-78.84","48.21","ROUYN-NORANDA A","7086719","2018-02-23 04:00","2018","02","23","04:00","-11.6","","-14.7","","78","","","","19","","10","","24.1","","99.50","","","","-17","","Clear"
"-78.84","48.21","ROUYN-NORANDA A","7086719","2018-02-23 05:00","2018","02","23","05:00","-12.3","","-15.2","","79","","","","22","","6","","24.1","","99.47","","","","-16","","NA"
"-78.84","48.21","ROUYN-NORANDA A","7086719","2018-02-23 06:00","2018","02","23","06:00","-10.8","","-13.8","","79","","","","19","","8","","24.1","","99.37","","","","-15","","NA"
"-78.84","48.21","ROUYN-NORANDA A","7086719","2018-02-23 07:00","2018","02","23","07:00","-9.5","","-12.8","","77","","","","18","","9","","24.1","","99.28","","","","-14","","Mostly Cloudy"
"-78.84","48.21","ROUYN-NORANDA A","7086719","2018-02-23 08:00","2018","02","23","08:00","-8.2","","-12.0","","74","","","","15","","10","","24.1","","99.13","","","","-13","","NA"
"-78.84","48.21","ROUYN-NORANDA A","7086719","2018-02-23 09:00","2018","02","23","09:00","-6.0","","-11.2","","67","","","","15","","12","","24.1","","98.91","","","","-11","","NA"
"-78.84","48.21","ROUYN-NORANDA A","7086719","2018-02-23 10:00","2018","02","23","10:00","-4.9","","-11.2","","62","","","","16","","20","","24.1","","98.76","","","","-11","","Cloudy"
"-78.84","48.21","ROUYN-NORANDA A","7086719","2018-02-23 11:00","2018","02","23","11:00","-4.3","","-11.2","","59","","","","17","","21","","4.8","","98.56","","","","-11","","Snow"
"-78.84","48.21","ROUYN-NORANDA A","7086719","2018-02-23 12:00","2018","02","23","12:00","-4.0","","-8.4","","72","","","","9","","18","","24.1","","98.12","","","","-10","","NA"
"-78.84","48.21","ROUYN-NORANDA A","7086719","2018-02-23 13:00","2018","02","23","13:00","-4.1","","-8.4","","72","","","","9","","10","","1.2","","98.02","","","","-8","","Snow"
"-78.84","48.21","ROUYN-NORANDA A","7086719","2018-02-23 14:00","2018","02","23","14:00","-5.2","","-6.2","","92","","","","13","","11","","0.6","","97.87","","","","-10","","Moderate Snow"
"-78.84","48.21","ROUYN-NORANDA A","7086719","2018-02-23 15:00","2018","02","23","15:00","-4.5","","-5.9","","90","","","","14","","11","","0.8","","97.66","","","","-9","","Moderate Snow"
"-78.84","48.21","ROUYN-NORANDA A","7086719","2018-02-23 16:00","2018","02","23","16:00","-4.1","","-5.4","","91","","","","18","","7","","3.2","","97.57","","","","-7","","Snow"
"-78.84","48.21","ROUYN-NORANDA A","7086719","2018-02-23 17:00","2018","02","23","17:00","-3.7","","-4.5","","94","","","","22","","12","","4.0","","97.53","","","","-8","","Freezing Drizzle,Snow"
"-78.84","48.21","ROUYN-NORANDA A","7086719","2018-02-23 18:00","2018","02","23","18:00","-3.4","","-4.3","","94","","","","21","","9","","9.7","","97.47","","","","-7","","Snow"
"-78.84","48.21","ROUYN-NORANDA A","7086719","2018-02-23 19:00","2018","02","23","19:00","-2.9","","-3.6","","95","","","","21","","11","","24.1","","97.47","","","","-7","","Freezing Drizzle,Snow"
"-78.84","48.21","ROUYN-NORANDA A","7086719","2018-02-23 20:00","2018","02","23","20:00","-2.3","","-2.9","","96","","","","26","","11","","12.9","","97.50","","","","-6","","Freezing Drizzle,Snow"
"-78.84","48.21","ROUYN-NORANDA A","7086719","2018-02-23 21:00","2018","02","23","21:00","-1.9","","-3.0","","92","","","","27","","18","","24.1","","97.55","","","","-7","","Snow"
"-78.84","48.21","ROUYN-NORANDA A","7086719","2018-02-23 22:00","2018","02","23","22:00","-1.9","","-4.2","","85","","","","29","","27","","24.1","","97.62","","","","-9","","Snow"
"-78.84","48.21","ROUYN-NORANDA A","7086719","2018-02-23 23:00","2018","02","23","23:00","-2.9","","-4.8","","87","","","","29","","15","","24.1","","97.73","","","","-8","","Snow"
"-78.84","48.21","ROUYN-NORANDA A","7086719","2018-02-24 00:00","2018","02","24","00:00","-4.2","","-6.2","","86","","","","33","","19","","24.1","","97.87","","","","-10","","Snow"
"-78.84","48.21","ROUYN-NORANDA A","7086719","2018-02-24 01:00","2018","02","24","01:00","-5.1","","-7.8","","82","","","","31","","17","","24.1","","98.00","","","","-11","","Snow"
"-78.84","48.21","ROUYN-NORANDA A","7086719","2018-02-24 02:00","2018","02","24","02:00","-5.7","","-8.2","","82","","","","30","","11","","24.1","","98.12","","","","-10","","Snow"
"-78.84","48.21","ROUYN-NORANDA A","7086719","2018-02-24 03:00","2018","02","24","03:00","-6.0","","-8.7","","82","","","","30","","14","","24.1","","98.24","","","","-12","","Snow"
"-78.84","48.21","ROUYN-NORANDA A","7086719","2018-02-24 04:00","2018","02","24","04:00","-6.6","","-9.3","","81","","","","32","","17","","24.1","","98.36","","","","-13","","Snow"
"-78.84","48.21","ROUYN-NORANDA A","7086719","2018-02-24 05:00","2018","02","24","05:00","-6.9","","-9.2","","83","","","","30","","12","","24.1","","98.40","","","","-12","","Snow"
"-78.84","48.21","ROUYN-NORANDA A","7086719","2018-02-24 06:00","2018","02","24","06:00","-7.0","","-10.1","","79","","","","30","","18","","24.1","","98.50","","","","-14","","Snow"
"-78.84","48.21","ROUYN-NORANDA A","7086719","2018-02-24 07:00","2018","02","24","07:00","-8.1","","-10.5","","83","","","","31","","7","","24.1","","98.56","","","","-12","","Mainly Clear"
"-78.84","48.21","ROUYN-NORANDA A","7086719","2018-02-24 08:00","2018","02","24","08:00","-7.7","","-10.1","","83","","","","28","","7","","19.3","","98.63","","","","-11","","Snow"
"-78.84","48.21","ROUYN-NORANDA A","7086719","2018-02-24 09:00","2018","02","24","09:00","-7.2","","-10.6","","77","","","","30","","9","","24.1","","98.65","","","","-12","","NA"
"-78.84","48.21","ROUYN-NORANDA A","7086719","2018-02-24 10:00","2018","02","24","10:00","-5.8","","-10.2","","72","","","","28","","12","","24.1","","98.66","","","","-11","","Mainly Clear"
"-78.84","48.21","ROUYN-NORANDA A","7086719","2018-02-24 11:00","2018","02","24","11:00","-4.7","","-9.8","","68","","","","31","","10","","24.1","","98.72","","","","-9","","NA"
"-78.84","48.21","ROUYN-NORANDA A","7086719","2018-02-24 12:00","2018","02","24","12:00","-4.1","","-9.6","","66","","","","30","","12","","24.1","","98.73","","","","-9","","Snow"
"-78.84","48.21","ROUYN-NORANDA A","7086719","2018-02-24 13:00","2018","02","24","13:00","-3.7","","-9.0","","67","","","","28","","8","","24.1","","98.72","","","","-7","","Snow"
"-78.84","48.21","ROUYN-NORANDA A","7086719","2018-02-24 14:00","2018","02","24","14:00","-3.4","","-10.1","","60","","","","25","","9","","24.1","","98.69","","","","-7","","Snow"
"-78.84","48.21","ROUYN-NORANDA A","7086719","2018-02-24 15:00","2018","02","24","15:00","-3.3","","-9.8","","61","","","","26","","11","","24.1","","98.68","","","","-8","","Snow"
"-78.84","48.21","ROUYN-NORANDA A","7086719","2018-02-24 16:00","2018","02","24","16:00","-2.6","","-9.3","","60","","","","33","","7","","24.1","","98.66","","","","-5","","Snow"
"-78.84","48.21","ROUYN-NORANDA A","7086719","2018-02-24 17:00","2018","02","24","17:00","-2.7","","-10.0","","58","","","","27","","5","","24.1","","98.62","","","","-5","","NA"
"-78.84","48.21","ROUYN-NORANDA A","7086719","2018-02-24 18:00","2018","02","24","18:00","-3.0","","-8.9","","64","","","","19","","7","","24.1","","98.68","","","","-6","","NA"
"-78.84","48.21","ROUYN-NORANDA A","7086719","2018-02-24 19:00","2018","02","24","19:00","-3.7","","-8.4","","70","","","","15","","7","","24.1","","98.68","","","","-7","","Snow"
"-78.84","48.21","ROUYN-NORANDA A","7086719","2018-02-24 20:00","2018","02","24","20:00","-7.7","","-9.6","","86","","","","14","","5","","24.1","","98.65","","","","-10","","NA"
"-78.84","48.21","ROUYN-NORANDA A","7086719","2018-02-24 21:00","2018","02","24","21:00","-7.6","","-10.0","","83","","","","15","","9","","24.1","","98.64","","","","-12","","NA"
"-78.84","48.21","ROUYN-NORANDA A","7086719","2018-02-24 22:00","2018","02","24","22:00","-7.3","","-10.6","","78","","","","12","","13","","24.1","","98.57","","","","-13","","Mainly Clear"
"-78.84","48.21","ROUYN-NORANDA A","7086719","2018-02-24 23:00","2018","02","24","23:00","-8.1","","-10.9","","80","","","","13","","15","","24.1","","98.48","","","","-14","","NA"
"-78.84","48.21","ROUYN-NORANDA A","7086719","2018-02-25 00:00","2018","02","25","00:00","-9.1","","-11.6","","82","","","","13","","11","","24.1","","98.45","","","","-15","","NA"
"-78.84","48.21","ROUYN-NORANDA A","7086719","2018-02-25 01:00","2018","02","25","01:00","-8.3","","-11.6","","77","","","","13","","17","","24.1","","98.31","","","","-15","","Mainly Clear"
"-78.84","48.21","ROUYN-NORANDA A","7086719","2018-02-25 02:00","2018","02","25","02:00","-8.5","","-11.7","","78","","","","13","","18","","24.1","","98.17","","","","-16","","NA"
"-78.84","48.21","ROUYN-NORANDA A","7086719","2018-02-25 03:00","2018","02","25","03:00","-7.9","","-11.5","","76","","","","13","","18","","24.1","","97.97","","","","-15","","NA"
"-78.84","48.21","ROUYN-NORANDA A","7086719","2018-02-25 04:00","2018","02","25","04:00","-7.1","","-11.6","","70","","","","13","","27","","24.1","","97.73","","","","-15","","Mostly Cloudy"
"-78.84","48.21","ROUYN-NORANDA A","7086719","2018-02-25 05:00","2018","02","25","05:00","-6.9","","-11.4","","71","","","","14","","27","","24.1","","97.48","","","","-15","","NA"
"-78.84","48.21","ROUYN-NORANDA A","7086719","2018-02-25 06:00","2018","02","25","06:00","-6.4","","-11.1","","70","","","","13","","26","","24.1","","97.13","","","","-14","","Ice Crystals"
"-78.84","48.21","ROUYN-NORANDA A","7086719","2018-02-25 07:00","2018","02","25","07:00","-5.9","","-10.8","","69","","","","12","","26","","24.1","","96.78","","","","-14","","Cloudy"
"-78.84","48.21","ROUYN-NORANDA A","7086719","2018-02-25 08:00","2018","02","25","08:00","-4.9","","-10.1","","67","","","","13","","30","","19.3","","96.54","","","","-13","","Snow,Blowing Snow"
"-78.84","48.21","ROUYN-NORANDA A","7086719","2018-02-25 09:00","2018","02","25","09:00","-4.3","","-8.0","","76","","","","12","","36","","4.8","","96.11","","","","-13","","Freezing Rain,Snow,Ice Pellets,Blowing Snow"
"-78.84","48.21","ROUYN-NORANDA A","7086719","2018-02-25 10:00","2018","02","25","10:00","-3.6","","-5.1","","89","","","","13","","34","","1.2","","95.93","","","","-12","","Snow,Ice Pellets"
"-78.84","48.21","ROUYN-NORANDA A","7086719","2018-02-25 11:00","2018","02","25","11:00","-2.8","","-4.3","","89","","","","15","","31","","1.2","","95.76","","","","-10","","Snow,Blowing Snow"
"-78.84","48.21","ROUYN-NORANDA A","7086719","2018-02-25 12:00","2018","02","25","12:00","-1.2","","-3.1","","87","","","","16","","31","","1.0","","95.61","","","","-8","","Snow,Blowing Snow"
"-78.84","48.21","ROUYN-NORANDA A","7086719","2018-02-25 13:00","2018","02","25","13:00","-0.1","","-1.7","","89","","","","18","","33","","1.2","","95.52","","","","-7","","Snow,Blowing Snow"
"-78.84","48.21","ROUYN-NORANDA A","7086719","2018-02-25 14:00","2018","02","25","14:00","1.8","","0.2","","89","","","","21","","30","","19.3","","95.58","","","","","","Rain"
"-78.84","48.21","ROUYN-NORANDA A","7086719","2018-02-25 15:00","2018","02","25","15:00","1.2","","-0.2","","91","","","","22","","40","","3.2","","95.69","","","","","","Snow"
"-78.84","48.21","ROUYN-NORANDA A","7086719","2018-02-25 16:00","2018","02","25","16:00","1.4","","-1.9","","79","","","","22","","52","","19.3","","95.79","","","","","","Snow"
"-78.84","48.21","ROUYN-NORANDA A","7086719","2018-02-25 17:00","2018","02","25","17:00","1.2","","-3.2","","73","","","","22","","43","","24.1","","95.95","","","","","","NA"
"-78.84","48.21","ROUYN-NORANDA A","7086719","2018-02-25 18:00","2018","02","25","18:00","0.1","","-4.2","","73","","","","22","","44","","19.3","","96.13","","","","","","Snow"
"-78.84","48.21","ROUYN-NORANDA A","7086719","2018-02-25 19:00","2018","02","25","19:00","-0.6","","-5.3","","70","","","","22","","43","","19.3","","96.31","","","","-8","","Snow"
"-78.84","48.21","ROUYN-NORANDA A","7086719","2018-02-25 20:00","2018","02","25","20:00","-0.9","","-5.7","","70","","","","21","","34","","24.1","","96.40","","","","-8","","Snow"
"-78.84","48.21","ROUYN-NORANDA A","7086719","2018-02-25 21:00","2018","02","25","21:00","-1.3","","-6.1","","70","","","","22","","33","","19.3","","96.44","","","","-8","","Snow"
"-78.84","48.21","ROUYN-NORANDA A","7086719","2018-02-25 22:00","2018","02","25","22:00","-1.2","","-7.2","","64","","","","22","","43","","24.1","","96.48","","","","-9","","Snow"
"-78.84","48.21","ROUYN-NORANDA A","7086719","2018-02-25 23:00","2018","02","25","23:00","-1.3","","-7.5","","63","","","","23","","52","","24.1","","96.54","","","","-10","","Snow,Blowing Snow"
"-78.84","48.21","ROUYN-NORANDA A","7086719","2018-02-26 00:00","2018","02","26","00:00","-1.6","","-7.8","","63","","","","24","","38","","24.1","","96.63","","","","-9","","Snow,Blowing Snow"
"-78.84","48.21","ROUYN-NORANDA A","7086719","2018-02-26 01:00","2018","02","26","01:00","-1.8","","-7.9","","63","","","","24","","35","","24.1","","96.72","","","","-9","","Snow,Blowing Snow"
"-78.84","48.21","ROUYN-NORANDA A","7086719","2018-02-26 02:00","2018","02","26","02:00","-1.8","","-7.9","","63","","","","23","","43","","24.1","","96.80","","","","-10","","Snow,Blowing Snow"
"-78.84","48.21","ROUYN-NORANDA A","7086719","2018-02-26 03:00","2018","02","26","03:00","-2.1","","-8.0","","64","","","","24","","35","","24.1","","96.87","","","","-10","","Snow"
"-78.84","48.21","ROUYN-NORANDA A","7086719","2018-02-26 04:00","2018","02","26","04:00","-2.4","","-7.5","","68","","","","24","","36","","24.1","","96.91","","","","-10","","Snow"
"-78.84","48.21","ROUYN-NORANDA A","7086719","2018-02-26 05:00","2018","02","26","05:00","-2.6","","-7.3","","70","","","","24","","34","","24.1","","96.99","","","","-10","","Snow"
"-78.84","48.21","ROUYN-NORANDA A","7086719","2018-02-26 06:00","2018","02","26","06:00","-3.1","","-6.2","","79","","","","23","","30","","24.1","","97.12","","","","-11","","Snow"
"-78.84","48.21","ROUYN-NORANDA A","7086719","2018-02-26 07:00","2018","02","26","07:00","-3.3","","-4.9","","89","","","","26","","17","","19.3","","97.30","","","","-9","","Snow"
"-78.84","48.21","ROUYN-NORANDA A","7086719","2018-02-26 08:00","2018","02","26","08:00","-2.9","","-6.9","","74","","","","28","","19","","24.1","","97.43","","","","-9","","Snow"
"-78.84","48.21","ROUYN-NORANDA A","7086719","2018-02-26 09:00","2018","02","26","09:00","-2.2","","","M","","M","","","28","","20","","24.1","","97.55","","","","-8","","Snow"
"-78.84","48.21","ROUYN-NORANDA A","7086719","2018-02-26 10:00","2018","02","26","10:00","-1.7","","","M","","M","","","27","","18","","24.1","","97.64","","","","-7","","Snow"
"-78.84","48.21","ROUYN-NORANDA A","7086719","2018-02-26 11:00","2018","02","26","11:00","-1.2","","-7.3","","63","","","","27","","23","","24.1","","97.72","","","","-7","","Snow"
"-78.84","48.21","ROUYN-NORANDA A","7086719","2018-02-26 12:00","2018","02","26","12:00","-0.2","","-7.5","","58","","","","28","","18","","24.1","","97.80","","","","-5","","Snow"
"-78.84","48.21","ROUYN-NORANDA A","7086719","2018-02-26 13:00","2018","02","26","13:00","0.6","","-6.7","","58","","","","26","","14","","24.1","","97.79","","","","","","Snow"
"-78.84","48.21","ROUYN-NORANDA A","7086719","2018-02-26 14:00","2018","02","26","14:00","0.9","","-7.6","","53","","","","28","","17","","24.1","","97.84","","","","","","Snow"
"-78.84","48.21","ROUYN-NORANDA A","7086719","2018-02-26 15:00","2018","02","26","15:00","0.0","","-7.4","","58","","","","26","","26","","24.1","","97.85","","","","-6","","Snow"
"-78.84","48.21","ROUYN-NORANDA A","7086719","2018-02-26 16:00","2018","02","26","16:00","0.0","","-6.9","","60","","","","23","","24","","24.1","","97.90","","","","-6","","Snow"
"-78.84","48.21","ROUYN-NORANDA A","7086719","2018-02-26 17:00","2018","02","26","17:00","-0.1","","-6.5","","62","","","","24","","22","","24.1","","97.94","","","","-6","","Snow"
"-78.84","48.21","ROUYN-NORANDA A","7086719","2018-02-26 18:00","2018","02","26","18:00","-0.9","","-6.8","","64","","","","24","","22","","24.1","","97.99","","","","-7","","NA"
"-78.84","48.21","ROUYN-NORANDA A","7086719","2018-02-26 19:00","2018","02","26","19:00","-0.7","","-7.1","","62","","","","25","","27","","24.1","","98.06","","","","-7","","Snow Showers"
"-78.84","48.21","ROUYN-NORANDA A","7086719","2018-02-26 20:00","2018","02","26","20:00","-1.3","","-7.2","","64","","","","25","","24","","24.1","","98.12","","","","-7","","NA"
"-78.84","48.21","ROUYN-NORANDA A","7086719","2018-02-26 21:00","2018","02","26","21:00","-1.6","","-7.6","","64","","","","25","","24","","24.1","","98.17","","","","-8","","NA"
"-78.84","48.21","ROUYN-NORANDA A","7086719","2018-02-26 22:00","2018","02","26","22:00","-2.0","","-8.1","","63","","","","26","","16","","24.1","","98.19","","","","-7","","Mostly Cloudy"
"-78.84","48.21","ROUYN-NORANDA A","7086719","2018-02-26 23:00","2018","02","26","23:00","-3.1","","-8.6","","66","","","","26","","11","","24.1","","98.19","","","","-7","","NA"
"-78.84","48.21","ROUYN-NORANDA A","7086719","2018-02-27 00:00","2018","02","27","00:00","-4.8","","-9.1","","72","","","","19","","5","","24.1","","98.23","","","","-7","","NA"
"-78.84","48.21","ROUYN-NORANDA A","7086719","2018-02-27 01:00","2018","02","27","01:00","-6.4","","-9.7","","78","","","","22","","7","","24.1","","98.23","","","","-10","","Mainly Clear"
"-78.84","48.21","ROUYN-NORANDA A","7086719","2018-02-27 02:00","2018","02","27","02:00","-6.4","","-9.3","","80","","","","20","","8","","24.1","","98.26","","","","-10","","NA"
"-78.84","48.21","ROUYN-NORANDA A","7086719","2018-02-27 03:00","2018","02","27","03:00","-6.7","","-9.1","","83","","","","20","","7","","24.1","","98.23","","","","-10","","NA"
"-78.84","48.21","ROUYN-NORANDA A","7086719","2018-02-27 04:00","2018","02","27","04:00","-5.6","","-8.2","","83","","","","19","","10","","24.1","","98.19","","","","-10","","Mostly Cloudy"
"-78.84","48.21","ROUYN-NORANDA A","7086719","2018-02-27 05:00","2018","02","27","05:00","-6.8","","-8.7","","86","","","","18","","8","","24.1","","98.20","","","","-11","","NA"
"-78.84","48.21","ROUYN-NORANDA A","7086719","2018-02-27 06:00","2018","02","27","06:00","-6.1","","-8.4","","84","","","","18","","9","","24.1","","98.17","","","","-10","","NA"
"-78.84","48.21","ROUYN-NORANDA A","7086719","2018-02-27 07:00","2018","02","27","07:00","-5.5","","-8.0","","83","","","","18","","13","","24.1","","98.12","","","","-11","","Cloudy"
"-78.84","48.21","ROUYN-NORANDA A","7086719","2018-02-27 08:00","2018","02","27","08:00","-4.4","","-7.4","","79","","","","20","","14","","24.1","","98.04","","","","-10","","NA"
"-78.84","48.21","ROUYN-NORANDA A","7086719","2018-02-27 09:00","2018","02","27","09:00","-2.8","","-6.8","","74","","","","19","","19","","24.1","","97.94","","","","-9","","NA"
"-78.84","48.21","ROUYN-NORANDA A","7086719","2018-02-27 10:00","2018","02","27","10:00","-1.0","","-6.0","","69","","","","19","","18","","24.1","","97.80","","","","-6","","Cloudy"
"-78.84","48.21","ROUYN-NORANDA A","7086719","2018-02-27 11:00","2018","02","27","11:00","1.5","","-5.2","","61","","","","22","","18","","24.1","","97.75","","","","","","NA"
"-78.84","48.21","ROUYN-NORANDA A","7086719","2018-02-27 12:00","2018","02","27","12:00","3.1","","-4.3","","58","","","","23","","34","","24.1","","97.64","","","","","","NA"
"-78.84","48.21","ROUYN-NORANDA A","7086719","2018-02-27 13:00","2018","02","27","13:00","3.6","","-4.1","","57","","","","22","","32","","24.1","","97.56","","","","","","Cloudy"
"-78.84","48.21","ROUYN-NORANDA A","7086719","2018-02-27 14:00","2018","02","27","14:00","2.8","","-3.5","","63","","","","23","","29","","24.1","","97.51","","","","","","NA"
"-78.84","48.21","ROUYN-NORANDA A","7086719","2018-02-27 15:00","2018","02","27","15:00","4.2","","-3.6","","57","","","","22","","26","","24.1","","97.49","","","","","","NA"
"-78.84","48.21","ROUYN-NORANDA A","7086719","2018-02-27 16:00","2018","02","27","16:00","4.2","","-3.2","","59","","","","25","","27","","24.1","","97.51","","","","","","Mostly Cloudy"
"-78.84","48.21","ROUYN-NORANDA A","7086719","2018-02-27 17:00","2018","02","27","17:00","4.9","","-3.6","","54","","","","26","","18","","24.1","","97.56","","","","","","NA"
"-78.84","48.21","ROUYN-NORANDA A","7086719","2018-02-27 18:00","2018","02","27","18:00","4.2","","-4.5","","53","","","","29","","12","","24.1","","97.64","","","","","","NA"
"-78.84","48.21","ROUYN-NORANDA A","7086719","2018-02-27 19:00","2018","02","27","19:00","1.6","","-5.2","","60","","","","26","","5","","24.1","","97.69","","","","","","Mainly Clear"
"-78.84","48.21","ROUYN-NORANDA A","7086719","2018-02-27 20:00","2018","02","27","20:00","1.1","","-5.4","","62","","","","33","","9","","24.1","","97.71","","","","","","NA"
"-78.84","48.21","ROUYN-NORANDA A","7086719","2018-02-27 21:00","2018","02","27","21:00","-0.4","","-5.0","","71","","","","36","","9","","24.1","","97.78","","","","-4","","NA"
"-78.84","48.21","ROUYN-NORANDA A","7086719","2018-02-27 22:00","2018","02","27","22:00","-2.3","","-5.5","","79","","","","36","","9","","24.1","","97.81","","","","-6","","Mainly Clear"
"-78.84","48.21","ROUYN-NORANDA A","7086719","2018-02-27 23:00","2018","02","27","23:00","-2.3","","-5.6","","78","","","","36","","8","","24.1","","97.80","","","","-5","","NA"
"-78.84","48.21","ROUYN-NORANDA A","7086719","2018-02-28 00:00","2018","02","28","00:00","-6.2","","-7.4","","91","","","","36","","2","","24.1","","97.86","","","","-7","","NA"
"-78.84","48.21","ROUYN-NORANDA A","7086719","2018-02-28 01:00","2018","02","28","01:00","-8.3","","-9.7","","90","","","","7","","4","","24.1","","97.90","","","","-10","","Mostly Cloudy"
"-78.84","48.21","ROUYN-NORANDA A","7086719","2018-02-28 02:00","2018","02","28","02:00","-6.9","","-8.0","","92","","","","7","","7","","24.1","","97.90","","","","-10","","NA"
"-78.84","48.21","ROUYN-NORANDA A","7086719","2018-02-28 03:00","2018","02","28","03:00","-6.1","","-7.3","","91","","","","6","","7","","24.1","","97.87","","","","-9","","NA"
"-78.84","48.21","ROUYN-NORANDA A","7086719","2018-02-28 04:00","2018","02","28","04:00","-7.4","","-8.4","","93","","","","5","","7","","24.1","","97.81","","","","-11","","Mostly Cloudy"
"-78.84","48.21","ROUYN-NORANDA A","7086719","2018-02-28 05:00","2018","02","28","05:00","-6.2","","-7.3","","92","","","","9","","5","","24.1","","97.81","","","","-9","","NA"
"-78.84","48.21","ROUYN-NORANDA A","7086719","2018-02-28 06:00","2018","02","28","06:00","-6.9","","-8.3","","90","","","","6","","9","","24.1","","97.75","","","","-11","","NA"
"-78.84","48.21","ROUYN-NORANDA A","7086719","2018-02-28 07:00","2018","02","28","07:00","-6.2","","-7.6","","90","","","","6","","9","","24.1","","97.76","","","","-10","","Mostly Cloudy"
"-78.84","48.21","ROUYN-NORANDA A","7086719","2018-02-28 08:00","2018","02","28","08:00","-5.2","","-7.3","","85","","","","8","","15","","24.1","","97.72","","","","-11","","NA"
"-78.84","48.21","ROUYN-NORANDA A","7086719","2018-02-28 09:00","2018","02","28","09:00","-4.4","","-7.0","","82","","","","10","","15","","24.1","","97.73","","","","-10","","Snow"
"-78.84","48.21","ROUYN-NORANDA A","7086719","2018-02-28 10:00","2018","02","28","10:00","-3.8","","-6.4","","83","","","","11","","17","","4.0","","97.71","","","","-10","","Snow"
"-78.84","48.21","ROUYN-NORANDA A","7086719","2018-02-28 11:00","2018","02","28","11:00","-3.3","","-5.3","","86","","","","8","","12","","3.2","","97.65","","","","-8","","Snow"
"-78.84","48.21","ROUYN-NORANDA A","7086719","2018-02-28 12:00","2018","02","28","12:00","-2.3","","-4.7","","84","","","","7","","9","","8.1","","97.62","","","","-6","","Snow"
"-78.84","48.21","ROUYN-NORANDA A","7086719","2018-02-28 13:00","2018","02","28","13:00","-1.0","","-4.0","","80","","","","9","","5","","6.4","","97.58","","","","-3","","Snow"
"-78.84","48.21","ROUYN-NORANDA A","7086719","2018-02-28 14:00","2018","02","28","14:00","-0.1","","-4.2","","74","","","","4","","6","","24.1","","97.55","","","","-2","","Snow"
"-78.84","48.21","ROUYN-NORANDA A","7086719","2018-02-28 15:00","2018","02","28","15:00","0.8","","-5.0","","65","","","","3","","16","","24.1","","97.54","","","","","","NA"
"-78.84","48.21","ROUYN-NORANDA A","7086719","2018-02-28 16:00","2018","02","28","16:00","0.9","","-5.7","","61","","","","4","","19","","24.1","","97.55","","","","","","Mostly Cloudy"
"-78.84","48.21","ROUYN-NORANDA A","7086719","2018-02-28 17:00","2018","02","28","17:00","0.2","","-6.3","","62","","","","4","","9","","24.1","","97.61","","","","","","NA"
"-78.84","48.21","ROUYN-NORANDA A","7086719","2018-02-28 18:00","2018","02","28","18:00","-1.1","","-6.6","","66","","","","2","","9","","24.1","","97.70","","","","-4","","NA"
"-78.84","48.21","ROUYN-NORANDA A","7086719","2018-02-28 19:00","2018","02","28","19:00","-1.4","","-7.1","","65","","","","2","","16","","24.1","","97.75","","","","-6","","Mostly Cloudy"
"-78.84","48.21","ROUYN-NORANDA A","7086719","2018-02-28 20:00","2018","02","28","20:00","-3.0","","-7.7","","70","","","","5","","19","","24.1","","97.81","","","","-9","","NA"
"-78.84","48.21","ROUYN-NORANDA A","7086719","2018-02-28 21:00","2018","02","28","21:00","-3.8","","-8.1","","72","","","","4","","15","","24.1","","97.89","","","","-9","","NA"
"-78.84","48.21","ROUYN-NORANDA A","7086719","2018-02-28 22:00","2018","02","28","22:00","-4.5","","-8.3","","75","","","","5","","13","","24.1","","97.92","","","","-10","","Snow"
"-78.84","48.21","ROUYN-NORANDA A","7086719","2018-02-28 23:00","2018","02","28","23:00","-5.7","","-8.6","","80","","","","3","","10","","24.1","","97.96","","","","-10","","Snow"
