"Longitude (x)","Latitude (y)","Station Name","Climate ID","Date/Time (LST)","Year","Month","Day","Time (LST)","Temp (°C)","Temp Flag","Dew Point Temp (°C)","Dew Point Temp Flag","Rel Hum (%)","Rel Hum Flag","Precip. Amount (mm)","Precip. Amount Flag","Wind Dir (10s deg)","Wind Dir Flag","Wind Spd (km/h)","Wind Spd Flag","Visibility (km)","Visibility Flag","Stn Press (kPa)","Stn Press Flag","Hmdx","Hmdx Flag","Wind Chill","Wind Chill Flag","Weather"
"-111.96","60.02","FORT SMITH A","2202201","2019-07-01 00:00","2019","07","01","00:00","6.5","","4.9","","89","","","","28","","15","","24.1","","98.54","","","","","","Rain Showers"
"-111.96","60.02","FORT SMITH A","2202201","2019-07-01 01:00","2019","07","01","01:00","5.4","","4.3","","92","","","","27","","14","","24.1","","98.55","","","","","","NA"
"-111.96","60.02","FORT SMITH A","2202201","2019-07-01 02:00","2019","07","01","02:00","4.8","","3.4","","91","","","","28","","14","","24.1","","98.52","","","","","","Mainly Clear"
"-111.96","60.02","FORT SMITH A","2202201","2019-07-01 03:00","2019","07","01","03:00","4.4","","2.6","","88","","","","26","","12","","24.1","","98.46","","","","","","NA"
"-111.96","60.02","FORT SMITH A","2202201","2019-07-01 04:00","2019","07","01","04:00","4.8","","2.4","","84","","","","27","","18","","24.1","","98.41","","","","","","NA"
"-111.96","60.02","FORT SMITH A","2202201","2019-07-01 05:00","2019","07","01","05:00","5.6","","2.4","","80","","","","28","","14","","24.1","","98.37","","","","","","Mostly Cloudy"
"-111.96","60.02","FORT SMITH A","2202201","2019-07-01 06:00","2019","07","01","06:00","5.7","","2.0","","77","","","","26","","21","","24.1","","98.31","","","","","","Rain Showers"
"-111.96","60.02","FORT SMITH A","2202201","2019-07-01 07:00","2019","07","01","07:00","6.4","","2.4","","75","","","","24","","18","","24.1","","98.24","","","","","","NA"
"-111.96","60.02","FORT SMITH A","2202201","2019-07-01 08:00","2019","07","01","08:00","6.0","","3.5","","84","","","","28","","22","","24.1","","98.19","","","","","","Rain Showers"
"-111.96","60.02","FORT SMITH A","2202201","2019-07-01 09:00","2019","07","01","09:00","7.0","","3.9","","80","","","","27","","20","","24.1","","98.11","","","","","","Rain Showers"
"-111.96","60.02","FORT SMITH A","2202201","2019-07-01 10:00","2019","07","01","10:00","7.9","","4.4","","78","","","","26","","19","","24.1","","98.05","","","","","","NA"
"-111.96","60.02","FORT SMITH A","2202201","2019-07-01 11:00","2019","07","01","11:00","7.4","","4.7","","83","","","","29","","32","","24.1","","97.95","","","","","","Rain Showers"
"-111.96","60.02","FORT SMITH A","2202201","2019-07-01 12:00","2019","07","01","12:00","7.9","","5.3","","84","","","","28","","21","","24.1","","97.87","","","","","","Rain Showers"
"-111.96","60.02","FORT SMITH A","2202201","2019-07-01 13:00","2019","07","01","13:00","7.8","","5.9","","88","","","","27","","26","","8.1","","97.83","","","","","","Rain,Fog"
"-111.96","60.02","FORT SMITH A","2202201","2019-07-01 14:00","2019","07","01","14:00","7.9","","6.7","","92","","","","25","","23","","4.8","","97.72","","","","","","Rain,Fog"
"-111.96","60.02","FORT SMITH A","2202201","2019-07-01 15:00","2019","07","01","15:00","8.9","","8.2","","95","","","","26","","27","","3.2","","97.61","","","","","","Rain,Fog"
"-111.96","60.02","FORT SMITH A","2202201","2019-07-01 16:00","2019","07","01","16:00","9.7","","8.7","","93","","","","28","","32","","4.8","","97.58","","","","","","Rain,Fog"
"-111.96","60.02","FORT SMITH A","2202201","2019-07-01 17:00","2019","07","01","17:00","10.1","","8.8","","91","","","","30","","28","","4.8","","97.54","","","","","","Rain,Fog"
"-111.96","60.02","FORT SMITH A","2202201","2019-07-01 18:00","2019","07","01","18:00","9.7","","8.4","","92","","","","31","","25","","4.8","","97.58","","","","","","Rain,Fog"
"-111.96","60.02","FORT SMITH A","2202201","2019-07-01 19:00","2019","07","01","19:00","10.0","","9.0","","93","","","","30","","27","","9.7","","97.58","","","","","","Rain"
"-111.96","60.02","FORT SMITH A","2202201","2019-07-01 20:00","2019","07","01","20:00","9.8","","8.6","","92","","","","30","","20","","4.8","","97.61","","","","","","Rain"
"-111.96","60.02","FORT SMITH A","2202201","2019-07-01 21:00","2019","07","01","21:00","9.1","","7.2","","88","","","","32","","20","","16.1","","97.69","","","","","","Rain"
"-111.96","60.02","FORT SMITH A","2202201","2019-07-01 22:00","2019","07","01","22:00","8.3","","7.0","","92","","","","34","","16","","16.1","","97.76","","","","","","Rain"
"-111.96","60.02","FORT SMITH A","2202201","2019-07-01 23:00","2019","07","01","23:00","8.0","","6.8","","93","","","","32","","14","","24.1","","97.78","","","","","","Rain"
"-111.96","60.02","FORT SMITH A","2202201","2019-07-02 00:00","2019","07","02","00:00","7.5","","6.3","","92","","","","32","","13","","9.7","","97.83","","","","","","Rain"
"-111.96","60.02","FORT SMITH A","2202201","2019-07-02 01:00","2019","07","02","01:00","7.5","","6.2","","92","","","","31","","16","","19.3","","97.83","","","","","","Rain"
"-111.96","60.02","FORT SMITH A","2202201","2019-07-02 02:00","2019","07","02","02:00","7.0","","5.8","","92","","","","32","","14","","24.1","","97.86","","","","","","Rain"
"-111.96","60.02","FORT SMITH A","2202201","2019-07-02 03:00","2019","07","02","03:00","7.0","","6.2","","95","","","","32","","13","","19.3","","97.84","","","","","","Rain"
"-111.96","60.02","FORT SMITH A","2202201","2019-07-02 04:00","2019","07","02","04:00","6.8","","5.9","","94","","","","33","","15","","4.8","","97.86","","","","","","Rain"
"-111.96","60.02","FORT SMITH A","2202201","2019-07-02 05:00","2019","07","02","05:00","6.6","","6.0","","96","","","","33","","10","","4.0","","97.90","","","","","","Rain,Fog"
"-111.96","60.02","FORT SMITH A","2202201","2019-07-02 06:00","2019","07","02","06:00","7.5","","6.5","","93","","","","33","","14","","24.1","","97.94","","","","","","NA"
"-111.96","60.02","FORT SMITH A","2202201","2019-07-02 07:00","2019","07","02","07:00","7.8","","6.5","","92","","","","34","","11","","24.1","","97.99","","","","","","Rain"
"-111.96","60.02","FORT SMITH A","2202201","2019-07-02 08:00","2019","07","02","08:00","7.9","","6.5","","90","","","","32","","12","","24.1","","98.03","","","","","","Rain"
"-111.96","60.02","FORT SMITH A","2202201","2019-07-02 09:00","2019","07","02","09:00","8.3","","6.5","","88","","","","32","","14","","24.1","","98.07","","","","","","Rain"
"-111.96","60.02","FORT SMITH A","2202201","2019-07-02 10:00","2019","07","02","10:00","9.4","","6.7","","83","","","","32","","17","","24.1","","98.13","","","","","","NA"
"-111.96","60.02","FORT SMITH A","2202201","2019-07-02 11:00","2019","07","02","11:00","10.6","","6.1","","74","","","","33","","15","","24.1","","98.18","","","","","","Cloudy"
"-111.96","60.02","FORT SMITH A","2202201","2019-07-02 12:00","2019","07","02","12:00","12.2","","5.9","","65","","","","33","","14","","24.1","","98.23","","","","","","NA"
"-111.96","60.02","FORT SMITH A","2202201","2019-07-02 13:00","2019","07","02","13:00","12.8","","4.7","","58","","","","33","","22","","24.1","","98.27","","","","","","NA"
"-111.96","60.02","FORT SMITH A","2202201","2019-07-02 14:00","2019","07","02","14:00","13.6","","5.3","","57","","","","31","","20","","24.1","","98.31","","","","","","Mostly Cloudy"
"-111.96","60.02","FORT SMITH A","2202201","2019-07-02 15:00","2019","07","02","15:00","13.7","","2.9","","48","","","","32","","15","","24.1","","98.34","","","","","","NA"
"-111.96","60.02","FORT SMITH A","2202201","2019-07-02 16:00","2019","07","02","16:00","12.6","","5.8","","63","","","","31","","17","","24.1","","98.38","","","","","","NA"
"-111.96","60.02","FORT SMITH A","2202201","2019-07-02 17:00","2019","07","02","17:00","11.9","","5.9","","66","","","","30","","23","","24.1","","98.42","","","","","","Cloudy"
"-111.96","60.02","FORT SMITH A","2202201","2019-07-02 18:00","2019","07","02","18:00","11.6","","6.0","","68","","","","30","","18","","24.1","","98.46","","","","","","NA"
"-111.96","60.02","FORT SMITH A","2202201","2019-07-02 19:00","2019","07","02","19:00","11.1","","6.8","","75","","","","30","","17","","24.1","","98.48","","","","","","NA"
"-111.96","60.02","FORT SMITH A","2202201","2019-07-02 20:00","2019","07","02","20:00","10.8","","6.5","","75","","","","32","","11","","24.1","","98.51","","","","","","Mainly Clear"
"-111.96","60.02","FORT SMITH A","2202201","2019-07-02 21:00","2019","07","02","21:00","10.1","","5.8","","74","","","","31","","12","","24.1","","98.53","","","","","","NA"
"-111.96","60.02","FORT SMITH A","2202201","2019-07-02 22:00","2019","07","02","22:00","7.9","","5.2","","83","","","","29","","10","","24.1","","98.56","","","","","","NA"
"-111.96","60.02","FORT SMITH A","2202201","2019-07-02 23:00","2019","07","02","23:00","7.5","","5.1","","85","","","","31","","11","","24.1","","98.59","","","","","","Mainly Clear"
"-111.96","60.02","FORT SMITH A","2202201","2019-07-03 00:00","2019","07","03","00:00","6.9","","5.9","","93","","","","30","","14","","24.1","","98.60","","","","","","NA"
"-111.96","60.02","FORT SMITH A","2202201","2019-07-03 01:00","2019","07","03","01:00","6.8","","6.3","","97","","","","31","","13","","24.1","","98.60","","","","","","NA"
"-111.96","60.02","FORT SMITH A","2202201","2019-07-03 02:00","2019","07","03","02:00","6.5","","6.3","","98","","","","30","","13","","1.2","","98.60","","","","","","Fog"
"-111.96","60.02","FORT SMITH A","2202201","2019-07-03 03:00","2019","07","03","03:00","5.8","","5.6","","99","","","","29","","8","","0.4","","98.57","","","","","","Fog"
"-111.96","60.02","FORT SMITH A","2202201","2019-07-03 04:00","2019","07","03","04:00","5.6","","5.5","","99","","","","30","","7","","0.4","","98.59","","","","","","Fog"
"-111.96","60.02","FORT SMITH A","2202201","2019-07-03 05:00","2019","07","03","05:00","5.1","","5.0","","99","","","","26","","11","","0.4","","98.61","","","","","","Fog"
"-111.96","60.02","FORT SMITH A","2202201","2019-07-03 06:00","2019","07","03","06:00","5.8","","5.7","","99","","","","26","","7","","0.4","","98.60","","","","","","Fog"
"-111.96","60.02","FORT SMITH A","2202201","2019-07-03 07:00","2019","07","03","07:00","6.8","","6.7","","99","","","","26","","8","","0.8","","98.57","","","","","","Fog"
"-111.96","60.02","FORT SMITH A","2202201","2019-07-03 08:00","2019","07","03","08:00","7.6","","7.4","","99","","","","25","","8","","24.1","","98.56","","","","","","Cloudy"
"-111.96","60.02","FORT SMITH A","2202201","2019-07-03 09:00","2019","07","03","09:00","8.3","","8.0","","98","","","","22","","8","","3.2","","98.52","","","","","","Drizzle,Fog"
"-111.96","60.02","FORT SMITH A","2202201","2019-07-03 10:00","2019","07","03","10:00","10.0","","9.6","","97","","","","27","","9","","4.0","","98.50","","","","","","Drizzle,Fog"
"-111.96","60.02","FORT SMITH A","2202201","2019-07-03 11:00","2019","07","03","11:00","10.8","","10.0","","95","","","","32","","10","","8.1","","98.47","","","","","","Rain,Drizzle"
"-111.96","60.02","FORT SMITH A","2202201","2019-07-03 12:00","2019","07","03","12:00","11.2","","10.3","","94","","","","35","","12","","24.1","","98.46","","","","","","Rain"
"-111.96","60.02","FORT SMITH A","2202201","2019-07-03 13:00","2019","07","03","13:00","12.7","","9.9","","83","","","","30","","26","","19.3","","98.46","","","","","","Rain"
"-111.96","60.02","FORT SMITH A","2202201","2019-07-03 14:00","2019","07","03","14:00","14.3","","10.5","","78","","","","30","","21","","24.1","","98.47","","","","","","Mostly Cloudy"
"-111.96","60.02","FORT SMITH A","2202201","2019-07-03 15:00","2019","07","03","15:00","14.0","","8.4","","68","","","","35","","24","","19.3","","98.50","","","","","","Rain Showers"
"-111.96","60.02","FORT SMITH A","2202201","2019-07-03 16:00","2019","07","03","16:00","14.4","","8.7","","68","","","","33","","27","","16.1","","98.51","","","","","","Rain Showers"
"-111.96","60.02","FORT SMITH A","2202201","2019-07-03 17:00","2019","07","03","17:00","14.0","","8.9","","71","","","","34","","21","","19.3","","98.52","","","","","","Rain Showers"
"-111.96","60.02","FORT SMITH A","2202201","2019-07-03 18:00","2019","07","03","18:00","14.2","","9.0","","71","","","","33","","17","","24.1","","98.53","","","","","","NA"
"-111.96","60.02","FORT SMITH A","2202201","2019-07-03 19:00","2019","07","03","19:00","14.2","","8.1","","66","","","","33","","9","","24.1","","98.57","","","","","","NA"
"-111.96","60.02","FORT SMITH A","2202201","2019-07-03 20:00","2019","07","03","20:00","14.5","","6.7","","59","","","","32","","13","","24.1","","98.57","","","","","","Mostly Cloudy"
"-111.96","60.02","FORT SMITH A","2202201","2019-07-03 21:00","2019","07","03","21:00","13.5","","6.9","","64","","","","32","","10","","24.1","","98.62","","","","","","NA"
"-111.96","60.02","FORT SMITH A","2202201","2019-07-03 22:00","2019","07","03","22:00","13.1","","7.0","","66","","","","31","","9","","24.1","","98.66","","","","","","NA"
"-111.96","60.02","FORT SMITH A","2202201","2019-07-03 23:00","2019","07","03","23:00","12.8","","7.3","","69","","","","33","","8","","24.1","","98.71","","","","","","Cloudy"
"-111.96","60.02","FORT SMITH A","2202201","2019-07-04 00:00","2019","07","04","00:00","12.5","","7.5","","71","","","","33","","9","","24.1","","98.76","","","","","","NA"
"-111.96","60.02","FORT SMITH A","2202201","2019-07-04 01:00","2019","07","04","01:00","11.9","","7.8","","76","","","","33","","10","","24.1","","98.81","","","","","","NA"
"-111.96","60.02","FORT SMITH A","2202201","2019-07-04 02:00","2019","07","04","02:00","11.6","","7.9","","78","","","","33","","10","","24.1","","98.85","","","","","","Mostly Cloudy"
"-111.96","60.02","FORT SMITH A","2202201","2019-07-04 03:00","2019","07","04","03:00","11.3","","8.2","","81","","","","32","","8","","24.1","","98.92","","","","","","NA"
"-111.96","60.02","FORT SMITH A","2202201","2019-07-04 04:00","2019","07","04","04:00","11.1","","8.7","","85","","","","35","","10","","24.1","","98.98","","","","","","Rain"
"-111.96","60.02","FORT SMITH A","2202201","2019-07-04 05:00","2019","07","04","05:00","10.9","","8.8","","86","","","","36","","12","","24.1","","99.06","","","","","","Rain Showers"
"-111.96","60.02","FORT SMITH A","2202201","2019-07-04 06:00","2019","07","04","06:00","11.4","","8.6","","83","","","","35","","12","","24.1","","99.13","","","","","","Rain Showers"
"-111.96","60.02","FORT SMITH A","2202201","2019-07-04 07:00","2019","07","04","07:00","12.8","","8.6","","76","","","","34","","13","","24.1","","99.18","","","","","","NA"
"-111.96","60.02","FORT SMITH A","2202201","2019-07-04 08:00","2019","07","04","08:00","14.4","","8.1","","66","","","","36","","13","","24.1","","99.22","","","","","","Mostly Cloudy"
"-111.96","60.02","FORT SMITH A","2202201","2019-07-04 09:00","2019","07","04","09:00","16.7","","8.4","","58","","","","2","","14","","24.1","","99.26","","","","","","NA"
"-111.96","60.02","FORT SMITH A","2202201","2019-07-04 10:00","2019","07","04","10:00","18.2","","7.6","","50","","","","35","","20","","24.1","","99.30","","","","","","NA"
"-111.96","60.02","FORT SMITH A","2202201","2019-07-04 11:00","2019","07","04","11:00","19.7","","7.6","","45","","","","34","","18","","24.1","","99.32","","","","","","Clear"
"-111.96","60.02","FORT SMITH A","2202201","2019-07-04 12:00","2019","07","04","12:00","21.5","","6.5","","37","","","","2","","15","","24.1","","99.36","","","","","","NA"
"-111.96","60.02","FORT SMITH A","2202201","2019-07-04 13:00","2019","07","04","13:00","22.5","","4.7","","31","","","","36","","22","","24.1","","99.37","","","","","","NA"
"-111.96","60.02","FORT SMITH A","2202201","2019-07-04 14:00","2019","07","04","14:00","23.4","","1.6","","24","","","","4","","20","","24.1","","99.40","","","","","","Mainly Clear"
"-111.96","60.02","FORT SMITH A","2202201","2019-07-04 15:00","2019","07","04","15:00","23.5","","0.7","","22","","","","36","","18","","24.1","","99.43","","","","","","NA"
"-111.96","60.02","FORT SMITH A","2202201","2019-07-04 16:00","2019","07","04","16:00","23.7","","0.7","","22","","","","5","","18","","24.1","","99.47","","","","","","NA"
"-111.96","60.02","FORT SMITH A","2202201","2019-07-04 17:00","2019","07","04","17:00","23.8","","1.7","","23","","","","1","","10","","24.1","","99.52","","","","","","Mostly Cloudy"
"-111.96","60.02","FORT SMITH A","2202201","2019-07-04 18:00","2019","07","04","18:00","23.0","","2.3","","25","","","","2","","16","","24.1","","99.56","","","","","","NA"
"-111.96","60.02","FORT SMITH A","2202201","2019-07-04 19:00","2019","07","04","19:00","22.4","","3.1","","28","","","","1","","12","","24.1","","99.59","","","","","","NA"
"-111.96","60.02","FORT SMITH A","2202201","2019-07-04 20:00","2019","07","04","20:00","21.9","","5.2","","33","","","","36","","11","","24.1","","99.64","","","","","","Mostly Cloudy"
"-111.96","60.02","FORT SMITH A","2202201","2019-07-04 21:00","2019","07","04","21:00","20.2","","3.6","","33","","","","35","","10","","24.1","","99.70","","","","","","NA"
"-111.96","60.02","FORT SMITH A","2202201","2019-07-04 22:00","2019","07","04","22:00","17.9","","3.5","","38","","","","32","","7","","24.1","","99.77","","","","","","NA"
"-111.96","60.02","FORT SMITH A","2202201","2019-07-04 23:00","2019","07","04","23:00","16.2","","2.6","","40","","","","33","","8","","24.1","","99.82","","","","","","Mainly Clear"
"-111.96","60.02","FORT SMITH A","2202201","2019-07-05 00:00","2019","07","05","00:00","14.8","","4.3","","49","","","","35","","8","","24.1","","99.87","","","","","","NA"
"-111.96","60.02","FORT SMITH A","2202201","2019-07-05 01:00","2019","07","05","01:00","14.2","","5.9","","57","","","","34","","15","","24.1","","99.90","","","","","","NA"
"-111.96","60.02","FORT SMITH A","2202201","2019-07-05 02:00","2019","07","05","02:00","12.7","","6.5","","66","","","","35","","7","","24.1","","99.93","","","","","","Mainly Clear"
"-111.96","60.02","FORT SMITH A","2202201","2019-07-05 03:00","2019","07","05","03:00","12.0","","6.6","","70","","","","33","","8","","24.1","","99.97","","","","","","NA"
"-111.96","60.02","FORT SMITH A","2202201","2019-07-05 04:00","2019","07","05","04:00","11.2","","6.8","","74","","","","32","","9","","24.1","","100.02","","","","","","NA"
"-111.96","60.02","FORT SMITH A","2202201","2019-07-05 05:00","2019","07","05","05:00","11.1","","7.3","","77","","","","31","","5","","24.1","","100.02","","","","","","Mainly Clear"
"-111.96","60.02","FORT SMITH A","2202201","2019-07-05 06:00","2019","07","05","06:00","12.4","","7.5","","71","","","","29","","7","","24.1","","100.04","","","","","","NA"
"-111.96","60.02","FORT SMITH A","2202201","2019-07-05 07:00","2019","07","05","07:00","14.4","","7.7","","64","","","","29","","7","","24.1","","100.03","","","","","","NA"
"-111.96","60.02","FORT SMITH A","2202201","2019-07-05 08:00","2019","07","05","08:00","17.5","","7.7","","52","","","","25","","5","","24.1","","100.05","","","","","","Mainly Clear"
"-111.96","60.02","FORT SMITH A","2202201","2019-07-05 09:00","2019","07","05","09:00","19.8","","6.8","","43","","","","24","","9","","24.1","","100.04","","","","","","NA"
"-111.96","60.02","FORT SMITH A","2202201","2019-07-05 10:00","2019","07","05","10:00","21.1","","5.5","","36","","","","26","","9","","24.1","","100.01","","","","","","NA"
"-111.96","60.02","FORT SMITH A","2202201","2019-07-05 11:00","2019","07","05","11:00","21.6","","4.7","","33","","","","34","","7","","24.1","","100.00","","","","","","Mostly Cloudy"
"-111.96","60.02","FORT SMITH A","2202201","2019-07-05 12:00","2019","07","05","12:00","22.3","","4.2","","30","","","","36","","2","","24.1","","99.96","","","","","","NA"
"-111.96","60.02","FORT SMITH A","2202201","2019-07-05 13:00","2019","07","05","13:00","22.9","","4.9","","31","","","","31","","8","","24.1","","99.91","","","","","","NA"
"-111.96","60.02","FORT SMITH A","2202201","2019-07-05 14:00","2019","07","05","14:00","24.3","","4.3","","27","","","","27","","19","","24.1","","99.85","","","","","","Mostly Cloudy"
"-111.96","60.02","FORT SMITH A","2202201","2019-07-05 15:00","2019","07","05","15:00","24.6","","6.0","","30","","","","28","","14","","24.1","","99.80","","","","","","NA"
"-111.96","60.02","FORT SMITH A","2202201","2019-07-05 16:00","2019","07","05","16:00","24.2","","6.0","","31","","","","29","","13","","24.1","","99.76","","","","","","NA"
"-111.96","60.02","FORT SMITH A","2202201","2019-07-05 17:00","2019","07","05","17:00","24.5","","6.9","","32","","","","29","","11","","24.1","","99.70","","","","","","Cloudy"
"-111.96","60.02","FORT SMITH A","2202201","2019-07-05 18:00","2019","07","05","18:00","24.4","","7.5","","33","","","","28","","12","","24.1","","99.64","","25","","","","NA"
"-111.96","60.02","FORT SMITH A","2202201","2019-07-05 19:00","2019","07","05","19:00","23.8","","7.6","","35","","","","26","","9","","24.1","","99.61","","","","","","NA"
"-111.96","60.02","FORT SMITH A","2202201","2019-07-05 20:00","2019","07","05","20:00","22.3","","9.6","","44","","","","34","","9","","24.1","","99.60","","","","","","Mostly Cloudy"
"-111.96","60.02","FORT SMITH A","2202201","2019-07-05 21:00","2019","07","05","21:00","21.0","","11.0","","52","","","","34","","5","","24.1","","99.61","","","","","","NA"
"-111.96","60.02","FORT SMITH A","2202201","2019-07-05 22:00","2019","07","05","22:00","19.6","","11.1","","57","","","","35","","7","","24.1","","99.61","","","","","","NA"
"-111.96","60.02","FORT SMITH A","2202201","2019-07-05 23:00","2019","07","05","23:00","17.2","","12.0","","71","","","","23","","4","","24.1","","99.61","","","","","","Mostly Cloudy"
"-111.96","60.02","FORT SMITH A","2202201","2019-07-06 00:00","2019","07","06","00:00","16.3","","11.9","","75","","","","36","","1","","24.1","","99.58","","","","","","NA"
"-111.96","60.02","FORT SMITH A","2202201","2019-07-06 01:00","2019","07","06","01:00","14.9","","11.6","","81","","","","36","","1","","24.1","","99.56","","","","","","NA"
"-111.96","60.02","FORT SMITH A","2202201","2019-07-06 02:00","2019","07","06","02:00","15.1","","12.0","","81","","","","30","","5","","24.1","","99.57","","","","","","Mostly Cloudy"
"-111.96","60.02","FORT SMITH A","2202201","2019-07-06 03:00","2019","07","06","03:00","14.7","","11.3","","80","","","","21","","4","","24.1","","99.53","","","","","","NA"
"-111.96","60.02","FORT SMITH A","2202201","2019-07-06 04:00","2019","07","06","04:00","12.6","","10.7","","88","","","","36","","3","","24.1","","99.51","","","","","","NA"
"-111.96","60.02","FORT SMITH A","2202201","2019-07-06 05:00","2019","07","06","05:00","12.7","","11.4","","92","","","","0","","1","","24.1","","99.49","","","","","","Mostly Cloudy"
"-111.96","60.02","FORT SMITH A","2202201","2019-07-06 06:00","2019","07","06","06:00","16.1","","11.9","","76","","","","31","","4","","24.1","","99.47","","","","","","NA"
"-111.96","60.02","FORT SMITH A","2202201","2019-07-06 07:00","2019","07","06","07:00","17.9","","11.2","","65","","","","36","","3","","24.1","","99.43","","","","","","NA"
"-111.96","60.02","FORT SMITH A","2202201","2019-07-06 08:00","2019","07","06","08:00","18.7","","12.1","","65","","","","22","","12","","24.1","","99.41","","","","","","Mostly Cloudy"
"-111.96","60.02","FORT SMITH A","2202201","2019-07-06 09:00","2019","07","06","09:00","18.7","","12.0","","64","","","","13","","3","","24.1","","99.33","","","","","","NA"
"-111.96","60.02","FORT SMITH A","2202201","2019-07-06 10:00","2019","07","06","10:00","21.2","","11.6","","54","","","","10","","9","","24.1","","99.26","","","","","","NA"
"-111.96","60.02","FORT SMITH A","2202201","2019-07-06 11:00","2019","07","06","11:00","22.6","","9.9","","44","","","","22","","18","","24.1","","99.20","","","","","","Rain Showers"
"-111.96","60.02","FORT SMITH A","2202201","2019-07-06 12:00","2019","07","06","12:00","23.8","","8.2","","36","","","","21","","21","","24.1","","99.13","","","","","","NA"
"-111.96","60.02","FORT SMITH A","2202201","2019-07-06 13:00","2019","07","06","13:00","25.3","","8.1","","33","","","","26","","26","","24.1","","99.07","","26","","","","NA"
"-111.96","60.02","FORT SMITH A","2202201","2019-07-06 14:00","2019","07","06","14:00","23.5","","8.2","","37","","","","31","","17","","24.1","","99.02","","","","","","Cloudy"
"-111.96","60.02","FORT SMITH A","2202201","2019-07-06 15:00","2019","07","06","15:00","22.5","","10.2","","45","","","","33","","10","","24.1","","99.00","","","","","","NA"
"-111.96","60.02","FORT SMITH A","2202201","2019-07-06 16:00","2019","07","06","16:00","23.1","","11.3","","47","","","","34","","14","","24.1","","98.94","","25","","","","NA"
"-111.96","60.02","FORT SMITH A","2202201","2019-07-06 17:00","2019","07","06","17:00","20.6","","12.8","","61","","","","3","","9","","24.1","","98.89","","","","","","Cloudy"
"-111.96","60.02","FORT SMITH A","2202201","2019-07-06 18:00","2019","07","06","18:00","20.4","","13.2","","63","","","","3","","10","","24.1","","98.86","","","","","","NA"
"-111.96","60.02","FORT SMITH A","2202201","2019-07-06 19:00","2019","07","06","19:00","18.4","","13.0","","70","","","","8","","8","","24.1","","98.81","","","","","","Rain Showers"
"-111.96","60.02","FORT SMITH A","2202201","2019-07-06 20:00","2019","07","06","20:00","17.3","","13.9","","80","","","","33","","8","","24.1","","98.86","","","","","","Rain Showers"
"-111.96","60.02","FORT SMITH A","2202201","2019-07-06 21:00","2019","07","06","21:00","16.0","","14.3","","89","","","","34","","13","","19.3","","98.83","","","","","","Rain Showers"
"-111.96","60.02","FORT SMITH A","2202201","2019-07-06 22:00","2019","07","06","22:00","15.3","","14.1","","92","","","","7","","3","","24.1","","98.75","","","","","","Rain Showers"
"-111.96","60.02","FORT SMITH A","2202201","2019-07-06 23:00","2019","07","06","23:00","15.1","","13.6","","90","","","","36","","4","","24.1","","98.78","","","","","","Rain Showers"
"-111.96","60.02","FORT SMITH A","2202201","2019-07-07 00:00","2019","07","07","00:00","15.1","","13.5","","90","","","","30","","8","","24.1","","98.78","","","","","","NA"
"-111.96","60.02","FORT SMITH A","2202201","2019-07-07 01:00","2019","07","07","01:00","14.4","","13.7","","95","","","","31","","13","","24.1","","98.78","","","","","","Rain"
"-111.96","60.02","FORT SMITH A","2202201","2019-07-07 02:00","2019","07","07","02:00","13.7","","12.5","","93","","","","31","","16","","24.1","","98.78","","","","","","Cloudy"
"-111.96","60.02","FORT SMITH A","2202201","2019-07-07 03:00","2019","07","07","03:00","12.9","","12.1","","95","","","","30","","11","","24.1","","98.79","","","","","","NA"
"-111.96","60.02","FORT SMITH A","2202201","2019-07-07 04:00","2019","07","07","04:00","12.7","","11.8","","94","","","","31","","13","","19.3","","98.78","","","","","","Rain,Drizzle"
"-111.96","60.02","FORT SMITH A","2202201","2019-07-07 05:00","2019","07","07","05:00","12.7","","11.7","","94","","","","31","","14","","24.1","","98.78","","","","","","Drizzle"
"-111.96","60.02","FORT SMITH A","2202201","2019-07-07 06:00","2019","07","07","06:00","11.9","","10.4","","91","","","","33","","11","","24.1","","98.81","","","","","","NA"
"-111.96","60.02","FORT SMITH A","2202201","2019-07-07 07:00","2019","07","07","07:00","10.9","","8.7","","86","","","","30","","20","","24.1","","98.80","","","","","","NA"
"-111.96","60.02","FORT SMITH A","2202201","2019-07-07 08:00","2019","07","07","08:00","11.5","","7.7","","77","","","","30","","20","","24.1","","98.81","","","","","","Mostly Cloudy"
"-111.96","60.02","FORT SMITH A","2202201","2019-07-07 09:00","2019","07","07","09:00","11.6","","6.1","","69","","","","32","","21","","24.1","","98.79","","","","","","NA"
"-111.96","60.02","FORT SMITH A","2202201","2019-07-07 10:00","2019","07","07","10:00","13.1","","5.7","","61","","","","32","","22","","24.1","","98.79","","","","","","NA"
"-111.96","60.02","FORT SMITH A","2202201","2019-07-07 11:00","2019","07","07","11:00","13.5","","5.6","","59","","","","30","","12","","24.1","","98.79","","","","","","Mostly Cloudy"
"-111.96","60.02","FORT SMITH A","2202201","2019-07-07 12:00","2019","07","07","12:00","14.2","","5.1","","54","","","","33","","21","","24.1","","98.81","","","","","","NA"
"-111.96","60.02","FORT SMITH A","2202201","2019-07-07 13:00","2019","07","07","13:00","14.7","","5.4","","54","","","","30","","27","","24.1","","98.81","","","","","","NA"
"-111.96","60.02","FORT SMITH A","2202201","2019-07-07 14:00","2019","07","07","14:00","14.6","","5.4","","54","","","","30","","23","","24.1","","98.81","","","","","","Mostly Cloudy"
"-111.96","60.02","FORT SMITH A","2202201","2019-07-07 15:00","2019","07","07","15:00","14.2","","4.4","","52","","","","30","","22","","24.1","","98.81","","","","","","NA"
"-111.96","60.02","FORT SMITH A","2202201","2019-07-07 16:00","2019","07","07","16:00","14.2","","4.8","","53","","","","30","","19","","24.1","","98.78","","","","","","NA"
"-111.96","60.02","FORT SMITH A","2202201","2019-07-07 17:00","2019","07","07","17:00","15.6","","5.6","","51","","","","30","","13","","24.1","","98.73","","","","","","Mostly Cloudy"
"-111.96","60.02","FORT SMITH A","2202201","2019-07-07 18:00","2019","07","07","18:00","15.4","","4.8","","49","","","","30","","14","","24.1","","98.69","","","","","","NA"
"-111.96","60.02","FORT SMITH A","2202201","2019-07-07 19:00","2019","07","07","19:00","11.9","","9.1","","83","","","","29","","10","","24.1","","98.75","","","","","","Rain"
"-111.96","60.02","FORT SMITH A","2202201","2019-07-07 20:00","2019","07","07","20:00","12.1","","8.8","","80","","","","30","","12","","24.1","","98.77","","","","","","Mostly Cloudy"
"-111.96","60.02","FORT SMITH A","2202201","2019-07-07 21:00","2019","07","07","21:00","11.5","","7.7","","77","","","","30","","12","","24.1","","98.76","","","","","","NA"
"-111.96","60.02","FORT SMITH A","2202201","2019-07-07 22:00","2019","07","07","22:00","9.7","","6.2","","79","","","","30","","10","","24.1","","98.78","","","","","","NA"
"-111.96","60.02","FORT SMITH A","2202201","2019-07-07 23:00","2019","07","07","23:00","8.1","","5.4","","83","","","","29","","9","","24.1","","98.80","","","","","","Mainly Clear"
"-111.96","60.02","FORT SMITH A","2202201","2019-07-08 00:00","2019","07","08","00:00","7.6","","5.1","","84","","","","31","","8","","24.1","","98.81","","","","","","NA"
"-111.96","60.02","FORT SMITH A","2202201","2019-07-08 01:00","2019","07","08","01:00","6.9","","4.8","","86","","","","29","","8","","24.1","","98.80","","","","","","NA"
"-111.96","60.02","FORT SMITH A","2202201","2019-07-08 02:00","2019","07","08","02:00","7.1","","5.0","","87","","","","30","","8","","24.1","","98.80","","","","","","Mostly Cloudy"
"-111.96","60.02","FORT SMITH A","2202201","2019-07-08 03:00","2019","07","08","03:00","7.2","","5.3","","88","","","","30","","10","","24.1","","98.81","","","","","","NA"
"-111.96","60.02","FORT SMITH A","2202201","2019-07-08 04:00","2019","07","08","04:00","7.4","","5.2","","86","","","","30","","16","","24.1","","98.82","","","","","","NA"
"-111.96","60.02","FORT SMITH A","2202201","2019-07-08 05:00","2019","07","08","05:00","7.0","","5.0","","87","","","","30","","15","","24.1","","98.82","","","","","","Mostly Cloudy"
"-111.96","60.02","FORT SMITH A","2202201","2019-07-08 06:00","2019","07","08","06:00","7.9","","5.5","","85","","","","29","","18","","24.1","","98.84","","","","","","NA"
"-111.96","60.02","FORT SMITH A","2202201","2019-07-08 07:00","2019","07","08","07:00","8.2","","4.3","","76","","","","30","","18","","24.1","","98.89","","","","","","NA"
"-111.96","60.02","FORT SMITH A","2202201","2019-07-08 08:00","2019","07","08","08:00","8.7","","4.0","","72","","","","29","","21","","24.1","","98.89","","","","","","Mostly Cloudy"
"-111.96","60.02","FORT SMITH A","2202201","2019-07-08 09:00","2019","07","08","09:00","8.8","","3.6","","70","","","","29","","26","","24.1","","98.94","","","","","","NA"
"-111.96","60.02","FORT SMITH A","2202201","2019-07-08 10:00","2019","07","08","10:00","9.5","","2.9","","63","","","","30","","21","","24.1","","98.96","","","","","","NA"
"-111.96","60.02","FORT SMITH A","2202201","2019-07-08 11:00","2019","07","08","11:00","9.5","","2.5","","61","","","","31","","21","","24.1","","98.96","","","","","","Cloudy"
"-111.96","60.02","FORT SMITH A","2202201","2019-07-08 12:00","2019","07","08","12:00","10.6","","2.3","","56","","","","27","","18","","24.1","","98.97","","","","","","NA"
"-111.96","60.02","FORT SMITH A","2202201","2019-07-08 13:00","2019","07","08","13:00","11.3","","3.8","","60","","","","28","","16","","24.1","","98.98","","","","","","Rain Showers"
"-111.96","60.02","FORT SMITH A","2202201","2019-07-08 14:00","2019","07","08","14:00","11.1","","3.4","","59","","","","32","","14","","24.1","","98.99","","","","","","Rain Showers"
"-111.96","60.02","FORT SMITH A","2202201","2019-07-08 15:00","2019","07","08","15:00","12.1","","3.9","","57","","","","33","","17","","24.1","","99.00","","","","","","Rain Showers"
"-111.96","60.02","FORT SMITH A","2202201","2019-07-08 16:00","2019","07","08","16:00","12.9","","4.4","","56","","","","30","","13","","24.1","","99.01","","","","","","Rain Showers"
"-111.96","60.02","FORT SMITH A","2202201","2019-07-08 17:00","2019","07","08","17:00","13.9","","1.8","","44","","","","31","","20","","24.1","","99.00","","","","","","Rain Showers"
"-111.96","60.02","FORT SMITH A","2202201","2019-07-08 18:00","2019","07","08","18:00","12.4","","2.0","","49","","","","34","","14","","24.1","","99.02","","","","","","Rain Showers"
"-111.96","60.02","FORT SMITH A","2202201","2019-07-08 19:00","2019","07","08","19:00","12.5","","2.6","","51","","","","30","","17","","24.1","","99.03","","","","","","NA"
"-111.96","60.02","FORT SMITH A","2202201","2019-07-08 20:00","2019","07","08","20:00","11.6","","2.6","","54","","","","33","","10","","24.1","","99.05","","","","","","Mainly Clear"
"-111.96","60.02","FORT SMITH A","2202201","2019-07-08 21:00","2019","07","08","21:00","10.5","","2.9","","59","","","","31","","8","","24.1","","99.08","","","","","","NA"
"-111.96","60.02","FORT SMITH A","2202201","2019-07-08 22:00","2019","07","08","22:00","8.3","","3.4","","71","","","","26","","4","","24.1","","99.09","","","","","","NA"
"-111.96","60.02","FORT SMITH A","2202201","2019-07-08 23:00","2019","07","08","23:00","5.8","","3.2","","84","","","","36","","3","","24.1","","99.11","","","","","","Mainly Clear"
"-111.96","60.02","FORT SMITH A","2202201","2019-07-09 00:00","2019","07","09","00:00","5.2","","2.5","","83","","","","20","","4","","24.1","","99.14","","","","","","NA"
"-111.96","60.02","FORT SMITH A","2202201","2019-07-09 01:00","2019","07","09","01:00","5.1","","2.3","","82","","","","23","","5","","24.1","","99.16","","","","","","NA"
"-111.96","60.02","FORT SMITH A","2202201","2019-07-09 02:00","2019","07","09","02:00","5.8","","2.7","","81","","","","21","","3","","24.1","","99.19","","","","","","Mostly Cloudy"
"-111.96","60.02","FORT SMITH A","2202201","2019-07-09 03:00","2019","07","09","03:00","6.1","","3.1","","81","","","","20","","5","","24.1","","99.18","","","","","","NA"
"-111.96","60.02","FORT SMITH A","2202201","2019-07-09 04:00","2019","07","09","04:00","6.2","","3.0","","80","","","","16","","9","","24.1","","99.20","","","","","","NA"
"-111.96","60.02","FORT SMITH A","2202201","2019-07-09 05:00","2019","07","09","05:00","6.6","","3.2","","79","","","","22","","7","","24.1","","99.21","","","","","","Cloudy"
"-111.96","60.02","FORT SMITH A","2202201","2019-07-09 06:00","2019","07","09","06:00","7.5","","3.7","","77","","","","23","","11","","24.1","","99.24","","","","","","NA"
"-111.96","60.02","FORT SMITH A","2202201","2019-07-09 07:00","2019","07","09","07:00","9.3","","4.6","","72","","","","27","","12","","24.1","","99.27","","","","","","NA"
"-111.96","60.02","FORT SMITH A","2202201","2019-07-09 08:00","2019","07","09","08:00","11.7","","4.2","","60","","","","28","","12","","24.1","","99.29","","","","","","Mostly Cloudy"
"-111.96","60.02","FORT SMITH A","2202201","2019-07-09 09:00","2019","07","09","09:00","12.5","","2.2","","49","","","","30","","20","","24.1","","99.31","","","","","","NA"
"-111.96","60.02","FORT SMITH A","2202201","2019-07-09 10:00","2019","07","09","10:00","12.7","","2.0","","48","","","","30","","16","","24.1","","99.33","","","","","","NA"
"-111.96","60.02","FORT SMITH A","2202201","2019-07-09 11:00","2019","07","09","11:00","12.9","","2.4","","48","","","","28","","21","","24.1","","99.36","","","","","","Cloudy"
"-111.96","60.02","FORT SMITH A","2202201","2019-07-09 12:00","2019","07","09","12:00","13.8","","2.7","","47","","","","27","","21","","24.1","","99.38","","","","","","NA"
"-111.96","60.02","FORT SMITH A","2202201","2019-07-09 13:00","2019","07","09","13:00","14.7","","3.5","","47","","","","29","","20","","24.1","","99.36","","","","","","NA"
"-111.96","60.02","FORT SMITH A","2202201","2019-07-09 14:00","2019","07","09","14:00","14.6","","3.2","","46","","","","28","","14","","24.1","","99.36","","","","","","Cloudy"
"-111.96","60.02","FORT SMITH A","2202201","2019-07-09 15:00","2019","07","09","15:00","15.5","","3.0","","43","","","","29","","19","","24.1","","99.36","","","","","","NA"
"-111.96","60.02","FORT SMITH A","2202201","2019-07-09 16:00","2019","07","09","16:00","16.7","","4.8","","45","","","","28","","16","","24.1","","99.34","","","","","","NA"
"-111.96","60.02","FORT SMITH A","2202201","2019-07-09 17:00","2019","07","09","17:00","16.1","","4.0","","44","","","","27","","13","","24.1","","99.34","","","","","","Mostly Cloudy"
"-111.96","60.02","FORT SMITH A","2202201","2019-07-09 18:00","2019","07","09","18:00","15.9","","3.9","","44","","","","32","","11","","24.1","","99.33","","","","","","NA"
"-111.96","60.02","FORT SMITH A","2202201","2019-07-09 19:00","2019","07","09","19:00","16.3","","3.8","","43","","","","27","","9","","24.1","","99.30","","","","","","NA"
"-111.96","60.02","FORT SMITH A","2202201","2019-07-09 20:00","2019","07","09","20:00","15.7","","4.8","","48","","","","28","","5","","24.1","","99.29","","","","","","Mainly Clear"
"-111.96","60.02","FORT SMITH A","2202201","2019-07-09 21:00","2019","07","09","21:00","13.1","","6.2","","63","","","","36","","2","","24.1","","99.27","","","","","","NA"
"-111.96","60.02","FORT SMITH A","2202201","2019-07-09 22:00","2019","07","09","22:00","10.1","","5.7","","74","","","","16","","3","","24.1","","99.26","","","","","","NA"
"-111.96","60.02","FORT SMITH A","2202201","2019-07-09 23:00","2019","07","09","23:00","7.8","","5.0","","82","","","","36","","2","","24.1","","99.25","","","","","","Mainly Clear"
"-111.96","60.02","FORT SMITH A","2202201","2019-07-10 00:00","2019","07","10","00:00","8.7","","4.3","","74","","","","15","","8","","24.1","","99.23","","","","","","NA"
"-111.96","60.02","FORT SMITH A","2202201","2019-07-10 01:00","2019","07","10","01:00","8.8","","4.0","","72","","","","15","","7","","24.1","","99.21","","","","","","NA"
"-111.96","60.02","FORT SMITH A","2202201","2019-07-10 02:00","2019","07","10","02:00","8.8","","4.2","","73","","","","16","","4","","24.1","","99.19","","","","","","Mostly Cloudy"
"-111.96","60.02","FORT SMITH A","2202201","2019-07-10 03:00","2019","07","10","03:00","8.6","","5.3","","80","","","","","","0","","24.1","","99.18","","","","","","NA"
"-111.96","60.02","FORT SMITH A","2202201","2019-07-10 04:00","2019","07","10","04:00","8.7","","4.7","","76","","","","36","","2","","24.1","","99.18","","","","","","NA"
"-111.96","60.02","FORT SMITH A","2202201","2019-07-10 05:00","2019","07","10","05:00","9.1","","5.6","","78","","","","2","","7","","24.1","","99.17","","","","","","Mostly Cloudy"
"-111.96","60.02","FORT SMITH A","2202201","2019-07-10 06:00","2019","07","10","06:00","11.2","","6.6","","73","","","","5","","5","","24.1","","99.11","","","","","","NA"
"-111.96","60.02","FORT SMITH A","2202201","2019-07-10 07:00","2019","07","10","07:00","12.2","","6.6","","68","","","","3","","5","","24.1","","99.09","","","","","","NA"
"-111.96","60.02","FORT SMITH A","2202201","2019-07-10 08:00","2019","07","10","08:00","13.4","","6.0","","61","","","","25","","4","","24.1","","99.08","","","","","","Mainly Clear"
"-111.96","60.02","FORT SMITH A","2202201","2019-07-10 09:00","2019","07","10","09:00","15.5","","6.0","","53","","","","29","","10","","24.1","","99.06","","","","","","NA"
"-111.96","60.02","FORT SMITH A","2202201","2019-07-10 10:00","2019","07","10","10:00","16.9","","5.5","","47","","","","26","","10","","24.1","","99.03","","","","","","NA"
"-111.96","60.02","FORT SMITH A","2202201","2019-07-10 11:00","2019","07","10","11:00","17.7","","5.0","","43","","","","20","","9","","24.1","","98.98","","","","","","Mainly Clear"
"-111.96","60.02","FORT SMITH A","2202201","2019-07-10 12:00","2019","07","10","12:00","19.5","","4.1","","36","","","","31","","10","","24.1","","98.92","","","","","","NA"
"-111.96","60.02","FORT SMITH A","2202201","2019-07-10 13:00","2019","07","10","13:00","19.5","","4.0","","36","","","","27","","4","","24.1","","98.89","","","","","","NA"
"-111.96","60.02","FORT SMITH A","2202201","2019-07-10 14:00","2019","07","10","14:00","20.2","","2.0","","30","","","","27","","13","","24.1","","98.85","","","","","","Mostly Cloudy"
"-111.96","60.02","FORT SMITH A","2202201","2019-07-10 15:00","2019","07","10","15:00","20.2","","4.5","","35","","","","2","","12","","24.1","","98.81","","","","","","NA"
"-111.96","60.02","FORT SMITH A","2202201","2019-07-10 16:00","2019","07","10","16:00","20.6","","2.6","","30","","","","27","","4","","24.1","","98.76","","","","","","NA"
"-111.96","60.02","FORT SMITH A","2202201","2019-07-10 17:00","2019","07","10","17:00","19.9","","2.6","","31","","","","36","","2","","24.1","","98.71","","","","","","Mostly Cloudy"
"-111.96","60.02","FORT SMITH A","2202201","2019-07-10 18:00","2019","07","10","18:00","20.6","","2.7","","30","","","","33","","9","","24.1","","98.68","","","","","","NA"
"-111.96","60.02","FORT SMITH A","2202201","2019-07-10 19:00","2019","07","10","19:00","20.2","","3.6","","33","","","","6","","8","","24.1","","98.66","","","","","","NA"
"-111.96","60.02","FORT SMITH A","2202201","2019-07-10 20:00","2019","07","10","20:00","19.6","","3.2","","33","","","","9","","5","","24.1","","98.64","","","","","","Mainly Clear"
"-111.96","60.02","FORT SMITH A","2202201","2019-07-10 21:00","2019","07","10","21:00","17.2","","5.2","","45","","","","9","","3","","24.1","","98.63","","","","","","NA"
"-111.96","60.02","FORT SMITH A","2202201","2019-07-10 22:00","2019","07","10","22:00","12.8","","6.0","","63","","","","36","","2","","24.1","","98.60","","","","","","NA"
"-111.96","60.02","FORT SMITH A","2202201","2019-07-10 23:00","2019","07","10","23:00","11.3","","5.2","","66","","","","15","","5","","24.1","","98.57","","","","","","Mainly Clear"
"-111.96","60.02","FORT SMITH A","2202201","2019-07-11 00:00","2019","07","11","00:00","10.1","","4.8","","69","","","","15","","4","","24.1","","98.55","","","","","","NA"
"-111.96","60.02","FORT SMITH A","2202201","2019-07-11 01:00","2019","07","11","01:00","9.2","","4.9","","75","","","","15","","6","","24.1","","98.54","","","","","","NA"
"-111.96","60.02","FORT SMITH A","2202201","2019-07-11 02:00","2019","07","11","02:00","11.2","","5.1","","66","","","","19","","10","","24.1","","98.51","","","","","","Mainly Clear"
"-111.96","60.02","FORT SMITH A","2202201","2019-07-11 03:00","2019","07","11","03:00","7.1","","4.3","","82","","","","14","","4","","24.1","","98.51","","","","","","NA"
"-111.96","60.02","FORT SMITH A","2202201","2019-07-11 04:00","2019","07","11","04:00","8.4","","5.3","","81","","","","16","","8","","24.1","","98.50","","","","","","NA"
"-111.96","60.02","FORT SMITH A","2202201","2019-07-11 05:00","2019","07","11","05:00","9.6","","5.9","","78","","","","18","","7","","24.1","","98.48","","","","","","Mostly Cloudy"
"-111.96","60.02","FORT SMITH A","2202201","2019-07-11 06:00","2019","07","11","06:00","13.0","","6.9","","66","","","","20","","7","","24.1","","98.45","","","","","","NA"
"-111.96","60.02","FORT SMITH A","2202201","2019-07-11 07:00","2019","07","11","07:00","16.9","","7.3","","53","","","","20","","9","","24.1","","98.41","","","","","","NA"
"-111.96","60.02","FORT SMITH A","2202201","2019-07-11 08:00","2019","07","11","08:00","19.6","","6.5","","42","","","","21","","13","","24.1","","98.36","","","","","","Mainly Clear"
"-111.96","60.02","FORT SMITH A","2202201","2019-07-11 09:00","2019","07","11","09:00","21.7","","6.2","","36","","","","22","","19","","24.1","","98.30","","","","","","NA"
"-111.96","60.02","FORT SMITH A","2202201","2019-07-11 10:00","2019","07","11","10:00","23.7","","5.0","","29","","","","23","","22","","24.1","","98.26","","","","","","NA"
"-111.96","60.02","FORT SMITH A","2202201","2019-07-11 11:00","2019","07","11","11:00","23.8","","5.8","","31","","","","22","","24","","24.1","","98.20","","","","","","Mainly Clear"
"-111.96","60.02","FORT SMITH A","2202201","2019-07-11 12:00","2019","07","11","12:00","24.4","","6.0","","30","","","","24","","16","","24.1","","98.16","","","","","","NA"
"-111.96","60.02","FORT SMITH A","2202201","2019-07-11 13:00","2019","07","11","13:00","23.9","","5.9","","31","","","","24","","16","","24.1","","98.12","","","","","","NA"
"-111.96","60.02","FORT SMITH A","2202201","2019-07-11 14:00","2019","07","11","14:00","24.7","","5.9","","29","","","","23","","26","","24.1","","98.10","","","","","","Mostly Cloudy"
"-111.96","60.02","FORT SMITH A","2202201","2019-07-11 15:00","2019","07","11","15:00","24.4","","5.5","","29","","","","22","","22","","24.1","","98.09","","","","","","NA"
"-111.96","60.02","FORT SMITH A","2202201","2019-07-11 16:00","2019","07","11","16:00","25.4","","5.4","","27","","","","24","","17","","24.1","","98.04","","25","","","","NA"
"-111.96","60.02","FORT SMITH A","2202201","2019-07-11 17:00","2019","07","11","17:00","25.9","","5.5","","27","","","","21","","15","","24.1","","97.96","","25","","","","Mostly Cloudy"
"-111.96","60.02","FORT SMITH A","2202201","2019-07-11 18:00","2019","07","11","18:00","26.2","","5.9","","27","","","","22","","13","","24.1","","97.91","","26","","","","NA"
"-111.96","60.02","FORT SMITH A","2202201","2019-07-11 19:00","2019","07","11","19:00","25.3","","5.2","","27","","","","21","","13","","24.1","","97.87","","25","","","","NA"
"-111.96","60.02","FORT SMITH A","2202201","2019-07-11 20:00","2019","07","11","20:00","23.6","","6.1","","32","","","","20","","12","","24.1","","97.85","","","","","","Mostly Cloudy"
"-111.96","60.02","FORT SMITH A","2202201","2019-07-11 21:00","2019","07","11","21:00","21.8","","6.7","","37","","","","29","","19","","24.1","","97.88","","","","","","NA"
"-111.96","60.02","FORT SMITH A","2202201","2019-07-11 22:00","2019","07","11","22:00","18.3","","7.8","","50","","","","36","","2","","24.1","","97.87","","","","","","NA"
"-111.96","60.02","FORT SMITH A","2202201","2019-07-11 23:00","2019","07","11","23:00","15.7","","7.8","","59","","","","18","","10","","24.1","","97.84","","","","","","Cloudy"
"-111.96","60.02","FORT SMITH A","2202201","2019-07-12 00:00","2019","07","12","00:00","16.0","","7.9","","58","","","","36","","2","","24.1","","97.84","","","","","","NA"
"-111.96","60.02","FORT SMITH A","2202201","2019-07-12 01:00","2019","07","12","01:00","16.1","","9.0","","62","","","","30","","16","","24.1","","97.95","","","","","","NA"
"-111.96","60.02","FORT SMITH A","2202201","2019-07-12 02:00","2019","07","12","02:00","14.6","","9.8","","73","","","","32","","15","","24.1","","97.95","","","","","","Mostly Cloudy"
"-111.96","60.02","FORT SMITH A","2202201","2019-07-12 03:00","2019","07","12","03:00","13.8","","9.8","","77","","","","33","","14","","24.1","","97.97","","","","","","NA"
"-111.96","60.02","FORT SMITH A","2202201","2019-07-12 04:00","2019","07","12","04:00","13.4","","10.2","","81","","","","31","","8","","24.1","","98.01","","","","","","NA"
"-111.96","60.02","FORT SMITH A","2202201","2019-07-12 05:00","2019","07","12","05:00","13.2","","10.5","","83","","","","32","","13","","24.1","","98.04","","","","","","Rain Showers"
"-111.96","60.02","FORT SMITH A","2202201","2019-07-12 06:00","2019","07","12","06:00","12.6","","11.5","","93","","","","34","","9","","6.4","","98.10","","","","","","Rain Showers,Fog"
"-111.96","60.02","FORT SMITH A","2202201","2019-07-12 07:00","2019","07","12","07:00","12.2","","11.5","","95","","","","35","","10","","24.1","","98.12","","","","","","Rain Showers,Fog"
"-111.96","60.02","FORT SMITH A","2202201","2019-07-12 08:00","2019","07","12","08:00","12.3","","11.7","","96","","","","33","","9","","9.7","","98.17","","","","","","Rain Showers,Fog"
"-111.96","60.02","FORT SMITH A","2202201","2019-07-12 09:00","2019","07","12","09:00","12.8","","11.8","","94","","","","32","","11","","19.3","","98.21","","","","","","Rain Showers"
"-111.96","60.02","FORT SMITH A","2202201","2019-07-12 10:00","2019","07","12","10:00","12.6","","11.4","","93","","","","31","","10","","24.1","","98.25","","","","","","NA"
"-111.96","60.02","FORT SMITH A","2202201","2019-07-12 11:00","2019","07","12","11:00","12.7","","11.1","","90","","","","28","","10","","24.1","","98.31","","","","","","Rain Showers"
"-111.96","60.02","FORT SMITH A","2202201","2019-07-12 12:00","2019","07","12","12:00","12.5","","11.1","","91","","","","29","","16","","24.1","","98.39","","","","","","NA"
"-111.96","60.02","FORT SMITH A","2202201","2019-07-12 13:00","2019","07","12","13:00","13.2","","9.6","","79","","","","30","","16","","24.1","","98.44","","","","","","NA"
"-111.96","60.02","FORT SMITH A","2202201","2019-07-12 14:00","2019","07","12","14:00","14.6","","9.7","","72","","","","30","","15","","24.1","","98.45","","","","","","Cloudy"
"-111.96","60.02","FORT SMITH A","2202201","2019-07-12 15:00","2019","07","12","15:00","14.1","","6.0","","58","","","","31","","21","","24.1","","98.53","","","","","","NA"
"-111.96","60.02","FORT SMITH A","2202201","2019-07-12 16:00","2019","07","12","16:00","13.6","","5.7","","58","","","","29","","20","","24.1","","98.56","","","","","","NA"
"-111.96","60.02","FORT SMITH A","2202201","2019-07-12 17:00","2019","07","12","17:00","13.9","","4.6","","53","","","","31","","16","","24.1","","98.59","","","","","","Mostly Cloudy"
"-111.96","60.02","FORT SMITH A","2202201","2019-07-12 18:00","2019","07","12","18:00","14.2","","4.8","","53","","","","31","","8","","24.1","","98.57","","","","","","NA"
"-111.96","60.02","FORT SMITH A","2202201","2019-07-12 19:00","2019","07","12","19:00","13.6","","4.7","","55","","","","30","","13","","24.1","","98.61","","","","","","NA"
"-111.96","60.02","FORT SMITH A","2202201","2019-07-12 20:00","2019","07","12","20:00","13.5","","5.4","","58","","","","30","","14","","24.1","","98.62","","","","","","Mostly Cloudy"
"-111.96","60.02","FORT SMITH A","2202201","2019-07-12 21:00","2019","07","12","21:00","12.5","","5.9","","64","","","","31","","9","","24.1","","98.68","","","","","","NA"
"-111.96","60.02","FORT SMITH A","2202201","2019-07-12 22:00","2019","07","12","22:00","10.4","","5.6","","72","","","","30","","3","","24.1","","98.72","","","","","","NA"
"-111.96","60.02","FORT SMITH A","2202201","2019-07-12 23:00","2019","07","12","23:00","8.4","","5.7","","83","","","","18","","3","","24.1","","98.75","","","","","","Mainly Clear"
"-111.96","60.02","FORT SMITH A","2202201","2019-07-13 00:00","2019","07","13","00:00","6.3","","5.0","","91","","","","28","","4","","24.1","","98.75","","","","","","NA"
"-111.96","60.02","FORT SMITH A","2202201","2019-07-13 01:00","2019","07","13","01:00","5.6","","3.8","","88","","","","22","","3","","24.1","","98.76","","","","","","NA"
"-111.96","60.02","FORT SMITH A","2202201","2019-07-13 02:00","2019","07","13","02:00","4.8","","3.1","","89","","","","22","","5","","24.1","","98.78","","","","","","Mainly Clear"
"-111.96","60.02","FORT SMITH A","2202201","2019-07-13 03:00","2019","07","13","03:00","4.4","","3.1","","91","","","","19","","4","","24.1","","98.80","","","","","","NA"
"-111.96","60.02","FORT SMITH A","2202201","2019-07-13 04:00","2019","07","13","04:00","4.8","","3.2","","89","","","","23","","5","","24.1","","98.81","","","","","","NA"
"-111.96","60.02","FORT SMITH A","2202201","2019-07-13 05:00","2019","07","13","05:00","3.9","","2.6","","91","","","","19","","7","","24.1","","98.83","","","","","","Mainly Clear"
"-111.96","60.02","FORT SMITH A","2202201","2019-07-13 06:00","2019","07","13","06:00","7.5","","5.5","","87","","","","21","","6","","9.7","","98.83","","","","","","Smoke"
"-111.96","60.02","FORT SMITH A","2202201","2019-07-13 07:00","2019","07","13","07:00","10.6","","6.7","","77","","","","22","","6","","9.7","","98.83","","","","","","Smoke"
"-111.96","60.02","FORT SMITH A","2202201","2019-07-13 08:00","2019","07","13","08:00","13.3","","7.4","","67","","","","32","","6","","19.3","","98.83","","","","","","Mostly Cloudy"
"-111.96","60.02","FORT SMITH A","2202201","2019-07-13 09:00","2019","07","13","09:00","15.3","","6.8","","56","","","","26","","8","","24.1","","98.81","","","","","","NA"
"-111.96","60.02","FORT SMITH A","2202201","2019-07-13 10:00","2019","07","13","10:00","16.1","","5.6","","50","","","","23","","11","","24.1","","98.77","","","","","","NA"
"-111.96","60.02","FORT SMITH A","2202201","2019-07-13 11:00","2019","07","13","11:00","17.2","","5.1","","44","","","","24","","18","","19.3","","98.73","","","","","","Rain Showers"
"-111.96","60.02","FORT SMITH A","2202201","2019-07-13 12:00","2019","07","13","12:00","17.6","","4.7","","42","","","","23","","11","","80.5","","98.71","","","","","","Rain Showers"
"-111.96","60.02","FORT SMITH A","2202201","2019-07-13 13:00","2019","07","13","13:00","18.8","","3.8","","37","","","","27","","13","","24.1","","98.68","","","","","","NA"
"-111.96","60.02","FORT SMITH A","2202201","2019-07-13 14:00","2019","07","13","14:00","18.9","","3.9","","37","","","","31","","8","","19.3","","98.65","","","","","","Mostly Cloudy"
"-111.96","60.02","FORT SMITH A","2202201","2019-07-13 15:00","2019","07","13","15:00","19.8","","2.2","","31","","","","25","","17","","24.1","","98.62","","","","","","NA"
"-111.96","60.02","FORT SMITH A","2202201","2019-07-13 16:00","2019","07","13","16:00","20.6","","2.0","","29","","","","25","","13","","24.1","","98.58","","","","","","NA"
"-111.96","60.02","FORT SMITH A","2202201","2019-07-13 17:00","2019","07","13","17:00","20.0","","3.1","","32","","","","25","","7","","19.3","","98.54","","","","","","Cloudy"
"-111.96","60.02","FORT SMITH A","2202201","2019-07-13 18:00","2019","07","13","18:00","20.3","","2.4","","30","","","","15","","5","","24.1","","98.51","","","","","","NA"
"-111.96","60.02","FORT SMITH A","2202201","2019-07-13 19:00","2019","07","13","19:00","20.1","","2.6","","31","","","","21","","3","","24.1","","98.48","","","","","","NA"
"-111.96","60.02","FORT SMITH A","2202201","2019-07-13 20:00","2019","07","13","20:00","19.2","","4.4","","37","","","","17","","7","","24.1","","98.47","","","","","","Mainly Clear"
"-111.96","60.02","FORT SMITH A","2202201","2019-07-13 21:00","2019","07","13","21:00","17.0","","5.0","","45","","","","15","","6","","24.1","","98.47","","","","","","NA"
"-111.96","60.02","FORT SMITH A","2202201","2019-07-13 22:00","2019","07","13","22:00","14.3","","5.6","","56","","","","15","","7","","24.1","","98.47","","","","","","NA"
"-111.96","60.02","FORT SMITH A","2202201","2019-07-13 23:00","2019","07","13","23:00","14.2","","5.1","","54","","","","17","","13","","24.1","","98.48","","","","","","Mostly Cloudy"
"-111.96","60.02","FORT SMITH A","2202201","2019-07-14 00:00","2019","07","14","00:00","13.5","","5.5","","58","","","","16","","11","","24.1","","98.45","","","","","","NA"
"-111.96","60.02","FORT SMITH A","2202201","2019-07-14 01:00","2019","07","14","01:00","13.7","","5.5","","57","","","","16","","12","","24.1","","98.43","","","","","","NA"
"-111.96","60.02","FORT SMITH A","2202201","2019-07-14 02:00","2019","07","14","02:00","13.7","","5.0","","56","","","","16","","13","","24.1","","98.40","","","","","","Cloudy"
"-111.96","60.02","FORT SMITH A","2202201","2019-07-14 03:00","2019","07","14","03:00","13.8","","6.5","","61","","","","13","","11","","24.1","","98.35","","","","","","NA"
"-111.96","60.02","FORT SMITH A","2202201","2019-07-14 04:00","2019","07","14","04:00","14.1","","6.8","","61","","","","13","","11","","24.1","","98.32","","","","","","NA"
"-111.96","60.02","FORT SMITH A","2202201","2019-07-14 05:00","2019","07","14","05:00","13.5","","7.0","","65","","","","30","","3","","24.1","","98.34","","","","","","Cloudy"
"-111.96","60.02","FORT SMITH A","2202201","2019-07-14 06:00","2019","07","14","06:00","11.2","","10.5","","95","","","","12","","9","","4.8","","98.29","","","","","","Moderate Rain"
"-111.96","60.02","FORT SMITH A","2202201","2019-07-14 07:00","2019","07","14","07:00","11.7","","11.2","","97","","","","14","","10","","12.9","","98.24","","","","","","Rain"
"-111.96","60.02","FORT SMITH A","2202201","2019-07-14 08:00","2019","07","14","08:00","12.4","","11.8","","96","","","","17","","13","","6.4","","98.22","","","","","","Rain"
"-111.96","60.02","FORT SMITH A","2202201","2019-07-14 09:00","2019","07","14","09:00","12.4","","12.0","","97","","","","3","","4","","12.9","","98.25","","","","","","Rain"
"-111.96","60.02","FORT SMITH A","2202201","2019-07-14 10:00","2019","07","14","10:00","12.3","","11.9","","97","","","","6","","7","","4.8","","98.26","","","","","","Rain"
"-111.96","60.02","FORT SMITH A","2202201","2019-07-14 11:00","2019","07","14","11:00","13.1","","12.6","","97","","","","4","","8","","4.8","","98.30","","","","","","Rain,Drizzle"
"-111.96","60.02","FORT SMITH A","2202201","2019-07-14 12:00","2019","07","14","12:00","13.0","","12.3","","96","","","","3","","16","","8.1","","98.37","","","","","","Rain,Drizzle"
"-111.96","60.02","FORT SMITH A","2202201","2019-07-14 13:00","2019","07","14","13:00","13.6","","12.6","","94","","","","3","","17","","24.1","","98.42","","","","","","Drizzle"
"-111.96","60.02","FORT SMITH A","2202201","2019-07-14 14:00","2019","07","14","14:00","14.8","","12.6","","86","","","","3","","13","","24.1","","98.46","","","","","","Cloudy"
"-111.96","60.02","FORT SMITH A","2202201","2019-07-14 15:00","2019","07","14","15:00","15.8","","11.9","","77","","","","4","","9","","24.1","","98.47","","","","","","NA"
"-111.96","60.02","FORT SMITH A","2202201","2019-07-14 16:00","2019","07","14","16:00","17.6","","11.7","","68","","","","1","","8","","24.1","","98.48","","","","","","NA"
"-111.96","60.02","FORT SMITH A","2202201","2019-07-14 17:00","2019","07","14","17:00","18.3","","10.7","","61","","","","1","","6","","24.1","","98.48","","","","","","Mostly Cloudy"
"-111.96","60.02","FORT SMITH A","2202201","2019-07-14 18:00","2019","07","14","18:00","18.7","","11.2","","61","","","","11","","5","","24.1","","98.49","","","","","","NA"
"-111.96","60.02","FORT SMITH A","2202201","2019-07-14 19:00","2019","07","14","19:00","17.9","","11.2","","65","","","","20","","5","","24.1","","98.49","","","","","","NA"
"-111.96","60.02","FORT SMITH A","2202201","2019-07-14 20:00","2019","07","14","20:00","17.4","","12.1","","71","","","","21","","5","","24.1","","98.51","","","","","","Mainly Clear"
"-111.96","60.02","FORT SMITH A","2202201","2019-07-14 21:00","2019","07","14","21:00","14.9","","12.1","","83","","","","21","","7","","24.1","","98.54","","","","","","NA"
"-111.96","60.02","FORT SMITH A","2202201","2019-07-14 22:00","2019","07","14","22:00","12.5","","11.4","","93","","","","36","","1","","24.1","","98.58","","","","","","NA"
"-111.96","60.02","FORT SMITH A","2202201","2019-07-14 23:00","2019","07","14","23:00","11.8","","10.8","","94","","","","22","","4","","24.1","","98.60","","","","","","Mainly Clear"
"-111.96","60.02","FORT SMITH A","2202201","2019-07-15 00:00","2019","07","15","00:00","10.7","","9.4","","92","","","","26","","4","","24.1","","98.61","","","","","","NA"
"-111.96","60.02","FORT SMITH A","2202201","2019-07-15 01:00","2019","07","15","01:00","9.7","","8.4","","91","","","","36","","3","","24.1","","98.64","","","","","","NA"
"-111.96","60.02","FORT SMITH A","2202201","2019-07-15 02:00","2019","07","15","02:00","8.1","","7.5","","96","","","","16","","3","","24.1","","98.67","","","","","","Mainly Clear"
"-111.96","60.02","FORT SMITH A","2202201","2019-07-15 03:00","2019","07","15","03:00","7.3","","6.8","","96","","","","17","","4","","24.1","","98.65","","","","","","NA"
"-111.96","60.02","FORT SMITH A","2202201","2019-07-15 04:00","2019","07","15","04:00","7.5","","6.7","","95","","","","19","","4","","24.1","","98.69","","","","","","NA"
"-111.96","60.02","FORT SMITH A","2202201","2019-07-15 05:00","2019","07","15","05:00","9.9","","7.2","","83","","","","22","","6","","24.1","","98.73","","","","","","Mainly Clear"
"-111.96","60.02","FORT SMITH A","2202201","2019-07-15 06:00","2019","07","15","06:00","11.2","","8.1","","81","","","","15","","5","","24.1","","98.69","","","","","","NA"
"-111.96","60.02","FORT SMITH A","2202201","2019-07-15 07:00","2019","07","15","07:00","12.9","","8.8","","76","","","","20","","4","","24.1","","98.73","","","","","","NA"
"-111.96","60.02","FORT SMITH A","2202201","2019-07-15 08:00","2019","07","15","08:00","16.8","","8.2","","56","","","","20","","6","","24.1","","98.70","","","","","","Mostly Cloudy"
"-111.96","60.02","FORT SMITH A","2202201","2019-07-15 09:00","2019","07","15","09:00","19.5","","8.5","","49","","","","23","","12","","24.1","","98.67","","","","","","NA"
"-111.96","60.02","FORT SMITH A","2202201","2019-07-15 10:00","2019","07","15","10:00","21.1","","8.5","","44","","","","21","","11","","24.1","","98.63","","","","","","NA"
"-111.96","60.02","FORT SMITH A","2202201","2019-07-15 11:00","2019","07","15","11:00","21.9","","8.0","","40","","","","23","","17","","24.1","","98.61","","","","","","Mostly Cloudy"
"-111.96","60.02","FORT SMITH A","2202201","2019-07-15 12:00","2019","07","15","12:00","22.7","","8.4","","40","","","","21","","7","","24.1","","98.57","","","","","","NA"
"-111.96","60.02","FORT SMITH A","2202201","2019-07-15 13:00","2019","07","15","13:00","23.2","","8.5","","39","","","","23","","18","","24.1","","98.54","","","","","","NA"
"-111.96","60.02","FORT SMITH A","2202201","2019-07-15 14:00","2019","07","15","14:00","23.8","","9.2","","39","","","","24","","10","","24.1","","98.51","","25","","","","Mostly Cloudy"
"-111.96","60.02","FORT SMITH A","2202201","2019-07-15 15:00","2019","07","15","15:00","24.5","","9.2","","37","","","","25","","10","","24.1","","98.47","","25","","","","NA"
"-111.96","60.02","FORT SMITH A","2202201","2019-07-15 16:00","2019","07","15","16:00","25.4","","9.8","","37","","","","21","","9","","24.1","","98.43","","27","","","","NA"
"-111.96","60.02","FORT SMITH A","2202201","2019-07-15 17:00","2019","07","15","17:00","25.9","","8.6","","33","","","","24","","12","","24.1","","98.40","","27","","","","Mostly Cloudy"
"-111.96","60.02","FORT SMITH A","2202201","2019-07-15 18:00","2019","07","15","18:00","25.7","","7.8","","32","","","","25","","10","","24.1","","98.36","","26","","","","NA"
"-111.96","60.02","FORT SMITH A","2202201","2019-07-15 19:00","2019","07","15","19:00","25.5","","8.4","","33","","","","21","","13","","24.1","","98.36","","26","","","","NA"
"-111.96","60.02","FORT SMITH A","2202201","2019-07-15 20:00","2019","07","15","20:00","23.6","","10.2","","42","","","","19","","7","","24.1","","98.37","","25","","","","Mainly Clear"
"-111.96","60.02","FORT SMITH A","2202201","2019-07-15 21:00","2019","07","15","21:00","22.0","","10.4","","47","","","","20","","8","","24.1","","98.38","","","","","","NA"
"-111.96","60.02","FORT SMITH A","2202201","2019-07-15 22:00","2019","07","15","22:00","19.5","","10.2","","54","","","","21","","8","","24.1","","98.38","","","","","","NA"
"-111.96","60.02","FORT SMITH A","2202201","2019-07-15 23:00","2019","07","15","23:00","17.5","","9.7","","60","","","","19","","10","","24.1","","98.36","","","","","","Mainly Clear"
"-111.96","60.02","FORT SMITH A","2202201","2019-07-16 00:00","2019","07","16","00:00","16.8","","8.7","","59","","","","18","","13","","24.1","","98.37","","","","","","NA"
"-111.96","60.02","FORT SMITH A","2202201","2019-07-16 01:00","2019","07","16","01:00","14.6","","8.8","","68","","","","16","","7","","24.1","","98.38","","","","","","NA"
"-111.96","60.02","FORT SMITH A","2202201","2019-07-16 02:00","2019","07","16","02:00","13.9","","8.7","","70","","","","15","","5","","24.1","","98.38","","","","","","Mainly Clear"
"-111.96","60.02","FORT SMITH A","2202201","2019-07-16 03:00","2019","07","16","03:00","13.5","","8.2","","70","","","","17","","7","","24.1","","98.37","","","","","","NA"
"-111.96","60.02","FORT SMITH A","2202201","2019-07-16 04:00","2019","07","16","04:00","12.4","","8.0","","74","","","","17","","7","","24.1","","98.38","","","","","","NA"
"-111.96","60.02","FORT SMITH A","2202201","2019-07-16 05:00","2019","07","16","05:00","12.6","","8.1","","74","","","","18","","7","","24.1","","98.38","","","","","","Mainly Clear"
"-111.96","60.02","FORT SMITH A","2202201","2019-07-16 06:00","2019","07","16","06:00","14.6","","8.5","","67","","","","17","","7","","12.9","","98.39","","","","","","NA"
"-111.96","60.02","FORT SMITH A","2202201","2019-07-16 07:00","2019","07","16","07:00","17.8","","9.2","","57","","","","18","","5","","12.9","","98.39","","","","","","NA"
"-111.96","60.02","FORT SMITH A","2202201","2019-07-16 08:00","2019","07","16","08:00","20.8","","8.8","","46","","","","18","","8","","12.9","","98.39","","","","","","Clear"
"-111.96","60.02","FORT SMITH A","2202201","2019-07-16 09:00","2019","07","16","09:00","23.4","","9.7","","41","","","","17","","11","","12.9","","98.36","","25","","","","NA"
"-111.96","60.02","FORT SMITH A","2202201","2019-07-16 10:00","2019","07","16","10:00","25.6","","8.6","","34","","","","18","","11","","12.9","","98.32","","26","","","","NA"
"-111.96","60.02","FORT SMITH A","2202201","2019-07-16 11:00","2019","07","16","11:00","26.4","","6.6","","28","","","","22","","19","","16.1","","98.28","","26","","","","Clear"
"-111.96","60.02","FORT SMITH A","2202201","2019-07-16 12:00","2019","07","16","12:00","27.4","","7.3","","27","","","","22","","14","","19.3","","98.23","","28","","","","NA"
"-111.96","60.02","FORT SMITH A","2202201","2019-07-16 13:00","2019","07","16","13:00","27.8","","7.9","","28","","","","20","","12","","19.3","","98.20","","28","","","","NA"
"-111.96","60.02","FORT SMITH A","2202201","2019-07-16 14:00","2019","07","16","14:00","28.5","","7.5","","26","","","","17","","17","","24.1","","98.16","","29","","","","Mainly Clear"
"-111.96","60.02","FORT SMITH A","2202201","2019-07-16 15:00","2019","07","16","15:00","27.8","","7.1","","27","","","","18","","13","","19.3","","98.11","","28","","","","NA"
"-111.96","60.02","FORT SMITH A","2202201","2019-07-16 16:00","2019","07","16","16:00","28.5","","6.7","","25","","","","21","","12","","19.3","","98.06","","28","","","","NA"
"-111.96","60.02","FORT SMITH A","2202201","2019-07-16 17:00","2019","07","16","17:00","28.1","","6.8","","26","","","","19","","13","","24.1","","98.02","","28","","","","Mainly Clear"
"-111.96","60.02","FORT SMITH A","2202201","2019-07-16 18:00","2019","07","16","18:00","27.6","","6.5","","26","","","","16","","16","","24.1","","97.98","","27","","","","NA"
"-111.96","60.02","FORT SMITH A","2202201","2019-07-16 19:00","2019","07","16","19:00","27.0","","6.5","","27","","","","16","","18","","24.1","","97.97","","27","","","","NA"
"-111.96","60.02","FORT SMITH A","2202201","2019-07-16 20:00","2019","07","16","20:00","25.3","","9.3","","36","","","","15","","11","","24.1","","97.95","","26","","","","Clear"
"-111.96","60.02","FORT SMITH A","2202201","2019-07-16 21:00","2019","07","16","21:00","23.3","","9.6","","41","","","","15","","11","","24.1","","97.94","","","","","","NA"
"-111.96","60.02","FORT SMITH A","2202201","2019-07-16 22:00","2019","07","16","22:00","21.2","","9.3","","46","","","","16","","11","","24.1","","97.94","","","","","","NA"
"-111.96","60.02","FORT SMITH A","2202201","2019-07-16 23:00","2019","07","16","23:00","19.6","","9.3","","51","","","","16","","11","","24.1","","97.91","","","","","","Mainly Clear"
"-111.96","60.02","FORT SMITH A","2202201","2019-07-17 00:00","2019","07","17","00:00","18.0","","9.4","","57","","","","16","","10","","24.1","","97.89","","","","","","NA"
"-111.96","60.02","FORT SMITH A","2202201","2019-07-17 01:00","2019","07","17","01:00","18.1","","9.6","","57","","","","14","","8","","24.1","","97.84","","","","","","NA"
"-111.96","60.02","FORT SMITH A","2202201","2019-07-17 02:00","2019","07","17","02:00","16.5","","9.3","","62","","","","16","","7","","24.1","","97.82","","","","","","Mainly Clear"
"-111.96","60.02","FORT SMITH A","2202201","2019-07-17 03:00","2019","07","17","03:00","15.9","","8.8","","63","","","","14","","7","","24.1","","97.80","","","","","","NA"
"-111.96","60.02","FORT SMITH A","2202201","2019-07-17 04:00","2019","07","17","04:00","14.7","","8.9","","68","","","","15","","12","","24.1","","97.80","","","","","","NA"
"-111.96","60.02","FORT SMITH A","2202201","2019-07-17 05:00","2019","07","17","05:00","14.0","","9.1","","72","","","","15","","12","","24.1","","97.79","","","","","","Mainly Clear"
"-111.96","60.02","FORT SMITH A","2202201","2019-07-17 06:00","2019","07","17","06:00","15.1","","9.9","","71","","","","15","","7","","19.3","","97.77","","","","","","NA"
"-111.96","60.02","FORT SMITH A","2202201","2019-07-17 07:00","2019","07","17","07:00","17.9","","10.8","","63","","","","14","","4","","24.1","","97.74","","","","","","NA"
"-111.96","60.02","FORT SMITH A","2202201","2019-07-17 08:00","2019","07","17","08:00","21.5","","12.0","","54","","","","18","","5","","24.1","","97.73","","","","","","Mainly Clear"
"-111.96","60.02","FORT SMITH A","2202201","2019-07-17 09:00","2019","07","17","09:00","23.4","","11.5","","47","","","","20","","10","","24.1","","97.71","","25","","","","NA"
"-111.96","60.02","FORT SMITH A","2202201","2019-07-17 10:00","2019","07","17","10:00","25.2","","11.2","","41","","","","17","","17","","24.1","","97.68","","27","","","","NA"
"-111.96","60.02","FORT SMITH A","2202201","2019-07-17 11:00","2019","07","17","11:00","26.3","","11.2","","38","","","","16","","18","","24.1","","97.64","","28","","","","Mainly Clear"
"-111.96","60.02","FORT SMITH A","2202201","2019-07-17 12:00","2019","07","17","12:00","27.5","","9.3","","31","","","","16","","18","","24.1","","97.59","","28","","","","NA"
"-111.96","60.02","FORT SMITH A","2202201","2019-07-17 13:00","2019","07","17","13:00","27.9","","7.8","","28","","","","16","","9","","24.1","","97.56","","28","","","","NA"
"-111.96","60.02","FORT SMITH A","2202201","2019-07-17 14:00","2019","07","17","14:00","28.0","","8.2","","28","","","","17","","8","","24.1","","97.51","","28","","","","Mainly Clear"
"-111.96","60.02","FORT SMITH A","2202201","2019-07-17 15:00","2019","07","17","15:00","28.6","","7.6","","26","","","","16","","17","","24.1","","97.47","","29","","","","NA"
"-111.96","60.02","FORT SMITH A","2202201","2019-07-17 16:00","2019","07","17","16:00","28.7","","7.2","","25","","","","17","","15","","24.1","","97.43","","29","","","","NA"
"-111.96","60.02","FORT SMITH A","2202201","2019-07-17 17:00","2019","07","17","17:00","28.2","","7.2","","26","","","","15","","13","","24.1","","97.41","","28","","","","Mostly Cloudy"
"-111.96","60.02","FORT SMITH A","2202201","2019-07-17 18:00","2019","07","17","18:00","28.3","","8.3","","28","","","","16","","17","","24.1","","97.40","","29","","","","NA"
"-111.96","60.02","FORT SMITH A","2202201","2019-07-17 19:00","2019","07","17","19:00","26.7","","9.3","","33","","","","15","","14","","24.1","","97.42","","28","","","","NA"
"-111.96","60.02","FORT SMITH A","2202201","2019-07-17 20:00","2019","07","17","20:00","25.0","","10.3","","39","","","","13","","5","","24.1","","97.45","","26","","","","Mostly Cloudy"
"-111.96","60.02","FORT SMITH A","2202201","2019-07-17 21:00","2019","07","17","21:00","21.8","","12.2","","54","","","","15","","7","","24.1","","97.47","","","","","","NA"
"-111.96","60.02","FORT SMITH A","2202201","2019-07-17 22:00","2019","07","17","22:00","18.6","","11.9","","65","","","","36","","2","","24.1","","97.48","","","","","","NA"
"-111.96","60.02","FORT SMITH A","2202201","2019-07-17 23:00","2019","07","17","23:00","17.0","","11.8","","71","","","","15","","3","","24.1","","97.49","","","","","","Mainly Clear"
"-111.96","60.02","FORT SMITH A","2202201","2019-07-18 00:00","2019","07","18","00:00","18.5","","12.0","","66","","","","14","","6","","24.1","","97.48","","","","","","NA"
"-111.96","60.02","FORT SMITH A","2202201","2019-07-18 01:00","2019","07","18","01:00","17.1","","11.5","","69","","","","15","","6","","24.1","","97.50","","","","","","NA"
"-111.96","60.02","FORT SMITH A","2202201","2019-07-18 02:00","2019","07","18","02:00","14.9","","11.1","","78","","","","36","","1","","24.1","","97.53","","","","","","Mainly Clear"
"-111.96","60.02","FORT SMITH A","2202201","2019-07-18 03:00","2019","07","18","03:00","12.9","","10.9","","87","","","","36","","1","","24.1","","97.52","","","","","","NA"
"-111.96","60.02","FORT SMITH A","2202201","2019-07-18 04:00","2019","07","18","04:00","12.8","","11.0","","89","","","","36","","1","","16.1","","97.55","","","","","","NA"
"-111.96","60.02","FORT SMITH A","2202201","2019-07-18 05:00","2019","07","18","05:00","13.8","","10.9","","83","","","","36","","2","","19.3","","97.55","","","","","","Clear"
"-111.96","60.02","FORT SMITH A","2202201","2019-07-18 06:00","2019","07","18","06:00","16.4","","12.8","","79","","","","36","","1","","12.9","","97.55","","","","","","NA"
"-111.96","60.02","FORT SMITH A","2202201","2019-07-18 07:00","2019","07","18","07:00","19.3","","14.6","","74","","","","1","","4","","19.3","","97.56","","","","","","NA"
"-111.96","60.02","FORT SMITH A","2202201","2019-07-18 08:00","2019","07","18","08:00","21.2","","11.9","","55","","","","5","","4","","24.1","","97.58","","","","","","Clear"
"-111.96","60.02","FORT SMITH A","2202201","2019-07-18 09:00","2019","07","18","09:00","24.0","","11.6","","45","","","","2","","8","","24.1","","97.59","","26","","","","NA"
"-111.96","60.02","FORT SMITH A","2202201","2019-07-18 10:00","2019","07","18","10:00","25.7","","12.5","","43","","","","4","","9","","24.1","","97.58","","28","","","","NA"
"-111.96","60.02","FORT SMITH A","2202201","2019-07-18 11:00","2019","07","18","11:00","26.2","","11.9","","40","","","","5","","7","","24.1","","97.57","","28","","","","Clear"
"-111.96","60.02","FORT SMITH A","2202201","2019-07-18 12:00","2019","07","18","12:00","27.2","","9.7","","33","","","","1","","9","","24.1","","97.58","","28","","","","NA"
"-111.96","60.02","FORT SMITH A","2202201","2019-07-18 13:00","2019","07","18","13:00","28.0","","8.5","","29","","","","7","","9","","24.1","","97.57","","29","","","","NA"
"-111.96","60.02","FORT SMITH A","2202201","2019-07-18 14:00","2019","07","18","14:00","28.2","","10.5","","33","","","","1","","17","","24.1","","97.55","","30","","","","Mainly Clear"
"-111.96","60.02","FORT SMITH A","2202201","2019-07-18 15:00","2019","07","18","15:00","28.2","","11.8","","36","","","","3","","23","","19.3","","97.58","","30","","","","NA"
"-111.96","60.02","FORT SMITH A","2202201","2019-07-18 16:00","2019","07","18","16:00","27.0","","13.2","","42","","","","3","","29","","24.1","","97.61","","30","","","","NA"
"-111.96","60.02","FORT SMITH A","2202201","2019-07-18 17:00","2019","07","18","17:00","27.0","","12.2","","39","","","","1","","27","","24.1","","97.64","","29","","","","Mainly Clear"
"-111.96","60.02","FORT SMITH A","2202201","2019-07-18 18:00","2019","07","18","18:00","26.4","","12.8","","42","","","","3","","24","","24.1","","97.69","","29","","","","NA"
"-111.96","60.02","FORT SMITH A","2202201","2019-07-18 19:00","2019","07","18","19:00","24.6","","12.1","","45","","","","4","","19","","24.1","","97.75","","27","","","","NA"
"-111.96","60.02","FORT SMITH A","2202201","2019-07-18 20:00","2019","07","18","20:00","23.4","","11.6","","47","","","","3","","17","","24.1","","97.81","","25","","","","Mainly Clear"
"-111.96","60.02","FORT SMITH A","2202201","2019-07-18 21:00","2019","07","18","21:00","21.2","","10.9","","51","","","","2","","16","","24.1","","97.89","","","","","","NA"
"-111.96","60.02","FORT SMITH A","2202201","2019-07-18 22:00","2019","07","18","22:00","18.9","","10.7","","58","","","","4","","9","","24.1","","97.98","","","","","","NA"
"-111.96","60.02","FORT SMITH A","2202201","2019-07-18 23:00","2019","07","18","23:00","18.6","","9.0","","53","","","","5","","14","","24.1","","98.05","","","","","","Mainly Clear"
"-111.96","60.02","FORT SMITH A","2202201","2019-07-19 00:00","2019","07","19","00:00","17.3","","7.3","","51","","","","5","","14","","24.1","","98.11","","","","","","NA"
"-111.96","60.02","FORT SMITH A","2202201","2019-07-19 01:00","2019","07","19","01:00","15.6","","7.0","","56","","","","4","","10","","24.1","","98.19","","","","","","NA"
"-111.96","60.02","FORT SMITH A","2202201","2019-07-19 02:00","2019","07","19","02:00","14.8","","6.8","","59","","","","5","","11","","24.1","","98.23","","","","","","Mostly Cloudy"
"-111.96","60.02","FORT SMITH A","2202201","2019-07-19 03:00","2019","07","19","03:00","13.2","","6.7","","64","","","","5","","6","","24.1","","98.29","","","","","","NA"
"-111.96","60.02","FORT SMITH A","2202201","2019-07-19 04:00","2019","07","19","04:00","11.6","","6.8","","72","","","","4","","7","","24.1","","98.38","","","","","","NA"
"-111.96","60.02","FORT SMITH A","2202201","2019-07-19 05:00","2019","07","19","05:00","12.4","","6.9","","69","","","","6","","8","","24.1","","98.43","","","","","","Mainly Clear"
"-111.96","60.02","FORT SMITH A","2202201","2019-07-19 06:00","2019","07","19","06:00","13.1","","7.6","","69","","","","4","","9","","24.1","","98.49","","","","","","NA"
"-111.96","60.02","FORT SMITH A","2202201","2019-07-19 07:00","2019","07","19","07:00","14.4","","6.8","","60","","","","8","","12","","24.1","","98.53","","","","","","NA"
"-111.96","60.02","FORT SMITH A","2202201","2019-07-19 08:00","2019","07","19","08:00","15.2","","6.6","","56","","","","5","","14","","24.1","","98.58","","","","","","Clear"
"-111.96","60.02","FORT SMITH A","2202201","2019-07-19 09:00","2019","07","19","09:00","16.4","","6.6","","52","","","","3","","13","","24.1","","98.62","","","","","","NA"
"-111.96","60.02","FORT SMITH A","2202201","2019-07-19 10:00","2019","07","19","10:00","17.4","","4.7","","43","","","","4","","17","","24.1","","98.66","","","","","","NA"
"-111.96","60.02","FORT SMITH A","2202201","2019-07-19 11:00","2019","07","19","11:00","18.2","","6.0","","45","","","","6","","9","","24.1","","98.69","","","","","","Clear"
"-111.96","60.02","FORT SMITH A","2202201","2019-07-19 12:00","2019","07","19","12:00","19.4","","5.7","","40","","","","1","","11","","24.1","","98.72","","","","","","NA"
"-111.96","60.02","FORT SMITH A","2202201","2019-07-19 13:00","2019","07","19","13:00","19.8","","5.8","","40","","","","4","","14","","24.1","","98.74","","","","","","NA"
"-111.96","60.02","FORT SMITH A","2202201","2019-07-19 14:00","2019","07","19","14:00","20.5","","4.9","","35","","","","36","","11","","24.1","","98.76","","","","","","Clear"
"-111.96","60.02","FORT SMITH A","2202201","2019-07-19 15:00","2019","07","19","15:00","20.7","","5.8","","38","","","","4","","4","","24.1","","98.79","","","","","","NA"
"-111.96","60.02","FORT SMITH A","2202201","2019-07-19 16:00","2019","07","19","16:00","21.9","","6.2","","36","","","","5","","13","","24.1","","98.79","","","","","","NA"
"-111.96","60.02","FORT SMITH A","2202201","2019-07-19 17:00","2019","07","19","17:00","21.9","","5.7","","34","","","","36","","8","","24.1","","98.81","","","","","","Mainly Clear"
"-111.96","60.02","FORT SMITH A","2202201","2019-07-19 18:00","2019","07","19","18:00","21.9","","5.8","","35","","","","3","","9","","24.1","","98.81","","","","","","NA"
"-111.96","60.02","FORT SMITH A","2202201","2019-07-19 19:00","2019","07","19","19:00","21.4","","5.9","","36","","","","2","","7","","24.1","","98.82","","","","","","NA"
"-111.96","60.02","FORT SMITH A","2202201","2019-07-19 20:00","2019","07","19","20:00","20.3","","6.7","","41","","","","5","","4","","24.1","","98.84","","","","","","Clear"
"-111.96","60.02","FORT SMITH A","2202201","2019-07-19 21:00","2019","07","19","21:00","16.4","","8.4","","59","","","","36","","2","","24.1","","98.89","","","","","","NA"
"-111.96","60.02","FORT SMITH A","2202201","2019-07-19 22:00","2019","07","19","22:00","14.3","","8.0","","66","","","","36","","2","","24.1","","98.93","","","","","","NA"
"-111.96","60.02","FORT SMITH A","2202201","2019-07-19 23:00","2019","07","19","23:00","13.1","","7.3","","68","","","","19","","4","","24.1","","98.99","","","","","","Clear"
"-111.96","60.02","FORT SMITH A","2202201","2019-07-20 00:00","2019","07","20","00:00","10.7","","7.3","","80","","","","36","","1","","24.1","","99.04","","","","","","NA"
"-111.96","60.02","FORT SMITH A","2202201","2019-07-20 01:00","2019","07","20","01:00","10.4","","6.0","","74","","","","17","","5","","24.1","","99.08","","","","","","NA"
"-111.96","60.02","FORT SMITH A","2202201","2019-07-20 02:00","2019","07","20","02:00","10.5","","6.4","","75","","","","16","","6","","24.1","","99.14","","","","","","Mainly Clear"
"-111.96","60.02","FORT SMITH A","2202201","2019-07-20 03:00","2019","07","20","03:00","9.0","","6.1","","82","","","","","","0","","24.1","","99.16","","","","","","NA"
"-111.96","60.02","FORT SMITH A","2202201","2019-07-20 04:00","2019","07","20","04:00","7.9","","6.1","","89","","","","36","","1","","24.1","","99.18","","","","","","NA"
"-111.96","60.02","FORT SMITH A","2202201","2019-07-20 05:00","2019","07","20","05:00","9.0","","6.8","","86","","","","13","","4","","24.1","","99.21","","","","","","Mainly Clear"
"-111.96","60.02","FORT SMITH A","2202201","2019-07-20 06:00","2019","07","20","06:00","12.4","","7.8","","73","","","","16","","6","","24.1","","99.22","","","","","","NA"
"-111.96","60.02","FORT SMITH A","2202201","2019-07-20 07:00","2019","07","20","07:00","14.0","","8.5","","70","","","","17","","4","","24.1","","99.24","","","","","","NA"
"-111.96","60.02","FORT SMITH A","2202201","2019-07-20 08:00","2019","07","20","08:00","17.9","","7.5","","50","","","","19","","12","","24.1","","99.25","","","","","","Mostly Cloudy"
"-111.96","60.02","FORT SMITH A","2202201","2019-07-20 09:00","2019","07","20","09:00","19.9","","8.1","","46","","","","16","","12","","24.1","","99.26","","","","","","NA"
"-111.96","60.02","FORT SMITH A","2202201","2019-07-20 10:00","2019","07","20","10:00","21.6","","8.9","","44","","","","14","","10","","24.1","","99.25","","","","","","NA"
"-111.96","60.02","FORT SMITH A","2202201","2019-07-20 11:00","2019","07","20","11:00","22.2","","7.3","","38","","","","14","","11","","24.1","","99.26","","","","","","Mostly Cloudy"
"-111.96","60.02","FORT SMITH A","2202201","2019-07-20 12:00","2019","07","20","12:00","23.2","","6.9","","35","","","","15","","9","","24.1","","99.24","","","","","","NA"
"-111.96","60.02","FORT SMITH A","2202201","2019-07-20 13:00","2019","07","20","13:00","24.0","","6.6","","32","","","","17","","13","","24.1","","99.22","","","","","","NA"
"-111.96","60.02","FORT SMITH A","2202201","2019-07-20 14:00","2019","07","20","14:00","24.6","","6.1","","30","","","","16","","12","","24.1","","99.19","","","","","","Mostly Cloudy"
"-111.96","60.02","FORT SMITH A","2202201","2019-07-20 15:00","2019","07","20","15:00","25.5","","6.7","","30","","","","17","","8","","24.1","","99.18","","25","","","","NA"
"-111.96","60.02","FORT SMITH A","2202201","2019-07-20 16:00","2019","07","20","16:00","26.2","","7.4","","30","","","","15","","10","","24.1","","99.14","","26","","","","NA"
"-111.96","60.02","FORT SMITH A","2202201","2019-07-20 17:00","2019","07","20","17:00","26.4","","5.8","","26","","","","16","","15","","24.1","","99.12","","26","","","","Mostly Cloudy"
"-111.96","60.02","FORT SMITH A","2202201","2019-07-20 18:00","2019","07","20","18:00","25.3","","5.9","","28","","","","15","","14","","24.1","","99.10","","25","","","","NA"
"-111.96","60.02","FORT SMITH A","2202201","2019-07-20 19:00","2019","07","20","19:00","23.4","","7.4","","35","","","","15","","9","","24.1","","99.08","","","","","","NA"
"-111.96","60.02","FORT SMITH A","2202201","2019-07-20 20:00","2019","07","20","20:00","22.4","","7.1","","37","","","","14","","7","","24.1","","99.07","","","","","","Mainly Clear"
"-111.96","60.02","FORT SMITH A","2202201","2019-07-20 21:00","2019","07","20","21:00","20.5","","7.2","","42","","","","15","","11","","24.1","","99.10","","","","","","NA"
"-111.96","60.02","FORT SMITH A","2202201","2019-07-20 22:00","2019","07","20","22:00","19.0","","7.5","","47","","","","15","","13","","24.1","","99.12","","","","","","NA"
"-111.96","60.02","FORT SMITH A","2202201","2019-07-20 23:00","2019","07","20","23:00","17.3","","7.6","","53","","","","15","","12","","24.1","","99.14","","","","","","Mainly Clear"
"-111.96","60.02","FORT SMITH A","2202201","2019-07-21 00:00","2019","07","21","00:00","16.1","","7.1","","55","","","","15","","10","","24.1","","99.14","","","","","","NA"
"-111.96","60.02","FORT SMITH A","2202201","2019-07-21 01:00","2019","07","21","01:00","14.9","","6.0","","55","","","","15","","13","","24.1","","99.16","","","","","","NA"
"-111.96","60.02","FORT SMITH A","2202201","2019-07-21 02:00","2019","07","21","02:00","14.2","","6.9","","61","","","","15","","13","","24.1","","99.19","","","","","","Mainly Clear"
"-111.96","60.02","FORT SMITH A","2202201","2019-07-21 03:00","2019","07","21","03:00","13.3","","7.1","","66","","","","15","","12","","24.1","","99.21","","","","","","NA"
"-111.96","60.02","FORT SMITH A","2202201","2019-07-21 04:00","2019","07","21","04:00","12.7","","7.3","","70","","","","15","","10","","24.1","","99.22","","","","","","NA"
"-111.96","60.02","FORT SMITH A","2202201","2019-07-21 05:00","2019","07","21","05:00","13.3","","7.8","","69","","","","18","","8","","19.3","","99.22","","","","","","Smoke"
"-111.96","60.02","FORT SMITH A","2202201","2019-07-21 06:00","2019","07","21","06:00","14.8","","8.6","","66","","","","16","","8","","6.4","","99.22","","","","","","Smoke"
"-111.96","60.02","FORT SMITH A","2202201","2019-07-21 07:00","2019","07","21","07:00","17.2","","10.0","","62","","","","15","","7","","4.8","","99.21","","","","","","Smoke"
"-111.96","60.02","FORT SMITH A","2202201","2019-07-21 08:00","2019","07","21","08:00","19.9","","11.0","","56","","","","18","","8","","4.8","","99.22","","","","","","Smoke"
"-111.96","60.02","FORT SMITH A","2202201","2019-07-21 09:00","2019","07","21","09:00","22.3","","12.3","","53","","","","18","","9","","4.8","","99.23","","25","","","","Smoke"
"-111.96","60.02","FORT SMITH A","2202201","2019-07-21 10:00","2019","07","21","10:00","25.2","","13.1","","46","","","","18","","4","","3.2","","99.22","","28","","","","Smoke"
"-111.96","60.02","FORT SMITH A","2202201","2019-07-21 11:00","2019","07","21","11:00","27.4","","12.7","","40","","","","22","","8","","3.2","","99.22","","30","","","","Smoke"
"-111.96","60.02","FORT SMITH A","2202201","2019-07-21 12:00","2019","07","21","12:00","29.0","","11.8","","34","","","","23","","17","","4.0","","99.18","","31","","","","Smoke"
"-111.96","60.02","FORT SMITH A","2202201","2019-07-21 13:00","2019","07","21","13:00","30.1","","10.8","","30","","","","20","","11","","4.8","","99.17","","32","","","","Smoke"
"-111.96","60.02","FORT SMITH A","2202201","2019-07-21 14:00","2019","07","21","14:00","30.3","","10.3","","29","","","","26","","16","","4.8","","99.16","","32","","","","Smoke"
"-111.96","60.02","FORT SMITH A","2202201","2019-07-21 15:00","2019","07","21","15:00","28.9","","11.4","","33","","","","25","","7","","6.4","","99.15","","31","","","","Smoke"
"-111.96","60.02","FORT SMITH A","2202201","2019-07-21 16:00","2019","07","21","16:00","29.1","","11.8","","34","","","","23","","3","","6.4","","99.14","","31","","","","Smoke"
"-111.96","60.02","FORT SMITH A","2202201","2019-07-21 17:00","2019","07","21","17:00","28.7","","10.9","","33","","","","36","","3","","6.4","","99.11","","30","","","","Smoke"
"-111.96","60.02","FORT SMITH A","2202201","2019-07-21 18:00","2019","07","21","18:00","25.8","","13.1","","45","","","","11","","3","","6.4","","99.08","","29","","","","Smoke"
"-111.96","60.02","FORT SMITH A","2202201","2019-07-21 19:00","2019","07","21","19:00","24.4","","14.9","","55","","","","17","","5","","6.4","","99.06","","28","","","","Smoke"
"-111.96","60.02","FORT SMITH A","2202201","2019-07-21 20:00","2019","07","21","20:00","23.8","","15.8","","60","","","","13","","4","","24.1","","99.03","","28","","","","Mostly Cloudy"
"-111.96","60.02","FORT SMITH A","2202201","2019-07-21 21:00","2019","07","21","21:00","22.5","","12.8","","54","","","","14","","8","","24.1","","99.06","","25","","","","NA"
"-111.96","60.02","FORT SMITH A","2202201","2019-07-21 22:00","2019","07","21","22:00","22.6","","12.5","","52","","","","15","","12","","6.4","","99.09","","25","","","","Smoke"
"-111.96","60.02","FORT SMITH A","2202201","2019-07-21 23:00","2019","07","21","23:00","21.1","","12.6","","58","","","","16","","12","","6.4","","99.12","","","","","","Smoke"
"-111.96","60.02","FORT SMITH A","2202201","2019-07-22 00:00","2019","07","22","00:00","20.1","","12.5","","61","","","","17","","11","","6.4","","99.15","","","","","","Smoke"
"-111.96","60.02","FORT SMITH A","2202201","2019-07-22 01:00","2019","07","22","01:00","19.5","","12.6","","64","","","","17","","11","","6.4","","99.14","","","","","","Smoke"
"-111.96","60.02","FORT SMITH A","2202201","2019-07-22 02:00","2019","07","22","02:00","18.3","","12.4","","68","","","","18","","10","","24.1","","99.14","","","","","","Mostly Cloudy"
"-111.96","60.02","FORT SMITH A","2202201","2019-07-22 03:00","2019","07","22","03:00","18.1","","12.5","","70","","","","17","","10","","6.4","","99.15","","","","","","Smoke"
"-111.96","60.02","FORT SMITH A","2202201","2019-07-22 04:00","2019","07","22","04:00","17.6","","12.4","","72","","","","16","","6","","6.4","","99.15","","","","","","Smoke"
"-111.96","60.02","FORT SMITH A","2202201","2019-07-22 05:00","2019","07","22","05:00","17.7","","12.7","","72","","","","15","","7","","6.4","","99.15","","","","","","Smoke"
"-111.96","60.02","FORT SMITH A","2202201","2019-07-22 06:00","2019","07","22","06:00","18.8","","13.3","","71","","","","17","","7","","6.4","","99.15","","","","","","Smoke"
"-111.96","60.02","FORT SMITH A","2202201","2019-07-22 07:00","2019","07","22","07:00","18.9","","14.1","","73","","","","16","","5","","6.4","","99.16","","","","","","Smoke"
"-111.96","60.02","FORT SMITH A","2202201","2019-07-22 08:00","2019","07","22","08:00","21.6","","15.0","","66","","","","36","","2","","6.4","","99.17","","26","","","","Smoke"
"-111.96","60.02","FORT SMITH A","2202201","2019-07-22 09:00","2019","07","22","09:00","23.6","","14.9","","58","","","","19","","3","","4.8","","99.18","","28","","","","Smoke"
"-111.96","60.02","FORT SMITH A","2202201","2019-07-22 10:00","2019","07","22","10:00","25.6","","14.9","","51","","","","21","","4","","1.6","","99.18","","30","","","","Smoke"
"-111.96","60.02","FORT SMITH A","2202201","2019-07-22 11:00","2019","07","22","11:00","27.1","","12.8","","41","","","","36","","1","","2.0","","99.19","","30","","","","Smoke"
"-111.96","60.02","FORT SMITH A","2202201","2019-07-22 12:00","2019","07","22","12:00","28.9","","15.4","","43","","","","36","","1","","2.8","","99.16","","33","","","","Smoke"
"-111.96","60.02","FORT SMITH A","2202201","2019-07-22 13:00","2019","07","22","13:00","30.1","","15.1","","40","","","","1","","7","","3.2","","99.14","","34","","","","Smoke"
"-111.96","60.02","FORT SMITH A","2202201","2019-07-22 14:00","2019","07","22","14:00","30.9","","12.5","","32","","","","36","","2","","4.8","","99.13","","33","","","","Smoke"
"-111.96","60.02","FORT SMITH A","2202201","2019-07-22 15:00","2019","07","22","15:00","29.5","","14.2","","39","","","","5","","5","","6.4","","99.11","","33","","","","Smoke"
"-111.96","60.02","FORT SMITH A","2202201","2019-07-22 16:00","2019","07","22","16:00","27.8","","17.2","","52","","","","36","","2","","8.1","","99.10","","33","","","","Smoke"
"-111.96","60.02","FORT SMITH A","2202201","2019-07-22 17:00","2019","07","22","17:00","25.9","","17.2","","58","","","","36","","5","","8.1","","99.10","","31","","","","Smoke"
"-111.96","60.02","FORT SMITH A","2202201","2019-07-22 18:00","2019","07","22","18:00","26.2","","17.9","","60","","","","36","","1","","8.1","","99.08","","32","","","","Smoke"
"-111.96","60.02","FORT SMITH A","2202201","2019-07-22 19:00","2019","07","22","19:00","26.1","","17.6","","59","","","","36","","2","","8.1","","99.06","","32","","","","Smoke"
"-111.96","60.02","FORT SMITH A","2202201","2019-07-22 20:00","2019","07","22","20:00","24.3","","18.7","","71","","","","36","","2","","8.1","","99.05","","31","","","","Smoke"
"-111.96","60.02","FORT SMITH A","2202201","2019-07-22 21:00","2019","07","22","21:00","22.5","","17.1","","71","","","","1","","6","","6.4","","99.08","","28","","","","Smoke"
"-111.96","60.02","FORT SMITH A","2202201","2019-07-22 22:00","2019","07","22","22:00","20.9","","16.9","","78","","","","36","","1","","6.4","","99.09","","26","","","","Smoke"
"-111.96","60.02","FORT SMITH A","2202201","2019-07-22 23:00","2019","07","22","23:00","19.4","","16.4","","83","","","","17","","4","","6.4","","99.08","","","","","","Smoke"
"-111.96","60.02","FORT SMITH A","2202201","2019-07-23 00:00","2019","07","23","00:00","17.7","","15.7","","88","","","","0","","1","","6.4","","99.08","","","","","","Smoke"
"-111.96","60.02","FORT SMITH A","2202201","2019-07-23 01:00","2019","07","23","01:00","17.8","","14.6","","82","","","","16","","5","","6.4","","99.07","","","","","","Smoke"
"-111.96","60.02","FORT SMITH A","2202201","2019-07-23 02:00","2019","07","23","02:00","17.0","","13.8","","82","","","","20","","5","","6.4","","99.08","","","","","","Smoke"
"-111.96","60.02","FORT SMITH A","2202201","2019-07-23 03:00","2019","07","23","03:00","15.1","","13.5","","90","","","","36","","2","","4.8","","99.08","","","","","","Smoke"
"-111.96","60.02","FORT SMITH A","2202201","2019-07-23 04:00","2019","07","23","04:00","14.8","","13.1","","90","","","","14","","4","","4.8","","99.09","","","","","","Smoke"
"-111.96","60.02","FORT SMITH A","2202201","2019-07-23 05:00","2019","07","23","05:00","15.2","","12.8","","85","","","","36","","1","","4.8","","99.09","","","","","","Smoke"
"-111.96","60.02","FORT SMITH A","2202201","2019-07-23 06:00","2019","07","23","06:00","16.3","","14.2","","87","","","","36","","2","","4.0","","99.09","","","","","","Smoke"
"-111.96","60.02","FORT SMITH A","2202201","2019-07-23 07:00","2019","07","23","07:00","19.5","","13.7","","69","","","","36","","4","","4.0","","99.08","","","","","","Smoke"
"-111.96","60.02","FORT SMITH A","2202201","2019-07-23 08:00","2019","07","23","08:00","22.0","","14.3","","61","","","","35","","5","","4.0","","99.08","","26","","","","Smoke"
"-111.96","60.02","FORT SMITH A","2202201","2019-07-23 09:00","2019","07","23","09:00","24.2","","15.3","","57","","","","33","","3","","3.2","","99.06","","28","","","","Smoke"
"-111.96","60.02","FORT SMITH A","2202201","2019-07-23 10:00","2019","07","23","10:00","26.8","","15.6","","50","","","","33","","4","","3.2","","99.04","","31","","","","Smoke"
"-111.96","60.02","FORT SMITH A","2202201","2019-07-23 11:00","2019","07","23","11:00","28.3","","12.2","","36","","","","4","","8","","3.2","","99.03","","31","","","","Smoke"
"-111.96","60.02","FORT SMITH A","2202201","2019-07-23 12:00","2019","07","23","12:00","29.4","","12.7","","35","","","","4","","10","","3.2","","98.99","","32","","","","Smoke"
"-111.96","60.02","FORT SMITH A","2202201","2019-07-23 13:00","2019","07","23","13:00","29.8","","13.4","","36","","","","36","","3","","4.0","","98.98","","33","","","","Smoke"
"-111.96","60.02","FORT SMITH A","2202201","2019-07-23 14:00","2019","07","23","14:00","30.4","","12.9","","34","","","","10","","5","","4.8","","98.92","","33","","","","Smoke"
"-111.96","60.02","FORT SMITH A","2202201","2019-07-23 15:00","2019","07","23","15:00","30.6","","12.8","","33","","","","35","","11","","4.8","","98.88","","33","","","","Smoke"
"-111.96","60.02","FORT SMITH A","2202201","2019-07-23 16:00","2019","07","23","16:00","30.5","","12.8","","33","","","","5","","13","","4.8","","98.85","","33","","","","Smoke"
"-111.96","60.02","FORT SMITH A","2202201","2019-07-23 17:00","2019","07","23","17:00","29.4","","13.5","","37","","","","3","","14","","4.8","","98.81","","32","","","","Smoke"
"-111.96","60.02","FORT SMITH A","2202201","2019-07-23 18:00","2019","07","23","18:00","27.6","","14.2","","43","","","","2","","10","","8.1","","98.79","","31","","","","Smoke"
"-111.96","60.02","FORT SMITH A","2202201","2019-07-23 19:00","2019","07","23","19:00","26.1","","13.5","","45","","","","1","","8","","8.1","","98.80","","29","","","","Smoke"
"-111.96","60.02","FORT SMITH A","2202201","2019-07-23 20:00","2019","07","23","20:00","19.8","","16.8","","83","","","","28","","29","","4.8","","98.97","","","","","","Thunderstorms,Rain Showers,Smoke"
"-111.96","60.02","FORT SMITH A","2202201","2019-07-23 21:00","2019","07","23","21:00","18.5","","17.1","","91","","","","15","","14","","4.8","","99.02","","","","","","Thunderstorms,Moderate Rain Showers,Smoke"
"-111.96","60.02","FORT SMITH A","2202201","2019-07-23 22:00","2019","07","23","22:00","18.5","","16.9","","90","","","","13","","8","","4.8","","98.87","","","","","","Smoke"
"-111.96","60.02","FORT SMITH A","2202201","2019-07-23 23:00","2019","07","23","23:00","18.8","","16.9","","89","","","","11","","3","","4.8","","98.89","","","","","","Smoke"
"-111.96","60.02","FORT SMITH A","2202201","2019-07-24 00:00","2019","07","24","00:00","18.6","","16.2","","86","","","","5","","3","","6.4","","98.84","","","","","","Smoke"
"-111.96","60.02","FORT SMITH A","2202201","2019-07-24 01:00","2019","07","24","01:00","17.8","","16.1","","90","","","","35","","7","","6.4","","98.79","","","","","","Smoke"
"-111.96","60.02","FORT SMITH A","2202201","2019-07-24 02:00","2019","07","24","02:00","18.6","","15.1","","80","","","","5","","6","","6.4","","98.69","","","","","","Smoke"
"-111.96","60.02","FORT SMITH A","2202201","2019-07-24 03:00","2019","07","24","03:00","17.1","","15.3","","89","","","","1","","7","","6.4","","98.71","","","","","","Smoke"
"-111.96","60.02","FORT SMITH A","2202201","2019-07-24 04:00","2019","07","24","04:00","16.6","","15.4","","93","","","","34","","6","","6.4","","98.71","","","","","","Smoke"
"-111.96","60.02","FORT SMITH A","2202201","2019-07-24 05:00","2019","07","24","05:00","16.4","","15.7","","95","","","","2","","6","","6.4","","98.71","","","","","","Smoke"
"-111.96","60.02","FORT SMITH A","2202201","2019-07-24 06:00","2019","07","24","06:00","17.1","","15.8","","92","","","","3","","6","","4.8","","98.69","","","","","","Smoke"
"-111.96","60.02","FORT SMITH A","2202201","2019-07-24 07:00","2019","07","24","07:00","18.6","","16.0","","85","","","","2","","6","","4.8","","98.67","","","","","","Smoke"
"-111.96","60.02","FORT SMITH A","2202201","2019-07-24 08:00","2019","07","24","08:00","20.3","","16.1","","76","","","","2","","4","","6.4","","98.63","","25","","","","Smoke"
"-111.96","60.02","FORT SMITH A","2202201","2019-07-24 09:00","2019","07","24","09:00","22.4","","16.9","","70","","","","3","","8","","6.4","","98.57","","28","","","","Smoke"
"-111.96","60.02","FORT SMITH A","2202201","2019-07-24 10:00","2019","07","24","10:00","24.6","","16.5","","60","","","","3","","10","","8.1","","98.49","","30","","","","Smoke"
"-111.96","60.02","FORT SMITH A","2202201","2019-07-24 11:00","2019","07","24","11:00","26.2","","14.7","","48","","","","9","","12","","8.1","","98.44","","30","","","","Smoke"
"-111.96","60.02","FORT SMITH A","2202201","2019-07-24 12:00","2019","07","24","12:00","27.1","","13.4","","42","","","","10","","10","","9.7","","98.43","","30","","","","Smoke"
"-111.96","60.02","FORT SMITH A","2202201","2019-07-24 13:00","2019","07","24","13:00","27.4","","13.4","","41","","","","7","","12","","9.7","","98.34","","30","","","","Smoke"
"-111.96","60.02","FORT SMITH A","2202201","2019-07-24 14:00","2019","07","24","14:00","28.3","","13.9","","41","","","","6","","11","","12.9","","98.28","","32","","","","Mainly Clear"
"-111.96","60.02","FORT SMITH A","2202201","2019-07-24 15:00","2019","07","24","15:00","28.3","","13.7","","40","","","","5","","12","","16.1","","98.25","","31","","","","NA"
"-111.96","60.02","FORT SMITH A","2202201","2019-07-24 16:00","2019","07","24","16:00","27.6","","13.5","","41","","","","7","","13","","12.9","","98.21","","31","","","","NA"
"-111.96","60.02","FORT SMITH A","2202201","2019-07-24 17:00","2019","07","24","17:00","28.7","","13.5","","39","","","","6","","12","","12.9","","98.16","","32","","","","Mainly Clear"
"-111.96","60.02","FORT SMITH A","2202201","2019-07-24 18:00","2019","07","24","18:00","27.4","","12.8","","40","","","","9","","8","","12.9","","98.15","","30","","","","NA"
"-111.96","60.02","FORT SMITH A","2202201","2019-07-24 19:00","2019","07","24","19:00","27.2","","12.8","","40","","","","6","","8","","11.3","","98.08","","30","","","","NA"
"-111.96","60.02","FORT SMITH A","2202201","2019-07-24 20:00","2019","07","24","20:00","25.8","","13.0","","45","","","","6","","5","","11.3","","98.07","","29","","","","Mainly Clear"
"-111.96","60.02","FORT SMITH A","2202201","2019-07-24 21:00","2019","07","24","21:00","23.8","","12.9","","50","","","","6","","7","","11.3","","98.10","","27","","","","NA"
"-111.96","60.02","FORT SMITH A","2202201","2019-07-24 22:00","2019","07","24","22:00","21.6","","12.6","","56","","","","5","","5","","11.3","","98.09","","","","","","NA"
"-111.96","60.02","FORT SMITH A","2202201","2019-07-24 23:00","2019","07","24","23:00","21.2","","11.7","","54","","","","7","","7","","11.3","","98.11","","","","","","Mostly Cloudy"
"-111.96","60.02","FORT SMITH A","2202201","2019-07-25 00:00","2019","07","25","00:00","20.0","","11.0","","56","","","","4","","10","","11.3","","98.09","","","","","","NA"
"-111.96","60.02","FORT SMITH A","2202201","2019-07-25 01:00","2019","07","25","01:00","18.2","","10.9","","62","","","","5","","7","","11.3","","98.10","","","","","","NA"
"-111.96","60.02","FORT SMITH A","2202201","2019-07-25 02:00","2019","07","25","02:00","18.1","","11.1","","63","","","","4","","10","","11.3","","98.10","","","","","","Mostly Cloudy"
"-111.96","60.02","FORT SMITH A","2202201","2019-07-25 03:00","2019","07","25","03:00","16.3","","11.3","","72","","","","4","","8","","12.9","","98.16","","","","","","NA"
"-111.96","60.02","FORT SMITH A","2202201","2019-07-25 04:00","2019","07","25","04:00","16.4","","11.5","","72","","","","5","","7","","16.1","","98.19","","","","","","NA"
"-111.96","60.02","FORT SMITH A","2202201","2019-07-25 05:00","2019","07","25","05:00","17.4","","11.8","","69","","","","6","","8","","16.1","","98.18","","","","","","Mostly Cloudy"
"-111.96","60.02","FORT SMITH A","2202201","2019-07-25 06:00","2019","07","25","06:00","17.4","","12.4","","72","","","","4","","9","","19.3","","98.22","","","","","","NA"
"-111.96","60.02","FORT SMITH A","2202201","2019-07-25 07:00","2019","07","25","07:00","18.2","","12.9","","71","","","","3","","7","","24.1","","98.21","","","","","","NA"
"-111.96","60.02","FORT SMITH A","2202201","2019-07-25 08:00","2019","07","25","08:00","20.8","","11.1","","53","","","","8","","7","","24.1","","98.23","","","","","","Mostly Cloudy"
"-111.96","60.02","FORT SMITH A","2202201","2019-07-25 09:00","2019","07","25","09:00","23.1","","10.5","","44","","","","9","","10","","24.1","","98.25","","25","","","","NA"
"-111.96","60.02","FORT SMITH A","2202201","2019-07-25 10:00","2019","07","25","10:00","24.0","","9.2","","38","","","","13","","10","","24.1","","98.25","","25","","","","NA"
"-111.96","60.02","FORT SMITH A","2202201","2019-07-25 11:00","2019","07","25","11:00","24.7","","9.1","","37","","","","10","","11","","24.1","","98.26","","26","","","","Mostly Cloudy"
"-111.96","60.02","FORT SMITH A","2202201","2019-07-25 12:00","2019","07","25","12:00","26.0","","9.4","","35","","","","9","","7","","24.1","","98.25","","27","","","","NA"
"-111.96","60.02","FORT SMITH A","2202201","2019-07-25 13:00","2019","07","25","13:00","26.2","","8.7","","33","","","","7","","16","","24.1","","98.23","","27","","","","NA"
"-111.96","60.02","FORT SMITH A","2202201","2019-07-25 14:00","2019","07","25","14:00","26.7","","8.7","","32","","","","12","","8","","24.1","","98.23","","27","","","","Mostly Cloudy"
"-111.96","60.02","FORT SMITH A","2202201","2019-07-25 15:00","2019","07","25","15:00","26.6","","8.3","","31","","","","11","","10","","24.1","","98.21","","27","","","","NA"
"-111.96","60.02","FORT SMITH A","2202201","2019-07-25 16:00","2019","07","25","16:00","26.9","","8.7","","31","","","","10","","8","","24.1","","98.19","","28","","","","NA"
"-111.96","60.02","FORT SMITH A","2202201","2019-07-25 17:00","2019","07","25","17:00","26.5","","8.6","","32","","","","6","","10","","19.3","","98.18","","27","","","","Mostly Cloudy"
"-111.96","60.02","FORT SMITH A","2202201","2019-07-25 18:00","2019","07","25","18:00","26.8","","8.6","","31","","","","10","","7","","19.3","","98.15","","27","","","","NA"
"-111.96","60.02","FORT SMITH A","2202201","2019-07-25 19:00","2019","07","25","19:00","26.1","","9.0","","33","","","","13","","9","","16.1","","98.15","","27","","","","NA"
"-111.96","60.02","FORT SMITH A","2202201","2019-07-25 20:00","2019","07","25","20:00","24.3","","9.6","","39","","","","12","","5","","16.1","","98.13","","25","","","","Mostly Cloudy"
"-111.96","60.02","FORT SMITH A","2202201","2019-07-25 21:00","2019","07","25","21:00","21.5","","11.2","","52","","","","11","","4","","19.3","","98.11","","","","","","NA"
"-111.96","60.02","FORT SMITH A","2202201","2019-07-25 22:00","2019","07","25","22:00","21.0","","9.6","","48","","","","16","","9","","12.9","","98.11","","","","","","NA"
"-111.96","60.02","FORT SMITH A","2202201","2019-07-25 23:00","2019","07","25","23:00","19.8","","9.6","","51","","","","15","","8","","12.9","","98.09","","","","","","Cloudy"
"-111.96","60.02","FORT SMITH A","2202201","2019-07-26 00:00","2019","07","26","00:00","18.9","","9.2","","53","","","","15","","8","","12.9","","98.07","","","","","","NA"
"-111.96","60.02","FORT SMITH A","2202201","2019-07-26 01:00","2019","07","26","01:00","19.4","","8.8","","50","","","","12","","7","","12.9","","98.02","","","","","","NA"
"-111.96","60.02","FORT SMITH A","2202201","2019-07-26 02:00","2019","07","26","02:00","18.7","","8.4","","51","","","","15","","8","","12.9","","98.00","","","","","","Cloudy"
"-111.96","60.02","FORT SMITH A","2202201","2019-07-26 03:00","2019","07","26","03:00","18.6","","7.9","","49","","","","13","","3","","12.9","","97.92","","","","","","NA"
"-111.96","60.02","FORT SMITH A","2202201","2019-07-26 04:00","2019","07","26","04:00","16.3","","11.3","","72","","","","1","","9","","8.1","","97.91","","","","","","Rain"
"-111.96","60.02","FORT SMITH A","2202201","2019-07-26 05:00","2019","07","26","05:00","16.2","","11.1","","72","","","","7","","8","","9.7","","97.87","","","","","","Smoke"
"-111.96","60.02","FORT SMITH A","2202201","2019-07-26 06:00","2019","07","26","06:00","15.0","","14.2","","95","","","","36","","2","","4.8","","97.89","","","","","","Rain,Smoke"
"-111.96","60.02","FORT SMITH A","2202201","2019-07-26 07:00","2019","07","26","07:00","14.6","","13.8","","95","","","","34","","10","","3.2","","97.86","","","","","","Moderate Rain,Smoke"
"-111.96","60.02","FORT SMITH A","2202201","2019-07-26 08:00","2019","07","26","08:00","14.3","","13.6","","95","","","","34","","14","","3.2","","97.85","","","","","","Moderate Rain,Smoke"
"-111.96","60.02","FORT SMITH A","2202201","2019-07-26 09:00","2019","07","26","09:00","13.8","","13.2","","96","","","","36","","22","","4.0","","97.83","","","","","","Rain,Smoke"
"-111.96","60.02","FORT SMITH A","2202201","2019-07-26 10:00","2019","07","26","10:00","14.1","","13.4","","95","","","","2","","13","","4.8","","97.81","","","","","","Rain,Smoke"
"-111.96","60.02","FORT SMITH A","2202201","2019-07-26 11:00","2019","07","26","11:00","14.7","","13.9","","95","","","","2","","13","","4.0","","97.82","","","","","","Moderate Rain,Smoke"
"-111.96","60.02","FORT SMITH A","2202201","2019-07-26 12:00","2019","07","26","12:00","15.4","","14.3","","93","","","","4","","10","","4.8","","97.80","","","","","","Rain,Smoke"
"-111.96","60.02","FORT SMITH A","2202201","2019-07-26 13:00","2019","07","26","13:00","16.3","","14.3","","88","","","","1","","5","","8.1","","97.85","","","","","","Rain,Smoke"
"-111.96","60.02","FORT SMITH A","2202201","2019-07-26 14:00","2019","07","26","14:00","16.4","","14.7","","89","","","","31","","4","","9.7","","97.89","","","","","","Rain"
"-111.96","60.02","FORT SMITH A","2202201","2019-07-26 15:00","2019","07","26","15:00","16.5","","15.3","","92","","","","25","","8","","9.7","","97.92","","","","","","Rain"
"-111.96","60.02","FORT SMITH A","2202201","2019-07-26 16:00","2019","07","26","16:00","16.3","","15.3","","94","","","","23","","8","","6.4","","97.95","","","","","","Rain,Smoke"
"-111.96","60.02","FORT SMITH A","2202201","2019-07-26 17:00","2019","07","26","17:00","15.9","","15.0","","94","","","","30","","7","","6.4","","98.01","","","","","","Rain,Smoke"
"-111.96","60.02","FORT SMITH A","2202201","2019-07-26 18:00","2019","07","26","18:00","15.1","","13.8","","92","","","","32","","6","","6.4","","98.06","","","","","","Rain Showers,Smoke"
"-111.96","60.02","FORT SMITH A","2202201","2019-07-26 19:00","2019","07","26","19:00","15.3","","14.4","","94","","","","29","","5","","8.1","","98.09","","","","","","Smoke"
"-111.96","60.02","FORT SMITH A","2202201","2019-07-26 20:00","2019","07","26","20:00","15.8","","14.9","","94","","","","27","","6","","8.1","","98.13","","","","","","Smoke"
"-111.96","60.02","FORT SMITH A","2202201","2019-07-26 21:00","2019","07","26","21:00","15.4","","14.9","","96","","","","26","","7","","4.8","","98.16","","","","","","Smoke"
"-111.96","60.02","FORT SMITH A","2202201","2019-07-26 22:00","2019","07","26","22:00","15.5","","14.8","","96","","","","29","","9","","6.4","","98.18","","","","","","Smoke"
"-111.96","60.02","FORT SMITH A","2202201","2019-07-26 23:00","2019","07","26","23:00","14.8","","14.2","","96","","","","29","","5","","6.4","","98.19","","","","","","Smoke"
"-111.96","60.02","FORT SMITH A","2202201","2019-07-27 00:00","2019","07","27","00:00","14.8","","14.3","","97","","","","26","","8","","6.4","","98.22","","","","","","Smoke"
"-111.96","60.02","FORT SMITH A","2202201","2019-07-27 01:00","2019","07","27","01:00","14.6","","14.1","","96","","","","36","","3","","6.4","","98.23","","","","","","Smoke"
"-111.96","60.02","FORT SMITH A","2202201","2019-07-27 02:00","2019","07","27","02:00","14.2","","13.9","","98","","","","21","","8","","4.8","","98.25","","","","","","Fog"
"-111.96","60.02","FORT SMITH A","2202201","2019-07-27 03:00","2019","07","27","03:00","14.1","","13.8","","99","","","","22","","9","","0.8","","98.25","","","","","","Fog"
"-111.96","60.02","FORT SMITH A","2202201","2019-07-27 04:00","2019","07","27","04:00","13.8","","13.6","","99","","","","36","","3","","0.8","","98.25","","","","","","Rain,Fog"
"-111.96","60.02","FORT SMITH A","2202201","2019-07-27 05:00","2019","07","27","05:00","13.8","","13.7","","99","","","","27","","9","","1.2","","98.26","","","","","","Rain,Fog"
"-111.96","60.02","FORT SMITH A","2202201","2019-07-27 06:00","2019","07","27","06:00","13.2","","12.9","","98","","","","34","","10","","4.0","","98.28","","","","","","Rain,Fog"
"-111.96","60.02","FORT SMITH A","2202201","2019-07-27 07:00","2019","07","27","07:00","13.2","","13.0","","99","","","","30","","7","","1.2","","98.31","","","","","","Fog"
"-111.96","60.02","FORT SMITH A","2202201","2019-07-27 08:00","2019","07","27","08:00","13.5","","13.3","","99","","","","30","","10","","3.2","","98.35","","","","","","Drizzle,Fog"
"-111.96","60.02","FORT SMITH A","2202201","2019-07-27 09:00","2019","07","27","09:00","13.6","","13.3","","98","","","","36","","12","","2.8","","98.34","","","","","","Drizzle,Fog"
"-111.96","60.02","FORT SMITH A","2202201","2019-07-27 10:00","2019","07","27","10:00","14.7","","13.6","","93","","","","35","","10","","24.1","","98.38","","","","","","Rain"
"-111.96","60.02","FORT SMITH A","2202201","2019-07-27 11:00","2019","07","27","11:00","15.4","","13.8","","91","","","","34","","12","","24.1","","98.39","","","","","","Rain"
"-111.96","60.02","FORT SMITH A","2202201","2019-07-27 12:00","2019","07","27","12:00","15.7","","12.6","","82","","","","1","","13","","24.1","","98.40","","","","","","NA"
"-111.96","60.02","FORT SMITH A","2202201","2019-07-27 13:00","2019","07","27","13:00","15.2","","12.2","","82","","","","32","","13","","24.1","","98.44","","","","","","Rain"
"-111.96","60.02","FORT SMITH A","2202201","2019-07-27 14:00","2019","07","27","14:00","16.0","","12.1","","78","","","","35","","13","","24.1","","98.46","","","","","","Mostly Cloudy"
"-111.96","60.02","FORT SMITH A","2202201","2019-07-27 15:00","2019","07","27","15:00","16.2","","10.6","","69","","","","35","","20","","24.1","","98.50","","","","","","NA"
"-111.96","60.02","FORT SMITH A","2202201","2019-07-27 16:00","2019","07","27","16:00","15.7","","9.5","","66","","","","36","","14","","24.1","","98.54","","","","","","NA"
"-111.96","60.02","FORT SMITH A","2202201","2019-07-27 17:00","2019","07","27","17:00","16.5","","9.4","","63","","","","3","","16","","24.1","","98.56","","","","","","Mostly Cloudy"
"-111.96","60.02","FORT SMITH A","2202201","2019-07-27 18:00","2019","07","27","18:00","15.5","","7.2","","58","","","","35","","17","","24.1","","98.58","","","","","","NA"
"-111.96","60.02","FORT SMITH A","2202201","2019-07-27 19:00","2019","07","27","19:00","16.0","","6.7","","54","","","","35","","13","","24.1","","98.59","","","","","","NA"
"-111.96","60.02","FORT SMITH A","2202201","2019-07-27 20:00","2019","07","27","20:00","14.7","","6.3","","57","","","","35","","13","","24.1","","98.65","","","","","","Mainly Clear"
"-111.96","60.02","FORT SMITH A","2202201","2019-07-27 21:00","2019","07","27","21:00","12.7","","4.3","","56","","","","35","","11","","24.1","","98.73","","","","","","NA"
"-111.96","60.02","FORT SMITH A","2202201","2019-07-27 22:00","2019","07","27","22:00","11.0","","3.5","","60","","","","34","","9","","24.1","","98.76","","","","","","NA"
"-111.96","60.02","FORT SMITH A","2202201","2019-07-27 23:00","2019","07","27","23:00","9.8","","3.0","","63","","","","35","","10","","24.1","","98.79","","","","","","Mainly Clear"
"-111.96","60.02","FORT SMITH A","2202201","2019-07-28 00:00","2019","07","28","00:00","8.6","","2.9","","67","","","","34","","11","","24.1","","98.84","","","","","","NA"
"-111.96","60.02","FORT SMITH A","2202201","2019-07-28 01:00","2019","07","28","01:00","7.4","","3.3","","75","","","","32","","7","","24.1","","98.92","","","","","","NA"
"-111.96","60.02","FORT SMITH A","2202201","2019-07-28 02:00","2019","07","28","02:00","7.3","","3.7","","78","","","","2","","8","","24.1","","98.99","","","","","","Mainly Clear"
"-111.96","60.02","FORT SMITH A","2202201","2019-07-28 03:00","2019","07","28","03:00","6.5","","3.6","","82","","","","3","","7","","24.1","","99.03","","","","","","NA"
"-111.96","60.02","FORT SMITH A","2202201","2019-07-28 04:00","2019","07","28","04:00","6.4","","3.1","","80","","","","36","","3","","24.1","","99.10","","","","","","NA"
"-111.96","60.02","FORT SMITH A","2202201","2019-07-28 05:00","2019","07","28","05:00","4.3","","3.3","","93","","","","26","","3","","24.1","","99.13","","","","","","Mainly Clear"
"-111.96","60.02","FORT SMITH A","2202201","2019-07-28 06:00","2019","07","28","06:00","6.5","","4.4","","86","","","","29","","8","","24.1","","99.15","","","","","","NA"
"-111.96","60.02","FORT SMITH A","2202201","2019-07-28 07:00","2019","07","28","07:00","8.7","","4.0","","72","","","","30","","7","","24.1","","99.19","","","","","","NA"
"-111.96","60.02","FORT SMITH A","2202201","2019-07-28 08:00","2019","07","28","08:00","10.7","","1.3","","52","","","","30","","9","","24.1","","99.19","","","","","","Clear"
"-111.96","60.02","FORT SMITH A","2202201","2019-07-28 09:00","2019","07","28","09:00","12.2","","-0.7","","41","","","","35","","11","","24.1","","99.19","","","","","","NA"
"-111.96","60.02","FORT SMITH A","2202201","2019-07-28 10:00","2019","07","28","10:00","13.1","","0.9","","43","","","","29","","15","","24.1","","99.18","","","","","","NA"
"-111.96","60.02","FORT SMITH A","2202201","2019-07-28 11:00","2019","07","28","11:00","13.7","","-0.4","","37","","","","29","","10","","24.1","","99.16","","","","","","Clear"
"-111.96","60.02","FORT SMITH A","2202201","2019-07-28 12:00","2019","07","28","12:00","14.7","","-1.6","","32","","","","30","","9","","24.1","","99.14","","","","","","NA"
"-111.96","60.02","FORT SMITH A","2202201","2019-07-28 13:00","2019","07","28","13:00","15.7","","-1.5","","31","","","","30","","10","","24.1","","99.11","","","","","","NA"
"-111.96","60.02","FORT SMITH A","2202201","2019-07-28 14:00","2019","07","28","14:00","16.6","","-3.0","","26","","","","31","","5","","24.1","","99.09","","","","","","Clear"
"-111.96","60.02","FORT SMITH A","2202201","2019-07-28 15:00","2019","07","28","15:00","17.2","","-3.5","","24","","","","28","","10","","24.1","","99.05","","","","","","NA"
"-111.96","60.02","FORT SMITH A","2202201","2019-07-28 16:00","2019","07","28","16:00","17.7","","-1.8","","26","","","","25","","10","","24.1","","99.01","","","","","","NA"
"-111.96","60.02","FORT SMITH A","2202201","2019-07-28 17:00","2019","07","28","17:00","17.9","","-1.0","","27","","","","29","","7","","24.1","","98.98","","","","","","Mainly Clear"
"-111.96","60.02","FORT SMITH A","2202201","2019-07-28 18:00","2019","07","28","18:00","18.1","","-1.0","","27","","","","26","","4","","24.1","","98.92","","","","","","NA"
"-111.96","60.02","FORT SMITH A","2202201","2019-07-28 19:00","2019","07","28","19:00","17.0","","1.5","","35","","","","6","","5","","24.1","","98.88","","","","","","NA"
"-111.96","60.02","FORT SMITH A","2202201","2019-07-28 20:00","2019","07","28","20:00","16.5","","3.3","","41","","","","12","","6","","24.1","","98.88","","","","","","Mostly Cloudy"
"-111.96","60.02","FORT SMITH A","2202201","2019-07-28 21:00","2019","07","28","21:00","14.6","","4.8","","51","","","","14","","5","","24.1","","98.85","","","","","","NA"
"-111.96","60.02","FORT SMITH A","2202201","2019-07-28 22:00","2019","07","28","22:00","14.7","","2.4","","43","","","","13","","9","","24.1","","98.81","","","","","","NA"
"-111.96","60.02","FORT SMITH A","2202201","2019-07-28 23:00","2019","07","28","23:00","13.6","","2.7","","47","","","","14","","12","","24.1","","98.77","","","","","","Cloudy"
"-111.96","60.02","FORT SMITH A","2202201","2019-07-29 00:00","2019","07","29","00:00","13.5","","4.1","","52","","","","15","","12","","24.1","","98.72","","","","","","NA"
"-111.96","60.02","FORT SMITH A","2202201","2019-07-29 01:00","2019","07","29","01:00","12.9","","6.1","","63","","","","16","","12","","24.1","","98.70","","","","","","NA"
"-111.96","60.02","FORT SMITH A","2202201","2019-07-29 02:00","2019","07","29","02:00","12.5","","7.2","","70","","","","17","","13","","24.1","","98.65","","","","","","Mostly Cloudy"
"-111.96","60.02","FORT SMITH A","2202201","2019-07-29 03:00","2019","07","29","03:00","11.9","","7.1","","72","","","","16","","13","","24.1","","98.60","","","","","","NA"
"-111.96","60.02","FORT SMITH A","2202201","2019-07-29 04:00","2019","07","29","04:00","11.9","","7.1","","72","","","","17","","11","","24.1","","98.59","","","","","","Rain Showers"
"-111.96","60.02","FORT SMITH A","2202201","2019-07-29 05:00","2019","07","29","05:00","11.2","","8.1","","81","","","","17","","14","","24.1","","98.56","","","","","","Rain Showers"
"-111.96","60.02","FORT SMITH A","2202201","2019-07-29 06:00","2019","07","29","06:00","10.4","","8.1","","85","","","","7","","4","","24.1","","98.50","","","","","","Rain Showers"
"-111.96","60.02","FORT SMITH A","2202201","2019-07-29 07:00","2019","07","29","07:00","11.6","","8.3","","80","","","","17","","8","","24.1","","98.48","","","","","","NA"
"-111.96","60.02","FORT SMITH A","2202201","2019-07-29 08:00","2019","07","29","08:00","13.0","","9.6","","80","","","","13","","5","","24.1","","98.44","","","","","","Cloudy"
"-111.96","60.02","FORT SMITH A","2202201","2019-07-29 09:00","2019","07","29","09:00","13.2","","10.5","","84","","","","15","","9","","24.1","","98.43","","","","","","NA"
"-111.96","60.02","FORT SMITH A","2202201","2019-07-29 10:00","2019","07","29","10:00","13.4","","11.9","","90","","","","18","","9","","9.7","","98.45","","","","","","Moderate Rain Showers"
"-111.96","60.02","FORT SMITH A","2202201","2019-07-29 11:00","2019","07","29","11:00","13.6","","12.6","","93","","","","15","","8","","24.1","","98.36","","","","","","Rain Showers"
"-111.96","60.02","FORT SMITH A","2202201","2019-07-29 12:00","2019","07","29","12:00","17.3","","14.1","","81","","","","9","","6","","24.1","","98.31","","","","","","NA"
"-111.96","60.02","FORT SMITH A","2202201","2019-07-29 13:00","2019","07","29","13:00","19.5","","13.7","","69","","","","15","","10","","24.1","","98.27","","","","","","NA"
"-111.96","60.02","FORT SMITH A","2202201","2019-07-29 14:00","2019","07","29","14:00","21.1","","13.7","","62","","","","14","","10","","24.1","","98.24","","","","","","Mostly Cloudy"
"-111.96","60.02","FORT SMITH A","2202201","2019-07-29 15:00","2019","07","29","15:00","21.4","","11.8","","54","","","","14","","9","","24.1","","98.18","","","","","","NA"
"-111.96","60.02","FORT SMITH A","2202201","2019-07-29 16:00","2019","07","29","16:00","16.6","","9.5","","63","","","","21","","18","","24.1","","98.20","","","","","","Thunderstorms,Rain Showers"
"-111.96","60.02","FORT SMITH A","2202201","2019-07-29 17:00","2019","07","29","17:00","15.5","","10.9","","74","","","","17","","15","","24.1","","98.28","","","","","","Rain Showers"
"-111.96","60.02","FORT SMITH A","2202201","2019-07-29 18:00","2019","07","29","18:00","14.8","","12.1","","83","","","","17","","17","","24.1","","98.26","","","","","","NA"
"-111.96","60.02","FORT SMITH A","2202201","2019-07-29 19:00","2019","07","29","19:00","16.5","","11.9","","74","","","","17","","17","","24.1","","98.23","","","","","","NA"
"-111.96","60.02","FORT SMITH A","2202201","2019-07-29 20:00","2019","07","29","20:00","15.6","","12.3","","81","","","","20","","12","","24.1","","98.27","","","","","","Mostly Cloudy"
"-111.96","60.02","FORT SMITH A","2202201","2019-07-29 21:00","2019","07","29","21:00","15.1","","11.7","","80","","","","20","","13","","24.1","","98.27","","","","","","NA"
"-111.96","60.02","FORT SMITH A","2202201","2019-07-29 22:00","2019","07","29","22:00","14.4","","11.9","","85","","","","19","","9","","24.1","","98.27","","","","","","NA"
"-111.96","60.02","FORT SMITH A","2202201","2019-07-29 23:00","2019","07","29","23:00","12.5","","10.9","","90","","","","22","","9","","24.1","","98.28","","","","","","Mainly Clear"
"-111.96","60.02","FORT SMITH A","2202201","2019-07-30 00:00","2019","07","30","00:00","11.7","","10.6","","93","","","","17","","5","","24.1","","98.29","","","","","","NA"
"-111.96","60.02","FORT SMITH A","2202201","2019-07-30 01:00","2019","07","30","01:00","12.0","","10.7","","91","","","","18","","10","","24.1","","98.27","","","","","","NA"
"-111.96","60.02","FORT SMITH A","2202201","2019-07-30 02:00","2019","07","30","02:00","9.4","","8.6","","95","","","","36","","2","","24.1","","98.26","","","","","","Mainly Clear"
"-111.96","60.02","FORT SMITH A","2202201","2019-07-30 03:00","2019","07","30","03:00","8.9","","8.7","","98","","","","16","","5","","24.1","","98.28","","","","","","NA"
"-111.96","60.02","FORT SMITH A","2202201","2019-07-30 04:00","2019","07","30","04:00","9.3","","8.9","","97","","","","16","","7","","24.1","","98.29","","","","","","NA"
"-111.96","60.02","FORT SMITH A","2202201","2019-07-30 05:00","2019","07","30","05:00","9.4","","8.3","","93","","","","21","","8","","24.1","","98.31","","","","","","Mainly Clear"
"-111.96","60.02","FORT SMITH A","2202201","2019-07-30 06:00","2019","07","30","06:00","10.9","","8.5","","85","","","","21","","8","","24.1","","98.35","","","","","","NA"
"-111.96","60.02","FORT SMITH A","2202201","2019-07-30 07:00","2019","07","30","07:00","12.9","","8.8","","76","","","","20","","7","","24.1","","98.37","","","","","","NA"
"-111.96","60.02","FORT SMITH A","2202201","2019-07-30 08:00","2019","07","30","08:00","15.3","","8.1","","62","","","","30","","9","","24.1","","98.40","","","","","","Mainly Clear"
"-111.96","60.02","FORT SMITH A","2202201","2019-07-30 09:00","2019","07","30","09:00","16.8","","9.2","","60","","","","20","","3","","24.1","","98.43","","","","","","NA"
"-111.96","60.02","FORT SMITH A","2202201","2019-07-30 10:00","2019","07","30","10:00","19.2","","7.7","","47","","","","26","","7","","24.1","","98.41","","","","","","NA"
"-111.96","60.02","FORT SMITH A","2202201","2019-07-30 11:00","2019","07","30","11:00","20.3","","9.0","","48","","","","25","","10","","24.1","","98.41","","","","","","Mainly Clear"
"-111.96","60.02","FORT SMITH A","2202201","2019-07-30 12:00","2019","07","30","12:00","20.3","","6.8","","41","","","","25","","15","","24.1","","98.41","","","","","","NA"
"-111.96","60.02","FORT SMITH A","2202201","2019-07-30 13:00","2019","07","30","13:00","21.3","","5.8","","36","","","","26","","11","","24.1","","98.40","","","","","","NA"
"-111.96","60.02","FORT SMITH A","2202201","2019-07-30 14:00","2019","07","30","14:00","21.4","","4.8","","33","","","","25","","5","","24.1","","98.39","","","","","","Mostly Cloudy"
"-111.96","60.02","FORT SMITH A","2202201","2019-07-30 15:00","2019","07","30","15:00","17.6","","8.5","","55","","","","24","","10","","24.1","","98.47","","","","","","NA"
"-111.96","60.02","FORT SMITH A","2202201","2019-07-30 16:00","2019","07","30","16:00","19.7","","7.2","","44","","","","36","","2","","24.1","","98.48","","","","","","NA"
"-111.96","60.02","FORT SMITH A","2202201","2019-07-30 17:00","2019","07","30","17:00","19.0","","9.1","","52","","","","30","","14","","24.1","","98.54","","","","","","Mostly Cloudy"
"-111.96","60.02","FORT SMITH A","2202201","2019-07-30 18:00","2019","07","30","18:00","16.4","","9.0","","61","","","","23","","9","","16.1","","98.57","","","","","","Rain Showers"
"-111.96","60.02","FORT SMITH A","2202201","2019-07-30 19:00","2019","07","30","19:00","15.5","","9.6","","68","","","","18","","9","","24.1","","98.55","","","","","","NA"
"-111.96","60.02","FORT SMITH A","2202201","2019-07-30 20:00","2019","07","30","20:00","14.2","","9.9","","75","","","","21","","8","","24.1","","98.61","","","","","","Mostly Cloudy"
"-111.96","60.02","FORT SMITH A","2202201","2019-07-30 21:00","2019","07","30","21:00","13.3","","10.4","","82","","","","13","","3","","24.1","","98.66","","","","","","Rain Showers"
"-111.96","60.02","FORT SMITH A","2202201","2019-07-30 22:00","2019","07","30","22:00","11.8","","10.6","","92","","","","25","","4","","24.1","","98.72","","","","","","NA"
"-111.96","60.02","FORT SMITH A","2202201","2019-07-30 23:00","2019","07","30","23:00","10.2","","9.6","","96","","","","16","","4","","24.1","","98.76","","","","","","Clear"
"-111.96","60.02","FORT SMITH A","2202201","2019-07-31 00:00","2019","07","31","00:00","9.3","","8.8","","97","","","","26","","4","","24.1","","98.77","","","","","","NA"
"-111.96","60.02","FORT SMITH A","2202201","2019-07-31 01:00","2019","07","31","01:00","11.8","","10.5","","92","","","","31","","10","","24.1","","98.81","","","","","","NA"
"-111.96","60.02","FORT SMITH A","2202201","2019-07-31 02:00","2019","07","31","02:00","10.0","","9.4","","96","","","","24","","3","","24.1","","98.87","","","","","","Clear"
"-111.96","60.02","FORT SMITH A","2202201","2019-07-31 03:00","2019","07","31","03:00","9.4","","8.9","","97","","","","28","","7","","24.1","","98.92","","","","","","NA"
"-111.96","60.02","FORT SMITH A","2202201","2019-07-31 04:00","2019","07","31","04:00","9.6","","8.8","","95","","","","26","","7","","24.1","","98.96","","","","","","NA"
"-111.96","60.02","FORT SMITH A","2202201","2019-07-31 05:00","2019","07","31","05:00","7.6","","6.8","","95","","","","19","","4","","24.1","","99.03","","","","","","Mainly Clear"
"-111.96","60.02","FORT SMITH A","2202201","2019-07-31 06:00","2019","07","31","06:00","8.4","","8.0","","97","","","","16","","5","","24.1","","99.05","","","","","","NA"
"-111.96","60.02","FORT SMITH A","2202201","2019-07-31 07:00","2019","07","31","07:00","10.2","","9.2","","94","","","","22","","7","","24.1","","99.11","","","","","","NA"
"-111.96","60.02","FORT SMITH A","2202201","2019-07-31 08:00","2019","07","31","08:00","13.6","","11.6","","88","","","","29","","5","","24.1","","99.14","","","","","","Mostly Cloudy"
"-111.96","60.02","FORT SMITH A","2202201","2019-07-31 09:00","2019","07","31","09:00","14.9","","11.2","","78","","","","27","","5","","24.1","","99.15","","","","","","NA"
"-111.96","60.02","FORT SMITH A","2202201","2019-07-31 10:00","2019","07","31","10:00","17.3","","11.1","","66","","","","27","","8","","24.1","","99.19","","","","","","NA"
"-111.96","60.02","FORT SMITH A","2202201","2019-07-31 11:00","2019","07","31","11:00","19.3","","8.0","","48","","","","33","","8","","24.1","","99.20","","","","","","Mostly Cloudy"
"-111.96","60.02","FORT SMITH A","2202201","2019-07-31 12:00","2019","07","31","12:00","20.3","","6.2","","39","","","","30","","5","","24.1","","99.20","","","","","","NA"
"-111.96","60.02","FORT SMITH A","2202201","2019-07-31 13:00","2019","07","31","13:00","21.1","","6.5","","38","","","","27","","8","","24.1","","99.22","","","","","","NA"
"-111.96","60.02","FORT SMITH A","2202201","2019-07-31 14:00","2019","07","31","14:00","21.4","","6.6","","38","","","","2","","14","","24.1","","99.21","","","","","","Mostly Cloudy"
"-111.96","60.02","FORT SMITH A","2202201","2019-07-31 15:00","2019","07","31","15:00","22.2","","5.9","","34","","","","36","","3","","24.1","","99.23","","","","","","NA"
"-111.96","60.02","FORT SMITH A","2202201","2019-07-31 16:00","2019","07","31","16:00","21.3","","5.1","","34","","","","13","","4","","24.1","","99.22","","","","","","NA"
"-111.96","60.02","FORT SMITH A","2202201","2019-07-31 17:00","2019","07","31","17:00","21.8","","3.9","","31","","","","10","","4","","24.1","","99.19","","","","","","Mostly Cloudy"
"-111.96","60.02","FORT SMITH A","2202201","2019-07-31 18:00","2019","07","31","18:00","21.9","","5.1","","33","","","","6","","8","","24.1","","99.20","","","","","","NA"
"-111.96","60.02","FORT SMITH A","2202201","2019-07-31 19:00","2019","07","31","19:00","20.8","","6.2","","38","","","","36","","3","","19.3","","99.21","","","","","","NA"
"-111.96","60.02","FORT SMITH A","2202201","2019-07-31 20:00","2019","07","31","20:00","18.6","","10.7","","60","","","","","","0","","19.3","","99.22","","","","","","Mostly Cloudy"
"-111.96","60.02","FORT SMITH A","2202201","2019-07-31 21:00","2019","07","31","21:00","16.4","","8.9","","61","","","","19","","4","","19.3","","99.24","","","","","","NA"
"-111.96","60.02","FORT SMITH A","2202201","2019-07-31 22:00","2019","07","31","22:00","14.4","","10.2","","76","","","","36","","3","","19.3","","99.26","","","","","","NA"
"-111.96","60.02","FORT SMITH A","2202201","2019-07-31 23:00","2019","07","31","23:00","12.7","","9.5","","80","","","","36","","2","","19.3","","99.28","","","","","","Mostly Cloudy"
