"Longitude (x)","Latitude (y)","Station Name","Climate ID","Date/Time (LST)","Year","Month","Day","Time (LST)","Temp (°C)","Temp Flag","Dew Point Temp (°C)","Dew Point Temp Flag","Rel Hum (%)","Rel Hum Flag","Precip. Amount (mm)","Precip. Amount Flag","Wind Dir (10s deg)","Wind Dir Flag","Wind Spd (km/h)","Wind Spd Flag","Visibility (km)","Visibility Flag","Stn Press (kPa)","Stn Press Flag","Hmdx","Hmdx Flag","Wind Chill","Wind Chill Flag","Weather"
"-95.85","68.64","GJOA HAVEN CLIMATE","2302340","2018-02-01 00:00","2018","02","01","00:00","","M","","M","63","","0.0","","21","","2","","","","101.64","","","","","","NA"
"-95.85","68.64","GJOA HAVEN CLIMATE","2302340","2018-02-01 01:00","2018","02","01","01:00","","M","","M","63","","0.0","","21","","4","","","","101.60","","","","","","NA"
"-95.85","68.64","GJOA HAVEN CLIMATE","2302340","2018-02-01 02:00","2018","02","01","02:00","","M","","M","63","","0.0","","21","","1","","","","101.55","","","","","","NA"
"-95.85","68.64","GJOA HAVEN CLIMATE","2302340","2018-02-01 03:00","2018","02","01","03:00","","M","","M","63","","0.0","","36","","3","","","","101.50","","","","","","NA"
"-95.85","68.64","GJOA HAVEN CLIMATE","2302340","2018-02-01 04:00","2018","02","01","04:00","","M","","M","62","","0.0","","36","","2","","","","101.43","","","","","","NA"
"-95.85","68.64","GJOA HAVEN CLIMATE","2302340","2018-02-01 05:00","2018","02","01","05:00","","M","","M","64","","0.0","","36","","2","","","","101.35","","","","","","NA"
"-95.85","68.64","GJOA HAVEN CLIMATE","2302340","2018-02-01 06:00","2018","02","01","06:00","","M","","M","64","","0.0","","36","","2","","","","101.29","","","","","","NA"
"-95.85","68.64","GJOA HAVEN CLIMATE","2302340","2018-02-01 07:00","2018","02","01","07:00","","M","","M","65","","0.0","","32","","8","","","","101.21","","","","","","NA"
"-95.85","68.64","GJOA HAVEN CLIMATE","2302340","2018-02-01 08:00","2018","02","01","08:00","","M","","M","65","","0.0","","0","","1","","","","101.12","","","","","","NA"
"-95.85","68.64","GJOA HAVEN CLIMATE","2302340","2018-02-01 09:00","2018","02","01","09:00","","M","","M","65","","0.0","","0","","1","","","","101.05","","","","","","NA"
"-95.85","68.64","GJOA HAVEN CLIMATE","2302340","2018-02-01 10:00","2018","02","01","10:00","","M","","M","64","","0.0","","23","","3","","","","100.98","","","","","","NA"
"-95.85","68.64","GJOA HAVEN CLIMATE","2302340","2018-02-01 11:00","2018","02","01","11:00","","M","","M","64","","0.0","","27","","6","","","","100.92","","","","","","NA"
"-95.85","68.64","GJOA HAVEN CLIMATE","2302340","2018-02-01 12:00","2018","02","01","12:00","","M","","M","63","","0.0","","33","","11","","","","100.89","","","","","","NA"
"-95.85","68.64","GJOA HAVEN CLIMATE","2302340","2018-02-01 13:00","2018","02","01","13:00","","M","","M","63","","0.7","","34","","13","","","","100.84","","","","","","NA"
"-95.85","68.64","GJOA HAVEN CLIMATE","2302340","2018-02-01 14:00","2018","02","01","14:00","","M","","M","64","","0.0","","33","","14","","","","100.77","","","","","","NA"
"-95.85","68.64","GJOA HAVEN CLIMATE","2302340","2018-02-01 15:00","2018","02","01","15:00","","M","","M","63","","0.0","","33","","17","","","","100.76","","","","","","NA"
"-95.85","68.64","GJOA HAVEN CLIMATE","2302340","2018-02-01 16:00","2018","02","01","16:00","","M","","M","63","","0.0","","31","","13","","","","100.74","","","","","","NA"
"-95.85","68.64","GJOA HAVEN CLIMATE","2302340","2018-02-01 17:00","2018","02","01","17:00","","M","","M","63","","0.0","","32","","16","","","","100.70","","","","","","NA"
"-95.85","68.64","GJOA HAVEN CLIMATE","2302340","2018-02-01 18:00","2018","02","01","18:00","","M","","M","63","","0.0","","34","","1","","","","100.68","","","","","","NA"
"-95.85","68.64","GJOA HAVEN CLIMATE","2302340","2018-02-01 19:00","2018","02","01","19:00","","M","","M","64","","0.0","","16","","5","","","","100.63","","","","","","NA"
"-95.85","68.64","GJOA HAVEN CLIMATE","2302340","2018-02-01 20:00","2018","02","01","20:00","","M","","M","64","","0.0","","33","","11","","","","100.56","","","","","","NA"
"-95.85","68.64","GJOA HAVEN CLIMATE","2302340","2018-02-01 21:00","2018","02","01","21:00","","M","","M","64","","0.0","","28","","9","","","","100.56","","","","","","NA"
"-95.85","68.64","GJOA HAVEN CLIMATE","2302340","2018-02-01 22:00","2018","02","01","22:00","","M","","M","64","","0.2","","31","","6","","","","100.56","","","","","","NA"
"-95.85","68.64","GJOA HAVEN CLIMATE","2302340","2018-02-01 23:00","2018","02","01","23:00","","M","","M","63","","0.0","","30","","9","","","","100.52","","","","","","NA"
"-95.85","68.64","GJOA HAVEN CLIMATE","2302340","2018-02-02 00:00","2018","02","02","00:00","","M","","M","63","","0.0","","32","","11","","","","100.52","","","","","","NA"
"-95.85","68.64","GJOA HAVEN CLIMATE","2302340","2018-02-02 01:00","2018","02","02","01:00","","M","","M","62","","0.0","","31","","6","","","","100.50","","","","","","NA"
"-95.85","68.64","GJOA HAVEN CLIMATE","2302340","2018-02-02 02:00","2018","02","02","02:00","","M","","M","62","","0.0","","34","","2","","","","100.48","","","","","","NA"
"-95.85","68.64","GJOA HAVEN CLIMATE","2302340","2018-02-02 03:00","2018","02","02","03:00","","M","","M","62","","0.0","","25","","5","","","","100.49","","","","","","NA"
"-95.85","68.64","GJOA HAVEN CLIMATE","2302340","2018-02-02 04:00","2018","02","02","04:00","","M","","M","62","","0.0","","30","","7","","","","100.47","","","","","","NA"
"-95.85","68.64","GJOA HAVEN CLIMATE","2302340","2018-02-02 05:00","2018","02","02","05:00","","M","","M","62","","0.0","","33","","6","","","","100.43","","","","","","NA"
"-95.85","68.64","GJOA HAVEN CLIMATE","2302340","2018-02-02 06:00","2018","02","02","06:00","","M","","M","62","","0.0","","30","","9","","","","100.43","","","","","","NA"
"-95.85","68.64","GJOA HAVEN CLIMATE","2302340","2018-02-02 07:00","2018","02","02","07:00","","M","","M","62","","0.0","","27","","7","","","","100.41","","","","","","NA"
"-95.85","68.64","GJOA HAVEN CLIMATE","2302340","2018-02-02 08:00","2018","02","02","08:00","","M","","M","62","","0.0","","25","","7","","","","100.37","","","","","","NA"
"-95.85","68.64","GJOA HAVEN CLIMATE","2302340","2018-02-02 09:00","2018","02","02","09:00","","M","","M","62","","0.0","","30","","11","","","","100.38","","","","","","NA"
"-95.85","68.64","GJOA HAVEN CLIMATE","2302340","2018-02-02 10:00","2018","02","02","10:00","","M","","M","62","","0.0","","31","","10","","","","100.33","","","","","","NA"
"-95.85","68.64","GJOA HAVEN CLIMATE","2302340","2018-02-02 11:00","2018","02","02","11:00","","M","","M","63","","0.0","","30","","6","","","","100.33","","","","","","NA"
"-95.85","68.64","GJOA HAVEN CLIMATE","2302340","2018-02-02 12:00","2018","02","02","12:00","","M","","M","64","","0.2","","28","","9","","","","100.32","","","","","","NA"
"-95.85","68.64","GJOA HAVEN CLIMATE","2302340","2018-02-02 13:00","2018","02","02","13:00","","M","","M","64","","0.0","","30","","11","","","","100.29","","","","","","NA"
"-95.85","68.64","GJOA HAVEN CLIMATE","2302340","2018-02-02 14:00","2018","02","02","14:00","","M","","M","64","","0.0","","25","","7","","","","100.27","","","","","","NA"
"-95.85","68.64","GJOA HAVEN CLIMATE","2302340","2018-02-02 15:00","2018","02","02","15:00","","M","","M","64","","0.0","","25","","7","","","","100.24","","","","","","NA"
"-95.85","68.64","GJOA HAVEN CLIMATE","2302340","2018-02-02 16:00","2018","02","02","16:00","","M","","M","64","","0.0","","25","","7","","","","100.20","","","","","","NA"
"-95.85","68.64","GJOA HAVEN CLIMATE","2302340","2018-02-02 17:00","2018","02","02","17:00","","M","","M","65","","0.0","","29","","9","","","","100.12","","","","","","NA"
"-95.85","68.64","GJOA HAVEN CLIMATE","2302340","2018-02-02 18:00","2018","02","02","18:00","","M","","M","66","","0.0","","26","","5","","","","100.05","","","","","","NA"
"-95.85","68.64","GJOA HAVEN CLIMATE","2302340","2018-02-02 19:00","2018","02","02","19:00","","M","","M","66","","0.0","","25","","5","","","","99.97","","","","","","NA"
"-95.85","68.64","GJOA HAVEN CLIMATE","2302340","2018-02-02 20:00","2018","02","02","20:00","","M","","M","65","","0.0","","23","","3","","","","99.87","","","","","","NA"
"-95.85","68.64","GJOA HAVEN CLIMATE","2302340","2018-02-02 21:00","2018","02","02","21:00","","M","","M","66","","0.0","","26","","6","","","","99.79","","","","","","NA"
"-95.85","68.64","GJOA HAVEN CLIMATE","2302340","2018-02-02 22:00","2018","02","02","22:00","","M","","M","65","","0.0","","29","","5","","","","99.70","","","","","","NA"
"-95.85","68.64","GJOA HAVEN CLIMATE","2302340","2018-02-02 23:00","2018","02","02","23:00","","M","","M","66","","0.0","","32","","9","","","","99.64","","","","","","NA"
"-95.85","68.64","GJOA HAVEN CLIMATE","2302340","2018-02-03 00:00","2018","02","03","00:00","","M","","M","66","","0.0","","32","","10","","","","99.58","","","","","","NA"
"-95.85","68.64","GJOA HAVEN CLIMATE","2302340","2018-02-03 01:00","2018","02","03","01:00","","M","","M","65","","0.0","","33","","11","","","","99.54","","","","","","NA"
"-95.85","68.64","GJOA HAVEN CLIMATE","2302340","2018-02-03 02:00","2018","02","03","02:00","","M","","M","64","","0.0","","34","","12","","","","99.46","","","","","","NA"
"-95.85","68.64","GJOA HAVEN CLIMATE","2302340","2018-02-03 03:00","2018","02","03","03:00","","M","","M","64","","0.0","","34","","13","","","","99.43","","","","","","NA"
"-95.85","68.64","GJOA HAVEN CLIMATE","2302340","2018-02-03 04:00","2018","02","03","04:00","","M","","M","63","","0.0","","35","","13","","","","99.39","","","","","","NA"
"-95.85","68.64","GJOA HAVEN CLIMATE","2302340","2018-02-03 05:00","2018","02","03","05:00","","M","","M","64","","0.0","","35","","12","","","","99.32","","","","","","NA"
"-95.85","68.64","GJOA HAVEN CLIMATE","2302340","2018-02-03 06:00","2018","02","03","06:00","","M","","M","63","","0.0","","35","","13","","","","99.23","","","","","","NA"
"-95.85","68.64","GJOA HAVEN CLIMATE","2302340","2018-02-03 07:00","2018","02","03","07:00","","M","","M","63","","0.0","","35","","13","","","","99.15","","","","","","NA"
"-95.85","68.64","GJOA HAVEN CLIMATE","2302340","2018-02-03 08:00","2018","02","03","08:00","","M","","M","63","","0.0","","34","","13","","","","99.06","","","","","","NA"
"-95.85","68.64","GJOA HAVEN CLIMATE","2302340","2018-02-03 09:00","2018","02","03","09:00","","M","","M","64","","0.0","","3","","9","","","","98.98","","","","","","NA"
"-95.85","68.64","GJOA HAVEN CLIMATE","2302340","2018-02-03 10:00","2018","02","03","10:00","","M","","M","63","","0.0","","36","","3","","","","98.92","","","","","","NA"
"-95.85","68.64","GJOA HAVEN CLIMATE","2302340","2018-02-03 11:00","2018","02","03","11:00","","M","","M","63","","0.0","","3","","5","","","","98.78","","","","","","NA"
"-95.85","68.64","GJOA HAVEN CLIMATE","2302340","2018-02-03 12:00","2018","02","03","12:00","","M","","M","63","","0.0","","5","","4","","","","98.70","","","","","","NA"
"-95.85","68.64","GJOA HAVEN CLIMATE","2302340","2018-02-03 13:00","2018","02","03","13:00","","M","","M","63","","0.0","","7","","2","","","","98.65","","","","","","NA"
"-95.85","68.64","GJOA HAVEN CLIMATE","2302340","2018-02-03 14:00","2018","02","03","14:00","","M","","M","61","","0.0","","6","","6","","","","98.56","","","","","","NA"
"-95.85","68.64","GJOA HAVEN CLIMATE","2302340","2018-02-03 15:00","2018","02","03","15:00","","M","","M","61","","0.0","","6","","7","","","","98.52","","","","","","NA"
"-95.85","68.64","GJOA HAVEN CLIMATE","2302340","2018-02-03 16:00","2018","02","03","16:00","","M","","M","60","","0.0","","7","","9","","","","98.47","","","","","","NA"
"-95.85","68.64","GJOA HAVEN CLIMATE","2302340","2018-02-03 17:00","2018","02","03","17:00","","M","","M","61","","0.0","","7","","8","","","","98.45","","","","","","NA"
"-95.85","68.64","GJOA HAVEN CLIMATE","2302340","2018-02-03 18:00","2018","02","03","18:00","","M","","M","61","","0.0","","7","","9","","","","98.44","","","","","","NA"
"-95.85","68.64","GJOA HAVEN CLIMATE","2302340","2018-02-03 19:00","2018","02","03","19:00","","M","","M","60","","0.0","","6","","10","","","","98.46","","","","","","NA"
"-95.85","68.64","GJOA HAVEN CLIMATE","2302340","2018-02-03 20:00","2018","02","03","20:00","","M","","M","60","","0.5","","6","","10","","","","98.51","","","","","","NA"
"-95.85","68.64","GJOA HAVEN CLIMATE","2302340","2018-02-03 21:00","2018","02","03","21:00","","M","","M","60","","0.0","","6","","10","","","","98.56","","","","","","NA"
"-95.85","68.64","GJOA HAVEN CLIMATE","2302340","2018-02-03 22:00","2018","02","03","22:00","","M","","M","59","","0.0","","4","","10","","","","98.63","","","","","","NA"
"-95.85","68.64","GJOA HAVEN CLIMATE","2302340","2018-02-03 23:00","2018","02","03","23:00","","M","","M","59","","0.3","","5","","13","","","","98.67","","","","","","NA"
"-95.85","68.64","GJOA HAVEN CLIMATE","2302340","2018-02-04 00:00","2018","02","04","00:00","","M","","M","59","","0.0","","5","","11","","","","98.75","","","","","","NA"
"-95.85","68.64","GJOA HAVEN CLIMATE","2302340","2018-02-04 01:00","2018","02","04","01:00","","M","","M","60","","0.0","","3","","10","","","","98.84","","","","","","NA"
"-95.85","68.64","GJOA HAVEN CLIMATE","2302340","2018-02-04 02:00","2018","02","04","02:00","","M","","M","59","","0.0","","3","","11","","","","98.91","","","","","","NA"
"-95.85","68.64","GJOA HAVEN CLIMATE","2302340","2018-02-04 03:00","2018","02","04","03:00","","M","","M","60","","0.0","","3","","12","","","","98.96","","","","","","NA"
"-95.85","68.64","GJOA HAVEN CLIMATE","2302340","2018-02-04 04:00","2018","02","04","04:00","","M","","M","59","","0.0","","36","","13","","","","99.02","","","","","","NA"
"-95.85","68.64","GJOA HAVEN CLIMATE","2302340","2018-02-04 05:00","2018","02","04","05:00","","M","","M","61","","0.0","","34","","12","","","","99.07","","","","","","NA"
"-95.85","68.64","GJOA HAVEN CLIMATE","2302340","2018-02-04 06:00","2018","02","04","06:00","","M","","M","61","","0.2","","34","","11","","","","99.09","","","","","","NA"
"-95.85","68.64","GJOA HAVEN CLIMATE","2302340","2018-02-04 07:00","2018","02","04","07:00","","M","","M","59","","0.0","","34","","12","","","","99.11","","","","","","NA"
"-95.85","68.64","GJOA HAVEN CLIMATE","2302340","2018-02-04 08:00","2018","02","04","08:00","","M","","M","60","","0.0","","29","","7","","","","99.17","","","","","","NA"
"-95.85","68.64","GJOA HAVEN CLIMATE","2302340","2018-02-04 09:00","2018","02","04","09:00","","M","","M","60","","0.0","","31","","11","","","","99.18","","","","","","NA"
"-95.85","68.64","GJOA HAVEN CLIMATE","2302340","2018-02-04 10:00","2018","02","04","10:00","","M","","M","60","","0.0","","31","","11","","","","99.16","","","","","","NA"
"-95.85","68.64","GJOA HAVEN CLIMATE","2302340","2018-02-04 11:00","2018","02","04","11:00","","M","","M","61","","0.0","","29","","11","","","","99.15","","","","","","NA"
"-95.85","68.64","GJOA HAVEN CLIMATE","2302340","2018-02-04 12:00","2018","02","04","12:00","","M","","M","62","","0.0","","30","","11","","","","99.16","","","","","","NA"
"-95.85","68.64","GJOA HAVEN CLIMATE","2302340","2018-02-04 13:00","2018","02","04","13:00","","M","","M","63","","0.0","","30","","11","","","","99.18","","","","","","NA"
"-95.85","68.64","GJOA HAVEN CLIMATE","2302340","2018-02-04 14:00","2018","02","04","14:00","","M","","M","63","","0.0","","24","","6","","","","99.19","","","","","","NA"
"-95.85","68.64","GJOA HAVEN CLIMATE","2302340","2018-02-04 15:00","2018","02","04","15:00","","M","","M","63","","0.0","","24","","7","","","","99.19","","","","","","NA"
"-95.85","68.64","GJOA HAVEN CLIMATE","2302340","2018-02-04 16:00","2018","02","04","16:00","","M","","M","63","","0.0","","25","","7","","","","99.18","","","","","","NA"
"-95.85","68.64","GJOA HAVEN CLIMATE","2302340","2018-02-04 17:00","2018","02","04","17:00","","M","","M","64","","0.0","","21","","5","","","","99.12","","","","","","NA"
"-95.85","68.64","GJOA HAVEN CLIMATE","2302340","2018-02-04 18:00","2018","02","04","18:00","","M","","M","66","","0.0","","25","","9","","","","99.08","","","","","","NA"
"-95.85","68.64","GJOA HAVEN CLIMATE","2302340","2018-02-04 19:00","2018","02","04","19:00","","M","","M","67","","0.0","","24","","9","","","","99.04","","","","","","NA"
"-95.85","68.64","GJOA HAVEN CLIMATE","2302340","2018-02-04 20:00","2018","02","04","20:00","","M","","M","68","","0.0","","21","","6","","","","99.02","","","","","","NA"
"-95.85","68.64","GJOA HAVEN CLIMATE","2302340","2018-02-04 21:00","2018","02","04","21:00","","M","","M","69","","0.2","","19","","3","","","","98.99","","","","","","NA"
"-95.85","68.64","GJOA HAVEN CLIMATE","2302340","2018-02-04 22:00","2018","02","04","22:00","","M","","M","69","","0.2","","22","","6","","","","99.00","","","","","","NA"
"-95.85","68.64","GJOA HAVEN CLIMATE","2302340","2018-02-04 23:00","2018","02","04","23:00","","M","","M","69","","0.0","","16","","3","","","","99.00","","","","","","NA"
"-95.85","68.64","GJOA HAVEN CLIMATE","2302340","2018-02-05 00:00","2018","02","05","00:00","","M","","M","70","","0.0","","18","","4","","","","98.98","","","","","","NA"
"-95.85","68.64","GJOA HAVEN CLIMATE","2302340","2018-02-05 01:00","2018","02","05","01:00","","M","","M","70","","0.2","","15","","3","","","","99.01","","","","","","NA"
"-95.85","68.64","GJOA HAVEN CLIMATE","2302340","2018-02-05 02:00","2018","02","05","02:00","","M","","M","70","","0.0","","16","","3","","","","99.04","","","","","","NA"
"-95.85","68.64","GJOA HAVEN CLIMATE","2302340","2018-02-05 03:00","2018","02","05","03:00","","M","","M","70","","0.0","","","","0","","","","99.04","","","","","","NA"
"-95.85","68.64","GJOA HAVEN CLIMATE","2302340","2018-02-05 04:00","2018","02","05","04:00","","M","","M","70","","0.0","","","","0","","","","99.10","","","","","","NA"
"-95.85","68.64","GJOA HAVEN CLIMATE","2302340","2018-02-05 05:00","2018","02","05","05:00","","M","","M","67","","0.0","","8","","6","","","","99.14","","","","","","NA"
"-95.85","68.64","GJOA HAVEN CLIMATE","2302340","2018-02-05 06:00","2018","02","05","06:00","","M","","M","67","","0.0","","8","","9","","","","99.18","","","","","","NA"
"-95.85","68.64","GJOA HAVEN CLIMATE","2302340","2018-02-05 07:00","2018","02","05","07:00","","M","","M","67","","0.0","","8","","9","","","","99.26","","","","","","NA"
"-95.85","68.64","GJOA HAVEN CLIMATE","2302340","2018-02-05 08:00","2018","02","05","08:00","","M","","M","67","","0.0","","7","","7","","","","99.31","","","","","","NA"
"-95.85","68.64","GJOA HAVEN CLIMATE","2302340","2018-02-05 09:00","2018","02","05","09:00","","M","","M","67","","0.0","","6","","10","","","","99.35","","","","","","NA"
"-95.85","68.64","GJOA HAVEN CLIMATE","2302340","2018-02-05 10:00","2018","02","05","10:00","","M","","M","67","","0.0","","8","","12","","","","99.41","","","","","","NA"
"-95.85","68.64","GJOA HAVEN CLIMATE","2302340","2018-02-05 11:00","2018","02","05","11:00","","M","","M","67","","0.0","","8","","12","","","","99.45","","","","","","NA"
"-95.85","68.64","GJOA HAVEN CLIMATE","2302340","2018-02-05 12:00","2018","02","05","12:00","","M","","M","67","","0.0","","8","","12","","","","99.50","","","","","","NA"
"-95.85","68.64","GJOA HAVEN CLIMATE","2302340","2018-02-05 13:00","2018","02","05","13:00","","M","","M","66","","0.0","","7","","13","","","","99.58","","","","","","NA"
"-95.85","68.64","GJOA HAVEN CLIMATE","2302340","2018-02-05 14:00","2018","02","05","14:00","","M","","M","65","","0.0","","8","","15","","","","99.65","","","","","","NA"
"-95.85","68.64","GJOA HAVEN CLIMATE","2302340","2018-02-05 15:00","2018","02","05","15:00","","M","","M","64","","0.0","","7","","14","","","","99.71","","","","","","NA"
"-95.85","68.64","GJOA HAVEN CLIMATE","2302340","2018-02-05 16:00","2018","02","05","16:00"
"-95.85","68.64","GJOA HAVEN CLIMATE","2302340","2018-02-05 17:00","2018","02","05","17:00"
"-95.85","68.64","GJOA HAVEN CLIMATE","2302340","2018-02-05 18:00","2018","02","05","18:00","","M","","M","62","","0.2","","7","","13","","","","99.94","","","","","","NA"
"-95.85","68.64","GJOA HAVEN CLIMATE","2302340","2018-02-05 19:00","2018","02","05","19:00","","M","","M","62","","0.0","","7","","12","","","","99.98","","","","","","NA"
"-95.85","68.64","GJOA HAVEN CLIMATE","2302340","2018-02-05 20:00","2018","02","05","20:00","","M","","M","61","","0.0","","6","","11","","","","100.02","","","","","","NA"
"-95.85","68.64","GJOA HAVEN CLIMATE","2302340","2018-02-05 21:00","2018","02","05","21:00","","M","","M","62","","0.0","","5","","10","","","","100.11","","","","","","NA"
"-95.85","68.64","GJOA HAVEN CLIMATE","2302340","2018-02-05 22:00","2018","02","05","22:00","","M","","M","62","","0.0","","6","","13","","","","100.13","","","","","","NA"
"-95.85","68.64","GJOA HAVEN CLIMATE","2302340","2018-02-05 23:00","2018","02","05","23:00","","M","","M","62","","0.0","","5","","13","","","","100.17","","","","","","NA"
"-95.85","68.64","GJOA HAVEN CLIMATE","2302340","2018-02-06 00:00","2018","02","06","00:00","","M","","M","62","","0.0","","5","","13","","","","100.22","","","","","","NA"
"-95.85","68.64","GJOA HAVEN CLIMATE","2302340","2018-02-06 01:00","2018","02","06","01:00","","M","","M","62","","0.0","","5","","13","","","","100.29","","","","","","NA"
"-95.85","68.64","GJOA HAVEN CLIMATE","2302340","2018-02-06 02:00","2018","02","06","02:00","","M","","M","62","","0.0","","5","","14","","","","100.32","","","","","","NA"
"-95.85","68.64","GJOA HAVEN CLIMATE","2302340","2018-02-06 03:00","2018","02","06","03:00","","M","","M","63","","0.0","","4","","13","","","","100.35","","","","","","NA"
"-95.85","68.64","GJOA HAVEN CLIMATE","2302340","2018-02-06 04:00","2018","02","06","04:00","","M","","M","63","","0.0","","4","","14","","","","100.41","","","","","","NA"
"-95.85","68.64","GJOA HAVEN CLIMATE","2302340","2018-02-06 05:00","2018","02","06","05:00","","M","","M","63","","0.0","","3","","14","","","","100.42","","","","","","NA"
"-95.85","68.64","GJOA HAVEN CLIMATE","2302340","2018-02-06 06:00","2018","02","06","06:00","","M","","M","63","","0.0","","3","","13","","","","100.47","","","","","","NA"
"-95.85","68.64","GJOA HAVEN CLIMATE","2302340","2018-02-06 07:00","2018","02","06","07:00","","M","","M","62","","0.0","","3","","14","","","","100.45","","","","","","NA"
"-95.85","68.64","GJOA HAVEN CLIMATE","2302340","2018-02-06 08:00","2018","02","06","08:00","","M","","M","63","","0.0","","4","","13","","","","100.43","","","","","","NA"
"-95.85","68.64","GJOA HAVEN CLIMATE","2302340","2018-02-06 09:00","2018","02","06","09:00","","M","","M","61","","0.0","","1","","13","","","","100.42","","","","","","NA"
"-95.85","68.64","GJOA HAVEN CLIMATE","2302340","2018-02-06 10:00","2018","02","06","10:00","","M","","M","61","","0.0","","1","","14","","","","100.40","","","","","","NA"
"-95.85","68.64","GJOA HAVEN CLIMATE","2302340","2018-02-06 11:00","2018","02","06","11:00","","M","","M","62","","0.0","","36","","15","","","","100.41","","","","","","NA"
"-95.85","68.64","GJOA HAVEN CLIMATE","2302340","2018-02-06 12:00","2018","02","06","12:00","","M","","M","63","","0.0","","35","","15","","","","100.42","","","","","","NA"
"-95.85","68.64","GJOA HAVEN CLIMATE","2302340","2018-02-06 13:00","2018","02","06","13:00","","M","","M","63","","0.0","","36","","14","","","","100.40","","","","","","NA"
"-95.85","68.64","GJOA HAVEN CLIMATE","2302340","2018-02-06 14:00","2018","02","06","14:00","","M","","M","62","","0.2","","34","","17","","","","100.37","","","","","","NA"
"-95.85","68.64","GJOA HAVEN CLIMATE","2302340","2018-02-06 15:00","2018","02","06","15:00","","M","","M","62","","0.0","","35","","14","","","","100.35","","","","","","NA"
"-95.85","68.64","GJOA HAVEN CLIMATE","2302340","2018-02-06 16:00","2018","02","06","16:00","","M","","M","61","","0.0","","33","","17","","","","100.34","","","","","","NA"
"-95.85","68.64","GJOA HAVEN CLIMATE","2302340","2018-02-06 17:00","2018","02","06","17:00","","M","","M","63","","0.0","","34","","20","","","","100.32","","","","","","NA"
"-95.85","68.64","GJOA HAVEN CLIMATE","2302340","2018-02-06 18:00","2018","02","06","18:00","","M","","M","63","","0.0","","34","","21","","","","100.23","","","","","","NA"
"-95.85","68.64","GJOA HAVEN CLIMATE","2302340","2018-02-06 19:00","2018","02","06","19:00","","M","","M","63","","0.0","","35","","16","","","","100.23","","","","","","NA"
"-95.85","68.64","GJOA HAVEN CLIMATE","2302340","2018-02-06 20:00","2018","02","06","20:00","","M","","M","63","","0.0","","35","","20","","","","100.23","","","","","","NA"
"-95.85","68.64","GJOA HAVEN CLIMATE","2302340","2018-02-06 21:00","2018","02","06","21:00","","M","","M","63","","0.0","","35","","22","","","","100.19","","","","","","NA"
"-95.85","68.64","GJOA HAVEN CLIMATE","2302340","2018-02-06 22:00","2018","02","06","22:00","","M","","M","63","","0.0","","35","","18","","","","100.19","","","","","","NA"
"-95.85","68.64","GJOA HAVEN CLIMATE","2302340","2018-02-06 23:00","2018","02","06","23:00","","M","","M","62","","0.0","","35","","19","","","","100.22","","","","","","NA"
"-95.85","68.64","GJOA HAVEN CLIMATE","2302340","2018-02-07 00:00","2018","02","07","00:00","","M","","M","62","","0.0","","34","","20","","","","100.24","","","","","","NA"
"-95.85","68.64","GJOA HAVEN CLIMATE","2302340","2018-02-07 01:00","2018","02","07","01:00","","M","","M","63","","0.0","","33","","18","","","","100.24","","","","","","NA"
"-95.85","68.64","GJOA HAVEN CLIMATE","2302340","2018-02-07 02:00","2018","02","07","02:00","","M","","M","62","","0.0","","33","","20","","","","100.26","","","","","","NA"
"-95.85","68.64","GJOA HAVEN CLIMATE","2302340","2018-02-07 03:00","2018","02","07","03:00","","M","","M","62","","0.0","","33","","20","","","","100.25","","","","","","NA"
"-95.85","68.64","GJOA HAVEN CLIMATE","2302340","2018-02-07 04:00","2018","02","07","04:00","","M","","M","62","","0.0","","33","","21","","","","100.22","","","","","","NA"
"-95.85","68.64","GJOA HAVEN CLIMATE","2302340","2018-02-07 05:00","2018","02","07","05:00","","M","","M","63","","0.0","","34","","23","","","","100.20","","","","","","NA"
"-95.85","68.64","GJOA HAVEN CLIMATE","2302340","2018-02-07 06:00","2018","02","07","06:00","","M","","M","63","","0.0","","34","","23","","","","100.21","","","","","","NA"
"-95.85","68.64","GJOA HAVEN CLIMATE","2302340","2018-02-07 07:00","2018","02","07","07:00","","M","","M","62","","0.0","","32","","18","","","","100.24","","","","","","NA"
"-95.85","68.64","GJOA HAVEN CLIMATE","2302340","2018-02-07 08:00","2018","02","07","08:00","","M","","M","61","","0.0","","33","","19","","","","100.25","","","","","","NA"
"-95.85","68.64","GJOA HAVEN CLIMATE","2302340","2018-02-07 09:00","2018","02","07","09:00","","M","","M","61","","0.0","","33","","18","","","","100.23","","","","","","NA"
"-95.85","68.64","GJOA HAVEN CLIMATE","2302340","2018-02-07 10:00","2018","02","07","10:00","","M","","M","61","","0.0","","32","","17","","","","100.23","","","","","","NA"
"-95.85","68.64","GJOA HAVEN CLIMATE","2302340","2018-02-07 11:00","2018","02","07","11:00","","M","","M","61","","0.0","","31","","15","","","","100.24","","","","","","NA"
"-95.85","68.64","GJOA HAVEN CLIMATE","2302340","2018-02-07 12:00","2018","02","07","12:00","","M","","M","61","","0.0","","30","","14","","","","100.23","","","","","","NA"
"-95.85","68.64","GJOA HAVEN CLIMATE","2302340","2018-02-07 13:00","2018","02","07","13:00","","M","","M","62","","0.0","","30","","15","","","","100.22","","","","","","NA"
"-95.85","68.64","GJOA HAVEN CLIMATE","2302340","2018-02-07 14:00","2018","02","07","14:00","","M","","M","62","","0.0","","31","","15","","","","100.24","","","","","","NA"
"-95.85","68.64","GJOA HAVEN CLIMATE","2302340","2018-02-07 15:00","2018","02","07","15:00","","M","","M","62","","0.0","","26","","9","","","","100.26","","","","","","NA"
"-95.85","68.64","GJOA HAVEN CLIMATE","2302340","2018-02-07 16:00","2018","02","07","16:00","","M","","M","63","","0.0","","25","","9","","","","100.25","","","","","","NA"
"-95.85","68.64","GJOA HAVEN CLIMATE","2302340","2018-02-07 17:00","2018","02","07","17:00","","M","","M","64","","0.0","","27","","10","","","","100.22","","","","","","NA"
"-95.85","68.64","GJOA HAVEN CLIMATE","2302340","2018-02-07 18:00","2018","02","07","18:00","","M","","M","65","","0.0","","29","","7","","","","100.19","","","","","","NA"
"-95.85","68.64","GJOA HAVEN CLIMATE","2302340","2018-02-07 19:00","2018","02","07","19:00","","M","","M","67","","0.0","","25","","4","","","","100.19","","","","","","NA"
"-95.85","68.64","GJOA HAVEN CLIMATE","2302340","2018-02-07 20:00","2018","02","07","20:00","","M","","M","68","","0.0","","30","","11","","","","100.15","","","","","","NA"
"-95.85","68.64","GJOA HAVEN CLIMATE","2302340","2018-02-07 21:00","2018","02","07","21:00","","M","","M","70","","0.0","","31","","12","","","","100.08","","","","","","NA"
"-95.85","68.64","GJOA HAVEN CLIMATE","2302340","2018-02-07 22:00","2018","02","07","22:00","","M","","M","71","","0.0","","31","","14","","","","100.03","","","","","","NA"
"-95.85","68.64","GJOA HAVEN CLIMATE","2302340","2018-02-07 23:00","2018","02","07","23:00","","M","","M","72","","0.0","","32","","15","","","","100.01","","","","","","NA"
"-95.85","68.64","GJOA HAVEN CLIMATE","2302340","2018-02-08 00:00","2018","02","08","00:00","","M","","M","72","","0.0","","30","","10","","","","100.01","","","","","","NA"
"-95.85","68.64","GJOA HAVEN CLIMATE","2302340","2018-02-08 01:00","2018","02","08","01:00","","M","","M","73","","0.0","","30","","9","","","","99.94","","","","","","NA"
"-95.85","68.64","GJOA HAVEN CLIMATE","2302340","2018-02-08 02:00","2018","02","08","02:00","","M","","M","73","","0.0","","31","","11","","","","99.89","","","","","","NA"
"-95.85","68.64","GJOA HAVEN CLIMATE","2302340","2018-02-08 03:00","2018","02","08","03:00","","M","","M","72","","0.0","","32","","13","","","","99.87","","","","","","NA"
"-95.85","68.64","GJOA HAVEN CLIMATE","2302340","2018-02-08 04:00","2018","02","08","04:00","","M","","M","72","","0.0","","28","","5","","","","99.83","","","","","","NA"
"-95.85","68.64","GJOA HAVEN CLIMATE","2302340","2018-02-08 05:00","2018","02","08","05:00","","M","","M","72","","0.0","","27","","5","","","","99.75","","","","","","NA"
"-95.85","68.64","GJOA HAVEN CLIMATE","2302340","2018-02-08 06:00","2018","02","08","06:00","","M","","M","73","","0.0","","29","","8","","","","99.64","","","","","","NA"
"-95.85","68.64","GJOA HAVEN CLIMATE","2302340","2018-02-08 07:00","2018","02","08","07:00","","M","","M","75","","0.3","","27","","9","","","","99.51","","","","","","NA"
"-95.85","68.64","GJOA HAVEN CLIMATE","2302340","2018-02-08 08:00","2018","02","08","08:00","","M","","M","75","","0.0","","23","","5","","","","99.37","","","","","","NA"
"-95.85","68.64","GJOA HAVEN CLIMATE","2302340","2018-02-08 09:00","2018","02","08","09:00","","M","","M","77","","0.2","","22","","7","","","","99.24","","","","","","NA"
"-95.85","68.64","GJOA HAVEN CLIMATE","2302340","2018-02-08 10:00","2018","02","08","10:00","","M","","M","78","","0.0","","23","","7","","","","99.07","","","","","","NA"
"-95.85","68.64","GJOA HAVEN CLIMATE","2302340","2018-02-08 11:00","2018","02","08","11:00","","M","","M","79","","0.0","","22","","6","","","","98.92","","","","","","NA"
"-95.85","68.64","GJOA HAVEN CLIMATE","2302340","2018-02-08 12:00","2018","02","08","12:00","","M","","M","80","","0.2","","18","","3","","","","98.79","","","","","","NA"
"-95.85","68.64","GJOA HAVEN CLIMATE","2302340","2018-02-08 13:00","2018","02","08","13:00","","M","","M","81","","0.0","","18","","3","","","","98.70","","","","","","NA"
"-95.85","68.64","GJOA HAVEN CLIMATE","2302340","2018-02-08 14:00","2018","02","08","14:00","","M","","M","81","","0.0","","20","","1","","","","98.63","","","","","","NA"
"-95.85","68.64","GJOA HAVEN CLIMATE","2302340","2018-02-08 15:00","2018","02","08","15:00","","M","","M","81","","0.0","","34","","13","","","","98.58","","","","","","NA"
"-95.85","68.64","GJOA HAVEN CLIMATE","2302340","2018-02-08 16:00","2018","02","08","16:00","","M","","M","80","","0.0","","1","","11","","","","98.53","","","","","","NA"
"-95.85","68.64","GJOA HAVEN CLIMATE","2302340","2018-02-08 17:00","2018","02","08","17:00","","M","","M","79","","0.0","","5","","8","","","","98.56","","","","","","NA"
"-95.85","68.64","GJOA HAVEN CLIMATE","2302340","2018-02-08 18:00","2018","02","08","18:00","","M","","M","77","","0.0","","5","","14","","","","98.59","","","","","","NA"
"-95.85","68.64","GJOA HAVEN CLIMATE","2302340","2018-02-08 19:00","2018","02","08","19:00","","M","","M","73","","0.0","","5","","18","","","","98.70","","","","","","NA"
"-95.85","68.64","GJOA HAVEN CLIMATE","2302340","2018-02-08 20:00","2018","02","08","20:00","","M","","M","71","","0.0","","5","","19","","","","98.81","","","","","","NA"
"-95.85","68.64","GJOA HAVEN CLIMATE","2302340","2018-02-08 21:00","2018","02","08","21:00","","M","","M","69","","0.0","","5","","20","","","","98.93","","","","","","NA"
"-95.85","68.64","GJOA HAVEN CLIMATE","2302340","2018-02-08 22:00","2018","02","08","22:00","","M","","M","68","","0.0","","5","","20","","","","99.03","","","","","","NA"
"-95.85","68.64","GJOA HAVEN CLIMATE","2302340","2018-02-08 23:00","2018","02","08","23:00","","M","","M","68","","0.0","","5","","19","","","","99.15","","","","","","NA"
"-95.85","68.64","GJOA HAVEN CLIMATE","2302340","2018-02-09 00:00","2018","02","09","00:00","","M","","M","67","","0.0","","5","","20","","","","99.29","","","","","","NA"
"-95.85","68.64","GJOA HAVEN CLIMATE","2302340","2018-02-09 01:00","2018","02","09","01:00","","M","","M","67","","0.0","","5","","21","","","","99.38","","","","","","NA"
"-95.85","68.64","GJOA HAVEN CLIMATE","2302340","2018-02-09 02:00","2018","02","09","02:00","","M","","M","67","","0.0","","4","","17","","","","99.50","","","","","","NA"
"-95.85","68.64","GJOA HAVEN CLIMATE","2302340","2018-02-09 03:00","2018","02","09","03:00","","M","","M","66","","0.0","","4","","16","","","","99.58","","","","","","NA"
"-95.85","68.64","GJOA HAVEN CLIMATE","2302340","2018-02-09 04:00","2018","02","09","04:00","","M","","M","66","","0.0","","4","","19","","","","99.67","","","","","","NA"
"-95.85","68.64","GJOA HAVEN CLIMATE","2302340","2018-02-09 05:00","2018","02","09","05:00","","M","","M","66","","0.0","","4","","19","","","","99.77","","","","","","NA"
"-95.85","68.64","GJOA HAVEN CLIMATE","2302340","2018-02-09 06:00","2018","02","09","06:00","","M","","M","66","","0.0","","4","","18","","","","99.74","","","","","","NA"
"-95.85","68.64","GJOA HAVEN CLIMATE","2302340","2018-02-09 07:00","2018","02","09","07:00","","M","","M","66","","0.0","","4","","18","","","","99.76","","","","","","NA"
"-95.85","68.64","GJOA HAVEN CLIMATE","2302340","2018-02-09 08:00","2018","02","09","08:00","","M","","M","66","","0.0","","4","","12","","","","99.85","","","","","","NA"
"-95.85","68.64","GJOA HAVEN CLIMATE","2302340","2018-02-09 09:00","2018","02","09","09:00","","M","","M","66","","0.0","","4","","12","","","","99.88","","","","","","NA"
"-95.85","68.64","GJOA HAVEN CLIMATE","2302340","2018-02-09 10:00","2018","02","09","10:00","","M","","M","66","","0.0","","4","","10","","","","99.88","","","","","","NA"
"-95.85","68.64","GJOA HAVEN CLIMATE","2302340","2018-02-09 11:00","2018","02","09","11:00","","M","","M","65","","0.0","","3","","11","","","","99.87","","","","","","NA"
"-95.85","68.64","GJOA HAVEN CLIMATE","2302340","2018-02-09 12:00","2018","02","09","12:00","","M","","M","66","","0.0","","2","","12","","","","99.91","","","","","","NA"
"-95.85","68.64","GJOA HAVEN CLIMATE","2302340","2018-02-09 13:00","2018","02","09","13:00","","M","","M","66","","0.0","","2","","9","","","","99.94","","","","","","NA"
"-95.85","68.64","GJOA HAVEN CLIMATE","2302340","2018-02-09 14:00","2018","02","09","14:00","","M","","M","65","","0.0","","2","","8","","","","99.93","","","","","","NA"
"-95.85","68.64","GJOA HAVEN CLIMATE","2302340","2018-02-09 15:00","2018","02","09","15:00","","M","","M","65","","0.0","","1","","9","","","","99.97","","","","","","NA"
"-95.85","68.64","GJOA HAVEN CLIMATE","2302340","2018-02-09 16:00","2018","02","09","16:00","","M","","M","65","","0.0","","1","","9","","","","99.94","","","","","","NA"
"-95.85","68.64","GJOA HAVEN CLIMATE","2302340","2018-02-09 17:00","2018","02","09","17:00","","M","","M","64","","0.0","","1","","9","","","","99.95","","","","","","NA"
"-95.85","68.64","GJOA HAVEN CLIMATE","2302340","2018-02-09 18:00","2018","02","09","18:00","","M","","M","65","","0.0","","36","","10","","","","99.95","","","","","","NA"
"-95.85","68.64","GJOA HAVEN CLIMATE","2302340","2018-02-09 19:00","2018","02","09","19:00","","M","","M","65","","0.0","","34","","12","","","","99.95","","","","","","NA"
"-95.85","68.64","GJOA HAVEN CLIMATE","2302340","2018-02-09 20:00","2018","02","09","20:00","","M","","M","65","","0.0","","34","","7","","","","99.94","","","","","","NA"
"-95.85","68.64","GJOA HAVEN CLIMATE","2302340","2018-02-09 21:00","2018","02","09","21:00","","M","","M","64","","0.0","","34","","9","","","","99.94","","","","","","NA"
"-95.85","68.64","GJOA HAVEN CLIMATE","2302340","2018-02-09 22:00","2018","02","09","22:00","","M","","M","64","","0.0","","34","","2","","","","99.95","","","","","","NA"
"-95.85","68.64","GJOA HAVEN CLIMATE","2302340","2018-02-09 23:00","2018","02","09","23:00","","M","","M","64","","0.0","","36","","2","","","","99.94","","","","","","NA"
"-95.85","68.64","GJOA HAVEN CLIMATE","2302340","2018-02-10 00:00","2018","02","10","00:00","","M","","M","64","","0.0","","1","","5","","","","99.98","","","","","","NA"
"-95.85","68.64","GJOA HAVEN CLIMATE","2302340","2018-02-10 01:00","2018","02","10","01:00","","M","","M","64","","0.3","","35","","11","","","","100.01","","","","","","NA"
"-95.85","68.64","GJOA HAVEN CLIMATE","2302340","2018-02-10 02:00","2018","02","10","02:00","","M","","M","64","","0.0","","35","","10","","","","100.00","","","","","","NA"
"-95.85","68.64","GJOA HAVEN CLIMATE","2302340","2018-02-10 03:00","2018","02","10","03:00","","M","","M","65","","0.0","","35","","12","","","","100.04","","","","","","NA"
"-95.85","68.64","GJOA HAVEN CLIMATE","2302340","2018-02-10 04:00","2018","02","10","04:00","","M","","M","66","","0.0","","36","","10","","","","100.05","","","","","","NA"
"-95.85","68.64","GJOA HAVEN CLIMATE","2302340","2018-02-10 05:00","2018","02","10","05:00","","M","","M","67","","0.2","","36","","7","","","","100.05","","","","","","NA"
"-95.85","68.64","GJOA HAVEN CLIMATE","2302340","2018-02-10 06:00","2018","02","10","06:00","","M","","M","68","","0.2","","33","","12","","","","100.05","","","","","","NA"
"-95.85","68.64","GJOA HAVEN CLIMATE","2302340","2018-02-10 07:00","2018","02","10","07:00","","M","","M","68","","0.0","","35","","4","","","","100.12","","","","","","NA"
"-95.85","68.64","GJOA HAVEN CLIMATE","2302340","2018-02-10 08:00","2018","02","10","08:00","","M","","M","68","","0.0","","34","","8","","","","100.11","","","","","","NA"
"-95.85","68.64","GJOA HAVEN CLIMATE","2302340","2018-02-10 09:00","2018","02","10","09:00","","M","","M","68","","0.0","","34","","5","","","","100.14","","","","","","NA"
"-95.85","68.64","GJOA HAVEN CLIMATE","2302340","2018-02-10 10:00","2018","02","10","10:00","","M","","M","69","","0.0","","34","","6","","","","100.16","","","","","","NA"
"-95.85","68.64","GJOA HAVEN CLIMATE","2302340","2018-02-10 11:00","2018","02","10","11:00","","M","","M","70","","0.2","","36","","1","","","","100.19","","","","","","NA"
"-95.85","68.64","GJOA HAVEN CLIMATE","2302340","2018-02-10 12:00","2018","02","10","12:00","","M","","M","70","","0.0","","35","","8","","","","100.21","","","","","","NA"
"-95.85","68.64","GJOA HAVEN CLIMATE","2302340","2018-02-10 13:00","2018","02","10","13:00","","M","","M","71","","0.0","","36","","2","","","","100.29","","","","","","NA"
"-95.85","68.64","GJOA HAVEN CLIMATE","2302340","2018-02-10 14:00","2018","02","10","14:00","","M","","M","71","","0.0","","36","","2","","","","100.30","","","","","","NA"
"-95.85","68.64","GJOA HAVEN CLIMATE","2302340","2018-02-10 15:00","2018","02","10","15:00","","M","","M","71","","0.0","","34","","6","","","","100.33","","","","","","NA"
"-95.85","68.64","GJOA HAVEN CLIMATE","2302340","2018-02-10 16:00","2018","02","10","16:00","","M","","M","70","","0.0","","33","","4","","","","100.37","","","","","","NA"
"-95.85","68.64","GJOA HAVEN CLIMATE","2302340","2018-02-10 17:00","2018","02","10","17:00"
"-95.85","68.64","GJOA HAVEN CLIMATE","2302340","2018-02-10 18:00","2018","02","10","18:00","","M","","M","71","","0.0","","34","","6","","","","100.37","","","","","","NA"
"-95.85","68.64","GJOA HAVEN CLIMATE","2302340","2018-02-10 19:00","2018","02","10","19:00","","M","","M","70","","0.0","","34","","7","","","","100.39","","","","","","NA"
"-95.85","68.64","GJOA HAVEN CLIMATE","2302340","2018-02-10 20:00","2018","02","10","20:00","","M","","M","69","","0.0","","36","","7","","","","100.44","","","","","","NA"
"-95.85","68.64","GJOA HAVEN CLIMATE","2302340","2018-02-10 21:00","2018","02","10","21:00","","M","","M","69","","0.0","","2","","5","","","","100.44","","","","","","NA"
"-95.85","68.64","GJOA HAVEN CLIMATE","2302340","2018-02-10 22:00","2018","02","10","22:00","","M","","M","69","","0.0","","","","0","","","","100.46","","","","","","NA"
"-95.85","68.64","GJOA HAVEN CLIMATE","2302340","2018-02-10 23:00","2018","02","10","23:00","","M","","M","68","","0.0","","","","0","","","","100.50","","","","","","NA"
"-95.85","68.64","GJOA HAVEN CLIMATE","2302340","2018-02-11 00:00","2018","02","11","00:00","","M","","M","69","","0.0","","","","0","","","","100.51","","","","","","NA"
"-95.85","68.64","GJOA HAVEN CLIMATE","2302340","2018-02-11 01:00","2018","02","11","01:00","","M","","M","69","","0.0","","","","0","","","","100.55","","","","","","NA"
"-95.85","68.64","GJOA HAVEN CLIMATE","2302340","2018-02-11 02:00","2018","02","11","02:00","","M","","M","68","","0.0","","","","0","","","","100.56","","","","","","NA"
"-95.85","68.64","GJOA HAVEN CLIMATE","2302340","2018-02-11 03:00","2018","02","11","03:00","","M","","M","68","","0.0","","","","0","","","","100.58","","","","","","NA"
"-95.85","68.64","GJOA HAVEN CLIMATE","2302340","2018-02-11 04:00","2018","02","11","04:00","","M","","M","68","","0.0","","13","","2","","","","100.56","","","","","","NA"
"-95.85","68.64","GJOA HAVEN CLIMATE","2302340","2018-02-11 05:00","2018","02","11","05:00","","M","","M","68","","0.0","","13","","2","","","","100.58","","","","","","NA"
"-95.85","68.64","GJOA HAVEN CLIMATE","2302340","2018-02-11 06:00","2018","02","11","06:00","","M","","M","69","","0.0","","13","","2","","","","100.53","","","","","","NA"
"-95.85","68.64","GJOA HAVEN CLIMATE","2302340","2018-02-11 07:00","2018","02","11","07:00","","M","","M","69","","0.0","","13","","2","","","","100.50","","","","","","NA"
"-95.85","68.64","GJOA HAVEN CLIMATE","2302340","2018-02-11 08:00","2018","02","11","08:00","","M","","M","69","","0.0","","","","0","","","","100.46","","","","","","NA"
"-95.85","68.64","GJOA HAVEN CLIMATE","2302340","2018-02-11 09:00","2018","02","11","09:00","","M","","M","69","","0.0","","13","","2","","","","100.43","","","","","","NA"
"-95.85","68.64","GJOA HAVEN CLIMATE","2302340","2018-02-11 10:00","2018","02","11","10:00","","M","","M","69","","0.0","","","","0","","","","100.38","","","","","","NA"
"-95.85","68.64","GJOA HAVEN CLIMATE","2302340","2018-02-11 11:00","2018","02","11","11:00","","M","","M","70","","0.0","","","","0","","","","100.36","","","","","","NA"
"-95.85","68.64","GJOA HAVEN CLIMATE","2302340","2018-02-11 12:00","2018","02","11","12:00","","M","","M","70","","0.0","","","","0","","","","100.35","","","","","","NA"
"-95.85","68.64","GJOA HAVEN CLIMATE","2302340","2018-02-11 13:00","2018","02","11","13:00","","M","","M","71","","0.2","","13","","1","","","","100.28","","","","","","NA"
"-95.85","68.64","GJOA HAVEN CLIMATE","2302340","2018-02-11 14:00","2018","02","11","14:00","","M","","M","71","","0.0","","13","","3","","","","100.24","","","","","","NA"
"-95.85","68.64","GJOA HAVEN CLIMATE","2302340","2018-02-11 15:00","2018","02","11","15:00","","M","","M","71","","0.0","","17","","5","","","","100.15","","","","","","NA"
"-95.85","68.64","GJOA HAVEN CLIMATE","2302340","2018-02-11 16:00","2018","02","11","16:00","","M","","M","72","","0.0","","23","","11","","","","100.05","","","","","","NA"
"-95.85","68.64","GJOA HAVEN CLIMATE","2302340","2018-02-11 17:00","2018","02","11","17:00","","M","","M","73","","0.0","","21","","10","","","","99.98","","","","","","NA"
"-95.85","68.64","GJOA HAVEN CLIMATE","2302340","2018-02-11 18:00","2018","02","11","18:00","","M","","M","73","","0.0","","20","","9","","","","99.92","","","","","","NA"
"-95.85","68.64","GJOA HAVEN CLIMATE","2302340","2018-02-11 19:00","2018","02","11","19:00","","M","","M","73","","0.0","","18","","10","","","","99.83","","","","","","NA"
"-95.85","68.64","GJOA HAVEN CLIMATE","2302340","2018-02-11 20:00","2018","02","11","20:00","","M","","M","73","","0.0","","18","","11","","","","99.73","","","","","","NA"
"-95.85","68.64","GJOA HAVEN CLIMATE","2302340","2018-02-11 21:00","2018","02","11","21:00","","M","","M","73","","0.0","","17","","12","","","","99.65","","","","","","NA"
"-95.85","68.64","GJOA HAVEN CLIMATE","2302340","2018-02-11 22:00","2018","02","11","22:00","","M","","M","72","","0.0","","17","","11","","","","99.56","","","","","","NA"
"-95.85","68.64","GJOA HAVEN CLIMATE","2302340","2018-02-11 23:00","2018","02","11","23:00","","M","","M","72","","0.0","","17","","12","","","","99.46","","","","","","NA"
"-95.85","68.64","GJOA HAVEN CLIMATE","2302340","2018-02-12 00:00","2018","02","12","00:00","","M","","M","72","","0.0","","16","","11","","","","99.45","","","","","","NA"
"-95.85","68.64","GJOA HAVEN CLIMATE","2302340","2018-02-12 01:00","2018","02","12","01:00","","M","","M","72","","0.0","","16","","11","","","","99.40","","","","","","NA"
"-95.85","68.64","GJOA HAVEN CLIMATE","2302340","2018-02-12 02:00","2018","02","12","02:00","","M","","M","71","","0.0","","14","","11","","","","99.36","","","","","","NA"
"-95.85","68.64","GJOA HAVEN CLIMATE","2302340","2018-02-12 03:00","2018","02","12","03:00","","M","","M","71","","0.0","","13","","11","","","","99.34","","","","","","NA"
"-95.85","68.64","GJOA HAVEN CLIMATE","2302340","2018-02-12 04:00","2018","02","12","04:00","","M","","M","70","","0.0","","15","","11","","","","99.29","","","","","","NA"
"-95.85","68.64","GJOA HAVEN CLIMATE","2302340","2018-02-12 05:00","2018","02","12","05:00","","M","","M","70","","0.2","","14","","12","","","","99.24","","","","","","NA"
"-95.85","68.64","GJOA HAVEN CLIMATE","2302340","2018-02-12 06:00","2018","02","12","06:00","","M","","M","71","","0.0","","14","","12","","","","99.23","","","","","","NA"
"-95.85","68.64","GJOA HAVEN CLIMATE","2302340","2018-02-12 07:00","2018","02","12","07:00","","M","","M","71","","0.0","","14","","13","","","","99.17","","","","","","NA"
"-95.85","68.64","GJOA HAVEN CLIMATE","2302340","2018-02-12 08:00","2018","02","12","08:00","","M","","M","71","","0.0","","13","","10","","","","99.12","","","","","","NA"
"-95.85","68.64","GJOA HAVEN CLIMATE","2302340","2018-02-12 09:00","2018","02","12","09:00","","M","","M","71","","0.0","","14","","12","","","","99.14","","","","","","NA"
"-95.85","68.64","GJOA HAVEN CLIMATE","2302340","2018-02-12 10:00","2018","02","12","10:00","","M","","M","71","","0.0","","13","","12","","","","99.13","","","","","","NA"
"-95.85","68.64","GJOA HAVEN CLIMATE","2302340","2018-02-12 11:00","2018","02","12","11:00","","M","","M","71","","0.0","","12","","10","","","","99.16","","","","","","NA"
"-95.85","68.64","GJOA HAVEN CLIMATE","2302340","2018-02-12 12:00","2018","02","12","12:00","","M","","M","70","","0.0","","12","","11","","","","99.14","","","","","","NA"
"-95.85","68.64","GJOA HAVEN CLIMATE","2302340","2018-02-12 13:00","2018","02","12","13:00","","M","","M","70","","0.0","","12","","10","","","","99.13","","","","","","NA"
"-95.85","68.64","GJOA HAVEN CLIMATE","2302340","2018-02-12 14:00","2018","02","12","14:00","","M","","M","70","","0.0","","11","","10","","","","99.15","","","","","","NA"
"-95.85","68.64","GJOA HAVEN CLIMATE","2302340","2018-02-12 15:00","2018","02","12","15:00","","M","","M","69","","0.0","","11","","12","","","","99.18","","","","","","NA"
"-95.85","68.64","GJOA HAVEN CLIMATE","2302340","2018-02-12 16:00","2018","02","12","16:00","","M","","M","69","","0.0","","11","","12","","","","99.18","","","","","","NA"
"-95.85","68.64","GJOA HAVEN CLIMATE","2302340","2018-02-12 17:00","2018","02","12","17:00","","M","","M","69","","0.0","","10","","17","","","","99.20","","","","","","NA"
"-95.85","68.64","GJOA HAVEN CLIMATE","2302340","2018-02-12 18:00","2018","02","12","18:00","","M","","M","68","","0.0","","9","","17","","","","99.24","","","","","","NA"
"-95.85","68.64","GJOA HAVEN CLIMATE","2302340","2018-02-12 19:00","2018","02","12","19:00","","M","","M","67","","0.0","","9","","17","","","","99.28","","","","","","NA"
"-95.85","68.64","GJOA HAVEN CLIMATE","2302340","2018-02-12 20:00","2018","02","12","20:00","","M","","M","66","","0.0","","9","","17","","","","99.29","","","","","","NA"
"-95.85","68.64","GJOA HAVEN CLIMATE","2302340","2018-02-12 21:00","2018","02","12","21:00","","M","","M","66","","0.0","","9","","19","","","","99.30","","","","","","NA"
"-95.85","68.64","GJOA HAVEN CLIMATE","2302340","2018-02-12 22:00","2018","02","12","22:00","","M","","M","66","","0.0","","10","","19","","","","99.30","","","","","","NA"
"-95.85","68.64","GJOA HAVEN CLIMATE","2302340","2018-02-12 23:00","2018","02","12","23:00","","M","","M","65","","0.0","","9","","16","","","","99.36","","","","","","NA"
"-95.85","68.64","GJOA HAVEN CLIMATE","2302340","2018-02-13 00:00","2018","02","13","00:00","","M","","M","65","","0.0","","9","","17","","","","99.46","","","","","","NA"
"-95.85","68.64","GJOA HAVEN CLIMATE","2302340","2018-02-13 01:00","2018","02","13","01:00","","M","","M","65","","0.0","","9","","17","","","","99.52","","","","","","NA"
"-95.85","68.64","GJOA HAVEN CLIMATE","2302340","2018-02-13 02:00","2018","02","13","02:00","","M","","M","65","","0.0","","8","","21","","","","99.57","","","","","","NA"
"-95.85","68.64","GJOA HAVEN CLIMATE","2302340","2018-02-13 03:00","2018","02","13","03:00","","M","","M","65","","0.0","","8","","21","","","","99.61","","","","","","NA"
"-95.85","68.64","GJOA HAVEN CLIMATE","2302340","2018-02-13 04:00","2018","02","13","04:00","","M","","M","65","","0.0","","8","","23","","","","99.66","","","","","","NA"
"-95.85","68.64","GJOA HAVEN CLIMATE","2302340","2018-02-13 05:00","2018","02","13","05:00","","M","","M","65","","0.0","","8","","19","","","","99.72","","","","","","NA"
"-95.85","68.64","GJOA HAVEN CLIMATE","2302340","2018-02-13 06:00","2018","02","13","06:00","","M","","M","65","","0.0","","7","","18","","","","99.77","","","","","","NA"
"-95.85","68.64","GJOA HAVEN CLIMATE","2302340","2018-02-13 07:00","2018","02","13","07:00","","M","","M","64","","0.0","","7","","15","","","","99.86","","","","","","NA"
"-95.85","68.64","GJOA HAVEN CLIMATE","2302340","2018-02-13 08:00","2018","02","13","08:00","","M","","M","63","","0.0","","6","","13","","","","99.92","","","","","","NA"
"-95.85","68.64","GJOA HAVEN CLIMATE","2302340","2018-02-13 09:00","2018","02","13","09:00","","M","","M","63","","0.0","","5","","13","","","","100.00","","","","","","NA"
"-95.85","68.64","GJOA HAVEN CLIMATE","2302340","2018-02-13 10:00","2018","02","13","10:00","","M","","M","63","","0.0","","7","","12","","","","100.00","","","","","","NA"
"-95.85","68.64","GJOA HAVEN CLIMATE","2302340","2018-02-13 11:00","2018","02","13","11:00"
"-95.85","68.64","GJOA HAVEN CLIMATE","2302340","2018-02-13 12:00","2018","02","13","12:00","","M","","M","63","","0.0","","4","","11","","","","100.08","","","","","","NA"
"-95.85","68.64","GJOA HAVEN CLIMATE","2302340","2018-02-13 13:00","2018","02","13","13:00","","M","","M","63","","0.0","","4","","12","","","","100.15","","","","","","NA"
"-95.85","68.64","GJOA HAVEN CLIMATE","2302340","2018-02-13 14:00","2018","02","13","14:00","","M","","M","64","","0.0","","4","","10","","","","100.17","","","","","","NA"
"-95.85","68.64","GJOA HAVEN CLIMATE","2302340","2018-02-13 15:00","2018","02","13","15:00","","M","","M","64","","0.0","","2","","10","","","","100.18","","","","","","NA"
"-95.85","68.64","GJOA HAVEN CLIMATE","2302340","2018-02-13 16:00","2018","02","13","16:00","","M","","M","64","","0.0","","1","","8","","","","100.20","","","","","","NA"
"-95.85","68.64","GJOA HAVEN CLIMATE","2302340","2018-02-13 17:00","2018","02","13","17:00","","M","","M","64","","0.0","","35","","12","","","","100.21","","","","","","NA"
"-95.85","68.64","GJOA HAVEN CLIMATE","2302340","2018-02-13 18:00","2018","02","13","18:00","","M","","M","64","","0.0","","33","","15","","","","100.20","","","","","","NA"
"-95.85","68.64","GJOA HAVEN CLIMATE","2302340","2018-02-13 19:00","2018","02","13","19:00","","M","","M","64","","0.0","","31","","11","","","","100.18","","","","","","NA"
"-95.85","68.64","GJOA HAVEN CLIMATE","2302340","2018-02-13 20:00","2018","02","13","20:00","","M","","M","64","","0.0","","32","","15","","","","100.16","","","","","","NA"
"-95.85","68.64","GJOA HAVEN CLIMATE","2302340","2018-02-13 21:00","2018","02","13","21:00","","M","","M","65","","0.0","","31","","13","","","","100.09","","","","","","NA"
"-95.85","68.64","GJOA HAVEN CLIMATE","2302340","2018-02-13 22:00","2018","02","13","22:00","","M","","M","66","","0.0","","28","","9","","","","100.08","","","","","","NA"
"-95.85","68.64","GJOA HAVEN CLIMATE","2302340","2018-02-13 23:00","2018","02","13","23:00","","M","","M","68","","0.0","","27","","12","","","","100.02","","","","","","NA"
"-95.85","68.64","GJOA HAVEN CLIMATE","2302340","2018-02-14 00:00","2018","02","14","00:00","","M","","M","68","","0.0","","27","","11","","","","99.95","","","","","","NA"
"-95.85","68.64","GJOA HAVEN CLIMATE","2302340","2018-02-14 01:00","2018","02","14","01:00","","M","","M","69","","0.0","","28","","15","","","","99.83","","","","","","NA"
"-95.85","68.64","GJOA HAVEN CLIMATE","2302340","2018-02-14 02:00","2018","02","14","02:00","","M","","M","69","","0.0","","29","","21","","","","99.80","","","","","","NA"
"-95.85","68.64","GJOA HAVEN CLIMATE","2302340","2018-02-14 03:00","2018","02","14","03:00","","M","","M","70","","0.0","","30","","21","","","","99.78","","","","","","NA"
"-95.85","68.64","GJOA HAVEN CLIMATE","2302340","2018-02-14 04:00","2018","02","14","04:00","","M","","M","70","","0.0","","31","","20","","","","99.72","","","","","","NA"
"-95.85","68.64","GJOA HAVEN CLIMATE","2302340","2018-02-14 05:00","2018","02","14","05:00","","M","","M","70","","0.0","","30","","20","","","","99.67","","","","","","NA"
"-95.85","68.64","GJOA HAVEN CLIMATE","2302340","2018-02-14 06:00","2018","02","14","06:00","","M","","M","70","","0.0","","29","","19","","","","99.59","","","","","","NA"
"-95.85","68.64","GJOA HAVEN CLIMATE","2302340","2018-02-14 07:00","2018","02","14","07:00","","M","","M","70","","0.0","","28","","19","","","","99.54","","","","","","NA"
"-95.85","68.64","GJOA HAVEN CLIMATE","2302340","2018-02-14 08:00","2018","02","14","08:00","","M","","M","70","","0.0","","28","","19","","","","99.48","","","","","","NA"
"-95.85","68.64","GJOA HAVEN CLIMATE","2302340","2018-02-14 09:00","2018","02","14","09:00","","M","","M","70","","0.0","","31","","14","","","","99.46","","","","","","NA"
"-95.85","68.64","GJOA HAVEN CLIMATE","2302340","2018-02-14 10:00","2018","02","14","10:00","","M","","M","70","","0.0","","31","","16","","","","99.43","","","","","","NA"
"-95.85","68.64","GJOA HAVEN CLIMATE","2302340","2018-02-14 11:00","2018","02","14","11:00","-34.7","","-38.5","","69","","0.0","","32","","11","","","","99.38","","","","-45","","NA"
"-95.85","68.64","GJOA HAVEN CLIMATE","2302340","2018-02-14 12:00","2018","02","14","12:00","-35.6","","-39.5","","68","","0.0","","31","","10","","","","99.38","","","","-46","","NA"
"-95.85","68.64","GJOA HAVEN CLIMATE","2302340","2018-02-14 13:00","2018","02","14","13:00","-36.4","","-40.3","","67","","0.2","","32","","12","","","","99.37","","","","-48","","NA"
"-95.85","68.64","GJOA HAVEN CLIMATE","2302340","2018-02-14 14:00","2018","02","14","14:00","-37.5","","-41.5","","66","","0.0","","33","","11","","","","99.34","","","","-49","","NA"
"-95.85","68.64","GJOA HAVEN CLIMATE","2302340","2018-02-14 15:00","2018","02","14","15:00","-38.9","","-43.0","","65","","0.0","","33","","10","","","","99.36","","","","-50","","NA"
"-95.85","68.64","GJOA HAVEN CLIMATE","2302340","2018-02-14 16:00","2018","02","14","16:00","-39.7","","-44.0","","64","","0.0","","1","","9","","","","99.36","","","","-50","","NA"
"-95.85","68.64","GJOA HAVEN CLIMATE","2302340","2018-02-14 17:00","2018","02","14","17:00","-40.2","","-44.5","","63","","0.6","","1","","13","","","","99.38","","","","-53","","NA"
"-95.85","68.64","GJOA HAVEN CLIMATE","2302340","2018-02-14 18:00","2018","02","14","18:00","-40.7","","-45.1","","63","","0.2","","1","","14","","","","99.38","","","","-54","","NA"
"-95.85","68.64","GJOA HAVEN CLIMATE","2302340","2018-02-14 19:00","2018","02","14","19:00","-41.3","","-45.8","","62","","0.0","","1","","10","","","","99.41","","","","-53","","NA"
"-95.85","68.64","GJOA HAVEN CLIMATE","2302340","2018-02-14 20:00","2018","02","14","20:00","-41.5","","-46.0","","62","","0.0","","2","","10","","","","99.44","","","","-53","","NA"
"-95.85","68.64","GJOA HAVEN CLIMATE","2302340","2018-02-14 21:00","2018","02","14","21:00","-40.9","","-45.3","","63","","0.0","","4","","10","","","","99.44","","","","-52","","NA"
"-95.85","68.64","GJOA HAVEN CLIMATE","2302340","2018-02-14 22:00","2018","02","14","22:00","-41.2","","-45.7","","62","","0.0","","5","","8","","","","99.46","","","","-51","","NA"
"-95.85","68.64","GJOA HAVEN CLIMATE","2302340","2018-02-14 23:00","2018","02","14","23:00","-41.2","","-45.7","","62","","0.0","","5","","7","","","","99.51","","","","-50","","NA"
"-95.85","68.64","GJOA HAVEN CLIMATE","2302340","2018-02-15 00:00","2018","02","15","00:00","-41.5","","-46.0","","62","","0.0","","5","","8","","","","99.52","","","","-51","","NA"
"-95.85","68.64","GJOA HAVEN CLIMATE","2302340","2018-02-15 01:00","2018","02","15","01:00","-41.8","","-46.3","","62","","0.0","","5","","8","","","","99.56","","","","-52","","NA"
"-95.85","68.64","GJOA HAVEN CLIMATE","2302340","2018-02-15 02:00","2018","02","15","02:00","-41.7","","-46.2","","62","","0.0","","5","","8","","","","99.56","","","","-52","","NA"
"-95.85","68.64","GJOA HAVEN CLIMATE","2302340","2018-02-15 03:00","2018","02","15","03:00","-42.8","","-47.4","","61","","0.0","","4","","6","","","","99.55","","","","-51","","NA"
"-95.85","68.64","GJOA HAVEN CLIMATE","2302340","2018-02-15 04:00","2018","02","15","04:00","-43.2","","-47.9","","60","","0.0","","3","","7","","","","99.55","","","","-53","","NA"
"-95.85","68.64","GJOA HAVEN CLIMATE","2302340","2018-02-15 05:00","2018","02","15","05:00","-42.5","","-47.1","","61","","0.0","","5","","9","","","","99.57","","","","-53","","NA"
"-95.85","68.64","GJOA HAVEN CLIMATE","2302340","2018-02-15 06:00","2018","02","15","06:00","-43.2","","-47.8","","60","","0.0","","5","","9","","","","99.58","","","","-54","","NA"
"-95.85","68.64","GJOA HAVEN CLIMATE","2302340","2018-02-15 07:00","2018","02","15","07:00","-42.5","","-47.1","","61","","0.0","","5","","9","","","","99.62","","","","-53","","NA"
"-95.85","68.64","GJOA HAVEN CLIMATE","2302340","2018-02-15 08:00","2018","02","15","08:00","-42.7","","-47.4","","60","","0.0","","6","","6","","","","99.61","","","","-51","","NA"
"-95.85","68.64","GJOA HAVEN CLIMATE","2302340","2018-02-15 09:00","2018","02","15","09:00","-43.1","","-47.7","","60","","0.0","","7","","5","","","","99.59","","","","-50","","NA"
"-95.85","68.64","GJOA HAVEN CLIMATE","2302340","2018-02-15 10:00","2018","02","15","10:00","-42.4","","-47.0","","61","","0.0","","6","","3","","","","99.60","","","","-47","","NA"
"-95.85","68.64","GJOA HAVEN CLIMATE","2302340","2018-02-15 11:00","2018","02","15","11:00","-41.4","","-45.9","","62","","0.0","","7","","3","","","","99.60","","","","-46","","NA"
"-95.85","68.64","GJOA HAVEN CLIMATE","2302340","2018-02-15 12:00","2018","02","15","12:00","-41.2","","-45.7","","62","","0.5","","7","","2","","","","99.62","","","","-44","","NA"
"-95.85","68.64","GJOA HAVEN CLIMATE","2302340","2018-02-15 13:00","2018","02","15","13:00","-41.0","","-45.3","","63","","0.0","","","","0","","","","99.61","","","","","","NA"
"-95.85","68.64","GJOA HAVEN CLIMATE","2302340","2018-02-15 14:00","2018","02","15","14:00","-40.3","","-44.5","","64","","0.3","","","","0","","","","99.63","","","","","","NA"
"-95.85","68.64","GJOA HAVEN CLIMATE","2302340","2018-02-15 15:00","2018","02","15","15:00","-40.3","","-44.4","","65","","0.0","","6","","3","","","","99.62","","","","-45","","NA"
"-95.85","68.64","GJOA HAVEN CLIMATE","2302340","2018-02-15 16:00","2018","02","15","16:00","-41.7","","-46.1","","62","","0.0","","5","","4","","","","99.66","","","","-47","","NA"
"-95.85","68.64","GJOA HAVEN CLIMATE","2302340","2018-02-15 17:00","2018","02","15","17:00","-42.0","","-46.4","","63","","0.0","","","","0","","","","99.65","","","","","","NA"
"-95.85","68.64","GJOA HAVEN CLIMATE","2302340","2018-02-15 18:00","2018","02","15","18:00","-41.9","","-46.3","","62","","0.0","","10","","5","","","","99.60","","","","-49","","NA"
"-95.85","68.64","GJOA HAVEN CLIMATE","2302340","2018-02-15 19:00","2018","02","15","19:00","-41.5","","-45.9","","62","","0.0","","11","","2","","","","99.57","","","","-44","","NA"
"-95.85","68.64","GJOA HAVEN CLIMATE","2302340","2018-02-15 20:00","2018","02","15","20:00","-42.0","","-46.5","","61","","0.0","","11","","2","","","","99.55","","","","-45","","NA"
"-95.85","68.64","GJOA HAVEN CLIMATE","2302340","2018-02-15 21:00","2018","02","15","21:00","-41.9","","-46.4","","62","","0.0","","","","0","","","","99.57","","","","","","NA"
"-95.85","68.64","GJOA HAVEN CLIMATE","2302340","2018-02-15 22:00","2018","02","15","22:00","-41.8","","-46.3","","61","","0.0","","","","0","","","","99.54","","","","","","NA"
"-95.85","68.64","GJOA HAVEN CLIMATE","2302340","2018-02-15 23:00","2018","02","15","23:00","-42.0","","-46.5","","61","","0.0","","12","","2","","","","99.53","","","","-45","","NA"
"-95.85","68.64","GJOA HAVEN CLIMATE","2302340","2018-02-16 00:00","2018","02","16","00:00","-42.4","","-47.0","","61","","0.0","","13","","3","","","","99.51","","","","-47","","NA"
"-95.85","68.64","GJOA HAVEN CLIMATE","2302340","2018-02-16 01:00","2018","02","16","01:00","-42.8","","-47.4","","60","","0.0","","11","","3","","","","99.50","","","","-47","","NA"
"-95.85","68.64","GJOA HAVEN CLIMATE","2302340","2018-02-16 02:00","2018","02","16","02:00","-43.2","","-47.9","","60","","0.0","","10","","5","","","","99.50","","","","-51","","NA"
"-95.85","68.64","GJOA HAVEN CLIMATE","2302340","2018-02-16 03:00","2018","02","16","03:00","-43.6","","-48.4","","60","","0.0","","10","","3","","","","99.53","","","","-48","","NA"
"-95.85","68.64","GJOA HAVEN CLIMATE","2302340","2018-02-16 04:00","2018","02","16","04:00","-44.2","","-49.0","","59","","0.0","","9","","4","","","","99.54","","","","-50","","NA"
"-95.85","68.64","GJOA HAVEN CLIMATE","2302340","2018-02-16 05:00","2018","02","16","05:00","-45.6","","-50.6","","57","","0.0","","7","","7","","","","99.58","","","","-55","","NA"
"-95.85","68.64","GJOA HAVEN CLIMATE","2302340","2018-02-16 06:00","2018","02","16","06:00","-45.7","","-50.7","","57","","0.3","","6","","6","","","","99.56","","","","-55","","NA"
"-95.85","68.64","GJOA HAVEN CLIMATE","2302340","2018-02-16 07:00","2018","02","16","07:00","-46.1","","-51.1","","57","","0.0","","6","","7","","","","99.57","","","","-56","","NA"
"-95.85","68.64","GJOA HAVEN CLIMATE","2302340","2018-02-16 08:00","2018","02","16","08:00","-46.2","","-51.3","","57","","0.2","","5","","11","","","","99.62","","","","-59","","NA"
"-95.85","68.64","GJOA HAVEN CLIMATE","2302340","2018-02-16 09:00","2018","02","16","09:00","-46.5","","-51.6","","56","","0.0","","3","","11","","","","99.67","","","","-60","","NA"
"-95.85","68.64","GJOA HAVEN CLIMATE","2302340","2018-02-16 10:00","2018","02","16","10:00","-45.9","","-51.0","","57","","0.7","","4","","10","","","","99.71","","","","-58","","NA"
"-95.85","68.64","GJOA HAVEN CLIMATE","2302340","2018-02-16 11:00","2018","02","16","11:00","-45.5","","-50.5","","57","","0.3","","4","","11","","","","99.74","","","","-58","","NA"
"-95.85","68.64","GJOA HAVEN CLIMATE","2302340","2018-02-16 12:00","2018","02","16","12:00","-44.1","","-48.9","","59","","0.2","","5","","12","","","","99.75","","","","-57","","NA"
"-95.85","68.64","GJOA HAVEN CLIMATE","2302340","2018-02-16 13:00","2018","02","16","13:00","-43.6","","-48.4","","59","","0.0","","4","","13","","","","99.80","","","","-57","","NA"
"-95.85","68.64","GJOA HAVEN CLIMATE","2302340","2018-02-16 14:00","2018","02","16","14:00","-43.2","","-48.0","","59","","0.0","","4","","15","","","","99.88","","","","-58","","NA"
"-95.85","68.64","GJOA HAVEN CLIMATE","2302340","2018-02-16 15:00","2018","02","16","15:00","-43.3","","-48.0","","59","","0.0","","5","","13","","","","99.96","","","","-57","","NA"
"-95.85","68.64","GJOA HAVEN CLIMATE","2302340","2018-02-16 16:00","2018","02","16","16:00","-43.2","","-48.0","","59","","0.0","","4","","11","","","","100.05","","","","-56","","NA"
"-95.85","68.64","GJOA HAVEN CLIMATE","2302340","2018-02-16 17:00","2018","02","16","17:00","-43.6","","-48.5","","59","","0.0","","3","","11","","","","100.10","","","","-56","","NA"
"-95.85","68.64","GJOA HAVEN CLIMATE","2302340","2018-02-16 18:00","2018","02","16","18:00","-43.9","","-48.8","","59","","0.0","","4","","12","","","","100.15","","","","-57","","NA"
"-95.85","68.64","GJOA HAVEN CLIMATE","2302340","2018-02-16 19:00","2018","02","16","19:00","-43.6","","-48.4","","59","","0.0","","4","","11","","","","100.20","","","","-56","","NA"
"-95.85","68.64","GJOA HAVEN CLIMATE","2302340","2018-02-16 20:00","2018","02","16","20:00","-43.1","","-47.8","","60","","0.0","","4","","13","","","","100.26","","","","-57","","NA"
"-95.85","68.64","GJOA HAVEN CLIMATE","2302340","2018-02-16 21:00","2018","02","16","21:00","-43.2","","-47.9","","59","","0.0","","4","","11","","","","100.30","","","","-56","","NA"
"-95.85","68.64","GJOA HAVEN CLIMATE","2302340","2018-02-16 22:00","2018","02","16","22:00","-42.9","","-47.7","","60","","0.0","","4","","12","","","","100.35","","","","-56","","NA"
"-95.85","68.64","GJOA HAVEN CLIMATE","2302340","2018-02-16 23:00","2018","02","16","23:00","-43.0","","-47.8","","60","","0.0","","4","","13","","","","100.41","","","","-56","","NA"
"-95.85","68.64","GJOA HAVEN CLIMATE","2302340","2018-02-17 00:00","2018","02","17","00:00","-42.7","","-47.4","","60","","0.0","","3","","13","","","","100.44","","","","-56","","NA"
"-95.85","68.64","GJOA HAVEN CLIMATE","2302340","2018-02-17 01:00","2018","02","17","01:00","-42.3","","-47.0","","60","","0.0","","4","","13","","","","100.51","","","","-56","","NA"
"-95.85","68.64","GJOA HAVEN CLIMATE","2302340","2018-02-17 02:00","2018","02","17","02:00","-42.6","","-47.3","","60","","0.0","","3","","13","","","","100.57","","","","-56","","NA"
"-95.85","68.64","GJOA HAVEN CLIMATE","2302340","2018-02-17 03:00","2018","02","17","03:00","-42.0","","-46.6","","61","","0.0","","3","","15","","","","100.61","","","","-56","","NA"
"-95.85","68.64","GJOA HAVEN CLIMATE","2302340","2018-02-17 04:00","2018","02","17","04:00","-41.1","","-45.7","","61","","0.0","","4","","15","","","","100.65","","","","-55","","NA"
"-95.85","68.64","GJOA HAVEN CLIMATE","2302340","2018-02-17 05:00","2018","02","17","05:00","-41.5","","-46.0","","61","","0.0","","3","","13","","","","100.71","","","","-55","","NA"
"-95.85","68.64","GJOA HAVEN CLIMATE","2302340","2018-02-17 06:00","2018","02","17","06:00","-40.7","","-45.2","","62","","0.0","","4","","14","","","","100.75","","","","-54","","NA"
"-95.85","68.64","GJOA HAVEN CLIMATE","2302340","2018-02-17 07:00","2018","02","17","07:00","-41.4","","-45.9","","61","","0.0","","4","","12","","","","100.78","","","","-54","","NA"
"-95.85","68.64","GJOA HAVEN CLIMATE","2302340","2018-02-17 08:00","2018","02","17","08:00","-41.4","","-46.0","","61","","0.0","","4","","13","","","","100.81","","","","-54","","NA"
"-95.85","68.64","GJOA HAVEN CLIMATE","2302340","2018-02-17 09:00","2018","02","17","09:00","-41.0","","-45.5","","62","","0.0","","3","","12","","","","100.84","","","","-53","","NA"
"-95.85","68.64","GJOA HAVEN CLIMATE","2302340","2018-02-17 10:00","2018","02","17","10:00","-40.5","","-45.0","","62","","0.0","","4","","12","","","","100.84","","","","-53","","NA"
"-95.85","68.64","GJOA HAVEN CLIMATE","2302340","2018-02-17 11:00","2018","02","17","11:00","-40.0","","-44.4","","63","","0.0","","4","","13","","","","100.90","","","","-53","","NA"
"-95.85","68.64","GJOA HAVEN CLIMATE","2302340","2018-02-17 12:00","2018","02","17","12:00","-40.9","","-45.4","","62","","0.0","","1","","12","","","","100.94","","","","-53","","NA"
"-95.85","68.64","GJOA HAVEN CLIMATE","2302340","2018-02-17 13:00","2018","02","17","13:00","-41.0","","-45.5","","62","","0.0","","2","","11","","","","100.99","","","","-53","","NA"
"-95.85","68.64","GJOA HAVEN CLIMATE","2302340","2018-02-17 14:00","2018","02","17","14:00","-41.1","","-45.6","","62","","0.0","","1","","13","","","","101.01","","","","-54","","NA"
"-95.85","68.64","GJOA HAVEN CLIMATE","2302340","2018-02-17 15:00","2018","02","17","15:00","-41.0","","-45.5","","62","","0.0","","2","","13","","","","101.02","","","","-54","","NA"
"-95.85","68.64","GJOA HAVEN CLIMATE","2302340","2018-02-17 16:00","2018","02","17","16:00","-41.7","","-46.3","","61","","0.0","","1","","12","","","","101.05","","","","-54","","NA"
"-95.85","68.64","GJOA HAVEN CLIMATE","2302340","2018-02-17 17:00","2018","02","17","17:00","-41.2","","-45.8","","61","","0.0","","1","","14","","","","101.09","","","","-55","","NA"
"-95.85","68.64","GJOA HAVEN CLIMATE","2302340","2018-02-17 18:00","2018","02","17","18:00","-41.6","","-46.2","","61","","0.0","","1","","14","","","","101.12","","","","-55","","NA"
"-95.85","68.64","GJOA HAVEN CLIMATE","2302340","2018-02-17 19:00","2018","02","17","19:00","-40.1","","-44.5","","62","","0.0","","2","","14","","","","101.10","","","","-53","","NA"
"-95.85","68.64","GJOA HAVEN CLIMATE","2302340","2018-02-17 20:00","2018","02","17","20:00","-41.3","","-45.8","","61","","0.0","","36","","15","","","","101.10","","","","-55","","NA"
"-95.85","68.64","GJOA HAVEN CLIMATE","2302340","2018-02-17 21:00","2018","02","17","21:00","-40.9","","-45.4","","62","","0.0","","1","","14","","","","101.08","","","","-54","","NA"
"-95.85","68.64","GJOA HAVEN CLIMATE","2302340","2018-02-17 22:00","2018","02","17","22:00","-40.8","","-45.3","","62","","0.0","","1","","15","","","","101.06","","","","-55","","NA"
"-95.85","68.64","GJOA HAVEN CLIMATE","2302340","2018-02-17 23:00","2018","02","17","23:00","-40.5","","-45.0","","62","","0.0","","36","","17","","","","101.08","","","","-55","","NA"
"-95.85","68.64","GJOA HAVEN CLIMATE","2302340","2018-02-18 00:00","2018","02","18","00:00","-40.5","","-44.9","","62","","0.0","","36","","17","","","","101.05","","","","-55","","NA"
"-95.85","68.64","GJOA HAVEN CLIMATE","2302340","2018-02-18 01:00","2018","02","18","01:00","-40.4","","-44.8","","62","","0.0","","1","","15","","","","101.03","","","","-54","","NA"
"-95.85","68.64","GJOA HAVEN CLIMATE","2302340","2018-02-18 02:00","2018","02","18","02:00","-40.3","","-44.7","","62","","0.0","","1","","16","","","","101.04","","","","-55","","NA"
"-95.85","68.64","GJOA HAVEN CLIMATE","2302340","2018-02-18 03:00","2018","02","18","03:00","-40.1","","-44.5","","63","","0.0","","1","","16","","","","101.04","","","","-54","","NA"
"-95.85","68.64","GJOA HAVEN CLIMATE","2302340","2018-02-18 04:00","2018","02","18","04:00","-39.8","","-44.2","","63","","0.0","","36","","15","","","","101.05","","","","-53","","NA"
"-95.85","68.64","GJOA HAVEN CLIMATE","2302340","2018-02-18 05:00","2018","02","18","05:00","-40.3","","-44.8","","62","","0.0","","1","","15","","","","101.04","","","","-54","","NA"
"-95.85","68.64","GJOA HAVEN CLIMATE","2302340","2018-02-18 06:00","2018","02","18","06:00","-40.9","","-45.5","","62","","0.0","","1","","14","","","","101.02","","","","-54","","NA"
"-95.85","68.64","GJOA HAVEN CLIMATE","2302340","2018-02-18 07:00","2018","02","18","07:00","-40.5","","-44.9","","62","","0.0","","1","","15","","","","101.01","","","","-54","","NA"
"-95.85","68.64","GJOA HAVEN CLIMATE","2302340","2018-02-18 08:00","2018","02","18","08:00","-40.8","","-45.3","","62","","0.0","","1","","16","","","","101.02","","","","-55","","NA"
"-95.85","68.64","GJOA HAVEN CLIMATE","2302340","2018-02-18 09:00","2018","02","18","09:00","-40.7","","-45.2","","62","","0.0","","36","","16","","","","101.03","","","","-55","","NA"
"-95.85","68.64","GJOA HAVEN CLIMATE","2302340","2018-02-18 10:00","2018","02","18","10:00","-40.3","","-44.8","","62","","0.0","","1","","15","","","","101.05","","","","-54","","NA"
"-95.85","68.64","GJOA HAVEN CLIMATE","2302340","2018-02-18 11:00","2018","02","18","11:00","-40.0","","-44.4","","63","","0.0","","1","","16","","","","101.04","","","","-54","","NA"
"-95.85","68.64","GJOA HAVEN CLIMATE","2302340","2018-02-18 12:00","2018","02","18","12:00","-39.5","","-43.9","","63","","0.0","","1","","14","","","","101.05","","","","-53","","NA"
"-95.85","68.64","GJOA HAVEN CLIMATE","2302340","2018-02-18 13:00","2018","02","18","13:00","-39.2","","-43.6","","63","","0.0","","1","","14","","","","101.06","","","","-52","","NA"
"-95.85","68.64","GJOA HAVEN CLIMATE","2302340","2018-02-18 14:00","2018","02","18","14:00","-39.1","","-43.4","","64","","0.0","","2","","13","","","","101.07","","","","-52","","NA"
"-95.85","68.64","GJOA HAVEN CLIMATE","2302340","2018-02-18 15:00","2018","02","18","15:00","-38.7","","-43.0","","64","","0.0","","2","","13","","","","101.10","","","","-51","","NA"
"-95.85","68.64","GJOA HAVEN CLIMATE","2302340","2018-02-18 16:00","2018","02","18","16:00","-38.7","","-43.0","","64","","0.0","","1","","14","","","","101.13","","","","-52","","NA"
"-95.85","68.64","GJOA HAVEN CLIMATE","2302340","2018-02-18 17:00","2018","02","18","17:00","-38.5","","-42.8","","64","","0.0","","2","","13","","","","101.13","","","","-51","","NA"
"-95.85","68.64","GJOA HAVEN CLIMATE","2302340","2018-02-18 18:00","2018","02","18","18:00","-38.8","","-43.1","","64","","0.0","","2","","10","","","","101.18","","","","-50","","NA"
"-95.85","68.64","GJOA HAVEN CLIMATE","2302340","2018-02-18 19:00","2018","02","18","19:00","-36.9","","-41.0","","66","","0.0","","3","","12","","","","101.19","","","","-49","","NA"
"-95.85","68.64","GJOA HAVEN CLIMATE","2302340","2018-02-18 20:00","2018","02","18","20:00","-37.4","","-41.5","","65","","0.0","","3","","12","","","","101.19","","","","-49","","NA"
"-95.85","68.64","GJOA HAVEN CLIMATE","2302340","2018-02-18 21:00","2018","02","18","21:00","-37.2","","-41.4","","65","","0.0","","2","","13","","","","101.19","","","","-49","","NA"
"-95.85","68.64","GJOA HAVEN CLIMATE","2302340","2018-02-18 22:00","2018","02","18","22:00","-37.4","","-41.5","","66","","0.0","","3","","10","","","","101.20","","","","-48","","NA"
"-95.85","68.64","GJOA HAVEN CLIMATE","2302340","2018-02-18 23:00","2018","02","18","23:00","-38.6","","-42.9","","64","","0.0","","36","","15","","","","101.19","","","","-52","","NA"
"-95.85","68.64","GJOA HAVEN CLIMATE","2302340","2018-02-19 00:00","2018","02","19","00:00","-38.4","","-42.6","","64","","0.0","","1","","14","","","","101.25","","","","-51","","NA"
"-95.85","68.64","GJOA HAVEN CLIMATE","2302340","2018-02-19 01:00","2018","02","19","01:00","-38.6","","-42.9","","64","","0.0","","1","","12","","","","101.26","","","","-51","","NA"
"-95.85","68.64","GJOA HAVEN CLIMATE","2302340","2018-02-19 02:00","2018","02","19","02:00","-38.6","","-42.9","","64","","0.0","","2","","9","","","","101.29","","","","-49","","NA"
"-95.85","68.64","GJOA HAVEN CLIMATE","2302340","2018-02-19 03:00","2018","02","19","03:00","-38.2","","-42.5","","65","","0.0","","36","","15","","","","101.32","","","","-52","","NA"
"-95.85","68.64","GJOA HAVEN CLIMATE","2302340","2018-02-19 04:00","2018","02","19","04:00","-39.2","","-43.5","","64","","0.0","","1","","14","","","","101.32","","","","-52","","NA"
"-95.85","68.64","GJOA HAVEN CLIMATE","2302340","2018-02-19 05:00","2018","02","19","05:00","-38.2","","-42.5","","64","","0.0","","36","","14","","","","101.34","","","","-51","","NA"
"-95.85","68.64","GJOA HAVEN CLIMATE","2302340","2018-02-19 06:00","2018","02","19","06:00","-38.3","","-42.5","","64","","0.0","","36","","14","","","","101.36","","","","-51","","NA"
"-95.85","68.64","GJOA HAVEN CLIMATE","2302340","2018-02-19 07:00","2018","02","19","07:00","-38.7","","-43.0","","64","","0.0","","36","","20","","","","101.38","","","","-54","","NA"
"-95.85","68.64","GJOA HAVEN CLIMATE","2302340","2018-02-19 08:00","2018","02","19","08:00","-38.0","","-42.2","","65","","0.0","","35","","21","","","","101.39","","","","-54","","NA"
"-95.85","68.64","GJOA HAVEN CLIMATE","2302340","2018-02-19 09:00","2018","02","19","09:00","-37.2","","-41.3","","65","","0.0","","36","","19","","","","101.43","","","","-52","","NA"
"-95.85","68.64","GJOA HAVEN CLIMATE","2302340","2018-02-19 10:00","2018","02","19","10:00","-36.5","","-40.5","","66","","0.0","","36","","20","","","","101.43","","","","-51","","NA"
"-95.85","68.64","GJOA HAVEN CLIMATE","2302340","2018-02-19 11:00","2018","02","19","11:00","-36.0","","-39.9","","67","","0.0","","36","","22","","","","101.47","","","","-51","","NA"
"-95.85","68.64","GJOA HAVEN CLIMATE","2302340","2018-02-19 12:00","2018","02","19","12:00","-34.9","","-38.7","","68","","0.0","","36","","23","","","","101.48","","","","-50","","NA"
"-95.85","68.64","GJOA HAVEN CLIMATE","2302340","2018-02-19 13:00","2018","02","19","13:00","-34.5","","-38.3","","68","","0.0","","36","","21","","","","101.55","","","","-49","","NA"
"-95.85","68.64","GJOA HAVEN CLIMATE","2302340","2018-02-19 14:00","2018","02","19","14:00","-34.1","","-37.9","","69","","0.0","","36","","22","","","","101.59","","","","-49","","NA"
"-95.85","68.64","GJOA HAVEN CLIMATE","2302340","2018-02-19 15:00","2018","02","19","15:00","-35.6","","-39.5","","68","","0.0","","1","","15","","","","101.69","","","","-48","","NA"
"-95.85","68.64","GJOA HAVEN CLIMATE","2302340","2018-02-19 16:00","2018","02","19","16:00","-36.2","","-40.1","","67","","0.0","","36","","19","","","","101.69","","","","-51","","NA"
"-95.85","68.64","GJOA HAVEN CLIMATE","2302340","2018-02-19 17:00","2018","02","19","17:00","-35.5","","-39.4","","68","","0.0","","35","","20","","","","101.75","","","","-50","","NA"
"-95.85","68.64","GJOA HAVEN CLIMATE","2302340","2018-02-19 18:00","2018","02","19","18:00","-34.9","","-38.7","","68","","0.0","","35","","21","","","","101.78","","","","-50","","NA"
"-95.85","68.64","GJOA HAVEN CLIMATE","2302340","2018-02-19 19:00","2018","02","19","19:00","-36.4","","-40.4","","67","","0.0","","34","","20","","","","101.84","","","","-51","","NA"
"-95.85","68.64","GJOA HAVEN CLIMATE","2302340","2018-02-19 20:00","2018","02","19","20:00","-38.1","","-42.2","","65","","0.0","","32","","15","","","","101.89","","","","-51","","NA"
"-95.85","68.64","GJOA HAVEN CLIMATE","2302340","2018-02-19 21:00","2018","02","19","21:00","-37.4","","-41.5","","66","","0.0","","31","","17","","","","101.92","","","","-51","","NA"
"-95.85","68.64","GJOA HAVEN CLIMATE","2302340","2018-02-19 22:00","2018","02","19","22:00","-37.2","","-41.3","","66","","0.0","","30","","16","","","","101.92","","","","-51","","NA"
"-95.85","68.64","GJOA HAVEN CLIMATE","2302340","2018-02-19 23:00","2018","02","19","23:00","-36.7","","-40.6","","67","","0.0","","30","","14","","","","101.92","","","","-49","","NA"
"-95.85","68.64","GJOA HAVEN CLIMATE","2302340","2018-02-20 00:00","2018","02","20","00:00","-36.4","","-40.4","","67","","0.0","","30","","16","","","","101.94","","","","-50","","NA"
"-95.85","68.64","GJOA HAVEN CLIMATE","2302340","2018-02-20 01:00","2018","02","20","01:00","-35.8","","-39.7","","67","","0.0","","30","","16","","","","101.98","","","","-49","","NA"
"-95.85","68.64","GJOA HAVEN CLIMATE","2302340","2018-02-20 02:00","2018","02","20","02:00","-36.1","","-40.0","","67","","0.0","","27","","10","","","","102.00","","","","-46","","NA"
"-95.85","68.64","GJOA HAVEN CLIMATE","2302340","2018-02-20 03:00","2018","02","20","03:00","-37.9","","-42.1","","65","","0.0","","27","","13","","","","102.03","","","","-50","","NA"
"-95.85","68.64","GJOA HAVEN CLIMATE","2302340","2018-02-20 04:00","2018","02","20","04:00","-37.7","","-41.8","","65","","0.0","","27","","15","","","","102.04","","","","-51","","NA"
"-95.85","68.64","GJOA HAVEN CLIMATE","2302340","2018-02-20 05:00","2018","02","20","05:00","-37.9","","-42.1","","65","","0.0","","24","","10","","","","102.05","","","","-49","","NA"
"-95.85","68.64","GJOA HAVEN CLIMATE","2302340","2018-02-20 06:00","2018","02","20","06:00","-38.6","","-42.7","","65","","0.0","","23","","12","","","","102.10","","","","-51","","NA"
"-95.85","68.64","GJOA HAVEN CLIMATE","2302340","2018-02-20 07:00","2018","02","20","07:00","-38.2","","-42.3","","65","","0.0","","23","","14","","","","102.05","","","","-51","","NA"
"-95.85","68.64","GJOA HAVEN CLIMATE","2302340","2018-02-20 08:00","2018","02","20","08:00","-38.8","","-43.1","","64","","0.0","","22","","14","","","","102.02","","","","-52","","NA"
"-95.85","68.64","GJOA HAVEN CLIMATE","2302340","2018-02-20 09:00","2018","02","20","09:00","-38.9","","-43.2","","64","","0.0","","22","","14","","","","102.00","","","","-52","","NA"
"-95.85","68.64","GJOA HAVEN CLIMATE","2302340","2018-02-20 10:00","2018","02","20","10:00","-37.8","","-41.9","","65","","0.0","","21","","13","","","","102.02","","","","-50","","NA"
"-95.85","68.64","GJOA HAVEN CLIMATE","2302340","2018-02-20 11:00","2018","02","20","11:00","-36.8","","-41.0","","66","","0.0","","21","","13","","","","101.98","","","","-49","","NA"
"-95.85","68.64","GJOA HAVEN CLIMATE","2302340","2018-02-20 12:00","2018","02","20","12:00","-35.9","","-39.9","","67","","0.0","","22","","16","","","","101.93","","","","-49","","NA"
"-95.85","68.64","GJOA HAVEN CLIMATE","2302340","2018-02-20 13:00","2018","02","20","13:00","-35.3","","-39.3","","67","","0.0","","22","","15","","","","101.91","","","","-48","","NA"
"-95.85","68.64","GJOA HAVEN CLIMATE","2302340","2018-02-20 14:00","2018","02","20","14:00","-34.7","","-38.7","","67","","0.0","","21","","15","","","","101.88","","","","-47","","NA"
"-95.85","68.64","GJOA HAVEN CLIMATE","2302340","2018-02-20 15:00","2018","02","20","15:00","-34.7","","-38.6","","67","","0.0","","21","","13","","","","101.85","","","","-46","","NA"
"-95.85","68.64","GJOA HAVEN CLIMATE","2302340","2018-02-20 16:00","2018","02","20","16:00","-36.2","","-40.2","","67","","0.0","","20","","14","","","","101.83","","","","-49","","NA"
"-95.85","68.64","GJOA HAVEN CLIMATE","2302340","2018-02-20 17:00","2018","02","20","17:00"
"-95.85","68.64","GJOA HAVEN CLIMATE","2302340","2018-02-20 18:00","2018","02","20","18:00","-38.1","","-42.2","","65","","0.0","","19","","12","","","","101.75","","","","-50","","NA"
"-95.85","68.64","GJOA HAVEN CLIMATE","2302340","2018-02-20 19:00","2018","02","20","19:00","-38.1","","-42.2","","65","","0.0","","20","","15","","","","101.71","","","","-51","","NA"
"-95.85","68.64","GJOA HAVEN CLIMATE","2302340","2018-02-20 20:00","2018","02","20","20:00","-38.1","","-42.3","","65","","0.0","","20","","11","","","","101.68","","","","-49","","NA"
"-95.85","68.64","GJOA HAVEN CLIMATE","2302340","2018-02-20 21:00","2018","02","20","21:00","-38.4","","-42.6","","65","","0.0","","21","","13","","","","101.61","","","","-51","","NA"
"-95.85","68.64","GJOA HAVEN CLIMATE","2302340","2018-02-20 22:00","2018","02","20","22:00","-38.6","","-42.8","","65","","0.0","","21","","10","","","","101.58","","","","-49","","NA"
"-95.85","68.64","GJOA HAVEN CLIMATE","2302340","2018-02-20 23:00","2018","02","20","23:00","-38.7","","-42.9","","64","","0.0","","19","","16","","","","101.54","","","","-53","","NA"
"-95.85","68.64","GJOA HAVEN CLIMATE","2302340","2018-02-21 00:00","2018","02","21","00:00","-38.6","","-42.7","","65","","0.0","","21","","14","","","","101.46","","","","-52","","NA"
"-95.85","68.64","GJOA HAVEN CLIMATE","2302340","2018-02-21 01:00","2018","02","21","01:00","-38.3","","-42.5","","65","","0.0","","19","","14","","","","101.41","","","","-51","","NA"
"-95.85","68.64","GJOA HAVEN CLIMATE","2302340","2018-02-21 02:00","2018","02","21","02:00","-38.3","","-42.4","","65","","0.0","","18","","18","","","","101.39","","","","-53","","NA"
"-95.85","68.64","GJOA HAVEN CLIMATE","2302340","2018-02-21 03:00","2018","02","21","03:00","-38.6","","-42.8","","65","","0.0","","19","","15","","","","101.36","","","","-52","","NA"
"-95.85","68.64","GJOA HAVEN CLIMATE","2302340","2018-02-21 04:00","2018","02","21","04:00","-38.3","","-42.4","","65","","0.0","","18","","17","","","","101.28","","","","-52","","NA"
"-95.85","68.64","GJOA HAVEN CLIMATE","2302340","2018-02-21 05:00","2018","02","21","05:00","-38.3","","-42.5","","65","","0.0","","18","","16","","","","101.25","","","","-52","","NA"
"-95.85","68.64","GJOA HAVEN CLIMATE","2302340","2018-02-21 06:00","2018","02","21","06:00","-38.7","","-43.0","","64","","0.0","","17","","11","","","","101.18","","","","-50","","NA"
"-95.85","68.64","GJOA HAVEN CLIMATE","2302340","2018-02-21 07:00","2018","02","21","07:00","-38.9","","-43.2","","64","","0.0","","19","","10","","","","101.16","","","","-50","","NA"
"-95.85","68.64","GJOA HAVEN CLIMATE","2302340","2018-02-21 08:00","2018","02","21","08:00","-38.9","","-43.1","","64","","0.0","","20","","15","","","","101.14","","","","-52","","NA"
"-95.85","68.64","GJOA HAVEN CLIMATE","2302340","2018-02-21 09:00","2018","02","21","09:00","-38.3","","-42.5","","65","","0.0","","19","","17","","","","101.13","","","","-52","","NA"
"-95.85","68.64","GJOA HAVEN CLIMATE","2302340","2018-02-21 10:00","2018","02","21","10:00","-36.8","","-40.9","","66","","0.0","","19","","15","","","","101.15","","","","-50","","NA"
"-95.85","68.64","GJOA HAVEN CLIMATE","2302340","2018-02-21 11:00","2018","02","21","11:00","-35.6","","-39.6","","67","","0.0","","18","","14","","","","101.13","","","","-48","","NA"
"-95.85","68.64","GJOA HAVEN CLIMATE","2302340","2018-02-21 12:00","2018","02","21","12:00","-35.2","","-39.0","","68","","0.2","","18","","11","","","","101.14","","","","-46","","NA"
"-95.85","68.64","GJOA HAVEN CLIMATE","2302340","2018-02-21 13:00","2018","02","21","13:00","-34.5","","-38.5","","68","","0.0","","18","","14","","","","101.11","","","","-47","","NA"
"-95.85","68.64","GJOA HAVEN CLIMATE","2302340","2018-02-21 14:00","2018","02","21","14:00","-35.0","","-38.9","","67","","0.0","","18","","13","","","","101.09","","","","-47","","NA"
"-95.85","68.64","GJOA HAVEN CLIMATE","2302340","2018-02-21 15:00","2018","02","21","15:00","-35.2","","-39.1","","67","","0.0","","19","","12","","","","101.10","","","","-46","","NA"
"-95.85","68.64","GJOA HAVEN CLIMATE","2302340","2018-02-21 16:00","2018","02","21","16:00","-36.5","","-40.5","","66","","0.0","","19","","8","","","","101.13","","","","-46","","NA"
"-95.85","68.64","GJOA HAVEN CLIMATE","2302340","2018-02-21 17:00","2018","02","21","17:00","-37.8","","-42.0","","65","","0.0","","19","","11","","","","101.12","","","","-49","","NA"
"-95.85","68.64","GJOA HAVEN CLIMATE","2302340","2018-02-21 18:00","2018","02","21","18:00","-38.2","","-42.4","","65","","0.0","","19","","9","","","","101.08","","","","-48","","NA"
"-95.85","68.64","GJOA HAVEN CLIMATE","2302340","2018-02-21 19:00","2018","02","21","19:00","-38.3","","-42.5","","65","","0.0","","15","","6","","","","101.08","","","","-46","","NA"
"-95.85","68.64","GJOA HAVEN CLIMATE","2302340","2018-02-21 20:00","2018","02","21","20:00","-38.3","","-42.5","","65","","0.0","","16","","5","","","","101.07","","","","-45","","NA"
"-95.85","68.64","GJOA HAVEN CLIMATE","2302340","2018-02-21 21:00","2018","02","21","21:00"
"-95.85","68.64","GJOA HAVEN CLIMATE","2302340","2018-02-21 22:00","2018","02","21","22:00"
"-95.85","68.64","GJOA HAVEN CLIMATE","2302340","2018-02-21 23:00","2018","02","21","23:00"
"-95.85","68.64","GJOA HAVEN CLIMATE","2302340","2018-02-22 00:00","2018","02","22","00:00"
"-95.85","68.64","GJOA HAVEN CLIMATE","2302340","2018-02-22 01:00","2018","02","22","01:00"
"-95.85","68.64","GJOA HAVEN CLIMATE","2302340","2018-02-22 02:00","2018","02","22","02:00"
"-95.85","68.64","GJOA HAVEN CLIMATE","2302340","2018-02-22 03:00","2018","02","22","03:00"
"-95.85","68.64","GJOA HAVEN CLIMATE","2302340","2018-02-22 04:00","2018","02","22","04:00"
"-95.85","68.64","GJOA HAVEN CLIMATE","2302340","2018-02-22 05:00","2018","02","22","05:00"
"-95.85","68.64","GJOA HAVEN CLIMATE","2302340","2018-02-22 06:00","2018","02","22","06:00","-42.4","","-47.0","","61","","0.0","","25","","6","","","","100.77","","","","-51","","NA"
"-95.85","68.64","GJOA HAVEN CLIMATE","2302340","2018-02-22 07:00","2018","02","22","07:00","-42.5","","-47.1","","61","","0.0","","24","","6","","","","100.74","","","","-51","","NA"
"-95.85","68.64","GJOA HAVEN CLIMATE","2302340","2018-02-22 08:00","2018","02","22","08:00","-42.7","","-47.4","","60","","0.0","","23","","7","","","","100.72","","","","-52","","NA"
"-95.85","68.64","GJOA HAVEN CLIMATE","2302340","2018-02-22 09:00","2018","02","22","09:00","-42.3","","-46.9","","61","","0.0","","23","","9","","","","100.68","","","","-53","","NA"
"-95.85","68.64","GJOA HAVEN CLIMATE","2302340","2018-02-22 10:00","2018","02","22","10:00","-40.9","","-45.4","","62","","0.0","","25","","13","","","","100.67","","","","-54","","NA"
"-95.85","68.64","GJOA HAVEN CLIMATE","2302340","2018-02-22 11:00","2018","02","22","11:00","-40.0","","-44.4","","63","","0.6","","26","","15","","","","100.63","","","","-54","","NA"
"-95.85","68.64","GJOA HAVEN CLIMATE","2302340","2018-02-22 12:00","2018","02","22","12:00","-38.5","","-42.8","","64","","0.0","","26","","16","","","","100.59","","","","-52","","NA"
"-95.85","68.64","GJOA HAVEN CLIMATE","2302340","2018-02-22 13:00","2018","02","22","13:00","-38.3","","-42.5","","65","","0.0","","24","","14","","","","100.54","","","","-51","","NA"
"-95.85","68.64","GJOA HAVEN CLIMATE","2302340","2018-02-22 14:00","2018","02","22","14:00","-38.1","","-42.3","","65","","0.0","","24","","14","","","","100.51","","","","-51","","NA"
"-95.85","68.64","GJOA HAVEN CLIMATE","2302340","2018-02-22 15:00","2018","02","22","15:00","-38.4","","-42.7","","64","","0.0","","24","","16","","","","100.47","","","","-52","","NA"
"-95.85","68.64","GJOA HAVEN CLIMATE","2302340","2018-02-22 16:00","2018","02","22","16:00","-38.6","","-42.9","","64","","0.0","","24","","19","","","","100.39","","","","-54","","NA"
"-95.85","68.64","GJOA HAVEN CLIMATE","2302340","2018-02-22 17:00","2018","02","22","17:00","-39.3","","-43.6","","64","","0.0","","22","","18","","","","100.38","","","","-54","","NA"
"-95.85","68.64","GJOA HAVEN CLIMATE","2302340","2018-02-22 18:00","2018","02","22","18:00","-39.6","","-44.0","","63","","0.0","","23","","21","","","","100.36","","","","-56","","NA"
"-95.85","68.64","GJOA HAVEN CLIMATE","2302340","2018-02-22 19:00","2018","02","22","19:00","-39.8","","-44.1","","63","","0.0","","23","","15","","","","100.30","","","","-53","","NA"
"-95.85","68.64","GJOA HAVEN CLIMATE","2302340","2018-02-22 20:00","2018","02","22","20:00","-39.6","","-43.9","","63","","0.0","","23","","16","","","","100.25","","","","-54","","NA"
"-95.85","68.64","GJOA HAVEN CLIMATE","2302340","2018-02-22 21:00","2018","02","22","21:00","-39.6","","-43.9","","63","","0.0","","22","","19","","","","100.16","","","","-55","","NA"
"-95.85","68.64","GJOA HAVEN CLIMATE","2302340","2018-02-22 22:00","2018","02","22","22:00","-39.6","","-44.0","","63","","0.0","","22","","19","","","","100.06","","","","-55","","NA"
"-95.85","68.64","GJOA HAVEN CLIMATE","2302340","2018-02-22 23:00","2018","02","22","23:00","-39.8","","-44.1","","63","","0.0","","22","","17","","","","100.00","","","","-54","","NA"
"-95.85","68.64","GJOA HAVEN CLIMATE","2302340","2018-02-23 00:00","2018","02","23","00:00","-39.7","","-44.0","","63","","0.0","","20","","18","","","","99.93","","","","-55","","NA"
"-95.85","68.64","GJOA HAVEN CLIMATE","2302340","2018-02-23 01:00","2018","02","23","01:00","-39.2","","-43.5","","64","","0.0","","20","","19","","","","99.82","","","","-54","","NA"
"-95.85","68.64","GJOA HAVEN CLIMATE","2302340","2018-02-23 02:00","2018","02","23","02:00","-39.5","","-43.8","","63","","0.0","","20","","18","","","","99.73","","","","-54","","NA"
"-95.85","68.64","GJOA HAVEN CLIMATE","2302340","2018-02-23 03:00","2018","02","23","03:00","-38.9","","-43.1","","64","","0.0","","20","","21","","","","99.61","","","","-55","","NA"
"-95.85","68.64","GJOA HAVEN CLIMATE","2302340","2018-02-23 04:00","2018","02","23","04:00","-37.8","","-42.0","","65","","0.0","","20","","23","","","","99.53","","","","-54","","NA"
"-95.85","68.64","GJOA HAVEN CLIMATE","2302340","2018-02-23 05:00","2018","02","23","05:00","-37.1","","-41.2","","66","","0.0","","20","","25","","","","99.40","","","","-54","","NA"
"-95.85","68.64","GJOA HAVEN CLIMATE","2302340","2018-02-23 06:00","2018","02","23","06:00","-36.5","","-40.5","","66","","0.0","","20","","27","","","","99.31","","","","-53","","NA"
"-95.85","68.64","GJOA HAVEN CLIMATE","2302340","2018-02-23 07:00","2018","02","23","07:00","-36.0","","-39.9","","67","","0.0","","20","","30","","","","99.19","","","","-53","","NA"
"-95.85","68.64","GJOA HAVEN CLIMATE","2302340","2018-02-23 08:00","2018","02","23","08:00","-36.1","","-40.1","","67","","0.0","","20","","27","","","","99.12","","","","-53","","NA"
"-95.85","68.64","GJOA HAVEN CLIMATE","2302340","2018-02-23 09:00","2018","02","23","09:00","-35.9","","-39.8","","67","","0.0","","20","","27","","","","99.03","","","","-53","","NA"
"-95.85","68.64","GJOA HAVEN CLIMATE","2302340","2018-02-23 10:00","2018","02","23","10:00","-35.6","","-39.5","","67","","0.0","","20","","20","","","","98.99","","","","-50","","NA"
"-95.85","68.64","GJOA HAVEN CLIMATE","2302340","2018-02-23 11:00","2018","02","23","11:00","-34.2","","-38.0","","69","","0.0","","20","","21","","","","98.94","","","","-49","","NA"
"-95.85","68.64","GJOA HAVEN CLIMATE","2302340","2018-02-23 12:00","2018","02","23","12:00","-32.7","","-36.3","","70","","0.0","","21","","20","","","","98.85","","","","-47","","NA"
"-95.85","68.64","GJOA HAVEN CLIMATE","2302340","2018-02-23 13:00","2018","02","23","13:00","-31.4","","-34.8","","71","","0.0","","21","","19","","","","98.84","","","","-45","","NA"
"-95.85","68.64","GJOA HAVEN CLIMATE","2302340","2018-02-23 14:00","2018","02","23","14:00","-29.7","","-33.0","","73","","0.0","","20","","16","","","","98.84","","","","-41","","NA"
"-95.85","68.64","GJOA HAVEN CLIMATE","2302340","2018-02-23 15:00","2018","02","23","15:00","-29.5","","-32.7","","73","","0.3","","20","","13","","","","98.82","","","","-40","","NA"
"-95.85","68.64","GJOA HAVEN CLIMATE","2302340","2018-02-23 16:00","2018","02","23","16:00","-30.7","","-34.0","","73","","0.0","","18","","11","","","","98.78","","","","-41","","NA"
"-95.85","68.64","GJOA HAVEN CLIMATE","2302340","2018-02-23 17:00","2018","02","23","17:00","-31.2","","-34.6","","72","","0.0","","18","","11","","","","98.74","","","","-41","","NA"
"-95.85","68.64","GJOA HAVEN CLIMATE","2302340","2018-02-23 18:00","2018","02","23","18:00","-30.9","","-34.2","","73","","0.0","","20","","12","","","","98.69","","","","-41","","NA"
"-95.85","68.64","GJOA HAVEN CLIMATE","2302340","2018-02-23 19:00","2018","02","23","19:00","-31.0","","-34.3","","73","","0.0","","19","","9","","","","98.68","","","","-40","","NA"
"-95.85","68.64","GJOA HAVEN CLIMATE","2302340","2018-02-23 20:00","2018","02","23","20:00","-31.4","","-34.8","","72","","0.0","","19","","8","","","","98.63","","","","-40","","NA"
"-95.85","68.64","GJOA HAVEN CLIMATE","2302340","2018-02-23 21:00","2018","02","23","21:00","-31.9","","-35.3","","72","","0.0","","17","","6","","","","98.59","","","","-39","","NA"
"-95.85","68.64","GJOA HAVEN CLIMATE","2302340","2018-02-23 22:00","2018","02","23","22:00","-31.9","","-35.3","","72","","0.0","","0","","1","","","","98.51","","","","-33","","NA"
"-95.85","68.64","GJOA HAVEN CLIMATE","2302340","2018-02-23 23:00","2018","02","23","23:00","-31.8","","-35.1","","72","","0.0","","","","0","","","","98.48","","","","","","NA"
"-95.85","68.64","GJOA HAVEN CLIMATE","2302340","2018-02-24 00:00","2018","02","24","00:00","-31.8","","-35.1","","72","","0.0","","15","","2","","","","98.46","","","","-34","","NA"
"-95.85","68.64","GJOA HAVEN CLIMATE","2302340","2018-02-24 01:00","2018","02","24","01:00","-31.5","","-34.9","","72","","0.0","","0","","1","","","","98.40","","","","-33","","NA"
"-95.85","68.64","GJOA HAVEN CLIMATE","2302340","2018-02-24 02:00","2018","02","24","02:00","-31.3","","-34.6","","72","","0.0","","13","","2","","","","98.37","","","","-34","","NA"
"-95.85","68.64","GJOA HAVEN CLIMATE","2302340","2018-02-24 03:00","2018","02","24","03:00","-31.3","","-34.6","","72","","0.0","","13","","3","","","","98.34","","","","-35","","NA"
"-95.85","68.64","GJOA HAVEN CLIMATE","2302340","2018-02-24 04:00","2018","02","24","04:00","-32.5","","-36.0","","71","","0.0","","11","","2","","","","98.30","","","","-35","","NA"
"-95.85","68.64","GJOA HAVEN CLIMATE","2302340","2018-02-24 05:00","2018","02","24","05:00","-31.7","","-35.1","","72","","0.0","","","","0","","","","98.26","","","","","","NA"
"-95.85","68.64","GJOA HAVEN CLIMATE","2302340","2018-02-24 06:00","2018","02","24","06:00","-31.7","","-35.0","","72","","0.0","","","","0","","","","98.22","","","","","","NA"
"-95.85","68.64","GJOA HAVEN CLIMATE","2302340","2018-02-24 07:00","2018","02","24","07:00","-31.9","","-35.2","","72","","0.0","","","","0","","","","98.18","","","","","","NA"
"-95.85","68.64","GJOA HAVEN CLIMATE","2302340","2018-02-24 08:00","2018","02","24","08:00","-32.2","","-35.6","","72","","0.0","","16","","3","","","","98.17","","","","-36","","NA"
"-95.85","68.64","GJOA HAVEN CLIMATE","2302340","2018-02-24 09:00","2018","02","24","09:00","-32.4","","-35.9","","71","","0.0","","20","","3","","","","98.15","","","","-36","","NA"
"-95.85","68.64","GJOA HAVEN CLIMATE","2302340","2018-02-24 10:00","2018","02","24","10:00","-31.1","","-34.4","","73","","0.0","","","","0","","","","98.09","","","","","","NA"
"-95.85","68.64","GJOA HAVEN CLIMATE","2302340","2018-02-24 11:00","2018","02","24","11:00","-30.9","","-34.2","","73","","0.2","","22","","9","","","","98.08","","","","-40","","NA"
"-95.85","68.64","GJOA HAVEN CLIMATE","2302340","2018-02-24 12:00","2018","02","24","12:00","-30.2","","-33.5","","73","","0.0","","23","","8","","","","98.07","","","","-38","","NA"
"-95.85","68.64","GJOA HAVEN CLIMATE","2302340","2018-02-24 13:00","2018","02","24","13:00","-29.2","","-32.3","","74","","0.2","","22","","11","","","","98.10","","","","-39","","NA"
"-95.85","68.64","GJOA HAVEN CLIMATE","2302340","2018-02-24 14:00","2018","02","24","14:00","-28.7","","-31.8","","75","","0.0","","22","","10","","","","98.11","","","","-38","","NA"
"-95.85","68.64","GJOA HAVEN CLIMATE","2302340","2018-02-24 15:00","2018","02","24","15:00","-28.7","","-31.8","","75","","0.0","","24","","9","","","","98.18","","","","-37","","NA"
"-95.85","68.64","GJOA HAVEN CLIMATE","2302340","2018-02-24 16:00","2018","02","24","16:00","-28.5","","-31.5","","75","","0.0","","21","","7","","","","98.18","","","","-36","","NA"
"-95.85","68.64","GJOA HAVEN CLIMATE","2302340","2018-02-24 17:00","2018","02","24","17:00","-29.1","","-32.2","","75","","0.0","","23","","11","","","","98.20","","","","-39","","NA"
"-95.85","68.64","GJOA HAVEN CLIMATE","2302340","2018-02-24 18:00","2018","02","24","18:00","-29.6","","-32.8","","74","","0.0","","23","","12","","","","98.24","","","","-40","","NA"
"-95.85","68.64","GJOA HAVEN CLIMATE","2302340","2018-02-24 19:00","2018","02","24","19:00","-30.7","","-34.0","","73","","0.0","","23","","11","","","","98.28","","","","-41","","NA"
"-95.85","68.64","GJOA HAVEN CLIMATE","2302340","2018-02-24 20:00","2018","02","24","20:00","-30.5","","-33.7","","73","","0.0","","22","","14","","","","98.29","","","","-42","","NA"
"-95.85","68.64","GJOA HAVEN CLIMATE","2302340","2018-02-24 21:00","2018","02","24","21:00","-30.6","","-33.9","","73","","0.0","","21","","15","","","","98.33","","","","-42","","NA"
"-95.85","68.64","GJOA HAVEN CLIMATE","2302340","2018-02-24 22:00","2018","02","24","22:00","-31.2","","-34.6","","73","","0.0","","22","","11","","","","98.34","","","","-41","","NA"
"-95.85","68.64","GJOA HAVEN CLIMATE","2302340","2018-02-24 23:00","2018","02","24","23:00","-31.7","","-35.1","","72","","0.0","","20","","8","","","","98.40","","","","-40","","NA"
"-95.85","68.64","GJOA HAVEN CLIMATE","2302340","2018-02-25 00:00","2018","02","25","00:00","-31.5","","-34.8","","72","","0.0","","21","","9","","","","98.43","","","","-40","","NA"
"-95.85","68.64","GJOA HAVEN CLIMATE","2302340","2018-02-25 01:00","2018","02","25","01:00","-31.3","","-34.6","","73","","0.0","","20","","9","","","","98.47","","","","-40","","NA"
"-95.85","68.64","GJOA HAVEN CLIMATE","2302340","2018-02-25 02:00","2018","02","25","02:00","-31.8","","-35.1","","72","","0.0","","21","","8","","","","98.51","","","","-40","","NA"
"-95.85","68.64","GJOA HAVEN CLIMATE","2302340","2018-02-25 03:00","2018","02","25","03:00","-32.6","","-36.1","","71","","0.0","","20","","9","","","","98.53","","","","-42","","NA"
"-95.85","68.64","GJOA HAVEN CLIMATE","2302340","2018-02-25 04:00","2018","02","25","04:00","-33.7","","-37.2","","70","","0.0","","18","","11","","","","98.54","","","","-44","","NA"
"-95.85","68.64","GJOA HAVEN CLIMATE","2302340","2018-02-25 05:00","2018","02","25","05:00","-34.3","","-38.0","","69","","0.0","","19","","11","","","","98.55","","","","-45","","NA"
"-95.85","68.64","GJOA HAVEN CLIMATE","2302340","2018-02-25 06:00","2018","02","25","06:00","-34.4","","-38.1","","69","","0.0","","18","","13","","","","98.58","","","","-46","","NA"
"-95.85","68.64","GJOA HAVEN CLIMATE","2302340","2018-02-25 07:00","2018","02","25","07:00","-34.1","","-37.7","","70","","0.2","","18","","17","","","","98.58","","","","-47","","NA"
"-95.85","68.64","GJOA HAVEN CLIMATE","2302340","2018-02-25 08:00","2018","02","25","08:00","-33.8","","-37.4","","70","","0.0","","18","","14","","","","98.57","","","","-46","","NA"
"-95.85","68.64","GJOA HAVEN CLIMATE","2302340","2018-02-25 09:00","2018","02","25","09:00","-33.0","","-36.5","","71","","0.2","","19","","16","","","","98.62","","","","-45","","NA"
"-95.85","68.64","GJOA HAVEN CLIMATE","2302340","2018-02-25 10:00","2018","02","25","10:00","-31.9","","-35.4","","71","","0.2","","20","","15","","","","98.62","","","","-44","","NA"
"-95.85","68.64","GJOA HAVEN CLIMATE","2302340","2018-02-25 11:00","2018","02","25","11:00","-30.9","","-34.4","","72","","0.0","","19","","16","","","","98.64","","","","-43","","NA"
"-95.85","68.64","GJOA HAVEN CLIMATE","2302340","2018-02-25 12:00","2018","02","25","12:00","-30.1","","-33.5","","72","","0.0","","19","","15","","","","98.67","","","","-42","","NA"
"-95.85","68.64","GJOA HAVEN CLIMATE","2302340","2018-02-25 13:00","2018","02","25","13:00","-29.8","","-33.2","","72","","0.0","","19","","15","","","","98.69","","","","-41","","NA"
"-95.85","68.64","GJOA HAVEN CLIMATE","2302340","2018-02-25 14:00","2018","02","25","14:00","-29.2","","-32.6","","73","","0.0","","19","","16","","","","98.73","","","","-41","","NA"
"-95.85","68.64","GJOA HAVEN CLIMATE","2302340","2018-02-25 15:00","2018","02","25","15:00","-30.0","","-33.4","","72","","0.0","","19","","16","","","","98.79","","","","-42","","NA"
"-95.85","68.64","GJOA HAVEN CLIMATE","2302340","2018-02-25 16:00","2018","02","25","16:00","-31.1","","-34.5","","72","","0.0","","19","","15","","","","98.80","","","","-43","","NA"
"-95.85","68.64","GJOA HAVEN CLIMATE","2302340","2018-02-25 17:00","2018","02","25","17:00","-32.1","","-35.5","","72","","0.0","","19","","15","","","","98.81","","","","-44","","NA"
"-95.85","68.64","GJOA HAVEN CLIMATE","2302340","2018-02-25 18:00","2018","02","25","18:00","-32.4","","-35.9","","71","","0.0","","18","","17","","","","98.86","","","","-45","","NA"
"-95.85","68.64","GJOA HAVEN CLIMATE","2302340","2018-02-25 19:00","2018","02","25","19:00","-32.5","","-36.0","","71","","0.0","","17","","19","","","","98.90","","","","-46","","NA"
"-95.85","68.64","GJOA HAVEN CLIMATE","2302340","2018-02-25 20:00","2018","02","25","20:00","-33.0","","-36.6","","71","","0.0","","17","","14","","","","98.90","","","","-45","","NA"
"-95.85","68.64","GJOA HAVEN CLIMATE","2302340","2018-02-25 21:00","2018","02","25","21:00","-33.4","","-37.0","","70","","0.0","","17","","11","","","","98.93","","","","-44","","NA"
"-95.85","68.64","GJOA HAVEN CLIMATE","2302340","2018-02-25 22:00","2018","02","25","22:00","-33.8","","-37.4","","70","","0.0","","18","","11","","","","98.95","","","","-44","","NA"
"-95.85","68.64","GJOA HAVEN CLIMATE","2302340","2018-02-25 23:00","2018","02","25","23:00","-34.3","","-38.0","","69","","0.0","","17","","11","","","","99.00","","","","-45","","NA"
"-95.85","68.64","GJOA HAVEN CLIMATE","2302340","2018-02-26 00:00","2018","02","26","00:00","-34.6","","-38.3","","69","","0.0","","18","","11","","","","99.04","","","","-45","","NA"
"-95.85","68.64","GJOA HAVEN CLIMATE","2302340","2018-02-26 01:00","2018","02","26","01:00","-34.5","","-38.2","","69","","0.4","","20","","12","","","","99.09","","","","-46","","NA"
"-95.85","68.64","GJOA HAVEN CLIMATE","2302340","2018-02-26 02:00","2018","02","26","02:00","-35.0","","-38.8","","69","","0.0","","19","","10","","","","99.16","","","","-45","","NA"
"-95.85","68.64","GJOA HAVEN CLIMATE","2302340","2018-02-26 03:00","2018","02","26","03:00","-35.0","","-38.7","","69","","0.0","","19","","14","","","","99.18","","","","-47","","NA"
"-95.85","68.64","GJOA HAVEN CLIMATE","2302340","2018-02-26 04:00","2018","02","26","04:00","-34.3","","-38.0","","69","","0.0","","19","","11","","","","99.25","","","","-45","","NA"
"-95.85","68.64","GJOA HAVEN CLIMATE","2302340","2018-02-26 05:00","2018","02","26","05:00","-33.6","","-37.2","","70","","0.2","","18","","9","","","","99.28","","","","-43","","NA"
"-95.85","68.64","GJOA HAVEN CLIMATE","2302340","2018-02-26 06:00","2018","02","26","06:00","-33.7","","-37.3","","70","","0.2","","19","","8","","","","99.30","","","","-42","","NA"
"-95.85","68.64","GJOA HAVEN CLIMATE","2302340","2018-02-26 07:00","2018","02","26","07:00","-33.6","","-37.2","","70","","0.0","","19","","12","","","","99.34","","","","-45","","NA"
"-95.85","68.64","GJOA HAVEN CLIMATE","2302340","2018-02-26 08:00","2018","02","26","08:00","-33.6","","-37.2","","70","","0.0","","17","","13","","","","99.35","","","","-45","","NA"
"-95.85","68.64","GJOA HAVEN CLIMATE","2302340","2018-02-26 09:00","2018","02","26","09:00","-32.6","","-36.1","","71","","0.2","","18","","14","","","","99.38","","","","-44","","NA"
"-95.85","68.64","GJOA HAVEN CLIMATE","2302340","2018-02-26 10:00","2018","02","26","10:00","-31.1","","-34.5","","72","","0.2","","18","","16","","","","99.42","","","","-43","","NA"
"-95.85","68.64","GJOA HAVEN CLIMATE","2302340","2018-02-26 11:00","2018","02","26","11:00","-30.7","","-34.1","","72","","0.0","","19","","13","","","","99.41","","","","-41","","NA"
"-95.85","68.64","GJOA HAVEN CLIMATE","2302340","2018-02-26 12:00","2018","02","26","12:00","-29.6","","-32.8","","74","","0.0","","19","","16","","","","99.44","","","","-41","","NA"
"-95.85","68.64","GJOA HAVEN CLIMATE","2302340","2018-02-26 13:00","2018","02","26","13:00","-28.5","","-31.5","","75","","0.0","","19","","16","","","","99.48","","","","-40","","NA"
"-95.85","68.64","GJOA HAVEN CLIMATE","2302340","2018-02-26 14:00","2018","02","26","14:00","-27.8","","-30.7","","76","","0.0","","18","","16","","","","99.49","","","","-39","","NA"
"-95.85","68.64","GJOA HAVEN CLIMATE","2302340","2018-02-26 15:00","2018","02","26","15:00","-27.6","","-30.5","","76","","0.0","","19","","19","","","","99.53","","","","-40","","NA"
"-95.85","68.64","GJOA HAVEN CLIMATE","2302340","2018-02-26 16:00","2018","02","26","16:00","-28.7","","-31.8","","75","","0.0","","19","","21","","","","99.57","","","","-42","","NA"
"-95.85","68.64","GJOA HAVEN CLIMATE","2302340","2018-02-26 17:00","2018","02","26","17:00","-29.7","","-32.8","","74","","0.0","","19","","19","","","","99.59","","","","-42","","NA"
"-95.85","68.64","GJOA HAVEN CLIMATE","2302340","2018-02-26 18:00","2018","02","26","18:00","-30.3","","-33.6","","73","","0.0","","18","","18","","","","99.60","","","","-43","","NA"
"-95.85","68.64","GJOA HAVEN CLIMATE","2302340","2018-02-26 19:00","2018","02","26","19:00","-30.4","","-33.7","","73","","0.0","","19","","19","","","","99.62","","","","-43","","NA"
"-95.85","68.64","GJOA HAVEN CLIMATE","2302340","2018-02-26 20:00","2018","02","26","20:00","-30.9","","-34.2","","73","","0.0","","19","","20","","","","99.64","","","","-44","","NA"
"-95.85","68.64","GJOA HAVEN CLIMATE","2302340","2018-02-26 21:00","2018","02","26","21:00","-30.9","","-34.2","","73","","0.0","","18","","21","","","","99.68","","","","-45","","NA"
"-95.85","68.64","GJOA HAVEN CLIMATE","2302340","2018-02-26 22:00","2018","02","26","22:00","-31.0","","-34.3","","73","","0.0","","19","","20","","","","99.73","","","","-44","","NA"
"-95.85","68.64","GJOA HAVEN CLIMATE","2302340","2018-02-26 23:00","2018","02","26","23:00","-30.9","","-34.2","","73","","0.0","","19","","18","","","","99.77","","","","-44","","NA"
"-95.85","68.64","GJOA HAVEN CLIMATE","2302340","2018-02-27 00:00","2018","02","27","00:00","-30.3","","-33.6","","73","","0.0","","19","","20","","","","99.82","","","","-43","","NA"
"-95.85","68.64","GJOA HAVEN CLIMATE","2302340","2018-02-27 01:00","2018","02","27","01:00","-30.4","","-33.7","","73","","0.0","","19","","21","","","","99.86","","","","-44","","NA"
"-95.85","68.64","GJOA HAVEN CLIMATE","2302340","2018-02-27 02:00","2018","02","27","02:00","-30.3","","-33.5","","73","","0.0","","19","","19","","","","99.91","","","","-43","","NA"
"-95.85","68.64","GJOA HAVEN CLIMATE","2302340","2018-02-27 03:00","2018","02","27","03:00","-30.5","","-33.7","","73","","0.0","","19","","19","","","","99.96","","","","-43","","NA"
"-95.85","68.64","GJOA HAVEN CLIMATE","2302340","2018-02-27 04:00","2018","02","27","04:00","-30.4","","-33.7","","73","","0.0","","18","","18","","","","100.02","","","","-43","","NA"
"-95.85","68.64","GJOA HAVEN CLIMATE","2302340","2018-02-27 05:00","2018","02","27","05:00","-30.2","","-33.4","","74","","0.0","","17","","17","","","","100.09","","","","-42","","NA"
"-95.85","68.64","GJOA HAVEN CLIMATE","2302340","2018-02-27 06:00","2018","02","27","06:00","-29.5","","-32.6","","74","","0.0","","17","","16","","","","100.15","","","","-41","","NA"
"-95.85","68.64","GJOA HAVEN CLIMATE","2302340","2018-02-27 07:00","2018","02","27","07:00","-28.4","","-31.4","","75","","0.0","","18","","16","","","","100.21","","","","-40","","NA"
"-95.85","68.64","GJOA HAVEN CLIMATE","2302340","2018-02-27 08:00","2018","02","27","08:00","-26.6","","-29.4","","77","","0.0","","20","","22","","","","100.24","","","","-39","","NA"
"-95.85","68.64","GJOA HAVEN CLIMATE","2302340","2018-02-27 09:00","2018","02","27","09:00","-26.0","","-28.7","","78","","0.0","","19","","19","","","","100.30","","","","-38","","NA"
"-95.85","68.64","GJOA HAVEN CLIMATE","2302340","2018-02-27 10:00","2018","02","27","10:00","-25.6","","-28.3","","78","","0.0","","18","","16","","","","100.38","","","","-36","","NA"
"-95.85","68.64","GJOA HAVEN CLIMATE","2302340","2018-02-27 11:00","2018","02","27","11:00","-25.1","","-27.9","","78","","0.0","","19","","17","","","","100.42","","","","-36","","NA"
"-95.85","68.64","GJOA HAVEN CLIMATE","2302340","2018-02-27 12:00","2018","02","27","12:00","-25.2","","-28.0","","77","","0.0","","20","","17","","","","100.47","","","","-36","","NA"
"-95.85","68.64","GJOA HAVEN CLIMATE","2302340","2018-02-27 13:00","2018","02","27","13:00","-25.0","","-27.8","","78","","0.0","","18","","15","","","","100.52","","","","-35","","NA"
"-95.85","68.64","GJOA HAVEN CLIMATE","2302340","2018-02-27 14:00","2018","02","27","14:00","-25.2","","-27.9","","78","","0.0","","11","","10","","","","100.57","","","","-33","","NA"
"-95.85","68.64","GJOA HAVEN CLIMATE","2302340","2018-02-27 15:00","2018","02","27","15:00","-25.3","","-27.9","","78","","0.0","","12","","13","","","","100.60","","","","-35","","NA"
"-95.85","68.64","GJOA HAVEN CLIMATE","2302340","2018-02-27 16:00","2018","02","27","16:00","-25.1","","-27.7","","78","","0.0","","12","","12","","","","100.62","","","","-34","","NA"
"-95.85","68.64","GJOA HAVEN CLIMATE","2302340","2018-02-27 17:00","2018","02","27","17:00","-25.3","","-27.9","","78","","0.0","","11","","14","","","","100.64","","","","-35","","NA"
"-95.85","68.64","GJOA HAVEN CLIMATE","2302340","2018-02-27 18:00","2018","02","27","18:00","-25.4","","-28.1","","78","","0.0","","11","","16","","","","100.68","","","","-36","","NA"
"-95.85","68.64","GJOA HAVEN CLIMATE","2302340","2018-02-27 19:00","2018","02","27","19:00","-25.5","","-28.2","","78","","0.0","","10","","17","","","","100.69","","","","-37","","NA"
"-95.85","68.64","GJOA HAVEN CLIMATE","2302340","2018-02-27 20:00","2018","02","27","20:00","-25.3","","-27.9","","78","","0.0","","11","","16","","","","100.72","","","","-36","","NA"
"-95.85","68.64","GJOA HAVEN CLIMATE","2302340","2018-02-27 21:00","2018","02","27","21:00","-25.2","","-27.9","","78","","0.0","","13","","17","","","","100.72","","","","-36","","NA"
"-95.85","68.64","GJOA HAVEN CLIMATE","2302340","2018-02-27 22:00","2018","02","27","22:00","-24.6","","-27.1","","79","","0.0","","12","","18","","","","100.73","","","","-36","","NA"
"-95.85","68.64","GJOA HAVEN CLIMATE","2302340","2018-02-27 23:00","2018","02","27","23:00","-23.2","","-25.6","","81","","0.0","","12","","19","","","","100.73","","","","-34","","NA"
"-95.85","68.64","GJOA HAVEN CLIMATE","2302340","2018-02-28 00:00","2018","02","28","00:00","-20.8","","-22.9","","83","","0.0","","14","","27","","","","100.75","","","","-33","","NA"
"-95.85","68.64","GJOA HAVEN CLIMATE","2302340","2018-02-28 01:00","2018","02","28","01:00","-20.5","","-22.6","","83","","0.0","","13","","22","","","","100.79","","","","-32","","NA"
"-95.85","68.64","GJOA HAVEN CLIMATE","2302340","2018-02-28 02:00","2018","02","28","02:00","-21.9","","-24.2","","82","","0.0","","13","","22","","","","100.81","","","","-33","","NA"
"-95.85","68.64","GJOA HAVEN CLIMATE","2302340","2018-02-28 03:00","2018","02","28","03:00","-22.3","","-24.6","","81","","0.0","","13","","23","","","","100.82","","","","-34","","NA"
"-95.85","68.64","GJOA HAVEN CLIMATE","2302340","2018-02-28 04:00","2018","02","28","04:00","-21.2","","-23.4","","83","","0.0","","13","","19","","","","100.87","","","","-32","","NA"
"-95.85","68.64","GJOA HAVEN CLIMATE","2302340","2018-02-28 05:00","2018","02","28","05:00","-20.4","","-22.5","","83","","0.0","","12","","17","","","","100.90","","","","-30","","NA"
"-95.85","68.64","GJOA HAVEN CLIMATE","2302340","2018-02-28 06:00","2018","02","28","06:00","-21.1","","-23.3","","82","","0.0","","12","","11","","","","100.96","","","","-29","","NA"
"-95.85","68.64","GJOA HAVEN CLIMATE","2302340","2018-02-28 07:00","2018","02","28","07:00","-21.3","","-23.6","","82","","0.0","","12","","12","","","","101.01","","","","-30","","NA"
"-95.85","68.64","GJOA HAVEN CLIMATE","2302340","2018-02-28 08:00","2018","02","28","08:00","-20.2","","-22.2","","83","","0.0","","10","","12","","","","101.06","","","","-28","","NA"
"-95.85","68.64","GJOA HAVEN CLIMATE","2302340","2018-02-28 09:00","2018","02","28","09:00","-18.7","","-20.6","","85","","0.3","","10","","9","","","","101.14","","","","-25","","NA"
"-95.85","68.64","GJOA HAVEN CLIMATE","2302340","2018-02-28 10:00","2018","02","28","10:00","-18.1","","-20.0","","85","","0.0","","12","","11","","","","101.16","","","","-25","","NA"
"-95.85","68.64","GJOA HAVEN CLIMATE","2302340","2018-02-28 11:00","2018","02","28","11:00","-17.7","","-19.6","","86","","0.0","","11","","12","","","","101.19","","","","-25","","NA"
"-95.85","68.64","GJOA HAVEN CLIMATE","2302340","2018-02-28 12:00","2018","02","28","12:00","-17.1","","-18.9","","86","","0.0","","12","","13","","","","101.21","","","","-25","","NA"
"-95.85","68.64","GJOA HAVEN CLIMATE","2302340","2018-02-28 13:00","2018","02","28","13:00","-17.0","","-18.7","","86","","0.0","","12","","13","","","","101.24","","","","-25","","NA"
"-95.85","68.64","GJOA HAVEN CLIMATE","2302340","2018-02-28 14:00","2018","02","28","14:00","-17.0","","-18.8","","86","","0.0","","11","","13","","","","101.28","","","","-25","","NA"
"-95.85","68.64","GJOA HAVEN CLIMATE","2302340","2018-02-28 15:00","2018","02","28","15:00","-16.9","","-18.7","","86","","0.0","","11","","16","","","","101.28","","","","-26","","NA"
"-95.85","68.64","GJOA HAVEN CLIMATE","2302340","2018-02-28 16:00","2018","02","28","16:00","-16.8","","-18.6","","86","","0.0","","11","","13","","","","101.33","","","","-25","","NA"
"-95.85","68.64","GJOA HAVEN CLIMATE","2302340","2018-02-28 17:00","2018","02","28","17:00","-16.4","","-18.1","","87","","0.0","","12","","14","","","","101.36","","","","-24","","NA"
"-95.85","68.64","GJOA HAVEN CLIMATE","2302340","2018-02-28 18:00","2018","02","28","18:00","-15.9","","-17.5","","87","","0.0","","13","","21","","","","101.42","","","","-26","","NA"
"-95.85","68.64","GJOA HAVEN CLIMATE","2302340","2018-02-28 19:00","2018","02","28","19:00","-15.4","","-17.0","","88","","0.0","","14","","24","","","","101.47","","","","-26","","NA"
"-95.85","68.64","GJOA HAVEN CLIMATE","2302340","2018-02-28 20:00","2018","02","28","20:00","-15.4","","-17.0","","88","","0.0","","16","","22","","","","101.51","","","","-25","","NA"
"-95.85","68.64","GJOA HAVEN CLIMATE","2302340","2018-02-28 21:00","2018","02","28","21:00","-15.2","","-16.8","","88","","0.0","","18","","18","","","","101.58","","","","-24","","NA"
"-95.85","68.64","GJOA HAVEN CLIMATE","2302340","2018-02-28 22:00","2018","02","28","22:00","-15.1","","-16.7","","88","","0.0","","18","","20","","","","101.62","","","","-24","","NA"
"-95.85","68.64","GJOA HAVEN CLIMATE","2302340","2018-02-28 23:00","2018","02","28","23:00","-15.4","","-17.0","","87","","0.0","","18","","19","","","","101.67","","","","-24","","NA"
