"Longitude (x)","Latitude (y)","Station Name","Climate ID","Date/Time (LST)","Year","Month","Day","Time (LST)","Temp (°C)","Temp Flag","Dew Point Temp (°C)","Dew Point Temp Flag","Rel Hum (%)","Rel Hum Flag","Precip. Amount (mm)","Precip. Amount Flag","Wind Dir (10s deg)","Wind Dir Flag","Wind Spd (km/h)","Wind Spd Flag","Visibility (km)","Visibility Flag","Stn Press (kPa)","Stn Press Flag","Hmdx","Hmdx Flag","Wind Chill","Wind Chill Flag","Weather"
"-55.79","47.37","SAGONA ISLAND","8403255","2023-03-01 00:30","2023","03","01","00:30","-10.6","","-15.7","","66","","","","36","","35","","","","101.11","","","","-21","","NA"
"-55.79","47.37","SAGONA ISLAND","8403255","2023-03-01 01:30","2023","03","01","01:30","-11.2","","-15.1","","73","","","","1","","25","","","","101.10","","","","-20","","NA"
"-55.79","47.37","SAGONA ISLAND","8403255","2023-03-01 02:30","2023","03","01","02:30","-11.4","","-15.1","","74","","","","3","","28","","","","101.07","","","","-21","","NA"
"-55.79","47.37","SAGONA ISLAND","8403255","2023-03-01 03:30","2023","03","01","03:30","-11.7","","-15.8","","71","","","","2","","27","","","","101.06","","","","-21","","NA"
"-55.79","47.37","SAGONA ISLAND","8403255","2023-03-01 04:30","2023","03","01","04:30","-11.9","","-15.3","","76","","","","1","","28","","","","101.07","","","","-22","","NA"
"-55.79","47.37","SAGONA ISLAND","8403255","2023-03-01 05:30","2023","03","01","05:30","-12.4","","-16.6","","71","","","","1","","30","","","","101.06","","","","-23","","NA"
"-55.79","47.37","SAGONA ISLAND","8403255","2023-03-01 06:30","2023","03","01","06:30","-13.3","","-16.8","","75","","","","1","","25","","","","101.08","","","","-23","","NA"
"-55.79","47.37","SAGONA ISLAND","8403255","2023-03-01 07:30","2023","03","01","07:30","-13.0","","-18.1","","65","","","","36","","31","","","","101.06","","","","-24","","NA"
"-55.79","47.37","SAGONA ISLAND","8403255","2023-03-01 08:30","2023","03","01","08:30","-13.0","","-19.4","","59","","","","1","","27","","","","101.02","","","","-23","","NA"
"-55.79","47.37","SAGONA ISLAND","8403255","2023-03-01 09:30","2023","03","01","09:30","-13.0","","-19.9","","56","","","","35","","25","","","","101.06","","","","-23","","NA"
"-55.79","47.37","SAGONA ISLAND","8403255","2023-03-01 10:30","2023","03","01","10:30","-12.2","","-19.8","","53","","","","35","","18","","","","101.03","","","","-20","","NA"
"-55.79","47.37","SAGONA ISLAND","8403255","2023-03-01 11:30","2023","03","01","11:30","-11.1","","-19.4","","50","","","","35","","16","","","","100.95","","","","-18","","NA"
"-55.79","47.37","SAGONA ISLAND","8403255","2023-03-01 12:30","2023","03","01","12:30","-10.3","","-19.2","","48","","","","36","","16","","","","100.85","","","","-17","","NA"
"-55.79","47.37","SAGONA ISLAND","8403255","2023-03-01 13:30","2023","03","01","13:30","-9.4","","-19.9","","42","","","","34","","24","","","","100.74","","","","-18","","NA"
"-55.79","47.37","SAGONA ISLAND","8403255","2023-03-01 14:30","2023","03","01","14:30","-8.6","","-20.1","","39","","","","34","","23","","","","100.62","","","","-17","","NA"
"-55.79","47.37","SAGONA ISLAND","8403255","2023-03-01 15:30","2023","03","01","15:30","-8.1","","-19.5","","40","","","","35","","30","","","","100.57","","","","-17","","NA"
"-55.79","47.37","SAGONA ISLAND","8403255","2023-03-01 16:30","2023","03","01","16:30","-7.6","","-20.4","","35","","","","35","","26","","","","100.53","","","","-16","","NA"
"-55.79","47.37","SAGONA ISLAND","8403255","2023-03-01 17:30","2023","03","01","17:30","-7.6","","-18.1","","43","","","","35","","31","","","","100.53","","","","-17","","NA"
"-55.79","47.37","SAGONA ISLAND","8403255","2023-03-01 18:30","2023","03","01","18:30","-7.6","","-18.0","","43","","","","34","","42","","","","100.50","","","","-18","","NA"
"-55.79","47.37","SAGONA ISLAND","8403255","2023-03-01 19:30","2023","03","01","19:30","-8.4","","-18.7","","43","","","","34","","42","","","","100.46","","","","-19","","NA"
"-55.79","47.37","SAGONA ISLAND","8403255","2023-03-01 20:30","2023","03","01","20:30","-8.7","","-18.1","","47","","","","34","","39","","","","100.47","","","","-19","","NA"
"-55.79","47.37","SAGONA ISLAND","8403255","2023-03-01 21:30","2023","03","01","21:30","-8.8","","-16.8","","52","","","","34","","46","","","","100.43","","","","-20","","NA"
"-55.79","47.37","SAGONA ISLAND","8403255","2023-03-01 22:30","2023","03","01","22:30","-9.2","","-17.0","","53","","","","33","","41","","","","100.42","","","","-20","","NA"
"-55.79","47.37","SAGONA ISLAND","8403255","2023-03-01 23:30","2023","03","01","23:30","-9.9","","-16.2","","60","","","","34","","42","","","","100.37","","","","-21","","NA"
"-55.79","47.37","SAGONA ISLAND","8403255","2023-03-02 00:30","2023","03","02","00:30","-10.3","","-16.5","","60","","","","34","","36","","","","100.32","","","","-21","","NA"
"-55.79","47.37","SAGONA ISLAND","8403255","2023-03-02 01:30","2023","03","02","01:30","-10.3","","-17.0","","58","","","","35","","38","","","","100.23","","","","-21","","NA"
"-55.79","47.37","SAGONA ISLAND","8403255","2023-03-02 02:30","2023","03","02","02:30","-10.3","","-16.6","","60","","","","35","","34","","","","100.22","","","","-20","","NA"
"-55.79","47.37","SAGONA ISLAND","8403255","2023-03-02 03:30","2023","03","02","03:30","-10.2","","-16.0","","62","","","","34","","35","","","","100.24","","","","-20","","NA"
"-55.79","47.37","SAGONA ISLAND","8403255","2023-03-02 04:30","2023","03","02","04:30","-9.6","","-15.7","","61","","","","34","","37","","","","100.17","","","","-20","","NA"
"-55.79","47.37","SAGONA ISLAND","8403255","2023-03-02 05:30","2023","03","02","05:30","-8.5","","-14.8","","60","","","","33","","49","","","","100.12","","","","-20","","NA"
"-55.79","47.37","SAGONA ISLAND","8403255","2023-03-02 06:30","2023","03","02","06:30","-7.9","","-13.7","","63","","","","32","","57","","","","100.05","","","","-19","","NA"
"-55.79","47.37","SAGONA ISLAND","8403255","2023-03-02 07:30","2023","03","02","07:30","-7.9","","-16.6","","50","","","","31","","57","","","","100.06","","","","-19","","NA"
"-55.79","47.37","SAGONA ISLAND","8403255","2023-03-02 08:30","2023","03","02","08:30","-7.3","","-15.7","","51","","","","31","","47","","","","100.03","","","","-18","","NA"
"-55.79","47.37","SAGONA ISLAND","8403255","2023-03-02 09:30","2023","03","02","09:30","-6.8","","-17.2","","43","","","","32","","60","","","","99.91","","","","-18","","NA"
"-55.79","47.37","SAGONA ISLAND","8403255","2023-03-02 10:30","2023","03","02","10:30","-6.0","","-16.6","","43","","","","31","","56","","","","99.88","","","","-17","","NA"
"-55.79","47.37","SAGONA ISLAND","8403255","2023-03-02 11:30","2023","03","02","11:30","-5.3","","-16.6","","41","","","","31","","53","","","","99.84","","","","-16","","NA"
"-55.79","47.37","SAGONA ISLAND","8403255","2023-03-02 12:30","2023","03","02","12:30","-4.5","","-15.7","","41","","","","31","","51","","","","99.78","","","","-14","","NA"
"-55.79","47.37","SAGONA ISLAND","8403255","2023-03-02 13:30","2023","03","02","13:30","-4.1","","-14.0","","46","","","","30","","60","","","","99.63","","","","-14","","NA"
"-55.79","47.37","SAGONA ISLAND","8403255","2023-03-02 14:30","2023","03","02","14:30","-4.0","","-13.2","","49","","","","30","","53","","","","99.60","","","","-14","","NA"
"-55.79","47.37","SAGONA ISLAND","8403255","2023-03-02 15:30","2023","03","02","15:30","-3.4","","-12.4","","50","","","","30","","57","","","","99.50","","","","-13","","NA"
"-55.79","47.37","SAGONA ISLAND","8403255","2023-03-02 16:30","2023","03","02","16:30","-3.4","","-11.6","","53","","","","30","","60","","","","99.52","","","","-13","","NA"
"-55.79","47.37","SAGONA ISLAND","8403255","2023-03-02 17:30","2023","03","02","17:30","-3.7","","-9.4","","65","","","","30","","54","","","","99.55","","","","-13","","NA"
"-55.79","47.37","SAGONA ISLAND","8403255","2023-03-02 18:30","2023","03","02","18:30","-3.9","","-8.8","","69","","","","30","","59","","","","99.53","","","","-14","","NA"
"-55.79","47.37","SAGONA ISLAND","8403255","2023-03-02 19:30","2023","03","02","19:30","-3.8","","-8.5","","70","","","","31","","46","","","","99.64","","","","-13","","NA"
"-55.79","47.37","SAGONA ISLAND","8403255","2023-03-02 20:30","2023","03","02","20:30","-3.9","","-8.4","","71","","","","30","","52","","","","99.61","","","","-14","","NA"
"-55.79","47.37","SAGONA ISLAND","8403255","2023-03-02 21:30","2023","03","02","21:30","-4.4","","-8.9","","71","","","","32","","46","","","","99.53","","","","-14","","NA"
"-55.79","47.37","SAGONA ISLAND","8403255","2023-03-02 22:30","2023","03","02","22:30","-4.6","","-9.2","","71","","","","31","","46","","","","99.45","","","","-14","","NA"
"-55.79","47.37","SAGONA ISLAND","8403255","2023-03-02 23:30","2023","03","02","23:30","-4.9","","-8.9","","73","","","","32","","35","","","","99.38","","","","-13","","NA"
"-55.79","47.37","SAGONA ISLAND","8403255","2023-03-03 00:30","2023","03","03","00:30","-5.5","","-9.2","","75","","","","32","","31","","","","99.37","","","","-14","","NA"
"-55.79","47.37","SAGONA ISLAND","8403255","2023-03-03 01:30","2023","03","03","01:30","-5.9","","-9.7","","75","","","","35","","30","","","","99.29","","","","-14","","NA"
"-55.79","47.37","SAGONA ISLAND","8403255","2023-03-03 02:30","2023","03","03","02:30","-6.4","","-10.3","","74","","","","35","","15","","","","99.22","","","","-12","","NA"
"-55.79","47.37","SAGONA ISLAND","8403255","2023-03-03 03:30","2023","03","03","03:30","-6.2","","-10.1","","74","","","","34","","8","","","","99.17","","","","-10","","NA"
"-55.79","47.37","SAGONA ISLAND","8403255","2023-03-03 04:30","2023","03","03","04:30","-6.0","","-10.4","","71","","","","1","","10","","","","99.10","","","","-10","","NA"
"-55.79","47.37","SAGONA ISLAND","8403255","2023-03-03 05:30","2023","03","03","05:30","-6.2","","-10.4","","72","","","","1","","12","","","","98.99","","","","-11","","NA"
"-55.79","47.37","SAGONA ISLAND","8403255","2023-03-03 06:30","2023","03","03","06:30","-6.4","","-10.2","","74","","","","2","","11","","","","98.95","","","","-11","","NA"
"-55.79","47.37","SAGONA ISLAND","8403255","2023-03-03 07:30","2023","03","03","07:30","-6.3","","-10.1","","75","","","","1","","14","","","","98.87","","","","-12","","NA"
"-55.79","47.37","SAGONA ISLAND","8403255","2023-03-03 08:30","2023","03","03","08:30","-6.2","","-10.3","","73","","","","1","","14","","","","98.82","","","","-12","","NA"
"-55.79","47.37","SAGONA ISLAND","8403255","2023-03-03 09:30","2023","03","03","09:30","-5.7","","-10.8","","67","","","","35","","16","","","","98.75","","","","-12","","NA"
"-55.79","47.37","SAGONA ISLAND","8403255","2023-03-03 10:30","2023","03","03","10:30","-5.2","","-11.5","","61","","","","36","","31","","","","98.72","","","","-13","","NA"
"-55.79","47.37","SAGONA ISLAND","8403255","2023-03-03 11:30","2023","03","03","11:30","-4.5","","-12.0","","56","","","","34","","15","","","","98.68","","","","-10","","NA"
"-55.79","47.37","SAGONA ISLAND","8403255","2023-03-03 12:30","2023","03","03","12:30","-3.8","","-13.5","","47","","","","34","","28","","","","98.59","","","","-11","","NA"
"-55.79","47.37","SAGONA ISLAND","8403255","2023-03-03 13:30","2023","03","03","13:30","-3.0","","-13.1","","46","","","","34","","32","","","","98.51","","","","-11","","NA"
"-55.79","47.37","SAGONA ISLAND","8403255","2023-03-03 14:30","2023","03","03","14:30","-1.9","","-12.3","","45","","","","34","","34","","","","98.47","","","","-9","","NA"
"-55.79","47.37","SAGONA ISLAND","8403255","2023-03-03 15:30","2023","03","03","15:30","-0.6","","-13.4","","37","","","","34","","36","","","","98.46","","","","-8","","NA"
"-55.79","47.37","SAGONA ISLAND","8403255","2023-03-03 16:30","2023","03","03","16:30","-1.0","","-9.9","","51","","","","34","","44","","","","98.52","","","","-9","","NA"
"-55.79","47.37","SAGONA ISLAND","8403255","2023-03-03 17:30","2023","03","03","17:30","-1.1","","-10.4","","49","","","","34","","52","","","","98.59","","","","-10","","NA"
"-55.79","47.37","SAGONA ISLAND","8403255","2023-03-03 18:30","2023","03","03","18:30","-1.6","","-9.2","","56","","","","33","","54","","","","98.71","","","","-11","","NA"
"-55.79","47.37","SAGONA ISLAND","8403255","2023-03-03 19:30","2023","03","03","19:30","-2.6","","-10.8","","53","","","","33","","55","","","","98.81","","","","-12","","NA"
"-55.79","47.37","SAGONA ISLAND","8403255","2023-03-03 20:30","2023","03","03","20:30","-3.5","","-10.1","","60","","","","32","","62","","","","98.82","","","","-14","","NA"
"-55.79","47.37","SAGONA ISLAND","8403255","2023-03-03 21:30","2023","03","03","21:30","-4.5","","-10.6","","62","","","","33","","59","","","","98.90","","","","-15","","NA"
"-55.79","47.37","SAGONA ISLAND","8403255","2023-03-03 22:30","2023","03","03","22:30","-4.3","","-9.0","","70","","","","32","","45","","","","98.95","","","","-14","","NA"
"-55.79","47.37","SAGONA ISLAND","8403255","2023-03-03 23:30","2023","03","03","23:30","-4.2","","-9.2","","68","","","","31","","53","","","","98.95","","","","-14","","NA"
"-55.79","47.37","SAGONA ISLAND","8403255","2023-03-04 00:30","2023","03","04","00:30","-4.1","","-8.9","","69","","","","32","","51","","","","98.98","","","","-14","","NA"
"-55.79","47.37","SAGONA ISLAND","8403255","2023-03-04 01:30","2023","03","04","01:30","-4.1","","-9.2","","67","","","","32","","49","","","","99.05","","","","-14","","NA"
"-55.79","47.37","SAGONA ISLAND","8403255","2023-03-04 02:30","2023","03","04","02:30","-4.3","","-9.9","","65","","","","32","","50","","","","99.08","","","","-14","","NA"
"-55.79","47.37","SAGONA ISLAND","8403255","2023-03-04 03:30","2023","03","04","03:30","-4.4","","-9.7","","66","","","","32","","47","","","","99.13","","","","-14","","NA"
"-55.79","47.37","SAGONA ISLAND","8403255","2023-03-04 04:30","2023","03","04","04:30","-4.7","","-9.8","","68","","","","31","","50","","","","99.16","","","","-15","","NA"
"-55.79","47.37","SAGONA ISLAND","8403255","2023-03-04 05:30","2023","03","04","05:30","-5.2","","-9.8","","70","","","","31","","53","","","","99.27","","","","-15","","NA"
"-55.79","47.37","SAGONA ISLAND","8403255","2023-03-04 06:30","2023","03","04","06:30","-5.9","","-10.8","","68","","","","31","","54","","","","99.36","","","","-17","","NA"
"-55.79","47.37","SAGONA ISLAND","8403255","2023-03-04 07:30","2023","03","04","07:30","-5.8","","-11.8","","63","","","","31","","55","","","","99.42","","","","-16","","NA"
"-55.79","47.37","SAGONA ISLAND","8403255","2023-03-04 08:30","2023","03","04","08:30","-6.3","","-13.2","","58","","","","32","","51","","","","99.42","","","","-17","","NA"
"-55.79","47.37","SAGONA ISLAND","8403255","2023-03-04 09:30","2023","03","04","09:30","-6.5","","-14.6","","52","","","","31","","52","","","","99.43","","","","-17","","NA"
"-55.79","47.37","SAGONA ISLAND","8403255","2023-03-04 10:30","2023","03","04","10:30","-6.2","","-14.5","","52","","","","31","","50","","","","99.38","","","","-17","","NA"
"-55.79","47.37","SAGONA ISLAND","8403255","2023-03-04 11:30","2023","03","04","11:30","-6.0","","-14.9","","49","","","","32","","54","","","","99.33","","","","-17","","NA"
"-55.79","47.37","SAGONA ISLAND","8403255","2023-03-04 12:30","2023","03","04","12:30","-5.5","","-14.6","","48","","","","32","","51","","","","99.28","","","","-16","","NA"
"-55.79","47.37","SAGONA ISLAND","8403255","2023-03-04 13:30","2023","03","04","13:30","-4.8","","-14.1","","48","","","","33","","45","","","","99.22","","","","-14","","NA"
"-55.79","47.37","SAGONA ISLAND","8403255","2023-03-04 14:30","2023","03","04","14:30","-4.5","","-14.6","","45","","","","31","","41","","","","99.27","","","","-14","","NA"
"-55.79","47.37","SAGONA ISLAND","8403255","2023-03-04 15:30","2023","03","04","15:30","-4.0","","-13.7","","47","","","","30","","44","","","","99.19","","","","-13","","NA"
"-55.79","47.37","SAGONA ISLAND","8403255","2023-03-04 16:30","2023","03","04","16:30","-3.8","","-13.6","","47","","","","31","","47","","","","99.11","","","","-13","","NA"
"-55.79","47.37","SAGONA ISLAND","8403255","2023-03-04 17:30","2023","03","04","17:30","-4.0","","-12.8","","50","","","","32","","48","","","","99.04","","","","-13","","NA"
"-55.79","47.37","SAGONA ISLAND","8403255","2023-03-04 18:30","2023","03","04","18:30","-4.4","","-10.8","","61","","","","32","","50","","","","99.02","","","","-14","","NA"
"-55.79","47.37","SAGONA ISLAND","8403255","2023-03-04 19:30","2023","03","04","19:30","-5.1","","-10.5","","65","","","","31","","48","","","","99.00","","","","-15","","NA"
"-55.79","47.37","SAGONA ISLAND","8403255","2023-03-04 20:30","2023","03","04","20:30","-5.7","","-11.2","","65","","","","32","","46","","","","99.04","","","","-16","","NA"
"-55.79","47.37","SAGONA ISLAND","8403255","2023-03-04 21:30","2023","03","04","21:30","-6.6","","-11.9","","66","","","","32","","47","","","","98.99","","","","-17","","NA"
"-55.79","47.37","SAGONA ISLAND","8403255","2023-03-04 22:30","2023","03","04","22:30","-6.9","","-11.7","","69","","","","33","","49","","","","98.97","","","","-17","","NA"
"-55.79","47.37","SAGONA ISLAND","8403255","2023-03-04 23:30","2023","03","04","23:30","-7.2","","-11.8","","70","","","","32","","41","","","","98.90","","","","-17","","NA"
"-55.79","47.37","SAGONA ISLAND","8403255","2023-03-05 00:30","2023","03","05","00:30","-7.2","","-11.4","","72","","","","32","","39","","","","98.80","","","","-17","","NA"
"-55.79","47.37","SAGONA ISLAND","8403255","2023-03-05 01:30","2023","03","05","01:30","-7.7","","-11.8","","72","","","","32","","34","","","","98.74","","","","-17","","NA"
"-55.79","47.37","SAGONA ISLAND","8403255","2023-03-05 02:30","2023","03","05","02:30","-7.9","","-12.3","","71","","","","32","","33","","","","98.68","","","","-17","","NA"
"-55.79","47.37","SAGONA ISLAND","8403255","2023-03-05 03:30","2023","03","05","03:30","-8.3","","-12.8","","70","","","","33","","38","","","","98.62","","","","-18","","NA"
"-55.79","47.37","SAGONA ISLAND","8403255","2023-03-05 04:30","2023","03","05","04:30","-8.5","","-12.6","","72","","","","33","","35","","","","98.57","","","","-18","","NA"
"-55.79","47.37","SAGONA ISLAND","8403255","2023-03-05 05:30","2023","03","05","05:30","-8.4","","-12.5","","72","","","","32","","31","","","","98.54","","","","-18","","NA"
"-55.79","47.37","SAGONA ISLAND","8403255","2023-03-05 06:30","2023","03","05","06:30","-8.0","","-11.7","","75","","","","31","","28","","","","98.50","","","","-17","","NA"
"-55.79","47.37","SAGONA ISLAND","8403255","2023-03-05 07:30","2023","03","05","07:30","-7.3","","-12.5","","66","","","","32","","28","","","","98.49","","","","-16","","NA"
"-55.79","47.37","SAGONA ISLAND","8403255","2023-03-05 08:30","2023","03","05","08:30","-6.7","","-13.6","","58","","","","29","","26","","","","98.43","","","","-15","","NA"
"-55.79","47.37","SAGONA ISLAND","8403255","2023-03-05 09:30","2023","03","05","09:30","-5.7","","-11.4","","64","","","","30","","28","","","","98.38","","","","-14","","NA"
"-55.79","47.37","SAGONA ISLAND","8403255","2023-03-05 10:30","2023","03","05","10:30","-5.2","","-11.8","","60","","","","29","","24","","","","98.33","","","","-12","","NA"
"-55.79","47.37","SAGONA ISLAND","8403255","2023-03-05 11:30","2023","03","05","11:30","-4.9","","-11.0","","62","","","","26","","26","","","","98.23","","","","-12","","NA"
"-55.79","47.37","SAGONA ISLAND","8403255","2023-03-05 12:30","2023","03","05","12:30","-4.7","","-10.4","","64","","","","28","","29","","","","98.12","","","","-12","","NA"
"-55.79","47.37","SAGONA ISLAND","8403255","2023-03-05 13:30","2023","03","05","13:30","-4.4","","-9.3","","69","","","","27","","34","","","","98.02","","","","-13","","NA"
"-55.79","47.37","SAGONA ISLAND","8403255","2023-03-05 14:30","2023","03","05","14:30","-4.3","","-8.3","","74","","","","26","","34","","","","97.98","","","","-13","","NA"
"-55.79","47.37","SAGONA ISLAND","8403255","2023-03-05 15:30","2023","03","05","15:30","-4.4","","-7.1","","81","","","","27","","37","","","","97.94","","","","-13","","NA"
"-55.79","47.37","SAGONA ISLAND","8403255","2023-03-05 16:30","2023","03","05","16:30","-4.4","","-5.7","","91","","","","27","","35","","","","97.93","","","","-13","","NA"
"-55.79","47.37","SAGONA ISLAND","8403255","2023-03-05 17:30","2023","03","05","17:30","-4.1","","-4.7","","95","","","","25","","29","","","","97.91","","","","-12","","NA"
"-55.79","47.37","SAGONA ISLAND","8403255","2023-03-05 18:30","2023","03","05","18:30","-3.9","","-4.6","","94","","","","26","","29","","","","97.91","","","","-11","","NA"
"-55.79","47.37","SAGONA ISLAND","8403255","2023-03-05 19:30","2023","03","05","19:30","-3.9","","-5.1","","91","","","","25","","26","","","","97.92","","","","-11","","NA"
"-55.79","47.37","SAGONA ISLAND","8403255","2023-03-05 20:30","2023","03","05","20:30","-3.8","","-6.1","","84","","","","26","","25","","","","97.95","","","","-11","","NA"
"-55.79","47.37","SAGONA ISLAND","8403255","2023-03-05 21:30","2023","03","05","21:30","-3.5","","-6.2","","82","","","","24","","15","","","","97.97","","","","-9","","NA"
"-55.79","47.37","SAGONA ISLAND","8403255","2023-03-05 22:30","2023","03","05","22:30","-3.0","","-5.4","","84","","","","21","","15","","","","97.98","","","","-8","","NA"
"-55.79","47.37","SAGONA ISLAND","8403255","2023-03-05 23:30","2023","03","05","23:30","-2.9","","-5.7","","82","","","","20","","18","","","","97.98","","","","-9","","NA"
"-55.79","47.37","SAGONA ISLAND","8403255","2023-03-06 00:30","2023","03","06","00:30","-3.2","","-4.3","","92","","","","20","","20","","","","97.99","","","","-9","","NA"
"-55.79","47.37","SAGONA ISLAND","8403255","2023-03-06 01:30","2023","03","06","01:30","-2.6","","-4.9","","84","","","","20","","21","","","","98.02","","","","-9","","NA"
"-55.79","47.37","SAGONA ISLAND","8403255","2023-03-06 02:30","2023","03","06","02:30","-2.4","","-4.9","","83","","","","18","","18","","","","98.08","","","","-8","","NA"
"-55.79","47.37","SAGONA ISLAND","8403255","2023-03-06 03:30","2023","03","06","03:30","-2.2","","-4.4","","85","","","","18","","18","","","","98.11","","","","-8","","NA"
"-55.79","47.37","SAGONA ISLAND","8403255","2023-03-06 04:30","2023","03","06","04:30","-2.2","","-4.2","","86","","","","17","","19","","","","98.15","","","","-8","","NA"
"-55.79","47.37","SAGONA ISLAND","8403255","2023-03-06 05:30","2023","03","06","05:30","-2.6","","-3.6","","93","","","","17","","19","","","","98.19","","","","-8","","NA"
"-55.79","47.37","SAGONA ISLAND","8403255","2023-03-06 06:30","2023","03","06","06:30","-2.3","","-3.1","","94","","","","17","","20","","","","98.23","","","","-8","","NA"
"-55.79","47.37","SAGONA ISLAND","8403255","2023-03-06 07:30","2023","03","06","07:30","-2.3","","-3.1","","94","","","","17","","28","","","","98.26","","","","-9","","NA"
"-55.79","47.37","SAGONA ISLAND","8403255","2023-03-06 08:30","2023","03","06","08:30","-2.0","","-4.0","","86","","","","18","","18","","","","98.32","","","","-7","","NA"
"-55.79","47.37","SAGONA ISLAND","8403255","2023-03-06 09:30","2023","03","06","09:30","-1.7","","-6.0","","72","","","","15","","15","","","","98.35","","","","-7","","NA"
"-55.79","47.37","SAGONA ISLAND","8403255","2023-03-06 10:30","2023","03","06","10:30","-1.2","","-7.0","","64","","","","12","","16","","","","98.37","","","","-6","","NA"
"-55.79","47.37","SAGONA ISLAND","8403255","2023-03-06 11:30","2023","03","06","11:30","-0.8","","-5.9","","69","","","","13","","15","","","","98.38","","","","-5","","NA"
"-55.79","47.37","SAGONA ISLAND","8403255","2023-03-06 12:30","2023","03","06","12:30","-1.3","","-6.0","","70","","","","11","","16","","","","98.37","","","","-6","","NA"
"-55.79","47.37","SAGONA ISLAND","8403255","2023-03-06 13:30","2023","03","06","13:30","-1.6","","-5.9","","73","","","","7","","18","","","","98.36","","","","-7","","NA"
"-55.79","47.37","SAGONA ISLAND","8403255","2023-03-06 14:30","2023","03","06","14:30","-1.5","","-5.4","","75","","","","7","","19","","","","98.37","","","","-7","","NA"
"-55.79","47.37","SAGONA ISLAND","8403255","2023-03-06 15:30","2023","03","06","15:30","-1.1","","-4.8","","76","","","","6","","7","","","","98.38","","","","-4","","NA"
"-55.79","47.37","SAGONA ISLAND","8403255","2023-03-06 16:30","2023","03","06","16:30","-0.9","","-4.8","","75","","","","9","","13","","","","98.40","","","","-5","","NA"
"-55.79","47.37","SAGONA ISLAND","8403255","2023-03-06 17:30","2023","03","06","17:30","-1.1","","-4.1","","80","","","","9","","14","","","","98.46","","","","-6","","NA"
"-55.79","47.37","SAGONA ISLAND","8403255","2023-03-06 18:30","2023","03","06","18:30","-1.3","","-3.1","","88","","","","10","","20","","","","98.50","","","","-7","","NA"
"-55.79","47.37","SAGONA ISLAND","8403255","2023-03-06 19:30","2023","03","06","19:30","-1.7","","-3.0","","91","","","","11","","18","","","","98.54","","","","-7","","NA"
"-55.79","47.37","SAGONA ISLAND","8403255","2023-03-06 20:30","2023","03","06","20:30","-1.7","","-2.1","","97","","","","10","","24","","","","98.61","","","","-8","","NA"
"-55.79","47.37","SAGONA ISLAND","8403255","2023-03-06 21:30","2023","03","06","21:30","-2.0","","-2.6","","96","","","","10","","14","","","","98.65","","","","-7","","NA"
"-55.79","47.37","SAGONA ISLAND","8403255","2023-03-06 22:30","2023","03","06","22:30","-2.3","","-2.6","","97","","","","12","","12","","","","98.64","","","","-7","","NA"
"-55.79","47.37","SAGONA ISLAND","8403255","2023-03-06 23:30","2023","03","06","23:30","-2.0","","-2.3","","97","","","","9","","13","","","","98.69","","","","-6","","NA"
"-55.79","47.37","SAGONA ISLAND","8403255","2023-03-07 00:30","2023","03","07","00:30","-1.6","","-2.4","","94","","","","8","","17","","","","98.70","","","","-7","","NA"
"-55.79","47.37","SAGONA ISLAND","8403255","2023-03-07 01:30","2023","03","07","01:30","-1.4","","-1.9","","96","","","","7","","19","","","","98.73","","","","-7","","NA"
"-55.79","47.37","SAGONA ISLAND","8403255","2023-03-07 02:30","2023","03","07","02:30","-1.1","","-1.8","","95","","","","7","","29","","","","98.75","","","","-8","","NA"
"-55.79","47.37","SAGONA ISLAND","8403255","2023-03-07 03:30","2023","03","07","03:30","-1.1","","-1.8","","95","","","","6","","29","","","","98.80","","","","-8","","NA"
"-55.79","47.37","SAGONA ISLAND","8403255","2023-03-07 04:30","2023","03","07","04:30","-1.3","","-1.8","","96","","","","4","","28","","","","98.84","","","","-8","","NA"
"-55.79","47.37","SAGONA ISLAND","8403255","2023-03-07 05:30","2023","03","07","05:30","-1.4","","-1.9","","97","","","","4","","28","","","","98.91","","","","-8","","NA"
"-55.79","47.37","SAGONA ISLAND","8403255","2023-03-07 06:30","2023","03","07","06:30","-1.6","","-2.5","","93","","","","4","","31","","","","98.97","","","","-9","","NA"
"-55.79","47.37","SAGONA ISLAND","8403255","2023-03-07 07:30","2023","03","07","07:30","-1.6","","-3.1","","90","","","","3","","32","","","","99.02","","","","-9","","NA"
"-55.79","47.37","SAGONA ISLAND","8403255","2023-03-07 08:30","2023","03","07","08:30","-1.7","","-4.5","","81","","","","3","","36","","","","99.04","","","","-9","","NA"
"-55.79","47.37","SAGONA ISLAND","8403255","2023-03-07 09:30","2023","03","07","09:30","-1.6","","-5.2","","77","","","","3","","34","","","","99.06","","","","-9","","NA"
"-55.79","47.37","SAGONA ISLAND","8403255","2023-03-07 10:30","2023","03","07","10:30","-1.5","","-5.0","","77","","","","1","","30","","","","99.06","","","","-8","","NA"
"-55.79","47.37","SAGONA ISLAND","8403255","2023-03-07 11:30","2023","03","07","11:30","-1.2","","-5.5","","73","","","","36","","22","","","","99.06","","","","-7","","NA"
"-55.79","47.37","SAGONA ISLAND","8403255","2023-03-07 12:30","2023","03","07","12:30","-2.3","","-3.7","","90","","","","1","","25","","","","98.99","","","","-9","","NA"
"-55.79","47.37","SAGONA ISLAND","8403255","2023-03-07 13:30","2023","03","07","13:30","-1.8","","-3.2","","90","","","","36","","26","","","","98.94","","","","-8","","NA"
"-55.79","47.37","SAGONA ISLAND","8403255","2023-03-07 14:30","2023","03","07","14:30","-1.4","","-2.0","","95","","","","36","","28","","","","98.92","","","","-8","","NA"
"-55.79","47.37","SAGONA ISLAND","8403255","2023-03-07 15:30","2023","03","07","15:30","-0.7","","-1.6","","94","","","","36","","21","","","","98.91","","","","-6","","NA"
"-55.79","47.37","SAGONA ISLAND","8403255","2023-03-07 16:30","2023","03","07","16:30","-0.2","","-0.6","","97","","","","34","","18","","","","98.89","","","","-5","","NA"
"-55.79","47.37","SAGONA ISLAND","8403255","2023-03-07 17:30","2023","03","07","17:30","0.7","","0.5","","99","","","","36","","12","","","","98.88","","","","","","NA"
"-55.79","47.37","SAGONA ISLAND","8403255","2023-03-07 18:30","2023","03","07","18:30","2.4","","2.3","","100","","","","4","","44","","","","98.87","","","","","","NA"
"-55.79","47.37","SAGONA ISLAND","8403255","2023-03-07 19:30","2023","03","07","19:30","2.1","","2.1","","100","","","","3","","51","","","","98.87","","","","","","NA"
"-55.79","47.37","SAGONA ISLAND","8403255","2023-03-07 20:30","2023","03","07","20:30","2.3","","2.2","","99","","","","3","","56","","","","98.93","","","","","","NA"
"-55.79","47.37","SAGONA ISLAND","8403255","2023-03-07 21:30","2023","03","07","21:30","2.4","","1.3","","93","","","","3","","54","","","","98.99","","","","","","NA"
"-55.79","47.37","SAGONA ISLAND","8403255","2023-03-07 22:30","2023","03","07","22:30","2.2","","1.4","","95","","","","3","","48","","","","99.05","","","","","","NA"
"-55.79","47.37","SAGONA ISLAND","8403255","2023-03-07 23:30","2023","03","07","23:30","2.1","","0.9","","92","","","","3","","51","","","","99.07","","","","","","NA"
"-55.79","47.37","SAGONA ISLAND","8403255","2023-03-08 00:30","2023","03","08","00:30","2.1","","0.8","","92","","","","3","","48","","","","99.09","","","","","","NA"
"-55.79","47.37","SAGONA ISLAND","8403255","2023-03-08 01:30","2023","03","08","01:30","1.9","","1.0","","94","","","","3","","44","","","","99.09","","","","","","NA"
"-55.79","47.37","SAGONA ISLAND","8403255","2023-03-08 02:30","2023","03","08","02:30","2.1","","0.6","","90","","","","3","","50","","","","99.10","","","","","","NA"
"-55.79","47.37","SAGONA ISLAND","8403255","2023-03-08 03:30","2023","03","08","03:30","1.8","","1.3","","96","","","","3","","52","","","","99.12","","","","","","NA"
"-55.79","47.37","SAGONA ISLAND","8403255","2023-03-08 04:30","2023","03","08","04:30","2.0","","0.4","","89","","","","3","","47","","","","99.14","","","","","","NA"
"-55.79","47.37","SAGONA ISLAND","8403255","2023-03-08 05:30","2023","03","08","05:30","1.9","","0.3","","89","","","","3","","43","","","","99.18","","","","","","NA"
"-55.79","47.37","SAGONA ISLAND","8403255","2023-03-08 06:30","2023","03","08","06:30","2.0","","0.0","","87","","","","3","","53","","","","99.17","","","","","","NA"
"-55.79","47.37","SAGONA ISLAND","8403255","2023-03-08 07:30","2023","03","08","07:30","1.9","","-0.6","","83","","","","3","","52","","","","99.20","","","","","","NA"
"-55.79","47.37","SAGONA ISLAND","8403255","2023-03-08 08:30","2023","03","08","08:30","1.9","","-1.2","","80","","","","2","","68","","","","99.15","","","","","","NA"
"-55.79","47.37","SAGONA ISLAND","8403255","2023-03-08 09:30","2023","03","08","09:30","2.0","","-1.5","","78","","","","3","","62","","","","99.21","","","","","","NA"
"-55.79","47.37","SAGONA ISLAND","8403255","2023-03-08 10:30","2023","03","08","10:30","2.3","","-1.8","","74","","","","3","","63","","","","99.15","","","","","","NA"
"-55.79","47.37","SAGONA ISLAND","8403255","2023-03-08 11:30","2023","03","08","11:30","2.3","","-1.9","","73","","","","3","","64","","","","99.16","","","","","","NA"
"-55.79","47.37","SAGONA ISLAND","8403255","2023-03-08 12:30","2023","03","08","12:30","2.5","","-2.2","","71","","","","3","","48","","","","99.16","","","","","","NA"
"-55.79","47.37","SAGONA ISLAND","8403255","2023-03-08 13:30","2023","03","08","13:30","2.6","","-0.7","","79","","","","3","","57","","","","99.04","","","","","","NA"
"-55.79","47.37","SAGONA ISLAND","8403255","2023-03-08 14:30","2023","03","08","14:30","2.9","","-2.9","","66","","","","2","","61","","","","99.00","","","","","","NA"
"-55.79","47.37","SAGONA ISLAND","8403255","2023-03-08 15:30","2023","03","08","15:30","2.5","","-1.7","","74","","","","2","","72","","","","98.95","","","","","","NA"
"-55.79","47.37","SAGONA ISLAND","8403255","2023-03-08 16:30","2023","03","08","16:30","2.4","","-1.4","","76","","","","2","","67","","","","98.95","","","","","","NA"
"-55.79","47.37","SAGONA ISLAND","8403255","2023-03-08 17:30","2023","03","08","17:30","2.2","","-1.1","","79","","","","2","","67","","","","98.94","","","","","","NA"
"-55.79","47.37","SAGONA ISLAND","8403255","2023-03-08 18:30","2023","03","08","18:30","1.8","","-1.0","","82","","","","2","","68","","","","98.95","","","","","","NA"
"-55.79","47.37","SAGONA ISLAND","8403255","2023-03-08 19:30","2023","03","08","19:30","1.8","","-1.2","","80","","","","2","","66","","","","98.95","","","","","","NA"
"-55.79","47.37","SAGONA ISLAND","8403255","2023-03-08 20:30","2023","03","08","20:30","1.7","","-1.2","","81","","","","1","","68","","","","98.90","","","","","","NA"
"-55.79","47.37","SAGONA ISLAND","8403255","2023-03-08 21:30","2023","03","08","21:30","1.7","","-1.0","","82","","","","2","","66","","","","98.85","","","","","","NA"
"-55.79","47.37","SAGONA ISLAND","8403255","2023-03-08 22:30","2023","03","08","22:30","1.8","","-0.8","","83","","","","2","","67","","","","98.81","","","","","","NA"
"-55.79","47.37","SAGONA ISLAND","8403255","2023-03-08 23:30","2023","03","08","23:30","1.4","","0.3","","93","","","","2","","66","","","","98.87","","","","","","NA"
"-55.79","47.37","SAGONA ISLAND","8403255","2023-03-09 00:30","2023","03","09","00:30","1.4","","-1.7","","80","","","","2","","68","","","","98.84","","","","","","NA"
"-55.79","47.37","SAGONA ISLAND","8403255","2023-03-09 01:30","2023","03","09","01:30","1.2","","-2.2","","78","","","","2","","77","","","","98.82","","","","","","NA"
"-55.79","47.37","SAGONA ISLAND","8403255","2023-03-09 02:30","2023","03","09","02:30","1.0","","-2.3","","79","","","","1","","81","","","","98.79","","","","","","NA"
"-55.79","47.37","SAGONA ISLAND","8403255","2023-03-09 03:30","2023","03","09","03:30","0.9","","-2.7","","77","","","","2","","80","","","","98.84","","","","","","NA"
"-55.79","47.37","SAGONA ISLAND","8403255","2023-03-09 04:30","2023","03","09","04:30","0.6","","-2.8","","78","","","","2","","74","","","","98.89","","","","","","NA"
"-55.79","47.37","SAGONA ISLAND","8403255","2023-03-09 05:30","2023","03","09","05:30","0.5","","-3.5","","74","","","","2","","73","","","","98.91","","","","","","NA"
"-55.79","47.37","SAGONA ISLAND","8403255","2023-03-09 06:30","2023","03","09","06:30","0.4","","-4.0","","73","","","","1","","78","","","","98.99","","","","","","NA"
"-55.79","47.37","SAGONA ISLAND","8403255","2023-03-09 07:30","2023","03","09","07:30","0.2","","-4.7","","69","","","","1","","76","","","","99.03","","","","","","NA"
"-55.79","47.37","SAGONA ISLAND","8403255","2023-03-09 08:30","2023","03","09","08:30","0.2","","-4.8","","69","","","","2","","71","","","","99.12","","","","","","NA"
"-55.79","47.37","SAGONA ISLAND","8403255","2023-03-09 09:30","2023","03","09","09:30","0.4","","-6.5","","60","","","","2","","73","","","","99.12","","","","","","NA"
"-55.79","47.37","SAGONA ISLAND","8403255","2023-03-09 10:30","2023","03","09","10:30","0.6","","-6.4","","60","","","","1","","72","","","","99.14","","","","","","NA"
"-55.79","47.37","SAGONA ISLAND","8403255","2023-03-09 11:30","2023","03","09","11:30","0.9","","-5.2","","64","","","","1","","61","","","","99.14","","","","","","NA"
"-55.79","47.37","SAGONA ISLAND","8403255","2023-03-09 12:30","2023","03","09","12:30","1.3","","-6.0","","58","","","","1","","65","","","","99.06","","","","","","NA"
"-55.79","47.37","SAGONA ISLAND","8403255","2023-03-09 13:30","2023","03","09","13:30","1.8","","-8.3","","47","","","","1","","66","","","","99.05","","","","","","NA"
"-55.79","47.37","SAGONA ISLAND","8403255","2023-03-09 14:30","2023","03","09","14:30","2.1","","-5.9","","55","","","","1","","60","","","","99.03","","","","","","NA"
"-55.79","47.37","SAGONA ISLAND","8403255","2023-03-09 15:30","2023","03","09","15:30","1.5","","-3.3","","70","","","","36","","55","","","","99.02","","","","","","NA"
"-55.79","47.37","SAGONA ISLAND","8403255","2023-03-09 16:30","2023","03","09","16:30","0.5","","-0.7","","92","","","","36","","46","","","","99.10","","","","","","NA"
"-55.79","47.37","SAGONA ISLAND","8403255","2023-03-09 17:30","2023","03","09","17:30","1.0","","-2.8","","76","","","","36","","57","","","","99.10","","","","","","NA"
"-55.79","47.37","SAGONA ISLAND","8403255","2023-03-09 18:30","2023","03","09","18:30","0.7","","-2.1","","82","","","","36","","54","","","","99.12","","","","","","NA"
"-55.79","47.37","SAGONA ISLAND","8403255","2023-03-09 19:30","2023","03","09","19:30","0.5","","-2.5","","80","","","","35","","50","","","","99.11","","","","","","NA"
"-55.79","47.37","SAGONA ISLAND","8403255","2023-03-09 20:30","2023","03","09","20:30","0.5","","-2.7","","79","","","","35","","50","","","","99.10","","","","","","NA"
"-55.79","47.37","SAGONA ISLAND","8403255","2023-03-09 21:30","2023","03","09","21:30","0.0","","-2.5","","83","","","","35","","49","","","","99.09","","","","-8","","NA"
"-55.79","47.37","SAGONA ISLAND","8403255","2023-03-09 22:30","2023","03","09","22:30","0.0","","-3.3","","78","","","","36","","51","","","","99.03","","","","-8","","NA"
"-55.79","47.37","SAGONA ISLAND","8403255","2023-03-09 23:30","2023","03","09","23:30","-0.3","","-3.5","","79","","","","35","","47","","","","99.03","","","","-8","","NA"
"-55.79","47.37","SAGONA ISLAND","8403255","2023-03-10 00:30","2023","03","10","00:30","-0.5","","-3.9","","78","","","","35","","33","","","","99.04","","","","-7","","NA"
"-55.79","47.37","SAGONA ISLAND","8403255","2023-03-10 01:30","2023","03","10","01:30","-0.9","","-3.9","","80","","","","34","","20","","","","99.07","","","","-6","","NA"
"-55.79","47.37","SAGONA ISLAND","8403255","2023-03-10 02:30","2023","03","10","02:30","-1.0","","-4.6","","77","","","","36","","32","","","","99.02","","","","-8","","NA"
"-55.79","47.37","SAGONA ISLAND","8403255","2023-03-10 03:30","2023","03","10","03:30","-1.1","","-4.5","","78","","","","36","","48","","","","98.96","","","","-9","","NA"
"-55.79","47.37","SAGONA ISLAND","8403255","2023-03-10 04:30","2023","03","10","04:30","-0.9","","-4.9","","74","","","","35","","38","","","","98.98","","","","-8","","NA"
"-55.79","47.37","SAGONA ISLAND","8403255","2023-03-10 05:30","2023","03","10","05:30","-1.1","","-4.5","","77","","","","36","","36","","","","98.99","","","","-9","","NA"
"-55.79","47.37","SAGONA ISLAND","8403255","2023-03-10 06:30","2023","03","10","06:30","-1.1","","-5.3","","73","","","","36","","37","","","","99.00","","","","-9","","NA"
"-55.79","47.37","SAGONA ISLAND","8403255","2023-03-10 07:30","2023","03","10","07:30","-1.0","","-4.9","","75","","","","36","","33","","","","99.03","","","","-8","","NA"
"-55.79","47.37","SAGONA ISLAND","8403255","2023-03-10 08:30","2023","03","10","08:30","-1.0","","-4.4","","78","","","","36","","35","","","","99.04","","","","-8","","NA"
"-55.79","47.37","SAGONA ISLAND","8403255","2023-03-10 09:30","2023","03","10","09:30","-0.8","","-7.6","","60","","","","34","","41","","","","98.97","","","","-9","","NA"
"-55.79","47.37","SAGONA ISLAND","8403255","2023-03-10 10:30","2023","03","10","10:30","0.1","","-7.0","","59","","","","34","","35","","","","98.93","","","","","","NA"
"-55.79","47.37","SAGONA ISLAND","8403255","2023-03-10 11:30","2023","03","10","11:30","0.7","","-6.8","","57","","","","34","","33","","","","98.91","","","","","","NA"
"-55.79","47.37","SAGONA ISLAND","8403255","2023-03-10 12:30","2023","03","10","12:30","1.2","","-5.9","","59","","","","35","","39","","","","98.86","","","","","","NA"
"-55.79","47.37","SAGONA ISLAND","8403255","2023-03-10 13:30","2023","03","10","13:30","1.6","","-5.3","","60","","","","34","","46","","","","98.81","","","","","","NA"
"-55.79","47.37","SAGONA ISLAND","8403255","2023-03-10 14:30","2023","03","10","14:30","2.3","","-6.7","","51","","","","35","","46","","","","98.79","","","","","","NA"
"-55.79","47.37","SAGONA ISLAND","8403255","2023-03-10 15:30","2023","03","10","15:30","2.3","","-4.6","","60","","","","34","","46","","","","98.78","","","","","","NA"
"-55.79","47.37","SAGONA ISLAND","8403255","2023-03-10 16:30","2023","03","10","16:30","2.5","","-4.0","","62","","","","34","","53","","","","98.78","","","","","","NA"
"-55.79","47.37","SAGONA ISLAND","8403255","2023-03-10 17:30","2023","03","10","17:30","1.8","","-2.3","","74","","","","33","","43","","","","98.84","","","","","","NA"
"-55.79","47.37","SAGONA ISLAND","8403255","2023-03-10 18:30","2023","03","10","18:30","2.0","","-2.7","","71","","","","34","","49","","","","98.84","","","","","","NA"
"-55.79","47.37","SAGONA ISLAND","8403255","2023-03-10 19:30","2023","03","10","19:30","1.4","","-2.0","","78","","","","33","","47","","","","98.83","","","","","","NA"
"-55.79","47.37","SAGONA ISLAND","8403255","2023-03-10 20:30","2023","03","10","20:30","1.0","","-1.9","","81","","","","32","","44","","","","98.80","","","","","","NA"
"-55.79","47.37","SAGONA ISLAND","8403255","2023-03-10 21:30","2023","03","10","21:30","0.9","","-1.9","","82","","","","32","","49","","","","98.73","","","","","","NA"
"-55.79","47.37","SAGONA ISLAND","8403255","2023-03-10 22:30","2023","03","10","22:30","1.2","","-2.1","","79","","","","33","","48","","","","98.69","","","","","","NA"
"-55.79","47.37","SAGONA ISLAND","8403255","2023-03-10 23:30","2023","03","10","23:30","1.5","","-2.0","","78","","","","33","","51","","","","98.65","","","","","","NA"
"-55.79","47.37","SAGONA ISLAND","8403255","2023-03-11 00:30","2023","03","11","00:30","1.5","","-2.0","","78","","","","33","","53","","","","98.61","","","","","","NA"
"-55.79","47.37","SAGONA ISLAND","8403255","2023-03-11 01:30","2023","03","11","01:30","1.6","","-1.9","","78","","","","33","","49","","","","98.61","","","","","","NA"
"-55.79","47.37","SAGONA ISLAND","8403255","2023-03-11 02:30","2023","03","11","02:30","1.6","","-1.9","","77","","","","33","","48","","","","98.60","","","","","","NA"
"-55.79","47.37","SAGONA ISLAND","8403255","2023-03-11 03:30","2023","03","11","03:30","1.6","","-1.8","","78","","","","33","","52","","","","98.54","","","","","","NA"
"-55.79","47.37","SAGONA ISLAND","8403255","2023-03-11 04:30","2023","03","11","04:30","1.7","","-1.6","","78","","","","34","","50","","","","98.54","","","","","","NA"
"-55.79","47.37","SAGONA ISLAND","8403255","2023-03-11 05:30","2023","03","11","05:30","1.9","","-1.5","","78","","","","34","","54","","","","98.54","","","","","","NA"
"-55.79","47.37","SAGONA ISLAND","8403255","2023-03-11 06:30","2023","03","11","06:30","1.2","","0.4","","94","","","","34","","52","","","","98.60","","","","","","NA"
"-55.79","47.37","SAGONA ISLAND","8403255","2023-03-11 07:30","2023","03","11","07:30","1.3","","0.3","","93","","","","35","","50","","","","98.64","","","","","","NA"
"-55.79","47.37","SAGONA ISLAND","8403255","2023-03-11 08:30","2023","03","11","08:30","0.9","","0.4","","96","","","","35","","52","","","","98.68","","","","","","NA"
"-55.79","47.37","SAGONA ISLAND","8403255","2023-03-11 09:30","2023","03","11","09:30","1.3","","0.7","","96","","","","36","","56","","","","98.72","","","","","","NA"
"-55.79","47.37","SAGONA ISLAND","8403255","2023-03-11 10:30","2023","03","11","10:30","1.3","","0.7","","96","","","","36","","62","","","","98.80","","","","","","NA"
"-55.79","47.37","SAGONA ISLAND","8403255","2023-03-11 11:30","2023","03","11","11:30","1.7","","0.6","","93","","","","36","","57","","","","98.90","","","","","","NA"
"-55.79","47.37","SAGONA ISLAND","8403255","2023-03-11 12:30","2023","03","11","12:30","2.7","","-1.8","","72","","","","36","","55","","","","98.98","","","","","","NA"
"-55.79","47.37","SAGONA ISLAND","8403255","2023-03-11 13:30","2023","03","11","13:30","2.6","","-1.2","","76","","","","1","","58","","","","99.01","","","","","","NA"
"-55.79","47.37","SAGONA ISLAND","8403255","2023-03-11 14:30","2023","03","11","14:30","2.5","","-1.3","","76","","","","1","","59","","","","99.13","","","","","","NA"
"-55.79","47.37","SAGONA ISLAND","8403255","2023-03-11 15:30","2023","03","11","15:30","2.3","","-1.2","","78","","","","36","","52","","","","99.24","","","","","","NA"
"-55.79","47.37","SAGONA ISLAND","8403255","2023-03-11 16:30","2023","03","11","16:30","2.5","","-1.2","","77","","","","36","","50","","","","99.37","","","","","","NA"
"-55.79","47.37","SAGONA ISLAND","8403255","2023-03-11 17:30","2023","03","11","17:30","2.2","","-1.1","","79","","","","36","","58","","","","99.44","","","","","","NA"
"-55.79","47.37","SAGONA ISLAND","8403255","2023-03-11 18:30","2023","03","11","18:30","1.9","","-1.3","","80","","","","36","","51","","","","99.58","","","","","","NA"
"-55.79","47.37","SAGONA ISLAND","8403255","2023-03-11 19:30","2023","03","11","19:30","1.8","","-1.1","","81","","","","36","","56","","","","99.68","","","","","","NA"
"-55.79","47.37","SAGONA ISLAND","8403255","2023-03-11 20:30","2023","03","11","20:30","1.7","","-1.0","","82","","","","1","","56","","","","99.75","","","","","","NA"
"-55.79","47.37","SAGONA ISLAND","8403255","2023-03-11 21:30","2023","03","11","21:30","1.6","","-1.2","","82","","","","1","","56","","","","99.82","","","","","","NA"
"-55.79","47.37","SAGONA ISLAND","8403255","2023-03-11 22:30","2023","03","11","22:30","1.6","","-0.8","","84","","","","2","","52","","","","99.88","","","","","","NA"
"-55.79","47.37","SAGONA ISLAND","8403255","2023-03-11 23:30","2023","03","11","23:30","1.6","","-1.2","","82","","","","2","","49","","","","99.94","","","","","","NA"
"-55.79","47.37","SAGONA ISLAND","8403255","2023-03-12 00:30","2023","03","12","00:30","1.3","","-1.0","","85","","","","1","","52","","","","99.93","","","","","","NA"
"-55.79","47.37","SAGONA ISLAND","8403255","2023-03-12 01:30","2023","03","12","01:30","1.4","","-1.9","","79","","","","2","","46","","","","99.95","","","","","","NA"
"-55.79","47.37","SAGONA ISLAND","8403255","2023-03-12 02:30","2023","03","12","02:30","1.0","","-1.6","","83","","","","2","","33","","","","100.06","","","","","","NA"
"-55.79","47.37","SAGONA ISLAND","8403255","2023-03-12 03:30","2023","03","12","03:30","0.7","","-1.8","","83","","","","3","","35","","","","100.16","","","","","","NA"
"-55.79","47.37","SAGONA ISLAND","8403255","2023-03-12 04:30","2023","03","12","04:30","0.4","","-1.9","","85","","","","2","","28","","","","100.24","","","","","","NA"
"-55.79","47.37","SAGONA ISLAND","8403255","2023-03-12 05:30","2023","03","12","05:30","0.5","","-2.3","","82","","","","3","","30","","","","100.26","","","","","","NA"
"-55.79","47.37","SAGONA ISLAND","8403255","2023-03-12 06:30","2023","03","12","06:30","0.1","","-2.3","","84","","","","2","","33","","","","100.30","","","","","","NA"
"-55.79","47.37","SAGONA ISLAND","8403255","2023-03-12 07:30","2023","03","12","07:30","0.0","","-3.7","","77","","","","3","","40","","","","100.32","","","","-7","","NA"
"-55.79","47.37","SAGONA ISLAND","8403255","2023-03-12 08:30","2023","03","12","08:30","0.4","","-5.1","","67","","","","2","","31","","","","100.32","","","","","","NA"
"-55.79","47.37","SAGONA ISLAND","8403255","2023-03-12 09:30","2023","03","12","09:30","1.0","","-6.4","","58","","","","2","","41","","","","100.33","","","","","","NA"
"-55.79","47.37","SAGONA ISLAND","8403255","2023-03-12 10:30","2023","03","12","10:30","1.1","","-6.2","","58","","","","2","","47","","","","100.33","","","","","","NA"
"-55.79","47.37","SAGONA ISLAND","8403255","2023-03-12 11:30","2023","03","12","11:30","1.2","","-6.6","","56","","","","2","","51","","","","100.29","","","","","","NA"
"-55.79","47.37","SAGONA ISLAND","8403255","2023-03-12 12:30","2023","03","12","12:30","1.7","","-6.6","","54","","","","2","","44","","","","100.30","","","","","","NA"
"-55.79","47.37","SAGONA ISLAND","8403255","2023-03-12 13:30","2023","03","12","13:30","1.7","","-6.9","","53","","","","3","","47","","","","100.30","","","","","","NA"
"-55.79","47.37","SAGONA ISLAND","8403255","2023-03-12 14:30","2023","03","12","14:30","2.0","","-6.1","","55","","","","2","","35","","","","100.29","","","","","","NA"
"-55.79","47.37","SAGONA ISLAND","8403255","2023-03-12 15:30","2023","03","12","15:30","1.9","","-6.6","","53","","","","2","","46","","","","100.27","","","","","","NA"
"-55.79","47.37","SAGONA ISLAND","8403255","2023-03-12 16:30","2023","03","12","16:30","1.7","","-6.7","","54","","","","2","","51","","","","100.25","","","","","","NA"
"-55.79","47.37","SAGONA ISLAND","8403255","2023-03-12 17:30","2023","03","12","17:30","1.2","","-5.2","","63","","","","2","","52","","","","100.25","","","","","","NA"
"-55.79","47.37","SAGONA ISLAND","8403255","2023-03-12 18:30","2023","03","12","18:30","0.1","","-3.5","","77","","","","2","","45","","","","100.33","","","","","","NA"
"-55.79","47.37","SAGONA ISLAND","8403255","2023-03-12 19:30","2023","03","12","19:30","-0.6","","-3.6","","80","","","","3","","48","","","","100.40","","","","-9","","NA"
"-55.79","47.37","SAGONA ISLAND","8403255","2023-03-12 20:30","2023","03","12","20:30","-1.5","","-4.4","","81","","","","3","","50","","","","100.42","","","","-10","","NA"
"-55.79","47.37","SAGONA ISLAND","8403255","2023-03-12 21:30","2023","03","12","21:30","-1.4","","-3.8","","84","","","","1","","49","","","","100.40","","","","-10","","NA"
"-55.79","47.37","SAGONA ISLAND","8403255","2023-03-12 22:30","2023","03","12","22:30","-1.8","","-4.1","","85","","","","1","","55","","","","100.37","","","","-11","","NA"
"-55.79","47.37","SAGONA ISLAND","8403255","2023-03-12 23:30","2023","03","12","23:30","-1.7","","-3.9","","85","","","","1","","48","","","","100.40","","","","-10","","NA"
"-55.79","47.37","SAGONA ISLAND","8403255","2023-03-13 00:30","2023","03","13","00:30","-1.9","","-4.0","","85","","","","2","","46","","","","100.40","","","","-10","","NA"
"-55.79","47.37","SAGONA ISLAND","8403255","2023-03-13 01:30","2023","03","13","01:30","-1.6","","-3.9","","85","","","","2","","43","","","","100.44","","","","-10","","NA"
"-55.79","47.37","SAGONA ISLAND","8403255","2023-03-13 02:30","2023","03","13","02:30","-1.1","","-4.2","","80","","","","3","","45","","","","100.45","","","","-9","","NA"
"-55.79","47.37","SAGONA ISLAND","8403255","2023-03-13 03:30","2023","03","13","03:30","-1.3","","-4.0","","82","","","","3","","51","","","","100.46","","","","-10","","NA"
"-55.79","47.37","SAGONA ISLAND","8403255","2023-03-13 04:30","2023","03","13","04:30","-1.6","","-4.0","","84","","","","2","","52","","","","100.48","","","","-10","","NA"
"-55.79","47.37","SAGONA ISLAND","8403255","2023-03-13 05:30","2023","03","13","05:30","-1.6","","-4.1","","83","","","","2","","47","","","","100.55","","","","-10","","NA"
"-55.79","47.37","SAGONA ISLAND","8403255","2023-03-13 06:30","2023","03","13","06:30","-1.8","","-4.0","","85","","","","2","","45","","","","100.57","","","","-10","","NA"
"-55.79","47.37","SAGONA ISLAND","8403255","2023-03-13 07:30","2023","03","13","07:30","-1.7","","-4.9","","79","","","","2","","41","","","","100.63","","","","-10","","NA"
"-55.79","47.37","SAGONA ISLAND","8403255","2023-03-13 08:30","2023","03","13","08:30","-1.1","","-6.4","","67","","","","2","","37","","","","100.68","","","","-9","","NA"
"-55.79","47.37","SAGONA ISLAND","8403255","2023-03-13 09:30","2023","03","13","09:30","-0.6","","-6.8","","63","","","","2","","42","","","","100.66","","","","-8","","NA"
"-55.79","47.37","SAGONA ISLAND","8403255","2023-03-13 10:30","2023","03","13","10:30","0.0","","-6.9","","60","","","","2","","38","","","","100.70","","","","-7","","NA"
"-55.79","47.37","SAGONA ISLAND","8403255","2023-03-13 11:30","2023","03","13","11:30","0.8","","-6.9","","56","","","","2","","38","","","","100.71","","","","","","NA"
"-55.79","47.37","SAGONA ISLAND","8403255","2023-03-13 12:30","2023","03","13","12:30","1.3","","-6.5","","56","","","","2","","42","","","","100.69","","","","","","NA"
"-55.79","47.37","SAGONA ISLAND","8403255","2023-03-13 13:30","2023","03","13","13:30","1.7","","-7.2","","52","","","","2","","34","","","","100.68","","","","","","NA"
"-55.79","47.37","SAGONA ISLAND","8403255","2023-03-13 14:30","2023","03","13","14:30","2.3","","-7.6","","48","","","","1","","37","","","","100.70","","","","","","NA"
"-55.79","47.37","SAGONA ISLAND","8403255","2023-03-13 15:30","2023","03","13","15:30","2.5","","-7.8","","47","","","","2","","40","","","","100.72","","","","","","NA"
"-55.79","47.37","SAGONA ISLAND","8403255","2023-03-13 16:30","2023","03","13","16:30","2.2","","-7.2","","50","","","","3","","42","","","","100.74","","","","","","NA"
"-55.79","47.37","SAGONA ISLAND","8403255","2023-03-13 17:30","2023","03","13","17:30","1.8","","-6.3","","55","","","","2","","37","","","","100.81","","","","","","NA"
"-55.79","47.37","SAGONA ISLAND","8403255","2023-03-13 18:30","2023","03","13","18:30","1.3","","-4.2","","67","","","","4","","28","","","","100.88","","","","","","NA"
"-55.79","47.37","SAGONA ISLAND","8403255","2023-03-13 19:30","2023","03","13","19:30","0.6","","-3.4","","74","","","","2","","32","","","","100.93","","","","","","NA"
"-55.79","47.37","SAGONA ISLAND","8403255","2023-03-13 20:30","2023","03","13","20:30","0.2","","-3.3","","78","","","","1","","20","","","","101.00","","","","","","NA"
"-55.79","47.37","SAGONA ISLAND","8403255","2023-03-13 21:30","2023","03","13","21:30","-0.5","","-4.1","","77","","","","36","","36","","","","101.01","","","","-8","","NA"
"-55.79","47.37","SAGONA ISLAND","8403255","2023-03-13 22:30","2023","03","13","22:30","-1.1","","-4.2","","79","","","","2","","19","","","","101.06","","","","-6","","NA"
"-55.79","47.37","SAGONA ISLAND","8403255","2023-03-13 23:30","2023","03","13","23:30","-1.2","","-4.5","","78","","","","1","","18","","","","101.08","","","","-6","","NA"
"-55.79","47.37","SAGONA ISLAND","8403255","2023-03-14 00:30","2023","03","14","00:30","-1.4","","-4.5","","79","","","","1","","25","","","","101.04","","","","-8","","NA"
"-55.79","47.37","SAGONA ISLAND","8403255","2023-03-14 01:30","2023","03","14","01:30","-1.6","","-4.5","","81","","","","2","","15","","","","101.04","","","","-6","","NA"
"-55.79","47.37","SAGONA ISLAND","8403255","2023-03-14 02:30","2023","03","14","02:30","-1.9","","-4.5","","82","","","","36","","13","","","","101.08","","","","-6","","NA"
"-55.79","47.37","SAGONA ISLAND","8403255","2023-03-14 03:30","2023","03","14","03:30","-2.0","","-4.2","","85","","","","1","","9","","","","101.09","","","","-5","","NA"
"-55.79","47.37","SAGONA ISLAND","8403255","2023-03-14 04:30","2023","03","14","04:30","-2.2","","-4.5","","84","","","","1","","13","","","","101.09","","","","-7","","NA"
"-55.79","47.37","SAGONA ISLAND","8403255","2023-03-14 05:30","2023","03","14","05:30","-2.3","","-4.2","","87","","","","36","","14","","","","101.10","","","","-7","","NA"
"-55.79","47.37","SAGONA ISLAND","8403255","2023-03-14 06:30","2023","03","14","06:30","-2.2","","-4.4","","85","","","","35","","16","","","","101.14","","","","-7","","NA"
"-55.79","47.37","SAGONA ISLAND","8403255","2023-03-14 07:30","2023","03","14","07:30","-2.2","","-6.1","","74","","","","36","","13","","","","101.15","","","","-7","","NA"
"-55.79","47.37","SAGONA ISLAND","8403255","2023-03-14 08:30","2023","03","14","08:30","-1.6","","-7.4","","64","","","","2","","6","","","","101.22","","","","-4","","NA"
"-55.79","47.37","SAGONA ISLAND","8403255","2023-03-14 09:30","2023","03","14","09:30","0.1","","-7.5","","57","","","","2","","1","","","","101.25","","","","","","NA"
"-55.79","47.37","SAGONA ISLAND","8403255","2023-03-14 10:30","2023","03","14","10:30","1.0","","-6.4","","58","","","","20","","2","","","","101.26","","","","","","NA"
"-55.79","47.37","SAGONA ISLAND","8403255","2023-03-14 11:30","2023","03","14","11:30","0.6","","-6.3","","60","","","","17","","10","","","","101.25","","","","","","NA"
"-55.79","47.37","SAGONA ISLAND","8403255","2023-03-14 12:30","2023","03","14","12:30","1.0","","-6.4","","58","","","","17","","11","","","","101.22","","","","","","NA"
"-55.79","47.37","SAGONA ISLAND","8403255","2023-03-14 13:30","2023","03","14","13:30","0.8","","-7.4","","54","","","","18","","9","","","","101.20","","","","","","NA"
"-55.79","47.37","SAGONA ISLAND","8403255","2023-03-14 14:30","2023","03","14","14:30","1.9","","-6.6","","53","","","","17","","9","","","","101.17","","","","","","NA"
"-55.79","47.37","SAGONA ISLAND","8403255","2023-03-14 15:30","2023","03","14","15:30","1.9","","-7.3","","50","","","","15","","10","","","","101.15","","","","","","NA"
"-55.79","47.37","SAGONA ISLAND","8403255","2023-03-14 16:30","2023","03","14","16:30","2.2","","-7.6","","48","","","","16","","3","","","","101.13","","","","","","NA"
"-55.79","47.37","SAGONA ISLAND","8403255","2023-03-14 17:30","2023","03","14","17:30","0.7","","-5.1","","65","","","","4","","4","","","","101.12","","","","","","NA"
"-55.79","47.37","SAGONA ISLAND","8403255","2023-03-14 18:30","2023","03","14","18:30","0.0","","-3.3","","78","","","","2","","9","","","","101.14","","","","-3","","NA"
"-55.79","47.37","SAGONA ISLAND","8403255","2023-03-14 19:30","2023","03","14","19:30","0.1","","-2.4","","83","","","","12","","9","","","","101.15","","","","","","NA"
"-55.79","47.37","SAGONA ISLAND","8403255","2023-03-14 20:30","2023","03","14","20:30","0.1","","-2.2","","85","","","","10","","8","","","","101.12","","","","","","NA"
"-55.79","47.37","SAGONA ISLAND","8403255","2023-03-14 21:30","2023","03","14","21:30","-0.6","","-1.9","","91","","","","17","","4","","","","101.11","","","","-2","","NA"
"-55.79","47.37","SAGONA ISLAND","8403255","2023-03-14 22:30","2023","03","14","22:30","-0.7","","-3.0","","84","","","","7","","12","","","","101.01","","","","-5","","NA"
"-55.79","47.37","SAGONA ISLAND","8403255","2023-03-14 23:30","2023","03","14","23:30","-0.7","","-1.9","","91","","","","6","","17","","","","100.95","","","","-6","","NA"
"-55.79","47.37","SAGONA ISLAND","8403255","2023-03-15 00:30","2023","03","15","00:30","-0.6","","-2.5","","87","","","","7","","42","","","","100.91","","","","-8","","NA"
"-55.79","47.37","SAGONA ISLAND","8403255","2023-03-15 01:30","2023","03","15","01:30","-1.6","","-2.8","","92","","","","8","","42","","","","100.88","","","","-10","","NA"
"-55.79","47.37","SAGONA ISLAND","8403255","2023-03-15 02:30","2023","03","15","02:30","-2.0","","-3.4","","90","","","","8","","39","","","","100.85","","","","-10","","NA"
"-55.79","47.37","SAGONA ISLAND","8403255","2023-03-15 03:30","2023","03","15","03:30","-2.5","","-3.6","","92","","","","8","","43","","","","100.78","","","","-11","","NA"
"-55.79","47.37","SAGONA ISLAND","8403255","2023-03-15 04:30","2023","03","15","04:30","-2.9","","-3.9","","93","","","","8","","35","","","","100.73","","","","-11","","NA"
"-55.79","47.37","SAGONA ISLAND","8403255","2023-03-15 05:30","2023","03","15","05:30","-2.6","","-4.6","","86","","","","8","","39","","","","100.70","","","","-11","","NA"
"-55.79","47.37","SAGONA ISLAND","8403255","2023-03-15 06:30","2023","03","15","06:30","-3.1","","-5.5","","83","","","","8","","53","","","","100.59","","","","-13","","NA"
"-55.79","47.37","SAGONA ISLAND","8403255","2023-03-15 07:30","2023","03","15","07:30","-3.0","","-5.7","","82","","","","8","","58","","","","100.52","","","","-13","","NA"
"-55.79","47.37","SAGONA ISLAND","8403255","2023-03-15 08:30","2023","03","15","08:30","-2.8","","-5.2","","84","","","","8","","54","","","","100.50","","","","-12","","NA"
"-55.79","47.37","SAGONA ISLAND","8403255","2023-03-15 09:30","2023","03","15","09:30","-2.6","","-5.5","","81","","","","8","","50","","","","100.41","","","","-12","","NA"
"-55.79","47.37","SAGONA ISLAND","8403255","2023-03-15 10:30","2023","03","15","10:30","-2.3","","-5.6","","78","","","","8","","48","","","","100.41","","","","-11","","NA"
"-55.79","47.37","SAGONA ISLAND","8403255","2023-03-15 11:30","2023","03","15","11:30","-2.1","","-5.4","","78","","","","8","","45","","","","100.34","","","","-11","","NA"
"-55.79","47.37","SAGONA ISLAND","8403255","2023-03-15 12:30","2023","03","15","12:30","-1.7","","-5.0","","78","","","","8","","51","","","","100.22","","","","-11","","NA"
"-55.79","47.37","SAGONA ISLAND","8403255","2023-03-15 13:30","2023","03","15","13:30","-1.1","","-4.8","","76","","","","8","","48","","","","100.11","","","","-9","","NA"
"-55.79","47.37","SAGONA ISLAND","8403255","2023-03-15 14:30","2023","03","15","14:30","-0.8","","-4.1","","78","","","","8","","42","","","","100.02","","","","-9","","NA"
"-55.79","47.37","SAGONA ISLAND","8403255","2023-03-15 15:30","2023","03","15","15:30","-0.5","","-4.6","","74","","","","8","","59","","","","99.84","","","","-9","","NA"
"-55.79","47.37","SAGONA ISLAND","8403255","2023-03-15 16:30","2023","03","15","16:30","-1.6","","-2.6","","93","","","","8","","53","","","","99.85","","","","-11","","NA"
"-55.79","47.37","SAGONA ISLAND","8403255","2023-03-15 17:30","2023","03","15","17:30","-1.4","","-2.1","","95","","","","7","","59","","","","99.74","","","","-11","","NA"
"-55.79","47.37","SAGONA ISLAND","8403255","2023-03-15 18:30","2023","03","15","18:30","-1.3","","-1.8","","96","","","","8","","60","","","","99.65","","","","-11","","NA"
"-55.79","47.37","SAGONA ISLAND","8403255","2023-03-15 19:30","2023","03","15","19:30","-1.1","","-1.7","","96","","","","8","","63","","","","99.54","","","","-10","","NA"
"-55.79","47.37","SAGONA ISLAND","8403255","2023-03-15 20:30","2023","03","15","20:30","-1.0","","-1.8","","94","","","","7","","68","","","","99.41","","","","-11","","NA"
"-55.79","47.37","SAGONA ISLAND","8403255","2023-03-15 21:30","2023","03","15","21:30","-0.8","","-2.0","","91","","","","7","","71","","","","99.31","","","","-10","","NA"
"-55.79","47.37","SAGONA ISLAND","8403255","2023-03-15 22:30","2023","03","15","22:30","-0.8","","-1.9","","92","","","","7","","70","","","","99.19","","","","-10","","NA"
"-55.79","47.37","SAGONA ISLAND","8403255","2023-03-15 23:30","2023","03","15","23:30","-0.9","","-1.5","","96","","","","7","","70","","","","99.09","","","","-11","","NA"
"-55.79","47.37","SAGONA ISLAND","8403255","2023-03-16 00:30","2023","03","16","00:30","-0.8","","-1.3","","97","","","","6","","65","","","","99.00","","","","-10","","NA"
"-55.79","47.37","SAGONA ISLAND","8403255","2023-03-16 01:30","2023","03","16","01:30","-0.7","","-0.8","","99","","","","6","","63","","","","98.93","","","","-10","","NA"
"-55.79","47.37","SAGONA ISLAND","8403255","2023-03-16 02:30","2023","03","16","02:30","-0.5","","-0.7","","99","","","","6","","64","","","","98.83","","","","-10","","NA"
"-55.79","47.37","SAGONA ISLAND","8403255","2023-03-16 03:30","2023","03","16","03:30","-0.5","","-0.6","","100","","","","6","","60","","","","98.73","","","","-9","","NA"
"-55.79","47.37","SAGONA ISLAND","8403255","2023-03-16 04:30","2023","03","16","04:30","-0.2","","-0.5","","98","","","","6","","64","","","","98.62","","","","-9","","NA"
"-55.79","47.37","SAGONA ISLAND","8403255","2023-03-16 05:30","2023","03","16","05:30","-0.1","","-0.3","","98","","","","6","","57","","","","98.58","","","","-9","","NA"
"-55.79","47.37","SAGONA ISLAND","8403255","2023-03-16 06:30","2023","03","16","06:30","0.0","","-0.2","","98","","","","6","","56","","","","98.57","","","","-9","","NA"
"-55.79","47.37","SAGONA ISLAND","8403255","2023-03-16 07:30","2023","03","16","07:30","0.5","","-0.5","","93","","","","6","","55","","","","98.56","","","","","","NA"
"-55.79","47.37","SAGONA ISLAND","8403255","2023-03-16 08:30","2023","03","16","08:30","0.6","","-0.2","","94","","","","6","","54","","","","98.54","","","","","","NA"
"-55.79","47.37","SAGONA ISLAND","8403255","2023-03-16 09:30","2023","03","16","09:30","0.8","","0.1","","95","","","","6","","49","","","","98.53","","","","","","NA"
"-55.79","47.37","SAGONA ISLAND","8403255","2023-03-16 10:30","2023","03","16","10:30","0.8","","-0.4","","91","","","","6","","44","","","","98.49","","","","","","NA"
"-55.79","47.37","SAGONA ISLAND","8403255","2023-03-16 11:30","2023","03","16","11:30","1.0","","-0.4","","90","","","","6","","46","","","","98.44","","","","","","NA"
"-55.79","47.37","SAGONA ISLAND","8403255","2023-03-16 12:30","2023","03","16","12:30","1.3","","-0.8","","86","","","","6","","48","","","","98.40","","","","","","NA"
"-55.79","47.37","SAGONA ISLAND","8403255","2023-03-16 13:30","2023","03","16","13:30","1.4","","-0.8","","86","","","","6","","43","","","","98.34","","","","","","NA"
"-55.79","47.37","SAGONA ISLAND","8403255","2023-03-16 14:30","2023","03","16","14:30","1.5","","-0.3","","88","","","","7","","46","","","","98.33","","","","","","NA"
"-55.79","47.37","SAGONA ISLAND","8403255","2023-03-16 15:30","2023","03","16","15:30","1.8","","0.4","","91","","","","5","","38","","","","98.35","","","","","","NA"
"-55.79","47.37","SAGONA ISLAND","8403255","2023-03-16 16:30","2023","03","16","16:30","1.8","","0.7","","93","","","","5","","31","","","","98.31","","","","","","NA"
"-55.79","47.37","SAGONA ISLAND","8403255","2023-03-16 17:30","2023","03","16","17:30","1.7","","0.9","","95","","","","6","","26","","","","98.37","","","","","","NA"
"-55.79","47.37","SAGONA ISLAND","8403255","2023-03-16 18:30","2023","03","16","18:30","1.6","","1.0","","95","","","","5","","33","","","","98.36","","","","","","NA"
"-55.79","47.37","SAGONA ISLAND","8403255","2023-03-16 19:30","2023","03","16","19:30","1.5","","0.8","","95","","","","5","","32","","","","98.35","","","","","","NA"
"-55.79","47.37","SAGONA ISLAND","8403255","2023-03-16 20:30","2023","03","16","20:30","0.9","","0.4","","96","","","","6","","32","","","","98.44","","","","","","NA"
"-55.79","47.37","SAGONA ISLAND","8403255","2023-03-16 21:30","2023","03","16","21:30","1.0","","0.8","","99","","","","5","","29","","","","98.45","","","","","","NA"
"-55.79","47.37","SAGONA ISLAND","8403255","2023-03-16 22:30","2023","03","16","22:30","0.9","","0.9","","100","","","","6","","28","","","","98.47","","","","","","NA"
"-55.79","47.37","SAGONA ISLAND","8403255","2023-03-16 23:30","2023","03","16","23:30","0.9","","0.8","","100","","","","5","","27","","","","98.43","","","","","","NA"
"-55.79","47.37","SAGONA ISLAND","8403255","2023-03-17 00:30","2023","03","17","00:30","0.8","","0.5","","98","","","","4","","31","","","","98.40","","","","","","NA"
"-55.79","47.37","SAGONA ISLAND","8403255","2023-03-17 01:30","2023","03","17","01:30","0.9","","0.0","","94","","","","3","","29","","","","98.36","","","","","","NA"
"-55.79","47.37","SAGONA ISLAND","8403255","2023-03-17 02:30","2023","03","17","02:30","0.9","","-0.2","","92","","","","4","","33","","","","98.38","","","","","","NA"
"-55.79","47.37","SAGONA ISLAND","8403255","2023-03-17 03:30","2023","03","17","03:30","1.3","","-0.5","","88","","","","4","","31","","","","98.40","","","","","","NA"
"-55.79","47.37","SAGONA ISLAND","8403255","2023-03-17 04:30","2023","03","17","04:30","1.2","","0.4","","95","","","","3","","37","","","","98.42","","","","","","NA"
"-55.79","47.37","SAGONA ISLAND","8403255","2023-03-17 05:30","2023","03","17","05:30","1.4","","0.1","","91","","","","3","","33","","","","98.49","","","","","","NA"
"-55.79","47.37","SAGONA ISLAND","8403255","2023-03-17 06:30","2023","03","17","06:30","1.5","","-0.1","","90","","","","2","","41","","","","98.54","","","","","","NA"
"-55.79","47.37","SAGONA ISLAND","8403255","2023-03-17 07:30","2023","03","17","07:30","1.8","","-0.5","","85","","","","2","","44","","","","98.55","","","","","","NA"
"-55.79","47.37","SAGONA ISLAND","8403255","2023-03-17 08:30","2023","03","17","08:30","2.2","","-0.7","","81","","","","2","","42","","","","98.61","","","","","","NA"
"-55.79","47.37","SAGONA ISLAND","8403255","2023-03-17 09:30","2023","03","17","09:30","2.1","","-0.5","","83","","","","1","","33","","","","98.67","","","","","","NA"
"-55.79","47.37","SAGONA ISLAND","8403255","2023-03-17 10:30","2023","03","17","10:30","2.7","","-1.1","","76","","","","1","","33","","","","98.68","","","","","","NA"
"-55.79","47.37","SAGONA ISLAND","8403255","2023-03-17 11:30","2023","03","17","11:30","3.1","","-1.2","","73","","","","36","","36","","","","98.70","","","","","","NA"
"-55.79","47.37","SAGONA ISLAND","8403255","2023-03-17 12:30","2023","03","17","12:30","3.4","","-1.7","","69","","","","36","","41","","","","98.69","","","","","","NA"
"-55.79","47.37","SAGONA ISLAND","8403255","2023-03-17 13:30","2023","03","17","13:30","3.3","","-1.2","","72","","","","36","","35","","","","98.70","","","","","","NA"
"-55.79","47.37","SAGONA ISLAND","8403255","2023-03-17 14:30","2023","03","17","14:30","4.4","","-2.0","","63","","","","36","","36","","","","98.74","","","","","","NA"
"-55.79","47.37","SAGONA ISLAND","8403255","2023-03-17 15:30","2023","03","17","15:30","4.3","","-1.4","","66","","","","35","","37","","","","98.79","","","","","","NA"
"-55.79","47.37","SAGONA ISLAND","8403255","2023-03-17 16:30","2023","03","17","16:30","4.0","","-0.9","","70","","","","35","","34","","","","98.82","","","","","","NA"
"-55.79","47.37","SAGONA ISLAND","8403255","2023-03-17 17:30","2023","03","17","17:30","3.7","","-2.8","","62","","","","35","","30","","","","98.91","","","","","","NA"
"-55.79","47.37","SAGONA ISLAND","8403255","2023-03-17 18:30","2023","03","17","18:30","3.5","","-0.6","","74","","","","34","","38","","","","98.96","","","","","","NA"
"-55.79","47.37","SAGONA ISLAND","8403255","2023-03-17 19:30","2023","03","17","19:30","2.8","","-0.7","","78","","","","33","","27","","","","99.03","","","","","","NA"
"-55.79","47.37","SAGONA ISLAND","8403255","2023-03-17 20:30","2023","03","17","20:30","2.6","","-1.0","","77","","","","33","","47","","","","99.00","","","","","","NA"
"-55.79","47.37","SAGONA ISLAND","8403255","2023-03-17 21:30","2023","03","17","21:30","2.5","","-1.4","","76","","","","33","","48","","","","99.06","","","","","","NA"
"-55.79","47.37","SAGONA ISLAND","8403255","2023-03-17 22:30","2023","03","17","22:30","2.1","","-1.5","","77","","","","33","","56","","","","99.04","","","","","","NA"
"-55.79","47.37","SAGONA ISLAND","8403255","2023-03-17 23:30","2023","03","17","23:30","2.2","","-1.8","","75","","","","34","","57","","","","99.03","","","","","","NA"
"-55.79","47.37","SAGONA ISLAND","8403255","2023-03-18 00:30","2023","03","18","00:30","2.0","","-1.2","","79","","","","32","","33","","","","99.16","","","","","","NA"
"-55.79","47.37","SAGONA ISLAND","8403255","2023-03-18 01:30","2023","03","18","01:30","1.5","","-1.1","","83","","","","31","","34","","","","99.21","","","","","","NA"
"-55.79","47.37","SAGONA ISLAND","8403255","2023-03-18 02:30","2023","03","18","02:30","1.6","","-0.9","","84","","","","34","","37","","","","99.22","","","","","","NA"
"-55.79","47.37","SAGONA ISLAND","8403255","2023-03-18 03:30","2023","03","18","03:30","1.2","","-1.0","","85","","","","31","","39","","","","99.30","","","","","","NA"
"-55.79","47.37","SAGONA ISLAND","8403255","2023-03-18 04:30","2023","03","18","04:30","1.2","","-1.4","","83","","","","33","","41","","","","99.35","","","","","","NA"
"-55.79","47.37","SAGONA ISLAND","8403255","2023-03-18 05:30","2023","03","18","05:30","1.2","","-1.2","","84","","","","34","","28","","","","99.45","","","","","","NA"
"-55.79","47.37","SAGONA ISLAND","8403255","2023-03-18 06:30","2023","03","18","06:30","0.9","","-1.4","","85","","","","31","","25","","","","99.51","","","","","","NA"
"-55.79","47.37","SAGONA ISLAND","8403255","2023-03-18 07:30","2023","03","18","07:30","0.8","","-2.6","","78","","","","32","","26","","","","99.61","","","","","","NA"
"-55.79","47.37","SAGONA ISLAND","8403255","2023-03-18 08:30","2023","03","18","08:30","1.1","","-4.1","","68","","","","32","","26","","","","99.64","","","","","","NA"
"-55.79","47.37","SAGONA ISLAND","8403255","2023-03-18 09:30","2023","03","18","09:30","1.3","","-3.5","","70","","","","32","","14","","","","99.66","","","","","","NA"
"-55.79","47.37","SAGONA ISLAND","8403255","2023-03-18 10:30","2023","03","18","10:30","1.5","","-3.1","","71","","","","31","","18","","","","99.67","","","","","","NA"
"-55.79","47.37","SAGONA ISLAND","8403255","2023-03-18 11:30","2023","03","18","11:30","1.9","","-3.4","","68","","","","30","","21","","","","99.67","","","","","","NA"
"-55.79","47.37","SAGONA ISLAND","8403255","2023-03-18 12:30","2023","03","18","12:30","1.8","","-2.8","","71","","","","29","","18","","","","99.67","","","","","","NA"
"-55.79","47.37","SAGONA ISLAND","8403255","2023-03-18 13:30","2023","03","18","13:30","1.8","","-3.6","","67","","","","27","","23","","","","99.69","","","","","","NA"
"-55.79","47.37","SAGONA ISLAND","8403255","2023-03-18 14:30","2023","03","18","14:30","1.9","","-2.5","","73","","","","25","","17","","","","99.77","","","","","","NA"
"-55.79","47.37","SAGONA ISLAND","8403255","2023-03-18 15:30","2023","03","18","15:30","1.7","","-2.7","","72","","","","26","","28","","","","99.84","","","","","","NA"
"-55.79","47.37","SAGONA ISLAND","8403255","2023-03-18 16:30","2023","03","18","16:30","1.5","","-2.1","","77","","","","28","","17","","","","99.75","","","","","","NA"
"-55.79","47.37","SAGONA ISLAND","8403255","2023-03-18 17:30","2023","03","18","17:30","0.9","","-0.7","","89","","","","26","","18","","","","99.80","","","","","","NA"
"-55.79","47.37","SAGONA ISLAND","8403255","2023-03-18 18:30","2023","03","18","18:30","0.7","","-0.3","","93","","","","25","","13","","","","99.86","","","","","","NA"
"-55.79","47.37","SAGONA ISLAND","8403255","2023-03-18 19:30","2023","03","18","19:30","0.7","","-0.4","","92","","","","24","","11","","","","99.92","","","","","","NA"
"-55.79","47.37","SAGONA ISLAND","8403255","2023-03-18 20:30","2023","03","18","20:30","1.3","","-2.2","","78","","","","29","","7","","","","99.88","","","","","","NA"
"-55.79","47.37","SAGONA ISLAND","8403255","2023-03-18 21:30","2023","03","18","21:30","0.8","","-0.4","","92","","","","12","","6","","","","99.88","","","","","","NA"
"-55.79","47.37","SAGONA ISLAND","8403255","2023-03-18 22:30","2023","03","18","22:30","1.0","","-1.1","","86","","","","14","","12","","","","99.83","","","","","","NA"
"-55.79","47.37","SAGONA ISLAND","8403255","2023-03-18 23:30","2023","03","18","23:30","1.3","","-2.0","","79","","","","11","","15","","","","99.75","","","","","","NA"
"-55.79","47.37","SAGONA ISLAND","8403255","2023-03-19 00:30","2023","03","19","00:30","0.8","","0.1","","95","","","","12","","19","","","","99.71","","","","","","NA"
"-55.79","47.37","SAGONA ISLAND","8403255","2023-03-19 01:30","2023","03","19","01:30","0.7","","-0.2","","93","","","","11","","19","","","","99.61","","","","","","NA"
"-55.79","47.37","SAGONA ISLAND","8403255","2023-03-19 02:30","2023","03","19","02:30","0.7","","0.3","","97","","","","10","","30","","","","99.52","","","","","","NA"
"-55.79","47.37","SAGONA ISLAND","8403255","2023-03-19 03:30","2023","03","19","03:30","0.5","","0.3","","99","","","","11","","36","","","","99.38","","","","","","NA"
"-55.79","47.37","SAGONA ISLAND","8403255","2023-03-19 04:30","2023","03","19","04:30","0.4","","0.3","","100","","","","10","","42","","","","99.26","","","","","","NA"
"-55.79","47.37","SAGONA ISLAND","8403255","2023-03-19 05:30","2023","03","19","05:30","0.3","","0.3","","100","","","","10","","36","","","","99.13","","","","","","NA"
"-55.79","47.37","SAGONA ISLAND","8403255","2023-03-19 06:30","2023","03","19","06:30","0.4","","0.4","","100","","","","10","","42","","","","98.97","","","","","","NA"
"-55.79","47.37","SAGONA ISLAND","8403255","2023-03-19 07:30","2023","03","19","07:30","0.6","","0.5","","100","","","","10","","44","","","","98.83","","","","","","NA"
"-55.79","47.37","SAGONA ISLAND","8403255","2023-03-19 08:30","2023","03","19","08:30","0.8","","0.8","","100","","","","10","","38","","","","98.78","","","","","","NA"
"-55.79","47.37","SAGONA ISLAND","8403255","2023-03-19 09:30","2023","03","19","09:30","1.2","","1.1","","99","","","","11","","41","","","","98.62","","","","","","NA"
"-55.79","47.37","SAGONA ISLAND","8403255","2023-03-19 10:30","2023","03","19","10:30","1.3","","1.2","","99","","","","11","","36","","","","98.49","","","","","","NA"
"-55.79","47.37","SAGONA ISLAND","8403255","2023-03-19 11:30","2023","03","19","11:30","1.8","","1.8","","100","","","","13","","23","","","","98.46","","","","","","NA"
"-55.79","47.37","SAGONA ISLAND","8403255","2023-03-19 12:30","2023","03","19","12:30","1.8","","1.7","","99","","","","20","","27","","","","98.43","","","","","","NA"
"-55.79","47.37","SAGONA ISLAND","8403255","2023-03-19 13:30","2023","03","19","13:30","1.8","","1.6","","99","","","","23","","57","","","","98.32","","","","","","NA"
"-55.79","47.37","SAGONA ISLAND","8403255","2023-03-19 14:30","2023","03","19","14:30","1.3","","0.7","","96","","","","26","","64","","","","98.43","","","","","","NA"
"-55.79","47.37","SAGONA ISLAND","8403255","2023-03-19 15:30","2023","03","19","15:30","1.3","","-3.7","","69","","","","27","","64","","","","98.58","","","","","","NA"
"-55.79","47.37","SAGONA ISLAND","8403255","2023-03-19 16:30","2023","03","19","16:30","1.1","","-4.1","","68","","","","27","","64","","","","98.68","","","","","","NA"
"-55.79","47.37","SAGONA ISLAND","8403255","2023-03-19 17:30","2023","03","19","17:30","0.7","","-3.8","","72","","","","26","","57","","","","98.84","","","","","","NA"
"-55.79","47.37","SAGONA ISLAND","8403255","2023-03-19 18:30","2023","03","19","18:30","0.3","","-2.9","","79","","","","26","","53","","","","98.94","","","","","","NA"
"-55.79","47.37","SAGONA ISLAND","8403255","2023-03-19 19:30","2023","03","19","19:30","0.3","","-3.6","","75","","","","26","","53","","","","99.00","","","","","","NA"
"-55.79","47.37","SAGONA ISLAND","8403255","2023-03-19 20:30","2023","03","19","20:30","0.1","","-2.9","","80","","","","25","","33","","","","99.03","","","","","","NA"
"-55.79","47.37","SAGONA ISLAND","8403255","2023-03-19 21:30","2023","03","19","21:30","0.2","","-2.4","","83","","","","22","","34","","","","99.05","","","","","","NA"
"-55.79","47.37","SAGONA ISLAND","8403255","2023-03-19 22:30","2023","03","19","22:30","0.2","","-1.3","","89","","","","20","","28","","","","98.94","","","","","","NA"
"-55.79","47.37","SAGONA ISLAND","8403255","2023-03-19 23:30","2023","03","19","23:30","0.4","","-0.9","","91","","","","20","","37","","","","98.80","","","","","","NA"
"-55.79","47.37","SAGONA ISLAND","8403255","2023-03-20 00:30","2023","03","20","00:30","1.0","","-0.6","","89","","","","20","","44","","","","98.67","","","","","","NA"
"-55.79","47.37","SAGONA ISLAND","8403255","2023-03-20 01:30","2023","03","20","01:30","0.5","","-0.8","","91","","","","22","","57","","","","98.64","","","","","","NA"
"-55.79","47.37","SAGONA ISLAND","8403255","2023-03-20 02:30","2023","03","20","02:30","-0.5","","-4.6","","74","","","","28","","66","","","","98.76","","","","-10","","NA"
"-55.79","47.37","SAGONA ISLAND","8403255","2023-03-20 03:30","2023","03","20","03:30","-0.1","","-4.8","","71","","","","25","","57","","","","98.79","","","","-9","","NA"
"-55.79","47.37","SAGONA ISLAND","8403255","2023-03-20 04:30","2023","03","20","04:30","-0.6","","-6.8","","63","","","","25","","59","","","","98.83","","","","-10","","NA"
"-55.79","47.37","SAGONA ISLAND","8403255","2023-03-20 05:30","2023","03","20","05:30","-0.9","","-6.6","","65","","","","25","","67","","","","98.84","","","","-10","","NA"
"-55.79","47.37","SAGONA ISLAND","8403255","2023-03-20 06:30","2023","03","20","06:30","-1.9","","-5.7","","75","","","","24","","60","","","","98.83","","","","-11","","NA"
"-55.79","47.37","SAGONA ISLAND","8403255","2023-03-20 07:30","2023","03","20","07:30","-1.2","","-6.1","","69","","","","24","","61","","","","98.89","","","","-10","","NA"
"-55.79","47.37","SAGONA ISLAND","8403255","2023-03-20 08:30","2023","03","20","08:30","-1.1","","-8.7","","56","","","","25","","70","","","","98.91","","","","-11","","NA"
"-55.79","47.37","SAGONA ISLAND","8403255","2023-03-20 09:30","2023","03","20","09:30","-1.2","","-8.7","","57","","","","24","","69","","","","98.90","","","","-11","","NA"
"-55.79","47.37","SAGONA ISLAND","8403255","2023-03-20 10:30","2023","03","20","10:30","-2.6","","-5.4","","81","","","","25","","74","","","","98.92","","","","-13","","NA"
"-55.79","47.37","SAGONA ISLAND","8403255","2023-03-20 11:30","2023","03","20","11:30","-2.0","","-4.1","","86","","","","25","","69","","","","98.96","","","","-12","","NA"
"-55.79","47.37","SAGONA ISLAND","8403255","2023-03-20 12:30","2023","03","20","12:30","-1.8","","-5.1","","79","","","","26","","82","","","","98.94","","","","-12","","NA"
"-55.79","47.37","SAGONA ISLAND","8403255","2023-03-20 13:30","2023","03","20","13:30","-1.6","","-6.2","","71","","","","26","","85","","","","98.93","","","","-12","","NA"
"-55.79","47.37","SAGONA ISLAND","8403255","2023-03-20 14:30","2023","03","20","14:30","-2.0","","-6.9","","69","","","","26","","89","","","","98.96","","","","-13","","NA"
"-55.79","47.37","SAGONA ISLAND","8403255","2023-03-20 15:30","2023","03","20","15:30","-2.0","","-5.5","","77","","","","26","","91","","","","99.10","","","","-13","","NA"
"-55.79","47.37","SAGONA ISLAND","8403255","2023-03-20 16:30","2023","03","20","16:30","-2.0","","-4.7","","82","","","","26","","96","","","","99.12","","","","-13","","NA"
"-55.79","47.37","SAGONA ISLAND","8403255","2023-03-20 17:30","2023","03","20","17:30","-2.2","","-5.1","","80","","","","26","","93","","","","99.30","","","","-14","","NA"
"-55.79","47.37","SAGONA ISLAND","8403255","2023-03-20 18:30","2023","03","20","18:30","-2.5","","-4.6","","85","","","","26","","92","","","","99.42","","","","-14","","NA"
"-55.79","47.37","SAGONA ISLAND","8403255","2023-03-20 19:30","2023","03","20","19:30","-2.0","","-3.6","","88","","","","26","","84","","","","99.51","","","","-13","","NA"
"-55.79","47.37","SAGONA ISLAND","8403255","2023-03-20 20:30","2023","03","20","20:30","-1.9","","-6.2","","72","","","","28","","89","","","","99.60","","","","-13","","NA"
"-55.79","47.37","SAGONA ISLAND","8403255","2023-03-20 21:30","2023","03","20","21:30","-1.6","","-6.5","","69","","","","27","","82","","","","99.71","","","","-12","","NA"
"-55.79","47.37","SAGONA ISLAND","8403255","2023-03-20 22:30","2023","03","20","22:30","-1.5","","-6.8","","67","","","","28","","88","","","","99.69","","","","-12","","NA"
"-55.79","47.37","SAGONA ISLAND","8403255","2023-03-20 23:30","2023","03","20","23:30","-1.1","","-6.2","","68","","","","28","","85","","","","99.72","","","","-12","","NA"
"-55.79","47.37","SAGONA ISLAND","8403255","2023-03-21 00:30","2023","03","21","00:30","-1.2","","-6.6","","67","","","","28","","86","","","","99.76","","","","-12","","NA"
"-55.79","47.37","SAGONA ISLAND","8403255","2023-03-21 01:30","2023","03","21","01:30","-1.2","","-5.9","","70","","","","28","","83","","","","99.79","","","","-12","","NA"
"-55.79","47.37","SAGONA ISLAND","8403255","2023-03-21 02:30","2023","03","21","02:30","-1.2","","-5.9","","70","","","","29","","80","","","","99.88","","","","-12","","NA"
"-55.79","47.37","SAGONA ISLAND","8403255","2023-03-21 03:30","2023","03","21","03:30","-1.1","","-5.1","","74","","","","29","","72","","","","99.98","","","","-11","","NA"
"-55.79","47.37","SAGONA ISLAND","8403255","2023-03-21 04:30","2023","03","21","04:30","-1.1","","-5.1","","74","","","","28","","75","","","","100.02","","","","-11","","NA"
"-55.79","47.37","SAGONA ISLAND","8403255","2023-03-21 05:30","2023","03","21","05:30","-1.1","","-5.1","","74","","","","28","","71","","","","100.11","","","","-11","","NA"
"-55.79","47.37","SAGONA ISLAND","8403255","2023-03-21 06:30","2023","03","21","06:30","-0.9","","-4.9","","74","","","","28","","69","","","","100.27","","","","-11","","NA"
"-55.79","47.37","SAGONA ISLAND","8403255","2023-03-21 07:30","2023","03","21","07:30","-0.9","","-6.3","","67","","","","28","","72","","","","100.32","","","","-11","","NA"
"-55.79","47.37","SAGONA ISLAND","8403255","2023-03-21 08:30","2023","03","21","08:30","-0.8","","-5.1","","73","","","","29","","64","","","","100.49","","","","-10","","NA"
"-55.79","47.37","SAGONA ISLAND","8403255","2023-03-21 09:30","2023","03","21","09:30","-0.6","","-7.4","","60","","","","29","","71","","","","100.44","","","","-10","","NA"
"-55.79","47.37","SAGONA ISLAND","8403255","2023-03-21 10:30","2023","03","21","10:30","-0.3","","-7.0","","61","","","","28","","65","","","","100.54","","","","-9","","NA"
"-55.79","47.37","SAGONA ISLAND","8403255","2023-03-21 11:30","2023","03","21","11:30","-0.5","","-6.0","","66","","","","28","","61","","","","100.64","","","","-10","","NA"
"-55.79","47.37","SAGONA ISLAND","8403255","2023-03-21 12:30","2023","03","21","12:30","-0.2","","-7.4","","58","","","","29","","56","","","","100.69","","","","-9","","NA"
"-55.79","47.37","SAGONA ISLAND","8403255","2023-03-21 13:30","2023","03","21","13:30","0.0","","-7.2","","58","","","","28","","63","","","","100.63","","","","-9","","NA"
"-55.79","47.37","SAGONA ISLAND","8403255","2023-03-21 14:30","2023","03","21","14:30","0.3","","-7.6","","55","","","","28","","52","","","","100.70","","","","","","NA"
"-55.79","47.37","SAGONA ISLAND","8403255","2023-03-21 15:30","2023","03","21","15:30","0.2","","-5.8","","64","","","","28","","53","","","","100.74","","","","","","NA"
"-55.79","47.37","SAGONA ISLAND","8403255","2023-03-21 16:30","2023","03","21","16:30","0.2","","-5.4","","66","","","","29","","56","","","","100.78","","","","","","NA"
"-55.79","47.37","SAGONA ISLAND","8403255","2023-03-21 17:30","2023","03","21","17:30","0.2","","-6.1","","63","","","","29","","49","","","","100.87","","","","","","NA"
"-55.79","47.37","SAGONA ISLAND","8403255","2023-03-21 18:30","2023","03","21","18:30","-0.2","","-4.5","","73","","","","30","","46","","","","100.96","","","","-8","","NA"
"-55.79","47.37","SAGONA ISLAND","8403255","2023-03-21 19:30","2023","03","21","19:30","-0.5","","-4.5","","75","","","","30","","47","","","","101.04","","","","-9","","NA"
"-55.79","47.37","SAGONA ISLAND","8403255","2023-03-21 20:30","2023","03","21","20:30","-0.9","","-4.6","","76","","","","30","","42","","","","101.11","","","","-9","","NA"
"-55.79","47.37","SAGONA ISLAND","8403255","2023-03-21 21:30","2023","03","21","21:30","-1.1","","-4.6","","77","","","","30","","43","","","","101.15","","","","-9","","NA"
"-55.79","47.37","SAGONA ISLAND","8403255","2023-03-21 22:30","2023","03","21","22:30","-1.6","","-5.1","","77","","","","30","","36","","","","101.19","","","","-9","","NA"
"-55.79","47.37","SAGONA ISLAND","8403255","2023-03-21 23:30","2023","03","21","23:30","-1.9","","-5.4","","77","","","","30","","32","","","","101.20","","","","-9","","NA"
"-55.79","47.37","SAGONA ISLAND","8403255","2023-03-22 00:30","2023","03","22","00:30","-2.0","","-5.2","","79","","","","30","","35","","","","101.19","","","","-10","","NA"
"-55.79","47.37","SAGONA ISLAND","8403255","2023-03-22 01:30","2023","03","22","01:30","-2.4","","-5.7","","78","","","","31","","34","","","","101.19","","","","-10","","NA"
"-55.79","47.37","SAGONA ISLAND","8403255","2023-03-22 02:30","2023","03","22","02:30","-2.9","","-6.1","","78","","","","30","","32","","","","101.20","","","","-10","","NA"
"-55.79","47.37","SAGONA ISLAND","8403255","2023-03-22 03:30","2023","03","22","03:30","-3.0","","-6.4","","78","","","","31","","32","","","","101.20","","","","-11","","NA"
"-55.79","47.37","SAGONA ISLAND","8403255","2023-03-22 04:30","2023","03","22","04:30","-2.4","","-5.7","","78","","","","30","","30","","","","101.23","","","","-10","","NA"
"-55.79","47.37","SAGONA ISLAND","8403255","2023-03-22 05:30","2023","03","22","05:30","-2.5","","-5.5","","80","","","","30","","32","","","","101.25","","","","-10","","NA"
"-55.79","47.37","SAGONA ISLAND","8403255","2023-03-22 06:30","2023","03","22","06:30","-2.4","","-6.1","","76","","","","30","","26","","","","101.28","","","","-9","","NA"
"-55.79","47.37","SAGONA ISLAND","8403255","2023-03-22 07:30","2023","03","22","07:30","-2.4","","-8.0","","66","","","","31","","21","","","","101.28","","","","-8","","NA"
"-55.79","47.37","SAGONA ISLAND","8403255","2023-03-22 08:30","2023","03","22","08:30","-2.3","","-9.2","","59","","","","34","","14","","","","101.24","","","","-7","","NA"
"-55.79","47.37","SAGONA ISLAND","8403255","2023-03-22 09:30","2023","03","22","09:30","-1.0","","-10.3","","49","","","","4","","7","","","","101.21","","","","-4","","NA"
"-55.79","47.37","SAGONA ISLAND","8403255","2023-03-22 10:30","2023","03","22","10:30","-1.7","","-8.6","","59","","","","20","","10","","","","101.26","","","","-5","","NA"
"-55.79","47.37","SAGONA ISLAND","8403255","2023-03-22 11:30","2023","03","22","11:30","-0.8","","-7.1","","63","","","","23","","11","","","","101.23","","","","-5","","NA"
"-55.79","47.37","SAGONA ISLAND","8403255","2023-03-22 12:30","2023","03","22","12:30","-0.6","","-5.8","","68","","","","29","","12","","","","101.16","","","","-5","","NA"
"-55.79","47.37","SAGONA ISLAND","8403255","2023-03-22 13:30","2023","03","22","13:30","-1.5","","-7.0","","66","","","","30","","21","","","","101.08","","","","-7","","NA"
"-55.79","47.37","SAGONA ISLAND","8403255","2023-03-22 14:30","2023","03","22","14:30","-2.3","","-5.4","","80","","","","31","","17","","","","101.04","","","","-8","","NA"
"-55.79","47.37","SAGONA ISLAND","8403255","2023-03-22 15:30","2023","03","22","15:30","-2.4","","-5.7","","78","","","","31","","15","","","","101.03","","","","-7","","NA"
"-55.79","47.37","SAGONA ISLAND","8403255","2023-03-22 16:30","2023","03","22","16:30","-2.0","","-5.4","","78","","","","29","","20","","","","101.03","","","","-8","","NA"
"-55.79","47.37","SAGONA ISLAND","8403255","2023-03-22 17:30","2023","03","22","17:30","-1.8","","-5.0","","79","","","","28","","27","","","","101.00","","","","-8","","NA"
"-55.79","47.37","SAGONA ISLAND","8403255","2023-03-22 18:30","2023","03","22","18:30","-1.1","","-3.7","","83","","","","28","","36","","","","100.99","","","","-9","","NA"
"-55.79","47.37","SAGONA ISLAND","8403255","2023-03-22 19:30","2023","03","22","19:30","-1.1","","-4.7","","76","","","","29","","34","","","","101.00","","","","-8","","NA"
"-55.79","47.37","SAGONA ISLAND","8403255","2023-03-22 20:30","2023","03","22","20:30","-1.5","","-7.8","","62","","","","32","","44","","","","100.98","","","","-10","","NA"
"-55.79","47.37","SAGONA ISLAND","8403255","2023-03-22 21:30","2023","03","22","21:30","-2.0","","-9.1","","58","","","","31","","45","","","","101.00","","","","-10","","NA"
"-55.79","47.37","SAGONA ISLAND","8403255","2023-03-22 22:30","2023","03","22","22:30","-2.4","","-8.8","","61","","","","32","","51","","","","100.97","","","","-11","","NA"
"-55.79","47.37","SAGONA ISLAND","8403255","2023-03-22 23:30","2023","03","22","23:30","-2.9","","-9.2","","62","","","","32","","53","","","","100.99","","","","-12","","NA"
"-55.79","47.37","SAGONA ISLAND","8403255","2023-03-23 00:30","2023","03","23","00:30","-2.9","","-10.3","","57","","","","30","","43","","","","101.00","","","","-12","","NA"
"-55.79","47.37","SAGONA ISLAND","8403255","2023-03-23 01:30","2023","03","23","01:30","-3.2","","-8.7","","65","","","","29","","45","","","","100.99","","","","-12","","NA"
"-55.79","47.37","SAGONA ISLAND","8403255","2023-03-23 02:30","2023","03","23","02:30","-3.0","","-7.1","","74","","","","31","","38","","","","100.97","","","","-11","","NA"
"-55.79","47.37","SAGONA ISLAND","8403255","2023-03-23 03:30","2023","03","23","03:30","-2.4","","-7.5","","68","","","","30","","42","","","","100.92","","","","-11","","NA"
"-55.79","47.37","SAGONA ISLAND","8403255","2023-03-23 04:30","2023","03","23","04:30","-2.1","","-6.5","","72","","","","30","","41","","","","100.92","","","","-10","","NA"
"-55.79","47.37","SAGONA ISLAND","8403255","2023-03-23 05:30","2023","03","23","05:30","-2.7","","-6.0","","78","","","","31","","41","","","","100.96","","","","-11","","NA"
"-55.79","47.37","SAGONA ISLAND","8403255","2023-03-23 06:30","2023","03","23","06:30","-2.9","","-6.5","","76","","","","34","","35","","","","101.03","","","","-11","","NA"
"-55.79","47.37","SAGONA ISLAND","8403255","2023-03-23 07:30","2023","03","23","07:30","-3.3","","-9.2","","64","","","","34","","35","","","","101.13","","","","-11","","NA"
"-55.79","47.37","SAGONA ISLAND","8403255","2023-03-23 08:30","2023","03","23","08:30","-3.2","","-10.3","","58","","","","35","","20","","","","101.20","","","","-9","","NA"
"-55.79","47.37","SAGONA ISLAND","8403255","2023-03-23 09:30","2023","03","23","09:30","-2.7","","-11.8","","50","","","","33","","29","","","","101.25","","","","-10","","NA"
"-55.79","47.37","SAGONA ISLAND","8403255","2023-03-23 10:30","2023","03","23","10:30","-1.9","","-11.8","","47","","","","32","","21","","","","101.30","","","","-8","","NA"
"-55.79","47.37","SAGONA ISLAND","8403255","2023-03-23 11:30","2023","03","23","11:30","-2.0","","-12.2","","45","","","","31","","20","","","","101.29","","","","-8","","NA"
"-55.79","47.37","SAGONA ISLAND","8403255","2023-03-23 12:30","2023","03","23","12:30","-1.8","","-12.4","","44","","","","32","","21","","","","101.25","","","","-8","","NA"
"-55.79","47.37","SAGONA ISLAND","8403255","2023-03-23 13:30","2023","03","23","13:30","-0.8","","-11.8","","43","","","","30","","19","","","","101.27","","","","-6","","NA"
"-55.79","47.37","SAGONA ISLAND","8403255","2023-03-23 14:30","2023","03","23","14:30","0.0","","-11.1","","43","","","","29","","22","","","","101.28","","","","-6","","NA"
"-55.79","47.37","SAGONA ISLAND","8403255","2023-03-23 15:30","2023","03","23","15:30","-0.3","","-10.1","","48","","","","26","","24","","","","101.27","","","","-6","","NA"
"-55.79","47.37","SAGONA ISLAND","8403255","2023-03-23 16:30","2023","03","23","16:30","-0.3","","-8.9","","52","","","","26","","22","","","","101.26","","","","-6","","NA"
"-55.79","47.37","SAGONA ISLAND","8403255","2023-03-23 17:30","2023","03","23","17:30","-1.0","","-8.7","","56","","","","26","","26","","","","101.26","","","","-7","","NA"
"-55.79","47.37","SAGONA ISLAND","8403255","2023-03-23 18:30","2023","03","23","18:30","-1.6","","-6.5","","69","","","","26","","23","","","","101.28","","","","-8","","NA"
"-55.79","47.37","SAGONA ISLAND","8403255","2023-03-23 19:30","2023","03","23","19:30","-1.7","","-5.9","","73","","","","27","","18","","","","101.26","","","","-7","","NA"
"-55.79","47.37","SAGONA ISLAND","8403255","2023-03-23 20:30","2023","03","23","20:30","-1.7","","-5.6","","75","","","","24","","11","","","","101.22","","","","-6","","NA"
"-55.79","47.37","SAGONA ISLAND","8403255","2023-03-23 21:30","2023","03","23","21:30","-1.7","","-5.1","","78","","","","21","","6","","","","101.17","","","","-4","","NA"
"-55.79","47.37","SAGONA ISLAND","8403255","2023-03-23 22:30","2023","03","23","22:30","-1.8","","-5.6","","75","","","","18","","9","","","","101.13","","","","-5","","NA"
"-55.79","47.37","SAGONA ISLAND","8403255","2023-03-23 23:30","2023","03","23","23:30","-1.9","","-5.5","","76","","","","15","","12","","","","101.04","","","","-6","","NA"
"-55.79","47.37","SAGONA ISLAND","8403255","2023-03-24 00:30","2023","03","24","00:30","-2.2","","-5.5","","78","","","","13","","18","","","","100.87","","","","-8","","NA"
"-55.79","47.37","SAGONA ISLAND","8403255","2023-03-24 01:30","2023","03","24","01:30","-2.4","","-6.9","","71","","","","12","","28","","","","100.73","","","","-9","","NA"
"-55.79","47.37","SAGONA ISLAND","8403255","2023-03-24 02:30","2023","03","24","02:30","-2.5","","-6.4","","74","","","","12","","30","","","","100.63","","","","-10","","NA"
"-55.79","47.37","SAGONA ISLAND","8403255","2023-03-24 03:30","2023","03","24","03:30","-2.5","","-5.0","","83","","","","11","","34","","","","100.49","","","","-10","","NA"
"-55.79","47.37","SAGONA ISLAND","8403255","2023-03-24 04:30","2023","03","24","04:30","-2.3","","-5.4","","79","","","","11","","43","","","","100.32","","","","-11","","NA"
"-55.79","47.37","SAGONA ISLAND","8403255","2023-03-24 05:30","2023","03","24","05:30","-2.2","","-5.2","","80","","","","11","","46","","","","100.14","","","","-11","","NA"
"-55.79","47.37","SAGONA ISLAND","8403255","2023-03-24 06:30","2023","03","24","06:30","-2.2","","-5.1","","80","","","","10","","53","","","","99.97","","","","-11","","NA"
"-55.79","47.37","SAGONA ISLAND","8403255","2023-03-24 07:30","2023","03","24","07:30","-2.0","","-4.8","","81","","","","10","","50","","","","99.82","","","","-11","","NA"
"-55.79","47.37","SAGONA ISLAND","8403255","2023-03-24 08:30","2023","03","24","08:30","-1.5","","-4.9","","78","","","","10","","48","","","","99.68","","","","-10","","NA"
"-55.79","47.37","SAGONA ISLAND","8403255","2023-03-24 09:30","2023","03","24","09:30","-1.6","","-5.3","","76","","","","8","","62","","","","99.44","","","","-11","","NA"
"-55.79","47.37","SAGONA ISLAND","8403255","2023-03-24 10:30","2023","03","24","10:30","-1.3","","-5.5","","73","","","","8","","66","","","","99.32","","","","-11","","NA"
"-55.79","47.37","SAGONA ISLAND","8403255","2023-03-24 11:30","2023","03","24","11:30","-1.3","","-5.0","","76","","","","8","","59","","","","99.27","","","","-11","","NA"
"-55.79","47.37","SAGONA ISLAND","8403255","2023-03-24 12:30","2023","03","24","12:30","-2.5","","-4.1","","89","","","","8","","71","","","","99.12","","","","-13","","NA"
"-55.79","47.37","SAGONA ISLAND","8403255","2023-03-24 13:30","2023","03","24","13:30","-2.3","","-3.6","","91","","","","7","","68","","","","98.97","","","","-12","","NA"
"-55.79","47.37","SAGONA ISLAND","8403255","2023-03-24 14:30","2023","03","24","14:30","-2.2","","-3.5","","91","","","","7","","75","","","","98.84","","","","-13","","NA"
"-55.79","47.37","SAGONA ISLAND","8403255","2023-03-24 15:30","2023","03","24","15:30","-2.3","","-3.4","","92","","","","6","","77","","","","98.74","","","","-13","","NA"
"-55.79","47.37","SAGONA ISLAND","8403255","2023-03-24 16:30","2023","03","24","16:30","-2.5","","-3.7","","91","","","","5","","65","","","","98.64","","","","-13","","NA"
"-55.79","47.37","SAGONA ISLAND","8403255","2023-03-24 17:30","2023","03","24","17:30","-2.6","","-4.2","","89","","","","4","","69","","","","98.58","","","","-13","","NA"
"-55.79","47.37","SAGONA ISLAND","8403255","2023-03-24 18:30","2023","03","24","18:30","-2.7","","-3.9","","91","","","","4","","70","","","","98.54","","","","-13","","NA"
"-55.79","47.37","SAGONA ISLAND","8403255","2023-03-24 19:30","2023","03","24","19:30","-2.9","","-3.7","","95","","","","3","","84","","","","98.51","","","","-14","","NA"
"-55.79","47.37","SAGONA ISLAND","8403255","2023-03-24 20:30","2023","03","24","20:30","-2.7","","-4.0","","91","","","","3","","79","","","","98.57","","","","-14","","NA"
"-55.79","47.37","SAGONA ISLAND","8403255","2023-03-24 21:30","2023","03","24","21:30","-3.0","","-3.7","","94","","","","2","","88","","","","98.59","","","","-14","","NA"
"-55.79","47.37","SAGONA ISLAND","8403255","2023-03-24 22:30","2023","03","24","22:30","-2.8","","-3.7","","93","","","","2","","78","","","","98.64","","","","-14","","NA"
"-55.79","47.37","SAGONA ISLAND","8403255","2023-03-24 23:30","2023","03","24","23:30","-2.5","","-3.2","","94","","","","2","","79","","","","98.64","","","","-13","","NA"
"-55.79","47.37","SAGONA ISLAND","8403255","2023-03-25 00:30","2023","03","25","00:30","-2.1","","-3.4","","91","","","","1","","77","","","","98.65","","","","-13","","NA"
"-55.79","47.37","SAGONA ISLAND","8403255","2023-03-25 01:30","2023","03","25","01:30","-2.1","","-2.9","","94","","","","1","","85","","","","98.55","","","","-13","","NA"
"-55.79","47.37","SAGONA ISLAND","8403255","2023-03-25 02:30","2023","03","25","02:30","-1.6","","-3.1","","89","","","","36","","85","","","","98.61","","","","-12","","NA"
"-55.79","47.37","SAGONA ISLAND","8403255","2023-03-25 03:30","2023","03","25","03:30","-0.9","","-3.6","","82","","","","36","","85","","","","98.68","","","","-11","","NA"
"-55.79","47.37","SAGONA ISLAND","8403255","2023-03-25 04:30","2023","03","25","04:30","-0.6","","-3.7","","80","","","","36","","91","","","","98.72","","","","-11","","NA"
"-55.79","47.37","SAGONA ISLAND","8403255","2023-03-25 05:30","2023","03","25","05:30","-0.5","","-2.8","","85","","","","36","","89","","","","98.83","","","","-11","","NA"
"-55.79","47.37","SAGONA ISLAND","8403255","2023-03-25 06:30","2023","03","25","06:30","-0.3","","-3.1","","81","","","","36","","87","","","","98.97","","","","-11","","NA"
"-55.79","47.37","SAGONA ISLAND","8403255","2023-03-25 07:30","2023","03","25","07:30","0.1","","-2.9","","80","","","","36","","78","","","","99.13","","","","","","NA"
"-55.79","47.37","SAGONA ISLAND","8403255","2023-03-25 08:30","2023","03","25","08:30","0.7","","-3.1","","76","","","","1","","70","","","","99.35","","","","","","NA"
"-55.79","47.37","SAGONA ISLAND","8403255","2023-03-25 09:30","2023","03","25","09:30","1.2","","-3.5","","71","","","","1","","68","","","","99.42","","","","","","NA"
"-55.79","47.37","SAGONA ISLAND","8403255","2023-03-25 10:30","2023","03","25","10:30","1.9","","-3.2","","69","","","","36","","71","","","","99.51","","","","","","NA"
"-55.79","47.37","SAGONA ISLAND","8403255","2023-03-25 11:30","2023","03","25","11:30","2.5","","-3.4","","65","","","","36","","69","","","","99.65","","","","","","NA"
"-55.79","47.37","SAGONA ISLAND","8403255","2023-03-25 12:30","2023","03","25","12:30","2.8","","-3.9","","61","","","","36","","55","","","","99.82","","","","","","NA"
"-55.79","47.37","SAGONA ISLAND","8403255","2023-03-25 13:30","2023","03","25","13:30","3.5","","-3.9","","58","","","","36","","58","","","","99.85","","","","","","NA"
"-55.79","47.37","SAGONA ISLAND","8403255","2023-03-25 14:30","2023","03","25","14:30","4.0","","-6.1","","48","","","","36","","58","","","","99.93","","","","","","NA"
"-55.79","47.37","SAGONA ISLAND","8403255","2023-03-25 15:30","2023","03","25","15:30","3.7","","-6.1","","49","","","","36","","61","","","","99.94","","","","","","NA"
"-55.79","47.37","SAGONA ISLAND","8403255","2023-03-25 16:30","2023","03","25","16:30","3.6","","-6.8","","46","","","","36","","57","","","","100.01","","","","","","NA"
"-55.79","47.37","SAGONA ISLAND","8403255","2023-03-25 17:30","2023","03","25","17:30","3.0","","-6.9","","48","","","","36","","53","","","","100.17","","","","","","NA"
"-55.79","47.37","SAGONA ISLAND","8403255","2023-03-25 18:30","2023","03","25","18:30","2.3","","-4.2","","62","","","","36","","51","","","","100.31","","","","","","NA"
"-55.79","47.37","SAGONA ISLAND","8403255","2023-03-25 19:30","2023","03","25","19:30","2.0","","-3.8","","66","","","","36","","43","","","","100.43","","","","","","NA"
"-55.79","47.37","SAGONA ISLAND","8403255","2023-03-25 20:30","2023","03","25","20:30","1.5","","-3.7","","69","","","","36","","33","","","","100.50","","","","","","NA"
"-55.79","47.37","SAGONA ISLAND","8403255","2023-03-25 21:30","2023","03","25","21:30","0.9","","-3.9","","70","","","","36","","47","","","","100.53","","","","","","NA"
"-55.79","47.37","SAGONA ISLAND","8403255","2023-03-25 22:30","2023","03","25","22:30","0.5","","-4.0","","72","","","","35","","41","","","","100.56","","","","","","NA"
"-55.79","47.37","SAGONA ISLAND","8403255","2023-03-25 23:30","2023","03","25","23:30","0.2","","-3.7","","75","","","","36","","40","","","","100.60","","","","","","NA"
"-55.79","47.37","SAGONA ISLAND","8403255","2023-03-26 00:30","2023","03","26","00:30","-0.2","","-3.6","","78","","","","35","","35","","","","100.58","","","","-7","","NA"
"-55.79","47.37","SAGONA ISLAND","8403255","2023-03-26 01:30","2023","03","26","01:30","-0.4","","-3.7","","78","","","","36","","43","","","","100.60","","","","-8","","NA"
"-55.79","47.37","SAGONA ISLAND","8403255","2023-03-26 02:30","2023","03","26","02:30","-0.3","","-4.0","","76","","","","36","","42","","","","100.62","","","","-8","","NA"
"-55.79","47.37","SAGONA ISLAND","8403255","2023-03-26 03:30","2023","03","26","03:30","0.0","","-3.6","","76","","","","1","","35","","","","100.65","","","","-7","","NA"
"-55.79","47.37","SAGONA ISLAND","8403255","2023-03-26 04:30","2023","03","26","04:30","0.2","","-3.5","","77","","","","36","","39","","","","100.68","","","","","","NA"
"-55.79","47.37","SAGONA ISLAND","8403255","2023-03-26 05:30","2023","03","26","05:30","0.2","","-3.3","","77","","","","36","","31","","","","100.71","","","","","","NA"
"-55.79","47.37","SAGONA ISLAND","8403255","2023-03-26 06:30","2023","03","26","06:30","0.2","","-4.0","","73","","","","1","","36","","","","100.63","","","","","","NA"
"-55.79","47.37","SAGONA ISLAND","8403255","2023-03-26 07:30","2023","03","26","07:30","0.2","","-6.2","","62","","","","36","","32","","","","100.75","","","","","","NA"
"-55.79","47.37","SAGONA ISLAND","8403255","2023-03-26 08:30","2023","03","26","08:30","0.2","","-7.0","","58","","","","36","","31","","","","100.74","","","","","","NA"
"-55.79","47.37","SAGONA ISLAND","8403255","2023-03-26 09:30","2023","03","26","09:30","0.7","","-6.7","","57","","","","1","","31","","","","100.69","","","","","","NA"
"-55.79","47.37","SAGONA ISLAND","8403255","2023-03-26 10:30","2023","03","26","10:30","1.2","","-6.7","","56","","","","36","","19","","","","100.70","","","","","","NA"
"-55.79","47.37","SAGONA ISLAND","8403255","2023-03-26 11:30","2023","03","26","11:30","1.7","","-7.0","","52","","","","2","","35","","","","100.55","","","","","","NA"
"-55.79","47.37","SAGONA ISLAND","8403255","2023-03-26 12:30","2023","03","26","12:30","2.1","","-6.2","","54","","","","4","","27","","","","100.40","","","","","","NA"
"-55.79","47.37","SAGONA ISLAND","8403255","2023-03-26 13:30","2023","03","26","13:30","3.1","","-6.8","","48","","","","2","","10","","","","100.50","","","","","","NA"
"-55.79","47.37","SAGONA ISLAND","8403255","2023-03-26 14:30","2023","03","26","14:30","3.9","","-7.8","","42","","","","3","","9","","","","100.45","","","","","","NA"
"-55.79","47.37","SAGONA ISLAND","8403255","2023-03-26 15:30","2023","03","26","15:30","2.4","","-3.7","","64","","","","24","","6","","","","100.37","","","","","","NA"
"-55.79","47.37","SAGONA ISLAND","8403255","2023-03-26 16:30","2023","03","26","16:30","2.4","","-4.2","","62","","","","6","","7","","","","100.26","","","","","","NA"
"-55.79","47.37","SAGONA ISLAND","8403255","2023-03-26 17:30","2023","03","26","17:30","1.5","","-3.5","","69","","","","17","","5","","","","100.19","","","","","","NA"
"-55.79","47.37","SAGONA ISLAND","8403255","2023-03-26 18:30","2023","03","26","18:30","2.2","","-3.3","","67","","","","4","","6","","","","100.21","","","","","","NA"
"-55.79","47.37","SAGONA ISLAND","8403255","2023-03-26 19:30","2023","03","26","19:30","1.7","","-2.8","","72","","","","1","","5","","","","100.22","","","","","","NA"
"-55.79","47.37","SAGONA ISLAND","8403255","2023-03-26 20:30","2023","03","26","20:30","1.1","","-0.8","","87","","","","3","","23","","","","100.22","","","","","","NA"
"-55.79","47.37","SAGONA ISLAND","8403255","2023-03-26 21:30","2023","03","26","21:30","1.0","","-0.6","","89","","","","3","","20","","","","100.19","","","","","","NA"
"-55.79","47.37","SAGONA ISLAND","8403255","2023-03-26 22:30","2023","03","26","22:30","0.5","","-1.8","","85","","","","3","","33","","","","100.09","","","","","","NA"
"-55.79","47.37","SAGONA ISLAND","8403255","2023-03-26 23:30","2023","03","26","23:30","0.5","","-3.1","","77","","","","3","","31","","","","100.04","","","","","","NA"
"-55.79","47.37","SAGONA ISLAND","8403255","2023-03-27 00:30","2023","03","27","00:30","-0.2","","-3.8","","77","","","","2","","41","","","","99.95","","","","-8","","NA"
"-55.79","47.37","SAGONA ISLAND","8403255","2023-03-27 01:30","2023","03","27","01:30","-0.6","","-4.3","","76","","","","3","","33","","","","99.93","","","","-8","","NA"
"-55.79","47.37","SAGONA ISLAND","8403255","2023-03-27 02:30","2023","03","27","02:30","-0.8","","-4.6","","75","","","","3","","35","","","","99.87","","","","-8","","NA"
"-55.79","47.37","SAGONA ISLAND","8403255","2023-03-27 03:30","2023","03","27","03:30","-0.8","","-4.2","","77","","","","2","","28","","","","99.86","","","","-7","","NA"
"-55.79","47.37","SAGONA ISLAND","8403255","2023-03-27 04:30","2023","03","27","04:30","-0.9","","-4.2","","78","","","","2","","28","","","","99.89","","","","-7","","NA"
"-55.79","47.37","SAGONA ISLAND","8403255","2023-03-27 05:30","2023","03","27","05:30","-1.1","","-4.9","","75","","","","3","","29","","","","99.93","","","","-8","","NA"
"-55.79","47.37","SAGONA ISLAND","8403255","2023-03-27 06:30","2023","03","27","06:30","-1.0","","-5.0","","75","","","","1","","39","","","","99.94","","","","-9","","NA"
"-55.79","47.37","SAGONA ISLAND","8403255","2023-03-27 07:30","2023","03","27","07:30","-1.0","","-5.3","","73","","","","1","","34","","","","99.93","","","","-8","","NA"
"-55.79","47.37","SAGONA ISLAND","8403255","2023-03-27 08:30","2023","03","27","08:30","-0.4","","-5.6","","68","","","","36","","27","","","","99.93","","","","-7","","NA"
"-55.79","47.37","SAGONA ISLAND","8403255","2023-03-27 09:30","2023","03","27","09:30","0.7","","-5.3","","64","","","","36","","20","","","","99.90","","","","","","NA"
"-55.79","47.37","SAGONA ISLAND","8403255","2023-03-27 10:30","2023","03","27","10:30","0.8","","-4.9","","66","","","","34","","26","","","","99.84","","","","","","NA"
"-55.79","47.37","SAGONA ISLAND","8403255","2023-03-27 11:30","2023","03","27","11:30","1.9","","-5.1","","60","","","","34","","21","","","","99.82","","","","","","NA"
"-55.79","47.37","SAGONA ISLAND","8403255","2023-03-27 12:30","2023","03","27","12:30","2.4","","-3.9","","63","","","","34","","19","","","","99.81","","","","","","NA"
"-55.79","47.37","SAGONA ISLAND","8403255","2023-03-27 13:30","2023","03","27","13:30","2.9","","-2.8","","66","","","","32","","25","","","","99.76","","","","","","NA"
"-55.79","47.37","SAGONA ISLAND","8403255","2023-03-27 14:30","2023","03","27","14:30","3.0","","-3.2","","64","","","","32","","28","","","","99.75","","","","","","NA"
"-55.79","47.37","SAGONA ISLAND","8403255","2023-03-27 15:30","2023","03","27","15:30","4.2","","-2.3","","63","","","","36","","28","","","","99.77","","","","","","NA"
"-55.79","47.37","SAGONA ISLAND","8403255","2023-03-27 16:30","2023","03","27","16:30","4.9","","-3.9","","53","","","","35","","30","","","","99.82","","","","","","NA"
"-55.79","47.37","SAGONA ISLAND","8403255","2023-03-27 17:30","2023","03","27","17:30","4.2","","-2.1","","64","","","","36","","34","","","","99.87","","","","","","NA"
"-55.79","47.37","SAGONA ISLAND","8403255","2023-03-27 18:30","2023","03","27","18:30","3.2","","-1.1","","74","","","","36","","31","","","","99.97","","","","","","NA"
"-55.79","47.37","SAGONA ISLAND","8403255","2023-03-27 19:30","2023","03","27","19:30","2.4","","-1.5","","75","","","","36","","36","","","","100.01","","","","","","NA"
"-55.79","47.37","SAGONA ISLAND","8403255","2023-03-27 20:30","2023","03","27","20:30","2.0","","-1.3","","79","","","","35","","24","","","","100.10","","","","","","NA"
"-55.79","47.37","SAGONA ISLAND","8403255","2023-03-27 21:30","2023","03","27","21:30","1.6","","-1.4","","80","","","","36","","15","","","","100.14","","","","","","NA"
"-55.79","47.37","SAGONA ISLAND","8403255","2023-03-27 22:30","2023","03","27","22:30","1.6","","-0.8","","84","","","","33","","24","","","","100.12","","","","","","NA"
"-55.79","47.37","SAGONA ISLAND","8403255","2023-03-27 23:30","2023","03","27","23:30","1.3","","-0.5","","87","","","","35","","26","","","","100.14","","","","","","NA"
"-55.79","47.37","SAGONA ISLAND","8403255","2023-03-28 00:30","2023","03","28","00:30","1.4","","-0.5","","87","","","","35","","26","","","","100.16","","","","","","NA"
"-55.79","47.37","SAGONA ISLAND","8403255","2023-03-28 01:30","2023","03","28","01:30","0.8","","0.0","","95","","","","35","","23","","","","100.20","","","","","","NA"
"-55.79","47.37","SAGONA ISLAND","8403255","2023-03-28 02:30","2023","03","28","02:30","1.1","","-0.3","","90","","","","34","","20","","","","100.19","","","","","","NA"
"-55.79","47.37","SAGONA ISLAND","8403255","2023-03-28 03:30","2023","03","28","03:30","1.1","","-1.8","","81","","","","2","","24","","","","100.19","","","","","","NA"
"-55.79","47.37","SAGONA ISLAND","8403255","2023-03-28 04:30","2023","03","28","04:30","1.2","","-2.0","","80","","","","35","","21","","","","100.22","","","","","","NA"
"-55.79","47.37","SAGONA ISLAND","8403255","2023-03-28 05:30","2023","03","28","05:30","0.9","","-3.1","","75","","","","36","","34","","","","100.19","","","","","","NA"
"-55.79","47.37","SAGONA ISLAND","8403255","2023-03-28 06:30","2023","03","28","06:30","0.9","","-2.9","","76","","","","35","","27","","","","100.19","","","","","","NA"
"-55.79","47.37","SAGONA ISLAND","8403255","2023-03-28 07:30","2023","03","28","07:30","0.9","","-2.7","","77","","","","36","","36","","","","100.24","","","","","","NA"
"-55.79","47.37","SAGONA ISLAND","8403255","2023-03-28 08:30","2023","03","28","08:30","1.4","","-2.9","","73","","","","36","","36","","","","100.23","","","","","","NA"
"-55.79","47.37","SAGONA ISLAND","8403255","2023-03-28 09:30","2023","03","28","09:30","1.7","","-3.3","","69","","","","36","","36","","","","100.23","","","","","","NA"
"-55.79","47.37","SAGONA ISLAND","8403255","2023-03-28 10:30","2023","03","28","10:30","1.9","","-2.9","","70","","","","1","","31","","","","100.23","","","","","","NA"
"-55.79","47.37","SAGONA ISLAND","8403255","2023-03-28 11:30","2023","03","28","11:30","2.6","","-3.4","","64","","","","2","","17","","","","100.24","","","","","","NA"
"-55.79","47.37","SAGONA ISLAND","8403255","2023-03-28 12:30","2023","03","28","12:30","2.8","","-4.2","","60","","","","2","","23","","","","100.21","","","","","","NA"
"-55.79","47.37","SAGONA ISLAND","8403255","2023-03-28 13:30","2023","03","28","13:30","2.3","","-3.0","","68","","","","2","","27","","","","100.17","","","","","","NA"
"-55.79","47.37","SAGONA ISLAND","8403255","2023-03-28 14:30","2023","03","28","14:30","2.4","","-3.4","","66","","","","2","","27","","","","100.15","","","","","","NA"
"-55.79","47.37","SAGONA ISLAND","8403255","2023-03-28 15:30","2023","03","28","15:30","2.6","","-3.1","","66","","","","2","","29","","","","100.14","","","","","","NA"
"-55.79","47.37","SAGONA ISLAND","8403255","2023-03-28 16:30","2023","03","28","16:30","2.5","","-2.5","","70","","","","2","","25","","","","100.17","","","","","","NA"
"-55.79","47.37","SAGONA ISLAND","8403255","2023-03-28 17:30","2023","03","28","17:30","2.2","","-1.8","","75","","","","2","","31","","","","100.19","","","","","","NA"
"-55.79","47.37","SAGONA ISLAND","8403255","2023-03-28 18:30","2023","03","28","18:30","1.7","","-1.0","","82","","","","3","","28","","","","100.21","","","","","","NA"
"-55.79","47.37","SAGONA ISLAND","8403255","2023-03-28 19:30","2023","03","28","19:30","1.4","","-0.8","","85","","","","2","","30","","","","100.21","","","","","","NA"
"-55.79","47.37","SAGONA ISLAND","8403255","2023-03-28 20:30","2023","03","28","20:30","1.3","","-0.8","","86","","","","2","","27","","","","100.22","","","","","","NA"
"-55.79","47.37","SAGONA ISLAND","8403255","2023-03-28 21:30","2023","03","28","21:30","1.2","","-1.4","","82","","","","3","","29","","","","100.22","","","","","","NA"
"-55.79","47.37","SAGONA ISLAND","8403255","2023-03-28 22:30","2023","03","28","22:30","1.0","","-1.8","","82","","","","3","","31","","","","100.23","","","","","","NA"
"-55.79","47.37","SAGONA ISLAND","8403255","2023-03-28 23:30","2023","03","28","23:30","0.9","","-1.8","","83","","","","2","","40","","","","100.21","","","","","","NA"
"-55.79","47.37","SAGONA ISLAND","8403255","2023-03-29 00:30","2023","03","29","00:30","0.5","","-1.8","","84","","","","1","","38","","","","100.22","","","","","","NA"
"-55.79","47.37","SAGONA ISLAND","8403255","2023-03-29 01:30","2023","03","29","01:30","0.4","","-2.8","","79","","","","36","","30","","","","100.25","","","","","","NA"
"-55.79","47.37","SAGONA ISLAND","8403255","2023-03-29 02:30","2023","03","29","02:30","-0.4","","-2.5","","86","","","","36","","28","","","","100.26","","","","-7","","NA"
"-55.79","47.37","SAGONA ISLAND","8403255","2023-03-29 03:30","2023","03","29","03:30","-0.3","","-4.9","","71","","","","36","","28","","","","100.26","","","","-7","","NA"
"-55.79","47.37","SAGONA ISLAND","8403255","2023-03-29 04:30","2023","03","29","04:30","-0.4","","-4.5","","74","","","","36","","25","","","","100.27","","","","-6","","NA"
"-55.79","47.37","SAGONA ISLAND","8403255","2023-03-29 05:30","2023","03","29","05:30","-0.5","","-5.2","","70","","","","36","","32","","","","100.28","","","","-7","","NA"
"-55.79","47.37","SAGONA ISLAND","8403255","2023-03-29 06:30","2023","03","29","06:30","-0.6","","-5.6","","69","","","","1","","40","","","","100.29","","","","-8","","NA"
"-55.79","47.37","SAGONA ISLAND","8403255","2023-03-29 07:30","2023","03","29","07:30","-0.5","","-6.6","","64","","","","1","","36","","","","100.33","","","","-8","","NA"
"-55.79","47.37","SAGONA ISLAND","8403255","2023-03-29 08:30","2023","03","29","08:30","-0.2","","-7.8","","57","","","","1","","35","","","","100.37","","","","-7","","NA"
"-55.79","47.37","SAGONA ISLAND","8403255","2023-03-29 09:30","2023","03","29","09:30","0.5","","-7.4","","56","","","","2","","28","","","","100.37","","","","","","NA"
"-55.79","47.37","SAGONA ISLAND","8403255","2023-03-29 10:30","2023","03","29","10:30","1.3","","-7.5","","52","","","","36","","17","","","","100.38","","","","","","NA"
"-55.79","47.37","SAGONA ISLAND","8403255","2023-03-29 11:30","2023","03","29","11:30","2.1","","-8.2","","47","","","","36","","24","","","","100.37","","","","","","NA"
"-55.79","47.37","SAGONA ISLAND","8403255","2023-03-29 12:30","2023","03","29","12:30","3.0","","-7.8","","45","","","","35","","17","","","","100.38","","","","","","NA"
"-55.79","47.37","SAGONA ISLAND","8403255","2023-03-29 13:30","2023","03","29","13:30","3.3","","-8.2","","42","","","","36","","28","","","","100.38","","","","","","NA"
"-55.79","47.37","SAGONA ISLAND","8403255","2023-03-29 14:30","2023","03","29","14:30","3.3","","-8.5","","42","","","","35","","28","","","","100.39","","","","","","NA"
"-55.79","47.37","SAGONA ISLAND","8403255","2023-03-29 15:30","2023","03","29","15:30","3.4","","-8.8","","40","","","","35","","28","","","","100.38","","","","","","NA"
"-55.79","47.37","SAGONA ISLAND","8403255","2023-03-29 16:30","2023","03","29","16:30","3.9","","-9.7","","36","","","","35","","28","","","","100.42","","","","","","NA"
"-55.79","47.37","SAGONA ISLAND","8403255","2023-03-29 17:30","2023","03","29","17:30","3.2","","-6.9","","47","","","","35","","27","","","","100.48","","","","","","NA"
"-55.79","47.37","SAGONA ISLAND","8403255","2023-03-29 18:30","2023","03","29","18:30","1.6","","-2.6","","73","","","","33","","21","","","","100.53","","","","","","NA"
"-55.79","47.37","SAGONA ISLAND","8403255","2023-03-29 19:30","2023","03","29","19:30","0.9","","0.1","","94","","","","31","","25","","","","100.58","","","","","","NA"
"-55.79","47.37","SAGONA ISLAND","8403255","2023-03-29 20:30","2023","03","29","20:30","1.3","","-0.6","","87","","","","3","","11","","","","100.69","","","","","","NA"
"-55.79","47.37","SAGONA ISLAND","8403255","2023-03-29 21:30","2023","03","29","21:30","1.3","","-6.4","","57","","","","5","","18","","","","100.72","","","","","","NA"
"-55.79","47.37","SAGONA ISLAND","8403255","2023-03-29 22:30","2023","03","29","22:30","0.9","","-6.9","","56","","","","6","","20","","","","100.74","","","","","","NA"
"-55.79","47.37","SAGONA ISLAND","8403255","2023-03-29 23:30","2023","03","29","23:30","0.5","","-5.4","","65","","","","12","","9","","","","100.75","","","","","","NA"
"-55.79","47.37","SAGONA ISLAND","8403255","2023-03-30 00:30","2023","03","30","00:30","0.3","","-4.4","","71","","","","13","","9","","","","100.76","","","","","","NA"
"-55.79","47.37","SAGONA ISLAND","8403255","2023-03-30 01:30","2023","03","30","01:30","0.4","","-4.5","","70","","","","10","","8","","","","100.79","","","","","","NA"
"-55.79","47.37","SAGONA ISLAND","8403255","2023-03-30 02:30","2023","03","30","02:30","-0.1","","-3.3","","79","","","","7","","9","","","","100.81","","","","-3","","NA"
"-55.79","47.37","SAGONA ISLAND","8403255","2023-03-30 03:30","2023","03","30","03:30","-0.2","","-3.0","","81","","","","8","","8","","","","100.83","","","","-3","","NA"
"-55.79","47.37","SAGONA ISLAND","8403255","2023-03-30 04:30","2023","03","30","04:30","0.0","","-3.5","","77","","","","11","","5","","","","100.85","","","","-2","","NA"
"-55.79","47.37","SAGONA ISLAND","8403255","2023-03-30 05:30","2023","03","30","05:30","-0.1","","-2.9","","81","","","","18","","7","","","","100.87","","","","-3","","NA"
"-55.79","47.37","SAGONA ISLAND","8403255","2023-03-30 06:30","2023","03","30","06:30","0.0","","-3.6","","76","","","","13","","8","","","","100.90","","","","-3","","NA"
"-55.79","47.37","SAGONA ISLAND","8403255","2023-03-30 07:30","2023","03","30","07:30","0.8","","-6.0","","60","","","","13","","10","","","","100.93","","","","","","NA"
"-55.79","47.37","SAGONA ISLAND","8403255","2023-03-30 08:30","2023","03","30","08:30","1.0","","-4.3","","67","","","","15","","11","","","","100.93","","","","","","NA"
"-55.79","47.37","SAGONA ISLAND","8403255","2023-03-30 09:30","2023","03","30","09:30","1.9","","-6.0","","56","","","","16","","12","","","","100.93","","","","","","NA"
"-55.79","47.37","SAGONA ISLAND","8403255","2023-03-30 10:30","2023","03","30","10:30","1.7","","-6.9","","53","","","","16","","11","","","","100.94","","","","","","NA"
"-55.79","47.37","SAGONA ISLAND","8403255","2023-03-30 11:30","2023","03","30","11:30","1.1","","-4.1","","68","","","","24","","8","","","","100.90","","","","","","NA"
"-55.79","47.37","SAGONA ISLAND","8403255","2023-03-30 12:30","2023","03","30","12:30","0.2","","-3.4","","76","","","","24","","12","","","","100.88","","","","","","NA"
"-55.79","47.37","SAGONA ISLAND","8403255","2023-03-30 13:30","2023","03","30","13:30","-0.9","","-4.3","","78","","","","27","","12","","","","100.88","","","","-5","","NA"
"-55.79","47.37","SAGONA ISLAND","8403255","2023-03-30 14:30","2023","03","30","14:30","-0.8","","-3.3","","83","","","","24","","14","","","","100.86","","","","-5","","NA"
"-55.79","47.37","SAGONA ISLAND","8403255","2023-03-30 15:30","2023","03","30","15:30","-0.8","","-2.8","","86","","","","24","","11","","","","100.85","","","","-5","","NA"
"-55.79","47.37","SAGONA ISLAND","8403255","2023-03-30 16:30","2023","03","30","16:30","-0.5","","-2.5","","86","","","","26","","13","","","","100.84","","","","-5","","NA"
"-55.79","47.37","SAGONA ISLAND","8403255","2023-03-30 17:30","2023","03","30","17:30","-0.6","","-3.0","","84","","","","27","","10","","","","100.82","","","","-4","","NA"
"-55.79","47.37","SAGONA ISLAND","8403255","2023-03-30 18:30","2023","03","30","18:30","-1.2","","-1.8","","96","","","","30","","7","","","","100.80","","","","-4","","NA"
"-55.79","47.37","SAGONA ISLAND","8403255","2023-03-30 19:30","2023","03","30","19:30","-1.5","","-1.9","","97","","","","","","0","","","","100.79","","","","","","NA"
"-55.79","47.37","SAGONA ISLAND","8403255","2023-03-30 20:30","2023","03","30","20:30","-1.6","","-2.0","","97","","","","12","","4","","","","100.81","","","","-3","","NA"
"-55.79","47.37","SAGONA ISLAND","8403255","2023-03-30 21:30","2023","03","30","21:30","-1.4","","-1.8","","97","","","","12","","11","","","","100.82","","","","-5","","NA"
"-55.79","47.37","SAGONA ISLAND","8403255","2023-03-30 22:30","2023","03","30","22:30","-1.7","","-2.1","","97","","","","11","","10","","","","100.79","","","","-5","","NA"
"-55.79","47.37","SAGONA ISLAND","8403255","2023-03-30 23:30","2023","03","30","23:30","-1.9","","-2.2","","98","","","","8","","8","","","","100.75","","","","-5","","NA"
"-55.79","47.37","SAGONA ISLAND","8403255","2023-03-31 00:30","2023","03","31","00:30","-2.3","","-2.4","","99","","","","8","","17","","","","100.70","","","","-8","","NA"
"-55.79","47.37","SAGONA ISLAND","8403255","2023-03-31 01:30","2023","03","31","01:30","-2.2","","-2.2","","100","","","","8","","19","","","","100.69","","","","-8","","NA"
"-55.79","47.37","SAGONA ISLAND","8403255","2023-03-31 02:30","2023","03","31","02:30","-2.1","","-2.1","","100","","","","9","","14","","","","100.64","","","","-7","","NA"
"-55.79","47.37","SAGONA ISLAND","8403255","2023-03-31 03:30","2023","03","31","03:30","-1.5","","-1.6","","100","","","","9","","15","","","","100.60","","","","-6","","NA"
"-55.79","47.37","SAGONA ISLAND","8403255","2023-03-31 04:30","2023","03","31","04:30","-1.4","","-1.7","","97","","","","7","","23","","","","100.56","","","","-7","","NA"
"-55.79","47.37","SAGONA ISLAND","8403255","2023-03-31 05:30","2023","03","31","05:30","-1.0","","-2.5","","90","","","","8","","22","","","","100.55","","","","-7","","NA"
"-55.79","47.37","SAGONA ISLAND","8403255","2023-03-31 06:30","2023","03","31","06:30","-1.0","","-3.5","","83","","","","7","","30","","","","100.55","","","","-8","","NA"
"-55.79","47.37","SAGONA ISLAND","8403255","2023-03-31 07:30","2023","03","31","07:30","-1.2","","-3.6","","84","","","","6","","33","","","","100.57","","","","-8","","NA"
"-55.79","47.37","SAGONA ISLAND","8403255","2023-03-31 08:30","2023","03","31","08:30","-0.4","","-4.9","","72","","","","7","","29","","","","100.60","","","","-7","","NA"
"-55.79","47.37","SAGONA ISLAND","8403255","2023-03-31 09:30","2023","03","31","09:30","0.8","","-5.8","","61","","","","7","","24","","","","100.65","","","","","","NA"
"-55.79","47.37","SAGONA ISLAND","8403255","2023-03-31 10:30","2023","03","31","10:30","1.6","","-7.7","","50","","","","6","","30","","","","100.65","","","","","","NA"
"-55.79","47.37","SAGONA ISLAND","8403255","2023-03-31 11:30","2023","03","31","11:30","2.3","","-7.6","","48","","","","7","","27","","","","100.65","","","","","","NA"
"-55.79","47.37","SAGONA ISLAND","8403255","2023-03-31 12:30","2023","03","31","12:30","2.7","","-7.9","","45","","","","7","","20","","","","100.61","","","","","","NA"
"-55.79","47.37","SAGONA ISLAND","8403255","2023-03-31 13:30","2023","03","31","13:30","4.1","","-8.2","","40","","","","8","","21","","","","100.57","","","","","","NA"
"-55.79","47.37","SAGONA ISLAND","8403255","2023-03-31 14:30","2023","03","31","14:30","4.4","","-9.9","","35","","","","7","","25","","","","100.55","","","","","","NA"
"-55.79","47.37","SAGONA ISLAND","8403255","2023-03-31 15:30","2023","03","31","15:30","3.8","","-9.2","","38","","","","8","","30","","","","100.56","","","","","","NA"
"-55.79","47.37","SAGONA ISLAND","8403255","2023-03-31 16:30","2023","03","31","16:30","3.6","","-9.2","","39","","","","8","","29","","","","100.62","","","","","","NA"
"-55.79","47.37","SAGONA ISLAND","8403255","2023-03-31 17:30","2023","03","31","17:30","3.5","","-9.4","","38","","","","8","","26","","","","100.70","","","","","","NA"
"-55.79","47.37","SAGONA ISLAND","8403255","2023-03-31 18:30","2023","03","31","18:30","3.0","","-7.7","","45","","","","7","","23","","","","100.78","","","","","","NA"
"-55.79","47.37","SAGONA ISLAND","8403255","2023-03-31 19:30","2023","03","31","19:30","2.5","","-6.9","","50","","","","9","","18","","","","100.85","","","","","","NA"
"-55.79","47.37","SAGONA ISLAND","8403255","2023-03-31 20:30","2023","03","31","20:30","2.1","","-5.3","","58","","","","11","","16","","","","100.90","","","","","","NA"
"-55.79","47.37","SAGONA ISLAND","8403255","2023-03-31 21:30","2023","03","31","21:30","1.9","","-4.4","","63","","","","16","","9","","","","100.99","","","","","","NA"
"-55.79","47.37","SAGONA ISLAND","8403255","2023-03-31 22:30","2023","03","31","22:30","1.3","","-2.3","","77","","","","22","","6","","","","101.01","","","","","","NA"
"-55.79","47.37","SAGONA ISLAND","8403255","2023-03-31 23:30","2023","03","31","23:30","1.6","","-4.0","","66","","","","23","","8","","","","100.97","","","","","","NA"
