"Longitude (x)","Latitude (y)","Station Name","Climate ID","Date/Time (LST)","Year","Month","Day","Time (LST)","Temp (°C)","Temp Flag","Dew Point Temp (°C)","Dew Point Temp Flag","Rel Hum (%)","Rel Hum Flag","Precip. Amount (mm)","Precip. Amount Flag","Wind Dir (10s deg)","Wind Dir Flag","Wind Spd (km/h)","Wind Spd Flag","Visibility (km)","Visibility Flag","Stn Press (kPa)","Stn Press Flag","Hmdx","Hmdx Flag","Wind Chill","Wind Chill Flag","Weather"
"-139.84","67.57","OLD CROW RCS","2100805","2023-03-01 00:00","2023","03","01","00:00","-33.7","","-37.0","","72","","0.0","","","","0","","","","96.37","","","","","","NA"
"-139.84","67.57","OLD CROW RCS","2100805","2023-03-01 01:00","2023","03","01","01:00","-33.4","","-36.6","","72","","0.0","","18","","2","","","","96.32","","","","-36","","NA"
"-139.84","67.57","OLD CROW RCS","2100805","2023-03-01 02:00","2023","03","01","02:00","-34.0","","-37.3","","72","","0.0","","7","","2","","","","96.25","","","","-36","","NA"
"-139.84","67.57","OLD CROW RCS","2100805","2023-03-01 03:00","2023","03","01","03:00","-34.8","","-38.3","","71","","0.0","","0","","1","","","","96.21","","","","-36","","NA"
"-139.84","67.57","OLD CROW RCS","2100805","2023-03-01 04:00","2023","03","01","04:00","-35.6","","-39.1","","70","","0.0","","","","0","","","","96.18","","","","","","NA"
"-139.84","67.57","OLD CROW RCS","2100805","2023-03-01 05:00","2023","03","01","05:00","-36.1","","-39.6","","70","","0.0","","7","","3","","","","96.09","","","","-40","","NA"
"-139.84","67.57","OLD CROW RCS","2100805","2023-03-01 06:00","2023","03","01","06:00","-37.0","","-40.7","","69","","0.0","","0","","1","","","","96.03","","","","-38","","NA"
"-139.84","67.57","OLD CROW RCS","2100805","2023-03-01 07:00","2023","03","01","07:00","-36.9","","-40.5","","69","","0.0","","26","","2","","","","95.99","","","","-40","","NA"
"-139.84","67.57","OLD CROW RCS","2100805","2023-03-01 08:00","2023","03","01","08:00","-37.3","","-41.0","","69","","0.0","","9","","3","","","","95.91","","","","-41","","NA"
"-139.84","67.57","OLD CROW RCS","2100805","2023-03-01 09:00","2023","03","01","09:00","-37.8","","-41.5","","68","","0.0","","9","","1","","","","95.84","","","","-39","","NA"
"-139.84","67.57","OLD CROW RCS","2100805","2023-03-01 10:00","2023","03","01","10:00","-36.7","","-40.3","","69","","0.0","","","","0","","","","95.80","","","","","","NA"
"-139.84","67.57","OLD CROW RCS","2100805","2023-03-01 11:00","2023","03","01","11:00","-34.2","","-37.4","","73","","0.0","","0","","1","","","","95.76","","","","-35","","NA"
"-139.84","67.57","OLD CROW RCS","2100805","2023-03-01 12:00","2023","03","01","12:00","-33.0","","-36.2","","73","","0.0","","24","","3","","","","95.72","","","","-37","","NA"
"-139.84","67.57","OLD CROW RCS","2100805","2023-03-01 13:00","2023","03","01","13:00","-30.6","","-34.3","","70","","0.0","","23","","3","","","","95.68","","","","-34","","NA"
"-139.84","67.57","OLD CROW RCS","2100805","2023-03-01 14:00","2023","03","01","14:00","-29.1","","-33.8","","64","","0.0","","36","","1","","","","95.61","","","","-30","","NA"
"-139.84","67.57","OLD CROW RCS","2100805","2023-03-01 15:00","2023","03","01","15:00","-27.8","","-32.0","","68","","0.0","","27","","5","","","","95.56","","","","-33","","NA"
"-139.84","67.57","OLD CROW RCS","2100805","2023-03-01 16:00","2023","03","01","16:00","-26.9","","-31.0","","68","","0.0","","26","","9","","","","95.57","","","","-35","","NA"
"-139.84","67.57","OLD CROW RCS","2100805","2023-03-01 17:00","2023","03","01","17:00","-26.5","","-30.6","","68","","0.0","","22","","2","","","","95.56","","","","-29","","NA"
"-139.84","67.57","OLD CROW RCS","2100805","2023-03-01 18:00","2023","03","01","18:00","-26.1","","-29.8","","71","","0.0","","26","","5","","","","95.55","","","","-31","","NA"
"-139.84","67.57","OLD CROW RCS","2100805","2023-03-01 19:00","2023","03","01","19:00","-25.9","","-29.5","","72","","0.0","","24","","2","","","","95.57","","","","-28","","NA"
"-139.84","67.57","OLD CROW RCS","2100805","2023-03-01 20:00","2023","03","01","20:00","-26.0","","-29.4","","73","","0.0","","10","","4","","","","95.58","","","","-30","","NA"
"-139.84","67.57","OLD CROW RCS","2100805","2023-03-01 21:00","2023","03","01","21:00","-25.8","","-29.1","","74","","0.0","","16","","3","","","","95.64","","","","-29","","NA"
"-139.84","67.57","OLD CROW RCS","2100805","2023-03-01 22:00","2023","03","01","22:00","-25.6","","-29.0","","73","","0.0","","16","","2","","","","95.69","","","","-28","","NA"
"-139.84","67.57","OLD CROW RCS","2100805","2023-03-01 23:00","2023","03","01","23:00","-25.4","","-28.7","","74","","0.0","","23","","5","","","","95.75","","","","-30","","NA"
"-139.84","67.57","OLD CROW RCS","2100805","2023-03-02 00:00","2023","03","02","00:00","-25.1","","-28.4","","74","","0.0","","26","","7","","","","95.85","","","","-32","","NA"
"-139.84","67.57","OLD CROW RCS","2100805","2023-03-02 01:00","2023","03","02","01:00","-24.7","","-28.0","","74","","0.0","","26","","3","","","","95.93","","","","-28","","NA"
"-139.84","67.57","OLD CROW RCS","2100805","2023-03-02 02:00","2023","03","02","02:00","-24.4","","-27.8","","73","","0.0","","24","","4","","","","96.03","","","","-28","","NA"
"-139.84","67.57","OLD CROW RCS","2100805","2023-03-02 03:00","2023","03","02","03:00","-24.1","","-27.5","","74","","0.0","","26","","2","","","","96.12","","","","-26","","NA"
"-139.84","67.57","OLD CROW RCS","2100805","2023-03-02 04:00","2023","03","02","04:00","-23.9","","-27.3","","74","","0.0","","19","","2","","","","96.22","","","","-26","","NA"
"-139.84","67.57","OLD CROW RCS","2100805","2023-03-02 05:00","2023","03","02","05:00","-23.7","","-27.2","","73","","0.0","","23","","2","","","","96.31","","","","-26","","NA"
"-139.84","67.57","OLD CROW RCS","2100805","2023-03-02 06:00","2023","03","02","06:00","-23.5","","-26.9","","74","","0.0","","7","","9","","","","96.40","","","","-31","","NA"
"-139.84","67.57","OLD CROW RCS","2100805","2023-03-02 07:00","2023","03","02","07:00","-22.4","","-26.1","","72","","0.0","","7","","14","","","","96.48","","","","-32","","NA"
"-139.84","67.57","OLD CROW RCS","2100805","2023-03-02 08:00","2023","03","02","08:00","-22.7","","-26.4","","72","","0.0","","5","","21","","","","96.56","","","","-34","","NA"
"-139.84","67.57","OLD CROW RCS","2100805","2023-03-02 09:00","2023","03","02","09:00","-22.1","","-26.1","","70","","0.0","","5","","18","","","","96.66","","","","-33","","NA"
"-139.84","67.57","OLD CROW RCS","2100805","2023-03-02 10:00","2023","03","02","10:00","-21.8","","-25.7","","71","","0.0","","4","","20","","","","96.75","","","","-33","","NA"
"-139.84","67.57","OLD CROW RCS","2100805","2023-03-02 11:00","2023","03","02","11:00","-21.6","","-25.7","","69","","0.0","","3","","17","","","","96.84","","","","-32","","NA"
"-139.84","67.57","OLD CROW RCS","2100805","2023-03-02 12:00","2023","03","02","12:00","-21.8","","-25.8","","71","","0.0","","3","","15","","","","96.92","","","","-31","","NA"
"-139.84","67.57","OLD CROW RCS","2100805","2023-03-02 13:00","2023","03","02","13:00","-21.2","","-26.0","","66","","0.0","","3","","18","","","","96.99","","","","-31","","NA"
"-139.84","67.57","OLD CROW RCS","2100805","2023-03-02 14:00","2023","03","02","14:00","-20.9","","-25.8","","65","","0.0","","4","","16","","","","97.06","","","","-31","","NA"
"-139.84","67.57","OLD CROW RCS","2100805","2023-03-02 15:00","2023","03","02","15:00","-20.5","","-25.5","","64","","0.0","","2","","19","","","","97.12","","","","-31","","NA"
"-139.84","67.57","OLD CROW RCS","2100805","2023-03-02 16:00","2023","03","02","16:00","-20.6","","-25.6","","65","","0.0","","2","","13","","","","97.21","","","","-29","","NA"
"-139.84","67.57","OLD CROW RCS","2100805","2023-03-02 17:00","2023","03","02","17:00","-20.3","","-25.2","","65","","0.0","","3","","13","","","","97.26","","","","-29","","NA"
"-139.84","67.57","OLD CROW RCS","2100805","2023-03-02 18:00","2023","03","02","18:00","-20.6","","-24.8","","70","","0.0","","4","","11","","","","97.31","","","","-28","","NA"
"-139.84","67.57","OLD CROW RCS","2100805","2023-03-02 19:00","2023","03","02","19:00","-22.0","","-25.0","","76","","0.0","","9","","9","","","","97.37","","","","-29","","NA"
"-139.84","67.57","OLD CROW RCS","2100805","2023-03-02 20:00","2023","03","02","20:00","-22.5","","-25.5","","77","","0.0","","9","","8","","","","97.44","","","","-29","","NA"
"-139.84","67.57","OLD CROW RCS","2100805","2023-03-02 21:00","2023","03","02","21:00","-23.0","","-25.9","","77","","0.0","","32","","2","","","","97.52","","","","-25","","NA"
"-139.84","67.57","OLD CROW RCS","2100805","2023-03-02 22:00","2023","03","02","22:00","-23.7","","-26.3","","79","","0.0","","4","","3","","","","97.57","","","","-27","","NA"
"-139.84","67.57","OLD CROW RCS","2100805","2023-03-02 23:00","2023","03","02","23:00","-24.8","","-27.3","","79","","0.0","","31","","1","","","","97.62","","","","-26","","NA"
"-139.84","67.57","OLD CROW RCS","2100805","2023-03-03 00:00","2023","03","03","00:00","-23.9","","-26.4","","80","","0.0","","26","","3","","","","97.70","","","","-27","","NA"
"-139.84","67.57","OLD CROW RCS","2100805","2023-03-03 01:00","2023","03","03","01:00","-24.2","","-26.9","","79","","0.0","","21","","4","","","","97.77","","","","-28","","NA"
"-139.84","67.57","OLD CROW RCS","2100805","2023-03-03 02:00","2023","03","03","02:00","-24.4","","-26.9","","79","","0.0","","23","","2","","","","97.84","","","","-26","","NA"
"-139.84","67.57","OLD CROW RCS","2100805","2023-03-03 03:00","2023","03","03","03:00","-24.6","","-27.1","","80","","0.0","","25","","2","","","","97.91","","","","-27","","NA"
"-139.84","67.57","OLD CROW RCS","2100805","2023-03-03 04:00","2023","03","03","04:00","-24.4","","-27.0","","80","","0.0","","27","","1","","","","97.98","","","","-25","","NA"
"-139.84","67.57","OLD CROW RCS","2100805","2023-03-03 05:00","2023","03","03","05:00","-24.3","","-26.9","","79","","0.0","","9","","2","","","","98.06","","","","-26","","NA"
"-139.84","67.57","OLD CROW RCS","2100805","2023-03-03 06:00","2023","03","03","06:00","-24.4","","-27.0","","79","","0.0","","7","","2","","","","98.13","","","","-26","","NA"
"-139.84","67.57","OLD CROW RCS","2100805","2023-03-03 07:00","2023","03","03","07:00","-24.4","","-27.1","","78","","0.0","","0","","1","","","","98.18","","","","-25","","NA"
"-139.84","67.57","OLD CROW RCS","2100805","2023-03-03 08:00","2023","03","03","08:00","-24.6","","-27.3","","79","","0.0","","6","","2","","","","98.27","","","","-27","","NA"
"-139.84","67.57","OLD CROW RCS","2100805","2023-03-03 09:00","2023","03","03","09:00","-24.4","","-27.2","","78","","0.0","","11","","1","","","","98.33","","","","-25","","NA"
"-139.84","67.57","OLD CROW RCS","2100805","2023-03-03 10:00","2023","03","03","10:00","-24.3","","-27.8","","73","","0.0","","13","","2","","","","98.41","","","","-26","","NA"
"-139.84","67.57","OLD CROW RCS","2100805","2023-03-03 11:00","2023","03","03","11:00","-23.1","","-27.8","","66","","0.0","","0","","1","","","","98.50","","","","-24","","NA"
"-139.84","67.57","OLD CROW RCS","2100805","2023-03-03 12:00","2023","03","03","12:00","-21.7","","-28.1","","56","","0.0","","","","0","","","","98.57","","","","","","NA"
"-139.84","67.57","OLD CROW RCS","2100805","2023-03-03 13:00","2023","03","03","13:00","-21.0","","-27.1","","58","","0.0","","20","","2","","","","98.65","","","","-23","","NA"
"-139.84","67.57","OLD CROW RCS","2100805","2023-03-03 14:00","2023","03","03","14:00","-21.5","","-27.0","","61","","0.0","","26","","7","","","","98.73","","","","-27","","NA"
"-139.84","67.57","OLD CROW RCS","2100805","2023-03-03 15:00","2023","03","03","15:00","-21.1","","-26.1","","64","","0.0","","24","","4","","","","98.83","","","","-25","","NA"
"-139.84","67.57","OLD CROW RCS","2100805","2023-03-03 16:00","2023","03","03","16:00","-20.9","","-25.6","","66","","0.0","","26","","3","","","","98.93","","","","-24","","NA"
"-139.84","67.57","OLD CROW RCS","2100805","2023-03-03 17:00","2023","03","03","17:00","-21.1","","-25.3","","69","","0.0","","10","","3","","","","99.02","","","","-24","","NA"
"-139.84","67.57","OLD CROW RCS","2100805","2023-03-03 18:00","2023","03","03","18:00","-22.6","","-26.2","","73","","0.0","","9","","4","","","","99.11","","","","-26","","NA"
"-139.84","67.57","OLD CROW RCS","2100805","2023-03-03 19:00","2023","03","03","19:00","-24.5","","-27.4","","77","","0.0","","7","","3","","","","99.21","","","","-27","","NA"
"-139.84","67.57","OLD CROW RCS","2100805","2023-03-03 20:00","2023","03","03","20:00","-25.6","","-28.3","","78","","0.0","","10","","2","","","","99.31","","","","-28","","NA"
"-139.84","67.57","OLD CROW RCS","2100805","2023-03-03 21:00","2023","03","03","21:00","-25.7","","-28.3","","79","","0.0","","10","","2","","","","99.40","","","","-28","","NA"
"-139.84","67.57","OLD CROW RCS","2100805","2023-03-03 22:00","2023","03","03","22:00","-26.1","","-28.7","","79","","0.0","","0","","1","","","","99.51","","","","-27","","NA"
"-139.84","67.57","OLD CROW RCS","2100805","2023-03-03 23:00","2023","03","03","23:00","-26.4","","-29.1","","78","","0.0","","5","","1","","","","99.61","","","","-27","","NA"
"-139.84","67.57","OLD CROW RCS","2100805","2023-03-04 00:00","2023","03","04","00:00","-26.7","","-29.2","","79","","0.0","","8","","2","","","","99.68","","","","-29","","NA"
"-139.84","67.57","OLD CROW RCS","2100805","2023-03-04 01:00","2023","03","04","01:00","-27.7","","-30.3","","78","","0.0","","","","0","","","","99.79","","","","","","NA"
"-139.84","67.57","OLD CROW RCS","2100805","2023-03-04 02:00","2023","03","04","02:00","-28.3","","-30.8","","79","","0.0","","6","","1","","","","99.87","","","","-29","","NA"
"-139.84","67.57","OLD CROW RCS","2100805","2023-03-04 03:00","2023","03","04","03:00","-30.1","","-32.7","","78","","0.2","","10","","3","","","","99.97","","","","-33","","NA"
"-139.84","67.57","OLD CROW RCS","2100805","2023-03-04 04:00","2023","03","04","04:00","-30.0","","-33.0","","76","","0.0","","10","","2","","","","100.04","","","","-32","","NA"
"-139.84","67.57","OLD CROW RCS","2100805","2023-03-04 05:00","2023","03","04","05:00","-29.3","","-32.2","","76","","0.0","","","","0","","","","100.12","","","","","","NA"
"-139.84","67.57","OLD CROW RCS","2100805","2023-03-04 06:00","2023","03","04","06:00","-29.2","","-32.1","","76","","0.0","","10","","2","","","","100.17","","","","-31","","NA"
"-139.84","67.57","OLD CROW RCS","2100805","2023-03-04 07:00","2023","03","04","07:00","-29.2","","-32.1","","76","","0.0","","","","0","","","","100.23","","","","","","NA"
"-139.84","67.57","OLD CROW RCS","2100805","2023-03-04 08:00","2023","03","04","08:00","-30.0","","-33.0","","75","","0.0","","5","","4","","","","100.28","","","","-35","","NA"
"-139.84","67.57","OLD CROW RCS","2100805","2023-03-04 09:00","2023","03","04","09:00","-31.1","","-34.2","","75","","0.0","","7","","1","","","","100.34","","","","-32","","NA"
"-139.84","67.57","OLD CROW RCS","2100805","2023-03-04 10:00","2023","03","04","10:00","-30.6","","-33.7","","74","","0.0","","10","","1","","","","100.39","","","","-32","","NA"
"-139.84","67.57","OLD CROW RCS","2100805","2023-03-04 11:00","2023","03","04","11:00","-28.1","","-31.9","","70","","0.0","","","","0","","","","100.42","","","","","","NA"
"-139.84","67.57","OLD CROW RCS","2100805","2023-03-04 12:00","2023","03","04","12:00","-22.6","","-27.5","","64","","0.0","","23","","8","","","","100.40","","","","-29","","NA"
"-139.84","67.57","OLD CROW RCS","2100805","2023-03-04 13:00","2023","03","04","13:00","-20.1","","-26.1","","59","","0.0","","25","","13","","","","100.39","","","","-29","","NA"
"-139.84","67.57","OLD CROW RCS","2100805","2023-03-04 14:00","2023","03","04","14:00","-19.4","","-25.7","","57","","0.0","","25","","21","","","","100.37","","","","-30","","NA"
"-139.84","67.57","OLD CROW RCS","2100805","2023-03-04 15:00","2023","03","04","15:00","-19.4","","-25.5","","58","","0.0","","26","","19","","","","100.38","","","","-29","","NA"
"-139.84","67.57","OLD CROW RCS","2100805","2023-03-04 16:00","2023","03","04","16:00","-19.1","","-25.1","","59","","0.0","","26","","18","","","","100.39","","","","-29","","NA"
"-139.84","67.57","OLD CROW RCS","2100805","2023-03-04 17:00","2023","03","04","17:00","-19.2","","-25.2","","59","","0.0","","24","","14","","","","100.39","","","","-28","","NA"
"-139.84","67.57","OLD CROW RCS","2100805","2023-03-04 18:00","2023","03","04","18:00","-20.2","","-25.3","","64","","0.0","","24","","13","","","","100.38","","","","-29","","NA"
"-139.84","67.57","OLD CROW RCS","2100805","2023-03-04 19:00","2023","03","04","19:00","-21.2","","-25.9","","66","","0.0","","24","","12","","","","100.38","","","","-29","","NA"
"-139.84","67.57","OLD CROW RCS","2100805","2023-03-04 20:00","2023","03","04","20:00","-22.3","","-26.7","","67","","0.0","","24","","10","","","","100.36","","","","-30","","NA"
"-139.84","67.57","OLD CROW RCS","2100805","2023-03-04 21:00","2023","03","04","21:00","-24.0","","-27.5","","73","","0.0","","22","","5","","","","100.36","","","","-29","","NA"
"-139.84","67.57","OLD CROW RCS","2100805","2023-03-04 22:00","2023","03","04","22:00","-25.3","","-28.5","","74","","0.0","","27","","5","","","","100.34","","","","-30","","NA"
"-139.84","67.57","OLD CROW RCS","2100805","2023-03-04 23:00","2023","03","04","23:00","-25.3","","-27.8","","80","","0.0","","23","","3","","","","100.36","","","","-28","","NA"
"-139.84","67.57","OLD CROW RCS","2100805","2023-03-05 00:00","2023","03","05","00:00","-26.9","","-29.2","","81","","0.0","","26","","5","","","","100.37","","","","-32","","NA"
"-139.84","67.57","OLD CROW RCS","2100805","2023-03-05 01:00","2023","03","05","01:00","-28.0","","-30.2","","81","","0.0","","24","","2","","","","100.35","","","","-30","","NA"
"-139.84","67.57","OLD CROW RCS","2100805","2023-03-05 02:00","2023","03","05","02:00","-28.2","","-30.6","","79","","0.0","","20","","5","","","","100.35","","","","-34","","NA"
"-139.84","67.57","OLD CROW RCS","2100805","2023-03-05 03:00","2023","03","05","03:00","-27.0","","-29.6","","79","","0.0","","23","","6","","","","100.34","","","","-33","","NA"
"-139.84","67.57","OLD CROW RCS","2100805","2023-03-05 04:00","2023","03","05","04:00","-29.1","","-31.9","","77","","0.0","","25","","7","","","","100.34","","","","-36","","NA"
"-139.84","67.57","OLD CROW RCS","2100805","2023-03-05 05:00","2023","03","05","05:00","-31.5","","-34.3","","76","","0.0","","5","","3","","","","100.34","","","","-35","","NA"
"-139.84","67.57","OLD CROW RCS","2100805","2023-03-05 06:00","2023","03","05","06:00","-31.8","","-34.6","","76","","0.0","","5","","3","","","","100.33","","","","-35","","NA"
"-139.84","67.57","OLD CROW RCS","2100805","2023-03-05 07:00","2023","03","05","07:00","-33.6","","-36.7","","73","","0.0","","","","0","","","","100.34","","","","","","NA"
"-139.84","67.57","OLD CROW RCS","2100805","2023-03-05 08:00","2023","03","05","08:00","-34.8","","-38.1","","72","","0.0","","9","","3","","","","100.34","","","","-39","","NA"
"-139.84","67.57","OLD CROW RCS","2100805","2023-03-05 09:00","2023","03","05","09:00","-34.7","","-38.0","","72","","0.2","","9","","1","","","","100.36","","","","-36","","NA"
"-139.84","67.57","OLD CROW RCS","2100805","2023-03-05 10:00","2023","03","05","10:00","-32.6","","-35.7","","74","","0.0","","9","","3","","","","100.34","","","","-36","","NA"
"-139.84","67.57","OLD CROW RCS","2100805","2023-03-05 11:00","2023","03","05","11:00","-28.5","","-31.9","","72","","0.0","","11","","1","","","","100.34","","","","-30","","NA"
"-139.84","67.57","OLD CROW RCS","2100805","2023-03-05 12:00","2023","03","05","12:00","-26.0","","-31.0","","62","","0.0","","12","","3","","","","100.30","","","","-29","","NA"
"-139.84","67.57","OLD CROW RCS","2100805","2023-03-05 13:00","2023","03","05","13:00","-23.5","","-29.9","","56","","0.0","","12","","2","","","","100.29","","","","-25","","NA"
"-139.84","67.57","OLD CROW RCS","2100805","2023-03-05 14:00","2023","03","05","14:00","-22.9","","-30.6","","50","","0.0","","29","","2","","","","100.26","","","","-25","","NA"
"-139.84","67.57","OLD CROW RCS","2100805","2023-03-05 15:00","2023","03","05","15:00","-20.9","","-29.9","","44","","0.0","","36","","1","","","","100.21","","","","-22","","NA"
"-139.84","67.57","OLD CROW RCS","2100805","2023-03-05 16:00","2023","03","05","16:00","-19.3","","-28.3","","45","","0.0","","9","","1","","","","100.18","","","","-20","","NA"
"-139.84","67.57","OLD CROW RCS","2100805","2023-03-05 17:00","2023","03","05","17:00","-20.4","","-27.5","","53","","0.0","","8","","5","","","","100.17","","","","-25","","NA"
"-139.84","67.57","OLD CROW RCS","2100805","2023-03-05 18:00","2023","03","05","18:00","-23.0","","-28.4","","61","","0.0","","9","","7","","","","100.13","","","","-29","","NA"
"-139.84","67.57","OLD CROW RCS","2100805","2023-03-05 19:00","2023","03","05","19:00","-23.8","","-28.4","","66","","0.0","","7","","4","","","","100.12","","","","-28","","NA"
"-139.84","67.57","OLD CROW RCS","2100805","2023-03-05 20:00","2023","03","05","20:00","-25.6","","-29.6","","69","","0.0","","7","","6","","","","100.12","","","","-31","","NA"
"-139.84","67.57","OLD CROW RCS","2100805","2023-03-05 21:00","2023","03","05","21:00","-26.9","","-30.6","","71","","0.0","","6","","5","","","","100.10","","","","-32","","NA"
"-139.84","67.57","OLD CROW RCS","2100805","2023-03-05 22:00","2023","03","05","22:00","-27.1","","-30.4","","73","","0.0","","9","","4","","","","100.08","","","","-31","","NA"
"-139.84","67.57","OLD CROW RCS","2100805","2023-03-05 23:00","2023","03","05","23:00","-27.2","","-30.4","","74","","0.0","","7","","2","","","","100.06","","","","-29","","NA"
"-139.84","67.57","OLD CROW RCS","2100805","2023-03-06 00:00","2023","03","06","00:00","-28.7","","-31.7","","75","","0.0","","","","0","","","","100.04","","","","","","NA"
"-139.84","67.57","OLD CROW RCS","2100805","2023-03-06 01:00","2023","03","06","01:00","-28.7","","-31.6","","76","","0.0","","9","","3","","","","100.00","","","","-32","","NA"
"-139.84","67.57","OLD CROW RCS","2100805","2023-03-06 02:00","2023","03","06","02:00","-30.1","","-32.8","","78","","0.0","","","","0","","","","99.98","","","","","","NA"
"-139.84","67.57","OLD CROW RCS","2100805","2023-03-06 03:00","2023","03","06","03:00","-30.9","","-33.6","","77","","0.0","","","","0","","","","99.94","","","","","","NA"
"-139.84","67.57","OLD CROW RCS","2100805","2023-03-06 04:00","2023","03","06","04:00","-29.9","","-32.5","","78","","0.0","","9","","1","","","","99.92","","","","-31","","NA"
"-139.84","67.57","OLD CROW RCS","2100805","2023-03-06 05:00","2023","03","06","05:00","-28.4","","-31.2","","77","","0.0","","0","","1","","","","99.87","","","","-29","","NA"
"-139.84","67.57","OLD CROW RCS","2100805","2023-03-06 06:00","2023","03","06","06:00","-27.7","","-30.7","","76","","0.0","","6","","3","","","","99.83","","","","-31","","NA"
"-139.84","67.57","OLD CROW RCS","2100805","2023-03-06 07:00","2023","03","06","07:00","-26.0","","-28.9","","77","","0.0","","6","","3","","","","99.81","","","","-29","","NA"
"-139.84","67.57","OLD CROW RCS","2100805","2023-03-06 08:00","2023","03","06","08:00","-26.3","","-29.5","","74","","0.0","","8","","4","","","","99.76","","","","-30","","NA"
"-139.84","67.57","OLD CROW RCS","2100805","2023-03-06 09:00","2023","03","06","09:00","-25.8","","-28.9","","75","","0.0","","8","","3","","","","99.76","","","","-29","","NA"
"-139.84","67.57","OLD CROW RCS","2100805","2023-03-06 10:00","2023","03","06","10:00","-25.0","","-29.0","","70","","0.0","","9","","4","","","","99.71","","","","-29","","NA"
"-139.84","67.57","OLD CROW RCS","2100805","2023-03-06 11:00","2023","03","06","11:00","-24.2","","-28.7","","66","","0.0","","10","","3","","","","99.71","","","","-27","","NA"
"-139.84","67.57","OLD CROW RCS","2100805","2023-03-06 12:00","2023","03","06","12:00","-22.2","","-28.9","","54","","0.0","","14","","3","","","","99.69","","","","-25","","NA"
"-139.84","67.57","OLD CROW RCS","2100805","2023-03-06 13:00","2023","03","06","13:00","-21.4","","-27.6","","57","","0.0","","11","","4","","","","99.67","","","","-25","","NA"
"-139.84","67.57","OLD CROW RCS","2100805","2023-03-06 14:00","2023","03","06","14:00","-20.5","","-27.4","","54","","0.0","","12","","3","","","","99.69","","","","-23","","NA"
"-139.84","67.57","OLD CROW RCS","2100805","2023-03-06 15:00","2023","03","06","15:00","-21.0","","-27.8","","54","","0.0","","8","","14","","","","99.69","","","","-30","","NA"
"-139.84","67.57","OLD CROW RCS","2100805","2023-03-06 16:00","2023","03","06","16:00","-20.4","","-27.2","","55","","0.0","","9","","11","","","","99.71","","","","-28","","NA"
"-139.84","67.57","OLD CROW RCS","2100805","2023-03-06 17:00","2023","03","06","17:00","-20.7","","-27.4","","55","","0.0","","10","","7","","","","99.72","","","","-26","","NA"
"-139.84","67.57","OLD CROW RCS","2100805","2023-03-06 18:00","2023","03","06","18:00","-21.2","","-26.8","","61","","0.0","","9","","7","","","","99.75","","","","-27","","NA"
"-139.84","67.57","OLD CROW RCS","2100805","2023-03-06 19:00","2023","03","06","19:00","-23.6","","-28.1","","67","","0.0","","9","","8","","","","99.81","","","","-30","","NA"
"-139.84","67.57","OLD CROW RCS","2100805","2023-03-06 20:00","2023","03","06","20:00","-26.2","","-29.6","","73","","0.0","","30","","3","","","","99.88","","","","-29","","NA"
"-139.84","67.57","OLD CROW RCS","2100805","2023-03-06 21:00","2023","03","06","21:00","-27.1","","-30.3","","74","","0.0","","7","","4","","","","99.90","","","","-31","","NA"
"-139.84","67.57","OLD CROW RCS","2100805","2023-03-06 22:00","2023","03","06","22:00","-27.9","","-30.7","","77","","0.0","","1","","2","","","","99.95","","","","-30","","NA"
"-139.84","67.57","OLD CROW RCS","2100805","2023-03-06 23:00","2023","03","06","23:00","-29.4","","-32.2","","77","","0.0","","35","","2","","","","100.02","","","","-32","","NA"
"-139.84","67.57","OLD CROW RCS","2100805","2023-03-07 00:00","2023","03","07","00:00","-30.5","","-33.2","","77","","0.0","","3","","3","","","","100.05","","","","-34","","NA"
"-139.84","67.57","OLD CROW RCS","2100805","2023-03-07 01:00","2023","03","07","01:00","-30.8","","-33.6","","77","","0.0","","26","","4","","","","100.08","","","","-35","","NA"
"-139.84","67.57","OLD CROW RCS","2100805","2023-03-07 02:00","2023","03","07","02:00","-31.6","","-34.7","","74","","0.0","","8","","1","","","","100.10","","","","-33","","NA"
"-139.84","67.57","OLD CROW RCS","2100805","2023-03-07 03:00","2023","03","07","03:00","-31.1","","-33.8","","77","","0.0","","25","","4","","","","100.11","","","","-36","","NA"
"-139.84","67.57","OLD CROW RCS","2100805","2023-03-07 04:00","2023","03","07","04:00","-32.0","","-35.0","","74","","0.0","","3","","1","","","","100.16","","","","-33","","NA"
"-139.84","67.57","OLD CROW RCS","2100805","2023-03-07 05:00","2023","03","07","05:00","-31.2","","-34.2","","75","","0.0","","9","","1","","","","100.16","","","","-32","","NA"
"-139.84","67.57","OLD CROW RCS","2100805","2023-03-07 06:00","2023","03","07","06:00","-30.1","","-32.9","","76","","0.0","","6","","2","","","","100.17","","","","-32","","NA"
"-139.84","67.57","OLD CROW RCS","2100805","2023-03-07 07:00","2023","03","07","07:00","-29.1","","-32.0","","76","","0.0","","9","","1","","","","100.19","","","","-30","","NA"
"-139.84","67.57","OLD CROW RCS","2100805","2023-03-07 08:00","2023","03","07","08:00","-28.1","","-30.9","","77","","0.0","","","","0","","","","100.18","","","","","","NA"
"-139.84","67.57","OLD CROW RCS","2100805","2023-03-07 09:00","2023","03","07","09:00","-27.1","","-30.2","","75","","0.0","","10","","4","","","","100.20","","","","-31","","NA"
"-139.84","67.57","OLD CROW RCS","2100805","2023-03-07 10:00","2023","03","07","10:00","-25.6","","-29.4","","71","","0.0","","0","","1","","","","100.21","","","","-27","","NA"
"-139.84","67.57","OLD CROW RCS","2100805","2023-03-07 11:00","2023","03","07","11:00","-23.7","","-28.2","","67","","0.0","","33","","1","","","","100.21","","","","-25","","NA"
"-139.84","67.57","OLD CROW RCS","2100805","2023-03-07 12:00","2023","03","07","12:00","-21.6","","-27.5","","59","","0.0","","25","","5","","","","100.18","","","","-26","","NA"
"-139.84","67.57","OLD CROW RCS","2100805","2023-03-07 13:00","2023","03","07","13:00","-20.5","","-26.7","","58","","0.0","","28","","2","","","","100.20","","","","-22","","NA"
"-139.84","67.57","OLD CROW RCS","2100805","2023-03-07 14:00","2023","03","07","14:00","-18.4","","-24.8","","57","","0.0","","2","","2","","","","100.17","","","","-20","","NA"
"-139.84","67.57","OLD CROW RCS","2100805","2023-03-07 15:00","2023","03","07","15:00","-17.5","","-24.6","","54","","0.0","","25","","4","","","","100.14","","","","-21","","NA"
"-139.84","67.57","OLD CROW RCS","2100805","2023-03-07 16:00","2023","03","07","16:00","-17.0","","-23.4","","57","","0.0","","28","","3","","","","100.08","","","","-19","","NA"
"-139.84","67.57","OLD CROW RCS","2100805","2023-03-07 17:00","2023","03","07","17:00","-16.8","","-22.4","","61","","0.0","","27","","5","","","","100.07","","","","-21","","NA"
"-139.84","67.57","OLD CROW RCS","2100805","2023-03-07 18:00","2023","03","07","18:00","-16.6","","-21.5","","66","","0.0","","8","","3","","","","100.04","","","","-19","","NA"
"-139.84","67.57","OLD CROW RCS","2100805","2023-03-07 19:00","2023","03","07","19:00","-16.7","","-20.9","","70","","0.0","","7","","6","","","","100.00","","","","-21","","NA"
"-139.84","67.57","OLD CROW RCS","2100805","2023-03-07 20:00","2023","03","07","20:00","-16.6","","-20.4","","73","","0.0","","7","","2","","","","99.99","","","","-18","","NA"
"-139.84","67.57","OLD CROW RCS","2100805","2023-03-07 21:00","2023","03","07","21:00","-16.6","","-20.1","","74","","0.0","","8","","3","","","","99.98","","","","-19","","NA"
"-139.84","67.57","OLD CROW RCS","2100805","2023-03-07 22:00","2023","03","07","22:00","-16.1","","-19.5","","75","","0.0","","16","","2","","","","99.92","","","","-18","","NA"
"-139.84","67.57","OLD CROW RCS","2100805","2023-03-07 23:00","2023","03","07","23:00","-16.2","","-19.8","","74","","0.0","","29","","1","","","","99.92","","","","-17","","NA"
"-139.84","67.57","OLD CROW RCS","2100805","2023-03-08 00:00","2023","03","08","00:00","-16.4","","-19.6","","76","","0.0","","22","","2","","","","99.91","","","","-18","","NA"
"-139.84","67.57","OLD CROW RCS","2100805","2023-03-08 01:00","2023","03","08","01:00","-16.3","","-19.6","","76","","0.0","","27","","3","","","","99.85","","","","-19","","NA"
"-139.84","67.57","OLD CROW RCS","2100805","2023-03-08 02:00","2023","03","08","02:00","-16.5","","-19.6","","77","","0.0","","5","","2","","","","99.80","","","","-18","","NA"
"-139.84","67.57","OLD CROW RCS","2100805","2023-03-08 03:00","2023","03","08","03:00","-15.9","","-19.1","","76","","0.0","","27","","2","","","","99.78","","","","-17","","NA"
"-139.84","67.57","OLD CROW RCS","2100805","2023-03-08 04:00","2023","03","08","04:00","-15.9","","-18.9","","78","","0.0","","27","","5","","","","99.72","","","","-20","","NA"
"-139.84","67.57","OLD CROW RCS","2100805","2023-03-08 05:00","2023","03","08","05:00","-15.2","","-18.5","","76","","0.0","","9","","2","","","","99.69","","","","-17","","NA"
"-139.84","67.57","OLD CROW RCS","2100805","2023-03-08 06:00","2023","03","08","06:00","-15.0","","-18.4","","75","","0.0","","24","","2","","","","99.69","","","","-16","","NA"
"-139.84","67.57","OLD CROW RCS","2100805","2023-03-08 07:00","2023","03","08","07:00","-14.8","","-18.0","","77","","0.0","","24","","3","","","","99.65","","","","-17","","NA"
"-139.84","67.57","OLD CROW RCS","2100805","2023-03-08 08:00","2023","03","08","08:00","-14.5","","-17.9","","75","","0.0","","9","","2","","","","99.60","","","","-16","","NA"
"-139.84","67.57","OLD CROW RCS","2100805","2023-03-08 09:00","2023","03","08","09:00","-14.4","","-17.6","","77","","0.0","","16","","2","","","","99.58","","","","-16","","NA"
"-139.84","67.57","OLD CROW RCS","2100805","2023-03-08 10:00","2023","03","08","10:00","-14.0","","-17.9","","72","","0.0","","26","","2","","","","99.54","","","","-15","","NA"
"-139.84","67.57","OLD CROW RCS","2100805","2023-03-08 11:00","2023","03","08","11:00","-13.4","","-17.2","","73","","0.0","","26","","4","","","","99.50","","","","-16","","NA"
"-139.84","67.57","OLD CROW RCS","2100805","2023-03-08 12:00","2023","03","08","12:00","-12.4","","-17.4","","67","","0.0","","26","","2","","","","99.46","","","","-14","","NA"
"-139.84","67.57","OLD CROW RCS","2100805","2023-03-08 13:00","2023","03","08","13:00","-11.7","","-16.9","","66","","0.0","","0","","1","","","","99.41","","","","-12","","NA"
"-139.84","67.57","OLD CROW RCS","2100805","2023-03-08 14:00","2023","03","08","14:00","-11.4","","-14.8","","76","","0.0","","10","","1","","","","99.35","","","","-12","","NA"
"-139.84","67.57","OLD CROW RCS","2100805","2023-03-08 15:00","2023","03","08","15:00","-11.6","","-14.4","","80","","0.0","","9","","7","","","","99.28","","","","-16","","NA"
"-139.84","67.57","OLD CROW RCS","2100805","2023-03-08 16:00","2023","03","08","16:00","-11.4","","-14.3","","79","","0.0","","9","","7","","","","99.22","","","","-16","","NA"
"-139.84","67.57","OLD CROW RCS","2100805","2023-03-08 17:00","2023","03","08","17:00","-11.6","","-13.7","","84","","0.0","","8","","6","","","","99.15","","","","-15","","NA"
"-139.84","67.57","OLD CROW RCS","2100805","2023-03-08 18:00","2023","03","08","18:00","-11.8","","-13.5","","87","","0.0","","10","","4","","","","99.11","","","","-14","","NA"
"-139.84","67.57","OLD CROW RCS","2100805","2023-03-08 19:00","2023","03","08","19:00","-11.8","","-13.3","","89","","0.0","","9","","3","","","","99.06","","","","-14","","NA"
"-139.84","67.57","OLD CROW RCS","2100805","2023-03-08 20:00","2023","03","08","20:00","-12.1","","-13.4","","90","","0.3","","8","","2","","","","99.01","","","","-13","","NA"
"-139.84","67.57","OLD CROW RCS","2100805","2023-03-08 21:00","2023","03","08","21:00","-12.1","","-13.4","","90","","0.6","","8","","4","","","","98.96","","","","-15","","NA"
"-139.84","67.57","OLD CROW RCS","2100805","2023-03-08 22:00","2023","03","08","22:00","-12.3","","-13.6","","90","","0.6","","8","","4","","","","98.93","","","","-15","","NA"
"-139.84","67.57","OLD CROW RCS","2100805","2023-03-08 23:00","2023","03","08","23:00","-12.1","","-13.3","","91","","0.7","","8","","3","","","","98.92","","","","-14","","NA"
"-139.84","67.57","OLD CROW RCS","2100805","2023-03-09 00:00","2023","03","09","00:00","-11.9","","-13.1","","91","","1.1","","13","","3","","","","98.91","","","","-14","","NA"
"-139.84","67.57","OLD CROW RCS","2100805","2023-03-09 01:00","2023","03","09","01:00","-12.2","","-13.3","","91","","0.7","","0","","1","","","","98.91","","","","-13","","NA"
"-139.84","67.57","OLD CROW RCS","2100805","2023-03-09 02:00","2023","03","09","02:00","-12.0","","-13.1","","92","","0.6","","25","","3","","","","98.93","","","","-14","","NA"
"-139.84","67.57","OLD CROW RCS","2100805","2023-03-09 03:00","2023","03","09","03:00","-11.9","","-13.0","","92","","0.9","","","","0","","","","98.96","","","","","","NA"
"-139.84","67.57","OLD CROW RCS","2100805","2023-03-09 04:00","2023","03","09","04:00","-12.0","","-13.1","","92","","0.9","","8","","4","","","","99.03","","","","-15","","NA"
"-139.84","67.57","OLD CROW RCS","2100805","2023-03-09 05:00","2023","03","09","05:00","-11.9","","-13.0","","91","","1.1","","8","","7","","","","99.10","","","","-16","","NA"
"-139.84","67.57","OLD CROW RCS","2100805","2023-03-09 06:00","2023","03","09","06:00","-11.6","","-12.7","","92","","0.8","","3","","2","","","","99.17","","","","-13","","NA"
"-139.84","67.57","OLD CROW RCS","2100805","2023-03-09 07:00","2023","03","09","07:00","-11.6","","-12.6","","93","","0.8","","21","","3","","","","99.26","","","","-13","","NA"
"-139.84","67.57","OLD CROW RCS","2100805","2023-03-09 08:00","2023","03","09","08:00","-11.7","","-12.7","","92","","0.5","","5","","5","","","","99.37","","","","-15","","NA"
"-139.84","67.57","OLD CROW RCS","2100805","2023-03-09 09:00","2023","03","09","09:00","-10.8","","-12.1","","90","","0.3","","7","","11","","","","99.49","","","","-17","","NA"
"-139.84","67.57","OLD CROW RCS","2100805","2023-03-09 10:00","2023","03","09","10:00","-12.8","","-14.8","","85","","0.0","","5","","20","","","","99.63","","","","-21","","NA"
"-139.84","67.57","OLD CROW RCS","2100805","2023-03-09 11:00","2023","03","09","11:00","-13.4","","-15.3","","86","","0.0","","5","","24","","","","99.73","","","","-23","","NA"
"-139.84","67.57","OLD CROW RCS","2100805","2023-03-09 12:00","2023","03","09","12:00","-13.6","","-15.5","","86","","0.2","","4","","18","","","","99.84","","","","-22","","NA"
"-139.84","67.57","OLD CROW RCS","2100805","2023-03-09 13:00","2023","03","09","13:00","-13.8","","-15.6","","86","","0.3","","4","","17","","","","99.93","","","","-22","","NA"
"-139.84","67.57","OLD CROW RCS","2100805","2023-03-09 14:00","2023","03","09","14:00","-14.3","","-16.0","","87","","0.3","","5","","17","","","","100.03","","","","-23","","NA"
"-139.84","67.57","OLD CROW RCS","2100805","2023-03-09 15:00","2023","03","09","15:00","-14.4","","-16.3","","85","","0.2","","4","","17","","","","100.10","","","","-23","","NA"
"-139.84","67.57","OLD CROW RCS","2100805","2023-03-09 16:00","2023","03","09","16:00","-14.5","","-16.5","","85","","0.0","","3","","21","","","","100.15","","","","-24","","NA"
"-139.84","67.57","OLD CROW RCS","2100805","2023-03-09 17:00","2023","03","09","17:00","-14.9","","-17.2","","82","","0.0","","2","","21","","","","100.22","","","","-24","","NA"
"-139.84","67.57","OLD CROW RCS","2100805","2023-03-09 18:00","2023","03","09","18:00","-15.4","","-17.7","","82","","0.0","","3","","17","","","","100.30","","","","-24","","NA"
"-139.84","67.57","OLD CROW RCS","2100805","2023-03-09 19:00","2023","03","09","19:00","-16.0","","-18.4","","82","","0.0","","3","","14","","","","100.37","","","","-24","","NA"
"-139.84","67.57","OLD CROW RCS","2100805","2023-03-09 20:00","2023","03","09","20:00","-16.3","","-18.7","","82","","0.0","","3","","13","","","","100.44","","","","-24","","NA"
"-139.84","67.57","OLD CROW RCS","2100805","2023-03-09 21:00","2023","03","09","21:00","-17.0","","-19.3","","82","","0.0","","4","","10","","","","100.48","","","","-24","","NA"
"-139.84","67.57","OLD CROW RCS","2100805","2023-03-09 22:00","2023","03","09","22:00","-16.4","","-19.2","","79","","0.0","","2","","12","","","","100.52","","","","-24","","NA"
"-139.84","67.57","OLD CROW RCS","2100805","2023-03-09 23:00","2023","03","09","23:00","-17.3","","-19.7","","82","","0.0","","7","","5","","","","100.56","","","","-21","","NA"
"-139.84","67.57","OLD CROW RCS","2100805","2023-03-10 00:00","2023","03","10","00:00","-20.4","","-22.6","","82","","0.0","","7","","2","","","","100.59","","","","-22","","NA"
"-139.84","67.57","OLD CROW RCS","2100805","2023-03-10 01:00","2023","03","10","01:00","-22.0","","-23.5","","88","","0.2","","4","","2","","","","100.60","","","","-24","","NA"
"-139.84","67.57","OLD CROW RCS","2100805","2023-03-10 02:00","2023","03","10","02:00","-25.4","","-27.5","","82","","0.0","","7","","4","","","","100.62","","","","-29","","NA"
"-139.84","67.57","OLD CROW RCS","2100805","2023-03-10 03:00","2023","03","10","03:00","-27.7","","-30.1","","80","","0.0","","22","","2","","","","100.65","","","","-30","","NA"
"-139.84","67.57","OLD CROW RCS","2100805","2023-03-10 04:00","2023","03","10","04:00","-29.4","","-32.0","","78","","0.2","","25","","2","","","","100.66","","","","-32","","NA"
"-139.84","67.57","OLD CROW RCS","2100805","2023-03-10 05:00","2023","03","10","05:00","-31.6","","-34.5","","76","","0.0","","","","0","","","","100.66","","","","","","NA"
"-139.84","67.57","OLD CROW RCS","2100805","2023-03-10 06:00","2023","03","10","06:00","-31.8","","-34.8","","75","","0.0","","10","","2","","","","100.64","","","","-34","","NA"
"-139.84","67.57","OLD CROW RCS","2100805","2023-03-10 07:00","2023","03","10","07:00","-32.8","","-35.9","","74","","0.0","","7","","3","","","","100.64","","","","-36","","NA"
"-139.84","67.57","OLD CROW RCS","2100805","2023-03-10 08:00","2023","03","10","08:00","-33.0","","-36.2","","74","","0.0","","0","","1","","","","100.66","","","","-34","","NA"
"-139.84","67.57","OLD CROW RCS","2100805","2023-03-10 09:00","2023","03","10","09:00","-33.1","","-36.2","","74","","0.0","","","","0","","","","100.63","","","","","","NA"
"-139.84","67.57","OLD CROW RCS","2100805","2023-03-10 10:00","2023","03","10","10:00","-30.3","","-33.1","","77","","0.0","","27","","2","","","","100.64","","","","-33","","NA"
"-139.84","67.57","OLD CROW RCS","2100805","2023-03-10 11:00","2023","03","10","11:00","-28.0","","-30.9","","76","","0.0","","6","","3","","","","100.61","","","","-31","","NA"
"-139.84","67.57","OLD CROW RCS","2100805","2023-03-10 12:00","2023","03","10","12:00","-26.0","","-29.2","","74","","0.0","","9","","3","","","","100.55","","","","-29","","NA"
"-139.84","67.57","OLD CROW RCS","2100805","2023-03-10 13:00","2023","03","10","13:00","-22.6","","-26.7","","69","","0.0","","11","","2","","","","100.50","","","","-24","","NA"
"-139.84","67.57","OLD CROW RCS","2100805","2023-03-10 14:00","2023","03","10","14:00","-20.9","","-25.5","","67","","0.0","","0","","1","","","","100.43","","","","-22","","NA"
"-139.84","67.57","OLD CROW RCS","2100805","2023-03-10 15:00","2023","03","10","15:00","-19.1","","-23.5","","68","","0.0","","23","","5","","","","100.38","","","","-23","","NA"
"-139.84","67.57","OLD CROW RCS","2100805","2023-03-10 16:00","2023","03","10","16:00","-17.3","","-23.0","","61","","0.0","","23","","4","","","","100.32","","","","-20","","NA"
"-139.84","67.57","OLD CROW RCS","2100805","2023-03-10 17:00","2023","03","10","17:00","-18.1","","-22.6","","67","","0.0","","27","","6","","","","100.26","","","","-23","","NA"
"-139.84","67.57","OLD CROW RCS","2100805","2023-03-10 18:00","2023","03","10","18:00","-18.8","","-22.3","","74","","0.0","","24","","4","","","","100.22","","","","-22","","NA"
"-139.84","67.57","OLD CROW RCS","2100805","2023-03-10 19:00","2023","03","10","19:00","-21.4","","-23.5","","83","","0.0","","","","0","","","","100.20","","","","","","NA"
"-139.84","67.57","OLD CROW RCS","2100805","2023-03-10 20:00","2023","03","10","20:00","-23.5","","-25.6","","83","","0.0","","32","","2","","","","100.18","","","","-25","","NA"
"-139.84","67.57","OLD CROW RCS","2100805","2023-03-10 21:00","2023","03","10","21:00","-25.4","","-27.6","","82","","0.0","","9","","2","","","","100.16","","","","-27","","NA"
"-139.84","67.57","OLD CROW RCS","2100805","2023-03-10 22:00","2023","03","10","22:00","-26.7","","-28.9","","82","","0.0","","0","","1","","","","100.16","","","","-28","","NA"
"-139.84","67.57","OLD CROW RCS","2100805","2023-03-10 23:00","2023","03","10","23:00","-29.0","","-31.5","","79","","0.0","","8","","1","","","","100.15","","","","-30","","NA"
"-139.84","67.57","OLD CROW RCS","2100805","2023-03-11 00:00","2023","03","11","00:00","-30.0","","-32.6","","78","","0.0","","0","","1","","","","100.16","","","","-31","","NA"
"-139.84","67.57","OLD CROW RCS","2100805","2023-03-11 01:00","2023","03","11","01:00","-31.0","","-33.7","","77","","0.0","","0","","1","","","","100.15","","","","-32","","NA"
"-139.84","67.57","OLD CROW RCS","2100805","2023-03-11 02:00","2023","03","11","02:00","-31.9","","-34.9","","75","","0.0","","","","0","","","","100.15","","","","","","NA"
"-139.84","67.57","OLD CROW RCS","2100805","2023-03-11 03:00","2023","03","11","03:00","-32.3","","-35.2","","76","","0.0","","","","0","","","","100.14","","","","","","NA"
"-139.84","67.57","OLD CROW RCS","2100805","2023-03-11 04:00","2023","03","11","04:00","-32.3","","-35.3","","75","","0.0","","","","0","","","","100.11","","","","","","NA"
"-139.84","67.57","OLD CROW RCS","2100805","2023-03-11 05:00","2023","03","11","05:00","-32.7","","-35.7","","75","","0.0","","","","0","","","","100.10","","","","","","NA"
"-139.84","67.57","OLD CROW RCS","2100805","2023-03-11 06:00","2023","03","11","06:00","-32.5","","-35.5","","74","","0.0","","0","","1","","","","100.08","","","","-34","","NA"
"-139.84","67.57","OLD CROW RCS","2100805","2023-03-11 07:00","2023","03","11","07:00","-32.6","","-35.6","","74","","0.0","","","","0","","","","100.06","","","","","","NA"
"-139.84","67.57","OLD CROW RCS","2100805","2023-03-11 08:00","2023","03","11","08:00","-32.5","","-35.5","","75","","0.0","","6","","3","","","","100.07","","","","-36","","NA"
"-139.84","67.57","OLD CROW RCS","2100805","2023-03-11 09:00","2023","03","11","09:00","-30.3","","-33.1","","76","","0.0","","","","0","","","","100.05","","","","","","NA"
"-139.84","67.57","OLD CROW RCS","2100805","2023-03-11 10:00","2023","03","11","10:00","-27.7","","-30.6","","76","","0.0","","","","0","","","","100.04","","","","","","NA"
"-139.84","67.57","OLD CROW RCS","2100805","2023-03-11 11:00","2023","03","11","11:00","-25.5","","-28.7","","75","","0.0","","25","","2","","","","100.02","","","","-28","","NA"
"-139.84","67.57","OLD CROW RCS","2100805","2023-03-11 12:00","2023","03","11","12:00","-23.8","","-27.6","","71","","0.0","","27","","3","","","","99.99","","","","-27","","NA"
"-139.84","67.57","OLD CROW RCS","2100805","2023-03-11 13:00","2023","03","11","13:00","-21.9","","-25.5","","73","","0.0","","26","","4","","","","99.95","","","","-26","","NA"
"-139.84","67.57","OLD CROW RCS","2100805","2023-03-11 14:00","2023","03","11","14:00","-19.9","","-23.7","","72","","0.0","","25","","2","","","","99.90","","","","-22","","NA"
"-139.84","67.57","OLD CROW RCS","2100805","2023-03-11 15:00","2023","03","11","15:00","-19.3","","-23.3","","71","","0.0","","25","","4","","","","99.82","","","","-23","","NA"
"-139.84","67.57","OLD CROW RCS","2100805","2023-03-11 16:00","2023","03","11","16:00","-17.1","","-22.8","","61","","0.0","","26","","3","","","","99.75","","","","-19","","NA"
"-139.84","67.57","OLD CROW RCS","2100805","2023-03-11 17:00","2023","03","11","17:00","-17.1","","-22.4","","63","","0.0","","27","","4","","","","99.69","","","","-20","","NA"
"-139.84","67.57","OLD CROW RCS","2100805","2023-03-11 18:00","2023","03","11","18:00","-17.4","","-21.0","","73","","0.0","","27","","2","","","","99.64","","","","-19","","NA"
"-139.84","67.57","OLD CROW RCS","2100805","2023-03-11 19:00","2023","03","11","19:00","-20.2","","-22.5","","82","","0.0","","36","","2","","","","99.59","","","","-22","","NA"
"-139.84","67.57","OLD CROW RCS","2100805","2023-03-11 20:00","2023","03","11","20:00","-22.3","","-24.2","","85","","0.0","","0","","1","","","","99.55","","","","-23","","NA"
"-139.84","67.57","OLD CROW RCS","2100805","2023-03-11 21:00","2023","03","11","21:00","-24.7","","-26.8","","82","","0.0","","0","","1","","","","99.49","","","","-26","","NA"
"-139.84","67.57","OLD CROW RCS","2100805","2023-03-11 22:00","2023","03","11","22:00","-25.1","","-27.1","","83","","0.0","","0","","1","","","","99.41","","","","-26","","NA"
"-139.84","67.57","OLD CROW RCS","2100805","2023-03-11 23:00","2023","03","11","23:00","-26.2","","-28.7","","80","","0.0","","","","0","","","","99.36","","","","","","NA"
"-139.84","67.57","OLD CROW RCS","2100805","2023-03-12 00:00","2023","03","12","00:00","-27.3","","-29.6","","81","","0.0","","8","","1","","","","99.30","","","","-28","","NA"
"-139.84","67.57","OLD CROW RCS","2100805","2023-03-12 01:00","2023","03","12","01:00","-26.5","","-28.6","","82","","0.0","","0","","1","","","","99.23","","","","-28","","NA"
"-139.84","67.57","OLD CROW RCS","2100805","2023-03-12 02:00","2023","03","12","02:00","-26.3","","-28.7","","80","","0.0","","9","","1","","","","99.17","","","","-27","","NA"
"-139.84","67.57","OLD CROW RCS","2100805","2023-03-12 03:00","2023","03","12","03:00","-25.4","","-27.5","","83","","0.0","","","","0","","","","99.12","","","","","","NA"
"-139.84","67.57","OLD CROW RCS","2100805","2023-03-12 04:00","2023","03","12","04:00","-25.5","","-27.8","","82","","0.0","","","","0","","","","99.05","","","","","","NA"
"-139.84","67.57","OLD CROW RCS","2100805","2023-03-12 05:00","2023","03","12","05:00","-25.3","","-27.6","","81","","0.0","","0","","1","","","","98.98","","","","-26","","NA"
"-139.84","67.57","OLD CROW RCS","2100805","2023-03-12 06:00","2023","03","12","06:00","-24.8","","-27.0","","82","","0.0","","6","","1","","","","98.90","","","","-26","","NA"
"-139.84","67.57","OLD CROW RCS","2100805","2023-03-12 07:00","2023","03","12","07:00","-24.6","","-26.8","","82","","0.0","","4","","1","","","","98.85","","","","-26","","NA"
"-139.84","67.57","OLD CROW RCS","2100805","2023-03-12 08:00","2023","03","12","08:00","-24.3","","-26.5","","82","","0.0","","0","","1","","","","98.81","","","","-25","","NA"
"-139.84","67.57","OLD CROW RCS","2100805","2023-03-12 09:00","2023","03","12","09:00","-24.0","","-26.2","","82","","0.0","","","","0","","","","98.78","","","","","","NA"
"-139.84","67.57","OLD CROW RCS","2100805","2023-03-12 10:00","2023","03","12","10:00","-23.3","","-25.3","","83","","0.0","","0","","1","","","","98.78","","","","-24","","NA"
"-139.84","67.57","OLD CROW RCS","2100805","2023-03-12 11:00","2023","03","12","11:00","-22.3","","-24.3","","84","","0.0","","27","","3","","","","98.77","","","","-25","","NA"
"-139.84","67.57","OLD CROW RCS","2100805","2023-03-12 12:00","2023","03","12","12:00","-21.0","","-22.8","","85","","0.0","","28","","4","","","","98.77","","","","-25","","NA"
"-139.84","67.57","OLD CROW RCS","2100805","2023-03-12 13:00","2023","03","12","13:00","-16.4","","-17.8","","89","","0.0","","7","","8","","","","98.75","","","","-22","","NA"
"-139.84","67.57","OLD CROW RCS","2100805","2023-03-12 14:00","2023","03","12","14:00","-16.5","","-19.7","","76","","0.0","","4","","23","","","","98.73","","","","-27","","NA"
"-139.84","67.57","OLD CROW RCS","2100805","2023-03-12 15:00","2023","03","12","15:00","-17.1","","-20.3","","76","","0.0","","3","","28","","","","98.71","","","","-28","","NA"
"-139.84","67.57","OLD CROW RCS","2100805","2023-03-12 16:00","2023","03","12","16:00","-17.3","","-20.4","","77","","0.0","","3","","26","","","","98.73","","","","-28","","NA"
"-139.84","67.57","OLD CROW RCS","2100805","2023-03-12 17:00","2023","03","12","17:00","-18.2","","-21.4","","76","","0.2","","3","","30","","","","98.74","","","","-30","","NA"
"-139.84","67.57","OLD CROW RCS","2100805","2023-03-12 18:00","2023","03","12","18:00","-18.9","","-22.0","","77","","0.2","","3","","32","","","","98.77","","","","-31","","NA"
"-139.84","67.57","OLD CROW RCS","2100805","2023-03-12 19:00","2023","03","12","19:00","-19.5","","-22.7","","76","","0.2","","3","","31","","","","98.79","","","","-32","","NA"
"-139.84","67.57","OLD CROW RCS","2100805","2023-03-12 20:00","2023","03","12","20:00","-20.2","","-23.4","","75","","0.0","","3","","31","","","","98.85","","","","-33","","NA"
"-139.84","67.57","OLD CROW RCS","2100805","2023-03-12 21:00","2023","03","12","21:00","-21.0","","-24.0","","77","","0.2","","3","","29","","","","98.88","","","","-34","","NA"
"-139.84","67.57","OLD CROW RCS","2100805","2023-03-12 22:00","2023","03","12","22:00","-21.4","","-24.3","","77","","0.2","","4","","30","","","","98.91","","","","-34","","NA"
"-139.84","67.57","OLD CROW RCS","2100805","2023-03-12 23:00","2023","03","12","23:00","-21.6","","-24.6","","76","","0.2","","4","","30","","","","98.94","","","","-35","","NA"
"-139.84","67.57","OLD CROW RCS","2100805","2023-03-13 00:00","2023","03","13","00:00","-21.9","","-25.2","","75","","0.0","","3","","30","","","","98.96","","","","-35","","NA"
"-139.84","67.57","OLD CROW RCS","2100805","2023-03-13 01:00","2023","03","13","01:00","-22.2","","-25.3","","75","","0.2","","4","","29","","","","98.98","","","","-35","","NA"
"-139.84","67.57","OLD CROW RCS","2100805","2023-03-13 02:00","2023","03","13","02:00","-22.2","","-25.4","","75","","0.0","","4","","29","","","","99.00","","","","-35","","NA"
"-139.84","67.57","OLD CROW RCS","2100805","2023-03-13 03:00","2023","03","13","03:00","-22.3","","-25.3","","76","","0.2","","3","","29","","","","98.99","","","","-35","","NA"
"-139.84","67.57","OLD CROW RCS","2100805","2023-03-13 04:00","2023","03","13","04:00","-22.8","","-25.9","","76","","0.0","","3","","24","","","","99.00","","","","-35","","NA"
"-139.84","67.57","OLD CROW RCS","2100805","2023-03-13 05:00","2023","03","13","05:00","-23.5","","-26.7","","74","","0.0","","3","","23","","","","98.98","","","","-36","","NA"
"-139.84","67.57","OLD CROW RCS","2100805","2023-03-13 06:00","2023","03","13","06:00","-23.8","","-27.2","","74","","0.0","","3","","26","","","","98.97","","","","-37","","NA"
"-139.84","67.57","OLD CROW RCS","2100805","2023-03-13 07:00","2023","03","13","07:00","-23.8","","-27.3","","73","","0.2","","3","","24","","","","98.97","","","","-36","","NA"
"-139.84","67.57","OLD CROW RCS","2100805","2023-03-13 08:00","2023","03","13","08:00","-23.7","","-27.3","","73","","0.0","","3","","15","","","","98.98","","","","-34","","NA"
"-139.84","67.57","OLD CROW RCS","2100805","2023-03-13 09:00","2023","03","13","09:00","-23.8","","-27.3","","73","","0.0","","7","","9","","","","98.96","","","","-31","","NA"
"-139.84","67.57","OLD CROW RCS","2100805","2023-03-13 10:00","2023","03","13","10:00","-24.7","","-27.7","","76","","0.0","","23","","5","","","","98.95","","","","-30","","NA"
"-139.84","67.57","OLD CROW RCS","2100805","2023-03-13 11:00","2023","03","13","11:00","-22.7","","-26.9","","68","","0.0","","8","","5","","","","98.92","","","","-27","","NA"
"-139.84","67.57","OLD CROW RCS","2100805","2023-03-13 12:00","2023","03","13","12:00","-22.0","","-26.6","","66","","0.0","","6","","12","","","","98.88","","","","-30","","NA"
"-139.84","67.57","OLD CROW RCS","2100805","2023-03-13 13:00","2023","03","13","13:00","-21.1","","-25.8","","66","","0.0","","5","","10","","","","98.84","","","","-29","","NA"
"-139.84","67.57","OLD CROW RCS","2100805","2023-03-13 14:00","2023","03","13","14:00","-20.4","","-25.4","","65","","0.0","","6","","10","","","","98.80","","","","-28","","NA"
"-139.84","67.57","OLD CROW RCS","2100805","2023-03-13 15:00","2023","03","13","15:00","-20.6","","-25.9","","63","","0.0","","5","","13","","","","98.75","","","","-29","","NA"
"-139.84","67.57","OLD CROW RCS","2100805","2023-03-13 16:00","2023","03","13","16:00","-19.9","","-25.2","","63","","0.0","","5","","10","","","","98.71","","","","-27","","NA"
"-139.84","67.57","OLD CROW RCS","2100805","2023-03-13 17:00","2023","03","13","17:00","-20.2","","-25.5","","63","","0.0","","7","","9","","","","98.67","","","","-27","","NA"
"-139.84","67.57","OLD CROW RCS","2100805","2023-03-13 18:00","2023","03","13","18:00","-21.0","","-25.6","","66","","0.0","","7","","10","","","","98.66","","","","-28","","NA"
"-139.84","67.57","OLD CROW RCS","2100805","2023-03-13 19:00","2023","03","13","19:00","-21.8","","-25.5","","72","","0.0","","8","","8","","","","98.64","","","","-28","","NA"
"-139.84","67.57","OLD CROW RCS","2100805","2023-03-13 20:00","2023","03","13","20:00","-23.8","","-27.3","","73","","0.0","","7","","9","","","","98.65","","","","-31","","NA"
"-139.84","67.57","OLD CROW RCS","2100805","2023-03-13 21:00","2023","03","13","21:00","-24.2","","-27.6","","74","","0.0","","8","","9","","","","98.65","","","","-32","","NA"
"-139.84","67.57","OLD CROW RCS","2100805","2023-03-13 22:00","2023","03","13","22:00","-25.5","","-28.7","","74","","0.0","","8","","10","","","","98.66","","","","-34","","NA"
"-139.84","67.57","OLD CROW RCS","2100805","2023-03-13 23:00","2023","03","13","23:00","-27.6","","-30.6","","76","","0.0","","6","","6","","","","98.67","","","","-34","","NA"
"-139.84","67.57","OLD CROW RCS","2100805","2023-03-14 00:00","2023","03","14","00:00","-28.1","","-30.6","","79","","0.0","","9","","4","","","","98.68","","","","-32","","NA"
"-139.84","67.57","OLD CROW RCS","2100805","2023-03-14 01:00","2023","03","14","01:00","-28.7","","-31.2","","79","","0.0","","8","","3","","","","98.69","","","","-32","","NA"
"-139.84","67.57","OLD CROW RCS","2100805","2023-03-14 02:00","2023","03","14","02:00","-30.0","","-32.9","","75","","0.0","","12","","6","","","","98.71","","","","-37","","NA"
"-139.84","67.57","OLD CROW RCS","2100805","2023-03-14 03:00","2023","03","14","03:00","-30.2","","-33.1","","76","","0.0","","10","","5","","","","98.72","","","","-36","","NA"
"-139.84","67.57","OLD CROW RCS","2100805","2023-03-14 04:00","2023","03","14","04:00","-30.1","","-32.5","","79","","0.0","","8","","6","","","","98.73","","","","-37","","NA"
"-139.84","67.57","OLD CROW RCS","2100805","2023-03-14 05:00","2023","03","14","05:00","-31.8","","-34.8","","75","","0.0","","9","","4","","","","98.76","","","","-36","","NA"
"-139.84","67.57","OLD CROW RCS","2100805","2023-03-14 06:00","2023","03","14","06:00","-32.4","","-35.4","","75","","0.2","","9","","5","","","","98.80","","","","-38","","NA"
"-139.84","67.57","OLD CROW RCS","2100805","2023-03-14 07:00","2023","03","14","07:00","-33.6","","-36.6","","74","","0.0","","10","","4","","","","98.81","","","","-38","","NA"
"-139.84","67.57","OLD CROW RCS","2100805","2023-03-14 08:00","2023","03","14","08:00","-33.5","","-36.7","","73","","0.0","","9","","4","","","","98.84","","","","-38","","NA"
"-139.84","67.57","OLD CROW RCS","2100805","2023-03-14 09:00","2023","03","14","09:00","-31.7","","-34.7","","75","","0.0","","8","","4","","","","98.86","","","","-36","","NA"
"-139.84","67.57","OLD CROW RCS","2100805","2023-03-14 10:00","2023","03","14","10:00","-30.8","","-33.9","","75","","0.0","","1","","1","","","","98.88","","","","-32","","NA"
"-139.84","67.57","OLD CROW RCS","2100805","2023-03-14 11:00","2023","03","14","11:00","-25.1","","-29.2","","69","","0.0","","2","","26","","","","98.89","","","","-38","","NA"
"-139.84","67.57","OLD CROW RCS","2100805","2023-03-14 12:00","2023","03","14","12:00","-23.9","","-28.7","","64","","0.0","","4","","29","","","","98.96","","","","-37","","NA"
"-139.84","67.57","OLD CROW RCS","2100805","2023-03-14 13:00","2023","03","14","13:00","-23.9","","-28.9","","63","","0.0","","5","","26","","","","98.98","","","","-37","","NA"
"-139.84","67.57","OLD CROW RCS","2100805","2023-03-14 14:00","2023","03","14","14:00","-24.0","","-28.8","","64","","0.0","","5","","30","","","","99.02","","","","-38","","NA"
"-139.84","67.57","OLD CROW RCS","2100805","2023-03-14 15:00","2023","03","14","15:00","-24.7","","-29.5","","65","","0.0","","5","","35","","","","99.00","","","","-40","","NA"
"-139.84","67.57","OLD CROW RCS","2100805","2023-03-14 16:00","2023","03","14","16:00","-25.0","","-29.9","","64","","0.0","","4","","31","","","","99.01","","","","-39","","NA"
"-139.84","67.57","OLD CROW RCS","2100805","2023-03-14 17:00","2023","03","14","17:00","-25.6","","-30.4","","64","","0.0","","4","","28","","","","99.04","","","","-39","","NA"
"-139.84","67.57","OLD CROW RCS","2100805","2023-03-14 18:00","2023","03","14","18:00","-26.3","","-30.7","","66","","0.0","","4","","27","","","","99.06","","","","-40","","NA"
"-139.84","67.57","OLD CROW RCS","2100805","2023-03-14 19:00","2023","03","14","19:00","-26.9","","-31.3","","66","","0.0","","3","","29","","","","99.06","","","","-41","","NA"
"-139.84","67.57","OLD CROW RCS","2100805","2023-03-14 20:00","2023","03","14","20:00","-27.0","","-31.4","","66","","0.0","","4","","33","","","","99.08","","","","-42","","NA"
"-139.84","67.57","OLD CROW RCS","2100805","2023-03-14 21:00","2023","03","14","21:00","-27.3","","-31.6","","67","","0.0","","3","","29","","","","99.08","","","","-42","","NA"
"-139.84","67.57","OLD CROW RCS","2100805","2023-03-14 22:00","2023","03","14","22:00","-27.5","","-31.7","","68","","0.0","","3","","33","","","","99.11","","","","-43","","NA"
"-139.84","67.57","OLD CROW RCS","2100805","2023-03-14 23:00","2023","03","14","23:00","-27.9","","-32.0","","68","","0.0","","3","","29","","","","99.13","","","","-43","","NA"
"-139.84","67.57","OLD CROW RCS","2100805","2023-03-15 00:00","2023","03","15","00:00","-27.9","","-32.1","","67","","0.0","","4","","27","","","","99.14","","","","-42","","NA"
"-139.84","67.57","OLD CROW RCS","2100805","2023-03-15 01:00","2023","03","15","01:00","-28.0","","-32.2","","67","","0.0","","3","","27","","","","99.13","","","","-42","","NA"
"-139.84","67.57","OLD CROW RCS","2100805","2023-03-15 02:00","2023","03","15","02:00","-28.0","","-32.1","","68","","0.0","","3","","28","","","","99.11","","","","-43","","NA"
"-139.84","67.57","OLD CROW RCS","2100805","2023-03-15 03:00","2023","03","15","03:00","-27.9","","-32.1","","67","","0.0","","3","","33","","","","99.09","","","","-43","","NA"
"-139.84","67.57","OLD CROW RCS","2100805","2023-03-15 04:00","2023","03","15","04:00","-27.8","","-32.1","","67","","0.0","","3","","28","","","","99.05","","","","-42","","NA"
"-139.84","67.57","OLD CROW RCS","2100805","2023-03-15 05:00","2023","03","15","05:00","-27.7","","-31.9","","67","","0.0","","3","","23","","","","99.06","","","","-41","","NA"
"-139.84","67.57","OLD CROW RCS","2100805","2023-03-15 06:00","2023","03","15","06:00","-27.6","","-31.8","","68","","0.0","","3","","22","","","","99.04","","","","-41","","NA"
"-139.84","67.57","OLD CROW RCS","2100805","2023-03-15 07:00","2023","03","15","07:00","-27.7","","-31.8","","68","","0.0","","3","","22","","","","99.01","","","","-41","","NA"
"-139.84","67.57","OLD CROW RCS","2100805","2023-03-15 08:00","2023","03","15","08:00","-27.7","","-31.7","","69","","0.0","","3","","21","","","","98.99","","","","-40","","NA"
"-139.84","67.57","OLD CROW RCS","2100805","2023-03-15 09:00","2023","03","15","09:00","-27.7","","-31.7","","69","","0.0","","3","","17","","","","98.98","","","","-39","","NA"
"-139.84","67.57","OLD CROW RCS","2100805","2023-03-15 10:00","2023","03","15","10:00","-27.3","","-31.6","","67","","0.0","","4","","17","","","","98.94","","","","-39","","NA"
"-139.84","67.57","OLD CROW RCS","2100805","2023-03-15 11:00","2023","03","15","11:00","-26.8","","-31.4","","65","","0.0","","4","","17","","","","98.91","","","","-38","","NA"
"-139.84","67.57","OLD CROW RCS","2100805","2023-03-15 12:00","2023","03","15","12:00","-25.9","","-31.0","","62","","0.0","","4","","17","","","","98.87","","","","-37","","NA"
"-139.84","67.57","OLD CROW RCS","2100805","2023-03-15 13:00","2023","03","15","13:00","-25.3","","-30.8","","60","","0.0","","4","","17","","","","98.83","","","","-36","","NA"
"-139.84","67.57","OLD CROW RCS","2100805","2023-03-15 14:00","2023","03","15","14:00","-25.3","","-30.6","","61","","0.0","","5","","14","","","","98.78","","","","-35","","NA"
"-139.84","67.57","OLD CROW RCS","2100805","2023-03-15 15:00","2023","03","15","15:00","-24.9","","-30.1","","62","","0.0","","5","","18","","","","98.71","","","","-36","","NA"
"-139.84","67.57","OLD CROW RCS","2100805","2023-03-15 16:00","2023","03","15","16:00","-24.8","","-30.1","","61","","0.0","","4","","18","","","","98.64","","","","-36","","NA"
"-139.84","67.57","OLD CROW RCS","2100805","2023-03-15 17:00","2023","03","15","17:00","-24.8","","-30.2","","61","","0.0","","6","","13","","","","98.59","","","","-34","","NA"
"-139.84","67.57","OLD CROW RCS","2100805","2023-03-15 18:00","2023","03","15","18:00","-25.4","","-30.2","","64","","0.0","","4","","16","","","","98.57","","","","-36","","NA"
"-139.84","67.57","OLD CROW RCS","2100805","2023-03-15 19:00","2023","03","15","19:00","-26.2","","-30.4","","68","","0.0","","5","","14","","","","98.55","","","","-36","","NA"
"-139.84","67.57","OLD CROW RCS","2100805","2023-03-15 20:00","2023","03","15","20:00","-26.3","","-30.3","","69","","0.0","","3","","18","","","","98.51","","","","-38","","NA"
"-139.84","67.57","OLD CROW RCS","2100805","2023-03-15 21:00","2023","03","15","21:00","-26.6","","-30.7","","69","","0.0","","4","","15","","","","98.51","","","","-37","","NA"
"-139.84","67.57","OLD CROW RCS","2100805","2023-03-15 22:00","2023","03","15","22:00","-26.4","","-30.7","","67","","0.0","","4","","13","","","","98.49","","","","-36","","NA"
"-139.84","67.57","OLD CROW RCS","2100805","2023-03-15 23:00","2023","03","15","23:00","-26.9","","-31.2","","67","","0.0","","4","","14","","","","98.47","","","","-37","","NA"
"-139.84","67.57","OLD CROW RCS","2100805","2023-03-16 00:00","2023","03","16","00:00","-27.1","","-31.4","","67","","0.0","","5","","12","","","","98.46","","","","-37","","NA"
"-139.84","67.57","OLD CROW RCS","2100805","2023-03-16 01:00","2023","03","16","01:00","-26.7","","-31.0","","66","","0.0","","4","","12","","","","98.44","","","","-36","","NA"
"-139.84","67.57","OLD CROW RCS","2100805","2023-03-16 02:00","2023","03","16","02:00","-26.8","","-31.4","","65","","0.0","","6","","13","","","","98.43","","","","-37","","NA"
"-139.84","67.57","OLD CROW RCS","2100805","2023-03-16 03:00","2023","03","16","03:00","-27.0","","-31.7","","65","","0.0","","4","","12","","","","98.44","","","","-37","","NA"
"-139.84","67.57","OLD CROW RCS","2100805","2023-03-16 04:00","2023","03","16","04:00","-26.8","","-31.5","","64","","0.0","","3","","15","","","","98.41","","","","-37","","NA"
"-139.84","67.57","OLD CROW RCS","2100805","2023-03-16 05:00","2023","03","16","05:00","-27.8","","-32.1","","67","","0.0","","7","","8","","","","98.41","","","","-35","","NA"
"-139.84","67.57","OLD CROW RCS","2100805","2023-03-16 06:00","2023","03","16","06:00","-29.0","","-33.4","","66","","0.0","","10","","9","","","","98.45","","","","-37","","NA"
"-139.84","67.57","OLD CROW RCS","2100805","2023-03-16 07:00","2023","03","16","07:00","-28.6","","-32.7","","68","","0.0","","9","","9","","","","98.47","","","","-37","","NA"
"-139.84","67.57","OLD CROW RCS","2100805","2023-03-16 08:00","2023","03","16","08:00","-29.1","","-33.4","","66","","0.0","","6","","10","","","","98.49","","","","-38","","NA"
"-139.84","67.57","OLD CROW RCS","2100805","2023-03-16 09:00","2023","03","16","09:00","-28.2","","-32.8","","65","","0.0","","7","","9","","","","98.48","","","","-36","","NA"
"-139.84","67.57","OLD CROW RCS","2100805","2023-03-16 10:00","2023","03","16","10:00","-26.3","","-32.2","","58","","0.0","","6","","15","","","","98.44","","","","-37","","NA"
"-139.84","67.57","OLD CROW RCS","2100805","2023-03-16 11:00","2023","03","16","11:00","-25.4","","-32.1","","54","","0.0","","4","","18","","","","98.44","","","","-37","","NA"
"-139.84","67.57","OLD CROW RCS","2100805","2023-03-16 12:00","2023","03","16","12:00","-25.0","","-32.0","","52","","0.0","","6","","17","","","","98.49","","","","-36","","NA"
"-139.84","67.57","OLD CROW RCS","2100805","2023-03-16 13:00","2023","03","16","13:00","-24.7","","-31.2","","54","","0.0","","4","","18","","","","98.52","","","","-36","","NA"
"-139.84","67.57","OLD CROW RCS","2100805","2023-03-16 14:00","2023","03","16","14:00","-23.9","","-30.7","","53","","0.0","","5","","17","","","","98.47","","","","-35","","NA"
"-139.84","67.57","OLD CROW RCS","2100805","2023-03-16 15:00","2023","03","16","15:00","-23.8","","-30.2","","56","","0.0","","6","","19","","","","98.46","","","","-35","","NA"
"-139.84","67.57","OLD CROW RCS","2100805","2023-03-16 16:00","2023","03","16","16:00","-23.7","","-30.0","","56","","0.0","","5","","19","","","","98.48","","","","-35","","NA"
"-139.84","67.57","OLD CROW RCS","2100805","2023-03-16 17:00","2023","03","16","17:00","-23.9","","-30.2","","56","","0.0","","5","","18","","","","98.43","","","","-35","","NA"
"-139.84","67.57","OLD CROW RCS","2100805","2023-03-16 18:00","2023","03","16","18:00","-24.7","","-30.2","","60","","0.0","","5","","16","","","","98.42","","","","-35","","NA"
"-139.84","67.57","OLD CROW RCS","2100805","2023-03-16 19:00","2023","03","16","19:00","-24.6","","-29.8","","61","","0.0","","5","","13","","","","98.47","","","","-34","","NA"
"-139.84","67.57","OLD CROW RCS","2100805","2023-03-16 20:00","2023","03","16","20:00","-25.0","","-30.2","","62","","0.0","","5","","14","","","","98.47","","","","-35","","NA"
"-139.84","67.57","OLD CROW RCS","2100805","2023-03-16 21:00","2023","03","16","21:00","-27.0","","-31.4","","66","","0.0","","9","","12","","","","98.47","","","","-37","","NA"
"-139.84","67.57","OLD CROW RCS","2100805","2023-03-16 22:00","2023","03","16","22:00","-27.8","","-31.8","","69","","0.0","","8","","14","","","","98.51","","","","-38","","NA"
"-139.84","67.57","OLD CROW RCS","2100805","2023-03-16 23:00","2023","03","16","23:00","-27.8","","-31.6","","70","","0.0","","8","","12","","","","98.53","","","","-37","","NA"
"-139.84","67.57","OLD CROW RCS","2100805","2023-03-17 00:00","2023","03","17","00:00","-28.8","","-32.8","","68","","0.0","","0","","1","","","","98.56","","","","-30","","NA"
"-139.84","67.57","OLD CROW RCS","2100805","2023-03-17 01:00","2023","03","17","01:00","-30.5","","-33.6","","74","","0.0","","25","","3","","","","98.60","","","","-34","","NA"
"-139.84","67.57","OLD CROW RCS","2100805","2023-03-17 02:00","2023","03","17","02:00","-32.3","","-35.3","","75","","0.0","","","","0","","","","98.62","","","","","","NA"
"-139.84","67.57","OLD CROW RCS","2100805","2023-03-17 03:00","2023","03","17","03:00","-32.8","","-35.8","","74","","0.0","","26","","2","","","","98.65","","","","-35","","NA"
"-139.84","67.57","OLD CROW RCS","2100805","2023-03-17 04:00","2023","03","17","04:00","-33.6","","-36.7","","74","","0.2","","28","","4","","","","98.65","","","","-38","","NA"
"-139.84","67.57","OLD CROW RCS","2100805","2023-03-17 05:00","2023","03","17","05:00","-34.1","","-37.3","","73","","0.0","","2","","2","","","","98.64","","","","-37","","NA"
"-139.84","67.57","OLD CROW RCS","2100805","2023-03-17 06:00","2023","03","17","06:00","-34.9","","-38.4","","71","","0.0","","24","","1","","","","98.63","","","","-36","","NA"
"-139.84","67.57","OLD CROW RCS","2100805","2023-03-17 07:00","2023","03","17","07:00","-35.2","","-38.6","","71","","0.0","","32","","2","","","","98.66","","","","-38","","NA"
"-139.84","67.57","OLD CROW RCS","2100805","2023-03-17 08:00","2023","03","17","08:00","-34.8","","-38.1","","72","","0.0","","0","","1","","","","98.67","","","","-36","","NA"
"-139.84","67.57","OLD CROW RCS","2100805","2023-03-17 09:00","2023","03","17","09:00","-33.9","","-37.2","","72","","0.0","","27","","2","","","","98.69","","","","-36","","NA"
"-139.84","67.57","OLD CROW RCS","2100805","2023-03-17 10:00","2023","03","17","10:00","-32.4","","-35.8","","72","","0.0","","","","0","","","","98.70","","","","","","NA"
"-139.84","67.57","OLD CROW RCS","2100805","2023-03-17 11:00","2023","03","17","11:00","-30.4","","-34.2","","69","","0.0","","26","","3","","","","98.69","","","","-34","","NA"
"-139.84","67.57","OLD CROW RCS","2100805","2023-03-17 12:00","2023","03","17","12:00","-28.3","","-33.2","","63","","0.0","","24","","4","","","","98.72","","","","-33","","NA"
"-139.84","67.57","OLD CROW RCS","2100805","2023-03-17 13:00","2023","03","17","13:00","-25.7","","-31.7","","57","","0.0","","11","","1","","","","98.69","","","","-27","","NA"
"-139.84","67.57","OLD CROW RCS","2100805","2023-03-17 14:00","2023","03","17","14:00","-24.4","","-29.6","","62","","0.0","","27","","5","","","","98.67","","","","-29","","NA"
"-139.84","67.57","OLD CROW RCS","2100805","2023-03-17 15:00","2023","03","17","15:00","-22.3","","-28.8","","56","","0.0","","7","","12","","","","98.62","","","","-31","","NA"
"-139.84","67.57","OLD CROW RCS","2100805","2023-03-17 16:00","2023","03","17","16:00","-21.8","","-28.0","","57","","0.0","","8","","11","","","","98.64","","","","-30","","NA"
"-139.84","67.57","OLD CROW RCS","2100805","2023-03-17 17:00","2023","03","17","17:00","-21.1","","-27.5","","56","","0.0","","8","","9","","","","98.59","","","","-28","","NA"
"-139.84","67.57","OLD CROW RCS","2100805","2023-03-17 18:00","2023","03","17","18:00","-21.1","","-27.1","","58","","0.0","","8","","9","","","","98.56","","","","-28","","NA"
"-139.84","67.57","OLD CROW RCS","2100805","2023-03-17 19:00","2023","03","17","19:00","-21.8","","-27.2","","62","","0.0","","8","","12","","","","98.57","","","","-30","","NA"
"-139.84","67.57","OLD CROW RCS","2100805","2023-03-17 20:00","2023","03","17","20:00","-22.2","","-27.3","","63","","0.0","","9","","11","","","","98.54","","","","-30","","NA"
"-139.84","67.57","OLD CROW RCS","2100805","2023-03-17 21:00","2023","03","17","21:00","-23.4","","-28.4","","64","","0.0","","7","","8","","","","98.54","","","","-30","","NA"
"-139.84","67.57","OLD CROW RCS","2100805","2023-03-17 22:00","2023","03","17","22:00","-24.5","","-28.8","","67","","0.0","","4","","7","","","","98.53","","","","-31","","NA"
"-139.84","67.57","OLD CROW RCS","2100805","2023-03-17 23:00","2023","03","17","23:00","-22.9","","-27.5","","66","","0.0","","7","","7","","","","98.49","","","","-29","","NA"
"-139.84","67.57","OLD CROW RCS","2100805","2023-03-18 00:00","2023","03","18","00:00","-22.9","","-27.3","","67","","0.0","","29","","4","","","","98.51","","","","-27","","NA"
"-139.84","67.57","OLD CROW RCS","2100805","2023-03-18 01:00","2023","03","18","01:00","-23.8","","-27.7","","70","","0.0","","23","","2","","","","98.51","","","","-26","","NA"
"-139.84","67.57","OLD CROW RCS","2100805","2023-03-18 02:00","2023","03","18","02:00","-25.0","","-28.5","","73","","0.0","","30","","5","","","","98.48","","","","-30","","NA"
"-139.84","67.57","OLD CROW RCS","2100805","2023-03-18 03:00","2023","03","18","03:00","-25.4","","-28.4","","76","","0.0","","0","","1","","","","98.49","","","","-26","","NA"
"-139.84","67.57","OLD CROW RCS","2100805","2023-03-18 04:00","2023","03","18","04:00","-25.7","","-29.0","","74","","0.0","","","","0","","","","98.55","","","","","","NA"
"-139.84","67.57","OLD CROW RCS","2100805","2023-03-18 05:00","2023","03","18","05:00","-25.1","","-28.3","","75","","0.0","","25","","3","","","","98.55","","","","-28","","NA"
"-139.84","67.57","OLD CROW RCS","2100805","2023-03-18 06:00","2023","03","18","06:00","-25.6","","-28.7","","75","","0.0","","","","0","","","","98.51","","","","","","NA"
"-139.84","67.57","OLD CROW RCS","2100805","2023-03-18 07:00","2023","03","18","07:00","-24.2","","-27.8","","72","","0.0","","24","","5","","","","98.61","","","","-29","","NA"
"-139.84","67.57","OLD CROW RCS","2100805","2023-03-18 08:00","2023","03","18","08:00","-24.7","","-28.5","","70","","0.0","","28","","5","","","","98.60","","","","-30","","NA"
"-139.84","67.57","OLD CROW RCS","2100805","2023-03-18 09:00","2023","03","18","09:00","-23.3","","-28.1","","65","","0.0","","12","","2","","","","98.61","","","","-25","","NA"
"-139.84","67.57","OLD CROW RCS","2100805","2023-03-18 10:00","2023","03","18","10:00","-22.3","","-27.5","","63","","0.0","","21","","2","","","","98.66","","","","-24","","NA"
"-139.84","67.57","OLD CROW RCS","2100805","2023-03-18 11:00","2023","03","18","11:00","-20.4","","-27.6","","52","","0.0","","21","","3","","","","98.71","","","","-23","","NA"
"-139.84","67.57","OLD CROW RCS","2100805","2023-03-18 12:00","2023","03","18","12:00","-18.6","","-27.7","","45","","0.0","","24","","5","","","","98.69","","","","-23","","NA"
"-139.84","67.57","OLD CROW RCS","2100805","2023-03-18 13:00","2023","03","18","13:00","-17.3","","-27.4","","41","","0.0","","26","","3","","","","98.71","","","","-20","","NA"
"-139.84","67.57","OLD CROW RCS","2100805","2023-03-18 14:00","2023","03","18","14:00","-15.0","","-24.8","","43","","0.0","","29","","1","","","","98.71","","","","-16","","NA"
"-139.84","67.57","OLD CROW RCS","2100805","2023-03-18 15:00","2023","03","18","15:00","-12.9","","-23.6","","40","","0.0","","14","","4","","","","98.66","","","","-16","","NA"
"-139.84","67.57","OLD CROW RCS","2100805","2023-03-18 16:00","2023","03","18","16:00","-11.7","","-23.2","","38","","0.0","","13","","3","","","","98.61","","","","-14","","NA"
"-139.84","67.57","OLD CROW RCS","2100805","2023-03-18 17:00","2023","03","18","17:00","-11.5","","-19.9","","50","","0.0","","7","","9","","","","98.55","","","","-17","","NA"
"-139.84","67.57","OLD CROW RCS","2100805","2023-03-18 18:00","2023","03","18","18:00","-12.7","","-19.9","","55","","0.0","","9","","12","","","","98.53","","","","-19","","NA"
"-139.84","67.57","OLD CROW RCS","2100805","2023-03-18 19:00","2023","03","18","19:00","-16.1","","-21.7","","62","","0.0","","9","","11","","","","98.50","","","","-23","","NA"
"-139.84","67.57","OLD CROW RCS","2100805","2023-03-18 20:00","2023","03","18","20:00","-18.2","","-22.6","","68","","0.0","","8","","2","","","","98.43","","","","-20","","NA"
"-139.84","67.57","OLD CROW RCS","2100805","2023-03-18 21:00","2023","03","18","21:00","-18.5","","-22.4","","71","","0.0","","8","","6","","","","98.39","","","","-23","","NA"
"-139.84","67.57","OLD CROW RCS","2100805","2023-03-18 22:00","2023","03","18","22:00","-17.5","","-21.8","","69","","0.0","","7","","11","","","","98.30","","","","-25","","NA"
"-139.84","67.57","OLD CROW RCS","2100805","2023-03-18 23:00","2023","03","18","23:00","-17.4","","-21.5","","71","","0.0","","4","","5","","","","98.24","","","","-21","","NA"
"-139.84","67.57","OLD CROW RCS","2100805","2023-03-19 00:00","2023","03","19","00:00","-19.1","","-22.5","","75","","0.0","","7","","3","","","","98.16","","","","-22","","NA"
"-139.84","67.57","OLD CROW RCS","2100805","2023-03-19 01:00","2023","03","19","01:00","-13.4","","-18.9","","63","","0.0","","6","","15","","","","98.05","","","","-21","","NA"
"-139.84","67.57","OLD CROW RCS","2100805","2023-03-19 02:00","2023","03","19","02:00","-19.1","","-22.7","","73","","0.0","","14","","3","","","","98.06","","","","-22","","NA"
"-139.84","67.57","OLD CROW RCS","2100805","2023-03-19 03:00","2023","03","19","03:00","-20.7","","-23.8","","77","","0.0","","25","","7","","","","97.99","","","","-26","","NA"
"-139.84","67.57","OLD CROW RCS","2100805","2023-03-19 04:00","2023","03","19","04:00","-21.9","","-24.0","","83","","0.0","","25","","4","","","","97.96","","","","-26","","NA"
"-139.84","67.57","OLD CROW RCS","2100805","2023-03-19 05:00","2023","03","19","05:00","-22.3","","-24.1","","86","","0.0","","4","","2","","","","97.88","","","","-24","","NA"
"-139.84","67.57","OLD CROW RCS","2100805","2023-03-19 06:00","2023","03","19","06:00","-22.6","","-24.8","","82","","0.0","","27","","4","","","","97.84","","","","-26","","NA"
"-139.84","67.57","OLD CROW RCS","2100805","2023-03-19 07:00","2023","03","19","07:00","-23.2","","-25.6","","81","","0.0","","27","","3","","","","97.81","","","","-26","","NA"
"-139.84","67.57","OLD CROW RCS","2100805","2023-03-19 08:00","2023","03","19","08:00","-22.8","","-25.4","","79","","0.0","","26","","5","","","","97.74","","","","-27","","NA"
"-139.84","67.57","OLD CROW RCS","2100805","2023-03-19 09:00","2023","03","19","09:00","-21.7","","-24.4","","79","","0.0","","23","","2","","","","97.76","","","","-24","","NA"
"-139.84","67.57","OLD CROW RCS","2100805","2023-03-19 10:00","2023","03","19","10:00","-19.9","","-23.4","","74","","0.0","","23","","3","","","","97.73","","","","-22","","NA"
"-139.84","67.57","OLD CROW RCS","2100805","2023-03-19 11:00","2023","03","19","11:00","-17.8","","-21.7","","72","","0.0","","26","","12","","","","97.75","","","","-25","","NA"
"-139.84","67.57","OLD CROW RCS","2100805","2023-03-19 12:00","2023","03","19","12:00","-15.3","","-21.8","","57","","0.0","","26","","4","","","","97.75","","","","-18","","NA"
"-139.84","67.57","OLD CROW RCS","2100805","2023-03-19 13:00","2023","03","19","13:00","-12.7","","-21.9","","46","","0.0","","25","","3","","","","97.76","","","","-15","","NA"
"-139.84","67.57","OLD CROW RCS","2100805","2023-03-19 14:00","2023","03","19","14:00","-10.4","","-20.9","","42","","0.0","","20","","3","","","","97.78","","","","-12","","NA"
"-139.84","67.57","OLD CROW RCS","2100805","2023-03-19 15:00","2023","03","19","15:00","-10.1","","-20.7","","42","","0.0","","25","","5","","","","97.78","","","","-13","","NA"
"-139.84","67.57","OLD CROW RCS","2100805","2023-03-19 16:00","2023","03","19","16:00","-8.9","","-19.0","","44","","0.0","","26","","6","","","","97.82","","","","-12","","NA"
"-139.84","67.57","OLD CROW RCS","2100805","2023-03-19 17:00","2023","03","19","17:00","-7.2","","-17.2","","45","","0.0","","22","","5","","","","97.83","","","","-10","","NA"
"-139.84","67.57","OLD CROW RCS","2100805","2023-03-19 18:00","2023","03","19","18:00","-7.7","","-15.6","","53","","0.0","","22","","8","","","","97.90","","","","-12","","NA"
"-139.84","67.57","OLD CROW RCS","2100805","2023-03-19 19:00","2023","03","19","19:00","-8.8","","-16.0","","56","","0.0","","23","","9","","","","97.91","","","","-13","","NA"
"-139.84","67.57","OLD CROW RCS","2100805","2023-03-19 20:00","2023","03","19","20:00","-10.6","","-16.1","","64","","0.0","","16","","4","","","","98.00","","","","-13","","NA"
"-139.84","67.57","OLD CROW RCS","2100805","2023-03-19 21:00","2023","03","19","21:00","-13.7","","-16.7","","78","","0.0","","34","","5","","","","98.07","","","","-17","","NA"
"-139.84","67.57","OLD CROW RCS","2100805","2023-03-19 22:00","2023","03","19","22:00","-15.6","","-17.6","","84","","0.0","","32","","2","","","","98.17","","","","-17","","NA"
"-139.84","67.57","OLD CROW RCS","2100805","2023-03-19 23:00","2023","03","19","23:00","-16.9","","-18.6","","87","","0.0","","24","","3","","","","98.19","","","","-19","","NA"
"-139.84","67.57","OLD CROW RCS","2100805","2023-03-20 00:00","2023","03","20","00:00","-14.5","","-16.0","","88","","0.0","","2","","2","","","","98.24","","","","-16","","NA"
"-139.84","67.57","OLD CROW RCS","2100805","2023-03-20 01:00","2023","03","20","01:00","-16.2","","-17.4","","91","","0.0","","23","","3","","","","98.28","","","","-18","","NA"
"-139.84","67.57","OLD CROW RCS","2100805","2023-03-20 02:00","2023","03","20","02:00","-13.6","","-14.3","","94","","0.0","","25","","9","","","","98.31","","","","-19","","NA"
"-139.84","67.57","OLD CROW RCS","2100805","2023-03-20 03:00","2023","03","20","03:00","-18.4","","-20.1","","87","","0.0","","23","","3","","","","98.33","","","","-21","","NA"
"-139.84","67.57","OLD CROW RCS","2100805","2023-03-20 04:00","2023","03","20","04:00","-16.7","","-18.2","","89","","0.0","","19","","5","","","","98.33","","","","-21","","NA"
"-139.84","67.57","OLD CROW RCS","2100805","2023-03-20 05:00","2023","03","20","05:00","-19.4","","-21.2","","86","","0.0","","27","","1","","","","98.33","","","","-20","","NA"
"-139.84","67.57","OLD CROW RCS","2100805","2023-03-20 06:00","2023","03","20","06:00","-21.5","","-23.5","","84","","0.0","","13","","1","","","","98.32","","","","-22","","NA"
"-139.84","67.57","OLD CROW RCS","2100805","2023-03-20 07:00","2023","03","20","07:00","-22.9","","-25.1","","82","","0.0","","7","","1","","","","98.31","","","","-24","","NA"
"-139.84","67.57","OLD CROW RCS","2100805","2023-03-20 08:00","2023","03","20","08:00","-23.9","","-26.1","","82","","0.0","","","","0","","","","98.32","","","","","","NA"
"-139.84","67.57","OLD CROW RCS","2100805","2023-03-20 09:00","2023","03","20","09:00","-21.8","","-23.8","","84","","0.0","","7","","3","","","","98.26","","","","-25","","NA"
"-139.84","67.57","OLD CROW RCS","2100805","2023-03-20 10:00","2023","03","20","10:00","-17.7","","-19.1","","89","","0.0","","12","","2","","","","98.18","","","","-19","","NA"
"-139.84","67.57","OLD CROW RCS","2100805","2023-03-20 11:00","2023","03","20","11:00","-13.7","","-17.9","","71","","0.0","","9","","2","","","","98.12","","","","-15","","NA"
"-139.84","67.57","OLD CROW RCS","2100805","2023-03-20 12:00","2023","03","20","12:00","-11.6","","-16.3","","68","","0.0","","9","","3","","","","98.04","","","","-13","","NA"
"-139.84","67.57","OLD CROW RCS","2100805","2023-03-20 13:00","2023","03","20","13:00","-6.3","","-11.6","","66","","0.0","","10","","8","","","","97.93","","","","-10","","NA"
"-139.84","67.57","OLD CROW RCS","2100805","2023-03-20 14:00","2023","03","20","14:00","-8.6","","-14.5","","62","","0.0","","10","","8","","","","97.89","","","","-13","","NA"
"-139.84","67.57","OLD CROW RCS","2100805","2023-03-20 15:00","2023","03","20","15:00","-7.5","","-12.2","","69","","0.0","","9","","13","","","","97.81","","","","-13","","NA"
"-139.84","67.57","OLD CROW RCS","2100805","2023-03-20 16:00","2023","03","20","16:00","-5.7","","-11.4","","64","","0.0","","9","","13","","","","97.68","","","","-11","","NA"
"-139.84","67.57","OLD CROW RCS","2100805","2023-03-20 17:00","2023","03","20","17:00","-6.0","","-10.5","","71","","0.0","","6","","17","","","","97.61","","","","-12","","NA"
"-139.84","67.57","OLD CROW RCS","2100805","2023-03-20 18:00","2023","03","20","18:00","-5.4","","-10.2","","69","","0.0","","6","","19","","","","97.52","","","","-12","","NA"
"-139.84","67.57","OLD CROW RCS","2100805","2023-03-20 19:00","2023","03","20","19:00","-5.5","","-9.9","","72","","0.0","","5","","17","","","","97.47","","","","-12","","NA"
"-139.84","67.57","OLD CROW RCS","2100805","2023-03-20 20:00","2023","03","20","20:00","-6.2","","-10.4","","72","","0.0","","8","","10","","","","97.43","","","","-11","","NA"
"-139.84","67.57","OLD CROW RCS","2100805","2023-03-20 21:00","2023","03","20","21:00","-9.4","","-12.1","","81","","0.0","","7","","4","","","","97.42","","","","-12","","NA"
"-139.84","67.57","OLD CROW RCS","2100805","2023-03-20 22:00","2023","03","20","22:00","-11.9","","-13.7","","86","","0.0","","8","","4","","","","97.38","","","","-14","","NA"
"-139.84","67.57","OLD CROW RCS","2100805","2023-03-20 23:00","2023","03","20","23:00","-13.6","","-15.0","","89","","0.0","","","","0","","","","97.37","","","","","","NA"
"-139.84","67.57","OLD CROW RCS","2100805","2023-03-21 00:00","2023","03","21","00:00","-15.9","","-17.4","","88","","0.0","","30","","1","","","","97.37","","","","-17","","NA"
"-139.84","67.57","OLD CROW RCS","2100805","2023-03-21 01:00","2023","03","21","01:00","-16.4","","-17.6","","90","","0.0","","33","","3","","","","97.36","","","","-19","","NA"
"-139.84","67.57","OLD CROW RCS","2100805","2023-03-21 02:00","2023","03","21","02:00","-18.4","","-19.9","","88","","0.0","","34","","3","","","","97.37","","","","-21","","NA"
"-139.84","67.57","OLD CROW RCS","2100805","2023-03-21 03:00","2023","03","21","03:00","-20.6","","-22.5","","85","","0.0","","8","","2","","","","97.33","","","","-22","","NA"
"-139.84","67.57","OLD CROW RCS","2100805","2023-03-21 04:00","2023","03","21","04:00","-21.4","","-23.3","","85","","0.0","","5","","2","","","","97.35","","","","-23","","NA"
"-139.84","67.57","OLD CROW RCS","2100805","2023-03-21 05:00","2023","03","21","05:00","-21.3","","-22.9","","87","","0.0","","9","","3","","","","97.34","","","","-24","","NA"
"-139.84","67.57","OLD CROW RCS","2100805","2023-03-21 06:00","2023","03","21","06:00","-21.6","","-23.3","","86","","0.0","","25","","2","","","","97.35","","","","-23","","NA"
"-139.84","67.57","OLD CROW RCS","2100805","2023-03-21 07:00","2023","03","21","07:00","-22.1","","-24.0","","85","","0.0","","7","","1","","","","97.34","","","","-23","","NA"
"-139.84","67.57","OLD CROW RCS","2100805","2023-03-21 08:00","2023","03","21","08:00","-21.9","","-23.8","","85","","0.0","","8","","2","","","","97.34","","","","-24","","NA"
"-139.84","67.57","OLD CROW RCS","2100805","2023-03-21 09:00","2023","03","21","09:00","-20.9","","-22.6","","86","","0.0","","10","","2","","","","97.34","","","","-23","","NA"
"-139.84","67.57","OLD CROW RCS","2100805","2023-03-21 10:00","2023","03","21","10:00","-19.6","","-21.1","","88","","0.0","","22","","3","","","","97.32","","","","-22","","NA"
"-139.84","67.57","OLD CROW RCS","2100805","2023-03-21 11:00","2023","03","21","11:00","-16.6","","-17.8","","90","","0.0","","9","","2","","","","97.30","","","","-18","","NA"
"-139.84","67.57","OLD CROW RCS","2100805","2023-03-21 12:00","2023","03","21","12:00","-14.4","","-16.1","","87","","0.0","","6","","3","","","","97.29","","","","-17","","NA"
"-139.84","67.57","OLD CROW RCS","2100805","2023-03-21 13:00","2023","03","21","13:00","-12.2","","-17.1","","67","","0.0","","0","","1","","","","97.28","","","","-13","","NA"
"-139.84","67.57","OLD CROW RCS","2100805","2023-03-21 14:00","2023","03","21","14:00","-8.1","","-16.2","","52","","0.0","","14","","4","","","","97.25","","","","-10","","NA"
"-139.84","67.57","OLD CROW RCS","2100805","2023-03-21 15:00","2023","03","21","15:00","-5.7","","-14.6","","49","","0.0","","11","","6","","","","97.22","","","","-9","","NA"
"-139.84","67.57","OLD CROW RCS","2100805","2023-03-21 16:00","2023","03","21","16:00","-4.1","","-13.5","","48","","0.0","","11","","2","","","","97.18","","","","-5","","NA"
"-139.84","67.57","OLD CROW RCS","2100805","2023-03-21 17:00","2023","03","21","17:00","-4.2","","-13.2","","50","","0.0","","10","","6","","","","97.18","","","","-7","","NA"
"-139.84","67.57","OLD CROW RCS","2100805","2023-03-21 18:00","2023","03","21","18:00","-6.8","","-13.8","","57","","0.0","","9","","8","","","","97.16","","","","-11","","NA"
"-139.84","67.57","OLD CROW RCS","2100805","2023-03-21 19:00","2023","03","21","19:00","-9.5","","-14.4","","68","","0.0","","8","","11","","","","97.16","","","","-15","","NA"
"-139.84","67.57","OLD CROW RCS","2100805","2023-03-21 20:00","2023","03","21","20:00","-12.5","","-15.3","","80","","0.0","","9","","4","","","","97.18","","","","-15","","NA"
"-139.84","67.57","OLD CROW RCS","2100805","2023-03-21 21:00","2023","03","21","21:00","-15.2","","-16.7","","89","","0.0","","9","","2","","","","97.17","","","","-17","","NA"
"-139.84","67.57","OLD CROW RCS","2100805","2023-03-21 22:00","2023","03","21","22:00","-18.4","","-20.0","","88","","0.0","","0","","1","","","","97.16","","","","-19","","NA"
"-139.84","67.57","OLD CROW RCS","2100805","2023-03-21 23:00","2023","03","21","23:00","-19.1","","-20.7","","87","","0.0","","0","","1","","","","97.18","","","","-20","","NA"
"-139.84","67.57","OLD CROW RCS","2100805","2023-03-22 00:00","2023","03","22","00:00","-19.9","","-21.5","","87","","0.0","","29","","3","","","","97.20","","","","-22","","NA"
"-139.84","67.57","OLD CROW RCS","2100805","2023-03-22 01:00","2023","03","22","01:00","-20.5","","-22.2","","86","","0.0","","4","","1","","","","97.20","","","","-21","","NA"
"-139.84","67.57","OLD CROW RCS","2100805","2023-03-22 02:00","2023","03","22","02:00","-22.1","","-24.1","","84","","0.0","","","","0","","","","97.24","","","","","","NA"
"-139.84","67.57","OLD CROW RCS","2100805","2023-03-22 03:00","2023","03","22","03:00","-22.5","","-24.4","","84","","0.0","","30","","2","","","","97.27","","","","-24","","NA"
"-139.84","67.57","OLD CROW RCS","2100805","2023-03-22 04:00","2023","03","22","04:00","-23.8","","-26.1","","82","","0.0","","6","","1","","","","97.28","","","","-25","","NA"
"-139.84","67.57","OLD CROW RCS","2100805","2023-03-22 05:00","2023","03","22","05:00","-25.0","","-27.4","","80","","0.0","","27","","1","","","","97.30","","","","-26","","NA"
"-139.84","67.57","OLD CROW RCS","2100805","2023-03-22 06:00","2023","03","22","06:00","-25.7","","-28.0","","81","","0.0","","31","","2","","","","97.30","","","","-28","","NA"
"-139.84","67.57","OLD CROW RCS","2100805","2023-03-22 07:00","2023","03","22","07:00","-25.6","","-28.0","","80","","0.0","","","","0","","","","97.33","","","","","","NA"
"-139.84","67.57","OLD CROW RCS","2100805","2023-03-22 08:00","2023","03","22","08:00","-24.2","","-26.5","","82","","0.0","","27","","4","","","","97.33","","","","-28","","NA"
"-139.84","67.57","OLD CROW RCS","2100805","2023-03-22 09:00","2023","03","22","09:00","-22.2","","-24.0","","85","","0.0","","27","","2","","","","97.37","","","","-24","","NA"
"-139.84","67.57","OLD CROW RCS","2100805","2023-03-22 10:00","2023","03","22","10:00","-20.4","","-22.1","","87","","0.0","","5","","1","","","","97.35","","","","-21","","NA"
"-139.84","67.57","OLD CROW RCS","2100805","2023-03-22 11:00","2023","03","22","11:00","-18.8","","-20.7","","85","","0.0","","27","","7","","","","97.37","","","","-24","","NA"
"-139.84","67.57","OLD CROW RCS","2100805","2023-03-22 12:00","2023","03","22","12:00","-16.1","","-20.0","","72","","0.0","","23","","5","","","","97.38","","","","-20","","NA"
"-139.84","67.57","OLD CROW RCS","2100805","2023-03-22 13:00","2023","03","22","13:00","-15.4","","-21.1","","62","","0.0","","27","","6","","","","97.39","","","","-20","","NA"
"-139.84","67.57","OLD CROW RCS","2100805","2023-03-22 14:00","2023","03","22","14:00","-12.2","","-19.4","","55","","0.0","","26","","4","","","","97.38","","","","-15","","NA"
"-139.84","67.57","OLD CROW RCS","2100805","2023-03-22 15:00","2023","03","22","15:00","-9.1","","-15.8","","58","","0.0","","11","","7","","","","97.36","","","","-13","","NA"
"-139.84","67.57","OLD CROW RCS","2100805","2023-03-22 16:00","2023","03","22","16:00","-8.2","","-14.9","","58","","0.0","","9","","11","","","","97.33","","","","-13","","NA"
"-139.84","67.57","OLD CROW RCS","2100805","2023-03-22 17:00","2023","03","22","17:00","-7.4","","-14.4","","57","","0.0","","6","","5","","","","97.33","","","","-10","","NA"
"-139.84","67.57","OLD CROW RCS","2100805","2023-03-22 18:00","2023","03","22","18:00","-8.1","","-13.9","","63","","0.0","","8","","7","","","","97.33","","","","-12","","NA"
"-139.84","67.57","OLD CROW RCS","2100805","2023-03-22 19:00","2023","03","22","19:00","-9.8","","-14.6","","68","","0.0","","7","","4","","","","97.35","","","","-12","","NA"
"-139.84","67.57","OLD CROW RCS","2100805","2023-03-22 20:00","2023","03","22","20:00","-12.9","","-15.5","","81","","0.0","","7","","7","","","","97.38","","","","-17","","NA"
"-139.84","67.57","OLD CROW RCS","2100805","2023-03-22 21:00","2023","03","22","21:00","-17.3","","-19.3","","84","","0.0","","7","","1","","","","97.41","","","","-18","","NA"
"-139.84","67.57","OLD CROW RCS","2100805","2023-03-22 22:00","2023","03","22","22:00","-19.4","","-21.4","","84","","0.0","","5","","1","","","","97.41","","","","-20","","NA"
"-139.84","67.57","OLD CROW RCS","2100805","2023-03-22 23:00","2023","03","22","23:00","-21.0","","-22.8","","85","","0.0","","29","","3","","","","97.42","","","","-24","","NA"
"-139.84","67.57","OLD CROW RCS","2100805","2023-03-23 00:00","2023","03","23","00:00","-20.7","","-22.4","","86","","0.0","","28","","4","","","","97.42","","","","-24","","NA"
"-139.84","67.57","OLD CROW RCS","2100805","2023-03-23 01:00","2023","03","23","01:00","-20.7","","-22.2","","87","","0.0","","27","","5","","","","97.43","","","","-25","","NA"
"-139.84","67.57","OLD CROW RCS","2100805","2023-03-23 02:00","2023","03","23","02:00","-21.3","","-23.1","","85","","0.0","","29","","2","","","","97.41","","","","-23","","NA"
"-139.84","67.57","OLD CROW RCS","2100805","2023-03-23 03:00","2023","03","23","03:00","-22.1","","-24.1","","84","","0.0","","34","","1","","","","97.40","","","","-23","","NA"
"-139.84","67.57","OLD CROW RCS","2100805","2023-03-23 04:00","2023","03","23","04:00","-21.5","","-23.3","","85","","0.0","","26","","4","","","","97.39","","","","-25","","NA"
"-139.84","67.57","OLD CROW RCS","2100805","2023-03-23 05:00","2023","03","23","05:00","-22.9","","-25.0","","83","","0.0","","0","","1","","","","97.40","","","","-24","","NA"
"-139.84","67.57","OLD CROW RCS","2100805","2023-03-23 06:00","2023","03","23","06:00","-23.4","","-25.5","","83","","0.0","","31","","1","","","","97.38","","","","-24","","NA"
"-139.84","67.57","OLD CROW RCS","2100805","2023-03-23 07:00","2023","03","23","07:00","-22.5","","-24.3","","86","","0.0","","26","","4","","","","97.35","","","","-26","","NA"
"-139.84","67.57","OLD CROW RCS","2100805","2023-03-23 08:00","2023","03","23","08:00","-23.4","","-25.4","","83","","0.0","","26","","5","","","","97.35","","","","-28","","NA"
"-139.84","67.57","OLD CROW RCS","2100805","2023-03-23 09:00","2023","03","23","09:00","-18.7","","-20.2","","87","","0.0","","8","","3","","","","97.31","","","","-21","","NA"
"-139.84","67.57","OLD CROW RCS","2100805","2023-03-23 10:00","2023","03","23","10:00","-15.0","","-18.3","","75","","0.0","","32","","1","","","","97.28","","","","-16","","NA"
"-139.84","67.57","OLD CROW RCS","2100805","2023-03-23 11:00","2023","03","23","11:00","-9.7","","-14.9","","66","","0.0","","8","","8","","","","97.24","","","","-14","","NA"
"-139.84","67.57","OLD CROW RCS","2100805","2023-03-23 12:00","2023","03","23","12:00","-6.5","","-13.5","","58","","0.0","","9","","9","","","","97.20","","","","-11","","NA"
"-139.84","67.57","OLD CROW RCS","2100805","2023-03-23 13:00","2023","03","23","13:00","-3.9","","-12.2","","52","","0.0","","9","","8","","","","97.16","","","","-7","","NA"
"-139.84","67.57","OLD CROW RCS","2100805","2023-03-23 14:00","2023","03","23","14:00","-1.6","","-10.5","","51","","0.0","","7","","7","","","","97.16","","","","-4","","NA"
"-139.84","67.57","OLD CROW RCS","2100805","2023-03-23 15:00","2023","03","23","15:00","-1.9","","-12.1","","46","","0.0","","8","","9","","","","97.14","","","","-5","","NA"
"-139.84","67.57","OLD CROW RCS","2100805","2023-03-23 16:00","2023","03","23","16:00","-1.4","","-11.5","","46","","0.0","","7","","8","","","","97.14","","","","-4","","NA"
"-139.84","67.57","OLD CROW RCS","2100805","2023-03-23 17:00","2023","03","23","17:00","-2.8","","-11.4","","52","","0.0","","10","","7","","","","97.15","","","","-6","","NA"
"-139.84","67.57","OLD CROW RCS","2100805","2023-03-23 18:00","2023","03","23","18:00","-3.9","","-11.6","","55","","0.0","","9","","7","","","","97.18","","","","-7","","NA"
"-139.84","67.57","OLD CROW RCS","2100805","2023-03-23 19:00","2023","03","23","19:00","-4.9","","-11.4","","60","","0.0","","10","","4","","","","97.23","","","","-7","","NA"
"-139.84","67.57","OLD CROW RCS","2100805","2023-03-23 20:00","2023","03","23","20:00","-6.7","","-12.0","","66","","0.0","","11","","4","","","","97.31","","","","-9","","NA"
"-139.84","67.57","OLD CROW RCS","2100805","2023-03-23 21:00","2023","03","23","21:00","-9.3","","-12.8","","76","","0.0","","24","","2","","","","97.39","","","","-10","","NA"
"-139.84","67.57","OLD CROW RCS","2100805","2023-03-23 22:00","2023","03","23","22:00","-10.0","","-12.9","","80","","0.0","","33","","1","","","","97.46","","","","-11","","NA"
"-139.84","67.57","OLD CROW RCS","2100805","2023-03-23 23:00","2023","03","23","23:00","-10.9","","-12.9","","85","","0.0","","7","","3","","","","97.55","","","","-13","","NA"
"-139.84","67.57","OLD CROW RCS","2100805","2023-03-24 00:00","2023","03","24","00:00","-10.1","","-11.8","","87","","0.0","","23","","11","","","","97.60","","","","-16","","NA"
"-139.84","67.57","OLD CROW RCS","2100805","2023-03-24 01:00","2023","03","24","01:00","-7.1","","-9.4","","84","","0.0","","26","","15","","","","97.66","","","","-13","","NA"
"-139.84","67.57","OLD CROW RCS","2100805","2023-03-24 02:00","2023","03","24","02:00","-7.0","","-9.8","","80","","0.0","","24","","12","","","","97.75","","","","-12","","NA"
"-139.84","67.57","OLD CROW RCS","2100805","2023-03-24 03:00","2023","03","24","03:00","-6.6","","-9.7","","78","","0.0","","23","","8","","","","97.80","","","","-10","","NA"
"-139.84","67.57","OLD CROW RCS","2100805","2023-03-24 04:00","2023","03","24","04:00","-6.3","","-9.6","","78","","0.0","","24","","14","","","","97.85","","","","-12","","NA"
"-139.84","67.57","OLD CROW RCS","2100805","2023-03-24 05:00","2023","03","24","05:00","-6.6","","-9.5","","80","","0.0","","23","","11","","","","97.94","","","","-12","","NA"
"-139.84","67.57","OLD CROW RCS","2100805","2023-03-24 06:00","2023","03","24","06:00","-7.5","","-10.1","","81","","0.0","","24","","13","","","","98.00","","","","-13","","NA"
"-139.84","67.57","OLD CROW RCS","2100805","2023-03-24 07:00","2023","03","24","07:00","-8.9","","-10.8","","86","","0.0","","21","","8","","","","98.06","","","","-13","","NA"
"-139.84","67.57","OLD CROW RCS","2100805","2023-03-24 08:00","2023","03","24","08:00","-9.7","","-11.0","","90","","0.0","","22","","3","","","","98.12","","","","-11","","NA"
"-139.84","67.57","OLD CROW RCS","2100805","2023-03-24 09:00","2023","03","24","09:00","-9.6","","-11.6","","85","","0.0","","34","","2","","","","98.19","","","","-11","","NA"
"-139.84","67.57","OLD CROW RCS","2100805","2023-03-24 10:00","2023","03","24","10:00","-7.3","","-11.1","","74","","0.0","","0","","1","","","","98.24","","","","-8","","NA"
"-139.84","67.57","OLD CROW RCS","2100805","2023-03-24 11:00","2023","03","24","11:00","-5.7","","-12.5","","59","","0.0","","21","","1","","","","98.24","","","","-6","","NA"
"-139.84","67.57","OLD CROW RCS","2100805","2023-03-24 12:00","2023","03","24","12:00","-3.9","","-12.3","","52","","0.0","","23","","3","","","","98.25","","","","-5","","NA"
"-139.84","67.57","OLD CROW RCS","2100805","2023-03-24 13:00","2023","03","24","13:00","-1.1","","-11.6","","45","","0.0","","14","","3","","","","98.29","","","","-2","","NA"
"-139.84","67.57","OLD CROW RCS","2100805","2023-03-24 14:00","2023","03","24","14:00","-0.7","","-11.6","","43","","0.0","","19","","4","","","","98.32","","","","-2","","NA"
"-139.84","67.57","OLD CROW RCS","2100805","2023-03-24 15:00","2023","03","24","15:00","0.3","","-10.5","","44","","0.0","","21","","2","","","","98.34","","","","","","NA"
"-139.84","67.57","OLD CROW RCS","2100805","2023-03-24 16:00","2023","03","24","16:00","-0.6","","-10.5","","47","","0.0","","15","","4","","","","98.37","","","","-2","","NA"
"-139.84","67.57","OLD CROW RCS","2100805","2023-03-24 17:00","2023","03","24","17:00","-0.4","","-9.1","","52","","0.0","","22","","4","","","","98.41","","","","-2","","NA"
"-139.84","67.57","OLD CROW RCS","2100805","2023-03-24 18:00","2023","03","24","18:00","-1.3","","-9.0","","56","","0.0","","0","","1","","","","98.44","","","","-2","","NA"
"-139.84","67.57","OLD CROW RCS","2100805","2023-03-24 19:00","2023","03","24","19:00","-2.7","","-8.4","","65","","0.0","","27","","10","","","","98.51","","","","-7","","NA"
"-139.84","67.57","OLD CROW RCS","2100805","2023-03-24 20:00","2023","03","24","20:00","-3.7","","-8.1","","71","","0.0","","27","","12","","","","98.57","","","","-8","","NA"
"-139.84","67.57","OLD CROW RCS","2100805","2023-03-24 21:00","2023","03","24","21:00","-4.7","","-8.2","","77","","0.0","","21","","5","","","","98.65","","","","-7","","NA"
"-139.84","67.57","OLD CROW RCS","2100805","2023-03-24 22:00","2023","03","24","22:00","-4.6","","-8.7","","73","","0.0","","25","","18","","","","98.69","","","","-11","","NA"
"-139.84","67.57","OLD CROW RCS","2100805","2023-03-24 23:00","2023","03","24","23:00","-5.9","","-10.6","","69","","0.0","","26","","14","","","","98.81","","","","-11","","NA"
"-139.84","67.57","OLD CROW RCS","2100805","2023-03-25 00:00","2023","03","25","00:00","-6.3","","-10.7","","71","","0.0","","24","","9","","","","98.88","","","","-11","","NA"
"-139.84","67.57","OLD CROW RCS","2100805","2023-03-25 01:00","2023","03","25","01:00","-7.2","","-11.5","","71","","0.0","","24","","9","","","","98.98","","","","-12","","NA"
"-139.84","67.57","OLD CROW RCS","2100805","2023-03-25 02:00","2023","03","25","02:00","-7.5","","-11.6","","72","","0.0","","26","","12","","","","99.11","","","","-13","","NA"
"-139.84","67.57","OLD CROW RCS","2100805","2023-03-25 03:00","2023","03","25","03:00","-8.4","","-12.5","","72","","0.0","","26","","9","","","","99.23","","","","-13","","NA"
"-139.84","67.57","OLD CROW RCS","2100805","2023-03-25 04:00","2023","03","25","04:00","-8.2","","-12.3","","73","","0.0","","24","","6","","","","99.36","","","","-11","","NA"
"-139.84","67.57","OLD CROW RCS","2100805","2023-03-25 05:00","2023","03","25","05:00","-9.0","","-13.4","","70","","0.0","","25","","17","","","","99.47","","","","-16","","NA"
"-139.84","67.57","OLD CROW RCS","2100805","2023-03-25 06:00","2023","03","25","06:00","-10.0","","-13.5","","76","","0.0","","25","","16","","","","99.63","","","","-17","","NA"
"-139.84","67.57","OLD CROW RCS","2100805","2023-03-25 07:00","2023","03","25","07:00","-10.8","","-16.1","","65","","0.0","","26","","19","","","","99.73","","","","-19","","NA"
"-139.84","67.57","OLD CROW RCS","2100805","2023-03-25 08:00","2023","03","25","08:00","-11.6","","-17.2","","63","","0.0","","25","","17","","","","99.85","","","","-19","","NA"
"-139.84","67.57","OLD CROW RCS","2100805","2023-03-25 09:00","2023","03","25","09:00","-12.2","","-17.6","","64","","0.0","","24","","15","","","","99.98","","","","-19","","NA"
"-139.84","67.57","OLD CROW RCS","2100805","2023-03-25 10:00","2023","03","25","10:00","-12.1","","-18.0","","61","","0.0","","24","","22","","","","100.05","","","","-21","","NA"
"-139.84","67.57","OLD CROW RCS","2100805","2023-03-25 11:00","2023","03","25","11:00","-11.7","","-19.1","","54","","0.0","","25","","20","","","","100.16","","","","-20","","NA"
"-139.84","67.57","OLD CROW RCS","2100805","2023-03-25 12:00","2023","03","25","12:00","-11.5","","-19.5","","52","","0.0","","26","","20","","","","100.25","","","","-20","","NA"
"-139.84","67.57","OLD CROW RCS","2100805","2023-03-25 13:00","2023","03","25","13:00","-10.7","","-19.5","","48","","0.0","","27","","24","","","","100.30","","","","-19","","NA"
"-139.84","67.57","OLD CROW RCS","2100805","2023-03-25 14:00","2023","03","25","14:00","-9.5","","-20.4","","41","","0.0","","25","","19","","","","100.36","","","","-17","","NA"
"-139.84","67.57","OLD CROW RCS","2100805","2023-03-25 15:00","2023","03","25","15:00","-8.8","","-20.3","","39","","0.0","","25","","15","","","","100.42","","","","-15","","NA"
"-139.84","67.57","OLD CROW RCS","2100805","2023-03-25 16:00","2023","03","25","16:00","-8.8","","-21.0","","37","","0.0","","26","","14","","","","100.45","","","","-15","","NA"
"-139.84","67.57","OLD CROW RCS","2100805","2023-03-25 17:00","2023","03","25","17:00","-8.5","","-21.0","","36","","0.0","","26","","15","","","","100.47","","","","-15","","NA"
"-139.84","67.57","OLD CROW RCS","2100805","2023-03-25 18:00","2023","03","25","18:00","-9.1","","-20.5","","39","","0.0","","26","","16","","","","100.49","","","","-16","","NA"
"-139.84","67.57","OLD CROW RCS","2100805","2023-03-25 19:00","2023","03","25","19:00","-9.8","","-20.5","","41","","0.0","","27","","12","","","","100.55","","","","-16","","NA"
"-139.84","67.57","OLD CROW RCS","2100805","2023-03-25 20:00","2023","03","25","20:00","-11.9","","-21.4","","45","","0.0","","30","","11","","","","100.58","","","","-18","","NA"
"-139.84","67.57","OLD CROW RCS","2100805","2023-03-25 21:00","2023","03","25","21:00","-14.3","","-22.1","","51","","0.0","","25","","7","","","","100.60","","","","-19","","NA"
"-139.84","67.57","OLD CROW RCS","2100805","2023-03-25 22:00","2023","03","25","22:00","-16.7","","-22.8","","59","","0.0","","27","","7","","","","100.62","","","","-22","","NA"
"-139.84","67.57","OLD CROW RCS","2100805","2023-03-25 23:00","2023","03","25","23:00","-20.1","","-24.4","","68","","0.0","","29","","2","","","","100.60","","","","-22","","NA"
"-139.84","67.57","OLD CROW RCS","2100805","2023-03-26 00:00","2023","03","26","00:00","-20.9","","-23.2","","82","","0.0","","12","","2","","","","100.63","","","","-23","","NA"
"-139.84","67.57","OLD CROW RCS","2100805","2023-03-26 01:00","2023","03","26","01:00","-24.0","","-26.5","","80","","0.0","","30","","3","","","","100.62","","","","-27","","NA"
"-139.84","67.57","OLD CROW RCS","2100805","2023-03-26 02:00","2023","03","26","02:00","-25.2","","-27.7","","80","","0.2","","31","","1","","","","100.56","","","","-26","","NA"
"-139.84","67.57","OLD CROW RCS","2100805","2023-03-26 03:00","2023","03","26","03:00","-25.7","","-28.1","","81","","0.0","","5","","3","","","","100.52","","","","-29","","NA"
"-139.84","67.57","OLD CROW RCS","2100805","2023-03-26 04:00","2023","03","26","04:00","-24.7","","-27.2","","80","","0.0","","7","","3","","","","100.50","","","","-28","","NA"
"-139.84","67.57","OLD CROW RCS","2100805","2023-03-26 05:00","2023","03","26","05:00","-24.9","","-27.5","","79","","0.0","","","","0","","","","100.46","","","","","","NA"
"-139.84","67.57","OLD CROW RCS","2100805","2023-03-26 06:00","2023","03","26","06:00","-25.7","","-28.2","","80","","0.0","","","","0","","","","100.41","","","","","","NA"
"-139.84","67.57","OLD CROW RCS","2100805","2023-03-26 07:00","2023","03","26","07:00","-26.3","","-28.2","","84","","0.0","","","","0","","","","100.31","","","","","","NA"
"-139.84","67.57","OLD CROW RCS","2100805","2023-03-26 08:00","2023","03","26","08:00","-25.9","","-28.4","","79","","0.0","","20","","1","","","","100.29","","","","-27","","NA"
"-139.84","67.57","OLD CROW RCS","2100805","2023-03-26 09:00","2023","03","26","09:00","-22.0","","-25.6","","73","","0.0","","","","0","","","","100.20","","","","","","NA"
"-139.84","67.57","OLD CROW RCS","2100805","2023-03-26 10:00","2023","03","26","10:00","-20.4","","-24.7","","69","","0.0","","","","0","","","","100.15","","","","","","NA"
"-139.84","67.57","OLD CROW RCS","2100805","2023-03-26 11:00","2023","03","26","11:00","-18.8","","-23.7","","65","","0.0","","21","","2","","","","100.04","","","","-20","","NA"
"-139.84","67.57","OLD CROW RCS","2100805","2023-03-26 12:00","2023","03","26","12:00","-16.3","","-21.8","","63","","0.0","","","","0","","","","99.93","","","","","","NA"
"-139.84","67.57","OLD CROW RCS","2100805","2023-03-26 13:00","2023","03","26","13:00","-15.0","","-21.2","","59","","0.0","","24","","3","","","","99.88","","","","-17","","NA"
"-139.84","67.57","OLD CROW RCS","2100805","2023-03-26 14:00","2023","03","26","14:00","-13.5","","-21.3","","52","","0.0","","28","","4","","","","99.79","","","","-16","","NA"
"-139.84","67.57","OLD CROW RCS","2100805","2023-03-26 15:00","2023","03","26","15:00","-11.2","","-19.0","","52","","0.0","","26","","5","","","","99.70","","","","-14","","NA"
"-139.84","67.57","OLD CROW RCS","2100805","2023-03-26 16:00","2023","03","26","16:00","-9.8","","-19.0","","47","","0.0","","28","","2","","","","99.62","","","","-11","","NA"
"-139.84","67.57","OLD CROW RCS","2100805","2023-03-26 17:00","2023","03","26","17:00","-8.0","","-17.7","","46","","0.0","","26","","2","","","","99.53","","","","-9","","NA"
"-139.84","67.57","OLD CROW RCS","2100805","2023-03-26 18:00","2023","03","26","18:00","-7.4","","-15.8","","51","","0.0","","27","","6","","","","99.49","","","","-11","","NA"
"-139.84","67.57","OLD CROW RCS","2100805","2023-03-26 19:00","2023","03","26","19:00","-6.9","","-15.1","","52","","0.0","","24","","4","","","","99.41","","","","-9","","NA"
"-139.84","67.57","OLD CROW RCS","2100805","2023-03-26 20:00","2023","03","26","20:00","-7.3","","-15.0","","54","","0.0","","24","","4","","","","99.37","","","","-9","","NA"
"-139.84","67.57","OLD CROW RCS","2100805","2023-03-26 21:00","2023","03","26","21:00","-8.2","","-14.2","","62","","0.0","","26","","4","","","","99.34","","","","-10","","NA"
"-139.84","67.57","OLD CROW RCS","2100805","2023-03-26 22:00","2023","03","26","22:00","-8.2","","-14.7","","59","","0.0","","22","","4","","","","99.28","","","","-10","","NA"
"-139.84","67.57","OLD CROW RCS","2100805","2023-03-26 23:00","2023","03","26","23:00","-8.7","","-14.7","","62","","0.0","","","","0","","","","99.27","","","","","","NA"
"-139.84","67.57","OLD CROW RCS","2100805","2023-03-27 00:00","2023","03","27","00:00","-9.8","","-14.3","","69","","0.0","","4","","3","","","","99.25","","","","-12","","NA"
"-139.84","67.57","OLD CROW RCS","2100805","2023-03-27 01:00","2023","03","27","01:00","-9.7","","-14.1","","70","","0.0","","33","","2","","","","99.20","","","","-11","","NA"
"-139.84","67.57","OLD CROW RCS","2100805","2023-03-27 02:00","2023","03","27","02:00","-10.1","","-13.8","","74","","0.0","","8","","2","","","","99.17","","","","-11","","NA"
"-139.84","67.57","OLD CROW RCS","2100805","2023-03-27 03:00","2023","03","27","03:00","-9.9","","-13.4","","75","","0.0","","7","","2","","","","99.13","","","","-11","","NA"
"-139.84","67.57","OLD CROW RCS","2100805","2023-03-27 04:00","2023","03","27","04:00","-9.0","","-13.2","","72","","0.0","","0","","1","","","","99.09","","","","-10","","NA"
"-139.84","67.57","OLD CROW RCS","2100805","2023-03-27 05:00","2023","03","27","05:00","-8.2","","-13.0","","69","","0.0","","8","","6","","","","99.08","","","","-11","","NA"
"-139.84","67.57","OLD CROW RCS","2100805","2023-03-27 06:00","2023","03","27","06:00","-9.3","","-13.2","","73","","0.0","","5","","5","","","","99.05","","","","-12","","NA"
"-139.84","67.57","OLD CROW RCS","2100805","2023-03-27 07:00","2023","03","27","07:00","-6.5","","-9.3","","80","","0.0","","24","","3","","","","99.03","","","","-8","","NA"
"-139.84","67.57","OLD CROW RCS","2100805","2023-03-27 08:00","2023","03","27","08:00","-4.3","","-6.8","","83","","0.0","","19","","5","","","","99.01","","","","-6","","NA"
"-139.84","67.57","OLD CROW RCS","2100805","2023-03-27 09:00","2023","03","27","09:00","-3.6","","-5.9","","84","","0.0","","12","","2","","","","99.00","","","","-4","","NA"
"-139.84","67.57","OLD CROW RCS","2100805","2023-03-27 10:00","2023","03","27","10:00"
"-139.84","67.57","OLD CROW RCS","2100805","2023-03-27 11:00","2023","03","27","11:00","-0.7","","-2.7","","86","","7.3","","25","","9","","","","99.00","","","","-4","","NA"
"-139.84","67.57","OLD CROW RCS","2100805","2023-03-27 12:00","2023","03","27","12:00","-0.3","","-1.6","","90","","0.0","","23","","12","","","","98.97","","","","-4","","NA"
"-139.84","67.57","OLD CROW RCS","2100805","2023-03-27 13:00","2023","03","27","13:00","0.4","","-1.2","","89","","0.2","","20","","5","","","","98.95","","","","","","NA"
"-139.84","67.57","OLD CROW RCS","2100805","2023-03-27 14:00","2023","03","27","14:00"
"-139.84","67.57","OLD CROW RCS","2100805","2023-03-27 15:00","2023","03","27","15:00","1.5","","-0.5","","86","","0.0","","22","","9","","","","98.87","","","","","","NA"
"-139.84","67.57","OLD CROW RCS","2100805","2023-03-27 16:00","2023","03","27","16:00","2.7","","-1.1","","76","","0.0","","23","","18","","","","98.79","","","","","","NA"
"-139.84","67.57","OLD CROW RCS","2100805","2023-03-27 17:00","2023","03","27","17:00","2.2","","-0.6","","82","","0.0","","26","","14","","","","98.73","","","","","","NA"
"-139.84","67.57","OLD CROW RCS","2100805","2023-03-27 18:00","2023","03","27","18:00","1.8","","-0.9","","82","","0.0","","27","","13","","","","98.65","","","","","","NA"
"-139.84","67.57","OLD CROW RCS","2100805","2023-03-27 19:00","2023","03","27","19:00","1.8","","-0.4","","85","","0.0","","26","","12","","","","98.62","","","","","","NA"
"-139.84","67.57","OLD CROW RCS","2100805","2023-03-27 20:00","2023","03","27","20:00","1.6","","-0.3","","87","","0.0","","24","","7","","","","98.63","","","","","","NA"
"-139.84","67.57","OLD CROW RCS","2100805","2023-03-27 21:00","2023","03","27","21:00","0.6","","0.0","","96","","0.2","","25","","14","","","","98.63","","","","","","NA"
"-139.84","67.57","OLD CROW RCS","2100805","2023-03-27 22:00","2023","03","27","22:00","0.7","","-0.2","","94","","0.0","","24","","16","","","","98.59","","","","","","NA"
"-139.84","67.57","OLD CROW RCS","2100805","2023-03-27 23:00","2023","03","27","23:00","-0.2","","-2.9","","82","","0.0","","27","","23","","","","98.63","","","","-6","","NA"
"-139.84","67.57","OLD CROW RCS","2100805","2023-03-28 00:00","2023","03","28","00:00","-0.9","","-3.5","","82","","0.0","","26","","14","","","","98.70","","","","-5","","NA"
"-139.84","67.57","OLD CROW RCS","2100805","2023-03-28 01:00","2023","03","28","01:00","-1.6","","-4.7","","80","","0.0","","26","","25","","","","98.75","","","","-8","","NA"
"-139.84","67.57","OLD CROW RCS","2100805","2023-03-28 02:00","2023","03","28","02:00","-2.5","","-5.7","","78","","0.0","","27","","18","","","","98.85","","","","-8","","NA"
"-139.84","67.57","OLD CROW RCS","2100805","2023-03-28 03:00","2023","03","28","03:00","-3.0","","-6.4","","77","","0.0","","25","","20","","","","98.88","","","","-9","","NA"
"-139.84","67.57","OLD CROW RCS","2100805","2023-03-28 04:00","2023","03","28","04:00","-3.9","","-6.6","","81","","0.0","","24","","12","","","","98.92","","","","-9","","NA"
"-139.84","67.57","OLD CROW RCS","2100805","2023-03-28 05:00","2023","03","28","05:00","-5.1","","-7.7","","82","","0.0","","21","","6","","","","98.95","","","","-8","","NA"
"-139.84","67.57","OLD CROW RCS","2100805","2023-03-28 06:00","2023","03","28","06:00","-4.8","","-8.1","","78","","0.2","","24","","15","","","","98.96","","","","-10","","NA"
"-139.84","67.57","OLD CROW RCS","2100805","2023-03-28 07:00","2023","03","28","07:00","-4.8","","-8.7","","74","","0.0","","25","","31","","","","98.93","","","","-13","","NA"
"-139.84","67.57","OLD CROW RCS","2100805","2023-03-28 08:00","2023","03","28","08:00","-5.6","","-9.9","","72","","0.0","","24","","19","","","","99.03","","","","-12","","NA"
"-139.84","67.57","OLD CROW RCS","2100805","2023-03-28 09:00","2023","03","28","09:00","-4.8","","-10.5","","65","","0.0","","25","","15","","","","99.05","","","","-10","","NA"
"-139.84","67.57","OLD CROW RCS","2100805","2023-03-28 10:00","2023","03","28","10:00","-5.1","","-10.3","","66","","0.0","","27","","27","","","","99.08","","","","-13","","NA"
"-139.84","67.57","OLD CROW RCS","2100805","2023-03-28 11:00","2023","03","28","11:00","-4.8","","-10.0","","67","","0.0","","26","","31","","","","99.07","","","","-13","","NA"
"-139.84","67.57","OLD CROW RCS","2100805","2023-03-28 12:00","2023","03","28","12:00","-4.2","","-10.7","","61","","0.0","","26","","29","","","","99.07","","","","-12","","NA"
"-139.84","67.57","OLD CROW RCS","2100805","2023-03-28 13:00","2023","03","28","13:00","-4.0","","-11.8","","55","","0.0","","25","","31","","","","99.13","","","","-12","","NA"
"-139.84","67.57","OLD CROW RCS","2100805","2023-03-28 14:00","2023","03","28","14:00","-3.7","","-11.6","","54","","0.0","","25","","28","","","","99.14","","","","-11","","NA"
"-139.84","67.57","OLD CROW RCS","2100805","2023-03-28 15:00","2023","03","28","15:00","-4.0","","-12.0","","54","","0.0","","27","","29","","","","99.19","","","","-12","","NA"
"-139.84","67.57","OLD CROW RCS","2100805","2023-03-28 16:00","2023","03","28","16:00","-4.3","","-11.5","","57","","0.0","","26","","23","","","","99.23","","","","-11","","NA"
"-139.84","67.57","OLD CROW RCS","2100805","2023-03-28 17:00","2023","03","28","17:00","-4.2","","-12.8","","51","","0.0","","26","","27","","","","99.21","","","","-12","","NA"
"-139.84","67.57","OLD CROW RCS","2100805","2023-03-28 18:00","2023","03","28","18:00","-4.3","","-12.8","","51","","0.0","","27","","26","","","","99.26","","","","-12","","NA"
"-139.84","67.57","OLD CROW RCS","2100805","2023-03-28 19:00","2023","03","28","19:00","-4.9","","-12.8","","54","","0.0","","28","","15","","","","99.32","","","","-10","","NA"
"-139.84","67.57","OLD CROW RCS","2100805","2023-03-28 20:00","2023","03","28","20:00","-8.6","","-14.2","","64","","0.0","","11","","5","","","","99.40","","","","-11","","NA"
"-139.84","67.57","OLD CROW RCS","2100805","2023-03-28 21:00","2023","03","28","21:00","-11.9","","-15.1","","77","","0.0","","9","","5","","","","99.47","","","","-15","","NA"
"-139.84","67.57","OLD CROW RCS","2100805","2023-03-28 22:00","2023","03","28","22:00","-13.6","","-16.2","","81","","0.0","","18","","3","","","","99.53","","","","-16","","NA"
"-139.84","67.57","OLD CROW RCS","2100805","2023-03-28 23:00","2023","03","28","23:00","-12.8","","-15.5","","80","","0.0","","4","","15","","","","99.56","","","","-20","","NA"
"-139.84","67.57","OLD CROW RCS","2100805","2023-03-29 00:00","2023","03","29","00:00","-16.3","","-18.5","","83","","0.0","","3","","5","","","","99.61","","","","-20","","NA"
"-139.84","67.57","OLD CROW RCS","2100805","2023-03-29 01:00","2023","03","29","01:00","-19.5","","-21.1","","88","","0.2","","26","","2","","","","99.63","","","","-21","","NA"
"-139.84","67.57","OLD CROW RCS","2100805","2023-03-29 02:00","2023","03","29","02:00","-21.8","","-23.5","","86","","0.0","","","","0","","","","99.64","","","","","","NA"
"-139.84","67.57","OLD CROW RCS","2100805","2023-03-29 03:00","2023","03","29","03:00","-22.6","","-24.3","","86","","0.0","","35","","2","","","","99.62","","","","-24","","NA"
"-139.84","67.57","OLD CROW RCS","2100805","2023-03-29 04:00","2023","03","29","04:00","-23.2","","-24.9","","86","","0.0","","0","","1","","","","99.57","","","","-24","","NA"
"-139.84","67.57","OLD CROW RCS","2100805","2023-03-29 05:00","2023","03","29","05:00","-24.2","","-26.2","","84","","0.2","","32","","1","","","","99.55","","","","-25","","NA"
"-139.84","67.57","OLD CROW RCS","2100805","2023-03-29 06:00","2023","03","29","06:00","-24.7","","-26.8","","83","","0.0","","7","","4","","","","99.54","","","","-29","","NA"
"-139.84","67.57","OLD CROW RCS","2100805","2023-03-29 07:00","2023","03","29","07:00","-24.9","","-27.1","","82","","0.0","","","","0","","","","99.51","","","","","","NA"
"-139.84","67.57","OLD CROW RCS","2100805","2023-03-29 08:00","2023","03","29","08:00","-23.4","","-25.5","","83","","0.0","","28","","3","","","","99.47","","","","-26","","NA"
"-139.84","67.57","OLD CROW RCS","2100805","2023-03-29 09:00","2023","03","29","09:00","-22.5","","-25.3","","78","","0.0","","26","","3","","","","99.45","","","","-25","","NA"
"-139.84","67.57","OLD CROW RCS","2100805","2023-03-29 10:00","2023","03","29","10:00","-19.6","","-23.5","","72","","0.0","","23","","3","","","","99.41","","","","-22","","NA"
"-139.84","67.57","OLD CROW RCS","2100805","2023-03-29 11:00","2023","03","29","11:00","-17.0","","-21.8","","66","","0.0","","28","","3","","","","99.33","","","","-19","","NA"
"-139.84","67.57","OLD CROW RCS","2100805","2023-03-29 12:00","2023","03","29","12:00","-12.8","","-19.2","","59","","0.0","","15","","3","","","","99.26","","","","-15","","NA"
"-139.84","67.57","OLD CROW RCS","2100805","2023-03-29 13:00","2023","03","29","13:00","-10.7","","-17.8","","56","","0.0","","9","","9","","","","99.17","","","","-16","","NA"
"-139.84","67.57","OLD CROW RCS","2100805","2023-03-29 14:00","2023","03","29","14:00","-9.5","","-17.3","","53","","0.0","","5","","11","","","","99.09","","","","-15","","NA"
"-139.84","67.57","OLD CROW RCS","2100805","2023-03-29 15:00","2023","03","29","15:00","-9.0","","-17.0","","52","","0.0","","6","","12","","","","99.02","","","","-15","","NA"
"-139.84","67.57","OLD CROW RCS","2100805","2023-03-29 16:00","2023","03","29","16:00","-9.8","","-16.6","","57","","0.0","","4","","17","","","","98.94","","","","-17","","NA"
"-139.84","67.57","OLD CROW RCS","2100805","2023-03-29 17:00","2023","03","29","17:00","-10.5","","-17.0","","59","","0.0","","4","","21","","","","98.86","","","","-19","","NA"
"-139.84","67.57","OLD CROW RCS","2100805","2023-03-29 18:00","2023","03","29","18:00","-11.1","","-17.0","","62","","0.0","","5","","19","","","","98.78","","","","-19","","NA"
"-139.84","67.57","OLD CROW RCS","2100805","2023-03-29 19:00","2023","03","29","19:00","-11.7","","-17.3","","63","","0.0","","6","","14","","","","98.72","","","","-19","","NA"
"-139.84","67.57","OLD CROW RCS","2100805","2023-03-29 20:00","2023","03","29","20:00","-13.1","","-17.4","","70","","0.0","","9","","12","","","","98.69","","","","-20","","NA"
"-139.84","67.57","OLD CROW RCS","2100805","2023-03-29 21:00","2023","03","29","21:00","-14.3","","-17.6","","76","","0.0","","8","","12","","","","98.64","","","","-21","","NA"
"-139.84","67.57","OLD CROW RCS","2100805","2023-03-29 22:00","2023","03","29","22:00","-13.4","","-16.6","","77","","0.0","","7","","7","","","","98.57","","","","-18","","NA"
"-139.84","67.57","OLD CROW RCS","2100805","2023-03-29 23:00","2023","03","29","23:00","-15.5","","-17.9","","82","","0.0","","7","","10","","","","98.52","","","","-22","","NA"
"-139.84","67.57","OLD CROW RCS","2100805","2023-03-30 00:00","2023","03","30","00:00","-17.0","","-19.5","","81","","0.0","","8","","9","","","","98.47","","","","-23","","NA"
"-139.84","67.57","OLD CROW RCS","2100805","2023-03-30 01:00","2023","03","30","01:00","-19.0","","-21.4","","81","","0.0","","8","","7","","","","98.42","","","","-24","","NA"
"-139.84","67.57","OLD CROW RCS","2100805","2023-03-30 02:00","2023","03","30","02:00","-19.0","","-20.9","","85","","0.0","","9","","5","","","","98.37","","","","-23","","NA"
"-139.84","67.57","OLD CROW RCS","2100805","2023-03-30 03:00","2023","03","30","03:00","-19.5","","-21.7","","83","","0.0","","10","","12","","","","98.31","","","","-27","","NA"
"-139.84","67.57","OLD CROW RCS","2100805","2023-03-30 04:00","2023","03","30","04:00","-20.1","","-21.8","","87","","0.0","","9","","7","","","","98.26","","","","-26","","NA"
"-139.84","67.57","OLD CROW RCS","2100805","2023-03-30 05:00","2023","03","30","05:00","-20.8","","-22.6","","86","","0.0","","8","","9","","","","98.21","","","","-28","","NA"
"-139.84","67.57","OLD CROW RCS","2100805","2023-03-30 06:00","2023","03","30","06:00","-21.3","","-23.2","","84","","0.0","","7","","6","","","","98.16","","","","-27","","NA"
"-139.84","67.57","OLD CROW RCS","2100805","2023-03-30 07:00","2023","03","30","07:00","-21.8","","-23.8","","83","","0.0","","7","","6","","","","98.15","","","","-27","","NA"
"-139.84","67.57","OLD CROW RCS","2100805","2023-03-30 08:00","2023","03","30","08:00","-20.8","","-23.2","","81","","0.0","","8","","9","","","","98.12","","","","-28","","NA"
"-139.84","67.57","OLD CROW RCS","2100805","2023-03-30 09:00","2023","03","30","09:00","-14.7","","-18.7","","71","","0.0","","6","","16","","","","98.07","","","","-23","","NA"
"-139.84","67.57","OLD CROW RCS","2100805","2023-03-30 10:00","2023","03","30","10:00","-13.3","","-18.4","","65","","0.0","","5","","16","","","","98.03","","","","-21","","NA"
"-139.84","67.57","OLD CROW RCS","2100805","2023-03-30 11:00","2023","03","30","11:00","-12.1","","-18.1","","61","","0.0","","6","","15","","","","98.00","","","","-19","","NA"
"-139.84","67.57","OLD CROW RCS","2100805","2023-03-30 12:00","2023","03","30","12:00","-10.5","","-18.3","","53","","0.0","","6","","10","","","","97.97","","","","-16","","NA"
"-139.84","67.57","OLD CROW RCS","2100805","2023-03-30 13:00","2023","03","30","13:00","-8.4","","-17.4","","48","","0.0","","11","","10","","","","97.93","","","","-13","","NA"
"-139.84","67.57","OLD CROW RCS","2100805","2023-03-30 14:00","2023","03","30","14:00","-7.7","","-17.4","","45","","0.0","","11","","11","","","","97.88","","","","-13","","NA"
"-139.84","67.57","OLD CROW RCS","2100805","2023-03-30 15:00","2023","03","30","15:00","-7.5","","-17.9","","43","","0.0","","11","","8","","","","97.83","","","","-12","","NA"
"-139.84","67.57","OLD CROW RCS","2100805","2023-03-30 16:00","2023","03","30","16:00","-7.0","","-17.6","","42","","0.0","","11","","10","","","","97.77","","","","-12","","NA"
"-139.84","67.57","OLD CROW RCS","2100805","2023-03-30 17:00","2023","03","30","17:00","-7.4","","-17.3","","45","","0.0","","10","","11","","","","97.72","","","","-12","","NA"
"-139.84","67.57","OLD CROW RCS","2100805","2023-03-30 18:00","2023","03","30","18:00","-8.1","","-16.9","","49","","0.0","","10","","12","","","","97.69","","","","-14","","NA"
"-139.84","67.57","OLD CROW RCS","2100805","2023-03-30 19:00","2023","03","30","19:00","-9.0","","-16.6","","54","","0.0","","8","","11","","","","97.68","","","","-14","","NA"
"-139.84","67.57","OLD CROW RCS","2100805","2023-03-30 20:00","2023","03","30","20:00","-10.9","","-16.8","","62","","0.0","","6","","13","","","","97.68","","","","-17","","NA"
"-139.84","67.57","OLD CROW RCS","2100805","2023-03-30 21:00","2023","03","30","21:00","-11.7","","-16.8","","66","","0.0","","4","","12","","","","97.68","","","","-18","","NA"
"-139.84","67.57","OLD CROW RCS","2100805","2023-03-30 22:00","2023","03","30","22:00","-12.1","","-16.9","","68","","0.0","","5","","12","","","","97.71","","","","-18","","NA"
"-139.84","67.57","OLD CROW RCS","2100805","2023-03-30 23:00","2023","03","30","23:00","-12.6","","-16.9","","70","","0.0","","5","","9","","","","97.70","","","","-18","","NA"
"-139.84","67.57","OLD CROW RCS","2100805","2023-03-31 00:00","2023","03","31","00:00","-13.4","","-17.6","","70","","0.0","","6","","13","","","","97.70","","","","-20","","NA"
"-139.84","67.57","OLD CROW RCS","2100805","2023-03-31 01:00","2023","03","31","01:00","-13.4","","-17.6","","71","","0.0","","4","","12","","","","97.68","","","","-20","","NA"
"-139.84","67.57","OLD CROW RCS","2100805","2023-03-31 02:00","2023","03","31","02:00","-13.8","","-17.9","","71","","0.0","","4","","12","","","","97.65","","","","-21","","NA"
"-139.84","67.57","OLD CROW RCS","2100805","2023-03-31 03:00","2023","03","31","03:00","-13.2","","-17.6","","69","","0.0","","4","","13","","","","97.64","","","","-20","","NA"
"-139.84","67.57","OLD CROW RCS","2100805","2023-03-31 04:00","2023","03","31","04:00","-13.7","","-18.0","","70","","0.0","","3","","7","","","","97.62","","","","-18","","NA"
"-139.84","67.57","OLD CROW RCS","2100805","2023-03-31 05:00","2023","03","31","05:00","-13.8","","-18.2","","69","","0.0","","4","","11","","","","97.60","","","","-20","","NA"
"-139.84","67.57","OLD CROW RCS","2100805","2023-03-31 06:00","2023","03","31","06:00","-14.4","","-18.8","","69","","0.0","","4","","11","","","","97.60","","","","-21","","NA"
"-139.84","67.57","OLD CROW RCS","2100805","2023-03-31 07:00","2023","03","31","07:00","-14.4","","-18.9","","69","","0.0","","3","","12","","","","97.58","","","","-21","","NA"
"-139.84","67.57","OLD CROW RCS","2100805","2023-03-31 08:00","2023","03","31","08:00","-13.5","","-18.8","","64","","0.0","","5","","16","","","","97.56","","","","-21","","NA"
"-139.84","67.57","OLD CROW RCS","2100805","2023-03-31 09:00","2023","03","31","09:00","-12.7","","-19.0","","59","","0.0","","4","","13","","","","97.53","","","","-20","","NA"
"-139.84","67.57","OLD CROW RCS","2100805","2023-03-31 10:00","2023","03","31","10:00","-11.2","","-18.5","","55","","0.0","","4","","18","","","","97.50","","","","-19","","NA"
"-139.84","67.57","OLD CROW RCS","2100805","2023-03-31 11:00","2023","03","31","11:00","-10.4","","-18.2","","53","","0.0","","4","","17","","","","97.49","","","","-18","","NA"
"-139.84","67.57","OLD CROW RCS","2100805","2023-03-31 12:00","2023","03","31","12:00","-10.1","","-18.0","","52","","0.0","","5","","17","","","","97.49","","","","-17","","NA"
"-139.84","67.57","OLD CROW RCS","2100805","2023-03-31 13:00","2023","03","31","13:00","-9.3","","-18.1","","49","","0.0","","5","","16","","","","97.47","","","","-16","","NA"
"-139.84","67.57","OLD CROW RCS","2100805","2023-03-31 14:00","2023","03","31","14:00","-8.9","","-18.3","","46","","0.0","","5","","18","","","","97.46","","","","-16","","NA"
"-139.84","67.57","OLD CROW RCS","2100805","2023-03-31 15:00","2023","03","31","15:00","-8.6","","-17.7","","48","","0.0","","5","","17","","","","97.42","","","","-15","","NA"
"-139.84","67.57","OLD CROW RCS","2100805","2023-03-31 16:00","2023","03","31","16:00","-9.6","","-18.4","","49","","0.0","","5","","21","","","","97.39","","","","-18","","NA"
"-139.84","67.57","OLD CROW RCS","2100805","2023-03-31 17:00","2023","03","31","17:00","-9.4","","-19.0","","46","","0.0","","4","","18","","","","97.40","","","","-17","","NA"
"-139.84","67.57","OLD CROW RCS","2100805","2023-03-31 18:00","2023","03","31","18:00","-10.0","","-20.2","","43","","0.0","","5","","17","","","","97.40","","","","-17","","NA"
"-139.84","67.57","OLD CROW RCS","2100805","2023-03-31 19:00","2023","03","31","19:00","-10.3","","-19.9","","45","","0.0","","2","","22","","","","97.41","","","","-19","","NA"
"-139.84","67.57","OLD CROW RCS","2100805","2023-03-31 20:00","2023","03","31","20:00","-11.7","","-19.8","","51","","0.0","","6","","13","","","","97.46","","","","-18","","NA"
"-139.84","67.57","OLD CROW RCS","2100805","2023-03-31 21:00","2023","03","31","21:00","-12.4","","-19.2","","57","","0.0","","7","","9","","","","97.50","","","","-18","","NA"
"-139.84","67.57","OLD CROW RCS","2100805","2023-03-31 22:00","2023","03","31","22:00","-13.1","","-18.7","","63","","0.0","","6","","10","","","","97.55","","","","-19","","NA"
"-139.84","67.57","OLD CROW RCS","2100805","2023-03-31 23:00","2023","03","31","23:00","-14.2","","-18.7","","69","","0.0","","5","","7","","","","97.58","","","","-19","","NA"
