"Longitude (x)","Latitude (y)","Station Name","Climate ID","Date/Time (LST)","Year","Month","Day","Time (LST)","Temp (°C)","Temp Flag","Dew Point Temp (°C)","Dew Point Temp Flag","Rel Hum (%)","Rel Hum Flag","Precip. Amount (mm)","Precip. Amount Flag","Wind Dir (10s deg)","Wind Dir Flag","Wind Spd (km/h)","Wind Spd Flag","Visibility (km)","Visibility Flag","Stn Press (kPa)","Stn Press Flag","Hmdx","Hmdx Flag","Wind Chill","Wind Chill Flag","Weather"
"-63.12","46.29","CHARLOTTETOWN A","8300301","2022-12-01 00:00","2022","12","01","00:00","6.2","","3.2","","81","","","","14","","43","","24.1","","100.71","","","","","","NA"
"-63.12","46.29","CHARLOTTETOWN A","8300301","2022-12-01 01:00","2022","12","01","01:00","6.9","","4.5","","84","","","","14","","39","","24.1","","100.49","","","","","","NA"
"-63.12","46.29","CHARLOTTETOWN A","8300301","2022-12-01 02:00","2022","12","01","02:00","8.7","","5.7","","82","","","","15","","50","","24.1","","100.17","","","","","","Cloudy"
"-63.12","46.29","CHARLOTTETOWN A","8300301","2022-12-01 03:00","2022","12","01","03:00","9.4","","6.5","","82","","","","14","","52","","24.1","","99.92","","","","","","NA"
"-63.12","46.29","CHARLOTTETOWN A","8300301","2022-12-01 04:00","2022","12","01","04:00","10.3","","7.7","","83","","","","15","","48","","24.1","","99.66","","","","","","NA"
"-63.12","46.29","CHARLOTTETOWN A","8300301","2022-12-01 05:00","2022","12","01","05:00","10.6","","8.9","","90","","","","15","","53","","12.9","","99.39","","","","","","Rain"
"-63.12","46.29","CHARLOTTETOWN A","8300301","2022-12-01 06:00","2022","12","01","06:00","10.5","","9.7","","94","","","","15","","53","","12.9","","99.19","","","","","","Moderate Rain"
"-63.12","46.29","CHARLOTTETOWN A","8300301","2022-12-01 07:00","2022","12","01","07:00","10.6","","9.8","","94","","","","16","","52","","8.1","","99.08","","","","","","Moderate Rain"
"-63.12","46.29","CHARLOTTETOWN A","8300301","2022-12-01 08:00","2022","12","01","08:00","10.1","","9.7","","98","","","","20","","32","","6.4","","99.18","","","","","","Heavy Rain"
"-63.12","46.29","CHARLOTTETOWN A","8300301","2022-12-01 09:00","2022","12","01","09:00","3.9","","1.9","","87","","","","28","","27","","24.1","","99.39","","","","","","Rain"
"-63.12","46.29","CHARLOTTETOWN A","8300301","2022-12-01 10:00","2022","12","01","10:00","3.4","","1.5","","87","","","","27","","18","","24.1","","99.40","","","","","","Rain"
"-63.12","46.29","CHARLOTTETOWN A","8300301","2022-12-01 11:00","2022","12","01","11:00","4.0","","0.8","","80","","","","27","","20","","24.1","","99.49","","","","","","Mostly Cloudy"
"-63.12","46.29","CHARLOTTETOWN A","8300301","2022-12-01 12:00","2022","12","01","12:00","4.0","","-0.5","","72","","","","26","","29","","24.1","","99.52","","","","","","NA"
"-63.12","46.29","CHARLOTTETOWN A","8300301","2022-12-01 13:00","2022","12","01","13:00","3.6","","-2.1","","66","","","","26","","35","","24.1","","99.61","","","","","","NA"
"-63.12","46.29","CHARLOTTETOWN A","8300301","2022-12-01 14:00","2022","12","01","14:00","3.2","","-2.6","","66","","","","27","","25","","24.1","","99.69","","","","","","Mostly Cloudy"
"-63.12","46.29","CHARLOTTETOWN A","8300301","2022-12-01 15:00","2022","12","01","15:00","2.6","","-3.7","","63","","","","26","","21","","24.1","","99.82","","","","","","NA"
"-63.12","46.29","CHARLOTTETOWN A","8300301","2022-12-01 16:00","2022","12","01","16:00","2.3","","-5.0","","59","","","","26","","22","","24.1","","99.93","","","","","","NA"
"-63.12","46.29","CHARLOTTETOWN A","8300301","2022-12-01 17:00","2022","12","01","17:00","2.0","","-5.4","","58","","","","26","","24","","24.1","","100.07","","","","","","Mostly Cloudy"
"-63.12","46.29","CHARLOTTETOWN A","8300301","2022-12-01 18:00","2022","12","01","18:00","1.6","","-6.1","","57","","","","25","","19","","24.1","","100.19","","","","","","NA"
"-63.12","46.29","CHARLOTTETOWN A","8300301","2022-12-01 19:00","2022","12","01","19:00","1.1","","-5.8","","60","","","","25","","15","","24.1","","100.29","","","","","","NA"
"-63.12","46.29","CHARLOTTETOWN A","8300301","2022-12-01 20:00","2022","12","01","20:00","0.7","","-6.3","","60","","","","25","","21","","24.1","","100.36","","","","","","Mainly Clear"
"-63.12","46.29","CHARLOTTETOWN A","8300301","2022-12-01 21:00","2022","12","01","21:00","0.2","","-5.5","","66","","","","26","","20","","24.1","","100.44","","","","","","NA"
"-63.12","46.29","CHARLOTTETOWN A","8300301","2022-12-01 22:00","2022","12","01","22:00","-0.1","","-5.6","","67","","","","25","","28","","24.1","","100.52","","","","-6","","NA"
"-63.12","46.29","CHARLOTTETOWN A","8300301","2022-12-01 23:00","2022","12","01","23:00","-0.2","","-5.9","","65","","","","26","","27","","24.1","","100.63","","","","-6","","Mainly Clear"
"-63.12","46.29","CHARLOTTETOWN A","8300301","2022-12-02 00:00","2022","12","02","00:00","-0.5","","-6.7","","63","","","","27","","27","","24.1","","100.73","","","","-7","","NA"
"-63.12","46.29","CHARLOTTETOWN A","8300301","2022-12-02 01:00","2022","12","02","01:00","-0.2","","-7.2","","59","","","","27","","36","","24.1","","100.86","","","","-7","","NA"
"-63.12","46.29","CHARLOTTETOWN A","8300301","2022-12-02 02:00","2022","12","02","02:00","-0.6","","-7.9","","58","","","","28","","28","","24.1","","100.98","","","","-7","","Mostly Cloudy"
"-63.12","46.29","CHARLOTTETOWN A","8300301","2022-12-02 03:00","2022","12","02","03:00","-1.0","","-8.6","","57","","","","27","","30","","24.1","","101.11","","","","-8","","NA"
"-63.12","46.29","CHARLOTTETOWN A","8300301","2022-12-02 04:00","2022","12","02","04:00","-1.4","","-8.5","","59","","","","28","","21","","24.1","","101.20","","","","-7","","NA"
"-63.12","46.29","CHARLOTTETOWN A","8300301","2022-12-02 05:00","2022","12","02","05:00","-1.6","","-8.7","","59","","","","28","","18","","24.1","","101.37","","","","-7","","Mainly Clear"
"-63.12","46.29","CHARLOTTETOWN A","8300301","2022-12-02 06:00","2022","12","02","06:00","-1.9","","-8.5","","61","","","","28","","17","","24.1","","101.50","","","","-7","","NA"
"-63.12","46.29","CHARLOTTETOWN A","8300301","2022-12-02 07:00","2022","12","02","07:00","-2.0","","-8.9","","59","","","","28","","17","","24.1","","101.71","","","","-7","","NA"
"-63.12","46.29","CHARLOTTETOWN A","8300301","2022-12-02 08:00","2022","12","02","08:00","-1.9","","-9.3","","57","","","","28","","24","","24.1","","101.86","","","","-8","","Mostly Cloudy"
"-63.12","46.29","CHARLOTTETOWN A","8300301","2022-12-02 09:00","2022","12","02","09:00","-1.5","","-9.1","","56","","","","27","","21","","24.1","","102.02","","","","-7","","NA"
"-63.12","46.29","CHARLOTTETOWN A","8300301","2022-12-02 10:00","2022","12","02","10:00","-0.8","","-8.9","","54","","","","28","","17","","24.1","","102.08","","","","-6","","NA"
"-63.12","46.29","CHARLOTTETOWN A","8300301","2022-12-02 11:00","2022","12","02","11:00","-1.2","","-9.0","","55","","","","30","","18","","24.1","","102.17","","","","-6","","Mostly Cloudy"
"-63.12","46.29","CHARLOTTETOWN A","8300301","2022-12-02 12:00","2022","12","02","12:00","-0.6","","-8.3","","56","","","","26","","19","","24.1","","102.17","","","","-6","","NA"
"-63.12","46.29","CHARLOTTETOWN A","8300301","2022-12-02 13:00","2022","12","02","13:00","-1.1","","-8.5","","57","","","","29","","18","","24.1","","102.14","","","","-6","","NA"
"-63.12","46.29","CHARLOTTETOWN A","8300301","2022-12-02 14:00","2022","12","02","14:00","-1.1","","-8.4","","58","","","","27","","21","","24.1","","102.22","","","","-7","","Mostly Cloudy"
"-63.12","46.29","CHARLOTTETOWN A","8300301","2022-12-02 15:00","2022","12","02","15:00","-0.9","","-7.7","","60","","","","26","","16","","24.1","","102.32","","","","-6","","NA"
"-63.12","46.29","CHARLOTTETOWN A","8300301","2022-12-02 16:00","2022","12","02","16:00","-0.6","","-8.2","","57","","","","26","","12","","24.1","","102.42","","","","-5","","NA"
"-63.12","46.29","CHARLOTTETOWN A","8300301","2022-12-02 17:00","2022","12","02","17:00","-1.6","","-8.1","","62","","","","25","","8","","24.1","","102.48","","","","-5","","Mainly Clear"
"-63.12","46.29","CHARLOTTETOWN A","8300301","2022-12-02 18:00","2022","12","02","18:00","-1.8","","-8.4","","61","","","","23","","8","","24.1","","102.57","","","","-5","","NA"
"-63.12","46.29","CHARLOTTETOWN A","8300301","2022-12-02 19:00","2022","12","02","19:00","-2.1","","-8.6","","61","","","","24","","6","","24.1","","102.67","","","","-4","","NA"
"-63.12","46.29","CHARLOTTETOWN A","8300301","2022-12-02 20:00","2022","12","02","20:00","-2.5","","-8.8","","62","","","","25","","5","","24.1","","102.73","","","","-4","","Mainly Clear"
"-63.12","46.29","CHARLOTTETOWN A","8300301","2022-12-02 21:00","2022","12","02","21:00","-3.3","","-9.1","","64","","","","36","","3","","24.1","","102.77","","","","-5","","NA"
"-63.12","46.29","CHARLOTTETOWN A","8300301","2022-12-02 22:00","2022","12","02","22:00","-3.8","","-8.4","","70","","","","21","","8","","24.1","","102.79","","","","-7","","NA"
"-63.12","46.29","CHARLOTTETOWN A","8300301","2022-12-02 23:00","2022","12","02","23:00","-3.4","","-7.8","","72","","","","19","","7","","24.1","","102.83","","","","-6","","Clear"
"-63.12","46.29","CHARLOTTETOWN A","8300301","2022-12-03 00:00","2022","12","03","00:00","-4.3","","-8.1","","75","","","","14","","5","","24.1","","102.81","","","","-6","","NA"
"-63.12","46.29","CHARLOTTETOWN A","8300301","2022-12-03 01:00","2022","12","03","01:00","-5.2","","-8.0","","80","","","","14","","7","","24.1","","102.82","","","","-8","","NA"
"-63.12","46.29","CHARLOTTETOWN A","8300301","2022-12-03 02:00","2022","12","03","02:00","-5.6","","-6.9","","90","","","","11","","5","","24.1","","102.83","","","","-8","","Mainly Clear"
"-63.12","46.29","CHARLOTTETOWN A","8300301","2022-12-03 03:00","2022","12","03","03:00","-4.8","","-6.3","","89","","","","13","","7","","24.1","","102.79","","","","-8","","NA"
"-63.12","46.29","CHARLOTTETOWN A","8300301","2022-12-03 04:00","2022","12","03","04:00","-4.3","","-6.8","","83","","","","14","","10","","24.1","","102.74","","","","-8","","NA"
"-63.12","46.29","CHARLOTTETOWN A","8300301","2022-12-03 05:00","2022","12","03","05:00","-4.0","","-5.5","","89","","","","14","","8","","24.1","","102.75","","","","-7","","Clear"
"-63.12","46.29","CHARLOTTETOWN A","8300301","2022-12-03 06:00","2022","12","03","06:00","-0.7","","-4.2","","77","","","","17","","19","","24.1","","102.68","","","","-6","","NA"
"-63.12","46.29","CHARLOTTETOWN A","8300301","2022-12-03 07:00","2022","12","03","07:00","-0.5","","-3.7","","79","","","","17","","19","","24.1","","102.68","","","","-6","","NA"
"-63.12","46.29","CHARLOTTETOWN A","8300301","2022-12-03 08:00","2022","12","03","08:00","-0.3","","-3.2","","81","","","","15","","15","","24.1","","102.66","","","","-5","","Mostly Cloudy"
"-63.12","46.29","CHARLOTTETOWN A","8300301","2022-12-03 09:00","2022","12","03","09:00","1.9","","-1.7","","77","","","","16","","23","","24.1","","102.52","","","","","","NA"
"-63.12","46.29","CHARLOTTETOWN A","8300301","2022-12-03 10:00","2022","12","03","10:00","3.8","","-0.9","","71","","","","16","","31","","24.1","","102.41","","","","","","NA"
"-63.12","46.29","CHARLOTTETOWN A","8300301","2022-12-03 11:00","2022","12","03","11:00","4.8","","-0.5","","69","","","","16","","34","","24.1","","102.29","","","","","","Mostly Cloudy"
"-63.12","46.29","CHARLOTTETOWN A","8300301","2022-12-03 12:00","2022","12","03","12:00","5.2","","0.0","","69","","","","15","","43","","24.1","","102.08","","","","","","NA"
"-63.12","46.29","CHARLOTTETOWN A","8300301","2022-12-03 13:00","2022","12","03","13:00","5.7","","1.1","","72","","","","16","","34","","24.1","","101.96","","","","","","NA"
"-63.12","46.29","CHARLOTTETOWN A","8300301","2022-12-03 14:00","2022","12","03","14:00","6.8","","2.8","","75","","","","16","","31","","24.1","","101.80","","","","","","Mostly Cloudy"
"-63.12","46.29","CHARLOTTETOWN A","8300301","2022-12-03 15:00","2022","12","03","15:00","7.4","","3.7","","77","","","","16","","30","","24.1","","101.70","","","","","","NA"
"-63.12","46.29","CHARLOTTETOWN A","8300301","2022-12-03 16:00","2022","12","03","16:00","7.4","","4.3","","81","","","","16","","34","","24.1","","101.56","","","","","","NA"
"-63.12","46.29","CHARLOTTETOWN A","8300301","2022-12-03 17:00","2022","12","03","17:00","7.9","","4.8","","81","","","","16","","36","","24.1","","101.43","","","","","","Mostly Cloudy"
"-63.12","46.29","CHARLOTTETOWN A","8300301","2022-12-03 18:00","2022","12","03","18:00","8.2","","5.0","","80","","","","16","","37","","24.1","","101.37","","","","","","NA"
"-63.12","46.29","CHARLOTTETOWN A","8300301","2022-12-03 19:00","2022","12","03","19:00","8.2","","5.2","","81","","","","16","","34","","24.1","","101.23","","","","","","NA"
"-63.12","46.29","CHARLOTTETOWN A","8300301","2022-12-03 20:00","2022","12","03","20:00","8.7","","5.9","","83","","","","16","","37","","24.1","","101.10","","","","","","Cloudy"
"-63.12","46.29","CHARLOTTETOWN A","8300301","2022-12-03 21:00","2022","12","03","21:00","9.0","","6.5","","84","","","","17","","37","","24.1","","100.96","","","","","","Rain"
"-63.12","46.29","CHARLOTTETOWN A","8300301","2022-12-03 22:00","2022","12","03","22:00","9.8","","7.2","","84","","","","16","","52","","24.1","","100.81","","","","","","Rain"
"-63.12","46.29","CHARLOTTETOWN A","8300301","2022-12-03 23:00","2022","12","03","23:00","9.2","","7.7","","91","","","","16","","37","","19.3","","100.69","","","","","","Rain"
"-63.12","46.29","CHARLOTTETOWN A","8300301","2022-12-04 00:00","2022","12","04","00:00","9.0","","8.2","","95","","","","16","","39","","19.3","","100.52","","","","","","Rain"
"-63.12","46.29","CHARLOTTETOWN A","8300301","2022-12-04 01:00","2022","12","04","01:00","9.3","","8.4","","94","","","","15","","36","","24.1","","100.32","","","","","","Rain"
"-63.12","46.29","CHARLOTTETOWN A","8300301","2022-12-04 02:00","2022","12","04","02:00","9.7","","8.8","","94","","","","16","","43","","24.1","","100.14","","","","","","Rain"
"-63.12","46.29","CHARLOTTETOWN A","8300301","2022-12-04 03:00","2022","12","04","03:00","9.6","","8.9","","96","","","","16","","38","","24.1","","100.08","","","","","","Rain"
"-63.12","46.29","CHARLOTTETOWN A","8300301","2022-12-04 04:00","2022","12","04","04:00","9.6","","8.9","","95","","","","17","","25","","24.1","","100.01","","","","","","Rain"
"-63.12","46.29","CHARLOTTETOWN A","8300301","2022-12-04 05:00","2022","12","04","05:00","9.8","","9.0","","95","","","","17","","32","","24.1","","99.92","","","","","","Rain"
"-63.12","46.29","CHARLOTTETOWN A","8300301","2022-12-04 06:00","2022","12","04","06:00","7.6","","6.4","","92","","","","29","","22","","24.1","","100.00","","","","","","Rain"
"-63.12","46.29","CHARLOTTETOWN A","8300301","2022-12-04 07:00","2022","12","04","07:00","5.6","","3.4","","86","","","","27","","26","","24.1","","100.14","","","","","","Rain"
"-63.12","46.29","CHARLOTTETOWN A","8300301","2022-12-04 08:00","2022","12","04","08:00","4.7","","2.2","","84","","","","27","","20","","24.1","","100.21","","","","","","Mostly Cloudy"
"-63.12","46.29","CHARLOTTETOWN A","8300301","2022-12-04 09:00","2022","12","04","09:00","4.2","","1.7","","84","","","","25","","16","","24.1","","100.34","","","","","","NA"
"-63.12","46.29","CHARLOTTETOWN A","8300301","2022-12-04 10:00","2022","12","04","10:00","4.8","","1.4","","78","","","","27","","23","","24.1","","100.37","","","","","","NA"
"-63.12","46.29","CHARLOTTETOWN A","8300301","2022-12-04 11:00","2022","12","04","11:00","5.1","","1.1","","75","","","","27","","21","","24.1","","100.40","","","","","","Mostly Cloudy"
"-63.12","46.29","CHARLOTTETOWN A","8300301","2022-12-04 12:00","2022","12","04","12:00","4.3","","0.1","","74","","","","27","","24","","24.1","","100.43","","","","","","NA"
"-63.12","46.29","CHARLOTTETOWN A","8300301","2022-12-04 13:00","2022","12","04","13:00","3.3","","0.0","","79","","","","29","","23","","24.1","","100.50","","","","","","Rain Showers"
"-63.12","46.29","CHARLOTTETOWN A","8300301","2022-12-04 14:00","2022","12","04","14:00","2.7","","-4.6","","58","","","","29","","26","","24.1","","100.56","","","","","","Rain Showers"
"-63.12","46.29","CHARLOTTETOWN A","8300301","2022-12-04 15:00","2022","12","04","15:00","2.0","","-4.2","","64","","","","29","","20","","24.1","","100.69","","","","","","NA"
"-63.12","46.29","CHARLOTTETOWN A","8300301","2022-12-04 16:00","2022","12","04","16:00","1.2","","-5.3","","62","","","","30","","18","","24.1","","100.80","","","","","","NA"
"-63.12","46.29","CHARLOTTETOWN A","8300301","2022-12-04 17:00","2022","12","04","17:00","0.7","","-6.2","","60","","","","27","","14","","24.1","","100.91","","","","","","Mostly Cloudy"
"-63.12","46.29","CHARLOTTETOWN A","8300301","2022-12-04 18:00","2022","12","04","18:00","0.6","","-6.7","","58","","","","28","","13","","24.1","","101.02","","","","","","NA"
"-63.12","46.29","CHARLOTTETOWN A","8300301","2022-12-04 19:00","2022","12","04","19:00","0.1","","-6.4","","62","","","","29","","12","","24.1","","101.16","","","","","","NA"
"-63.12","46.29","CHARLOTTETOWN A","8300301","2022-12-04 20:00","2022","12","04","20:00","-1.8","","-7.3","","66","","","","31","","11","","24.1","","101.16","","","","-6","","Mostly Cloudy"
"-63.12","46.29","CHARLOTTETOWN A","8300301","2022-12-04 21:00","2022","12","04","21:00","-2.4","","-8.4","","63","","","","31","","10","","24.1","","101.08","","","","-6","","NA"
"-63.12","46.29","CHARLOTTETOWN A","8300301","2022-12-04 22:00","2022","12","04","22:00","-2.1","","-9.0","","60","","","","24","","9","","24.1","","101.32","","","","-6","","NA"
"-63.12","46.29","CHARLOTTETOWN A","8300301","2022-12-04 23:00","2022","12","04","23:00","-3.0","","-8.4","","66","","","","26","","9","","24.1","","101.41","","","","-7","","Mainly Clear"
"-63.12","46.29","CHARLOTTETOWN A","8300301","2022-12-05 00:00","2022","12","05","00:00","-3.3","","-8.1","","69","","","","26","","9","","24.1","","101.54","","","","-7","","NA"
"-63.12","46.29","CHARLOTTETOWN A","8300301","2022-12-05 01:00","2022","12","05","01:00","-2.5","","-8.2","","65","","","","30","","11","","24.1","","101.55","","","","-7","","NA"
"-63.12","46.29","CHARLOTTETOWN A","8300301","2022-12-05 02:00","2022","12","05","02:00","-2.8","","-8.6","","64","","","","29","","13","","24.1","","101.58","","","","-7","","Mostly Cloudy"
"-63.12","46.29","CHARLOTTETOWN A","8300301","2022-12-05 03:00","2022","12","05","03:00","-3.2","","-9.2","","63","","","","28","","8","","24.1","","101.60","","","","-6","","NA"
"-63.12","46.29","CHARLOTTETOWN A","8300301","2022-12-05 04:00","2022","12","05","04:00","-4.1","","-10.0","","64","","","","29","","7","","24.1","","101.67","","","","-7","","NA"
"-63.12","46.29","CHARLOTTETOWN A","8300301","2022-12-05 05:00","2022","12","05","05:00","-3.7","","-10.1","","62","","","","28","","7","","24.1","","101.77","","","","-7","","Clear"
"-63.12","46.29","CHARLOTTETOWN A","8300301","2022-12-05 06:00","2022","12","05","06:00","-4.5","","-10.1","","65","","","","24","","8","","24.1","","101.86","","","","-8","","NA"
"-63.12","46.29","CHARLOTTETOWN A","8300301","2022-12-05 07:00","2022","12","05","07:00","-5.8","","-9.9","","73","","","","25","","4","","24.1","","101.93","","","","-8","","NA"
"-63.12","46.29","CHARLOTTETOWN A","8300301","2022-12-05 08:00","2022","12","05","08:00","-5.3","","-10.0","","70","","","","24","","5","","24.1","","102.05","","","","-8","","Clear"
"-63.12","46.29","CHARLOTTETOWN A","8300301","2022-12-05 09:00","2022","12","05","09:00","-2.8","","-8.8","","63","","","","24","","6","","24.1","","102.16","","","","-5","","NA"
"-63.12","46.29","CHARLOTTETOWN A","8300301","2022-12-05 10:00","2022","12","05","10:00","-1.0","","-9.9","","51","","","","13","","5","","24.1","","102.20","","","","-3","","NA"
"-63.12","46.29","CHARLOTTETOWN A","8300301","2022-12-05 11:00","2022","12","05","11:00","-0.1","","-8.7","","52","","","","16","","13","","24.1","","102.21","","","","-4","","Mostly Cloudy"
"-63.12","46.29","CHARLOTTETOWN A","8300301","2022-12-05 12:00","2022","12","05","12:00","0.8","","-7.1","","55","","","","17","","18","","24.1","","102.16","","","","","","NA"
"-63.12","46.29","CHARLOTTETOWN A","8300301","2022-12-05 13:00","2022","12","05","13:00","1.2","","-6.6","","56","","","","16","","23","","24.1","","102.13","","","","","","NA"
"-63.12","46.29","CHARLOTTETOWN A","8300301","2022-12-05 14:00","2022","12","05","14:00","1.3","","-6.7","","55","","","","16","","26","","24.1","","102.16","","","","","","Mainly Clear"
"-63.12","46.29","CHARLOTTETOWN A","8300301","2022-12-05 15:00","2022","12","05","15:00","1.5","","-6.1","","57","","","","17","","19","","24.1","","102.24","","","","","","NA"
"-63.12","46.29","CHARLOTTETOWN A","8300301","2022-12-05 16:00","2022","12","05","16:00","0.8","","-5.9","","61","","","","16","","15","","24.1","","102.31","","","","","","NA"
"-63.12","46.29","CHARLOTTETOWN A","8300301","2022-12-05 17:00","2022","12","05","17:00","-0.4","","-5.5","","69","","","","14","","9","","24.1","","102.39","","","","-4","","Clear"
"-63.12","46.29","CHARLOTTETOWN A","8300301","2022-12-05 18:00","2022","12","05","18:00","-1.2","","-5.0","","75","","","","13","","9","","24.1","","102.46","","","","-4","","NA"
"-63.12","46.29","CHARLOTTETOWN A","8300301","2022-12-05 19:00","2022","12","05","19:00","-2.1","","-5.5","","77","","","","16","","9","","24.1","","102.53","","","","-6","","NA"
"-63.12","46.29","CHARLOTTETOWN A","8300301","2022-12-05 20:00","2022","12","05","20:00","0.0","","-5.9","","65","","","","19","","12","","24.1","","102.60","","","","-4","","Mainly Clear"
"-63.12","46.29","CHARLOTTETOWN A","8300301","2022-12-05 21:00","2022","12","05","21:00","-0.3","","-5.9","","66","","","","20","","13","","24.1","","102.66","","","","-4","","NA"
"-63.12","46.29","CHARLOTTETOWN A","8300301","2022-12-05 22:00","2022","12","05","22:00","-0.6","","-5.4","","70","","","","18","","7","","22.5","","102.69","","","","-3","","NA"
"-63.12","46.29","CHARLOTTETOWN A","8300301","2022-12-05 23:00","2022","12","05","23:00","-1.8","","-5.0","","79","","","","14","","10","","24.1","","102.72","","","","-5","","Mainly Clear"
"-63.12","46.29","CHARLOTTETOWN A","8300301","2022-12-06 00:00","2022","12","06","00:00","-2.1","","-4.3","","85","","","","12","","7","","24.1","","102.77","","","","-5","","NA"
"-63.12","46.29","CHARLOTTETOWN A","8300301","2022-12-06 01:00","2022","12","06","01:00","-1.6","","-4.0","","84","","","","13","","9","","24.1","","102.82","","","","-5","","NA"
"-63.12","46.29","CHARLOTTETOWN A","8300301","2022-12-06 02:00","2022","12","06","02:00","-2.0","","-4.0","","86","","","","14","","8","","24.1","","102.88","","","","-5","","Clear"
"-63.12","46.29","CHARLOTTETOWN A","8300301","2022-12-06 03:00","2022","12","06","03:00","-3.0","","-4.8","","87","","","","13","","10","","24.1","","102.95","","","","-7","","NA"
"-63.12","46.29","CHARLOTTETOWN A","8300301","2022-12-06 04:00","2022","12","06","04:00","-2.0","","-4.5","","83","","","","14","","10","","24.1","","103.02","","","","-6","","NA"
"-63.12","46.29","CHARLOTTETOWN A","8300301","2022-12-06 05:00","2022","12","06","05:00","-1.5","","-3.8","","84","","","","16","","9","","24.1","","103.03","","","","-5","","Mostly Cloudy"
"-63.12","46.29","CHARLOTTETOWN A","8300301","2022-12-06 06:00","2022","12","06","06:00","-1.9","","-3.6","","88","","","","14","","9","","24.1","","103.07","","","","-5","","NA"
"-63.12","46.29","CHARLOTTETOWN A","8300301","2022-12-06 07:00","2022","12","06","07:00","-1.9","","-3.5","","88","","","","13","","11","","24.1","","103.10","","","","-6","","NA"
"-63.12","46.29","CHARLOTTETOWN A","8300301","2022-12-06 08:00","2022","12","06","08:00","-1.4","","-3.5","","85","","","","14","","9","","24.1","","103.17","","","","-5","","Mostly Cloudy"
"-63.12","46.29","CHARLOTTETOWN A","8300301","2022-12-06 09:00","2022","12","06","09:00","0.0","","-2.6","","83","","","","14","","4","","24.1","","103.22","","","","-1","","NA"
"-63.12","46.29","CHARLOTTETOWN A","8300301","2022-12-06 10:00","2022","12","06","10:00","1.6","","-1.3","","81","","","","13","","7","","24.1","","103.25","","","","","","NA"
"-63.12","46.29","CHARLOTTETOWN A","8300301","2022-12-06 11:00","2022","12","06","11:00","2.5","","-1.1","","77","","","","","","0","","24.1","","103.22","","","","","","Mostly Cloudy"
"-63.12","46.29","CHARLOTTETOWN A","8300301","2022-12-06 12:00","2022","12","06","12:00","3.0","","-0.2","","80","","","","8","","9","","24.1","","103.14","","","","","","NA"
"-63.12","46.29","CHARLOTTETOWN A","8300301","2022-12-06 13:00","2022","12","06","13:00","4.1","","0.1","","75","","","","9","","13","","24.1","","103.12","","","","","","NA"
"-63.12","46.29","CHARLOTTETOWN A","8300301","2022-12-06 14:00","2022","12","06","14:00","3.8","","-0.7","","72","","","","11","","16","","24.1","","103.15","","","","","","Mostly Cloudy"
"-63.12","46.29","CHARLOTTETOWN A","8300301","2022-12-06 15:00","2022","12","06","15:00","3.8","","0.0","","76","","","","11","","12","","24.1","","103.16","","","","","","NA"
"-63.12","46.29","CHARLOTTETOWN A","8300301","2022-12-06 16:00","2022","12","06","16:00","2.4","","-0.4","","81","","","","10","","11","","24.1","","103.20","","","","","","NA"
"-63.12","46.29","CHARLOTTETOWN A","8300301","2022-12-06 17:00","2022","12","06","17:00","2.3","","0.0","","85","","","","11","","16","","24.1","","103.14","","","","","","Mostly Cloudy"
"-63.12","46.29","CHARLOTTETOWN A","8300301","2022-12-06 18:00","2022","12","06","18:00","2.5","","0.4","","86","","","","12","","12","","24.1","","103.13","","","","","","NA"
"-63.12","46.29","CHARLOTTETOWN A","8300301","2022-12-06 19:00","2022","12","06","19:00","3.0","","0.7","","85","","","","13","","16","","24.1","","103.14","","","","","","NA"
"-63.12","46.29","CHARLOTTETOWN A","8300301","2022-12-06 20:00","2022","12","06","20:00","3.6","","1.6","","87","","","","14","","17","","24.1","","103.14","","","","","","Cloudy"
"-63.12","46.29","CHARLOTTETOWN A","8300301","2022-12-06 21:00","2022","12","06","21:00","3.7","","2.7","","93","","","","13","","16","","16.1","","103.13","","","","","","Drizzle"
"-63.12","46.29","CHARLOTTETOWN A","8300301","2022-12-06 22:00","2022","12","06","22:00","3.7","","3.0","","96","","","","13","","9","","6.4","","103.12","","","","","","Drizzle,Fog"
"-63.12","46.29","CHARLOTTETOWN A","8300301","2022-12-06 23:00","2022","12","06","23:00","3.6","","3.2","","97","","","","7","","7","","3.2","","103.10","","","","","","Drizzle,Fog"
"-63.12","46.29","CHARLOTTETOWN A","8300301","2022-12-07 00:00","2022","12","07","00:00","3.8","","3.5","","98","","","","9","","8","","1.2","","103.07","","","","","","Drizzle,Fog"
"-63.12","46.29","CHARLOTTETOWN A","8300301","2022-12-07 01:00","2022","12","07","01:00","4.3","","4.1","","99","","","","12","","16","","1.2","","103.03","","","","","","Drizzle,Fog"
"-63.12","46.29","CHARLOTTETOWN A","8300301","2022-12-07 02:00","2022","12","07","02:00","4.6","","4.4","","98","","","","12","","16","","6.4","","103.00","","","","","","Drizzle,Fog"
"-63.12","46.29","CHARLOTTETOWN A","8300301","2022-12-07 03:00","2022","12","07","03:00","4.6","","4.4","","98","","","","12","","14","","9.7","","102.99","","","","","","Drizzle,Fog"
"-63.12","46.29","CHARLOTTETOWN A","8300301","2022-12-07 04:00","2022","12","07","04:00","4.7","","4.4","","98","","","","12","","15","","9.7","","102.96","","","","","","Drizzle,Fog"
"-63.12","46.29","CHARLOTTETOWN A","8300301","2022-12-07 05:00","2022","12","07","05:00","4.8","","4.3","","97","","","","11","","10","","12.9","","102.97","","","","","","Cloudy"
"-63.12","46.29","CHARLOTTETOWN A","8300301","2022-12-07 06:00","2022","12","07","06:00","4.5","","4.0","","97","","","","10","","11","","12.9","","102.93","","","","","","NA"
"-63.12","46.29","CHARLOTTETOWN A","8300301","2022-12-07 07:00","2022","12","07","07:00","4.5","","4.2","","98","","","","12","","10","","19.3","","102.88","","","","","","NA"
"-63.12","46.29","CHARLOTTETOWN A","8300301","2022-12-07 08:00","2022","12","07","08:00","4.8","","4.4","","97","","","","13","","12","","24.1","","102.86","","","","","","Cloudy"
"-63.12","46.29","CHARLOTTETOWN A","8300301","2022-12-07 09:00","2022","12","07","09:00","5.3","","4.9","","97","","","","12","","13","","24.1","","102.83","","","","","","NA"
"-63.12","46.29","CHARLOTTETOWN A","8300301","2022-12-07 10:00","2022","12","07","10:00","6.3","","5.5","","95","","","","15","","12","","24.1","","102.85","","","","","","NA"
"-63.12","46.29","CHARLOTTETOWN A","8300301","2022-12-07 11:00","2022","12","07","11:00","7.4","","4.7","","83","","","","15","","20","","24.1","","102.75","","","","","","Cloudy"
"-63.12","46.29","CHARLOTTETOWN A","8300301","2022-12-07 12:00","2022","12","07","12:00","7.7","","4.7","","81","","","","15","","22","","24.1","","102.66","","","","","","NA"
"-63.12","46.29","CHARLOTTETOWN A","8300301","2022-12-07 13:00","2022","12","07","13:00","7.5","","4.3","","80","","","","15","","25","","24.1","","102.60","","","","","","NA"
"-63.12","46.29","CHARLOTTETOWN A","8300301","2022-12-07 14:00","2022","12","07","14:00","8.0","","5.1","","82","","","","14","","21","","24.1","","102.50","","","","","","Cloudy"
"-63.12","46.29","CHARLOTTETOWN A","8300301","2022-12-07 15:00","2022","12","07","15:00","8.2","","5.4","","82","","","","14","","23","","24.1","","102.44","","","","","","NA"
"-63.12","46.29","CHARLOTTETOWN A","8300301","2022-12-07 16:00","2022","12","07","16:00","7.9","","5.4","","84","","","","13","","27","","24.1","","102.38","","","","","","NA"
"-63.12","46.29","CHARLOTTETOWN A","8300301","2022-12-07 17:00","2022","12","07","17:00","7.4","","5.2","","86","","","","15","","33","","24.1","","102.36","","","","","","Clear"
"-63.12","46.29","CHARLOTTETOWN A","8300301","2022-12-07 18:00","2022","12","07","18:00","6.5","","4.5","","86","","","","15","","39","","24.1","","102.30","","","","","","NA"
"-63.12","46.29","CHARLOTTETOWN A","8300301","2022-12-07 19:00","2022","12","07","19:00","6.1","","4.0","","86","","","","13","","26","","24.1","","102.23","","","","","","NA"
"-63.12","46.29","CHARLOTTETOWN A","8300301","2022-12-07 20:00","2022","12","07","20:00","5.9","","3.9","","87","","","","12","","30","","24.1","","102.06","","","","","","Cloudy"
"-63.12","46.29","CHARLOTTETOWN A","8300301","2022-12-07 21:00","2022","12","07","21:00","6.2","","4.2","","87","","","","15","","26","","24.1","","102.04","","","","","","NA"
"-63.12","46.29","CHARLOTTETOWN A","8300301","2022-12-07 22:00","2022","12","07","22:00","5.8","","4.7","","93","","","","14","","31","","19.3","","101.92","","","","","","Rain"
"-63.12","46.29","CHARLOTTETOWN A","8300301","2022-12-07 23:00","2022","12","07","23:00","6.0","","5.0","","94","","","","14","","31","","19.3","","101.79","","","","","","Rain"
"-63.12","46.29","CHARLOTTETOWN A","8300301","2022-12-08 00:00","2022","12","08","00:00","6.1","","5.2","","94","","","","14","","30","","12.9","","101.69","","","","","","Rain"
"-63.12","46.29","CHARLOTTETOWN A","8300301","2022-12-08 01:00","2022","12","08","01:00","6.4","","5.4","","94","","","","14","","32","","12.9","","101.59","","","","","","Rain"
"-63.12","46.29","CHARLOTTETOWN A","8300301","2022-12-08 02:00","2022","12","08","02:00","6.4","","5.7","","95","","","","14","","32","","12.9","","101.44","","","","","","Rain"
"-63.12","46.29","CHARLOTTETOWN A","8300301","2022-12-08 03:00","2022","12","08","03:00","6.6","","5.7","","94","","","","14","","35","","16.1","","101.36","","","","","","Rain"
"-63.12","46.29","CHARLOTTETOWN A","8300301","2022-12-08 04:00","2022","12","08","04:00","6.7","","5.8","","94","","","","14","","36","","12.9","","101.27","","","","","","Rain"
"-63.12","46.29","CHARLOTTETOWN A","8300301","2022-12-08 05:00","2022","12","08","05:00","6.9","","6.0","","94","","","","14","","34","","12.9","","101.17","","","","","","Rain"
"-63.12","46.29","CHARLOTTETOWN A","8300301","2022-12-08 06:00","2022","12","08","06:00","7.0","","6.2","","95","","","","14","","33","","12.9","","101.11","","","","","","Rain"
"-63.12","46.29","CHARLOTTETOWN A","8300301","2022-12-08 07:00","2022","12","08","07:00","7.1","","6.3","","95","","","","13","","36","","12.9","","101.00","","","","","","Rain"
"-63.12","46.29","CHARLOTTETOWN A","8300301","2022-12-08 08:00","2022","12","08","08:00","7.2","","6.4","","94","","","","14","","37","","16.1","","100.95","","","","","","Rain"
"-63.12","46.29","CHARLOTTETOWN A","8300301","2022-12-08 09:00","2022","12","08","09:00","7.2","","6.1","","93","","","","14","","31","","12.9","","100.93","","","","","","Rain"
"-63.12","46.29","CHARLOTTETOWN A","8300301","2022-12-08 10:00","2022","12","08","10:00","7.3","","6.3","","94","","","","13","","35","","8.1","","100.89","","","","","","Rain,Fog"
"-63.12","46.29","CHARLOTTETOWN A","8300301","2022-12-08 11:00","2022","12","08","11:00","7.5","","6.7","","94","","","","14","","30","","8.1","","100.83","","","","","","Rain,Fog"
"-63.12","46.29","CHARLOTTETOWN A","8300301","2022-12-08 12:00","2022","12","08","12:00","7.5","","6.7","","95","","","","14","","32","","9.7","","100.74","","","","","","Rain,Fog"
"-63.12","46.29","CHARLOTTETOWN A","8300301","2022-12-08 13:00","2022","12","08","13:00","7.7","","6.8","","94","","","","14","","26","","6.4","","100.65","","","","","","Rain,Fog"
"-63.12","46.29","CHARLOTTETOWN A","8300301","2022-12-08 14:00","2022","12","08","14:00","7.9","","7.0","","94","","","","14","","31","","9.7","","100.60","","","","","","Rain,Fog"
"-63.12","46.29","CHARLOTTETOWN A","8300301","2022-12-08 15:00","2022","12","08","15:00","8.0","","7.0","","94","","","","14","","22","","16.1","","100.57","","","","","","Rain"
"-63.12","46.29","CHARLOTTETOWN A","8300301","2022-12-08 16:00","2022","12","08","16:00","8.3","","7.2","","93","","","","13","","22","","8.1","","100.53","","","","","","Rain,Fog"
"-63.12","46.29","CHARLOTTETOWN A","8300301","2022-12-08 17:00","2022","12","08","17:00","8.1","","7.5","","96","","","","24","","14","","3.2","","100.64","","","","","","Rain,Fog"
"-63.12","46.29","CHARLOTTETOWN A","8300301","2022-12-08 18:00","2022","12","08","18:00","7.7","","7.3","","97","","","","13","","12","","3.2","","100.66","","","","","","Rain,Fog"
"-63.12","46.29","CHARLOTTETOWN A","8300301","2022-12-08 19:00","2022","12","08","19:00","4.4","","4.0","","97","","","","32","","20","","4.0","","100.74","","","","","","Rain,Fog"
"-63.12","46.29","CHARLOTTETOWN A","8300301","2022-12-08 20:00","2022","12","08","20:00","4.0","","3.6","","97","","","","33","","23","","4.8","","100.76","","","","","","Rain,Fog"
"-63.12","46.29","CHARLOTTETOWN A","8300301","2022-12-08 21:00","2022","12","08","21:00","3.8","","3.4","","97","","","","32","","17","","6.4","","100.77","","","","","","Rain,Fog"
"-63.12","46.29","CHARLOTTETOWN A","8300301","2022-12-08 22:00","2022","12","08","22:00","3.8","","3.4","","97","","","","32","","16","","8.1","","100.80","","","","","","Rain,Fog"
"-63.12","46.29","CHARLOTTETOWN A","8300301","2022-12-08 23:00","2022","12","08","23:00","3.9","","3.6","","98","","","","32","","14","","8.1","","100.81","","","","","","Rain,Fog"
"-63.12","46.29","CHARLOTTETOWN A","8300301","2022-12-09 00:00","2022","12","09","00:00","3.5","","3.1","","97","","","","33","","21","","8.1","","100.83","","","","","","Rain,Fog"
"-63.12","46.29","CHARLOTTETOWN A","8300301","2022-12-09 01:00","2022","12","09","01:00","3.2","","2.9","","97","","","","34","","25","","4.8","","100.83","","","","","","Rain,Fog"
"-63.12","46.29","CHARLOTTETOWN A","8300301","2022-12-09 02:00","2022","12","09","02:00","3.1","","2.8","","98","","","","34","","21","","8.1","","100.87","","","","","","Rain,Fog"
"-63.12","46.29","CHARLOTTETOWN A","8300301","2022-12-09 03:00","2022","12","09","03:00","3.0","","2.7","","97","","","","34","","22","","6.4","","100.88","","","","","","Rain,Fog"
"-63.12","46.29","CHARLOTTETOWN A","8300301","2022-12-09 04:00","2022","12","09","04:00","2.9","","2.5","","98","","","","33","","22","","6.4","","100.88","","","","","","Rain,Fog"
"-63.12","46.29","CHARLOTTETOWN A","8300301","2022-12-09 05:00","2022","12","09","05:00","3.3","","3.0","","98","","","","33","","18","","6.4","","100.90","","","","","","Rain,Fog"
"-63.12","46.29","CHARLOTTETOWN A","8300301","2022-12-09 06:00","2022","12","09","06:00","3.3","","3.0","","98","","","","33","","19","","6.4","","100.92","","","","","","Rain,Fog"
"-63.12","46.29","CHARLOTTETOWN A","8300301","2022-12-09 07:00","2022","12","09","07:00","3.5","","3.3","","98","","","","34","","19","","4.8","","100.97","","","","","","Rain,Fog"
"-63.12","46.29","CHARLOTTETOWN A","8300301","2022-12-09 08:00","2022","12","09","08:00","3.6","","3.4","","98","","","","36","","17","","2.4","","101.01","","","","","","Rain,Fog"
"-63.12","46.29","CHARLOTTETOWN A","8300301","2022-12-09 09:00","2022","12","09","09:00","3.9","","3.6","","98","","","","36","","15","","1.2","","101.07","","","","","","Rain,Fog"
"-63.12","46.29","CHARLOTTETOWN A","8300301","2022-12-09 10:00","2022","12","09","10:00","4.4","","4.2","","98","","","","36","","15","","1.2","","101.15","","","","","","Rain,Fog"
"-63.12","46.29","CHARLOTTETOWN A","8300301","2022-12-09 11:00","2022","12","09","11:00","4.1","","3.8","","98","","","","1","","20","","1.6","","101.18","","","","","","Rain,Fog"
"-63.12","46.29","CHARLOTTETOWN A","8300301","2022-12-09 12:00","2022","12","09","12:00","3.5","","3.2","","98","","","","36","","25","","1.2","","101.19","","","","","","Rain,Fog"
"-63.12","46.29","CHARLOTTETOWN A","8300301","2022-12-09 13:00","2022","12","09","13:00","3.2","","2.9","","98","","","","1","","32","","3.2","","101.20","","","","","","Rain,Fog"
"-63.12","46.29","CHARLOTTETOWN A","8300301","2022-12-09 14:00","2022","12","09","14:00","3.1","","2.8","","98","","","","1","","28","","4.8","","101.24","","","","","","Rain,Fog"
"-63.12","46.29","CHARLOTTETOWN A","8300301","2022-12-09 15:00","2022","12","09","15:00","3.0","","2.6","","97","","","","36","","21","","3.2","","101.30","","","","","","Rain,Fog"
"-63.12","46.29","CHARLOTTETOWN A","8300301","2022-12-09 16:00","2022","12","09","16:00","2.8","","2.4","","97","","","","36","","23","","6.4","","101.37","","","","","","Rain,Fog"
"-63.12","46.29","CHARLOTTETOWN A","8300301","2022-12-09 17:00","2022","12","09","17:00","2.5","","2.2","","98","","","","36","","24","","4.8","","101.43","","","","","","Rain,Fog"
"-63.12","46.29","CHARLOTTETOWN A","8300301","2022-12-09 18:00","2022","12","09","18:00","2.4","","2.1","","98","","","","36","","27","","2.4","","101.47","","","","","","Rain,Fog"
"-63.12","46.29","CHARLOTTETOWN A","8300301","2022-12-09 19:00","2022","12","09","19:00","2.1","","1.8","","98","","","","36","","27","","3.2","","101.53","","","","","","Drizzle,Fog"
"-63.12","46.29","CHARLOTTETOWN A","8300301","2022-12-09 20:00","2022","12","09","20:00","1.8","","1.5","","98","","","","36","","28","","2.4","","101.60","","","","","","Drizzle,Fog"
"-63.12","46.29","CHARLOTTETOWN A","8300301","2022-12-09 21:00","2022","12","09","21:00","1.6","","1.2","","97","","","","36","","28","","3.2","","101.67","","","","","","Drizzle,Fog"
"-63.12","46.29","CHARLOTTETOWN A","8300301","2022-12-09 22:00","2022","12","09","22:00","1.5","","1.1","","97","","","","36","","30","","3.2","","101.72","","","","","","Drizzle,Fog"
"-63.12","46.29","CHARLOTTETOWN A","8300301","2022-12-09 23:00","2022","12","09","23:00","1.5","","1.0","","97","","","","1","","37","","4.0","","101.76","","","","","","Drizzle,Fog"
"-63.12","46.29","CHARLOTTETOWN A","8300301","2022-12-10 00:00","2022","12","10","00:00","1.4","","1.0","","97","","","","36","","26","","4.8","","101.80","","","","","","Drizzle,Fog"
"-63.12","46.29","CHARLOTTETOWN A","8300301","2022-12-10 01:00","2022","12","10","01:00","1.3","","0.8","","97","","","","1","","42","","6.4","","101.82","","","","","","Drizzle,Fog"
"-63.12","46.29","CHARLOTTETOWN A","8300301","2022-12-10 02:00","2022","12","10","02:00","0.8","","0.3","","97","","","","36","","30","","4.8","","101.88","","","","","","Drizzle,Fog"
"-63.12","46.29","CHARLOTTETOWN A","8300301","2022-12-10 03:00","2022","12","10","03:00","0.5","","-0.3","","94","","","","36","","30","","8.1","","101.94","","","","","","Drizzle,Fog"
"-63.12","46.29","CHARLOTTETOWN A","8300301","2022-12-10 04:00","2022","12","10","04:00","0.0","","-0.7","","96","","","","36","","27","","6.4","","101.99","","","","-6","","Drizzle,Fog"
"-63.12","46.29","CHARLOTTETOWN A","8300301","2022-12-10 05:00","2022","12","10","05:00","-0.7","","-1.3","","95","","","","36","","28","","1.6","","102.02","","","","-7","","Snow,Fog"
"-63.12","46.29","CHARLOTTETOWN A","8300301","2022-12-10 06:00","2022","12","10","06:00","-1.2","","-1.9","","95","","","","36","","31","","1.2","","102.09","","","","-8","","Snow,Blowing Snow"
"-63.12","46.29","CHARLOTTETOWN A","8300301","2022-12-10 07:00","2022","12","10","07:00","-2.0","","-3.0","","93","","","","36","","39","","3.2","","102.19","","","","-10","","Snow,Blowing Snow"
"-63.12","46.29","CHARLOTTETOWN A","8300301","2022-12-10 08:00","2022","12","10","08:00","-2.4","","-3.8","","90","","","","35","","32","","12.9","","102.26","","","","-10","","Snow,Blowing Snow"
"-63.12","46.29","CHARLOTTETOWN A","8300301","2022-12-10 09:00","2022","12","10","09:00","-2.8","","-4.5","","89","","","","36","","33","","12.9","","102.32","","","","-10","","Snow,Blowing Snow"
"-63.12","46.29","CHARLOTTETOWN A","8300301","2022-12-10 10:00","2022","12","10","10:00","-3.2","","-5.2","","86","","","","1","","35","","12.9","","102.40","","","","-11","","Snow,Blowing Snow"
"-63.12","46.29","CHARLOTTETOWN A","8300301","2022-12-10 11:00","2022","12","10","11:00","-3.9","","-6.2","","84","","","","36","","32","","24.1","","102.43","","","","-12","","Snow Showers,Blowing Snow"
"-63.12","46.29","CHARLOTTETOWN A","8300301","2022-12-10 12:00","2022","12","10","12:00","-4.2","","-7.0","","81","","","","36","","26","","24.1","","102.42","","","","-11","","Snow Showers,Blowing Snow"
"-63.12","46.29","CHARLOTTETOWN A","8300301","2022-12-10 13:00","2022","12","10","13:00","-4.4","","-7.4","","80","","","","1","","37","","24.1","","102.41","","","","-13","","Snow Showers,Blowing Snow"
"-63.12","46.29","CHARLOTTETOWN A","8300301","2022-12-10 14:00","2022","12","10","14:00","-4.5","","-7.9","","77","","","","36","","29","","24.1","","102.39","","","","-12","","Snow Showers,Blowing Snow"
"-63.12","46.29","CHARLOTTETOWN A","8300301","2022-12-10 15:00","2022","12","10","15:00","-4.5","","-7.9","","77","","","","36","","30","","24.1","","102.39","","","","-12","","Snow Showers,Blowing Snow"
"-63.12","46.29","CHARLOTTETOWN A","8300301","2022-12-10 16:00","2022","12","10","16:00","-4.6","","-8.3","","75","","","","35","","22","","24.1","","102.41","","","","-11","","NA"
"-63.12","46.29","CHARLOTTETOWN A","8300301","2022-12-10 17:00","2022","12","10","17:00","-4.4","","-8.1","","76","","","","36","","27","","24.1","","102.41","","","","-12","","Snow Showers"
"-63.12","46.29","CHARLOTTETOWN A","8300301","2022-12-10 18:00","2022","12","10","18:00","-4.4","","-8.4","","74","","","","1","","27","","24.1","","102.43","","","","-12","","NA"
"-63.12","46.29","CHARLOTTETOWN A","8300301","2022-12-10 19:00","2022","12","10","19:00","-4.4","","-8.7","","72","","","","1","","31","","24.1","","102.44","","","","-12","","NA"
"-63.12","46.29","CHARLOTTETOWN A","8300301","2022-12-10 20:00","2022","12","10","20:00","-4.5","","-8.4","","74","","","","1","","22","","24.1","","102.43","","","","-11","","Cloudy"
"-63.12","46.29","CHARLOTTETOWN A","8300301","2022-12-10 21:00","2022","12","10","21:00","-4.4","","-8.5","","73","","","","36","","26","","24.1","","102.42","","","","-12","","NA"
"-63.12","46.29","CHARLOTTETOWN A","8300301","2022-12-10 22:00","2022","12","10","22:00","-4.6","","-9.2","","70","","","","35","","25","","24.1","","102.39","","","","-12","","NA"
"-63.12","46.29","CHARLOTTETOWN A","8300301","2022-12-10 23:00","2022","12","10","23:00","-4.8","","-9.2","","72","","","","1","","31","","24.1","","102.38","","","","-13","","Cloudy"
"-63.12","46.29","CHARLOTTETOWN A","8300301","2022-12-11 00:00","2022","12","11","00:00","-4.8","","-9.4","","70","","","","35","","25","","24.1","","102.35","","","","-12","","NA"
"-63.12","46.29","CHARLOTTETOWN A","8300301","2022-12-11 01:00","2022","12","11","01:00","-4.9","","-8.9","","73","","","","35","","22","","19.3","","102.29","","","","-12","","NA"
"-63.12","46.29","CHARLOTTETOWN A","8300301","2022-12-11 02:00","2022","12","11","02:00","-4.9","","-8.6","","76","","","","36","","20","","24.1","","102.29","","","","-11","","Snow Showers"
"-63.12","46.29","CHARLOTTETOWN A","8300301","2022-12-11 03:00","2022","12","11","03:00","-4.8","","-8.6","","75","","","","1","","26","","24.1","","102.26","","","","-12","","Snow Showers"
"-63.12","46.29","CHARLOTTETOWN A","8300301","2022-12-11 04:00","2022","12","11","04:00","-4.7","","-8.6","","74","","","","1","","26","","19.3","","102.24","","","","-12","","Snow Showers"
"-63.12","46.29","CHARLOTTETOWN A","8300301","2022-12-11 05:00","2022","12","11","05:00","-4.7","","-8.3","","76","","","","35","","19","","19.3","","102.22","","","","-11","","Snow Showers"
"-63.12","46.29","CHARLOTTETOWN A","8300301","2022-12-11 06:00","2022","12","11","06:00","-4.8","","-8.6","","75","","","","36","","20","","19.3","","102.21","","","","-11","","Snow Showers"
"-63.12","46.29","CHARLOTTETOWN A","8300301","2022-12-11 07:00","2022","12","11","07:00","-4.8","","-8.8","","74","","","","35","","20","","19.3","","102.21","","","","-11","","Snow Showers"
"-63.12","46.29","CHARLOTTETOWN A","8300301","2022-12-11 08:00","2022","12","11","08:00","-4.8","","-8.8","","74","","","","36","","24","","24.1","","102.22","","","","-12","","Cloudy"
"-63.12","46.29","CHARLOTTETOWN A","8300301","2022-12-11 09:00","2022","12","11","09:00","-4.8","","-8.8","","74","","","","35","","13","","24.1","","102.24","","","","-10","","NA"
"-63.12","46.29","CHARLOTTETOWN A","8300301","2022-12-11 10:00","2022","12","11","10:00","-4.7","","-9.0","","72","","","","35","","16","","24.1","","102.24","","","","-10","","NA"
"-63.12","46.29","CHARLOTTETOWN A","8300301","2022-12-11 11:00","2022","12","11","11:00","-4.6","","-9.2","","70","","","","36","","19","","24.1","","102.16","","","","-11","","Cloudy"
"-63.12","46.29","CHARLOTTETOWN A","8300301","2022-12-11 12:00","2022","12","11","12:00","-4.4","","-9.6","","67","","","","35","","17","","24.1","","102.09","","","","-10","","NA"
"-63.12","46.29","CHARLOTTETOWN A","8300301","2022-12-11 13:00","2022","12","11","13:00","-4.3","","-8.9","","70","","","","36","","18","","24.1","","102.00","","","","-10","","NA"
"-63.12","46.29","CHARLOTTETOWN A","8300301","2022-12-11 14:00","2022","12","11","14:00","-4.5","","-9.8","","67","","","","34","","18","","24.1","","101.95","","","","-11","","Cloudy"
"-63.12","46.29","CHARLOTTETOWN A","8300301","2022-12-11 15:00","2022","12","11","15:00","-4.9","","-9.9","","68","","","","35","","16","","24.1","","101.92","","","","-11","","NA"
"-63.12","46.29","CHARLOTTETOWN A","8300301","2022-12-11 16:00","2022","12","11","16:00","-5.1","","-9.6","","71","","","","36","","11","","24.1","","101.90","","","","-10","","NA"
"-63.12","46.29","CHARLOTTETOWN A","8300301","2022-12-11 17:00","2022","12","11","17:00","-5.1","","-9.3","","73","","","","34","","13","","24.1","","101.90","","","","-10","","Cloudy"
"-63.12","46.29","CHARLOTTETOWN A","8300301","2022-12-11 18:00","2022","12","11","18:00","-5.2","","-9.8","","71","","","","35","","14","","24.1","","101.85","","","","-11","","Snow"
"-63.12","46.29","CHARLOTTETOWN A","8300301","2022-12-11 19:00","2022","12","11","19:00","-5.3","","-9.8","","71","","","","36","","6","","24.1","","101.82","","","","-8","","Snow"
"-63.12","46.29","CHARLOTTETOWN A","8300301","2022-12-11 20:00","2022","12","11","20:00","-5.1","","-9.2","","73","","","","1","","13","","24.1","","101.77","","","","-10","","Snow"
"-63.12","46.29","CHARLOTTETOWN A","8300301","2022-12-11 21:00","2022","12","11","21:00","-5.1","","-10.0","","69","","","","32","","6","","24.1","","101.74","","","","-8","","Snow"
"-63.12","46.29","CHARLOTTETOWN A","8300301","2022-12-11 22:00","2022","12","11","22:00","-4.9","","-9.8","","69","","","","35","","11","","24.1","","101.70","","","","-9","","Snow"
"-63.12","46.29","CHARLOTTETOWN A","8300301","2022-12-11 23:00","2022","12","11","23:00","-5.0","","-9.8","","69","","","","36","","9","","24.1","","101.68","","","","-9","","Snow"
"-63.12","46.29","CHARLOTTETOWN A","8300301","2022-12-12 00:00","2022","12","12","00:00","-5.0","","-9.9","","69","","","","31","","3","","24.1","","101.65","","","","-6","","Snow"
"-63.12","46.29","CHARLOTTETOWN A","8300301","2022-12-12 01:00","2022","12","12","01:00","-5.1","","-9.6","","71","","","","33","","4","","24.1","","101.59","","","","-7","","Snow"
"-63.12","46.29","CHARLOTTETOWN A","8300301","2022-12-12 02:00","2022","12","12","02:00","-5.2","","-9.1","","74","","","","29","","5","","24.1","","101.57","","","","-7","","Snow"
"-63.12","46.29","CHARLOTTETOWN A","8300301","2022-12-12 03:00","2022","12","12","03:00","-5.6","","-8.9","","78","","","","28","","8","","24.1","","101.55","","","","-9","","Snow"
"-63.12","46.29","CHARLOTTETOWN A","8300301","2022-12-12 04:00","2022","12","12","04:00","-5.6","","-9.8","","72","","","","30","","10","","24.1","","101.50","","","","-10","","Snow"
"-63.12","46.29","CHARLOTTETOWN A","8300301","2022-12-12 05:00","2022","12","12","05:00","-5.5","","-10.2","","70","","","","27","","10","","24.1","","101.48","","","","-10","","Snow"
"-63.12","46.29","CHARLOTTETOWN A","8300301","2022-12-12 06:00","2022","12","12","06:00","-5.7","","-10.2","","71","","","","30","","10","","24.1","","101.45","","","","-10","","Snow"
"-63.12","46.29","CHARLOTTETOWN A","8300301","2022-12-12 07:00","2022","12","12","07:00","-5.9","","-9.9","","73","","","","30","","11","","24.1","","101.38","","","","-11","","Snow"
"-63.12","46.29","CHARLOTTETOWN A","8300301","2022-12-12 08:00","2022","12","12","08:00","-6.1","","-10.0","","74","","","","31","","12","","24.1","","101.35","","","","-11","","Cloudy"
"-63.12","46.29","CHARLOTTETOWN A","8300301","2022-12-12 09:00","2022","12","12","09:00","-5.8","","-10.0","","73","","","","31","","10","","24.1","","101.41","","","","-10","","Snow"
"-63.12","46.29","CHARLOTTETOWN A","8300301","2022-12-12 10:00","2022","12","12","10:00","-5.5","","-10.6","","67","","","","31","","14","","24.1","","101.41","","","","-11","","Snow"
"-63.12","46.29","CHARLOTTETOWN A","8300301","2022-12-12 11:00","2022","12","12","11:00","-4.6","","-11.2","","60","","","","35","","8","","24.1","","101.30","","","","-8","","Snow"
"-63.12","46.29","CHARLOTTETOWN A","8300301","2022-12-12 12:00","2022","12","12","12:00","-4.6","","-10.9","","61","","","","31","","9","","24.1","","101.24","","","","-8","","NA"
"-63.12","46.29","CHARLOTTETOWN A","8300301","2022-12-12 13:00","2022","12","12","13:00","-3.2","","-10.2","","59","","","","32","","14","","24.1","","101.15","","","","-8","","NA"
"-63.12","46.29","CHARLOTTETOWN A","8300301","2022-12-12 14:00","2022","12","12","14:00","-3.8","","-9.8","","63","","","","31","","12","","24.1","","101.13","","","","-8","","Mostly Cloudy"
"-63.12","46.29","CHARLOTTETOWN A","8300301","2022-12-12 15:00","2022","12","12","15:00","-4.1","","-8.8","","70","","","","32","","10","","24.1","","101.13","","","","-8","","NA"
"-63.12","46.29","CHARLOTTETOWN A","8300301","2022-12-12 16:00","2022","12","12","16:00","-4.2","","-7.5","","78","","","","32","","16","","24.1","","101.14","","","","-10","","NA"
"-63.12","46.29","CHARLOTTETOWN A","8300301","2022-12-12 17:00","2022","12","12","17:00","-4.5","","-6.6","","85","","","","33","","12","","24.1","","101.08","","","","-9","","Snow"
"-63.12","46.29","CHARLOTTETOWN A","8300301","2022-12-12 18:00","2022","12","12","18:00","-4.4","","-6.1","","88","","","","35","","15","","16.1","","101.07","","","","-10","","Snow"
"-63.12","46.29","CHARLOTTETOWN A","8300301","2022-12-12 19:00","2022","12","12","19:00","-4.0","","-6.1","","85","","","","35","","12","","24.1","","101.08","","","","-9","","Snow"
"-63.12","46.29","CHARLOTTETOWN A","8300301","2022-12-12 20:00","2022","12","12","20:00","-3.5","","-7.2","","76","","","","35","","14","","24.1","","101.05","","","","-9","","Snow"
"-63.12","46.29","CHARLOTTETOWN A","8300301","2022-12-12 21:00","2022","12","12","21:00","-3.4","","-7.0","","76","","","","36","","14","","24.1","","101.03","","","","-8","","Snow"
"-63.12","46.29","CHARLOTTETOWN A","8300301","2022-12-12 22:00","2022","12","12","22:00","-3.3","","-6.3","","80","","","","35","","17","","24.1","","101.03","","","","-9","","Snow"
"-63.12","46.29","CHARLOTTETOWN A","8300301","2022-12-12 23:00","2022","12","12","23:00","-3.2","","-6.3","","79","","","","1","","10","","24.1","","100.98","","","","-7","","Snow"
"-63.12","46.29","CHARLOTTETOWN A","8300301","2022-12-13 00:00","2022","12","13","00:00","-2.8","","-6.6","","75","","","","1","","21","","24.1","","100.88","","","","-9","","Snow"
"-63.12","46.29","CHARLOTTETOWN A","8300301","2022-12-13 01:00","2022","12","13","01:00","-2.9","","-6.3","","78","","","","36","","17","","24.1","","100.78","","","","-8","","Snow"
"-63.12","46.29","CHARLOTTETOWN A","8300301","2022-12-13 02:00","2022","12","13","02:00","-2.6","","-5.7","","79","","","","35","","22","","24.1","","100.72","","","","-9","","Cloudy"
"-63.12","46.29","CHARLOTTETOWN A","8300301","2022-12-13 03:00","2022","12","13","03:00","-2.2","","-5.0","","81","","","","35","","23","","24.1","","100.70","","","","-8","","NA"
"-63.12","46.29","CHARLOTTETOWN A","8300301","2022-12-13 04:00","2022","12","13","04:00","-1.9","","-3.8","","87","","","","36","","23","","9.7","","100.66","","","","-8","","Snow"
"-63.12","46.29","CHARLOTTETOWN A","8300301","2022-12-13 05:00","2022","12","13","05:00","-1.8","","-3.8","","86","","","","36","","24","","19.3","","100.63","","","","-8","","Snow"
"-63.12","46.29","CHARLOTTETOWN A","8300301","2022-12-13 06:00","2022","12","13","06:00","-1.4","","-4.8","","78","","","","35","","21","","16.1","","100.61","","","","-7","","Snow"
"-63.12","46.29","CHARLOTTETOWN A","8300301","2022-12-13 07:00","2022","12","13","07:00","-1.5","","-3.3","","87","","","","36","","21","","8.1","","100.58","","","","-7","","Snow,Blowing Snow"
"-63.12","46.29","CHARLOTTETOWN A","8300301","2022-12-13 08:00","2022","12","13","08:00","-1.0","","-5.2","","73","","","","1","","29","","9.7","","100.53","","","","-8","","Snow,Blowing Snow"
"-63.12","46.29","CHARLOTTETOWN A","8300301","2022-12-13 09:00","2022","12","13","09:00","-0.9","","-5.3","","72","","","","35","","37","","24.1","","100.50","","","","-8","","Snow,Blowing Snow"
"-63.12","46.29","CHARLOTTETOWN A","8300301","2022-12-13 10:00","2022","12","13","10:00","-0.6","","-4.9","","73","","","","35","","30","","24.1","","100.43","","","","-7","","Snow,Blowing Snow"
"-63.12","46.29","CHARLOTTETOWN A","8300301","2022-12-13 11:00","2022","12","13","11:00","-0.6","","-4.5","","75","","","","36","","28","","24.1","","100.29","","","","-7","","Snow Showers,Blowing Snow"
"-63.12","46.29","CHARLOTTETOWN A","8300301","2022-12-13 12:00","2022","12","13","12:00","-1.1","","-5.2","","74","","","","34","","39","","16.1","","100.19","","","","-9","","Snow Showers,Blowing Snow"
"-63.12","46.29","CHARLOTTETOWN A","8300301","2022-12-13 13:00","2022","12","13","13:00","-1.6","","-4.2","","82","","","","34","","34","","3.2","","100.07","","","","-9","","Snow Showers,Blowing Snow"
"-63.12","46.29","CHARLOTTETOWN A","8300301","2022-12-13 14:00","2022","12","13","14:00","-1.9","","-4.3","","84","","","","33","","36","","2.4","","99.95","","","","-10","","Snow Showers,Blowing Snow"
"-63.12","46.29","CHARLOTTETOWN A","8300301","2022-12-13 15:00","2022","12","13","15:00","-2.4","","-4.4","","86","","","","33","","40","","2.4","","99.89","","","","-11","","Snow Showers,Blowing Snow"
"-63.12","46.29","CHARLOTTETOWN A","8300301","2022-12-13 16:00","2022","12","13","16:00","-2.8","","-4.4","","88","","","","33","","46","","1.2","","99.85","","","","-12","","Snow,Blowing Snow"
"-63.12","46.29","CHARLOTTETOWN A","8300301","2022-12-13 17:00","2022","12","13","17:00","-3.1","","-4.7","","88","","","","32","","46","","2.4","","99.80","","","","-12","","Snow,Blowing Snow"
"-63.12","46.29","CHARLOTTETOWN A","8300301","2022-12-13 18:00","2022","12","13","18:00","-3.6","","-5.4","","87","","","","31","","40","","4.8","","99.67","","","","-12","","Snow,Blowing Snow"
"-63.12","46.29","CHARLOTTETOWN A","8300301","2022-12-13 19:00","2022","12","13","19:00","-4.1","","-5.6","","89","","","","30","","40","","4.0","","99.57","","","","-13","","Snow,Blowing Snow"
"-63.12","46.29","CHARLOTTETOWN A","8300301","2022-12-13 20:00","2022","12","13","20:00","-4.3","","-5.8","","89","","","","29","","34","","1.6","","99.49","","","","-13","","Snow,Blowing Snow"
"-63.12","46.29","CHARLOTTETOWN A","8300301","2022-12-13 21:00","2022","12","13","21:00","-4.2","","-5.8","","88","","","","30","","35","","2.0","","99.39","","","","-13","","Snow,Blowing Snow"
"-63.12","46.29","CHARLOTTETOWN A","8300301","2022-12-13 22:00","2022","12","13","22:00","-4.4","","-6.2","","87","","","","29","","32","","3.2","","99.28","","","","-12","","Snow,Blowing Snow"
"-63.12","46.29","CHARLOTTETOWN A","8300301","2022-12-13 23:00","2022","12","13","23:00","-5.3","","-7.2","","86","","","","28","","39","","3.2","","99.20","","","","-14","","Snow,Blowing Snow"
"-63.12","46.29","CHARLOTTETOWN A","8300301","2022-12-14 00:00","2022","12","14","00:00","-5.3","","-7.0","","88","","","","28","","26","","1.2","","99.08","","","","-13","","Snow,Blowing Snow"
"-63.12","46.29","CHARLOTTETOWN A","8300301","2022-12-14 01:00","2022","12","14","01:00","-5.1","","-7.0","","87","","","","27","","30","","2.4","","99.01","","","","-13","","Snow,Blowing Snow"
"-63.12","46.29","CHARLOTTETOWN A","8300301","2022-12-14 02:00","2022","12","14","02:00","-5.2","","-6.8","","89","","","","26","","33","","2.4","","98.96","","","","-14","","Snow,Blowing Snow"
"-63.12","46.29","CHARLOTTETOWN A","8300301","2022-12-14 03:00","2022","12","14","03:00","-5.1","","-6.6","","90","","","","27","","28","","1.6","","98.89","","","","-13","","Snow,Blowing Snow"
"-63.12","46.29","CHARLOTTETOWN A","8300301","2022-12-14 04:00","2022","12","14","04:00","-4.9","","-6.2","","91","","","","26","","28","","1.6","","98.79","","","","-13","","Snow,Blowing Snow"
"-63.12","46.29","CHARLOTTETOWN A","8300301","2022-12-14 05:00","2022","12","14","05:00","-5.4","","-6.7","","91","","","","25","","34","","0.8","","98.68","","","","-14","","Moderate Snow,Blowing Snow"
"-63.12","46.29","CHARLOTTETOWN A","8300301","2022-12-14 06:00","2022","12","14","06:00","-5.9","","-7.2","","91","","","","24","","37","","0.8","","98.54","","","","-15","","Moderate Snow,Blowing Snow"
"-63.12","46.29","CHARLOTTETOWN A","8300301","2022-12-14 07:00","2022","12","14","07:00","-4.9","","-6.2","","91","","","","22","","31","","1.6","","98.63","","","","-13","","Snow,Blowing Snow"
"-63.12","46.29","CHARLOTTETOWN A","8300301","2022-12-14 08:00","2022","12","14","08:00","-4.6","","-6.0","","90","","","","18","","32","","1.6","","99.08","","","","-13","","Snow,Blowing Snow"
"-63.12","46.29","CHARLOTTETOWN A","8300301","2022-12-14 09:00","2022","12","14","09:00","-3.3","","-5.8","","83","","","","18","","35","","24.1","","99.36","","","","-11","","Snow,Blowing Snow"
"-63.12","46.29","CHARLOTTETOWN A","8300301","2022-12-14 10:00","2022","12","14","10:00","-3.1","","-6.0","","80","","","","15","","25","","24.1","","99.76","","","","-10","","Snow,Blowing Snow"
"-63.12","46.29","CHARLOTTETOWN A","8300301","2022-12-14 11:00","2022","12","14","11:00","-3.0","","-6.5","","77","","","","12","","18","","24.1","","99.98","","","","-9","","Snow,Blowing Snow"
"-63.12","46.29","CHARLOTTETOWN A","8300301","2022-12-14 12:00","2022","12","14","12:00","-2.9","","-6.9","","74","","","","9","","14","","24.1","","100.11","","","","-8","","NA"
"-63.12","46.29","CHARLOTTETOWN A","8300301","2022-12-14 13:00","2022","12","14","13:00","-2.5","","-6.6","","74","","","","7","","12","","24.1","","100.26","","","","-7","","NA"
"-63.12","46.29","CHARLOTTETOWN A","8300301","2022-12-14 14:00","2022","12","14","14:00","-2.4","","-6.2","","75","","","","7","","15","","24.1","","100.35","","","","-7","","Mainly Clear"
"-63.12","46.29","CHARLOTTETOWN A","8300301","2022-12-14 15:00","2022","12","14","15:00","-2.8","","-6.2","","77","","","","6","","12","","24.1","","100.49","","","","-7","","NA"
"-63.12","46.29","CHARLOTTETOWN A","8300301","2022-12-14 16:00","2022","12","14","16:00","-4.1","","-6.7","","82","","","","2","","13","","24.1","","100.62","","","","-9","","NA"
"-63.12","46.29","CHARLOTTETOWN A","8300301","2022-12-14 17:00","2022","12","14","17:00","-3.8","","-5.8","","86","","","","1","","8","","24.1","","100.75","","","","-7","","Mostly Cloudy"
"-63.12","46.29","CHARLOTTETOWN A","8300301","2022-12-14 18:00","2022","12","14","18:00","-1.9","","-4.4","","83","","","","5","","5","","24.1","","100.86","","","","-4","","NA"
"-63.12","46.29","CHARLOTTETOWN A","8300301","2022-12-14 19:00","2022","12","14","19:00","-1.8","","-3.0","","92","","","","33","","5","","4.8","","100.96","","","","-4","","Snow"
"-63.12","46.29","CHARLOTTETOWN A","8300301","2022-12-14 20:00","2022","12","14","20:00","-1.6","","-2.3","","95","","","","32","","11","","24.1","","100.93","","","","-5","","Mostly Cloudy"
"-63.12","46.29","CHARLOTTETOWN A","8300301","2022-12-14 21:00","2022","12","14","21:00","0.1","","-1.8","","87","","","","35","","16","","24.1","","100.87","","","","","","NA"
"-63.12","46.29","CHARLOTTETOWN A","8300301","2022-12-14 22:00","2022","12","14","22:00","1.0","","0.0","","93","","","","36","","17","","24.1","","100.85","","","","","","NA"
"-63.12","46.29","CHARLOTTETOWN A","8300301","2022-12-14 23:00","2022","12","14","23:00","1.5","","1.1","","97","","","","35","","19","","3.2","","100.81","","","","","","Drizzle,Fog"
"-63.12","46.29","CHARLOTTETOWN A","8300301","2022-12-15 00:00","2022","12","15","00:00","2.5","","1.5","","93","","","","3","","37","","4.8","","100.82","","","","","","Drizzle,Fog"
"-63.12","46.29","CHARLOTTETOWN A","8300301","2022-12-15 01:00","2022","12","15","01:00","2.4","","1.4","","94","","","","3","","36","","6.4","","100.87","","","","","","Drizzle,Fog"
"-63.12","46.29","CHARLOTTETOWN A","8300301","2022-12-15 02:00","2022","12","15","02:00","2.4","","1.8","","96","","","","3","","33","","4.8","","100.95","","","","","","Drizzle,Fog"
"-63.12","46.29","CHARLOTTETOWN A","8300301","2022-12-15 03:00","2022","12","15","03:00","2.5","","1.9","","96","","","","3","","39","","3.2","","101.01","","","","","","Drizzle,Fog"
"-63.12","46.29","CHARLOTTETOWN A","8300301","2022-12-15 04:00","2022","12","15","04:00","2.3","","1.6","","95","","","","3","","41","","2.4","","101.08","","","","","","Drizzle,Fog"
"-63.12","46.29","CHARLOTTETOWN A","8300301","2022-12-15 05:00","2022","12","15","05:00","2.3","","1.8","","96","","","","3","","41","","2.4","","101.15","","","","","","Drizzle,Fog"
"-63.12","46.29","CHARLOTTETOWN A","8300301","2022-12-15 06:00","2022","12","15","06:00","2.6","","1.2","","91","","","","3","","46","","6.4","","101.25","","","","","","Drizzle,Fog"
"-63.12","46.29","CHARLOTTETOWN A","8300301","2022-12-15 07:00","2022","12","15","07:00","2.5","","0.8","","88","","","","3","","39","","8.1","","101.41","","","","","","Drizzle,Fog"
"-63.12","46.29","CHARLOTTETOWN A","8300301","2022-12-15 08:00","2022","12","15","08:00","2.5","","0.5","","87","","","","3","","47","","9.7","","101.50","","","","","","Drizzle,Fog"
"-63.12","46.29","CHARLOTTETOWN A","8300301","2022-12-15 09:00","2022","12","15","09:00","2.3","","0.4","","87","","","","3","","43","","9.7","","101.62","","","","","","Drizzle,Fog"
"-63.12","46.29","CHARLOTTETOWN A","8300301","2022-12-15 10:00","2022","12","15","10:00","2.3","","0.3","","86","","","","3","","45","","9.7","","101.67","","","","","","Drizzle,Fog"
"-63.12","46.29","CHARLOTTETOWN A","8300301","2022-12-15 11:00","2022","12","15","11:00","2.4","","0.2","","86","","","","2","","45","","9.7","","101.70","","","","","","Rain,Fog"
"-63.12","46.29","CHARLOTTETOWN A","8300301","2022-12-15 12:00","2022","12","15","12:00","2.2","","0.0","","85","","","","3","","44","","9.7","","101.74","","","","","","Rain,Fog"
"-63.12","46.29","CHARLOTTETOWN A","8300301","2022-12-15 13:00","2022","12","15","13:00","2.1","","-0.5","","83","","","","3","","51","","9.7","","101.76","","","","","","Fog"
"-63.12","46.29","CHARLOTTETOWN A","8300301","2022-12-15 14:00","2022","12","15","14:00","1.9","","-0.9","","82","","","","3","","41","","9.7","","101.74","","","","","","Fog"
"-63.12","46.29","CHARLOTTETOWN A","8300301","2022-12-15 15:00","2022","12","15","15:00","1.7","","-1.0","","83","","","","1","","39","","9.7","","101.84","","","","","","Fog"
"-63.12","46.29","CHARLOTTETOWN A","8300301","2022-12-15 16:00","2022","12","15","16:00","1.4","","-1.3","","82","","","","1","","43","","9.7","","101.86","","","","","","Fog"
"-63.12","46.29","CHARLOTTETOWN A","8300301","2022-12-15 17:00","2022","12","15","17:00","1.5","","-1.3","","82","","","","2","","35","","16.1","","101.88","","","","","","Cloudy"
"-63.12","46.29","CHARLOTTETOWN A","8300301","2022-12-15 18:00","2022","12","15","18:00","1.6","","-1.5","","80","","","","2","","48","","24.1","","101.88","","","","","","NA"
"-63.12","46.29","CHARLOTTETOWN A","8300301","2022-12-15 19:00","2022","12","15","19:00","1.6","","-1.0","","83","","","","2","","38","","24.1","","101.87","","","","","","NA"
"-63.12","46.29","CHARLOTTETOWN A","8300301","2022-12-15 20:00","2022","12","15","20:00","1.6","","-0.8","","84","","","","3","","43","","24.1","","101.90","","","","","","Cloudy"
"-63.12","46.29","CHARLOTTETOWN A","8300301","2022-12-15 21:00","2022","12","15","21:00","1.2","","-0.1","","91","","","","2","","33","","24.1","","101.96","","","","","","Snow Showers"
"-63.12","46.29","CHARLOTTETOWN A","8300301","2022-12-15 22:00","2022","12","15","22:00","1.6","","-0.4","","86","","","","2","","31","","19.3","","101.94","","","","","","Snow Showers"
"-63.12","46.29","CHARLOTTETOWN A","8300301","2022-12-15 23:00","2022","12","15","23:00","1.9","","-0.4","","85","","","","3","","29","","24.1","","101.93","","","","","","Snow Showers"
"-63.12","46.29","CHARLOTTETOWN A","8300301","2022-12-16 00:00","2022","12","16","00:00","2.0","","-0.4","","84","","","","3","","32","","24.1","","101.91","","","","","","NA"
"-63.12","46.29","CHARLOTTETOWN A","8300301","2022-12-16 01:00","2022","12","16","01:00","2.0","","-0.4","","84","","","","4","","32","","24.1","","101.87","","","","","","Snow Showers"
"-63.12","46.29","CHARLOTTETOWN A","8300301","2022-12-16 02:00","2022","12","16","02:00","2.0","","-0.7","","82","","","","4","","35","","24.1","","101.78","","","","","","Snow Showers"
"-63.12","46.29","CHARLOTTETOWN A","8300301","2022-12-16 03:00","2022","12","16","03:00","2.1","","-0.8","","81","","","","4","","26","","24.1","","101.84","","","","","","Snow Showers"
"-63.12","46.29","CHARLOTTETOWN A","8300301","2022-12-16 04:00","2022","12","16","04:00","2.0","","-0.9","","81","","","","4","","27","","24.1","","101.86","","","","","","NA"
"-63.12","46.29","CHARLOTTETOWN A","8300301","2022-12-16 05:00","2022","12","16","05:00","1.8","","-0.9","","82","","","","4","","27","","24.1","","101.81","","","","","","Cloudy"
"-63.12","46.29","CHARLOTTETOWN A","8300301","2022-12-16 06:00","2022","12","16","06:00","1.7","","-0.8","","83","","","","4","","21","","24.1","","101.83","","","","","","NA"
"-63.12","46.29","CHARLOTTETOWN A","8300301","2022-12-16 07:00","2022","12","16","07:00","1.6","","-0.8","","84","","","","4","","22","","24.1","","101.78","","","","","","NA"
"-63.12","46.29","CHARLOTTETOWN A","8300301","2022-12-16 08:00","2022","12","16","08:00","1.5","","-0.4","","87","","","","4","","23","","16.1","","101.80","","","","","","Drizzle"
"-63.12","46.29","CHARLOTTETOWN A","8300301","2022-12-16 09:00","2022","12","16","09:00","1.7","","-0.3","","86","","","","4","","22","","16.1","","101.78","","","","","","NA"
"-63.12","46.29","CHARLOTTETOWN A","8300301","2022-12-16 10:00","2022","12","16","10:00","2.1","","-0.6","","82","","","","4","","28","","24.1","","101.75","","","","","","NA"
"-63.12","46.29","CHARLOTTETOWN A","8300301","2022-12-16 11:00","2022","12","16","11:00","2.0","","-1.0","","81","","","","5","","32","","24.1","","101.67","","","","","","Cloudy"
"-63.12","46.29","CHARLOTTETOWN A","8300301","2022-12-16 12:00","2022","12","16","12:00","2.4","","-0.6","","81","","","","5","","23","","24.1","","101.57","","","","","","NA"
"-63.12","46.29","CHARLOTTETOWN A","8300301","2022-12-16 13:00","2022","12","16","13:00","2.6","","-0.5","","80","","","","6","","17","","24.1","","101.49","","","","","","NA"
"-63.12","46.29","CHARLOTTETOWN A","8300301","2022-12-16 14:00","2022","12","16","14:00","2.6","","-0.5","","80","","","","5","","18","","24.1","","101.45","","","","","","Cloudy"
"-63.12","46.29","CHARLOTTETOWN A","8300301","2022-12-16 15:00","2022","12","16","15:00","2.2","","-0.5","","82","","","","5","","17","","24.1","","101.46","","","","","","NA"
"-63.12","46.29","CHARLOTTETOWN A","8300301","2022-12-16 16:00","2022","12","16","16:00","2.0","","-0.8","","81","","","","3","","16","","24.1","","101.42","","","","","","NA"
"-63.12","46.29","CHARLOTTETOWN A","8300301","2022-12-16 17:00","2022","12","16","17:00","1.6","","-0.8","","84","","","","5","","15","","24.1","","101.36","","","","","","Cloudy"
"-63.12","46.29","CHARLOTTETOWN A","8300301","2022-12-16 18:00","2022","12","16","18:00","1.4","","-1.1","","83","","","","7","","19","","24.1","","101.28","","","","","","NA"
"-63.12","46.29","CHARLOTTETOWN A","8300301","2022-12-16 19:00","2022","12","16","19:00","1.4","","-1.1","","84","","","","5","","13","","24.1","","101.30","","","","","","NA"
"-63.12","46.29","CHARLOTTETOWN A","8300301","2022-12-16 20:00","2022","12","16","20:00","1.2","","-1.0","","85","","","","6","","15","","24.1","","101.23","","","","","","Cloudy"
"-63.12","46.29","CHARLOTTETOWN A","8300301","2022-12-16 21:00","2022","12","16","21:00","1.6","","-1.1","","82","","","","6","","15","","24.1","","101.11","","","","","","NA"
"-63.12","46.29","CHARLOTTETOWN A","8300301","2022-12-16 22:00","2022","12","16","22:00","0.7","","-1.2","","87","","","","6","","14","","24.1","","101.04","","","","","","NA"
"-63.12","46.29","CHARLOTTETOWN A","8300301","2022-12-16 23:00","2022","12","16","23:00","1.2","","-1.0","","85","","","","6","","16","","24.1","","100.97","","","","","","Cloudy"
"-63.12","46.29","CHARLOTTETOWN A","8300301","2022-12-17 00:00","2022","12","17","00:00","1.1","","-1.0","","86","","","","6","","13","","24.1","","100.93","","","","","","NA"
"-63.12","46.29","CHARLOTTETOWN A","8300301","2022-12-17 01:00","2022","12","17","01:00","1.2","","-1.1","","85","","","","6","","15","","24.1","","100.80","","","","","","NA"
"-63.12","46.29","CHARLOTTETOWN A","8300301","2022-12-17 02:00","2022","12","17","02:00","1.4","","-0.9","","85","","","","6","","19","","24.1","","100.68","","","","","","Cloudy"
"-63.12","46.29","CHARLOTTETOWN A","8300301","2022-12-17 03:00","2022","12","17","03:00","1.4","","-0.9","","85","","","","6","","19","","24.1","","100.57","","","","","","NA"
"-63.12","46.29","CHARLOTTETOWN A","8300301","2022-12-17 04:00","2022","12","17","04:00","1.7","","-0.8","","83","","","","6","","24","","24.1","","100.45","","","","","","NA"
"-63.12","46.29","CHARLOTTETOWN A","8300301","2022-12-17 05:00","2022","12","17","05:00","1.7","","-0.7","","84","","","","6","","22","","24.1","","100.37","","","","","","Cloudy"
"-63.12","46.29","CHARLOTTETOWN A","8300301","2022-12-17 06:00","2022","12","17","06:00","1.8","","-0.6","","84","","","","6","","21","","24.1","","100.30","","","","","","NA"
"-63.12","46.29","CHARLOTTETOWN A","8300301","2022-12-17 07:00","2022","12","17","07:00","2.0","","-0.4","","84","","","","7","","19","","24.1","","100.22","","","","","","NA"
"-63.12","46.29","CHARLOTTETOWN A","8300301","2022-12-17 08:00","2022","12","17","08:00","2.2","","-0.3","","84","","","","7","","19","","24.1","","100.19","","","","","","Cloudy"
"-63.12","46.29","CHARLOTTETOWN A","8300301","2022-12-17 09:00","2022","12","17","09:00","2.8","","-0.8","","77","","","","8","","25","","24.1","","100.15","","","","","","NA"
"-63.12","46.29","CHARLOTTETOWN A","8300301","2022-12-17 10:00","2022","12","17","10:00","2.8","","-0.8","","77","","","","7","","30","","24.1","","100.09","","","","","","NA"
"-63.12","46.29","CHARLOTTETOWN A","8300301","2022-12-17 11:00","2022","12","17","11:00","3.2","","-0.6","","76","","","","7","","22","","24.1","","100.00","","","","","","Cloudy"
"-63.12","46.29","CHARLOTTETOWN A","8300301","2022-12-17 12:00","2022","12","17","12:00","3.1","","-0.8","","75","","","","7","","29","","24.1","","99.85","","","","","","NA"
"-63.12","46.29","CHARLOTTETOWN A","8300301","2022-12-17 13:00","2022","12","17","13:00","3.4","","-0.7","","75","","","","7","","26","","24.1","","99.73","","","","","","NA"
"-63.12","46.29","CHARLOTTETOWN A","8300301","2022-12-17 14:00","2022","12","17","14:00","3.4","","-0.8","","74","","","","7","","27","","24.1","","99.64","","","","","","Cloudy"
"-63.12","46.29","CHARLOTTETOWN A","8300301","2022-12-17 15:00","2022","12","17","15:00","3.3","","-0.6","","76","","","","7","","25","","24.1","","99.63","","","","","","NA"
"-63.12","46.29","CHARLOTTETOWN A","8300301","2022-12-17 16:00","2022","12","17","16:00","3.0","","-0.6","","77","","","","7","","24","","24.1","","99.63","","","","","","NA"
"-63.12","46.29","CHARLOTTETOWN A","8300301","2022-12-17 17:00","2022","12","17","17:00","2.9","","-0.9","","76","","","","7","","25","","24.1","","99.64","","","","","","Cloudy"
"-63.12","46.29","CHARLOTTETOWN A","8300301","2022-12-17 18:00","2022","12","17","18:00","2.8","","-1.0","","76","","","","6","","28","","24.1","","99.63","","","","","","NA"
"-63.12","46.29","CHARLOTTETOWN A","8300301","2022-12-17 19:00","2022","12","17","19:00","2.6","","-1.3","","75","","","","6","","28","","24.1","","99.64","","","","","","NA"
"-63.12","46.29","CHARLOTTETOWN A","8300301","2022-12-17 20:00","2022","12","17","20:00","2.6","","-1.0","","77","","","","6","","26","","24.1","","99.66","","","","","","Cloudy"
"-63.12","46.29","CHARLOTTETOWN A","8300301","2022-12-17 21:00","2022","12","17","21:00","2.5","","-0.4","","81","","","","5","","22","","24.1","","99.65","","","","","","NA"
"-63.12","46.29","CHARLOTTETOWN A","8300301","2022-12-17 22:00","2022","12","17","22:00","2.1","","-0.4","","83","","","","4","","23","","24.1","","99.66","","","","","","NA"
"-63.12","46.29","CHARLOTTETOWN A","8300301","2022-12-17 23:00","2022","12","17","23:00","2.1","","-0.6","","82","","","","5","","22","","24.1","","99.64","","","","","","Cloudy"
"-63.12","46.29","CHARLOTTETOWN A","8300301","2022-12-18 00:00","2022","12","18","00:00","1.6","","-0.7","","85","","","","4","","22","","24.1","","99.62","","","","","","Rain"
"-63.12","46.29","CHARLOTTETOWN A","8300301","2022-12-18 01:00","2022","12","18","01:00","1.7","","-1.3","","80","","","","4","","22","","24.1","","99.63","","","","","","NA"
"-63.12","46.29","CHARLOTTETOWN A","8300301","2022-12-18 02:00","2022","12","18","02:00","1.4","","-1.3","","82","","","","4","","22","","24.1","","99.61","","","","","","Rain"
"-63.12","46.29","CHARLOTTETOWN A","8300301","2022-12-18 03:00","2022","12","18","03:00","1.4","","-0.5","","87","","","","4","","21","","24.1","","99.63","","","","","","NA"
"-63.12","46.29","CHARLOTTETOWN A","8300301","2022-12-18 04:00","2022","12","18","04:00","1.6","","-0.4","","87","","","","4","","22","","24.1","","99.63","","","","","","NA"
"-63.12","46.29","CHARLOTTETOWN A","8300301","2022-12-18 05:00","2022","12","18","05:00","1.9","","-0.4","","85","","","","3","","23","","24.1","","99.66","","","","","","Cloudy"
"-63.12","46.29","CHARLOTTETOWN A","8300301","2022-12-18 06:00","2022","12","18","06:00","2.0","","0.1","","87","","","","3","","26","","24.1","","99.68","","","","","","NA"
"-63.12","46.29","CHARLOTTETOWN A","8300301","2022-12-18 07:00","2022","12","18","07:00","2.1","","0.3","","88","","","","4","","27","","24.1","","99.72","","","","","","NA"
"-63.12","46.29","CHARLOTTETOWN A","8300301","2022-12-18 08:00","2022","12","18","08:00","2.0","","0.1","","88","","","","3","","30","","24.1","","99.77","","","","","","Cloudy"
"-63.12","46.29","CHARLOTTETOWN A","8300301","2022-12-18 09:00","2022","12","18","09:00","1.8","","0.5","","91","","","","3","","27","","24.1","","99.81","","","","","","Rain"
"-63.12","46.29","CHARLOTTETOWN A","8300301","2022-12-18 10:00","2022","12","18","10:00","2.3","","0.7","","89","","","","4","","33","","16.1","","99.83","","","","","","Rain"
"-63.12","46.29","CHARLOTTETOWN A","8300301","2022-12-18 11:00","2022","12","18","11:00","2.4","","1.3","","92","","","","4","","28","","9.7","","99.81","","","","","","Rain,Fog"
"-63.12","46.29","CHARLOTTETOWN A","8300301","2022-12-18 12:00","2022","12","18","12:00","2.3","","1.4","","94","","","","4","","23","","24.1","","99.76","","","","","","Rain"
"-63.12","46.29","CHARLOTTETOWN A","8300301","2022-12-18 13:00","2022","12","18","13:00","2.0","","1.2","","94","","","","3","","29","","24.1","","99.68","","","","","","Rain"
"-63.12","46.29","CHARLOTTETOWN A","8300301","2022-12-18 14:00","2022","12","18","14:00","2.5","","1.6","","94","","","","4","","21","","24.1","","99.67","","","","","","Rain"
"-63.12","46.29","CHARLOTTETOWN A","8300301","2022-12-18 15:00","2022","12","18","15:00","2.6","","1.7","","94","","","","4","","22","","12.9","","99.71","","","","","","Rain"
"-63.12","46.29","CHARLOTTETOWN A","8300301","2022-12-18 16:00","2022","12","18","16:00","2.4","","1.7","","95","","","","4","","21","","12.9","","99.71","","","","","","Rain"
"-63.12","46.29","CHARLOTTETOWN A","8300301","2022-12-18 17:00","2022","12","18","17:00","2.4","","1.9","","97","","","","4","","15","","12.9","","99.71","","","","","","Rain"
"-63.12","46.29","CHARLOTTETOWN A","8300301","2022-12-18 18:00","2022","12","18","18:00","2.5","","1.9","","96","","","","6","","22","","12.9","","99.70","","","","","","Rain"
"-63.12","46.29","CHARLOTTETOWN A","8300301","2022-12-18 19:00","2022","12","18","19:00","2.5","","1.8","","95","","","","6","","17","","12.9","","99.71","","","","","","Rain"
"-63.12","46.29","CHARLOTTETOWN A","8300301","2022-12-18 20:00","2022","12","18","20:00"
"-63.12","46.29","CHARLOTTETOWN A","8300301","2022-12-18 21:00","2022","12","18","21:00","2.0","","1.3","","96","","","","5","","11","","12.9","","99.68","","","","","","Rain"
"-63.12","46.29","CHARLOTTETOWN A","8300301","2022-12-18 22:00","2022","12","18","22:00","2.0","","1.4","","96","","","","5","","13","","12.9","","99.62","","","","","","Rain"
"-63.12","46.29","CHARLOTTETOWN A","8300301","2022-12-18 23:00","2022","12","18","23:00","2.1","","1.6","","96","","","","4","","11","","12.9","","99.58","","","","","","Rain"
"-63.12","46.29","CHARLOTTETOWN A","8300301","2022-12-19 00:00","2022","12","19","00:00","2.0","","1.4","","96","","","","5","","12","","12.9","","99.55","","","","","","Rain"
"-63.12","46.29","CHARLOTTETOWN A","8300301","2022-12-19 01:00","2022","12","19","01:00","1.9","","1.4","","97","","","","3","","10","","24.1","","99.49","","","","","","Rain,Snow"
"-63.12","46.29","CHARLOTTETOWN A","8300301","2022-12-19 02:00","2022","12","19","02:00","2.4","","1.7","","96","","","","4","","13","","12.9","","99.45","","","","","","Rain,Snow"
"-63.12","46.29","CHARLOTTETOWN A","8300301","2022-12-19 03:00","2022","12","19","03:00","2.4","","1.7","","95","","","","5","","18","","16.1","","99.44","","","","","","Rain"
"-63.12","46.29","CHARLOTTETOWN A","8300301","2022-12-19 04:00","2022","12","19","04:00","1.6","","0.9","","96","","","","3","","18","","14.5","","99.42","","","","","","Rain"
"-63.12","46.29","CHARLOTTETOWN A","8300301","2022-12-19 05:00","2022","12","19","05:00","2.1","","1.6","","97","","","","3","","18","","14.5","","99.39","","","","","","Rain"
"-63.12","46.29","CHARLOTTETOWN A","8300301","2022-12-19 06:00","2022","12","19","06:00","2.3","","1.7","","96","","","","5","","19","","24.1","","99.38","","","","","","Rain"
"-63.12","46.29","CHARLOTTETOWN A","8300301","2022-12-19 07:00","2022","12","19","07:00","2.1","","1.6","","97","","","","3","","21","","12.9","","99.36","","","","","","Rain"
"-63.12","46.29","CHARLOTTETOWN A","8300301","2022-12-19 08:00","2022","12","19","08:00","1.5","","1.0","","96","","","","2","","21","","24.1","","99.37","","","","","","Rain"
"-63.12","46.29","CHARLOTTETOWN A","8300301","2022-12-19 09:00","2022","12","19","09:00","2.2","","1.6","","96","","","","2","","22","","9.7","","99.37","","","","","","Rain"
"-63.12","46.29","CHARLOTTETOWN A","8300301","2022-12-19 10:00","2022","12","19","10:00","2.3","","1.8","","97","","","","2","","22","","2.4","","99.37","","","","","","Rain,Fog"
"-63.12","46.29","CHARLOTTETOWN A","8300301","2022-12-19 11:00","2022","12","19","11:00","2.7","","2.2","","97","","","","3","","19","","1.6","","99.35","","","","","","Rain,Fog"
"-63.12","46.29","CHARLOTTETOWN A","8300301","2022-12-19 12:00","2022","12","19","12:00","2.7","","2.2","","96","","","","3","","24","","1.6","","99.31","","","","","","Rain,Fog"
"-63.12","46.29","CHARLOTTETOWN A","8300301","2022-12-19 13:00","2022","12","19","13:00","2.8","","2.3","","97","","","","2","","26","","1.6","","99.27","","","","","","Rain,Fog"
"-63.12","46.29","CHARLOTTETOWN A","8300301","2022-12-19 14:00","2022","12","19","14:00","2.6","","2.2","","97","","","","2","","26","","1.6","","99.26","","","","","","Rain,Fog"
"-63.12","46.29","CHARLOTTETOWN A","8300301","2022-12-19 15:00","2022","12","19","15:00","1.5","","1.0","","96","","","","2","","23","","12.9","","99.30","","","","","","Rain"
"-63.12","46.29","CHARLOTTETOWN A","8300301","2022-12-19 16:00","2022","12","19","16:00","1.3","","0.8","","97","","","","36","","19","","8.1","","99.33","","","","","","Rain,Snow"
"-63.12","46.29","CHARLOTTETOWN A","8300301","2022-12-19 17:00","2022","12","19","17:00","1.5","","1.0","","97","","","","1","","23","","8.1","","99.36","","","","","","Rain,Snow"
"-63.12","46.29","CHARLOTTETOWN A","8300301","2022-12-19 18:00","2022","12","19","18:00","2.0","","1.4","","95","","","","2","","27","","12.9","","99.38","","","","","","Rain,Snow"
"-63.12","46.29","CHARLOTTETOWN A","8300301","2022-12-19 19:00","2022","12","19","19:00","2.0","","1.4","","95","","","","2","","26","","6.4","","99.40","","","","","","Rain,Fog"
"-63.12","46.29","CHARLOTTETOWN A","8300301","2022-12-19 20:00","2022","12","19","20:00","1.8","","1.1","","95","","","","2","","34","","9.7","","99.41","","","","","","Rain,Fog"
"-63.12","46.29","CHARLOTTETOWN A","8300301","2022-12-19 21:00","2022","12","19","21:00","1.1","","0.5","","96","","","","1","","30","","8.1","","99.41","","","","","","Rain,Fog"
"-63.12","46.29","CHARLOTTETOWN A","8300301","2022-12-19 22:00","2022","12","19","22:00","1.1","","0.5","","96","","","","36","","26","","9.7","","99.41","","","","","","Rain,Snow,Fog"
"-63.12","46.29","CHARLOTTETOWN A","8300301","2022-12-19 23:00","2022","12","19","23:00","1.3","","0.6","","96","","","","1","","29","","9.7","","99.43","","","","","","Rain,Snow,Fog"
"-63.12","46.29","CHARLOTTETOWN A","8300301","2022-12-20 00:00","2022","12","20","00:00","2.1","","1.5","","96","","","","1","","33","","4.8","","99.47","","","","","","Rain,Snow,Fog"
"-63.12","46.29","CHARLOTTETOWN A","8300301","2022-12-20 01:00","2022","12","20","01:00","2.5","","1.8","","95","","","","1","","36","","3.2","","99.54","","","","","","Rain,Snow,Fog"
"-63.12","46.29","CHARLOTTETOWN A","8300301","2022-12-20 02:00","2022","12","20","02:00","2.6","","1.6","","93","","","","1","","43","","9.7","","99.62","","","","","","Rain,Snow,Fog"
"-63.12","46.29","CHARLOTTETOWN A","8300301","2022-12-20 03:00","2022","12","20","03:00"
"-63.12","46.29","CHARLOTTETOWN A","8300301","2022-12-20 04:00","2022","12","20","04:00","2.7","","1.4","","91","","","","2","","40","","17.7","","99.84","","","","","","Rain"
"-63.12","46.29","CHARLOTTETOWN A","8300301","2022-12-20 05:00","2022","12","20","05:00","2.8","","1.4","","90","","","","1","","37","","17.7","","99.94","","","","","","Cloudy"
"-63.12","46.29","CHARLOTTETOWN A","8300301","2022-12-20 06:00","2022","12","20","06:00","2.8","","1.6","","92","","","","1","","32","","8.1","","100.05","","","","","","Drizzle,Fog"
"-63.12","46.29","CHARLOTTETOWN A","8300301","2022-12-20 07:00","2022","12","20","07:00","2.7","","1.8","","94","","","","1","","30","","4.8","","100.15","","","","","","Drizzle,Fog"
"-63.12","46.29","CHARLOTTETOWN A","8300301","2022-12-20 08:00","2022","12","20","08:00","2.6","","1.7","","94","","","","1","","34","","4.8","","100.28","","","","","","Drizzle,Fog"
"-63.12","46.29","CHARLOTTETOWN A","8300301","2022-12-20 09:00","2022","12","20","09:00","2.8","","1.8","","93","","","","1","","38","","4.8","","100.43","","","","","","Rain,Fog"
"-63.12","46.29","CHARLOTTETOWN A","8300301","2022-12-20 10:00","2022","12","20","10:00","2.5","","1.8","","95","","","","36","","30","","4.8","","100.54","","","","","","Rain,Fog"
"-63.12","46.29","CHARLOTTETOWN A","8300301","2022-12-20 11:00","2022","12","20","11:00","3.1","","2.1","","93","","","","1","","29","","8.1","","100.63","","","","","","Rain,Fog"
"-63.12","46.29","CHARLOTTETOWN A","8300301","2022-12-20 12:00","2022","12","20","12:00","3.1","","2.1","","93","","","","1","","33","","9.7","","100.70","","","","","","Rain,Fog"
"-63.12","46.29","CHARLOTTETOWN A","8300301","2022-12-20 13:00","2022","12","20","13:00","3.3","","2.0","","91","","","","2","","27","","8.1","","100.76","","","","","","Rain,Fog"
"-63.12","46.29","CHARLOTTETOWN A","8300301","2022-12-20 14:00","2022","12","20","14:00","3.2","","1.3","","87","","","","2","","32","","12.9","","100.82","","","","","","Cloudy"
"-63.12","46.29","CHARLOTTETOWN A","8300301","2022-12-20 15:00","2022","12","20","15:00","2.8","","1.4","","90","","","","2","","34","","8.1","","100.94","","","","","","Rain,Fog"
"-63.12","46.29","CHARLOTTETOWN A","8300301","2022-12-20 16:00","2022","12","20","16:00","2.6","","1.2","","90","","","","2","","27","","4.8","","101.08","","","","","","Rain,Fog"
"-63.12","46.29","CHARLOTTETOWN A","8300301","2022-12-20 17:00","2022","12","20","17:00","1.8","","1.1","","95","","","","2","","26","","6.4","","101.20","","","","","","Rain,Fog"
"-63.12","46.29","CHARLOTTETOWN A","8300301","2022-12-20 18:00","2022","12","20","18:00","2.4","","0.8","","89","","","","3","","31","","12.9","","101.29","","","","","","Rain"
"-63.12","46.29","CHARLOTTETOWN A","8300301","2022-12-20 19:00","2022","12","20","19:00","2.3","","0.7","","89","","","","2","","30","","12.9","","101.36","","","","","","Rain"
"-63.12","46.29","CHARLOTTETOWN A","8300301","2022-12-20 20:00","2022","12","20","20:00","2.3","","0.7","","89","","","","3","","29","","12.9","","101.45","","","","","","Drizzle"
"-63.12","46.29","CHARLOTTETOWN A","8300301","2022-12-20 21:00","2022","12","20","21:00","2.2","","0.4","","88","","","","3","","28","","12.9","","101.53","","","","","","NA"
"-63.12","46.29","CHARLOTTETOWN A","8300301","2022-12-20 22:00","2022","12","20","22:00","1.7","","0.9","","94","","","","3","","28","","12.9","","101.59","","","","","","NA"
"-63.12","46.29","CHARLOTTETOWN A","8300301","2022-12-20 23:00","2022","12","20","23:00","1.7","","0.8","","94","","","","2","","21","","12.9","","101.68","","","","","","Drizzle"
"-63.12","46.29","CHARLOTTETOWN A","8300301","2022-12-21 00:00","2022","12","21","00:00","1.1","","0.5","","95","","","","3","","22","","12.9","","101.72","","","","","","Drizzle"
"-63.12","46.29","CHARLOTTETOWN A","8300301","2022-12-21 01:00","2022","12","21","01:00","0.8","","0.3","","97","","","","2","","18","","9.7","","101.73","","","","","","Rain,Snow"
"-63.12","46.29","CHARLOTTETOWN A","8300301","2022-12-21 02:00","2022","12","21","02:00","0.7","","-0.6","","91","","","","3","","12","","24.1","","101.80","","","","","","Cloudy"
"-63.12","46.29","CHARLOTTETOWN A","8300301","2022-12-21 03:00","2022","12","21","03:00","0.9","","-0.9","","87","","","","34","","3","","24.1","","101.84","","","","","","NA"
"-63.12","46.29","CHARLOTTETOWN A","8300301","2022-12-21 04:00","2022","12","21","04:00","0.6","","-1.0","","89","","","","34","","7","","24.1","","101.88","","","","","","NA"
"-63.12","46.29","CHARLOTTETOWN A","8300301","2022-12-21 05:00","2022","12","21","05:00","0.3","","-1.7","","86","","","","36","","7","","24.1","","101.90","","","","","","Cloudy"
"-63.12","46.29","CHARLOTTETOWN A","8300301","2022-12-21 06:00","2022","12","21","06:00","-0.2","","-1.6","","90","","","","34","","7","","24.1","","101.92","","","","-3","","NA"
"-63.12","46.29","CHARLOTTETOWN A","8300301","2022-12-21 07:00","2022","12","21","07:00","0.3","","-1.9","","85","","","","36","","4","","24.1","","101.97","","","","","","NA"
"-63.12","46.29","CHARLOTTETOWN A","8300301","2022-12-21 08:00","2022","12","21","08:00","0.4","","-3.0","","78","","","","34","","7","","24.1","","102.04","","","","","","Mostly Cloudy"
"-63.12","46.29","CHARLOTTETOWN A","8300301","2022-12-21 09:00","2022","12","21","09:00","0.6","","-1.7","","84","","","","34","","7","","24.1","","102.11","","","","","","NA"
"-63.12","46.29","CHARLOTTETOWN A","8300301","2022-12-21 10:00","2022","12","21","10:00","1.3","","-1.8","","80","","","","2","","10","","24.1","","102.17","","","","","","NA"
"-63.12","46.29","CHARLOTTETOWN A","8300301","2022-12-21 11:00","2022","12","21","11:00","2.0","","-3.1","","69","","","","35","","6","","24.1","","102.21","","","","","","Mostly Cloudy"
"-63.12","46.29","CHARLOTTETOWN A","8300301","2022-12-21 12:00","2022","12","21","12:00","2.0","","-3.5","","67","","","","34","","5","","24.1","","102.17","","","","","","NA"
"-63.12","46.29","CHARLOTTETOWN A","8300301","2022-12-21 13:00","2022","12","21","13:00","2.1","","-3.8","","65","","","","35","","10","","24.1","","102.15","","","","","","NA"
"-63.12","46.29","CHARLOTTETOWN A","8300301","2022-12-21 14:00","2022","12","21","14:00","1.6","","-2.0","","77","","","","1","","13","","24.1","","102.15","","","","","","Mostly Cloudy"
"-63.12","46.29","CHARLOTTETOWN A","8300301","2022-12-21 15:00","2022","12","21","15:00","1.5","","-3.4","","70","","","","1","","8","","24.1","","102.18","","","","","","NA"
"-63.12","46.29","CHARLOTTETOWN A","8300301","2022-12-21 16:00","2022","12","21","16:00","0.4","","-4.0","","72","","","","36","","5","","24.1","","102.21","","","","","","NA"
"-63.12","46.29","CHARLOTTETOWN A","8300301","2022-12-21 17:00","2022","12","21","17:00","-0.5","","-3.5","","80","","","","1","","4","","24.1","","102.23","","","","-2","","Mostly Cloudy"
"-63.12","46.29","CHARLOTTETOWN A","8300301","2022-12-21 18:00","2022","12","21","18:00","-0.3","","-3.3","","80","","","","36","","2","","24.1","","102.25","","","","-1","","NA"
"-63.12","46.29","CHARLOTTETOWN A","8300301","2022-12-21 19:00","2022","12","21","19:00","0.2","","-2.8","","81","","","","16","","3","","24.1","","102.28","","","","","","NA"
"-63.12","46.29","CHARLOTTETOWN A","8300301","2022-12-21 20:00","2022","12","21","20:00","0.3","","-2.5","","81","","","","15","","3","","24.1","","102.31","","","","","","Cloudy"
"-63.12","46.29","CHARLOTTETOWN A","8300301","2022-12-21 21:00","2022","12","21","21:00","0.1","","-2.5","","83","","","","19","","6","","24.1","","102.32","","","","","","NA"
"-63.12","46.29","CHARLOTTETOWN A","8300301","2022-12-21 22:00","2022","12","21","22:00","0.1","","-1.9","","86","","","","17","","8","","24.1","","102.29","","","","","","NA"
"-63.12","46.29","CHARLOTTETOWN A","8300301","2022-12-21 23:00","2022","12","21","23:00","0.6","","-1.4","","86","","","","21","","7","","24.1","","102.29","","","","","","Cloudy"
"-63.12","46.29","CHARLOTTETOWN A","8300301","2022-12-22 00:00","2022","12","22","00:00","0.6","","-1.2","","87","","","","18","","7","","24.1","","102.28","","","","","","NA"
"-63.12","46.29","CHARLOTTETOWN A","8300301","2022-12-22 01:00","2022","12","22","01:00","0.8","","-0.9","","88","","","","21","","10","","24.1","","102.26","","","","","","NA"
"-63.12","46.29","CHARLOTTETOWN A","8300301","2022-12-22 02:00","2022","12","22","02:00","-0.1","","-1.1","","93","","","","27","","14","","16.1","","102.29","","","","-4","","Snow"
"-63.12","46.29","CHARLOTTETOWN A","8300301","2022-12-22 03:00","2022","12","22","03:00","-0.8","","-3.1","","84","","","","27","","17","","24.1","","102.34","","","","-6","","NA"
"-63.12","46.29","CHARLOTTETOWN A","8300301","2022-12-22 04:00","2022","12","22","04:00","-1.9","","-4.0","","85","","","","28","","14","","24.1","","102.37","","","","-7","","NA"
"-63.12","46.29","CHARLOTTETOWN A","8300301","2022-12-22 05:00","2022","12","22","05:00","-1.9","","-4.6","","82","","","","28","","17","","24.1","","102.45","","","","-7","","Mainly Clear"
"-63.12","46.29","CHARLOTTETOWN A","8300301","2022-12-22 06:00","2022","12","22","06:00","-2.0","","-5.5","","77","","","","29","","19","","24.1","","102.53","","","","-8","","NA"
"-63.12","46.29","CHARLOTTETOWN A","8300301","2022-12-22 07:00","2022","12","22","07:00","-2.4","","-5.5","","79","","","","27","","19","","24.1","","102.58","","","","-8","","NA"
"-63.12","46.29","CHARLOTTETOWN A","8300301","2022-12-22 08:00","2022","12","22","08:00","-3.1","","-5.2","","86","","","","26","","9","","24.1","","102.63","","","","-7","","Mainly Clear"
"-63.12","46.29","CHARLOTTETOWN A","8300301","2022-12-22 09:00","2022","12","22","09:00","-2.5","","-5.0","","83","","","","26","","13","","24.1","","102.68","","","","-7","","NA"
"-63.12","46.29","CHARLOTTETOWN A","8300301","2022-12-22 10:00","2022","12","22","10:00","-1.7","","-4.7","","80","","","","25","","18","","24.1","","102.73","","","","-7","","NA"
"-63.12","46.29","CHARLOTTETOWN A","8300301","2022-12-22 11:00","2022","12","22","11:00","-1.3","","-4.7","","78","","","","26","","15","","24.1","","102.76","","","","-6","","Mainly Clear"
"-63.12","46.29","CHARLOTTETOWN A","8300301","2022-12-22 12:00","2022","12","22","12:00","-1.4","","-6.0","","71","","","","27","","16","","22.5","","102.73","","","","-6","","NA"
"-63.12","46.29","CHARLOTTETOWN A","8300301","2022-12-22 13:00","2022","12","22","13:00","-0.7","","-5.6","","69","","","","33","","13","","24.1","","102.70","","","","-5","","NA"
"-63.12","46.29","CHARLOTTETOWN A","8300301","2022-12-22 14:00","2022","12","22","14:00","-0.7","","-5.9","","68","","","","28","","11","","24.1","","102.69","","","","-4","","Mostly Cloudy"
"-63.12","46.29","CHARLOTTETOWN A","8300301","2022-12-22 15:00","2022","12","22","15:00","-1.3","","-6.4","","68","","","","32","","13","","24.1","","102.69","","","","-6","","NA"
"-63.12","46.29","CHARLOTTETOWN A","8300301","2022-12-22 16:00","2022","12","22","16:00","-1.8","","-6.4","","71","","","","27","","9","","24.1","","102.76","","","","-5","","NA"
"-63.12","46.29","CHARLOTTETOWN A","8300301","2022-12-22 17:00","2022","12","22","17:00","-2.1","","-6.0","","75","","","","27","","8","","24.1","","102.82","","","","-5","","Mostly Cloudy"
"-63.12","46.29","CHARLOTTETOWN A","8300301","2022-12-22 18:00","2022","12","22","18:00","-2.7","","-5.6","","80","","","","27","","9","","24.1","","102.85","","","","-6","","NA"
"-63.12","46.29","CHARLOTTETOWN A","8300301","2022-12-22 19:00","2022","12","22","19:00","-3.0","","-6.3","","78","","","","30","","10","","24.1","","102.90","","","","-7","","NA"
"-63.12","46.29","CHARLOTTETOWN A","8300301","2022-12-22 20:00","2022","12","22","20:00","-4.3","","-6.4","","85","","","","31","","4","","24.1","","102.90","","","","-6","","Mostly Cloudy"
"-63.12","46.29","CHARLOTTETOWN A","8300301","2022-12-22 21:00","2022","12","22","21:00","-4.4","","-7.2","","80","","","","26","","5","","24.1","","102.98","","","","-7","","NA"
"-63.12","46.29","CHARLOTTETOWN A","8300301","2022-12-22 22:00","2022","12","22","22:00","-4.5","","-7.9","","77","","","","23","","8","","24.1","","103.00","","","","-8","","NA"
"-63.12","46.29","CHARLOTTETOWN A","8300301","2022-12-22 23:00","2022","12","22","23:00","-6.7","","-8.1","","90","","","","31","","5","","24.1","","102.93","","","","-9","","Clear"
"-63.12","46.29","CHARLOTTETOWN A","8300301","2022-12-23 00:00","2022","12","23","00:00","-7.1","","-8.1","","93","","","","35","","4","","24.1","","102.91","","","","-9","","NA"
"-63.12","46.29","CHARLOTTETOWN A","8300301","2022-12-23 01:00","2022","12","23","01:00","-5.5","","-8.4","","80","","","","5","","4","","24.1","","102.86","","","","-7","","NA"
"-63.12","46.29","CHARLOTTETOWN A","8300301","2022-12-23 02:00","2022","12","23","02:00","-6.6","","-8.6","","85","","","","12","","3","","24.1","","102.89","","","","-8","","Clear"
"-63.12","46.29","CHARLOTTETOWN A","8300301","2022-12-23 03:00","2022","12","23","03:00","-6.5","","-8.0","","89","","","","7","","10","","24.1","","102.80","","","","-11","","NA"
"-63.12","46.29","CHARLOTTETOWN A","8300301","2022-12-23 04:00","2022","12","23","04:00","-7.3","","-8.7","","90","","","","6","","12","","24.1","","102.76","","","","-13","","NA"
"-63.12","46.29","CHARLOTTETOWN A","8300301","2022-12-23 05:00","2022","12","23","05:00","-6.4","","-8.5","","85","","","","6","","9","","24.1","","102.68","","","","-11","","Clear"
"-63.12","46.29","CHARLOTTETOWN A","8300301","2022-12-23 06:00","2022","12","23","06:00","-4.9","","-7.3","","83","","","","7","","15","","24.1","","102.59","","","","-10","","NA"
"-63.12","46.29","CHARLOTTETOWN A","8300301","2022-12-23 07:00","2022","12","23","07:00","-4.3","","-6.7","","84","","","","7","","17","","24.1","","102.53","","","","-10","","NA"
"-63.12","46.29","CHARLOTTETOWN A","8300301","2022-12-23 08:00","2022","12","23","08:00","-3.6","","-5.7","","85","","","","9","","14","","24.1","","102.53","","","","-9","","Cloudy"
"-63.12","46.29","CHARLOTTETOWN A","8300301","2022-12-23 09:00","2022","12","23","09:00","-2.7","","-4.6","","87","","","","8","","16","","24.1","","102.44","","","","-8","","NA"
"-63.12","46.29","CHARLOTTETOWN A","8300301","2022-12-23 10:00","2022","12","23","10:00","-1.7","","-3.9","","85","","","","9","","17","","24.1","","102.36","","","","-7","","NA"
"-63.12","46.29","CHARLOTTETOWN A","8300301","2022-12-23 11:00","2022","12","23","11:00","-0.6","","-3.3","","82","","","","10","","26","","24.1","","102.10","","","","-7","","Cloudy"
"-63.12","46.29","CHARLOTTETOWN A","8300301","2022-12-23 12:00","2022","12","23","12:00","0.1","","-3.5","","77","","","","10","","35","","24.1","","101.91","","","","","","NA"
"-63.12","46.29","CHARLOTTETOWN A","8300301","2022-12-23 13:00","2022","12","23","13:00","0.5","","-3.0","","77","","","","10","","35","","24.1","","101.78","","","","","","NA"
"-63.12","46.29","CHARLOTTETOWN A","8300301","2022-12-23 14:00","2022","12","23","14:00","0.8","","-1.5","","85","","","","10","","37","","16.1","","101.60","","","","","","Rain"
"-63.12","46.29","CHARLOTTETOWN A","8300301","2022-12-23 15:00","2022","12","23","15:00","1.0","","-1.0","","86","","","","10","","38","","24.1","","101.39","","","","","","Rain"
"-63.12","46.29","CHARLOTTETOWN A","8300301","2022-12-23 16:00","2022","12","23","16:00","1.3","","-0.4","","89","","","","10","","42","","16.1","","101.25","","","","","","Rain"
"-63.12","46.29","CHARLOTTETOWN A","8300301","2022-12-23 17:00","2022","12","23","17:00","1.8","","0.1","","88","","","","11","","45","","16.1","","100.94","","","","","","Rain"
"-63.12","46.29","CHARLOTTETOWN A","8300301","2022-12-23 18:00","2022","12","23","18:00","2.5","","0.4","","86","","","","10","","43","","16.1","","100.70","","","","","","Rain"
"-63.12","46.29","CHARLOTTETOWN A","8300301","2022-12-23 19:00","2022","12","23","19:00","3.3","","1.0","","85","","","","11","","48","","16.1","","100.41","","","","","","Rain"
"-63.12","46.29","CHARLOTTETOWN A","8300301","2022-12-23 20:00","2022","12","23","20:00","4.0","","1.9","","86","","","","12","","51","","16.1","","100.23","","","","","","Rain"
"-63.12","46.29","CHARLOTTETOWN A","8300301","2022-12-23 21:00","2022","12","23","21:00","4.6","","2.4","","86","","","","12","","57","","16.1","","99.97","","","","","","Rain"
"-63.12","46.29","CHARLOTTETOWN A","8300301","2022-12-23 22:00","2022","12","23","22:00","4.5","","3.4","","92","","","","12","","60","","12.9","","99.77","","","","","","Moderate Rain"
"-63.12","46.29","CHARLOTTETOWN A","8300301","2022-12-23 23:00","2022","12","23","23:00","5.3","","4.0","","92","","","","12","","63","","12.9","","99.43","","","","","","Rain"
"-63.12","46.29","CHARLOTTETOWN A","8300301","2022-12-24 00:00","2022","12","24","00:00","6.3","","4.9","","91","","","","12","","58","","12.9","","99.10","","","","","","Rain"
"-63.12","46.29","CHARLOTTETOWN A","8300301","2022-12-24 01:00","2022","12","24","01:00","6.8","","5.5","","92","","","","12","","57","","12.9","","98.87","","","","","","Rain"
"-63.12","46.29","CHARLOTTETOWN A","8300301","2022-12-24 02:00","2022","12","24","02:00","7.6","","6.8","","94","","","","12","","50","","9.7","","98.71","","","","","","Rain"
"-63.12","46.29","CHARLOTTETOWN A","8300301","2022-12-24 03:00","2022","12","24","03:00","8.8","","8.1","","95","","","","13","","41","","12.9","","98.53","","","","","","Rain"
"-63.12","46.29","CHARLOTTETOWN A","8300301","2022-12-24 04:00","2022","12","24","04:00"
"-63.12","46.29","CHARLOTTETOWN A","8300301","2022-12-24 05:00","2022","12","24","05:00","7.4","","6.5","","94","","","","24","","19","","12.9","","98.62","","","","","","Rain"
"-63.12","46.29","CHARLOTTETOWN A","8300301","2022-12-24 06:00","2022","12","24","06:00","6.7","","6.0","","95","","","","20","","18","","24.1","","98.69","","","","","","NA"
"-63.12","46.29","CHARLOTTETOWN A","8300301","2022-12-24 07:00","2022","12","24","07:00","6.2","","1.1","","70","","","","21","","41","","24.1","","98.82","","","","","","NA"
"-63.12","46.29","CHARLOTTETOWN A","8300301","2022-12-24 08:00","2022","12","24","08:00","4.7","","0.5","","74","","","","20","","38","","24.1","","98.94","","","","","","Cloudy"
"-63.12","46.29","CHARLOTTETOWN A","8300301","2022-12-24 09:00","2022","12","24","09:00","3.8","","-1.0","","71","","","","20","","34","","24.1","","99.05","","","","","","NA"
"-63.12","46.29","CHARLOTTETOWN A","8300301","2022-12-24 10:00","2022","12","24","10:00","3.1","","-3.2","","64","","","","21","","33","","24.1","","99.11","","","","","","NA"
"-63.12","46.29","CHARLOTTETOWN A","8300301","2022-12-24 11:00","2022","12","24","11:00","3.5","","-5.3","","53","","","","21","","36","","24.1","","99.20","","","","","","Mostly Cloudy"
"-63.12","46.29","CHARLOTTETOWN A","8300301","2022-12-24 12:00","2022","12","24","12:00","2.7","","-6.0","","53","","","","21","","38","","24.1","","99.19","","","","","","NA"
"-63.12","46.29","CHARLOTTETOWN A","8300301","2022-12-24 13:00","2022","12","24","13:00","2.4","","-6.0","","54","","","","20","","46","","24.1","","99.17","","","","","","NA"
"-63.12","46.29","CHARLOTTETOWN A","8300301","2022-12-24 14:00","2022","12","24","14:00","1.3","","-4.9","","63","","","","23","","31","","24.1","","99.24","","","","","","Mostly Cloudy"
"-63.12","46.29","CHARLOTTETOWN A","8300301","2022-12-24 15:00","2022","12","24","15:00","0.9","","-5.9","","61","","","","22","","23","","24.1","","99.30","","","","","","NA"
"-63.12","46.29","CHARLOTTETOWN A","8300301","2022-12-24 16:00","2022","12","24","16:00","0.7","","-6.7","","58","","","","21","","30","","24.1","","99.35","","","","","","NA"
"-63.12","46.29","CHARLOTTETOWN A","8300301","2022-12-24 17:00","2022","12","24","17:00","0.6","","-5.8","","62","","","","21","","24","","24.1","","99.37","","","","","","Cloudy"
"-63.12","46.29","CHARLOTTETOWN A","8300301","2022-12-24 18:00","2022","12","24","18:00","0.4","","-6.5","","60","","","","20","","32","","24.1","","99.39","","","","","","NA"
"-63.12","46.29","CHARLOTTETOWN A","8300301","2022-12-24 19:00","2022","12","24","19:00","0.3","","-5.6","","64","","","","19","","29","","24.1","","99.43","","","","","","NA"
"-63.12","46.29","CHARLOTTETOWN A","8300301","2022-12-24 20:00","2022","12","24","20:00","0.3","","-5.7","","64","","","","20","","35","","24.1","","99.45","","","","","","Cloudy"
"-63.12","46.29","CHARLOTTETOWN A","8300301","2022-12-24 21:00","2022","12","24","21:00","0.3","","-6.2","","62","","","","20","","29","","24.1","","99.46","","","","","","NA"
"-63.12","46.29","CHARLOTTETOWN A","8300301","2022-12-24 22:00","2022","12","24","22:00","0.1","","-5.7","","65","","","","20","","26","","24.1","","99.47","","","","","","NA"
"-63.12","46.29","CHARLOTTETOWN A","8300301","2022-12-24 23:00","2022","12","24","23:00","0.3","","-5.8","","64","","","","19","","30","","24.1","","99.43","","","","","","Mostly Cloudy"
"-63.12","46.29","CHARLOTTETOWN A","8300301","2022-12-25 00:00","2022","12","25","00:00","0.2","","-5.7","","65","","","","18","","36","","24.1","","99.43","","","","","","NA"
"-63.12","46.29","CHARLOTTETOWN A","8300301","2022-12-25 01:00","2022","12","25","01:00","0.5","","-5.5","","64","","","","18","","33","","24.1","","99.38","","","","","","NA"
"-63.12","46.29","CHARLOTTETOWN A","8300301","2022-12-25 02:00","2022","12","25","02:00","0.5","","-4.2","","71","","","","18","","35","","24.1","","99.33","","","","","","Cloudy"
"-63.12","46.29","CHARLOTTETOWN A","8300301","2022-12-25 03:00","2022","12","25","03:00","0.6","","-3.7","","73","","","","20","","26","","24.1","","99.40","","","","","","NA"
"-63.12","46.29","CHARLOTTETOWN A","8300301","2022-12-25 04:00","2022","12","25","04:00","-0.1","","-3.1","","81","","","","19","","33","","24.1","","99.38","","","","-7","","Snow"
"-63.12","46.29","CHARLOTTETOWN A","8300301","2022-12-25 05:00","2022","12","25","05:00","-2.9","","-5.3","","84","","","","29","","17","","16.1","","99.47","","","","-8","","Snow"
"-63.12","46.29","CHARLOTTETOWN A","8300301","2022-12-25 06:00","2022","12","25","06:00","-2.9","","-5.5","","83","","","","25","","13","","24.1","","99.51","","","","-8","","Snow"
"-63.12","46.29","CHARLOTTETOWN A","8300301","2022-12-25 07:00","2022","12","25","07:00","-3.1","","-6.6","","77","","","","24","","14","","24.1","","99.56","","","","-8","","Snow"
"-63.12","46.29","CHARLOTTETOWN A","8300301","2022-12-25 08:00","2022","12","25","08:00","-3.2","","-7.2","","74","","","","24","","16","","16.1","","99.62","","","","-9","","Cloudy"
"-63.12","46.29","CHARLOTTETOWN A","8300301","2022-12-25 09:00","2022","12","25","09:00","-3.3","","-6.2","","80","","","","25","","10","","12.9","","99.69","","","","-7","","Snow Showers"
"-63.12","46.29","CHARLOTTETOWN A","8300301","2022-12-25 10:00","2022","12","25","10:00","-3.3","","-5.5","","85","","","","28","","7","","4.8","","99.73","","","","-6","","Snow Showers"
"-63.12","46.29","CHARLOTTETOWN A","8300301","2022-12-25 11:00","2022","12","25","11:00","-4.4","","-6.3","","87","","","","30","","13","","2.4","","99.73","","","","-9","","Snow"
"-63.12","46.29","CHARLOTTETOWN A","8300301","2022-12-25 12:00","2022","12","25","12:00","-4.8","","-6.6","","87","","","","25","","8","","2.4","","99.71","","","","-8","","Snow"
"-63.12","46.29","CHARLOTTETOWN A","8300301","2022-12-25 13:00","2022","12","25","13:00","-4.0","","-6.1","","85","","","","23","","14","","2.4","","99.65","","","","-9","","Snow"
"-63.12","46.29","CHARLOTTETOWN A","8300301","2022-12-25 14:00","2022","12","25","14:00","-3.1","","-7.4","","72","","","","24","","23","","24.1","","99.61","","","","-10","","Snow,Blowing Snow"
"-63.12","46.29","CHARLOTTETOWN A","8300301","2022-12-25 15:00","2022","12","25","15:00","-3.1","","-5.8","","81","","","","23","","18","","9.7","","99.65","","","","-9","","Snow,Blowing Snow"
"-63.12","46.29","CHARLOTTETOWN A","8300301","2022-12-25 16:00","2022","12","25","16:00","-3.1","","-5.3","","85","","","","22","","14","","9.7","","99.66","","","","-8","","Snow"
"-63.12","46.29","CHARLOTTETOWN A","8300301","2022-12-25 17:00","2022","12","25","17:00","-3.3","","-5.0","","88","","","","25","","10","","1.6","","99.67","","","","-7","","Snow Showers"
"-63.12","46.29","CHARLOTTETOWN A","8300301","2022-12-25 18:00","2022","12","25","18:00","-4.1","","-5.3","","91","","","","26","","10","","3.2","","99.73","","","","-8","","Snow Showers"
"-63.12","46.29","CHARLOTTETOWN A","8300301","2022-12-25 19:00","2022","12","25","19:00","-4.4","","-6.6","","85","","","","24","","13","","24.1","","99.81","","","","-9","","Snow"
"-63.12","46.29","CHARLOTTETOWN A","8300301","2022-12-25 20:00","2022","12","25","20:00","-4.0","","-7.8","","75","","","","22","","17","","24.1","","99.87","","","","-10","","Cloudy"
"-63.12","46.29","CHARLOTTETOWN A","8300301","2022-12-25 21:00","2022","12","25","21:00","-4.7","","-10.2","","65","","","","25","","11","","24.1","","99.96","","","","-9","","NA"
"-63.12","46.29","CHARLOTTETOWN A","8300301","2022-12-25 22:00","2022","12","25","22:00","-4.6","","-11.2","","60","","","","26","","23","","24.1","","100.02","","","","-12","","NA"
"-63.12","46.29","CHARLOTTETOWN A","8300301","2022-12-25 23:00","2022","12","25","23:00","-5.8","","-10.9","","68","","","","26","","12","","24.1","","100.08","","","","-11","","Mainly Clear"
"-63.12","46.29","CHARLOTTETOWN A","8300301","2022-12-26 00:00","2022","12","26","00:00","-6.4","","-11.1","","70","","","","24","","11","","24.1","","100.14","","","","-11","","NA"
"-63.12","46.29","CHARLOTTETOWN A","8300301","2022-12-26 01:00","2022","12","26","01:00","-6.8","","-11.4","","70","","","","24","","11","","24.1","","100.20","","","","-12","","NA"
"-63.12","46.29","CHARLOTTETOWN A","8300301","2022-12-26 02:00","2022","12","26","02:00","-7.5","","-11.8","","72","","","","22","","8","","24.1","","100.19","","","","-12","","Mostly Cloudy"
"-63.12","46.29","CHARLOTTETOWN A","8300301","2022-12-26 03:00","2022","12","26","03:00","-5.7","","-11.4","","64","","","","24","","10","","24.1","","100.24","","","","-10","","NA"
"-63.12","46.29","CHARLOTTETOWN A","8300301","2022-12-26 04:00","2022","12","26","04:00","-5.7","","-11.6","","64","","","","23","","8","","24.1","","100.23","","","","-9","","NA"
"-63.12","46.29","CHARLOTTETOWN A","8300301","2022-12-26 05:00","2022","12","26","05:00","-5.9","","-11.4","","65","","","","23","","9","","24.1","","100.27","","","","-10","","Mainly Clear"
"-63.12","46.29","CHARLOTTETOWN A","8300301","2022-12-26 06:00","2022","12","26","06:00","-6.2","","-11.8","","65","","","","22","","7","","24.1","","100.34","","","","-10","","NA"
"-63.12","46.29","CHARLOTTETOWN A","8300301","2022-12-26 07:00","2022","12","26","07:00","-6.0","","-11.5","","65","","","","24","","12","","24.1","","100.41","","","","-11","","NA"
"-63.12","46.29","CHARLOTTETOWN A","8300301","2022-12-26 08:00","2022","12","26","08:00","-6.3","","-11.6","","66","","","","24","","9","","24.1","","100.44","","","","-11","","Mainly Clear"
"-63.12","46.29","CHARLOTTETOWN A","8300301","2022-12-26 09:00","2022","12","26","09:00","-5.8","","-11.1","","66","","","","23","","12","","24.1","","100.50","","","","-11","","NA"
"-63.12","46.29","CHARLOTTETOWN A","8300301","2022-12-26 10:00","2022","12","26","10:00","-4.7","","-10.4","","65","","","","21","","15","","24.1","","100.55","","","","-10","","NA"
"-63.12","46.29","CHARLOTTETOWN A","8300301","2022-12-26 11:00","2022","12","26","11:00","-3.5","","-10.3","","60","","","","25","","18","","24.1","","100.58","","","","-9","","Mainly Clear"
"-63.12","46.29","CHARLOTTETOWN A","8300301","2022-12-26 12:00","2022","12","26","12:00","-3.3","","-9.7","","62","","","","24","","13","","24.1","","100.59","","","","-8","","NA"
"-63.12","46.29","CHARLOTTETOWN A","8300301","2022-12-26 13:00","2022","12","26","13:00","-2.8","","-10.3","","57","","","","23","","22","","24.1","","100.53","","","","-9","","NA"
"-63.12","46.29","CHARLOTTETOWN A","8300301","2022-12-26 14:00","2022","12","26","14:00","-2.5","","-10.5","","54","","","","23","","23","","24.1","","100.52","","","","-9","","Clear"
"-63.12","46.29","CHARLOTTETOWN A","8300301","2022-12-26 15:00","2022","12","26","15:00","-2.3","","-10.4","","54","","","","24","","27","","24.1","","100.59","","","","-9","","NA"
"-63.12","46.29","CHARLOTTETOWN A","8300301","2022-12-26 16:00","2022","12","26","16:00","-2.6","","-10.2","","56","","","","25","","15","","24.1","","100.71","","","","-8","","NA"
"-63.12","46.29","CHARLOTTETOWN A","8300301","2022-12-26 17:00","2022","12","26","17:00","-3.6","","-10.5","","59","","","","25","","11","","24.1","","100.80","","","","-8","","Mainly Clear"
"-63.12","46.29","CHARLOTTETOWN A","8300301","2022-12-26 18:00","2022","12","26","18:00","-4.0","","-10.6","","60","","","","26","","14","","24.1","","100.90","","","","-9","","NA"
"-63.12","46.29","CHARLOTTETOWN A","8300301","2022-12-26 19:00","2022","12","26","19:00","-4.4","","-10.7","","62","","","","26","","12","","24.1","","101.02","","","","-9","","NA"
"-63.12","46.29","CHARLOTTETOWN A","8300301","2022-12-26 20:00","2022","12","26","20:00","-4.5","","-10.7","","62","","","","24","","10","","24.1","","101.07","","","","-9","","Mainly Clear"
"-63.12","46.29","CHARLOTTETOWN A","8300301","2022-12-26 21:00","2022","12","26","21:00","-4.7","","-10.4","","65","","","","24","","15","","24.1","","101.10","","","","-10","","NA"
"-63.12","46.29","CHARLOTTETOWN A","8300301","2022-12-26 22:00","2022","12","26","22:00","-4.9","","-10.6","","65","","","","24","","16","","24.1","","101.18","","","","-11","","NA"
"-63.12","46.29","CHARLOTTETOWN A","8300301","2022-12-26 23:00","2022","12","26","23:00","-5.2","","-10.6","","66","","","","22","","11","","24.1","","101.23","","","","-10","","Mainly Clear"
"-63.12","46.29","CHARLOTTETOWN A","8300301","2022-12-27 00:00","2022","12","27","00:00","-4.3","","-10.3","","63","","","","24","","13","","24.1","","101.26","","","","-9","","NA"
"-63.12","46.29","CHARLOTTETOWN A","8300301","2022-12-27 01:00","2022","12","27","01:00","-4.3","","-10.2","","64","","","","25","","11","","24.1","","101.21","","","","-9","","NA"
"-63.12","46.29","CHARLOTTETOWN A","8300301","2022-12-27 02:00","2022","12","27","02:00","-4.5","","-10.0","","65","","","","23","","10","","24.1","","101.17","","","","-9","","Mostly Cloudy"
"-63.12","46.29","CHARLOTTETOWN A","8300301","2022-12-27 03:00","2022","12","27","03:00","-4.5","","-9.9","","66","","","","24","","13","","24.1","","101.24","","","","-10","","NA"
"-63.12","46.29","CHARLOTTETOWN A","8300301","2022-12-27 04:00","2022","12","27","04:00","-4.3","","-10.4","","63","","","","24","","19","","24.1","","101.29","","","","-10","","NA"
"-63.12","46.29","CHARLOTTETOWN A","8300301","2022-12-27 05:00","2022","12","27","05:00","-4.9","","-9.9","","68","","","","23","","15","","24.1","","101.30","","","","-10","","Cloudy"
"-63.12","46.29","CHARLOTTETOWN A","8300301","2022-12-27 06:00","2022","12","27","06:00","-4.7","","-10.3","","65","","","","25","","10","","24.1","","101.31","","","","-9","","NA"
"-63.12","46.29","CHARLOTTETOWN A","8300301","2022-12-27 07:00","2022","12","27","07:00","-5.6","","-11.0","","66","","","","17","","5","","24.1","","101.31","","","","-8","","NA"
"-63.12","46.29","CHARLOTTETOWN A","8300301","2022-12-27 08:00","2022","12","27","08:00","-4.4","","-9.0","","70","","","","18","","10","","24.1","","101.33","","","","-9","","Cloudy"
"-63.12","46.29","CHARLOTTETOWN A","8300301","2022-12-27 09:00","2022","12","27","09:00","-3.0","","-8.6","","66","","","","19","","10","","24.1","","101.27","","","","-7","","NA"
"-63.12","46.29","CHARLOTTETOWN A","8300301","2022-12-27 10:00","2022","12","27","10:00","-2.3","","-8.2","","64","","","","21","","14","","24.1","","101.22","","","","-7","","NA"
"-63.12","46.29","CHARLOTTETOWN A","8300301","2022-12-27 11:00","2022","12","27","11:00","-2.2","","-8.2","","63","","","","23","","10","","8.1","","101.16","","","","-6","","Snow"
"-63.12","46.29","CHARLOTTETOWN A","8300301","2022-12-27 12:00","2022","12","27","12:00","-2.7","","-6.9","","73","","","","21","","9","","3.2","","101.04","","","","-6","","Snow"
"-63.12","46.29","CHARLOTTETOWN A","8300301","2022-12-27 13:00","2022","12","27","13:00","-3.0","","-4.8","","87","","","","20","","5","","3.2","","100.93","","","","-5","","Snow"
"-63.12","46.29","CHARLOTTETOWN A","8300301","2022-12-27 14:00","2022","12","27","14:00","-2.8","","-4.2","","91","","","","18","","4","","4.8","","100.82","","","","-4","","Snow"
"-63.12","46.29","CHARLOTTETOWN A","8300301","2022-12-27 15:00","2022","12","27","15:00","-2.8","","-3.9","","92","","","","22","","5","","3.2","","100.79","","","","-5","","Snow"
"-63.12","46.29","CHARLOTTETOWN A","8300301","2022-12-27 16:00","2022","12","27","16:00","-2.8","","-3.9","","92","","","","25","","9","","24.1","","100.85","","","","-6","","NA"
"-63.12","46.29","CHARLOTTETOWN A","8300301","2022-12-27 17:00","2022","12","27","17:00","-3.4","","-5.3","","87","","","","25","","14","","24.1","","100.88","","","","-8","","Mostly Cloudy"
"-63.12","46.29","CHARLOTTETOWN A","8300301","2022-12-27 18:00","2022","12","27","18:00","-3.6","","-5.6","","86","","","","25","","12","","24.1","","100.98","","","","-8","","NA"
"-63.12","46.29","CHARLOTTETOWN A","8300301","2022-12-27 19:00","2022","12","27","19:00","-3.6","","-5.9","","84","","","","26","","12","","24.1","","101.03","","","","-8","","NA"
"-63.12","46.29","CHARLOTTETOWN A","8300301","2022-12-27 20:00","2022","12","27","20:00","-3.6","","-6.8","","79","","","","25","","15","","24.1","","101.12","","","","-9","","Cloudy"
"-63.12","46.29","CHARLOTTETOWN A","8300301","2022-12-27 21:00","2022","12","27","21:00","-4.6","","-7.9","","78","","","","26","","12","","24.1","","101.16","","","","-9","","NA"
"-63.12","46.29","CHARLOTTETOWN A","8300301","2022-12-27 22:00","2022","12","27","22:00","-3.8","","-7.0","","79","","","","26","","14","","9.7","","101.22","","","","-9","","Snow Showers"
"-63.12","46.29","CHARLOTTETOWN A","8300301","2022-12-27 23:00","2022","12","27","23:00","-4.7","","-9.3","","70","","","","29","","25","","24.1","","101.32","","","","-12","","Snow Showers,Blowing Snow"
"-63.12","46.29","CHARLOTTETOWN A","8300301","2022-12-28 00:00","2022","12","28","00:00","-6.0","","-8.6","","82","","","","29","","18","","6.4","","101.42","","","","-12","","Snow Showers,Blowing Snow"
"-63.12","46.29","CHARLOTTETOWN A","8300301","2022-12-28 01:00","2022","12","28","01:00","-7.4","","-13.2","","63","","","","30","","19","","19.3","","101.47","","","","-14","","Snow Showers,Blowing Snow"
"-63.12","46.29","CHARLOTTETOWN A","8300301","2022-12-28 02:00","2022","12","28","02:00","-8.4","","-14.2","","63","","","","31","","22","","24.1","","101.56","","","","-16","","Snow Showers,Blowing Snow"
"-63.12","46.29","CHARLOTTETOWN A","8300301","2022-12-28 03:00","2022","12","28","03:00","-9.6","","-14.9","","65","","","","30","","17","","24.1","","101.66","","","","-17","","NA"
"-63.12","46.29","CHARLOTTETOWN A","8300301","2022-12-28 04:00","2022","12","28","04:00","-10.0","","-15.5","","65","","","","31","","21","","24.1","","101.71","","","","-18","","NA"
"-63.12","46.29","CHARLOTTETOWN A","8300301","2022-12-28 05:00","2022","12","28","05:00","-10.9","","-15.8","","68","","","","31","","14","","24.1","","101.74","","","","-18","","Clear"
"-63.12","46.29","CHARLOTTETOWN A","8300301","2022-12-28 06:00","2022","12","28","06:00","-11.4","","-15.6","","71","","","","30","","13","","24.1","","101.82","","","","-18","","NA"
"-63.12","46.29","CHARLOTTETOWN A","8300301","2022-12-28 07:00","2022","12","28","07:00","-11.6","","-15.3","","74","","","","30","","14","","24.1","","101.82","","","","-18","","NA"
"-63.12","46.29","CHARLOTTETOWN A","8300301","2022-12-28 08:00","2022","12","28","08:00","-11.6","","-14.6","","79","","","","26","","10","","24.1","","101.89","","","","-17","","Mainly Clear"
"-63.12","46.29","CHARLOTTETOWN A","8300301","2022-12-28 09:00","2022","12","28","09:00","-10.9","","-15.2","","71","","","","28","","15","","24.1","","101.89","","","","-18","","NA"
"-63.12","46.29","CHARLOTTETOWN A","8300301","2022-12-28 10:00","2022","12","28","10:00","-9.3","","-15.2","","63","","","","28","","17","","24.1","","101.88","","","","-16","","NA"
"-63.12","46.29","CHARLOTTETOWN A","8300301","2022-12-28 11:00","2022","12","28","11:00","-9.1","","-14.7","","64","","","","28","","16","","16.1","","101.89","","","","-16","","Cloudy"
"-63.12","46.29","CHARLOTTETOWN A","8300301","2022-12-28 12:00","2022","12","28","12:00","-8.5","","-14.2","","64","","","","27","","16","","24.1","","101.85","","","","-15","","NA"
"-63.12","46.29","CHARLOTTETOWN A","8300301","2022-12-28 13:00","2022","12","28","13:00","-8.2","","-12.5","","71","","","","26","","16","","24.1","","101.82","","","","-15","","NA"
"-63.12","46.29","CHARLOTTETOWN A","8300301","2022-12-28 14:00","2022","12","28","14:00","-7.5","","-13.2","","64","","","","27","","10","","24.1","","101.81","","","","-12","","Mostly Cloudy"
"-63.12","46.29","CHARLOTTETOWN A","8300301","2022-12-28 15:00","2022","12","28","15:00","-7.2","","-12.9","","64","","","","24","","18","","24.1","","101.76","","","","-14","","NA"
"-63.12","46.29","CHARLOTTETOWN A","8300301","2022-12-28 16:00","2022","12","28","16:00","-7.2","","-11.6","","71","","","","23","","9","","24.1","","101.79","","","","-12","","NA"
"-63.12","46.29","CHARLOTTETOWN A","8300301","2022-12-28 17:00","2022","12","28","17:00","-6.7","","-10.2","","77","","","","22","","12","","24.1","","101.80","","","","-12","","Mostly Cloudy"
"-63.12","46.29","CHARLOTTETOWN A","8300301","2022-12-28 18:00","2022","12","28","18:00","-5.9","","-9.7","","75","","","","21","","8","","24.1","","101.75","","","","-10","","NA"
"-63.12","46.29","CHARLOTTETOWN A","8300301","2022-12-28 19:00","2022","12","28","19:00","-4.9","","-8.0","","79","","","","22","","13","","24.1","","101.75","","","","-10","","NA"
"-63.12","46.29","CHARLOTTETOWN A","8300301","2022-12-28 20:00","2022","12","28","20:00","-4.6","","-7.1","","83","","","","21","","12","","16.1","","101.74","","","","-9","","Cloudy"
"-63.12","46.29","CHARLOTTETOWN A","8300301","2022-12-28 21:00","2022","12","28","21:00","-4.4","","-5.9","","89","","","","21","","13","","12.9","","101.71","","","","-9","","Snow"
"-63.12","46.29","CHARLOTTETOWN A","8300301","2022-12-28 22:00","2022","12","28","22:00","-3.9","","-5.4","","90","","","","21","","10","","19.3","","101.69","","","","-8","","Snow"
"-63.12","46.29","CHARLOTTETOWN A","8300301","2022-12-28 23:00","2022","12","28","23:00","-3.4","","-5.6","","85","","","","22","","12","","19.3","","101.68","","","","-8","","Snow"
"-63.12","46.29","CHARLOTTETOWN A","8300301","2022-12-29 00:00","2022","12","29","00:00","-3.3","","-5.8","","83","","","","21","","13","","19.3","","101.67","","","","-8","","Snow"
"-63.12","46.29","CHARLOTTETOWN A","8300301","2022-12-29 01:00","2022","12","29","01:00","-3.1","","-5.4","","84","","","","23","","8","","24.1","","101.65","","","","-6","","Snow"
"-63.12","46.29","CHARLOTTETOWN A","8300301","2022-12-29 02:00","2022","12","29","02:00","-3.1","","-5.6","","83","","","","29","","12","","24.1","","101.70","","","","-8","","Cloudy"
"-63.12","46.29","CHARLOTTETOWN A","8300301","2022-12-29 03:00","2022","12","29","03:00","-3.4","","-5.8","","84","","","","31","","11","","24.1","","101.78","","","","-8","","NA"
"-63.12","46.29","CHARLOTTETOWN A","8300301","2022-12-29 04:00","2022","12","29","04:00","-4.6","","-6.6","","86","","","","29","","8","","24.1","","101.79","","","","-8","","NA"
"-63.12","46.29","CHARLOTTETOWN A","8300301","2022-12-29 05:00","2022","12","29","05:00","-5.5","","-7.0","","89","","","","30","","9","","24.1","","101.84","","","","-10","","Mostly Cloudy"
"-63.12","46.29","CHARLOTTETOWN A","8300301","2022-12-29 06:00","2022","12","29","06:00","-4.3","","-7.0","","81","","","","30","","10","","24.1","","101.91","","","","-8","","NA"
"-63.12","46.29","CHARLOTTETOWN A","8300301","2022-12-29 07:00","2022","12","29","07:00","-4.2","","-7.1","","81","","","","29","","12","","24.1","","101.98","","","","-9","","NA"
"-63.12","46.29","CHARLOTTETOWN A","8300301","2022-12-29 08:00","2022","12","29","08:00","-4.2","","-7.0","","81","","","","30","","11","","24.1","","102.04","","","","-9","","Cloudy"
"-63.12","46.29","CHARLOTTETOWN A","8300301","2022-12-29 09:00","2022","12","29","09:00","-3.9","","-6.7","","81","","","","28","","7","","24.1","","102.09","","","","-7","","NA"
"-63.12","46.29","CHARLOTTETOWN A","8300301","2022-12-29 10:00","2022","12","29","10:00","-3.7","","-6.5","","81","","","","24","","9","","24.1","","102.15","","","","-7","","NA"
"-63.12","46.29","CHARLOTTETOWN A","8300301","2022-12-29 11:00","2022","12","29","11:00","-3.2","","-6.5","","78","","","","27","","11","","24.1","","102.18","","","","-7","","Cloudy"
"-63.12","46.29","CHARLOTTETOWN A","8300301","2022-12-29 12:00","2022","12","29","12:00","-2.7","","-6.7","","74","","","","31","","9","","24.1","","102.15","","","","-6","","NA"
"-63.12","46.29","CHARLOTTETOWN A","8300301","2022-12-29 13:00","2022","12","29","13:00","-2.6","","-7.3","","70","","","","31","","7","","24.1","","102.13","","","","-5","","NA"
"-63.12","46.29","CHARLOTTETOWN A","8300301","2022-12-29 14:00","2022","12","29","14:00","-2.7","","-6.9","","73","","","","27","","3","","24.1","","102.13","","","","-4","","Cloudy"
"-63.12","46.29","CHARLOTTETOWN A","8300301","2022-12-29 15:00","2022","12","29","15:00","-2.5","","-6.8","","73","","","","26","","8","","24.1","","102.20","","","","-6","","NA"
"-63.12","46.29","CHARLOTTETOWN A","8300301","2022-12-29 16:00","2022","12","29","16:00","-2.7","","-7.2","","71","","","","36","","2","","24.1","","102.08","","","","-3","","NA"
"-63.12","46.29","CHARLOTTETOWN A","8300301","2022-12-29 17:00","2022","12","29","17:00","-2.9","","-6.9","","74","","","","9","","3","","24.1","","102.08","","","","-4","","Cloudy"
"-63.12","46.29","CHARLOTTETOWN A","8300301","2022-12-29 18:00","2022","12","29","18:00","-3.1","","-6.4","","78","","","","9","","3","","24.1","","102.10","","","","-4","","NA"
"-63.12","46.29","CHARLOTTETOWN A","8300301","2022-12-29 19:00","2022","12","29","19:00","-3.0","","-6.3","","78","","","","13","","4","","24.1","","102.14","","","","-5","","NA"
"-63.12","46.29","CHARLOTTETOWN A","8300301","2022-12-29 20:00","2022","12","29","20:00","-3.2","","-5.8","","83","","","","14","","6","","3.2","","102.16","","","","-6","","Snow"
"-63.12","46.29","CHARLOTTETOWN A","8300301","2022-12-29 21:00","2022","12","29","21:00","-3.7","","-4.7","","93","","","","12","","8","","3.2","","102.14","","","","-7","","Snow"
"-63.12","46.29","CHARLOTTETOWN A","8300301","2022-12-29 22:00","2022","12","29","22:00","-3.6","","-4.5","","93","","","","13","","12","","12.9","","102.09","","","","-8","","Snow"
"-63.12","46.29","CHARLOTTETOWN A","8300301","2022-12-29 23:00","2022","12","29","23:00","-3.5","","-4.5","","93","","","","13","","10","","24.1","","102.11","","","","-7","","Cloudy"
"-63.12","46.29","CHARLOTTETOWN A","8300301","2022-12-30 00:00","2022","12","30","00:00","-3.5","","-4.5","","93","","","","13","","9","","19.3","","102.08","","","","-7","","NA"
"-63.12","46.29","CHARLOTTETOWN A","8300301","2022-12-30 01:00","2022","12","30","01:00","-3.3","","-4.3","","92","","","","13","","11","","19.3","","101.99","","","","-8","","NA"
"-63.12","46.29","CHARLOTTETOWN A","8300301","2022-12-30 02:00","2022","12","30","02:00","-3.1","","-4.1","","93","","","","12","","10","","24.1","","101.94","","","","-7","","Cloudy"
"-63.12","46.29","CHARLOTTETOWN A","8300301","2022-12-30 03:00","2022","12","30","03:00","-2.6","","-3.8","","91","","","","13","","11","","24.1","","101.94","","","","-7","","NA"
"-63.12","46.29","CHARLOTTETOWN A","8300301","2022-12-30 04:00","2022","12","30","04:00","-2.3","","-3.7","","90","","","","14","","13","","24.1","","101.90","","","","-7","","NA"
"-63.12","46.29","CHARLOTTETOWN A","8300301","2022-12-30 05:00","2022","12","30","05:00","-1.7","","-3.5","","88","","","","14","","13","","24.1","","101.87","","","","-6","","Cloudy"
"-63.12","46.29","CHARLOTTETOWN A","8300301","2022-12-30 06:00","2022","12","30","06:00","-1.3","","-3.1","","88","","","","14","","14","","24.1","","101.85","","","","-6","","NA"
"-63.12","46.29","CHARLOTTETOWN A","8300301","2022-12-30 07:00","2022","12","30","07:00","-0.8","","-2.7","","87","","","","15","","18","","24.1","","101.78","","","","-6","","NA"
"-63.12","46.29","CHARLOTTETOWN A","8300301","2022-12-30 08:00","2022","12","30","08:00","-0.5","","-2.5","","86","","","","15","","19","","16.1","","101.72","","","","-6","","Cloudy"
"-63.12","46.29","CHARLOTTETOWN A","8300301","2022-12-30 09:00","2022","12","30","09:00","0.0","","-1.8","","87","","","","16","","19","","24.1","","101.77","","","","-5","","NA"
"-63.12","46.29","CHARLOTTETOWN A","8300301","2022-12-30 10:00","2022","12","30","10:00","0.9","","-0.8","","88","","","","16","","19","","24.1","","101.71","","","","","","NA"
"-63.12","46.29","CHARLOTTETOWN A","8300301","2022-12-30 11:00","2022","12","30","11:00","1.2","","-0.1","","91","","","","18","","13","","16.1","","101.68","","","","","","Cloudy"
"-63.12","46.29","CHARLOTTETOWN A","8300301","2022-12-30 12:00","2022","12","30","12:00","1.4","","0.4","","93","","","","18","","14","","4.8","","101.60","","","","","","Drizzle,Fog"
"-63.12","46.29","CHARLOTTETOWN A","8300301","2022-12-30 13:00","2022","12","30","13:00","1.5","","0.8","","95","","","","17","","13","","12.9","","101.52","","","","","","Drizzle"
"-63.12","46.29","CHARLOTTETOWN A","8300301","2022-12-30 14:00","2022","12","30","14:00","1.8","","1.4","","97","","","","16","","13","","4.8","","101.44","","","","","","Drizzle,Fog"
"-63.12","46.29","CHARLOTTETOWN A","8300301","2022-12-30 15:00","2022","12","30","15:00","2.1","","1.6","","97","","","","19","","17","","19.3","","101.43","","","","","","Drizzle"
"-63.12","46.29","CHARLOTTETOWN A","8300301","2022-12-30 16:00","2022","12","30","16:00","2.6","","1.8","","94","","","","20","","12","","24.1","","101.49","","","","","","NA"
"-63.12","46.29","CHARLOTTETOWN A","8300301","2022-12-30 17:00","2022","12","30","17:00","2.7","","1.7","","93","","","","18","","16","","24.1","","101.44","","","","","","Mostly Cloudy"
"-63.12","46.29","CHARLOTTETOWN A","8300301","2022-12-30 18:00","2022","12","30","18:00","3.5","","1.7","","88","","","","19","","17","","24.1","","101.43","","","","","","NA"
"-63.12","46.29","CHARLOTTETOWN A","8300301","2022-12-30 19:00","2022","12","30","19:00","3.7","","1.7","","87","","","","20","","16","","24.1","","101.43","","","","","","NA"
"-63.12","46.29","CHARLOTTETOWN A","8300301","2022-12-30 20:00","2022","12","30","20:00","4.1","","1.7","","85","","","","19","","17","","24.1","","101.42","","","","","","Cloudy"
"-63.12","46.29","CHARLOTTETOWN A","8300301","2022-12-30 21:00","2022","12","30","21:00","4.2","","1.9","","85","","","","19","","14","","24.1","","101.33","","","","","","NA"
"-63.12","46.29","CHARLOTTETOWN A","8300301","2022-12-30 22:00","2022","12","30","22:00","3.2","","1.4","","88","","","","17","","14","","24.1","","101.24","","","","","","NA"
"-63.12","46.29","CHARLOTTETOWN A","8300301","2022-12-30 23:00","2022","12","30","23:00","3.0","","1.1","","87","","","","19","","13","","24.1","","101.22","","","","","","Mainly Clear"
"-63.12","46.29","CHARLOTTETOWN A","8300301","2022-12-31 00:00","2022","12","31","00:00","3.2","","1.5","","88","","","","20","","17","","24.1","","101.15","","","","","","NA"
"-63.12","46.29","CHARLOTTETOWN A","8300301","2022-12-31 01:00","2022","12","31","01:00","3.6","","1.4","","86","","","","19","","17","","24.1","","101.08","","","","","","NA"
"-63.12","46.29","CHARLOTTETOWN A","8300301","2022-12-31 02:00","2022","12","31","02:00","3.9","","1.8","","86","","","","20","","19","","24.1","","100.97","","","","","","Cloudy"
"-63.12","46.29","CHARLOTTETOWN A","8300301","2022-12-31 03:00","2022","12","31","03:00","4.2","","2.3","","87","","","","20","","19","","24.1","","100.93","","","","","","NA"
"-63.12","46.29","CHARLOTTETOWN A","8300301","2022-12-31 04:00","2022","12","31","04:00","4.4","","2.8","","89","","","","20","","18","","24.1","","100.89","","","","","","NA"
"-63.12","46.29","CHARLOTTETOWN A","8300301","2022-12-31 05:00","2022","12","31","05:00","4.6","","3.1","","89","","","","20","","14","","24.1","","100.82","","","","","","Cloudy"
"-63.12","46.29","CHARLOTTETOWN A","8300301","2022-12-31 06:00","2022","12","31","06:00","5.3","","3.5","","88","","","","21","","20","","24.1","","100.78","","","","","","NA"
"-63.12","46.29","CHARLOTTETOWN A","8300301","2022-12-31 07:00","2022","12","31","07:00","5.4","","3.6","","88","","","","22","","18","","24.1","","100.80","","","","","","NA"
"-63.12","46.29","CHARLOTTETOWN A","8300301","2022-12-31 08:00","2022","12","31","08:00","5.6","","4.1","","90","","","","22","","16","","24.1","","100.79","","","","","","Cloudy"
"-63.12","46.29","CHARLOTTETOWN A","8300301","2022-12-31 09:00","2022","12","31","09:00","6.4","","5.2","","92","","","","22","","19","","19.3","","100.79","","","","","","NA"
"-63.12","46.29","CHARLOTTETOWN A","8300301","2022-12-31 10:00","2022","12","31","10:00","7.5","","5.8","","89","","","","23","","18","","19.3","","100.83","","","","","","NA"
"-63.12","46.29","CHARLOTTETOWN A","8300301","2022-12-31 11:00","2022","12","31","11:00","7.9","","6.0","","88","","","","24","","16","","24.1","","100.83","","","","","","Cloudy"
"-63.12","46.29","CHARLOTTETOWN A","8300301","2022-12-31 12:00","2022","12","31","12:00","8.8","","6.5","","86","","","","24","","20","","24.1","","100.75","","","","","","NA"
"-63.12","46.29","CHARLOTTETOWN A","8300301","2022-12-31 13:00","2022","12","31","13:00","9.4","","6.8","","84","","","","24","","23","","19.3","","100.67","","","","","","NA"
"-63.12","46.29","CHARLOTTETOWN A","8300301","2022-12-31 14:00","2022","12","31","14:00","9.5","","6.8","","83","","","","25","","17","","24.1","","100.65","","","","","","Cloudy"
"-63.12","46.29","CHARLOTTETOWN A","8300301","2022-12-31 15:00","2022","12","31","15:00","9.0","","6.5","","84","","","","24","","20","","19.3","","100.63","","","","","","NA"
"-63.12","46.29","CHARLOTTETOWN A","8300301","2022-12-31 16:00","2022","12","31","16:00","8.5","","6.4","","86","","","","22","","14","","24.1","","100.65","","","","","","NA"
"-63.12","46.29","CHARLOTTETOWN A","8300301","2022-12-31 17:00","2022","12","31","17:00","8.5","","6.2","","86","","","","24","","15","","24.1","","100.66","","","","","","Cloudy"
"-63.12","46.29","CHARLOTTETOWN A","8300301","2022-12-31 18:00","2022","12","31","18:00","8.1","","6.1","","87","","","","21","","14","","24.1","","100.60","","","","","","NA"
"-63.12","46.29","CHARLOTTETOWN A","8300301","2022-12-31 19:00","2022","12","31","19:00","7.5","","6.0","","90","","","","21","","13","","24.1","","100.55","","","","","","NA"
"-63.12","46.29","CHARLOTTETOWN A","8300301","2022-12-31 20:00","2022","12","31","20:00","7.0","","5.9","","92","","","","19","","14","","24.1","","100.49","","","","","","Cloudy"
"-63.12","46.29","CHARLOTTETOWN A","8300301","2022-12-31 21:00","2022","12","31","21:00","7.5","","6.2","","92","","","","20","","9","","16.1","","100.39","","","","","","NA"
"-63.12","46.29","CHARLOTTETOWN A","8300301","2022-12-31 22:00","2022","12","31","22:00","7.7","","7.0","","96","","","","21","","9","","3.2","","100.33","","","","","","Fog"
"-63.12","46.29","CHARLOTTETOWN A","8300301","2022-12-31 23:00","2022","12","31","23:00","7.5","","7.1","","98","","","","21","","8","","1.6","","100.27","","","","","","Fog"
