"Longitude (x)","Latitude (y)","Station Name","Climate ID","Date/Time (LST)","Year","Month","Day","Time (LST)","Temp (°C)","Temp Flag","Dew Point Temp (°C)","Dew Point Temp Flag","Rel Hum (%)","Rel Hum Flag","Precip. Amount (mm)","Precip. Amount Flag","Wind Dir (10s deg)","Wind Dir Flag","Wind Spd (km/h)","Wind Spd Flag","Visibility (km)","Visibility Flag","Stn Press (kPa)","Stn Press Flag","Hmdx","Hmdx Flag","Wind Chill","Wind Chill Flag","Weather"
"-95.85","68.64","GJOA HAVEN A","2302336","2023-03-01 00:00","2023","03","01","00:00"
"-95.85","68.64","GJOA HAVEN A","2302336","2023-03-01 01:00","2023","03","01","01:00"
"-95.85","68.64","GJOA HAVEN A","2302336","2023-03-01 02:00","2023","03","01","02:00"
"-95.85","68.64","GJOA HAVEN A","2302336","2023-03-01 03:00","2023","03","01","03:00"
"-95.85","68.64","GJOA HAVEN A","2302336","2023-03-01 04:00","2023","03","01","04:00"
"-95.85","68.64","GJOA HAVEN A","2302336","2023-03-01 05:00","2023","03","01","05:00"
"-95.85","68.64","GJOA HAVEN A","2302336","2023-03-01 06:00","2023","03","01","06:00","-33.7","","-37.7","","68","","","","19","","28","","2.4","","101.25","","","","-50","","Snow,Blowing Snow"
"-95.85","68.64","GJOA HAVEN A","2302336","2023-03-01 07:00","2023","03","01","07:00","-33.7","","-37.7","","68","","","","20","","28","","3.6","","101.27","","","","-50","","Snow,Blowing Snow"
"-95.85","68.64","GJOA HAVEN A","2302336","2023-03-01 08:00","2023","03","01","08:00","-33.9","","-37.9","","68","","","","20","","22","","4.8","","101.28","","","","-49","","Ice Crystals"
"-95.85","68.64","GJOA HAVEN A","2302336","2023-03-01 09:00","2023","03","01","09:00","-33.4","","-37.4","","68","","","","20","","24","","4.8","","101.29","","","","-49","","Ice Crystals"
"-95.85","68.64","GJOA HAVEN A","2302336","2023-03-01 10:00","2023","03","01","10:00","-32.7","","-36.6","","69","","","","20","","25","","4.8","","101.31","","","","-48","","Ice Crystals"
"-95.85","68.64","GJOA HAVEN A","2302336","2023-03-01 11:00","2023","03","01","11:00","-31.8","","-35.6","","70","","","","19","","23","","4.8","","101.32","","","","-46","","Ice Crystals"
"-95.85","68.64","GJOA HAVEN A","2302336","2023-03-01 12:00","2023","03","01","12:00","-30.9","","-34.7","","70","","","","20","","27","","4.8","","101.33","","","","-46","","Ice Crystals"
"-95.85","68.64","GJOA HAVEN A","2302336","2023-03-01 13:00","2023","03","01","13:00","-30.7","","-34.4","","71","","","","20","","28","","4.8","","101.35","","","","-46","","Ice Crystals,Blowing Snow"
"-95.85","68.64","GJOA HAVEN A","2302336","2023-03-01 14:00","2023","03","01","14:00","-30.5","","-34.2","","71","","","","21","","25","","4.8","","101.36","","","","-45","","Ice Crystals,Blowing Snow"
"-95.85","68.64","GJOA HAVEN A","2302336","2023-03-01 15:00","2023","03","01","15:00","-30.5","","-34.2","","71","","","","20","","27","","4.8","","101.41","","","","-46","","Ice Crystals"
"-95.85","68.64","GJOA HAVEN A","2302336","2023-03-01 16:00","2023","03","01","16:00","-30.8","","-34.5","","71","","","","20","","26","","4.8","","101.46","","","","-46","","Ice Crystals"
"-95.85","68.64","GJOA HAVEN A","2302336","2023-03-01 17:00","2023","03","01","17:00"
"-95.85","68.64","GJOA HAVEN A","2302336","2023-03-01 18:00","2023","03","01","18:00"
"-95.85","68.64","GJOA HAVEN A","2302336","2023-03-01 19:00","2023","03","01","19:00"
"-95.85","68.64","GJOA HAVEN A","2302336","2023-03-01 20:00","2023","03","01","20:00"
"-95.85","68.64","GJOA HAVEN A","2302336","2023-03-01 21:00","2023","03","01","21:00"
"-95.85","68.64","GJOA HAVEN A","2302336","2023-03-01 22:00","2023","03","01","22:00"
"-95.85","68.64","GJOA HAVEN A","2302336","2023-03-01 23:00","2023","03","01","23:00"
"-95.85","68.64","GJOA HAVEN A","2302336","2023-03-02 00:00","2023","03","02","00:00"
"-95.85","68.64","GJOA HAVEN A","2302336","2023-03-02 01:00","2023","03","02","01:00"
"-95.85","68.64","GJOA HAVEN A","2302336","2023-03-02 02:00","2023","03","02","02:00"
"-95.85","68.64","GJOA HAVEN A","2302336","2023-03-02 03:00","2023","03","02","03:00"
"-95.85","68.64","GJOA HAVEN A","2302336","2023-03-02 04:00","2023","03","02","04:00"
"-95.85","68.64","GJOA HAVEN A","2302336","2023-03-02 05:00","2023","03","02","05:00"
"-95.85","68.64","GJOA HAVEN A","2302336","2023-03-02 06:00","2023","03","02","06:00","-32.4","","-36.2","","70","","","","10","","20","","24.1","","101.82","","","","-46","","NA"
"-95.85","68.64","GJOA HAVEN A","2302336","2023-03-02 07:00","2023","03","02","07:00","-32.7","","-36.6","","69","","","","6","","18","","24.1","","101.79","","","","-46","","NA"
"-95.85","68.64","GJOA HAVEN A","2302336","2023-03-02 08:00","2023","03","02","08:00","-32.5","","-36.3","","70","","","","9","","21","","24.1","","101.79","","","","-47","","Mainly Clear"
"-95.85","68.64","GJOA HAVEN A","2302336","2023-03-02 09:00","2023","03","02","09:00","-31.5","","-35.1","","71","","","","9","","23","","24.1","","101.75","","","","-46","","NA"
"-95.85","68.64","GJOA HAVEN A","2302336","2023-03-02 10:00","2023","03","02","10:00","-30.2","","-33.7","","72","","","","8","","22","","19.3","","101.67","","","","-44","","NA"
"-95.85","68.64","GJOA HAVEN A","2302336","2023-03-02 11:00","2023","03","02","11:00","-28.0","","-31.3","","74","","","","9","","27","","11.3","","101.63","","","","-42","","Blowing Snow"
"-95.85","68.64","GJOA HAVEN A","2302336","2023-03-02 12:00","2023","03","02","12:00","-27.3","","-30.5","","75","","","","8","","21","","8.1","","101.58","","","","-40","","NA"
"-95.85","68.64","GJOA HAVEN A","2302336","2023-03-02 13:00","2023","03","02","13:00","-25.6","","-28.7","","76","","","","11","","29","","8.1","","101.56","","","","-40","","Blowing Snow"
"-95.85","68.64","GJOA HAVEN A","2302336","2023-03-02 14:00","2023","03","02","14:00","-25.0","","-27.9","","77","","","","11","","31","","3.2","","101.56","","","","-39","","Blowing Snow"
"-95.85","68.64","GJOA HAVEN A","2302336","2023-03-02 15:00","2023","03","02","15:00","-24.7","","-27.5","","78","","","","10","","34","","2.4","","101.55","","","","-39","","Blowing Snow"
"-95.85","68.64","GJOA HAVEN A","2302336","2023-03-02 16:00","2023","03","02","16:00","-24.9","","-27.8","","77","","","","10","","28","","2.0","","101.56","","","","-39","","Blowing Snow"
"-95.85","68.64","GJOA HAVEN A","2302336","2023-03-02 17:00","2023","03","02","17:00","-25.4","","-28.3","","77","","","","10","","22","","6.4","","101.51","","","","-38","","Cloudy"
"-95.85","68.64","GJOA HAVEN A","2302336","2023-03-02 18:00","2023","03","02","18:00","-25.8","","-28.9","","76","","","","9","","23","","6.4","","101.49","","","","-39","","Ice Crystals"
"-95.85","68.64","GJOA HAVEN A","2302336","2023-03-02 19:00","2023","03","02","19:00"
"-95.85","68.64","GJOA HAVEN A","2302336","2023-03-02 20:00","2023","03","02","20:00"
"-95.85","68.64","GJOA HAVEN A","2302336","2023-03-02 21:00","2023","03","02","21:00"
"-95.85","68.64","GJOA HAVEN A","2302336","2023-03-02 22:00","2023","03","02","22:00"
"-95.85","68.64","GJOA HAVEN A","2302336","2023-03-02 23:00","2023","03","02","23:00"
"-95.85","68.64","GJOA HAVEN A","2302336","2023-03-03 00:00","2023","03","03","00:00"
"-95.85","68.64","GJOA HAVEN A","2302336","2023-03-03 01:00","2023","03","03","01:00"
"-95.85","68.64","GJOA HAVEN A","2302336","2023-03-03 02:00","2023","03","03","02:00"
"-95.85","68.64","GJOA HAVEN A","2302336","2023-03-03 03:00","2023","03","03","03:00"
"-95.85","68.64","GJOA HAVEN A","2302336","2023-03-03 04:00","2023","03","03","04:00"
"-95.85","68.64","GJOA HAVEN A","2302336","2023-03-03 05:00","2023","03","03","05:00"
"-95.85","68.64","GJOA HAVEN A","2302336","2023-03-03 06:00","2023","03","03","06:00","-30.7","","-34.4","","71","","","","6","","17","","24.1","","101.39","","","","-43","","NA"
"-95.85","68.64","GJOA HAVEN A","2302336","2023-03-03 07:00","2023","03","03","07:00","-31.4","","-35.0","","71","","","","5","","17","","24.1","","101.34","","","","-44","","NA"
"-95.85","68.64","GJOA HAVEN A","2302336","2023-03-03 08:00","2023","03","03","08:00","-29.4","","-32.8","","73","","","","7","","24","","24.1","","101.34","","","","-43","","Cloudy"
"-95.85","68.64","GJOA HAVEN A","2302336","2023-03-03 09:00","2023","03","03","09:00","-27.9","","-31.1","","75","","","","6","","25","","24.1","","101.29","","","","-42","","NA"
"-95.85","68.64","GJOA HAVEN A","2302336","2023-03-03 10:00","2023","03","03","10:00","-26.7","","-29.7","","76","","","","7","","29","","24.1","","101.26","","","","-41","","Blowing Snow"
"-95.85","68.64","GJOA HAVEN A","2302336","2023-03-03 11:00","2023","03","03","11:00","-25.7","","-28.6","","77","","","","5","","23","","24.1","","101.24","","","","-38","","Cloudy"
"-95.85","68.64","GJOA HAVEN A","2302336","2023-03-03 12:00","2023","03","03","12:00","-25.3","","-28.2","","77","","","","6","","30","","24.1","","101.23","","","","-39","","Blowing Snow"
"-95.85","68.64","GJOA HAVEN A","2302336","2023-03-03 13:00","2023","03","03","13:00","-24.8","","-27.7","","77","","","","6","","27","","24.1","","101.24","","","","-38","","Blowing Snow"
"-95.85","68.64","GJOA HAVEN A","2302336","2023-03-03 14:00","2023","03","03","14:00","-24.4","","-27.2","","78","","","","6","","27","","24.1","","101.26","","","","-38","","Blowing Snow"
"-95.85","68.64","GJOA HAVEN A","2302336","2023-03-03 15:00","2023","03","03","15:00","-24.3","","-27.1","","78","","","","6","","26","","19.3","","101.27","","","","-37","","NA"
"-95.85","68.64","GJOA HAVEN A","2302336","2023-03-03 16:00","2023","03","03","16:00","-24.4","","-27.2","","78","","","","7","","27","","6.4","","101.25","","","","-38","","Snow,Blowing Snow"
"-95.85","68.64","GJOA HAVEN A","2302336","2023-03-03 17:00","2023","03","03","17:00","-24.5","","-27.3","","78","","","","6","","31","","2.4","","101.24","","","","-39","","Snow,Blowing Snow"
"-95.85","68.64","GJOA HAVEN A","2302336","2023-03-03 18:00","2023","03","03","18:00","-25.0","","-27.8","","78","","","","5","","31","","3.6","","101.24","","","","-39","","Snow,Blowing Snow"
"-95.85","68.64","GJOA HAVEN A","2302336","2023-03-03 19:00","2023","03","03","19:00"
"-95.85","68.64","GJOA HAVEN A","2302336","2023-03-03 20:00","2023","03","03","20:00"
"-95.85","68.64","GJOA HAVEN A","2302336","2023-03-03 21:00","2023","03","03","21:00"
"-95.85","68.64","GJOA HAVEN A","2302336","2023-03-03 22:00","2023","03","03","22:00"
"-95.85","68.64","GJOA HAVEN A","2302336","2023-03-03 23:00","2023","03","03","23:00"
"-95.85","68.64","GJOA HAVEN A","2302336","2023-03-04 00:00","2023","03","04","00:00"
"-95.85","68.64","GJOA HAVEN A","2302336","2023-03-04 01:00","2023","03","04","01:00"
"-95.85","68.64","GJOA HAVEN A","2302336","2023-03-04 02:00","2023","03","04","02:00"
"-95.85","68.64","GJOA HAVEN A","2302336","2023-03-04 03:00","2023","03","04","03:00"
"-95.85","68.64","GJOA HAVEN A","2302336","2023-03-04 04:00","2023","03","04","04:00"
"-95.85","68.64","GJOA HAVEN A","2302336","2023-03-04 05:00","2023","03","04","05:00"
"-95.85","68.64","GJOA HAVEN A","2302336","2023-03-04 06:00","2023","03","04","06:00"
"-95.85","68.64","GJOA HAVEN A","2302336","2023-03-04 07:00","2023","03","04","07:00"
"-95.85","68.64","GJOA HAVEN A","2302336","2023-03-04 08:00","2023","03","04","08:00"
"-95.85","68.64","GJOA HAVEN A","2302336","2023-03-04 09:00","2023","03","04","09:00"
"-95.85","68.64","GJOA HAVEN A","2302336","2023-03-04 10:00","2023","03","04","10:00"
"-95.85","68.64","GJOA HAVEN A","2302336","2023-03-04 11:00","2023","03","04","11:00"
"-95.85","68.64","GJOA HAVEN A","2302336","2023-03-04 12:00","2023","03","04","12:00"
"-95.85","68.64","GJOA HAVEN A","2302336","2023-03-04 13:00","2023","03","04","13:00"
"-95.85","68.64","GJOA HAVEN A","2302336","2023-03-04 14:00","2023","03","04","14:00"
"-95.85","68.64","GJOA HAVEN A","2302336","2023-03-04 15:00","2023","03","04","15:00"
"-95.85","68.64","GJOA HAVEN A","2302336","2023-03-04 16:00","2023","03","04","16:00"
"-95.85","68.64","GJOA HAVEN A","2302336","2023-03-04 17:00","2023","03","04","17:00"
"-95.85","68.64","GJOA HAVEN A","2302336","2023-03-04 18:00","2023","03","04","18:00"
"-95.85","68.64","GJOA HAVEN A","2302336","2023-03-04 19:00","2023","03","04","19:00"
"-95.85","68.64","GJOA HAVEN A","2302336","2023-03-04 20:00","2023","03","04","20:00"
"-95.85","68.64","GJOA HAVEN A","2302336","2023-03-04 21:00","2023","03","04","21:00"
"-95.85","68.64","GJOA HAVEN A","2302336","2023-03-04 22:00","2023","03","04","22:00"
"-95.85","68.64","GJOA HAVEN A","2302336","2023-03-04 23:00","2023","03","04","23:00"
"-95.85","68.64","GJOA HAVEN A","2302336","2023-03-05 00:00","2023","03","05","00:00"
"-95.85","68.64","GJOA HAVEN A","2302336","2023-03-05 01:00","2023","03","05","01:00"
"-95.85","68.64","GJOA HAVEN A","2302336","2023-03-05 02:00","2023","03","05","02:00"
"-95.85","68.64","GJOA HAVEN A","2302336","2023-03-05 03:00","2023","03","05","03:00"
"-95.85","68.64","GJOA HAVEN A","2302336","2023-03-05 04:00","2023","03","05","04:00"
"-95.85","68.64","GJOA HAVEN A","2302336","2023-03-05 05:00","2023","03","05","05:00"
"-95.85","68.64","GJOA HAVEN A","2302336","2023-03-05 06:00","2023","03","05","06:00","-34.2","","-38.2","","68","","","","24","","15","","24.1","","102.12","","","","-47","","NA"
"-95.85","68.64","GJOA HAVEN A","2302336","2023-03-05 07:00","2023","03","05","07:00","-34.1","","-38.1","","68","","","","25","","18","","24.1","","102.11","","","","-48","","NA"
"-95.85","68.64","GJOA HAVEN A","2302336","2023-03-05 08:00","2023","03","05","08:00","-33.9","","-37.9","","68","","","","25","","13","","24.1","","102.18","","","","-45","","Clear"
"-95.85","68.64","GJOA HAVEN A","2302336","2023-03-05 09:00","2023","03","05","09:00","-33.2","","-37.1","","69","","","","24","","10","","24.1","","102.23","","","","-43","","NA"
"-95.85","68.64","GJOA HAVEN A","2302336","2023-03-05 10:00","2023","03","05","10:00","-32.2","","-36.0","","70","","","","28","","9","","24.1","","102.30","","","","-41","","NA"
"-95.85","68.64","GJOA HAVEN A","2302336","2023-03-05 11:00","2023","03","05","11:00","-31.8","","-35.6","","70","","","","27","","14","","24.1","","102.32","","","","-43","","Clear"
"-95.85","68.64","GJOA HAVEN A","2302336","2023-03-05 12:00","2023","03","05","12:00","-31.1","","-34.8","","71","","","","27","","13","","24.1","","102.35","","","","-42","","NA"
"-95.85","68.64","GJOA HAVEN A","2302336","2023-03-05 13:00","2023","03","05","13:00","-31.2","","-35.0","","70","","","","26","","7","","24.1","","102.39","","","","-39","","NA"
"-95.85","68.64","GJOA HAVEN A","2302336","2023-03-05 14:00","2023","03","05","14:00","-31.0","","-34.8","","70","","","","25","","8","","24.1","","102.42","","","","-39","","Mainly Clear"
"-95.85","68.64","GJOA HAVEN A","2302336","2023-03-05 15:00","2023","03","05","15:00","-30.6","","-34.3","","71","","","","25","","11","","24.1","","102.49","","","","-40","","NA"
"-95.85","68.64","GJOA HAVEN A","2302336","2023-03-05 16:00","2023","03","05","16:00","-31.6","","-35.4","","70","","","","25","","7","","24.1","","102.57","","","","-39","","NA"
"-95.85","68.64","GJOA HAVEN A","2302336","2023-03-05 17:00","2023","03","05","17:00","-33.0","","-36.9","","69","","","","26","","10","","24.1","","102.63","","","","-43","","Mainly Clear"
"-95.85","68.64","GJOA HAVEN A","2302336","2023-03-05 18:00","2023","03","05","18:00","-34.0","","-38.0","","68","","","","28","","14","","24.1","","102.64","","","","-46","","NA"
"-95.85","68.64","GJOA HAVEN A","2302336","2023-03-05 19:00","2023","03","05","19:00"
"-95.85","68.64","GJOA HAVEN A","2302336","2023-03-05 20:00","2023","03","05","20:00"
"-95.85","68.64","GJOA HAVEN A","2302336","2023-03-05 21:00","2023","03","05","21:00"
"-95.85","68.64","GJOA HAVEN A","2302336","2023-03-05 22:00","2023","03","05","22:00"
"-95.85","68.64","GJOA HAVEN A","2302336","2023-03-05 23:00","2023","03","05","23:00"
"-95.85","68.64","GJOA HAVEN A","2302336","2023-03-06 00:00","2023","03","06","00:00"
"-95.85","68.64","GJOA HAVEN A","2302336","2023-03-06 01:00","2023","03","06","01:00"
"-95.85","68.64","GJOA HAVEN A","2302336","2023-03-06 02:00","2023","03","06","02:00"
"-95.85","68.64","GJOA HAVEN A","2302336","2023-03-06 03:00","2023","03","06","03:00"
"-95.85","68.64","GJOA HAVEN A","2302336","2023-03-06 04:00","2023","03","06","04:00"
"-95.85","68.64","GJOA HAVEN A","2302336","2023-03-06 05:00","2023","03","06","05:00"
"-95.85","68.64","GJOA HAVEN A","2302336","2023-03-06 06:00","2023","03","06","06:00","-28.5","","-31.8","","74","","","","29","","26","","8.1","","102.86","","","","-43","","Ice Crystals"
"-95.85","68.64","GJOA HAVEN A","2302336","2023-03-06 07:00","2023","03","06","07:00","-29.3","","-32.7","","73","","","","27","","19","","9.7","","102.94","","","","-42","","Ice Crystals"
"-95.85","68.64","GJOA HAVEN A","2302336","2023-03-06 08:00","2023","03","06","08:00","-29.5","","-32.9","","73","","","","27","","21","","9.7","","103.06","","","","-43","","Ice Crystals"
"-95.85","68.64","GJOA HAVEN A","2302336","2023-03-06 09:00","2023","03","06","09:00","-30.3","","-33.8","","72","","","","26","","22","","9.7","","103.12","","","","-44","","Ice Crystals"
"-95.85","68.64","GJOA HAVEN A","2302336","2023-03-06 10:00","2023","03","06","10:00","-29.8","","-33.3","","72","","","","27","","24","","8.1","","103.20","","","","-44","","Ice Crystals"
"-95.85","68.64","GJOA HAVEN A","2302336","2023-03-06 11:00","2023","03","06","11:00","-30.4","","-34.0","","71","","","","26","","24","","12.9","","103.32","","","","-45","","Ice Crystals"
"-95.85","68.64","GJOA HAVEN A","2302336","2023-03-06 12:00","2023","03","06","12:00","-29.4","","-33.0","","72","","","","25","","18","","9.7","","103.47","","","","-42","","Ice Crystals"
"-95.85","68.64","GJOA HAVEN A","2302336","2023-03-06 13:00","2023","03","06","13:00","-29.8","","-33.3","","72","","","","24","","21","","11.3","","103.55","","","","-43","","Ice Crystals"
"-95.85","68.64","GJOA HAVEN A","2302336","2023-03-06 14:00","2023","03","06","14:00","-30.4","","-34.1","","71","","","","24","","19","","11.3","","103.66","","","","-43","","Ice Crystals"
"-95.85","68.64","GJOA HAVEN A","2302336","2023-03-06 15:00","2023","03","06","15:00","-30.5","","-34.2","","71","","","","24","","20","","12.9","","103.75","","","","-44","","Ice Crystals"
"-95.85","68.64","GJOA HAVEN A","2302336","2023-03-06 16:00","2023","03","06","16:00","-31.0","","-34.6","","71","","","","24","","17","","12.9","","103.83","","","","-43","","Ice Crystals"
"-95.85","68.64","GJOA HAVEN A","2302336","2023-03-06 17:00","2023","03","06","17:00","-31.7","","-35.5","","70","","","","21","","17","","11.3","","103.95","","","","-44","","Ice Crystals"
"-95.85","68.64","GJOA HAVEN A","2302336","2023-03-06 18:00","2023","03","06","18:00","-32.6","","-36.4","","70","","","","22","","21","","11.3","","104.03","","","","-47","","Ice Crystals"
"-95.85","68.64","GJOA HAVEN A","2302336","2023-03-06 19:00","2023","03","06","19:00"
"-95.85","68.64","GJOA HAVEN A","2302336","2023-03-06 20:00","2023","03","06","20:00"
"-95.85","68.64","GJOA HAVEN A","2302336","2023-03-06 21:00","2023","03","06","21:00"
"-95.85","68.64","GJOA HAVEN A","2302336","2023-03-06 22:00","2023","03","06","22:00"
"-95.85","68.64","GJOA HAVEN A","2302336","2023-03-06 23:00","2023","03","06","23:00"
"-95.85","68.64","GJOA HAVEN A","2302336","2023-03-07 00:00","2023","03","07","00:00"
"-95.85","68.64","GJOA HAVEN A","2302336","2023-03-07 01:00","2023","03","07","01:00"
"-95.85","68.64","GJOA HAVEN A","2302336","2023-03-07 02:00","2023","03","07","02:00"
"-95.85","68.64","GJOA HAVEN A","2302336","2023-03-07 03:00","2023","03","07","03:00"
"-95.85","68.64","GJOA HAVEN A","2302336","2023-03-07 04:00","2023","03","07","04:00"
"-95.85","68.64","GJOA HAVEN A","2302336","2023-03-07 05:00","2023","03","07","05:00"
"-95.85","68.64","GJOA HAVEN A","2302336","2023-03-07 06:00","2023","03","07","06:00","-33.4","","-37.4","","68","","","","4","","6","","24.1","","104.70","","","","-40","","NA"
"-95.85","68.64","GJOA HAVEN A","2302336","2023-03-07 07:00","2023","03","07","07:00","-33.6","","-37.5","","69","","","","3","","5","","24.1","","104.69","","","","-40","","NA"
"-95.85","68.64","GJOA HAVEN A","2302336","2023-03-07 08:00","2023","03","07","08:00","-32.8","","-36.5","","70","","","","5","","9","","24.1","","104.72","","","","-42","","Mostly Cloudy"
"-95.85","68.64","GJOA HAVEN A","2302336","2023-03-07 09:00","2023","03","07","09:00","-32.2","","-36.0","","70","","","","3","","10","","24.1","","104.69","","","","-42","","NA"
"-95.85","68.64","GJOA HAVEN A","2302336","2023-03-07 10:00","2023","03","07","10:00","-31.4","","-35.0","","71","","","","4","","9","","24.1","","104.73","","","","-40","","NA"
"-95.85","68.64","GJOA HAVEN A","2302336","2023-03-07 11:00","2023","03","07","11:00","-30.4","","-34.1","","71","","","","1","","10","","24.1","","104.72","","","","-40","","Cloudy"
"-95.85","68.64","GJOA HAVEN A","2302336","2023-03-07 12:00","2023","03","07","12:00","-30.0","","-33.4","","73","","","","35","","16","","24.1","","104.73","","","","-42","","NA"
"-95.85","68.64","GJOA HAVEN A","2302336","2023-03-07 13:00","2023","03","07","13:00","-28.7","","-32.1","","73","","","","3","","14","","24.1","","104.74","","","","-39","","NA"
"-95.85","68.64","GJOA HAVEN A","2302336","2023-03-07 14:00","2023","03","07","14:00","-27.8","","-31.1","","74","","","","1","","19","","24.1","","104.72","","","","-40","","Cloudy"
"-95.85","68.64","GJOA HAVEN A","2302336","2023-03-07 15:00","2023","03","07","15:00","-27.5","","-30.7","","75","","","","2","","23","","24.1","","104.69","","","","-41","","NA"
"-95.85","68.64","GJOA HAVEN A","2302336","2023-03-07 16:00","2023","03","07","16:00","-27.1","","-30.3","","75","","","","1","","22","","24.1","","104.68","","","","-40","","NA"
"-95.85","68.64","GJOA HAVEN A","2302336","2023-03-07 17:00","2023","03","07","17:00","-26.7","","-29.7","","76","","","","1","","24","","24.1","","104.67","","","","-40","","Cloudy"
"-95.85","68.64","GJOA HAVEN A","2302336","2023-03-07 18:00","2023","03","07","18:00","-26.6","","-29.6","","76","","","","1","","27","","24.1","","104.62","","","","-41","","NA"
"-95.85","68.64","GJOA HAVEN A","2302336","2023-03-07 19:00","2023","03","07","19:00"
"-95.85","68.64","GJOA HAVEN A","2302336","2023-03-07 20:00","2023","03","07","20:00"
"-95.85","68.64","GJOA HAVEN A","2302336","2023-03-07 21:00","2023","03","07","21:00"
"-95.85","68.64","GJOA HAVEN A","2302336","2023-03-07 22:00","2023","03","07","22:00"
"-95.85","68.64","GJOA HAVEN A","2302336","2023-03-07 23:00","2023","03","07","23:00"
"-95.85","68.64","GJOA HAVEN A","2302336","2023-03-08 00:00","2023","03","08","00:00"
"-95.85","68.64","GJOA HAVEN A","2302336","2023-03-08 01:00","2023","03","08","01:00"
"-95.85","68.64","GJOA HAVEN A","2302336","2023-03-08 02:00","2023","03","08","02:00"
"-95.85","68.64","GJOA HAVEN A","2302336","2023-03-08 03:00","2023","03","08","03:00"
"-95.85","68.64","GJOA HAVEN A","2302336","2023-03-08 04:00","2023","03","08","04:00"
"-95.85","68.64","GJOA HAVEN A","2302336","2023-03-08 05:00","2023","03","08","05:00"
"-95.85","68.64","GJOA HAVEN A","2302336","2023-03-08 06:00","2023","03","08","06:00","-21.5","","-23.9","","81","","","","35","","32","","1.6","","103.90","","","","-35","","Snow,Blowing Snow"
"-95.85","68.64","GJOA HAVEN A","2302336","2023-03-08 07:00","2023","03","08","07:00","-21.1","","-23.6","","81","","","","36","","31","","2.0","","103.85","","","","-34","","Snow,Blowing Snow"
"-95.85","68.64","GJOA HAVEN A","2302336","2023-03-08 08:00","2023","03","08","08:00","-20.5","","-23.0","","81","","","","1","","29","","2.0","","103.79","","","","-33","","Snow,Blowing Snow"
"-95.85","68.64","GJOA HAVEN A","2302336","2023-03-08 09:00","2023","03","08","09:00","-19.7","","-22.0","","82","","","","2","","30","","3.6","","103.73","","","","-32","","Snow,Blowing Snow"
"-95.85","68.64","GJOA HAVEN A","2302336","2023-03-08 10:00","2023","03","08","10:00","-18.9","","-21.0","","84","","","","2","","28","","8.1","","103.66","","","","-31","","Snow,Blowing Snow"
"-95.85","68.64","GJOA HAVEN A","2302336","2023-03-08 11:00","2023","03","08","11:00","-18.3","","-20.4","","84","","","","3","","25","","2.8","","103.62","","","","-29","","Snow,Blowing Snow"
"-95.85","68.64","GJOA HAVEN A","2302336","2023-03-08 12:00","2023","03","08","12:00","-18.4","","-20.6","","83","","","","6","","27","","1.2","","103.58","","","","-30","","Snow,Blowing Snow"
"-95.85","68.64","GJOA HAVEN A","2302336","2023-03-08 13:00","2023","03","08","13:00","-18.6","","-20.7","","84","","","","6","","19","","1.6","","103.55","","","","-28","","Snow"
"-95.85","68.64","GJOA HAVEN A","2302336","2023-03-08 14:00","2023","03","08","14:00","-18.5","","-20.6","","84","","","","6","","14","","3.6","","103.49","","","","-27","","Snow"
"-95.85","68.64","GJOA HAVEN A","2302336","2023-03-08 15:00","2023","03","08","15:00","-18.4","","-20.5","","84","","","","6","","8","","11.3","","103.44","","","","-24","","Snow"
"-95.85","68.64","GJOA HAVEN A","2302336","2023-03-08 16:00","2023","03","08","16:00","-18.6","","-20.7","","84","","","","3","","8","","12.9","","103.40","","","","-25","","Snow"
"-95.85","68.64","GJOA HAVEN A","2302336","2023-03-08 17:00","2023","03","08","17:00"
"-95.85","68.64","GJOA HAVEN A","2302336","2023-03-08 18:00","2023","03","08","18:00"
"-95.85","68.64","GJOA HAVEN A","2302336","2023-03-08 19:00","2023","03","08","19:00"
"-95.85","68.64","GJOA HAVEN A","2302336","2023-03-08 20:00","2023","03","08","20:00"
"-95.85","68.64","GJOA HAVEN A","2302336","2023-03-08 21:00","2023","03","08","21:00"
"-95.85","68.64","GJOA HAVEN A","2302336","2023-03-08 22:00","2023","03","08","22:00"
"-95.85","68.64","GJOA HAVEN A","2302336","2023-03-08 23:00","2023","03","08","23:00"
"-95.85","68.64","GJOA HAVEN A","2302336","2023-03-09 00:00","2023","03","09","00:00"
"-95.85","68.64","GJOA HAVEN A","2302336","2023-03-09 01:00","2023","03","09","01:00"
"-95.85","68.64","GJOA HAVEN A","2302336","2023-03-09 02:00","2023","03","09","02:00"
"-95.85","68.64","GJOA HAVEN A","2302336","2023-03-09 03:00","2023","03","09","03:00"
"-95.85","68.64","GJOA HAVEN A","2302336","2023-03-09 04:00","2023","03","09","04:00"
"-95.85","68.64","GJOA HAVEN A","2302336","2023-03-09 05:00","2023","03","09","05:00"
"-95.85","68.64","GJOA HAVEN A","2302336","2023-03-09 06:00","2023","03","09","06:00","-21.5","","-23.9","","81","","","","25","","23","","9.7","","102.85","","","","-33","","Snow"
"-95.85","68.64","GJOA HAVEN A","2302336","2023-03-09 07:00","2023","03","09","07:00","-21.5","","-23.9","","81","","","","25","","22","","4.8","","102.82","","","","-33","","Snow"
"-95.85","68.64","GJOA HAVEN A","2302336","2023-03-09 08:00","2023","03","09","08:00","-21.6","","-24.0","","81","","","","24","","22","","4.8","","102.82","","","","-33","","Snow"
"-95.85","68.64","GJOA HAVEN A","2302336","2023-03-09 09:00","2023","03","09","09:00","-21.5","","-23.9","","81","","","","24","","28","","4.8","","102.81","","","","-34","","Snow"
"-95.85","68.64","GJOA HAVEN A","2302336","2023-03-09 10:00","2023","03","09","10:00","-22.3","","-24.9","","80","","","","24","","31","","4.8","","102.80","","","","-36","","Snow,Blowing Snow"
"-95.85","68.64","GJOA HAVEN A","2302336","2023-03-09 11:00","2023","03","09","11:00","-22.8","","-25.4","","80","","","","24","","29","","6.4","","102.83","","","","-36","","Snow,Blowing Snow"
"-95.85","68.64","GJOA HAVEN A","2302336","2023-03-09 12:00","2023","03","09","12:00","-23.1","","-25.8","","79","","","","24","","31","","8.1","","102.83","","","","-37","","Snow,Blowing Snow"
"-95.85","68.64","GJOA HAVEN A","2302336","2023-03-09 13:00","2023","03","09","13:00","-23.3","","-26.0","","79","","","","24","","34","","8.1","","102.86","","","","-38","","Snow,Blowing Snow"
"-95.85","68.64","GJOA HAVEN A","2302336","2023-03-09 14:00","2023","03","09","14:00","-23.4","","-26.1","","79","","","","24","","30","","8.1","","102.89","","","","-37","","Snow,Blowing Snow"
"-95.85","68.64","GJOA HAVEN A","2302336","2023-03-09 15:00","2023","03","09","15:00","-23.5","","-26.2","","79","","","","23","","23","","8.1","","102.92","","","","-36","","Snow,Blowing Snow"
"-95.85","68.64","GJOA HAVEN A","2302336","2023-03-09 16:00","2023","03","09","16:00","-26.0","","-29.1","","76","","","","23","","29","","24.1","","102.93","","","","-40","","Blowing Snow"
"-95.85","68.64","GJOA HAVEN A","2302336","2023-03-09 17:00","2023","03","09","17:00","-28.4","","-31.7","","74","","","","22","","28","","24.1","","102.96","","","","-43","","Blowing Snow"
"-95.85","68.64","GJOA HAVEN A","2302336","2023-03-09 18:00","2023","03","09","18:00","-29.7","","-33.1","","73","","","","23","","23","","24.1","","102.96","","","","-44","","NA"
"-95.85","68.64","GJOA HAVEN A","2302336","2023-03-09 19:00","2023","03","09","19:00"
"-95.85","68.64","GJOA HAVEN A","2302336","2023-03-09 20:00","2023","03","09","20:00"
"-95.85","68.64","GJOA HAVEN A","2302336","2023-03-09 21:00","2023","03","09","21:00"
"-95.85","68.64","GJOA HAVEN A","2302336","2023-03-09 22:00","2023","03","09","22:00"
"-95.85","68.64","GJOA HAVEN A","2302336","2023-03-09 23:00","2023","03","09","23:00"
"-95.85","68.64","GJOA HAVEN A","2302336","2023-03-10 00:00","2023","03","10","00:00"
"-95.85","68.64","GJOA HAVEN A","2302336","2023-03-10 01:00","2023","03","10","01:00"
"-95.85","68.64","GJOA HAVEN A","2302336","2023-03-10 02:00","2023","03","10","02:00"
"-95.85","68.64","GJOA HAVEN A","2302336","2023-03-10 03:00","2023","03","10","03:00"
"-95.85","68.64","GJOA HAVEN A","2302336","2023-03-10 04:00","2023","03","10","04:00"
"-95.85","68.64","GJOA HAVEN A","2302336","2023-03-10 05:00","2023","03","10","05:00"
"-95.85","68.64","GJOA HAVEN A","2302336","2023-03-10 06:00","2023","03","10","06:00","-31.8","","-35.4","","71","","","","21","","26","","24.1","","102.69","","","","-47","","Blowing Snow"
"-95.85","68.64","GJOA HAVEN A","2302336","2023-03-10 07:00","2023","03","10","07:00","-31.3","","-34.9","","72","","","","21","","29","","24.1","","102.64","","","","-47","","Blowing Snow"
"-95.85","68.64","GJOA HAVEN A","2302336","2023-03-10 08:00","2023","03","10","08:00","-30.1","","-33.6","","72","","","","21","","34","","24.1","","102.60","","","","-47","","Blowing Snow"
"-95.85","68.64","GJOA HAVEN A","2302336","2023-03-10 09:00","2023","03","10","09:00","-29.1","","-32.5","","73","","","","21","","32","","24.1","","102.59","","","","-45","","Blowing Snow"
"-95.85","68.64","GJOA HAVEN A","2302336","2023-03-10 10:00","2023","03","10","10:00","-28.5","","-31.8","","74","","","","21","","26","","24.1","","102.60","","","","-43","","Blowing Snow"
"-95.85","68.64","GJOA HAVEN A","2302336","2023-03-10 11:00","2023","03","10","11:00","-27.0","","-30.1","","76","","","","21","","30","","8.1","","102.56","","","","-42","","Ice Crystals,Blowing Snow"
"-95.85","68.64","GJOA HAVEN A","2302336","2023-03-10 12:00","2023","03","10","12:00","-26.7","","-29.7","","76","","","","21","","25","","8.1","","102.56","","","","-40","","Ice Crystals"
"-95.85","68.64","GJOA HAVEN A","2302336","2023-03-10 13:00","2023","03","10","13:00","-25.8","","-28.9","","76","","","","21","","30","","11.3","","102.55","","","","-40","","Ice Crystals,Blowing Snow"
"-95.85","68.64","GJOA HAVEN A","2302336","2023-03-10 14:00","2023","03","10","14:00","-25.6","","-28.5","","77","","","","21","","30","","9.7","","102.56","","","","-40","","Ice Crystals,Blowing Snow"
"-95.85","68.64","GJOA HAVEN A","2302336","2023-03-10 15:00","2023","03","10","15:00","-25.5","","-28.4","","77","","","","21","","31","","9.7","","102.54","","","","-40","","Ice Crystals,Blowing Snow"
"-95.85","68.64","GJOA HAVEN A","2302336","2023-03-10 16:00","2023","03","10","16:00","-26.0","","-29.1","","76","","","","22","","30","","11.3","","102.52","","","","-40","","Ice Crystals,Blowing Snow"
"-95.85","68.64","GJOA HAVEN A","2302336","2023-03-10 17:00","2023","03","10","17:00","-26.3","","-29.4","","76","","","","21","","30","","11.3","","102.50","","","","-41","","Ice Crystals,Blowing Snow"
"-95.85","68.64","GJOA HAVEN A","2302336","2023-03-10 18:00","2023","03","10","18:00","-26.6","","-29.6","","76","","","","21","","26","","11.3","","102.50","","","","-40","","Ice Crystals,Blowing Snow"
"-95.85","68.64","GJOA HAVEN A","2302336","2023-03-10 19:00","2023","03","10","19:00"
"-95.85","68.64","GJOA HAVEN A","2302336","2023-03-10 20:00","2023","03","10","20:00"
"-95.85","68.64","GJOA HAVEN A","2302336","2023-03-10 21:00","2023","03","10","21:00"
"-95.85","68.64","GJOA HAVEN A","2302336","2023-03-10 22:00","2023","03","10","22:00"
"-95.85","68.64","GJOA HAVEN A","2302336","2023-03-10 23:00","2023","03","10","23:00"
"-95.85","68.64","GJOA HAVEN A","2302336","2023-03-11 00:00","2023","03","11","00:00"
"-95.85","68.64","GJOA HAVEN A","2302336","2023-03-11 01:00","2023","03","11","01:00"
"-95.85","68.64","GJOA HAVEN A","2302336","2023-03-11 02:00","2023","03","11","02:00"
"-95.85","68.64","GJOA HAVEN A","2302336","2023-03-11 03:00","2023","03","11","03:00"
"-95.85","68.64","GJOA HAVEN A","2302336","2023-03-11 04:00","2023","03","11","04:00"
"-95.85","68.64","GJOA HAVEN A","2302336","2023-03-11 05:00","2023","03","11","05:00"
"-95.85","68.64","GJOA HAVEN A","2302336","2023-03-11 06:00","2023","03","11","06:00"
"-95.85","68.64","GJOA HAVEN A","2302336","2023-03-11 07:00","2023","03","11","07:00"
"-95.85","68.64","GJOA HAVEN A","2302336","2023-03-11 08:00","2023","03","11","08:00"
"-95.85","68.64","GJOA HAVEN A","2302336","2023-03-11 09:00","2023","03","11","09:00"
"-95.85","68.64","GJOA HAVEN A","2302336","2023-03-11 10:00","2023","03","11","10:00"
"-95.85","68.64","GJOA HAVEN A","2302336","2023-03-11 11:00","2023","03","11","11:00"
"-95.85","68.64","GJOA HAVEN A","2302336","2023-03-11 12:00","2023","03","11","12:00"
"-95.85","68.64","GJOA HAVEN A","2302336","2023-03-11 13:00","2023","03","11","13:00"
"-95.85","68.64","GJOA HAVEN A","2302336","2023-03-11 14:00","2023","03","11","14:00"
"-95.85","68.64","GJOA HAVEN A","2302336","2023-03-11 15:00","2023","03","11","15:00"
"-95.85","68.64","GJOA HAVEN A","2302336","2023-03-11 16:00","2023","03","11","16:00"
"-95.85","68.64","GJOA HAVEN A","2302336","2023-03-11 17:00","2023","03","11","17:00"
"-95.85","68.64","GJOA HAVEN A","2302336","2023-03-11 18:00","2023","03","11","18:00"
"-95.85","68.64","GJOA HAVEN A","2302336","2023-03-11 19:00","2023","03","11","19:00"
"-95.85","68.64","GJOA HAVEN A","2302336","2023-03-11 20:00","2023","03","11","20:00"
"-95.85","68.64","GJOA HAVEN A","2302336","2023-03-11 21:00","2023","03","11","21:00"
"-95.85","68.64","GJOA HAVEN A","2302336","2023-03-11 22:00","2023","03","11","22:00"
"-95.85","68.64","GJOA HAVEN A","2302336","2023-03-11 23:00","2023","03","11","23:00"
"-95.85","68.64","GJOA HAVEN A","2302336","2023-03-12 00:00","2023","03","12","00:00"
"-95.85","68.64","GJOA HAVEN A","2302336","2023-03-12 01:00","2023","03","12","01:00"
"-95.85","68.64","GJOA HAVEN A","2302336","2023-03-12 02:00","2023","03","12","02:00"
"-95.85","68.64","GJOA HAVEN A","2302336","2023-03-12 03:00","2023","03","12","03:00"
"-95.85","68.64","GJOA HAVEN A","2302336","2023-03-12 04:00","2023","03","12","04:00"
"-95.85","68.64","GJOA HAVEN A","2302336","2023-03-12 05:00","2023","03","12","05:00","-29.9","","-33.3","","73","","","","19","","20","","24.1","","101.92","","","","-43","","Clear"
"-95.85","68.64","GJOA HAVEN A","2302336","2023-03-12 06:00","2023","03","12","06:00","-30.2","","-33.7","","72","","","","18","","17","","24.1","","101.92","","","","-42","","NA"
"-95.85","68.64","GJOA HAVEN A","2302336","2023-03-12 07:00","2023","03","12","07:00","-31.0","","-34.6","","71","","","","18","","18","","24.1","","101.87","","","","-44","","NA"
"-95.85","68.64","GJOA HAVEN A","2302336","2023-03-12 08:00","2023","03","12","08:00","-31.4","","-35.2","","70","","","","20","","11","","24.1","","101.86","","","","-41","","Clear"
"-95.85","68.64","GJOA HAVEN A","2302336","2023-03-12 09:00","2023","03","12","09:00","-30.9","","-34.6","","71","","","","20","","11","","24.1","","101.83","","","","-41","","NA"
"-95.85","68.64","GJOA HAVEN A","2302336","2023-03-12 10:00","2023","03","12","10:00","-29.4","","-32.8","","73","","","","22","","9","","24.1","","101.78","","","","-38","","NA"
"-95.85","68.64","GJOA HAVEN A","2302336","2023-03-12 11:00","2023","03","12","11:00","-28.5","","-31.9","","73","","","","22","","9","","6.4","","101.77","","","","-37","","Ice Crystals,Fog"
"-95.85","68.64","GJOA HAVEN A","2302336","2023-03-12 12:00","2023","03","12","12:00","-28.6","","-32.0","","73","","","","24","","12","","8.1","","101.74","","","","-38","","Ice Crystals,Fog"
"-95.85","68.64","GJOA HAVEN A","2302336","2023-03-12 13:00","2023","03","12","13:00","-28.7","","-32.1","","73","","","","24","","12","","16.1","","101.72","","","","-39","","Ice Crystals"
"-95.85","68.64","GJOA HAVEN A","2302336","2023-03-12 14:00","2023","03","12","14:00","-29.2","","-32.8","","72","","","","25","","5","","16.1","","101.72","","","","-35","","Ice Crystals"
"-95.85","68.64","GJOA HAVEN A","2302336","2023-03-12 15:00","2023","03","12","15:00","-28.7","","-32.1","","73","","","","27","","11","","16.1","","101.69","","","","-38","","Ice Crystals"
"-95.85","68.64","GJOA HAVEN A","2302336","2023-03-12 16:00","2023","03","12","16:00","-30.0","","-33.7","","71","","","","27","","8","","16.1","","101.68","","","","-38","","Ice Crystals"
"-95.85","68.64","GJOA HAVEN A","2302336","2023-03-12 17:00","2023","03","12","17:00","-30.3","","-33.8","","72","","","","29","","8","","16.1","","101.65","","","","-38","","Ice Crystals"
"-95.85","68.64","GJOA HAVEN A","2302336","2023-03-12 18:00","2023","03","12","18:00"
"-95.85","68.64","GJOA HAVEN A","2302336","2023-03-12 19:00","2023","03","12","19:00"
"-95.85","68.64","GJOA HAVEN A","2302336","2023-03-12 20:00","2023","03","12","20:00"
"-95.85","68.64","GJOA HAVEN A","2302336","2023-03-12 21:00","2023","03","12","21:00"
"-95.85","68.64","GJOA HAVEN A","2302336","2023-03-12 22:00","2023","03","12","22:00"
"-95.85","68.64","GJOA HAVEN A","2302336","2023-03-12 23:00","2023","03","12","23:00"
"-95.85","68.64","GJOA HAVEN A","2302336","2023-03-13 00:00","2023","03","13","00:00"
"-95.85","68.64","GJOA HAVEN A","2302336","2023-03-13 01:00","2023","03","13","01:00"
"-95.85","68.64","GJOA HAVEN A","2302336","2023-03-13 02:00","2023","03","13","02:00"
"-95.85","68.64","GJOA HAVEN A","2302336","2023-03-13 03:00","2023","03","13","03:00"
"-95.85","68.64","GJOA HAVEN A","2302336","2023-03-13 04:00","2023","03","13","04:00"
"-95.85","68.64","GJOA HAVEN A","2302336","2023-03-13 05:00","2023","03","13","05:00","-30.0","","-33.4","","73","","","","33","","14","","8.1","","101.42","","","","-41","","Snow"
"-95.85","68.64","GJOA HAVEN A","2302336","2023-03-13 06:00","2023","03","13","06:00","-29.8","","-33.2","","73","","","","30","","10","","6.4","","101.39","","","","-39","","Snow"
"-95.85","68.64","GJOA HAVEN A","2302336","2023-03-13 07:00","2023","03","13","07:00","-29.2","","-32.6","","73","","","","35","","8","","6.4","","101.38","","","","-37","","Snow"
"-95.85","68.64","GJOA HAVEN A","2302336","2023-03-13 08:00","2023","03","13","08:00","-29.7","","-33.2","","72","","","","33","","9","","6.4","","101.36","","","","-38","","Snow"
"-95.85","68.64","GJOA HAVEN A","2302336","2023-03-13 09:00","2023","03","13","09:00","-29.5","","-33.0","","72","","","","31","","11","","8.1","","101.33","","","","-39","","Snow"
"-95.85","68.64","GJOA HAVEN A","2302336","2023-03-13 10:00","2023","03","13","10:00","-29.4","","-32.8","","73","","","","30","","13","","9.7","","101.32","","","","-40","","Snow"
"-95.85","68.64","GJOA HAVEN A","2302336","2023-03-13 11:00","2023","03","13","11:00","-26.8","","-29.7","","77","","","","33","","18","","6.4","","101.31","","","","-38","","Snow"
"-95.85","68.64","GJOA HAVEN A","2302336","2023-03-13 12:00","2023","03","13","12:00","-26.1","","-29.2","","76","","","","30","","13","","6.4","","101.31","","","","-36","","Snow"
"-95.85","68.64","GJOA HAVEN A","2302336","2023-03-13 13:00","2023","03","13","13:00","-25.1","","-28.0","","77","","","","30","","16","","8.1","","101.30","","","","-36","","Snow"
"-95.85","68.64","GJOA HAVEN A","2302336","2023-03-13 14:00","2023","03","13","14:00","-25.7","","-28.8","","76","","","","30","","17","","8.1","","101.31","","","","-37","","Snow"
"-95.85","68.64","GJOA HAVEN A","2302336","2023-03-13 15:00","2023","03","13","15:00","-25.8","","-28.7","","77","","","","28","","13","","6.4","","101.32","","","","-35","","Snow"
"-95.85","68.64","GJOA HAVEN A","2302336","2023-03-13 16:00","2023","03","13","16:00","-25.9","","-28.8","","77","","","","27","","12","","6.4","","101.31","","","","-35","","Snow"
"-95.85","68.64","GJOA HAVEN A","2302336","2023-03-13 17:00","2023","03","13","17:00","-25.9","","-28.8","","77","","","","28","","12","","8.1","","101.31","","","","-35","","Snow"
"-95.85","68.64","GJOA HAVEN A","2302336","2023-03-13 18:00","2023","03","13","18:00"
"-95.85","68.64","GJOA HAVEN A","2302336","2023-03-13 19:00","2023","03","13","19:00"
"-95.85","68.64","GJOA HAVEN A","2302336","2023-03-13 20:00","2023","03","13","20:00"
"-95.85","68.64","GJOA HAVEN A","2302336","2023-03-13 21:00","2023","03","13","21:00"
"-95.85","68.64","GJOA HAVEN A","2302336","2023-03-13 22:00","2023","03","13","22:00"
"-95.85","68.64","GJOA HAVEN A","2302336","2023-03-13 23:00","2023","03","13","23:00"
"-95.85","68.64","GJOA HAVEN A","2302336","2023-03-14 00:00","2023","03","14","00:00"
"-95.85","68.64","GJOA HAVEN A","2302336","2023-03-14 01:00","2023","03","14","01:00"
"-95.85","68.64","GJOA HAVEN A","2302336","2023-03-14 02:00","2023","03","14","02:00"
"-95.85","68.64","GJOA HAVEN A","2302336","2023-03-14 03:00","2023","03","14","03:00"
"-95.85","68.64","GJOA HAVEN A","2302336","2023-03-14 04:00","2023","03","14","04:00"
"-95.85","68.64","GJOA HAVEN A","2302336","2023-03-14 05:00","2023","03","14","05:00","-32.4","","-36.3","","69","","","","31","","29","","24.1","","101.48","","","","-49","","Blowing Snow"
"-95.85","68.64","GJOA HAVEN A","2302336","2023-03-14 06:00","2023","03","14","06:00","-33.4","","-37.2","","70","","","","32","","30","","6.4","","101.48","","","","-50","","Ice Crystals,Blowing Snow"
"-95.85","68.64","GJOA HAVEN A","2302336","2023-03-14 07:00","2023","03","14","07:00","-32.3","","-36.2","","69","","","","32","","34","","6.4","","101.51","","","","-49","","Ice Crystals,Blowing Snow"
"-95.85","68.64","GJOA HAVEN A","2302336","2023-03-14 08:00","2023","03","14","08:00","-31.2","","-34.9","","71","","","","32","","31","","6.4","","101.53","","","","-47","","Ice Crystals,Blowing Snow"
"-95.85","68.64","GJOA HAVEN A","2302336","2023-03-14 09:00","2023","03","14","09:00","-31.3","","-35.0","","71","","","","31","","27","","6.4","","101.55","","","","-47","","Ice Crystals,Blowing Snow"
"-95.85","68.64","GJOA HAVEN A","2302336","2023-03-14 10:00","2023","03","14","10:00","-30.5","","-34.2","","71","","","","25","","5","","6.4","","101.58","","","","-36","","Ice Crystals"
"-95.85","68.64","GJOA HAVEN A","2302336","2023-03-14 11:00","2023","03","14","11:00","-29.7","","-33.2","","72","","","","32","","7","","6.4","","101.62","","","","-37","","Ice Crystals"
"-95.85","68.64","GJOA HAVEN A","2302336","2023-03-14 12:00","2023","03","14","12:00","-29.4","","-32.9","","72","","","","24","","10","","6.4","","101.66","","","","-38","","Ice Crystals"
"-95.85","68.64","GJOA HAVEN A","2302336","2023-03-14 13:00","2023","03","14","13:00","-28.9","","-32.3","","73","","","","28","","12","","8.1","","101.67","","","","-39","","Ice Crystals"
"-95.85","68.64","GJOA HAVEN A","2302336","2023-03-14 14:00","2023","03","14","14:00","-29.1","","-32.7","","72","","","","29","","17","","9.7","","101.69","","","","-41","","Ice Crystals"
"-95.85","68.64","GJOA HAVEN A","2302336","2023-03-14 15:00","2023","03","14","15:00","-29.5","","-33.0","","72","","","","28","","15","","8.1","","101.71","","","","-41","","Ice Crystals"
"-95.85","68.64","GJOA HAVEN A","2302336","2023-03-14 16:00","2023","03","14","16:00","-30.0","","-33.5","","72","","","","30","","17","","8.1","","101.71","","","","-42","","Ice Crystals"
"-95.85","68.64","GJOA HAVEN A","2302336","2023-03-14 17:00","2023","03","14","17:00","-30.1","","-33.6","","72","","","","28","","21","","6.4","","101.73","","","","-44","","Ice Crystals"
"-95.85","68.64","GJOA HAVEN A","2302336","2023-03-14 18:00","2023","03","14","18:00"
"-95.85","68.64","GJOA HAVEN A","2302336","2023-03-14 19:00","2023","03","14","19:00"
"-95.85","68.64","GJOA HAVEN A","2302336","2023-03-14 20:00","2023","03","14","20:00"
"-95.85","68.64","GJOA HAVEN A","2302336","2023-03-14 21:00","2023","03","14","21:00"
"-95.85","68.64","GJOA HAVEN A","2302336","2023-03-14 22:00","2023","03","14","22:00"
"-95.85","68.64","GJOA HAVEN A","2302336","2023-03-14 23:00","2023","03","14","23:00"
"-95.85","68.64","GJOA HAVEN A","2302336","2023-03-15 00:00","2023","03","15","00:00"
"-95.85","68.64","GJOA HAVEN A","2302336","2023-03-15 01:00","2023","03","15","01:00"
"-95.85","68.64","GJOA HAVEN A","2302336","2023-03-15 02:00","2023","03","15","02:00"
"-95.85","68.64","GJOA HAVEN A","2302336","2023-03-15 03:00","2023","03","15","03:00"
"-95.85","68.64","GJOA HAVEN A","2302336","2023-03-15 04:00","2023","03","15","04:00"
"-95.85","68.64","GJOA HAVEN A","2302336","2023-03-15 05:00","2023","03","15","05:00","-35.4","","-39.7","","66","","","","23","","13","","9.7","","101.81","","","","-47","","Ice Crystals"
"-95.85","68.64","GJOA HAVEN A","2302336","2023-03-15 06:00","2023","03","15","06:00","-34.9","","-39.0","","67","","","","23","","12","","9.7","","101.81","","","","-46","","Ice Crystals"
"-95.85","68.64","GJOA HAVEN A","2302336","2023-03-15 07:00","2023","03","15","07:00","-34.2","","-38.2","","68","","","","22","","14","","8.1","","101.85","","","","-46","","Ice Crystals"
"-95.85","68.64","GJOA HAVEN A","2302336","2023-03-15 08:00","2023","03","15","08:00","-34.1","","-38.1","","68","","","","22","","15","","8.1","","101.84","","","","-46","","Ice Crystals"
"-95.85","68.64","GJOA HAVEN A","2302336","2023-03-15 09:00","2023","03","15","09:00","-33.5","","-37.5","","68","","","","22","","16","","8.1","","101.83","","","","-46","","Ice Crystals"
"-95.85","68.64","GJOA HAVEN A","2302336","2023-03-15 10:00","2023","03","15","10:00","-32.3","","-36.2","","69","","","","22","","18","","9.7","","101.88","","","","-45","","Ice Crystals"
"-95.85","68.64","GJOA HAVEN A","2302336","2023-03-15 11:00","2023","03","15","11:00","-30.8","","-34.5","","71","","","","22","","21","","9.7","","101.88","","","","-44","","Ice Crystals"
"-95.85","68.64","GJOA HAVEN A","2302336","2023-03-15 12:00","2023","03","15","12:00","-30.0","","-33.5","","72","","","","22","","22","","11.3","","101.90","","","","-44","","Ice Crystals"
"-95.85","68.64","GJOA HAVEN A","2302336","2023-03-15 13:00","2023","03","15","13:00","-29.8","","-33.3","","72","","","","22","","21","","11.3","","101.94","","","","-43","","Ice Crystals"
"-95.85","68.64","GJOA HAVEN A","2302336","2023-03-15 14:00","2023","03","15","14:00","-29.5","","-33.0","","72","","","","23","","21","","9.7","","101.99","","","","-43","","Ice Crystals"
"-95.85","68.64","GJOA HAVEN A","2302336","2023-03-15 15:00","2023","03","15","15:00","-29.8","","-33.3","","72","","","","23","","17","","16.1","","102.01","","","","-42","","Ice Crystals"
"-95.85","68.64","GJOA HAVEN A","2302336","2023-03-15 16:00","2023","03","15","16:00"
"-95.85","68.64","GJOA HAVEN A","2302336","2023-03-15 17:00","2023","03","15","17:00"
"-95.85","68.64","GJOA HAVEN A","2302336","2023-03-15 18:00","2023","03","15","18:00"
"-95.85","68.64","GJOA HAVEN A","2302336","2023-03-15 19:00","2023","03","15","19:00"
"-95.85","68.64","GJOA HAVEN A","2302336","2023-03-15 20:00","2023","03","15","20:00"
"-95.85","68.64","GJOA HAVEN A","2302336","2023-03-15 21:00","2023","03","15","21:00"
"-95.85","68.64","GJOA HAVEN A","2302336","2023-03-15 22:00","2023","03","15","22:00"
"-95.85","68.64","GJOA HAVEN A","2302336","2023-03-15 23:00","2023","03","15","23:00"
"-95.85","68.64","GJOA HAVEN A","2302336","2023-03-16 00:00","2023","03","16","00:00"
"-95.85","68.64","GJOA HAVEN A","2302336","2023-03-16 01:00","2023","03","16","01:00"
"-95.85","68.64","GJOA HAVEN A","2302336","2023-03-16 02:00","2023","03","16","02:00"
"-95.85","68.64","GJOA HAVEN A","2302336","2023-03-16 03:00","2023","03","16","03:00"
"-95.85","68.64","GJOA HAVEN A","2302336","2023-03-16 04:00","2023","03","16","04:00"
"-95.85","68.64","GJOA HAVEN A","2302336","2023-03-16 05:00","2023","03","16","05:00","-33.4","","-37.1","","70","","","","31","","9","","24.1","","102.46","","","","-43","","Clear"
"-95.85","68.64","GJOA HAVEN A","2302336","2023-03-16 06:00","2023","03","16","06:00","-32.8","","-36.7","","69","","","","34","","8","","24.1","","102.47","","","","-41","","NA"
"-95.85","68.64","GJOA HAVEN A","2302336","2023-03-16 07:00","2023","03","16","07:00","-33.1","","-37.0","","69","","","","34","","5","","24.1","","102.48","","","","-39","","NA"
"-95.85","68.64","GJOA HAVEN A","2302336","2023-03-16 08:00","2023","03","16","08:00","-32.6","","-36.5","","69","","","","2","","6","","24.1","","102.50","","","","-40","","Clear"
"-95.85","68.64","GJOA HAVEN A","2302336","2023-03-16 09:00","2023","03","16","09:00","-33.1","","-37.3","","67","","","","5","","8","","24.1","","102.48","","","","-42","","NA"
"-95.85","68.64","GJOA HAVEN A","2302336","2023-03-16 10:00","2023","03","16","10:00","-33.4","","-37.4","","68","","","","9","","9","","24.1","","102.49","","","","-43","","NA"
"-95.85","68.64","GJOA HAVEN A","2302336","2023-03-16 11:00","2023","03","16","11:00","-33.0","","-37.0","","68","","","","11","","10","","24.1","","102.48","","","","-43","","Mostly Cloudy"
"-95.85","68.64","GJOA HAVEN A","2302336","2023-03-16 12:00","2023","03","16","12:00","-32.7","","-36.6","","69","","","","16","","10","","24.1","","102.49","","","","-42","","NA"
"-95.85","68.64","GJOA HAVEN A","2302336","2023-03-16 13:00","2023","03","16","13:00","-32.2","","-36.1","","69","","","","17","","10","","24.1","","102.48","","","","-42","","NA"
"-95.85","68.64","GJOA HAVEN A","2302336","2023-03-16 14:00","2023","03","16","14:00","-31.5","","-35.3","","70","","","","15","","8","","24.1","","102.45","","","","-40","","Cloudy"
"-95.85","68.64","GJOA HAVEN A","2302336","2023-03-16 15:00","2023","03","16","15:00","-31.2","","-35.0","","70","","","","13","","12","","24.1","","102.44","","","","-42","","NA"
"-95.85","68.64","GJOA HAVEN A","2302336","2023-03-16 16:00","2023","03","16","16:00","-31.0","","-34.6","","71","","","","14","","16","","24.1","","102.39","","","","-43","","NA"
"-95.85","68.64","GJOA HAVEN A","2302336","2023-03-16 17:00","2023","03","16","17:00","-31.3","","-35.0","","71","","","","14","","18","","24.1","","102.35","","","","-44","","Mostly Cloudy"
"-95.85","68.64","GJOA HAVEN A","2302336","2023-03-16 18:00","2023","03","16","18:00"
"-95.85","68.64","GJOA HAVEN A","2302336","2023-03-16 19:00","2023","03","16","19:00"
"-95.85","68.64","GJOA HAVEN A","2302336","2023-03-16 20:00","2023","03","16","20:00"
"-95.85","68.64","GJOA HAVEN A","2302336","2023-03-16 21:00","2023","03","16","21:00"
"-95.85","68.64","GJOA HAVEN A","2302336","2023-03-16 22:00","2023","03","16","22:00"
"-95.85","68.64","GJOA HAVEN A","2302336","2023-03-16 23:00","2023","03","16","23:00"
"-95.85","68.64","GJOA HAVEN A","2302336","2023-03-17 00:00","2023","03","17","00:00"
"-95.85","68.64","GJOA HAVEN A","2302336","2023-03-17 01:00","2023","03","17","01:00"
"-95.85","68.64","GJOA HAVEN A","2302336","2023-03-17 02:00","2023","03","17","02:00"
"-95.85","68.64","GJOA HAVEN A","2302336","2023-03-17 03:00","2023","03","17","03:00"
"-95.85","68.64","GJOA HAVEN A","2302336","2023-03-17 04:00","2023","03","17","04:00"
"-95.85","68.64","GJOA HAVEN A","2302336","2023-03-17 05:00","2023","03","17","05:00","-26.3","","-29.4","","76","","","","20","","21","","9.7","","101.86","","","","-39","","Ice Crystals"
"-95.85","68.64","GJOA HAVEN A","2302336","2023-03-17 06:00","2023","03","17","06:00","-27.2","","-30.4","","75","","","","20","","23","","16.1","","101.81","","","","-40","","Ice Crystals"
"-95.85","68.64","GJOA HAVEN A","2302336","2023-03-17 07:00","2023","03","17","07:00","-27.3","","-30.5","","75","","","","20","","23","","12.9","","101.77","","","","-41","","Ice Crystals"
"-95.85","68.64","GJOA HAVEN A","2302336","2023-03-17 08:00","2023","03","17","08:00","-26.8","","-30.0","","75","","","","21","","25","","8.1","","101.75","","","","-40","","Ice Crystals"
"-95.85","68.64","GJOA HAVEN A","2302336","2023-03-17 09:00","2023","03","17","09:00","-26.6","","-29.7","","75","","","","22","","21","","9.7","","101.74","","","","-39","","Ice Crystals"
"-95.85","68.64","GJOA HAVEN A","2302336","2023-03-17 10:00","2023","03","17","10:00","-26.1","","-29.2","","76","","","","22","","18","","16.1","","101.75","","","","-38","","Ice Crystals"
"-95.85","68.64","GJOA HAVEN A","2302336","2023-03-17 11:00","2023","03","17","11:00","-25.6","","-28.7","","76","","","","20","","19","","19.3","","101.72","","","","-37","","Ice Crystals"
"-95.85","68.64","GJOA HAVEN A","2302336","2023-03-17 12:00","2023","03","17","12:00","-25.2","","-28.1","","77","","","","21","","19","","19.3","","101.70","","","","-37","","Ice Crystals"
"-95.85","68.64","GJOA HAVEN A","2302336","2023-03-17 13:00","2023","03","17","13:00","-24.6","","-27.6","","77","","","","21","","20","","19.3","","101.71","","","","-36","","Ice Crystals"
"-95.85","68.64","GJOA HAVEN A","2302336","2023-03-17 14:00","2023","03","17","14:00","-24.7","","-27.6","","77","","","","21","","18","","16.1","","101.70","","","","-36","","Ice Crystals"
"-95.85","68.64","GJOA HAVEN A","2302336","2023-03-17 15:00","2023","03","17","15:00","-25.4","","-28.4","","77","","","","20","","18","","19.3","","101.70","","","","-37","","Ice Crystals"
"-95.85","68.64","GJOA HAVEN A","2302336","2023-03-17 16:00","2023","03","17","16:00","-25.9","","-28.8","","77","","","","22","","19","","24.1","","101.70","","","","-38","","Ice Crystals"
"-95.85","68.64","GJOA HAVEN A","2302336","2023-03-17 17:00","2023","03","17","17:00","-27.2","","-30.4","","75","","","","23","","18","","24.1","","101.71","","","","-39","","Ice Crystals"
"-95.85","68.64","GJOA HAVEN A","2302336","2023-03-17 18:00","2023","03","17","18:00"
"-95.85","68.64","GJOA HAVEN A","2302336","2023-03-17 19:00","2023","03","17","19:00"
"-95.85","68.64","GJOA HAVEN A","2302336","2023-03-17 20:00","2023","03","17","20:00"
"-95.85","68.64","GJOA HAVEN A","2302336","2023-03-17 21:00","2023","03","17","21:00"
"-95.85","68.64","GJOA HAVEN A","2302336","2023-03-17 22:00","2023","03","17","22:00"
"-95.85","68.64","GJOA HAVEN A","2302336","2023-03-17 23:00","2023","03","17","23:00"
"-95.85","68.64","GJOA HAVEN A","2302336","2023-03-18 00:00","2023","03","18","00:00"
"-95.85","68.64","GJOA HAVEN A","2302336","2023-03-18 01:00","2023","03","18","01:00"
"-95.85","68.64","GJOA HAVEN A","2302336","2023-03-18 02:00","2023","03","18","02:00"
"-95.85","68.64","GJOA HAVEN A","2302336","2023-03-18 03:00","2023","03","18","03:00"
"-95.85","68.64","GJOA HAVEN A","2302336","2023-03-18 04:00","2023","03","18","04:00"
"-95.85","68.64","GJOA HAVEN A","2302336","2023-03-18 05:00","2023","03","18","05:00"
"-95.85","68.64","GJOA HAVEN A","2302336","2023-03-18 06:00","2023","03","18","06:00"
"-95.85","68.64","GJOA HAVEN A","2302336","2023-03-18 07:00","2023","03","18","07:00"
"-95.85","68.64","GJOA HAVEN A","2302336","2023-03-18 08:00","2023","03","18","08:00"
"-95.85","68.64","GJOA HAVEN A","2302336","2023-03-18 09:00","2023","03","18","09:00"
"-95.85","68.64","GJOA HAVEN A","2302336","2023-03-18 10:00","2023","03","18","10:00"
"-95.85","68.64","GJOA HAVEN A","2302336","2023-03-18 11:00","2023","03","18","11:00"
"-95.85","68.64","GJOA HAVEN A","2302336","2023-03-18 12:00","2023","03","18","12:00"
"-95.85","68.64","GJOA HAVEN A","2302336","2023-03-18 13:00","2023","03","18","13:00"
"-95.85","68.64","GJOA HAVEN A","2302336","2023-03-18 14:00","2023","03","18","14:00"
"-95.85","68.64","GJOA HAVEN A","2302336","2023-03-18 15:00","2023","03","18","15:00"
"-95.85","68.64","GJOA HAVEN A","2302336","2023-03-18 16:00","2023","03","18","16:00"
"-95.85","68.64","GJOA HAVEN A","2302336","2023-03-18 17:00","2023","03","18","17:00"
"-95.85","68.64","GJOA HAVEN A","2302336","2023-03-18 18:00","2023","03","18","18:00"
"-95.85","68.64","GJOA HAVEN A","2302336","2023-03-18 19:00","2023","03","18","19:00"
"-95.85","68.64","GJOA HAVEN A","2302336","2023-03-18 20:00","2023","03","18","20:00"
"-95.85","68.64","GJOA HAVEN A","2302336","2023-03-18 21:00","2023","03","18","21:00"
"-95.85","68.64","GJOA HAVEN A","2302336","2023-03-18 22:00","2023","03","18","22:00"
"-95.85","68.64","GJOA HAVEN A","2302336","2023-03-18 23:00","2023","03","18","23:00"
"-95.85","68.64","GJOA HAVEN A","2302336","2023-03-19 00:00","2023","03","19","00:00"
"-95.85","68.64","GJOA HAVEN A","2302336","2023-03-19 01:00","2023","03","19","01:00"
"-95.85","68.64","GJOA HAVEN A","2302336","2023-03-19 02:00","2023","03","19","02:00"
"-95.85","68.64","GJOA HAVEN A","2302336","2023-03-19 03:00","2023","03","19","03:00"
"-95.85","68.64","GJOA HAVEN A","2302336","2023-03-19 04:00","2023","03","19","04:00"
"-95.85","68.64","GJOA HAVEN A","2302336","2023-03-19 05:00","2023","03","19","05:00","-30.6","","-34.1","","72","","","","33","","25","","6.4","","102.52","","","","-45","","Snow"
"-95.85","68.64","GJOA HAVEN A","2302336","2023-03-19 06:00","2023","03","19","06:00","-30.5","","-34.0","","72","","","","33","","28","","6.4","","102.51","","","","-46","","Snow"
"-95.85","68.64","GJOA HAVEN A","2302336","2023-03-19 07:00","2023","03","19","07:00","-30.8","","-34.3","","72","","","","33","","21","","6.4","","102.51","","","","-44","","Snow"
"-95.85","68.64","GJOA HAVEN A","2302336","2023-03-19 08:00","2023","03","19","08:00","-31.6","","-35.4","","70","","","","32","","25","","6.4","","102.50","","","","-47","","Snow"
"-95.85","68.64","GJOA HAVEN A","2302336","2023-03-19 09:00","2023","03","19","09:00","-31.8","","-35.6","","70","","","","35","","11","","19.3","","102.53","","","","-42","","Ice Crystals"
"-95.85","68.64","GJOA HAVEN A","2302336","2023-03-19 10:00","2023","03","19","10:00","-31.6","","-35.4","","70","","","","34","","13","","19.3","","102.51","","","","-43","","Ice Crystals"
"-95.85","68.64","GJOA HAVEN A","2302336","2023-03-19 11:00","2023","03","19","11:00","-31.4","","-35.2","","70","","","","34","","12","","19.3","","102.53","","","","-42","","Ice Crystals"
"-95.85","68.64","GJOA HAVEN A","2302336","2023-03-19 12:00","2023","03","19","12:00","-31.1","","-34.9","","70","","","","33","","10","","19.3","","102.53","","","","-40","","Ice Crystals"
"-95.85","68.64","GJOA HAVEN A","2302336","2023-03-19 13:00","2023","03","19","13:00","-30.8","","-34.6","","70","","","","32","","9","","19.3","","102.52","","","","-40","","Ice Crystals"
"-95.85","68.64","GJOA HAVEN A","2302336","2023-03-19 14:00","2023","03","19","14:00","-30.9","","-34.7","","70","","","","34","","7","","16.1","","102.54","","","","-38","","Ice Crystals"
"-95.85","68.64","GJOA HAVEN A","2302336","2023-03-19 15:00","2023","03","19","15:00","-31.3","","-35.1","","70","","","","34","","7","","16.1","","102.54","","","","-39","","Ice Crystals"
"-95.85","68.64","GJOA HAVEN A","2302336","2023-03-19 16:00","2023","03","19","16:00","-32.0","","-35.8","","70","","","","36","","10","","16.1","","102.56","","","","-42","","Ice Crystals"
"-95.85","68.64","GJOA HAVEN A","2302336","2023-03-19 17:00","2023","03","19","17:00","-33.0","","-37.0","","68","","","","35","","13","","19.3","","102.57","","","","-44","","Ice Crystals"
"-95.85","68.64","GJOA HAVEN A","2302336","2023-03-19 18:00","2023","03","19","18:00"
"-95.85","68.64","GJOA HAVEN A","2302336","2023-03-19 19:00","2023","03","19","19:00"
"-95.85","68.64","GJOA HAVEN A","2302336","2023-03-19 20:00","2023","03","19","20:00"
"-95.85","68.64","GJOA HAVEN A","2302336","2023-03-19 21:00","2023","03","19","21:00"
"-95.85","68.64","GJOA HAVEN A","2302336","2023-03-19 22:00","2023","03","19","22:00"
"-95.85","68.64","GJOA HAVEN A","2302336","2023-03-19 23:00","2023","03","19","23:00"
"-95.85","68.64","GJOA HAVEN A","2302336","2023-03-20 00:00","2023","03","20","00:00"
"-95.85","68.64","GJOA HAVEN A","2302336","2023-03-20 01:00","2023","03","20","01:00"
"-95.85","68.64","GJOA HAVEN A","2302336","2023-03-20 02:00","2023","03","20","02:00"
"-95.85","68.64","GJOA HAVEN A","2302336","2023-03-20 03:00","2023","03","20","03:00"
"-95.85","68.64","GJOA HAVEN A","2302336","2023-03-20 04:00","2023","03","20","04:00"
"-95.85","68.64","GJOA HAVEN A","2302336","2023-03-20 05:00","2023","03","20","05:00","-34.8","","-38.9","","67","","","","34","","21","","12.9","","102.51","","","","-49","","Ice Crystals"
"-95.85","68.64","GJOA HAVEN A","2302336","2023-03-20 06:00","2023","03","20","06:00","-32.8","","-36.5","","70","","","","34","","18","","4.8","","102.52","","","","-46","","Fog"
"-95.85","68.64","GJOA HAVEN A","2302336","2023-03-20 07:00","2023","03","20","07:00","-33.9","","-38.0","","67","","","","28","","7","","4.8","","102.50","","","","-42","","Fog"
"-95.85","68.64","GJOA HAVEN A","2302336","2023-03-20 08:00","2023","03","20","08:00","-33.1","","-37.0","","69","","","","33","","16","","8.1","","102.49","","","","-46","","Fog"
"-95.85","68.64","GJOA HAVEN A","2302336","2023-03-20 09:00","2023","03","20","09:00","-31.6","","-35.5","","69","","","","32","","15","","16.1","","102.48","","","","-43","","Ice Crystals"
"-95.85","68.64","GJOA HAVEN A","2302336","2023-03-20 10:00","2023","03","20","10:00","-30.4","","-34.1","","71","","","","33","","16","","19.3","","102.45","","","","-42","","Ice Crystals"
"-95.85","68.64","GJOA HAVEN A","2302336","2023-03-20 11:00","2023","03","20","11:00","-27.8","","-31.1","","74","","","","30","","9","","19.3","","102.44","","","","-36","","Ice Crystals"
"-95.85","68.64","GJOA HAVEN A","2302336","2023-03-20 12:00","2023","03","20","12:00","-25.9","","-29.0","","76","","","","31","","18","","19.3","","102.38","","","","-37","","Ice Crystals"
"-95.85","68.64","GJOA HAVEN A","2302336","2023-03-20 13:00","2023","03","20","13:00","-25.3","","-28.4","","76","","","","33","","28","","19.3","","102.37","","","","-39","","Ice Crystals"
"-95.85","68.64","GJOA HAVEN A","2302336","2023-03-20 14:00","2023","03","20","14:00","-25.8","","-28.9","","76","","","","31","","27","","19.3","","102.35","","","","-40","","Ice Crystals"
"-95.85","68.64","GJOA HAVEN A","2302336","2023-03-20 15:00","2023","03","20","15:00","-26.1","","-29.2","","76","","","","32","","35","","19.3","","102.34","","","","-41","","Ice Crystals,Blowing Snow"
"-95.85","68.64","GJOA HAVEN A","2302336","2023-03-20 16:00","2023","03","20","16:00","-26.8","","-30.0","","75","","","","32","","33","","16.1","","102.33","","","","-42","","Ice Crystals,Blowing Snow"
"-95.85","68.64","GJOA HAVEN A","2302336","2023-03-20 17:00","2023","03","20","17:00","-27.4","","-30.6","","75","","","","33","","27","","16.1","","102.31","","","","-42","","Ice Crystals"
"-95.85","68.64","GJOA HAVEN A","2302336","2023-03-20 18:00","2023","03","20","18:00"
"-95.85","68.64","GJOA HAVEN A","2302336","2023-03-20 19:00","2023","03","20","19:00"
"-95.85","68.64","GJOA HAVEN A","2302336","2023-03-20 20:00","2023","03","20","20:00"
"-95.85","68.64","GJOA HAVEN A","2302336","2023-03-20 21:00","2023","03","20","21:00"
"-95.85","68.64","GJOA HAVEN A","2302336","2023-03-20 22:00","2023","03","20","22:00"
"-95.85","68.64","GJOA HAVEN A","2302336","2023-03-20 23:00","2023","03","20","23:00"
"-95.85","68.64","GJOA HAVEN A","2302336","2023-03-21 00:00","2023","03","21","00:00"
"-95.85","68.64","GJOA HAVEN A","2302336","2023-03-21 01:00","2023","03","21","01:00"
"-95.85","68.64","GJOA HAVEN A","2302336","2023-03-21 02:00","2023","03","21","02:00"
"-95.85","68.64","GJOA HAVEN A","2302336","2023-03-21 03:00","2023","03","21","03:00"
"-95.85","68.64","GJOA HAVEN A","2302336","2023-03-21 04:00","2023","03","21","04:00"
"-95.85","68.64","GJOA HAVEN A","2302336","2023-03-21 05:00","2023","03","21","05:00","-29.6","","-33.1","","72","","","","29","","24","","6.4","","102.16","","","","-44","","Ice Crystals"
"-95.85","68.64","GJOA HAVEN A","2302336","2023-03-21 06:00","2023","03","21","06:00","-30.3","","-33.8","","72","","","","30","","23","","4.8","","102.12","","","","-44","","Ice Crystals"
"-95.85","68.64","GJOA HAVEN A","2302336","2023-03-21 07:00","2023","03","21","07:00","-29.7","","-33.1","","73","","","","29","","19","","4.8","","102.12","","","","-42","","Ice Crystals"
"-95.85","68.64","GJOA HAVEN A","2302336","2023-03-21 08:00","2023","03","21","08:00","-28.6","","-32.0","","73","","","","29","","22","","4.8","","102.09","","","","-42","","Ice Crystals"
"-95.85","68.64","GJOA HAVEN A","2302336","2023-03-21 09:00","2023","03","21","09:00","-28.1","","-31.4","","74","","","","29","","23","","3.2","","102.05","","","","-42","","Ice Crystals"
"-95.85","68.64","GJOA HAVEN A","2302336","2023-03-21 10:00","2023","03","21","10:00","-27.2","","-30.4","","75","","","","28","","19","","4.0","","102.02","","","","-39","","Ice Crystals"
"-95.85","68.64","GJOA HAVEN A","2302336","2023-03-21 11:00","2023","03","21","11:00","-25.1","","-28.0","","77","","","","27","","21","","3.2","","102.01","","","","-37","","Ice Crystals"
"-95.85","68.64","GJOA HAVEN A","2302336","2023-03-21 12:00","2023","03","21","12:00","-25.8","","-28.9","","76","","","","26","","23","","2.0","","102.00","","","","-39","","Ice Crystals"
"-95.85","68.64","GJOA HAVEN A","2302336","2023-03-21 13:00","2023","03","21","13:00","-25.9","","-29.0","","76","","","","25","","18","","3.6","","101.99","","","","-37","","Ice Crystals"
"-95.85","68.64","GJOA HAVEN A","2302336","2023-03-21 14:00","2023","03","21","14:00","-26.2","","-29.2","","76","","","","27","","24","","6.4","","101.95","","","","-39","","Ice Crystals"
"-95.85","68.64","GJOA HAVEN A","2302336","2023-03-21 15:00","2023","03","21","15:00","-26.2","","-29.2","","76","","","","27","","24","","4.8","","101.93","","","","-39","","Ice Crystals"
"-95.85","68.64","GJOA HAVEN A","2302336","2023-03-21 16:00","2023","03","21","16:00","-26.3","","-29.4","","76","","","","26","","24","","4.8","","101.92","","","","-39","","Ice Crystals"
"-95.85","68.64","GJOA HAVEN A","2302336","2023-03-21 17:00","2023","03","21","17:00","-26.5","","-29.6","","76","","","","25","","20","","4.8","","101.90","","","","-39","","Ice Crystals"
"-95.85","68.64","GJOA HAVEN A","2302336","2023-03-21 18:00","2023","03","21","18:00"
"-95.85","68.64","GJOA HAVEN A","2302336","2023-03-21 19:00","2023","03","21","19:00"
"-95.85","68.64","GJOA HAVEN A","2302336","2023-03-21 20:00","2023","03","21","20:00"
"-95.85","68.64","GJOA HAVEN A","2302336","2023-03-21 21:00","2023","03","21","21:00"
"-95.85","68.64","GJOA HAVEN A","2302336","2023-03-21 22:00","2023","03","21","22:00"
"-95.85","68.64","GJOA HAVEN A","2302336","2023-03-21 23:00","2023","03","21","23:00"
"-95.85","68.64","GJOA HAVEN A","2302336","2023-03-22 00:00","2023","03","22","00:00"
"-95.85","68.64","GJOA HAVEN A","2302336","2023-03-22 01:00","2023","03","22","01:00"
"-95.85","68.64","GJOA HAVEN A","2302336","2023-03-22 02:00","2023","03","22","02:00"
"-95.85","68.64","GJOA HAVEN A","2302336","2023-03-22 03:00","2023","03","22","03:00"
"-95.85","68.64","GJOA HAVEN A","2302336","2023-03-22 04:00","2023","03","22","04:00"
"-95.85","68.64","GJOA HAVEN A","2302336","2023-03-22 05:00","2023","03","22","05:00","-29.7","","-33.1","","73","","","","24","","18","","3.2","","101.70","","","","-42","","Fog"
"-95.85","68.64","GJOA HAVEN A","2302336","2023-03-22 06:00","2023","03","22","06:00","-30.1","","-33.6","","72","","","","25","","21","","3.2","","101.69","","","","-44","","Fog,Blowing Snow"
"-95.85","68.64","GJOA HAVEN A","2302336","2023-03-22 07:00","2023","03","22","07:00","-29.9","","-33.3","","73","","","","25","","29","","4.0","","101.63","","","","-45","","Fog,Blowing Snow"
"-95.85","68.64","GJOA HAVEN A","2302336","2023-03-22 08:00","2023","03","22","08:00","-29.1","","-32.5","","73","","","","24","","23","","4.0","","101.63","","","","-43","","Ice Crystals,Blowing Snow"
"-95.85","68.64","GJOA HAVEN A","2302336","2023-03-22 09:00","2023","03","22","09:00","-28.9","","-32.3","","73","","","","25","","23","","4.0","","101.62","","","","-43","","Ice Crystals,Blowing Snow"
"-95.85","68.64","GJOA HAVEN A","2302336","2023-03-22 10:00","2023","03","22","10:00","-28.5","","-31.9","","73","","","","25","","25","","4.0","","101.61","","","","-43","","Ice Crystals,Blowing Snow"
"-95.85","68.64","GJOA HAVEN A","2302336","2023-03-22 11:00","2023","03","22","11:00","-28.0","","-31.3","","74","","","","24","","26","","4.0","","101.59","","","","-42","","Ice Crystals,Blowing Snow"
"-95.85","68.64","GJOA HAVEN A","2302336","2023-03-22 12:00","2023","03","22","12:00","-27.2","","-30.4","","75","","","","24","","24","","2.4","","101.56","","","","-41","","Ice Crystals,Blowing Snow"
"-95.85","68.64","GJOA HAVEN A","2302336","2023-03-22 13:00","2023","03","22","13:00","-27.1","","-30.3","","75","","","","25","","31","","2.4","","101.53","","","","-42","","Ice Crystals,Blowing Snow"
"-95.85","68.64","GJOA HAVEN A","2302336","2023-03-22 14:00","2023","03","22","14:00","-26.9","","-30.1","","75","","","","25","","27","","2.4","","101.51","","","","-41","","Ice Crystals,Blowing Snow"
"-95.85","68.64","GJOA HAVEN A","2302336","2023-03-22 15:00","2023","03","22","15:00","-26.3","","-29.4","","76","","","","24","","28","","2.4","","101.47","","","","-40","","Ice Crystals,Blowing Snow"
"-95.85","68.64","GJOA HAVEN A","2302336","2023-03-22 16:00","2023","03","22","16:00"
"-95.85","68.64","GJOA HAVEN A","2302336","2023-03-22 17:00","2023","03","22","17:00"
"-95.85","68.64","GJOA HAVEN A","2302336","2023-03-22 18:00","2023","03","22","18:00"
"-95.85","68.64","GJOA HAVEN A","2302336","2023-03-22 19:00","2023","03","22","19:00"
"-95.85","68.64","GJOA HAVEN A","2302336","2023-03-22 20:00","2023","03","22","20:00"
"-95.85","68.64","GJOA HAVEN A","2302336","2023-03-22 21:00","2023","03","22","21:00"
"-95.85","68.64","GJOA HAVEN A","2302336","2023-03-22 22:00","2023","03","22","22:00"
"-95.85","68.64","GJOA HAVEN A","2302336","2023-03-22 23:00","2023","03","22","23:00"
"-95.85","68.64","GJOA HAVEN A","2302336","2023-03-23 00:00","2023","03","23","00:00"
"-95.85","68.64","GJOA HAVEN A","2302336","2023-03-23 01:00","2023","03","23","01:00"
"-95.85","68.64","GJOA HAVEN A","2302336","2023-03-23 02:00","2023","03","23","02:00"
"-95.85","68.64","GJOA HAVEN A","2302336","2023-03-23 03:00","2023","03","23","03:00"
"-95.85","68.64","GJOA HAVEN A","2302336","2023-03-23 04:00","2023","03","23","04:00"
"-95.85","68.64","GJOA HAVEN A","2302336","2023-03-23 05:00","2023","03","23","05:00","-31.8","","-35.4","","71","","","","29","","6","","4.8","","100.81","","","","-39","","Snow,Fog"
"-95.85","68.64","GJOA HAVEN A","2302336","2023-03-23 06:00","2023","03","23","06:00","-30.0","","-33.5","","72","","","","4","","13","","4.8","","100.79","","","","-41","","Snow,Fog"
"-95.85","68.64","GJOA HAVEN A","2302336","2023-03-23 07:00","2023","03","23","07:00","-30.7","","-34.4","","71","","","","4","","18","","6.4","","100.78","","","","-43","","Snow,Fog"
"-95.85","68.64","GJOA HAVEN A","2302336","2023-03-23 08:00","2023","03","23","08:00","-31.0","","-34.6","","71","","","","5","","17","","6.4","","100.80","","","","-43","","Snow,Fog"
"-95.85","68.64","GJOA HAVEN A","2302336","2023-03-23 09:00","2023","03","23","09:00","-30.3","","-33.8","","72","","","","6","","23","","6.4","","100.80","","","","-44","","Ice Crystals,Fog"
"-95.85","68.64","GJOA HAVEN A","2302336","2023-03-23 10:00","2023","03","23","10:00","-28.7","","-32.1","","73","","","","6","","26","","4.0","","100.80","","","","-43","","Ice Crystals"
"-95.85","68.64","GJOA HAVEN A","2302336","2023-03-23 11:00","2023","03","23","11:00","-27.8","","-31.1","","74","","","","7","","26","","4.8","","100.82","","","","-42","","Ice Crystals"
"-95.85","68.64","GJOA HAVEN A","2302336","2023-03-23 12:00","2023","03","23","12:00","-27.1","","-30.3","","75","","","","6","","27","","6.4","","100.82","","","","-41","","Ice Crystals"
"-95.85","68.64","GJOA HAVEN A","2302336","2023-03-23 13:00","2023","03","23","13:00","-26.8","","-30.0","","75","","","","7","","26","","6.4","","100.84","","","","-41","","Ice Crystals"
"-95.85","68.64","GJOA HAVEN A","2302336","2023-03-23 14:00","2023","03","23","14:00","-26.3","","-29.4","","76","","","","7","","23","","6.4","","100.86","","","","-39","","Ice Crystals"
"-95.85","68.64","GJOA HAVEN A","2302336","2023-03-23 15:00","2023","03","23","15:00","-26.3","","-29.4","","76","","","","8","","22","","6.4","","100.88","","","","-39","","Ice Crystals"
"-95.85","68.64","GJOA HAVEN A","2302336","2023-03-23 16:00","2023","03","23","16:00","-26.6","","-29.8","","75","","","","8","","24","","9.7","","100.91","","","","-40","","Ice Crystals"
"-95.85","68.64","GJOA HAVEN A","2302336","2023-03-23 17:00","2023","03","23","17:00","-28.1","","-31.5","","73","","","","7","","21","","9.7","","100.94","","","","-41","","Ice Crystals"
"-95.85","68.64","GJOA HAVEN A","2302336","2023-03-23 18:00","2023","03","23","18:00"
"-95.85","68.64","GJOA HAVEN A","2302336","2023-03-23 19:00","2023","03","23","19:00"
"-95.85","68.64","GJOA HAVEN A","2302336","2023-03-23 20:00","2023","03","23","20:00"
"-95.85","68.64","GJOA HAVEN A","2302336","2023-03-23 21:00","2023","03","23","21:00"
"-95.85","68.64","GJOA HAVEN A","2302336","2023-03-23 22:00","2023","03","23","22:00"
"-95.85","68.64","GJOA HAVEN A","2302336","2023-03-23 23:00","2023","03","23","23:00"
"-95.85","68.64","GJOA HAVEN A","2302336","2023-03-24 00:00","2023","03","24","00:00"
"-95.85","68.64","GJOA HAVEN A","2302336","2023-03-24 01:00","2023","03","24","01:00"
"-95.85","68.64","GJOA HAVEN A","2302336","2023-03-24 02:00","2023","03","24","02:00"
"-95.85","68.64","GJOA HAVEN A","2302336","2023-03-24 03:00","2023","03","24","03:00"
"-95.85","68.64","GJOA HAVEN A","2302336","2023-03-24 04:00","2023","03","24","04:00"
"-95.85","68.64","GJOA HAVEN A","2302336","2023-03-24 05:00","2023","03","24","05:00","-32.5","","-36.4","","69","","","","6","","20","","4.8","","101.52","","","","-46","","Fog"
"-95.85","68.64","GJOA HAVEN A","2302336","2023-03-24 06:00","2023","03","24","06:00","-32.4","","-36.2","","70","","","","8","","19","","4.8","","101.57","","","","-46","","Fog"
"-95.85","68.64","GJOA HAVEN A","2302336","2023-03-24 07:00","2023","03","24","07:00","-31.9","","-35.7","","70","","","","6","","17","","4.8","","101.63","","","","-44","","Ice Crystals,Fog"
"-95.85","68.64","GJOA HAVEN A","2302336","2023-03-24 08:00","2023","03","24","08:00","-32.1","","-35.9","","70","","","","5","","18","","4.8","","101.69","","","","-45","","Ice Crystals,Fog"
"-95.85","68.64","GJOA HAVEN A","2302336","2023-03-24 09:00","2023","03","24","09:00","-30.4","","-34.1","","71","","","","6","","16","","8.1","","101.75","","","","-42","","Ice Crystals"
"-95.85","68.64","GJOA HAVEN A","2302336","2023-03-24 10:00","2023","03","24","10:00","-29.2","","-32.8","","72","","","","6","","17","","8.1","","101.80","","","","-41","","Ice Crystals"
"-95.85","68.64","GJOA HAVEN A","2302336","2023-03-24 11:00","2023","03","24","11:00","-27.8","","-31.1","","74","","","","7","","16","","8.1","","101.84","","","","-39","","Ice Crystals"
"-95.85","68.64","GJOA HAVEN A","2302336","2023-03-24 12:00","2023","03","24","12:00","-27.2","","-30.5","","74","","","","6","","17","","16.1","","101.88","","","","-39","","Ice Crystals"
"-95.85","68.64","GJOA HAVEN A","2302336","2023-03-24 13:00","2023","03","24","13:00","-26.4","","-29.6","","75","","","","5","","16","","16.1","","101.91","","","","-37","","Ice Crystals"
"-95.85","68.64","GJOA HAVEN A","2302336","2023-03-24 14:00","2023","03","24","14:00","-26.3","","-29.5","","75","","","","6","","17","","16.1","","101.98","","","","-38","","Ice Crystals"
"-95.85","68.64","GJOA HAVEN A","2302336","2023-03-24 15:00","2023","03","24","15:00","-26.4","","-29.6","","75","","","","6","","19","","16.1","","102.00","","","","-38","","Ice Crystals"
"-95.85","68.64","GJOA HAVEN A","2302336","2023-03-24 16:00","2023","03","24","16:00","-27.6","","-30.9","","74","","","","5","","18","","16.1","","102.03","","","","-39","","Ice Crystals"
"-95.85","68.64","GJOA HAVEN A","2302336","2023-03-24 17:00","2023","03","24","17:00","-27.8","","-31.0","","75","","","","7","","19","","16.1","","102.08","","","","-40","","Ice Crystals"
"-95.85","68.64","GJOA HAVEN A","2302336","2023-03-24 18:00","2023","03","24","18:00"
"-95.85","68.64","GJOA HAVEN A","2302336","2023-03-24 19:00","2023","03","24","19:00"
"-95.85","68.64","GJOA HAVEN A","2302336","2023-03-24 20:00","2023","03","24","20:00"
"-95.85","68.64","GJOA HAVEN A","2302336","2023-03-24 21:00","2023","03","24","21:00"
"-95.85","68.64","GJOA HAVEN A","2302336","2023-03-24 22:00","2023","03","24","22:00"
"-95.85","68.64","GJOA HAVEN A","2302336","2023-03-24 23:00","2023","03","24","23:00"
"-95.85","68.64","GJOA HAVEN A","2302336","2023-03-25 00:00","2023","03","25","00:00"
"-95.85","68.64","GJOA HAVEN A","2302336","2023-03-25 01:00","2023","03","25","01:00"
"-95.85","68.64","GJOA HAVEN A","2302336","2023-03-25 02:00","2023","03","25","02:00"
"-95.85","68.64","GJOA HAVEN A","2302336","2023-03-25 03:00","2023","03","25","03:00"
"-95.85","68.64","GJOA HAVEN A","2302336","2023-03-25 04:00","2023","03","25","04:00"
"-95.85","68.64","GJOA HAVEN A","2302336","2023-03-25 05:00","2023","03","25","05:00"
"-95.85","68.64","GJOA HAVEN A","2302336","2023-03-25 06:00","2023","03","25","06:00","-34.0","","-38.1","","68","","","","5","","23","","8.1","","102.46","","","","-49","","Fog"
"-95.85","68.64","GJOA HAVEN A","2302336","2023-03-25 07:00","2023","03","25","07:00","-33.6","","-37.6","","68","","","","4","","23","","16.1","","102.50","","","","-49","","NA"
"-95.85","68.64","GJOA HAVEN A","2302336","2023-03-25 08:00","2023","03","25","08:00","-32.9","","-36.8","","69","","","","4","","23","","16.1","","102.52","","","","-48","","Clear"
"-95.85","68.64","GJOA HAVEN A","2302336","2023-03-25 09:00","2023","03","25","09:00","-31.7","","-35.5","","70","","","","4","","20","","16.1","","102.54","","","","-45","","NA"
"-95.85","68.64","GJOA HAVEN A","2302336","2023-03-25 10:00","2023","03","25","10:00","-30.4","","-34.1","","71","","","","4","","20","","8.1","","102.55","","","","-44","","Ice Crystals"
"-95.85","68.64","GJOA HAVEN A","2302336","2023-03-25 11:00","2023","03","25","11:00","-28.6","","-32.0","","73","","","","4","","20","","12.9","","102.56","","","","-41","","Ice Crystals"
"-95.85","68.64","GJOA HAVEN A","2302336","2023-03-25 12:00","2023","03","25","12:00"
"-95.85","68.64","GJOA HAVEN A","2302336","2023-03-25 13:00","2023","03","25","13:00"
"-95.85","68.64","GJOA HAVEN A","2302336","2023-03-25 14:00","2023","03","25","14:00"
"-95.85","68.64","GJOA HAVEN A","2302336","2023-03-25 15:00","2023","03","25","15:00"
"-95.85","68.64","GJOA HAVEN A","2302336","2023-03-25 16:00","2023","03","25","16:00"
"-95.85","68.64","GJOA HAVEN A","2302336","2023-03-25 17:00","2023","03","25","17:00"
"-95.85","68.64","GJOA HAVEN A","2302336","2023-03-25 18:00","2023","03","25","18:00"
"-95.85","68.64","GJOA HAVEN A","2302336","2023-03-25 19:00","2023","03","25","19:00"
"-95.85","68.64","GJOA HAVEN A","2302336","2023-03-25 20:00","2023","03","25","20:00"
"-95.85","68.64","GJOA HAVEN A","2302336","2023-03-25 21:00","2023","03","25","21:00"
"-95.85","68.64","GJOA HAVEN A","2302336","2023-03-25 22:00","2023","03","25","22:00"
"-95.85","68.64","GJOA HAVEN A","2302336","2023-03-25 23:00","2023","03","25","23:00"
"-95.85","68.64","GJOA HAVEN A","2302336","2023-03-26 00:00","2023","03","26","00:00"
"-95.85","68.64","GJOA HAVEN A","2302336","2023-03-26 01:00","2023","03","26","01:00"
"-95.85","68.64","GJOA HAVEN A","2302336","2023-03-26 02:00","2023","03","26","02:00"
"-95.85","68.64","GJOA HAVEN A","2302336","2023-03-26 03:00","2023","03","26","03:00"
"-95.85","68.64","GJOA HAVEN A","2302336","2023-03-26 04:00","2023","03","26","04:00"
"-95.85","68.64","GJOA HAVEN A","2302336","2023-03-26 05:00","2023","03","26","05:00","-31.7","","-35.3","","71","","","","35","","17","","24.1","","102.79","","","","-44","","Mainly Clear"
"-95.85","68.64","GJOA HAVEN A","2302336","2023-03-26 06:00","2023","03","26","06:00","-32.3","","-36.1","","70","","","","35","","22","","24.1","","102.79","","","","-47","","NA"
"-95.85","68.64","GJOA HAVEN A","2302336","2023-03-26 07:00","2023","03","26","07:00","-31.9","","-35.7","","70","","","","36","","20","","24.1","","102.78","","","","-45","","NA"
"-95.85","68.64","GJOA HAVEN A","2302336","2023-03-26 08:00","2023","03","26","08:00","-31.4","","-35.2","","70","","","","1","","21","","24.1","","102.78","","","","-45","","Clear"
"-95.85","68.64","GJOA HAVEN A","2302336","2023-03-26 09:00","2023","03","26","09:00","-30.2","","-33.9","","71","","","","2","","18","","24.1","","102.78","","","","-43","","NA"
"-95.85","68.64","GJOA HAVEN A","2302336","2023-03-26 10:00","2023","03","26","10:00","-29.6","","-33.3","","71","","","","1","","18","","24.1","","102.78","","","","-42","","NA"
"-95.85","68.64","GJOA HAVEN A","2302336","2023-03-26 11:00","2023","03","26","11:00","-29.2","","-32.8","","72","","","","36","","18","","24.1","","102.77","","","","-41","","Clear"
"-95.85","68.64","GJOA HAVEN A","2302336","2023-03-26 12:00","2023","03","26","12:00","-28.1","","-31.5","","73","","","","3","","14","","24.1","","102.79","","","","-39","","NA"
"-95.85","68.64","GJOA HAVEN A","2302336","2023-03-26 13:00","2023","03","26","13:00","-28.3","","-31.7","","73","","","","1","","16","","24.1","","102.77","","","","-40","","NA"
"-95.85","68.64","GJOA HAVEN A","2302336","2023-03-26 14:00","2023","03","26","14:00","-28.1","","-31.5","","73","","","","1","","16","","24.1","","102.77","","","","-39","","Mainly Clear"
"-95.85","68.64","GJOA HAVEN A","2302336","2023-03-26 15:00","2023","03","26","15:00","-28.5","","-31.9","","73","","","","36","","16","","24.1","","102.81","","","","-40","","NA"
"-95.85","68.64","GJOA HAVEN A","2302336","2023-03-26 16:00","2023","03","26","16:00","-29.3","","-32.9","","72","","","","1","","14","","24.1","","102.83","","","","-40","","NA"
"-95.85","68.64","GJOA HAVEN A","2302336","2023-03-26 17:00","2023","03","26","17:00","-30.0","","-33.5","","72","","","","36","","24","","24.1","","102.82","","","","-44","","Mainly Clear"
"-95.85","68.64","GJOA HAVEN A","2302336","2023-03-26 18:00","2023","03","26","18:00"
"-95.85","68.64","GJOA HAVEN A","2302336","2023-03-26 19:00","2023","03","26","19:00"
"-95.85","68.64","GJOA HAVEN A","2302336","2023-03-26 20:00","2023","03","26","20:00"
"-95.85","68.64","GJOA HAVEN A","2302336","2023-03-26 21:00","2023","03","26","21:00"
"-95.85","68.64","GJOA HAVEN A","2302336","2023-03-26 22:00","2023","03","26","22:00"
"-95.85","68.64","GJOA HAVEN A","2302336","2023-03-26 23:00","2023","03","26","23:00"
"-95.85","68.64","GJOA HAVEN A","2302336","2023-03-27 00:00","2023","03","27","00:00"
"-95.85","68.64","GJOA HAVEN A","2302336","2023-03-27 01:00","2023","03","27","01:00"
"-95.85","68.64","GJOA HAVEN A","2302336","2023-03-27 02:00","2023","03","27","02:00"
"-95.85","68.64","GJOA HAVEN A","2302336","2023-03-27 03:00","2023","03","27","03:00"
"-95.85","68.64","GJOA HAVEN A","2302336","2023-03-27 04:00","2023","03","27","04:00"
"-95.85","68.64","GJOA HAVEN A","2302336","2023-03-27 05:00","2023","03","27","05:00","-31.9","","-35.5","","71","","","","2","","21","","8.1","","102.86","","","","-46","","Fog"
"-95.85","68.64","GJOA HAVEN A","2302336","2023-03-27 06:00","2023","03","27","06:00","-31.5","","-35.0","","72","","","","3","","23","","6.4","","102.85","","","","-46","","Fog"
"-95.85","68.64","GJOA HAVEN A","2302336","2023-03-27 07:00","2023","03","27","07:00","-30.0","","-33.5","","72","","","","3","","23","","16.1","","102.83","","","","-44","","NA"
"-95.85","68.64","GJOA HAVEN A","2302336","2023-03-27 08:00","2023","03","27","08:00","-30.8","","-34.5","","71","","","","1","","29","","16.1","","102.81","","","","-46","","Blowing Snow"
"-95.85","68.64","GJOA HAVEN A","2302336","2023-03-27 09:00","2023","03","27","09:00","-29.2","","-32.6","","73","","","","3","","20","","16.1","","102.83","","","","-42","","NA"
"-95.85","68.64","GJOA HAVEN A","2302336","2023-03-27 10:00","2023","03","27","10:00","-27.7","","-30.9","","75","","","","3","","19","","11.3","","102.82","","","","-40","","Snow"
"-95.85","68.64","GJOA HAVEN A","2302336","2023-03-27 11:00","2023","03","27","11:00","-25.9","","-29.0","","76","","","","3","","26","","16.1","","102.75","","","","-39","","Snow"
"-95.85","68.64","GJOA HAVEN A","2302336","2023-03-27 12:00","2023","03","27","12:00","-25.7","","-28.8","","76","","","","3","","21","","16.1","","102.75","","","","-38","","NA"
"-95.85","68.64","GJOA HAVEN A","2302336","2023-03-27 13:00","2023","03","27","13:00","-25.5","","-28.6","","76","","","","3","","22","","24.1","","102.73","","","","-38","","NA"
"-95.85","68.64","GJOA HAVEN A","2302336","2023-03-27 14:00","2023","03","27","14:00","-25.1","","-28.2","","76","","","","1","","23","","24.1","","102.70","","","","-38","","Mainly Clear"
"-95.85","68.64","GJOA HAVEN A","2302336","2023-03-27 15:00","2023","03","27","15:00","-25.3","","-28.4","","76","","","","2","","21","","24.1","","102.69","","","","-37","","NA"
"-95.85","68.64","GJOA HAVEN A","2302336","2023-03-27 16:00","2023","03","27","16:00","-25.7","","-28.8","","76","","","","2","","18","","24.1","","102.68","","","","-37","","NA"
"-95.85","68.64","GJOA HAVEN A","2302336","2023-03-27 17:00","2023","03","27","17:00","-27.1","","-30.4","","74","","","","1","","22","","24.1","","102.66","","","","-40","","Mostly Cloudy"
"-95.85","68.64","GJOA HAVEN A","2302336","2023-03-27 18:00","2023","03","27","18:00"
"-95.85","68.64","GJOA HAVEN A","2302336","2023-03-27 19:00","2023","03","27","19:00"
"-95.85","68.64","GJOA HAVEN A","2302336","2023-03-27 20:00","2023","03","27","20:00"
"-95.85","68.64","GJOA HAVEN A","2302336","2023-03-27 21:00","2023","03","27","21:00"
"-95.85","68.64","GJOA HAVEN A","2302336","2023-03-27 22:00","2023","03","27","22:00"
"-95.85","68.64","GJOA HAVEN A","2302336","2023-03-27 23:00","2023","03","27","23:00"
"-95.85","68.64","GJOA HAVEN A","2302336","2023-03-28 00:00","2023","03","28","00:00"
"-95.85","68.64","GJOA HAVEN A","2302336","2023-03-28 01:00","2023","03","28","01:00"
"-95.85","68.64","GJOA HAVEN A","2302336","2023-03-28 02:00","2023","03","28","02:00"
"-95.85","68.64","GJOA HAVEN A","2302336","2023-03-28 03:00","2023","03","28","03:00"
"-95.85","68.64","GJOA HAVEN A","2302336","2023-03-28 04:00","2023","03","28","04:00"
"-95.85","68.64","GJOA HAVEN A","2302336","2023-03-28 05:00","2023","03","28","05:00","-29.4","","-32.8","","73","","","","4","","22","","24.1","","101.88","","","","-43","","Mainly Clear"
"-95.85","68.64","GJOA HAVEN A","2302336","2023-03-28 06:00","2023","03","28","06:00","-29.1","","-32.5","","73","","","","2","","23","","24.1","","101.82","","","","-43","","NA"
"-95.85","68.64","GJOA HAVEN A","2302336","2023-03-28 07:00","2023","03","28","07:00","-27.9","","-31.2","","74","","","","3","","21","","24.1","","101.73","","","","-41","","NA"
"-95.85","68.64","GJOA HAVEN A","2302336","2023-03-28 08:00","2023","03","28","08:00","-28.3","","-31.4","","75","","","","2","","21","","24.1","","101.67","","","","-41","","Mostly Cloudy"
"-95.85","68.64","GJOA HAVEN A","2302336","2023-03-28 09:00","2023","03","28","09:00","-26.2","","-29.2","","76","","","","4","","18","","16.1","","101.58","","","","-38","","Snow"
"-95.85","68.64","GJOA HAVEN A","2302336","2023-03-28 10:00","2023","03","28","10:00","-24.6","","-27.6","","77","","","","5","","17","","16.1","","101.51","","","","-35","","Snow"
"-95.85","68.64","GJOA HAVEN A","2302336","2023-03-28 11:00","2023","03","28","11:00","-22.8","","-25.5","","79","","","","4","","14","","11.3","","101.44","","","","-32","","Snow"
"-95.85","68.64","GJOA HAVEN A","2302336","2023-03-28 12:00","2023","03","28","12:00","-23.0","","-25.7","","79","","","","5","","15","","8.1","","101.36","","","","-33","","Snow,Haze"
"-95.85","68.64","GJOA HAVEN A","2302336","2023-03-28 13:00","2023","03","28","13:00","-22.0","","-24.6","","80","","","","6","","13","","9.7","","101.31","","","","-31","","Snow,Haze"
"-95.85","68.64","GJOA HAVEN A","2302336","2023-03-28 14:00","2023","03","28","14:00","-21.9","","-24.5","","80","","","","5","","16","","9.7","","101.24","","","","-32","","Snow,Haze"
"-95.85","68.64","GJOA HAVEN A","2302336","2023-03-28 15:00","2023","03","28","15:00","-21.8","","-24.4","","80","","","","6","","15","","16.1","","101.17","","","","-31","","Snow"
"-95.85","68.64","GJOA HAVEN A","2302336","2023-03-28 16:00","2023","03","28","16:00","-22.7","","-25.4","","79","","","","6","","15","","24.1","","101.13","","","","-32","","NA"
"-95.85","68.64","GJOA HAVEN A","2302336","2023-03-28 17:00","2023","03","28","17:00","-23.8","","-26.8","","77","","","","7","","8","","24.1","","101.09","","","","-31","","Mainly Clear"
"-95.85","68.64","GJOA HAVEN A","2302336","2023-03-28 18:00","2023","03","28","18:00"
"-95.85","68.64","GJOA HAVEN A","2302336","2023-03-28 19:00","2023","03","28","19:00"
"-95.85","68.64","GJOA HAVEN A","2302336","2023-03-28 20:00","2023","03","28","20:00"
"-95.85","68.64","GJOA HAVEN A","2302336","2023-03-28 21:00","2023","03","28","21:00"
"-95.85","68.64","GJOA HAVEN A","2302336","2023-03-28 22:00","2023","03","28","22:00"
"-95.85","68.64","GJOA HAVEN A","2302336","2023-03-28 23:00","2023","03","28","23:00"
"-95.85","68.64","GJOA HAVEN A","2302336","2023-03-29 00:00","2023","03","29","00:00"
"-95.85","68.64","GJOA HAVEN A","2302336","2023-03-29 01:00","2023","03","29","01:00"
"-95.85","68.64","GJOA HAVEN A","2302336","2023-03-29 02:00","2023","03","29","02:00"
"-95.85","68.64","GJOA HAVEN A","2302336","2023-03-29 03:00","2023","03","29","03:00"
"-95.85","68.64","GJOA HAVEN A","2302336","2023-03-29 04:00","2023","03","29","04:00"
"-95.85","68.64","GJOA HAVEN A","2302336","2023-03-29 05:00","2023","03","29","05:00","-26.8","","-29.7","","77","","","","16","","12","","16.1","","100.73","","","","-36","","Snow"
"-95.85","68.64","GJOA HAVEN A","2302336","2023-03-29 06:00","2023","03","29","06:00","-24.1","","-26.8","","79","","","","15","","11","","1.6","","100.76","","","","-33","","Snow"
"-95.85","68.64","GJOA HAVEN A","2302336","2023-03-29 07:00","2023","03","29","07:00","-23.1","","-25.8","","79","","","","16","","16","","24.1","","100.79","","","","-33","","Ice Crystals"
"-95.85","68.64","GJOA HAVEN A","2302336","2023-03-29 08:00","2023","03","29","08:00","-23.3","","-26.0","","79","","","","17","","21","","24.1","","100.82","","","","-35","","Ice Crystals"
"-95.85","68.64","GJOA HAVEN A","2302336","2023-03-29 09:00","2023","03","29","09:00","-22.4","","-25.0","","80","","","","18","","21","","24.1","","100.86","","","","-34","","NA"
"-95.85","68.64","GJOA HAVEN A","2302336","2023-03-29 10:00","2023","03","29","10:00","-20.0","","-22.2","","83","","","","19","","25","","16.1","","100.88","","","","-32","","Snow"
"-95.85","68.64","GJOA HAVEN A","2302336","2023-03-29 11:00","2023","03","29","11:00","-19.2","","-21.4","","83","","","","19","","27","","3.2","","100.94","","","","-31","","Snow,Fog,Blowing Snow"
"-95.85","68.64","GJOA HAVEN A","2302336","2023-03-29 12:00","2023","03","29","12:00","-20.3","","-22.6","","82","","","","19","","30","","3.2","","101.00","","","","-33","","Snow,Fog,Blowing Snow"
"-95.85","68.64","GJOA HAVEN A","2302336","2023-03-29 13:00","2023","03","29","13:00","-19.9","","-22.2","","82","","","","19","","29","","4.8","","101.05","","","","-32","","Snow,Fog,Blowing Snow"
"-95.85","68.64","GJOA HAVEN A","2302336","2023-03-29 14:00","2023","03","29","14:00","-20.6","","-22.9","","82","","","","19","","27","","1.6","","101.10","","","","-33","","Snow,Fog,Blowing Snow"
"-95.85","68.64","GJOA HAVEN A","2302336","2023-03-29 15:00","2023","03","29","15:00","-21.1","","-23.6","","81","","","","19","","25","","6.4","","101.16","","","","-33","","Snow,Fog,Blowing Snow"
"-95.85","68.64","GJOA HAVEN A","2302336","2023-03-29 16:00","2023","03","29","16:00"
"-95.85","68.64","GJOA HAVEN A","2302336","2023-03-29 17:00","2023","03","29","17:00"
"-95.85","68.64","GJOA HAVEN A","2302336","2023-03-29 18:00","2023","03","29","18:00"
"-95.85","68.64","GJOA HAVEN A","2302336","2023-03-29 19:00","2023","03","29","19:00"
"-95.85","68.64","GJOA HAVEN A","2302336","2023-03-29 20:00","2023","03","29","20:00"
"-95.85","68.64","GJOA HAVEN A","2302336","2023-03-29 21:00","2023","03","29","21:00"
"-95.85","68.64","GJOA HAVEN A","2302336","2023-03-29 22:00","2023","03","29","22:00"
"-95.85","68.64","GJOA HAVEN A","2302336","2023-03-29 23:00","2023","03","29","23:00"
"-95.85","68.64","GJOA HAVEN A","2302336","2023-03-30 00:00","2023","03","30","00:00"
"-95.85","68.64","GJOA HAVEN A","2302336","2023-03-30 01:00","2023","03","30","01:00"
"-95.85","68.64","GJOA HAVEN A","2302336","2023-03-30 02:00","2023","03","30","02:00"
"-95.85","68.64","GJOA HAVEN A","2302336","2023-03-30 03:00","2023","03","30","03:00"
"-95.85","68.64","GJOA HAVEN A","2302336","2023-03-30 04:00","2023","03","30","04:00"
"-95.85","68.64","GJOA HAVEN A","2302336","2023-03-30 05:00","2023","03","30","05:00","-29.0","","-32.4","","73","","","","15","","21","","24.1","","101.75","","","","-42","","Clear"
"-95.85","68.64","GJOA HAVEN A","2302336","2023-03-30 06:00","2023","03","30","06:00","-27.9","","-31.1","","75","","","","16","","23","","24.1","","101.78","","","","-41","","NA"
"-95.85","68.64","GJOA HAVEN A","2302336","2023-03-30 07:00","2023","03","30","07:00","-28.4","","-31.7","","74","","","","16","","20","","24.1","","101.81","","","","-41","","NA"
"-95.85","68.64","GJOA HAVEN A","2302336","2023-03-30 08:00","2023","03","30","08:00","-28.3","","-31.6","","74","","","","19","","10","","24.1","","101.85","","","","-37","","Clear"
"-95.85","68.64","GJOA HAVEN A","2302336","2023-03-30 09:00","2023","03","30","09:00","-27.7","","-31.1","","73","","","","8","","7","","24.1","","101.87","","","","-35","","NA"
"-95.85","68.64","GJOA HAVEN A","2302336","2023-03-30 10:00","2023","03","30","10:00","-27.0","","-30.2","","75","","","","7","","9","","24.1","","101.89","","","","-35","","NA"
"-95.85","68.64","GJOA HAVEN A","2302336","2023-03-30 11:00","2023","03","30","11:00","-25.6","","-28.7","","76","","","","10","","9","","24.1","","101.92","","","","-33","","Clear"
"-95.85","68.64","GJOA HAVEN A","2302336","2023-03-30 12:00","2023","03","30","12:00","-24.4","","-27.3","","78","","","","9","","7","","24.1","","101.96","","","","-31","","NA"
"-95.85","68.64","GJOA HAVEN A","2302336","2023-03-30 13:00","2023","03","30","13:00","-23.8","","-26.6","","78","","","","7","","8","","24.1","","101.99","","","","-31","","NA"
"-95.85","68.64","GJOA HAVEN A","2302336","2023-03-30 14:00","2023","03","30","14:00","-23.7","","-26.5","","78","","","","10","","10","","24.1","","102.02","","","","-32","","Mainly Clear"
"-95.85","68.64","GJOA HAVEN A","2302336","2023-03-30 15:00","2023","03","30","15:00","-23.6","","-26.4","","78","","","","8","","9","","24.1","","102.06","","","","-31","","NA"
"-95.85","68.64","GJOA HAVEN A","2302336","2023-03-30 16:00","2023","03","30","16:00","-23.9","","-26.7","","78","","","","8","","12","","24.1","","102.08","","","","-33","","NA"
"-95.85","68.64","GJOA HAVEN A","2302336","2023-03-30 17:00","2023","03","30","17:00","-25.6","","-28.6","","77","","","","6","","9","","24.1","","102.11","","","","-33","","Mainly Clear"
"-95.85","68.64","GJOA HAVEN A","2302336","2023-03-30 18:00","2023","03","30","18:00"
"-95.85","68.64","GJOA HAVEN A","2302336","2023-03-30 19:00","2023","03","30","19:00"
"-95.85","68.64","GJOA HAVEN A","2302336","2023-03-30 20:00","2023","03","30","20:00"
"-95.85","68.64","GJOA HAVEN A","2302336","2023-03-30 21:00","2023","03","30","21:00"
"-95.85","68.64","GJOA HAVEN A","2302336","2023-03-30 22:00","2023","03","30","22:00"
"-95.85","68.64","GJOA HAVEN A","2302336","2023-03-30 23:00","2023","03","30","23:00"
"-95.85","68.64","GJOA HAVEN A","2302336","2023-03-31 00:00","2023","03","31","00:00"
"-95.85","68.64","GJOA HAVEN A","2302336","2023-03-31 01:00","2023","03","31","01:00"
"-95.85","68.64","GJOA HAVEN A","2302336","2023-03-31 02:00","2023","03","31","02:00"
"-95.85","68.64","GJOA HAVEN A","2302336","2023-03-31 03:00","2023","03","31","03:00"
"-95.85","68.64","GJOA HAVEN A","2302336","2023-03-31 04:00","2023","03","31","04:00"
"-95.85","68.64","GJOA HAVEN A","2302336","2023-03-31 05:00","2023","03","31","05:00","-30.2","","-33.6","","73","","","","3","","23","","24.1","","102.22","","","","-44","","Mainly Clear"
"-95.85","68.64","GJOA HAVEN A","2302336","2023-03-31 06:00","2023","03","31","06:00","-28.9","","-32.2","","74","","","","3","","25","","24.1","","102.21","","","","-43","","NA"
"-95.85","68.64","GJOA HAVEN A","2302336","2023-03-31 07:00","2023","03","31","07:00","-28.6","","-32.0","","73","","","","3","","23","","24.1","","102.23","","","","-42","","NA"
"-95.85","68.64","GJOA HAVEN A","2302336","2023-03-31 08:00","2023","03","31","08:00","-28.2","","-31.5","","74","","","","2","","23","","24.1","","102.22","","","","-42","","Mainly Clear"
"-95.85","68.64","GJOA HAVEN A","2302336","2023-03-31 09:00","2023","03","31","09:00","-26.2","","-29.1","","77","","","","2","","25","","24.1","","102.23","","","","-40","","NA"
"-95.85","68.64","GJOA HAVEN A","2302336","2023-03-31 10:00","2023","03","31","10:00","-25.4","","-28.3","","77","","","","2","","27","","9.7","","102.21","","","","-39","","Ice Crystals,Haze,Blowing Snow"
"-95.85","68.64","GJOA HAVEN A","2302336","2023-03-31 11:00","2023","03","31","11:00","-24.7","","-27.5","","78","","","","3","","28","","8.1","","102.21","","","","-38","","Ice Crystals,Fog,Blowing Snow"
"-95.85","68.64","GJOA HAVEN A","2302336","2023-03-31 12:00","2023","03","31","12:00","-24.2","","-27.2","","77","","","","3","","25","","4.8","","102.21","","","","-37","","Ice Crystals,Fog,Blowing Snow"
"-95.85","68.64","GJOA HAVEN A","2302336","2023-03-31 13:00","2023","03","31","13:00","-23.7","","-26.5","","78","","","","3","","25","","16.1","","102.23","","","","-36","","NA"
"-95.85","68.64","GJOA HAVEN A","2302336","2023-03-31 14:00","2023","03","31","14:00","-23.1","","-25.8","","79","","","","3","","26","","24.1","","102.25","","","","-36","","Mainly Clear"
"-95.85","68.64","GJOA HAVEN A","2302336","2023-03-31 15:00","2023","03","31","15:00","-23.5","","-26.3","","78","","","","2","","24","","24.1","","102.24","","","","-36","","NA"
"-95.85","68.64","GJOA HAVEN A","2302336","2023-03-31 16:00","2023","03","31","16:00","-24.4","","-27.2","","78","","","","2","","23","","24.1","","102.24","","","","-37","","NA"
"-95.85","68.64","GJOA HAVEN A","2302336","2023-03-31 17:00","2023","03","31","17:00","-24.9","","-27.8","","77","","","","2","","24","","24.1","","102.25","","","","-38","","Mainly Clear"
"-95.85","68.64","GJOA HAVEN A","2302336","2023-03-31 18:00","2023","03","31","18:00"
"-95.85","68.64","GJOA HAVEN A","2302336","2023-03-31 19:00","2023","03","31","19:00"
"-95.85","68.64","GJOA HAVEN A","2302336","2023-03-31 20:00","2023","03","31","20:00"
"-95.85","68.64","GJOA HAVEN A","2302336","2023-03-31 21:00","2023","03","31","21:00"
"-95.85","68.64","GJOA HAVEN A","2302336","2023-03-31 22:00","2023","03","31","22:00"
"-95.85","68.64","GJOA HAVEN A","2302336","2023-03-31 23:00","2023","03","31","23:00"
