"Longitude (x)","Latitude (y)","Station Name","Climate ID","Date/Time (LST)","Year","Month","Day","Time (LST)","Temp (°C)","Temp Flag","Dew Point Temp (°C)","Dew Point Temp Flag","Rel Hum (%)","Rel Hum Flag","Precip. Amount (mm)","Precip. Amount Flag","Wind Dir (10s deg)","Wind Dir Flag","Wind Spd (km/h)","Wind Spd Flag","Visibility (km)","Visibility Flag","Stn Press (kPa)","Stn Press Flag","Hmdx","Hmdx Flag","Wind Chill","Wind Chill Flag","Weather"
"-139.84","67.57","OLD CROW A","2100801","2018-05-01 00:00","2018","05","01","00:00"
"-139.84","67.57","OLD CROW A","2100801","2018-05-01 01:00","2018","05","01","01:00"
"-139.84","67.57","OLD CROW A","2100801","2018-05-01 02:00","2018","05","01","02:00"
"-139.84","67.57","OLD CROW A","2100801","2018-05-01 03:00","2018","05","01","03:00"
"-139.84","67.57","OLD CROW A","2100801","2018-05-01 04:00","2018","05","01","04:00"
"-139.84","67.57","OLD CROW A","2100801","2018-05-01 05:00","2018","05","01","05:00","0.8","","-3.3","","74","","","","25","","20","","40.2","","97.43","","","","","","NA"
"-139.84","67.57","OLD CROW A","2100801","2018-05-01 06:00","2018","05","01","06:00","1.2","","-3.2","","73","","","","26","","22","","40.2","","97.44","","","","","","NA"
"-139.84","67.57","OLD CROW A","2100801","2018-05-01 07:00","2018","05","01","07:00","1.6","","-2.9","","72","","","","27","","27","","56.3","","97.42","","","","","","Mostly Cloudy"
"-139.84","67.57","OLD CROW A","2100801","2018-05-01 08:00","2018","05","01","08:00","2.4","","-3.0","","68","","","","25","","19","","56.3","","97.44","","","","","","NA"
"-139.84","67.57","OLD CROW A","2100801","2018-05-01 09:00","2018","05","01","09:00","2.6","","-3.6","","64","","","","26","","30","","56.3","","97.40","","","","","","NA"
"-139.84","67.57","OLD CROW A","2100801","2018-05-01 10:00","2018","05","01","10:00","3.5","","-3.6","","59","","","","24","","25","","56.3","","97.40","","","","","","Mostly Cloudy"
"-139.84","67.57","OLD CROW A","2100801","2018-05-01 11:00","2018","05","01","11:00","4.3","","-3.7","","56","","","","25","","22","","56.3","","97.38","","","","","","NA"
"-139.84","67.57","OLD CROW A","2100801","2018-05-01 12:00","2018","05","01","12:00","4.8","","-4.7","","50","","","","26","","34","","56.3","","97.36","","","","","","NA"
"-139.84","67.57","OLD CROW A","2100801","2018-05-01 13:00","2018","05","01","13:00","5.3","","-5.0","","48","","","","25","","31","","56.3","","97.35","","","","","","Mostly Cloudy"
"-139.84","67.57","OLD CROW A","2100801","2018-05-01 14:00","2018","05","01","14:00","6.0","","-4.6","","47","","","","25","","25","","56.3","","97.35","","","","","","NA"
"-139.84","67.57","OLD CROW A","2100801","2018-05-01 15:00","2018","05","01","15:00","6.1","","-5.0","","45","","","","25","","25","","56.3","","97.35","","","","","","NA"
"-139.84","67.57","OLD CROW A","2100801","2018-05-01 16:00","2018","05","01","16:00","6.1","","-5.0","","45","","","","26","","25","","56.3","","97.33","","","","","","Mostly Cloudy"
"-139.84","67.57","OLD CROW A","2100801","2018-05-01 17:00","2018","05","01","17:00","5.7","","-5.4","","45","","","","28","","18","","56.3","","97.34","","","","","","NA"
"-139.84","67.57","OLD CROW A","2100801","2018-05-01 18:00","2018","05","01","18:00"
"-139.84","67.57","OLD CROW A","2100801","2018-05-01 19:00","2018","05","01","19:00"
"-139.84","67.57","OLD CROW A","2100801","2018-05-01 20:00","2018","05","01","20:00"
"-139.84","67.57","OLD CROW A","2100801","2018-05-01 21:00","2018","05","01","21:00"
"-139.84","67.57","OLD CROW A","2100801","2018-05-01 22:00","2018","05","01","22:00"
"-139.84","67.57","OLD CROW A","2100801","2018-05-01 23:00","2018","05","01","23:00"
"-139.84","67.57","OLD CROW A","2100801","2018-05-02 00:00","2018","05","02","00:00"
"-139.84","67.57","OLD CROW A","2100801","2018-05-02 01:00","2018","05","02","01:00"
"-139.84","67.57","OLD CROW A","2100801","2018-05-02 02:00","2018","05","02","02:00"
"-139.84","67.57","OLD CROW A","2100801","2018-05-02 03:00","2018","05","02","03:00"
"-139.84","67.57","OLD CROW A","2100801","2018-05-02 04:00","2018","05","02","04:00"
"-139.84","67.57","OLD CROW A","2100801","2018-05-02 05:00","2018","05","02","05:00","-2.2","","-4.0","","88","","","","10","","8","","56.3","","97.59","","","","-5","","NA"
"-139.84","67.57","OLD CROW A","2100801","2018-05-02 06:00","2018","05","02","06:00","-2.3","","-4.3","","86","","","","13","","4","","56.3","","97.63","","","","-4","","NA"
"-139.84","67.57","OLD CROW A","2100801","2018-05-02 07:00","2018","05","02","07:00","-2.1","","-4.4","","84","","","","36","","3","","56.3","","97.66","","","","-3","","Mostly Cloudy"
"-139.84","67.57","OLD CROW A","2100801","2018-05-02 08:00","2018","05","02","08:00","-0.9","","-4.3","","78","","","","9","","5","","56.3","","97.70","","","","-3","","NA"
"-139.84","67.57","OLD CROW A","2100801","2018-05-02 09:00","2018","05","02","09:00","0.8","","-3.5","","73","","","","26","","17","","56.3","","97.73","","","","","","NA"
"-139.84","67.57","OLD CROW A","2100801","2018-05-02 10:00","2018","05","02","10:00","1.9","","-4.3","","63","","","","27","","19","","56.3","","97.75","","","","","","Mainly Clear"
"-139.84","67.57","OLD CROW A","2100801","2018-05-02 11:00","2018","05","02","11:00","2.8","","-5.3","","55","","","","26","","23","","56.3","","97.76","","","","","","NA"
"-139.84","67.57","OLD CROW A","2100801","2018-05-02 12:00","2018","05","02","12:00","3.7","","-5.3","","52","","","","25","","14","","56.3","","97.80","","","","","","NA"
"-139.84","67.57","OLD CROW A","2100801","2018-05-02 13:00","2018","05","02","13:00","3.8","","-5.9","","49","","","","26","","19","","56.3","","97.86","","","","","","Mostly Cloudy"
"-139.84","67.57","OLD CROW A","2100801","2018-05-02 14:00","2018","05","02","14:00","3.7","","-5.9","","50","","","","24","","21","","56.3","","97.90","","","","","","NA"
"-139.84","67.57","OLD CROW A","2100801","2018-05-02 15:00","2018","05","02","15:00","3.6","","-7.7","","44","","","","25","","18","","56.3","","97.92","","","","","","NA"
"-139.84","67.57","OLD CROW A","2100801","2018-05-02 16:00","2018","05","02","16:00","3.2","","-6.7","","48","","","","26","","24","","56.3","","97.95","","","","","","Mostly Cloudy"
"-139.84","67.57","OLD CROW A","2100801","2018-05-02 17:00","2018","05","02","17:00","3.7","","-5.8","","50","","","","24","","24","","56.3","","97.96","","","","","","NA"
"-139.84","67.57","OLD CROW A","2100801","2018-05-02 18:00","2018","05","02","18:00"
"-139.84","67.57","OLD CROW A","2100801","2018-05-02 19:00","2018","05","02","19:00"
"-139.84","67.57","OLD CROW A","2100801","2018-05-02 20:00","2018","05","02","20:00"
"-139.84","67.57","OLD CROW A","2100801","2018-05-02 21:00","2018","05","02","21:00"
"-139.84","67.57","OLD CROW A","2100801","2018-05-02 22:00","2018","05","02","22:00"
"-139.84","67.57","OLD CROW A","2100801","2018-05-02 23:00","2018","05","02","23:00"
"-139.84","67.57","OLD CROW A","2100801","2018-05-03 00:00","2018","05","03","00:00"
"-139.84","67.57","OLD CROW A","2100801","2018-05-03 01:00","2018","05","03","01:00"
"-139.84","67.57","OLD CROW A","2100801","2018-05-03 02:00","2018","05","03","02:00"
"-139.84","67.57","OLD CROW A","2100801","2018-05-03 03:00","2018","05","03","03:00"
"-139.84","67.57","OLD CROW A","2100801","2018-05-03 04:00","2018","05","03","04:00"
"-139.84","67.57","OLD CROW A","2100801","2018-05-03 05:00","2018","05","03","05:00","-2.7","","-5.2","","83","","","","23","","3","","56.3","","98.10","","","","-4","","NA"
"-139.84","67.57","OLD CROW A","2100801","2018-05-03 06:00","2018","05","03","06:00","-3.2","","-5.7","","83","","","","36","","1","","56.3","","98.06","","","","-4","","NA"
"-139.84","67.57","OLD CROW A","2100801","2018-05-03 07:00","2018","05","03","07:00","-2.1","","-5.2","","79","","","","36","","1","","56.3","","98.04","","","","-2","","Mainly Clear"
"-139.84","67.57","OLD CROW A","2100801","2018-05-03 08:00","2018","05","03","08:00","0.3","","-6.2","","62","","","","22","","3","","56.3","","98.03","","","","","","NA"
"-139.84","67.57","OLD CROW A","2100801","2018-05-03 09:00","2018","05","03","09:00","0.6","","-6.0","","61","","","","25","","3","","56.3","","98.01","","","","","","NA"
"-139.84","67.57","OLD CROW A","2100801","2018-05-03 10:00","2018","05","03","10:00","2.0","","-7.5","","49","","","","20","","5","","56.3","","97.97","","","","","","Mostly Cloudy"
"-139.84","67.57","OLD CROW A","2100801","2018-05-03 11:00","2018","05","03","11:00","2.8","","-8.1","","45","","","","19","","4","","56.3","","97.93","","","","","","NA"
"-139.84","67.57","OLD CROW A","2100801","2018-05-03 12:00","2018","05","03","12:00","2.0","","-8.9","","45","","","","13","","4","","56.3","","97.89","","","","","","NA"
"-139.84","67.57","OLD CROW A","2100801","2018-05-03 13:00","2018","05","03","13:00","3.0","","-8.8","","42","","","","23","","9","","56.3","","97.86","","","","","","Mostly Cloudy"
"-139.84","67.57","OLD CROW A","2100801","2018-05-03 14:00","2018","05","03","14:00","3.1","","-9.7","","39","","","","36","","1","","56.3","","97.82","","","","","","NA"
"-139.84","67.57","OLD CROW A","2100801","2018-05-03 15:00","2018","05","03","15:00","3.7","","-10.2","","35","","","","2","","4","","56.3","","97.76","","","","","","NA"
"-139.84","67.57","OLD CROW A","2100801","2018-05-03 16:00","2018","05","03","16:00","4.0","","-8.7","","39","","","","2","","9","","56.3","","97.72","","","","","","Mostly Cloudy"
"-139.84","67.57","OLD CROW A","2100801","2018-05-03 17:00","2018","05","03","17:00","3.4","","-7.4","","45","","","","7","","16","","56.3","","97.69","","","","","","NA"
"-139.84","67.57","OLD CROW A","2100801","2018-05-03 18:00","2018","05","03","18:00"
"-139.84","67.57","OLD CROW A","2100801","2018-05-03 19:00","2018","05","03","19:00"
"-139.84","67.57","OLD CROW A","2100801","2018-05-03 20:00","2018","05","03","20:00"
"-139.84","67.57","OLD CROW A","2100801","2018-05-03 21:00","2018","05","03","21:00"
"-139.84","67.57","OLD CROW A","2100801","2018-05-03 22:00","2018","05","03","22:00"
"-139.84","67.57","OLD CROW A","2100801","2018-05-03 23:00","2018","05","03","23:00"
"-139.84","67.57","OLD CROW A","2100801","2018-05-04 00:00","2018","05","04","00:00"
"-139.84","67.57","OLD CROW A","2100801","2018-05-04 01:00","2018","05","04","01:00"
"-139.84","67.57","OLD CROW A","2100801","2018-05-04 02:00","2018","05","04","02:00"
"-139.84","67.57","OLD CROW A","2100801","2018-05-04 03:00","2018","05","04","03:00"
"-139.84","67.57","OLD CROW A","2100801","2018-05-04 04:00","2018","05","04","04:00"
"-139.84","67.57","OLD CROW A","2100801","2018-05-04 05:00","2018","05","04","05:00","-5.9","","-8.2","","84","","","","26","","3","","56.3","","97.57","","","","-7","","NA"
"-139.84","67.57","OLD CROW A","2100801","2018-05-04 06:00","2018","05","04","06:00","-5.7","","-8.0","","84","","","","27","","9","","56.3","","97.57","","","","-10","","NA"
"-139.84","67.57","OLD CROW A","2100801","2018-05-04 07:00","2018","05","04","07:00","-3.8","","-7.3","","77","","","","24","","4","","56.3","","97.60","","","","-5","","Mainly Clear"
"-139.84","67.57","OLD CROW A","2100801","2018-05-04 08:00","2018","05","04","08:00","-1.5","","-7.0","","66","","","","36","","1","","56.3","","97.59","","","","-2","","NA"
"-139.84","67.57","OLD CROW A","2100801","2018-05-04 09:00","2018","05","04","09:00","-0.8","","-7.6","","60","","","","4","","16","","56.3","","97.59","","","","-6","","NA"
"-139.84","67.57","OLD CROW A","2100801","2018-05-04 10:00","2018","05","04","10:00","-0.1","","-7.3","","59","","","","3","","23","","56.3","","97.58","","","","-6","","Mainly Clear"
"-139.84","67.57","OLD CROW A","2100801","2018-05-04 11:00","2018","05","04","11:00","0.6","","-7.2","","56","","","","3","","22","","56.3","","97.56","","","","","","NA"
"-139.84","67.57","OLD CROW A","2100801","2018-05-04 12:00","2018","05","04","12:00","1.1","","-7.0","","55","","","","5","","22","","56.3","","97.56","","","","","","NA"
"-139.84","67.57","OLD CROW A","2100801","2018-05-04 13:00","2018","05","04","13:00","1.9","","-6.3","","55","","","","6","","21","","56.3","","97.53","","","","","","Clear"
"-139.84","67.57","OLD CROW A","2100801","2018-05-04 14:00","2018","05","04","14:00","2.1","","-6.5","","53","","","","6","","28","","56.3","","97.54","","","","","","NA"
"-139.84","67.57","OLD CROW A","2100801","2018-05-04 15:00","2018","05","04","15:00","2.3","","-5.7","","55","","","","6","","24","","56.3","","97.47","","","","","","NA"
"-139.84","67.57","OLD CROW A","2100801","2018-05-04 16:00","2018","05","04","16:00","2.7","","-5.5","","55","","","","5","","28","","56.3","","97.40","","","","","","Mainly Clear"
"-139.84","67.57","OLD CROW A","2100801","2018-05-04 17:00","2018","05","04","17:00","2.1","","-5.7","","57","","","","3","","27","","56.3","","97.35","","","","","","NA"
"-139.84","67.57","OLD CROW A","2100801","2018-05-04 18:00","2018","05","04","18:00"
"-139.84","67.57","OLD CROW A","2100801","2018-05-04 19:00","2018","05","04","19:00"
"-139.84","67.57","OLD CROW A","2100801","2018-05-04 20:00","2018","05","04","20:00"
"-139.84","67.57","OLD CROW A","2100801","2018-05-04 21:00","2018","05","04","21:00"
"-139.84","67.57","OLD CROW A","2100801","2018-05-04 22:00","2018","05","04","22:00"
"-139.84","67.57","OLD CROW A","2100801","2018-05-04 23:00","2018","05","04","23:00"
"-139.84","67.57","OLD CROW A","2100801","2018-05-05 00:00","2018","05","05","00:00"
"-139.84","67.57","OLD CROW A","2100801","2018-05-05 01:00","2018","05","05","01:00"
"-139.84","67.57","OLD CROW A","2100801","2018-05-05 02:00","2018","05","05","02:00"
"-139.84","67.57","OLD CROW A","2100801","2018-05-05 03:00","2018","05","05","03:00"
"-139.84","67.57","OLD CROW A","2100801","2018-05-05 04:00","2018","05","05","04:00"
"-139.84","67.57","OLD CROW A","2100801","2018-05-05 05:00","2018","05","05","05:00","-3.0","","-5.5","","83","","","","19","","4","","24.1","","96.88","","","","-5","","NA"
"-139.84","67.57","OLD CROW A","2100801","2018-05-05 06:00","2018","05","05","06:00","-3.6","","-5.2","","89","","","","6","","4","","56.3","","96.83","","","","-5","","NA"
"-139.84","67.57","OLD CROW A","2100801","2018-05-05 07:00","2018","05","05","07:00","-3.7","","-5.7","","86","","","","15","","5","","56.3","","96.80","","","","-6","","Mostly Cloudy"
"-139.84","67.57","OLD CROW A","2100801","2018-05-05 08:00","2018","05","05","08:00","-3.2","","-6.3","","79","","","","13","","3","","56.3","","96.81","","","","-4","","NA"
"-139.84","67.57","OLD CROW A","2100801","2018-05-05 09:00","2018","05","05","09:00","-1.1","","-5.0","","75","","","","24","","7","","56.3","","96.83","","","","-4","","NA"
"-139.84","67.57","OLD CROW A","2100801","2018-05-05 10:00","2018","05","05","10:00","0.4","","-3.8","","74","","","","36","","1","","56.3","","96.85","","","","","","Mainly Clear"
"-139.84","67.57","OLD CROW A","2100801","2018-05-05 11:00","2018","05","05","11:00","1.5","","-4.1","","67","","","","11","","4","","56.3","","96.89","","","","","","NA"
"-139.84","67.57","OLD CROW A","2100801","2018-05-05 12:00","2018","05","05","12:00","3.4","","-3.8","","59","","","","10","","12","","56.3","","96.86","","","","","","NA"
"-139.84","67.57","OLD CROW A","2100801","2018-05-05 13:00","2018","05","05","13:00","3.9","","-3.4","","59","","","","9","","10","","56.3","","96.86","","","","","","Mostly Cloudy"
"-139.84","67.57","OLD CROW A","2100801","2018-05-05 14:00","2018","05","05","14:00","4.0","","-3.5","","58","","","","3","","17","","56.3","","96.87","","","","","","NA"
"-139.84","67.57","OLD CROW A","2100801","2018-05-05 15:00","2018","05","05","15:00","4.3","","-3.3","","58","","","","7","","15","","56.3","","96.89","","","","","","NA"
"-139.84","67.57","OLD CROW A","2100801","2018-05-05 16:00","2018","05","05","16:00","3.5","","-3.5","","60","","","","7","","13","","56.3","","96.91","","","","","","Mostly Cloudy"
"-139.84","67.57","OLD CROW A","2100801","2018-05-05 17:00","2018","05","05","17:00","3.6","","-3.2","","61","","","","8","","14","","56.3","","96.96","","","","","","NA"
"-139.84","67.57","OLD CROW A","2100801","2018-05-05 18:00","2018","05","05","18:00"
"-139.84","67.57","OLD CROW A","2100801","2018-05-05 19:00","2018","05","05","19:00"
"-139.84","67.57","OLD CROW A","2100801","2018-05-05 20:00","2018","05","05","20:00"
"-139.84","67.57","OLD CROW A","2100801","2018-05-05 21:00","2018","05","05","21:00"
"-139.84","67.57","OLD CROW A","2100801","2018-05-05 22:00","2018","05","05","22:00"
"-139.84","67.57","OLD CROW A","2100801","2018-05-05 23:00","2018","05","05","23:00"
"-139.84","67.57","OLD CROW A","2100801","2018-05-06 00:00","2018","05","06","00:00"
"-139.84","67.57","OLD CROW A","2100801","2018-05-06 01:00","2018","05","06","01:00"
"-139.84","67.57","OLD CROW A","2100801","2018-05-06 02:00","2018","05","06","02:00"
"-139.84","67.57","OLD CROW A","2100801","2018-05-06 03:00","2018","05","06","03:00"
"-139.84","67.57","OLD CROW A","2100801","2018-05-06 04:00","2018","05","06","04:00"
"-139.84","67.57","OLD CROW A","2100801","2018-05-06 05:00","2018","05","06","05:00","-6.8","","-9.3","","83","","","","7","","12","","56.3","","98.03","","","","-12","","NA"
"-139.84","67.57","OLD CROW A","2100801","2018-05-06 06:00","2018","05","06","06:00","-6.4","","-9.5","","79","","","","8","","10","","56.3","","98.12","","","","-11","","NA"
"-139.84","67.57","OLD CROW A","2100801","2018-05-06 07:00","2018","05","06","07:00","-5.1","","-9.4","","72","","","","7","","13","","56.3","","98.20","","","","-10","","Mainly Clear"
"-139.84","67.57","OLD CROW A","2100801","2018-05-06 08:00","2018","05","06","08:00","-3.8","","-9.3","","66","","","","8","","12","","56.3","","98.30","","","","-8","","NA"
"-139.84","67.57","OLD CROW A","2100801","2018-05-06 09:00","2018","05","06","09:00","-2.0","","-8.8","","60","","","","8","","12","","56.3","","98.36","","","","-6","","NA"
"-139.84","67.57","OLD CROW A","2100801","2018-05-06 10:00","2018","05","06","10:00","-0.2","","-8.0","","56","","","","9","","13","","56.3","","98.42","","","","-4","","Mainly Clear"
"-139.84","67.57","OLD CROW A","2100801","2018-05-06 11:00","2018","05","06","11:00","2.4","","-7.0","","50","","","","10","","8","","56.3","","98.47","","","","","","NA"
"-139.84","67.57","OLD CROW A","2100801","2018-05-06 12:00","2018","05","06","12:00","3.0","","-6.7","","49","","","","7","","16","","56.3","","98.50","","","","","","NA"
"-139.84","67.57","OLD CROW A","2100801","2018-05-06 13:00","2018","05","06","13:00","8.0","","-3.6","","44","","","","27","","18","","56.3","","98.52","","","","","","Mostly Cloudy"
"-139.84","67.57","OLD CROW A","2100801","2018-05-06 14:00","2018","05","06","14:00","8.4","","-5.1","","38","","","","27","","28","","56.3","","98.57","","","","","","NA"
"-139.84","67.57","OLD CROW A","2100801","2018-05-06 15:00","2018","05","06","15:00","9.8","","-5.1","","35","","","","27","","31","","56.3","","98.60","","","","","","NA"
"-139.84","67.57","OLD CROW A","2100801","2018-05-06 16:00","2018","05","06","16:00","9.7","","-5.7","","33","","","","27","","23","","56.3","","98.63","","","","","","Mainly Clear"
"-139.84","67.57","OLD CROW A","2100801","2018-05-06 17:00","2018","05","06","17:00","10.0","","-6.0","","32","","","","27","","28","","56.3","","98.65","","","","","","NA"
"-139.84","67.57","OLD CROW A","2100801","2018-05-06 18:00","2018","05","06","18:00"
"-139.84","67.57","OLD CROW A","2100801","2018-05-06 19:00","2018","05","06","19:00"
"-139.84","67.57","OLD CROW A","2100801","2018-05-06 20:00","2018","05","06","20:00"
"-139.84","67.57","OLD CROW A","2100801","2018-05-06 21:00","2018","05","06","21:00"
"-139.84","67.57","OLD CROW A","2100801","2018-05-06 22:00","2018","05","06","22:00"
"-139.84","67.57","OLD CROW A","2100801","2018-05-06 23:00","2018","05","06","23:00"
"-139.84","67.57","OLD CROW A","2100801","2018-05-07 00:00","2018","05","07","00:00"
"-139.84","67.57","OLD CROW A","2100801","2018-05-07 01:00","2018","05","07","01:00"
"-139.84","67.57","OLD CROW A","2100801","2018-05-07 02:00","2018","05","07","02:00"
"-139.84","67.57","OLD CROW A","2100801","2018-05-07 03:00","2018","05","07","03:00"
"-139.84","67.57","OLD CROW A","2100801","2018-05-07 04:00","2018","05","07","04:00"
"-139.84","67.57","OLD CROW A","2100801","2018-05-07 05:00","2018","05","07","05:00","-1.8","","-3.1","","91","","","","6","","6","","56.3","","98.67","","","","-4","","NA"
"-139.84","67.57","OLD CROW A","2100801","2018-05-07 06:00","2018","05","07","06:00","-0.6","","-3.0","","84","","","","9","","7","","56.3","","98.67","","","","-3","","NA"
"-139.84","67.57","OLD CROW A","2100801","2018-05-07 07:00","2018","05","07","07:00","0.6","","-2.9","","77","","","","36","","3","","56.3","","98.68","","","","","","Cloudy"
"-139.84","67.57","OLD CROW A","2100801","2018-05-07 08:00","2018","05","07","08:00","3.1","","-2.4","","67","","","","10","","3","","56.3","","98.66","","","","","","NA"
"-139.84","67.57","OLD CROW A","2100801","2018-05-07 09:00","2018","05","07","09:00","5.6","","-2.0","","58","","","","26","","8","","56.3","","98.69","","","","","","NA"
"-139.84","67.57","OLD CROW A","2100801","2018-05-07 10:00","2018","05","07","10:00","7.0","","-2.6","","50","","","","26","","16","","56.3","","98.68","","","","","","Mostly Cloudy"
"-139.84","67.57","OLD CROW A","2100801","2018-05-07 11:00","2018","05","07","11:00","5.6","","-1.5","","60","","","","25","","18","","56.3","","98.75","","","","","","NA"
"-139.84","67.57","OLD CROW A","2100801","2018-05-07 12:00","2018","05","07","12:00","6.3","","-0.6","","61","","","","26","","17","","56.3","","98.80","","","","","","NA"
"-139.84","67.57","OLD CROW A","2100801","2018-05-07 13:00","2018","05","07","13:00","6.1","","-0.9","","61","","","","24","","15","","56.3","","98.83","","","","","","Mostly Cloudy"
"-139.84","67.57","OLD CROW A","2100801","2018-05-07 14:00","2018","05","07","14:00","6.8","","-2.3","","52","","","","26","","16","","56.3","","98.86","","","","","","NA"
"-139.84","67.57","OLD CROW A","2100801","2018-05-07 15:00","2018","05","07","15:00","6.7","","-3.1","","50","","","","29","","16","","56.3","","98.89","","","","","","NA"
"-139.84","67.57","OLD CROW A","2100801","2018-05-07 16:00","2018","05","07","16:00","7.5","","-3.5","","45","","","","24","","9","","56.3","","98.91","","","","","","Mostly Cloudy"
"-139.84","67.57","OLD CROW A","2100801","2018-05-07 17:00","2018","05","07","17:00","7.9","","-3.6","","44","","","","26","","17","","56.3","","98.94","","","","","","NA"
"-139.84","67.57","OLD CROW A","2100801","2018-05-07 18:00","2018","05","07","18:00"
"-139.84","67.57","OLD CROW A","2100801","2018-05-07 19:00","2018","05","07","19:00"
"-139.84","67.57","OLD CROW A","2100801","2018-05-07 20:00","2018","05","07","20:00"
"-139.84","67.57","OLD CROW A","2100801","2018-05-07 21:00","2018","05","07","21:00"
"-139.84","67.57","OLD CROW A","2100801","2018-05-07 22:00","2018","05","07","22:00"
"-139.84","67.57","OLD CROW A","2100801","2018-05-07 23:00","2018","05","07","23:00"
"-139.84","67.57","OLD CROW A","2100801","2018-05-08 00:00","2018","05","08","00:00"
"-139.84","67.57","OLD CROW A","2100801","2018-05-08 01:00","2018","05","08","01:00"
"-139.84","67.57","OLD CROW A","2100801","2018-05-08 02:00","2018","05","08","02:00"
"-139.84","67.57","OLD CROW A","2100801","2018-05-08 03:00","2018","05","08","03:00"
"-139.84","67.57","OLD CROW A","2100801","2018-05-08 04:00","2018","05","08","04:00"
"-139.84","67.57","OLD CROW A","2100801","2018-05-08 05:00","2018","05","08","05:00","-3.7","","-5.2","","90","","","","36","","2","","56.3","","99.34","","","","-5","","NA"
"-139.84","67.57","OLD CROW A","2100801","2018-05-08 06:00","2018","05","08","06:00","-2.5","","-4.6","","86","","","","26","","5","","56.3","","99.36","","","","-4","","NA"
"-139.84","67.57","OLD CROW A","2100801","2018-05-08 07:00","2018","05","08","07:00","-1.3","","-4.2","","81","","","","36","","3","","56.3","","99.40","","","","-2","","Mostly Cloudy"
"-139.84","67.57","OLD CROW A","2100801","2018-05-08 08:00","2018","05","08","08:00","1.1","","-3.4","","72","","","","9","","4","","56.3","","99.39","","","","","","NA"
"-139.84","67.57","OLD CROW A","2100801","2018-05-08 09:00","2018","05","08","09:00","4.8","","-3.3","","56","","","","6","","9","","56.3","","99.36","","","","","","NA"
"-139.84","67.57","OLD CROW A","2100801","2018-05-08 10:00","2018","05","08","10:00","5.2","","-3.7","","53","","","","7","","10","","56.3","","99.34","","","","","","Mostly Cloudy"
"-139.84","67.57","OLD CROW A","2100801","2018-05-08 11:00","2018","05","08","11:00","6.2","","-3.3","","50","","","","7","","19","","56.3","","99.31","","","","","","NA"
"-139.84","67.57","OLD CROW A","2100801","2018-05-08 12:00","2018","05","08","12:00","7.1","","-3.0","","49","","","","4","","19","","56.3","","99.24","","","","","","NA"
"-139.84","67.57","OLD CROW A","2100801","2018-05-08 13:00","2018","05","08","13:00","7.0","","-2.3","","51","","","","4","","18","","56.3","","99.20","","","","","","Mostly Cloudy"
"-139.84","67.57","OLD CROW A","2100801","2018-05-08 14:00","2018","05","08","14:00","8.1","","-2.2","","48","","","","7","","16","","56.3","","99.13","","","","","","NA"
"-139.84","67.57","OLD CROW A","2100801","2018-05-08 15:00","2018","05","08","15:00","9.4","","-3.7","","39","","","","12","","5","","56.3","","99.06","","","","","","NA"
"-139.84","67.57","OLD CROW A","2100801","2018-05-08 16:00","2018","05","08","16:00","10.0","","-2.5","","41","","","","11","","8","","56.3","","99.00","","","","","","Mostly Cloudy"
"-139.84","67.57","OLD CROW A","2100801","2018-05-08 17:00","2018","05","08","17:00","9.8","","-3.6","","39","","","","13","","13","","56.3","","98.93","","","","","","NA"
"-139.84","67.57","OLD CROW A","2100801","2018-05-08 18:00","2018","05","08","18:00"
"-139.84","67.57","OLD CROW A","2100801","2018-05-08 19:00","2018","05","08","19:00"
"-139.84","67.57","OLD CROW A","2100801","2018-05-08 20:00","2018","05","08","20:00"
"-139.84","67.57","OLD CROW A","2100801","2018-05-08 21:00","2018","05","08","21:00"
"-139.84","67.57","OLD CROW A","2100801","2018-05-08 22:00","2018","05","08","22:00"
"-139.84","67.57","OLD CROW A","2100801","2018-05-08 23:00","2018","05","08","23:00"
"-139.84","67.57","OLD CROW A","2100801","2018-05-09 00:00","2018","05","09","00:00"
"-139.84","67.57","OLD CROW A","2100801","2018-05-09 01:00","2018","05","09","01:00"
"-139.84","67.57","OLD CROW A","2100801","2018-05-09 02:00","2018","05","09","02:00"
"-139.84","67.57","OLD CROW A","2100801","2018-05-09 03:00","2018","05","09","03:00"
"-139.84","67.57","OLD CROW A","2100801","2018-05-09 04:00","2018","05","09","04:00"
"-139.84","67.57","OLD CROW A","2100801","2018-05-09 05:00","2018","05","09","05:00","2.2","","-3.2","","67","","","","3","","9","","56.3","","98.58","","","","","","NA"
"-139.84","67.57","OLD CROW A","2100801","2018-05-09 06:00","2018","05","09","06:00","3.4","","-3.2","","62","","","","4","","12","","56.3","","98.55","","","","","","NA"
"-139.84","67.57","OLD CROW A","2100801","2018-05-09 07:00","2018","05","09","07:00","4.4","","-3.1","","58","","","","5","","13","","56.3","","98.50","","","","","","Clear"
"-139.84","67.57","OLD CROW A","2100801","2018-05-09 08:00","2018","05","09","08:00","5.6","","-3.4","","53","","","","5","","13","","56.3","","98.48","","","","","","NA"
"-139.84","67.57","OLD CROW A","2100801","2018-05-09 09:00","2018","05","09","09:00","6.3","","-3.0","","52","","","","5","","14","","56.3","","98.43","","","","","","NA"
"-139.84","67.57","OLD CROW A","2100801","2018-05-09 10:00","2018","05","09","10:00","7.4","","-2.3","","50","","","","6","","13","","56.3","","98.39","","","","","","Clear"
"-139.84","67.57","OLD CROW A","2100801","2018-05-09 11:00","2018","05","09","11:00","7.8","","-2.5","","48","","","","4","","17","","56.3","","98.35","","","","","","NA"
"-139.84","67.57","OLD CROW A","2100801","2018-05-09 12:00","2018","05","09","12:00","8.0","","-3.0","","46","","","","3","","22","","72.4","","98.32","","","","","","NA"
"-139.84","67.57","OLD CROW A","2100801","2018-05-09 13:00","2018","05","09","13:00","8.6","","-3.2","","43","","","","3","","25","","56.3","","98.32","","","","","","Clear"
"-139.84","67.57","OLD CROW A","2100801","2018-05-09 14:00","2018","05","09","14:00","9.3","","-2.8","","42","","","","2","","23","","56.3","","98.29","","","","","","NA"
"-139.84","67.57","OLD CROW A","2100801","2018-05-09 15:00","2018","05","09","15:00","9.9","","-3.0","","40","","","","4","","25","","56.3","","98.24","","","","","","NA"
"-139.84","67.57","OLD CROW A","2100801","2018-05-09 16:00","2018","05","09","16:00","10.6","","-2.9","","39","","","","4","","23","","56.3","","98.21","","","","","","Mainly Clear"
"-139.84","67.57","OLD CROW A","2100801","2018-05-09 17:00","2018","05","09","17:00","10.4","","-2.2","","41","","","","5","","26","","56.3","","98.17","","","","","","NA"
"-139.84","67.57","OLD CROW A","2100801","2018-05-09 18:00","2018","05","09","18:00"
"-139.84","67.57","OLD CROW A","2100801","2018-05-09 19:00","2018","05","09","19:00"
"-139.84","67.57","OLD CROW A","2100801","2018-05-09 20:00","2018","05","09","20:00"
"-139.84","67.57","OLD CROW A","2100801","2018-05-09 21:00","2018","05","09","21:00"
"-139.84","67.57","OLD CROW A","2100801","2018-05-09 22:00","2018","05","09","22:00"
"-139.84","67.57","OLD CROW A","2100801","2018-05-09 23:00","2018","05","09","23:00"
"-139.84","67.57","OLD CROW A","2100801","2018-05-10 00:00","2018","05","10","00:00"
"-139.84","67.57","OLD CROW A","2100801","2018-05-10 01:00","2018","05","10","01:00"
"-139.84","67.57","OLD CROW A","2100801","2018-05-10 02:00","2018","05","10","02:00"
"-139.84","67.57","OLD CROW A","2100801","2018-05-10 03:00","2018","05","10","03:00"
"-139.84","67.57","OLD CROW A","2100801","2018-05-10 04:00","2018","05","10","04:00"
"-139.84","67.57","OLD CROW A","2100801","2018-05-10 05:00","2018","05","10","05:00","2.0","","-2.0","","74","","","","10","","10","","56.3","","98.06","","","","","","NA"
"-139.84","67.57","OLD CROW A","2100801","2018-05-10 06:00","2018","05","10","06:00","5.5","","-2.0","","58","","","","6","","10","","56.3","","98.06","","","","","","NA"
"-139.84","67.57","OLD CROW A","2100801","2018-05-10 07:00","2018","05","10","07:00","5.8","","-1.9","","58","","","","7","","17","","56.3","","98.05","","","","","","Mainly Clear"
"-139.84","67.57","OLD CROW A","2100801","2018-05-10 08:00","2018","05","10","08:00","7.0","","-1.6","","54","","","","6","","17","","56.3","","98.01","","","","","","NA"
"-139.84","67.57","OLD CROW A","2100801","2018-05-10 09:00","2018","05","10","09:00","8.5","","-1.7","","49","","","","4","","21","","56.3","","97.98","","","","","","NA"
"-139.84","67.57","OLD CROW A","2100801","2018-05-10 10:00","2018","05","10","10:00","9.4","","-1.3","","47","","","","5","","20","","56.3","","97.94","","","","","","Mainly Clear"
"-139.84","67.57","OLD CROW A","2100801","2018-05-10 11:00","2018","05","10","11:00","10.9","","-0.7","","44","","","","6","","17","","56.3","","97.94","","","","","","NA"
"-139.84","67.57","OLD CROW A","2100801","2018-05-10 12:00","2018","05","10","12:00","13.2","","-0.9","","38","","","","10","","13","","56.3","","97.91","","","","","","NA"
"-139.84","67.57","OLD CROW A","2100801","2018-05-10 13:00","2018","05","10","13:00","14.4","","-0.8","","35","","","","11","","11","","56.3","","97.89","","","","","","Mostly Cloudy"
"-139.84","67.57","OLD CROW A","2100801","2018-05-10 14:00","2018","05","10","14:00","14.9","","0.0","","36","","","","11","","13","","56.3","","97.88","","","","","","NA"
"-139.84","67.57","OLD CROW A","2100801","2018-05-10 15:00","2018","05","10","15:00","15.1","","0.6","","37","","","","10","","14","","56.3","","97.85","","","","","","NA"
"-139.84","67.57","OLD CROW A","2100801","2018-05-10 16:00","2018","05","10","16:00","16.2","","0.5","","34","","","","9","","12","","56.3","","97.81","","","","","","Mostly Cloudy"
"-139.84","67.57","OLD CROW A","2100801","2018-05-10 17:00","2018","05","10","17:00","16.2","","0.5","","34","","","","9","","13","","56.3","","97.78","","","","","","NA"
"-139.84","67.57","OLD CROW A","2100801","2018-05-10 18:00","2018","05","10","18:00"
"-139.84","67.57","OLD CROW A","2100801","2018-05-10 19:00","2018","05","10","19:00"
"-139.84","67.57","OLD CROW A","2100801","2018-05-10 20:00","2018","05","10","20:00"
"-139.84","67.57","OLD CROW A","2100801","2018-05-10 21:00","2018","05","10","21:00"
"-139.84","67.57","OLD CROW A","2100801","2018-05-10 22:00","2018","05","10","22:00"
"-139.84","67.57","OLD CROW A","2100801","2018-05-10 23:00","2018","05","10","23:00"
"-139.84","67.57","OLD CROW A","2100801","2018-05-11 00:00","2018","05","11","00:00"
"-139.84","67.57","OLD CROW A","2100801","2018-05-11 01:00","2018","05","11","01:00"
"-139.84","67.57","OLD CROW A","2100801","2018-05-11 02:00","2018","05","11","02:00"
"-139.84","67.57","OLD CROW A","2100801","2018-05-11 03:00","2018","05","11","03:00"
"-139.84","67.57","OLD CROW A","2100801","2018-05-11 04:00","2018","05","11","04:00"
"-139.84","67.57","OLD CROW A","2100801","2018-05-11 05:00","2018","05","11","05:00","4.1","","-1.0","","69","","","","7","","12","","56.3","","97.47","","","","","","NA"
"-139.84","67.57","OLD CROW A","2100801","2018-05-11 06:00","2018","05","11","06:00","5.2","","-1.0","","64","","","","6","","11","","56.3","","97.42","","","","","","NA"
"-139.84","67.57","OLD CROW A","2100801","2018-05-11 07:00","2018","05","11","07:00","7.9","","-1.3","","52","","","","8","","11","","56.3","","97.34","","","","","","Mostly Cloudy"
"-139.84","67.57","OLD CROW A","2100801","2018-05-11 08:00","2018","05","11","08:00","8.1","","-1.1","","52","","","","7","","10","","56.3","","97.28","","","","","","NA"
"-139.84","67.57","OLD CROW A","2100801","2018-05-11 09:00","2018","05","11","09:00","10.1","","-0.6","","47","","","","6","","15","","56.3","","97.23","","","","","","NA"
"-139.84","67.57","OLD CROW A","2100801","2018-05-11 10:00","2018","05","11","10:00","11.9","","0.3","","45","","","","6","","17","","56.3","","97.19","","","","","","Mostly Cloudy"
"-139.84","67.57","OLD CROW A","2100801","2018-05-11 11:00","2018","05","11","11:00","13.1","","0.6","","42","","","","5","","9","","56.3","","97.14","","","","","","NA"
"-139.84","67.57","OLD CROW A","2100801","2018-05-11 12:00","2018","05","11","12:00","14.4","","0.9","","40","","","","9","","7","","56.3","","97.09","","","","","","NA"
"-139.84","67.57","OLD CROW A","2100801","2018-05-11 13:00","2018","05","11","13:00","12.9","","1.5","","45","","","","20","","4","","56.3","","97.13","","","","","","Rain"
"-139.84","67.57","OLD CROW A","2100801","2018-05-11 14:00","2018","05","11","14:00","11.9","","6.1","","68","","","","7","","12","","56.3","","97.08","","","","","","NA"
"-139.84","67.57","OLD CROW A","2100801","2018-05-11 15:00","2018","05","11","15:00","11.7","","4.7","","62","","","","6","","4","","56.3","","97.11","","","","","","NA"
"-139.84","67.57","OLD CROW A","2100801","2018-05-11 16:00","2018","05","11","16:00","13.0","","3.7","","53","","","","10","","8","","56.3","","97.08","","","","","","Mostly Cloudy"
"-139.84","67.57","OLD CROW A","2100801","2018-05-11 17:00","2018","05","11","17:00","13.6","","3.7","","51","","","","10","","4","","56.3","","97.11","","","","","","NA"
"-139.84","67.57","OLD CROW A","2100801","2018-05-11 18:00","2018","05","11","18:00"
"-139.84","67.57","OLD CROW A","2100801","2018-05-11 19:00","2018","05","11","19:00"
"-139.84","67.57","OLD CROW A","2100801","2018-05-11 20:00","2018","05","11","20:00"
"-139.84","67.57","OLD CROW A","2100801","2018-05-11 21:00","2018","05","11","21:00"
"-139.84","67.57","OLD CROW A","2100801","2018-05-11 22:00","2018","05","11","22:00"
"-139.84","67.57","OLD CROW A","2100801","2018-05-11 23:00","2018","05","11","23:00"
"-139.84","67.57","OLD CROW A","2100801","2018-05-12 00:00","2018","05","12","00:00"
"-139.84","67.57","OLD CROW A","2100801","2018-05-12 01:00","2018","05","12","01:00"
"-139.84","67.57","OLD CROW A","2100801","2018-05-12 02:00","2018","05","12","02:00"
"-139.84","67.57","OLD CROW A","2100801","2018-05-12 03:00","2018","05","12","03:00"
"-139.84","67.57","OLD CROW A","2100801","2018-05-12 04:00","2018","05","12","04:00"
"-139.84","67.57","OLD CROW A","2100801","2018-05-12 05:00","2018","05","12","05:00","6.2","","1.4","","72","","","","25","","31","","56.3","","97.75","","","","","","NA"
"-139.84","67.57","OLD CROW A","2100801","2018-05-12 06:00","2018","05","12","06:00","5.9","","1.0","","71","","","","25","","37","","56.3","","97.79","","","","","","NA"
"-139.84","67.57","OLD CROW A","2100801","2018-05-12 07:00","2018","05","12","07:00","5.9","","0.4","","68","","","","25","","26","","56.3","","97.82","","","","","","Mostly Cloudy"
"-139.84","67.57","OLD CROW A","2100801","2018-05-12 08:00","2018","05","12","08:00","6.7","","0.3","","64","","","","25","","28","","56.3","","97.86","","","","","","NA"
"-139.84","67.57","OLD CROW A","2100801","2018-05-12 09:00","2018","05","12","09:00","7.5","","0.0","","59","","","","25","","39","","56.3","","97.90","","","","","","NA"
"-139.84","67.57","OLD CROW A","2100801","2018-05-12 10:00","2018","05","12","10:00","8.2","","-0.6","","54","","","","24","","40","","56.3","","97.96","","","","","","Mostly Cloudy"
"-139.84","67.57","OLD CROW A","2100801","2018-05-12 11:00","2018","05","12","11:00","9.4","","-1.0","","48","","","","26","","42","","56.3","","98.01","","","","","","NA"
"-139.84","67.57","OLD CROW A","2100801","2018-05-12 12:00","2018","05","12","12:00","10.3","","-1.7","","43","","","","26","","32","","56.3","","98.05","","","","","","NA"
"-139.84","67.57","OLD CROW A","2100801","2018-05-12 13:00","2018","05","12","13:00","11.9","","-1.5","","39","","","","27","","37","","56.3","","98.11","","","","","","Mostly Cloudy"
"-139.84","67.57","OLD CROW A","2100801","2018-05-12 14:00","2018","05","12","14:00","11.6","","-2.0","","39","","","","25","","35","","56.3","","98.18","","","","","","NA"
"-139.84","67.57","OLD CROW A","2100801","2018-05-12 15:00","2018","05","12","15:00","11.0","","-2.0","","40","","","","26","","30","","56.3","","98.28","","","","","","NA"
"-139.84","67.57","OLD CROW A","2100801","2018-05-12 16:00","2018","05","12","16:00","11.3","","-2.1","","39","","","","27","","36","","56.3","","98.37","","","","","","Mostly Cloudy"
"-139.84","67.57","OLD CROW A","2100801","2018-05-12 17:00","2018","05","12","17:00","11.4","","-2.3","","38","","","","28","","24","","56.3","","98.43","","","","","","NA"
"-139.84","67.57","OLD CROW A","2100801","2018-05-12 18:00","2018","05","12","18:00"
"-139.84","67.57","OLD CROW A","2100801","2018-05-12 19:00","2018","05","12","19:00"
"-139.84","67.57","OLD CROW A","2100801","2018-05-12 20:00","2018","05","12","20:00"
"-139.84","67.57","OLD CROW A","2100801","2018-05-12 21:00","2018","05","12","21:00"
"-139.84","67.57","OLD CROW A","2100801","2018-05-12 22:00","2018","05","12","22:00"
"-139.84","67.57","OLD CROW A","2100801","2018-05-12 23:00","2018","05","12","23:00"
"-139.84","67.57","OLD CROW A","2100801","2018-05-13 00:00","2018","05","13","00:00"
"-139.84","67.57","OLD CROW A","2100801","2018-05-13 01:00","2018","05","13","01:00"
"-139.84","67.57","OLD CROW A","2100801","2018-05-13 02:00","2018","05","13","02:00"
"-139.84","67.57","OLD CROW A","2100801","2018-05-13 03:00","2018","05","13","03:00"
"-139.84","67.57","OLD CROW A","2100801","2018-05-13 04:00","2018","05","13","04:00"
"-139.84","67.57","OLD CROW A","2100801","2018-05-13 05:00","2018","05","13","05:00","1.9","","0.8","","92","","","","7","","7","","56.3","","98.88","","","","","","NA"
"-139.84","67.57","OLD CROW A","2100801","2018-05-13 06:00","2018","05","13","06:00","2.7","","1.1","","89","","","","5","","6","","56.3","","98.87","","","","","","NA"
"-139.84","67.57","OLD CROW A","2100801","2018-05-13 07:00","2018","05","13","07:00","4.1","","1.6","","84","","","","8","","3","","56.3","","98.88","","","","","","Mostly Cloudy"
"-139.84","67.57","OLD CROW A","2100801","2018-05-13 08:00","2018","05","13","08:00","6.1","","2.2","","76","","","","8","","6","","56.3","","98.86","","","","","","NA"
"-139.84","67.57","OLD CROW A","2100801","2018-05-13 09:00","2018","05","13","09:00","7.3","","1.7","","67","","","","8","","5","","56.3","","98.83","","","","","","NA"
"-139.84","67.57","OLD CROW A","2100801","2018-05-13 10:00","2018","05","13","10:00","9.1","","0.1","","53","","","","5","","5","","56.3","","98.78","","","","","","Mainly Clear"
"-139.84","67.57","OLD CROW A","2100801","2018-05-13 11:00","2018","05","13","11:00","10.3","","-2.9","","39","","","","14","","3","","56.3","","98.72","","","","","","NA"
"-139.84","67.57","OLD CROW A","2100801","2018-05-13 12:00","2018","05","13","12:00","12.1","","-3.0","","35","","","","12","","6","","56.3","","98.67","","","","","","NA"
"-139.84","67.57","OLD CROW A","2100801","2018-05-13 13:00","2018","05","13","13:00","12.8","","-1.0","","38","","","","2","","12","","56.3","","98.63","","","","","","Mostly Cloudy"
"-139.84","67.57","OLD CROW A","2100801","2018-05-13 14:00","2018","05","13","14:00","12.3","","0.6","","45","","","","4","","16","","56.3","","98.60","","","","","","NA"
"-139.84","67.57","OLD CROW A","2100801","2018-05-13 15:00","2018","05","13","15:00","12.5","","-0.6","","40","","","","6","","7","","56.3","","98.53","","","","","","NA"
"-139.84","67.57","OLD CROW A","2100801","2018-05-13 16:00","2018","05","13","16:00","11.3","","-1.4","","41","","","","7","","11","","56.3","","98.47","","","","","","Mostly Cloudy"
"-139.84","67.57","OLD CROW A","2100801","2018-05-13 17:00","2018","05","13","17:00","12.0","","-1.4","","39","","","","6","","23","","56.3","","98.41","","","","","","NA"
"-139.84","67.57","OLD CROW A","2100801","2018-05-13 18:00","2018","05","13","18:00"
"-139.84","67.57","OLD CROW A","2100801","2018-05-13 19:00","2018","05","13","19:00"
"-139.84","67.57","OLD CROW A","2100801","2018-05-13 20:00","2018","05","13","20:00"
"-139.84","67.57","OLD CROW A","2100801","2018-05-13 21:00","2018","05","13","21:00"
"-139.84","67.57","OLD CROW A","2100801","2018-05-13 22:00","2018","05","13","22:00"
"-139.84","67.57","OLD CROW A","2100801","2018-05-13 23:00","2018","05","13","23:00"
"-139.84","67.57","OLD CROW A","2100801","2018-05-14 00:00","2018","05","14","00:00"
"-139.84","67.57","OLD CROW A","2100801","2018-05-14 01:00","2018","05","14","01:00"
"-139.84","67.57","OLD CROW A","2100801","2018-05-14 02:00","2018","05","14","02:00"
"-139.84","67.57","OLD CROW A","2100801","2018-05-14 03:00","2018","05","14","03:00"
"-139.84","67.57","OLD CROW A","2100801","2018-05-14 04:00","2018","05","14","04:00"
"-139.84","67.57","OLD CROW A","2100801","2018-05-14 05:00","2018","05","14","05:00","1.2","","-1.0","","85","","","","4","","24","","56.3","","98.01","","","","","","NA"
"-139.84","67.57","OLD CROW A","2100801","2018-05-14 06:00","2018","05","14","06:00","1.6","","-0.9","","84","","","","3","","30","","56.3","","97.98","","","","","","NA"
"-139.84","67.57","OLD CROW A","2100801","2018-05-14 07:00","2018","05","14","07:00","2.2","","-1.0","","79","","","","3","","25","","56.3","","97.96","","","","","","Cloudy"
"-139.84","67.57","OLD CROW A","2100801","2018-05-14 08:00","2018","05","14","08:00","2.2","","-1.0","","79","","","","5","","25","","56.3","","97.96","","","","","","NA"
"-139.84","67.57","OLD CROW A","2100801","2018-05-14 09:00","2018","05","14","09:00","3.0","","-0.7","","77","","","","3","","12","","56.3","","97.94","","","","","","NA"
"-139.84","67.57","OLD CROW A","2100801","2018-05-14 10:00","2018","05","14","10:00","2.9","","-1.0","","76","","","","1","","19","","56.3","","97.99","","","","","","Cloudy"
"-139.84","67.57","OLD CROW A","2100801","2018-05-14 11:00","2018","05","14","11:00","4.1","","-0.9","","70","","","","2","","22","","56.3","","98.00","","","","","","NA"
"-139.84","67.57","OLD CROW A","2100801","2018-05-14 12:00","2018","05","14","12:00","5.0","","-0.9","","65","","","","2","","18","","56.3","","98.02","","","","","","NA"
"-139.84","67.57","OLD CROW A","2100801","2018-05-14 13:00","2018","05","14","13:00","6.2","","-0.5","","62","","","","3","","23","","56.3","","98.00","","","","","","Cloudy"
"-139.84","67.57","OLD CROW A","2100801","2018-05-14 14:00","2018","05","14","14:00","6.7","","-0.5","","60","","","","3","","26","","56.3","","98.01","","","","","","NA"
"-139.84","67.57","OLD CROW A","2100801","2018-05-14 15:00","2018","05","14","15:00","7.2","","-0.3","","59","","","","2","","21","","56.3","","98.02","","","","","","NA"
"-139.84","67.57","OLD CROW A","2100801","2018-05-14 16:00","2018","05","14","16:00","7.0","","-0.9","","57","","","","1","","23","","56.3","","98.05","","","","","","Cloudy"
"-139.84","67.57","OLD CROW A","2100801","2018-05-14 17:00","2018","05","14","17:00","6.9","","-0.8","","58","","","","2","","23","","56.3","","98.06","","","","","","NA"
"-139.84","67.57","OLD CROW A","2100801","2018-05-14 18:00","2018","05","14","18:00"
"-139.84","67.57","OLD CROW A","2100801","2018-05-14 19:00","2018","05","14","19:00"
"-139.84","67.57","OLD CROW A","2100801","2018-05-14 20:00","2018","05","14","20:00"
"-139.84","67.57","OLD CROW A","2100801","2018-05-14 21:00","2018","05","14","21:00"
"-139.84","67.57","OLD CROW A","2100801","2018-05-14 22:00","2018","05","14","22:00"
"-139.84","67.57","OLD CROW A","2100801","2018-05-14 23:00","2018","05","14","23:00"
"-139.84","67.57","OLD CROW A","2100801","2018-05-15 00:00","2018","05","15","00:00"
"-139.84","67.57","OLD CROW A","2100801","2018-05-15 01:00","2018","05","15","01:00"
"-139.84","67.57","OLD CROW A","2100801","2018-05-15 02:00","2018","05","15","02:00"
"-139.84","67.57","OLD CROW A","2100801","2018-05-15 03:00","2018","05","15","03:00"
"-139.84","67.57","OLD CROW A","2100801","2018-05-15 04:00","2018","05","15","04:00"
"-139.84","67.57","OLD CROW A","2100801","2018-05-15 05:00","2018","05","15","05:00","-0.8","","-10.7","","47","","","","3","","10","","56.3","","98.52","","","","-4","","NA"
"-139.84","67.57","OLD CROW A","2100801","2018-05-15 06:00","2018","05","15","06:00","-0.1","","-13.3","","37","","","","4","","13","","56.3","","98.56","","","","-4","","NA"
"-139.84","67.57","OLD CROW A","2100801","2018-05-15 07:00","2018","05","15","07:00","0.5","","-15.0","","31","","","","3","","12","","56.3","","98.60","","","","","","Mainly Clear"
"-139.84","67.57","OLD CROW A","2100801","2018-05-15 08:00","2018","05","15","08:00","1.5","","-13.1","","33","","","","5","","11","","56.3","","98.60","","","","","","NA"
"-139.84","67.57","OLD CROW A","2100801","2018-05-15 09:00","2018","05","15","09:00","1.6","","-13.2","","32","","","","35","","18","","56.3","","98.62","","","","","","NA"
"-139.84","67.57","OLD CROW A","2100801","2018-05-15 10:00","2018","05","15","10:00","3.4","","-14.3","","26","","","","6","","13","","56.3","","98.62","","","","","","Mainly Clear"
"-139.84","67.57","OLD CROW A","2100801","2018-05-15 11:00","2018","05","15","11:00","4.1","","-14.4","","25","","","","5","","18","","56.3","","98.65","","","","","","NA"
"-139.84","67.57","OLD CROW A","2100801","2018-05-15 12:00","2018","05","15","12:00","5.3","","-12.4","","27","","","","7","","17","","56.3","","98.67","","","","","","NA"
"-139.84","67.57","OLD CROW A","2100801","2018-05-15 13:00","2018","05","15","13:00","6.3","","-11.8","","26","","","","5","","13","","56.3","","98.67","","","","","","Mainly Clear"
"-139.84","67.57","OLD CROW A","2100801","2018-05-15 14:00","2018","05","15","14:00","7.1","","-9.9","","29","","","","5","","14","","56.3","","98.67","","","","","","NA"
"-139.84","67.57","OLD CROW A","2100801","2018-05-15 15:00","2018","05","15","15:00","7.8","","-10.4","","26","","","","4","","21","","56.3","","98.67","","","","","","NA"
"-139.84","67.57","OLD CROW A","2100801","2018-05-15 16:00","2018","05","15","16:00","8.3","","-10.8","","25","","","","2","","11","","56.3","","98.68","","","","","","Mainly Clear"
"-139.84","67.57","OLD CROW A","2100801","2018-05-15 17:00","2018","05","15","17:00","8.2","","-10.1","","26","","","","5","","12","","56.3","","98.70","","","","","","NA"
"-139.84","67.57","OLD CROW A","2100801","2018-05-15 18:00","2018","05","15","18:00"
"-139.84","67.57","OLD CROW A","2100801","2018-05-15 19:00","2018","05","15","19:00"
"-139.84","67.57","OLD CROW A","2100801","2018-05-15 20:00","2018","05","15","20:00"
"-139.84","67.57","OLD CROW A","2100801","2018-05-15 21:00","2018","05","15","21:00"
"-139.84","67.57","OLD CROW A","2100801","2018-05-15 22:00","2018","05","15","22:00"
"-139.84","67.57","OLD CROW A","2100801","2018-05-15 23:00","2018","05","15","23:00"
"-139.84","67.57","OLD CROW A","2100801","2018-05-16 00:00","2018","05","16","00:00"
"-139.84","67.57","OLD CROW A","2100801","2018-05-16 01:00","2018","05","16","01:00"
"-139.84","67.57","OLD CROW A","2100801","2018-05-16 02:00","2018","05","16","02:00"
"-139.84","67.57","OLD CROW A","2100801","2018-05-16 03:00","2018","05","16","03:00"
"-139.84","67.57","OLD CROW A","2100801","2018-05-16 04:00","2018","05","16","04:00"
"-139.84","67.57","OLD CROW A","2100801","2018-05-16 05:00","2018","05","16","05:00","-1.6","","-5.4","","75","","","","27","","4","","56.3","","99.00","","","","-3","","NA"
"-139.84","67.57","OLD CROW A","2100801","2018-05-16 06:00","2018","05","16","06:00","0.2","","-4.1","","73","","","","36","","1","","56.3","","99.01","","","","","","NA"
"-139.84","67.57","OLD CROW A","2100801","2018-05-16 07:00","2018","05","16","07:00","2.5","","-3.9","","63","","","","11","","3","","56.3","","99.02","","","","","","Mainly Clear"
"-139.84","67.57","OLD CROW A","2100801","2018-05-16 08:00","2018","05","16","08:00","4.9","","-6.2","","44","","","","11","","3","","56.3","","99.01","","","","","","NA"
"-139.84","67.57","OLD CROW A","2100801","2018-05-16 09:00","2018","05","16","09:00","6.2","","-9.3","","32","","","","14","","4","","56.3","","99.01","","","","","","NA"
"-139.84","67.57","OLD CROW A","2100801","2018-05-16 10:00","2018","05","16","10:00","9.1","","-4.7","","37","","","","9","","5","","56.3","","98.99","","","","","","Mostly Cloudy"
"-139.84","67.57","OLD CROW A","2100801","2018-05-16 11:00","2018","05","16","11:00","10.8","","-3.0","","38","","","","24","","5","","56.3","","98.98","","","","","","NA"
"-139.84","67.57","OLD CROW A","2100801","2018-05-16 12:00","2018","05","16","12:00","12.8","","-4.1","","31","","","","21","","9","","56.3","","98.96","","","","","","NA"
"-139.84","67.57","OLD CROW A","2100801","2018-05-16 13:00","2018","05","16","13:00","14.1","","-3.9","","28","","","","25","","10","","56.3","","98.95","","","","","","Mainly Clear"
"-139.84","67.57","OLD CROW A","2100801","2018-05-16 14:00","2018","05","16","14:00","14.3","","-4.6","","27","","","","22","","10","","56.3","","98.92","","","","","","NA"
"-139.84","67.57","OLD CROW A","2100801","2018-05-16 15:00","2018","05","16","15:00","15.2","","-5.1","","24","","","","25","","4","","56.3","","98.93","","","","","","NA"
"-139.84","67.57","OLD CROW A","2100801","2018-05-16 16:00","2018","05","16","16:00","14.6","","-4.5","","26","","","","18","","5","","56.3","","98.89","","","","","","Mostly Cloudy"
"-139.84","67.57","OLD CROW A","2100801","2018-05-16 17:00","2018","05","16","17:00","14.4","","-3.2","","29","","","","26","","13","","56.3","","98.88","","","","","","NA"
"-139.84","67.57","OLD CROW A","2100801","2018-05-16 18:00","2018","05","16","18:00"
"-139.84","67.57","OLD CROW A","2100801","2018-05-16 19:00","2018","05","16","19:00"
"-139.84","67.57","OLD CROW A","2100801","2018-05-16 20:00","2018","05","16","20:00"
"-139.84","67.57","OLD CROW A","2100801","2018-05-16 21:00","2018","05","16","21:00"
"-139.84","67.57","OLD CROW A","2100801","2018-05-16 22:00","2018","05","16","22:00"
"-139.84","67.57","OLD CROW A","2100801","2018-05-16 23:00","2018","05","16","23:00"
"-139.84","67.57","OLD CROW A","2100801","2018-05-17 00:00","2018","05","17","00:00"
"-139.84","67.57","OLD CROW A","2100801","2018-05-17 01:00","2018","05","17","01:00"
"-139.84","67.57","OLD CROW A","2100801","2018-05-17 02:00","2018","05","17","02:00"
"-139.84","67.57","OLD CROW A","2100801","2018-05-17 03:00","2018","05","17","03:00"
"-139.84","67.57","OLD CROW A","2100801","2018-05-17 04:00","2018","05","17","04:00"
"-139.84","67.57","OLD CROW A","2100801","2018-05-17 05:00","2018","05","17","05:00","3.2","","1.5","","89","","","","0","","1","","56.3","","99.14","","","","","","NA"
"-139.84","67.57","OLD CROW A","2100801","2018-05-17 06:00","2018","05","17","06:00","4.5","","1.7","","82","","","","23","","12","","56.3","","99.14","","","","","","NA"
"-139.84","67.57","OLD CROW A","2100801","2018-05-17 07:00","2018","05","17","07:00","5.4","","1.6","","76","","","","24","","13","","56.3","","99.14","","","","","","Mainly Clear"
"-139.84","67.57","OLD CROW A","2100801","2018-05-17 08:00","2018","05","17","08:00","7.7","","1.7","","66","","","","24","","14","","56.3","","99.14","","","","","","NA"
"-139.84","67.57","OLD CROW A","2100801","2018-05-17 09:00","2018","05","17","09:00","9.3","","0.8","","55","","","","24","","16","","56.3","","99.14","","","","","","NA"
"-139.84","67.57","OLD CROW A","2100801","2018-05-17 10:00","2018","05","17","10:00","10.6","","0.6","","50","","","","26","","18","","56.3","","99.13","","","","","","Mostly Cloudy"
"-139.84","67.57","OLD CROW A","2100801","2018-05-17 11:00","2018","05","17","11:00","10.9","","-0.2","","46","","","","25","","21","","56.3","","99.10","","","","","","NA"
"-139.84","67.57","OLD CROW A","2100801","2018-05-17 12:00","2018","05","17","12:00","11.7","","-2.8","","36","","","","26","","21","","56.3","","99.08","","","","","","NA"
"-139.84","67.57","OLD CROW A","2100801","2018-05-17 13:00","2018","05","17","13:00","12.4","","-4.1","","31","","","","25","","22","","56.3","","99.08","","","","","","Mostly Cloudy"
"-139.84","67.57","OLD CROW A","2100801","2018-05-17 14:00","2018","05","17","14:00","12.9","","-4.8","","29","","","","23","","18","","56.3","","99.05","","","","","","NA"
"-139.84","67.57","OLD CROW A","2100801","2018-05-17 15:00","2018","05","17","15:00","12.6","","-4.1","","31","","","","26","","22","","56.3","","99.03","","","","","","NA"
"-139.84","67.57","OLD CROW A","2100801","2018-05-17 16:00","2018","05","17","16:00","12.9","","-4.7","","29","","","","24","","26","","56.3","","99.01","","","","","","Mostly Cloudy"
"-139.84","67.57","OLD CROW A","2100801","2018-05-17 17:00","2018","05","17","17:00","12.5","","-4.9","","29","","","","26","","18","","56.3","","99.00","","","","","","NA"
"-139.84","67.57","OLD CROW A","2100801","2018-05-17 18:00","2018","05","17","18:00"
"-139.84","67.57","OLD CROW A","2100801","2018-05-17 19:00","2018","05","17","19:00"
"-139.84","67.57","OLD CROW A","2100801","2018-05-17 20:00","2018","05","17","20:00"
"-139.84","67.57","OLD CROW A","2100801","2018-05-17 21:00","2018","05","17","21:00"
"-139.84","67.57","OLD CROW A","2100801","2018-05-17 22:00","2018","05","17","22:00"
"-139.84","67.57","OLD CROW A","2100801","2018-05-17 23:00","2018","05","17","23:00"
"-139.84","67.57","OLD CROW A","2100801","2018-05-18 00:00","2018","05","18","00:00"
"-139.84","67.57","OLD CROW A","2100801","2018-05-18 01:00","2018","05","18","01:00"
"-139.84","67.57","OLD CROW A","2100801","2018-05-18 02:00","2018","05","18","02:00"
"-139.84","67.57","OLD CROW A","2100801","2018-05-18 03:00","2018","05","18","03:00"
"-139.84","67.57","OLD CROW A","2100801","2018-05-18 04:00","2018","05","18","04:00"
"-139.84","67.57","OLD CROW A","2100801","2018-05-18 05:00","2018","05","18","05:00","0.2","","-5.6","","65","","","","4","","31","","56.3","","99.38","","","","","","NA"
"-139.84","67.57","OLD CROW A","2100801","2018-05-18 06:00","2018","05","18","06:00","0.1","","-5.7","","65","","","","4","","19","","56.3","","99.40","","","","","","NA"
"-139.84","67.57","OLD CROW A","2100801","2018-05-18 07:00","2018","05","18","07:00","1.3","","-6.0","","58","","","","5","","21","","56.3","","99.42","","","","","","Mainly Clear"
"-139.84","67.57","OLD CROW A","2100801","2018-05-18 08:00","2018","05","18","08:00","2.2","","-6.3","","54","","","","4","","22","","56.3","","99.44","","","","","","NA"
"-139.84","67.57","OLD CROW A","2100801","2018-05-18 09:00","2018","05","18","09:00","2.9","","-8.0","","45","","","","5","","24","","56.3","","99.46","","","","","","NA"
"-139.84","67.57","OLD CROW A","2100801","2018-05-18 10:00","2018","05","18","10:00","3.6","","-10.1","","36","","","","5","","30","","56.3","","99.45","","","","","","Mainly Clear"
"-139.84","67.57","OLD CROW A","2100801","2018-05-18 11:00","2018","05","18","11:00","4.5","","-10.1","","34","","","","6","","30","","56.3","","99.45","","","","","","NA"
"-139.84","67.57","OLD CROW A","2100801","2018-05-18 12:00","2018","05","18","12:00","5.5","","-9.1","","34","","","","4","","28","","56.3","","99.44","","","","","","NA"
"-139.84","67.57","OLD CROW A","2100801","2018-05-18 13:00","2018","05","18","13:00","6.4","","-10.0","","30","","","","5","","29","","56.3","","99.40","","","","","","Mainly Clear"
"-139.84","67.57","OLD CROW A","2100801","2018-05-18 14:00","2018","05","18","14:00","6.8","","-10.4","","28","","","","5","","30","","56.3","","99.36","","","","","","NA"
"-139.84","67.57","OLD CROW A","2100801","2018-05-18 15:00","2018","05","18","15:00","6.7","","-11.0","","27","","","","4","","32","","56.3","","99.28","","","","","","NA"
"-139.84","67.57","OLD CROW A","2100801","2018-05-18 16:00","2018","05","18","16:00","7.3","","-11.7","","25","","","","4","","36","","56.3","","99.22","","","","","","Cloudy"
"-139.84","67.57","OLD CROW A","2100801","2018-05-18 17:00","2018","05","18","17:00","7.7","","-11.4","","24","","","","5","","28","","56.3","","99.15","","","","","","NA"
"-139.84","67.57","OLD CROW A","2100801","2018-05-18 18:00","2018","05","18","18:00"
"-139.84","67.57","OLD CROW A","2100801","2018-05-18 19:00","2018","05","18","19:00"
"-139.84","67.57","OLD CROW A","2100801","2018-05-18 20:00","2018","05","18","20:00"
"-139.84","67.57","OLD CROW A","2100801","2018-05-18 21:00","2018","05","18","21:00"
"-139.84","67.57","OLD CROW A","2100801","2018-05-18 22:00","2018","05","18","22:00"
"-139.84","67.57","OLD CROW A","2100801","2018-05-18 23:00","2018","05","18","23:00"
"-139.84","67.57","OLD CROW A","2100801","2018-05-19 00:00","2018","05","19","00:00"
"-139.84","67.57","OLD CROW A","2100801","2018-05-19 01:00","2018","05","19","01:00"
"-139.84","67.57","OLD CROW A","2100801","2018-05-19 02:00","2018","05","19","02:00"
"-139.84","67.57","OLD CROW A","2100801","2018-05-19 03:00","2018","05","19","03:00"
"-139.84","67.57","OLD CROW A","2100801","2018-05-19 04:00","2018","05","19","04:00"
"-139.84","67.57","OLD CROW A","2100801","2018-05-19 05:00","2018","05","19","05:00","-1.4","","-5.5","","74","","","","6","","17","","56.3","","98.83","","","","-7","","Snow"
"-139.84","67.57","OLD CROW A","2100801","2018-05-19 06:00","2018","05","19","06:00","-1.8","","-4.1","","84","","","","5","","18","","4.0","","98.79","","","","-7","","Snow"
"-139.84","67.57","OLD CROW A","2100801","2018-05-19 07:00","2018","05","19","07:00","-1.0","","-2.8","","87","","","","4","","17","","3.2","","98.74","","","","-6","","Snow"
"-139.84","67.57","OLD CROW A","2100801","2018-05-19 08:00","2018","05","19","08:00","-1.1","","-3.1","","87","","","","5","","15","","4.0","","98.73","","","","-6","","Snow"
"-139.84","67.57","OLD CROW A","2100801","2018-05-19 09:00","2018","05","19","09:00","-0.8","","-2.7","","86","","","","5","","18","","4.0","","98.71","","","","-6","","Snow"
"-139.84","67.57","OLD CROW A","2100801","2018-05-19 10:00","2018","05","19","10:00","-0.3","","-2.0","","88","","","","5","","18","","3.2","","98.69","","","","-5","","Snow"
"-139.84","67.57","OLD CROW A","2100801","2018-05-19 11:00","2018","05","19","11:00","-0.3","","-1.8","","90","","","","3","","23","","2.8","","98.65","","","","-6","","Snow"
"-139.84","67.57","OLD CROW A","2100801","2018-05-19 12:00","2018","05","19","12:00","0.5","","-1.1","","89","","","","4","","19","","4.0","","98.61","","","","","","Snow"
"-139.84","67.57","OLD CROW A","2100801","2018-05-19 13:00","2018","05","19","13:00","1.5","","-1.0","","84","","","","4","","25","","24.1","","98.56","","","","","","Snow"
"-139.84","67.57","OLD CROW A","2100801","2018-05-19 14:00","2018","05","19","14:00","1.8","","-0.4","","85","","","","3","","25","","48.3","","98.54","","","","","","NA"
"-139.84","67.57","OLD CROW A","2100801","2018-05-19 15:00","2018","05","19","15:00","3.0","","0.0","","81","","","","3","","23","","56.3","","98.50","","","","","","NA"
"-139.84","67.57","OLD CROW A","2100801","2018-05-19 16:00","2018","05","19","16:00","4.5","","0.6","","76","","","","3","","25","","56.3","","98.45","","","","","","Cloudy"
"-139.84","67.57","OLD CROW A","2100801","2018-05-19 17:00","2018","05","19","17:00","5.5","","0.5","","70","","","","2","","25","","56.3","","98.41","","","","","","NA"
"-139.84","67.57","OLD CROW A","2100801","2018-05-19 18:00","2018","05","19","18:00"
"-139.84","67.57","OLD CROW A","2100801","2018-05-19 19:00","2018","05","19","19:00"
"-139.84","67.57","OLD CROW A","2100801","2018-05-19 20:00","2018","05","19","20:00"
"-139.84","67.57","OLD CROW A","2100801","2018-05-19 21:00","2018","05","19","21:00"
"-139.84","67.57","OLD CROW A","2100801","2018-05-19 22:00","2018","05","19","22:00"
"-139.84","67.57","OLD CROW A","2100801","2018-05-19 23:00","2018","05","19","23:00"
"-139.84","67.57","OLD CROW A","2100801","2018-05-20 00:00","2018","05","20","00:00"
"-139.84","67.57","OLD CROW A","2100801","2018-05-20 01:00","2018","05","20","01:00"
"-139.84","67.57","OLD CROW A","2100801","2018-05-20 02:00","2018","05","20","02:00"
"-139.84","67.57","OLD CROW A","2100801","2018-05-20 03:00","2018","05","20","03:00"
"-139.84","67.57","OLD CROW A","2100801","2018-05-20 04:00","2018","05","20","04:00"
"-139.84","67.57","OLD CROW A","2100801","2018-05-20 05:00","2018","05","20","05:00","0.8","","-3.4","","74","","","","5","","13","","56.3","","98.34","","","","","","NA"
"-139.84","67.57","OLD CROW A","2100801","2018-05-20 06:00","2018","05","20","06:00","1.8","","-3.3","","69","","","","3","","16","","56.3","","98.31","","","","","","NA"
"-139.84","67.57","OLD CROW A","2100801","2018-05-20 07:00","2018","05","20","07:00","2.7","","-3.0","","66","","","","5","","19","","56.3","","98.28","","","","","","Mainly Clear"
"-139.84","67.57","OLD CROW A","2100801","2018-05-20 08:00","2018","05","20","08:00","4.1","","-2.6","","61","","","","4","","17","","56.3","","98.26","","","","","","NA"
"-139.84","67.57","OLD CROW A","2100801","2018-05-20 09:00","2018","05","20","09:00","5.9","","-2.3","","55","","","","7","","16","","56.3","","98.20","","","","","","NA"
"-139.84","67.57","OLD CROW A","2100801","2018-05-20 10:00","2018","05","20","10:00","7.6","","-2.2","","50","","","","9","","17","","56.3","","98.15","","","","","","Mainly Clear"
"-139.84","67.57","OLD CROW A","2100801","2018-05-20 11:00","2018","05","20","11:00","8.7","","-1.7","","48","","","","10","","13","","56.3","","98.08","","","","","","NA"
"-139.84","67.57","OLD CROW A","2100801","2018-05-20 12:00","2018","05","20","12:00","10.6","","-0.1","","47","","","","9","","11","","56.3","","98.02","","","","","","NA"
"-139.84","67.57","OLD CROW A","2100801","2018-05-20 13:00","2018","05","20","13:00","11.7","","-0.5","","43","","","","6","","22","","56.3","","97.95","","","","","","Mainly Clear"
"-139.84","67.57","OLD CROW A","2100801","2018-05-20 14:00","2018","05","20","14:00","11.5","","-0.4","","44","","","","6","","24","","56.3","","97.88","","","","","","NA"
"-139.84","67.57","OLD CROW A","2100801","2018-05-20 15:00","2018","05","20","15:00","12.3","","0.3","","44","","","","6","","19","","56.3","","97.81","","","","","","NA"
"-139.84","67.57","OLD CROW A","2100801","2018-05-20 16:00","2018","05","20","16:00","11.6","","0.1","","45","","","","4","","34","","56.3","","97.73","","","","","","Mostly Cloudy"
"-139.84","67.57","OLD CROW A","2100801","2018-05-20 17:00","2018","05","20","17:00","11.3","","0.7","","48","","","","4","","29","","56.3","","97.65","","","","","","NA"
"-139.84","67.57","OLD CROW A","2100801","2018-05-20 18:00","2018","05","20","18:00"
"-139.84","67.57","OLD CROW A","2100801","2018-05-20 19:00","2018","05","20","19:00"
"-139.84","67.57","OLD CROW A","2100801","2018-05-20 20:00","2018","05","20","20:00"
"-139.84","67.57","OLD CROW A","2100801","2018-05-20 21:00","2018","05","20","21:00"
"-139.84","67.57","OLD CROW A","2100801","2018-05-20 22:00","2018","05","20","22:00"
"-139.84","67.57","OLD CROW A","2100801","2018-05-20 23:00","2018","05","20","23:00"
"-139.84","67.57","OLD CROW A","2100801","2018-05-21 00:00","2018","05","21","00:00"
"-139.84","67.57","OLD CROW A","2100801","2018-05-21 01:00","2018","05","21","01:00"
"-139.84","67.57","OLD CROW A","2100801","2018-05-21 02:00","2018","05","21","02:00"
"-139.84","67.57","OLD CROW A","2100801","2018-05-21 03:00","2018","05","21","03:00"
"-139.84","67.57","OLD CROW A","2100801","2018-05-21 04:00","2018","05","21","04:00"
"-139.84","67.57","OLD CROW A","2100801","2018-05-21 05:00","2018","05","21","05:00","4.4","","-1.0","","68","","","","4","","13","","56.3","","97.33","","","","","","NA"
"-139.84","67.57","OLD CROW A","2100801","2018-05-21 06:00","2018","05","21","06:00","3.6","","0.8","","82","","","","2","","15","","40.2","","97.28","","","","","","Rain"
"-139.84","67.57","OLD CROW A","2100801","2018-05-21 07:00","2018","05","21","07:00","2.4","","0.6","","88","","","","9","","14","","40.2","","97.26","","","","","","Rain"
"-139.84","67.57","OLD CROW A","2100801","2018-05-21 08:00","2018","05","21","08:00","2.8","","0.6","","85","","","","7","","8","","","M","97.23","","","","","","NA"
"-139.84","67.57","OLD CROW A","2100801","2018-05-21 09:00","2018","05","21","09:00","3.6","","0.6","","80","","","","6","","19","","40.2","","97.20","","","","","","NA"
"-139.84","67.57","OLD CROW A","2100801","2018-05-21 10:00","2018","05","21","10:00","5.2","","1.4","","76","","","","5","","14","","40.2","","97.17","","","","","","Mostly Cloudy"
"-139.84","67.57","OLD CROW A","2100801","2018-05-21 11:00","2018","05","21","11:00","7.0","","2.0","","70","","","","6","","15","","56.3","","97.16","","","","","","NA"
"-139.84","67.57","OLD CROW A","2100801","2018-05-21 12:00","2018","05","21","12:00","9.2","","3.4","","67","","","","3","","20","","56.3","","97.13","","","","","","NA"
"-139.84","67.57","OLD CROW A","2100801","2018-05-21 13:00","2018","05","21","13:00","11.2","","3.9","","60","","","","2","","21","","56.3","","97.11","","","","","","Mostly Cloudy"
"-139.84","67.57","OLD CROW A","2100801","2018-05-21 14:00","2018","05","21","14:00","13.0","","2.0","","47","","","","3","","21","","56.3","","97.06","","","","","","NA"
"-139.84","67.57","OLD CROW A","2100801","2018-05-21 15:00","2018","05","21","15:00","13.2","","4.2","","54","","","","3","","25","","56.3","","97.02","","","","","","NA"
"-139.84","67.57","OLD CROW A","2100801","2018-05-21 16:00","2018","05","21","16:00","14.5","","4.7","","51","","","","4","","24","","56.3","","96.98","","","","","","Mostly Cloudy"
"-139.84","67.57","OLD CROW A","2100801","2018-05-21 17:00","2018","05","21","17:00","14.6","","3.9","","48","","","","5","","24","","56.3","","96.97","","","","","","NA"
"-139.84","67.57","OLD CROW A","2100801","2018-05-21 18:00","2018","05","21","18:00"
"-139.84","67.57","OLD CROW A","2100801","2018-05-21 19:00","2018","05","21","19:00"
"-139.84","67.57","OLD CROW A","2100801","2018-05-21 20:00","2018","05","21","20:00"
"-139.84","67.57","OLD CROW A","2100801","2018-05-21 21:00","2018","05","21","21:00"
"-139.84","67.57","OLD CROW A","2100801","2018-05-21 22:00","2018","05","21","22:00"
"-139.84","67.57","OLD CROW A","2100801","2018-05-21 23:00","2018","05","21","23:00"
"-139.84","67.57","OLD CROW A","2100801","2018-05-22 00:00","2018","05","22","00:00"
"-139.84","67.57","OLD CROW A","2100801","2018-05-22 01:00","2018","05","22","01:00"
"-139.84","67.57","OLD CROW A","2100801","2018-05-22 02:00","2018","05","22","02:00"
"-139.84","67.57","OLD CROW A","2100801","2018-05-22 03:00","2018","05","22","03:00"
"-139.84","67.57","OLD CROW A","2100801","2018-05-22 04:00","2018","05","22","04:00"
"-139.84","67.57","OLD CROW A","2100801","2018-05-22 05:00","2018","05","22","05:00","5.0","","0.0","","70","","","","1","","18","","56.3","","97.14","","","","","","NA"
"-139.84","67.57","OLD CROW A","2100801","2018-05-22 06:00","2018","05","22","06:00","3.9","","-0.2","","74","","","","3","","16","","56.3","","97.17","","","","","","NA"
"-139.84","67.57","OLD CROW A","2100801","2018-05-22 07:00","2018","05","22","07:00","4.2","","-0.2","","73","","","","4","","16","","56.3","","97.18","","","","","","Cloudy"
"-139.84","67.57","OLD CROW A","2100801","2018-05-22 08:00","2018","05","22","08:00","4.5","","-0.4","","70","","","","4","","31","","56.3","","97.15","","","","","","NA"
"-139.84","67.57","OLD CROW A","2100801","2018-05-22 09:00","2018","05","22","09:00","5.9","","-0.2","","65","","","","3","","19","","56.3","","97.18","","","","","","NA"
"-139.84","67.57","OLD CROW A","2100801","2018-05-22 10:00","2018","05","22","10:00","6.7","","0.3","","64","","","","5","","23","","56.3","","97.20","","","","","","Mostly Cloudy"
"-139.84","67.57","OLD CROW A","2100801","2018-05-22 11:00","2018","05","22","11:00","7.4","","0.8","","63","","","","5","","23","","56.3","","97.20","","","","","","NA"
"-139.84","67.57","OLD CROW A","2100801","2018-05-22 12:00","2018","05","22","12:00","8.0","","0.9","","60","","","","7","","19","","56.3","","97.24","","","","","","NA"
"-139.84","67.57","OLD CROW A","2100801","2018-05-22 13:00","2018","05","22","13:00","9.9","","1.2","","55","","","","3","","21","","56.3","","97.23","","","","","","Cloudy"
"-139.84","67.57","OLD CROW A","2100801","2018-05-22 14:00","2018","05","22","14:00","8.3","","1.7","","63","","","","3","","19","","56.3","","97.26","","","","","","NA"
"-139.84","67.57","OLD CROW A","2100801","2018-05-22 15:00","2018","05","22","15:00","7.6","","2.7","","71","","","","4","","19","","56.3","","97.27","","","","","","NA"
"-139.84","67.57","OLD CROW A","2100801","2018-05-22 16:00","2018","05","22","16:00","8.3","","2.2","","65","","","","4","","20","","56.3","","97.29","","","","","","Mostly Cloudy"
"-139.84","67.57","OLD CROW A","2100801","2018-05-22 17:00","2018","05","22","17:00","9.0","","1.1","","58","","","","7","","16","","56.3","","97.29","","","","","","NA"
"-139.84","67.57","OLD CROW A","2100801","2018-05-22 18:00","2018","05","22","18:00"
"-139.84","67.57","OLD CROW A","2100801","2018-05-22 19:00","2018","05","22","19:00"
"-139.84","67.57","OLD CROW A","2100801","2018-05-22 20:00","2018","05","22","20:00"
"-139.84","67.57","OLD CROW A","2100801","2018-05-22 21:00","2018","05","22","21:00"
"-139.84","67.57","OLD CROW A","2100801","2018-05-22 22:00","2018","05","22","22:00"
"-139.84","67.57","OLD CROW A","2100801","2018-05-22 23:00","2018","05","22","23:00"
"-139.84","67.57","OLD CROW A","2100801","2018-05-23 00:00","2018","05","23","00:00"
"-139.84","67.57","OLD CROW A","2100801","2018-05-23 01:00","2018","05","23","01:00"
"-139.84","67.57","OLD CROW A","2100801","2018-05-23 02:00","2018","05","23","02:00"
"-139.84","67.57","OLD CROW A","2100801","2018-05-23 03:00","2018","05","23","03:00"
"-139.84","67.57","OLD CROW A","2100801","2018-05-23 04:00","2018","05","23","04:00"
"-139.84","67.57","OLD CROW A","2100801","2018-05-23 05:00","2018","05","23","05:00","0.3","","-1.2","","90","","","","6","","14","","4.0","","97.81","","","","","","Snow"
"-139.84","67.57","OLD CROW A","2100801","2018-05-23 06:00","2018","05","23","06:00","0.2","","-0.8","","93","","","","8","","10","","3.2","","97.81","","","","","","Snow"
"-139.84","67.57","OLD CROW A","2100801","2018-05-23 07:00","2018","05","23","07:00","0.0","","-0.9","","93","","","","8","","9","","3.2","","97.85","","","","-3","","Snow"
"-139.84","67.57","OLD CROW A","2100801","2018-05-23 08:00","2018","05","23","08:00","-0.2","","-1.5","","91","","","","7","","14","","3.2","","97.89","","","","-4","","Snow"
"-139.84","67.57","OLD CROW A","2100801","2018-05-23 09:00","2018","05","23","09:00","0.4","","","M","","M","","","36","","9","","6.4","","97.90","","","","","","Snow"
"-139.84","67.57","OLD CROW A","2100801","2018-05-23 10:00","2018","05","23","10:00","0.8","","","M","","M","","","36","","9","","6.4","","97.92","","","","","","Snow"
"-139.84","67.57","OLD CROW A","2100801","2018-05-23 11:00","2018","05","23","11:00","1.5","","-0.6","","86","","","","7","","15","","24.1","","97.94","","","","","","NA"
"-139.84","67.57","OLD CROW A","2100801","2018-05-23 12:00","2018","05","23","12:00","2.8","","-0.4","","79","","","","10","","8","","24.1","","97.95","","","","","","NA"
"-139.84","67.57","OLD CROW A","2100801","2018-05-23 13:00","2018","05","23","13:00","3.4","","-0.1","","78","","","","7","","6","","56.3","","97.98","","","","","","Cloudy"
"-139.84","67.57","OLD CROW A","2100801","2018-05-23 14:00","2018","05","23","14:00","4.0","","-0.7","","71","","","","8","","12","","56.3","","97.97","","","","","","NA"
"-139.84","67.57","OLD CROW A","2100801","2018-05-23 15:00","2018","05","23","15:00","4.9","","-0.6","","68","","","","9","","5","","24.1","","97.95","","","","","","NA"
"-139.84","67.57","OLD CROW A","2100801","2018-05-23 16:00","2018","05","23","16:00","5.1","","-0.8","","65","","","","7","","10","","56.3","","97.93","","","","","","Cloudy"
"-139.84","67.57","OLD CROW A","2100801","2018-05-23 17:00","2018","05","23","17:00","5.0","","-1.1","","64","","","","6","","14","","56.3","","97.93","","","","","","NA"
"-139.84","67.57","OLD CROW A","2100801","2018-05-23 18:00","2018","05","23","18:00"
"-139.84","67.57","OLD CROW A","2100801","2018-05-23 19:00","2018","05","23","19:00"
"-139.84","67.57","OLD CROW A","2100801","2018-05-23 20:00","2018","05","23","20:00"
"-139.84","67.57","OLD CROW A","2100801","2018-05-23 21:00","2018","05","23","21:00"
"-139.84","67.57","OLD CROW A","2100801","2018-05-23 22:00","2018","05","23","22:00"
"-139.84","67.57","OLD CROW A","2100801","2018-05-23 23:00","2018","05","23","23:00"
"-139.84","67.57","OLD CROW A","2100801","2018-05-24 00:00","2018","05","24","00:00"
"-139.84","67.57","OLD CROW A","2100801","2018-05-24 01:00","2018","05","24","01:00"
"-139.84","67.57","OLD CROW A","2100801","2018-05-24 02:00","2018","05","24","02:00"
"-139.84","67.57","OLD CROW A","2100801","2018-05-24 03:00","2018","05","24","03:00"
"-139.84","67.57","OLD CROW A","2100801","2018-05-24 04:00","2018","05","24","04:00"
"-139.84","67.57","OLD CROW A","2100801","2018-05-24 05:00","2018","05","24","05:00","1.9","","-0.7","","83","","","","3","","13","","4.8","","97.80","","","","","","Fog"
"-139.84","67.57","OLD CROW A","2100801","2018-05-24 06:00","2018","05","24","06:00","1.8","","-0.8","","83","","","","1","","25","","4.8","","97.74","","","","","","Fog"
"-139.84","67.57","OLD CROW A","2100801","2018-05-24 07:00","2018","05","24","07:00","0.6","","-0.8","","90","","","","2","","21","","4.0","","97.78","","","","","","Drizzle,Fog"
"-139.84","67.57","OLD CROW A","2100801","2018-05-24 08:00","2018","05","24","08:00","0.9","","-0.5","","90","","","","6","","15","","4.0","","97.77","","","","","","Drizzle,Fog"
"-139.84","67.57","OLD CROW A","2100801","2018-05-24 09:00","2018","05","24","09:00","1.3","","-0.4","","89","","","","3","","25","","6.4","","97.71","","","","","","Rain,Fog"
"-139.84","67.57","OLD CROW A","2100801","2018-05-24 10:00","2018","05","24","10:00","2.2","","-0.4","","83","","","","3","","26","","11.3","","97.70","","","","","","Cloudy"
"-139.84","67.57","OLD CROW A","2100801","2018-05-24 11:00","2018","05","24","11:00","2.5","","-0.2","","82","","","","3","","25","","32.2","","97.71","","","","","","NA"
"-139.84","67.57","OLD CROW A","2100801","2018-05-24 12:00","2018","05","24","12:00","3.5","","0.0","","78","","","","3","","23","","32.2","","97.70","","","","","","NA"
"-139.84","67.57","OLD CROW A","2100801","2018-05-24 13:00","2018","05","24","13:00","4.9","","0.1","","71","","","","","","","M","32.2","","97.67","","","","","","Mostly Cloudy"
"-139.84","67.57","OLD CROW A","2100801","2018-05-24 14:00","2018","05","24","14:00","6.7","","0.7","","66","","","","2","","19","","40.2","","97.66","","","","","","NA"
"-139.84","67.57","OLD CROW A","2100801","2018-05-24 15:00","2018","05","24","15:00","7.1","","0.5","","63","","","","5","","23","","48.3","","97.66","","","","","","NA"
"-139.84","67.57","OLD CROW A","2100801","2018-05-24 16:00","2018","05","24","16:00","6.2","","0.5","","67","","","","6","","20","","48.3","","97.62","","","","","","Cloudy"
"-139.84","67.57","OLD CROW A","2100801","2018-05-24 17:00","2018","05","24","17:00","6.0","","0.4","","67","","","","4","","28","","56.3","","97.59","","","","","","NA"
"-139.84","67.57","OLD CROW A","2100801","2018-05-24 18:00","2018","05","24","18:00"
"-139.84","67.57","OLD CROW A","2100801","2018-05-24 19:00","2018","05","24","19:00"
"-139.84","67.57","OLD CROW A","2100801","2018-05-24 20:00","2018","05","24","20:00"
"-139.84","67.57","OLD CROW A","2100801","2018-05-24 21:00","2018","05","24","21:00"
"-139.84","67.57","OLD CROW A","2100801","2018-05-24 22:00","2018","05","24","22:00"
"-139.84","67.57","OLD CROW A","2100801","2018-05-24 23:00","2018","05","24","23:00"
"-139.84","67.57","OLD CROW A","2100801","2018-05-25 00:00","2018","05","25","00:00"
"-139.84","67.57","OLD CROW A","2100801","2018-05-25 01:00","2018","05","25","01:00"
"-139.84","67.57","OLD CROW A","2100801","2018-05-25 02:00","2018","05","25","02:00"
"-139.84","67.57","OLD CROW A","2100801","2018-05-25 03:00","2018","05","25","03:00"
"-139.84","67.57","OLD CROW A","2100801","2018-05-25 04:00","2018","05","25","04:00"
"-139.84","67.57","OLD CROW A","2100801","2018-05-25 05:00","2018","05","25","05:00","-1.6","","-2.9","","91","","","","7","","10","","4.0","","97.76","","","","-5","","Snow"
"-139.84","67.57","OLD CROW A","2100801","2018-05-25 06:00","2018","05","25","06:00","-1.7","","-3.4","","89","","","","7","","10","","4.0","","97.76","","","","-5","","Snow"
"-139.84","67.57","OLD CROW A","2100801","2018-05-25 07:00","2018","05","25","07:00","-1.6","","-3.5","","87","","","","5","","11","","6.4","","97.76","","","","-5","","Snow"
"-139.84","67.57","OLD CROW A","2100801","2018-05-25 08:00","2018","05","25","08:00","-1.6","","-3.8","","85","","","","6","","17","","6.4","","97.79","","","","-7","","Snow"
"-139.84","67.57","OLD CROW A","2100801","2018-05-25 09:00","2018","05","25","09:00","-1.6","","-3.3","","88","","","","6","","11","","3.2","","97.80","","","","-5","","Snow"
"-139.84","67.57","OLD CROW A","2100801","2018-05-25 10:00","2018","05","25","10:00","-1.0","","-2.5","","90","","","","8","","6","","3.6","","97.79","","","","-3","","Snow"
"-139.84","67.57","OLD CROW A","2100801","2018-05-25 11:00","2018","05","25","11:00","-0.7","","-3.0","","84","","","","8","","6","","3.2","","97.81","","","","-3","","Snow,Fog"
"-139.84","67.57","OLD CROW A","2100801","2018-05-25 12:00","2018","05","25","12:00","-0.7","","-2.5","","88","","","","7","","10","","2.4","","97.84","","","","-4","","Snow,Fog"
"-139.84","67.57","OLD CROW A","2100801","2018-05-25 13:00","2018","05","25","13:00","0.3","","-1.8","","86","","","","9","","6","","4.0","","97.83","","","","","","Snow,Fog"
"-139.84","67.57","OLD CROW A","2100801","2018-05-25 14:00","2018","05","25","14:00","1.4","","-1.9","","79","","","","7","","5","","","M","97.81","","","","","","NA"
"-139.84","67.57","OLD CROW A","2100801","2018-05-25 15:00","2018","05","25","15:00","2.2","","-2.1","","73","","","","7","","12","","32.2","","97.78","","","","","","NA"
"-139.84","67.57","OLD CROW A","2100801","2018-05-25 16:00","2018","05","25","16:00","2.8","","-2.2","","69","","","","8","","12","","32.2","","97.78","","","","","","Cloudy"
"-139.84","67.57","OLD CROW A","2100801","2018-05-25 17:00","2018","05","25","17:00","2.7","","-2.0","","71","","","","9","","9","","56.3","","97.77","","","","","","NA"
"-139.84","67.57","OLD CROW A","2100801","2018-05-25 18:00","2018","05","25","18:00"
"-139.84","67.57","OLD CROW A","2100801","2018-05-25 19:00","2018","05","25","19:00"
"-139.84","67.57","OLD CROW A","2100801","2018-05-25 20:00","2018","05","25","20:00"
"-139.84","67.57","OLD CROW A","2100801","2018-05-25 21:00","2018","05","25","21:00"
"-139.84","67.57","OLD CROW A","2100801","2018-05-25 22:00","2018","05","25","22:00"
"-139.84","67.57","OLD CROW A","2100801","2018-05-25 23:00","2018","05","25","23:00"
"-139.84","67.57","OLD CROW A","2100801","2018-05-26 00:00","2018","05","26","00:00"
"-139.84","67.57","OLD CROW A","2100801","2018-05-26 01:00","2018","05","26","01:00"
"-139.84","67.57","OLD CROW A","2100801","2018-05-26 02:00","2018","05","26","02:00"
"-139.84","67.57","OLD CROW A","2100801","2018-05-26 03:00","2018","05","26","03:00"
"-139.84","67.57","OLD CROW A","2100801","2018-05-26 04:00","2018","05","26","04:00"
"-139.84","67.57","OLD CROW A","2100801","2018-05-26 05:00","2018","05","26","05:00","-2.6","","-6.3","","76","","","","10","","4","","56.3","","97.97","","","","-4","","NA"
"-139.84","67.57","OLD CROW A","2100801","2018-05-26 06:00","2018","05","26","06:00","-2.0","","-5.8","","75","","","","7","","8","","56.3","","97.97","","","","-5","","NA"
"-139.84","67.57","OLD CROW A","2100801","2018-05-26 07:00","2018","05","26","07:00","-1.3","","-5.3","","74","","","","4","","13","","56.3","","97.98","","","","-6","","Mostly Cloudy"
"-139.84","67.57","OLD CROW A","2100801","2018-05-26 08:00","2018","05","26","08:00","-0.6","","-5.3","","70","","","","7","","16","","56.3","","97.97","","","","-5","","NA"
"-139.84","67.57","OLD CROW A","2100801","2018-05-26 09:00","2018","05","26","09:00","0.0","","-5.0","","69","","","","8","","17","","56.3","","97.99","","","","-5","","NA"
"-139.84","67.57","OLD CROW A","2100801","2018-05-26 10:00","2018","05","26","10:00","0.4","","-4.6","","69","","","","7","","17","","56.3","","98.01","","","","","","Mostly Cloudy"
"-139.84","67.57","OLD CROW A","2100801","2018-05-26 11:00","2018","05","26","11:00","0.5","","-3.6","","74","","","","6","","16","","56.3","","98.03","","","","","","NA"
"-139.84","67.57","OLD CROW A","2100801","2018-05-26 12:00","2018","05","26","12:00","2.1","","-3.8","","65","","","","8","","18","","56.3","","98.03","","","","","","NA"
"-139.84","67.57","OLD CROW A","2100801","2018-05-26 13:00","2018","05","26","13:00","3.8","","-3.0","","61","","","","8","","26","","56.3","","98.01","","","","","","Mostly Cloudy"
"-139.84","67.57","OLD CROW A","2100801","2018-05-26 14:00","2018","05","26","14:00","4.7","","-2.8","","58","","","","7","","22","","56.3","","98.01","","","","","","NA"
"-139.84","67.57","OLD CROW A","2100801","2018-05-26 15:00","2018","05","26","15:00","3.3","","-3.6","","61","","","","6","","27","","56.3","","98.01","","","","","","NA"
"-139.84","67.57","OLD CROW A","2100801","2018-05-26 16:00","2018","05","26","16:00","3.8","","-3.7","","58","","","","7","","28","","56.3","","97.99","","","","","","Mostly Cloudy"
"-139.84","67.57","OLD CROW A","2100801","2018-05-26 17:00","2018","05","26","17:00","3.8","","-4.0","","57","","","","7","","26","","56.3","","98.00","","","","","","NA"
"-139.84","67.57","OLD CROW A","2100801","2018-05-26 18:00","2018","05","26","18:00"
"-139.84","67.57","OLD CROW A","2100801","2018-05-26 19:00","2018","05","26","19:00"
"-139.84","67.57","OLD CROW A","2100801","2018-05-26 20:00","2018","05","26","20:00"
"-139.84","67.57","OLD CROW A","2100801","2018-05-26 21:00","2018","05","26","21:00"
"-139.84","67.57","OLD CROW A","2100801","2018-05-26 22:00","2018","05","26","22:00"
"-139.84","67.57","OLD CROW A","2100801","2018-05-26 23:00","2018","05","26","23:00"
"-139.84","67.57","OLD CROW A","2100801","2018-05-27 00:00","2018","05","27","00:00"
"-139.84","67.57","OLD CROW A","2100801","2018-05-27 01:00","2018","05","27","01:00"
"-139.84","67.57","OLD CROW A","2100801","2018-05-27 02:00","2018","05","27","02:00"
"-139.84","67.57","OLD CROW A","2100801","2018-05-27 03:00","2018","05","27","03:00"
"-139.84","67.57","OLD CROW A","2100801","2018-05-27 04:00","2018","05","27","04:00"
"-139.84","67.57","OLD CROW A","2100801","2018-05-27 05:00","2018","05","27","05:00","-3.5","","-8.4","","69","","","","5","","20","","56.3","","98.36","","","","-10","","NA"
"-139.84","67.57","OLD CROW A","2100801","2018-05-27 06:00","2018","05","27","06:00","-3.1","","-8.0","","69","","","","6","","21","","56.3","","98.37","","","","-9","","NA"
"-139.84","67.57","OLD CROW A","2100801","2018-05-27 07:00","2018","05","27","07:00","-2.3","","-7.3","","68","","","","5","","26","","56.3","","98.38","","","","-9","","Mostly Cloudy"
"-139.84","67.57","OLD CROW A","2100801","2018-05-27 08:00","2018","05","27","08:00","-0.9","","-7.1","","63","","","","4","","23","","56.3","","98.40","","","","-7","","NA"
"-139.84","67.57","OLD CROW A","2100801","2018-05-27 09:00","2018","05","27","09:00","0.4","","-6.2","","61","","","","4","","13","","56.3","","98.39","","","","","","NA"
"-139.84","67.57","OLD CROW A","2100801","2018-05-27 10:00","2018","05","27","10:00","2.0","","-5.1","","59","","","","4","","14","","56.3","","98.38","","","","","","Mostly Cloudy"
"-139.84","67.57","OLD CROW A","2100801","2018-05-27 11:00","2018","05","27","11:00","3.8","","-4.6","","55","","","","6","","14","","56.3","","98.38","","","","","","NA"
"-139.84","67.57","OLD CROW A","2100801","2018-05-27 12:00","2018","05","27","12:00","6.5","","-3.3","","49","","","","8","","14","","56.3","","98.39","","","","","","NA"
"-139.84","67.57","OLD CROW A","2100801","2018-05-27 13:00","2018","05","27","13:00","6.9","","-2.8","","50","","","","8","","16","","56.3","","98.38","","","","","","Mostly Cloudy"
"-139.84","67.57","OLD CROW A","2100801","2018-05-27 14:00","2018","05","27","14:00","7.3","","-2.7","","49","","","","6","","14","","56.3","","98.36","","","","","","NA"
"-139.84","67.57","OLD CROW A","2100801","2018-05-27 15:00","2018","05","27","15:00","7.2","","-2.6","","50","","","","7","","10","","56.3","","98.33","","","","","","NA"
"-139.84","67.57","OLD CROW A","2100801","2018-05-27 16:00","2018","05","27","16:00","8.9","","-2.1","","46","","","","8","","16","","56.3","","98.29","","","","","","Mostly Cloudy"
"-139.84","67.57","OLD CROW A","2100801","2018-05-27 17:00","2018","05","27","17:00","7.3","","-2.4","","50","","","","6","","18","","56.3","","98.29","","","","","","NA"
"-139.84","67.57","OLD CROW A","2100801","2018-05-27 18:00","2018","05","27","18:00"
"-139.84","67.57","OLD CROW A","2100801","2018-05-27 19:00","2018","05","27","19:00"
"-139.84","67.57","OLD CROW A","2100801","2018-05-27 20:00","2018","05","27","20:00"
"-139.84","67.57","OLD CROW A","2100801","2018-05-27 21:00","2018","05","27","21:00"
"-139.84","67.57","OLD CROW A","2100801","2018-05-27 22:00","2018","05","27","22:00"
"-139.84","67.57","OLD CROW A","2100801","2018-05-27 23:00","2018","05","27","23:00"
"-139.84","67.57","OLD CROW A","2100801","2018-05-28 00:00","2018","05","28","00:00"
"-139.84","67.57","OLD CROW A","2100801","2018-05-28 01:00","2018","05","28","01:00"
"-139.84","67.57","OLD CROW A","2100801","2018-05-28 02:00","2018","05","28","02:00"
"-139.84","67.57","OLD CROW A","2100801","2018-05-28 03:00","2018","05","28","03:00"
"-139.84","67.57","OLD CROW A","2100801","2018-05-28 04:00","2018","05","28","04:00"
"-139.84","67.57","OLD CROW A","2100801","2018-05-28 05:00","2018","05","28","05:00","-1.7","","-7.5","","65","","","","6","","4","","56.3","","98.45","","","","-3","","NA"
"-139.84","67.57","OLD CROW A","2100801","2018-05-28 06:00","2018","05","28","06:00","-0.7","","-6.5","","65","","","","25","","5","","56.3","","98.46","","","","-2","","NA"
"-139.84","67.57","OLD CROW A","2100801","2018-05-28 07:00","2018","05","28","07:00","0.4","","-5.9","","63","","","","22","","3","","56.3","","98.49","","","","","","Clear"
"-139.84","67.57","OLD CROW A","2100801","2018-05-28 08:00","2018","05","28","08:00","1.8","","-6.4","","55","","","","4","","16","","56.3","","98.49","","","","","","NA"
"-139.84","67.57","OLD CROW A","2100801","2018-05-28 09:00","2018","05","28","09:00","3.6","","-5.1","","53","","","","11","","7","","56.3","","98.50","","","","","","NA"
"-139.84","67.57","OLD CROW A","2100801","2018-05-28 10:00","2018","05","28","10:00","5.2","","-5.3","","47","","","","9","","8","","56.3","","98.47","","","","","","Mainly Clear"
"-139.84","67.57","OLD CROW A","2100801","2018-05-28 11:00","2018","05","28","11:00","6.0","","-6.4","","41","","","","5","","5","","56.3","","98.47","","","","","","NA"
"-139.84","67.57","OLD CROW A","2100801","2018-05-28 12:00","2018","05","28","12:00","8.0","","-4.3","","41","","","","10","","5","","56.3","","98.46","","","","","","NA"
"-139.84","67.57","OLD CROW A","2100801","2018-05-28 13:00","2018","05","28","13:00","8.9","","-5.1","","37","","","","4","","6","","56.3","","98.46","","","","","","Mostly Cloudy"
"-139.84","67.57","OLD CROW A","2100801","2018-05-28 14:00","2018","05","28","14:00","9.2","","-5.2","","36","","","","5","","13","","56.3","","98.46","","","","","","NA"
"-139.84","67.57","OLD CROW A","2100801","2018-05-28 15:00","2018","05","28","15:00","9.8","","-5.9","","33","","","","8","","13","","56.3","","98.42","","","","","","NA"
"-139.84","67.57","OLD CROW A","2100801","2018-05-28 16:00","2018","05","28","16:00","9.9","","-7.5","","29","","","","5","","16","","56.3","","98.43","","","","","","Mainly Clear"
"-139.84","67.57","OLD CROW A","2100801","2018-05-28 17:00","2018","05","28","17:00","9.8","","-9.1","","25","","","","4","","25","","56.3","","98.41","","","","","","NA"
"-139.84","67.57","OLD CROW A","2100801","2018-05-28 18:00","2018","05","28","18:00"
"-139.84","67.57","OLD CROW A","2100801","2018-05-28 19:00","2018","05","28","19:00"
"-139.84","67.57","OLD CROW A","2100801","2018-05-28 20:00","2018","05","28","20:00"
"-139.84","67.57","OLD CROW A","2100801","2018-05-28 21:00","2018","05","28","21:00"
"-139.84","67.57","OLD CROW A","2100801","2018-05-28 22:00","2018","05","28","22:00"
"-139.84","67.57","OLD CROW A","2100801","2018-05-28 23:00","2018","05","28","23:00"
"-139.84","67.57","OLD CROW A","2100801","2018-05-29 00:00","2018","05","29","00:00"
"-139.84","67.57","OLD CROW A","2100801","2018-05-29 01:00","2018","05","29","01:00"
"-139.84","67.57","OLD CROW A","2100801","2018-05-29 02:00","2018","05","29","02:00"
"-139.84","67.57","OLD CROW A","2100801","2018-05-29 03:00","2018","05","29","03:00"
"-139.84","67.57","OLD CROW A","2100801","2018-05-29 04:00","2018","05","29","04:00"
"-139.84","67.57","OLD CROW A","2100801","2018-05-29 05:00","2018","05","29","05:00","-0.7","","-5.8","","68","","","","36","","1","","56.3","","98.51","","","","-1","","NA"
"-139.84","67.57","OLD CROW A","2100801","2018-05-29 06:00","2018","05","29","06:00","2.1","","-6.0","","55","","","","36","","1","","56.3","","98.53","","","","","","NA"
"-139.84","67.57","OLD CROW A","2100801","2018-05-29 07:00","2018","05","29","07:00","5.2","","-5.9","","45","","","","10","","10","","56.3","","98.52","","","","","","Clear"
"-139.84","67.57","OLD CROW A","2100801","2018-05-29 08:00","2018","05","29","08:00","6.4","","-5.2","","43","","","","10","","10","","56.3","","98.51","","","","","","NA"
"-139.84","67.57","OLD CROW A","2100801","2018-05-29 09:00","2018","05","29","09:00","8.0","","-3.6","","44","","","","8","","7","","56.3","","98.48","","","","","","NA"
"-139.84","67.57","OLD CROW A","2100801","2018-05-29 10:00","2018","05","29","10:00","9.4","","-3.3","","40","","","","11","","3","","56.3","","98.44","","","","","","Clear"
"-139.84","67.57","OLD CROW A","2100801","2018-05-29 11:00","2018","05","29","11:00","10.7","","-3.8","","36","","","","7","","12","","56.3","","98.43","","","","","","NA"
"-139.84","67.57","OLD CROW A","2100801","2018-05-29 12:00","2018","05","29","12:00","11.6","","-4.0","","33","","","","9","","4","","56.3","","98.37","","","","","","NA"
"-139.84","67.57","OLD CROW A","2100801","2018-05-29 13:00","2018","05","29","13:00","13.0","","-3.2","","32","","","","8","","10","","56.3","","98.33","","","","","","Clear"
"-139.84","67.57","OLD CROW A","2100801","2018-05-29 14:00","2018","05","29","14:00","14.6","","-3.7","","28","","","","11","","8","","56.3","","98.29","","","","","","NA"
"-139.84","67.57","OLD CROW A","2100801","2018-05-29 15:00","2018","05","29","15:00","15.2","","-2.7","","29","","","","11","","7","","56.3","","98.24","","","","","","NA"
"-139.84","67.57","OLD CROW A","2100801","2018-05-29 16:00","2018","05","29","16:00","14.9","","-3.4","","28","","","","11","","7","","56.3","","98.20","","","","","","Clear"
"-139.84","67.57","OLD CROW A","2100801","2018-05-29 17:00","2018","05","29","17:00","15.8","","-2.8","","28","","","","10","","10","","56.3","","98.16","","","","","","NA"
"-139.84","67.57","OLD CROW A","2100801","2018-05-29 18:00","2018","05","29","18:00"
"-139.84","67.57","OLD CROW A","2100801","2018-05-29 19:00","2018","05","29","19:00"
"-139.84","67.57","OLD CROW A","2100801","2018-05-29 20:00","2018","05","29","20:00"
"-139.84","67.57","OLD CROW A","2100801","2018-05-29 21:00","2018","05","29","21:00"
"-139.84","67.57","OLD CROW A","2100801","2018-05-29 22:00","2018","05","29","22:00"
"-139.84","67.57","OLD CROW A","2100801","2018-05-29 23:00","2018","05","29","23:00"
"-139.84","67.57","OLD CROW A","2100801","2018-05-30 00:00","2018","05","30","00:00"
"-139.84","67.57","OLD CROW A","2100801","2018-05-30 01:00","2018","05","30","01:00"
"-139.84","67.57","OLD CROW A","2100801","2018-05-30 02:00","2018","05","30","02:00"
"-139.84","67.57","OLD CROW A","2100801","2018-05-30 03:00","2018","05","30","03:00"
"-139.84","67.57","OLD CROW A","2100801","2018-05-30 04:00","2018","05","30","04:00"
"-139.84","67.57","OLD CROW A","2100801","2018-05-30 05:00","2018","05","30","05:00","6.8","","0.4","","64","","","","3","","6","","56.3","","98.11","","","","","","NA"
"-139.84","67.57","OLD CROW A","2100801","2018-05-30 06:00","2018","05","30","06:00","9.3","","0.2","","53","","","","36","","2","","56.3","","98.11","","","","","","NA"
"-139.84","67.57","OLD CROW A","2100801","2018-05-30 07:00","2018","05","30","07:00","10.4","","0.6","","50","","","","0","","1","","56.3","","98.11","","","","","","Clear"
"-139.84","67.57","OLD CROW A","2100801","2018-05-30 08:00","2018","05","30","08:00","11.8","","1.1","","48","","","","27","","7","","56.3","","98.11","","","","","","NA"
"-139.84","67.57","OLD CROW A","2100801","2018-05-30 09:00","2018","05","30","09:00","14.4","","1.4","","41","","","","24","","8","","56.3","","98.09","","","","","","NA"
"-139.84","67.57","OLD CROW A","2100801","2018-05-30 10:00","2018","05","30","10:00","16.0","","1.4","","37","","","","22","","8","","56.3","","98.07","","","","","","Clear"
"-139.84","67.57","OLD CROW A","2100801","2018-05-30 11:00","2018","05","30","11:00","16.9","","1.8","","36","","","","24","","10","","56.3","","98.04","","","","","","NA"
"-139.84","67.57","OLD CROW A","2100801","2018-05-30 12:00","2018","05","30","12:00","17.9","","0.8","","31","","","","19","","10","","56.3","","98.02","","","","","","NA"
"-139.84","67.57","OLD CROW A","2100801","2018-05-30 13:00","2018","05","30","13:00","17.7","","0.1","","30","","","","26","","14","","56.3","","98.03","","","","","","Mostly Cloudy"
"-139.84","67.57","OLD CROW A","2100801","2018-05-30 14:00","2018","05","30","14:00","18.6","","0.9","","30","","","","24","","13","","56.3","","97.99","","","","","","NA"
"-139.84","67.57","OLD CROW A","2100801","2018-05-30 15:00","2018","05","30","15:00","18.7","","0.0","","28","","","","27","","17","","56.3","","97.97","","","","","","NA"
"-139.84","67.57","OLD CROW A","2100801","2018-05-30 16:00","2018","05","30","16:00","19.4","","-0.5","","26","","","","26","","7","","56.3","","97.94","","","","","","Mostly Cloudy"
"-139.84","67.57","OLD CROW A","2100801","2018-05-30 17:00","2018","05","30","17:00","19.5","","-1.0","","25","","","","26","","10","","56.3","","97.92","","","","","","NA"
"-139.84","67.57","OLD CROW A","2100801","2018-05-30 18:00","2018","05","30","18:00"
"-139.84","67.57","OLD CROW A","2100801","2018-05-30 19:00","2018","05","30","19:00"
"-139.84","67.57","OLD CROW A","2100801","2018-05-30 20:00","2018","05","30","20:00"
"-139.84","67.57","OLD CROW A","2100801","2018-05-30 21:00","2018","05","30","21:00"
"-139.84","67.57","OLD CROW A","2100801","2018-05-30 22:00","2018","05","30","22:00"
"-139.84","67.57","OLD CROW A","2100801","2018-05-30 23:00","2018","05","30","23:00"
"-139.84","67.57","OLD CROW A","2100801","2018-05-31 00:00","2018","05","31","00:00"
"-139.84","67.57","OLD CROW A","2100801","2018-05-31 01:00","2018","05","31","01:00"
"-139.84","67.57","OLD CROW A","2100801","2018-05-31 02:00","2018","05","31","02:00"
"-139.84","67.57","OLD CROW A","2100801","2018-05-31 03:00","2018","05","31","03:00"
"-139.84","67.57","OLD CROW A","2100801","2018-05-31 04:00","2018","05","31","04:00"
"-139.84","67.57","OLD CROW A","2100801","2018-05-31 05:00","2018","05","31","05:00","5.9","","2.1","","77","","","","3","","3","","56.3","","98.04","","","","","","NA"
"-139.84","67.57","OLD CROW A","2100801","2018-05-31 06:00","2018","05","31","06:00","7.5","","2.4","","70","","","","11","","3","","","M","98.06","","","","","","NA"
"-139.84","67.57","OLD CROW A","2100801","2018-05-31 07:00","2018","05","31","07:00","10.7","","2.6","","57","","","","36","","2","","56.3","","98.08","","","","","","Mostly Cloudy"
"-139.84","67.57","OLD CROW A","2100801","2018-05-31 08:00","2018","05","31","08:00","13.5","","2.2","","46","","","","26","","10","","56.3","","98.06","","","","","","NA"
"-139.84","67.57","OLD CROW A","2100801","2018-05-31 09:00","2018","05","31","09:00","14.0","","2.6","","46","","","","26","","8","","56.3","","98.04","","","","","","NA"
"-139.84","67.57","OLD CROW A","2100801","2018-05-31 10:00","2018","05","31","10:00","16.8","","2.1","","37","","","","23","","8","","56.3","","98.01","","","","","","Mostly Cloudy"
"-139.84","67.57","OLD CROW A","2100801","2018-05-31 11:00","2018","05","31","11:00","17.1","","1.7","","35","","","","28","","7","","56.3","","98.00","","","","","","NA"
"-139.84","67.57","OLD CROW A","2100801","2018-05-31 12:00","2018","05","31","12:00","17.3","","1.2","","34","","","","11","","3","","56.3","","97.96","","","","","","NA"
"-139.84","67.57","OLD CROW A","2100801","2018-05-31 13:00","2018","05","31","13:00","17.8","","1.5","","33","","","","31","","3","","56.3","","97.91","","","","","","Mostly Cloudy"
"-139.84","67.57","OLD CROW A","2100801","2018-05-31 14:00","2018","05","31","14:00","19.1","","1.0","","29","","","","12","","6","","56.3","","97.87","","","","","","NA"
"-139.84","67.57","OLD CROW A","2100801","2018-05-31 15:00","2018","05","31","15:00","18.7","","-0.5","","27","","","","18","","4","","56.3","","97.82","","","","","","NA"
"-139.84","67.57","OLD CROW A","2100801","2018-05-31 16:00","2018","05","31","16:00","19.1","","0.3","","28","","","","6","","13","","56.3","","97.81","","","","","","Mostly Cloudy"
"-139.84","67.57","OLD CROW A","2100801","2018-05-31 17:00","2018","05","31","17:00","15.8","","3.9","","45","","","","9","","19","","56.3","","97.87","","","","","","NA"
"-139.84","67.57","OLD CROW A","2100801","2018-05-31 18:00","2018","05","31","18:00"
"-139.84","67.57","OLD CROW A","2100801","2018-05-31 19:00","2018","05","31","19:00"
"-139.84","67.57","OLD CROW A","2100801","2018-05-31 20:00","2018","05","31","20:00"
"-139.84","67.57","OLD CROW A","2100801","2018-05-31 21:00","2018","05","31","21:00"
"-139.84","67.57","OLD CROW A","2100801","2018-05-31 22:00","2018","05","31","22:00"
"-139.84","67.57","OLD CROW A","2100801","2018-05-31 23:00","2018","05","31","23:00"
