"Longitude (x)","Latitude (y)","Station Name","Climate ID","Date/Time (LST)","Year","Month","Day","Time (LST)","Temp (°C)","Temp Flag","Dew Point Temp (°C)","Dew Point Temp Flag","Rel Hum (%)","Rel Hum Flag","Precip. Amount (mm)","Precip. Amount Flag","Wind Dir (10s deg)","Wind Dir Flag","Wind Spd (km/h)","Wind Spd Flag","Visibility (km)","Visibility Flag","Stn Press (kPa)","Stn Press Flag","Hmdx","Hmdx Flag","Wind Chill","Wind Chill Flag","Weather"
"-139.84","67.57","OLD CROW A","2100801","2018-09-01 00:00","2018","09","01","00:00"
"-139.84","67.57","OLD CROW A","2100801","2018-09-01 01:00","2018","09","01","01:00"
"-139.84","67.57","OLD CROW A","2100801","2018-09-01 02:00","2018","09","01","02:00"
"-139.84","67.57","OLD CROW A","2100801","2018-09-01 03:00","2018","09","01","03:00"
"-139.84","67.57","OLD CROW A","2100801","2018-09-01 04:00","2018","09","01","04:00"
"-139.84","67.57","OLD CROW A","2100801","2018-09-01 05:00","2018","09","01","05:00","6.8","","1.4","","68","","","","26","","32","","24.1","","97.02","","","","","","NA"
"-139.84","67.57","OLD CROW A","2100801","2018-09-01 06:00","2018","09","01","06:00","6.6","","1.5","","70","","","","25","","32","","56.3","","96.99","","","","","","NA"
"-139.84","67.57","OLD CROW A","2100801","2018-09-01 07:00","2018","09","01","07:00","6.6","","1.8","","71","","","","25","","30","","56.3","","96.99","","","","","","Cloudy"
"-139.84","67.57","OLD CROW A","2100801","2018-09-01 08:00","2018","09","01","08:00","7.0","","2.0","","71","","","","25","","31","","56.3","","97.00","","","","","","NA"
"-139.84","67.57","OLD CROW A","2100801","2018-09-01 09:00","2018","09","01","09:00","7.2","","2.5","","72","","","","25","","25","","56.3","","97.02","","","","","","NA"
"-139.84","67.57","OLD CROW A","2100801","2018-09-01 10:00","2018","09","01","10:00","7.6","","2.8","","72","","","","26","","40","","56.3","","97.00","","","","","","Mostly Cloudy"
"-139.84","67.57","OLD CROW A","2100801","2018-09-01 11:00","2018","09","01","11:00","8.1","","3.4","","72","","","","26","","37","","56.3","","97.02","","","","","","NA"
"-139.84","67.57","OLD CROW A","2100801","2018-09-01 12:00","2018","09","01","12:00","8.3","","3.8","","73","","","","26","","30","","56.3","","97.07","","","","","","NA"
"-139.84","67.57","OLD CROW A","2100801","2018-09-01 13:00","2018","09","01","13:00","8.6","","4.2","","74","","","","25","","23","","56.3","","97.11","","","","","","Cloudy"
"-139.84","67.57","OLD CROW A","2100801","2018-09-01 14:00","2018","09","01","14:00","9.2","","4.8","","74","","","","26","","17","","56.3","","97.13","","","","","","NA"
"-139.84","67.57","OLD CROW A","2100801","2018-09-01 15:00","2018","09","01","15:00","9.6","","5.0","","73","","","","25","","23","","56.3","","97.13","","","","","","NA"
"-139.84","67.57","OLD CROW A","2100801","2018-09-01 16:00","2018","09","01","16:00","9.7","","5.3","","74","","","","26","","22","","56.3","","97.11","","","","","","Cloudy"
"-139.84","67.57","OLD CROW A","2100801","2018-09-01 17:00","2018","09","01","17:00","9.0","","6.3","","83","","","","26","","16","","48.3","","97.13","","","","","","Rain"
"-139.84","67.57","OLD CROW A","2100801","2018-09-01 18:00","2018","09","01","18:00"
"-139.84","67.57","OLD CROW A","2100801","2018-09-01 19:00","2018","09","01","19:00"
"-139.84","67.57","OLD CROW A","2100801","2018-09-01 20:00","2018","09","01","20:00"
"-139.84","67.57","OLD CROW A","2100801","2018-09-01 21:00","2018","09","01","21:00"
"-139.84","67.57","OLD CROW A","2100801","2018-09-01 22:00","2018","09","01","22:00"
"-139.84","67.57","OLD CROW A","2100801","2018-09-01 23:00","2018","09","01","23:00"
"-139.84","67.57","OLD CROW A","2100801","2018-09-02 00:00","2018","09","02","00:00"
"-139.84","67.57","OLD CROW A","2100801","2018-09-02 01:00","2018","09","02","01:00"
"-139.84","67.57","OLD CROW A","2100801","2018-09-02 02:00","2018","09","02","02:00"
"-139.84","67.57","OLD CROW A","2100801","2018-09-02 03:00","2018","09","02","03:00"
"-139.84","67.57","OLD CROW A","2100801","2018-09-02 04:00","2018","09","02","04:00"
"-139.84","67.57","OLD CROW A","2100801","2018-09-02 05:00","2018","09","02","05:00","-4.3","","-5.7","","91","","","","30","","4","","24.1","","98.59","","","","-6","","NA"
"-139.84","67.57","OLD CROW A","2100801","2018-09-02 06:00","2018","09","02","06:00","-4.3","","-5.5","","91","","","","36","","3","","56.3","","98.63","","","","-6","","NA"
"-139.84","67.57","OLD CROW A","2100801","2018-09-02 07:00","2018","09","02","07:00","-2.0","","-3.8","","87","","","","28","","7","","56.3","","98.69","","","","-5","","Mostly Cloudy"
"-139.84","67.57","OLD CROW A","2100801","2018-09-02 08:00","2018","09","02","08:00","-1.7","","-3.3","","89","","","","26","","4","","56.3","","98.76","","","","-3","","NA"
"-139.84","67.57","OLD CROW A","2100801","2018-09-02 09:00","2018","09","02","09:00","-1.5","","-3.9","","84","","","","31","","7","","56.3","","98.77","","","","-4","","NA"
"-139.84","67.57","OLD CROW A","2100801","2018-09-02 10:00","2018","09","02","10:00","0.0","","-5.3","","68","","","","25","","4","","56.3","","98.79","","","","-1","","Cloudy"
"-139.84","67.57","OLD CROW A","2100801","2018-09-02 11:00","2018","09","02","11:00","0.8","","-4.9","","66","","","","28","","3","","56.3","","98.83","","","","","","NA"
"-139.84","67.57","OLD CROW A","2100801","2018-09-02 12:00","2018","09","02","12:00","0.7","","-3.2","","75","","","","14","","5","","56.3","","98.84","","","","","","NA"
"-139.84","67.57","OLD CROW A","2100801","2018-09-02 13:00","2018","09","02","13:00","1.2","","-4.0","","69","","","","13","","4","","56.3","","98.86","","","","","","Mostly Cloudy"
"-139.84","67.57","OLD CROW A","2100801","2018-09-02 14:00","2018","09","02","14:00","2.1","","-2.8","","70","","","","14","","3","","56.3","","98.86","","","","","","NA"
"-139.84","67.57","OLD CROW A","2100801","2018-09-02 15:00","2018","09","02","15:00","4.1","","-2.1","","64","","","","20","","6","","56.3","","98.86","","","","","","NA"
"-139.84","67.57","OLD CROW A","2100801","2018-09-02 16:00","2018","09","02","16:00","4.3","","-2.6","","61","","","","25","","5","","56.3","","98.86","","","","","","Mostly Cloudy"
"-139.84","67.57","OLD CROW A","2100801","2018-09-02 17:00","2018","09","02","17:00","5.0","","-2.0","","60","","","","18","","3","","56.3","","98.84","","","","","","NA"
"-139.84","67.57","OLD CROW A","2100801","2018-09-02 18:00","2018","09","02","18:00"
"-139.84","67.57","OLD CROW A","2100801","2018-09-02 19:00","2018","09","02","19:00"
"-139.84","67.57","OLD CROW A","2100801","2018-09-02 20:00","2018","09","02","20:00"
"-139.84","67.57","OLD CROW A","2100801","2018-09-02 21:00","2018","09","02","21:00"
"-139.84","67.57","OLD CROW A","2100801","2018-09-02 22:00","2018","09","02","22:00"
"-139.84","67.57","OLD CROW A","2100801","2018-09-02 23:00","2018","09","02","23:00"
"-139.84","67.57","OLD CROW A","2100801","2018-09-03 00:00","2018","09","03","00:00"
"-139.84","67.57","OLD CROW A","2100801","2018-09-03 01:00","2018","09","03","01:00"
"-139.84","67.57","OLD CROW A","2100801","2018-09-03 02:00","2018","09","03","02:00"
"-139.84","67.57","OLD CROW A","2100801","2018-09-03 03:00","2018","09","03","03:00"
"-139.84","67.57","OLD CROW A","2100801","2018-09-03 04:00","2018","09","03","04:00"
"-139.84","67.57","OLD CROW A","2100801","2018-09-03 05:00","2018","09","03","05:00","2.2","","-0.7","","81","","","","24","","10","","56.3","","98.51","","","","","","NA"
"-139.84","67.57","OLD CROW A","2100801","2018-09-03 06:00","2018","09","03","06:00","1.7","","-0.5","","86","","","","23","","8","","56.3","","98.43","","","","","","NA"
"-139.84","67.57","OLD CROW A","2100801","2018-09-03 07:00","2018","09","03","07:00","4.6","","1.7","","81","","","","23","","17","","48.3","","98.43","","","","","","Cloudy"
"-139.84","67.57","OLD CROW A","2100801","2018-09-03 08:00","2018","09","03","08:00","4.6","","3.2","","90","","","","24","","18","","24.1","","98.41","","","","","","Rain"
"-139.84","67.57","OLD CROW A","2100801","2018-09-03 09:00","2018","09","03","09:00","5.1","","3.7","","91","","","","22","","8","","32.2","","98.41","","","","","","Rain"
"-139.84","67.57","OLD CROW A","2100801","2018-09-03 10:00","2018","09","03","10:00","6.7","","5.3","","91","","","","26","","18","","32.2","","98.40","","","","","","Rain"
"-139.84","67.57","OLD CROW A","2100801","2018-09-03 11:00","2018","09","03","11:00","7.2","","5.8","","91","","","","25","","16","","24.1","","98.37","","","","","","Rain"
"-139.84","67.57","OLD CROW A","2100801","2018-09-03 12:00","2018","09","03","12:00","8.4","","6.0","","85","","","","25","","19","","48.3","","98.34","","","","","","NA"
"-139.84","67.57","OLD CROW A","2100801","2018-09-03 13:00","2018","09","03","13:00","8.6","","6.4","","86","","","","23","","18","","48.3","","98.32","","","","","","Cloudy"
"-139.84","67.57","OLD CROW A","2100801","2018-09-03 14:00","2018","09","03","14:00","9.7","","6.6","","81","","","","26","","26","","56.3","","98.29","","","","","","NA"
"-139.84","67.57","OLD CROW A","2100801","2018-09-03 15:00","2018","09","03","15:00","10.1","","6.9","","80","","","","26","","19","","56.3","","98.25","","","","","","NA"
"-139.84","67.57","OLD CROW A","2100801","2018-09-03 16:00","2018","09","03","16:00","10.9","","6.6","","75","","","","26","","32","","56.3","","98.23","","","","","","Cloudy"
"-139.84","67.57","OLD CROW A","2100801","2018-09-03 17:00","2018","09","03","17:00","11.1","","6.4","","73","","","","25","","28","","56.3","","98.20","","","","","","NA"
"-139.84","67.57","OLD CROW A","2100801","2018-09-03 18:00","2018","09","03","18:00"
"-139.84","67.57","OLD CROW A","2100801","2018-09-03 19:00","2018","09","03","19:00"
"-139.84","67.57","OLD CROW A","2100801","2018-09-03 20:00","2018","09","03","20:00"
"-139.84","67.57","OLD CROW A","2100801","2018-09-03 21:00","2018","09","03","21:00"
"-139.84","67.57","OLD CROW A","2100801","2018-09-03 22:00","2018","09","03","22:00"
"-139.84","67.57","OLD CROW A","2100801","2018-09-03 23:00","2018","09","03","23:00"
"-139.84","67.57","OLD CROW A","2100801","2018-09-04 00:00","2018","09","04","00:00"
"-139.84","67.57","OLD CROW A","2100801","2018-09-04 01:00","2018","09","04","01:00"
"-139.84","67.57","OLD CROW A","2100801","2018-09-04 02:00","2018","09","04","02:00"
"-139.84","67.57","OLD CROW A","2100801","2018-09-04 03:00","2018","09","04","03:00"
"-139.84","67.57","OLD CROW A","2100801","2018-09-04 04:00","2018","09","04","04:00"
"-139.84","67.57","OLD CROW A","2100801","2018-09-04 05:00","2018","09","04","05:00","3.0","","-1.1","","75","","","","5","","17","","48.3","","98.88","","","","","","NA"
"-139.84","67.57","OLD CROW A","2100801","2018-09-04 06:00","2018","09","04","06:00","2.8","","-1.4","","74","","","","6","","10","","48.3","","98.96","","","","","","NA"
"-139.84","67.57","OLD CROW A","2100801","2018-09-04 07:00","2018","09","04","07:00","2.3","","-2.1","","73","","","","6","","12","","48.3","","99.04","","","","","","Cloudy"
"-139.84","67.57","OLD CROW A","2100801","2018-09-04 08:00","2018","09","04","08:00","2.7","","-1.9","","72","","","","6","","10","","48.3","","99.10","","","","","","NA"
"-139.84","67.57","OLD CROW A","2100801","2018-09-04 09:00","2018","09","04","09:00","3.5","","-0.7","","74","","","","4","","9","","48.3","","99.15","","","","","","NA"
"-139.84","67.57","OLD CROW A","2100801","2018-09-04 10:00","2018","09","04","10:00","4.7","","-1.4","","65","","","","7","","8","","56.3","","99.17","","","","","","Cloudy"
"-139.84","67.57","OLD CROW A","2100801","2018-09-04 11:00","2018","09","04","11:00","5.5","","-0.6","","64","","","","7","","4","","56.3","","99.18","","","","","","NA"
"-139.84","67.57","OLD CROW A","2100801","2018-09-04 12:00","2018","09","04","12:00","6.2","","0.0","","65","","","","36","","1","","48.3","","99.19","","","","","","NA"
"-139.84","67.57","OLD CROW A","2100801","2018-09-04 13:00","2018","09","04","13:00","6.0","","1.8","","74","","","","27","","7","","48.3","","99.18","","","","","","Mainly Clear"
"-139.84","67.57","OLD CROW A","2100801","2018-09-04 14:00","2018","09","04","14:00","5.9","","3.6","","86","","","","25","","3","","24.1","","99.20","","","","","","Drizzle"
"-139.84","67.57","OLD CROW A","2100801","2018-09-04 15:00","2018","09","04","15:00","5.6","","3.9","","89","","","","27","","4","","24.1","","99.20","","","","","","Drizzle"
"-139.84","67.57","OLD CROW A","2100801","2018-09-04 16:00","2018","09","04","16:00","6.2","","3.6","","84","","","","28","","4","","40.2","","99.18","","","","","","Cloudy"
"-139.84","67.57","OLD CROW A","2100801","2018-09-04 17:00","2018","09","04","17:00","6.8","","3.9","","81","","","","21","","4","","48.3","","99.16","","","","","","NA"
"-139.84","67.57","OLD CROW A","2100801","2018-09-04 18:00","2018","09","04","18:00"
"-139.84","67.57","OLD CROW A","2100801","2018-09-04 19:00","2018","09","04","19:00"
"-139.84","67.57","OLD CROW A","2100801","2018-09-04 20:00","2018","09","04","20:00"
"-139.84","67.57","OLD CROW A","2100801","2018-09-04 21:00","2018","09","04","21:00"
"-139.84","67.57","OLD CROW A","2100801","2018-09-04 22:00","2018","09","04","22:00"
"-139.84","67.57","OLD CROW A","2100801","2018-09-04 23:00","2018","09","04","23:00"
"-139.84","67.57","OLD CROW A","2100801","2018-09-05 00:00","2018","09","05","00:00"
"-139.84","67.57","OLD CROW A","2100801","2018-09-05 01:00","2018","09","05","01:00"
"-139.84","67.57","OLD CROW A","2100801","2018-09-05 02:00","2018","09","05","02:00"
"-139.84","67.57","OLD CROW A","2100801","2018-09-05 03:00","2018","09","05","03:00"
"-139.84","67.57","OLD CROW A","2100801","2018-09-05 04:00","2018","09","05","04:00"
"-139.84","67.57","OLD CROW A","2100801","2018-09-05 05:00","2018","09","05","05:00","6.8","","6.3","","97","","","","23","","10","","24.1","","99.16","","","","","","Rain"
"-139.84","67.57","OLD CROW A","2100801","2018-09-05 06:00","2018","09","05","06:00","7.1","","6.5","","96","","","","23","","10","","24.1","","99.19","","","","","","NA"
"-139.84","67.57","OLD CROW A","2100801","2018-09-05 07:00","2018","09","05","07:00","7.0","","6.4","","96","","","","24","","9","","24.1","","99.24","","","","","","Mostly Cloudy"
"-139.84","67.57","OLD CROW A","2100801","2018-09-05 08:00","2018","09","05","08:00","7.2","","6.2","","93","","","","25","","13","","24.1","","99.30","","","","","","NA"
"-139.84","67.57","OLD CROW A","2100801","2018-09-05 09:00","2018","09","05","09:00","7.2","","6.2","","94","","","","23","","10","","24.1","","99.32","","","","","","NA"
"-139.84","67.57","OLD CROW A","2100801","2018-09-05 10:00","2018","09","05","10:00","7.7","","6.2","","90","","","","25","","11","","24.1","","99.35","","","","","","Cloudy"
"-139.84","67.57","OLD CROW A","2100801","2018-09-05 11:00","2018","09","05","11:00","8.5","","6.0","","84","","","","25","","11","","56.3","","99.35","","","","","","NA"
"-139.84","67.57","OLD CROW A","2100801","2018-09-05 12:00","2018","09","05","12:00","9.3","","5.7","","78","","","","26","","15","","56.3","","99.33","","","","","","NA"
"-139.84","67.57","OLD CROW A","2100801","2018-09-05 13:00","2018","09","05","13:00","9.7","","6.0","","77","","","","26","","22","","56.3","","99.33","","","","","","Mostly Cloudy"
"-139.84","67.57","OLD CROW A","2100801","2018-09-05 14:00","2018","09","05","14:00","10.7","","6.5","","75","","","","27","","17","","56.3","","99.28","","","","","","NA"
"-139.84","67.57","OLD CROW A","2100801","2018-09-05 15:00","2018","09","05","15:00","12.6","","6.5","","66","","","","25","","18","","56.3","","99.21","","","","","","NA"
"-139.84","67.57","OLD CROW A","2100801","2018-09-05 16:00","2018","09","05","16:00","12.6","","6.3","","65","","","","26","","23","","56.3","","99.15","","","","","","Mostly Cloudy"
"-139.84","67.57","OLD CROW A","2100801","2018-09-05 17:00","2018","09","05","17:00","11.3","","5.9","","69","","","","26","","18","","56.3","","99.11","","","","","","NA"
"-139.84","67.57","OLD CROW A","2100801","2018-09-05 18:00","2018","09","05","18:00"
"-139.84","67.57","OLD CROW A","2100801","2018-09-05 19:00","2018","09","05","19:00"
"-139.84","67.57","OLD CROW A","2100801","2018-09-05 20:00","2018","09","05","20:00"
"-139.84","67.57","OLD CROW A","2100801","2018-09-05 21:00","2018","09","05","21:00"
"-139.84","67.57","OLD CROW A","2100801","2018-09-05 22:00","2018","09","05","22:00"
"-139.84","67.57","OLD CROW A","2100801","2018-09-05 23:00","2018","09","05","23:00"
"-139.84","67.57","OLD CROW A","2100801","2018-09-06 00:00","2018","09","06","00:00"
"-139.84","67.57","OLD CROW A","2100801","2018-09-06 01:00","2018","09","06","01:00"
"-139.84","67.57","OLD CROW A","2100801","2018-09-06 02:00","2018","09","06","02:00"
"-139.84","67.57","OLD CROW A","2100801","2018-09-06 03:00","2018","09","06","03:00"
"-139.84","67.57","OLD CROW A","2100801","2018-09-06 04:00","2018","09","06","04:00"
"-139.84","67.57","OLD CROW A","2100801","2018-09-06 05:00","2018","09","06","05:00","8.2","","6.8","","90","","","","26","","17","","24.1","","98.54","","","","","","Rain"
"-139.84","67.57","OLD CROW A","2100801","2018-09-06 06:00","2018","09","06","06:00","7.8","","6.7","","93","","","","25","","16","","16.1","","98.53","","","","","","Rain"
"-139.84","67.57","OLD CROW A","2100801","2018-09-06 07:00","2018","09","06","07:00","7.5","","6.6","","94","","","","25","","13","","16.1","","98.53","","","","","","Rain"
"-139.84","67.57","OLD CROW A","2100801","2018-09-06 08:00","2018","09","06","08:00","7.3","","6.7","","96","","","","24","","15","","16.1","","98.53","","","","","","Rain"
"-139.84","67.57","OLD CROW A","2100801","2018-09-06 09:00","2018","09","06","09:00","7.8","","7.2","","96","","","","24","","13","","16.1","","98.55","","","","","","Rain"
"-139.84","67.57","OLD CROW A","2100801","2018-09-06 10:00","2018","09","06","10:00","7.9","","7.0","","94","","","","25","","12","","16.1","","98.57","","","","","","Rain"
"-139.84","67.57","OLD CROW A","2100801","2018-09-06 11:00","2018","09","06","11:00","8.2","","7.0","","92","","","","24","","12","","24.1","","98.58","","","","","","Rain"
"-139.84","67.57","OLD CROW A","2100801","2018-09-06 12:00","2018","09","06","12:00","9.0","","7.3","","89","","","","23","","13","","24.1","","98.60","","","","","","NA"
"-139.84","67.57","OLD CROW A","2100801","2018-09-06 13:00","2018","09","06","13:00","9.3","","7.3","","87","","","","23","","8","","24.1","","98.63","","","","","","Drizzle"
"-139.84","67.57","OLD CROW A","2100801","2018-09-06 14:00","2018","09","06","14:00","8.5","","7.8","","96","","","","36","","1","","16.1","","98.67","","","","","","Rain"
"-139.84","67.57","OLD CROW A","2100801","2018-09-06 15:00","2018","09","06","15:00","9.1","","7.9","","92","","","","25","","3","","16.1","","98.70","","","","","","Rain"
"-139.84","67.57","OLD CROW A","2100801","2018-09-06 16:00","2018","09","06","16:00","7.6","","5.2","","85","","","","4","","31","","16.1","","98.78","","","","","","Rain"
"-139.84","67.57","OLD CROW A","2100801","2018-09-06 17:00","2018","09","06","17:00","4.1","","3.0","","93","","","","4","","25","","16.1","","98.91","","","","","","NA"
"-139.84","67.57","OLD CROW A","2100801","2018-09-06 18:00","2018","09","06","18:00"
"-139.84","67.57","OLD CROW A","2100801","2018-09-06 19:00","2018","09","06","19:00"
"-139.84","67.57","OLD CROW A","2100801","2018-09-06 20:00","2018","09","06","20:00"
"-139.84","67.57","OLD CROW A","2100801","2018-09-06 21:00","2018","09","06","21:00"
"-139.84","67.57","OLD CROW A","2100801","2018-09-06 22:00","2018","09","06","22:00"
"-139.84","67.57","OLD CROW A","2100801","2018-09-06 23:00","2018","09","06","23:00"
"-139.84","67.57","OLD CROW A","2100801","2018-09-07 00:00","2018","09","07","00:00"
"-139.84","67.57","OLD CROW A","2100801","2018-09-07 01:00","2018","09","07","01:00"
"-139.84","67.57","OLD CROW A","2100801","2018-09-07 02:00","2018","09","07","02:00"
"-139.84","67.57","OLD CROW A","2100801","2018-09-07 03:00","2018","09","07","03:00"
"-139.84","67.57","OLD CROW A","2100801","2018-09-07 04:00","2018","09","07","04:00"
"-139.84","67.57","OLD CROW A","2100801","2018-09-07 05:00","2018","09","07","05:00","-1.6","","-3.8","","85","","","","4","","33","","40.2","","99.73","","","","-9","","NA"
"-139.84","67.57","OLD CROW A","2100801","2018-09-07 06:00","2018","09","07","06:00","-1.8","","-4.0","","85","","","","5","","23","","40.2","","99.76","","","","-8","","NA"
"-139.84","67.57","OLD CROW A","2100801","2018-09-07 07:00","2018","09","07","07:00","-1.7","","-4.1","","84","","","","5","","23","","40.2","","99.81","","","","-8","","Mostly Cloudy"
"-139.84","67.57","OLD CROW A","2100801","2018-09-07 08:00","2018","09","07","08:00","-1.8","","-4.1","","84","","","","4","","23","","48.3","","99.83","","","","-8","","NA"
"-139.84","67.57","OLD CROW A","2100801","2018-09-07 09:00","2018","09","07","09:00","-0.6","","-4.1","","77","","","","5","","21","","48.3","","99.84","","","","-6","","NA"
"-139.84","67.57","OLD CROW A","2100801","2018-09-07 10:00","2018","09","07","10:00","0.4","","-3.9","","73","","","","5","","17","","48.3","","99.87","","","","","","Clear"
"-139.84","67.57","OLD CROW A","2100801","2018-09-07 11:00","2018","09","07","11:00","1.6","","-3.4","","70","","","","3","","16","","56.3","","99.88","","","","","","NA"
"-139.84","67.57","OLD CROW A","2100801","2018-09-07 12:00","2018","09","07","12:00","2.9","","-3.2","","64","","","","5","","16","","56.3","","99.90","","","","","","NA"
"-139.84","67.57","OLD CROW A","2100801","2018-09-07 13:00","2018","09","07","13:00","3.8","","-3.3","","60","","","","4","","11","","56.3","","99.90","","","","","","Mainly Clear"
"-139.84","67.57","OLD CROW A","2100801","2018-09-07 14:00","2018","09","07","14:00","4.9","","-4.0","","53","","","","7","","13","","56.3","","99.88","","","","","","NA"
"-139.84","67.57","OLD CROW A","2100801","2018-09-07 15:00","2018","09","07","15:00","6.0","","-3.2","","52","","","","8","","5","","56.3","","99.83","","","","","","NA"
"-139.84","67.57","OLD CROW A","2100801","2018-09-07 16:00","2018","09","07","16:00","6.4","","-3.2","","50","","","","5","","11","","56.3","","99.80","","","","","","Mainly Clear"
"-139.84","67.57","OLD CROW A","2100801","2018-09-07 17:00","2018","09","07","17:00","7.0","","-3.2","","48","","","","3","","9","","56.3","","99.78","","","","","","NA"
"-139.84","67.57","OLD CROW A","2100801","2018-09-07 18:00","2018","09","07","18:00"
"-139.84","67.57","OLD CROW A","2100801","2018-09-07 19:00","2018","09","07","19:00"
"-139.84","67.57","OLD CROW A","2100801","2018-09-07 20:00","2018","09","07","20:00"
"-139.84","67.57","OLD CROW A","2100801","2018-09-07 21:00","2018","09","07","21:00"
"-139.84","67.57","OLD CROW A","2100801","2018-09-07 22:00","2018","09","07","22:00"
"-139.84","67.57","OLD CROW A","2100801","2018-09-07 23:00","2018","09","07","23:00"
"-139.84","67.57","OLD CROW A","2100801","2018-09-08 00:00","2018","09","08","00:00"
"-139.84","67.57","OLD CROW A","2100801","2018-09-08 01:00","2018","09","08","01:00"
"-139.84","67.57","OLD CROW A","2100801","2018-09-08 02:00","2018","09","08","02:00"
"-139.84","67.57","OLD CROW A","2100801","2018-09-08 03:00","2018","09","08","03:00"
"-139.84","67.57","OLD CROW A","2100801","2018-09-08 04:00","2018","09","08","04:00"
"-139.84","67.57","OLD CROW A","2100801","2018-09-08 05:00","2018","09","08","05:00","-1.9","","-4.3","","83","","","","5","","5","","56.3","","99.69","","","","-4","","NA"
"-139.84","67.57","OLD CROW A","2100801","2018-09-08 06:00","2018","09","08","06:00","-2.7","","-4.7","","86","","","","5","","7","","56.3","","99.69","","","","-6","","NA"
"-139.84","67.57","OLD CROW A","2100801","2018-09-08 07:00","2018","09","08","07:00","-3.1","","-4.3","","91","","","","8","","4","","56.3","","99.69","","","","-5","","Mainly Clear"
"-139.84","67.57","OLD CROW A","2100801","2018-09-08 08:00","2018","09","08","08:00","-1.7","","-3.8","","86","","","","7","","5","","56.3","","99.69","","","","-4","","NA"
"-139.84","67.57","OLD CROW A","2100801","2018-09-08 09:00","2018","09","08","09:00","-0.9","","-2.8","","87","","","","36","","3","","56.3","","99.69","","","","-2","","NA"
"-139.84","67.57","OLD CROW A","2100801","2018-09-08 10:00","2018","09","08","10:00","0.9","","-1.8","","82","","","","13","","3","","56.3","","99.69","","","","","","Mostly Cloudy"
"-139.84","67.57","OLD CROW A","2100801","2018-09-08 11:00","2018","09","08","11:00","3.5","","-1.3","","71","","","","","","0","","56.3","","99.67","","","","","","NA"
"-139.84","67.57","OLD CROW A","2100801","2018-09-08 12:00","2018","09","08","12:00","5.2","","-1.4","","62","","","","36","","3","","56.3","","99.64","","","","","","NA"
"-139.84","67.57","OLD CROW A","2100801","2018-09-08 13:00","2018","09","08","13:00","7.0","","-1.9","","53","","","","22","","5","","56.3","","99.62","","","","","","Mostly Cloudy"
"-139.84","67.57","OLD CROW A","2100801","2018-09-08 14:00","2018","09","08","14:00","7.7","","-2.6","","48","","","","27","","4","","56.3","","99.59","","","","","","NA"
"-139.84","67.57","OLD CROW A","2100801","2018-09-08 15:00","2018","09","08","15:00","9.4","","-3.9","","39","","","","36","","1","","56.3","","99.56","","","","","","NA"
"-139.84","67.57","OLD CROW A","2100801","2018-09-08 16:00","2018","09","08","16:00","10.1","","-4.7","","35","","","","23","","4","","56.3","","99.52","","","","","","Mostly Cloudy"
"-139.84","67.57","OLD CROW A","2100801","2018-09-08 17:00","2018","09","08","17:00","10.1","","-6.3","","31","","","","26","","5","","56.3","","99.48","","","","","","NA"
"-139.84","67.57","OLD CROW A","2100801","2018-09-08 18:00","2018","09","08","18:00"
"-139.84","67.57","OLD CROW A","2100801","2018-09-08 19:00","2018","09","08","19:00"
"-139.84","67.57","OLD CROW A","2100801","2018-09-08 20:00","2018","09","08","20:00"
"-139.84","67.57","OLD CROW A","2100801","2018-09-08 21:00","2018","09","08","21:00"
"-139.84","67.57","OLD CROW A","2100801","2018-09-08 22:00","2018","09","08","22:00"
"-139.84","67.57","OLD CROW A","2100801","2018-09-08 23:00","2018","09","08","23:00"
"-139.84","67.57","OLD CROW A","2100801","2018-09-09 00:00","2018","09","09","00:00"
"-139.84","67.57","OLD CROW A","2100801","2018-09-09 01:00","2018","09","09","01:00"
"-139.84","67.57","OLD CROW A","2100801","2018-09-09 02:00","2018","09","09","02:00"
"-139.84","67.57","OLD CROW A","2100801","2018-09-09 03:00","2018","09","09","03:00"
"-139.84","67.57","OLD CROW A","2100801","2018-09-09 04:00","2018","09","09","04:00"
"-139.84","67.57","OLD CROW A","2100801","2018-09-09 05:00","2018","09","09","05:00","-2.2","","-3.1","","94","","","","36","","3","","56.3","","98.98","","","","-3","","NA"
"-139.84","67.57","OLD CROW A","2100801","2018-09-09 06:00","2018","09","09","06:00","-1.6","","-2.2","","96","","","","21","","3","","56.3","","98.94","","","","-3","","NA"
"-139.84","67.57","OLD CROW A","2100801","2018-09-09 07:00","2018","09","09","07:00","-1.2","","-1.8","","95","","","","0","","1","","56.3","","98.88","","","","-2","","Mostly Cloudy"
"-139.84","67.57","OLD CROW A","2100801","2018-09-09 08:00","2018","09","09","08:00","0.2","","-1.3","","90","","","","23","","4","","56.3","","98.85","","","","","","NA"
"-139.84","67.57","OLD CROW A","2100801","2018-09-09 09:00","2018","09","09","09:00","0.9","","-0.9","","88","","","","21","","3","","56.3","","98.81","","","","","","NA"
"-139.84","67.57","OLD CROW A","2100801","2018-09-09 10:00","2018","09","09","10:00","2.4","","-0.8","","80","","","","22","","8","","56.3","","98.79","","","","","","Cloudy"
"-139.84","67.57","OLD CROW A","2100801","2018-09-09 11:00","2018","09","09","11:00","4.3","","-1.2","","67","","","","24","","4","","56.3","","98.78","","","","","","NA"
"-139.84","67.57","OLD CROW A","2100801","2018-09-09 12:00","2018","09","09","12:00","6.5","","-1.1","","58","","","","36","","3","","56.3","","98.75","","","","","","NA"
"-139.84","67.57","OLD CROW A","2100801","2018-09-09 13:00","2018","09","09","13:00","8.7","","-1.7","","48","","","","19","","3","","56.3","","98.73","","","","","","Mostly Cloudy"
"-139.84","67.57","OLD CROW A","2100801","2018-09-09 14:00","2018","09","09","14:00","9.2","","-1.3","","48","","","","9","","3","","56.3","","98.73","","","","","","NA"
"-139.84","67.57","OLD CROW A","2100801","2018-09-09 15:00","2018","09","09","15:00","9.6","","-2.1","","44","","","","7","","3","","56.3","","98.72","","","","","","NA"
"-139.84","67.57","OLD CROW A","2100801","2018-09-09 16:00","2018","09","09","16:00","9.8","","-1.8","","44","","","","8","","3","","56.3","","98.72","","","","","","Mostly Cloudy"
"-139.84","67.57","OLD CROW A","2100801","2018-09-09 17:00","2018","09","09","17:00","10.2","","-1.4","","44","","","","36","","3","","56.3","","98.73","","","","","","NA"
"-139.84","67.57","OLD CROW A","2100801","2018-09-09 18:00","2018","09","09","18:00"
"-139.84","67.57","OLD CROW A","2100801","2018-09-09 19:00","2018","09","09","19:00"
"-139.84","67.57","OLD CROW A","2100801","2018-09-09 20:00","2018","09","09","20:00"
"-139.84","67.57","OLD CROW A","2100801","2018-09-09 21:00","2018","09","09","21:00"
"-139.84","67.57","OLD CROW A","2100801","2018-09-09 22:00","2018","09","09","22:00"
"-139.84","67.57","OLD CROW A","2100801","2018-09-09 23:00","2018","09","09","23:00"
"-139.84","67.57","OLD CROW A","2100801","2018-09-10 00:00","2018","09","10","00:00"
"-139.84","67.57","OLD CROW A","2100801","2018-09-10 01:00","2018","09","10","01:00"
"-139.84","67.57","OLD CROW A","2100801","2018-09-10 02:00","2018","09","10","02:00"
"-139.84","67.57","OLD CROW A","2100801","2018-09-10 03:00","2018","09","10","03:00"
"-139.84","67.57","OLD CROW A","2100801","2018-09-10 04:00","2018","09","10","04:00"
"-139.84","67.57","OLD CROW A","2100801","2018-09-10 05:00","2018","09","10","05:00","4.0","","1.1","","81","","","","0","","1","","56.3","","98.76","","","","","","NA"
"-139.84","67.57","OLD CROW A","2100801","2018-09-10 06:00","2018","09","10","06:00","3.2","","1.6","","89","","","","36","","2","","56.3","","98.77","","","","","","NA"
"-139.84","67.57","OLD CROW A","2100801","2018-09-10 07:00","2018","09","10","07:00","3.5","","2.0","","90","","","","0","","1","","56.3","","98.79","","","","","","Cloudy"
"-139.84","67.57","OLD CROW A","2100801","2018-09-10 08:00","2018","09","10","08:00","4.0","","2.0","","87","","","","36","","1","","56.3","","98.81","","","","","","NA"
"-139.84","67.57","OLD CROW A","2100801","2018-09-10 09:00","2018","09","10","09:00","4.6","","2.3","","85","","","","36","","2","","56.3","","98.81","","","","","","NA"
"-139.84","67.57","OLD CROW A","2100801","2018-09-10 10:00","2018","09","10","10:00","4.6","","2.0","","83","","","","5","","17","","56.3","","98.87","","","","","","Rain"
"-139.84","67.57","OLD CROW A","2100801","2018-09-10 11:00","2018","09","10","11:00","5.0","","2.2","","82","","","","6","","18","","56.3","","98.98","","","","","","NA"
"-139.84","67.57","OLD CROW A","2100801","2018-09-10 12:00","2018","09","10","12:00","4.7","","0.5","","74","","","","6","","25","","56.3","","99.07","","","","","","NA"
"-139.84","67.57","OLD CROW A","2100801","2018-09-10 13:00","2018","09","10","13:00","4.0","","0.5","","77","","","","6","","16","","56.3","","99.15","","","","","","Cloudy"
"-139.84","67.57","OLD CROW A","2100801","2018-09-10 14:00","2018","09","10","14:00","3.2","","0.4","","82","","","","6","","13","","56.3","","99.22","","","","","","NA"
"-139.84","67.57","OLD CROW A","2100801","2018-09-10 15:00","2018","09","10","15:00","4.5","","-0.3","","71","","","","7","","14","","56.3","","99.27","","","","","","NA"
"-139.84","67.57","OLD CROW A","2100801","2018-09-10 16:00","2018","09","10","16:00","4.6","","-0.8","","68","","","","5","","18","","56.3","","99.29","","","","","","Mostly Cloudy"
"-139.84","67.57","OLD CROW A","2100801","2018-09-10 17:00","2018","09","10","17:00","5.2","","-0.7","","66","","","","6","","15","","56.3","","99.32","","","","","","NA"
"-139.84","67.57","OLD CROW A","2100801","2018-09-10 18:00","2018","09","10","18:00"
"-139.84","67.57","OLD CROW A","2100801","2018-09-10 19:00","2018","09","10","19:00"
"-139.84","67.57","OLD CROW A","2100801","2018-09-10 20:00","2018","09","10","20:00"
"-139.84","67.57","OLD CROW A","2100801","2018-09-10 21:00","2018","09","10","21:00"
"-139.84","67.57","OLD CROW A","2100801","2018-09-10 22:00","2018","09","10","22:00"
"-139.84","67.57","OLD CROW A","2100801","2018-09-10 23:00","2018","09","10","23:00"
"-139.84","67.57","OLD CROW A","2100801","2018-09-11 00:00","2018","09","11","00:00"
"-139.84","67.57","OLD CROW A","2100801","2018-09-11 01:00","2018","09","11","01:00"
"-139.84","67.57","OLD CROW A","2100801","2018-09-11 02:00","2018","09","11","02:00"
"-139.84","67.57","OLD CROW A","2100801","2018-09-11 03:00","2018","09","11","03:00"
"-139.84","67.57","OLD CROW A","2100801","2018-09-11 04:00","2018","09","11","04:00"
"-139.84","67.57","OLD CROW A","2100801","2018-09-11 05:00","2018","09","11","05:00","-5.5","","-6.7","","91","","","","36","","2","","56.3","","99.54","","","","-6","","NA"
"-139.84","67.57","OLD CROW A","2100801","2018-09-11 06:00","2018","09","11","06:00","-6.0","","-7.0","","93","","","","1","","3","","56.3","","99.52","","","","-7","","NA"
"-139.84","67.57","OLD CROW A","2100801","2018-09-11 07:00","2018","09","11","07:00","-5.6","","-6.6","","93","","","","36","","3","","56.3","","99.51","","","","-7","","Mainly Clear"
"-139.84","67.57","OLD CROW A","2100801","2018-09-11 08:00","2018","09","11","08:00","-4.0","","-5.5","","90","","","","36","","2","","56.3","","99.51","","","","-5","","NA"
"-139.84","67.57","OLD CROW A","2100801","2018-09-11 09:00","2018","09","11","09:00","-2.1","","-4.2","","85","","","","36","","3","","56.3","","99.48","","","","-3","","NA"
"-139.84","67.57","OLD CROW A","2100801","2018-09-11 10:00","2018","09","11","10:00","0.7","","-2.5","","80","","","","7","","7","","56.3","","99.45","","","","","","Mainly Clear"
"-139.84","67.57","OLD CROW A","2100801","2018-09-11 11:00","2018","09","11","11:00","2.1","","-2.7","","70","","","","8","","9","","56.3","","99.42","","","","","","NA"
"-139.84","67.57","OLD CROW A","2100801","2018-09-11 12:00","2018","09","11","12:00","3.8","","-2.3","","65","","","","10","","5","","56.3","","99.38","","","","","","NA"
"-139.84","67.57","OLD CROW A","2100801","2018-09-11 13:00","2018","09","11","13:00","4.7","","-2.6","","59","","","","9","","4","","56.3","","99.35","","","","","","Clear"
"-139.84","67.57","OLD CROW A","2100801","2018-09-11 14:00","2018","09","11","14:00","6.0","","-4.8","","46","","","","6","","3","","56.3","","99.31","","","","","","NA"
"-139.84","67.57","OLD CROW A","2100801","2018-09-11 15:00","2018","09","11","15:00","7.1","","-6.3","","38","","","","12","","5","","56.3","","99.26","","","","","","NA"
"-139.84","67.57","OLD CROW A","2100801","2018-09-11 16:00","2018","09","11","16:00","7.4","","-9.8","","28","","","","0","","1","","56.3","","99.22","","","","","","Mainly Clear"
"-139.84","67.57","OLD CROW A","2100801","2018-09-11 17:00","2018","09","11","17:00","8.1","","-9.3","","28","","","","9","","4","","56.3","","99.17","","","","","","NA"
"-139.84","67.57","OLD CROW A","2100801","2018-09-11 18:00","2018","09","11","18:00"
"-139.84","67.57","OLD CROW A","2100801","2018-09-11 19:00","2018","09","11","19:00"
"-139.84","67.57","OLD CROW A","2100801","2018-09-11 20:00","2018","09","11","20:00"
"-139.84","67.57","OLD CROW A","2100801","2018-09-11 21:00","2018","09","11","21:00"
"-139.84","67.57","OLD CROW A","2100801","2018-09-11 22:00","2018","09","11","22:00"
"-139.84","67.57","OLD CROW A","2100801","2018-09-11 23:00","2018","09","11","23:00"
"-139.84","67.57","OLD CROW A","2100801","2018-09-12 00:00","2018","09","12","00:00"
"-139.84","67.57","OLD CROW A","2100801","2018-09-12 01:00","2018","09","12","01:00"
"-139.84","67.57","OLD CROW A","2100801","2018-09-12 02:00","2018","09","12","02:00"
"-139.84","67.57","OLD CROW A","2100801","2018-09-12 03:00","2018","09","12","03:00"
"-139.84","67.57","OLD CROW A","2100801","2018-09-12 04:00","2018","09","12","04:00"
"-139.84","67.57","OLD CROW A","2100801","2018-09-12 05:00","2018","09","12","05:00","-1.6","","-4.2","","83","","","","36","","2","","56.3","","98.93","","","","-2","","NA"
"-139.84","67.57","OLD CROW A","2100801","2018-09-12 06:00","2018","09","12","06:00","-1.9","","-3.3","","90","","","","2","","4","","56.3","","98.88","","","","-3","","NA"
"-139.84","67.57","OLD CROW A","2100801","2018-09-12 07:00","2018","09","12","07:00","-2.0","","-3.6","","89","","","","36","","3","","56.3","","98.86","","","","-3","","Mostly Cloudy"
"-139.84","67.57","OLD CROW A","2100801","2018-09-12 08:00","2018","09","12","08:00","-0.8","","-3.2","","84","","","","7","","5","","56.3","","98.84","","","","-2","","NA"
"-139.84","67.57","OLD CROW A","2100801","2018-09-12 09:00","2018","09","12","09:00","0.1","","-2.3","","84","","","","7","","3","","56.3","","98.82","","","","","","NA"
"-139.84","67.57","OLD CROW A","2100801","2018-09-12 10:00","2018","09","12","10:00","1.3","","-2.3","","77","","","","36","","1","","56.3","","98.82","","","","","","Cloudy"
"-139.84","67.57","OLD CROW A","2100801","2018-09-12 11:00","2018","09","12","11:00","1.9","","-1.0","","81","","","","36","","2","","56.3","","98.84","","","","","","Rain"
"-139.84","67.57","OLD CROW A","2100801","2018-09-12 12:00","2018","09","12","12:00","2.6","","0.0","","83","","","","36","","3","","48.3","","98.82","","","","","","Rain"
"-139.84","67.57","OLD CROW A","2100801","2018-09-12 13:00","2018","09","12","13:00","3.2","","0.0","","79","","","","4","","3","","32.2","","98.81","","","","","","Rain"
"-139.84","67.57","OLD CROW A","2100801","2018-09-12 14:00","2018","09","12","14:00","4.6","","1.1","","78","","","","36","","2","","40.2","","98.78","","","","","","Rain"
"-139.84","67.57","OLD CROW A","2100801","2018-09-12 15:00","2018","09","12","15:00","5.6","","0.6","","70","","","","36","","3","","40.2","","98.78","","","","","","NA"
"-139.84","67.57","OLD CROW A","2100801","2018-09-12 16:00","2018","09","12","16:00","5.8","","1.9","","76","","","","36","","3","","40.2","","98.76","","","","","","Rain"
"-139.84","67.57","OLD CROW A","2100801","2018-09-12 17:00","2018","09","12","17:00","6.0","","3.2","","82","","","","6","","5","","40.2","","98.76","","","","","","Rain"
"-139.84","67.57","OLD CROW A","2100801","2018-09-12 18:00","2018","09","12","18:00"
"-139.84","67.57","OLD CROW A","2100801","2018-09-12 19:00","2018","09","12","19:00"
"-139.84","67.57","OLD CROW A","2100801","2018-09-12 20:00","2018","09","12","20:00"
"-139.84","67.57","OLD CROW A","2100801","2018-09-12 21:00","2018","09","12","21:00"
"-139.84","67.57","OLD CROW A","2100801","2018-09-12 22:00","2018","09","12","22:00"
"-139.84","67.57","OLD CROW A","2100801","2018-09-12 23:00","2018","09","12","23:00"
"-139.84","67.57","OLD CROW A","2100801","2018-09-13 00:00","2018","09","13","00:00"
"-139.84","67.57","OLD CROW A","2100801","2018-09-13 01:00","2018","09","13","01:00"
"-139.84","67.57","OLD CROW A","2100801","2018-09-13 02:00","2018","09","13","02:00"
"-139.84","67.57","OLD CROW A","2100801","2018-09-13 03:00","2018","09","13","03:00"
"-139.84","67.57","OLD CROW A","2100801","2018-09-13 04:00","2018","09","13","04:00"
"-139.84","67.57","OLD CROW A","2100801","2018-09-13 05:00","2018","09","13","05:00","3.5","","2.5","","93","","","","5","","13","","24.1","","99.24","","","","","","NA"
"-139.84","67.57","OLD CROW A","2100801","2018-09-13 06:00","2018","09","13","06:00","2.8","","1.3","","90","","","","5","","7","","56.3","","99.33","","","","","","NA"
"-139.84","67.57","OLD CROW A","2100801","2018-09-13 07:00","2018","09","13","07:00","2.2","","0.6","","89","","","","2","","5","","56.3","","99.42","","","","","","Mostly Cloudy"
"-139.84","67.57","OLD CROW A","2100801","2018-09-13 08:00","2018","09","13","08:00","2.2","","0.3","","87","","","","4","","7","","56.3","","99.51","","","","","","NA"
"-139.84","67.57","OLD CROW A","2100801","2018-09-13 09:00","2018","09","13","09:00","2.5","","0.4","","86","","","","7","","23","","56.3","","99.55","","","","","","NA"
"-139.84","67.57","OLD CROW A","2100801","2018-09-13 10:00","2018","09","13","10:00","3.2","","-0.3","","78","","","","4","","15","","56.3","","99.60","","","","","","Mostly Cloudy"
"-139.84","67.57","OLD CROW A","2100801","2018-09-13 11:00","2018","09","13","11:00","3.7","","0.2","","78","","","","5","","12","","56.3","","99.67","","","","","","NA"
"-139.84","67.57","OLD CROW A","2100801","2018-09-13 12:00","2018","09","13","12:00","5.0","","0.3","","72","","","","4","","21","","56.3","","99.69","","","","","","NA"
"-139.84","67.57","OLD CROW A","2100801","2018-09-13 13:00","2018","09","13","13:00","6.7","","-0.4","","61","","","","5","","14","","56.3","","99.76","","","","","","Mainly Clear"
"-139.84","67.57","OLD CROW A","2100801","2018-09-13 14:00","2018","09","13","14:00","6.9","","-1.9","","53","","","","6","","18","","56.3","","99.78","","","","","","NA"
"-139.84","67.57","OLD CROW A","2100801","2018-09-13 15:00","2018","09","13","15:00","7.9","","-2.8","","47","","","","9","","7","","56.3","","99.80","","","","","","NA"
"-139.84","67.57","OLD CROW A","2100801","2018-09-13 16:00","2018","09","13","16:00","7.3","","-0.6","","57","","","","6","","17","","56.3","","99.82","","","","","","Mainly Clear"
"-139.84","67.57","OLD CROW A","2100801","2018-09-13 17:00","2018","09","13","17:00","7.6","","-1.2","","53","","","","5","","12","","56.3","","99.80","","","","","","NA"
"-139.84","67.57","OLD CROW A","2100801","2018-09-13 18:00","2018","09","13","18:00"
"-139.84","67.57","OLD CROW A","2100801","2018-09-13 19:00","2018","09","13","19:00"
"-139.84","67.57","OLD CROW A","2100801","2018-09-13 20:00","2018","09","13","20:00"
"-139.84","67.57","OLD CROW A","2100801","2018-09-13 21:00","2018","09","13","21:00"
"-139.84","67.57","OLD CROW A","2100801","2018-09-13 22:00","2018","09","13","22:00"
"-139.84","67.57","OLD CROW A","2100801","2018-09-13 23:00","2018","09","13","23:00"
"-139.84","67.57","OLD CROW A","2100801","2018-09-14 00:00","2018","09","14","00:00"
"-139.84","67.57","OLD CROW A","2100801","2018-09-14 01:00","2018","09","14","01:00"
"-139.84","67.57","OLD CROW A","2100801","2018-09-14 02:00","2018","09","14","02:00"
"-139.84","67.57","OLD CROW A","2100801","2018-09-14 03:00","2018","09","14","03:00"
"-139.84","67.57","OLD CROW A","2100801","2018-09-14 04:00","2018","09","14","04:00"
"-139.84","67.57","OLD CROW A","2100801","2018-09-14 05:00","2018","09","14","05:00","-5.2","","-6.8","","89","","","","36","","1","","56.3","","99.95","","","","-6","","NA"
"-139.84","67.57","OLD CROW A","2100801","2018-09-14 06:00","2018","09","14","06:00","-6.1","","-7.3","","91","","","","2","","3","","56.3","","99.94","","","","-8","","NA"
"-139.84","67.57","OLD CROW A","2100801","2018-09-14 07:00","2018","09","14","07:00","-5.6","","-7.3","","88","","","","34","","3","","56.3","","99.94","","","","-7","","Clear"
"-139.84","67.57","OLD CROW A","2100801","2018-09-14 08:00","2018","09","14","08:00","-3.2","","-5.1","","86","","","","14","","3","","56.3","","99.94","","","","-4","","NA"
"-139.84","67.57","OLD CROW A","2100801","2018-09-14 09:00","2018","09","14","09:00","-1.8","","-3.7","","87","","","","36","","2","","56.3","","99.92","","","","-3","","NA"
"-139.84","67.57","OLD CROW A","2100801","2018-09-14 10:00","2018","09","14","10:00","-0.1","","-4.6","","72","","","","36","","3","","56.3","","99.90","","","","-1","","Mainly Clear"
"-139.84","67.57","OLD CROW A","2100801","2018-09-14 11:00","2018","09","14","11:00","2.0","","-4.8","","61","","","","10","","4","","56.3","","99.87","","","","","","NA"
"-139.84","67.57","OLD CROW A","2100801","2018-09-14 12:00","2018","09","14","12:00","4.2","","-4.8","","52","","","","12","","5","","56.3","","99.83","","","","","","NA"
"-139.84","67.57","OLD CROW A","2100801","2018-09-14 13:00","2018","09","14","13:00","6.2","","-4.9","","45","","","","6","","6","","56.3","","99.77","","","","","","Mainly Clear"
"-139.84","67.57","OLD CROW A","2100801","2018-09-14 14:00","2018","09","14","14:00","7.4","","-5.8","","39","","","","7","","8","","56.3","","99.73","","","","","","NA"
"-139.84","67.57","OLD CROW A","2100801","2018-09-14 15:00","2018","09","14","15:00","8.1","","-8.9","","29","","","","6","","7","","56.3","","99.67","","","","","","NA"
"-139.84","67.57","OLD CROW A","2100801","2018-09-14 16:00","2018","09","14","16:00","8.4","","-8.1","","30","","","","7","","12","","56.3","","99.62","","","","","","Mostly Cloudy"
"-139.84","67.57","OLD CROW A","2100801","2018-09-14 17:00","2018","09","14","17:00","8.9","","-7.4","","31","","","","7","","6","","56.3","","99.56","","","","","","NA"
"-139.84","67.57","OLD CROW A","2100801","2018-09-14 18:00","2018","09","14","18:00","8.6","","-7.2","","32","","","","5","","8","","56.3","","99.50","","","","","","NA"
"-139.84","67.57","OLD CROW A","2100801","2018-09-14 19:00","2018","09","14","19:00","6.7","","-6.9","","37","","","","5","","11","","56.3","","99.47","","","","","","Clear"
"-139.84","67.57","OLD CROW A","2100801","2018-09-14 20:00","2018","09","14","20:00","5.2","","-7.9","","38","","","","3","","13","","56.3","","99.44","","","","","","NA"
"-139.84","67.57","OLD CROW A","2100801","2018-09-14 21:00","2018","09","14","21:00","4.3","","-8.8","","38","","","","7","","8","","56.3","","99.45","","","","","","NA"
"-139.84","67.57","OLD CROW A","2100801","2018-09-14 22:00","2018","09","14","22:00"
"-139.84","67.57","OLD CROW A","2100801","2018-09-14 23:00","2018","09","14","23:00"
"-139.84","67.57","OLD CROW A","2100801","2018-09-15 00:00","2018","09","15","00:00"
"-139.84","67.57","OLD CROW A","2100801","2018-09-15 01:00","2018","09","15","01:00"
"-139.84","67.57","OLD CROW A","2100801","2018-09-15 02:00","2018","09","15","02:00"
"-139.84","67.57","OLD CROW A","2100801","2018-09-15 03:00","2018","09","15","03:00"
"-139.84","67.57","OLD CROW A","2100801","2018-09-15 04:00","2018","09","15","04:00"
"-139.84","67.57","OLD CROW A","2100801","2018-09-15 05:00","2018","09","15","05:00","-3.0","","-4.8","","87","","","","7","","5","","56.3","","99.35","","","","-5","","NA"
"-139.84","67.57","OLD CROW A","2100801","2018-09-15 06:00","2018","09","15","06:00","-3.0","","-4.7","","88","","","","6","","9","","56.3","","99.32","","","","-7","","NA"
"-139.84","67.57","OLD CROW A","2100801","2018-09-15 07:00","2018","09","15","07:00","-3.2","","-4.5","","91","","","","7","","9","","56.3","","99.29","","","","-7","","Clear"
"-139.84","67.57","OLD CROW A","2100801","2018-09-15 08:00","2018","09","15","08:00","-1.8","","-4.1","","84","","","","7","","9","","56.3","","99.29","","","","-5","","NA"
"-139.84","67.57","OLD CROW A","2100801","2018-09-15 09:00","2018","09","15","09:00","1.9","","-3.8","","66","","","","8","","10","","56.3","","99.28","","","","","","NA"
"-139.84","67.57","OLD CROW A","2100801","2018-09-15 10:00","2018","09","15","10:00","3.6","","-3.5","","60","","","","6","","13","","56.3","","99.26","","","","","","Mainly Clear"
"-139.84","67.57","OLD CROW A","2100801","2018-09-15 11:00","2018","09","15","11:00","5.7","","-3.3","","52","","","","5","","16","","56.3","","99.23","","","","","","NA"
"-139.84","67.57","OLD CROW A","2100801","2018-09-15 12:00","2018","09","15","12:00","7.4","","-4.4","","43","","","","7","","16","","56.3","","99.18","","","","","","NA"
"-139.84","67.57","OLD CROW A","2100801","2018-09-15 13:00","2018","09","15","13:00","9.2","","-4.7","","37","","","","8","","10","","56.3","","99.12","","","","","","Mainly Clear"
"-139.84","67.57","OLD CROW A","2100801","2018-09-15 14:00","2018","09","15","14:00"
"-139.84","67.57","OLD CROW A","2100801","2018-09-15 15:00","2018","09","15","15:00"
"-139.84","67.57","OLD CROW A","2100801","2018-09-15 16:00","2018","09","15","16:00"
"-139.84","67.57","OLD CROW A","2100801","2018-09-15 17:00","2018","09","15","17:00"
"-139.84","67.57","OLD CROW A","2100801","2018-09-15 18:00","2018","09","15","18:00"
"-139.84","67.57","OLD CROW A","2100801","2018-09-15 19:00","2018","09","15","19:00"
"-139.84","67.57","OLD CROW A","2100801","2018-09-15 20:00","2018","09","15","20:00"
"-139.84","67.57","OLD CROW A","2100801","2018-09-15 21:00","2018","09","15","21:00"
"-139.84","67.57","OLD CROW A","2100801","2018-09-15 22:00","2018","09","15","22:00"
"-139.84","67.57","OLD CROW A","2100801","2018-09-15 23:00","2018","09","15","23:00"
"-139.84","67.57","OLD CROW A","2100801","2018-09-16 00:00","2018","09","16","00:00"
"-139.84","67.57","OLD CROW A","2100801","2018-09-16 01:00","2018","09","16","01:00"
"-139.84","67.57","OLD CROW A","2100801","2018-09-16 02:00","2018","09","16","02:00"
"-139.84","67.57","OLD CROW A","2100801","2018-09-16 03:00","2018","09","16","03:00"
"-139.84","67.57","OLD CROW A","2100801","2018-09-16 04:00","2018","09","16","04:00"
"-139.84","67.57","OLD CROW A","2100801","2018-09-16 05:00","2018","09","16","05:00","0.0","","-5.7","","66","","","","4","","11","","56.3","","98.78","","","","-4","","NA"
"-139.84","67.57","OLD CROW A","2100801","2018-09-16 06:00","2018","09","16","06:00","-0.6","","-5.9","","67","","","","7","","8","","56.3","","98.77","","","","-3","","NA"
"-139.84","67.57","OLD CROW A","2100801","2018-09-16 07:00","2018","09","16","07:00","-1.8","","-5.0","","78","","","","9","","7","","56.3","","98.75","","","","-4","","Clear"
"-139.84","67.57","OLD CROW A","2100801","2018-09-16 08:00","2018","09","16","08:00","1.5","","-5.2","","61","","","","5","","9","","56.3","","98.76","","","","","","NA"
"-139.84","67.57","OLD CROW A","2100801","2018-09-16 09:00","2018","09","16","09:00","2.6","","-4.5","","60","","","","5","","13","","56.3","","98.76","","","","","","NA"
"-139.84","67.57","OLD CROW A","2100801","2018-09-16 10:00","2018","09","16","10:00","3.8","","-5.0","","53","","","","5","","8","","56.3","","98.76","","","","","","Clear"
"-139.84","67.57","OLD CROW A","2100801","2018-09-16 11:00","2018","09","16","11:00","4.7","","-4.4","","52","","","","8","","9","","56.3","","98.75","","","","","","NA"
"-139.84","67.57","OLD CROW A","2100801","2018-09-16 12:00","2018","09","16","12:00","5.8","","-3.5","","51","","","","8","","8","","56.3","","98.74","","","","","","NA"
"-139.84","67.57","OLD CROW A","2100801","2018-09-16 13:00","2018","09","16","13:00","7.3","","-3.9","","45","","","","6","","10","","56.3","","98.72","","","","","","Clear"
"-139.84","67.57","OLD CROW A","2100801","2018-09-16 14:00","2018","09","16","14:00"
"-139.84","67.57","OLD CROW A","2100801","2018-09-16 15:00","2018","09","16","15:00"
"-139.84","67.57","OLD CROW A","2100801","2018-09-16 16:00","2018","09","16","16:00"
"-139.84","67.57","OLD CROW A","2100801","2018-09-16 17:00","2018","09","16","17:00"
"-139.84","67.57","OLD CROW A","2100801","2018-09-16 18:00","2018","09","16","18:00"
"-139.84","67.57","OLD CROW A","2100801","2018-09-16 19:00","2018","09","16","19:00"
"-139.84","67.57","OLD CROW A","2100801","2018-09-16 20:00","2018","09","16","20:00"
"-139.84","67.57","OLD CROW A","2100801","2018-09-16 21:00","2018","09","16","21:00"
"-139.84","67.57","OLD CROW A","2100801","2018-09-16 22:00","2018","09","16","22:00"
"-139.84","67.57","OLD CROW A","2100801","2018-09-16 23:00","2018","09","16","23:00"
"-139.84","67.57","OLD CROW A","2100801","2018-09-17 00:00","2018","09","17","00:00"
"-139.84","67.57","OLD CROW A","2100801","2018-09-17 01:00","2018","09","17","01:00"
"-139.84","67.57","OLD CROW A","2100801","2018-09-17 02:00","2018","09","17","02:00"
"-139.84","67.57","OLD CROW A","2100801","2018-09-17 03:00","2018","09","17","03:00"
"-139.84","67.57","OLD CROW A","2100801","2018-09-17 04:00","2018","09","17","04:00"
"-139.84","67.57","OLD CROW A","2100801","2018-09-17 05:00","2018","09","17","05:00","-2.1","","-3.5","","90","","","","25","","4","","56.3","","99.11","","","","-4","","NA"
"-139.84","67.57","OLD CROW A","2100801","2018-09-17 06:00","2018","09","17","06:00","-0.4","","-3.8","","78","","","","6","","10","","56.3","","99.13","","","","-4","","NA"
"-139.84","67.57","OLD CROW A","2100801","2018-09-17 07:00","2018","09","17","07:00","-2.4","","-4.0","","89","","","","24","","6","","56.3","","99.18","","","","-5","","Mostly Cloudy"
"-139.84","67.57","OLD CROW A","2100801","2018-09-17 08:00","2018","09","17","08:00","-2.5","","-3.7","","91","","","","26","","4","","56.3","","99.21","","","","-4","","NA"
"-139.84","67.57","OLD CROW A","2100801","2018-09-17 09:00","2018","09","17","09:00","-1.1","","-2.9","","88","","","","36","","3","","56.3","","99.25","","","","-2","","NA"
"-139.84","67.57","OLD CROW A","2100801","2018-09-17 10:00","2018","09","17","10:00","0.7","","-2.7","","78","","","","27","","6","","56.3","","99.25","","","","","","Mostly Cloudy"
"-139.84","67.57","OLD CROW A","2100801","2018-09-17 11:00","2018","09","17","11:00","3.8","","-3.5","","59","","","","4","","17","","56.3","","99.26","","","","","","NA"
"-139.84","67.57","OLD CROW A","2100801","2018-09-17 12:00","2018","09","17","12:00","4.3","","-2.7","","60","","","","5","","16","","56.3","","99.25","","","","","","NA"
"-139.84","67.57","OLD CROW A","2100801","2018-09-17 13:00","2018","09","17","13:00","5.4","","-3.2","","54","","","","6","","21","","56.3","","99.24","","","","","","Mainly Clear"
"-139.84","67.57","OLD CROW A","2100801","2018-09-17 14:00","2018","09","17","14:00","6.6","","-2.7","","51","","","","5","","14","","56.3","","99.23","","","","","","NA"
"-139.84","67.57","OLD CROW A","2100801","2018-09-17 15:00","2018","09","17","15:00","7.3","","-2.9","","48","","","","7","","14","","56.3","","99.21","","","","","","NA"
"-139.84","67.57","OLD CROW A","2100801","2018-09-17 16:00","2018","09","17","16:00","7.8","","-3.3","","45","","","","8","","9","","56.3","","99.19","","","","","","Mainly Clear"
"-139.84","67.57","OLD CROW A","2100801","2018-09-17 17:00","2018","09","17","17:00","7.8","","-3.6","","44","","","","6","","12","","56.3","","99.18","","","","","","NA"
"-139.84","67.57","OLD CROW A","2100801","2018-09-17 18:00","2018","09","17","18:00"
"-139.84","67.57","OLD CROW A","2100801","2018-09-17 19:00","2018","09","17","19:00"
"-139.84","67.57","OLD CROW A","2100801","2018-09-17 20:00","2018","09","17","20:00"
"-139.84","67.57","OLD CROW A","2100801","2018-09-17 21:00","2018","09","17","21:00"
"-139.84","67.57","OLD CROW A","2100801","2018-09-17 22:00","2018","09","17","22:00"
"-139.84","67.57","OLD CROW A","2100801","2018-09-17 23:00","2018","09","17","23:00"
"-139.84","67.57","OLD CROW A","2100801","2018-09-18 00:00","2018","09","18","00:00"
"-139.84","67.57","OLD CROW A","2100801","2018-09-18 01:00","2018","09","18","01:00"
"-139.84","67.57","OLD CROW A","2100801","2018-09-18 02:00","2018","09","18","02:00"
"-139.84","67.57","OLD CROW A","2100801","2018-09-18 03:00","2018","09","18","03:00"
"-139.84","67.57","OLD CROW A","2100801","2018-09-18 04:00","2018","09","18","04:00"
"-139.84","67.57","OLD CROW A","2100801","2018-09-18 05:00","2018","09","18","05:00","-3.6","","-6.4","","81","","","","8","","10","","56.3","","99.44","","","","-8","","NA"
"-139.84","67.57","OLD CROW A","2100801","2018-09-18 06:00","2018","09","18","06:00","-4.5","","-6.2","","87","","","","9","","13","","56.3","","99.45","","","","-10","","NA"
"-139.84","67.57","OLD CROW A","2100801","2018-09-18 07:00","2018","09","18","07:00","-5.4","","-7.6","","85","","","","5","","3","","56.3","","99.50","","","","-7","","Mostly Cloudy"
"-139.84","67.57","OLD CROW A","2100801","2018-09-18 08:00","2018","09","18","08:00","-4.6","","-5.7","","91","","","","36","","3","","56.3","","99.51","","","","-6","","NA"
"-139.84","67.57","OLD CROW A","2100801","2018-09-18 09:00","2018","09","18","09:00","-3.8","","-5.4","","89","","","","23","","8","","56.3","","99.53","","","","-7","","NA"
"-139.84","67.57","OLD CROW A","2100801","2018-09-18 10:00","2018","09","18","10:00","-2.1","","-4.8","","82","","","","22","","7","","32.2","","99.53","","","","-5","","Mainly Clear"
"-139.84","67.57","OLD CROW A","2100801","2018-09-18 11:00","2018","09","18","11:00","-0.5","","-4.7","","73","","","","26","","5","","56.3","","99.53","","","","-2","","NA"
"-139.84","67.57","OLD CROW A","2100801","2018-09-18 12:00","2018","09","18","12:00","1.8","","-4.4","","63","","","","8","","13","","56.3","","99.50","","","","","","NA"
"-139.84","67.57","OLD CROW A","2100801","2018-09-18 13:00","2018","09","18","13:00","2.0","","-4.3","","63","","","","6","","14","","56.3","","99.51","","","","","","Mostly Cloudy"
"-139.84","67.57","OLD CROW A","2100801","2018-09-18 14:00","2018","09","18","14:00","3.0","","-4.1","","60","","","","6","","10","","56.3","","99.50","","","","","","NA"
"-139.84","67.57","OLD CROW A","2100801","2018-09-18 15:00","2018","09","18","15:00","4.1","","-3.4","","58","","","","6","","10","","56.3","","99.48","","","","","","NA"
"-139.84","67.57","OLD CROW A","2100801","2018-09-18 16:00","2018","09","18","16:00","4.8","","-3.5","","55","","","","3","","8","","56.3","","99.46","","","","","","Mainly Clear"
"-139.84","67.57","OLD CROW A","2100801","2018-09-18 17:00","2018","09","18","17:00","5.0","","-3.3","","55","","","","6","","10","","56.3","","99.44","","","","","","NA"
"-139.84","67.57","OLD CROW A","2100801","2018-09-18 18:00","2018","09","18","18:00"
"-139.84","67.57","OLD CROW A","2100801","2018-09-18 19:00","2018","09","18","19:00"
"-139.84","67.57","OLD CROW A","2100801","2018-09-18 20:00","2018","09","18","20:00"
"-139.84","67.57","OLD CROW A","2100801","2018-09-18 21:00","2018","09","18","21:00"
"-139.84","67.57","OLD CROW A","2100801","2018-09-18 22:00","2018","09","18","22:00"
"-139.84","67.57","OLD CROW A","2100801","2018-09-18 23:00","2018","09","18","23:00"
"-139.84","67.57","OLD CROW A","2100801","2018-09-19 00:00","2018","09","19","00:00"
"-139.84","67.57","OLD CROW A","2100801","2018-09-19 01:00","2018","09","19","01:00"
"-139.84","67.57","OLD CROW A","2100801","2018-09-19 02:00","2018","09","19","02:00"
"-139.84","67.57","OLD CROW A","2100801","2018-09-19 03:00","2018","09","19","03:00"
"-139.84","67.57","OLD CROW A","2100801","2018-09-19 04:00","2018","09","19","04:00"
"-139.84","67.57","OLD CROW A","2100801","2018-09-19 05:00","2018","09","19","05:00","-5.6","","-6.5","","93","","","","33","","5","","56.3","","99.60","","","","-8","","NA"
"-139.84","67.57","OLD CROW A","2100801","2018-09-19 06:00","2018","09","19","06:00","-6.3","","-7.3","","93","","","","28","","4","","56.3","","99.60","","","","-8","","NA"
"-139.84","67.57","OLD CROW A","2100801","2018-09-19 07:00","2018","09","19","07:00","-6.4","","-7.3","","93","","","","36","","1","","56.3","","99.61","","","","-7","","Mostly Cloudy"
"-139.84","67.57","OLD CROW A","2100801","2018-09-19 08:00","2018","09","19","08:00","-4.8","","-5.6","","94","","","","36","","3","","56.3","","99.64","","","","-6","","NA"
"-139.84","67.57","OLD CROW A","2100801","2018-09-19 09:00","2018","09","19","09:00","-3.8","","-5.2","","90","","","","7","","3","","56.3","","99.65","","","","-5","","NA"
"-139.84","67.57","OLD CROW A","2100801","2018-09-19 10:00","2018","09","19","10:00","-2.4","","-5.1","","82","","","","36","","3","","56.3","","99.65","","","","-4","","Mainly Clear"
"-139.84","67.57","OLD CROW A","2100801","2018-09-19 11:00","2018","09","19","11:00","0.8","","-4.5","","68","","","","8","","14","","56.3","","99.62","","","","","","NA"
"-139.84","67.57","OLD CROW A","2100801","2018-09-19 12:00","2018","09","19","12:00","2.6","","-3.8","","62","","","","8","","12","","56.3","","99.60","","","","","","NA"
"-139.84","67.57","OLD CROW A","2100801","2018-09-19 13:00","2018","09","19","13:00","3.8","","-3.9","","57","","","","8","","12","","56.3","","99.58","","","","","","Mainly Clear"
"-139.84","67.57","OLD CROW A","2100801","2018-09-19 14:00","2018","09","19","14:00","4.6","","-3.9","","54","","","","7","","13","","56.3","","99.54","","","","","","NA"
"-139.84","67.57","OLD CROW A","2100801","2018-09-19 15:00","2018","09","19","15:00","5.8","","-3.6","","51","","","","9","","7","","56.3","","99.50","","","","","","NA"
"-139.84","67.57","OLD CROW A","2100801","2018-09-19 16:00","2018","09","19","16:00","6.5","","-3.5","","49","","","","5","","12","","56.3","","99.44","","","","","","Mainly Clear"
"-139.84","67.57","OLD CROW A","2100801","2018-09-19 17:00","2018","09","19","17:00","6.8","","-3.4","","48","","","","5","","12","","56.3","","99.40","","","","","","NA"
"-139.84","67.57","OLD CROW A","2100801","2018-09-19 18:00","2018","09","19","18:00"
"-139.84","67.57","OLD CROW A","2100801","2018-09-19 19:00","2018","09","19","19:00"
"-139.84","67.57","OLD CROW A","2100801","2018-09-19 20:00","2018","09","19","20:00"
"-139.84","67.57","OLD CROW A","2100801","2018-09-19 21:00","2018","09","19","21:00"
"-139.84","67.57","OLD CROW A","2100801","2018-09-19 22:00","2018","09","19","22:00"
"-139.84","67.57","OLD CROW A","2100801","2018-09-19 23:00","2018","09","19","23:00"
"-139.84","67.57","OLD CROW A","2100801","2018-09-20 00:00","2018","09","20","00:00"
"-139.84","67.57","OLD CROW A","2100801","2018-09-20 01:00","2018","09","20","01:00"
"-139.84","67.57","OLD CROW A","2100801","2018-09-20 02:00","2018","09","20","02:00"
"-139.84","67.57","OLD CROW A","2100801","2018-09-20 03:00","2018","09","20","03:00"
"-139.84","67.57","OLD CROW A","2100801","2018-09-20 04:00","2018","09","20","04:00"
"-139.84","67.57","OLD CROW A","2100801","2018-09-20 05:00","2018","09","20","05:00","-5.5","","-6.8","","91","","","","9","","4","","56.3","","99.30","","","","-7","","NA"
"-139.84","67.57","OLD CROW A","2100801","2018-09-20 06:00","2018","09","20","06:00","-6.1","","-7.1","","93","","","","6","","5","","56.3","","99.29","","","","-9","","NA"
"-139.84","67.57","OLD CROW A","2100801","2018-09-20 07:00","2018","09","20","07:00","-6.4","","-7.6","","91","","","","8","","4","","56.3","","99.29","","","","-8","","Clear"
"-139.84","67.57","OLD CROW A","2100801","2018-09-20 08:00","2018","09","20","08:00","-5.7","","-6.8","","92","","","","8","","5","","56.3","","99.29","","","","-8","","NA"
"-139.84","67.57","OLD CROW A","2100801","2018-09-20 09:00","2018","09","20","09:00","-3.5","","-5.2","","88","","","","36","","3","","56.3","","99.29","","","","-5","","NA"
"-139.84","67.57","OLD CROW A","2100801","2018-09-20 10:00","2018","09","20","10:00","-1.2","","-4.8","","76","","","","14","","3","","56.3","","99.27","","","","-2","","Clear"
"-139.84","67.57","OLD CROW A","2100801","2018-09-20 11:00","2018","09","20","11:00","0.9","","-4.4","","67","","","","36","","1","","56.3","","99.23","","","","","","NA"
"-139.84","67.57","OLD CROW A","2100801","2018-09-20 12:00","2018","09","20","12:00","3.4","","-3.9","","59","","","","36","","1","","56.3","","99.18","","","","","","NA"
"-139.84","67.57","OLD CROW A","2100801","2018-09-20 13:00","2018","09","20","13:00","5.0","","-3.7","","54","","","","36","","2","","56.3","","99.15","","","","","","Clear"
"-139.84","67.57","OLD CROW A","2100801","2018-09-20 14:00","2018","09","20","14:00","7.0","","-3.0","","49","","","","25","","3","","56.3","","99.09","","","","","","NA"
"-139.84","67.57","OLD CROW A","2100801","2018-09-20 15:00","2018","09","20","15:00","8.2","","-2.1","","48","","","","36","","2","","56.3","","99.04","","","","","","NA"
"-139.84","67.57","OLD CROW A","2100801","2018-09-20 16:00","2018","09","20","16:00","9.4","","-2.1","","44","","","","36","","2","","56.3","","99.00","","","","","","Mainly Clear"
"-139.84","67.57","OLD CROW A","2100801","2018-09-20 17:00","2018","09","20","17:00","10.3","","-1.8","","43","","","","8","","3","","56.3","","98.95","","","","","","NA"
"-139.84","67.57","OLD CROW A","2100801","2018-09-20 18:00","2018","09","20","18:00"
"-139.84","67.57","OLD CROW A","2100801","2018-09-20 19:00","2018","09","20","19:00"
"-139.84","67.57","OLD CROW A","2100801","2018-09-20 20:00","2018","09","20","20:00"
"-139.84","67.57","OLD CROW A","2100801","2018-09-20 21:00","2018","09","20","21:00"
"-139.84","67.57","OLD CROW A","2100801","2018-09-20 22:00","2018","09","20","22:00"
"-139.84","67.57","OLD CROW A","2100801","2018-09-20 23:00","2018","09","20","23:00"
"-139.84","67.57","OLD CROW A","2100801","2018-09-21 00:00","2018","09","21","00:00"
"-139.84","67.57","OLD CROW A","2100801","2018-09-21 01:00","2018","09","21","01:00"
"-139.84","67.57","OLD CROW A","2100801","2018-09-21 02:00","2018","09","21","02:00"
"-139.84","67.57","OLD CROW A","2100801","2018-09-21 03:00","2018","09","21","03:00"
"-139.84","67.57","OLD CROW A","2100801","2018-09-21 04:00","2018","09","21","04:00"
"-139.84","67.57","OLD CROW A","2100801","2018-09-21 05:00","2018","09","21","05:00","-0.6","","-2.0","","90","","","","36","","3","","56.3","","98.61","","","","-2","","NA"
"-139.84","67.57","OLD CROW A","2100801","2018-09-21 06:00","2018","09","21","06:00","-0.2","","-1.4","","92","","","","5","","3","","56.3","","98.57","","","","-1","","NA"
"-139.84","67.57","OLD CROW A","2100801","2018-09-21 07:00","2018","09","21","07:00","0.2","","-1.2","","90","","","","12","","3","","56.3","","98.54","","","","","","Mostly Cloudy"
"-139.84","67.57","OLD CROW A","2100801","2018-09-21 08:00","2018","09","21","08:00","-0.7","","-2.2","","90","","","","","","0","","56.3","","98.50","","","","","","NA"
"-139.84","67.57","OLD CROW A","2100801","2018-09-21 09:00","2018","09","21","09:00","0.8","","-1.7","","84","","","","36","","1","","56.3","","98.48","","","","","","NA"
"-139.84","67.57","OLD CROW A","2100801","2018-09-21 10:00","2018","09","21","10:00","2.0","","-0.8","","82","","","","27","","3","","56.3","","98.45","","","","","","Mostly Cloudy"
"-139.84","67.57","OLD CROW A","2100801","2018-09-21 11:00","2018","09","21","11:00","3.5","","-0.5","","75","","","","28","","3","","56.3","","98.40","","","","","","NA"
"-139.84","67.57","OLD CROW A","2100801","2018-09-21 12:00","2018","09","21","12:00","5.0","","-0.1","","70","","","","22","","4","","56.3","","98.36","","","","","","NA"
"-139.84","67.57","OLD CROW A","2100801","2018-09-21 13:00","2018","09","21","13:00","6.5","","0.7","","66","","","","22","","5","","56.3","","98.33","","","","","","Cloudy"
"-139.84","67.57","OLD CROW A","2100801","2018-09-21 14:00","2018","09","21","14:00","7.9","","2.9","","70","","","","22","","4","","32.2","","98.28","","","","","","NA"
"-139.84","67.57","OLD CROW A","2100801","2018-09-21 15:00","2018","09","21","15:00","8.2","","3.8","","74","","","","23","","5","","32.2","","98.25","","","","","","Rain"
"-139.84","67.57","OLD CROW A","2100801","2018-09-21 16:00","2018","09","21","16:00","7.8","","4.8","","81","","","","28","","4","","48.3","","98.21","","","","","","Rain"
"-139.84","67.57","OLD CROW A","2100801","2018-09-21 17:00","2018","09","21","17:00","7.9","","4.8","","80","","","","11","","4","","56.3","","98.13","","","","","","NA"
"-139.84","67.57","OLD CROW A","2100801","2018-09-21 18:00","2018","09","21","18:00"
"-139.84","67.57","OLD CROW A","2100801","2018-09-21 19:00","2018","09","21","19:00"
"-139.84","67.57","OLD CROW A","2100801","2018-09-21 20:00","2018","09","21","20:00"
"-139.84","67.57","OLD CROW A","2100801","2018-09-21 21:00","2018","09","21","21:00"
"-139.84","67.57","OLD CROW A","2100801","2018-09-21 22:00","2018","09","21","22:00"
"-139.84","67.57","OLD CROW A","2100801","2018-09-21 23:00","2018","09","21","23:00"
"-139.84","67.57","OLD CROW A","2100801","2018-09-22 00:00","2018","09","22","00:00"
"-139.84","67.57","OLD CROW A","2100801","2018-09-22 01:00","2018","09","22","01:00"
"-139.84","67.57","OLD CROW A","2100801","2018-09-22 02:00","2018","09","22","02:00"
"-139.84","67.57","OLD CROW A","2100801","2018-09-22 03:00","2018","09","22","03:00"
"-139.84","67.57","OLD CROW A","2100801","2018-09-22 04:00","2018","09","22","04:00"
"-139.84","67.57","OLD CROW A","2100801","2018-09-22 05:00","2018","09","22","05:00","1.8","","0.7","","92","","","","7","","9","","32.2","","97.37","","","","","","NA"
"-139.84","67.57","OLD CROW A","2100801","2018-09-22 06:00","2018","09","22","06:00","1.5","","0.6","","94","","","","7","","8","","32.2","","97.31","","","","","","NA"
"-139.84","67.57","OLD CROW A","2100801","2018-09-22 07:00","2018","09","22","07:00","1.9","","1.1","","95","","","","10","","7","","48.3","","97.23","","","","","","Mostly Cloudy"
"-139.84","67.57","OLD CROW A","2100801","2018-09-22 08:00","2018","09","22","08:00","4.2","","1.8","","85","","","","6","","12","","56.3","","97.16","","","","","","Rain"
"-139.84","67.57","OLD CROW A","2100801","2018-09-22 09:00","2018","09","22","09:00","5.1","","1.8","","79","","","","7","","8","","56.3","","97.11","","","","","","NA"
"-139.84","67.57","OLD CROW A","2100801","2018-09-22 10:00","2018","09","22","10:00","5.9","","2.0","","76","","","","7","","8","","56.3","","97.07","","","","","","Cloudy"
"-139.84","67.57","OLD CROW A","2100801","2018-09-22 11:00","2018","09","22","11:00","6.5","","2.4","","75","","","","7","","7","","32.2","","97.06","","","","","","Rain"
"-139.84","67.57","OLD CROW A","2100801","2018-09-22 12:00","2018","09","22","12:00","5.7","","4.8","","94","","","","8","","7","","32.2","","97.04","","","","","","Rain"
"-139.84","67.57","OLD CROW A","2100801","2018-09-22 13:00","2018","09","22","13:00","5.6","","4.3","","91","","","","6","","8","","32.2","","97.04","","","","","","Rain"
"-139.84","67.57","OLD CROW A","2100801","2018-09-22 14:00","2018","09","22","14:00"
"-139.84","67.57","OLD CROW A","2100801","2018-09-22 15:00","2018","09","22","15:00"
"-139.84","67.57","OLD CROW A","2100801","2018-09-22 16:00","2018","09","22","16:00"
"-139.84","67.57","OLD CROW A","2100801","2018-09-22 17:00","2018","09","22","17:00"
"-139.84","67.57","OLD CROW A","2100801","2018-09-22 18:00","2018","09","22","18:00"
"-139.84","67.57","OLD CROW A","2100801","2018-09-22 19:00","2018","09","22","19:00","3.4","","2.6","","94","","","","4","","13","","24.1","","97.01","","","","","","Rain"
"-139.84","67.57","OLD CROW A","2100801","2018-09-22 20:00","2018","09","22","20:00","3.5","","2.8","","95","","","","6","","9","","19.3","","97.00","","","","","","Rain"
"-139.84","67.57","OLD CROW A","2100801","2018-09-22 21:00","2018","09","22","21:00","4.1","","3.3","","95","","","","7","","10","","19.3","","97.01","","","","","","Rain"
"-139.84","67.57","OLD CROW A","2100801","2018-09-22 22:00","2018","09","22","22:00","4.0","","3.3","","95","","","","6","","10","","19.3","","97.01","","","","","","Rain"
"-139.84","67.57","OLD CROW A","2100801","2018-09-22 23:00","2018","09","22","23:00"
"-139.84","67.57","OLD CROW A","2100801","2018-09-23 00:00","2018","09","23","00:00"
"-139.84","67.57","OLD CROW A","2100801","2018-09-23 01:00","2018","09","23","01:00"
"-139.84","67.57","OLD CROW A","2100801","2018-09-23 02:00","2018","09","23","02:00"
"-139.84","67.57","OLD CROW A","2100801","2018-09-23 03:00","2018","09","23","03:00"
"-139.84","67.57","OLD CROW A","2100801","2018-09-23 04:00","2018","09","23","04:00"
"-139.84","67.57","OLD CROW A","2100801","2018-09-23 05:00","2018","09","23","05:00","1.7","","1.2","","96","","","","6","","4","","24.1","","97.24","","","","","","NA"
"-139.84","67.57","OLD CROW A","2100801","2018-09-23 06:00","2018","09","23","06:00","1.8","","1.3","","97","","","","36","","2","","24.1","","97.28","","","","","","NA"
"-139.84","67.57","OLD CROW A","2100801","2018-09-23 07:00","2018","09","23","07:00","1.9","","1.3","","96","","","","26","","7","","8.1","","97.32","","","","","","Rain"
"-139.84","67.57","OLD CROW A","2100801","2018-09-23 08:00","2018","09","23","08:00","1.5","","1.2","","98","","","","6","","3","","3.2","","97.38","","","","","","Rain,Fog"
"-139.84","67.57","OLD CROW A","2100801","2018-09-23 09:00","2018","09","23","09:00","1.7","","1.5","","98","","","","36","","1","","3.2","","97.44","","","","","","Rain,Fog"
"-139.84","67.57","OLD CROW A","2100801","2018-09-23 10:00","2018","09","23","10:00","2.2","","1.8","","97","","","","27","","3","","16.1","","97.50","","","","","","Rain,Fog"
"-139.84","67.57","OLD CROW A","2100801","2018-09-23 11:00","2018","09","23","11:00","2.1","","0.6","","90","","","","4","","10","","12.9","","97.57","","","","","","NA"
"-139.84","67.57","OLD CROW A","2100801","2018-09-23 12:00","2018","09","23","12:00","1.7","","0.2","","90","","","","3","","19","","24.1","","97.62","","","","","","NA"
"-139.84","67.57","OLD CROW A","2100801","2018-09-23 13:00","2018","09","23","13:00","1.7","","0.1","","89","","","","5","","18","","24.1","","97.66","","","","","","Mostly Cloudy"
"-139.84","67.57","OLD CROW A","2100801","2018-09-23 14:00","2018","09","23","14:00","2.0","","-0.4","","84","","","","3","","17","","32.2","","97.71","","","","","","NA"
"-139.84","67.57","OLD CROW A","2100801","2018-09-23 15:00","2018","09","23","15:00","1.9","","-0.7","","83","","","","5","","18","","40.2","","97.76","","","","","","NA"
"-139.84","67.57","OLD CROW A","2100801","2018-09-23 16:00","2018","09","23","16:00","1.2","","-0.3","","90","","","","6","","18","","24.1","","97.81","","","","","","Drizzle,Snow"
"-139.84","67.57","OLD CROW A","2100801","2018-09-23 17:00","2018","09","23","17:00","0.9","","-0.6","","90","","","","6","","17","","24.1","","97.84","","","","","","Drizzle"
"-139.84","67.57","OLD CROW A","2100801","2018-09-23 18:00","2018","09","23","18:00"
"-139.84","67.57","OLD CROW A","2100801","2018-09-23 19:00","2018","09","23","19:00"
"-139.84","67.57","OLD CROW A","2100801","2018-09-23 20:00","2018","09","23","20:00"
"-139.84","67.57","OLD CROW A","2100801","2018-09-23 21:00","2018","09","23","21:00"
"-139.84","67.57","OLD CROW A","2100801","2018-09-23 22:00","2018","09","23","22:00"
"-139.84","67.57","OLD CROW A","2100801","2018-09-23 23:00","2018","09","23","23:00"
"-139.84","67.57","OLD CROW A","2100801","2018-09-24 00:00","2018","09","24","00:00"
"-139.84","67.57","OLD CROW A","2100801","2018-09-24 01:00","2018","09","24","01:00"
"-139.84","67.57","OLD CROW A","2100801","2018-09-24 02:00","2018","09","24","02:00"
"-139.84","67.57","OLD CROW A","2100801","2018-09-24 03:00","2018","09","24","03:00"
"-139.84","67.57","OLD CROW A","2100801","2018-09-24 04:00","2018","09","24","04:00"
"-139.84","67.57","OLD CROW A","2100801","2018-09-24 05:00","2018","09","24","05:00","-1.8","","-3.9","","86","","","","6","","10","","24.1","","98.38","","","","-5","","NA"
"-139.84","67.57","OLD CROW A","2100801","2018-09-24 06:00","2018","09","24","06:00","-1.8","","-3.8","","86","","","","7","","6","","56.3","","98.42","","","","-4","","NA"
"-139.84","67.57","OLD CROW A","2100801","2018-09-24 07:00","2018","09","24","07:00","-1.9","","-4.2","","84","","","","6","","10","","56.3","","98.45","","","","-6","","Mostly Cloudy"
"-139.84","67.57","OLD CROW A","2100801","2018-09-24 08:00","2018","09","24","08:00","-2.0","","-4.5","","83","","","","6","","7","","56.3","","98.47","","","","-5","","NA"
"-139.84","67.57","OLD CROW A","2100801","2018-09-24 09:00","2018","09","24","09:00","-1.7","","-4.9","","79","","","","6","","9","","56.3","","98.45","","","","-5","","NA"
"-139.84","67.57","OLD CROW A","2100801","2018-09-24 10:00","2018","09","24","10:00","-1.4","","-4.8","","78","","","","6","","14","","56.3","","98.42","","","","-6","","Mostly Cloudy"
"-139.84","67.57","OLD CROW A","2100801","2018-09-24 11:00","2018","09","24","11:00","-0.7","","-4.7","","74","","","","6","","12","","56.3","","98.38","","","","-5","","NA"
"-139.84","67.57","OLD CROW A","2100801","2018-09-24 12:00","2018","09","24","12:00","0.2","","-4.4","","71","","","","6","","13","","56.3","","98.35","","","","","","NA"
"-139.84","67.57","OLD CROW A","2100801","2018-09-24 13:00","2018","09","24","13:00","0.8","","-4.1","","70","","","","6","","10","","56.3","","98.30","","","","","","Mostly Cloudy"
"-139.84","67.57","OLD CROW A","2100801","2018-09-24 14:00","2018","09","24","14:00","1.5","","-3.7","","68","","","","6","","12","","56.3","","98.23","","","","","","NA"
"-139.84","67.57","OLD CROW A","2100801","2018-09-24 15:00","2018","09","24","15:00","1.9","","-3.3","","68","","","","6","","13","","56.3","","98.19","","","","","","NA"
"-139.84","67.57","OLD CROW A","2100801","2018-09-24 16:00","2018","09","24","16:00","2.4","","-2.5","","70","","","","10","","12","","56.3","","98.11","","","","","","Mostly Cloudy"
"-139.84","67.57","OLD CROW A","2100801","2018-09-24 17:00","2018","09","24","17:00","2.0","","-2.7","","71","","","","5","","13","","56.3","","98.04","","","","","","NA"
"-139.84","67.57","OLD CROW A","2100801","2018-09-24 18:00","2018","09","24","18:00"
"-139.84","67.57","OLD CROW A","2100801","2018-09-24 19:00","2018","09","24","19:00"
"-139.84","67.57","OLD CROW A","2100801","2018-09-24 20:00","2018","09","24","20:00"
"-139.84","67.57","OLD CROW A","2100801","2018-09-24 21:00","2018","09","24","21:00"
"-139.84","67.57","OLD CROW A","2100801","2018-09-24 22:00","2018","09","24","22:00"
"-139.84","67.57","OLD CROW A","2100801","2018-09-24 23:00","2018","09","24","23:00"
"-139.84","67.57","OLD CROW A","2100801","2018-09-25 00:00","2018","09","25","00:00"
"-139.84","67.57","OLD CROW A","2100801","2018-09-25 01:00","2018","09","25","01:00"
"-139.84","67.57","OLD CROW A","2100801","2018-09-25 02:00","2018","09","25","02:00"
"-139.84","67.57","OLD CROW A","2100801","2018-09-25 03:00","2018","09","25","03:00"
"-139.84","67.57","OLD CROW A","2100801","2018-09-25 04:00","2018","09","25","04:00"
"-139.84","67.57","OLD CROW A","2100801","2018-09-25 05:00","2018","09","25","05:00","-1.1","","-3.4","","84","","","","3","","23","","24.1","","97.94","","","","-7","","Snow"
"-139.84","67.57","OLD CROW A","2100801","2018-09-25 06:00","2018","09","25","06:00","-1.5","","-3.9","","84","","","","3","","27","","24.1","","98.05","","","","-8","","Snow"
"-139.84","67.57","OLD CROW A","2100801","2018-09-25 07:00","2018","09","25","07:00","-2.2","","-4.0","","87","","","","4","","19","","9.7","","98.18","","","","-8","","Snow"
"-139.84","67.57","OLD CROW A","2100801","2018-09-25 08:00","2018","09","25","08:00","-2.1","","-4.6","","83","","","","5","","25","","4.8","","98.30","","","","-9","","Snow"
"-139.84","67.57","OLD CROW A","2100801","2018-09-25 09:00","2018","09","25","09:00","-1.7","","-5.2","","78","","","","4","","20","","56.3","","98.41","","","","-7","","NA"
"-139.84","67.57","OLD CROW A","2100801","2018-09-25 10:00","2018","09","25","10:00","-1.4","","-5.2","","75","","","","4","","21","","56.3","","98.51","","","","-7","","Cloudy"
"-139.84","67.57","OLD CROW A","2100801","2018-09-25 11:00","2018","09","25","11:00","-1.4","","-5.0","","76","","","","4","","21","","32.2","","98.63","","","","-7","","NA"
"-139.84","67.57","OLD CROW A","2100801","2018-09-25 12:00","2018","09","25","12:00","-1.2","","-4.9","","76","","","","4","","13","","40.2","","98.71","","","","-5","","NA"
"-139.84","67.57","OLD CROW A","2100801","2018-09-25 13:00","2018","09","25","13:00","-0.8","","-4.8","","74","","","","2","","16","","40.2","","98.80","","","","-6","","Cloudy"
"-139.84","67.57","OLD CROW A","2100801","2018-09-25 14:00","2018","09","25","14:00","-0.3","","-4.8","","71","","","","4","","19","","40.2","","98.87","","","","-5","","NA"
"-139.84","67.57","OLD CROW A","2100801","2018-09-25 15:00","2018","09","25","15:00","-0.6","","-5.5","","69","","","","4","","16","","40.2","","98.94","","","","-5","","NA"
"-139.84","67.57","OLD CROW A","2100801","2018-09-25 16:00","2018","09","25","16:00","-0.6","","-5.4","","70","","","","6","","17","","40.2","","98.98","","","","-6","","Cloudy"
"-139.84","67.57","OLD CROW A","2100801","2018-09-25 17:00","2018","09","25","17:00","-0.7","","-5.4","","71","","","","4","","14","","40.2","","99.03","","","","-5","","NA"
"-139.84","67.57","OLD CROW A","2100801","2018-09-25 18:00","2018","09","25","18:00"
"-139.84","67.57","OLD CROW A","2100801","2018-09-25 19:00","2018","09","25","19:00"
"-139.84","67.57","OLD CROW A","2100801","2018-09-25 20:00","2018","09","25","20:00"
"-139.84","67.57","OLD CROW A","2100801","2018-09-25 21:00","2018","09","25","21:00"
"-139.84","67.57","OLD CROW A","2100801","2018-09-25 22:00","2018","09","25","22:00"
"-139.84","67.57","OLD CROW A","2100801","2018-09-25 23:00","2018","09","25","23:00"
"-139.84","67.57","OLD CROW A","2100801","2018-09-26 00:00","2018","09","26","00:00"
"-139.84","67.57","OLD CROW A","2100801","2018-09-26 01:00","2018","09","26","01:00"
"-139.84","67.57","OLD CROW A","2100801","2018-09-26 02:00","2018","09","26","02:00"
"-139.84","67.57","OLD CROW A","2100801","2018-09-26 03:00","2018","09","26","03:00"
"-139.84","67.57","OLD CROW A","2100801","2018-09-26 04:00","2018","09","26","04:00"
"-139.84","67.57","OLD CROW A","2100801","2018-09-26 05:00","2018","09","26","05:00","-3.4","","-7.5","","73","","","","6","","5","","24.1","","99.46","","","","-5","","NA"
"-139.84","67.57","OLD CROW A","2100801","2018-09-26 06:00","2018","09","26","06:00","-3.0","","-6.5","","77","","","","1","","4","","24.1","","99.51","","","","-5","","NA"
"-139.84","67.57","OLD CROW A","2100801","2018-09-26 07:00","2018","09","26","07:00","-3.4","","-6.7","","79","","","","10","","5","","56.3","","99.54","","","","-5","","Mostly Cloudy"
"-139.84","67.57","OLD CROW A","2100801","2018-09-26 08:00","2018","09","26","08:00","-3.4","","-6.5","","79","","","","36","","2","","56.3","","99.58","","","","-4","","NA"
"-139.84","67.57","OLD CROW A","2100801","2018-09-26 09:00","2018","09","26","09:00","-2.9","","-5.9","","80","","","","36","","1","","56.3","","99.66","","","","-3","","NA"
"-139.84","67.57","OLD CROW A","2100801","2018-09-26 10:00","2018","09","26","10:00","-2.5","","-6.0","","77","","","","36","","2","","56.3","","99.73","","","","-3","","Cloudy"
"-139.84","67.57","OLD CROW A","2100801","2018-09-26 11:00","2018","09","26","11:00","-2.1","","-6.1","","74","","","","23","","9","","40.2","","99.76","","","","-6","","NA"
"-139.84","67.57","OLD CROW A","2100801","2018-09-26 12:00","2018","09","26","12:00","-1.6","","-5.8","","73","","","","21","","5","","40.2","","99.82","","","","-3","","NA"
"-139.84","67.57","OLD CROW A","2100801","2018-09-26 13:00","2018","09","26","13:00","-0.4","","-5.5","","69","","","","23","","6","","48.3","","99.87","","","","-2","","Mostly Cloudy"
"-139.84","67.57","OLD CROW A","2100801","2018-09-26 14:00","2018","09","26","14:00","0.1","","-5.2","","68","","","","25","","8","","48.3","","99.92","","","","","","NA"
"-139.84","67.57","OLD CROW A","2100801","2018-09-26 15:00","2018","09","26","15:00","0.5","","-5.5","","64","","","","22","","10","","48.3","","99.96","","","","","","NA"
"-139.84","67.57","OLD CROW A","2100801","2018-09-26 16:00","2018","09","26","16:00","-0.3","","-5.2","","69","","","","27","","13","","56.3","","99.99","","","","-4","","Mostly Cloudy"
"-139.84","67.57","OLD CROW A","2100801","2018-09-26 17:00","2018","09","26","17:00","-0.4","","-5.2","","70","","","","26","","11","","56.3","","100.03","","","","-4","","NA"
"-139.84","67.57","OLD CROW A","2100801","2018-09-26 18:00","2018","09","26","18:00"
"-139.84","67.57","OLD CROW A","2100801","2018-09-26 19:00","2018","09","26","19:00"
"-139.84","67.57","OLD CROW A","2100801","2018-09-26 20:00","2018","09","26","20:00"
"-139.84","67.57","OLD CROW A","2100801","2018-09-26 21:00","2018","09","26","21:00"
"-139.84","67.57","OLD CROW A","2100801","2018-09-26 22:00","2018","09","26","22:00"
"-139.84","67.57","OLD CROW A","2100801","2018-09-26 23:00","2018","09","26","23:00"
"-139.84","67.57","OLD CROW A","2100801","2018-09-27 00:00","2018","09","27","00:00"
"-139.84","67.57","OLD CROW A","2100801","2018-09-27 01:00","2018","09","27","01:00"
"-139.84","67.57","OLD CROW A","2100801","2018-09-27 02:00","2018","09","27","02:00"
"-139.84","67.57","OLD CROW A","2100801","2018-09-27 03:00","2018","09","27","03:00"
"-139.84","67.57","OLD CROW A","2100801","2018-09-27 04:00","2018","09","27","04:00"
"-139.84","67.57","OLD CROW A","2100801","2018-09-27 05:00","2018","09","27","05:00","-1.7","","-3.9","","85","","","","20","","5","","32.2","","100.30","","","","-4","","Snow"
"-139.84","67.57","OLD CROW A","2100801","2018-09-27 06:00","2018","09","27","06:00","-3.5","","-5.3","","88","","","","8","","4","","19.3","","100.31","","","","-5","","Snow"
"-139.84","67.57","OLD CROW A","2100801","2018-09-27 07:00","2018","09","27","07:00","-3.8","","-5.3","","89","","","","11","","4","","32.2","","100.30","","","","-5","","Snow"
"-139.84","67.57","OLD CROW A","2100801","2018-09-27 08:00","2018","09","27","08:00","-4.0","","-5.3","","90","","","","9","","4","","24.1","","100.29","","","","-6","","Snow"
"-139.84","67.57","OLD CROW A","2100801","2018-09-27 09:00","2018","09","27","09:00","-3.9","","-5.5","","89","","","","7","","7","","32.2","","100.31","","","","-7","","Snow"
"-139.84","67.57","OLD CROW A","2100801","2018-09-27 10:00","2018","09","27","10:00","-1.9","","-4.6","","82","","","","8","","7","","32.2","","100.33","","","","-5","","Cloudy"
"-139.84","67.57","OLD CROW A","2100801","2018-09-27 11:00","2018","09","27","11:00","-1.4","","-4.3","","80","","","","8","","8","","32.2","","100.33","","","","-4","","NA"
"-139.84","67.57","OLD CROW A","2100801","2018-09-27 12:00","2018","09","27","12:00","-0.9","","-4.3","","78","","","","6","","8","","32.2","","100.32","","","","-4","","NA"
"-139.84","67.57","OLD CROW A","2100801","2018-09-27 13:00","2018","09","27","13:00","0.2","","-3.5","","76","","","","9","","3","","32.2","","100.32","","","","","","Cloudy"
"-139.84","67.57","OLD CROW A","2100801","2018-09-27 14:00","2018","09","27","14:00","0.1","","-4.4","","72","","","","27","","5","","32.2","","100.29","","","","","","NA"
"-139.84","67.57","OLD CROW A","2100801","2018-09-27 15:00","2018","09","27","15:00","0.3","","-4.1","","72","","","","36","","2","","40.2","","100.27","","","","","","NA"
"-139.84","67.57","OLD CROW A","2100801","2018-09-27 16:00","2018","09","27","16:00","0.2","","-4.6","","70","","","","7","","5","","32.2","","100.24","","","","","","Cloudy"
"-139.84","67.57","OLD CROW A","2100801","2018-09-27 17:00","2018","09","27","17:00","0.2","","-4.0","","73","","","","8","","7","","32.2","","100.20","","","","","","NA"
"-139.84","67.57","OLD CROW A","2100801","2018-09-27 18:00","2018","09","27","18:00"
"-139.84","67.57","OLD CROW A","2100801","2018-09-27 19:00","2018","09","27","19:00"
"-139.84","67.57","OLD CROW A","2100801","2018-09-27 20:00","2018","09","27","20:00"
"-139.84","67.57","OLD CROW A","2100801","2018-09-27 21:00","2018","09","27","21:00"
"-139.84","67.57","OLD CROW A","2100801","2018-09-27 22:00","2018","09","27","22:00"
"-139.84","67.57","OLD CROW A","2100801","2018-09-27 23:00","2018","09","27","23:00"
"-139.84","67.57","OLD CROW A","2100801","2018-09-28 00:00","2018","09","28","00:00"
"-139.84","67.57","OLD CROW A","2100801","2018-09-28 01:00","2018","09","28","01:00"
"-139.84","67.57","OLD CROW A","2100801","2018-09-28 02:00","2018","09","28","02:00"
"-139.84","67.57","OLD CROW A","2100801","2018-09-28 03:00","2018","09","28","03:00"
"-139.84","67.57","OLD CROW A","2100801","2018-09-28 04:00","2018","09","28","04:00"
"-139.84","67.57","OLD CROW A","2100801","2018-09-28 05:00","2018","09","28","05:00","-2.9","","-4.6","","88","","","","7","","7","","32.2","","100.40","","","","-6","","NA"
"-139.84","67.57","OLD CROW A","2100801","2018-09-28 06:00","2018","09","28","06:00","-3.1","","-4.6","","89","","","","8","","7","","32.2","","100.46","","","","-6","","NA"
"-139.84","67.57","OLD CROW A","2100801","2018-09-28 07:00","2018","09","28","07:00","-3.4","","-4.8","","90","","","","9","","9","","24.1","","100.49","","","","-7","","Snow"
"-139.84","67.57","OLD CROW A","2100801","2018-09-28 08:00","2018","09","28","08:00","-3.3","","-4.6","","91","","","","8","","8","","24.1","","100.52","","","","-7","","NA"
"-139.84","67.57","OLD CROW A","2100801","2018-09-28 09:00","2018","09","28","09:00","-3.0","","-4.6","","88","","","","6","","15","","24.1","","100.56","","","","-8","","Snow"
"-139.84","67.57","OLD CROW A","2100801","2018-09-28 10:00","2018","09","28","10:00","-2.6","","-4.6","","86","","","","7","","13","","24.1","","100.62","","","","-7","","Cloudy"
"-139.84","67.57","OLD CROW A","2100801","2018-09-28 11:00","2018","09","28","11:00","-2.0","","-4.4","","84","","","","9","","7","","24.1","","100.65","","","","-5","","NA"
"-139.84","67.57","OLD CROW A","2100801","2018-09-28 12:00","2018","09","28","12:00","-1.3","","-4.3","","80","","","","10","","7","","32.2","","100.70","","","","-4","","NA"
"-139.84","67.57","OLD CROW A","2100801","2018-09-28 13:00","2018","09","28","13:00","-0.2","","-4.3","","74","","","","9","","7","","48.3","","100.72","","","","-3","","Mainly Clear"
"-139.84","67.57","OLD CROW A","2100801","2018-09-28 14:00","2018","09","28","14:00","0.9","","-3.9","","70","","","","7","","6","","56.3","","100.71","","","","","","NA"
"-139.84","67.57","OLD CROW A","2100801","2018-09-28 15:00","2018","09","28","15:00","1.8","","-3.8","","67","","","","7","","9","","56.3","","100.71","","","","","","NA"
"-139.84","67.57","OLD CROW A","2100801","2018-09-28 16:00","2018","09","28","16:00","1.8","","-3.8","","66","","","","5","","11","","56.3","","100.71","","","","","","Clear"
"-139.84","67.57","OLD CROW A","2100801","2018-09-28 17:00","2018","09","28","17:00","1.4","","-3.9","","68","","","","4","","15","","56.3","","100.72","","","","","","NA"
"-139.84","67.57","OLD CROW A","2100801","2018-09-28 18:00","2018","09","28","18:00"
"-139.84","67.57","OLD CROW A","2100801","2018-09-28 19:00","2018","09","28","19:00"
"-139.84","67.57","OLD CROW A","2100801","2018-09-28 20:00","2018","09","28","20:00"
"-139.84","67.57","OLD CROW A","2100801","2018-09-28 21:00","2018","09","28","21:00"
"-139.84","67.57","OLD CROW A","2100801","2018-09-28 22:00","2018","09","28","22:00"
"-139.84","67.57","OLD CROW A","2100801","2018-09-28 23:00","2018","09","28","23:00"
"-139.84","67.57","OLD CROW A","2100801","2018-09-29 00:00","2018","09","29","00:00"
"-139.84","67.57","OLD CROW A","2100801","2018-09-29 01:00","2018","09","29","01:00"
"-139.84","67.57","OLD CROW A","2100801","2018-09-29 02:00","2018","09","29","02:00"
"-139.84","67.57","OLD CROW A","2100801","2018-09-29 03:00","2018","09","29","03:00"
"-139.84","67.57","OLD CROW A","2100801","2018-09-29 04:00","2018","09","29","04:00"
"-139.84","67.57","OLD CROW A","2100801","2018-09-29 05:00","2018","09","29","05:00","-8.3","","-9.4","","92","","","","36","","3","","32.2","","100.65","","","","-10","","NA"
"-139.84","67.57","OLD CROW A","2100801","2018-09-29 06:00","2018","09","29","06:00","-9.2","","-10.4","","91","","","","1","","3","","40.2","","100.60","","","","-11","","NA"
"-139.84","67.57","OLD CROW A","2100801","2018-09-29 07:00","2018","09","29","07:00","-9.6","","-10.8","","91","","","","36","","2","","4.0","","100.57","","","","-11","","Fog"
"-139.84","67.57","OLD CROW A","2100801","2018-09-29 08:00","2018","09","29","08:00","-9.3","","-10.6","","90","","","","36","","1","","4.0","","100.58","","","","-10","","Fog"
"-139.84","67.57","OLD CROW A","2100801","2018-09-29 09:00","2018","09","29","09:00","-8.2","","-9.5","","90","","","","36","","2","","16.1","","100.57","","","","-9","","NA"
"-139.84","67.57","OLD CROW A","2100801","2018-09-29 10:00","2018","09","29","10:00","-5.5","","-7.0","","90","","","","11","","4","","32.2","","100.56","","","","-7","","Mainly Clear"
"-139.84","67.57","OLD CROW A","2100801","2018-09-29 11:00","2018","09","29","11:00","-4.3","","-6.3","","86","","","","10","","8","","16.1","","100.54","","","","-8","","NA"
"-139.84","67.57","OLD CROW A","2100801","2018-09-29 12:00","2018","09","29","12:00","-3.6","","-5.8","","85","","","","10","","7","","32.2","","100.51","","","","-7","","NA"
"-139.84","67.57","OLD CROW A","2100801","2018-09-29 13:00","2018","09","29","13:00","-2.8","","-5.5","","82","","","","9","","12","","32.2","","100.49","","","","-7","","Mainly Clear"
"-139.84","67.57","OLD CROW A","2100801","2018-09-29 14:00","2018","09","29","14:00","-2.4","","-5.3","","80","","","","9","","14","","32.2","","100.44","","","","-7","","NA"
"-139.84","67.57","OLD CROW A","2100801","2018-09-29 15:00","2018","09","29","15:00","-1.4","","-5.2","","76","","","","8","","11","","56.3","","100.40","","","","-5","","NA"
"-139.84","67.57","OLD CROW A","2100801","2018-09-29 16:00","2018","09","29","16:00","-0.7","","-4.8","","74","","","","9","","9","","56.3","","100.35","","","","-4","","Mainly Clear"
"-139.84","67.57","OLD CROW A","2100801","2018-09-29 17:00","2018","09","29","17:00","-1.4","","-4.8","","78","","","","8","","9","","56.3","","100.29","","","","-5","","NA"
"-139.84","67.57","OLD CROW A","2100801","2018-09-29 18:00","2018","09","29","18:00"
"-139.84","67.57","OLD CROW A","2100801","2018-09-29 19:00","2018","09","29","19:00"
"-139.84","67.57","OLD CROW A","2100801","2018-09-29 20:00","2018","09","29","20:00"
"-139.84","67.57","OLD CROW A","2100801","2018-09-29 21:00","2018","09","29","21:00"
"-139.84","67.57","OLD CROW A","2100801","2018-09-29 22:00","2018","09","29","22:00"
"-139.84","67.57","OLD CROW A","2100801","2018-09-29 23:00","2018","09","29","23:00"
"-139.84","67.57","OLD CROW A","2100801","2018-09-30 00:00","2018","09","30","00:00"
"-139.84","67.57","OLD CROW A","2100801","2018-09-30 01:00","2018","09","30","01:00"
"-139.84","67.57","OLD CROW A","2100801","2018-09-30 02:00","2018","09","30","02:00"
"-139.84","67.57","OLD CROW A","2100801","2018-09-30 03:00","2018","09","30","03:00"
"-139.84","67.57","OLD CROW A","2100801","2018-09-30 04:00","2018","09","30","04:00"
"-139.84","67.57","OLD CROW A","2100801","2018-09-30 05:00","2018","09","30","05:00","-7.5","","-8.1","","95","","","","22","","5","","32.2","","99.74","","","","-10","","NA"
"-139.84","67.57","OLD CROW A","2100801","2018-09-30 06:00","2018","09","30","06:00","-6.9","","-7.8","","94","","","","36","","2","","32.2","","99.67","","","","-8","","NA"
"-139.84","67.57","OLD CROW A","2100801","2018-09-30 07:00","2018","09","30","07:00","-7.6","","-8.7","","91","","","","36","","1","","32.2","","99.63","","","","-8","","Mostly Cloudy"
"-139.84","67.57","OLD CROW A","2100801","2018-09-30 08:00","2018","09","30","08:00","-7.3","","-8.3","","92","","","","6","","3","","32.2","","99.60","","","","-9","","NA"
"-139.84","67.57","OLD CROW A","2100801","2018-09-30 09:00","2018","09","30","09:00","-6.6","","-7.5","","93","","","","36","","3","","40.2","","99.55","","","","-8","","NA"
"-139.84","67.57","OLD CROW A","2100801","2018-09-30 10:00","2018","09","30","10:00","-5.8","","-6.9","","92","","","","36","","2","","40.2","","99.49","","","","-7","","Mostly Cloudy"
"-139.84","67.57","OLD CROW A","2100801","2018-09-30 11:00","2018","09","30","11:00","-4.9","","-6.2","","91","","","","10","","4","","40.2","","99.49","","","","-7","","NA"
"-139.84","67.57","OLD CROW A","2100801","2018-09-30 12:00","2018","09","30","12:00","-3.1","","-5.4","","84","","","","8","","8","","56.3","","99.46","","","","-6","","NA"
"-139.84","67.57","OLD CROW A","2100801","2018-09-30 13:00","2018","09","30","13:00","-2.0","","-5.1","","79","","","","8","","10","","56.3","","99.42","","","","-6","","Mostly Cloudy"
"-139.84","67.57","OLD CROW A","2100801","2018-09-30 14:00","2018","09","30","14:00","-0.4","","-4.5","","74","","","","10","","10","","56.3","","99.38","","","","-4","","NA"
"-139.84","67.57","OLD CROW A","2100801","2018-09-30 15:00","2018","09","30","15:00","1.1","","-4.2","","68","","","","7","","14","","56.3","","99.42","","","","","","NA"
"-139.84","67.57","OLD CROW A","2100801","2018-09-30 16:00","2018","09","30","16:00","-0.6","","-4.1","","78","","","","6","","22","","56.3","","99.43","","","","-6","","Mostly Cloudy"
"-139.84","67.57","OLD CROW A","2100801","2018-09-30 17:00","2018","09","30","17:00","0.6","","-3.9","","72","","","","8","","16","","56.3","","99.47","","","","","","NA"
"-139.84","67.57","OLD CROW A","2100801","2018-09-30 18:00","2018","09","30","18:00"
"-139.84","67.57","OLD CROW A","2100801","2018-09-30 19:00","2018","09","30","19:00"
"-139.84","67.57","OLD CROW A","2100801","2018-09-30 20:00","2018","09","30","20:00"
"-139.84","67.57","OLD CROW A","2100801","2018-09-30 21:00","2018","09","30","21:00"
"-139.84","67.57","OLD CROW A","2100801","2018-09-30 22:00","2018","09","30","22:00"
"-139.84","67.57","OLD CROW A","2100801","2018-09-30 23:00","2018","09","30","23:00"
