"Longitude (x)","Latitude (y)","Station Name","Climate ID","Date/Time (LST)","Year","Month","Day","Time (LST)","Temp (°C)","Temp Flag","Dew Point Temp (°C)","Dew Point Temp Flag","Rel Hum (%)","Rel Hum Flag","Precip. Amount (mm)","Precip. Amount Flag","Wind Dir (10s deg)","Wind Dir Flag","Wind Spd (km/h)","Wind Spd Flag","Visibility (km)","Visibility Flag","Stn Press (kPa)","Stn Press Flag","Hmdx","Hmdx Flag","Wind Chill","Wind Chill Flag","Weather"
"-62.28","82.52","ALERT A","2400302","2020-03-01 00:00","2020","03","01","00:00"
"-62.28","82.52","ALERT A","2400302","2020-03-01 01:00","2020","03","01","01:00"
"-62.28","82.52","ALERT A","2400302","2020-03-01 02:00","2020","03","01","02:00"
"-62.28","82.52","ALERT A","2400302","2020-03-01 03:00","2020","03","01","03:00"
"-62.28","82.52","ALERT A","2400302","2020-03-01 04:00","2020","03","01","04:00"
"-62.28","82.52","ALERT A","2400302","2020-03-01 05:00","2020","03","01","05:00"
"-62.28","82.52","ALERT A","2400302","2020-03-01 06:00","2020","03","01","06:00"
"-62.28","82.52","ALERT A","2400302","2020-03-01 07:00","2020","03","01","07:00"
"-62.28","82.52","ALERT A","2400302","2020-03-01 08:00","2020","03","01","08:00"
"-62.28","82.52","ALERT A","2400302","2020-03-01 09:00","2020","03","01","09:00"
"-62.28","82.52","ALERT A","2400302","2020-03-01 10:00","2020","03","01","10:00"
"-62.28","82.52","ALERT A","2400302","2020-03-01 11:00","2020","03","01","11:00"
"-62.28","82.52","ALERT A","2400302","2020-03-01 12:00","2020","03","01","12:00"
"-62.28","82.52","ALERT A","2400302","2020-03-01 13:00","2020","03","01","13:00"
"-62.28","82.52","ALERT A","2400302","2020-03-01 14:00","2020","03","01","14:00"
"-62.28","82.52","ALERT A","2400302","2020-03-01 15:00","2020","03","01","15:00"
"-62.28","82.52","ALERT A","2400302","2020-03-01 16:00","2020","03","01","16:00"
"-62.28","82.52","ALERT A","2400302","2020-03-01 17:00","2020","03","01","17:00"
"-62.28","82.52","ALERT A","2400302","2020-03-01 18:00","2020","03","01","18:00"
"-62.28","82.52","ALERT A","2400302","2020-03-01 19:00","2020","03","01","19:00"
"-62.28","82.52","ALERT A","2400302","2020-03-01 20:00","2020","03","01","20:00"
"-62.28","82.52","ALERT A","2400302","2020-03-01 21:00","2020","03","01","21:00"
"-62.28","82.52","ALERT A","2400302","2020-03-01 22:00","2020","03","01","22:00"
"-62.28","82.52","ALERT A","2400302","2020-03-01 23:00","2020","03","01","23:00"
"-62.28","82.52","ALERT A","2400302","2020-03-02 00:00","2020","03","02","00:00"
"-62.28","82.52","ALERT A","2400302","2020-03-02 01:00","2020","03","02","01:00"
"-62.28","82.52","ALERT A","2400302","2020-03-02 02:00","2020","03","02","02:00"
"-62.28","82.52","ALERT A","2400302","2020-03-02 03:00","2020","03","02","03:00"
"-62.28","82.52","ALERT A","2400302","2020-03-02 04:00","2020","03","02","04:00","-37.2","","-40.8","","69","","","","","","0","","16.1","","100.27","","","","","","Mainly Clear"
"-62.28","82.52","ALERT A","2400302","2020-03-02 05:00","2020","03","02","05:00","-36.9","","-40.3","","71","","","","","","0","","16.1","","100.26","","","","","","Mainly Clear"
"-62.28","82.52","ALERT A","2400302","2020-03-02 06:00","2020","03","02","06:00","-35.2","","-38.4","","72","","","","22","","8","","16.1","","100.26","","","","-44","","Mainly Clear"
"-62.28","82.52","ALERT A","2400302","2020-03-02 07:00","2020","03","02","07:00","-35.7","","-39.2","","70","","","","23","","9","","16.1","","100.26","","","","-45","","Mainly Clear"
"-62.28","82.52","ALERT A","2400302","2020-03-02 08:00","2020","03","02","08:00","-35.7","","-39.2","","70","","","","23","","9","","16.1","","100.28","","","","-45","","Mainly Clear"
"-62.28","82.52","ALERT A","2400302","2020-03-02 09:00","2020","03","02","09:00","-35.9","","-39.6","","69","","","","27","","9","","19.3","","100.29","","","","-46","","Mainly Clear"
"-62.28","82.52","ALERT A","2400302","2020-03-02 10:00","2020","03","02","10:00","-33.8","","-37.2","","71","","","","16","","11","","24.1","","100.29","","","","-44","","Mainly Clear"
"-62.28","82.52","ALERT A","2400302","2020-03-02 11:00","2020","03","02","11:00","-34.3","","-37.8","","71","","","","21","","5","","24.1","","100.31","","","","-41","","Mainly Clear"
"-62.28","82.52","ALERT A","2400302","2020-03-02 12:00","2020","03","02","12:00","-33.2","","-37.0","","69","","","","34","","5","","24.1","","100.28","","","","-39","","Mainly Clear"
"-62.28","82.52","ALERT A","2400302","2020-03-02 13:00","2020","03","02","13:00","-31.4","","-35.1","","70","","","","","","0","","24.1","","100.25","","","","","","Mainly Clear"
"-62.28","82.52","ALERT A","2400302","2020-03-02 14:00","2020","03","02","14:00","-35.5","","-38.9","","71","","","","","","0","","24.1","","100.24","","","","","","Mainly Clear"
"-62.28","82.52","ALERT A","2400302","2020-03-02 15:00","2020","03","02","15:00","-32.2","","-36.2","","68","","","","","","0","","24.1","","100.25","","","","","","Mainly Clear"
"-62.28","82.52","ALERT A","2400302","2020-03-02 16:00","2020","03","02","16:00","-32.2","","-36.5","","66","","","","","","0","","24.1","","100.25","","","","","","Mainly Clear"
"-62.28","82.52","ALERT A","2400302","2020-03-02 17:00","2020","03","02","17:00","-35.3","","-39.3","","67","","","","","","0","","24.1","","100.26","","","","","","Mainly Clear"
"-62.28","82.52","ALERT A","2400302","2020-03-02 18:00","2020","03","02","18:00"
"-62.28","82.52","ALERT A","2400302","2020-03-02 19:00","2020","03","02","19:00"
"-62.28","82.52","ALERT A","2400302","2020-03-02 20:00","2020","03","02","20:00"
"-62.28","82.52","ALERT A","2400302","2020-03-02 21:00","2020","03","02","21:00"
"-62.28","82.52","ALERT A","2400302","2020-03-02 22:00","2020","03","02","22:00"
"-62.28","82.52","ALERT A","2400302","2020-03-02 23:00","2020","03","02","23:00"
"-62.28","82.52","ALERT A","2400302","2020-03-03 00:00","2020","03","03","00:00"
"-62.28","82.52","ALERT A","2400302","2020-03-03 01:00","2020","03","03","01:00"
"-62.28","82.52","ALERT A","2400302","2020-03-03 02:00","2020","03","03","02:00","-32.7","","-36.6","","68","","","","","","0","","24.1","","100.18","","","","","","Mainly Clear"
"-62.28","82.52","ALERT A","2400302","2020-03-03 03:00","2020","03","03","03:00","-36.5","","-40.2","","69","","","","23","","9","","24.1","","100.18","","","","-46","","Mainly Clear"
"-62.28","82.52","ALERT A","2400302","2020-03-03 04:00","2020","03","03","04:00","-35.5","","-38.9","","71","","","","","","0","","24.1","","100.18","","","","","","Mainly Clear"
"-62.28","82.52","ALERT A","2400302","2020-03-03 05:00","2020","03","03","05:00","-34.7","","-38.9","","66","","","","","","0","","24.1","","100.19","","","","","","Mainly Clear"
"-62.28","82.52","ALERT A","2400302","2020-03-03 06:00","2020","03","03","06:00","-29.0","","","M","70","","","","27","","17","","24.1","","100.19","","","","-41","","Mainly Clear"
"-62.28","82.52","ALERT A","2400302","2020-03-03 07:00","2020","03","03","07:00","-25.1","","-29.4","","67","","","","27","","28","","24.1","","100.18","","","","-39","","Clear"
"-62.28","82.52","ALERT A","2400302","2020-03-03 08:00","2020","03","03","08:00","-25.1","","-29.8","","65","","","","27","","22","","24.1","","100.19","","","","-37","","Mainly Clear"
"-62.28","82.52","ALERT A","2400302","2020-03-03 09:00","2020","03","03","09:00","-26.8","","-31.6","","64","","","","5","","5","","24.1","","100.20","","","","-32","","Mainly Clear"
"-62.28","82.52","ALERT A","2400302","2020-03-03 10:00","2020","03","03","10:00","-24.3","","-28.9","","66","","","","28","","24","","24.1","","100.16","","","","-37","","Mainly Clear"
"-62.28","82.52","ALERT A","2400302","2020-03-03 11:00","2020","03","03","11:00","-24.1","","-28.4","","68","","","","26","","34","","9.7","","100.06","","","","-39","","Blowing Snow"
"-62.28","82.52","ALERT A","2400302","2020-03-03 12:00","2020","03","03","12:00","-24.6","","-29.6","","63","","","","26","","34","","9.7","","100.13","","","","-39","","Blowing Snow"
"-62.28","82.52","ALERT A","2400302","2020-03-03 13:00","2020","03","03","13:00","-24.0","","-28.6","","66","","","","27","","37","","16.1","","100.09","","","","-39","","Mainly Clear"
"-62.28","82.52","ALERT A","2400302","2020-03-03 14:00","2020","03","03","14:00","-23.4","","-28.2","","65","","","","26","","26","","12.9","","100.11","","","","-36","","Mainly Clear"
"-62.28","82.52","ALERT A","2400302","2020-03-03 15:00","2020","03","03","15:00","-24.0","","-29.6","","60","","","","26","","30","","12.9","","100.11","","","","-38","","Mainly Clear"
"-62.28","82.52","ALERT A","2400302","2020-03-03 16:00","2020","03","03","16:00","-24.0","","-29.6","","60","","","","17","","9","","16.1","","100.13","","","","-31","","Mainly Clear"
"-62.28","82.52","ALERT A","2400302","2020-03-03 17:00","2020","03","03","17:00","-23.3","","-29.1","","59","","","","24","","11","","16.1","","100.14","","","","-32","","Mainly Clear"
"-62.28","82.52","ALERT A","2400302","2020-03-03 18:00","2020","03","03","18:00"
"-62.28","82.52","ALERT A","2400302","2020-03-03 19:00","2020","03","03","19:00"
"-62.28","82.52","ALERT A","2400302","2020-03-03 20:00","2020","03","03","20:00"
"-62.28","82.52","ALERT A","2400302","2020-03-03 21:00","2020","03","03","21:00"
"-62.28","82.52","ALERT A","2400302","2020-03-03 22:00","2020","03","03","22:00"
"-62.28","82.52","ALERT A","2400302","2020-03-03 23:00","2020","03","03","23:00"
"-62.28","82.52","ALERT A","2400302","2020-03-04 00:00","2020","03","04","00:00"
"-62.28","82.52","ALERT A","2400302","2020-03-04 01:00","2020","03","04","01:00"
"-62.28","82.52","ALERT A","2400302","2020-03-04 02:00","2020","03","04","02:00"
"-62.28","82.52","ALERT A","2400302","2020-03-04 03:00","2020","03","04","03:00"
"-62.28","82.52","ALERT A","2400302","2020-03-04 04:00","2020","03","04","04:00","-33.6","","-37.2","","70","","","","","","0","","16.1","","100.69","","","","","","Mainly Clear"
"-62.28","82.52","ALERT A","2400302","2020-03-04 05:00","2020","03","04","05:00","-33.2","","-37.0","","69","","","","","","0","","16.1","","100.80","","","","","","Mainly Clear"
"-62.28","82.52","ALERT A","2400302","2020-03-04 06:00","2020","03","04","06:00","-32.8","","-36.4","","70","","","","","","0","","16.1","","100.78","","","","","","Mainly Clear"
"-62.28","82.52","ALERT A","2400302","2020-03-04 07:00","2020","03","04","07:00","-33.5","","-37.0","","71","","","","","","0","","16.1","","100.85","","","","","","Mainly Clear"
"-62.28","82.52","ALERT A","2400302","2020-03-04 08:00","2020","03","04","08:00","-34.0","","-37.4","","71","","","","","","0","","16.1","","100.90","","","","","","Mostly Cloudy"
"-62.28","82.52","ALERT A","2400302","2020-03-04 09:00","2020","03","04","09:00","-34.4","","-37.9","","70","","","","","","0","","16.1","","100.94","","","","","","Mostly Cloudy"
"-62.28","82.52","ALERT A","2400302","2020-03-04 10:00","2020","03","04","10:00","-34.9","","-38.6","","69","","","","","","0","","16.1","","100.95","","","","","","Mostly Cloudy"
"-62.28","82.52","ALERT A","2400302","2020-03-04 11:00","2020","03","04","11:00","-31.4","","-35.4","","68","","","","30","","4","","16.1","","101.00","","","","-36","","Mostly Cloudy"
"-62.28","82.52","ALERT A","2400302","2020-03-04 12:00","2020","03","04","12:00","-34.7","","-38.9","","66","","","","32","","4","","19.3","","101.02","","","","-40","","Mostly Cloudy"
"-62.28","82.52","ALERT A","2400302","2020-03-04 13:00","2020","03","04","13:00","-34.8","","-39.1","","65","","","","3","","4","","24.1","","101.08","","","","-40","","Mostly Cloudy"
"-62.28","82.52","ALERT A","2400302","2020-03-04 14:00","2020","03","04","14:00","-30.4","","-34.9","","65","","","","","","0","","24.1","","101.12","","","","","","Mostly Cloudy"
"-62.28","82.52","ALERT A","2400302","2020-03-04 15:00","2020","03","04","15:00","-31.7","","-35.7","","68","","","","","","0","","24.1","","101.17","","","","","","Mainly Clear"
"-62.28","82.52","ALERT A","2400302","2020-03-04 16:00","2020","03","04","16:00","-32.5","","-36.0","","71","","","","","","0","","24.1","","101.24","","","","","","Mainly Clear"
"-62.28","82.52","ALERT A","2400302","2020-03-04 17:00","2020","03","04","17:00","-33.6","","-37.6","","67","","","","","","0","","24.1","","101.29","","","","","","Mainly Clear"
"-62.28","82.52","ALERT A","2400302","2020-03-04 18:00","2020","03","04","18:00"
"-62.28","82.52","ALERT A","2400302","2020-03-04 19:00","2020","03","04","19:00"
"-62.28","82.52","ALERT A","2400302","2020-03-04 20:00","2020","03","04","20:00"
"-62.28","82.52","ALERT A","2400302","2020-03-04 21:00","2020","03","04","21:00"
"-62.28","82.52","ALERT A","2400302","2020-03-04 22:00","2020","03","04","22:00"
"-62.28","82.52","ALERT A","2400302","2020-03-04 23:00","2020","03","04","23:00"
"-62.28","82.52","ALERT A","2400302","2020-03-05 00:00","2020","03","05","00:00"
"-62.28","82.52","ALERT A","2400302","2020-03-05 01:00","2020","03","05","01:00"
"-62.28","82.52","ALERT A","2400302","2020-03-05 02:00","2020","03","05","02:00"
"-62.28","82.52","ALERT A","2400302","2020-03-05 03:00","2020","03","05","03:00"
"-62.28","82.52","ALERT A","2400302","2020-03-05 04:00","2020","03","05","04:00"
"-62.28","82.52","ALERT A","2400302","2020-03-05 05:00","2020","03","05","05:00"
"-62.28","82.52","ALERT A","2400302","2020-03-05 06:00","2020","03","05","06:00"
"-62.28","82.52","ALERT A","2400302","2020-03-05 07:00","2020","03","05","07:00"
"-62.28","82.52","ALERT A","2400302","2020-03-05 08:00","2020","03","05","08:00"
"-62.28","82.52","ALERT A","2400302","2020-03-05 09:00","2020","03","05","09:00","-35.0","","-38.6","","70","","","","20","","5","","9.7","","101.86","","","","-41","","Fog"
"-62.28","82.52","ALERT A","2400302","2020-03-05 10:00","2020","03","05","10:00","-33.9","","-37.2","","72","","","","23","","4","","9.7","","101.88","","","","-39","","Fog"
"-62.28","82.52","ALERT A","2400302","2020-03-05 11:00","2020","03","05","11:00","-34.2","","-37.6","","69","","","","","","0","","8.1","","101.88","","","","","","Snow,Fog"
"-62.28","82.52","ALERT A","2400302","2020-03-05 12:00","2020","03","05","12:00","-34.3","","-37.7","","71","","","","","","0","","8.1","","101.90","","","","","","Snow,Fog"
"-62.28","82.52","ALERT A","2400302","2020-03-05 13:00","2020","03","05","13:00","-34.8","","-38.2","","71","","","","","","0","","6.4","","101.89","","","","","","Snow,Fog"
"-62.28","82.52","ALERT A","2400302","2020-03-05 14:00","2020","03","05","14:00","-35.7","","-39.1","","71","","","","16","","4","","9.7","","101.90","","","","-41","","Snow"
"-62.28","82.52","ALERT A","2400302","2020-03-05 15:00","2020","03","05","15:00","-36.5","","-40.0","","70","","","","22","","8","","16.1","","101.93","","","","-46","","Mostly Cloudy"
"-62.28","82.52","ALERT A","2400302","2020-03-05 16:00","2020","03","05","16:00","-36.3","","-39.9","","69","","","","22","","5","","12.9","","101.95","","","","-43","","Mostly Cloudy"
"-62.28","82.52","ALERT A","2400302","2020-03-05 17:00","2020","03","05","17:00","-36.5","","-40.1","","69","","","","19","","4","","11.3","","101.97","","","","-42","","Mostly Cloudy"
"-62.28","82.52","ALERT A","2400302","2020-03-05 18:00","2020","03","05","18:00"
"-62.28","82.52","ALERT A","2400302","2020-03-05 19:00","2020","03","05","19:00"
"-62.28","82.52","ALERT A","2400302","2020-03-05 20:00","2020","03","05","20:00"
"-62.28","82.52","ALERT A","2400302","2020-03-05 21:00","2020","03","05","21:00"
"-62.28","82.52","ALERT A","2400302","2020-03-05 22:00","2020","03","05","22:00"
"-62.28","82.52","ALERT A","2400302","2020-03-05 23:00","2020","03","05","23:00"
"-62.28","82.52","ALERT A","2400302","2020-03-06 00:00","2020","03","06","00:00"
"-62.28","82.52","ALERT A","2400302","2020-03-06 01:00","2020","03","06","01:00"
"-62.28","82.52","ALERT A","2400302","2020-03-06 02:00","2020","03","06","02:00"
"-62.28","82.52","ALERT A","2400302","2020-03-06 03:00","2020","03","06","03:00"
"-62.28","82.52","ALERT A","2400302","2020-03-06 04:00","2020","03","06","04:00"
"-62.28","82.52","ALERT A","2400302","2020-03-06 05:00","2020","03","06","05:00"
"-62.28","82.52","ALERT A","2400302","2020-03-06 06:00","2020","03","06","06:00"
"-62.28","82.52","ALERT A","2400302","2020-03-06 07:00","2020","03","06","07:00"
"-62.28","82.52","ALERT A","2400302","2020-03-06 08:00","2020","03","06","08:00"
"-62.28","82.52","ALERT A","2400302","2020-03-06 09:00","2020","03","06","09:00","-40.9","","-44.9","","65","","","","","","0","","3.2","","101.69","","","","","","Snow,Fog"
"-62.28","82.52","ALERT A","2400302","2020-03-06 10:00","2020","03","06","10:00","-40.6","","-44.6","","65","","","","","","0","","2.4","","101.66","","","","","","Snow,Fog"
"-62.28","82.52","ALERT A","2400302","2020-03-06 11:00","2020","03","06","11:00","-40.6","","-44.6","","65","","","","21","","4","","4.8","","101.65","","","","-46","","Fog"
"-62.28","82.52","ALERT A","2400302","2020-03-06 12:00","2020","03","06","12:00","-40.7","","-44.6","","66","","","","","","0","","4.8","","101.65","","","","","","Fog"
"-62.28","82.52","ALERT A","2400302","2020-03-06 13:00","2020","03","06","13:00","-40.9","","-45.0","","65","","","","24","","5","","4.8","","101.64","","","","-48","","Fog"
"-62.28","82.52","ALERT A","2400302","2020-03-06 14:00","2020","03","06","14:00","-40.6","","-44.6","","65","","","","","","0","","6.4","","101.60","","","","","","Snow"
"-62.28","82.52","ALERT A","2400302","2020-03-06 15:00","2020","03","06","15:00","-40.6","","-44.6","","65","","","","","","0","","8.1","","101.60","","","","","","Snow"
"-62.28","82.52","ALERT A","2400302","2020-03-06 16:00","2020","03","06","16:00","-39.9","","-43.9","","66","","","","","","0","","8.1","","101.62","","","","","","Snow"
"-62.28","82.52","ALERT A","2400302","2020-03-06 17:00","2020","03","06","17:00","-40.0","","-43.9","","66","","","","23","","4","","9.7","","101.64","","","","-46","","Snow"
"-62.28","82.52","ALERT A","2400302","2020-03-06 18:00","2020","03","06","18:00"
"-62.28","82.52","ALERT A","2400302","2020-03-06 19:00","2020","03","06","19:00"
"-62.28","82.52","ALERT A","2400302","2020-03-06 20:00","2020","03","06","20:00"
"-62.28","82.52","ALERT A","2400302","2020-03-06 21:00","2020","03","06","21:00"
"-62.28","82.52","ALERT A","2400302","2020-03-06 22:00","2020","03","06","22:00"
"-62.28","82.52","ALERT A","2400302","2020-03-06 23:00","2020","03","06","23:00"
"-62.28","82.52","ALERT A","2400302","2020-03-07 00:00","2020","03","07","00:00"
"-62.28","82.52","ALERT A","2400302","2020-03-07 01:00","2020","03","07","01:00"
"-62.28","82.52","ALERT A","2400302","2020-03-07 02:00","2020","03","07","02:00"
"-62.28","82.52","ALERT A","2400302","2020-03-07 03:00","2020","03","07","03:00"
"-62.28","82.52","ALERT A","2400302","2020-03-07 04:00","2020","03","07","04:00"
"-62.28","82.52","ALERT A","2400302","2020-03-07 05:00","2020","03","07","05:00"
"-62.28","82.52","ALERT A","2400302","2020-03-07 06:00","2020","03","07","06:00"
"-62.28","82.52","ALERT A","2400302","2020-03-07 07:00","2020","03","07","07:00"
"-62.28","82.52","ALERT A","2400302","2020-03-07 08:00","2020","03","07","08:00"
"-62.28","82.52","ALERT A","2400302","2020-03-07 09:00","2020","03","07","09:00"
"-62.28","82.52","ALERT A","2400302","2020-03-07 10:00","2020","03","07","10:00"
"-62.28","82.52","ALERT A","2400302","2020-03-07 11:00","2020","03","07","11:00"
"-62.28","82.52","ALERT A","2400302","2020-03-07 12:00","2020","03","07","12:00"
"-62.28","82.52","ALERT A","2400302","2020-03-07 13:00","2020","03","07","13:00"
"-62.28","82.52","ALERT A","2400302","2020-03-07 14:00","2020","03","07","14:00"
"-62.28","82.52","ALERT A","2400302","2020-03-07 15:00","2020","03","07","15:00"
"-62.28","82.52","ALERT A","2400302","2020-03-07 16:00","2020","03","07","16:00"
"-62.28","82.52","ALERT A","2400302","2020-03-07 17:00","2020","03","07","17:00"
"-62.28","82.52","ALERT A","2400302","2020-03-07 18:00","2020","03","07","18:00"
"-62.28","82.52","ALERT A","2400302","2020-03-07 19:00","2020","03","07","19:00"
"-62.28","82.52","ALERT A","2400302","2020-03-07 20:00","2020","03","07","20:00"
"-62.28","82.52","ALERT A","2400302","2020-03-07 21:00","2020","03","07","21:00"
"-62.28","82.52","ALERT A","2400302","2020-03-07 22:00","2020","03","07","22:00"
"-62.28","82.52","ALERT A","2400302","2020-03-07 23:00","2020","03","07","23:00"
"-62.28","82.52","ALERT A","2400302","2020-03-08 00:00","2020","03","08","00:00"
"-62.28","82.52","ALERT A","2400302","2020-03-08 01:00","2020","03","08","01:00"
"-62.28","82.52","ALERT A","2400302","2020-03-08 02:00","2020","03","08","02:00"
"-62.28","82.52","ALERT A","2400302","2020-03-08 03:00","2020","03","08","03:00"
"-62.28","82.52","ALERT A","2400302","2020-03-08 04:00","2020","03","08","04:00"
"-62.28","82.52","ALERT A","2400302","2020-03-08 05:00","2020","03","08","05:00"
"-62.28","82.52","ALERT A","2400302","2020-03-08 06:00","2020","03","08","06:00"
"-62.28","82.52","ALERT A","2400302","2020-03-08 07:00","2020","03","08","07:00"
"-62.28","82.52","ALERT A","2400302","2020-03-08 08:00","2020","03","08","08:00"
"-62.28","82.52","ALERT A","2400302","2020-03-08 09:00","2020","03","08","09:00"
"-62.28","82.52","ALERT A","2400302","2020-03-08 10:00","2020","03","08","10:00"
"-62.28","82.52","ALERT A","2400302","2020-03-08 11:00","2020","03","08","11:00"
"-62.28","82.52","ALERT A","2400302","2020-03-08 12:00","2020","03","08","12:00"
"-62.28","82.52","ALERT A","2400302","2020-03-08 13:00","2020","03","08","13:00"
"-62.28","82.52","ALERT A","2400302","2020-03-08 14:00","2020","03","08","14:00"
"-62.28","82.52","ALERT A","2400302","2020-03-08 15:00","2020","03","08","15:00"
"-62.28","82.52","ALERT A","2400302","2020-03-08 16:00","2020","03","08","16:00"
"-62.28","82.52","ALERT A","2400302","2020-03-08 17:00","2020","03","08","17:00"
"-62.28","82.52","ALERT A","2400302","2020-03-08 18:00","2020","03","08","18:00"
"-62.28","82.52","ALERT A","2400302","2020-03-08 19:00","2020","03","08","19:00"
"-62.28","82.52","ALERT A","2400302","2020-03-08 20:00","2020","03","08","20:00"
"-62.28","82.52","ALERT A","2400302","2020-03-08 21:00","2020","03","08","21:00"
"-62.28","82.52","ALERT A","2400302","2020-03-08 22:00","2020","03","08","22:00"
"-62.28","82.52","ALERT A","2400302","2020-03-08 23:00","2020","03","08","23:00"
"-62.28","82.52","ALERT A","2400302","2020-03-09 00:00","2020","03","09","00:00"
"-62.28","82.52","ALERT A","2400302","2020-03-09 01:00","2020","03","09","01:00"
"-62.28","82.52","ALERT A","2400302","2020-03-09 02:00","2020","03","09","02:00"
"-62.28","82.52","ALERT A","2400302","2020-03-09 03:00","2020","03","09","03:00"
"-62.28","82.52","ALERT A","2400302","2020-03-09 04:00","2020","03","09","04:00"
"-62.28","82.52","ALERT A","2400302","2020-03-09 05:00","2020","03","09","05:00"
"-62.28","82.52","ALERT A","2400302","2020-03-09 06:00","2020","03","09","06:00"
"-62.28","82.52","ALERT A","2400302","2020-03-09 07:00","2020","03","09","07:00"
"-62.28","82.52","ALERT A","2400302","2020-03-09 08:00","2020","03","09","08:00","-44.8","","-49.2","","61","","","","","","0","","16.1","","100.93","","","","","","Mainly Clear"
"-62.28","82.52","ALERT A","2400302","2020-03-09 09:00","2020","03","09","09:00","-41.3","","-45.5","","64","","","","22","","4","","16.1","","100.89","","","","-47","","Mainly Clear"
"-62.28","82.52","ALERT A","2400302","2020-03-09 10:00","2020","03","09","10:00","-41.8","","-46.1","","63","","","","21","","5","","24.1","","100.88","","","","-49","","Clear"
"-62.28","82.52","ALERT A","2400302","2020-03-09 11:00","2020","03","09","11:00","-42.4","","-46.7","","63","","","","20","","5","","24.1","","100.86","","","","-50","","Clear"
"-62.28","82.52","ALERT A","2400302","2020-03-09 12:00","2020","03","09","12:00","-40.3","","-44.2","","66","","","","28","","5","","24.1","","100.83","","","","-47","","Clear"
"-62.28","82.52","ALERT A","2400302","2020-03-09 13:00","2020","03","09","13:00","-41.0","","-45.2","","64","","","","","","0","","24.1","","100.81","","","","","","Clear"
"-62.28","82.52","ALERT A","2400302","2020-03-09 14:00","2020","03","09","14:00","-39.1","","-43.0","","66","","","","25","","5","","24.1","","100.81","","","","-46","","Mainly Clear"
"-62.28","82.52","ALERT A","2400302","2020-03-09 15:00","2020","03","09","15:00","-41.1","","-45.3","","64","","","","2","","4","","24.1","","100.85","","","","-47","","Clear"
"-62.28","82.52","ALERT A","2400302","2020-03-09 16:00","2020","03","09","16:00","-39.6","","-43.6","","66","","","","","","0","","24.1","","100.85","","","","","","Clear"
"-62.28","82.52","ALERT A","2400302","2020-03-09 17:00","2020","03","09","17:00"
"-62.28","82.52","ALERT A","2400302","2020-03-09 18:00","2020","03","09","18:00"
"-62.28","82.52","ALERT A","2400302","2020-03-09 19:00","2020","03","09","19:00"
"-62.28","82.52","ALERT A","2400302","2020-03-09 20:00","2020","03","09","20:00"
"-62.28","82.52","ALERT A","2400302","2020-03-09 21:00","2020","03","09","21:00"
"-62.28","82.52","ALERT A","2400302","2020-03-09 22:00","2020","03","09","22:00"
"-62.28","82.52","ALERT A","2400302","2020-03-09 23:00","2020","03","09","23:00"
"-62.28","82.52","ALERT A","2400302","2020-03-10 00:00","2020","03","10","00:00"
"-62.28","82.52","ALERT A","2400302","2020-03-10 01:00","2020","03","10","01:00","-42.9","","-47.1","","63","","","","25","","4","","16.1","","100.75","","","","-49","","Mainly Clear"
"-62.28","82.52","ALERT A","2400302","2020-03-10 02:00","2020","03","10","02:00","-40.6","","-44.6","","65","","","","","","0","","16.1","","100.74","","","","","","Mainly Clear"
"-62.28","82.52","ALERT A","2400302","2020-03-10 03:00","2020","03","10","03:00","-43.4","","-47.8","","62","","","","3","","5","","8.1","","100.75","","","","-51","","Fog"
"-62.28","82.52","ALERT A","2400302","2020-03-10 04:00","2020","03","10","04:00","-40.5","","-44.6","","65","","","","35","","11","","8.1","","100.76","","","","-52","","Fog"
"-62.28","82.52","ALERT A","2400302","2020-03-10 05:00","2020","03","10","05:00","-40.7","","-44.8","","65","","","","33","","5","","9.7","","100.82","","","","-48","","Fog"
"-62.28","82.52","ALERT A","2400302","2020-03-10 06:00","2020","03","10","06:00","-39.5","","-43.5","","66","","","","","","0","","9.7","","100.82","","","","","","Fog"
"-62.28","82.52","ALERT A","2400302","2020-03-10 07:00","2020","03","10","07:00","-38.8","","-42.7","","67","","","","25","","4","","9.7","","100.80","","","","-44","","Fog"
"-62.28","82.52","ALERT A","2400302","2020-03-10 08:00","2020","03","10","08:00","-38.4","","-42.3","","67","","","","22","","4","","12.9","","100.77","","","","-44","","Mostly Cloudy"
"-62.28","82.52","ALERT A","2400302","2020-03-10 09:00","2020","03","10","09:00","-37.6","","-41.4","","68","","","","","","0","","16.1","","100.74","","","","","","Cloudy"
"-62.28","82.52","ALERT A","2400302","2020-03-10 10:00","2020","03","10","10:00","-38.1","","-42.0","","67","","","","","","0","","16.1","","100.71","","","","","","Mostly Cloudy"
"-62.28","82.52","ALERT A","2400302","2020-03-10 11:00","2020","03","10","11:00","-38.8","","-42.7","","67","","","","","","0","","19.3","","100.71","","","","","","Mostly Cloudy"
"-62.28","82.52","ALERT A","2400302","2020-03-10 12:00","2020","03","10","12:00","-39.3","","-43.3","","66","","","","","","0","","19.3","","100.70","","","","","","Mainly Clear"
"-62.28","82.52","ALERT A","2400302","2020-03-10 13:00","2020","03","10","13:00","-39.6","","-43.6","","66","","","","22","","4","","24.1","","100.67","","","","-45","","Mostly Cloudy"
"-62.28","82.52","ALERT A","2400302","2020-03-10 14:00","2020","03","10","14:00","-39.0","","-42.9","","66","","","","","","0","","24.1","","100.69","","","","","","Mostly Cloudy"
"-62.28","82.52","ALERT A","2400302","2020-03-10 15:00","2020","03","10","15:00","-38.0","","-41.8","","67","","","","34","","5","","24.1","","100.73","","","","-45","","Mostly Cloudy"
"-62.28","82.52","ALERT A","2400302","2020-03-10 16:00","2020","03","10","16:00","-37.6","","-41.1","","70","","","","21","","5","","24.1","","100.79","","","","-44","","Mostly Cloudy"
"-62.28","82.52","ALERT A","2400302","2020-03-10 17:00","2020","03","10","17:00"
"-62.28","82.52","ALERT A","2400302","2020-03-10 18:00","2020","03","10","18:00"
"-62.28","82.52","ALERT A","2400302","2020-03-10 19:00","2020","03","10","19:00"
"-62.28","82.52","ALERT A","2400302","2020-03-10 20:00","2020","03","10","20:00"
"-62.28","82.52","ALERT A","2400302","2020-03-10 21:00","2020","03","10","21:00"
"-62.28","82.52","ALERT A","2400302","2020-03-10 22:00","2020","03","10","22:00"
"-62.28","82.52","ALERT A","2400302","2020-03-10 23:00","2020","03","10","23:00"
"-62.28","82.52","ALERT A","2400302","2020-03-11 00:00","2020","03","11","00:00"
"-62.28","82.52","ALERT A","2400302","2020-03-11 01:00","2020","03","11","01:00"
"-62.28","82.52","ALERT A","2400302","2020-03-11 02:00","2020","03","11","02:00","-33.9","","-37.4","","71","","","","2","","13","","8.1","","100.85","","","","-45","","Snow,Fog"
"-62.28","82.52","ALERT A","2400302","2020-03-11 03:00","2020","03","11","03:00","-33.2","","-36.6","","71","","","","2","","9","","8.1","","100.90","","","","-42","","Snow,Fog"
"-62.28","82.52","ALERT A","2400302","2020-03-11 04:00","2020","03","11","04:00","-33.0","","-36.3","","72","","","","","","0","","8.1","","100.92","","","","","","Snow,Fog"
"-62.28","82.52","ALERT A","2400302","2020-03-11 05:00","2020","03","11","05:00","-28.1","","-31.1","","75","","","","2","","13","","4.8","","100.90","","","","-38","","Snow,Fog"
"-62.28","82.52","ALERT A","2400302","2020-03-11 06:00","2020","03","11","06:00","-32.3","","-35.6","","72","","","","7","","9","","6.4","","100.96","","","","-41","","Snow,Fog"
"-62.28","82.52","ALERT A","2400302","2020-03-11 07:00","2020","03","11","07:00","-31.6","","-34.7","","74","","","","1","","9","","6.4","","101.02","","","","-40","","Snow,Fog"
"-62.28","82.52","ALERT A","2400302","2020-03-11 08:00","2020","03","11","08:00","-30.3","","-33.3","","75","","","","36","","11","","4.8","","101.07","","","","-40","","Snow,Fog"
"-62.28","82.52","ALERT A","2400302","2020-03-11 09:00","2020","03","11","09:00","-29.9","","-33.0","","74","","","","","","0","","4.0","","101.09","","","","","","Snow,Fog"
"-62.28","82.52","ALERT A","2400302","2020-03-11 10:00","2020","03","11","10:00","-29.0","","-32.0","","75","","","","20","","4","","4.0","","101.09","","","","-33","","Snow,Fog"
"-62.28","82.52","ALERT A","2400302","2020-03-11 11:00","2020","03","11","11:00","-29.1","","-32.0","","76","","","","6","","5","","3.2","","101.12","","","","-35","","Snow,Fog"
"-62.28","82.52","ALERT A","2400302","2020-03-11 12:00","2020","03","11","12:00","-28.4","","-31.3","","76","","","","35","","5","","3.2","","101.18","","","","-34","","Snow,Fog"
"-62.28","82.52","ALERT A","2400302","2020-03-11 13:00","2020","03","11","13:00","-28.2","","-31.1","","76","","","","8","","4","","4.0","","101.21","","","","-33","","Snow,Fog"
"-62.28","82.52","ALERT A","2400302","2020-03-11 14:00","2020","03","11","14:00","-27.7","","-30.6","","76","","","","","","0","","4.0","","101.25","","","","","","Snow,Fog"
"-62.28","82.52","ALERT A","2400302","2020-03-11 15:00","2020","03","11","15:00","-27.9","","-30.7","","77","","","","12","","4","","4.0","","101.32","","","","-32","","Snow,Fog"
"-62.28","82.52","ALERT A","2400302","2020-03-11 16:00","2020","03","11","16:00","-28.4","","-31.2","","77","","","","21","","5","","4.0","","101.40","","","","-34","","Snow,Fog"
"-62.28","82.52","ALERT A","2400302","2020-03-11 17:00","2020","03","11","17:00"
"-62.28","82.52","ALERT A","2400302","2020-03-11 18:00","2020","03","11","18:00"
"-62.28","82.52","ALERT A","2400302","2020-03-11 19:00","2020","03","11","19:00"
"-62.28","82.52","ALERT A","2400302","2020-03-11 20:00","2020","03","11","20:00"
"-62.28","82.52","ALERT A","2400302","2020-03-11 21:00","2020","03","11","21:00"
"-62.28","82.52","ALERT A","2400302","2020-03-11 22:00","2020","03","11","22:00"
"-62.28","82.52","ALERT A","2400302","2020-03-11 23:00","2020","03","11","23:00"
"-62.28","82.52","ALERT A","2400302","2020-03-12 00:00","2020","03","12","00:00"
"-62.28","82.52","ALERT A","2400302","2020-03-12 01:00","2020","03","12","01:00"
"-62.28","82.52","ALERT A","2400302","2020-03-12 02:00","2020","03","12","02:00"
"-62.28","82.52","ALERT A","2400302","2020-03-12 03:00","2020","03","12","03:00"
"-62.28","82.52","ALERT A","2400302","2020-03-12 04:00","2020","03","12","04:00"
"-62.28","82.52","ALERT A","2400302","2020-03-12 05:00","2020","03","12","05:00"
"-62.28","82.52","ALERT A","2400302","2020-03-12 06:00","2020","03","12","06:00"
"-62.28","82.52","ALERT A","2400302","2020-03-12 07:00","2020","03","12","07:00"
"-62.28","82.52","ALERT A","2400302","2020-03-12 08:00","2020","03","12","08:00","-30.3","","-33.1","","76","","","","","","0","","16.1","","102.26","","","","","","Mainly Clear"
"-62.28","82.52","ALERT A","2400302","2020-03-12 09:00","2020","03","12","09:00","-30.7","","-33.9","","73","","","","24","","8","","24.1","","102.31","","","","-39","","Mainly Clear"
"-62.28","82.52","ALERT A","2400302","2020-03-12 10:00","2020","03","12","10:00","-30.6","","-33.6","","75","","","","","","0","","24.1","","102.37","","","","","","Mainly Clear"
"-62.28","82.52","ALERT A","2400302","2020-03-12 11:00","2020","03","12","11:00","-30.9","","-33.8","","76","","","","","","0","","24.1","","102.39","","","","","","Mainly Clear"
"-62.28","82.52","ALERT A","2400302","2020-03-12 12:00","2020","03","12","12:00","-30.3","","-33.2","","76","","","","23","","8","","24.1","","102.40","","","","-38","","Mainly Clear"
"-62.28","82.52","ALERT A","2400302","2020-03-12 13:00","2020","03","12","13:00","-31.3","","-34.4","","74","","","","21","","4","","24.1","","102.37","","","","-36","","Mainly Clear"
"-62.28","82.52","ALERT A","2400302","2020-03-12 14:00","2020","03","12","14:00","-30.3","","-33.3","","75","","","","22","","8","","24.1","","102.35","","","","-38","","Mainly Clear"
"-62.28","82.52","ALERT A","2400302","2020-03-12 15:00","2020","03","12","15:00","-32.0","","-35.2","","73","","","","35","","5","","16.1","","102.34","","","","-38","","Mostly Cloudy"
"-62.28","82.52","ALERT A","2400302","2020-03-12 16:00","2020","03","12","16:00","-33.0","","-36.0","","74","","","","","","0","","16.1","","102.38","","","","","","Mostly Cloudy"
"-62.28","82.52","ALERT A","2400302","2020-03-12 17:00","2020","03","12","17:00"
"-62.28","82.52","ALERT A","2400302","2020-03-12 18:00","2020","03","12","18:00"
"-62.28","82.52","ALERT A","2400302","2020-03-12 19:00","2020","03","12","19:00"
"-62.28","82.52","ALERT A","2400302","2020-03-12 20:00","2020","03","12","20:00"
"-62.28","82.52","ALERT A","2400302","2020-03-12 21:00","2020","03","12","21:00"
"-62.28","82.52","ALERT A","2400302","2020-03-12 22:00","2020","03","12","22:00"
"-62.28","82.52","ALERT A","2400302","2020-03-12 23:00","2020","03","12","23:00"
"-62.28","82.52","ALERT A","2400302","2020-03-13 00:00","2020","03","13","00:00"
"-62.28","82.52","ALERT A","2400302","2020-03-13 01:00","2020","03","13","01:00"
"-62.28","82.52","ALERT A","2400302","2020-03-13 02:00","2020","03","13","02:00"
"-62.28","82.52","ALERT A","2400302","2020-03-13 03:00","2020","03","13","03:00"
"-62.28","82.52","ALERT A","2400302","2020-03-13 04:00","2020","03","13","04:00"
"-62.28","82.52","ALERT A","2400302","2020-03-13 05:00","2020","03","13","05:00"
"-62.28","82.52","ALERT A","2400302","2020-03-13 06:00","2020","03","13","06:00"
"-62.28","82.52","ALERT A","2400302","2020-03-13 07:00","2020","03","13","07:00"
"-62.28","82.52","ALERT A","2400302","2020-03-13 08:00","2020","03","13","08:00","-34.1","","-37.2","","73","","","","","","0","","19.3","","102.13","","","","","","Mostly Cloudy"
"-62.28","82.52","ALERT A","2400302","2020-03-13 09:00","2020","03","13","09:00","-30.9","","-33.9","","75","","","","","","0","","19.3","","102.12","","","","","","Mostly Cloudy"
"-62.28","82.52","ALERT A","2400302","2020-03-13 10:00","2020","03","13","10:00","-30.0","","-33.0","","75","","","","34","","8","","8.1","","102.13","","","","-38","","Snow,Fog"
"-62.28","82.52","ALERT A","2400302","2020-03-13 11:00","2020","03","13","11:00","-28.8","","-31.7","","76","","","","30","","13","","8.1","","102.06","","","","-39","","Snow,Fog"
"-62.28","82.52","ALERT A","2400302","2020-03-13 12:00","2020","03","13","12:00","-31.8","","-34.9","","74","","","","","","0","","8.1","","102.03","","","","","","Snow,Fog"
"-62.28","82.52","ALERT A","2400302","2020-03-13 13:00","2020","03","13","13:00"
"-62.28","82.52","ALERT A","2400302","2020-03-13 14:00","2020","03","13","14:00"
"-62.28","82.52","ALERT A","2400302","2020-03-13 15:00","2020","03","13","15:00"
"-62.28","82.52","ALERT A","2400302","2020-03-13 16:00","2020","03","13","16:00"
"-62.28","82.52","ALERT A","2400302","2020-03-13 17:00","2020","03","13","17:00"
"-62.28","82.52","ALERT A","2400302","2020-03-13 18:00","2020","03","13","18:00"
"-62.28","82.52","ALERT A","2400302","2020-03-13 19:00","2020","03","13","19:00"
"-62.28","82.52","ALERT A","2400302","2020-03-13 20:00","2020","03","13","20:00"
"-62.28","82.52","ALERT A","2400302","2020-03-13 21:00","2020","03","13","21:00"
"-62.28","82.52","ALERT A","2400302","2020-03-13 22:00","2020","03","13","22:00"
"-62.28","82.52","ALERT A","2400302","2020-03-13 23:00","2020","03","13","23:00"
"-62.28","82.52","ALERT A","2400302","2020-03-14 00:00","2020","03","14","00:00"
"-62.28","82.52","ALERT A","2400302","2020-03-14 01:00","2020","03","14","01:00"
"-62.28","82.52","ALERT A","2400302","2020-03-14 02:00","2020","03","14","02:00"
"-62.28","82.52","ALERT A","2400302","2020-03-14 03:00","2020","03","14","03:00"
"-62.28","82.52","ALERT A","2400302","2020-03-14 04:00","2020","03","14","04:00"
"-62.28","82.52","ALERT A","2400302","2020-03-14 05:00","2020","03","14","05:00"
"-62.28","82.52","ALERT A","2400302","2020-03-14 06:00","2020","03","14","06:00"
"-62.28","82.52","ALERT A","2400302","2020-03-14 07:00","2020","03","14","07:00"
"-62.28","82.52","ALERT A","2400302","2020-03-14 08:00","2020","03","14","08:00"
"-62.28","82.52","ALERT A","2400302","2020-03-14 09:00","2020","03","14","09:00"
"-62.28","82.52","ALERT A","2400302","2020-03-14 10:00","2020","03","14","10:00"
"-62.28","82.52","ALERT A","2400302","2020-03-14 11:00","2020","03","14","11:00"
"-62.28","82.52","ALERT A","2400302","2020-03-14 12:00","2020","03","14","12:00"
"-62.28","82.52","ALERT A","2400302","2020-03-14 13:00","2020","03","14","13:00"
"-62.28","82.52","ALERT A","2400302","2020-03-14 14:00","2020","03","14","14:00"
"-62.28","82.52","ALERT A","2400302","2020-03-14 15:00","2020","03","14","15:00"
"-62.28","82.52","ALERT A","2400302","2020-03-14 16:00","2020","03","14","16:00"
"-62.28","82.52","ALERT A","2400302","2020-03-14 17:00","2020","03","14","17:00"
"-62.28","82.52","ALERT A","2400302","2020-03-14 18:00","2020","03","14","18:00"
"-62.28","82.52","ALERT A","2400302","2020-03-14 19:00","2020","03","14","19:00"
"-62.28","82.52","ALERT A","2400302","2020-03-14 20:00","2020","03","14","20:00"
"-62.28","82.52","ALERT A","2400302","2020-03-14 21:00","2020","03","14","21:00"
"-62.28","82.52","ALERT A","2400302","2020-03-14 22:00","2020","03","14","22:00"
"-62.28","82.52","ALERT A","2400302","2020-03-14 23:00","2020","03","14","23:00"
"-62.28","82.52","ALERT A","2400302","2020-03-15 00:00","2020","03","15","00:00"
"-62.28","82.52","ALERT A","2400302","2020-03-15 01:00","2020","03","15","01:00"
"-62.28","82.52","ALERT A","2400302","2020-03-15 02:00","2020","03","15","02:00"
"-62.28","82.52","ALERT A","2400302","2020-03-15 03:00","2020","03","15","03:00"
"-62.28","82.52","ALERT A","2400302","2020-03-15 04:00","2020","03","15","04:00"
"-62.28","82.52","ALERT A","2400302","2020-03-15 05:00","2020","03","15","05:00"
"-62.28","82.52","ALERT A","2400302","2020-03-15 06:00","2020","03","15","06:00"
"-62.28","82.52","ALERT A","2400302","2020-03-15 07:00","2020","03","15","07:00"
"-62.28","82.52","ALERT A","2400302","2020-03-15 08:00","2020","03","15","08:00"
"-62.28","82.52","ALERT A","2400302","2020-03-15 09:00","2020","03","15","09:00"
"-62.28","82.52","ALERT A","2400302","2020-03-15 10:00","2020","03","15","10:00"
"-62.28","82.52","ALERT A","2400302","2020-03-15 11:00","2020","03","15","11:00"
"-62.28","82.52","ALERT A","2400302","2020-03-15 12:00","2020","03","15","12:00"
"-62.28","82.52","ALERT A","2400302","2020-03-15 13:00","2020","03","15","13:00"
"-62.28","82.52","ALERT A","2400302","2020-03-15 14:00","2020","03","15","14:00"
"-62.28","82.52","ALERT A","2400302","2020-03-15 15:00","2020","03","15","15:00"
"-62.28","82.52","ALERT A","2400302","2020-03-15 16:00","2020","03","15","16:00"
"-62.28","82.52","ALERT A","2400302","2020-03-15 17:00","2020","03","15","17:00"
"-62.28","82.52","ALERT A","2400302","2020-03-15 18:00","2020","03","15","18:00"
"-62.28","82.52","ALERT A","2400302","2020-03-15 19:00","2020","03","15","19:00"
"-62.28","82.52","ALERT A","2400302","2020-03-15 20:00","2020","03","15","20:00"
"-62.28","82.52","ALERT A","2400302","2020-03-15 21:00","2020","03","15","21:00"
"-62.28","82.52","ALERT A","2400302","2020-03-15 22:00","2020","03","15","22:00"
"-62.28","82.52","ALERT A","2400302","2020-03-15 23:00","2020","03","15","23:00"
"-62.28","82.52","ALERT A","2400302","2020-03-16 00:00","2020","03","16","00:00"
"-62.28","82.52","ALERT A","2400302","2020-03-16 01:00","2020","03","16","01:00"
"-62.28","82.52","ALERT A","2400302","2020-03-16 02:00","2020","03","16","02:00"
"-62.28","82.52","ALERT A","2400302","2020-03-16 03:00","2020","03","16","03:00","-24.6","","-28.9","","67","","","","","","0","","12.9","","101.87","","","","","","Mostly Cloudy"
"-62.28","82.52","ALERT A","2400302","2020-03-16 04:00","2020","03","16","04:00","-30.0","","-33.4","","72","","","","36","","13","","12.9","","101.86","","","","-41","","Mostly Cloudy"
"-62.28","82.52","ALERT A","2400302","2020-03-16 05:00","2020","03","16","05:00","-26.8","","-30.1","","74","","","","34","","13","","16.1","","101.82","","","","-37","","Mostly Cloudy"
"-62.28","82.52","ALERT A","2400302","2020-03-16 06:00","2020","03","16","06:00","-26.6","","-30.0","","73","","","","20","","5","","16.1","","101.79","","","","-32","","Mainly Clear"
"-62.28","82.52","ALERT A","2400302","2020-03-16 07:00","2020","03","16","07:00","-25.8","","-29.2","","73","","","","","","0","","24.1","","101.77","","","","","","Mostly Cloudy"
"-62.28","82.52","ALERT A","2400302","2020-03-16 08:00","2020","03","16","08:00","-25.9","","-29.2","","74","","","","23","","5","","24.1","","101.76","","","","-31","","Mostly Cloudy"
"-62.28","82.52","ALERT A","2400302","2020-03-16 09:00","2020","03","16","09:00","-27.2","","-30.4","","74","","","","23","","4","","24.1","","101.73","","","","-31","","Mainly Clear"
"-62.28","82.52","ALERT A","2400302","2020-03-16 10:00","2020","03","16","10:00","-28.8","","-32.0","","74","","","","21","","9","","24.1","","101.64","","","","-37","","Mainly Clear"
"-62.28","82.52","ALERT A","2400302","2020-03-16 11:00","2020","03","16","11:00","-27.6","","-30.8","","74","","","","17","","5","","24.1","","101.60","","","","-33","","Mainly Clear"
"-62.28","82.52","ALERT A","2400302","2020-03-16 12:00","2020","03","16","12:00","-30.4","","-33.3","","76","","","","15","","11","","24.1","","101.53","","","","-40","","Mainly Clear"
"-62.28","82.52","ALERT A","2400302","2020-03-16 13:00","2020","03","16","13:00","-29.5","","-32.3","","77","","","","15","","8","","24.1","","101.45","","","","-37","","Mainly Clear"
"-62.28","82.52","ALERT A","2400302","2020-03-16 14:00","2020","03","16","14:00","-29.5","","-32.2","","77","","","","17","","5","","24.1","","101.44","","","","-35","","Mainly Clear"
"-62.28","82.52","ALERT A","2400302","2020-03-16 15:00","2020","03","16","15:00","-28.3","","-31.1","","77","","","","21","","8","","24.1","","101.42","","","","-36","","Mainly Clear"
"-62.28","82.52","ALERT A","2400302","2020-03-16 16:00","2020","03","16","16:00","-31.2","","-34.2","","75","","","","4","","8","","24.1","","101.38","","","","-39","","Mainly Clear"
"-62.28","82.52","ALERT A","2400302","2020-03-16 17:00","2020","03","16","17:00"
"-62.28","82.52","ALERT A","2400302","2020-03-16 18:00","2020","03","16","18:00"
"-62.28","82.52","ALERT A","2400302","2020-03-16 19:00","2020","03","16","19:00"
"-62.28","82.52","ALERT A","2400302","2020-03-16 20:00","2020","03","16","20:00"
"-62.28","82.52","ALERT A","2400302","2020-03-16 21:00","2020","03","16","21:00"
"-62.28","82.52","ALERT A","2400302","2020-03-16 22:00","2020","03","16","22:00"
"-62.28","82.52","ALERT A","2400302","2020-03-16 23:00","2020","03","16","23:00"
"-62.28","82.52","ALERT A","2400302","2020-03-17 00:00","2020","03","17","00:00"
"-62.28","82.52","ALERT A","2400302","2020-03-17 01:00","2020","03","17","01:00","-31.3","","-34.2","","76","","","","1","","4","","12.9","","101.06","","","","-36","","Mostly Cloudy"
"-62.28","82.52","ALERT A","2400302","2020-03-17 02:00","2020","03","17","02:00","-30.5","","-33.4","","76","","","","27","","8","","12.9","","101.01","","","","-39","","Mostly Cloudy"
"-62.28","82.52","ALERT A","2400302","2020-03-17 03:00","2020","03","17","03:00","-32.4","","-35.3","","75","","","","","","0","","16.1","","101.01","","","","","","Mostly Cloudy"
"-62.28","82.52","ALERT A","2400302","2020-03-17 04:00","2020","03","17","04:00","-31.7","","-34.7","","75","","","","25","","9","","19.3","","101.03","","","","-41","","Mostly Cloudy"
"-62.28","82.52","ALERT A","2400302","2020-03-17 05:00","2020","03","17","05:00","-32.4","","-35.7","","72","","","","26","","4","","19.3","","101.07","","","","-37","","Mostly Cloudy"
"-62.28","82.52","ALERT A","2400302","2020-03-17 06:00","2020","03","17","06:00","-31.9","","-35.1","","73","","","","","","0","","19.3","","101.08","","","","","","Mostly Cloudy"
"-62.28","82.52","ALERT A","2400302","2020-03-17 07:00","2020","03","17","07:00","-31.9","","-34.9","","75","","","","22","","4","","19.3","","101.13","","","","-37","","Mostly Cloudy"
"-62.28","82.52","ALERT A","2400302","2020-03-17 08:00","2020","03","17","08:00","-30.4","","-33.5","","74","","","","","","0","","19.3","","101.16","","","","","","Mostly Cloudy"
"-62.28","82.52","ALERT A","2400302","2020-03-17 09:00","2020","03","17","09:00","-31.4","","-34.6","","73","","","","23","","5","","12.9","","101.19","","","","-37","","Snow"
"-62.28","82.52","ALERT A","2400302","2020-03-17 10:00","2020","03","17","10:00","-30.6","","-33.6","","75","","","","","","0","","16.1","","101.23","","","","","","Mostly Cloudy"
"-62.28","82.52","ALERT A","2400302","2020-03-17 11:00","2020","03","17","11:00","-30.0","","-33.0","","75","","","","","","0","","19.3","","101.26","","","","","","Mostly Cloudy"
"-62.28","82.52","ALERT A","2400302","2020-03-17 12:00","2020","03","17","12:00","-29.9","","-32.8","","76","","","","","","0","","24.1","","101.31","","","","","","Mostly Cloudy"
"-62.28","82.52","ALERT A","2400302","2020-03-17 13:00","2020","03","17","13:00","-32.6","","-35.8","","73","","","","19","","4","","16.1","","101.35","","","","-37","","Mainly Clear"
"-62.28","82.52","ALERT A","2400302","2020-03-17 14:00","2020","03","17","14:00","-31.3","","-34.3","","75","","","","19","","9","","6.4","","101.39","","","","-40","","Snow,Fog"
"-62.28","82.52","ALERT A","2400302","2020-03-17 15:00","2020","03","17","15:00","-30.9","","-33.9","","75","","","","20","","5","","9.7","","101.46","","","","-37","","Snow,Fog"
"-62.28","82.52","ALERT A","2400302","2020-03-17 16:00","2020","03","17","16:00","-31.2","","-34.2","","75","","","","","","0","","9.7","","101.51","","","","","","Snow,Fog"
"-62.28","82.52","ALERT A","2400302","2020-03-17 17:00","2020","03","17","17:00"
"-62.28","82.52","ALERT A","2400302","2020-03-17 18:00","2020","03","17","18:00"
"-62.28","82.52","ALERT A","2400302","2020-03-17 19:00","2020","03","17","19:00"
"-62.28","82.52","ALERT A","2400302","2020-03-17 20:00","2020","03","17","20:00"
"-62.28","82.52","ALERT A","2400302","2020-03-17 21:00","2020","03","17","21:00"
"-62.28","82.52","ALERT A","2400302","2020-03-17 22:00","2020","03","17","22:00"
"-62.28","82.52","ALERT A","2400302","2020-03-17 23:00","2020","03","17","23:00"
"-62.28","82.52","ALERT A","2400302","2020-03-18 00:00","2020","03","18","00:00"
"-62.28","82.52","ALERT A","2400302","2020-03-18 01:00","2020","03","18","01:00"
"-62.28","82.52","ALERT A","2400302","2020-03-18 02:00","2020","03","18","02:00"
"-62.28","82.52","ALERT A","2400302","2020-03-18 03:00","2020","03","18","03:00"
"-62.28","82.52","ALERT A","2400302","2020-03-18 04:00","2020","03","18","04:00"
"-62.28","82.52","ALERT A","2400302","2020-03-18 05:00","2020","03","18","05:00","-35.8","","-39.3","","70","","","","1","","8","","16.1","","102.01","","","","-45","","Mainly Clear"
"-62.28","82.52","ALERT A","2400302","2020-03-18 06:00","2020","03","18","06:00","-34.8","","-38.3","","70","","","","21","","5","","16.1","","102.08","","","","-41","","Mainly Clear"
"-62.28","82.52","ALERT A","2400302","2020-03-18 07:00","2020","03","18","07:00","-34.7","","-38.0","","72","","","","30","","4","","19.3","","102.12","","","","-40","","Mainly Clear"
"-62.28","82.52","ALERT A","2400302","2020-03-18 08:00","2020","03","18","08:00","-33.0","","-36.3","","72","","","","","","0","","24.1","","102.15","","","","","","Mainly Clear"
"-62.28","82.52","ALERT A","2400302","2020-03-18 09:00","2020","03","18","09:00","-32.9","","-36.1","","73","","","","21","","5","","24.1","","102.17","","","","-39","","Mainly Clear"
"-62.28","82.52","ALERT A","2400302","2020-03-18 10:00","2020","03","18","10:00","-32.7","","-35.9","","73","","","","","","0","","24.1","","102.18","","","","","","Mainly Clear"
"-62.28","82.52","ALERT A","2400302","2020-03-18 11:00","2020","03","18","11:00","-32.1","","-35.3","","73","","","","18","","4","","24.1","","102.17","","","","-37","","Mainly Clear"
"-62.28","82.52","ALERT A","2400302","2020-03-18 12:00","2020","03","18","12:00","-33.1","","-36.3","","73","","","","","","0","","24.1","","102.19","","","","","","Mainly Clear"
"-62.28","82.52","ALERT A","2400302","2020-03-18 13:00","2020","03","18","13:00","-36.6","","-40.1","","70","","","","","","0","","24.1","","102.17","","","","","","Mainly Clear"
"-62.28","82.52","ALERT A","2400302","2020-03-18 14:00","2020","03","18","14:00","-33.3","","-36.5","","73","","","","1","","9","","16.1","","102.16","","","","-43","","Mainly Clear"
"-62.28","82.52","ALERT A","2400302","2020-03-18 15:00","2020","03","18","15:00","-34.8","","-38.1","","72","","","","","","0","","24.1","","102.20","","","","","","Mainly Clear"
"-62.28","82.52","ALERT A","2400302","2020-03-18 16:00","2020","03","18","16:00","-34.2","","-37.6","","71","","","","","","0","","24.1","","102.21","","","","","","Mainly Clear"
"-62.28","82.52","ALERT A","2400302","2020-03-18 17:00","2020","03","18","17:00"
"-62.28","82.52","ALERT A","2400302","2020-03-18 18:00","2020","03","18","18:00"
"-62.28","82.52","ALERT A","2400302","2020-03-18 19:00","2020","03","18","19:00"
"-62.28","82.52","ALERT A","2400302","2020-03-18 20:00","2020","03","18","20:00"
"-62.28","82.52","ALERT A","2400302","2020-03-18 21:00","2020","03","18","21:00"
"-62.28","82.52","ALERT A","2400302","2020-03-18 22:00","2020","03","18","22:00"
"-62.28","82.52","ALERT A","2400302","2020-03-18 23:00","2020","03","18","23:00"
"-62.28","82.52","ALERT A","2400302","2020-03-19 00:00","2020","03","19","00:00"
"-62.28","82.52","ALERT A","2400302","2020-03-19 01:00","2020","03","19","01:00"
"-62.28","82.52","ALERT A","2400302","2020-03-19 02:00","2020","03","19","02:00"
"-62.28","82.52","ALERT A","2400302","2020-03-19 03:00","2020","03","19","03:00"
"-62.28","82.52","ALERT A","2400302","2020-03-19 04:00","2020","03","19","04:00"
"-62.28","82.52","ALERT A","2400302","2020-03-19 05:00","2020","03","19","05:00"
"-62.28","82.52","ALERT A","2400302","2020-03-19 06:00","2020","03","19","06:00"
"-62.28","82.52","ALERT A","2400302","2020-03-19 07:00","2020","03","19","07:00"
"-62.28","82.52","ALERT A","2400302","2020-03-19 08:00","2020","03","19","08:00","-32.4","","-35.6","","73","","","","23","","8","","16.1","","101.73","","","","-41","","Mainly Clear"
"-62.28","82.52","ALERT A","2400302","2020-03-19 09:00","2020","03","19","09:00","-30.4","","-33.4","","75","","","","","","0","","24.1","","101.62","","","","","","Mainly Clear"
"-62.28","82.52","ALERT A","2400302","2020-03-19 10:00","2020","03","19","10:00","-30.6","","-33.6","","75","","","","","","0","","24.1","","101.51","","","","","","Clear"
"-62.28","82.52","ALERT A","2400302","2020-03-19 11:00","2020","03","19","11:00","-25.8","","-28.4","","79","","","","","","0","","24.1","","101.41","","","","","","Mainly Clear"
"-62.28","82.52","ALERT A","2400302","2020-03-19 12:00","2020","03","19","12:00","-22.8","","-25.3","","80","","","","28","","41","","9.7","","101.25","","","","-38","","Blowing Snow"
"-62.28","82.52","ALERT A","2400302","2020-03-19 13:00","2020","03","19","13:00","-23.3","","-25.8","","80","","","","30","","22","","24.1","","101.20","","","","-35","","Mainly Clear"
"-62.28","82.52","ALERT A","2400302","2020-03-19 14:00","2020","03","19","14:00","-23.0","","-25.6","","79","","","","29","","34","","24.1","","101.13","","","","-37","","Mainly Clear"
"-62.28","82.52","ALERT A","2400302","2020-03-19 15:00","2020","03","19","15:00","-22.1","","-25.2","","76","","","","28","","37","","24.1","","101.02","","","","-36","","Mainly Clear"
"-62.28","82.52","ALERT A","2400302","2020-03-19 16:00","2020","03","19","16:00","-22.4","","-25.4","","77","","","","27","","43","","24.1","","100.91","","","","-38","","Mainly Clear"
"-62.28","82.52","ALERT A","2400302","2020-03-19 17:00","2020","03","19","17:00"
"-62.28","82.52","ALERT A","2400302","2020-03-19 18:00","2020","03","19","18:00"
"-62.28","82.52","ALERT A","2400302","2020-03-19 19:00","2020","03","19","19:00"
"-62.28","82.52","ALERT A","2400302","2020-03-19 20:00","2020","03","19","20:00"
"-62.28","82.52","ALERT A","2400302","2020-03-19 21:00","2020","03","19","21:00"
"-62.28","82.52","ALERT A","2400302","2020-03-19 22:00","2020","03","19","22:00"
"-62.28","82.52","ALERT A","2400302","2020-03-19 23:00","2020","03","19","23:00"
"-62.28","82.52","ALERT A","2400302","2020-03-20 00:00","2020","03","20","00:00"
"-62.28","82.52","ALERT A","2400302","2020-03-20 01:00","2020","03","20","01:00"
"-62.28","82.52","ALERT A","2400302","2020-03-20 02:00","2020","03","20","02:00"
"-62.28","82.52","ALERT A","2400302","2020-03-20 03:00","2020","03","20","03:00"
"-62.28","82.52","ALERT A","2400302","2020-03-20 04:00","2020","03","20","04:00"
"-62.28","82.52","ALERT A","2400302","2020-03-20 05:00","2020","03","20","05:00"
"-62.28","82.52","ALERT A","2400302","2020-03-20 06:00","2020","03","20","06:00"
"-62.28","82.52","ALERT A","2400302","2020-03-20 07:00","2020","03","20","07:00"
"-62.28","82.52","ALERT A","2400302","2020-03-20 08:00","2020","03","20","08:00","-25.9","","-29.5","","72","","","","35","","9","","24.1","","100.29","","","","-34","","Mostly Cloudy"
"-62.28","82.52","ALERT A","2400302","2020-03-20 09:00","2020","03","20","09:00","-24.3","","-29.0","","65","","","","35","","5","","24.1","","100.21","","","","-29","","Mainly Clear"
"-62.28","82.52","ALERT A","2400302","2020-03-20 10:00","2020","03","20","10:00","-24.3","","-29.0","","65","","","","22","","5","","24.1","","100.12","","","","-29","","Mainly Clear"
"-62.28","82.52","ALERT A","2400302","2020-03-20 11:00","2020","03","20","11:00","-20.9","","-26.5","","61","","","","25","","11","","24.1","","99.95","","","","-29","","Clear"
"-62.28","82.52","ALERT A","2400302","2020-03-20 12:00","2020","03","20","12:00","-19.4","","-24.8","","62","","","","26","","24","","24.1","","99.83","","","","-31","","Mainly Clear"
"-62.28","82.52","ALERT A","2400302","2020-03-20 13:00","2020","03","20","13:00","-18.0","","-22.7","","67","","","","28","","44","","16.1","","99.68","","","","-32","","Mainly Clear"
"-62.28","82.52","ALERT A","2400302","2020-03-20 14:00","2020","03","20","14:00","-17.7","","-22.1","","68","","","","28","","50","","9.7","","99.57","","","","-32","","Blowing Snow"
"-62.28","82.52","ALERT A","2400302","2020-03-20 15:00","2020","03","20","15:00","-17.8","","-22.8","","65","","","","31","","28","","12.9","","99.56","","","","-29","","Mainly Clear"
"-62.28","82.52","ALERT A","2400302","2020-03-20 16:00","2020","03","20","16:00","-17.4","","-22.6","","64","","","","29","","37","","16.1","","99.49","","","","-30","","Mainly Clear"
"-62.28","82.52","ALERT A","2400302","2020-03-20 17:00","2020","03","20","17:00"
"-62.28","82.52","ALERT A","2400302","2020-03-20 18:00","2020","03","20","18:00"
"-62.28","82.52","ALERT A","2400302","2020-03-20 19:00","2020","03","20","19:00"
"-62.28","82.52","ALERT A","2400302","2020-03-20 20:00","2020","03","20","20:00"
"-62.28","82.52","ALERT A","2400302","2020-03-20 21:00","2020","03","20","21:00"
"-62.28","82.52","ALERT A","2400302","2020-03-20 22:00","2020","03","20","22:00"
"-62.28","82.52","ALERT A","2400302","2020-03-20 23:00","2020","03","20","23:00"
"-62.28","82.52","ALERT A","2400302","2020-03-21 00:00","2020","03","21","00:00"
"-62.28","82.52","ALERT A","2400302","2020-03-21 01:00","2020","03","21","01:00"
"-62.28","82.52","ALERT A","2400302","2020-03-21 02:00","2020","03","21","02:00"
"-62.28","82.52","ALERT A","2400302","2020-03-21 03:00","2020","03","21","03:00"
"-62.28","82.52","ALERT A","2400302","2020-03-21 04:00","2020","03","21","04:00"
"-62.28","82.52","ALERT A","2400302","2020-03-21 05:00","2020","03","21","05:00"
"-62.28","82.52","ALERT A","2400302","2020-03-21 06:00","2020","03","21","06:00"
"-62.28","82.52","ALERT A","2400302","2020-03-21 07:00","2020","03","21","07:00"
"-62.28","82.52","ALERT A","2400302","2020-03-21 08:00","2020","03","21","08:00"
"-62.28","82.52","ALERT A","2400302","2020-03-21 09:00","2020","03","21","09:00"
"-62.28","82.52","ALERT A","2400302","2020-03-21 10:00","2020","03","21","10:00"
"-62.28","82.52","ALERT A","2400302","2020-03-21 11:00","2020","03","21","11:00"
"-62.28","82.52","ALERT A","2400302","2020-03-21 12:00","2020","03","21","12:00"
"-62.28","82.52","ALERT A","2400302","2020-03-21 13:00","2020","03","21","13:00"
"-62.28","82.52","ALERT A","2400302","2020-03-21 14:00","2020","03","21","14:00"
"-62.28","82.52","ALERT A","2400302","2020-03-21 15:00","2020","03","21","15:00"
"-62.28","82.52","ALERT A","2400302","2020-03-21 16:00","2020","03","21","16:00"
"-62.28","82.52","ALERT A","2400302","2020-03-21 17:00","2020","03","21","17:00"
"-62.28","82.52","ALERT A","2400302","2020-03-21 18:00","2020","03","21","18:00"
"-62.28","82.52","ALERT A","2400302","2020-03-21 19:00","2020","03","21","19:00"
"-62.28","82.52","ALERT A","2400302","2020-03-21 20:00","2020","03","21","20:00"
"-62.28","82.52","ALERT A","2400302","2020-03-21 21:00","2020","03","21","21:00"
"-62.28","82.52","ALERT A","2400302","2020-03-21 22:00","2020","03","21","22:00"
"-62.28","82.52","ALERT A","2400302","2020-03-21 23:00","2020","03","21","23:00"
"-62.28","82.52","ALERT A","2400302","2020-03-22 00:00","2020","03","22","00:00"
"-62.28","82.52","ALERT A","2400302","2020-03-22 01:00","2020","03","22","01:00"
"-62.28","82.52","ALERT A","2400302","2020-03-22 02:00","2020","03","22","02:00"
"-62.28","82.52","ALERT A","2400302","2020-03-22 03:00","2020","03","22","03:00"
"-62.28","82.52","ALERT A","2400302","2020-03-22 04:00","2020","03","22","04:00"
"-62.28","82.52","ALERT A","2400302","2020-03-22 05:00","2020","03","22","05:00"
"-62.28","82.52","ALERT A","2400302","2020-03-22 06:00","2020","03","22","06:00"
"-62.28","82.52","ALERT A","2400302","2020-03-22 07:00","2020","03","22","07:00"
"-62.28","82.52","ALERT A","2400302","2020-03-22 08:00","2020","03","22","08:00"
"-62.28","82.52","ALERT A","2400302","2020-03-22 09:00","2020","03","22","09:00"
"-62.28","82.52","ALERT A","2400302","2020-03-22 10:00","2020","03","22","10:00"
"-62.28","82.52","ALERT A","2400302","2020-03-22 11:00","2020","03","22","11:00"
"-62.28","82.52","ALERT A","2400302","2020-03-22 12:00","2020","03","22","12:00"
"-62.28","82.52","ALERT A","2400302","2020-03-22 13:00","2020","03","22","13:00"
"-62.28","82.52","ALERT A","2400302","2020-03-22 14:00","2020","03","22","14:00"
"-62.28","82.52","ALERT A","2400302","2020-03-22 15:00","2020","03","22","15:00"
"-62.28","82.52","ALERT A","2400302","2020-03-22 16:00","2020","03","22","16:00"
"-62.28","82.52","ALERT A","2400302","2020-03-22 17:00","2020","03","22","17:00"
"-62.28","82.52","ALERT A","2400302","2020-03-22 18:00","2020","03","22","18:00"
"-62.28","82.52","ALERT A","2400302","2020-03-22 19:00","2020","03","22","19:00"
"-62.28","82.52","ALERT A","2400302","2020-03-22 20:00","2020","03","22","20:00"
"-62.28","82.52","ALERT A","2400302","2020-03-22 21:00","2020","03","22","21:00"
"-62.28","82.52","ALERT A","2400302","2020-03-22 22:00","2020","03","22","22:00"
"-62.28","82.52","ALERT A","2400302","2020-03-22 23:00","2020","03","22","23:00"
"-62.28","82.52","ALERT A","2400302","2020-03-23 00:00","2020","03","23","00:00"
"-62.28","82.52","ALERT A","2400302","2020-03-23 01:00","2020","03","23","01:00","-22.6","","-24.8","","82","","","","","","0","","12.9","","98.78","","","","","","Snow"
"-62.28","82.52","ALERT A","2400302","2020-03-23 02:00","2020","03","23","02:00","-21.9","","-24.0","","83","","","","","","0","","9.7","","98.81","","","","","","Snow,Fog"
"-62.28","82.52","ALERT A","2400302","2020-03-23 03:00","2020","03","23","03:00","-21.7","","-23.8","","83","","","","","","0","","9.7","","98.84","","","","","","Snow,Fog"
"-62.28","82.52","ALERT A","2400302","2020-03-23 04:00","2020","03","23","04:00","-23.7","","-25.7","","84","","","","5","","4","","16.1","","98.85","","","","-28","","Snow"
"-62.28","82.52","ALERT A","2400302","2020-03-23 05:00","2020","03","23","05:00","-24.4","","-26.6","","82","","","","","","0","","16.1","","98.91","","","","","","Snow"
"-62.28","82.52","ALERT A","2400302","2020-03-23 06:00","2020","03","23","06:00","-24.9","","-27.3","","80","","","","","","0","","16.1","","98.92","","","","","","Mainly Clear"
"-62.28","82.52","ALERT A","2400302","2020-03-23 07:00","2020","03","23","07:00","-24.5","","-27.0","","80","","","","","","0","","16.1","","98.91","","","","","","Mainly Clear"
"-62.28","82.52","ALERT A","2400302","2020-03-23 08:00","2020","03","23","08:00","-25.3","","-27.8","","80","","","","","","0","","16.1","","98.90","","","","","","Mostly Cloudy"
"-62.28","82.52","ALERT A","2400302","2020-03-23 09:00","2020","03","23","09:00","-25.4","","-27.9","","80","","","","","","0","","12.9","","98.89","","","","","","Mostly Cloudy"
"-62.28","82.52","ALERT A","2400302","2020-03-23 10:00","2020","03","23","10:00","-25.1","","-27.6","","80","","","","","","0","","12.9","","98.89","","","","","","Mostly Cloudy"
"-62.28","82.52","ALERT A","2400302","2020-03-23 11:00","2020","03","23","11:00","-27.0","","-29.6","","79","","","","4","","4","","24.1","","98.87","","","","-31","","Mostly Cloudy"
"-62.28","82.52","ALERT A","2400302","2020-03-23 12:00","2020","03","23","12:00","-27.3","","-30.0","","78","","","","12","","5","","24.1","","98.91","","","","-33","","Mostly Cloudy"
"-62.28","82.52","ALERT A","2400302","2020-03-23 13:00","2020","03","23","13:00","-27.6","","-30.2","","78","","","","","","0","","24.1","","98.93","","","","","","Mostly Cloudy"
"-62.28","82.52","ALERT A","2400302","2020-03-23 14:00","2020","03","23","14:00","-27.6","","-30.4","","77","","","","","","0","","12.9","","98.96","","","","","","Mostly Cloudy"
"-62.28","82.52","ALERT A","2400302","2020-03-23 15:00","2020","03","23","15:00","-27.1","","-29.9","","77","","","","32","","9","","16.1","","98.95","","","","-35","","Mainly Clear"
"-62.28","82.52","ALERT A","2400302","2020-03-23 16:00","2020","03","23","16:00","-29.2","","-32.0","","77","","","","31","","5","","24.1","","98.98","","","","-35","","Mostly Cloudy"
"-62.28","82.52","ALERT A","2400302","2020-03-23 17:00","2020","03","23","17:00","-29.1","","-31.8","","77","","","","","","0","","24.1","","99.00","","","","","","Mostly Cloudy"
"-62.28","82.52","ALERT A","2400302","2020-03-23 18:00","2020","03","23","18:00","-30.0","","-32.9","","76","","","","","","0","","24.1","","99.02","","","","","","Mainly Clear"
"-62.28","82.52","ALERT A","2400302","2020-03-23 19:00","2020","03","23","19:00","-30.1","","-32.8","","77","","","","4","","4","","16.1","","99.06","","","","-35","","Mainly Clear"
"-62.28","82.52","ALERT A","2400302","2020-03-23 20:00","2020","03","23","20:00","-29.0","","-31.6","","78","","","","","","0","","24.1","","99.09","","","","","","Mainly Clear"
"-62.28","82.52","ALERT A","2400302","2020-03-23 21:00","2020","03","23","21:00"
"-62.28","82.52","ALERT A","2400302","2020-03-23 22:00","2020","03","23","22:00"
"-62.28","82.52","ALERT A","2400302","2020-03-23 23:00","2020","03","23","23:00"
"-62.28","82.52","ALERT A","2400302","2020-03-24 00:00","2020","03","24","00:00"
"-62.28","82.52","ALERT A","2400302","2020-03-24 01:00","2020","03","24","01:00"
"-62.28","82.52","ALERT A","2400302","2020-03-24 02:00","2020","03","24","02:00"
"-62.28","82.52","ALERT A","2400302","2020-03-24 03:00","2020","03","24","03:00"
"-62.28","82.52","ALERT A","2400302","2020-03-24 04:00","2020","03","24","04:00"
"-62.28","82.52","ALERT A","2400302","2020-03-24 05:00","2020","03","24","05:00"
"-62.28","82.52","ALERT A","2400302","2020-03-24 06:00","2020","03","24","06:00"
"-62.28","82.52","ALERT A","2400302","2020-03-24 07:00","2020","03","24","07:00"
"-62.28","82.52","ALERT A","2400302","2020-03-24 08:00","2020","03","24","08:00","-31.9","","-34.9","","75","","","","","","0","","24.1","","99.45","","","","","","Mostly Cloudy"
"-62.28","82.52","ALERT A","2400302","2020-03-24 09:00","2020","03","24","09:00","-30.9","","-33.8","","76","","","","","","0","","24.1","","99.45","","","","","","Mostly Cloudy"
"-62.28","82.52","ALERT A","2400302","2020-03-24 10:00","2020","03","24","10:00","-32.1","","-35.2","","74","","","","35","","5","","24.1","","99.47","","","","-38","","Mostly Cloudy"
"-62.28","82.52","ALERT A","2400302","2020-03-24 11:00","2020","03","24","11:00","-31.4","","-34.4","","75","","","","29","","4","","24.1","","99.48","","","","-36","","Mostly Cloudy"
"-62.28","82.52","ALERT A","2400302","2020-03-24 12:00","2020","03","24","12:00","-31.3","","-34.4","","74","","","","","","0","","0.8","","99.48","","","","","","Fog"
"-62.28","82.52","ALERT A","2400302","2020-03-24 13:00","2020","03","24","13:00","-31.7","","-34.8","","74","","","","22","","5","","9.7","","99.53","","","","-38","","Fog"
"-62.28","82.52","ALERT A","2400302","2020-03-24 14:00","2020","03","24","14:00","-32.1","","-35.2","","74","","","","","","0","","9.7","","99.55","","","","","","Fog"
"-62.28","82.52","ALERT A","2400302","2020-03-24 15:00","2020","03","24","15:00","-31.7","","-34.7","","75","","","","","","0","","12.9","","99.56","","","","","","Mainly Clear"
"-62.28","82.52","ALERT A","2400302","2020-03-24 16:00","2020","03","24","16:00","-32.1","","-35.1","","75","","","","","","0","","24.1","","99.56","","","","","","Mainly Clear"
"-62.28","82.52","ALERT A","2400302","2020-03-24 17:00","2020","03","24","17:00","-31.8","","-34.8","","75","","","","","","0","","24.1","","99.58","","","","","","Mainly Clear"
"-62.28","82.52","ALERT A","2400302","2020-03-24 18:00","2020","03","24","18:00","-32.4","","-35.6","","73","","","","","","0","","24.1","","99.60","","","","","","Mainly Clear"
"-62.28","82.52","ALERT A","2400302","2020-03-24 19:00","2020","03","24","19:00","-31.8","","-34.9","","74","","","","23","","5","","24.1","","99.59","","","","-38","","Clear"
"-62.28","82.52","ALERT A","2400302","2020-03-24 20:00","2020","03","24","20:00","-32.6","","-35.7","","74","","","","","","0","","24.1","","99.56","","","","","","Mainly Clear"
"-62.28","82.52","ALERT A","2400302","2020-03-24 21:00","2020","03","24","21:00","-32.7","","-35.9","","73","","","","23","","4","","24.1","","99.59","","","","-37","","Mainly Clear"
"-62.28","82.52","ALERT A","2400302","2020-03-24 22:00","2020","03","24","22:00","-31.8","","-34.9","","74","","","","","","0","","24.1","","99.60","","","","","","Clear"
"-62.28","82.52","ALERT A","2400302","2020-03-24 23:00","2020","03","24","23:00","-35.4","","-38.8","","71","","","","36","","4","","24.1","","99.62","","","","-40","","Clear"
"-62.28","82.52","ALERT A","2400302","2020-03-25 00:00","2020","03","25","00:00"
"-62.28","82.52","ALERT A","2400302","2020-03-25 01:00","2020","03","25","01:00"
"-62.28","82.52","ALERT A","2400302","2020-03-25 02:00","2020","03","25","02:00"
"-62.28","82.52","ALERT A","2400302","2020-03-25 03:00","2020","03","25","03:00"
"-62.28","82.52","ALERT A","2400302","2020-03-25 04:00","2020","03","25","04:00"
"-62.28","82.52","ALERT A","2400302","2020-03-25 05:00","2020","03","25","05:00"
"-62.28","82.52","ALERT A","2400302","2020-03-25 06:00","2020","03","25","06:00"
"-62.28","82.52","ALERT A","2400302","2020-03-25 07:00","2020","03","25","07:00"
"-62.28","82.52","ALERT A","2400302","2020-03-25 08:00","2020","03","25","08:00","-33.5","","-36.7","","73","","","","25","","5","","16.1","","99.61","","","","-40","","Mostly Cloudy"
"-62.28","82.52","ALERT A","2400302","2020-03-25 09:00","2020","03","25","09:00","-30.6","","-33.6","","75","","","","","","0","","24.1","","99.60","","","","","","Mostly Cloudy"
"-62.28","82.52","ALERT A","2400302","2020-03-25 10:00","2020","03","25","10:00","-31.1","","-34.2","","74","","","","","","0","","24.1","","99.60","","","","","","Mostly Cloudy"
"-62.28","82.52","ALERT A","2400302","2020-03-25 11:00","2020","03","25","11:00","-31.9","","-35.0","","74","","","","","","0","","24.1","","99.63","","","","","","Mostly Cloudy"
"-62.28","82.52","ALERT A","2400302","2020-03-25 12:00","2020","03","25","12:00","-32.6","","-35.7","","74","","","","","","0","","24.1","","99.64","","","","","","Mainly Clear"
"-62.28","82.52","ALERT A","2400302","2020-03-25 13:00","2020","03","25","13:00","-33.2","","-36.4","","73","","","","","","0","","24.1","","99.67","","","","","","Mainly Clear"
"-62.28","82.52","ALERT A","2400302","2020-03-25 14:00","2020","03","25","14:00","-32.7","","-36.0","","72","","","","1","","9","","24.1","","99.67","","","","-42","","Mainly Clear"
"-62.28","82.52","ALERT A","2400302","2020-03-25 15:00","2020","03","25","15:00","-32.0","","-35.0","","75","","","","","","0","","24.1","","99.68","","","","","","Mainly Clear"
"-62.28","82.52","ALERT A","2400302","2020-03-25 16:00","2020","03","25","16:00","-33.9","","-37.2","","72","","","","34","","5","","24.1","","99.69","","","","-40","","Mainly Clear"
"-62.28","82.52","ALERT A","2400302","2020-03-25 17:00","2020","03","25","17:00"
"-62.28","82.52","ALERT A","2400302","2020-03-25 18:00","2020","03","25","18:00"
"-62.28","82.52","ALERT A","2400302","2020-03-25 19:00","2020","03","25","19:00"
"-62.28","82.52","ALERT A","2400302","2020-03-25 20:00","2020","03","25","20:00"
"-62.28","82.52","ALERT A","2400302","2020-03-25 21:00","2020","03","25","21:00"
"-62.28","82.52","ALERT A","2400302","2020-03-25 22:00","2020","03","25","22:00"
"-62.28","82.52","ALERT A","2400302","2020-03-25 23:00","2020","03","25","23:00"
"-62.28","82.52","ALERT A","2400302","2020-03-26 00:00","2020","03","26","00:00"
"-62.28","82.52","ALERT A","2400302","2020-03-26 01:00","2020","03","26","01:00"
"-62.28","82.52","ALERT A","2400302","2020-03-26 02:00","2020","03","26","02:00"
"-62.28","82.52","ALERT A","2400302","2020-03-26 03:00","2020","03","26","03:00"
"-62.28","82.52","ALERT A","2400302","2020-03-26 04:00","2020","03","26","04:00"
"-62.28","82.52","ALERT A","2400302","2020-03-26 05:00","2020","03","26","05:00","-32.1","","-35.3","","73","","","","","","0","","16.1","","99.91","","","","","","Mostly Cloudy"
"-62.28","82.52","ALERT A","2400302","2020-03-26 06:00","2020","03","26","06:00","-32.4","","-35.6","","73","","","","","","0","","16.1","","99.95","","","","","","Mostly Cloudy"
"-62.28","82.52","ALERT A","2400302","2020-03-26 07:00","2020","03","26","07:00","-32.3","","-35.6","","72","","","","","","0","","16.1","","99.96","","","","","","Mostly Cloudy"
"-62.28","82.52","ALERT A","2400302","2020-03-26 08:00","2020","03","26","08:00","-31.4","","-34.8","","72","","","","","","0","","24.1","","99.95","","","","","","Mostly Cloudy"
"-62.28","82.52","ALERT A","2400302","2020-03-26 09:00","2020","03","26","09:00","-31.9","","-35.1","","73","","","","18","","4","","24.1","","99.95","","","","-37","","Cloudy"
"-62.28","82.52","ALERT A","2400302","2020-03-26 10:00","2020","03","26","10:00","-21.2","","-23.6","","81","","","","28","","30","","24.1","","99.93","","","","-34","","Cloudy"
"-62.28","82.52","ALERT A","2400302","2020-03-26 11:00","2020","03","26","11:00","-20.8","","-23.0","","82","","","","28","","46","","4.8","","99.93","","","","-36","","Blowing Snow"
"-62.28","82.52","ALERT A","2400302","2020-03-26 12:00","2020","03","26","12:00","-20.5","","-22.7","","83","","","","28","","54","","4.0","","99.98","","","","-37","","Blowing Snow"
"-62.28","82.52","ALERT A","2400302","2020-03-26 13:00","2020","03","26","13:00","-19.8","","-22.1","","82","","","","28","","61","","4.0","","100.10","","","","-36","","Blowing Snow"
"-62.28","82.52","ALERT A","2400302","2020-03-26 14:00","2020","03","26","14:00","-19.6","","-22.2","","80","","","","28","","43","","6.4","","100.31","","","","-34","","Blowing Snow"
"-62.28","82.52","ALERT A","2400302","2020-03-26 15:00","2020","03","26","15:00","-19.8","","-22.6","","78","","","","28","","55","","2.0","","100.33","","","","-36","","Blowing Snow"
"-62.28","82.52","ALERT A","2400302","2020-03-26 16:00","2020","03","26","16:00","-19.8","","-22.6","","78","","","","28","","55","","2.0","","100.52","","","","-36","","Blowing Snow"
"-62.28","82.52","ALERT A","2400302","2020-03-26 17:00","2020","03","26","17:00"
"-62.28","82.52","ALERT A","2400302","2020-03-26 18:00","2020","03","26","18:00"
"-62.28","82.52","ALERT A","2400302","2020-03-26 19:00","2020","03","26","19:00"
"-62.28","82.52","ALERT A","2400302","2020-03-26 20:00","2020","03","26","20:00"
"-62.28","82.52","ALERT A","2400302","2020-03-26 21:00","2020","03","26","21:00"
"-62.28","82.52","ALERT A","2400302","2020-03-26 22:00","2020","03","26","22:00"
"-62.28","82.52","ALERT A","2400302","2020-03-26 23:00","2020","03","26","23:00"
"-62.28","82.52","ALERT A","2400302","2020-03-27 00:00","2020","03","27","00:00"
"-62.28","82.52","ALERT A","2400302","2020-03-27 01:00","2020","03","27","01:00"
"-62.28","82.52","ALERT A","2400302","2020-03-27 02:00","2020","03","27","02:00"
"-62.28","82.52","ALERT A","2400302","2020-03-27 03:00","2020","03","27","03:00"
"-62.28","82.52","ALERT A","2400302","2020-03-27 04:00","2020","03","27","04:00"
"-62.28","82.52","ALERT A","2400302","2020-03-27 05:00","2020","03","27","05:00"
"-62.28","82.52","ALERT A","2400302","2020-03-27 06:00","2020","03","27","06:00","-25.7","","-32.0","","56","","","","27","","22","","16.1","","101.83","","","","-38","","Mainly Clear"
"-62.28","82.52","ALERT A","2400302","2020-03-27 07:00","2020","03","27","07:00","-24.6","","-31.0","","55","","","","28","","39","","16.1","","101.84","","","","-40","","Mainly Clear"
"-62.28","82.52","ALERT A","2400302","2020-03-27 08:00","2020","03","27","08:00","-24.1","","-31.0","","53","","","","28","","34","","24.1","","101.94","","","","-39","","Clear"
"-62.28","82.52","ALERT A","2400302","2020-03-27 09:00","2020","03","27","09:00","-24.6","","-30.8","","56","","","","28","","37","","19.3","","101.93","","","","-40","","Clear"
"-62.28","82.52","ALERT A","2400302","2020-03-27 10:00","2020","03","27","10:00","-23.9","","-31.2","","51","","","","28","","39","","19.3","","101.97","","","","-39","","Clear"
"-62.28","82.52","ALERT A","2400302","2020-03-27 11:00","2020","03","27","11:00","-23.7","","-31.0","","51","","","","28","","41","","19.3","","101.95","","","","-39","","Clear"
"-62.28","82.52","ALERT A","2400302","2020-03-27 12:00","2020","03","27","12:00","-23.2","","-30.5","","51","","","","28","","43","","19.3","","101.95","","","","-39","","Clear"
"-62.28","82.52","ALERT A","2400302","2020-03-27 13:00","2020","03","27","13:00","-25.6","","-32.1","","55","","","","6","","18","","24.1","","102.03","","","","-37","","Clear"
"-62.28","82.52","ALERT A","2400302","2020-03-27 14:00","2020","03","27","14:00","-23.6","","-31.9","","46","","","","31","","18","","24.1","","102.01","","","","-34","","Clear"
"-62.28","82.52","ALERT A","2400302","2020-03-27 15:00","2020","03","27","15:00","-29.0","","-33.4","","66","","","","35","","4","","24.1","","102.00","","","","-33","","Clear"
"-62.28","82.52","ALERT A","2400302","2020-03-27 16:00","2020","03","27","16:00","-30.1","","-34.1","","68","","","","2","","15","","24.1","","101.96","","","","-42","","Clear"
"-62.28","82.52","ALERT A","2400302","2020-03-27 17:00","2020","03","27","17:00"
"-62.28","82.52","ALERT A","2400302","2020-03-27 18:00","2020","03","27","18:00"
"-62.28","82.52","ALERT A","2400302","2020-03-27 19:00","2020","03","27","19:00"
"-62.28","82.52","ALERT A","2400302","2020-03-27 20:00","2020","03","27","20:00"
"-62.28","82.52","ALERT A","2400302","2020-03-27 21:00","2020","03","27","21:00"
"-62.28","82.52","ALERT A","2400302","2020-03-27 22:00","2020","03","27","22:00"
"-62.28","82.52","ALERT A","2400302","2020-03-27 23:00","2020","03","27","23:00"
"-62.28","82.52","ALERT A","2400302","2020-03-28 00:00","2020","03","28","00:00"
"-62.28","82.52","ALERT A","2400302","2020-03-28 01:00","2020","03","28","01:00"
"-62.28","82.52","ALERT A","2400302","2020-03-28 02:00","2020","03","28","02:00"
"-62.28","82.52","ALERT A","2400302","2020-03-28 03:00","2020","03","28","03:00"
"-62.28","82.52","ALERT A","2400302","2020-03-28 04:00","2020","03","28","04:00"
"-62.28","82.52","ALERT A","2400302","2020-03-28 05:00","2020","03","28","05:00"
"-62.28","82.52","ALERT A","2400302","2020-03-28 06:00","2020","03","28","06:00"
"-62.28","82.52","ALERT A","2400302","2020-03-28 07:00","2020","03","28","07:00"
"-62.28","82.52","ALERT A","2400302","2020-03-28 08:00","2020","03","28","08:00"
"-62.28","82.52","ALERT A","2400302","2020-03-28 09:00","2020","03","28","09:00"
"-62.28","82.52","ALERT A","2400302","2020-03-28 10:00","2020","03","28","10:00","-31.4","","-36.1","","63","","","","","","0","","24.1","","101.82","","","","","","Clear"
"-62.28","82.52","ALERT A","2400302","2020-03-28 11:00","2020","03","28","11:00","-32.2","","-36.7","","64","","","","13","","4","","24.1","","101.81","","","","-37","","Clear"
"-62.28","82.52","ALERT A","2400302","2020-03-28 12:00","2020","03","28","12:00","-30.8","","-35.9","","61","","","","","","0","","24.1","","101.82","","","","","","Clear"
"-62.28","82.52","ALERT A","2400302","2020-03-28 13:00","2020","03","28","13:00","-32.0","","-37.0","","61","","","","4","","4","","24.1","","101.78","","","","-37","","Clear"
"-62.28","82.52","ALERT A","2400302","2020-03-28 14:00","2020","03","28","14:00","-30.6","","-35.6","","62","","","","19","","4","","24.1","","101.75","","","","-35","","Clear"
"-62.28","82.52","ALERT A","2400302","2020-03-28 15:00","2020","03","28","15:00","-31.6","","-35.7","","67","","","","18","","4","","24.1","","101.74","","","","-36","","Clear"
"-62.28","82.52","ALERT A","2400302","2020-03-28 16:00","2020","03","28","16:00","-32.3","","-35.9","","70","","","","","","0","","24.1","","101.70","","","","","","Mainly Clear"
"-62.28","82.52","ALERT A","2400302","2020-03-28 17:00","2020","03","28","17:00","-32.6","","-36.1","","71","","","","31","","4","","24.1","","101.72","","","","-37","","Mainly Clear"
"-62.28","82.52","ALERT A","2400302","2020-03-28 18:00","2020","03","28","18:00","-33.9","","-37.2","","72","","","","","","0","","24.1","","101.72","","","","","","Mainly Clear"
"-62.28","82.52","ALERT A","2400302","2020-03-28 19:00","2020","03","28","19:00","-34.0","","-37.2","","73","","","","","","0","","24.1","","101.73","","","","","","Mainly Clear"
"-62.28","82.52","ALERT A","2400302","2020-03-28 20:00","2020","03","28","20:00","-33.1","","-36.4","","72","","","","","","0","","24.1","","101.72","","","","","","Mainly Clear"
"-62.28","82.52","ALERT A","2400302","2020-03-28 21:00","2020","03","28","21:00","-31.7","","-35.8","","67","","","","","","0","","24.1","","101.76","","","","","","Mainly Clear"
"-62.28","82.52","ALERT A","2400302","2020-03-28 22:00","2020","03","28","22:00","-33.4","","-37.1","","69","","","","27","","4","","24.1","","101.78","","","","-38","","Mainly Clear"
"-62.28","82.52","ALERT A","2400302","2020-03-28 23:00","2020","03","28","23:00","-32.3","","-37.2","","62","","","","21","","8","","24.1","","101.80","","","","-41","","Mainly Clear"
"-62.28","82.52","ALERT A","2400302","2020-03-29 00:00","2020","03","29","00:00","-32.0","","-36.1","","67","","","","22","","5","","24.1","","101.80","","","","-38","","Mainly Clear"
"-62.28","82.52","ALERT A","2400302","2020-03-29 01:00","2020","03","29","01:00","-32.4","","-37.5","","60","","","","4","","4","","24.1","","101.81","","","","-37","","Mainly Clear"
"-62.28","82.52","ALERT A","2400302","2020-03-29 02:00","2020","03","29","02:00","-29.8","","-34.7","","62","","","","24","","4","","24.1","","101.82","","","","-34","","Mainly Clear"
"-62.28","82.52","ALERT A","2400302","2020-03-29 03:00","2020","03","29","03:00","-34.0","","-37.8","","68","","","","","","0","","24.1","","101.83","","","","","","Mainly Clear"
"-62.28","82.52","ALERT A","2400302","2020-03-29 04:00","2020","03","29","04:00","-30.7","","-35.0","","66","","","","","","0","","24.1","","101.86","","","","","","Clear"
"-62.28","82.52","ALERT A","2400302","2020-03-29 05:00","2020","03","29","05:00","-32.6","","-37.1","","64","","","","19","","5","","24.1","","101.79","","","","-39","","Mainly Clear"
"-62.28","82.52","ALERT A","2400302","2020-03-29 06:00","2020","03","29","06:00","-31.0","","-35.6","","64","","","","21","","5","","24.1","","101.77","","","","-37","","Mainly Clear"
"-62.28","82.52","ALERT A","2400302","2020-03-29 07:00","2020","03","29","07:00","-32.2","","-36.2","","68","","","","25","","4","","24.1","","101.71","","","","-37","","Mainly Clear"
"-62.28","82.52","ALERT A","2400302","2020-03-29 08:00","2020","03","29","08:00","-32.0","","-35.8","","69","","","","3","","4","","24.1","","101.67","","","","-37","","Mainly Clear"
"-62.28","82.52","ALERT A","2400302","2020-03-29 09:00","2020","03","29","09:00","-32.1","","-36.3","","66","","","","23","","4","","24.1","","101.63","","","","-37","","Mostly Cloudy"
"-62.28","82.52","ALERT A","2400302","2020-03-29 10:00","2020","03","29","10:00","-31.4","","-35.4","","68","","","","28","","5","","24.1","","101.57","","","","-37","","Mainly Clear"
"-62.28","82.52","ALERT A","2400302","2020-03-29 11:00","2020","03","29","11:00","-30.7","","-34.8","","67","","","","","","0","","24.1","","101.57","","","","","","Mostly Cloudy"
"-62.28","82.52","ALERT A","2400302","2020-03-29 12:00","2020","03","29","12:00","-29.1","","-34.1","","62","","","","33","","5","","24.1","","101.46","","","","-35","","Mostly Cloudy"
"-62.28","82.52","ALERT A","2400302","2020-03-29 13:00","2020","03","29","13:00","-30.7","","-35.3","","64","","","","36","","9","","24.1","","101.38","","","","-39","","Mostly Cloudy"
"-62.28","82.52","ALERT A","2400302","2020-03-29 14:00","2020","03","29","14:00","-30.7","","-34.9","","67","","","","36","","8","","24.1","","101.31","","","","-39","","Mostly Cloudy"
"-62.28","82.52","ALERT A","2400302","2020-03-29 15:00","2020","03","29","15:00","-31.0","","-34.6","","71","","","","34","","8","","24.1","","101.28","","","","-39","","Mainly Clear"
"-62.28","82.52","ALERT A","2400302","2020-03-29 16:00","2020","03","29","16:00","-31.5","","-34.9","","72","","","","33","","15","","24.1","","101.25","","","","-43","","Mainly Clear"
"-62.28","82.52","ALERT A","2400302","2020-03-29 17:00","2020","03","29","17:00","-31.4","","-35.1","","70","","","","35","","11","","24.1","","101.21","","","","-41","","Mostly Cloudy"
"-62.28","82.52","ALERT A","2400302","2020-03-29 18:00","2020","03","29","18:00","-28.2","","-32.9","","64","","","","34","","18","","24.1","","101.16","","","","-40","","Cloudy"
"-62.28","82.52","ALERT A","2400302","2020-03-29 19:00","2020","03","29","19:00","-27.4","","-32.7","","61","","","","35","","22","","24.1","","101.19","","","","-40","","Mostly Cloudy"
"-62.28","82.52","ALERT A","2400302","2020-03-29 20:00","2020","03","29","20:00","-27.0","","-32.6","","59","","","","34","","18","","19.3","","101.20","","","","-39","","Cloudy"
"-62.28","82.52","ALERT A","2400302","2020-03-29 21:00","2020","03","29","21:00","-28.5","","-33.1","","65","","","","1","","9","","16.1","","101.24","","","","-37","","Cloudy"
"-62.28","82.52","ALERT A","2400302","2020-03-29 22:00","2020","03","29","22:00","-27.7","","-32.2","","65","","","","1","","8","","16.1","","101.30","","","","-35","","Cloudy"
"-62.28","82.52","ALERT A","2400302","2020-03-29 23:00","2020","03","29","23:00","-29.6","","-33.3","","70","","","","5","","4","","16.1","","101.43","","","","-34","","Cloudy"
"-62.28","82.52","ALERT A","2400302","2020-03-30 00:00","2020","03","30","00:00","-29.7","","-33.4","","70","","","","","","0","","16.1","","101.47","","","","","","Cloudy"
"-62.28","82.52","ALERT A","2400302","2020-03-30 01:00","2020","03","30","01:00","-29.3","","-32.9","","71","","","","","","0","","16.1","","101.51","","","","","","Cloudy"
"-62.28","82.52","ALERT A","2400302","2020-03-30 02:00","2020","03","30","02:00","-29.3","","-33.3","","68","","","","20","","5","","16.1","","101.56","","","","-35","","Cloudy"
"-62.28","82.52","ALERT A","2400302","2020-03-30 03:00","2020","03","30","03:00","-28.2","","-32.2","","69","","","","18","","9","","16.1","","101.64","","","","-36","","Cloudy"
"-62.28","82.52","ALERT A","2400302","2020-03-30 04:00","2020","03","30","04:00","-28.1","","-31.2","","75","","","","16","","5","","16.1","","101.65","","","","-33","","Cloudy"
"-62.28","82.52","ALERT A","2400302","2020-03-30 05:00","2020","03","30","05:00","-27.8","","-30.7","","76","","","","3","","5","","16.1","","101.65","","","","-33","","Mostly Cloudy"
"-62.28","82.52","ALERT A","2400302","2020-03-30 06:00","2020","03","30","06:00","-30.1","","-33.3","","74","","","","35","","17","","19.3","","101.67","","","","-42","","Mostly Cloudy"
"-62.28","82.52","ALERT A","2400302","2020-03-30 07:00","2020","03","30","07:00","-29.6","","-33.0","","72","","","","35","","5","","19.3","","101.66","","","","-35","","Mostly Cloudy"
"-62.28","82.52","ALERT A","2400302","2020-03-30 08:00","2020","03","30","08:00","-29.6","","-33.0","","72","","","","33","","17","","19.3","","101.68","","","","-42","","Mostly Cloudy"
"-62.28","82.52","ALERT A","2400302","2020-03-30 09:00","2020","03","30","09:00","-28.5","","-32.6","","68","","","","34","","8","","24.1","","101.71","","","","-36","","Mostly Cloudy"
"-62.28","82.52","ALERT A","2400302","2020-03-30 10:00","2020","03","30","10:00","-28.7","","-32.6","","69","","","","1","","5","","24.1","","101.75","","","","-34","","Mostly Cloudy"
"-62.28","82.52","ALERT A","2400302","2020-03-30 11:00","2020","03","30","11:00","-28.9","","-33.0","","68","","","","","","0","","24.1","","101.81","","","","","","Mostly Cloudy"
"-62.28","82.52","ALERT A","2400302","2020-03-30 12:00","2020","03","30","12:00","-29.0","","-33.1","","68","","","","","","0","","24.1","","101.87","","","","","","Mainly Clear"
"-62.28","82.52","ALERT A","2400302","2020-03-30 13:00","2020","03","30","13:00","-29.7","","-33.5","","69","","","","23","","4","","24.1","","101.93","","","","-34","","Mainly Clear"
"-62.28","82.52","ALERT A","2400302","2020-03-30 14:00","2020","03","30","14:00","-29.3","","-33.3","","68","","","","14","","8","","24.1","","102.00","","","","-37","","Clear"
"-62.28","82.52","ALERT A","2400302","2020-03-30 15:00","2020","03","30","15:00","-29.5","","-33.6","","68","","","","","","0","","24.1","","102.06","","","","","","Clear"
"-62.28","82.52","ALERT A","2400302","2020-03-30 16:00","2020","03","30","16:00","-28.9","","-33.2","","66","","","","","","0","","24.1","","102.11","","","","","","Mainly Clear"
"-62.28","82.52","ALERT A","2400302","2020-03-30 17:00","2020","03","30","17:00","-29.3","","-33.4","","68","","","","19","","4","","24.1","","102.14","","","","-34","","Mainly Clear"
"-62.28","82.52","ALERT A","2400302","2020-03-30 18:00","2020","03","30","18:00","-29.3","","-33.2","","69","","","","","","0","","24.1","","102.18","","","","","","Mainly Clear"
"-62.28","82.52","ALERT A","2400302","2020-03-30 19:00","2020","03","30","19:00","-29.2","","-33.2","","68","","","","24","","5","","24.1","","102.22","","","","-35","","Clear"
"-62.28","82.52","ALERT A","2400302","2020-03-30 20:00","2020","03","30","20:00","-28.9","","-33.4","","65","","","","20","","8","","24.1","","102.20","","","","-37","","Clear"
"-62.28","82.52","ALERT A","2400302","2020-03-30 21:00","2020","03","30","21:00","-28.6","","-33.4","","63","","","","2","","4","","24.1","","102.19","","","","-33","","Clear"
"-62.28","82.52","ALERT A","2400302","2020-03-30 22:00","2020","03","30","22:00","-30.3","","-34.6","","66","","","","26","","9","","24.1","","102.17","","","","-39","","Clear"
"-62.28","82.52","ALERT A","2400302","2020-03-30 23:00","2020","03","30","23:00","-31.0","","-34.9","","69","","","","","","0","","24.1","","102.17","","","","","","Clear"
"-62.28","82.52","ALERT A","2400302","2020-03-31 00:00","2020","03","31","00:00","-31.1","","-34.8","","70","","","","21","","5","","24.1","","102.15","","","","-37","","Clear"
"-62.28","82.52","ALERT A","2400302","2020-03-31 01:00","2020","03","31","01:00","-31.4","","-35.5","","67","","","","22","","4","","24.1","","102.11","","","","-36","","Clear"
"-62.28","82.52","ALERT A","2400302","2020-03-31 02:00","2020","03","31","02:00","-30.0","","-33.7","","70","","","","29","","4","","24.1","","102.08","","","","-35","","Clear"
"-62.28","82.52","ALERT A","2400302","2020-03-31 03:00","2020","03","31","03:00","-29.5","","-33.0","","72","","","","22","","4","","24.1","","102.04","","","","-34","","Clear"
"-62.28","82.52","ALERT A","2400302","2020-03-31 04:00","2020","03","31","04:00","-29.0","","-32.7","","70","","","","26","","4","","24.1","","102.01","","","","-33","","Clear"
"-62.28","82.52","ALERT A","2400302","2020-03-31 05:00","2020","03","31","05:00","-30.9","","-34.2","","73","","","","","","0","","24.1","","102.01","","","","","","Clear"
"-62.28","82.52","ALERT A","2400302","2020-03-31 06:00","2020","03","31","06:00","-29.6","","-33.3","","70","","","","","","0","","24.1","","102.02","","","","","","Clear"
"-62.28","82.52","ALERT A","2400302","2020-03-31 07:00","2020","03","31","07:00","-32.0","","-35.8","","69","","","","21","","11","","24.1","","101.97","","","","-42","","Clear"
"-62.28","82.52","ALERT A","2400302","2020-03-31 08:00","2020","03","31","08:00","-30.1","","-34.7","","64","","","","20","","5","","24.1","","101.95","","","","-36","","Clear"
"-62.28","82.52","ALERT A","2400302","2020-03-31 09:00","2020","03","31","09:00","-28.4","","-32.8","","66","","","","25","","4","","24.1","","101.86","","","","-33","","Clear"
"-62.28","82.52","ALERT A","2400302","2020-03-31 10:00","2020","03","31","10:00","-29.5","","-33.6","","68","","","","22","","4","","24.1","","101.83","","","","-34","","Clear"
"-62.28","82.52","ALERT A","2400302","2020-03-31 11:00","2020","03","31","11:00","-29.8","","-33.6","","69","","","","19","","4","","24.1","","101.77","","","","-34","","Clear"
"-62.28","82.52","ALERT A","2400302","2020-03-31 12:00","2020","03","31","12:00","-25.3","","-30.5","","62","","","","","","0","","24.1","","101.69","","","","","","Clear"
"-62.28","82.52","ALERT A","2400302","2020-03-31 13:00","2020","03","31","13:00","-25.1","","-30.1","","63","","","","20","","5","","24.1","","101.66","","","","-30","","Mainly Clear"
"-62.28","82.52","ALERT A","2400302","2020-03-31 14:00","2020","03","31","14:00","-20.7","","-26.4","","60","","","","27","","18","","24.1","","101.56","","","","-31","","Mainly Clear"
"-62.28","82.52","ALERT A","2400302","2020-03-31 15:00","2020","03","31","15:00","-18.7","","-24.4","","61","","","","27","","46","","24.1","","101.51","","","","-33","","Mainly Clear"
"-62.28","82.52","ALERT A","2400302","2020-03-31 16:00","2020","03","31","16:00","-18.7","","-24.0","","63","","","","28","","46","","24.1","","101.52","","","","-33","","Mainly Clear"
"-62.28","82.52","ALERT A","2400302","2020-03-31 17:00","2020","03","31","17:00","-18.5","","-23.3","","66","","","","27","","48","","9.7","","101.52","","","","-33","","Blowing Snow"
"-62.28","82.52","ALERT A","2400302","2020-03-31 18:00","2020","03","31","18:00","-18.0","","-22.7","","67","","","","28","","63","","3.2","","101.47","","","","-34","","Blowing Snow"
"-62.28","82.52","ALERT A","2400302","2020-03-31 19:00","2020","03","31","19:00","-17.1","","-20.9","","72","","","","28","","76","","1.6","","101.46","","","","-34","","Blowing Snow"
"-62.28","82.52","ALERT A","2400302","2020-03-31 20:00","2020","03","31","20:00","-17.1","","-20.9","","72","","","","28","","76","","0.8","","101.47","","","","-34","","Blowing Snow"
"-62.28","82.52","ALERT A","2400302","2020-03-31 21:00","2020","03","31","21:00"
"-62.28","82.52","ALERT A","2400302","2020-03-31 22:00","2020","03","31","22:00"
"-62.28","82.52","ALERT A","2400302","2020-03-31 23:00","2020","03","31","23:00"
