"Longitude (x)","Latitude (y)","Station Name","Climate ID","Date/Time (LST)","Year","Month","Day","Time (LST)","Temp (°C)","Temp Flag","Dew Point Temp (°C)","Dew Point Temp Flag","Rel Hum (%)","Rel Hum Flag","Precip. Amount (mm)","Precip. Amount Flag","Wind Dir (10s deg)","Wind Dir Flag","Wind Spd (km/h)","Wind Spd Flag","Visibility (km)","Visibility Flag","Stn Press (kPa)","Stn Press Flag","Hmdx","Hmdx Flag","Wind Chill","Wind Chill Flag","Weather"
"-65.53","45.74","SUSSEX FOUR CORNERS","8105210","2021-05-01 00:00","2021","05","01","00:00","2.4","","1.9","","96","","","M","34","","29","","","","97.75","","","","","","NA"
"-65.53","45.74","SUSSEX FOUR CORNERS","8105210","2021-05-01 01:00","2021","05","01","01:00","2.2","","1.8","","97","","","M","33","","23","","","","97.84","","","","","","NA"
"-65.53","45.74","SUSSEX FOUR CORNERS","8105210","2021-05-01 02:00","2021","05","01","02:00","2.1","","1.6","","97","","","M","33","","24","","","","97.93","","","","","","NA"
"-65.53","45.74","SUSSEX FOUR CORNERS","8105210","2021-05-01 03:00","2021","05","01","03:00","2.3","","2.2","","100","","","M","32","","19","","","","97.98","","","","","","NA"
"-65.53","45.74","SUSSEX FOUR CORNERS","8105210","2021-05-01 04:00","2021","05","01","04:00","3.1","","3.0","","99","","","M","32","","11","","","","98.08","","","","","","NA"
"-65.53","45.74","SUSSEX FOUR CORNERS","8105210","2021-05-01 05:00","2021","05","01","05:00","3.7","","3.6","","99","","","M","32","","11","","","","98.19","","","","","","NA"
"-65.53","45.74","SUSSEX FOUR CORNERS","8105210","2021-05-01 06:00","2021","05","01","06:00","4.1","","4.1","","100","","","M","30","","10","","","","98.32","","","","","","NA"
"-65.53","45.74","SUSSEX FOUR CORNERS","8105210","2021-05-01 07:00","2021","05","01","07:00","4.7","","4.6","","99","","","M","29","","10","","","","98.44","","","","","","NA"
"-65.53","45.74","SUSSEX FOUR CORNERS","8105210","2021-05-01 08:00","2021","05","01","08:00","5.7","","5.4","","98","","","M","30","","10","","","","98.55","","","","","","NA"
"-65.53","45.74","SUSSEX FOUR CORNERS","8105210","2021-05-01 09:00","2021","05","01","09:00","7.8","","6.4","","91","","","M","29","","16","","","","98.62","","","","","","NA"
"-65.53","45.74","SUSSEX FOUR CORNERS","8105210","2021-05-01 10:00","2021","05","01","10:00","9.3","","5.3","","76","","","M","30","","14","","","","98.65","","","","","","NA"
"-65.53","45.74","SUSSEX FOUR CORNERS","8105210","2021-05-01 11:00","2021","05","01","11:00","11.0","","5.1","","67","","","M","29","","18","","","","98.70","","","","","","NA"
"-65.53","45.74","SUSSEX FOUR CORNERS","8105210","2021-05-01 12:00","2021","05","01","12:00","12.8","","3.7","","54","","","M","29","","17","","","","98.75","","","","","","NA"
"-65.53","45.74","SUSSEX FOUR CORNERS","8105210","2021-05-01 13:00","2021","05","01","13:00","10.9","","6.6","","74","","","M","29","","16","","","","98.80","","","","","","NA"
"-65.53","45.74","SUSSEX FOUR CORNERS","8105210","2021-05-01 14:00","2021","05","01","14:00","11.5","","6.2","","70","","","M","27","","24","","","","98.90","","","","","","NA"
"-65.53","45.74","SUSSEX FOUR CORNERS","8105210","2021-05-01 15:00","2021","05","01","15:00","11.8","","2.9","","54","","","M","29","","21","","","","98.93","","","","","","NA"
"-65.53","45.74","SUSSEX FOUR CORNERS","8105210","2021-05-01 16:00","2021","05","01","16:00","11.9","","1.8","","50","","","M","28","","19","","","","98.97","","","","","","NA"
"-65.53","45.74","SUSSEX FOUR CORNERS","8105210","2021-05-01 17:00","2021","05","01","17:00","12.0","","0.8","","46","","","M","30","","17","","","","99.02","","","","","","NA"
"-65.53","45.74","SUSSEX FOUR CORNERS","8105210","2021-05-01 18:00","2021","05","01","18:00","11.4","","-0.1","","45","","","M","28","","19","","","","99.10","","","","","","NA"
"-65.53","45.74","SUSSEX FOUR CORNERS","8105210","2021-05-01 19:00","2021","05","01","19:00","10.4","","-2.2","","41","","","M","28","","13","","","","99.18","","","","","","NA"
"-65.53","45.74","SUSSEX FOUR CORNERS","8105210","2021-05-01 20:00","2021","05","01","20:00","8.8","","-6.0","","35","","","M","29","","16","","","","99.30","","","","","","NA"
"-65.53","45.74","SUSSEX FOUR CORNERS","8105210","2021-05-01 21:00","2021","05","01","21:00","7.2","","-6.0","","39","","","M","26","","13","","","","99.43","","","","","","NA"
"-65.53","45.74","SUSSEX FOUR CORNERS","8105210","2021-05-01 22:00","2021","05","01","22:00","6.6","","-7.8","","35","","","M","27","","12","","","","99.50","","","","","","NA"
"-65.53","45.74","SUSSEX FOUR CORNERS","8105210","2021-05-01 23:00","2021","05","01","23:00","4.6","","-7.5","","41","","","M","26","","7","","","","99.55","","","","","","NA"
"-65.53","45.74","SUSSEX FOUR CORNERS","8105210","2021-05-02 00:00","2021","05","02","00:00","4.0","","-6.9","","45","","","M","26","","9","","","","99.55","","","","","","NA"
"-65.53","45.74","SUSSEX FOUR CORNERS","8105210","2021-05-02 01:00","2021","05","02","01:00","5.0","","-7.2","","41","","","M","27","","12","","","","99.57","","","","","","NA"
"-65.53","45.74","SUSSEX FOUR CORNERS","8105210","2021-05-02 02:00","2021","05","02","02:00","4.6","","-6.7","","44","","","M","27","","9","","","","99.58","","","","","","NA"
"-65.53","45.74","SUSSEX FOUR CORNERS","8105210","2021-05-02 03:00","2021","05","02","03:00","3.9","","-5.2","","51","","","M","23","","9","","","","99.57","","","","","","NA"
"-65.53","45.74","SUSSEX FOUR CORNERS","8105210","2021-05-02 04:00","2021","05","02","04:00","4.2","","-3.8","","56","","","M","22","","10","","","","99.56","","","","","","NA"
"-65.53","45.74","SUSSEX FOUR CORNERS","8105210","2021-05-02 05:00","2021","05","02","05:00","4.5","","-3.1","","58","","","M","21","","8","","","","99.57","","","","","","NA"
"-65.53","45.74","SUSSEX FOUR CORNERS","8105210","2021-05-02 06:00","2021","05","02","06:00","4.3","","-1.9","","64","","","M","20","","11","","","","99.59","","","","","","NA"
"-65.53","45.74","SUSSEX FOUR CORNERS","8105210","2021-05-02 07:00","2021","05","02","07:00","5.5","","-1.9","","59","","","M","22","","15","","","","99.61","","","","","","NA"
"-65.53","45.74","SUSSEX FOUR CORNERS","8105210","2021-05-02 08:00","2021","05","02","08:00","6.7","","-1.7","","55","","","M","23","","20","","","","99.60","","","","","","NA"
"-65.53","45.74","SUSSEX FOUR CORNERS","8105210","2021-05-02 09:00","2021","05","02","09:00","9.4","","-1.3","","47","","","M","21","","19","","","","99.48","","","","","","NA"
"-65.53","45.74","SUSSEX FOUR CORNERS","8105210","2021-05-02 10:00","2021","05","02","10:00","8.4","","-1.2","","51","","","M","21","","29","","","","99.47","","","","","","NA"
"-65.53","45.74","SUSSEX FOUR CORNERS","8105210","2021-05-02 11:00","2021","05","02","11:00","9.1","","0.3","","54","","","M","21","","24","","","","99.38","","","","","","NA"
"-65.53","45.74","SUSSEX FOUR CORNERS","8105210","2021-05-02 12:00","2021","05","02","12:00","10.6","","-0.1","","47","","","M","23","","24","","","","99.27","","","","","","NA"
"-65.53","45.74","SUSSEX FOUR CORNERS","8105210","2021-05-02 13:00","2021","05","02","13:00","12.2","","2.1","","50","","","M","20","","26","","","","99.19","","","","","","NA"
"-65.53","45.74","SUSSEX FOUR CORNERS","8105210","2021-05-02 14:00","2021","05","02","14:00","12.8","","3.6","","53","","","M","22","","23","","","","99.13","","","","","","NA"
"-65.53","45.74","SUSSEX FOUR CORNERS","8105210","2021-05-02 15:00","2021","05","02","15:00","13.0","","2.1","","47","","","M","24","","15","","","","99.05","","","","","","NA"
"-65.53","45.74","SUSSEX FOUR CORNERS","8105210","2021-05-02 16:00","2021","05","02","16:00","12.6","","4.0","","56","","","M","22","","18","","","","99.04","","","","","","NA"
"-65.53","45.74","SUSSEX FOUR CORNERS","8105210","2021-05-02 17:00","2021","05","02","17:00","13.8","","5.5","","57","","","M","21","","24","","","","99.03","","","","","","NA"
"-65.53","45.74","SUSSEX FOUR CORNERS","8105210","2021-05-02 18:00","2021","05","02","18:00","11.7","","6.0","","68","","","M","22","","15","","","","99.07","","","","","","NA"
"-65.53","45.74","SUSSEX FOUR CORNERS","8105210","2021-05-02 19:00","2021","05","02","19:00","10.7","","6.0","","73","","","M","22","","16","","","","99.15","","","","","","NA"
"-65.53","45.74","SUSSEX FOUR CORNERS","8105210","2021-05-02 20:00","2021","05","02","20:00","9.2","","5.6","","78","","","M","24","","9","","","","99.21","","","","","","NA"
"-65.53","45.74","SUSSEX FOUR CORNERS","8105210","2021-05-02 21:00","2021","05","02","21:00","8.1","","4.8","","80","","","M","21","","13","","","","99.29","","","","","","NA"
"-65.53","45.74","SUSSEX FOUR CORNERS","8105210","2021-05-02 22:00","2021","05","02","22:00","8.8","","0.8","","57","","","M","28","","13","","","","99.40","","","","","","NA"
"-65.53","45.74","SUSSEX FOUR CORNERS","8105210","2021-05-02 23:00","2021","05","02","23:00","7.4","","-2.3","","50","","","M","23","","13","","","","99.51","","","","","","NA"
"-65.53","45.74","SUSSEX FOUR CORNERS","8105210","2021-05-03 00:00","2021","05","03","00:00","6.0","","-6.3","","41","","","M","30","","5","","","","99.61","","","","","","NA"
"-65.53","45.74","SUSSEX FOUR CORNERS","8105210","2021-05-03 01:00","2021","05","03","01:00","5.4","","-7.6","","39","","","M","28","","11","","","","99.67","","","","","","NA"
"-65.53","45.74","SUSSEX FOUR CORNERS","8105210","2021-05-03 02:00","2021","05","03","02:00","3.6","","-6.1","","49","","","M","25","","15","","","","99.74","","","","","","NA"
"-65.53","45.74","SUSSEX FOUR CORNERS","8105210","2021-05-03 03:00","2021","05","03","03:00","2.4","","-5.8","","55","","","M","26","","11","","","","99.87","","","","","","NA"
"-65.53","45.74","SUSSEX FOUR CORNERS","8105210","2021-05-03 04:00","2021","05","03","04:00","1.2","","-5.0","","63","","","M","24","","12","","","","99.99","","","","","","NA"
"-65.53","45.74","SUSSEX FOUR CORNERS","8105210","2021-05-03 05:00","2021","05","03","05:00","1.5","","-5.0","","62","","","M","26","","17","","","","100.05","","","","","","NA"
"-65.53","45.74","SUSSEX FOUR CORNERS","8105210","2021-05-03 06:00","2021","05","03","06:00","1.9","","-4.5","","63","","","M","25","","13","","","","100.14","","","","","","NA"
"-65.53","45.74","SUSSEX FOUR CORNERS","8105210","2021-05-03 07:00","2021","05","03","07:00","3.3","","-4.1","","58","","","M","25","","21","","","","100.21","","","","","","NA"
"-65.53","45.74","SUSSEX FOUR CORNERS","8105210","2021-05-03 08:00","2021","05","03","08:00","4.7","","-4.6","","51","","","M","26","","24","","","","100.25","","","","","","NA"
"-65.53","45.74","SUSSEX FOUR CORNERS","8105210","2021-05-03 09:00","2021","05","03","09:00","6.1","","-4.3","","47","","","M","26","","24","","","","100.25","","","","","","NA"
"-65.53","45.74","SUSSEX FOUR CORNERS","8105210","2021-05-03 10:00","2021","05","03","10:00","8.4","","-2.7","","46","","","M","26","","20","","","","100.26","","","","","","NA"
"-65.53","45.74","SUSSEX FOUR CORNERS","8105210","2021-05-03 11:00","2021","05","03","11:00","10.5","","-2.4","","40","","","M","26","","20","","","","100.23","","","","","","NA"
"-65.53","45.74","SUSSEX FOUR CORNERS","8105210","2021-05-03 12:00","2021","05","03","12:00","12.1","","-3.0","","35","","","M","27","","17","","","","100.22","","","","","","NA"
"-65.53","45.74","SUSSEX FOUR CORNERS","8105210","2021-05-03 13:00","2021","05","03","13:00","13.5","","-2.2","","34","","","M","27","","19","","","","100.21","","","","","","NA"
"-65.53","45.74","SUSSEX FOUR CORNERS","8105210","2021-05-03 14:00","2021","05","03","14:00","13.8","","-3.7","","29","","","M","26","","23","","","","100.22","","","","","","NA"
"-65.53","45.74","SUSSEX FOUR CORNERS","8105210","2021-05-03 15:00","2021","05","03","15:00","14.6","","-3.9","","28","","","M","27","","17","","","","100.22","","","","","","NA"
"-65.53","45.74","SUSSEX FOUR CORNERS","8105210","2021-05-03 16:00","2021","05","03","16:00","15.3","","-4.4","","25","","","M","27","","16","","","","100.22","","","","","","NA"
"-65.53","45.74","SUSSEX FOUR CORNERS","8105210","2021-05-03 17:00","2021","05","03","17:00","15.3","","-6.4","","22","","","M","27","","19","","","","100.18","","","","","","NA"
"-65.53","45.74","SUSSEX FOUR CORNERS","8105210","2021-05-03 18:00","2021","05","03","18:00","14.8","","-6.4","","23","","","M","27","","17","","","","100.20","","","","","","NA"
"-65.53","45.74","SUSSEX FOUR CORNERS","8105210","2021-05-03 19:00","2021","05","03","19:00","11.8","","0.1","","44","","","M","22","","16","","","","100.23","","","","","","NA"
"-65.53","45.74","SUSSEX FOUR CORNERS","8105210","2021-05-03 20:00","2021","05","03","20:00","10.0","","1.0","","54","","","M","21","","17","","","","100.28","","","","","","NA"
"-65.53","45.74","SUSSEX FOUR CORNERS","8105210","2021-05-03 21:00","2021","05","03","21:00","8.2","","1.3","","62","","","M","22","","19","","","","100.33","","","","","","NA"
"-65.53","45.74","SUSSEX FOUR CORNERS","8105210","2021-05-03 22:00","2021","05","03","22:00","6.9","","1.8","","70","","","M","23","","15","","","","100.38","","","","","","NA"
"-65.53","45.74","SUSSEX FOUR CORNERS","8105210","2021-05-03 23:00","2021","05","03","23:00","5.8","","1.6","","74","","","M","24","","9","","","","100.41","","","","","","NA"
"-65.53","45.74","SUSSEX FOUR CORNERS","8105210","2021-05-04 00:00","2021","05","04","00:00","5.5","","2.0","","78","","","M","9","","2","","","","100.45","","","","","","NA"
"-65.53","45.74","SUSSEX FOUR CORNERS","8105210","2021-05-04 01:00","2021","05","04","01:00","3.0","","1.0","","87","","","M","0","","1","","","","100.48","","","","","","NA"
"-65.53","45.74","SUSSEX FOUR CORNERS","8105210","2021-05-04 02:00","2021","05","04","02:00","2.4","","0.3","","86","","","M","9","","3","","","","100.50","","","","","","NA"
"-65.53","45.74","SUSSEX FOUR CORNERS","8105210","2021-05-04 03:00","2021","05","04","03:00","1.2","","-0.5","","88","","","M","2","","4","","","","100.53","","","","","","NA"
"-65.53","45.74","SUSSEX FOUR CORNERS","8105210","2021-05-04 04:00","2021","05","04","04:00","-0.1","","-0.6","","96","","","M","8","","3","","","","100.55","","","","-1","","NA"
"-65.53","45.74","SUSSEX FOUR CORNERS","8105210","2021-05-04 05:00","2021","05","04","05:00","-0.6","","-0.9","","98","","","M","2","","3","","","","100.58","","","","-2","","NA"
"-65.53","45.74","SUSSEX FOUR CORNERS","8105210","2021-05-04 06:00","2021","05","04","06:00","-0.5","","-0.7","","98","","","M","","","0","","","","100.62","","","","","","NA"
"-65.53","45.74","SUSSEX FOUR CORNERS","8105210","2021-05-04 07:00","2021","05","04","07:00","0.5","","-0.1","","96","","","M","2","","2","","","","100.61","","","","","","NA"
"-65.53","45.74","SUSSEX FOUR CORNERS","8105210","2021-05-04 08:00","2021","05","04","08:00","1.7","","0.3","","91","","","M","3","","2","","","","100.62","","","","","","NA"
"-65.53","45.74","SUSSEX FOUR CORNERS","8105210","2021-05-04 09:00","2021","05","04","09:00","4.5","","0.9","","78","","","M","9","","2","","","","100.64","","","","","","NA"
"-65.53","45.74","SUSSEX FOUR CORNERS","8105210","2021-05-04 10:00","2021","05","04","10:00","8.2","","-0.1","","56","","","M","6","","3","","","","100.61","","","","","","NA"
"-65.53","45.74","SUSSEX FOUR CORNERS","8105210","2021-05-04 11:00","2021","05","04","11:00","11.7","","-0.5","","43","","","M","15","","4","","","","100.53","","","","","","NA"
"-65.53","45.74","SUSSEX FOUR CORNERS","8105210","2021-05-04 12:00","2021","05","04","12:00","13.7","","-3.1","","31","","","M","16","","5","","","","100.50","","","","","","NA"
"-65.53","45.74","SUSSEX FOUR CORNERS","8105210","2021-05-04 13:00","2021","05","04","13:00","15.2","","-4.4","","26","","","M","21","","4","","","","100.46","","","","","","NA"
"-65.53","45.74","SUSSEX FOUR CORNERS","8105210","2021-05-04 14:00","2021","05","04","14:00","17.1","","-2.5","","26","","","M","21","","7","","","","100.36","","","","","","NA"
"-65.53","45.74","SUSSEX FOUR CORNERS","8105210","2021-05-04 15:00","2021","05","04","15:00","17.3","","-2.8","","25","","","M","2","","10","","","","100.32","","","","","","NA"
"-65.53","45.74","SUSSEX FOUR CORNERS","8105210","2021-05-04 16:00","2021","05","04","16:00","17.2","","-1.4","","28","","","M","2","","6","","","","100.29","","","","","","NA"
"-65.53","45.74","SUSSEX FOUR CORNERS","8105210","2021-05-04 17:00","2021","05","04","17:00","17.4","","-0.9","","29","","","M","6","","5","","","","100.29","","","","","","NA"
"-65.53","45.74","SUSSEX FOUR CORNERS","8105210","2021-05-04 18:00","2021","05","04","18:00","17.0","","-3.8","","24","","","M","0","","1","","","","100.29","","","","","","NA"
"-65.53","45.74","SUSSEX FOUR CORNERS","8105210","2021-05-04 19:00","2021","05","04","19:00","15.6","","-1.5","","31","","","M","36","","5","","","","100.31","","","","","","NA"
"-65.53","45.74","SUSSEX FOUR CORNERS","8105210","2021-05-04 20:00","2021","05","04","20:00","14.5","","-0.5","","36","","","M","5","","6","","","","100.33","","","","","","NA"
"-65.53","45.74","SUSSEX FOUR CORNERS","8105210","2021-05-04 21:00","2021","05","04","21:00","11.6","","1.4","","49","","","M","3","","14","","","","100.35","","","","","","NA"
"-65.53","45.74","SUSSEX FOUR CORNERS","8105210","2021-05-04 22:00","2021","05","04","22:00","9.7","","0.9","","54","","","M","4","","12","","","","100.37","","","","","","NA"
"-65.53","45.74","SUSSEX FOUR CORNERS","8105210","2021-05-04 23:00","2021","05","04","23:00","8.6","","0.8","","58","","","M","4","","9","","","","100.41","","","","","","NA"
"-65.53","45.74","SUSSEX FOUR CORNERS","8105210","2021-05-05 00:00","2021","05","05","00:00","7.3","","0.5","","62","","","M","7","","6","","","","100.42","","","","","","NA"
"-65.53","45.74","SUSSEX FOUR CORNERS","8105210","2021-05-05 01:00","2021","05","05","01:00","6.6","","0.9","","67","","","M","3","","10","","","","100.42","","","","","","NA"
"-65.53","45.74","SUSSEX FOUR CORNERS","8105210","2021-05-05 02:00","2021","05","05","02:00","5.1","","1.0","","75","","","M","3","","12","","","","100.50","","","","","","NA"
"-65.53","45.74","SUSSEX FOUR CORNERS","8105210","2021-05-05 03:00","2021","05","05","03:00","4.2","","0.8","","79","","","M","4","","6","","","","100.47","","","","","","NA"
"-65.53","45.74","SUSSEX FOUR CORNERS","8105210","2021-05-05 04:00","2021","05","05","04:00","3.8","","1.1","","82","","","M","5","","5","","","","100.53","","","","","","NA"
"-65.53","45.74","SUSSEX FOUR CORNERS","8105210","2021-05-05 05:00","2021","05","05","05:00","3.7","","1.2","","84","","","M","4","","7","","","","100.48","","","","","","NA"
"-65.53","45.74","SUSSEX FOUR CORNERS","8105210","2021-05-05 06:00","2021","05","05","06:00","3.9","","1.0","","81","","","M","5","","9","","","","100.55","","","","","","NA"
"-65.53","45.74","SUSSEX FOUR CORNERS","8105210","2021-05-05 07:00","2021","05","05","07:00","5.0","","0.8","","74","","","M","4","","8","","","","100.63","","","","","","NA"
"-65.53","45.74","SUSSEX FOUR CORNERS","8105210","2021-05-05 08:00","2021","05","05","08:00","7.4","","1.4","","66","","","M","3","","7","","","","100.60","","","","","","NA"
"-65.53","45.74","SUSSEX FOUR CORNERS","8105210","2021-05-05 09:00","2021","05","05","09:00","9.5","","0.0","","52","","","M","2","","10","","","","100.59","","","","","","NA"
"-65.53","45.74","SUSSEX FOUR CORNERS","8105210","2021-05-05 10:00","2021","05","05","10:00","11.3","","1.1","","49","","","M","3","","7","","","","100.56","","","","","","NA"
"-65.53","45.74","SUSSEX FOUR CORNERS","8105210","2021-05-05 11:00","2021","05","05","11:00","12.8","","0.9","","44","","","M","2","","7","","","","100.49","","","","","","NA"
"-65.53","45.74","SUSSEX FOUR CORNERS","8105210","2021-05-05 12:00","2021","05","05","12:00","13.8","","-0.6","","37","","","M","11","","3","","","","100.41","","","","","","NA"
"-65.53","45.74","SUSSEX FOUR CORNERS","8105210","2021-05-05 13:00","2021","05","05","13:00","13.6","","0.6","","41","","","M","14","","13","","","","100.41","","","","","","NA"
"-65.53","45.74","SUSSEX FOUR CORNERS","8105210","2021-05-05 14:00","2021","05","05","14:00","13.3","","-0.6","","38","","","M","12","","13","","","","100.40","","","","","","NA"
"-65.53","45.74","SUSSEX FOUR CORNERS","8105210","2021-05-05 15:00","2021","05","05","15:00","12.3","","2.5","","51","","","M","14","","8","","","","100.41","","","","","","NA"
"-65.53","45.74","SUSSEX FOUR CORNERS","8105210","2021-05-05 16:00","2021","05","05","16:00","11.8","","3.0","","55","","","M","9","","10","","","","100.34","","","","","","NA"
"-65.53","45.74","SUSSEX FOUR CORNERS","8105210","2021-05-05 17:00","2021","05","05","17:00","11.6","","2.6","","54","","","M","11","","13","","","","100.30","","","","","","NA"
"-65.53","45.74","SUSSEX FOUR CORNERS","8105210","2021-05-05 18:00","2021","05","05","18:00","11.0","","2.9","","57","","","M","11","","12","","","","100.26","","","","","","NA"
"-65.53","45.74","SUSSEX FOUR CORNERS","8105210","2021-05-05 19:00","2021","05","05","19:00","9.4","","3.6","","67","","","M","12","","15","","","","100.22","","","","","","NA"
"-65.53","45.74","SUSSEX FOUR CORNERS","8105210","2021-05-05 20:00","2021","05","05","20:00","7.7","","4.4","","80","","","M","9","","10","","","","100.22","","","","","","NA"
"-65.53","45.74","SUSSEX FOUR CORNERS","8105210","2021-05-05 21:00","2021","05","05","21:00","7.1","","4.3","","82","","","M","6","","8","","","","100.15","","","","","","NA"
"-65.53","45.74","SUSSEX FOUR CORNERS","8105210","2021-05-05 22:00","2021","05","05","22:00","6.8","","4.5","","85","","","M","7","","11","","","","100.09","","","","","","NA"
"-65.53","45.74","SUSSEX FOUR CORNERS","8105210","2021-05-05 23:00","2021","05","05","23:00","5.9","","4.8","","93","","","M","7","","7","","","","100.02","","","","","","NA"
"-65.53","45.74","SUSSEX FOUR CORNERS","8105210","2021-05-06 00:00","2021","05","06","00:00","5.3","","4.8","","97","","","M","5","","8","","","","99.90","","","","","","NA"
"-65.53","45.74","SUSSEX FOUR CORNERS","8105210","2021-05-06 01:00","2021","05","06","01:00","5.1","","5.0","","99","","","M","4","","10","","","","99.82","","","","","","NA"
"-65.53","45.74","SUSSEX FOUR CORNERS","8105210","2021-05-06 02:00","2021","05","06","02:00","5.0","","5.0","","100","","","M","5","","13","","","","99.68","","","","","","NA"
"-65.53","45.74","SUSSEX FOUR CORNERS","8105210","2021-05-06 03:00","2021","05","06","03:00","4.8","","4.7","","99","","","M","5","","12","","","","99.60","","","","","","NA"
"-65.53","45.74","SUSSEX FOUR CORNERS","8105210","2021-05-06 04:00","2021","05","06","04:00","4.7","","4.6","","100","","","M","4","","11","","","","99.53","","","","","","NA"
"-65.53","45.74","SUSSEX FOUR CORNERS","8105210","2021-05-06 05:00","2021","05","06","05:00","4.3","","4.3","","100","","","M","2","","10","","","","99.52","","","","","","NA"
"-65.53","45.74","SUSSEX FOUR CORNERS","8105210","2021-05-06 06:00","2021","05","06","06:00","4.3","","4.2","","100","","","M","2","","11","","","","99.52","","","","","","NA"
"-65.53","45.74","SUSSEX FOUR CORNERS","8105210","2021-05-06 07:00","2021","05","06","07:00","4.5","","4.4","","100","","","M","5","","11","","","","99.47","","","","","","NA"
"-65.53","45.74","SUSSEX FOUR CORNERS","8105210","2021-05-06 08:00","2021","05","06","08:00","5.2","","5.2","","100","","","M","3","","7","","","","99.48","","","","","","NA"
"-65.53","45.74","SUSSEX FOUR CORNERS","8105210","2021-05-06 09:00","2021","05","06","09:00","5.8","","5.6","","99","","","M","4","","12","","","","99.47","","","","","","NA"
"-65.53","45.74","SUSSEX FOUR CORNERS","8105210","2021-05-06 10:00","2021","05","06","10:00","6.1","","5.2","","94","","","M","1","","12","","","","99.49","","","","","","NA"
"-65.53","45.74","SUSSEX FOUR CORNERS","8105210","2021-05-06 11:00","2021","05","06","11:00","6.3","","5.3","","93","","","M","35","","10","","","","99.51","","","","","","NA"
"-65.53","45.74","SUSSEX FOUR CORNERS","8105210","2021-05-06 12:00","2021","05","06","12:00","6.4","","6.0","","97","","","M","30","","8","","","","99.55","","","","","","NA"
"-65.53","45.74","SUSSEX FOUR CORNERS","8105210","2021-05-06 13:00","2021","05","06","13:00","6.5","","5.5","","94","","","M","33","","15","","","","99.61","","","","","","NA"
"-65.53","45.74","SUSSEX FOUR CORNERS","8105210","2021-05-06 14:00","2021","05","06","14:00","6.4","","4.5","","88","","","M","31","","9","","","","99.64","","","","","","NA"
"-65.53","45.74","SUSSEX FOUR CORNERS","8105210","2021-05-06 15:00","2021","05","06","15:00","7.1","","4.6","","84","","","M","33","","12","","","","99.69","","","","","","NA"
"-65.53","45.74","SUSSEX FOUR CORNERS","8105210","2021-05-06 16:00","2021","05","06","16:00","6.8","","4.4","","84","","","M","32","","9","","","","99.79","","","","","","NA"
"-65.53","45.74","SUSSEX FOUR CORNERS","8105210","2021-05-06 17:00","2021","05","06","17:00","6.3","","3.2","","81","","","M","32","","14","","","","99.87","","","","","","NA"
"-65.53","45.74","SUSSEX FOUR CORNERS","8105210","2021-05-06 18:00","2021","05","06","18:00","6.4","","3.1","","79","","","M","34","","13","","","","99.93","","","","","","NA"
"-65.53","45.74","SUSSEX FOUR CORNERS","8105210","2021-05-06 19:00","2021","05","06","19:00","6.2","","3.4","","82","","","M","31","","8","","","","100.04","","","","","","NA"
"-65.53","45.74","SUSSEX FOUR CORNERS","8105210","2021-05-06 20:00","2021","05","06","20:00","5.5","","3.6","","88","","","M","29","","4","","","","100.13","","","","","","NA"
"-65.53","45.74","SUSSEX FOUR CORNERS","8105210","2021-05-06 21:00","2021","05","06","21:00","4.5","","3.5","","93","","","M","25","","5","","","","100.22","","","","","","NA"
"-65.53","45.74","SUSSEX FOUR CORNERS","8105210","2021-05-06 22:00","2021","05","06","22:00","4.5","","3.5","","93","","","M","22","","4","","","","100.30","","","","","","NA"
"-65.53","45.74","SUSSEX FOUR CORNERS","8105210","2021-05-06 23:00","2021","05","06","23:00","4.1","","4.1","","100","","","M","28","","4","","","","100.33","","","","","","NA"
"-65.53","45.74","SUSSEX FOUR CORNERS","8105210","2021-05-07 00:00","2021","05","07","00:00","3.8","","3.8","","100","","","M","","","0","","","","100.36","","","","","","NA"
"-65.53","45.74","SUSSEX FOUR CORNERS","8105210","2021-05-07 01:00","2021","05","07","01:00","3.8","","3.8","","100","","","M","35","","4","","","","100.39","","","","","","NA"
"-65.53","45.74","SUSSEX FOUR CORNERS","8105210","2021-05-07 02:00","2021","05","07","02:00","3.4","","3.1","","98","","","M","34","","8","","","","100.36","","","","","","NA"
"-65.53","45.74","SUSSEX FOUR CORNERS","8105210","2021-05-07 03:00","2021","05","07","03:00","3.2","","3.1","","99","","","M","32","","3","","","","100.38","","","","","","NA"
"-65.53","45.74","SUSSEX FOUR CORNERS","8105210","2021-05-07 04:00","2021","05","07","04:00","3.2","","3.1","","99","","","M","28","","2","","","","100.44","","","","","","NA"
"-65.53","45.74","SUSSEX FOUR CORNERS","8105210","2021-05-07 05:00","2021","05","07","05:00","2.7","","2.3","","97","","","M","24","","5","","","","100.52","","","","","","NA"
"-65.53","45.74","SUSSEX FOUR CORNERS","8105210","2021-05-07 06:00","2021","05","07","06:00","3.5","","3.2","","98","","","M","21","","5","","","","100.61","","","","","","NA"
"-65.53","45.74","SUSSEX FOUR CORNERS","8105210","2021-05-07 07:00","2021","05","07","07:00","4.1","","2.6","","90","","","M","26","","3","","","","100.67","","","","","","NA"
"-65.53","45.74","SUSSEX FOUR CORNERS","8105210","2021-05-07 08:00","2021","05","07","08:00","5.9","","2.5","","79","","","M","27","","8","","","","100.69","","","","","","NA"
"-65.53","45.74","SUSSEX FOUR CORNERS","8105210","2021-05-07 09:00","2021","05","07","09:00","6.4","","1.6","","72","","","M","31","","6","","","","100.72","","","","","","NA"
"-65.53","45.74","SUSSEX FOUR CORNERS","8105210","2021-05-07 10:00","2021","05","07","10:00","8.2","","1.4","","63","","","M","31","","12","","","","100.73","","","","","","NA"
"-65.53","45.74","SUSSEX FOUR CORNERS","8105210","2021-05-07 11:00","2021","05","07","11:00","10.0","","2.9","","61","","","M","28","","6","","","","100.74","","","","","","NA"
"-65.53","45.74","SUSSEX FOUR CORNERS","8105210","2021-05-07 12:00","2021","05","07","12:00","10.5","","2.1","","56","","","M","32","","10","","","","100.76","","","","","","NA"
"-65.53","45.74","SUSSEX FOUR CORNERS","8105210","2021-05-07 13:00","2021","05","07","13:00","11.2","","2.8","","56","","","M","27","","7","","","","100.75","","","","","","NA"
"-65.53","45.74","SUSSEX FOUR CORNERS","8105210","2021-05-07 14:00","2021","05","07","14:00","11.7","","0.4","","46","","","M","34","","7","","","","100.73","","","","","","NA"
"-65.53","45.74","SUSSEX FOUR CORNERS","8105210","2021-05-07 15:00","2021","05","07","15:00","12.1","","1.2","","47","","","M","32","","6","","","","100.71","","","","","","NA"
"-65.53","45.74","SUSSEX FOUR CORNERS","8105210","2021-05-07 16:00","2021","05","07","16:00","11.8","","1.7","","50","","","M","2","","6","","","","100.73","","","","","","NA"
"-65.53","45.74","SUSSEX FOUR CORNERS","8105210","2021-05-07 17:00","2021","05","07","17:00","12.2","","1.6","","48","","","M","3","","6","","","","100.73","","","","","","NA"
"-65.53","45.74","SUSSEX FOUR CORNERS","8105210","2021-05-07 18:00","2021","05","07","18:00","11.7","","1.4","","49","","","M","2","","9","","","","100.77","","","","","","NA"
"-65.53","45.74","SUSSEX FOUR CORNERS","8105210","2021-05-07 19:00","2021","05","07","19:00","10.5","","2.8","","59","","","M","7","","7","","","","100.86","","","","","","NA"
"-65.53","45.74","SUSSEX FOUR CORNERS","8105210","2021-05-07 20:00","2021","05","07","20:00","8.2","","3.7","","73","","","M","3","","11","","","","100.88","","","","","","NA"
"-65.53","45.74","SUSSEX FOUR CORNERS","8105210","2021-05-07 21:00","2021","05","07","21:00","6.3","","2.4","","76","","","M","11","","7","","","","100.96","","","","","","NA"
"-65.53","45.74","SUSSEX FOUR CORNERS","8105210","2021-05-07 22:00","2021","05","07","22:00","5.5","","2.2","","79","","","M","7","","5","","","","100.99","","","","","","NA"
"-65.53","45.74","SUSSEX FOUR CORNERS","8105210","2021-05-07 23:00","2021","05","07","23:00","4.1","","2.3","","88","","","M","6","","5","","","","100.99","","","","","","NA"
"-65.53","45.74","SUSSEX FOUR CORNERS","8105210","2021-05-08 00:00","2021","05","08","00:00","2.0","","1.4","","96","","","M","1","","5","","","","100.92","","","","","","NA"
"-65.53","45.74","SUSSEX FOUR CORNERS","8105210","2021-05-08 01:00","2021","05","08","01:00","1.5","","1.4","","99","","","M","4","","7","","","","100.89","","","","","","NA"
"-65.53","45.74","SUSSEX FOUR CORNERS","8105210","2021-05-08 02:00","2021","05","08","02:00","0.6","","0.6","","100","","","M","2","","10","","","","100.90","","","","","","NA"
"-65.53","45.74","SUSSEX FOUR CORNERS","8105210","2021-05-08 03:00","2021","05","08","03:00","0.1","","0.0","","100","","","M","7","","4","","","","100.82","","","","","","NA"
"-65.53","45.74","SUSSEX FOUR CORNERS","8105210","2021-05-08 04:00","2021","05","08","04:00","0.2","","0.2","","100","","","M","3","","10","","","","100.79","","","","","","NA"
"-65.53","45.74","SUSSEX FOUR CORNERS","8105210","2021-05-08 05:00","2021","05","08","05:00","1.4","","1.4","","100","","","M","3","","13","","","","100.67","","","","","","NA"
"-65.53","45.74","SUSSEX FOUR CORNERS","8105210","2021-05-08 06:00","2021","05","08","06:00","1.8","","1.7","","100","","","M","4","","13","","","","100.68","","","","","","NA"
"-65.53","45.74","SUSSEX FOUR CORNERS","8105210","2021-05-08 07:00","2021","05","08","07:00","1.8","","1.8","","100","","","M","4","","13","","","","100.77","","","","","","NA"
"-65.53","45.74","SUSSEX FOUR CORNERS","8105210","2021-05-08 08:00","2021","05","08","08:00","2.0","","2.0","","100","","","M","2","","25","","","","100.54","","","","","","NA"
"-65.53","45.74","SUSSEX FOUR CORNERS","8105210","2021-05-08 09:00","2021","05","08","09:00","2.1","","1.6","","96","","","M","3","","21","","","","100.47","","","","","","NA"
"-65.53","45.74","SUSSEX FOUR CORNERS","8105210","2021-05-08 10:00","2021","05","08","10:00","2.4","","1.5","","94","","","M","3","","22","","","","100.42","","","","","","NA"
"-65.53","45.74","SUSSEX FOUR CORNERS","8105210","2021-05-08 11:00","2021","05","08","11:00","3.3","","2.0","","91","","","M","4","","19","","","","100.45","","","","","","NA"
"-65.53","45.74","SUSSEX FOUR CORNERS","8105210","2021-05-08 12:00","2021","05","08","12:00","3.4","","2.3","","93","","","M","2","","20","","","","100.33","","","","","","NA"
"-65.53","45.74","SUSSEX FOUR CORNERS","8105210","2021-05-08 13:00","2021","05","08","13:00","3.7","","2.3","","90","","","M","2","","25","","","","100.17","","","","","","NA"
"-65.53","45.74","SUSSEX FOUR CORNERS","8105210","2021-05-08 14:00","2021","05","08","14:00","4.0","","3.0","","93","","","M","36","","27","","","","99.93","","","","","","NA"
"-65.53","45.74","SUSSEX FOUR CORNERS","8105210","2021-05-08 15:00","2021","05","08","15:00","4.2","","3.4","","94","","","M","36","","30","","","","99.75","","","","","","NA"
"-65.53","45.74","SUSSEX FOUR CORNERS","8105210","2021-05-08 16:00","2021","05","08","16:00","4.1","","3.1","","93","","","M","36","","27","","","","99.65","","","","","","NA"
"-65.53","45.74","SUSSEX FOUR CORNERS","8105210","2021-05-08 17:00","2021","05","08","17:00","4.3","","4.1","","98","","","M","36","","25","","","","99.52","","","","","","NA"
"-65.53","45.74","SUSSEX FOUR CORNERS","8105210","2021-05-08 18:00","2021","05","08","18:00","3.9","","3.4","","96","","","M","35","","25","","","","99.46","","","","","","NA"
"-65.53","45.74","SUSSEX FOUR CORNERS","8105210","2021-05-08 19:00","2021","05","08","19:00","3.6","","3.2","","97","","","M","34","","29","","","","99.40","","","","","","NA"
"-65.53","45.74","SUSSEX FOUR CORNERS","8105210","2021-05-08 20:00","2021","05","08","20:00","3.5","","3.3","","98","","","M","34","","25","","","","99.38","","","","","","NA"
"-65.53","45.74","SUSSEX FOUR CORNERS","8105210","2021-05-08 21:00","2021","05","08","21:00","2.8","","2.6","","98","","","M","34","","29","","","","99.40","","","","","","NA"
"-65.53","45.74","SUSSEX FOUR CORNERS","8105210","2021-05-08 22:00","2021","05","08","22:00","2.7","","2.6","","100","","","M","33","","25","","","","99.33","","","","","","NA"
"-65.53","45.74","SUSSEX FOUR CORNERS","8105210","2021-05-08 23:00","2021","05","08","23:00","3.3","","3.1","","99","","","M","33","","26","","","","99.29","","","","","","NA"
"-65.53","45.74","SUSSEX FOUR CORNERS","8105210","2021-05-09 00:00","2021","05","09","00:00","3.7","","3.4","","98","","","M","33","","22","","","","99.28","","","","","","NA"
"-65.53","45.74","SUSSEX FOUR CORNERS","8105210","2021-05-09 01:00","2021","05","09","01:00","3.9","","3.8","","100","","","M","33","","17","","","","99.29","","","","","","NA"
"-65.53","45.74","SUSSEX FOUR CORNERS","8105210","2021-05-09 02:00","2021","05","09","02:00","4.2","","3.9","","98","","","M","32","","16","","","","99.31","","","","","","NA"
"-65.53","45.74","SUSSEX FOUR CORNERS","8105210","2021-05-09 03:00","2021","05","09","03:00","4.2","","4.0","","98","","","M","32","","16","","","","99.37","","","","","","NA"
"-65.53","45.74","SUSSEX FOUR CORNERS","8105210","2021-05-09 04:00","2021","05","09","04:00","4.3","","4.3","","100","","","M","31","","12","","","","99.43","","","","","","NA"
"-65.53","45.74","SUSSEX FOUR CORNERS","8105210","2021-05-09 05:00","2021","05","09","05:00","4.7","","4.7","","100","","","M","29","","13","","","","99.49","","","","","","NA"
"-65.53","45.74","SUSSEX FOUR CORNERS","8105210","2021-05-09 06:00","2021","05","09","06:00","5.1","","4.6","","97","","","M","28","","16","","","","99.55","","","","","","NA"
"-65.53","45.74","SUSSEX FOUR CORNERS","8105210","2021-05-09 07:00","2021","05","09","07:00","5.6","","4.8","","94","","","M","28","","12","","","","99.62","","","","","","NA"
"-65.53","45.74","SUSSEX FOUR CORNERS","8105210","2021-05-09 08:00","2021","05","09","08:00","6.5","","5.0","","90","","","M","28","","14","","","","99.67","","","","","","NA"
"-65.53","45.74","SUSSEX FOUR CORNERS","8105210","2021-05-09 09:00","2021","05","09","09:00","8.0","","5.1","","82","","","M","30","","11","","","","99.68","","","","","","NA"
"-65.53","45.74","SUSSEX FOUR CORNERS","8105210","2021-05-09 10:00","2021","05","09","10:00","9.0","","4.5","","73","","","M","29","","19","","","","99.69","","","","","","NA"
"-65.53","45.74","SUSSEX FOUR CORNERS","8105210","2021-05-09 11:00","2021","05","09","11:00","10.8","","4.3","","64","","","M","29","","19","","","","99.71","","","","","","NA"
"-65.53","45.74","SUSSEX FOUR CORNERS","8105210","2021-05-09 12:00","2021","05","09","12:00","10.5","","3.6","","62","","","M","30","","21","","","","99.74","","","","","","NA"
"-65.53","45.74","SUSSEX FOUR CORNERS","8105210","2021-05-09 13:00","2021","05","09","13:00","12.9","","3.9","","54","","","M","29","","23","","","","99.74","","","","","","NA"
"-65.53","45.74","SUSSEX FOUR CORNERS","8105210","2021-05-09 14:00","2021","05","09","14:00","13.5","","3.1","","49","","","M","28","","20","","","","99.74","","","","","","NA"
"-65.53","45.74","SUSSEX FOUR CORNERS","8105210","2021-05-09 15:00","2021","05","09","15:00","12.5","","4.2","","57","","","M","25","","25","","","","99.78","","","","","","NA"
"-65.53","45.74","SUSSEX FOUR CORNERS","8105210","2021-05-09 16:00","2021","05","09","16:00","13.3","","1.8","","46","","","M","28","","21","","","","99.83","","","","","","NA"
"-65.53","45.74","SUSSEX FOUR CORNERS","8105210","2021-05-09 17:00","2021","05","09","17:00","13.5","","1.7","","45","","","M","29","","15","","","","99.89","","","","","","NA"
"-65.53","45.74","SUSSEX FOUR CORNERS","8105210","2021-05-09 18:00","2021","05","09","18:00","12.5","","2.9","","52","","","M","27","","6","","","","99.96","","","","","","NA"
"-65.53","45.74","SUSSEX FOUR CORNERS","8105210","2021-05-09 19:00","2021","05","09","19:00","12.2","","2.5","","52","","","M","28","","6","","","","100.02","","","","","","NA"
"-65.53","45.74","SUSSEX FOUR CORNERS","8105210","2021-05-09 20:00","2021","05","09","20:00","10.4","","4.7","","67","","","M","4","","6","","","","100.10","","","","","","NA"
"-65.53","45.74","SUSSEX FOUR CORNERS","8105210","2021-05-09 21:00","2021","05","09","21:00","10.3","","4.5","","67","","","M","0","","1","","","","100.20","","","","","","NA"
"-65.53","45.74","SUSSEX FOUR CORNERS","8105210","2021-05-09 22:00","2021","05","09","22:00","8.8","","5.1","","78","","","M","24","","4","","","","100.24","","","","","","NA"
"-65.53","45.74","SUSSEX FOUR CORNERS","8105210","2021-05-09 23:00","2021","05","09","23:00","8.1","","5.2","","82","","","M","2","","2","","","","100.24","","","","","","NA"
"-65.53","45.74","SUSSEX FOUR CORNERS","8105210","2021-05-10 00:00","2021","05","10","00:00","6.9","","5.1","","88","","","M","2","","2","","","","100.25","","","","","","NA"
"-65.53","45.74","SUSSEX FOUR CORNERS","8105210","2021-05-10 01:00","2021","05","10","01:00","4.9","","4.0","","94","","","M","","","0","","","","100.28","","","","","","NA"
"-65.53","45.74","SUSSEX FOUR CORNERS","8105210","2021-05-10 02:00","2021","05","10","02:00","4.3","","4.3","","100","","","M","6","","1","","","","100.28","","","","","","NA"
"-65.53","45.74","SUSSEX FOUR CORNERS","8105210","2021-05-10 03:00","2021","05","10","03:00","3.2","","3.2","","100","","","M","5","","2","","","","100.31","","","","","","NA"
"-65.53","45.74","SUSSEX FOUR CORNERS","8105210","2021-05-10 04:00","2021","05","10","04:00","2.6","","2.5","","100","","","M","7","","3","","","","100.29","","","","","","NA"
"-65.53","45.74","SUSSEX FOUR CORNERS","8105210","2021-05-10 05:00","2021","05","10","05:00","1.1","","1.1","","100","","","M","3","","4","","","","100.29","","","","","","NA"
"-65.53","45.74","SUSSEX FOUR CORNERS","8105210","2021-05-10 06:00","2021","05","10","06:00","0.8","","0.8","","100","","","M","2","","3","","","","100.26","","","","","","NA"
"-65.53","45.74","SUSSEX FOUR CORNERS","8105210","2021-05-10 07:00","2021","05","10","07:00","3.1","","3.0","","100","","","M","4","","3","","","","100.29","","","","","","NA"
"-65.53","45.74","SUSSEX FOUR CORNERS","8105210","2021-05-10 08:00","2021","05","10","08:00","5.8","","4.4","","91","","","M","4","","4","","","","100.31","","","","","","NA"
"-65.53","45.74","SUSSEX FOUR CORNERS","8105210","2021-05-10 09:00","2021","05","10","09:00","9.5","","5.3","","75","","","M","6","","2","","","","100.28","","","","","","NA"
"-65.53","45.74","SUSSEX FOUR CORNERS","8105210","2021-05-10 10:00","2021","05","10","10:00","11.2","","3.5","","59","","","M","1","","3","","","","100.30","","","","","","NA"
"-65.53","45.74","SUSSEX FOUR CORNERS","8105210","2021-05-10 11:00","2021","05","10","11:00","13.8","","2.5","","46","","","M","8","","4","","","","100.28","","","","","","NA"
"-65.53","45.74","SUSSEX FOUR CORNERS","8105210","2021-05-10 12:00","2021","05","10","12:00","15.7","","2.8","","42","","","M","12","","7","","","","100.23","","","","","","NA"
"-65.53","45.74","SUSSEX FOUR CORNERS","8105210","2021-05-10 13:00","2021","05","10","13:00","17.1","","4.2","","43","","","M","8","","6","","","","100.14","","","","","","NA"
"-65.53","45.74","SUSSEX FOUR CORNERS","8105210","2021-05-10 14:00","2021","05","10","14:00","16.9","","3.1","","39","","","M","17","","9","","","","100.10","","","","","","NA"
"-65.53","45.74","SUSSEX FOUR CORNERS","8105210","2021-05-10 15:00","2021","05","10","15:00","15.7","","4.7","","48","","","M","14","","14","","","","100.10","","","","","","NA"
"-65.53","45.74","SUSSEX FOUR CORNERS","8105210","2021-05-10 16:00","2021","05","10","16:00","15.6","","4.2","","46","","","M","15","","10","","","","100.11","","","","","","NA"
"-65.53","45.74","SUSSEX FOUR CORNERS","8105210","2021-05-10 17:00","2021","05","10","17:00","16.5","","4.2","","44","","","M","15","","13","","","","100.12","","","","","","NA"
"-65.53","45.74","SUSSEX FOUR CORNERS","8105210","2021-05-10 18:00","2021","05","10","18:00","14.2","","3.8","","50","","","M","18","","14","","","","100.15","","","","","","NA"
"-65.53","45.74","SUSSEX FOUR CORNERS","8105210","2021-05-10 19:00","2021","05","10","19:00","12.7","","4.1","","56","","","M","19","","14","","","","100.17","","","","","","NA"
"-65.53","45.74","SUSSEX FOUR CORNERS","8105210","2021-05-10 20:00","2021","05","10","20:00","9.9","","5.3","","73","","","M","21","","12","","","","100.29","","","","","","NA"
"-65.53","45.74","SUSSEX FOUR CORNERS","8105210","2021-05-10 21:00","2021","05","10","21:00","9.4","","5.3","","75","","","M","20","","9","","","","100.37","","","","","","NA"
"-65.53","45.74","SUSSEX FOUR CORNERS","8105210","2021-05-10 22:00","2021","05","10","22:00","8.1","","4.5","","78","","","M","21","","7","","","","100.36","","","","","","NA"
"-65.53","45.74","SUSSEX FOUR CORNERS","8105210","2021-05-10 23:00","2021","05","10","23:00","7.9","","5.0","","82","","","M","14","","1","","","","100.36","","","","","","NA"
"-65.53","45.74","SUSSEX FOUR CORNERS","8105210","2021-05-11 00:00","2021","05","11","00:00","6.9","","4.4","","84","","","M","25","","6","","","","100.35","","","","","","NA"
"-65.53","45.74","SUSSEX FOUR CORNERS","8105210","2021-05-11 01:00","2021","05","11","01:00","6.8","","5.2","","89","","","M","21","","8","","","","100.35","","","","","","NA"
"-65.53","45.74","SUSSEX FOUR CORNERS","8105210","2021-05-11 02:00","2021","05","11","02:00","6.6","","4.6","","87","","","M","24","","10","","","","100.31","","","","","","NA"
"-65.53","45.74","SUSSEX FOUR CORNERS","8105210","2021-05-11 03:00","2021","05","11","03:00","6.5","","4.8","","89","","","M","26","","3","","","","100.29","","","","","","NA"
"-65.53","45.74","SUSSEX FOUR CORNERS","8105210","2021-05-11 04:00","2021","05","11","04:00","6.1","","5.1","","93","","","M","21","","10","","","","100.30","","","","","","NA"
"-65.53","45.74","SUSSEX FOUR CORNERS","8105210","2021-05-11 05:00","2021","05","11","05:00","5.9","","4.7","","92","","","M","24","","3","","","","100.34","","","","","","NA"
"-65.53","45.74","SUSSEX FOUR CORNERS","8105210","2021-05-11 06:00","2021","05","11","06:00","5.9","","5.3","","96","","","M","15","","1","","","","100.40","","","","","","NA"
"-65.53","45.74","SUSSEX FOUR CORNERS","8105210","2021-05-11 07:00","2021","05","11","07:00","7.9","","6.4","","90","","","M","22","","4","","","","100.42","","","","","","NA"
"-65.53","45.74","SUSSEX FOUR CORNERS","8105210","2021-05-11 08:00","2021","05","11","08:00","9.1","","6.0","","81","","","M","27","","5","","","","100.45","","","","","","NA"
"-65.53","45.74","SUSSEX FOUR CORNERS","8105210","2021-05-11 09:00","2021","05","11","09:00","12.2","","6.6","","69","","","M","23","","6","","","","100.43","","","","","","NA"
"-65.53","45.74","SUSSEX FOUR CORNERS","8105210","2021-05-11 10:00","2021","05","11","10:00","14.1","","7.0","","62","","","M","24","","4","","","","100.41","","","","","","NA"
"-65.53","45.74","SUSSEX FOUR CORNERS","8105210","2021-05-11 11:00","2021","05","11","11:00","14.9","","6.5","","57","","","M","12","","3","","","","100.38","","","","","","NA"
"-65.53","45.74","SUSSEX FOUR CORNERS","8105210","2021-05-11 12:00","2021","05","11","12:00","16.0","","5.6","","50","","","M","29","","7","","","","100.33","","","","","","NA"
"-65.53","45.74","SUSSEX FOUR CORNERS","8105210","2021-05-11 13:00","2021","05","11","13:00","15.6","","4.9","","49","","","M","26","","14","","","","100.28","","","","","","NA"
"-65.53","45.74","SUSSEX FOUR CORNERS","8105210","2021-05-11 14:00","2021","05","11","14:00","11.0","","8.9","","87","","","M","29","","9","","","","100.29","","","","","","NA"
"-65.53","45.74","SUSSEX FOUR CORNERS","8105210","2021-05-11 15:00","2021","05","11","15:00","12.1","","7.6","","74","","","M","28","","17","","","","100.30","","","","","","NA"
"-65.53","45.74","SUSSEX FOUR CORNERS","8105210","2021-05-11 16:00","2021","05","11","16:00","12.7","","7.6","","71","","","M","1","","11","","","","100.28","","","","","","NA"
"-65.53","45.74","SUSSEX FOUR CORNERS","8105210","2021-05-11 17:00","2021","05","11","17:00","12.7","","9.5","","80","","","M","10","","9","","","","100.26","","","","","","NA"
"-65.53","45.74","SUSSEX FOUR CORNERS","8105210","2021-05-11 18:00","2021","05","11","18:00","12.8","","8.0","","73","","","M","8","","6","","","","100.22","","","","","","NA"
"-65.53","45.74","SUSSEX FOUR CORNERS","8105210","2021-05-11 19:00","2021","05","11","19:00","11.5","","4.4","","62","","","M","18","","15","","","","100.22","","","","","","NA"
"-65.53","45.74","SUSSEX FOUR CORNERS","8105210","2021-05-11 20:00","2021","05","11","20:00","10.5","","5.5","","71","","","M","16","","8","","","","100.24","","","","","","NA"
"-65.53","45.74","SUSSEX FOUR CORNERS","8105210","2021-05-11 21:00","2021","05","11","21:00","9.9","","5.4","","74","","","M","15","","9","","","","100.24","","","","","","NA"
"-65.53","45.74","SUSSEX FOUR CORNERS","8105210","2021-05-11 22:00","2021","05","11","22:00","8.7","","5.1","","78","","","M","13","","5","","","","100.22","","","","","","NA"
"-65.53","45.74","SUSSEX FOUR CORNERS","8105210","2021-05-11 23:00","2021","05","11","23:00","7.7","","5.3","","85","","","M","18","","18","","","","100.20","","","","","","NA"
"-65.53","45.74","SUSSEX FOUR CORNERS","8105210","2021-05-12 00:00","2021","05","12","00:00","6.7","","5.2","","90","","","M","20","","2","","","","100.15","","","","","","NA"
"-65.53","45.74","SUSSEX FOUR CORNERS","8105210","2021-05-12 01:00","2021","05","12","01:00","6.4","","5.0","","91","","","M","16","","9","","","","100.09","","","","","","NA"
"-65.53","45.74","SUSSEX FOUR CORNERS","8105210","2021-05-12 02:00","2021","05","12","02:00","6.8","","5.4","","91","","","M","16","","5","","","","100.06","","","","","","NA"
"-65.53","45.74","SUSSEX FOUR CORNERS","8105210","2021-05-12 03:00","2021","05","12","03:00","5.9","","5.2","","95","","","M","1","","6","","","","100.05","","","","","","NA"
"-65.53","45.74","SUSSEX FOUR CORNERS","8105210","2021-05-12 04:00","2021","05","12","04:00","5.9","","5.5","","97","","","M","2","","12","","","","100.05","","","","","","NA"
"-65.53","45.74","SUSSEX FOUR CORNERS","8105210","2021-05-12 05:00","2021","05","12","05:00","6.0","","5.6","","97","","","M","7","","6","","","","100.09","","","","","","NA"
"-65.53","45.74","SUSSEX FOUR CORNERS","8105210","2021-05-12 06:00","2021","05","12","06:00","6.3","","6.0","","98","","","M","3","","6","","","","100.13","","","","","","NA"
"-65.53","45.74","SUSSEX FOUR CORNERS","8105210","2021-05-12 07:00","2021","05","12","07:00","7.1","","6.2","","94","","","M","2","","12","","","","100.18","","","","","","NA"
"-65.53","45.74","SUSSEX FOUR CORNERS","8105210","2021-05-12 08:00","2021","05","12","08:00","7.6","","6.2","","91","","","M","2","","14","","","","100.24","","","","","","NA"
"-65.53","45.74","SUSSEX FOUR CORNERS","8105210","2021-05-12 09:00","2021","05","12","09:00","7.6","","5.5","","87","","","M","4","","16","","","","100.30","","","","","","NA"
"-65.53","45.74","SUSSEX FOUR CORNERS","8105210","2021-05-12 10:00","2021","05","12","10:00","6.7","","4.7","","87","","","M","1","","16","","","","100.41","","","","","","NA"
"-65.53","45.74","SUSSEX FOUR CORNERS","8105210","2021-05-12 11:00","2021","05","12","11:00","7.2","","4.1","","80","","","M","1","","23","","","","100.47","","","","","","NA"
"-65.53","45.74","SUSSEX FOUR CORNERS","8105210","2021-05-12 12:00","2021","05","12","12:00","7.6","","4.5","","81","","","M","3","","17","","","","100.53","","","","","","NA"
"-65.53","45.74","SUSSEX FOUR CORNERS","8105210","2021-05-12 13:00","2021","05","12","13:00","8.3","","4.4","","76","","","M","4","","7","","","","100.57","","","","","","NA"
"-65.53","45.74","SUSSEX FOUR CORNERS","8105210","2021-05-12 14:00","2021","05","12","14:00","8.3","","4.4","","76","","","M","1","","13","","","","100.63","","","","","","NA"
"-65.53","45.74","SUSSEX FOUR CORNERS","8105210","2021-05-12 15:00","2021","05","12","15:00","9.6","","4.4","","70","","","M","3","","5","","","","100.66","","","","","","NA"
"-65.53","45.74","SUSSEX FOUR CORNERS","8105210","2021-05-12 16:00","2021","05","12","16:00","10.0","","3.3","","63","","","M","32","","7","","","","100.66","","","","","","NA"
"-65.53","45.74","SUSSEX FOUR CORNERS","8105210","2021-05-12 17:00","2021","05","12","17:00","8.4","","6.7","","89","","","M","2","","11","","","","100.77","","","","","","NA"
"-65.53","45.74","SUSSEX FOUR CORNERS","8105210","2021-05-12 18:00","2021","05","12","18:00","8.1","","6.7","","91","","","M","30","","3","","","","100.83","","","","","","NA"
"-65.53","45.74","SUSSEX FOUR CORNERS","8105210","2021-05-12 19:00","2021","05","12","19:00","7.9","","6.6","","92","","","M","22","","5","","","","100.87","","","","","","NA"
"-65.53","45.74","SUSSEX FOUR CORNERS","8105210","2021-05-12 20:00","2021","05","12","20:00","7.3","","7.0","","98","","","M","24","","6","","","","100.93","","","","","","NA"
"-65.53","45.74","SUSSEX FOUR CORNERS","8105210","2021-05-12 21:00","2021","05","12","21:00","7.1","","6.8","","98","","","M","0","","1","","","","100.99","","","","","","NA"
"-65.53","45.74","SUSSEX FOUR CORNERS","8105210","2021-05-12 22:00","2021","05","12","22:00","6.4","","6.4","","100","","","M","","","0","","","","101.01","","","","","","NA"
"-65.53","45.74","SUSSEX FOUR CORNERS","8105210","2021-05-12 23:00","2021","05","12","23:00","4.8","","4.8","","100","","","M","23","","5","","","","100.99","","","","","","NA"
"-65.53","45.74","SUSSEX FOUR CORNERS","8105210","2021-05-13 00:00","2021","05","13","00:00","4.9","","4.9","","100","","","M","20","","2","","","","100.99","","","","","","NA"
"-65.53","45.74","SUSSEX FOUR CORNERS","8105210","2021-05-13 01:00","2021","05","13","01:00","4.1","","4.0","","100","","","M","22","","3","","","","100.99","","","","","","NA"
"-65.53","45.74","SUSSEX FOUR CORNERS","8105210","2021-05-13 02:00","2021","05","13","02:00","2.3","","2.3","","100","","","M","1","","3","","","","101.01","","","","","","NA"
"-65.53","45.74","SUSSEX FOUR CORNERS","8105210","2021-05-13 03:00","2021","05","13","03:00","2.5","","2.5","","100","","","M","0","","1","","","","101.00","","","","","","NA"
"-65.53","45.74","SUSSEX FOUR CORNERS","8105210","2021-05-13 04:00","2021","05","13","04:00","2.5","","2.4","","100","","","M","24","","6","","","","101.01","","","","","","NA"
"-65.53","45.74","SUSSEX FOUR CORNERS","8105210","2021-05-13 05:00","2021","05","13","05:00","1.6","","1.6","","100","","","M","18","","3","","","","101.02","","","","","","NA"
"-65.53","45.74","SUSSEX FOUR CORNERS","8105210","2021-05-13 06:00","2021","05","13","06:00","1.2","","1.2","","100","","","M","22","","7","","","","101.04","","","","","","NA"
"-65.53","45.74","SUSSEX FOUR CORNERS","8105210","2021-05-13 07:00","2021","05","13","07:00","4.7","","4.7","","100","","","M","20","","3","","","","101.07","","","","","","NA"
"-65.53","45.74","SUSSEX FOUR CORNERS","8105210","2021-05-13 08:00","2021","05","13","08:00","7.7","","5.6","","86","","","M","24","","6","","","","101.07","","","","","","NA"
"-65.53","45.74","SUSSEX FOUR CORNERS","8105210","2021-05-13 09:00","2021","05","13","09:00","10.7","","4.9","","67","","","M","27","","8","","","","101.04","","","","","","NA"
"-65.53","45.74","SUSSEX FOUR CORNERS","8105210","2021-05-13 10:00","2021","05","13","10:00","12.9","","1.1","","44","","","M","30","","7","","","","100.98","","","","","","NA"
"-65.53","45.74","SUSSEX FOUR CORNERS","8105210","2021-05-13 11:00","2021","05","13","11:00","14.8","","2.5","","44","","","M","27","","10","","","","100.93","","","","","","NA"
"-65.53","45.74","SUSSEX FOUR CORNERS","8105210","2021-05-13 12:00","2021","05","13","12:00","15.4","","2.9","","43","","","M","24","","18","","","","100.86","","","","","","NA"
"-65.53","45.74","SUSSEX FOUR CORNERS","8105210","2021-05-13 13:00","2021","05","13","13:00","16.8","","2.5","","38","","","M","30","","13","","","","100.81","","","","","","NA"
"-65.53","45.74","SUSSEX FOUR CORNERS","8105210","2021-05-13 14:00","2021","05","13","14:00","16.4","","1.5","","36","","","M","25","","12","","","","100.74","","","","","","NA"
"-65.53","45.74","SUSSEX FOUR CORNERS","8105210","2021-05-13 15:00","2021","05","13","15:00","16.8","","1.3","","35","","","M","27","","13","","","","100.68","","","","","","NA"
"-65.53","45.74","SUSSEX FOUR CORNERS","8105210","2021-05-13 16:00","2021","05","13","16:00","15.8","","-0.1","","34","","","M","29","","18","","","","100.70","","","","","","NA"
"-65.53","45.74","SUSSEX FOUR CORNERS","8105210","2021-05-13 17:00","2021","05","13","17:00","14.3","","4.9","","53","","","M","22","","14","","","","100.67","","","","","","NA"
"-65.53","45.74","SUSSEX FOUR CORNERS","8105210","2021-05-13 18:00","2021","05","13","18:00","12.2","","6.1","","66","","","M","13","","7","","","","100.65","","","","","","NA"
"-65.53","45.74","SUSSEX FOUR CORNERS","8105210","2021-05-13 19:00","2021","05","13","19:00","10.2","","7.7","","84","","","M","18","","4","","","","100.73","","","","","","NA"
"-65.53","45.74","SUSSEX FOUR CORNERS","8105210","2021-05-13 20:00","2021","05","13","20:00","9.5","","9.3","","99","","","M","28","","7","","","","100.79","","","","","","NA"
"-65.53","45.74","SUSSEX FOUR CORNERS","8105210","2021-05-13 21:00","2021","05","13","21:00","8.6","","7.0","","90","","","M","35","","5","","","","100.74","","","","","","NA"
"-65.53","45.74","SUSSEX FOUR CORNERS","8105210","2021-05-13 22:00","2021","05","13","22:00","8.6","","5.2","","79","","","M","23","","10","","","","100.78","","","","","","NA"
"-65.53","45.74","SUSSEX FOUR CORNERS","8105210","2021-05-13 23:00","2021","05","13","23:00","7.5","","6.5","","94","","","M","23","","7","","","","100.77","","","","","","NA"
"-65.53","45.74","SUSSEX FOUR CORNERS","8105210","2021-05-14 00:00","2021","05","14","00:00","7.0","","6.6","","97","","","M","0","","1","","","","100.79","","","","","","NA"
"-65.53","45.74","SUSSEX FOUR CORNERS","8105210","2021-05-14 01:00","2021","05","14","01:00","6.0","","6.0","","100","","","M","3","","12","","","","100.78","","","","","","NA"
"-65.53","45.74","SUSSEX FOUR CORNERS","8105210","2021-05-14 02:00","2021","05","14","02:00","5.6","","5.6","","100","","","M","34","","3","","","","100.74","","","","","","NA"
"-65.53","45.74","SUSSEX FOUR CORNERS","8105210","2021-05-14 03:00","2021","05","14","03:00","4.9","","4.8","","100","","","M","5","","1","","","","100.75","","","","","","NA"
"-65.53","45.74","SUSSEX FOUR CORNERS","8105210","2021-05-14 04:00","2021","05","14","04:00","3.8","","3.8","","100","","","M","26","","7","","","","100.74","","","","","","NA"
"-65.53","45.74","SUSSEX FOUR CORNERS","8105210","2021-05-14 05:00","2021","05","14","05:00","3.8","","3.8","","100","","","M","26","","2","","","","100.77","","","","","","NA"
"-65.53","45.74","SUSSEX FOUR CORNERS","8105210","2021-05-14 06:00","2021","05","14","06:00","4.0","","4.0","","100","","","M","24","","3","","","","100.81","","","","","","NA"
"-65.53","45.74","SUSSEX FOUR CORNERS","8105210","2021-05-14 07:00","2021","05","14","07:00","7.2","","7.0","","99","","","M","0","","1","","","","100.86","","","","","","NA"
"-65.53","45.74","SUSSEX FOUR CORNERS","8105210","2021-05-14 08:00","2021","05","14","08:00","10.0","","6.2","","77","","","M","24","","6","","","","100.90","","","","","","NA"
"-65.53","45.74","SUSSEX FOUR CORNERS","8105210","2021-05-14 09:00","2021","05","14","09:00","12.3","","5.4","","63","","","M","30","","4","","","","100.90","","","","","","NA"
"-65.53","45.74","SUSSEX FOUR CORNERS","8105210","2021-05-14 10:00","2021","05","14","10:00","14.5","","4.4","","51","","","M","36","","7","","","","100.88","","","","","","NA"
"-65.53","45.74","SUSSEX FOUR CORNERS","8105210","2021-05-14 11:00","2021","05","14","11:00","16.6","","2.9","","40","","","M","35","","15","","","","100.87","","","","","","NA"
"-65.53","45.74","SUSSEX FOUR CORNERS","8105210","2021-05-14 12:00","2021","05","14","12:00","15.7","","0.5","","36","","","M","34","","12","","","","100.87","","","","","","NA"
"-65.53","45.74","SUSSEX FOUR CORNERS","8105210","2021-05-14 13:00","2021","05","14","13:00","17.8","","0.9","","32","","","M","28","","17","","","","100.85","","","","","","NA"
"-65.53","45.74","SUSSEX FOUR CORNERS","8105210","2021-05-14 14:00","2021","05","14","14:00","18.1","","-3.9","","22","","","M","28","","14","","","","100.84","","","","","","NA"
"-65.53","45.74","SUSSEX FOUR CORNERS","8105210","2021-05-14 15:00","2021","05","14","15:00","18.6","","-4.6","","20","","","M","29","","15","","","","100.85","","","","","","NA"
"-65.53","45.74","SUSSEX FOUR CORNERS","8105210","2021-05-14 16:00","2021","05","14","16:00","17.4","","-4.3","","22","","","M","34","","19","","","","100.85","","","","","","NA"
"-65.53","45.74","SUSSEX FOUR CORNERS","8105210","2021-05-14 17:00","2021","05","14","17:00","17.9","","-6.3","","19","","","M","33","","16","","","","100.88","","","","","","NA"
"-65.53","45.74","SUSSEX FOUR CORNERS","8105210","2021-05-14 18:00","2021","05","14","18:00","15.3","","3.6","","46","","","M","6","","12","","","","100.94","","","","","","NA"
"-65.53","45.74","SUSSEX FOUR CORNERS","8105210","2021-05-14 19:00","2021","05","14","19:00","14.2","","3.1","","47","","","M","6","","7","","","","101.00","","","","","","NA"
"-65.53","45.74","SUSSEX FOUR CORNERS","8105210","2021-05-14 20:00","2021","05","14","20:00","12.1","","2.3","","51","","","M","6","","9","","","","101.08","","","","","","NA"
"-65.53","45.74","SUSSEX FOUR CORNERS","8105210","2021-05-14 21:00","2021","05","14","21:00","10.2","","1.7","","56","","","M","4","","9","","","","101.17","","","","","","NA"
"-65.53","45.74","SUSSEX FOUR CORNERS","8105210","2021-05-14 22:00","2021","05","14","22:00","8.1","","1.9","","65","","","M","3","","10","","","","101.20","","","","","","NA"
"-65.53","45.74","SUSSEX FOUR CORNERS","8105210","2021-05-14 23:00","2021","05","14","23:00","7.0","","2.0","","70","","","M","6","","5","","","","101.26","","","","","","NA"
"-65.53","45.74","SUSSEX FOUR CORNERS","8105210","2021-05-15 00:00","2021","05","15","00:00","6.1","","1.9","","74","","","M","5","","4","","","","101.31","","","","","","NA"
"-65.53","45.74","SUSSEX FOUR CORNERS","8105210","2021-05-15 01:00","2021","05","15","01:00","4.8","","1.9","","82","","","M","36","","5","","","","101.31","","","","","","NA"
"-65.53","45.74","SUSSEX FOUR CORNERS","8105210","2021-05-15 02:00","2021","05","15","02:00","3.0","","1.6","","91","","","M","1","","7","","","","101.33","","","","","","NA"
"-65.53","45.74","SUSSEX FOUR CORNERS","8105210","2021-05-15 03:00","2021","05","15","03:00","2.8","","1.7","","92","","","M","3","","2","","","","101.37","","","","","","NA"
"-65.53","45.74","SUSSEX FOUR CORNERS","8105210","2021-05-15 04:00","2021","05","15","04:00","1.7","","1.5","","99","","","M","8","","3","","","","101.37","","","","","","NA"
"-65.53","45.74","SUSSEX FOUR CORNERS","8105210","2021-05-15 05:00","2021","05","15","05:00","0.5","","0.4","","100","","","M","35","","4","","","","101.42","","","","","","NA"
"-65.53","45.74","SUSSEX FOUR CORNERS","8105210","2021-05-15 06:00","2021","05","15","06:00","1.5","","0.9","","96","","","M","2","","4","","","","101.49","","","","","","NA"
"-65.53","45.74","SUSSEX FOUR CORNERS","8105210","2021-05-15 07:00","2021","05","15","07:00","4.9","","2.8","","86","","","M","13","","2","","","","101.54","","","","","","NA"
"-65.53","45.74","SUSSEX FOUR CORNERS","8105210","2021-05-15 08:00","2021","05","15","08:00","8.7","","2.9","","67","","","M","15","","2","","","","101.59","","","","","","NA"
"-65.53","45.74","SUSSEX FOUR CORNERS","8105210","2021-05-15 09:00","2021","05","15","09:00","12.6","","4.4","","57","","","M","14","","3","","","","101.61","","","","","","NA"
"-65.53","45.74","SUSSEX FOUR CORNERS","8105210","2021-05-15 10:00","2021","05","15","10:00","16.2","","2.8","","41","","","M","14","","6","","","","101.60","","","","","","NA"
"-65.53","45.74","SUSSEX FOUR CORNERS","8105210","2021-05-15 11:00","2021","05","15","11:00","17.0","","1.8","","36","","","M","18","","8","","","","101.58","","","","","","NA"
"-65.53","45.74","SUSSEX FOUR CORNERS","8105210","2021-05-15 12:00","2021","05","15","12:00","18.3","","0.8","","31","","","M","15","","6","","","","101.52","","","","","","NA"
"-65.53","45.74","SUSSEX FOUR CORNERS","8105210","2021-05-15 13:00","2021","05","15","13:00","18.6","","-2.4","","24","","","M","34","","15","","","","101.49","","","","","","NA"
"-65.53","45.74","SUSSEX FOUR CORNERS","8105210","2021-05-15 14:00","2021","05","15","14:00","19.2","","-0.6","","26","","","M","26","","10","","","","101.45","","","","","","NA"
"-65.53","45.74","SUSSEX FOUR CORNERS","8105210","2021-05-15 15:00","2021","05","15","15:00","20.4","","-1.0","","24","","","M","31","","8","","","","101.41","","","","","","NA"
"-65.53","45.74","SUSSEX FOUR CORNERS","8105210","2021-05-15 16:00","2021","05","15","16:00","20.4","","-1.4","","23","","","M","24","","4","","","","101.36","","","","","","NA"
"-65.53","45.74","SUSSEX FOUR CORNERS","8105210","2021-05-15 17:00","2021","05","15","17:00","18.0","","-0.1","","29","","","M","18","","23","","","","101.38","","","","","","NA"
"-65.53","45.74","SUSSEX FOUR CORNERS","8105210","2021-05-15 18:00","2021","05","15","18:00","17.3","","0.0","","31","","","M","18","","22","","","","101.37","","","","","","NA"
"-65.53","45.74","SUSSEX FOUR CORNERS","8105210","2021-05-15 19:00","2021","05","15","19:00","15.2","","1.2","","38","","","M","19","","16","","","","101.37","","","","","","NA"
"-65.53","45.74","SUSSEX FOUR CORNERS","8105210","2021-05-15 20:00","2021","05","15","20:00","13.4","","-0.3","","39","","","M","20","","16","","","","101.43","","","","","","NA"
"-65.53","45.74","SUSSEX FOUR CORNERS","8105210","2021-05-15 21:00","2021","05","15","21:00","12.9","","-1.8","","36","","","M","17","","8","","","","101.47","","","","","","NA"
"-65.53","45.74","SUSSEX FOUR CORNERS","8105210","2021-05-15 22:00","2021","05","15","22:00","12.1","","-3.6","","33","","","M","22","","8","","","","101.47","","","","","","NA"
"-65.53","45.74","SUSSEX FOUR CORNERS","8105210","2021-05-15 23:00","2021","05","15","23:00","12.1","","-2.3","","36","","","M","22","","15","","","","101.48","","","","","","NA"
"-65.53","45.74","SUSSEX FOUR CORNERS","8105210","2021-05-16 00:00","2021","05","16","00:00","10.4","","1.2","","53","","","M","21","","19","","","","101.55","","","","","","NA"
"-65.53","45.74","SUSSEX FOUR CORNERS","8105210","2021-05-16 01:00","2021","05","16","01:00","10.5","","2.4","","57","","","M","21","","15","","","","101.52","","","","","","NA"
"-65.53","45.74","SUSSEX FOUR CORNERS","8105210","2021-05-16 02:00","2021","05","16","02:00","10.7","","3.3","","60","","","M","1","","2","","","","101.46","","","","","","NA"
"-65.53","45.74","SUSSEX FOUR CORNERS","8105210","2021-05-16 03:00","2021","05","16","03:00","9.8","","3.9","","66","","","M","27","","10","","","","101.48","","","","","","NA"
"-65.53","45.74","SUSSEX FOUR CORNERS","8105210","2021-05-16 04:00","2021","05","16","04:00","8.6","","5.5","","81","","","M","24","","10","","","","101.53","","","","","","NA"
"-65.53","45.74","SUSSEX FOUR CORNERS","8105210","2021-05-16 05:00","2021","05","16","05:00","8.0","","5.8","","86","","","M","23","","9","","","","101.57","","","","","","NA"
"-65.53","45.74","SUSSEX FOUR CORNERS","8105210","2021-05-16 06:00","2021","05","16","06:00","8.7","","6.5","","86","","","M","29","","6","","","","101.63","","","","","","NA"
"-65.53","45.74","SUSSEX FOUR CORNERS","8105210","2021-05-16 07:00","2021","05","16","07:00","10.0","","7.3","","83","","","M","21","","5","","","","101.69","","","","","","NA"
"-65.53","45.74","SUSSEX FOUR CORNERS","8105210","2021-05-16 08:00","2021","05","16","08:00","11.4","","7.2","","75","","","M","19","","4","","","","101.71","","","","","","NA"
"-65.53","45.74","SUSSEX FOUR CORNERS","8105210","2021-05-16 09:00","2021","05","16","09:00","13.2","","9.3","","77","","","M","21","","3","","","","101.74","","","","","","NA"
"-65.53","45.74","SUSSEX FOUR CORNERS","8105210","2021-05-16 10:00","2021","05","16","10:00","15.4","","7.1","","58","","","M","9","","3","","","","101.73","","","","","","NA"
"-65.53","45.74","SUSSEX FOUR CORNERS","8105210","2021-05-16 11:00","2021","05","16","11:00","18.7","","8.8","","53","","","M","16","","4","","","","101.71","","","","","","NA"
"-65.53","45.74","SUSSEX FOUR CORNERS","8105210","2021-05-16 12:00","2021","05","16","12:00","20.1","","6.8","","42","","","M","8","","7","","","","101.66","","","","","","NA"
"-65.53","45.74","SUSSEX FOUR CORNERS","8105210","2021-05-16 13:00","2021","05","16","13:00","20.9","","6.5","","39","","","M","5","","7","","","","101.63","","","","","","NA"
"-65.53","45.74","SUSSEX FOUR CORNERS","8105210","2021-05-16 14:00","2021","05","16","14:00","22.5","","7.8","","39","","","M","9","","8","","","","101.59","","","","","","NA"
"-65.53","45.74","SUSSEX FOUR CORNERS","8105210","2021-05-16 15:00","2021","05","16","15:00","20.2","","5.9","","39","","","M","7","","11","","","","101.55","","","","","","NA"
"-65.53","45.74","SUSSEX FOUR CORNERS","8105210","2021-05-16 16:00","2021","05","16","16:00","16.5","","7.9","","57","","","M","13","","13","","","","101.60","","","","","","NA"
"-65.53","45.74","SUSSEX FOUR CORNERS","8105210","2021-05-16 17:00","2021","05","16","17:00","15.7","","8.7","","63","","","M","7","","5","","","","101.66","","","","","","NA"
"-65.53","45.74","SUSSEX FOUR CORNERS","8105210","2021-05-16 18:00","2021","05","16","18:00","15.3","","9.3","","68","","","M","3","","3","","","","101.68","","","","","","NA"
"-65.53","45.74","SUSSEX FOUR CORNERS","8105210","2021-05-16 19:00","2021","05","16","19:00","14.0","","11.1","","83","","","M","9","","8","","","","101.66","","","","","","NA"
"-65.53","45.74","SUSSEX FOUR CORNERS","8105210","2021-05-16 20:00","2021","05","16","20:00","13.6","","9.7","","77","","","M","4","","4","","","","101.69","","","","","","NA"
"-65.53","45.74","SUSSEX FOUR CORNERS","8105210","2021-05-16 21:00","2021","05","16","21:00","12.8","","7.6","","71","","","M","36","","7","","","","101.77","","","","","","NA"
"-65.53","45.74","SUSSEX FOUR CORNERS","8105210","2021-05-16 22:00","2021","05","16","22:00","11.3","","7.2","","76","","","M","3","","7","","","","101.77","","","","","","NA"
"-65.53","45.74","SUSSEX FOUR CORNERS","8105210","2021-05-16 23:00","2021","05","16","23:00","10.0","","7.0","","82","","","M","7","","6","","","","101.73","","","","","","NA"
"-65.53","45.74","SUSSEX FOUR CORNERS","8105210","2021-05-17 00:00","2021","05","17","00:00","9.4","","5.5","","77","","","M","5","","8","","","","101.68","","","","","","NA"
"-65.53","45.74","SUSSEX FOUR CORNERS","8105210","2021-05-17 01:00","2021","05","17","01:00","7.9","","4.5","","79","","","M","2","","10","","","","101.70","","","","","","NA"
"-65.53","45.74","SUSSEX FOUR CORNERS","8105210","2021-05-17 02:00","2021","05","17","02:00","7.3","","4.2","","81","","","M","1","","5","","","","101.71","","","","","","NA"
"-65.53","45.74","SUSSEX FOUR CORNERS","8105210","2021-05-17 03:00","2021","05","17","03:00","6.9","","4.5","","85","","","M","8","","4","","","","101.72","","","","","","NA"
"-65.53","45.74","SUSSEX FOUR CORNERS","8105210","2021-05-17 04:00","2021","05","17","04:00","5.9","","4.0","","87","","","M","5","","2","","","","101.73","","","","","","NA"
"-65.53","45.74","SUSSEX FOUR CORNERS","8105210","2021-05-17 05:00","2021","05","17","05:00","4.3","","3.6","","95","","","M","8","","4","","","","101.71","","","","","","NA"
"-65.53","45.74","SUSSEX FOUR CORNERS","8105210","2021-05-17 06:00","2021","05","17","06:00","5.5","","4.7","","95","","","M","29","","2","","","","101.75","","","","","","NA"
"-65.53","45.74","SUSSEX FOUR CORNERS","8105210","2021-05-17 07:00","2021","05","17","07:00","7.7","","5.5","","86","","","M","4","","5","","","","101.80","","","","","","NA"
"-65.53","45.74","SUSSEX FOUR CORNERS","8105210","2021-05-17 08:00","2021","05","17","08:00","10.2","","5.9","","75","","","M","10","","2","","","","101.83","","","","","","NA"
"-65.53","45.74","SUSSEX FOUR CORNERS","8105210","2021-05-17 09:00","2021","05","17","09:00","13.1","","7.5","","69","","","M","22","","8","","","","101.83","","","","","","NA"
"-65.53","45.74","SUSSEX FOUR CORNERS","8105210","2021-05-17 10:00","2021","05","17","10:00","15.8","","8.3","","61","","","M","27","","8","","","","101.81","","","","","","NA"
"-65.53","45.74","SUSSEX FOUR CORNERS","8105210","2021-05-17 11:00","2021","05","17","11:00","17.6","","7.1","","50","","","M","18","","6","","","","101.78","","","","","","NA"
"-65.53","45.74","SUSSEX FOUR CORNERS","8105210","2021-05-17 12:00","2021","05","17","12:00","19.1","","8.0","","49","","","M","14","","8","","","","101.72","","","","","","NA"
"-65.53","45.74","SUSSEX FOUR CORNERS","8105210","2021-05-17 13:00","2021","05","17","13:00","20.1","","8.1","","46","","","M","16","","6","","","","101.67","","","","","","NA"
"-65.53","45.74","SUSSEX FOUR CORNERS","8105210","2021-05-17 14:00","2021","05","17","14:00","21.1","","7.7","","42","","","M","11","","4","","","","101.59","","","","","","NA"
"-65.53","45.74","SUSSEX FOUR CORNERS","8105210","2021-05-17 15:00","2021","05","17","15:00","19.0","","8.1","","49","","","M","24","","8","","","","101.54","","","","","","NA"
"-65.53","45.74","SUSSEX FOUR CORNERS","8105210","2021-05-17 16:00","2021","05","17","16:00","20.1","","7.8","","45","","","M","36","","13","","","","101.56","","","","","","NA"
"-65.53","45.74","SUSSEX FOUR CORNERS","8105210","2021-05-17 17:00","2021","05","17","17:00","20.4","","6.6","","41","","","M","8","","2","","","","101.53","","","","","","NA"
"-65.53","45.74","SUSSEX FOUR CORNERS","8105210","2021-05-17 18:00","2021","05","17","18:00","20.0","","6.2","","41","","","M","0","","1","","","","101.52","","","","","","NA"
"-65.53","45.74","SUSSEX FOUR CORNERS","8105210","2021-05-17 19:00","2021","05","17","19:00","19.0","","6.2","","43","","","M","","","0","","","","101.55","","","","","","NA"
"-65.53","45.74","SUSSEX FOUR CORNERS","8105210","2021-05-17 20:00","2021","05","17","20:00","14.7","","7.1","","60","","","M","23","","12","","","","101.61","","","","","","NA"
"-65.53","45.74","SUSSEX FOUR CORNERS","8105210","2021-05-17 21:00","2021","05","17","21:00","14.3","","6.5","","59","","","M","29","","8","","","","101.71","","","","","","NA"
"-65.53","45.74","SUSSEX FOUR CORNERS","8105210","2021-05-17 22:00","2021","05","17","22:00","14.2","","8.1","","67","","","M","18","","1","","","","101.67","","","","","","NA"
"-65.53","45.74","SUSSEX FOUR CORNERS","8105210","2021-05-17 23:00","2021","05","17","23:00","13.1","","7.7","","70","","","M","22","","9","","","","101.58","","","","","","NA"
"-65.53","45.74","SUSSEX FOUR CORNERS","8105210","2021-05-18 00:00","2021","05","18","00:00","11.2","","6.8","","74","","","M","24","","10","","","","101.56","","","","","","NA"
"-65.53","45.74","SUSSEX FOUR CORNERS","8105210","2021-05-18 01:00","2021","05","18","01:00","10.5","","5.7","","72","","","M","23","","8","","","","101.53","","","","","","NA"
"-65.53","45.74","SUSSEX FOUR CORNERS","8105210","2021-05-18 02:00","2021","05","18","02:00","9.7","","5.5","","75","","","M","25","","8","","","","101.50","","","","","","NA"
"-65.53","45.74","SUSSEX FOUR CORNERS","8105210","2021-05-18 03:00","2021","05","18","03:00","8.7","","5.3","","79","","","M","22","","7","","","","101.44","","","","","","NA"
"-65.53","45.74","SUSSEX FOUR CORNERS","8105210","2021-05-18 04:00","2021","05","18","04:00","8.8","","6.3","","85","","","M","25","","11","","","","101.40","","","","","","NA"
"-65.53","45.74","SUSSEX FOUR CORNERS","8105210","2021-05-18 05:00","2021","05","18","05:00","8.2","","6.1","","86","","","M","24","","8","","","","101.39","","","","","","NA"
"-65.53","45.74","SUSSEX FOUR CORNERS","8105210","2021-05-18 06:00","2021","05","18","06:00","9.6","","6.8","","83","","","M","26","","4","","","","101.36","","","","","","NA"
"-65.53","45.74","SUSSEX FOUR CORNERS","8105210","2021-05-18 07:00","2021","05","18","07:00","11.7","","7.4","","75","","","M","23","","7","","","","101.33","","","","","","NA"
"-65.53","45.74","SUSSEX FOUR CORNERS","8105210","2021-05-18 08:00","2021","05","18","08:00","13.7","","8.4","","70","","","M","22","","16","","","","101.30","","","","","","NA"
"-65.53","45.74","SUSSEX FOUR CORNERS","8105210","2021-05-18 09:00","2021","05","18","09:00","16.0","","8.7","","62","","","M","22","","18","","","","101.24","","","","","","NA"
"-65.53","45.74","SUSSEX FOUR CORNERS","8105210","2021-05-18 10:00","2021","05","18","10:00","18.0","","10.4","","61","","","M","22","","15","","","","101.24","","","","","","NA"
"-65.53","45.74","SUSSEX FOUR CORNERS","8105210","2021-05-18 11:00","2021","05","18","11:00","17.9","","8.1","","53","","","M","28","","12","","","","101.27","","","","","","NA"
"-65.53","45.74","SUSSEX FOUR CORNERS","8105210","2021-05-18 12:00","2021","05","18","12:00","16.8","","8.9","","60","","","M","25","","12","","","","101.23","","","","","","NA"
"-65.53","45.74","SUSSEX FOUR CORNERS","8105210","2021-05-18 13:00","2021","05","18","13:00","18.4","","9.4","","56","","","M","23","","12","","","","101.09","","","","","","NA"
"-65.53","45.74","SUSSEX FOUR CORNERS","8105210","2021-05-18 14:00","2021","05","18","14:00","19.1","","8.2","","49","","","M","25","","17","","","","101.03","","","","","","NA"
"-65.53","45.74","SUSSEX FOUR CORNERS","8105210","2021-05-18 15:00","2021","05","18","15:00","19.7","","7.9","","46","","","M","25","","13","","","","100.94","","","","","","NA"
"-65.53","45.74","SUSSEX FOUR CORNERS","8105210","2021-05-18 16:00","2021","05","18","16:00","12.3","","11.4","","94","","","M","24","","9","","","","101.03","","","","","","NA"
"-65.53","45.74","SUSSEX FOUR CORNERS","8105210","2021-05-18 17:00","2021","05","18","17:00","14.7","","12.8","","88","","","M","23","","5","","","","101.10","","","","","","NA"
"-65.53","45.74","SUSSEX FOUR CORNERS","8105210","2021-05-18 18:00","2021","05","18","18:00","16.2","","12.3","","78","","","M","15","","4","","","","100.99","","","","","","NA"
"-65.53","45.74","SUSSEX FOUR CORNERS","8105210","2021-05-18 19:00","2021","05","18","19:00","14.6","","13.2","","91","","","M","5","","7","","","","101.05","","","","","","NA"
"-65.53","45.74","SUSSEX FOUR CORNERS","8105210","2021-05-18 20:00","2021","05","18","20:00","12.9","","12.2","","95","","","M","6","","4","","","","101.09","","","","","","NA"
"-65.53","45.74","SUSSEX FOUR CORNERS","8105210","2021-05-18 21:00","2021","05","18","21:00","11.7","","11.6","","100","","","M","2","","7","","","","101.17","","","","","","NA"
"-65.53","45.74","SUSSEX FOUR CORNERS","8105210","2021-05-18 22:00","2021","05","18","22:00","11.7","","11.3","","97","","","M","5","","7","","","","101.26","","","","","","NA"
"-65.53","45.74","SUSSEX FOUR CORNERS","8105210","2021-05-18 23:00","2021","05","18","23:00","10.9","","10.7","","99","","","M","6","","4","","","","101.29","","","","","","NA"
"-65.53","45.74","SUSSEX FOUR CORNERS","8105210","2021-05-19 00:00","2021","05","19","00:00","10.2","","10.2","","100","","","M","34","","5","","","","101.30","","","","","","NA"
"-65.53","45.74","SUSSEX FOUR CORNERS","8105210","2021-05-19 01:00","2021","05","19","01:00","7.9","","7.8","","100","","","M","36","","6","","","","101.32","","","","","","NA"
"-65.53","45.74","SUSSEX FOUR CORNERS","8105210","2021-05-19 02:00","2021","05","19","02:00","7.2","","7.1","","100","","","M","2","","3","","","","101.36","","","","","","NA"
"-65.53","45.74","SUSSEX FOUR CORNERS","8105210","2021-05-19 03:00","2021","05","19","03:00","6.8","","6.8","","100","","","M","","","0","","","","101.39","","","","","","NA"
"-65.53","45.74","SUSSEX FOUR CORNERS","8105210","2021-05-19 04:00","2021","05","19","04:00","5.5","","5.5","","100","","","M","0","","1","","","","101.43","","","","","","NA"
"-65.53","45.74","SUSSEX FOUR CORNERS","8105210","2021-05-19 05:00","2021","05","19","05:00","5.0","","5.0","","100","","","M","34","","2","","","","101.50","","","","","","NA"
"-65.53","45.74","SUSSEX FOUR CORNERS","8105210","2021-05-19 06:00","2021","05","19","06:00","6.6","","6.5","","100","","","M","21","","2","","","","101.56","","","","","","NA"
"-65.53","45.74","SUSSEX FOUR CORNERS","8105210","2021-05-19 07:00","2021","05","19","07:00","9.3","","8.4","","94","","","M","7","","2","","","","101.61","","","","","","NA"
"-65.53","45.74","SUSSEX FOUR CORNERS","8105210","2021-05-19 08:00","2021","05","19","08:00","9.8","","6.7","","81","","","M","36","","17","","","","101.64","","","","","","NA"
"-65.53","45.74","SUSSEX FOUR CORNERS","8105210","2021-05-19 09:00","2021","05","19","09:00","9.6","","6.3","","80","","","M","36","","16","","","","101.71","","","","","","NA"
"-65.53","45.74","SUSSEX FOUR CORNERS","8105210","2021-05-19 10:00","2021","05","19","10:00","9.5","","6.5","","81","","","M","35","","17","","","","101.78","","","","","","NA"
"-65.53","45.74","SUSSEX FOUR CORNERS","8105210","2021-05-19 11:00","2021","05","19","11:00","9.6","","7.0","","84","","","M","36","","16","","","","101.84","","","","","","NA"
"-65.53","45.74","SUSSEX FOUR CORNERS","8105210","2021-05-19 12:00","2021","05","19","12:00","9.8","","7.2","","84","","","M","36","","13","","","","101.90","","","","","","NA"
"-65.53","45.74","SUSSEX FOUR CORNERS","8105210","2021-05-19 13:00","2021","05","19","13:00","10.0","","7.6","","85","","","M","36","","18","","","","101.91","","","","","","NA"
"-65.53","45.74","SUSSEX FOUR CORNERS","8105210","2021-05-19 14:00","2021","05","19","14:00","10.8","","8.0","","83","","","M","3","","14","","","","101.95","","","","","","NA"
"-65.53","45.74","SUSSEX FOUR CORNERS","8105210","2021-05-19 15:00","2021","05","19","15:00","11.9","","8.3","","78","","","M","4","","13","","","","101.96","","","","","","NA"
"-65.53","45.74","SUSSEX FOUR CORNERS","8105210","2021-05-19 16:00","2021","05","19","16:00","13.1","","8.2","","72","","","M","3","","16","","","","101.99","","","","","","NA"
"-65.53","45.74","SUSSEX FOUR CORNERS","8105210","2021-05-19 17:00","2021","05","19","17:00","12.9","","7.2","","68","","","M","4","","17","","","","102.01","","","","","","NA"
"-65.53","45.74","SUSSEX FOUR CORNERS","8105210","2021-05-19 18:00","2021","05","19","18:00","12.7","","7.6","","71","","","M","4","","13","","","","102.07","","","","","","NA"
"-65.53","45.74","SUSSEX FOUR CORNERS","8105210","2021-05-19 19:00","2021","05","19","19:00","11.4","","7.3","","76","","","M","4","","11","","","","102.12","","","","","","NA"
"-65.53","45.74","SUSSEX FOUR CORNERS","8105210","2021-05-19 20:00","2021","05","19","20:00","9.4","","7.4","","87","","","M","7","","9","","","","102.15","","","","","","NA"
"-65.53","45.74","SUSSEX FOUR CORNERS","8105210","2021-05-19 21:00","2021","05","19","21:00","8.1","","7.2","","94","","","M","6","","7","","","","102.22","","","","","","NA"
"-65.53","45.74","SUSSEX FOUR CORNERS","8105210","2021-05-19 22:00","2021","05","19","22:00","7.3","","6.7","","96","","","M","4","","9","","","","102.23","","","","","","NA"
"-65.53","45.74","SUSSEX FOUR CORNERS","8105210","2021-05-19 23:00","2021","05","19","23:00","6.1","","6.1","","100","","","M","2","","11","","","","102.31","","","","","","NA"
"-65.53","45.74","SUSSEX FOUR CORNERS","8105210","2021-05-20 00:00","2021","05","20","00:00","7.1","","7.1","","100","","","M","4","","7","","","","102.35","","","","","","NA"
"-65.53","45.74","SUSSEX FOUR CORNERS","8105210","2021-05-20 01:00","2021","05","20","01:00","7.0","","6.9","","100","","","M","2","","6","","","","102.40","","","","","","NA"
"-65.53","45.74","SUSSEX FOUR CORNERS","8105210","2021-05-20 02:00","2021","05","20","02:00","6.7","","6.7","","100","","","M","2","","4","","","","102.43","","","","","","NA"
"-65.53","45.74","SUSSEX FOUR CORNERS","8105210","2021-05-20 03:00","2021","05","20","03:00","6.4","","6.4","","100","","","M","2","","6","","","","102.47","","","","","","NA"
"-65.53","45.74","SUSSEX FOUR CORNERS","8105210","2021-05-20 04:00","2021","05","20","04:00","6.3","","6.3","","100","","","M","2","","5","","","","102.51","","","","","","NA"
"-65.53","45.74","SUSSEX FOUR CORNERS","8105210","2021-05-20 05:00","2021","05","20","05:00","6.5","","6.4","","100","","","M","7","","2","","","","102.55","","","","","","NA"
"-65.53","45.74","SUSSEX FOUR CORNERS","8105210","2021-05-20 06:00","2021","05","20","06:00","6.5","","6.5","","100","","","M","","","0","","","","102.61","","","","","","NA"
"-65.53","45.74","SUSSEX FOUR CORNERS","8105210","2021-05-20 07:00","2021","05","20","07:00","7.0","","7.0","","100","","","M","12","","3","","","","102.65","","","","","","NA"
"-65.53","45.74","SUSSEX FOUR CORNERS","8105210","2021-05-20 08:00","2021","05","20","08:00","8.4","","7.6","","95","","","M","6","","2","","","","102.69","","","","","","NA"
"-65.53","45.74","SUSSEX FOUR CORNERS","8105210","2021-05-20 09:00","2021","05","20","09:00","10.5","","7.9","","84","","","M","15","","6","","","","102.69","","","","","","NA"
"-65.53","45.74","SUSSEX FOUR CORNERS","8105210","2021-05-20 10:00","2021","05","20","10:00","11.8","","8.2","","79","","","M","17","","6","","","","102.69","","","","","","NA"
"-65.53","45.74","SUSSEX FOUR CORNERS","8105210","2021-05-20 11:00","2021","05","20","11:00","13.9","","8.4","","69","","","M","17","","5","","","","102.63","","","","","","NA"
"-65.53","45.74","SUSSEX FOUR CORNERS","8105210","2021-05-20 12:00","2021","05","20","12:00","17.4","","10.6","","64","","","M","16","","4","","","","102.57","","","","","","NA"
"-65.53","45.74","SUSSEX FOUR CORNERS","8105210","2021-05-20 13:00","2021","05","20","13:00","18.7","","9.5","","55","","","M","16","","4","","","","102.51","","","","","","NA"
"-65.53","45.74","SUSSEX FOUR CORNERS","8105210","2021-05-20 14:00","2021","05","20","14:00","21.0","","9.5","","48","","","M","17","","5","","","","102.44","","","","","","NA"
"-65.53","45.74","SUSSEX FOUR CORNERS","8105210","2021-05-20 15:00","2021","05","20","15:00","21.4","","10.4","","50","","","M","22","","10","","","","102.38","","","","","","NA"
"-65.53","45.74","SUSSEX FOUR CORNERS","8105210","2021-05-20 16:00","2021","05","20","16:00","20.5","","11.5","","57","","","M","21","","16","","","","102.36","","","","","","NA"
"-65.53","45.74","SUSSEX FOUR CORNERS","8105210","2021-05-20 17:00","2021","05","20","17:00","20.3","","9.2","","49","","","M","20","","17","","","","102.35","","","","","","NA"
"-65.53","45.74","SUSSEX FOUR CORNERS","8105210","2021-05-20 18:00","2021","05","20","18:00","19.2","","8.0","","48","","","M","19","","18","","","","102.36","","","","","","NA"
"-65.53","45.74","SUSSEX FOUR CORNERS","8105210","2021-05-20 19:00","2021","05","20","19:00","17.4","","6.5","","49","","","M","19","","17","","","","102.36","","","","","","NA"
"-65.53","45.74","SUSSEX FOUR CORNERS","8105210","2021-05-20 20:00","2021","05","20","20:00","14.5","","7.8","","64","","","M","23","","12","","","","102.37","","","","","","NA"
"-65.53","45.74","SUSSEX FOUR CORNERS","8105210","2021-05-20 21:00","2021","05","20","21:00","12.8","","7.1","","69","","","M","24","","10","","","","102.43","","","","","","NA"
"-65.53","45.74","SUSSEX FOUR CORNERS","8105210","2021-05-20 22:00","2021","05","20","22:00","11.0","","7.5","","79","","","M","22","","14","","","","102.46","","","","","","NA"
"-65.53","45.74","SUSSEX FOUR CORNERS","8105210","2021-05-20 23:00","2021","05","20","23:00","10.1","","7.5","","84","","","M","23","","13","","","","102.45","","","","","","NA"
"-65.53","45.74","SUSSEX FOUR CORNERS","8105210","2021-05-21 00:00","2021","05","21","00:00","9.2","","7.2","","88","","","M","27","","5","","","","102.47","","","","","","NA"
"-65.53","45.74","SUSSEX FOUR CORNERS","8105210","2021-05-21 01:00","2021","05","21","01:00","8.8","","7.6","","92","","","M","25","","8","","","","102.43","","","","","","NA"
"-65.53","45.74","SUSSEX FOUR CORNERS","8105210","2021-05-21 02:00","2021","05","21","02:00","8.9","","7.6","","92","","","M","21","","10","","","","102.41","","","","","","NA"
"-65.53","45.74","SUSSEX FOUR CORNERS","8105210","2021-05-21 03:00","2021","05","21","03:00","9.2","","7.8","","91","","","M","21","","13","","","","102.42","","","","","","NA"
"-65.53","45.74","SUSSEX FOUR CORNERS","8105210","2021-05-21 04:00","2021","05","21","04:00","9.0","","7.7","","92","","","M","21","","13","","","","102.39","","","","","","NA"
"-65.53","45.74","SUSSEX FOUR CORNERS","8105210","2021-05-21 05:00","2021","05","21","05:00","9.0","","7.7","","92","","","M","23","","11","","","","102.39","","","","","","NA"
"-65.53","45.74","SUSSEX FOUR CORNERS","8105210","2021-05-21 06:00","2021","05","21","06:00","10.1","","8.2","","88","","","M","20","","15","","","","102.44","","","","","","NA"
"-65.53","45.74","SUSSEX FOUR CORNERS","8105210","2021-05-21 07:00","2021","05","21","07:00","12.2","","9.2","","82","","","M","22","","12","","","","102.47","","","","","","NA"
"-65.53","45.74","SUSSEX FOUR CORNERS","8105210","2021-05-21 08:00","2021","05","21","08:00","14.8","","9.5","","71","","","M","22","","14","","","","102.40","","","","","","NA"
"-65.53","45.74","SUSSEX FOUR CORNERS","8105210","2021-05-21 09:00","2021","05","21","09:00","16.1","","8.9","","63","","","M","23","","21","","","","102.42","","","","","","NA"
"-65.53","45.74","SUSSEX FOUR CORNERS","8105210","2021-05-21 10:00","2021","05","21","10:00","16.7","","8.3","","57","","","M","24","","24","","","","102.39","","","","","","NA"
"-65.53","45.74","SUSSEX FOUR CORNERS","8105210","2021-05-21 11:00","2021","05","21","11:00","19.7","","10.6","","56","","","M","22","","18","","","","102.30","","","","","","NA"
"-65.53","45.74","SUSSEX FOUR CORNERS","8105210","2021-05-21 12:00","2021","05","21","12:00","21.6","","11.6","","53","","","M","21","","21","","","","102.25","","","","","","NA"
"-65.53","45.74","SUSSEX FOUR CORNERS","8105210","2021-05-21 13:00","2021","05","21","13:00","22.6","","12.5","","53","","","M","23","","20","","","","102.17","","25","","","","NA"
"-65.53","45.74","SUSSEX FOUR CORNERS","8105210","2021-05-21 14:00","2021","05","21","14:00","22.3","","11.8","","52","","","M","21","","23","","","","102.12","","","","","","NA"
"-65.53","45.74","SUSSEX FOUR CORNERS","8105210","2021-05-21 15:00","2021","05","21","15:00","21.7","","9.6","","46","","","M","20","","26","","","","102.08","","","","","","NA"
"-65.53","45.74","SUSSEX FOUR CORNERS","8105210","2021-05-21 16:00","2021","05","21","16:00","20.8","","9.2","","47","","","M","19","","27","","","","102.01","","","","","","NA"
"-65.53","45.74","SUSSEX FOUR CORNERS","8105210","2021-05-21 17:00","2021","05","21","17:00","19.5","","8.9","","50","","","M","21","","36","","","","101.98","","","","","","NA"
"-65.53","45.74","SUSSEX FOUR CORNERS","8105210","2021-05-21 18:00","2021","05","21","18:00","18.0","","8.2","","53","","","M","19","","24","","","","101.98","","","","","","NA"
"-65.53","45.74","SUSSEX FOUR CORNERS","8105210","2021-05-21 19:00","2021","05","21","19:00","15.8","","7.6","","58","","","M","20","","22","","","","102.01","","","","","","NA"
"-65.53","45.74","SUSSEX FOUR CORNERS","8105210","2021-05-21 20:00","2021","05","21","20:00","14.9","","6.1","","55","","","M","21","","19","","","","101.99","","","","","","NA"
"-65.53","45.74","SUSSEX FOUR CORNERS","8105210","2021-05-21 21:00","2021","05","21","21:00","13.7","","7.0","","64","","","M","23","","6","","","","102.00","","","","","","NA"
"-65.53","45.74","SUSSEX FOUR CORNERS","8105210","2021-05-21 22:00","2021","05","21","22:00","13.1","","6.5","","64","","","M","23","","15","","","","102.01","","","","","","NA"
"-65.53","45.74","SUSSEX FOUR CORNERS","8105210","2021-05-21 23:00","2021","05","21","23:00","12.6","","6.9","","68","","","M","22","","13","","","","101.94","","","","","","NA"
"-65.53","45.74","SUSSEX FOUR CORNERS","8105210","2021-05-22 00:00","2021","05","22","00:00","11.9","","7.7","","75","","","M","21","","12","","","","101.88","","","","","","NA"
"-65.53","45.74","SUSSEX FOUR CORNERS","8105210","2021-05-22 01:00","2021","05","22","01:00","11.3","","8.5","","83","","","M","23","","12","","","","101.81","","","","","","NA"
"-65.53","45.74","SUSSEX FOUR CORNERS","8105210","2021-05-22 02:00","2021","05","22","02:00","10.8","","9.7","","93","","","M","21","","14","","","","101.72","","","","","","NA"
"-65.53","45.74","SUSSEX FOUR CORNERS","8105210","2021-05-22 03:00","2021","05","22","03:00","11.2","","9.8","","92","","","M","22","","14","","","","101.66","","","","","","NA"
"-65.53","45.74","SUSSEX FOUR CORNERS","8105210","2021-05-22 04:00","2021","05","22","04:00","10.9","","10.3","","96","","","M","21","","7","","","","101.59","","","","","","NA"
"-65.53","45.74","SUSSEX FOUR CORNERS","8105210","2021-05-22 05:00","2021","05","22","05:00","11.3","","10.4","","94","","","M","22","","13","","","","101.55","","","","","","NA"
"-65.53","45.74","SUSSEX FOUR CORNERS","8105210","2021-05-22 06:00","2021","05","22","06:00","11.2","","10.3","","94","","","M","20","","15","","","","101.55","","","","","","NA"
"-65.53","45.74","SUSSEX FOUR CORNERS","8105210","2021-05-22 07:00","2021","05","22","07:00","11.5","","10.6","","94","","","M","22","","16","","","","101.49","","","","","","NA"
"-65.53","45.74","SUSSEX FOUR CORNERS","8105210","2021-05-22 08:00","2021","05","22","08:00","11.9","","10.9","","94","","","M","19","","19","","","","101.43","","","","","","NA"
"-65.53","45.74","SUSSEX FOUR CORNERS","8105210","2021-05-22 09:00","2021","05","22","09:00","12.7","","10.9","","89","","","M","18","","15","","","","101.36","","","","","","NA"
"-65.53","45.74","SUSSEX FOUR CORNERS","8105210","2021-05-22 10:00","2021","05","22","10:00","13.2","","11.6","","90","","","M","19","","15","","","","101.26","","","","","","NA"
"-65.53","45.74","SUSSEX FOUR CORNERS","8105210","2021-05-22 11:00","2021","05","22","11:00","13.8","","10.9","","83","","","M","19","","19","","","","101.16","","","","","","NA"
"-65.53","45.74","SUSSEX FOUR CORNERS","8105210","2021-05-22 12:00","2021","05","22","12:00","15.8","","11.4","","75","","","M","19","","25","","","","101.09","","","","","","NA"
"-65.53","45.74","SUSSEX FOUR CORNERS","8105210","2021-05-22 13:00","2021","05","22","13:00","15.1","","11.0","","76","","","M","19","","24","","","","100.99","","","","","","NA"
"-65.53","45.74","SUSSEX FOUR CORNERS","8105210","2021-05-22 14:00","2021","05","22","14:00","14.4","","11.0","","80","","","M","21","","24","","","","100.85","","","","","","NA"
"-65.53","45.74","SUSSEX FOUR CORNERS","8105210","2021-05-22 15:00","2021","05","22","15:00","15.5","","11.4","","77","","","M","20","","26","","","","100.72","","","","","","NA"
"-65.53","45.74","SUSSEX FOUR CORNERS","8105210","2021-05-22 16:00","2021","05","22","16:00","16.4","","11.9","","75","","","M","21","","29","","","","100.67","","","","","","NA"
"-65.53","45.74","SUSSEX FOUR CORNERS","8105210","2021-05-22 17:00","2021","05","22","17:00","15.8","","11.7","","77","","","M","20","","28","","","","100.62","","","","","","NA"
"-65.53","45.74","SUSSEX FOUR CORNERS","8105210","2021-05-22 18:00","2021","05","22","18:00","15.6","","11.6","","78","","","M","21","","15","","","","100.55","","","","","","NA"
"-65.53","45.74","SUSSEX FOUR CORNERS","8105210","2021-05-22 19:00","2021","05","22","19:00","14.3","","11.7","","85","","","M","20","","12","","","","100.51","","","","","","NA"
"-65.53","45.74","SUSSEX FOUR CORNERS","8105210","2021-05-22 20:00","2021","05","22","20:00","12.8","","10.9","","88","","","M","19","","15","","","","100.48","","","","","","NA"
"-65.53","45.74","SUSSEX FOUR CORNERS","8105210","2021-05-22 21:00","2021","05","22","21:00","11.7","","10.2","","91","","","M","20","","17","","","","100.45","","","","","","NA"
"-65.53","45.74","SUSSEX FOUR CORNERS","8105210","2021-05-22 22:00","2021","05","22","22:00","11.0","","10.3","","95","","","M","22","","15","","","","100.42","","","","","","NA"
"-65.53","45.74","SUSSEX FOUR CORNERS","8105210","2021-05-22 23:00","2021","05","22","23:00","10.9","","10.3","","96","","","M","20","","15","","","","100.35","","","","","","NA"
"-65.53","45.74","SUSSEX FOUR CORNERS","8105210","2021-05-23 00:00","2021","05","23","00:00","10.8","","10.3","","97","","","M","21","","18","","","","100.29","","","","","","NA"
"-65.53","45.74","SUSSEX FOUR CORNERS","8105210","2021-05-23 01:00","2021","05","23","01:00","10.7","","10.4","","98","","","M","21","","13","","","","100.25","","","","","","NA"
"-65.53","45.74","SUSSEX FOUR CORNERS","8105210","2021-05-23 02:00","2021","05","23","02:00","10.6","","10.6","","100","","","M","22","","6","","","","100.14","","","","","","NA"
"-65.53","45.74","SUSSEX FOUR CORNERS","8105210","2021-05-23 03:00","2021","05","23","03:00","10.5","","10.4","","100","","","M","22","","15","","","","100.07","","","","","","NA"
"-65.53","45.74","SUSSEX FOUR CORNERS","8105210","2021-05-23 04:00","2021","05","23","04:00","10.4","","10.3","","100","","","M","23","","13","","","","99.99","","","","","","NA"
"-65.53","45.74","SUSSEX FOUR CORNERS","8105210","2021-05-23 05:00","2021","05","23","05:00","10.2","","10.1","","100","","","M","22","","13","","","","99.98","","","","","","NA"
"-65.53","45.74","SUSSEX FOUR CORNERS","8105210","2021-05-23 06:00","2021","05","23","06:00","10.6","","10.6","","100","","","M","22","","10","","","","99.93","","","","","","NA"
"-65.53","45.74","SUSSEX FOUR CORNERS","8105210","2021-05-23 07:00","2021","05","23","07:00","11.9","","11.9","","100","","","M","23","","9","","","","99.92","","","","","","NA"
"-65.53","45.74","SUSSEX FOUR CORNERS","8105210","2021-05-23 08:00","2021","05","23","08:00","15.2","","13.5","","90","","","M","24","","13","","","","99.85","","","","","","NA"
"-65.53","45.74","SUSSEX FOUR CORNERS","8105210","2021-05-23 09:00","2021","05","23","09:00","17.0","","14.5","","85","","","M","24","","12","","","","99.76","","","","","","NA"
"-65.53","45.74","SUSSEX FOUR CORNERS","8105210","2021-05-23 10:00","2021","05","23","10:00","17.4","","14.7","","84","","","M","25","","10","","","","99.62","","","","","","NA"
"-65.53","45.74","SUSSEX FOUR CORNERS","8105210","2021-05-23 11:00","2021","05","23","11:00","17.4","","14.8","","84","","","M","26","","14","","","","99.63","","","","","","NA"
"-65.53","45.74","SUSSEX FOUR CORNERS","8105210","2021-05-23 12:00","2021","05","23","12:00","16.5","","16.5","","100","","","M","14","","2","","","","99.55","","","","","","NA"
"-65.53","45.74","SUSSEX FOUR CORNERS","8105210","2021-05-23 13:00","2021","05","23","13:00","16.2","","16.1","","100","","","M","3","","5","","","","99.49","","","","","","NA"
"-65.53","45.74","SUSSEX FOUR CORNERS","8105210","2021-05-23 14:00","2021","05","23","14:00","14.4","","13.5","","94","","","M","36","","29","","","","99.66","","","","","","NA"
"-65.53","45.74","SUSSEX FOUR CORNERS","8105210","2021-05-23 15:00","2021","05","23","15:00","13.1","","12.8","","99","","","M","35","","21","","","","99.88","","","","","","NA"
"-65.53","45.74","SUSSEX FOUR CORNERS","8105210","2021-05-23 16:00","2021","05","23","16:00","11.7","","10.8","","94","","","M","36","","20","","","","100.07","","","","","","NA"
"-65.53","45.74","SUSSEX FOUR CORNERS","8105210","2021-05-23 17:00","2021","05","23","17:00","12.2","","8.6","","79","","","M","1","","28","","","","100.20","","","","","","NA"
"-65.53","45.74","SUSSEX FOUR CORNERS","8105210","2021-05-23 18:00","2021","05","23","18:00","9.6","","7.9","","89","","","M","3","","20","","","","100.38","","","","","","NA"
"-65.53","45.74","SUSSEX FOUR CORNERS","8105210","2021-05-23 19:00","2021","05","23","19:00","8.5","","6.4","","87","","","M","2","","22","","","","100.61","","","","","","NA"
"-65.53","45.74","SUSSEX FOUR CORNERS","8105210","2021-05-23 20:00","2021","05","23","20:00","7.2","","5.9","","91","","","M","3","","11","","","","100.72","","","","","","NA"
"-65.53","45.74","SUSSEX FOUR CORNERS","8105210","2021-05-23 21:00","2021","05","23","21:00","6.1","","5.2","","94","","","M","3","","8","","","","100.84","","","","","","NA"
"-65.53","45.74","SUSSEX FOUR CORNERS","8105210","2021-05-23 22:00","2021","05","23","22:00","6.0","","4.1","","88","","","M","4","","7","","","","100.93","","","","","","NA"
"-65.53","45.74","SUSSEX FOUR CORNERS","8105210","2021-05-23 23:00","2021","05","23","23:00","4.5","","3.7","","94","","","M","2","","4","","","","101.01","","","","","","NA"
"-65.53","45.74","SUSSEX FOUR CORNERS","8105210","2021-05-24 00:00","2021","05","24","00:00","4.1","","2.8","","91","","","M","","","0","","","","101.11","","","","","","NA"
"-65.53","45.74","SUSSEX FOUR CORNERS","8105210","2021-05-24 01:00","2021","05","24","01:00","2.7","","2.6","","99","","","M","32","","5","","","","101.16","","","","","","NA"
"-65.53","45.74","SUSSEX FOUR CORNERS","8105210","2021-05-24 02:00","2021","05","24","02:00","4.1","","1.8","","85","","","M","35","","14","","","","101.23","","","","","","NA"
"-65.53","45.74","SUSSEX FOUR CORNERS","8105210","2021-05-24 03:00","2021","05","24","03:00","3.5","","0.4","","80","","","M","35","","11","","","","101.31","","","","","","NA"
"-65.53","45.74","SUSSEX FOUR CORNERS","8105210","2021-05-24 04:00","2021","05","24","04:00","2.2","","-0.5","","82","","","M","4","","6","","","","101.40","","","","","","NA"
"-65.53","45.74","SUSSEX FOUR CORNERS","8105210","2021-05-24 05:00","2021","05","24","05:00","1.9","","-0.7","","82","","","M","5","","4","","","","101.50","","","","","","NA"
"-65.53","45.74","SUSSEX FOUR CORNERS","8105210","2021-05-24 06:00","2021","05","24","06:00","3.4","","-0.4","","76","","","M","31","","2","","","","101.59","","","","","","NA"
"-65.53","45.74","SUSSEX FOUR CORNERS","8105210","2021-05-24 07:00","2021","05","24","07:00","5.2","","1.8","","79","","","M","23","","6","","","","101.67","","","","","","NA"
"-65.53","45.74","SUSSEX FOUR CORNERS","8105210","2021-05-24 08:00","2021","05","24","08:00","7.4","","2.5","","71","","","M","20","","8","","","","101.72","","","","","","NA"
"-65.53","45.74","SUSSEX FOUR CORNERS","8105210","2021-05-24 09:00","2021","05","24","09:00","9.1","","-0.3","","52","","","M","28","","6","","","","101.75","","","","","","NA"
"-65.53","45.74","SUSSEX FOUR CORNERS","8105210","2021-05-24 10:00","2021","05","24","10:00","10.6","","-3.3","","37","","","M","35","","10","","","","101.75","","","","","","NA"
"-65.53","45.74","SUSSEX FOUR CORNERS","8105210","2021-05-24 11:00","2021","05","24","11:00","11.5","","-3.7","","34","","","M","33","","10","","","","101.73","","","","","","NA"
"-65.53","45.74","SUSSEX FOUR CORNERS","8105210","2021-05-24 12:00","2021","05","24","12:00","13.0","","-0.9","","38","","","M","27","","12","","","","101.69","","","","","","NA"
"-65.53","45.74","SUSSEX FOUR CORNERS","8105210","2021-05-24 13:00","2021","05","24","13:00","14.4","","-0.7","","35","","","M","27","","15","","","","101.61","","","","","","NA"
"-65.53","45.74","SUSSEX FOUR CORNERS","8105210","2021-05-24 14:00","2021","05","24","14:00","15.4","","-0.5","","34","","","M","31","","8","","","","101.53","","","","","","NA"
"-65.53","45.74","SUSSEX FOUR CORNERS","8105210","2021-05-24 15:00","2021","05","24","15:00","15.4","","0.2","","35","","","M","25","","14","","","","101.49","","","","","","NA"
"-65.53","45.74","SUSSEX FOUR CORNERS","8105210","2021-05-24 16:00","2021","05","24","16:00","15.8","","-0.6","","32","","","M","24","","16","","","","101.42","","","","","","NA"
"-65.53","45.74","SUSSEX FOUR CORNERS","8105210","2021-05-24 17:00","2021","05","24","17:00","16.5","","-1.8","","29","","","M","27","","13","","","","101.40","","","","","","NA"
"-65.53","45.74","SUSSEX FOUR CORNERS","8105210","2021-05-24 18:00","2021","05","24","18:00","11.7","","0.2","","45","","","M","20","","30","","","","101.43","","","","","","NA"
"-65.53","45.74","SUSSEX FOUR CORNERS","8105210","2021-05-24 19:00","2021","05","24","19:00","10.0","","-1.0","","46","","","M","21","","30","","","","101.46","","","","","","NA"
"-65.53","45.74","SUSSEX FOUR CORNERS","8105210","2021-05-24 20:00","2021","05","24","20:00","8.2","","-0.2","","55","","","M","20","","17","","","","101.47","","","","","","NA"
"-65.53","45.74","SUSSEX FOUR CORNERS","8105210","2021-05-24 21:00","2021","05","24","21:00","7.4","","0.1","","60","","","M","20","","14","","","","101.49","","","","","","NA"
"-65.53","45.74","SUSSEX FOUR CORNERS","8105210","2021-05-24 22:00","2021","05","24","22:00","7.2","","2.3","","71","","","M","20","","18","","","","101.47","","","","","","NA"
"-65.53","45.74","SUSSEX FOUR CORNERS","8105210","2021-05-24 23:00","2021","05","24","23:00","7.0","","2.8","","75","","","M","21","","14","","","","101.43","","","","","","NA"
"-65.53","45.74","SUSSEX FOUR CORNERS","8105210","2021-05-25 00:00","2021","05","25","00:00","7.7","","4.3","","79","","","M","22","","22","","","","101.37","","","","","","NA"
"-65.53","45.74","SUSSEX FOUR CORNERS","8105210","2021-05-25 01:00","2021","05","25","01:00","7.4","","3.7","","77","","","M","22","","20","","","","101.36","","","","","","NA"
"-65.53","45.74","SUSSEX FOUR CORNERS","8105210","2021-05-25 02:00","2021","05","25","02:00","7.1","","4.0","","80","","","M","22","","15","","","","101.37","","","","","","NA"
"-65.53","45.74","SUSSEX FOUR CORNERS","8105210","2021-05-25 03:00","2021","05","25","03:00","6.9","","4.7","","86","","","M","21","","14","","","","101.33","","","","","","NA"
"-65.53","45.74","SUSSEX FOUR CORNERS","8105210","2021-05-25 04:00","2021","05","25","04:00","8.2","","4.8","","79","","","M","22","","22","","","","101.32","","","","","","NA"
"-65.53","45.74","SUSSEX FOUR CORNERS","8105210","2021-05-25 05:00","2021","05","25","05:00","7.9","","5.3","","84","","","M","21","","25","","","","101.32","","","","","","NA"
"-65.53","45.74","SUSSEX FOUR CORNERS","8105210","2021-05-25 06:00","2021","05","25","06:00","8.7","","6.9","","89","","","M","20","","23","","","","101.31","","","","","","NA"
"-65.53","45.74","SUSSEX FOUR CORNERS","8105210","2021-05-25 07:00","2021","05","25","07:00","10.1","","7.7","","85","","","M","21","","25","","","","101.31","","","","","","NA"
"-65.53","45.74","SUSSEX FOUR CORNERS","8105210","2021-05-25 08:00","2021","05","25","08:00","12.0","","8.3","","78","","","M","20","","25","","","","101.24","","","","","","NA"
"-65.53","45.74","SUSSEX FOUR CORNERS","8105210","2021-05-25 09:00","2021","05","25","09:00","13.8","","8.7","","72","","","M","20","","27","","","","101.14","","","","","","NA"
"-65.53","45.74","SUSSEX FOUR CORNERS","8105210","2021-05-25 10:00","2021","05","25","10:00","15.8","","9.8","","67","","","M","19","","25","","","","101.07","","","","","","NA"
"-65.53","45.74","SUSSEX FOUR CORNERS","8105210","2021-05-25 11:00","2021","05","25","11:00","16.5","","9.4","","63","","","M","21","","30","","","","100.96","","","","","","NA"
"-65.53","45.74","SUSSEX FOUR CORNERS","8105210","2021-05-25 12:00","2021","05","25","12:00","17.7","","9.5","","59","","","M","19","","32","","","","100.93","","","","","","NA"
"-65.53","45.74","SUSSEX FOUR CORNERS","8105210","2021-05-25 13:00","2021","05","25","13:00","18.4","","9.7","","57","","","M","19","","34","","","","100.83","","","","","","NA"
"-65.53","45.74","SUSSEX FOUR CORNERS","8105210","2021-05-25 14:00","2021","05","25","14:00","18.1","","9.7","","58","","","M","21","","36","","","","100.75","","","","","","NA"
"-65.53","45.74","SUSSEX FOUR CORNERS","8105210","2021-05-25 15:00","2021","05","25","15:00","16.6","","9.1","","61","","","M","20","","42","","","","100.72","","","","","","NA"
"-65.53","45.74","SUSSEX FOUR CORNERS","8105210","2021-05-25 16:00","2021","05","25","16:00","16.0","","9.4","","65","","","M","22","","40","","","","100.70","","","","","","NA"
"-65.53","45.74","SUSSEX FOUR CORNERS","8105210","2021-05-25 17:00","2021","05","25","17:00","14.9","","8.9","","67","","","M","20","","41","","","","100.62","","","","","","NA"
"-65.53","45.74","SUSSEX FOUR CORNERS","8105210","2021-05-25 18:00","2021","05","25","18:00","13.9","","8.6","","70","","","M","21","","38","","","","100.61","","","","","","NA"
"-65.53","45.74","SUSSEX FOUR CORNERS","8105210","2021-05-25 19:00","2021","05","25","19:00","12.6","","8.0","","73","","","M","21","","38","","","","100.59","","","","","","NA"
"-65.53","45.74","SUSSEX FOUR CORNERS","8105210","2021-05-25 20:00","2021","05","25","20:00","11.0","","9.0","","87","","","M","21","","31","","","","100.63","","","","","","NA"
"-65.53","45.74","SUSSEX FOUR CORNERS","8105210","2021-05-25 21:00","2021","05","25","21:00","11.2","","9.0","","86","","","M","21","","30","","","","100.66","","","","","","NA"
"-65.53","45.74","SUSSEX FOUR CORNERS","8105210","2021-05-25 22:00","2021","05","25","22:00","11.1","","8.7","","85","","","M","20","","23","","","","100.65","","","","","","NA"
"-65.53","45.74","SUSSEX FOUR CORNERS","8105210","2021-05-25 23:00","2021","05","25","23:00","10.7","","8.7","","87","","","M","21","","19","","","","100.60","","","","","","NA"
"-65.53","45.74","SUSSEX FOUR CORNERS","8105210","2021-05-26 00:00","2021","05","26","00:00","11.2","","9.0","","86","","","M","21","","20","","","","100.60","","","","","","NA"
"-65.53","45.74","SUSSEX FOUR CORNERS","8105210","2021-05-26 01:00","2021","05","26","01:00","11.2","","9.1","","87","","","M","21","","16","","","","100.56","","","","","","NA"
"-65.53","45.74","SUSSEX FOUR CORNERS","8105210","2021-05-26 02:00","2021","05","26","02:00","11.1","","9.2","","88","","","M","18","","3","","","","100.56","","","","","","NA"
"-65.53","45.74","SUSSEX FOUR CORNERS","8105210","2021-05-26 03:00","2021","05","26","03:00","11.0","","9.7","","91","","","M","22","","9","","","","100.48","","","","","","NA"
"-65.53","45.74","SUSSEX FOUR CORNERS","8105210","2021-05-26 04:00","2021","05","26","04:00","10.8","","9.6","","92","","","M","25","","8","","","","100.48","","","","","","NA"
"-65.53","45.74","SUSSEX FOUR CORNERS","8105210","2021-05-26 05:00","2021","05","26","05:00","10.8","","9.9","","94","","","M","26","","8","","","","100.50","","","","","","NA"
"-65.53","45.74","SUSSEX FOUR CORNERS","8105210","2021-05-26 06:00","2021","05","26","06:00","11.5","","10.3","","92","","","M","23","","12","","","","100.56","","","","","","NA"
"-65.53","45.74","SUSSEX FOUR CORNERS","8105210","2021-05-26 07:00","2021","05","26","07:00","12.3","","10.6","","89","","","M","21","","8","","","","100.49","","","","","","NA"
"-65.53","45.74","SUSSEX FOUR CORNERS","8105210","2021-05-26 08:00","2021","05","26","08:00","13.5","","11.7","","89","","","M","23","","10","","","","100.43","","","","","","NA"
"-65.53","45.74","SUSSEX FOUR CORNERS","8105210","2021-05-26 09:00","2021","05","26","09:00","17.8","","14.0","","79","","","M","23","","10","","","","100.38","","","","","","NA"
"-65.53","45.74","SUSSEX FOUR CORNERS","8105210","2021-05-26 10:00","2021","05","26","10:00","19.6","","15.2","","76","","","M","22","","11","","","","100.33","","","","","","NA"
"-65.53","45.74","SUSSEX FOUR CORNERS","8105210","2021-05-26 11:00","2021","05","26","11:00","21.1","","15.3","","69","","","M","24","","14","","","","100.30","","25","","","","NA"
"-65.53","45.74","SUSSEX FOUR CORNERS","8105210","2021-05-26 12:00","2021","05","26","12:00","24.2","","16.8","","63","","","M","23","","23","","","","100.20","","29","","","","NA"
"-65.53","45.74","SUSSEX FOUR CORNERS","8105210","2021-05-26 13:00","2021","05","26","13:00","24.8","","17.5","","64","","","M","22","","15","","","","100.13","","30","","","","NA"
"-65.53","45.74","SUSSEX FOUR CORNERS","8105210","2021-05-26 14:00","2021","05","26","14:00","25.2","","16.7","","59","","","M","23","","22","","","","100.04","","30","","","","NA"
"-65.53","45.74","SUSSEX FOUR CORNERS","8105210","2021-05-26 15:00","2021","05","26","15:00","25.4","","16.4","","58","","","M","21","","28","","","","99.90","","30","","","","NA"
"-65.53","45.74","SUSSEX FOUR CORNERS","8105210","2021-05-26 16:00","2021","05","26","16:00","23.9","","15.3","","59","","","M","19","","31","","","","99.83","","28","","","","NA"
"-65.53","45.74","SUSSEX FOUR CORNERS","8105210","2021-05-26 17:00","2021","05","26","17:00","22.9","","15.4","","63","","","M","21","","26","","","","99.74","","27","","","","NA"
"-65.53","45.74","SUSSEX FOUR CORNERS","8105210","2021-05-26 18:00","2021","05","26","18:00","19.1","","14.5","","74","","","M","22","","39","","","","99.71","","","","","","NA"
"-65.53","45.74","SUSSEX FOUR CORNERS","8105210","2021-05-26 19:00","2021","05","26","19:00","18.0","","14.4","","79","","","M","22","","32","","","","99.69","","","","","","NA"
"-65.53","45.74","SUSSEX FOUR CORNERS","8105210","2021-05-26 20:00","2021","05","26","20:00","14.8","","12.5","","86","","","M","26","","12","","","","99.71","","","","","","NA"
"-65.53","45.74","SUSSEX FOUR CORNERS","8105210","2021-05-26 21:00","2021","05","26","21:00","14.1","","12.7","","91","","","M","26","","14","","","","99.71","","","","","","NA"
"-65.53","45.74","SUSSEX FOUR CORNERS","8105210","2021-05-26 22:00","2021","05","26","22:00","14.4","","13.2","","92","","","M","22","","29","","","","99.65","","","","","","NA"
"-65.53","45.74","SUSSEX FOUR CORNERS","8105210","2021-05-26 23:00","2021","05","26","23:00","14.6","","13.5","","93","","","M","23","","24","","","","99.59","","","","","","NA"
"-65.53","45.74","SUSSEX FOUR CORNERS","8105210","2021-05-27 00:00","2021","05","27","00:00","14.8","","13.6","","93","","","M","24","","21","","","","99.57","","","","","","NA"
"-65.53","45.74","SUSSEX FOUR CORNERS","8105210","2021-05-27 01:00","2021","05","27","01:00","14.7","","13.6","","93","","","M","23","","23","","","","99.58","","","","","","NA"
"-65.53","45.74","SUSSEX FOUR CORNERS","8105210","2021-05-27 02:00","2021","05","27","02:00","14.0","","13.4","","96","","","M","24","","18","","","","99.59","","","","","","NA"
"-65.53","45.74","SUSSEX FOUR CORNERS","8105210","2021-05-27 03:00","2021","05","27","03:00","14.1","","13.5","","96","","","M","24","","13","","","","99.59","","","","","","NA"
"-65.53","45.74","SUSSEX FOUR CORNERS","8105210","2021-05-27 04:00","2021","05","27","04:00","13.5","","13.1","","97","","","M","25","","9","","","","99.63","","","","","","NA"
"-65.53","45.74","SUSSEX FOUR CORNERS","8105210","2021-05-27 05:00","2021","05","27","05:00","13.4","","13.1","","98","","","M","23","","11","","","","99.64","","","","","","NA"
"-65.53","45.74","SUSSEX FOUR CORNERS","8105210","2021-05-27 06:00","2021","05","27","06:00","13.3","","13.3","","100","","","M","23","","15","","","","99.70","","","","","","NA"
"-65.53","45.74","SUSSEX FOUR CORNERS","8105210","2021-05-27 07:00","2021","05","27","07:00","14.3","","14.1","","99","","","M","23","","17","","","","99.76","","","","","","NA"
"-65.53","45.74","SUSSEX FOUR CORNERS","8105210","2021-05-27 08:00","2021","05","27","08:00","15.2","","14.4","","95","","","M","24","","13","","","","99.83","","","","","","NA"
"-65.53","45.74","SUSSEX FOUR CORNERS","8105210","2021-05-27 09:00","2021","05","27","09:00","16.9","","15.2","","90","","","M","24","","12","","","","99.84","","","","","","NA"
"-65.53","45.74","SUSSEX FOUR CORNERS","8105210","2021-05-27 10:00","2021","05","27","10:00","19.1","","16.8","","86","","","M","22","","12","","","","99.86","","","","","","NA"
"-65.53","45.74","SUSSEX FOUR CORNERS","8105210","2021-05-27 11:00","2021","05","27","11:00","21.4","","12.6","","57","","","M","30","","14","","","","99.90","","","","","","NA"
"-65.53","45.74","SUSSEX FOUR CORNERS","8105210","2021-05-27 12:00","2021","05","27","12:00","22.2","","11.2","","50","","","M","27","","22","","","","99.93","","","","","","NA"
"-65.53","45.74","SUSSEX FOUR CORNERS","8105210","2021-05-27 13:00","2021","05","27","13:00","22.1","","10.6","","48","","","M","28","","19","","","","100.00","","","","","","NA"
"-65.53","45.74","SUSSEX FOUR CORNERS","8105210","2021-05-27 14:00","2021","05","27","14:00","21.5","","6.1","","37","","","M","27","","24","","","","100.03","","","","","","NA"
"-65.53","45.74","SUSSEX FOUR CORNERS","8105210","2021-05-27 15:00","2021","05","27","15:00","20.3","","6.1","","40","","","M","30","","23","","","","100.07","","","","","","NA"
"-65.53","45.74","SUSSEX FOUR CORNERS","8105210","2021-05-27 16:00","2021","05","27","16:00","19.2","","1.1","","30","","","M","29","","21","","","","100.10","","","","","","NA"
"-65.53","45.74","SUSSEX FOUR CORNERS","8105210","2021-05-27 17:00","2021","05","27","17:00","18.7","","1.9","","33","","","M","31","","16","","","","100.17","","","","","","NA"
"-65.53","45.74","SUSSEX FOUR CORNERS","8105210","2021-05-27 18:00","2021","05","27","18:00","17.6","","-0.1","","30","","","M","29","","14","","","","100.26","","","","","","NA"
"-65.53","45.74","SUSSEX FOUR CORNERS","8105210","2021-05-27 19:00","2021","05","27","19:00","16.0","","-0.7","","32","","","M","31","","11","","","","100.34","","","","","","NA"
"-65.53","45.74","SUSSEX FOUR CORNERS","8105210","2021-05-27 20:00","2021","05","27","20:00","13.8","","-1.6","","34","","","M","33","","12","","","","100.45","","","","","","NA"
"-65.53","45.74","SUSSEX FOUR CORNERS","8105210","2021-05-27 21:00","2021","05","27","21:00","11.3","","-2.3","","39","","","M","34","","14","","","","100.58","","","","","","NA"
"-65.53","45.74","SUSSEX FOUR CORNERS","8105210","2021-05-27 22:00","2021","05","27","22:00","9.5","","-4.6","","36","","","M","32","","15","","","","100.71","","","","","","NA"
"-65.53","45.74","SUSSEX FOUR CORNERS","8105210","2021-05-27 23:00","2021","05","27","23:00","8.0","","-5.0","","40","","","M","32","","14","","","","100.82","","","","","","NA"
"-65.53","45.74","SUSSEX FOUR CORNERS","8105210","2021-05-28 00:00","2021","05","28","00:00","7.1","","-5.3","","41","","","M","34","","9","","","","100.88","","","","","","NA"
"-65.53","45.74","SUSSEX FOUR CORNERS","8105210","2021-05-28 01:00","2021","05","28","01:00","6.4","","-5.8","","41","","","M","31","","6","","","","100.90","","","","","","NA"
"-65.53","45.74","SUSSEX FOUR CORNERS","8105210","2021-05-28 02:00","2021","05","28","02:00","5.7","","-5.7","","44","","","M","31","","11","","","","100.90","","","","","","NA"
"-65.53","45.74","SUSSEX FOUR CORNERS","8105210","2021-05-28 03:00","2021","05","28","03:00","4.3","","-5.5","","49","","","M","28","","5","","","","100.93","","","","","","NA"
"-65.53","45.74","SUSSEX FOUR CORNERS","8105210","2021-05-28 04:00","2021","05","28","04:00","3.2","","-6.0","","51","","","M","29","","4","","","","100.93","","","","","","NA"
"-65.53","45.74","SUSSEX FOUR CORNERS","8105210","2021-05-28 05:00","2021","05","28","05:00","2.5","","-5.5","","55","","","M","27","","6","","","","100.96","","","","","","NA"
"-65.53","45.74","SUSSEX FOUR CORNERS","8105210","2021-05-28 06:00","2021","05","28","06:00","3.9","","-4.0","","56","","","M","24","","8","","","","101.00","","","","","","NA"
"-65.53","45.74","SUSSEX FOUR CORNERS","8105210","2021-05-28 07:00","2021","05","28","07:00","6.1","","-4.5","","47","","","M","31","","7","","","","101.05","","","","","","NA"
"-65.53","45.74","SUSSEX FOUR CORNERS","8105210","2021-05-28 08:00","2021","05","28","08:00","7.5","","-4.3","","43","","","M","29","","13","","","","101.03","","","","","","NA"
"-65.53","45.74","SUSSEX FOUR CORNERS","8105210","2021-05-28 09:00","2021","05","28","09:00","8.2","","-4.1","","41","","","M","27","","21","","","","101.00","","","","","","NA"
"-65.53","45.74","SUSSEX FOUR CORNERS","8105210","2021-05-28 10:00","2021","05","28","10:00","9.2","","-3.4","","41","","","M","27","","19","","","","100.96","","","","","","NA"
"-65.53","45.74","SUSSEX FOUR CORNERS","8105210","2021-05-28 11:00","2021","05","28","11:00","10.6","","-1.3","","44","","","M","25","","23","","","","100.94","","","","","","NA"
"-65.53","45.74","SUSSEX FOUR CORNERS","8105210","2021-05-28 12:00","2021","05","28","12:00","12.0","","-1.5","","39","","","M","26","","16","","","","100.89","","","","","","NA"
"-65.53","45.74","SUSSEX FOUR CORNERS","8105210","2021-05-28 13:00","2021","05","28","13:00","12.6","","-1.3","","38","","","M","26","","21","","","","100.82","","","","","","NA"
"-65.53","45.74","SUSSEX FOUR CORNERS","8105210","2021-05-28 14:00","2021","05","28","14:00","13.2","","-4.3","","29","","","M","28","","19","","","","100.85","","","","","","NA"
"-65.53","45.74","SUSSEX FOUR CORNERS","8105210","2021-05-28 15:00","2021","05","28","15:00","13.7","","-3.7","","30","","","M","27","","19","","","","100.83","","","","","","NA"
"-65.53","45.74","SUSSEX FOUR CORNERS","8105210","2021-05-28 16:00","2021","05","28","16:00","13.5","","-4.3","","29","","","M","26","","24","","","","100.80","","","","","","NA"
"-65.53","45.74","SUSSEX FOUR CORNERS","8105210","2021-05-28 17:00","2021","05","28","17:00","13.6","","-4.6","","28","","","M","26","","18","","","","100.82","","","","","","NA"
"-65.53","45.74","SUSSEX FOUR CORNERS","8105210","2021-05-28 18:00","2021","05","28","18:00","13.0","","-4.5","","29","","","M","26","","17","","","","100.83","","","","","","NA"
"-65.53","45.74","SUSSEX FOUR CORNERS","8105210","2021-05-28 19:00","2021","05","28","19:00","12.2","","-4.9","","30","","","M","30","","7","","","","100.92","","","","","","NA"
"-65.53","45.74","SUSSEX FOUR CORNERS","8105210","2021-05-28 20:00","2021","05","28","20:00","10.9","","-4.4","","34","","","M","32","","4","","","","100.98","","","","","","NA"
"-65.53","45.74","SUSSEX FOUR CORNERS","8105210","2021-05-28 21:00","2021","05","28","21:00","9.5","","-3.0","","41","","","M","33","","7","","","","101.07","","","","","","NA"
"-65.53","45.74","SUSSEX FOUR CORNERS","8105210","2021-05-28 22:00","2021","05","28","22:00","9.0","","-3.4","","41","","","M","34","","12","","","","101.14","","","","","","NA"
"-65.53","45.74","SUSSEX FOUR CORNERS","8105210","2021-05-28 23:00","2021","05","28","23:00","8.4","","-4.1","","41","","","M","35","","13","","","","101.18","","","","","","NA"
"-65.53","45.74","SUSSEX FOUR CORNERS","8105210","2021-05-29 00:00","2021","05","29","00:00","6.9","","-1.2","","56","","","M","16","","5","","","","101.25","","","","","","NA"
"-65.53","45.74","SUSSEX FOUR CORNERS","8105210","2021-05-29 01:00","2021","05","29","01:00","5.5","","-0.8","","64","","","M","32","","5","","","","101.30","","","","","","NA"
"-65.53","45.74","SUSSEX FOUR CORNERS","8105210","2021-05-29 02:00","2021","05","29","02:00","5.4","","0.3","","70","","","M","23","","3","","","","101.34","","","","","","NA"
"-65.53","45.74","SUSSEX FOUR CORNERS","8105210","2021-05-29 03:00","2021","05","29","03:00","4.8","","0.9","","76","","","M","4","","2","","","","101.37","","","","","","NA"
"-65.53","45.74","SUSSEX FOUR CORNERS","8105210","2021-05-29 04:00","2021","05","29","04:00","4.2","","1.5","","83","","","M","1","","5","","","","101.40","","","","","","NA"
"-65.53","45.74","SUSSEX FOUR CORNERS","8105210","2021-05-29 05:00","2021","05","29","05:00","3.8","","2.5","","92","","","M","1","","4","","","","101.42","","","","","","NA"
"-65.53","45.74","SUSSEX FOUR CORNERS","8105210","2021-05-29 06:00","2021","05","29","06:00","4.3","","2.6","","89","","","M","0","","1","","","","101.50","","","","","","NA"
"-65.53","45.74","SUSSEX FOUR CORNERS","8105210","2021-05-29 07:00","2021","05","29","07:00","5.8","","2.9","","82","","","M","6","","1","","","","101.52","","","","","","NA"
"-65.53","45.74","SUSSEX FOUR CORNERS","8105210","2021-05-29 08:00","2021","05","29","08:00","7.4","","1.8","","67","","","M","2","","5","","","","101.56","","","","","","NA"
"-65.53","45.74","SUSSEX FOUR CORNERS","8105210","2021-05-29 09:00","2021","05","29","09:00","8.9","","0.0","","53","","","M","2","","8","","","","101.57","","","","","","NA"
"-65.53","45.74","SUSSEX FOUR CORNERS","8105210","2021-05-29 10:00","2021","05","29","10:00","10.5","","-1.8","","42","","","M","8","","3","","","","101.59","","","","","","NA"
"-65.53","45.74","SUSSEX FOUR CORNERS","8105210","2021-05-29 11:00","2021","05","29","11:00","11.1","","-2.2","","39","","","M","5","","7","","","","101.63","","","","","","NA"
"-65.53","45.74","SUSSEX FOUR CORNERS","8105210","2021-05-29 12:00","2021","05","29","12:00","11.5","","-1.9","","39","","","M","7","","4","","","","101.60","","","","","","NA"
"-65.53","45.74","SUSSEX FOUR CORNERS","8105210","2021-05-29 13:00","2021","05","29","13:00","11.6","","-1.5","","40","","","M","3","","7","","","","101.58","","","","","","NA"
"-65.53","45.74","SUSSEX FOUR CORNERS","8105210","2021-05-29 14:00","2021","05","29","14:00","12.0","","-1.2","","40","","","M","4","","8","","","","101.59","","","","","","NA"
"-65.53","45.74","SUSSEX FOUR CORNERS","8105210","2021-05-29 15:00","2021","05","29","15:00","12.5","","-3.1","","33","","","M","2","","9","","","","101.60","","","","","","NA"
"-65.53","45.74","SUSSEX FOUR CORNERS","8105210","2021-05-29 16:00","2021","05","29","16:00","13.8","","-1.7","","34","","","M","11","","11","","","","101.58","","","","","","NA"
"-65.53","45.74","SUSSEX FOUR CORNERS","8105210","2021-05-29 17:00","2021","05","29","17:00","13.1","","-1.8","","36","","","M","3","","9","","","","101.59","","","","","","NA"
"-65.53","45.74","SUSSEX FOUR CORNERS","8105210","2021-05-29 18:00","2021","05","29","18:00","13.3","","-1.3","","36","","","M","4","","9","","","","101.60","","","","","","NA"
"-65.53","45.74","SUSSEX FOUR CORNERS","8105210","2021-05-29 19:00","2021","05","29","19:00","10.9","","1.7","","53","","","M","12","","11","","","","101.65","","","","","","NA"
"-65.53","45.74","SUSSEX FOUR CORNERS","8105210","2021-05-29 20:00","2021","05","29","20:00","8.8","","3.4","","69","","","M","11","","7","","","","101.73","","","","","","NA"
"-65.53","45.74","SUSSEX FOUR CORNERS","8105210","2021-05-29 21:00","2021","05","29","21:00","8.0","","3.5","","73","","","M","12","","3","","","","101.80","","","","","","NA"
"-65.53","45.74","SUSSEX FOUR CORNERS","8105210","2021-05-29 22:00","2021","05","29","22:00","6.7","","3.3","","79","","","M","10","","2","","","","101.84","","","","","","NA"
"-65.53","45.74","SUSSEX FOUR CORNERS","8105210","2021-05-29 23:00","2021","05","29","23:00","5.3","","3.0","","85","","","M","10","","1","","","","101.86","","","","","","NA"
"-65.53","45.74","SUSSEX FOUR CORNERS","8105210","2021-05-30 00:00","2021","05","30","00:00","4.0","","3.0","","93","","","M","1","","7","","","","101.88","","","","","","NA"
"-65.53","45.74","SUSSEX FOUR CORNERS","8105210","2021-05-30 01:00","2021","05","30","01:00","2.6","","2.4","","99","","","M","36","","4","","","","101.88","","","","","","NA"
"-65.53","45.74","SUSSEX FOUR CORNERS","8105210","2021-05-30 02:00","2021","05","30","02:00","1.8","","1.8","","100","","","M","36","","5","","","","101.94","","","","","","NA"
"-65.53","45.74","SUSSEX FOUR CORNERS","8105210","2021-05-30 03:00","2021","05","30","03:00","0.8","","0.6","","98","","","M","3","","5","","","","101.97","","","","","","NA"
"-65.53","45.74","SUSSEX FOUR CORNERS","8105210","2021-05-30 04:00","2021","05","30","04:00","0.2","","0.2","","100","","","M","0","","1","","","","102.10","","","","","","NA"
"-65.53","45.74","SUSSEX FOUR CORNERS","8105210","2021-05-30 05:00","2021","05","30","05:00","0.3","","0.2","","100","","","M","2","","3","","","","102.18","","","","","","NA"
"-65.53","45.74","SUSSEX FOUR CORNERS","8105210","2021-05-30 06:00","2021","05","30","06:00","2.1","","2.0","","99","","","M","7","","3","","","","102.21","","","","","","NA"
"-65.53","45.74","SUSSEX FOUR CORNERS","8105210","2021-05-30 07:00","2021","05","30","07:00","3.3","","3.0","","98","","","M","8","","2","","","","102.26","","","","","","NA"
"-65.53","45.74","SUSSEX FOUR CORNERS","8105210","2021-05-30 08:00","2021","05","30","08:00","7.1","","5.6","","90","","","M","7","","5","","","","102.26","","","","","","NA"
"-65.53","45.74","SUSSEX FOUR CORNERS","8105210","2021-05-30 09:00","2021","05","30","09:00","9.5","","-0.1","","51","","","M","6","","13","","","","102.31","","","","","","NA"
"-65.53","45.74","SUSSEX FOUR CORNERS","8105210","2021-05-30 10:00","2021","05","30","10:00","11.4","","0.8","","48","","","M","4","","12","","","","102.32","","","","","","NA"
"-65.53","45.74","SUSSEX FOUR CORNERS","8105210","2021-05-30 11:00","2021","05","30","11:00","13.4","","2.1","","46","","","M","6","","11","","","","102.35","","","","","","NA"
"-65.53","45.74","SUSSEX FOUR CORNERS","8105210","2021-05-30 12:00","2021","05","30","12:00","13.7","","1.9","","45","","","M","6","","12","","","","102.31","","","","","","NA"
"-65.53","45.74","SUSSEX FOUR CORNERS","8105210","2021-05-30 13:00","2021","05","30","13:00","14.5","","1.8","","42","","","M","5","","12","","","","102.28","","","","","","NA"
"-65.53","45.74","SUSSEX FOUR CORNERS","8105210","2021-05-30 14:00","2021","05","30","14:00","14.5","","2.4","","44","","","M","4","","12","","","","102.26","","","","","","NA"
"-65.53","45.74","SUSSEX FOUR CORNERS","8105210","2021-05-30 15:00","2021","05","30","15:00","15.3","","1.5","","39","","","M","4","","11","","","","102.26","","","","","","NA"
"-65.53","45.74","SUSSEX FOUR CORNERS","8105210","2021-05-30 16:00","2021","05","30","16:00","14.5","","1.2","","41","","","M","5","","11","","","","102.24","","","","","","NA"
"-65.53","45.74","SUSSEX FOUR CORNERS","8105210","2021-05-30 17:00","2021","05","30","17:00","14.1","","3.5","","49","","","M","5","","11","","","","102.19","","","","","","NA"
"-65.53","45.74","SUSSEX FOUR CORNERS","8105210","2021-05-30 18:00","2021","05","30","18:00","12.8","","4.2","","56","","","M","5","","12","","","","102.17","","","","","","NA"
"-65.53","45.74","SUSSEX FOUR CORNERS","8105210","2021-05-30 19:00","2021","05","30","19:00","10.9","","7.2","","78","","","M","3","","10","","","","102.22","","","","","","NA"
"-65.53","45.74","SUSSEX FOUR CORNERS","8105210","2021-05-30 20:00","2021","05","30","20:00","9.8","","7.3","","85","","","M","4","","10","","","","102.20","","","","","","NA"
"-65.53","45.74","SUSSEX FOUR CORNERS","8105210","2021-05-30 21:00","2021","05","30","21:00","8.7","","7.8","","94","","","M","4","","9","","","","102.22","","","","","","NA"
"-65.53","45.74","SUSSEX FOUR CORNERS","8105210","2021-05-30 22:00","2021","05","30","22:00","8.3","","8.2","","99","","","M","4","","12","","","","102.16","","","","","","NA"
"-65.53","45.74","SUSSEX FOUR CORNERS","8105210","2021-05-30 23:00","2021","05","30","23:00","8.0","","8.0","","100","","","M","4","","13","","","","102.08","","","","","","NA"
"-65.53","45.74","SUSSEX FOUR CORNERS","8105210","2021-05-31 00:00","2021","05","31","00:00","8.2","","8.1","","100","","","M","3","","11","","","","102.04","","","","","","NA"
"-65.53","45.74","SUSSEX FOUR CORNERS","8105210","2021-05-31 01:00","2021","05","31","01:00","8.2","","8.2","","100","","","M","2","","10","","","","101.98","","","","","","NA"
"-65.53","45.74","SUSSEX FOUR CORNERS","8105210","2021-05-31 02:00","2021","05","31","02:00","8.6","","8.6","","100","","","M","7","","6","","","","101.92","","","","","","NA"
"-65.53","45.74","SUSSEX FOUR CORNERS","8105210","2021-05-31 03:00","2021","05","31","03:00","8.9","","8.9","","100","","","M","6","","4","","","","101.86","","","","","","NA"
"-65.53","45.74","SUSSEX FOUR CORNERS","8105210","2021-05-31 04:00","2021","05","31","04:00","9.0","","9.0","","100","","","M","6","","4","","","","101.81","","","","","","NA"
"-65.53","45.74","SUSSEX FOUR CORNERS","8105210","2021-05-31 05:00","2021","05","31","05:00","9.5","","9.5","","100","","","M","10","","3","","","","101.81","","","","","","NA"
"-65.53","45.74","SUSSEX FOUR CORNERS","8105210","2021-05-31 06:00","2021","05","31","06:00","9.6","","9.6","","100","","","M","6","","4","","","","101.76","","","","","","NA"
"-65.53","45.74","SUSSEX FOUR CORNERS","8105210","2021-05-31 07:00","2021","05","31","07:00","10.3","","10.2","","100","","","M","7","","4","","","","101.72","","","","","","NA"
"-65.53","45.74","SUSSEX FOUR CORNERS","8105210","2021-05-31 08:00","2021","05","31","08:00","11.2","","11.2","","100","","","M","5","","5","","","","101.69","","","","","","NA"
"-65.53","45.74","SUSSEX FOUR CORNERS","8105210","2021-05-31 09:00","2021","05","31","09:00","13.4","","13.3","","99","","","M","11","","8","","","","101.63","","","","","","NA"
"-65.53","45.74","SUSSEX FOUR CORNERS","8105210","2021-05-31 10:00","2021","05","31","10:00","15.9","","15.1","","95","","","M","16","","10","","","","101.60","","","","","","NA"
"-65.53","45.74","SUSSEX FOUR CORNERS","8105210","2021-05-31 11:00","2021","05","31","11:00","18.0","","16.4","","90","","","M","16","","13","","","","101.53","","","","","","NA"
"-65.53","45.74","SUSSEX FOUR CORNERS","8105210","2021-05-31 12:00","2021","05","31","12:00","19.1","","16.5","","85","","","M","17","","23","","","","101.47","","","","","","NA"
"-65.53","45.74","SUSSEX FOUR CORNERS","8105210","2021-05-31 13:00","2021","05","31","13:00","21.5","","18.1","","81","","","M","16","","24","","","","101.38","","28","","","","NA"
"-65.53","45.74","SUSSEX FOUR CORNERS","8105210","2021-05-31 14:00","2021","05","31","14:00","21.5","","18.1","","81","","","M","18","","26","","","","101.33","","28","","","","NA"
"-65.53","45.74","SUSSEX FOUR CORNERS","8105210","2021-05-31 15:00","2021","05","31","15:00","21.5","","19.7","","90","","","M","18","","12","","","","101.24","","29","","","","NA"
"-65.53","45.74","SUSSEX FOUR CORNERS","8105210","2021-05-31 16:00","2021","05","31","16:00","19.4","","19.1","","98","","","M","23","","12","","","","101.21","","","","","","NA"
"-65.53","45.74","SUSSEX FOUR CORNERS","8105210","2021-05-31 17:00","2021","05","31","17:00","19.2","","19.0","","99","","","M","20","","7","","","","101.14","","","","","","NA"
"-65.53","45.74","SUSSEX FOUR CORNERS","8105210","2021-05-31 18:00","2021","05","31","18:00","19.2","","18.9","","98","","","M","18","","5","","","","101.07","","","","","","NA"
"-65.53","45.74","SUSSEX FOUR CORNERS","8105210","2021-05-31 19:00","2021","05","31","19:00","18.7","","18.7","","100","","","M","17","","12","","","","101.05","","","","","","NA"
"-65.53","45.74","SUSSEX FOUR CORNERS","8105210","2021-05-31 20:00","2021","05","31","20:00","16.6","","16.5","","99","","","M","21","","10","","","","100.98","","","","","","NA"
"-65.53","45.74","SUSSEX FOUR CORNERS","8105210","2021-05-31 21:00","2021","05","31","21:00","16.3","","16.3","","100","","","M","19","","5","","","","100.92","","","","","","NA"
"-65.53","45.74","SUSSEX FOUR CORNERS","8105210","2021-05-31 22:00","2021","05","31","22:00","15.7","","15.7","","100","","","M","1","","5","","","","100.80","","","","","","NA"
"-65.53","45.74","SUSSEX FOUR CORNERS","8105210","2021-05-31 23:00","2021","05","31","23:00","15.6","","15.5","","100","","","M","22","","6","","","","100.74","","","","","","NA"
