"Longitude (x)","Latitude (y)","Station Name","Climate ID","Date/Time (LST)","Year","Month","Day","Time (LST)","Temp (°C)","Temp Flag","Dew Point Temp (°C)","Dew Point Temp Flag","Rel Hum (%)","Rel Hum Flag","Precip. Amount (mm)","Precip. Amount Flag","Wind Dir (10s deg)","Wind Dir Flag","Wind Spd (km/h)","Wind Spd Flag","Visibility (km)","Visibility Flag","Stn Press (kPa)","Stn Press Flag","Hmdx","Hmdx Flag","Wind Chill","Wind Chill Flag","Weather"
"-63.58","44.66","HALIFAX DOCKYARD","8202240","2020-12-01 00:00","2020","12","01","00:00","10.2","","10.1","","100","","","","14","","38","","","","102.29","","","","","","NA"
"-63.58","44.66","HALIFAX DOCKYARD","8202240","2020-12-01 01:00","2020","12","01","01:00","11.0","","11.0","","100","","","","15","","36","","","","102.28","","","","","","NA"
"-63.58","44.66","HALIFAX DOCKYARD","8202240","2020-12-01 02:00","2020","12","01","02:00","11.2","","11.2","","100","","","","15","","33","","","","102.22","","","","","","NA"
"-63.58","44.66","HALIFAX DOCKYARD","8202240","2020-12-01 03:00","2020","12","01","03:00","11.2","","11.2","","100","","","","15","","32","","","","102.17","","","","","","NA"
"-63.58","44.66","HALIFAX DOCKYARD","8202240","2020-12-01 04:00","2020","12","01","04:00","11.5","","11.5","","100","","","","15","","29","","","","102.15","","","","","","NA"
"-63.58","44.66","HALIFAX DOCKYARD","8202240","2020-12-01 05:00","2020","12","01","05:00","11.6","","11.6","","100","","","","15","","25","","","","102.05","","","","","","NA"
"-63.58","44.66","HALIFAX DOCKYARD","8202240","2020-12-01 06:00","2020","12","01","06:00","12.0","","12.0","","100","","","","15","","25","","","","102.07","","","","","","NA"
"-63.58","44.66","HALIFAX DOCKYARD","8202240","2020-12-01 07:00","2020","12","01","07:00","11.6","","11.6","","100","","","","15","","24","","","","102.07","","","","","","NA"
"-63.58","44.66","HALIFAX DOCKYARD","8202240","2020-12-01 08:00","2020","12","01","08:00","11.6","","11.6","","100","","","","14","","24","","","","102.06","","","","","","NA"
"-63.58","44.66","HALIFAX DOCKYARD","8202240","2020-12-01 09:00","2020","12","01","09:00","10.3","","10.3","","100","","","","13","","20","","","","102.08","","","","","","NA"
"-63.58","44.66","HALIFAX DOCKYARD","8202240","2020-12-01 10:00","2020","12","01","10:00","11.2","","11.2","","100","","","","15","","16","","","","102.10","","","","","","NA"
"-63.58","44.66","HALIFAX DOCKYARD","8202240","2020-12-01 11:00","2020","12","01","11:00","10.7","","10.7","","100","","","","14","","17","","","","102.01","","","","","","NA"
"-63.58","44.66","HALIFAX DOCKYARD","8202240","2020-12-01 12:00","2020","12","01","12:00","10.5","","10.5","","100","","","","13","","19","","","","101.91","","","","","","NA"
"-63.58","44.66","HALIFAX DOCKYARD","8202240","2020-12-01 13:00","2020","12","01","13:00","12.1","","12.1","","100","","","","14","","19","","","","101.84","","","","","","NA"
"-63.58","44.66","HALIFAX DOCKYARD","8202240","2020-12-01 14:00","2020","12","01","14:00","10.5","","10.5","","100","","","","14","","20","","","","101.79","","","","","","NA"
"-63.58","44.66","HALIFAX DOCKYARD","8202240","2020-12-01 15:00","2020","12","01","15:00","11.9","","11.9","","100","","","","14","","25","","","","101.72","","","","","","NA"
"-63.58","44.66","HALIFAX DOCKYARD","8202240","2020-12-01 16:00","2020","12","01","16:00","12.2","","12.2","","100","","","","14","","23","","","","101.67","","","","","","NA"
"-63.58","44.66","HALIFAX DOCKYARD","8202240","2020-12-01 17:00","2020","12","01","17:00","12.4","","12.3","","100","","","","15","","23","","","","101.62","","","","","","NA"
"-63.58","44.66","HALIFAX DOCKYARD","8202240","2020-12-01 18:00","2020","12","01","18:00","12.3","","12.3","","100","","","","14","","24","","","","101.61","","","","","","NA"
"-63.58","44.66","HALIFAX DOCKYARD","8202240","2020-12-01 19:00","2020","12","01","19:00","12.0","","12.0","","100","","","","14","","22","","","","101.59","","","","","","NA"
"-63.58","44.66","HALIFAX DOCKYARD","8202240","2020-12-01 20:00","2020","12","01","20:00","13.3","","13.3","","100","","","","15","","24","","","","101.57","","","","","","NA"
"-63.58","44.66","HALIFAX DOCKYARD","8202240","2020-12-01 21:00","2020","12","01","21:00","12.6","","12.6","","100","","","","14","","24","","","","101.52","","","","","","NA"
"-63.58","44.66","HALIFAX DOCKYARD","8202240","2020-12-01 22:00","2020","12","01","22:00","13.1","","13.1","","100","","","","15","","29","","","","101.42","","","","","","NA"
"-63.58","44.66","HALIFAX DOCKYARD","8202240","2020-12-01 23:00","2020","12","01","23:00","13.2","","13.2","","100","","","","15","","23","","","","101.38","","","","","","NA"
"-63.58","44.66","HALIFAX DOCKYARD","8202240","2020-12-02 00:00","2020","12","02","00:00","12.1","","12.1","","100","","","","14","","20","","","","101.36","","","","","","NA"
"-63.58","44.66","HALIFAX DOCKYARD","8202240","2020-12-02 01:00","2020","12","02","01:00","11.8","","11.8","","100","","","","14","","19","","","","101.33","","","","","","NA"
"-63.58","44.66","HALIFAX DOCKYARD","8202240","2020-12-02 02:00","2020","12","02","02:00","12.8","","12.7","","100","","","","15","","27","","","","101.28","","","","","","NA"
"-63.58","44.66","HALIFAX DOCKYARD","8202240","2020-12-02 03:00","2020","12","02","03:00","12.3","","12.3","","100","","","","14","","22","","","","101.25","","","","","","NA"
"-63.58","44.66","HALIFAX DOCKYARD","8202240","2020-12-02 04:00","2020","12","02","04:00","11.9","","11.8","","100","","","","14","","17","","","","101.24","","","","","","NA"
"-63.58","44.66","HALIFAX DOCKYARD","8202240","2020-12-02 05:00","2020","12","02","05:00","11.5","","11.5","","100","","","","13","","14","","","","101.21","","","","","","NA"
"-63.58","44.66","HALIFAX DOCKYARD","8202240","2020-12-02 06:00","2020","12","02","06:00","11.6","","11.5","","100","","","","14","","11","","","","101.27","","","","","","NA"
"-63.58","44.66","HALIFAX DOCKYARD","8202240","2020-12-02 07:00","2020","12","02","07:00","11.5","","11.5","","100","","","","15","","11","","","","101.28","","","","","","NA"
"-63.58","44.66","HALIFAX DOCKYARD","8202240","2020-12-02 08:00","2020","12","02","08:00","11.3","","11.2","","100","","","","13","","7","","","","101.39","","","","","","NA"
"-63.58","44.66","HALIFAX DOCKYARD","8202240","2020-12-02 09:00","2020","12","02","09:00","10.5","","10.5","","100","","","","12","","6","","","","101.29","","","","","","NA"
"-63.58","44.66","HALIFAX DOCKYARD","8202240","2020-12-02 10:00","2020","12","02","10:00","11.4","","11.4","","100","","","","15","","15","","","","101.41","","","","","","NA"
"-63.58","44.66","HALIFAX DOCKYARD","8202240","2020-12-02 11:00","2020","12","02","11:00","9.8","","9.8","","100","","","","27","","15","","","","101.26","","","","","","NA"
"-63.58","44.66","HALIFAX DOCKYARD","8202240","2020-12-02 12:00","2020","12","02","12:00","10.0","","9.9","","100","","","","27","","9","","","","101.25","","","","","","NA"
"-63.58","44.66","HALIFAX DOCKYARD","8202240","2020-12-02 13:00","2020","12","02","13:00","10.0","","10.0","","100","","","","31","","7","","","","101.27","","","","","","NA"
"-63.58","44.66","HALIFAX DOCKYARD","8202240","2020-12-02 14:00","2020","12","02","14:00","9.9","","9.9","","100","","","","32","","2","","","","101.21","","","","","","NA"
"-63.58","44.66","HALIFAX DOCKYARD","8202240","2020-12-02 15:00","2020","12","02","15:00","9.9","","9.9","","100","","","","13","","5","","","","101.15","","","","","","NA"
"-63.58","44.66","HALIFAX DOCKYARD","8202240","2020-12-02 16:00","2020","12","02","16:00","10.0","","10.0","","100","","","","23","","8","","","","101.18","","","","","","NA"
"-63.58","44.66","HALIFAX DOCKYARD","8202240","2020-12-02 17:00","2020","12","02","17:00","9.8","","9.8","","100","","","","26","","7","","","","101.18","","","","","","NA"
"-63.58","44.66","HALIFAX DOCKYARD","8202240","2020-12-02 18:00","2020","12","02","18:00","9.0","","9.0","","100","","","","27","","10","","","","101.22","","","","","","NA"
"-63.58","44.66","HALIFAX DOCKYARD","8202240","2020-12-02 19:00","2020","12","02","19:00","8.2","","8.2","","100","","","","23","","8","","","","101.21","","","","","","NA"
"-63.58","44.66","HALIFAX DOCKYARD","8202240","2020-12-02 20:00","2020","12","02","20:00","7.2","","7.2","","100","","","","17","","5","","","","101.20","","","","","","NA"
"-63.58","44.66","HALIFAX DOCKYARD","8202240","2020-12-02 21:00","2020","12","02","21:00","7.2","","7.2","","100","","","","12","","5","","","","101.16","","","","","","NA"
"-63.58","44.66","HALIFAX DOCKYARD","8202240","2020-12-02 22:00","2020","12","02","22:00","7.4","","7.4","","100","","","","14","","10","","","","101.18","","","","","","NA"
"-63.58","44.66","HALIFAX DOCKYARD","8202240","2020-12-02 23:00","2020","12","02","23:00","7.9","","7.9","","100","","","","14","","10","","","","101.16","","","","","","NA"
"-63.58","44.66","HALIFAX DOCKYARD","8202240","2020-12-03 00:00","2020","12","03","00:00","8.6","","8.6","","100","","","","15","","11","","","","101.12","","","","","","NA"
"-63.58","44.66","HALIFAX DOCKYARD","8202240","2020-12-03 01:00","2020","12","03","01:00","9.0","","9.0","","100","","","","15","","7","","","","101.13","","","","","","NA"
"-63.58","44.66","HALIFAX DOCKYARD","8202240","2020-12-03 02:00","2020","12","03","02:00","8.8","","8.8","","100","","","","22","","6","","","","101.13","","","","","","NA"
"-63.58","44.66","HALIFAX DOCKYARD","8202240","2020-12-03 03:00","2020","12","03","03:00","8.3","","8.3","","100","","","","23","","8","","","","101.16","","","","","","NA"
"-63.58","44.66","HALIFAX DOCKYARD","8202240","2020-12-03 04:00","2020","12","03","04:00","7.9","","7.9","","100","","","","23","","9","","","","101.17","","","","","","NA"
"-63.58","44.66","HALIFAX DOCKYARD","8202240","2020-12-03 05:00","2020","12","03","05:00","7.7","","6.8","","94","","","","24","","13","","","","101.24","","","","","","NA"
"-63.58","44.66","HALIFAX DOCKYARD","8202240","2020-12-03 06:00","2020","12","03","06:00","7.0","","7.0","","100","","","","23","","8","","","","101.30","","","","","","NA"
"-63.58","44.66","HALIFAX DOCKYARD","8202240","2020-12-03 07:00","2020","12","03","07:00","6.7","","5.8","","94","","","","25","","8","","","","101.35","","","","","","NA"
"-63.58","44.66","HALIFAX DOCKYARD","8202240","2020-12-03 08:00","2020","12","03","08:00","6.3","","5.6","","95","","","","24","","12","","","","101.46","","","","","","NA"
"-63.58","44.66","HALIFAX DOCKYARD","8202240","2020-12-03 09:00","2020","12","03","09:00","6.1","","4.5","","89","","","","25","","12","","","","101.54","","","","","","NA"
"-63.58","44.66","HALIFAX DOCKYARD","8202240","2020-12-03 10:00","2020","12","03","10:00","6.7","","2.2","","73","","","","27","","19","","","","101.60","","","","","","NA"
"-63.58","44.66","HALIFAX DOCKYARD","8202240","2020-12-03 11:00","2020","12","03","11:00","6.7","","-0.2","","62","","","","26","","19","","","","101.62","","","","","","NA"
"-63.58","44.66","HALIFAX DOCKYARD","8202240","2020-12-03 12:00","2020","12","03","12:00","5.9","","-0.6","","63","","","","27","","19","","","","101.64","","","","","","NA"
"-63.58","44.66","HALIFAX DOCKYARD","8202240","2020-12-03 13:00","2020","12","03","13:00","6.5","","-0.1","","63","","","","27","","18","","","","101.64","","","","","","NA"
"-63.58","44.66","HALIFAX DOCKYARD","8202240","2020-12-03 14:00","2020","12","03","14:00","5.6","","0.4","","69","","","","27","","18","","","","101.71","","","","","","NA"
"-63.58","44.66","HALIFAX DOCKYARD","8202240","2020-12-03 15:00","2020","12","03","15:00","6.3","","-1.1","","59","","","","27","","15","","","","101.74","","","","","","NA"
"-63.58","44.66","HALIFAX DOCKYARD","8202240","2020-12-03 16:00","2020","12","03","16:00","5.8","","-0.7","","63","","","","26","","14","","","","101.81","","","","","","NA"
"-63.58","44.66","HALIFAX DOCKYARD","8202240","2020-12-03 17:00","2020","12","03","17:00","5.1","","0.0","","69","","","","23","","4","","","","101.83","","","","","","NA"
"-63.58","44.66","HALIFAX DOCKYARD","8202240","2020-12-03 18:00","2020","12","03","18:00","5.0","","0.1","","71","","","","21","","4","","","","101.88","","","","","","NA"
"-63.58","44.66","HALIFAX DOCKYARD","8202240","2020-12-03 19:00","2020","12","03","19:00","4.5","","0.1","","73","","","","24","","5","","","","101.94","","","","","","NA"
"-63.58","44.66","HALIFAX DOCKYARD","8202240","2020-12-03 20:00","2020","12","03","20:00","4.0","","0.0","","75","","","","24","","7","","","","101.99","","","","","","NA"
"-63.58","44.66","HALIFAX DOCKYARD","8202240","2020-12-03 21:00","2020","12","03","21:00","3.7","","-0.3","","75","","","","24","","5","","","","101.97","","","","","","NA"
"-63.58","44.66","HALIFAX DOCKYARD","8202240","2020-12-03 22:00","2020","12","03","22:00","3.7","","-0.6","","74","","","","25","","7","","","","101.99","","","","","","NA"
"-63.58","44.66","HALIFAX DOCKYARD","8202240","2020-12-03 23:00","2020","12","03","23:00","3.8","","-0.6","","73","","","","25","","5","","","","102.01","","","","","","NA"
"-63.58","44.66","HALIFAX DOCKYARD","8202240","2020-12-04 00:00","2020","12","04","00:00","3.9","","0.8","","80","","","","29","","3","","","","101.99","","","","","","NA"
"-63.58","44.66","HALIFAX DOCKYARD","8202240","2020-12-04 01:00","2020","12","04","01:00","4.5","","2.9","","89","","","","22","","1","","","","101.98","","","","","","NA"
"-63.58","44.66","HALIFAX DOCKYARD","8202240","2020-12-04 02:00","2020","12","04","02:00","5.2","","4.3","","94","","","","14","","4","","","","101.96","","","","","","NA"
"-63.58","44.66","HALIFAX DOCKYARD","8202240","2020-12-04 03:00","2020","12","04","03:00","5.5","","5.5","","100","","","","13","","8","","","","101.96","","","","","","NA"
"-63.58","44.66","HALIFAX DOCKYARD","8202240","2020-12-04 04:00","2020","12","04","04:00","6.4","","6.4","","100","","","","14","","7","","","","101.92","","","","","","NA"
"-63.58","44.66","HALIFAX DOCKYARD","8202240","2020-12-04 05:00","2020","12","04","05:00","7.1","","6.5","","96","","","","14","","10","","","","101.84","","","","","","NA"
"-63.58","44.66","HALIFAX DOCKYARD","8202240","2020-12-04 06:00","2020","12","04","06:00","7.9","","7.7","","98","","","","14","","10","","","","101.85","","","","","","NA"
"-63.58","44.66","HALIFAX DOCKYARD","8202240","2020-12-04 07:00","2020","12","04","07:00","8.2","","8.2","","100","","","","15","","10","","","","101.85","","","","","","NA"
"-63.58","44.66","HALIFAX DOCKYARD","8202240","2020-12-04 08:00","2020","12","04","08:00","8.5","","8.3","","98","","","","22","","6","","","","101.87","","","","","","NA"
"-63.58","44.66","HALIFAX DOCKYARD","8202240","2020-12-04 09:00","2020","12","04","09:00","8.2","","6.5","","89","","","","21","","3","","","","101.93","","","","","","NA"
"-63.58","44.66","HALIFAX DOCKYARD","8202240","2020-12-04 10:00","2020","12","04","10:00","8.9","","7.2","","89","","","","18","","10","","","","101.94","","","","","","NA"
"-63.58","44.66","HALIFAX DOCKYARD","8202240","2020-12-04 11:00","2020","12","04","11:00","9.9","","8.0","","88","","","","18","","13","","","","101.93","","","","","","NA"
"-63.58","44.66","HALIFAX DOCKYARD","8202240","2020-12-04 12:00","2020","12","04","12:00","10.4","","10.4","","100","","","","20","","16","","","","101.86","","","","","","NA"
"-63.58","44.66","HALIFAX DOCKYARD","8202240","2020-12-04 13:00","2020","12","04","13:00","10.9","","9.2","","89","","","","22","","22","","","","101.83","","","","","","NA"
"-63.58","44.66","HALIFAX DOCKYARD","8202240","2020-12-04 14:00","2020","12","04","14:00","10.4","","10.4","","100","","","","21","","14","","","","101.79","","","","","","NA"
"-63.58","44.66","HALIFAX DOCKYARD","8202240","2020-12-04 15:00","2020","12","04","15:00","10.5","","8.9","","90","","","","20","","11","","","","101.74","","","","","","NA"
"-63.58","44.66","HALIFAX DOCKYARD","8202240","2020-12-04 16:00","2020","12","04","16:00","10.5","","10.5","","100","","","","22","","15","","","","101.76","","","","","","NA"
"-63.58","44.66","HALIFAX DOCKYARD","8202240","2020-12-04 17:00","2020","12","04","17:00","10.2","","10.2","","100","","","","19","","12","","","","101.72","","","","","","NA"
"-63.58","44.66","HALIFAX DOCKYARD","8202240","2020-12-04 18:00","2020","12","04","18:00","10.0","","10.0","","100","","","","19","","12","","","","101.73","","","","","","NA"
"-63.58","44.66","HALIFAX DOCKYARD","8202240","2020-12-04 19:00","2020","12","04","19:00","10.0","","10.0","","100","","","","19","","8","","","","101.72","","","","","","NA"
"-63.58","44.66","HALIFAX DOCKYARD","8202240","2020-12-04 20:00","2020","12","04","20:00","10.5","","10.5","","100","","","","19","","9","","","","101.71","","","","","","NA"
"-63.58","44.66","HALIFAX DOCKYARD","8202240","2020-12-04 21:00","2020","12","04","21:00","10.6","","10.6","","100","","","","18","","12","","","","101.63","","","","","","NA"
"-63.58","44.66","HALIFAX DOCKYARD","8202240","2020-12-04 22:00","2020","12","04","22:00","10.7","","10.7","","100","","","","22","","9","","","","101.63","","","","","","NA"
"-63.58","44.66","HALIFAX DOCKYARD","8202240","2020-12-04 23:00","2020","12","04","23:00","11.0","","11.0","","100","","","","22","","9","","","","101.58","","","","","","NA"
"-63.58","44.66","HALIFAX DOCKYARD","8202240","2020-12-05 00:00","2020","12","05","00:00","10.9","","10.9","","100","","","","19","","9","","","","101.55","","","","","","NA"
"-63.58","44.66","HALIFAX DOCKYARD","8202240","2020-12-05 01:00","2020","12","05","01:00","10.7","","10.7","","100","","","","20","","13","","","","101.51","","","","","","NA"
"-63.58","44.66","HALIFAX DOCKYARD","8202240","2020-12-05 02:00","2020","12","05","02:00","","M","","M","","M","","","20","","7","","","","101.54","","","","","","NA"
"-63.58","44.66","HALIFAX DOCKYARD","8202240","2020-12-05 03:00","2020","12","05","03:00","10.1","","10.0","","100","","","","19","","10","","","","101.53","","","","","","NA"
"-63.58","44.66","HALIFAX DOCKYARD","8202240","2020-12-05 04:00","2020","12","05","04:00","10.4","","10.4","","100","","","","22","","12","","","","101.46","","","","","","NA"
"-63.58","44.66","HALIFAX DOCKYARD","8202240","2020-12-05 05:00","2020","12","05","05:00","","M","","M","","M","","","27","","2","","","","101.45","","","","","","NA"
"-63.58","44.66","HALIFAX DOCKYARD","8202240","2020-12-05 06:00","2020","12","05","06:00","9.5","","9.5","","100","","","","5","","3","","","","101.43","","","","","","NA"
"-63.58","44.66","HALIFAX DOCKYARD","8202240","2020-12-05 07:00","2020","12","05","07:00","9.1","","9.1","","100","","","","10","","3","","","","101.42","","","","","","NA"
"-63.58","44.66","HALIFAX DOCKYARD","8202240","2020-12-05 08:00","2020","12","05","08:00","9.9","","9.9","","100","","","","13","","5","","","","101.42","","","","","","NA"
"-63.58","44.66","HALIFAX DOCKYARD","8202240","2020-12-05 09:00","2020","12","05","09:00","10.2","","10.2","","100","","","","13","","11","","","","101.43","","","","","","NA"
"-63.58","44.66","HALIFAX DOCKYARD","8202240","2020-12-05 10:00","2020","12","05","10:00","11.4","","11.4","","100","","","","18","","10","","","","101.44","","","","","","NA"
"-63.58","44.66","HALIFAX DOCKYARD","8202240","2020-12-05 11:00","2020","12","05","11:00","11.3","","11.3","","100","","","","17","","8","","","","101.34","","","","","","NA"
"-63.58","44.66","HALIFAX DOCKYARD","8202240","2020-12-05 12:00","2020","12","05","12:00","10.0","","10.0","","100","","","","14","","12","","","","101.26","","","","","","NA"
"-63.58","44.66","HALIFAX DOCKYARD","8202240","2020-12-05 13:00","2020","12","05","13:00","10.2","","10.2","","100","","","","13","","8","","","","101.10","","","","","","NA"
"-63.58","44.66","HALIFAX DOCKYARD","8202240","2020-12-05 14:00","2020","12","05","14:00","10.1","","10.1","","100","","","","14","","11","","","","100.99","","","","","","NA"
"-63.58","44.66","HALIFAX DOCKYARD","8202240","2020-12-05 15:00","2020","12","05","15:00","9.9","","9.8","","100","","","","11","","18","","","","100.92","","","","","","NA"
"-63.58","44.66","HALIFAX DOCKYARD","8202240","2020-12-05 16:00","2020","12","05","16:00","10.5","","10.5","","100","","","","16","","12","","","","100.78","","","","","","NA"
"-63.58","44.66","HALIFAX DOCKYARD","8202240","2020-12-05 17:00","2020","12","05","17:00","10.2","","10.2","","100","","","","11","","27","","","","100.60","","","","","","NA"
"-63.58","44.66","HALIFAX DOCKYARD","8202240","2020-12-05 18:00","2020","12","05","18:00","11.2","","11.2","","100","","","","15","","22","","","","100.49","","","","","","NA"
"-63.58","44.66","HALIFAX DOCKYARD","8202240","2020-12-05 19:00","2020","12","05","19:00","11.6","","11.6","","100","","","","15","","19","","","","100.30","","","","","","NA"
"-63.58","44.66","HALIFAX DOCKYARD","8202240","2020-12-05 20:00","2020","12","05","20:00","11.2","","11.1","","100","","","","15","","25","","","","100.15","","","","","","NA"
"-63.58","44.66","HALIFAX DOCKYARD","8202240","2020-12-05 21:00","2020","12","05","21:00","12.2","","12.2","","100","","","","12","","43","","","","99.87","","","","","","NA"
"-63.58","44.66","HALIFAX DOCKYARD","8202240","2020-12-05 22:00","2020","12","05","22:00","11.8","","11.7","","100","","","","12","","41","","","","99.71","","","","","","NA"
"-63.58","44.66","HALIFAX DOCKYARD","8202240","2020-12-05 23:00","2020","12","05","23:00","12.1","","12.1","","100","","","","11","","49","","","","99.33","","","","","","NA"
"-63.58","44.66","HALIFAX DOCKYARD","8202240","2020-12-06 00:00","2020","12","06","00:00","12.3","","12.2","","100","","","","12","","55","","","","99.12","","","","","","NA"
"-63.58","44.66","HALIFAX DOCKYARD","8202240","2020-12-06 01:00","2020","12","06","01:00","13.0","","13.0","","100","","","","18","","18","","","","99.14","","","","","","NA"
"-63.58","44.66","HALIFAX DOCKYARD","8202240","2020-12-06 02:00","2020","12","06","02:00","12.2","","11.7","","97","","","","17","","16","","","","99.09","","","","","","NA"
"-63.58","44.66","HALIFAX DOCKYARD","8202240","2020-12-06 03:00","2020","12","06","03:00","11.7","","11.7","","100","","","","16","","14","","","","99.02","","","","","","NA"
"-63.58","44.66","HALIFAX DOCKYARD","8202240","2020-12-06 04:00","2020","12","06","04:00","9.6","","9.6","","100","","","","18","","21","","","","99.02","","","","","","NA"
"-63.58","44.66","HALIFAX DOCKYARD","8202240","2020-12-06 05:00","2020","12","06","05:00","8.3","","8.2","","100","","","","17","","9","","","","99.05","","","","","","NA"
"-63.58","44.66","HALIFAX DOCKYARD","8202240","2020-12-06 06:00","2020","12","06","06:00","7.9","","7.9","","100","","","","15","","14","","","","99.03","","","","","","NA"
"-63.58","44.66","HALIFAX DOCKYARD","8202240","2020-12-06 07:00","2020","12","06","07:00","7.8","","7.8","","100","","","","16","","12","","","","99.02","","","","","","NA"
"-63.58","44.66","HALIFAX DOCKYARD","8202240","2020-12-06 08:00","2020","12","06","08:00","7.4","","6.2","","92","","","","17","","17","","","","99.02","","","","","","NA"
"-63.58","44.66","HALIFAX DOCKYARD","8202240","2020-12-06 09:00","2020","12","06","09:00","7.6","","5.3","","85","","","","17","","17","","","","98.99","","","","","","NA"
"-63.58","44.66","HALIFAX DOCKYARD","8202240","2020-12-06 10:00","2020","12","06","10:00","7.2","","6.7","","97","","","","18","","18","","","","99.01","","","","","","NA"
"-63.58","44.66","HALIFAX DOCKYARD","8202240","2020-12-06 11:00","2020","12","06","11:00","6.9","","5.7","","92","","","","19","","20","","","","98.98","","","","","","NA"
"-63.58","44.66","HALIFAX DOCKYARD","8202240","2020-12-06 12:00","2020","12","06","12:00","6.8","","5.5","","91","","","","19","","25","","","","98.93","","","","","","NA"
"-63.58","44.66","HALIFAX DOCKYARD","8202240","2020-12-06 13:00","2020","12","06","13:00","7.2","","3.4","","77","","","","20","","22","","","","98.90","","","","","","NA"
"-63.58","44.66","HALIFAX DOCKYARD","8202240","2020-12-06 14:00","2020","12","06","14:00","6.8","","3.4","","79","","","","22","","22","","","","98.89","","","","","","NA"
"-63.58","44.66","HALIFAX DOCKYARD","8202240","2020-12-06 15:00","2020","12","06","15:00","6.6","","3.0","","78","","","","22","","18","","","","98.92","","","","","","NA"
"-63.58","44.66","HALIFAX DOCKYARD","8202240","2020-12-06 16:00","2020","12","06","16:00","6.3","","2.7","","78","","","","21","","21","","","","98.99","","","","","","NA"
"-63.58","44.66","HALIFAX DOCKYARD","8202240","2020-12-06 17:00","2020","12","06","17:00","5.6","","2.6","","81","","","","23","","21","","","","99.06","","","","","","NA"
"-63.58","44.66","HALIFAX DOCKYARD","8202240","2020-12-06 18:00","2020","12","06","18:00","5.0","","2.6","","85","","","","23","","20","","","","99.10","","","","","","NA"
"-63.58","44.66","HALIFAX DOCKYARD","8202240","2020-12-06 19:00","2020","12","06","19:00","5.0","","2.2","","82","","","","22","","15","","","","99.15","","","","","","NA"
"-63.58","44.66","HALIFAX DOCKYARD","8202240","2020-12-06 20:00","2020","12","06","20:00","4.6","","1.9","","82","","","","24","","19","","","","99.20","","","","","","NA"
"-63.58","44.66","HALIFAX DOCKYARD","8202240","2020-12-06 21:00","2020","12","06","21:00","4.4","","2.4","","87","","","","23","","16","","","","99.22","","","","","","NA"
"-63.58","44.66","HALIFAX DOCKYARD","8202240","2020-12-06 22:00","2020","12","06","22:00","4.1","","0.9","","80","","","","24","","18","","","","99.24","","","","","","NA"
"-63.58","44.66","HALIFAX DOCKYARD","8202240","2020-12-06 23:00","2020","12","06","23:00","3.8","","0.7","","80","","","","24","","18","","","","99.26","","","","","","NA"
"-63.58","44.66","HALIFAX DOCKYARD","8202240","2020-12-07 00:00","2020","12","07","00:00","3.4","","-0.1","","78","","","","24","","18","","","","99.30","","","","","","NA"
"-63.58","44.66","HALIFAX DOCKYARD","8202240","2020-12-07 01:00","2020","12","07","01:00","3.0","","-0.1","","80","","","","25","","14","","","","99.30","","","","","","NA"
"-63.58","44.66","HALIFAX DOCKYARD","8202240","2020-12-07 02:00","2020","12","07","02:00","2.6","","-0.5","","80","","","","26","","16","","","","99.34","","","","","","NA"
"-63.58","44.66","HALIFAX DOCKYARD","8202240","2020-12-07 03:00","2020","12","07","03:00","2.1","","-1.8","","76","","","","26","","12","","","","99.38","","","","","","NA"
"-63.58","44.66","HALIFAX DOCKYARD","8202240","2020-12-07 04:00","2020","12","07","04:00","1.9","","-1.2","","79","","","","25","","15","","","","99.39","","","","","","NA"
"-63.58","44.66","HALIFAX DOCKYARD","8202240","2020-12-07 05:00","2020","12","07","05:00","1.3","","-1.9","","79","","","","24","","17","","","","99.41","","","","","","NA"
"-63.58","44.66","HALIFAX DOCKYARD","8202240","2020-12-07 06:00","2020","12","07","06:00","1.4","","-1.0","","84","","","","24","","16","","","","99.42","","","","","","NA"
"-63.58","44.66","HALIFAX DOCKYARD","8202240","2020-12-07 07:00","2020","12","07","07:00","1.2","","1.0","","98","","","","25","","14","","","","99.51","","","","","","NA"
"-63.58","44.66","HALIFAX DOCKYARD","8202240","2020-12-07 08:00","2020","12","07","08:00","1.5","","0.0","","90","","","","25","","14","","","","99.58","","","","","","NA"
"-63.58","44.66","HALIFAX DOCKYARD","8202240","2020-12-07 09:00","2020","12","07","09:00","1.6","","0.9","","95","","","","26","","16","","","","99.62","","","","","","NA"
"-63.58","44.66","HALIFAX DOCKYARD","8202240","2020-12-07 10:00","2020","12","07","10:00","2.2","","-0.5","","82","","","","27","","23","","","","99.67","","","","","","NA"
"-63.58","44.66","HALIFAX DOCKYARD","8202240","2020-12-07 11:00","2020","12","07","11:00","3.0","","-0.7","","77","","","","27","","18","","","","99.67","","","","","","NA"
"-63.58","44.66","HALIFAX DOCKYARD","8202240","2020-12-07 12:00","2020","12","07","12:00","3.7","","-1.4","","69","","","","27","","19","","","","99.68","","","","","","NA"
"-63.58","44.66","HALIFAX DOCKYARD","8202240","2020-12-07 13:00","2020","12","07","13:00","3.8","","-0.9","","72","","","","27","","23","","","","99.66","","","","","","NA"
"-63.58","44.66","HALIFAX DOCKYARD","8202240","2020-12-07 14:00","2020","12","07","14:00","3.7","","0.5","","80","","","","27","","18","","","","99.73","","","","","","NA"
"-63.58","44.66","HALIFAX DOCKYARD","8202240","2020-12-07 15:00","2020","12","07","15:00","3.7","","2.0","","89","","","","29","","20","","","","99.86","","","","","","NA"
"-63.58","44.66","HALIFAX DOCKYARD","8202240","2020-12-07 16:00","2020","12","07","16:00","3.5","","1.4","","86","","","","29","","16","","","","99.96","","","","","","NA"
"-63.58","44.66","HALIFAX DOCKYARD","8202240","2020-12-07 17:00","2020","12","07","17:00","2.9","","1.3","","89","","","","28","","17","","","","100.08","","","","","","NA"
"-63.58","44.66","HALIFAX DOCKYARD","8202240","2020-12-07 18:00","2020","12","07","18:00","2.6","","1.5","","93","","","","28","","18","","","","100.15","","","","","","NA"
"-63.58","44.66","HALIFAX DOCKYARD","8202240","2020-12-07 19:00","2020","12","07","19:00","2.1","","1.6","","97","","","","28","","15","","","","100.19","","","","","","NA"
"-63.58","44.66","HALIFAX DOCKYARD","8202240","2020-12-07 20:00","2020","12","07","20:00","2.1","","1.8","","98","","","","28","","14","","","","100.29","","","","","","NA"
"-63.58","44.66","HALIFAX DOCKYARD","8202240","2020-12-07 21:00","2020","12","07","21:00","2.1","","1.3","","95","","","","26","","14","","","","100.39","","","","","","NA"
"-63.58","44.66","HALIFAX DOCKYARD","8202240","2020-12-07 22:00","2020","12","07","22:00","1.9","","1.9","","100","","","","29","","10","","","","100.37","","","","","","NA"
"-63.58","44.66","HALIFAX DOCKYARD","8202240","2020-12-07 23:00","2020","12","07","23:00","1.6","","1.6","","100","","","","25","","6","","","","100.45","","","","","","NA"
"-63.58","44.66","HALIFAX DOCKYARD","8202240","2020-12-08 00:00","2020","12","08","00:00","1.4","","1.4","","100","","","","26","","9","","","","100.51","","","","","","NA"
"-63.58","44.66","HALIFAX DOCKYARD","8202240","2020-12-08 01:00","2020","12","08","01:00","1.5","","1.5","","100","","","","34","","11","","","","100.42","","","","","","NA"
"-63.58","44.66","HALIFAX DOCKYARD","8202240","2020-12-08 02:00","2020","12","08","02:00","1.0","","1.0","","100","","","","36","","10","","","","100.40","","","","","","NA"
"-63.58","44.66","HALIFAX DOCKYARD","8202240","2020-12-08 03:00","2020","12","08","03:00","0.7","","0.7","","100","","","","1","","10","","","","100.37","","","","","","NA"
"-63.58","44.66","HALIFAX DOCKYARD","8202240","2020-12-08 04:00","2020","12","08","04:00","0.0","","0.0","","100","","","","1","","10","","","","100.33","","","","-3","","NA"
"-63.58","44.66","HALIFAX DOCKYARD","8202240","2020-12-08 05:00","2020","12","08","05:00","0.0","","0.0","","100","","","","2","","13","","","","100.24","","","","-4","","NA"
"-63.58","44.66","HALIFAX DOCKYARD","8202240","2020-12-08 06:00","2020","12","08","06:00","0.0","","0.0","","100","","","","2","","11","","","","100.25","","","","-4","","NA"
"-63.58","44.66","HALIFAX DOCKYARD","8202240","2020-12-08 07:00","2020","12","08","07:00","0.4","","0.4","","100","","","","2","","13","","","","100.23","","","","","","NA"
"-63.58","44.66","HALIFAX DOCKYARD","8202240","2020-12-08 08:00","2020","12","08","08:00","0.5","","0.5","","100","","","","1","","14","","","","100.10","","","","","","NA"
"-63.58","44.66","HALIFAX DOCKYARD","8202240","2020-12-08 09:00","2020","12","08","09:00","0.9","","0.9","","100","","","","4","","16","","","","100.05","","","","","","NA"
"-63.58","44.66","HALIFAX DOCKYARD","8202240","2020-12-08 10:00","2020","12","08","10:00","1.4","","1.4","","100","","","","2","","20","","","","99.94","","","","","","NA"
"-63.58","44.66","HALIFAX DOCKYARD","8202240","2020-12-08 11:00","2020","12","08","11:00","1.6","","1.6","","100","","","","1","","22","","","","99.76","","","","","","NA"
"-63.58","44.66","HALIFAX DOCKYARD","8202240","2020-12-08 12:00","2020","12","08","12:00","1.7","","1.7","","100","","","","2","","24","","","","99.59","","","","","","NA"
"-63.58","44.66","HALIFAX DOCKYARD","8202240","2020-12-08 13:00","2020","12","08","13:00","2.6","","2.6","","100","","","","1","","22","","","","99.44","","","","","","NA"
"-63.58","44.66","HALIFAX DOCKYARD","8202240","2020-12-08 14:00","2020","12","08","14:00","3.2","","3.2","","100","","","","36","","23","","","","99.37","","","","","","NA"
"-63.58","44.66","HALIFAX DOCKYARD","8202240","2020-12-08 15:00","2020","12","08","15:00","3.2","","3.2","","100","","","","36","","24","","","","99.34","","","","","","NA"
"-63.58","44.66","HALIFAX DOCKYARD","8202240","2020-12-08 16:00","2020","12","08","16:00","3.7","","2.0","","89","","","","35","","30","","","","99.37","","","","","","NA"
"-63.58","44.66","HALIFAX DOCKYARD","8202240","2020-12-08 17:00","2020","12","08","17:00","3.4","","2.2","","92","","","","35","","26","","","","99.37","","","","","","NA"
"-63.58","44.66","HALIFAX DOCKYARD","8202240","2020-12-08 18:00","2020","12","08","18:00","3.0","","2.3","","95","","","","34","","34","","","","99.37","","","","","","NA"
"-63.58","44.66","HALIFAX DOCKYARD","8202240","2020-12-08 19:00","2020","12","08","19:00","2.5","","2.5","","100","","","","33","","32","","","","99.39","","","","","","NA"
"-63.58","44.66","HALIFAX DOCKYARD","8202240","2020-12-08 20:00","2020","12","08","20:00","2.4","","2.0","","97","","","","34","","33","","","","99.46","","","","","","NA"
"-63.58","44.66","HALIFAX DOCKYARD","8202240","2020-12-08 21:00","2020","12","08","21:00","2.3","","2.2","","99","","","","33","","33","","","","99.48","","","","","","NA"
"-63.58","44.66","HALIFAX DOCKYARD","8202240","2020-12-08 22:00","2020","12","08","22:00","2.2","","2.2","","100","","","","33","","28","","","","99.51","","","","","","NA"
"-63.58","44.66","HALIFAX DOCKYARD","8202240","2020-12-08 23:00","2020","12","08","23:00","1.8","","1.8","","100","","","","33","","26","","","","99.60","","","","","","NA"
"-63.58","44.66","HALIFAX DOCKYARD","8202240","2020-12-09 00:00","2020","12","09","00:00","1.8","","1.8","","100","","","","33","","26","","","","99.66","","","","","","NA"
"-63.58","44.66","HALIFAX DOCKYARD","8202240","2020-12-09 01:00","2020","12","09","01:00","1.6","","1.6","","100","","","","32","","29","","","","99.73","","","","","","NA"
"-63.58","44.66","HALIFAX DOCKYARD","8202240","2020-12-09 02:00","2020","12","09","02:00","1.6","","1.6","","100","","","","32","","26","","","","99.84","","","","","","NA"
"-63.58","44.66","HALIFAX DOCKYARD","8202240","2020-12-09 03:00","2020","12","09","03:00","1.5","","1.5","","100","","","","32","","26","","","","99.92","","","","","","NA"
"-63.58","44.66","HALIFAX DOCKYARD","8202240","2020-12-09 04:00","2020","12","09","04:00","1.0","","1.0","","100","","","","32","","22","","","","99.99","","","","","","NA"
"-63.58","44.66","HALIFAX DOCKYARD","8202240","2020-12-09 05:00","2020","12","09","05:00","0.7","","0.7","","100","","","","29","","17","","","","100.07","","","","","","NA"
"-63.58","44.66","HALIFAX DOCKYARD","8202240","2020-12-09 06:00","2020","12","09","06:00","0.2","","0.2","","100","","","","28","","12","","","","100.13","","","","","","NA"
"-63.58","44.66","HALIFAX DOCKYARD","8202240","2020-12-09 07:00","2020","12","09","07:00","-0.1","","-0.1","","100","","","","27","","14","","","","100.21","","","","-4","","NA"
"-63.58","44.66","HALIFAX DOCKYARD","8202240","2020-12-09 08:00","2020","12","09","08:00","0.4","","0.4","","100","","","","27","","12","","","","100.27","","","","","","NA"
"-63.58","44.66","HALIFAX DOCKYARD","8202240","2020-12-09 09:00","2020","12","09","09:00","0.9","","-0.4","","91","","","","28","","11","","","","100.33","","","","","","NA"
"-63.58","44.66","HALIFAX DOCKYARD","8202240","2020-12-09 10:00","2020","12","09","10:00","1.5","","-0.5","","87","","","","27","","11","","","","100.40","","","","","","NA"
"-63.58","44.66","HALIFAX DOCKYARD","8202240","2020-12-09 11:00","2020","12","09","11:00","1.9","","-1.8","","77","","","","26","","15","","","","100.42","","","","","","NA"
"-63.58","44.66","HALIFAX DOCKYARD","8202240","2020-12-09 12:00","2020","12","09","12:00"
"-63.58","44.66","HALIFAX DOCKYARD","8202240","2020-12-09 13:00","2020","12","09","13:00","2.7","","-1.9","","72","","","","28","","15","","","","100.35","","","","","","NA"
"-63.58","44.66","HALIFAX DOCKYARD","8202240","2020-12-09 14:00","2020","12","09","14:00","3.2","","-2.1","","68","","","","27","","11","","","","100.36","","","","","","NA"
"-63.58","44.66","HALIFAX DOCKYARD","8202240","2020-12-09 15:00","2020","12","09","15:00","3.1","","-2.1","","69","","","","25","","9","","","","100.39","","","","","","NA"
"-63.58","44.66","HALIFAX DOCKYARD","8202240","2020-12-09 16:00","2020","12","09","16:00","3.1","","-1.8","","71","","","","28","","6","","","","100.43","","","","","","NA"
"-63.58","44.66","HALIFAX DOCKYARD","8202240","2020-12-09 17:00","2020","12","09","17:00","2.9","","-1.9","","71","","","","29","","8","","","","100.48","","","","","","NA"
"-63.58","44.66","HALIFAX DOCKYARD","8202240","2020-12-09 18:00","2020","12","09","18:00","2.5","","-1.6","","74","","","","30","","8","","","","100.54","","","","","","NA"
"-63.58","44.66","HALIFAX DOCKYARD","8202240","2020-12-09 19:00","2020","12","09","19:00","1.9","","-2.0","","75","","","","27","","13","","","","100.61","","","","","","NA"
"-63.58","44.66","HALIFAX DOCKYARD","8202240","2020-12-09 20:00","2020","12","09","20:00","1.9","","-2.9","","71","","","","30","","7","","","","100.65","","","","","","NA"
"-63.58","44.66","HALIFAX DOCKYARD","8202240","2020-12-09 21:00","2020","12","09","21:00","1.8","","-2.7","","72","","","","0","","1","","","","100.63","","","","","","NA"
"-63.58","44.66","HALIFAX DOCKYARD","8202240","2020-12-09 22:00","2020","12","09","22:00","2.0","","-2.8","","70","","","","25","","3","","","","100.62","","","","","","NA"
"-63.58","44.66","HALIFAX DOCKYARD","8202240","2020-12-09 23:00","2020","12","09","23:00","2.2","","-0.6","","82","","","","12","","7","","","","100.63","","","","","","NA"
"-63.58","44.66","HALIFAX DOCKYARD","8202240","2020-12-10 00:00","2020","12","10","00:00","2.4","","-0.4","","81","","","","9","","8","","","","100.58","","","","","","NA"
"-63.58","44.66","HALIFAX DOCKYARD","8202240","2020-12-10 01:00","2020","12","10","01:00","2.7","","0.6","","86","","","","6","","6","","","","100.55","","","","","","NA"
"-63.58","44.66","HALIFAX DOCKYARD","8202240","2020-12-10 02:00","2020","12","10","02:00","2.4","","0.2","","85","","","","2","","3","","","","100.53","","","","","","NA"
"-63.58","44.66","HALIFAX DOCKYARD","8202240","2020-12-10 03:00","2020","12","10","03:00","2.0","","2.0","","100","","","","3","","6","","","","100.54","","","","","","NA"
"-63.58","44.66","HALIFAX DOCKYARD","8202240","2020-12-10 04:00","2020","12","10","04:00","1.5","","1.5","","100","","","","3","","6","","","","100.52","","","","","","NA"
"-63.58","44.66","HALIFAX DOCKYARD","8202240","2020-12-10 05:00","2020","12","10","05:00","1.4","","1.4","","100","","","","35","","7","","","","100.51","","","","","","NA"
"-63.58","44.66","HALIFAX DOCKYARD","8202240","2020-12-10 06:00","2020","12","10","06:00","1.1","","1.1","","100","","","","33","","8","","","","100.53","","","","","","NA"
"-63.58","44.66","HALIFAX DOCKYARD","8202240","2020-12-10 07:00","2020","12","10","07:00","1.3","","1.3","","100","","","","33","","10","","","","100.55","","","","","","NA"
"-63.58","44.66","HALIFAX DOCKYARD","8202240","2020-12-10 08:00","2020","12","10","08:00","1.3","","1.3","","100","","","","32","","10","","","","100.61","","","","","","NA"
"-63.58","44.66","HALIFAX DOCKYARD","8202240","2020-12-10 09:00","2020","12","10","09:00","1.5","","1.5","","100","","","","33","","15","","","","100.64","","","","","","NA"
"-63.58","44.66","HALIFAX DOCKYARD","8202240","2020-12-10 10:00","2020","12","10","10:00","1.4","","1.4","","100","","","","33","","18","","","","100.67","","","","","","NA"
"-63.58","44.66","HALIFAX DOCKYARD","8202240","2020-12-10 11:00","2020","12","10","11:00","1.7","","1.7","","100","","","","35","","18","","","","100.66","","","","","","NA"
"-63.58","44.66","HALIFAX DOCKYARD","8202240","2020-12-10 12:00","2020","12","10","12:00","2.1","","2.1","","100","","","","34","","18","","","","100.61","","","","","","NA"
"-63.58","44.66","HALIFAX DOCKYARD","8202240","2020-12-10 13:00","2020","12","10","13:00","2.6","","2.5","","100","","","","33","","20","","","","100.62","","","","","","NA"
"-63.58","44.66","HALIFAX DOCKYARD","8202240","2020-12-10 14:00","2020","12","10","14:00","2.3","","2.2","","100","","","","33","","22","","","","100.65","","","","","","NA"
"-63.58","44.66","HALIFAX DOCKYARD","8202240","2020-12-10 15:00","2020","12","10","15:00","2.5","","2.2","","98","","","","34","","22","","","","100.70","","","","","","NA"
"-63.58","44.66","HALIFAX DOCKYARD","8202240","2020-12-10 16:00","2020","12","10","16:00","2.8","","-0.3","","80","","","","32","","18","","","","100.79","","","","","","NA"
"-63.58","44.66","HALIFAX DOCKYARD","8202240","2020-12-10 17:00","2020","12","10","17:00","2.5","","2.1","","97","","","","32","","18","","","","100.89","","","","","","NA"
"-63.58","44.66","HALIFAX DOCKYARD","8202240","2020-12-10 18:00","2020","12","10","18:00","1.8","","1.8","","100","","","","32","","24","","","","100.97","","","","","","NA"
"-63.58","44.66","HALIFAX DOCKYARD","8202240","2020-12-10 19:00","2020","12","10","19:00","2.0","","1.9","","99","","","","33","","27","","","","101.06","","","","","","NA"
"-63.58","44.66","HALIFAX DOCKYARD","8202240","2020-12-10 20:00","2020","12","10","20:00","0.9","","0.9","","100","","","","34","","20","","","","101.15","","","","","","NA"
"-63.58","44.66","HALIFAX DOCKYARD","8202240","2020-12-10 21:00","2020","12","10","21:00","0.7","","0.7","","100","","","","34","","24","","","","101.19","","","","","","NA"
"-63.58","44.66","HALIFAX DOCKYARD","8202240","2020-12-10 22:00","2020","12","10","22:00","0.4","","-0.7","","93","","","","31","","23","","","","101.27","","","","","","NA"
"-63.58","44.66","HALIFAX DOCKYARD","8202240","2020-12-10 23:00","2020","12","10","23:00","0.5","","-0.8","","92","","","","33","","25","","","","101.34","","","","","","NA"
"-63.58","44.66","HALIFAX DOCKYARD","8202240","2020-12-11 00:00","2020","12","11","00:00","0.5","","-2.5","","81","","","","30","","15","","","","101.37","","","","","","NA"
"-63.58","44.66","HALIFAX DOCKYARD","8202240","2020-12-11 01:00","2020","12","11","01:00","0.7","","-1.6","","84","","","","30","","14","","","","101.45","","","","","","NA"
"-63.58","44.66","HALIFAX DOCKYARD","8202240","2020-12-11 02:00","2020","12","11","02:00","0.9","","-1.1","","87","","","","31","","23","","","","101.51","","","","","","NA"
"-63.58","44.66","HALIFAX DOCKYARD","8202240","2020-12-11 03:00","2020","12","11","03:00","0.8","","-0.9","","89","","","","31","","23","","","","101.64","","","","","","NA"
"-63.58","44.66","HALIFAX DOCKYARD","8202240","2020-12-11 04:00","2020","12","11","04:00","0.7","","-1.3","","87","","","","32","","25","","","","101.72","","","","","","NA"
"-63.58","44.66","HALIFAX DOCKYARD","8202240","2020-12-11 05:00","2020","12","11","05:00","0.4","","-2.3","","82","","","","32","","19","","","","101.77","","","","","","NA"
"-63.58","44.66","HALIFAX DOCKYARD","8202240","2020-12-11 06:00","2020","12","11","06:00","0.1","","-2.9","","80","","","","30","","17","","","","101.87","","","","","","NA"
"-63.58","44.66","HALIFAX DOCKYARD","8202240","2020-12-11 07:00","2020","12","11","07:00","0.4","","-3.7","","74","","","","30","","15","","","","101.93","","","","","","NA"
"-63.58","44.66","HALIFAX DOCKYARD","8202240","2020-12-11 08:00","2020","12","11","08:00","0.4","","-3.0","","78","","","","30","","11","","","","101.98","","","","","","NA"
"-63.58","44.66","HALIFAX DOCKYARD","8202240","2020-12-11 09:00","2020","12","11","09:00","0.7","","-3.1","","76","","","","27","","5","","","","102.05","","","","","","NA"
"-63.58","44.66","HALIFAX DOCKYARD","8202240","2020-12-11 10:00","2020","12","11","10:00","1.2","","-2.8","","75","","","","28","","4","","","","102.08","","","","","","NA"
"-63.58","44.66","HALIFAX DOCKYARD","8202240","2020-12-11 11:00","2020","12","11","11:00","1.3","","-3.7","","69","","","","27","","11","","","","102.10","","","","","","NA"
"-63.58","44.66","HALIFAX DOCKYARD","8202240","2020-12-11 12:00","2020","12","11","12:00","1.9","","-3.2","","69","","","","28","","14","","","","102.03","","","","","","NA"
"-63.58","44.66","HALIFAX DOCKYARD","8202240","2020-12-11 13:00","2020","12","11","13:00","2.7","","-3.1","","66","","","","28","","14","","","","102.02","","","","","","NA"
"-63.58","44.66","HALIFAX DOCKYARD","8202240","2020-12-11 14:00","2020","12","11","14:00","4.1","","-3.0","","60","","","","27","","13","","","","101.98","","","","","","NA"
"-63.58","44.66","HALIFAX DOCKYARD","8202240","2020-12-11 15:00","2020","12","11","15:00","3.6","","-3.1","","61","","","","27","","11","","","","102.01","","","","","","NA"
"-63.58","44.66","HALIFAX DOCKYARD","8202240","2020-12-11 16:00","2020","12","11","16:00","3.7","","-2.9","","62","","","","28","","10","","","","102.03","","","","","","NA"
"-63.58","44.66","HALIFAX DOCKYARD","8202240","2020-12-11 17:00","2020","12","11","17:00","3.7","","-2.6","","64","","","","28","","7","","","","102.08","","","","","","NA"
"-63.58","44.66","HALIFAX DOCKYARD","8202240","2020-12-11 18:00","2020","12","11","18:00","3.5","","-2.1","","67","","","","25","","3","","","","102.13","","","","","","NA"
"-63.58","44.66","HALIFAX DOCKYARD","8202240","2020-12-11 19:00","2020","12","11","19:00","3.4","","-1.7","","69","","","","27","","2","","","","102.16","","","","","","NA"
"-63.58","44.66","HALIFAX DOCKYARD","8202240","2020-12-11 20:00","2020","12","11","20:00","3.6","","-1.3","","71","","","","23","","3","","","","102.17","","","","","","NA"
"-63.58","44.66","HALIFAX DOCKYARD","8202240","2020-12-11 21:00","2020","12","11","21:00","3.8","","-1.3","","69","","","","24","","3","","","","102.14","","","","","","NA"
"-63.58","44.66","HALIFAX DOCKYARD","8202240","2020-12-11 22:00","2020","12","11","22:00","4.4","","0.3","","75","","","","14","","8","","","","102.09","","","","","","NA"
"-63.58","44.66","HALIFAX DOCKYARD","8202240","2020-12-11 23:00","2020","12","11","23:00","4.6","","1.1","","78","","","","12","","6","","","","102.05","","","","","","NA"
"-63.58","44.66","HALIFAX DOCKYARD","8202240","2020-12-12 00:00","2020","12","12","00:00","5.4","","3.4","","87","","","","12","","6","","","","102.00","","","","","","NA"
"-63.58","44.66","HALIFAX DOCKYARD","8202240","2020-12-12 01:00","2020","12","12","01:00","5.1","","5.1","","100","","","","14","","5","","","","101.93","","","","","","NA"
"-63.58","44.66","HALIFAX DOCKYARD","8202240","2020-12-12 02:00","2020","12","12","02:00","5.7","","5.7","","100","","","","3","","5","","","","101.89","","","","","","NA"
"-63.58","44.66","HALIFAX DOCKYARD","8202240","2020-12-12 03:00","2020","12","12","03:00","5.0","","5.0","","100","","","","32","","12","","","","101.92","","","","","","NA"
"-63.58","44.66","HALIFAX DOCKYARD","8202240","2020-12-12 04:00","2020","12","12","04:00","7.1","","7.1","","100","","","","27","","4","","","","101.89","","","","","","NA"
"-63.58","44.66","HALIFAX DOCKYARD","8202240","2020-12-12 05:00","2020","12","12","05:00","6.1","","6.1","","100","","","","31","","10","","","","101.98","","","","","","NA"
"-63.58","44.66","HALIFAX DOCKYARD","8202240","2020-12-12 06:00","2020","12","12","06:00","6.3","","6.3","","100","","","","32","","8","","","","102.03","","","","","","NA"
"-63.58","44.66","HALIFAX DOCKYARD","8202240","2020-12-12 07:00","2020","12","12","07:00","6.0","","6.0","","100","","","","28","","10","","","","102.13","","","","","","NA"
"-63.58","44.66","HALIFAX DOCKYARD","8202240","2020-12-12 08:00","2020","12","12","08:00","5.5","","5.5","","100","","","","33","","17","","","","102.24","","","","","","NA"
"-63.58","44.66","HALIFAX DOCKYARD","8202240","2020-12-12 09:00","2020","12","12","09:00","4.6","","4.6","","100","","","","33","","15","","","","102.34","","","","","","NA"
"-63.58","44.66","HALIFAX DOCKYARD","8202240","2020-12-12 10:00","2020","12","12","10:00","4.2","","2.7","","90","","","","34","","17","","","","102.46","","","","","","NA"
"-63.58","44.66","HALIFAX DOCKYARD","8202240","2020-12-12 11:00","2020","12","12","11:00","4.0","","1.2","","82","","","","35","","17","","","","102.51","","","","","","NA"
"-63.58","44.66","HALIFAX DOCKYARD","8202240","2020-12-12 12:00","2020","12","12","12:00","4.1","","0.7","","79","","","","36","","18","","","","102.50","","","","","","NA"
"-63.58","44.66","HALIFAX DOCKYARD","8202240","2020-12-12 13:00","2020","12","12","13:00","4.2","","1.1","","80","","","","35","","16","","","","102.52","","","","","","NA"
"-63.58","44.66","HALIFAX DOCKYARD","8202240","2020-12-12 14:00","2020","12","12","14:00","4.0","","2.0","","87","","","","2","","13","","","","102.53","","","","","","NA"
"-63.58","44.66","HALIFAX DOCKYARD","8202240","2020-12-12 15:00","2020","12","12","15:00","3.6","","0.8","","82","","","","36","","16","","","","102.54","","","","","","NA"
"-63.58","44.66","HALIFAX DOCKYARD","8202240","2020-12-12 16:00","2020","12","12","16:00","3.4","","1.0","","84","","","","3","","13","","","","102.64","","","","","","NA"
"-63.58","44.66","HALIFAX DOCKYARD","8202240","2020-12-12 17:00","2020","12","12","17:00","3.0","","1.4","","89","","","","4","","16","","","","102.66","","","","","","NA"
"-63.58","44.66","HALIFAX DOCKYARD","8202240","2020-12-12 18:00","2020","12","12","18:00","2.9","","1.2","","89","","","","6","","10","","","","102.68","","","","","","NA"
"-63.58","44.66","HALIFAX DOCKYARD","8202240","2020-12-12 19:00","2020","12","12","19:00","2.7","","0.7","","87","","","","7","","7","","","","102.73","","","","","","NA"
"-63.58","44.66","HALIFAX DOCKYARD","8202240","2020-12-12 20:00","2020","12","12","20:00","2.6","","0.9","","89","","","","8","","9","","","","102.73","","","","","","NA"
"-63.58","44.66","HALIFAX DOCKYARD","8202240","2020-12-12 21:00","2020","12","12","21:00","2.5","","1.6","","94","","","","9","","13","","","","102.67","","","","","","NA"
"-63.58","44.66","HALIFAX DOCKYARD","8202240","2020-12-12 22:00","2020","12","12","22:00","2.3","","2.3","","100","","","","8","","17","","","","102.60","","","","","","NA"
"-63.58","44.66","HALIFAX DOCKYARD","8202240","2020-12-12 23:00","2020","12","12","23:00","2.4","","2.4","","100","","","","8","","15","","","","102.53","","","","","","NA"
"-63.58","44.66","HALIFAX DOCKYARD","8202240","2020-12-13 00:00","2020","12","13","00:00","2.2","","2.2","","100","","","","8","","19","","","","102.47","","","","","","NA"
"-63.58","44.66","HALIFAX DOCKYARD","8202240","2020-12-13 01:00","2020","12","13","01:00","2.7","","2.7","","100","","","","10","","21","","","","102.25","","","","","","NA"
"-63.58","44.66","HALIFAX DOCKYARD","8202240","2020-12-13 02:00","2020","12","13","02:00","4.5","","4.5","","100","","","","9","","28","","","","102.10","","","","","","NA"
"-63.58","44.66","HALIFAX DOCKYARD","8202240","2020-12-13 03:00","2020","12","13","03:00","5.5","","5.5","","100","","","","11","","34","","","","101.99","","","","","","NA"
"-63.58","44.66","HALIFAX DOCKYARD","8202240","2020-12-13 04:00","2020","12","13","04:00","5.8","","5.8","","100","","","","12","","39","","","","101.78","","","","","","NA"
"-63.58","44.66","HALIFAX DOCKYARD","8202240","2020-12-13 05:00","2020","12","13","05:00","6.2","","6.2","","100","","","","12","","35","","","","101.62","","","","","","NA"
"-63.58","44.66","HALIFAX DOCKYARD","8202240","2020-12-13 06:00","2020","12","13","06:00","6.5","","6.5","","100","","","","12","","32","","","","101.56","","","","","","NA"
"-63.58","44.66","HALIFAX DOCKYARD","8202240","2020-12-13 07:00","2020","12","13","07:00","6.9","","6.9","","100","","","","9","","31","","","","101.42","","","","","","NA"
"-63.58","44.66","HALIFAX DOCKYARD","8202240","2020-12-13 08:00","2020","12","13","08:00","7.2","","7.2","","100","","","","10","","20","","","","101.38","","","","","","NA"
"-63.58","44.66","HALIFAX DOCKYARD","8202240","2020-12-13 09:00","2020","12","13","09:00","7.5","","7.5","","100","","","","13","","11","","","","101.33","","","","","","NA"
"-63.58","44.66","HALIFAX DOCKYARD","8202240","2020-12-13 10:00","2020","12","13","10:00","8.0","","8.0","","100","","","","15","","12","","","","101.31","","","","","","NA"
"-63.58","44.66","HALIFAX DOCKYARD","8202240","2020-12-13 11:00","2020","12","13","11:00","8.3","","8.3","","100","","","","15","","7","","","","101.26","","","","","","NA"
"-63.58","44.66","HALIFAX DOCKYARD","8202240","2020-12-13 12:00","2020","12","13","12:00","8.9","","8.9","","100","","","","14","","8","","","","101.15","","","","","","NA"
"-63.58","44.66","HALIFAX DOCKYARD","8202240","2020-12-13 13:00","2020","12","13","13:00","8.8","","8.8","","100","","","","13","","10","","","","101.11","","","","","","NA"
"-63.58","44.66","HALIFAX DOCKYARD","8202240","2020-12-13 14:00","2020","12","13","14:00","10.1","","10.1","","100","","","","18","","6","","","","101.08","","","","","","NA"
"-63.58","44.66","HALIFAX DOCKYARD","8202240","2020-12-13 15:00","2020","12","13","15:00","10.2","","10.2","","100","","","","16","","4","","","","101.03","","","","","","NA"
"-63.58","44.66","HALIFAX DOCKYARD","8202240","2020-12-13 16:00","2020","12","13","16:00","9.5","","9.5","","100","","","","14","","7","","","","101.01","","","","","","NA"
"-63.58","44.66","HALIFAX DOCKYARD","8202240","2020-12-13 17:00","2020","12","13","17:00","9.3","","9.3","","100","","","","15","","6","","","","101.00","","","","","","NA"
"-63.58","44.66","HALIFAX DOCKYARD","8202240","2020-12-13 18:00","2020","12","13","18:00","9.6","","9.6","","100","","","","16","","6","","","","101.02","","","","","","NA"
"-63.58","44.66","HALIFAX DOCKYARD","8202240","2020-12-13 19:00","2020","12","13","19:00","9.3","","9.3","","100","","","","17","","10","","","","100.97","","","","","","NA"
"-63.58","44.66","HALIFAX DOCKYARD","8202240","2020-12-13 20:00","2020","12","13","20:00","9.2","","9.1","","100","","","","15","","9","","","","100.96","","","","","","NA"
"-63.58","44.66","HALIFAX DOCKYARD","8202240","2020-12-13 21:00","2020","12","13","21:00","9.5","","9.5","","100","","","","18","","5","","","","100.96","","","","","","NA"
"-63.58","44.66","HALIFAX DOCKYARD","8202240","2020-12-13 22:00","2020","12","13","22:00","9.8","","9.8","","100","","","","23","","7","","","","100.96","","","","","","NA"
"-63.58","44.66","HALIFAX DOCKYARD","8202240","2020-12-13 23:00","2020","12","13","23:00","9.7","","9.7","","100","","","","23","","7","","","","100.93","","","","","","NA"
"-63.58","44.66","HALIFAX DOCKYARD","8202240","2020-12-14 00:00","2020","12","14","00:00","9.4","","9.4","","100","","","","24","","10","","","","100.93","","","","","","NA"
"-63.58","44.66","HALIFAX DOCKYARD","8202240","2020-12-14 01:00","2020","12","14","01:00","9.4","","9.4","","100","","","","22","","9","","","","100.93","","","","","","NA"
"-63.58","44.66","HALIFAX DOCKYARD","8202240","2020-12-14 02:00","2020","12","14","02:00","8.8","","8.8","","100","","","","23","","5","","","","100.94","","","","","","NA"
"-63.58","44.66","HALIFAX DOCKYARD","8202240","2020-12-14 03:00","2020","12","14","03:00","8.7","","8.7","","100","","","","24","","11","","","","100.97","","","","","","NA"
"-63.58","44.66","HALIFAX DOCKYARD","8202240","2020-12-14 04:00","2020","12","14","04:00","8.6","","8.6","","100","","","","28","","14","","","","101.07","","","","","","NA"
"-63.58","44.66","HALIFAX DOCKYARD","8202240","2020-12-14 05:00","2020","12","14","05:00","7.8","","7.8","","100","","","","28","","10","","","","101.02","","","","","","NA"
"-63.58","44.66","HALIFAX DOCKYARD","8202240","2020-12-14 06:00","2020","12","14","06:00","6.9","","6.9","","100","","","","29","","13","","","","101.06","","","","","","NA"
"-63.58","44.66","HALIFAX DOCKYARD","8202240","2020-12-14 07:00","2020","12","14","07:00","6.1","","6.1","","100","","","","30","","9","","","","101.14","","","","","","NA"
"-63.58","44.66","HALIFAX DOCKYARD","8202240","2020-12-14 08:00","2020","12","14","08:00","5.3","","5.3","","100","","","","29","","9","","","","101.14","","","","","","NA"
"-63.58","44.66","HALIFAX DOCKYARD","8202240","2020-12-14 09:00","2020","12","14","09:00","5.2","","5.1","","99","","","","29","","9","","","","101.21","","","","","","NA"
"-63.58","44.66","HALIFAX DOCKYARD","8202240","2020-12-14 10:00","2020","12","14","10:00","5.1","","2.4","","83","","","","31","","14","","","","101.18","","","","","","NA"
"-63.58","44.66","HALIFAX DOCKYARD","8202240","2020-12-14 11:00","2020","12","14","11:00","4.7","","1.6","","80","","","","30","","14","","","","101.15","","","","","","NA"
"-63.58","44.66","HALIFAX DOCKYARD","8202240","2020-12-14 12:00","2020","12","14","12:00","4.7","","1.3","","79","","","","31","","12","","","","101.12","","","","","","NA"
"-63.58","44.66","HALIFAX DOCKYARD","8202240","2020-12-14 13:00","2020","12","14","13:00","4.6","","2.0","","83","","","","31","","16","","","","101.10","","","","","","NA"
"-63.58","44.66","HALIFAX DOCKYARD","8202240","2020-12-14 14:00","2020","12","14","14:00","4.7","","1.2","","78","","","","29","","10","","","","101.09","","","","","","NA"
"-63.58","44.66","HALIFAX DOCKYARD","8202240","2020-12-14 15:00","2020","12","14","15:00","4.5","","1.0","","78","","","","31","","8","","","","100.91","","","","","","NA"
"-63.58","44.66","HALIFAX DOCKYARD","8202240","2020-12-14 16:00","2020","12","14","16:00","4.3","","1.8","","84","","","","3","","6","","","","100.77","","","","","","NA"
"-63.58","44.66","HALIFAX DOCKYARD","8202240","2020-12-14 17:00","2020","12","14","17:00","4.4","","1.9","","84","","","","13","","9","","","","100.70","","","","","","NA"
"-63.58","44.66","HALIFAX DOCKYARD","8202240","2020-12-14 18:00","2020","12","14","18:00","4.4","","3.4","","93","","","","31","","4","","","","100.73","","","","","","NA"
"-63.58","44.66","HALIFAX DOCKYARD","8202240","2020-12-14 19:00","2020","12","14","19:00","4.3","","2.9","","91","","","","29","","4","","","","100.70","","","","","","NA"
"-63.58","44.66","HALIFAX DOCKYARD","8202240","2020-12-14 20:00","2020","12","14","20:00","3.6","","3.6","","100","","","","2","","7","","","","100.61","","","","","","NA"
"-63.58","44.66","HALIFAX DOCKYARD","8202240","2020-12-14 21:00","2020","12","14","21:00","2.8","","2.8","","100","","","","36","","11","","","","100.49","","","","","","NA"
"-63.58","44.66","HALIFAX DOCKYARD","8202240","2020-12-14 22:00","2020","12","14","22:00","2.4","","2.4","","100","","","","36","","9","","","","100.38","","","","","","NA"
"-63.58","44.66","HALIFAX DOCKYARD","8202240","2020-12-14 23:00","2020","12","14","23:00","2.2","","2.2","","100","","","","35","","6","","","","100.23","","","","","","NA"
"-63.58","44.66","HALIFAX DOCKYARD","8202240","2020-12-15 00:00","2020","12","15","00:00","2.3","","2.3","","100","","","","2","","2","","","","100.10","","","","","","NA"
"-63.58","44.66","HALIFAX DOCKYARD","8202240","2020-12-15 01:00","2020","12","15","01:00","2.4","","2.4","","100","","","","33","","7","","","","99.98","","","","","","NA"
"-63.58","44.66","HALIFAX DOCKYARD","8202240","2020-12-15 02:00","2020","12","15","02:00","2.3","","2.3","","100","","","","30","","10","","","","99.96","","","","","","NA"
"-63.58","44.66","HALIFAX DOCKYARD","8202240","2020-12-15 03:00","2020","12","15","03:00","2.1","","2.1","","100","","","","28","","19","","","","99.97","","","","","","NA"
"-63.58","44.66","HALIFAX DOCKYARD","8202240","2020-12-15 04:00","2020","12","15","04:00","2.1","","2.1","","100","","","","28","","15","","","","100.01","","","","","","NA"
"-63.58","44.66","HALIFAX DOCKYARD","8202240","2020-12-15 05:00","2020","12","15","05:00","1.8","","1.3","","97","","","","29","","23","","","","100.03","","","","","","NA"
"-63.58","44.66","HALIFAX DOCKYARD","8202240","2020-12-15 06:00","2020","12","15","06:00","0.9","","0.6","","98","","","","29","","25","","","","100.12","","","","","","NA"
"-63.58","44.66","HALIFAX DOCKYARD","8202240","2020-12-15 07:00","2020","12","15","07:00","-0.3","","-5.4","","68","","","","29","","26","","","","100.25","","","","-6","","NA"
"-63.58","44.66","HALIFAX DOCKYARD","8202240","2020-12-15 08:00","2020","12","15","08:00","-0.4","","-4.0","","76","","","","28","","22","","","","100.32","","","","-6","","NA"
"-63.58","44.66","HALIFAX DOCKYARD","8202240","2020-12-15 09:00","2020","12","15","09:00","-0.5","","-2.6","","85","","","","28","","21","","","","100.38","","","","-6","","NA"
"-63.58","44.66","HALIFAX DOCKYARD","8202240","2020-12-15 10:00","2020","12","15","10:00","-0.3","","-4.3","","74","","","","28","","29","","","","100.47","","","","-7","","NA"
"-63.58","44.66","HALIFAX DOCKYARD","8202240","2020-12-15 11:00","2020","12","15","11:00","0.2","","-3.4","","77","","","","28","","23","","","","100.50","","","","","","NA"
"-63.58","44.66","HALIFAX DOCKYARD","8202240","2020-12-15 12:00","2020","12","15","12:00","-0.3","","-5.3","","69","","","","28","","32","","","","100.49","","","","-7","","NA"
"-63.58","44.66","HALIFAX DOCKYARD","8202240","2020-12-15 13:00","2020","12","15","13:00","-0.1","","-6.1","","64","","","","29","","25","","","","100.53","","","","-6","","NA"
"-63.58","44.66","HALIFAX DOCKYARD","8202240","2020-12-15 14:00","2020","12","15","14:00","-0.8","","-5.4","","71","","","","29","","27","","","","100.60","","","","-7","","NA"
"-63.58","44.66","HALIFAX DOCKYARD","8202240","2020-12-15 15:00","2020","12","15","15:00","-1.3","","-7.1","","64","","","","29","","26","","","","100.71","","","","-8","","NA"
"-63.58","44.66","HALIFAX DOCKYARD","8202240","2020-12-15 16:00","2020","12","15","16:00","-1.7","","-8.0","","62","","","","29","","28","","","","100.82","","","","-8","","NA"
"-63.58","44.66","HALIFAX DOCKYARD","8202240","2020-12-15 17:00","2020","12","15","17:00","-2.4","","-8.8","","61","","","","29","","31","","","","100.92","","","","-10","","NA"
"-63.58","44.66","HALIFAX DOCKYARD","8202240","2020-12-15 18:00","2020","12","15","18:00","-2.8","","-9.3","","60","","","","29","","26","","","","101.05","","","","-10","","NA"
"-63.58","44.66","HALIFAX DOCKYARD","8202240","2020-12-15 19:00","2020","12","15","19:00","-4.1","","-11.2","","58","","","","30","","35","","","","101.20","","","","-12","","NA"
"-63.58","44.66","HALIFAX DOCKYARD","8202240","2020-12-15 20:00","2020","12","15","20:00","-4.5","","-10.5","","63","","","","30","","28","","","","101.35","","","","-12","","NA"
"-63.58","44.66","HALIFAX DOCKYARD","8202240","2020-12-15 21:00","2020","12","15","21:00","-5.5","","-11.7","","62","","","","30","","32","","","","101.43","","","","-14","","NA"
"-63.58","44.66","HALIFAX DOCKYARD","8202240","2020-12-15 22:00","2020","12","15","22:00","-6.4","","-12.6","","61","","","","29","","30","","","","101.55","","","","-15","","NA"
"-63.58","44.66","HALIFAX DOCKYARD","8202240","2020-12-15 23:00","2020","12","15","23:00","-6.9","","-11.5","","70","","","","29","","24","","","","101.62","","","","-15","","NA"
"-63.58","44.66","HALIFAX DOCKYARD","8202240","2020-12-16 00:00","2020","12","16","00:00","-7.4","","-12.6","","66","","","","29","","31","","","","101.69","","","","-16","","NA"
"-63.58","44.66","HALIFAX DOCKYARD","8202240","2020-12-16 01:00","2020","12","16","01:00","-7.9","","-13.0","","67","","","","30","","34","","","","101.68","","","","-17","","NA"
"-63.58","44.66","HALIFAX DOCKYARD","8202240","2020-12-16 02:00","2020","12","16","02:00","-8.1","","-12.5","","71","","","","30","","35","","","","101.73","","","","-18","","NA"
"-63.58","44.66","HALIFAX DOCKYARD","8202240","2020-12-16 03:00","2020","12","16","03:00","-8.4","","-12.3","","73","","","","30","","27","","","","101.89","","","","-17","","NA"
"-63.58","44.66","HALIFAX DOCKYARD","8202240","2020-12-16 04:00","2020","12","16","04:00","-8.6","","-12.4","","74","","","","30","","23","","","","101.95","","","","-17","","NA"
"-63.58","44.66","HALIFAX DOCKYARD","8202240","2020-12-16 05:00","2020","12","16","05:00","-8.9","","-12.4","","75","","","","29","","23","","","","102.07","","","","-17","","NA"
"-63.58","44.66","HALIFAX DOCKYARD","8202240","2020-12-16 06:00","2020","12","16","06:00","-8.6","","-12.0","","77","","","","30","","22","","","","102.15","","","","-16","","NA"
"-63.58","44.66","HALIFAX DOCKYARD","8202240","2020-12-16 07:00","2020","12","16","07:00","-8.2","","-11.1","","79","","","","29","","25","","","","102.19","","","","-16","","NA"
"-63.58","44.66","HALIFAX DOCKYARD","8202240","2020-12-16 08:00","2020","12","16","08:00","-8.4","","-11.5","","79","","","","30","","25","","","","102.27","","","","-17","","NA"
"-63.58","44.66","HALIFAX DOCKYARD","8202240","2020-12-16 09:00","2020","12","16","09:00","-7.8","","-11.1","","77","","","","30","","22","","","","102.37","","","","-15","","NA"
"-63.58","44.66","HALIFAX DOCKYARD","8202240","2020-12-16 10:00","2020","12","16","10:00","-7.1","","-11.7","","69","","","","29","","25","","","","102.47","","","","-15","","NA"
"-63.58","44.66","HALIFAX DOCKYARD","8202240","2020-12-16 11:00","2020","12","16","11:00","-5.7","","-11.5","","64","","","","30","","20","","","","102.46","","","","-12","","NA"
"-63.58","44.66","HALIFAX DOCKYARD","8202240","2020-12-16 12:00","2020","12","16","12:00","-4.5","","-11.5","","58","","","","30","","20","","","","102.41","","","","-11","","NA"
"-63.58","44.66","HALIFAX DOCKYARD","8202240","2020-12-16 13:00","2020","12","16","13:00","-3.4","","-11.7","","53","","","","30","","19","","","","102.40","","","","-9","","NA"
"-63.58","44.66","HALIFAX DOCKYARD","8202240","2020-12-16 14:00","2020","12","16","14:00","-3.0","","-10.9","","54","","","","30","","20","","","","102.41","","","","-9","","NA"
"-63.58","44.66","HALIFAX DOCKYARD","8202240","2020-12-16 15:00","2020","12","16","15:00","-2.8","","-11.8","","50","","","","30","","18","","","","102.45","","","","-8","","NA"
"-63.58","44.66","HALIFAX DOCKYARD","8202240","2020-12-16 16:00","2020","12","16","16:00","-3.8","","-12.6","","50","","","","30","","21","","","","102.51","","","","-10","","NA"
"-63.58","44.66","HALIFAX DOCKYARD","8202240","2020-12-16 17:00","2020","12","16","17:00","-3.8","","-9.6","","64","","","","33","","20","","","","102.62","","","","-10","","NA"
"-63.58","44.66","HALIFAX DOCKYARD","8202240","2020-12-16 18:00","2020","12","16","18:00","-5.3","","-11.8","","60","","","","31","","21","","","","102.71","","","","-12","","NA"
"-63.58","44.66","HALIFAX DOCKYARD","8202240","2020-12-16 19:00","2020","12","16","19:00","-6.2","","-12.2","","62","","","","29","","16","","","","102.73","","","","-12","","NA"
"-63.58","44.66","HALIFAX DOCKYARD","8202240","2020-12-16 20:00","2020","12","16","20:00","-6.4","","-11.5","","67","","","","29","","19","","","","102.70","","","","-13","","NA"
"-63.58","44.66","HALIFAX DOCKYARD","8202240","2020-12-16 21:00","2020","12","16","21:00","-5.7","","-9.4","","75","","","","33","","21","","","","102.73","","","","-13","","NA"
"-63.58","44.66","HALIFAX DOCKYARD","8202240","2020-12-16 22:00","2020","12","16","22:00","-6.7","","-11.0","","71","","","","34","","18","","","","102.70","","","","-13","","NA"
"-63.58","44.66","HALIFAX DOCKYARD","8202240","2020-12-16 23:00","2020","12","16","23:00","-7.0","","-12.8","","63","","","","34","","21","","","","102.71","","","","-14","","NA"
"-63.58","44.66","HALIFAX DOCKYARD","8202240","2020-12-17 00:00","2020","12","17","00:00","-7.4","","-13.0","","64","","","","34","","22","","","","102.65","","","","-15","","NA"
"-63.58","44.66","HALIFAX DOCKYARD","8202240","2020-12-17 01:00","2020","12","17","01:00","-7.7","","-13.5","","63","","","","34","","21","","","","102.65","","","","-15","","NA"
"-63.58","44.66","HALIFAX DOCKYARD","8202240","2020-12-17 02:00","2020","12","17","02:00","-8.1","","-13.9","","63","","","","35","","15","","","","102.64","","","","-14","","NA"
"-63.58","44.66","HALIFAX DOCKYARD","8202240","2020-12-17 03:00","2020","12","17","03:00","-8.4","","-14.0","","63","","","","36","","12","","","","102.61","","","","-14","","NA"
"-63.58","44.66","HALIFAX DOCKYARD","8202240","2020-12-17 04:00","2020","12","17","04:00","-8.1","","-12.2","","72","","","","34","","16","","","","102.60","","","","-15","","NA"
"-63.58","44.66","HALIFAX DOCKYARD","8202240","2020-12-17 05:00","2020","12","17","05:00","-8.9","","-13.2","","71","","","","3","","8","","","","102.56","","","","-13","","NA"
"-63.58","44.66","HALIFAX DOCKYARD","8202240","2020-12-17 06:00","2020","12","17","06:00","-8.9","","-12.1","","78","","","","4","","10","","","","102.57","","","","-14","","NA"
"-63.58","44.66","HALIFAX DOCKYARD","8202240","2020-12-17 07:00","2020","12","17","07:00","-8.7","","-10.6","","86","","","","4","","13","","","","102.54","","","","-15","","NA"
"-63.58","44.66","HALIFAX DOCKYARD","8202240","2020-12-17 08:00","2020","12","17","08:00","-8.0","","-9.2","","91","","","","3","","11","","","","102.31","","","","-13","","NA"
"-63.58","44.66","HALIFAX DOCKYARD","8202240","2020-12-17 09:00","2020","12","17","09:00","-7.0","","-7.4","","97","","","","5","","20","","","","102.09","","","","-14","","NA"
"-63.58","44.66","HALIFAX DOCKYARD","8202240","2020-12-17 10:00","2020","12","17","10:00","-6.1","","-7.5","","90","","","","6","","15","","","","102.19","","","","-12","","NA"
"-63.58","44.66","HALIFAX DOCKYARD","8202240","2020-12-17 11:00","2020","12","17","11:00","-5.2","","-7.1","","86","","","","7","","16","","","","102.17","","","","-11","","NA"
"-63.58","44.66","HALIFAX DOCKYARD","8202240","2020-12-17 12:00","2020","12","17","12:00","-3.9","","-5.8","","87","","","","3","","16","","","","101.96","","","","-9","","NA"
"-63.58","44.66","HALIFAX DOCKYARD","8202240","2020-12-17 13:00","2020","12","17","13:00","-3.2","","-5.3","","85","","","","4","","24","","","","101.78","","","","-10","","NA"
"-63.58","44.66","HALIFAX DOCKYARD","8202240","2020-12-17 14:00","2020","12","17","14:00","-2.6","","-3.5","","94","","","","5","","21","","","","101.60","","","","-9","","NA"
"-63.58","44.66","HALIFAX DOCKYARD","8202240","2020-12-17 15:00","2020","12","17","15:00","-2.3","","-2.3","","100","","","","5","","19","","","","101.54","","","","-8","","NA"
"-63.58","44.66","HALIFAX DOCKYARD","8202240","2020-12-17 16:00","2020","12","17","16:00","-2.4","","-3.1","","95","","","","4","","20","","","","101.54","","","","-8","","NA"
"-63.58","44.66","HALIFAX DOCKYARD","8202240","2020-12-17 17:00","2020","12","17","17:00","-2.9","","-2.9","","100","","","","3","","20","","","","101.53","","","","-9","","NA"
"-63.58","44.66","HALIFAX DOCKYARD","8202240","2020-12-17 18:00","2020","12","17","18:00","-2.5","","-2.5","","100","","","","3","","25","","","","101.48","","","","-9","","NA"
"-63.58","44.66","HALIFAX DOCKYARD","8202240","2020-12-17 19:00","2020","12","17","19:00","-2.7","","-2.7","","100","","","","3","","25","","","","101.43","","","","-9","","NA"
"-63.58","44.66","HALIFAX DOCKYARD","8202240","2020-12-17 20:00","2020","12","17","20:00","-2.6","","-2.6","","100","","","","3","","28","","","","101.31","","","","-10","","NA"
"-63.58","44.66","HALIFAX DOCKYARD","8202240","2020-12-17 21:00","2020","12","17","21:00","-2.0","","-2.0","","100","","","","3","","25","","","","101.25","","","","-8","","NA"
"-63.58","44.66","HALIFAX DOCKYARD","8202240","2020-12-17 22:00","2020","12","17","22:00","-1.5","","-1.5","","100","","","","2","","27","","","","101.24","","","","-8","","NA"
"-63.58","44.66","HALIFAX DOCKYARD","8202240","2020-12-17 23:00","2020","12","17","23:00","-1.8","","-1.8","","100","","","","1","","21","","","","101.29","","","","-8","","NA"
"-63.58","44.66","HALIFAX DOCKYARD","8202240","2020-12-18 00:00","2020","12","18","00:00","-2.0","","-2.0","","100","","","","1","","18","","","","101.33","","","","-7","","NA"
"-63.58","44.66","HALIFAX DOCKYARD","8202240","2020-12-18 01:00","2020","12","18","01:00","-1.9","","-1.9","","100","","","","35","","18","","","","101.29","","","","-7","","NA"
"-63.58","44.66","HALIFAX DOCKYARD","8202240","2020-12-18 02:00","2020","12","18","02:00","-1.6","","-1.6","","100","","","","36","","21","","","","101.29","","","","-7","","NA"
"-63.58","44.66","HALIFAX DOCKYARD","8202240","2020-12-18 03:00","2020","12","18","03:00","-1.5","","-1.5","","100","","","","35","","22","","","","101.35","","","","-7","","NA"
"-63.58","44.66","HALIFAX DOCKYARD","8202240","2020-12-18 04:00","2020","12","18","04:00","-1.0","","-1.0","","100","","","","35","","27","","","","101.35","","","","-7","","NA"
"-63.58","44.66","HALIFAX DOCKYARD","8202240","2020-12-18 05:00","2020","12","18","05:00","-0.9","","-0.9","","100","","","","35","","26","","","","101.37","","","","-7","","NA"
"-63.58","44.66","HALIFAX DOCKYARD","8202240","2020-12-18 06:00","2020","12","18","06:00","-0.5","","-0.5","","100","","","","36","","30","","","","101.36","","","","-7","","NA"
"-63.58","44.66","HALIFAX DOCKYARD","8202240","2020-12-18 07:00","2020","12","18","07:00","-0.1","","-0.1","","100","","","","36","","26","","","","101.40","","","","-6","","NA"
"-63.58","44.66","HALIFAX DOCKYARD","8202240","2020-12-18 08:00","2020","12","18","08:00","0.2","","0.2","","100","","","","36","","28","","","","101.43","","","","","","NA"
"-63.58","44.66","HALIFAX DOCKYARD","8202240","2020-12-18 09:00","2020","12","18","09:00","0.4","","0.4","","100","","","","36","","26","","","","101.43","","","","","","NA"
"-63.58","44.66","HALIFAX DOCKYARD","8202240","2020-12-18 10:00","2020","12","18","10:00","1.1","","1.1","","100","","","","35","","26","","","","101.43","","","","","","NA"
"-63.58","44.66","HALIFAX DOCKYARD","8202240","2020-12-18 11:00","2020","12","18","11:00","1.5","","1.5","","100","","","","35","","28","","","","101.45","","","","","","NA"
"-63.58","44.66","HALIFAX DOCKYARD","8202240","2020-12-18 12:00","2020","12","18","12:00","1.8","","1.8","","100","","","","35","","28","","","","101.38","","","","","","NA"
"-63.58","44.66","HALIFAX DOCKYARD","8202240","2020-12-18 13:00","2020","12","18","13:00","2.0","","2.0","","100","","","","36","","26","","","","101.37","","","","","","NA"
"-63.58","44.66","HALIFAX DOCKYARD","8202240","2020-12-18 14:00","2020","12","18","14:00","1.8","","1.8","","100","","","","35","","25","","","","101.40","","","","","","NA"
"-63.58","44.66","HALIFAX DOCKYARD","8202240","2020-12-18 15:00","2020","12","18","15:00","1.7","","1.7","","100","","","","36","","24","","","","101.47","","","","","","NA"
"-63.58","44.66","HALIFAX DOCKYARD","8202240","2020-12-18 16:00","2020","12","18","16:00","1.9","","1.7","","99","","","","36","","27","","","","101.54","","","","","","NA"
"-63.58","44.66","HALIFAX DOCKYARD","8202240","2020-12-18 17:00","2020","12","18","17:00","1.7","","1.0","","96","","","","36","","26","","","","101.57","","","","","","NA"
"-63.58","44.66","HALIFAX DOCKYARD","8202240","2020-12-18 18:00","2020","12","18","18:00","1.4","","0.6","","95","","","","35","","29","","","","101.61","","","","","","NA"
"-63.58","44.66","HALIFAX DOCKYARD","8202240","2020-12-18 19:00","2020","12","18","19:00","1.3","","0.4","","94","","","","35","","30","","","","101.63","","","","","","NA"
"-63.58","44.66","HALIFAX DOCKYARD","8202240","2020-12-18 20:00","2020","12","18","20:00","1.1","","0.5","","96","","","","35","","27","","","","101.70","","","","","","NA"
"-63.58","44.66","HALIFAX DOCKYARD","8202240","2020-12-18 21:00","2020","12","18","21:00","0.8","","-0.2","","93","","","","35","","29","","","","101.73","","","","","","NA"
"-63.58","44.66","HALIFAX DOCKYARD","8202240","2020-12-18 22:00","2020","12","18","22:00","0.9","","0.8","","100","","","","35","","26","","","","101.76","","","","","","NA"
"-63.58","44.66","HALIFAX DOCKYARD","8202240","2020-12-18 23:00","2020","12","18","23:00","0.7","","-1.0","","89","","","","36","","29","","","","101.74","","","","","","NA"
"-63.58","44.66","HALIFAX DOCKYARD","8202240","2020-12-19 00:00","2020","12","19","00:00","0.7","","-1.3","","87","","","","36","","30","","","","101.77","","","","","","NA"
"-63.58","44.66","HALIFAX DOCKYARD","8202240","2020-12-19 01:00","2020","12","19","01:00","0.4","","0.4","","100","","","","34","","26","","","","101.83","","","","","","NA"
"-63.58","44.66","HALIFAX DOCKYARD","8202240","2020-12-19 02:00","2020","12","19","02:00","0.6","","-0.3","","94","","","","35","","29","","","","101.86","","","","","","NA"
"-63.58","44.66","HALIFAX DOCKYARD","8202240","2020-12-19 03:00","2020","12","19","03:00","0.8","","-0.9","","89","","","","35","","28","","","","101.93","","","","","","NA"
"-63.58","44.66","HALIFAX DOCKYARD","8202240","2020-12-19 04:00","2020","12","19","04:00","0.2","","-0.3","","97","","","","35","","30","","","","101.97","","","","","","NA"
"-63.58","44.66","HALIFAX DOCKYARD","8202240","2020-12-19 05:00","2020","12","19","05:00","0.2","","-0.9","","92","","","","35","","27","","","","101.99","","","","","","NA"
"-63.58","44.66","HALIFAX DOCKYARD","8202240","2020-12-19 06:00","2020","12","19","06:00","0.1","","-0.4","","97","","","","34","","29","","","","102.03","","","","","","NA"
"-63.58","44.66","HALIFAX DOCKYARD","8202240","2020-12-19 07:00","2020","12","19","07:00","0.3","","-1.0","","91","","","","34","","27","","","","102.08","","","","","","NA"
"-63.58","44.66","HALIFAX DOCKYARD","8202240","2020-12-19 08:00","2020","12","19","08:00","0.2","","-2.0","","85","","","","36","","28","","","","102.13","","","","","","NA"
"-63.58","44.66","HALIFAX DOCKYARD","8202240","2020-12-19 09:00","2020","12","19","09:00","0.2","","-2.1","","85","","","","34","","27","","","","102.21","","","","","","NA"
"-63.58","44.66","HALIFAX DOCKYARD","8202240","2020-12-19 10:00","2020","12","19","10:00","0.3","","-2.1","","84","","","","35","","21","","","","102.31","","","","","","NA"
"-63.58","44.66","HALIFAX DOCKYARD","8202240","2020-12-19 11:00","2020","12","19","11:00","0.7","","-1.8","","83","","","","36","","25","","","","102.28","","","","","","NA"
"-63.58","44.66","HALIFAX DOCKYARD","8202240","2020-12-19 12:00","2020","12","19","12:00","0.9","","-2.1","","80","","","","35","","25","","","","102.25","","","","","","NA"
"-63.58","44.66","HALIFAX DOCKYARD","8202240","2020-12-19 13:00","2020","12","19","13:00","1.0","","-2.5","","77","","","","35","","27","","","","102.26","","","","","","NA"
"-63.58","44.66","HALIFAX DOCKYARD","8202240","2020-12-19 14:00","2020","12","19","14:00","0.9","","-2.5","","78","","","","33","","25","","","","102.28","","","","","","NA"
"-63.58","44.66","HALIFAX DOCKYARD","8202240","2020-12-19 15:00","2020","12","19","15:00","1.1","","-1.5","","83","","","","34","","22","","","","102.30","","","","","","NA"
"-63.58","44.66","HALIFAX DOCKYARD","8202240","2020-12-19 16:00","2020","12","19","16:00","0.9","","-2.0","","81","","","","33","","21","","","","102.36","","","","","","NA"
"-63.58","44.66","HALIFAX DOCKYARD","8202240","2020-12-19 17:00","2020","12","19","17:00","0.9","","-1.3","","86","","","","35","","16","","","","102.40","","","","","","NA"
"-63.58","44.66","HALIFAX DOCKYARD","8202240","2020-12-19 18:00","2020","12","19","18:00","0.4","","-3.1","","77","","","","1","","13","","","","102.42","","","","","","NA"
"-63.58","44.66","HALIFAX DOCKYARD","8202240","2020-12-19 19:00","2020","12","19","19:00","0.1","","-3.6","","76","","","","1","","12","","","","102.48","","","","","","NA"
"-63.58","44.66","HALIFAX DOCKYARD","8202240","2020-12-19 20:00","2020","12","19","20:00","0.2","","-2.4","","83","","","","33","","11","","","","102.51","","","","","","NA"
"-63.58","44.66","HALIFAX DOCKYARD","8202240","2020-12-19 21:00","2020","12","19","21:00","-0.2","","-3.5","","78","","","","2","","8","","","","102.54","","","","-3","","NA"
"-63.58","44.66","HALIFAX DOCKYARD","8202240","2020-12-19 22:00","2020","12","19","22:00","-0.3","","-3.5","","79","","","","27","","8","","","","102.55","","","","-3","","NA"
"-63.58","44.66","HALIFAX DOCKYARD","8202240","2020-12-19 23:00","2020","12","19","23:00","-0.5","","-3.3","","82","","","","28","","6","","","","102.53","","","","-3","","NA"
"-63.58","44.66","HALIFAX DOCKYARD","8202240","2020-12-20 00:00","2020","12","20","00:00","-0.7","","-3.3","","83","","","","27","","6","","","","102.53","","","","-3","","NA"
"-63.58","44.66","HALIFAX DOCKYARD","8202240","2020-12-20 01:00","2020","12","20","01:00","-1.0","","-3.5","","83","","","","27","","6","","","","102.49","","","","-3","","NA"
"-63.58","44.66","HALIFAX DOCKYARD","8202240","2020-12-20 02:00","2020","12","20","02:00","-0.9","","-3.1","","85","","","","31","","5","","","","102.49","","","","-3","","NA"
"-63.58","44.66","HALIFAX DOCKYARD","8202240","2020-12-20 03:00","2020","12","20","03:00","-1.3","","-2.7","","90","","","","27","","10","","","","102.55","","","","-5","","NA"
"-63.58","44.66","HALIFAX DOCKYARD","8202240","2020-12-20 04:00","2020","12","20","04:00","-1.3","","-2.8","","89","","","","22","","5","","","","102.49","","","","-3","","NA"
"-63.58","44.66","HALIFAX DOCKYARD","8202240","2020-12-20 05:00","2020","12","20","05:00","-1.5","","-3.0","","90","","","","23","","8","","","","102.51","","","","-5","","NA"
"-63.58","44.66","HALIFAX DOCKYARD","8202240","2020-12-20 06:00","2020","12","20","06:00","-1.5","","-3.1","","89","","","","28","","5","","","","102.54","","","","-3","","NA"
"-63.58","44.66","HALIFAX DOCKYARD","8202240","2020-12-20 07:00","2020","12","20","07:00","-1.1","","-2.6","","89","","","","22","","6","","","","102.52","","","","-3","","NA"
"-63.58","44.66","HALIFAX DOCKYARD","8202240","2020-12-20 08:00","2020","12","20","08:00","-1.0","","-2.2","","92","","","","22","","6","","","","102.54","","","","-3","","NA"
"-63.58","44.66","HALIFAX DOCKYARD","8202240","2020-12-20 09:00","2020","12","20","09:00","-0.7","","-3.0","","84","","","","24","","8","","","","102.61","","","","-4","","NA"
"-63.58","44.66","HALIFAX DOCKYARD","8202240","2020-12-20 10:00","2020","12","20","10:00","0.0","","-2.8","","82","","","","24","","6","","","","102.59","","","","-2","","NA"
"-63.58","44.66","HALIFAX DOCKYARD","8202240","2020-12-20 11:00","2020","12","20","11:00","0.8","","-2.9","","76","","","","26","","6","","","","102.57","","","","","","NA"
"-63.58","44.66","HALIFAX DOCKYARD","8202240","2020-12-20 12:00","2020","12","20","12:00","1.4","","-2.8","","74","","","","23","","8","","","","102.53","","","","","","NA"
"-63.58","44.66","HALIFAX DOCKYARD","8202240","2020-12-20 13:00","2020","12","20","13:00","1.6","","-3.0","","71","","","","22","","7","","","","102.51","","","","","","NA"
"-63.58","44.66","HALIFAX DOCKYARD","8202240","2020-12-20 14:00","2020","12","20","14:00","1.7","","-2.6","","73","","","","20","","8","","","","102.49","","","","","","NA"
"-63.58","44.66","HALIFAX DOCKYARD","8202240","2020-12-20 15:00","2020","12","20","15:00","1.9","","-2.9","","71","","","","24","","6","","","","102.47","","","","","","NA"
"-63.58","44.66","HALIFAX DOCKYARD","8202240","2020-12-20 16:00","2020","12","20","16:00","1.4","","-1.9","","79","","","","19","","6","","","","102.48","","","","","","NA"
"-63.58","44.66","HALIFAX DOCKYARD","8202240","2020-12-20 17:00","2020","12","20","17:00","1.6","","-0.8","","84","","","","16","","5","","","","102.45","","","","","","NA"
"-63.58","44.66","HALIFAX DOCKYARD","8202240","2020-12-20 18:00","2020","12","20","18:00","1.9","","-0.1","","87","","","","14","","8","","","","102.43","","","","","","NA"
"-63.58","44.66","HALIFAX DOCKYARD","8202240","2020-12-20 19:00","2020","12","20","19:00","2.2","","-0.2","","84","","","","18","","7","","","","102.46","","","","","","NA"
"-63.58","44.66","HALIFAX DOCKYARD","8202240","2020-12-20 20:00","2020","12","20","20:00","2.6","","0.9","","89","","","","16","","8","","","","102.39","","","","","","NA"
"-63.58","44.66","HALIFAX DOCKYARD","8202240","2020-12-20 21:00","2020","12","20","21:00","3.1","","1.3","","88","","","","18","","9","","","","102.35","","","","","","NA"
"-63.58","44.66","HALIFAX DOCKYARD","8202240","2020-12-20 22:00","2020","12","20","22:00","3.1","","2.8","","98","","","","15","","12","","","","102.28","","","","","","NA"
"-63.58","44.66","HALIFAX DOCKYARD","8202240","2020-12-20 23:00","2020","12","20","23:00","3.4","","3.4","","100","","","","15","","4","","","","102.26","","","","","","NA"
"-63.58","44.66","HALIFAX DOCKYARD","8202240","2020-12-21 00:00","2020","12","21","00:00","4.0","","4.0","","100","","","","11","","16","","","","102.13","","","","","","NA"
"-63.58","44.66","HALIFAX DOCKYARD","8202240","2020-12-21 01:00","2020","12","21","01:00","5.2","","5.2","","100","","","","14","","22","","","","102.04","","","","","","NA"
"-63.58","44.66","HALIFAX DOCKYARD","8202240","2020-12-21 02:00","2020","12","21","02:00","5.2","","5.2","","100","","","","12","","16","","","","101.97","","","","","","NA"
"-63.58","44.66","HALIFAX DOCKYARD","8202240","2020-12-21 03:00","2020","12","21","03:00","5.6","","5.6","","100","","","","11","","10","","","","101.89","","","","","","NA"
"-63.58","44.66","HALIFAX DOCKYARD","8202240","2020-12-21 04:00","2020","12","21","04:00","5.8","","5.8","","100","","","","10","","15","","","","101.77","","","","","","NA"
"-63.58","44.66","HALIFAX DOCKYARD","8202240","2020-12-21 05:00","2020","12","21","05:00","6.6","","6.6","","100","","","","13","","10","","","","101.66","","","","","","NA"
"-63.58","44.66","HALIFAX DOCKYARD","8202240","2020-12-21 06:00","2020","12","21","06:00","7.4","","7.4","","100","","","","15","","18","","","","101.59","","","","","","NA"
"-63.58","44.66","HALIFAX DOCKYARD","8202240","2020-12-21 07:00","2020","12","21","07:00","7.5","","7.5","","100","","","","17","","11","","","","101.54","","","","","","NA"
"-63.58","44.66","HALIFAX DOCKYARD","8202240","2020-12-21 08:00","2020","12","21","08:00","7.7","","7.7","","100","","","","15","","12","","","","101.47","","","","","","NA"
"-63.58","44.66","HALIFAX DOCKYARD","8202240","2020-12-21 09:00","2020","12","21","09:00","7.2","","7.2","","100","","","","13","","9","","","","101.41","","","","","","NA"
"-63.58","44.66","HALIFAX DOCKYARD","8202240","2020-12-21 10:00","2020","12","21","10:00","7.5","","7.5","","100","","","","15","","12","","","","101.34","","","","","","NA"
"-63.58","44.66","HALIFAX DOCKYARD","8202240","2020-12-21 11:00","2020","12","21","11:00","7.4","","7.4","","100","","","","13","","8","","","","101.22","","","","","","NA"
"-63.58","44.66","HALIFAX DOCKYARD","8202240","2020-12-21 12:00","2020","12","21","12:00","8.4","","8.4","","100","","","","14","","8","","","","101.03","","","","","","NA"
"-63.58","44.66","HALIFAX DOCKYARD","8202240","2020-12-21 13:00","2020","12","21","13:00","8.3","","8.3","","100","","","","14","","7","","","","100.87","","","","","","NA"
"-63.58","44.66","HALIFAX DOCKYARD","8202240","2020-12-21 14:00","2020","12","21","14:00","8.1","","8.1","","100","","","","14","","8","","","","100.75","","","","","","NA"
"-63.58","44.66","HALIFAX DOCKYARD","8202240","2020-12-21 15:00","2020","12","21","15:00","8.3","","8.3","","100","","","","14","","6","","","","100.67","","","","","","NA"
"-63.58","44.66","HALIFAX DOCKYARD","8202240","2020-12-21 16:00","2020","12","21","16:00","7.9","","7.9","","100","","","","14","","8","","","","100.59","","","","","","NA"
"-63.58","44.66","HALIFAX DOCKYARD","8202240","2020-12-21 17:00","2020","12","21","17:00","8.2","","8.2","","100","","","","14","","5","","","","100.46","","","","","","NA"
"-63.58","44.66","HALIFAX DOCKYARD","8202240","2020-12-21 18:00","2020","12","21","18:00","8.9","","8.9","","100","","","","12","","11","","","","100.26","","","","","","NA"
"-63.58","44.66","HALIFAX DOCKYARD","8202240","2020-12-21 19:00","2020","12","21","19:00","9.4","","9.4","","100","","","","1","","6","","","","100.03","","","","","","NA"
"-63.58","44.66","HALIFAX DOCKYARD","8202240","2020-12-21 20:00","2020","12","21","20:00","9.1","","9.1","","100","","","","5","","10","","","","99.88","","","","","","NA"
"-63.58","44.66","HALIFAX DOCKYARD","8202240","2020-12-21 21:00","2020","12","21","21:00","9.2","","9.2","","100","","","","9","","2","","","","99.70","","","","","","NA"
"-63.58","44.66","HALIFAX DOCKYARD","8202240","2020-12-21 22:00","2020","12","21","22:00","8.8","","8.8","","100","","","","10","","1","","","","99.49","","","","","","NA"
"-63.58","44.66","HALIFAX DOCKYARD","8202240","2020-12-21 23:00","2020","12","21","23:00","7.3","","7.3","","100","","","","32","","12","","","","99.30","","","","","","NA"
"-63.58","44.66","HALIFAX DOCKYARD","8202240","2020-12-22 00:00","2020","12","22","00:00","7.5","","7.5","","100","","","","31","","8","","","","99.14","","","","","","NA"
"-63.58","44.66","HALIFAX DOCKYARD","8202240","2020-12-22 01:00","2020","12","22","01:00","7.4","","7.4","","100","","","","29","","4","","","","99.01","","","","","","NA"
"-63.58","44.66","HALIFAX DOCKYARD","8202240","2020-12-22 02:00","2020","12","22","02:00","5.9","","5.9","","100","","","","31","","19","","","","98.94","","","","","","NA"
"-63.58","44.66","HALIFAX DOCKYARD","8202240","2020-12-22 03:00","2020","12","22","03:00","5.4","","5.4","","100","","","","33","","26","","","","98.87","","","","","","NA"
"-63.58","44.66","HALIFAX DOCKYARD","8202240","2020-12-22 04:00","2020","12","22","04:00","4.2","","4.2","","100","","","","33","","20","","","","98.78","","","","","","NA"
"-63.58","44.66","HALIFAX DOCKYARD","8202240","2020-12-22 05:00","2020","12","22","05:00","3.4","","3.4","","100","","","","29","","13","","","","98.86","","","","","","NA"
"-63.58","44.66","HALIFAX DOCKYARD","8202240","2020-12-22 06:00","2020","12","22","06:00","3.1","","3.1","","100","","","","27","","20","","","","98.92","","","","","","NA"
"-63.58","44.66","HALIFAX DOCKYARD","8202240","2020-12-22 07:00","2020","12","22","07:00","3.5","","3.5","","100","","","","28","","15","","","","98.99","","","","","","NA"
"-63.58","44.66","HALIFAX DOCKYARD","8202240","2020-12-22 08:00","2020","12","22","08:00","3.3","","3.3","","100","","","","28","","18","","","","99.13","","","","","","NA"
"-63.58","44.66","HALIFAX DOCKYARD","8202240","2020-12-22 09:00","2020","12","22","09:00","2.8","","2.8","","100","","","","28","","17","","","","99.27","","","","","","NA"
"-63.58","44.66","HALIFAX DOCKYARD","8202240","2020-12-22 10:00","2020","12","22","10:00","3.2","","3.2","","100","","","","27","","15","","","","99.37","","","","","","NA"
"-63.58","44.66","HALIFAX DOCKYARD","8202240","2020-12-22 11:00","2020","12","22","11:00","3.2","","3.2","","100","","","","26","","16","","","","99.48","","","","","","NA"
"-63.58","44.66","HALIFAX DOCKYARD","8202240","2020-12-22 12:00","2020","12","22","12:00","3.2","","3.2","","100","","","","27","","16","","","","99.51","","","","","","NA"
"-63.58","44.66","HALIFAX DOCKYARD","8202240","2020-12-22 13:00","2020","12","22","13:00","3.6","","3.6","","100","","","","27","","18","","","","99.55","","","","","","NA"
"-63.58","44.66","HALIFAX DOCKYARD","8202240","2020-12-22 14:00","2020","12","22","14:00","4.4","","3.3","","93","","","","26","","18","","","","99.61","","","","","","NA"
"-63.58","44.66","HALIFAX DOCKYARD","8202240","2020-12-22 15:00","2020","12","22","15:00","4.7","","1.1","","77","","","","27","","21","","","","99.68","","","","","","NA"
"-63.58","44.66","HALIFAX DOCKYARD","8202240","2020-12-22 16:00","2020","12","22","16:00","4.3","","0.4","","76","","","","26","","20","","","","99.88","","","","","","NA"
"-63.58","44.66","HALIFAX DOCKYARD","8202240","2020-12-22 17:00","2020","12","22","17:00","3.5","","1.2","","85","","","","26","","15","","","","99.99","","","","","","NA"
"-63.58","44.66","HALIFAX DOCKYARD","8202240","2020-12-22 18:00","2020","12","22","18:00","2.9","","0.9","","87","","","","26","","12","","","","100.02","","","","","","NA"
"-63.58","44.66","HALIFAX DOCKYARD","8202240","2020-12-22 19:00","2020","12","22","19:00","2.6","","1.4","","92","","","","27","","14","","","","100.11","","","","","","NA"
"-63.58","44.66","HALIFAX DOCKYARD","8202240","2020-12-22 20:00","2020","12","22","20:00","2.4","","1.8","","96","","","","27","","16","","","","100.22","","","","","","NA"
"-63.58","44.66","HALIFAX DOCKYARD","8202240","2020-12-22 21:00","2020","12","22","21:00","1.9","","1.8","","100","","","","26","","11","","","","100.31","","","","","","NA"
"-63.58","44.66","HALIFAX DOCKYARD","8202240","2020-12-22 22:00","2020","12","22","22:00","1.6","","1.5","","100","","","","25","","10","","","","100.36","","","","","","NA"
"-63.58","44.66","HALIFAX DOCKYARD","8202240","2020-12-22 23:00","2020","12","22","23:00","1.3","","1.3","","100","","","","25","","11","","","","100.40","","","","","","NA"
"-63.58","44.66","HALIFAX DOCKYARD","8202240","2020-12-23 00:00","2020","12","23","00:00","1.4","","1.4","","100","","","","26","","13","","","","100.48","","","","","","NA"
"-63.58","44.66","HALIFAX DOCKYARD","8202240","2020-12-23 01:00","2020","12","23","01:00","1.6","","1.6","","100","","","","26","","14","","","","100.51","","","","","","NA"
"-63.58","44.66","HALIFAX DOCKYARD","8202240","2020-12-23 02:00","2020","12","23","02:00","1.4","","0.1","","91","","","","28","","12","","","","100.60","","","","","","NA"
"-63.58","44.66","HALIFAX DOCKYARD","8202240","2020-12-23 03:00","2020","12","23","03:00","0.9","","0.1","","94","","","","28","","9","","","","100.71","","","","","","NA"
"-63.58","44.66","HALIFAX DOCKYARD","8202240","2020-12-23 04:00","2020","12","23","04:00","0.5","","-0.8","","91","","","","26","","10","","","","100.80","","","","","","NA"
"-63.58","44.66","HALIFAX DOCKYARD","8202240","2020-12-23 05:00","2020","12","23","05:00","0.7","","-0.2","","93","","","","28","","10","","","","100.93","","","","","","NA"
"-63.58","44.66","HALIFAX DOCKYARD","8202240","2020-12-23 06:00","2020","12","23","06:00","1.2","","-0.6","","88","","","","28","","12","","","","101.05","","","","","","NA"
"-63.58","44.66","HALIFAX DOCKYARD","8202240","2020-12-23 07:00","2020","12","23","07:00","1.4","","0.3","","92","","","","27","","16","","","","101.15","","","","","","NA"
"-63.58","44.66","HALIFAX DOCKYARD","8202240","2020-12-23 08:00","2020","12","23","08:00","1.2","","0.4","","95","","","","28","","16","","","","101.28","","","","","","NA"
"-63.58","44.66","HALIFAX DOCKYARD","8202240","2020-12-23 09:00","2020","12","23","09:00","1.2","","-5.7","","60","","","","30","","30","","","","101.47","","","","","","NA"
"-63.58","44.66","HALIFAX DOCKYARD","8202240","2020-12-23 10:00","2020","12","23","10:00","0.9","","-5.2","","64","","","","31","","23","","","","101.66","","","","","","NA"
"-63.58","44.66","HALIFAX DOCKYARD","8202240","2020-12-23 11:00","2020","12","23","11:00","0.3","","-6.8","","59","","","","31","","26","","","","101.77","","","","","","NA"
"-63.58","44.66","HALIFAX DOCKYARD","8202240","2020-12-23 12:00","2020","12","23","12:00","0.2","","-6.3","","62","","","","30","","26","","","","101.78","","","","","","NA"
"-63.58","44.66","HALIFAX DOCKYARD","8202240","2020-12-23 13:00","2020","12","23","13:00","0.0","","-5.7","","65","","","","31","","24","","","","101.90","","","","-6","","NA"
"-63.58","44.66","HALIFAX DOCKYARD","8202240","2020-12-23 14:00","2020","12","23","14:00","0.3","","-8.3","","53","","","","30","","23","","","","101.91","","","","","","NA"
"-63.58","44.66","HALIFAX DOCKYARD","8202240","2020-12-23 15:00","2020","12","23","15:00","-0.4","","-6.2","","65","","","","33","","28","","","","102.08","","","","-7","","NA"
"-63.58","44.66","HALIFAX DOCKYARD","8202240","2020-12-23 16:00","2020","12","23","16:00","-1.4","","-6.9","","66","","","","33","","30","","","","102.26","","","","-8","","NA"
"-63.58","44.66","HALIFAX DOCKYARD","8202240","2020-12-23 17:00","2020","12","23","17:00","-2.2","","-7.2","","69","","","","34","","23","","","","102.40","","","","-8","","NA"
"-63.58","44.66","HALIFAX DOCKYARD","8202240","2020-12-23 18:00","2020","12","23","18:00","-2.4","","-7.1","","70","","","","32","","15","","","","102.56","","","","-7","","NA"
"-63.58","44.66","HALIFAX DOCKYARD","8202240","2020-12-23 19:00","2020","12","23","19:00","-2.6","","-6.9","","72","","","","33","","22","","","","102.67","","","","-9","","NA"
"-63.58","44.66","HALIFAX DOCKYARD","8202240","2020-12-23 20:00","2020","12","23","20:00","-3.3","","-7.2","","75","","","","35","","23","","","","102.78","","","","-10","","NA"
"-63.58","44.66","HALIFAX DOCKYARD","8202240","2020-12-23 21:00","2020","12","23","21:00","-4.2","","-8.1","","74","","","","36","","18","","","","102.90","","","","-10","","NA"
"-63.58","44.66","HALIFAX DOCKYARD","8202240","2020-12-23 22:00","2020","12","23","22:00","-4.8","","-8.6","","74","","","","1","","12","","","","102.97","","","","-10","","NA"
"-63.58","44.66","HALIFAX DOCKYARD","8202240","2020-12-23 23:00","2020","12","23","23:00","-5.7","","-9.9","","72","","","","3","","11","","","","103.07","","","","-10","","NA"
"-63.58","44.66","HALIFAX DOCKYARD","8202240","2020-12-24 00:00","2020","12","24","00:00","-5.8","","-10.1","","71","","","","4","","5","","","","103.15","","","","-8","","NA"
"-63.58","44.66","HALIFAX DOCKYARD","8202240","2020-12-24 01:00","2020","12","24","01:00","-5.2","","-9.0","","74","","","","3","","6","","","","103.18","","","","-8","","NA"
"-63.58","44.66","HALIFAX DOCKYARD","8202240","2020-12-24 02:00","2020","12","24","02:00","-5.6","","-9.4","","75","","","","5","","7","","","","103.20","","","","-9","","NA"
"-63.58","44.66","HALIFAX DOCKYARD","8202240","2020-12-24 03:00","2020","12","24","03:00","-5.2","","-8.7","","76","","","","7","","4","","","","103.28","","","","-7","","NA"
"-63.58","44.66","HALIFAX DOCKYARD","8202240","2020-12-24 04:00","2020","12","24","04:00","-5.0","","-8.1","","79","","","","9","","7","","","","103.26","","","","-8","","NA"
"-63.58","44.66","HALIFAX DOCKYARD","8202240","2020-12-24 05:00","2020","12","24","05:00","-4.4","","-7.0","","82","","","","10","","7","","","","103.29","","","","-8","","NA"
"-63.58","44.66","HALIFAX DOCKYARD","8202240","2020-12-24 06:00","2020","12","24","06:00","-3.7","","-6.1","","83","","","","13","","10","","","","103.34","","","","-8","","NA"
"-63.58","44.66","HALIFAX DOCKYARD","8202240","2020-12-24 07:00","2020","12","24","07:00","-2.5","","-3.7","","92","","","","11","","7","","","","103.37","","","","-5","","NA"
"-63.58","44.66","HALIFAX DOCKYARD","8202240","2020-12-24 08:00","2020","12","24","08:00","-1.5","","-1.9","","97","","","","32","","4","","","","103.41","","","","-3","","NA"
"-63.58","44.66","HALIFAX DOCKYARD","8202240","2020-12-24 09:00","2020","12","24","09:00","1.2","","-2.8","","75","","","","15","","10","","","","103.41","","","","","","NA"
"-63.58","44.66","HALIFAX DOCKYARD","8202240","2020-12-24 10:00","2020","12","24","10:00","3.1","","-1.5","","71","","","","17","","4","","","","103.45","","","","","","NA"
"-63.58","44.66","HALIFAX DOCKYARD","8202240","2020-12-24 11:00","2020","12","24","11:00","4.7","","-0.5","","69","","","","17","","12","","","","103.42","","","","","","NA"
"-63.58","44.66","HALIFAX DOCKYARD","8202240","2020-12-24 12:00","2020","12","24","12:00","5.5","","0.5","","70","","","","18","","12","","","","103.35","","","","","","NA"
"-63.58","44.66","HALIFAX DOCKYARD","8202240","2020-12-24 13:00","2020","12","24","13:00","6.8","","1.4","","69","","","","18","","11","","","","103.33","","","","","","NA"
"-63.58","44.66","HALIFAX DOCKYARD","8202240","2020-12-24 14:00","2020","12","24","14:00","6.6","","2.6","","75","","","","16","","12","","","","103.31","","","","","","NA"
"-63.58","44.66","HALIFAX DOCKYARD","8202240","2020-12-24 15:00","2020","12","24","15:00","6.7","","4.1","","84","","","","14","","15","","","","103.30","","","","","","NA"
"-63.58","44.66","HALIFAX DOCKYARD","8202240","2020-12-24 16:00","2020","12","24","16:00","6.2","","6.2","","100","","","","14","","16","","","","103.26","","","","","","NA"
"-63.58","44.66","HALIFAX DOCKYARD","8202240","2020-12-24 17:00","2020","12","24","17:00","6.6","","6.5","","100","","","","14","","13","","","","103.26","","","","","","NA"
"-63.58","44.66","HALIFAX DOCKYARD","8202240","2020-12-24 18:00","2020","12","24","18:00","7.1","","7.1","","100","","","","15","","12","","","","103.31","","","","","","NA"
"-63.58","44.66","HALIFAX DOCKYARD","8202240","2020-12-24 19:00","2020","12","24","19:00","6.9","","6.9","","100","","","","14","","13","","","","103.29","","","","","","NA"
"-63.58","44.66","HALIFAX DOCKYARD","8202240","2020-12-24 20:00","2020","12","24","20:00","7.7","","7.7","","100","","","","14","","16","","","","103.25","","","","","","NA"
"-63.58","44.66","HALIFAX DOCKYARD","8202240","2020-12-24 21:00","2020","12","24","21:00","8.0","","8.0","","100","","","","15","","15","","","","103.22","","","","","","NA"
"-63.58","44.66","HALIFAX DOCKYARD","8202240","2020-12-24 22:00","2020","12","24","22:00","7.5","","7.5","","100","","","","14","","14","","","","103.20","","","","","","NA"
"-63.58","44.66","HALIFAX DOCKYARD","8202240","2020-12-24 23:00","2020","12","24","23:00","9.5","","9.4","","99","","","","16","","12","","","","103.10","","","","","","NA"
"-63.58","44.66","HALIFAX DOCKYARD","8202240","2020-12-25 00:00","2020","12","25","00:00","7.9","","7.9","","100","","","","14","","16","","","","103.01","","","","","","NA"
"-63.58","44.66","HALIFAX DOCKYARD","8202240","2020-12-25 01:00","2020","12","25","01:00","8.2","","8.2","","100","","","","14","","20","","","","102.92","","","","","","NA"
"-63.58","44.66","HALIFAX DOCKYARD","8202240","2020-12-25 02:00","2020","12","25","02:00","8.9","","8.9","","100","","","","14","","21","","","","102.89","","","","","","NA"
"-63.58","44.66","HALIFAX DOCKYARD","8202240","2020-12-25 03:00","2020","12","25","03:00","8.7","","8.7","","100","","","","14","","20","","","","102.95","","","","","","NA"
"-63.58","44.66","HALIFAX DOCKYARD","8202240","2020-12-25 04:00","2020","12","25","04:00","8.0","","8.0","","100","","","","13","","16","","","","102.83","","","","","","NA"
"-63.58","44.66","HALIFAX DOCKYARD","8202240","2020-12-25 05:00","2020","12","25","05:00","8.7","","8.6","","100","","","","14","","24","","","","102.73","","","","","","NA"
"-63.58","44.66","HALIFAX DOCKYARD","8202240","2020-12-25 06:00","2020","12","25","06:00","9.3","","9.2","","100","","","","15","","21","","","","102.63","","","","","","NA"
"-63.58","44.66","HALIFAX DOCKYARD","8202240","2020-12-25 07:00","2020","12","25","07:00","9.1","","9.1","","100","","","","15","","22","","","","102.62","","","","","","NA"
"-63.58","44.66","HALIFAX DOCKYARD","8202240","2020-12-25 08:00","2020","12","25","08:00","8.0","","8.0","","100","","","","13","","20","","","","102.54","","","","","","NA"
"-63.58","44.66","HALIFAX DOCKYARD","8202240","2020-12-25 09:00","2020","12","25","09:00","9.7","","9.7","","100","","","","14","","20","","","","102.54","","","","","","NA"
"-63.58","44.66","HALIFAX DOCKYARD","8202240","2020-12-25 10:00","2020","12","25","10:00","8.5","","8.4","","100","","","","14","","22","","","","102.52","","","","","","NA"
"-63.58","44.66","HALIFAX DOCKYARD","8202240","2020-12-25 11:00","2020","12","25","11:00","9.9","","9.9","","100","","","","14","","21","","","","102.44","","","","","","NA"
"-63.58","44.66","HALIFAX DOCKYARD","8202240","2020-12-25 12:00","2020","12","25","12:00","8.6","","8.6","","100","","","","13","","22","","","","102.35","","","","","","NA"
"-63.58","44.66","HALIFAX DOCKYARD","8202240","2020-12-25 13:00","2020","12","25","13:00","10.3","","10.3","","100","","","","14","","19","","","","102.24","","","","","","NA"
"-63.58","44.66","HALIFAX DOCKYARD","8202240","2020-12-25 14:00","2020","12","25","14:00","10.4","","10.4","","100","","","","14","","18","","","","102.19","","","","","","NA"
"-63.58","44.66","HALIFAX DOCKYARD","8202240","2020-12-25 15:00","2020","12","25","15:00","10.4","","10.4","","100","","","","14","","20","","","","102.15","","","","","","NA"
"-63.58","44.66","HALIFAX DOCKYARD","8202240","2020-12-25 16:00","2020","12","25","16:00","10.1","","10.1","","100","","","","14","","22","","","","102.07","","","","","","NA"
"-63.58","44.66","HALIFAX DOCKYARD","8202240","2020-12-25 17:00","2020","12","25","17:00","10.2","","10.2","","100","","","","14","","16","","","","102.05","","","","","","NA"
"-63.58","44.66","HALIFAX DOCKYARD","8202240","2020-12-25 18:00","2020","12","25","18:00","9.5","","9.4","","100","","","","14","","23","","","","102.00","","","","","","NA"
"-63.58","44.66","HALIFAX DOCKYARD","8202240","2020-12-25 19:00","2020","12","25","19:00","9.3","","9.3","","100","","","","13","","19","","","","101.93","","","","","","NA"
"-63.58","44.66","HALIFAX DOCKYARD","8202240","2020-12-25 20:00","2020","12","25","20:00","10.4","","10.4","","100","","","","15","","24","","","","101.86","","","","","","NA"
"-63.58","44.66","HALIFAX DOCKYARD","8202240","2020-12-25 21:00","2020","12","25","21:00","10.3","","10.3","","100","","","","15","","28","","","","101.79","","","","","","NA"
"-63.58","44.66","HALIFAX DOCKYARD","8202240","2020-12-25 22:00","2020","12","25","22:00","10.7","","10.7","","100","","","","15","","31","","","","101.75","","","","","","NA"
"-63.58","44.66","HALIFAX DOCKYARD","8202240","2020-12-25 23:00","2020","12","25","23:00","11.0","","11.0","","100","","","","15","","33","","","","101.68","","","","","","NA"
"-63.58","44.66","HALIFAX DOCKYARD","8202240","2020-12-26 00:00","2020","12","26","00:00","10.1","","10.1","","100","","","","14","","23","","","","101.58","","","","","","NA"
"-63.58","44.66","HALIFAX DOCKYARD","8202240","2020-12-26 01:00","2020","12","26","01:00","10.4","","10.4","","100","","","","15","","26","","","","101.48","","","","","","NA"
"-63.58","44.66","HALIFAX DOCKYARD","8202240","2020-12-26 02:00","2020","12","26","02:00","9.8","","9.8","","100","","","","14","","25","","","","101.41","","","","","","NA"
"-63.58","44.66","HALIFAX DOCKYARD","8202240","2020-12-26 03:00","2020","12","26","03:00","9.3","","9.3","","100","","","","14","","27","","","","101.32","","","","","","NA"
"-63.58","44.66","HALIFAX DOCKYARD","8202240","2020-12-26 04:00","2020","12","26","04:00","10.3","","10.3","","100","","","","14","","31","","","","101.21","","","","","","NA"
"-63.58","44.66","HALIFAX DOCKYARD","8202240","2020-12-26 05:00","2020","12","26","05:00","10.3","","10.3","","100","","","","15","","28","","","","101.09","","","","","","NA"
"-63.58","44.66","HALIFAX DOCKYARD","8202240","2020-12-26 06:00","2020","12","26","06:00","10.9","","10.9","","100","","","","15","","32","","","","100.99","","","","","","NA"
"-63.58","44.66","HALIFAX DOCKYARD","8202240","2020-12-26 07:00","2020","12","26","07:00","10.3","","10.3","","100","","","","14","","29","","","","100.93","","","","","","NA"
"-63.58","44.66","HALIFAX DOCKYARD","8202240","2020-12-26 08:00","2020","12","26","08:00","10.2","","10.2","","100","","","","15","","29","","","","100.85","","","","","","NA"
"-63.58","44.66","HALIFAX DOCKYARD","8202240","2020-12-26 09:00","2020","12","26","09:00","10.7","","10.7","","100","","","","15","","32","","","","100.78","","","","","","NA"
"-63.58","44.66","HALIFAX DOCKYARD","8202240","2020-12-26 10:00","2020","12","26","10:00","11.3","","11.3","","100","","","","15","","36","","","","100.67","","","","","","NA"
"-63.58","44.66","HALIFAX DOCKYARD","8202240","2020-12-26 11:00","2020","12","26","11:00","10.9","","10.9","","100","","","","14","","42","","","","100.52","","","","","","NA"
"-63.58","44.66","HALIFAX DOCKYARD","8202240","2020-12-26 12:00","2020","12","26","12:00","11.0","","11.0","","100","","","","14","","40","","","","100.29","","","","","","NA"
"-63.58","44.66","HALIFAX DOCKYARD","8202240","2020-12-26 13:00","2020","12","26","13:00","9.8","","9.8","","100","","","","13","","52","","","","100.03","","","","","","NA"
"-63.58","44.66","HALIFAX DOCKYARD","8202240","2020-12-26 14:00","2020","12","26","14:00","8.7","","8.7","","100","","","","26","","26","","","","100.16","","","","","","NA"
"-63.58","44.66","HALIFAX DOCKYARD","8202240","2020-12-26 15:00","2020","12","26","15:00","4.9","","4.9","","100","","","","28","","24","","","","100.28","","","","","","NA"
"-63.58","44.66","HALIFAX DOCKYARD","8202240","2020-12-26 16:00","2020","12","26","16:00","3.4","","3.4","","100","","","","28","","16","","","","100.30","","","","","","NA"
"-63.58","44.66","HALIFAX DOCKYARD","8202240","2020-12-26 17:00","2020","12","26","17:00","2.0","","2.0","","100","","","","27","","9","","","","100.41","","","","","","NA"
"-63.58","44.66","HALIFAX DOCKYARD","8202240","2020-12-26 18:00","2020","12","26","18:00","1.0","","1.0","","100","","","","14","","2","","","","100.41","","","","","","NA"
"-63.58","44.66","HALIFAX DOCKYARD","8202240","2020-12-26 19:00","2020","12","26","19:00","1.4","","1.4","","100","","","","23","","6","","","","100.43","","","","","","NA"
"-63.58","44.66","HALIFAX DOCKYARD","8202240","2020-12-26 20:00","2020","12","26","20:00","2.3","","-0.8","","80","","","","23","","14","","","","100.51","","","","","","NA"
"-63.58","44.66","HALIFAX DOCKYARD","8202240","2020-12-26 21:00","2020","12","26","21:00","2.2","","-1.2","","78","","","","24","","13","","","","100.55","","","","","","NA"
"-63.58","44.66","HALIFAX DOCKYARD","8202240","2020-12-26 22:00","2020","12","26","22:00","2.2","","-2.0","","74","","","","24","","12","","","","100.62","","","","","","NA"
"-63.58","44.66","HALIFAX DOCKYARD","8202240","2020-12-26 23:00","2020","12","26","23:00","2.4","","-1.9","","73","","","","25","","9","","","","100.65","","","","","","NA"
"-63.58","44.66","HALIFAX DOCKYARD","8202240","2020-12-27 00:00","2020","12","27","00:00","2.6","","-2.2","","71","","","","24","","11","","","","100.75","","","","","","NA"
"-63.58","44.66","HALIFAX DOCKYARD","8202240","2020-12-27 01:00","2020","12","27","01:00","2.8","","-2.6","","68","","","","24","","13","","","","100.85","","","","","","NA"
"-63.58","44.66","HALIFAX DOCKYARD","8202240","2020-12-27 02:00","2020","12","27","02:00","2.8","","-2.2","","70","","","","25","","11","","","","100.96","","","","","","NA"
"-63.58","44.66","HALIFAX DOCKYARD","8202240","2020-12-27 03:00","2020","12","27","03:00","2.6","","-1.1","","77","","","","25","","9","","","","101.08","","","","","","NA"
"-63.58","44.66","HALIFAX DOCKYARD","8202240","2020-12-27 04:00","2020","12","27","04:00","2.2","","0.1","","86","","","","27","","9","","","","101.20","","","","","","NA"
"-63.58","44.66","HALIFAX DOCKYARD","8202240","2020-12-27 05:00","2020","12","27","05:00","1.8","","-0.1","","87","","","","25","","10","","","","101.31","","","","","","NA"
"-63.58","44.66","HALIFAX DOCKYARD","8202240","2020-12-27 06:00","2020","12","27","06:00","1.5","","-0.4","","87","","","","26","","8","","","","101.46","","","","","","NA"
"-63.58","44.66","HALIFAX DOCKYARD","8202240","2020-12-27 07:00","2020","12","27","07:00","1.1","","-0.8","","87","","","","25","","7","","","","101.58","","","","","","NA"
"-63.58","44.66","HALIFAX DOCKYARD","8202240","2020-12-27 08:00","2020","12","27","08:00","0.9","","-0.5","","90","","","","26","","7","","","","101.72","","","","","","NA"
"-63.58","44.66","HALIFAX DOCKYARD","8202240","2020-12-27 09:00","2020","12","27","09:00","2.3","","-1.4","","76","","","","24","","4","","","","101.86","","","","","","NA"
"-63.58","44.66","HALIFAX DOCKYARD","8202240","2020-12-27 10:00","2020","12","27","10:00","2.5","","-1.7","","73","","","","28","","9","","","","101.99","","","","","","NA"
"-63.58","44.66","HALIFAX DOCKYARD","8202240","2020-12-27 11:00","2020","12","27","11:00","2.5","","-4.0","","62","","","","29","","16","","","","102.06","","","","","","NA"
"-63.58","44.66","HALIFAX DOCKYARD","8202240","2020-12-27 12:00","2020","12","27","12:00","2.7","","-5.4","","55","","","","27","","17","","","","102.06","","","","","","NA"
"-63.58","44.66","HALIFAX DOCKYARD","8202240","2020-12-27 13:00","2020","12","27","13:00","2.8","","-4.3","","59","","","","28","","18","","","","102.09","","","","","","NA"
"-63.58","44.66","HALIFAX DOCKYARD","8202240","2020-12-27 14:00","2020","12","27","14:00","3.5","","-4.6","","55","","","","26","","13","","","","102.12","","","","","","NA"
"-63.58","44.66","HALIFAX DOCKYARD","8202240","2020-12-27 15:00","2020","12","27","15:00","3.1","","-6.1","","51","","","","28","","17","","","","102.22","","","","","","NA"
"-63.58","44.66","HALIFAX DOCKYARD","8202240","2020-12-27 16:00","2020","12","27","16:00","2.2","","-5.5","","57","","","","27","","14","","","","102.33","","","","","","NA"
"-63.58","44.66","HALIFAX DOCKYARD","8202240","2020-12-27 17:00","2020","12","27","17:00","1.8","","-4.7","","62","","","","28","","10","","","","102.43","","","","","","NA"
"-63.58","44.66","HALIFAX DOCKYARD","8202240","2020-12-27 18:00","2020","12","27","18:00","1.4","","-4.0","","67","","","","30","","6","","","","102.55","","","","","","NA"
"-63.58","44.66","HALIFAX DOCKYARD","8202240","2020-12-27 19:00","2020","12","27","19:00","0.8","","-4.2","","69","","","","26","","5","","","","102.66","","","","","","NA"
"-63.58","44.66","HALIFAX DOCKYARD","8202240","2020-12-27 20:00","2020","12","27","20:00","0.5","","-5.3","","65","","","","29","","8","","","","102.78","","","","","","NA"
"-63.58","44.66","HALIFAX DOCKYARD","8202240","2020-12-27 21:00","2020","12","27","21:00","-0.2","","-5.5","","67","","","","28","","7","","","","102.86","","","","-3","","NA"
"-63.58","44.66","HALIFAX DOCKYARD","8202240","2020-12-27 22:00","2020","12","27","22:00","-0.5","","-4.4","","75","","","","30","","7","","","","102.92","","","","-3","","NA"
"-63.58","44.66","HALIFAX DOCKYARD","8202240","2020-12-27 23:00","2020","12","27","23:00","-0.9","","-4.7","","75","","","","29","","3","","","","102.97","","","","-2","","NA"
"-63.58","44.66","HALIFAX DOCKYARD","8202240","2020-12-28 00:00","2020","12","28","00:00","-0.7","","-3.7","","80","","","","32","","8","","","","103.00","","","","-4","","NA"
"-63.58","44.66","HALIFAX DOCKYARD","8202240","2020-12-28 01:00","2020","12","28","01:00","-1.6","","-4.4","","81","","","","30","","5","","","","103.01","","","","-3","","NA"
"-63.58","44.66","HALIFAX DOCKYARD","8202240","2020-12-28 02:00","2020","12","28","02:00","-1.2","","-1.9","","95","","","","33","","6","","","","103.06","","","","-3","","NA"
"-63.58","44.66","HALIFAX DOCKYARD","8202240","2020-12-28 03:00","2020","12","28","03:00","-1.5","","-3.5","","86","","","","35","","3","","","","103.08","","","","-3","","NA"
"-63.58","44.66","HALIFAX DOCKYARD","8202240","2020-12-28 04:00","2020","12","28","04:00","-2.2","","-6.7","","71","","","","7","","2","","","","103.11","","","","-3","","NA"
"-63.58","44.66","HALIFAX DOCKYARD","8202240","2020-12-28 05:00","2020","12","28","05:00","-2.4","","-6.9","","71","","","","35","","3","","","","103.14","","","","-4","","NA"
"-63.58","44.66","HALIFAX DOCKYARD","8202240","2020-12-28 06:00","2020","12","28","06:00","-2.0","","-6.8","","70","","","","9","","5","","","","103.10","","","","-4","","NA"
"-63.58","44.66","HALIFAX DOCKYARD","8202240","2020-12-28 07:00","2020","12","28","07:00","-2.2","","-7.2","","68","","","","36","","7","","","","103.13","","","","-5","","NA"
"-63.58","44.66","HALIFAX DOCKYARD","8202240","2020-12-28 08:00","2020","12","28","08:00","-2.4","","-6.4","","74","","","","3","","3","","","","103.12","","","","-4","","NA"
"-63.58","44.66","HALIFAX DOCKYARD","8202240","2020-12-28 09:00","2020","12","28","09:00","-1.5","","-5.9","","72","","","","32","","4","","","","103.14","","","","-3","","NA"
"-63.58","44.66","HALIFAX DOCKYARD","8202240","2020-12-28 10:00","2020","12","28","10:00","0.5","","-3.5","","74","","","","13","","9","","","","103.10","","","","","","NA"
"-63.58","44.66","HALIFAX DOCKYARD","8202240","2020-12-28 11:00","2020","12","28","11:00","1.0","","-3.2","","73","","","","11","","17","","","","103.02","","","","","","NA"
"-63.58","44.66","HALIFAX DOCKYARD","8202240","2020-12-28 12:00","2020","12","28","12:00","2.5","","-2.5","","69","","","","13","","21","","","","102.92","","","","","","NA"
"-63.58","44.66","HALIFAX DOCKYARD","8202240","2020-12-28 13:00","2020","12","28","13:00","3.4","","-0.6","","76","","","","14","","20","","","","102.87","","","","","","NA"
"-63.58","44.66","HALIFAX DOCKYARD","8202240","2020-12-28 14:00","2020","12","28","14:00","4.0","","1.4","","83","","","","13","","24","","","","102.73","","","","","","NA"
"-63.58","44.66","HALIFAX DOCKYARD","8202240","2020-12-28 15:00","2020","12","28","15:00","4.7","","4.4","","98","","","","13","","26","","","","102.61","","","","","","NA"
"-63.58","44.66","HALIFAX DOCKYARD","8202240","2020-12-28 16:00","2020","12","28","16:00","5.1","","5.1","","100","","","","14","","19","","","","102.56","","","","","","NA"
"-63.58","44.66","HALIFAX DOCKYARD","8202240","2020-12-28 17:00","2020","12","28","17:00","6.2","","4.1","","86","","","","15","","21","","","","102.46","","","","","","NA"
"-63.58","44.66","HALIFAX DOCKYARD","8202240","2020-12-28 18:00","2020","12","28","18:00","6.3","","6.3","","100","","","","15","","20","","","","102.38","","","","","","NA"
"-63.58","44.66","HALIFAX DOCKYARD","8202240","2020-12-28 19:00","2020","12","28","19:00","6.5","","6.4","","100","","","","15","","21","","","","102.35","","","","","","NA"
"-63.58","44.66","HALIFAX DOCKYARD","8202240","2020-12-28 20:00","2020","12","28","20:00","6.5","","6.5","","100","","","","15","","19","","","","102.30","","","","","","NA"
"-63.58","44.66","HALIFAX DOCKYARD","8202240","2020-12-28 21:00","2020","12","28","21:00","6.4","","6.4","","100","","","","14","","19","","","","102.17","","","","","","NA"
"-63.58","44.66","HALIFAX DOCKYARD","8202240","2020-12-28 22:00","2020","12","28","22:00","6.9","","6.9","","100","","","","15","","19","","","","102.10","","","","","","NA"
"-63.58","44.66","HALIFAX DOCKYARD","8202240","2020-12-28 23:00","2020","12","28","23:00","6.6","","6.6","","100","","","","14","","11","","","","102.00","","","","","","NA"
"-63.58","44.66","HALIFAX DOCKYARD","8202240","2020-12-29 00:00","2020","12","29","00:00","6.6","","6.6","","100","","","","14","","12","","","","101.88","","","","","","NA"
"-63.58","44.66","HALIFAX DOCKYARD","8202240","2020-12-29 01:00","2020","12","29","01:00","6.6","","6.6","","100","","","","14","","13","","","","101.75","","","","","","NA"
"-63.58","44.66","HALIFAX DOCKYARD","8202240","2020-12-29 02:00","2020","12","29","02:00","6.7","","6.7","","100","","","","13","","11","","","","101.65","","","","","","NA"
"-63.58","44.66","HALIFAX DOCKYARD","8202240","2020-12-29 03:00","2020","12","29","03:00","6.7","","6.7","","100","","","","13","","10","","","","101.57","","","","","","NA"
"-63.58","44.66","HALIFAX DOCKYARD","8202240","2020-12-29 04:00","2020","12","29","04:00","6.8","","6.8","","100","","","","13","","10","","","","101.44","","","","","","NA"
"-63.58","44.66","HALIFAX DOCKYARD","8202240","2020-12-29 05:00","2020","12","29","05:00","7.4","","7.4","","100","","","","16","","4","","","","101.33","","","","","","NA"
"-63.58","44.66","HALIFAX DOCKYARD","8202240","2020-12-29 06:00","2020","12","29","06:00","6.7","","6.7","","100","","","","13","","10","","","","101.27","","","","","","NA"
"-63.58","44.66","HALIFAX DOCKYARD","8202240","2020-12-29 07:00","2020","12","29","07:00","6.5","","6.4","","100","","","","13","","17","","","","101.13","","","","","","NA"
"-63.58","44.66","HALIFAX DOCKYARD","8202240","2020-12-29 08:00","2020","12","29","08:00","7.9","","7.9","","100","","","","23","","10","","","","101.11","","","","","","NA"
"-63.58","44.66","HALIFAX DOCKYARD","8202240","2020-12-29 09:00","2020","12","29","09:00","8.0","","8.0","","100","","","","25","","10","","","","101.09","","","","","","NA"
"-63.58","44.66","HALIFAX DOCKYARD","8202240","2020-12-29 10:00","2020","12","29","10:00","8.2","","8.1","","99","","","","27","","14","","","","101.14","","","","","","NA"
"-63.58","44.66","HALIFAX DOCKYARD","8202240","2020-12-29 11:00","2020","12","29","11:00","7.6","","6.2","","91","","","","28","","18","","","","101.10","","","","","","NA"
"-63.58","44.66","HALIFAX DOCKYARD","8202240","2020-12-29 12:00","2020","12","29","12:00","5.2","","-0.4","","67","","","","31","","18","","","","101.07","","","","","","NA"
"-63.58","44.66","HALIFAX DOCKYARD","8202240","2020-12-29 13:00","2020","12","29","13:00","5.2","","0.5","","72","","","","31","","15","","","","101.04","","","","","","NA"
"-63.58","44.66","HALIFAX DOCKYARD","8202240","2020-12-29 14:00","2020","12","29","14:00","4.3","","-0.6","","71","","","","31","","25","","","","101.05","","","","","","NA"
"-63.58","44.66","HALIFAX DOCKYARD","8202240","2020-12-29 15:00","2020","12","29","15:00","3.9","","-2.0","","65","","","","31","","23","","","","101.08","","","","","","NA"
"-63.58","44.66","HALIFAX DOCKYARD","8202240","2020-12-29 16:00","2020","12","29","16:00","3.5","","-4.2","","57","","","","32","","26","","","","101.14","","","","","","NA"
"-63.58","44.66","HALIFAX DOCKYARD","8202240","2020-12-29 17:00","2020","12","29","17:00","2.2","","-4.5","","61","","","","29","","18","","","","101.21","","","","","","NA"
"-63.58","44.66","HALIFAX DOCKYARD","8202240","2020-12-29 18:00","2020","12","29","18:00","1.2","","-5.4","","61","","","","30","","21","","","","101.26","","","","","","NA"
"-63.58","44.66","HALIFAX DOCKYARD","8202240","2020-12-29 19:00","2020","12","29","19:00","0.7","","-5.5","","63","","","","30","","17","","","","101.38","","","","","","NA"
"-63.58","44.66","HALIFAX DOCKYARD","8202240","2020-12-29 20:00","2020","12","29","20:00","-0.2","","-6.9","","60","","","","30","","23","","","","101.46","","","","-6","","NA"
"-63.58","44.66","HALIFAX DOCKYARD","8202240","2020-12-29 21:00","2020","12","29","21:00","-1.6","","-8.6","","59","","","","31","","25","","","","101.56","","","","-8","","NA"
"-63.58","44.66","HALIFAX DOCKYARD","8202240","2020-12-29 22:00","2020","12","29","22:00","-3.5","","-11.3","","55","","","","30","","32","","","","101.60","","","","-11","","NA"
"-63.58","44.66","HALIFAX DOCKYARD","8202240","2020-12-29 23:00","2020","12","29","23:00","-4.3","","-11.9","","55","","","","31","","30","","","","101.65","","","","-12","","NA"
"-63.58","44.66","HALIFAX DOCKYARD","8202240","2020-12-30 00:00","2020","12","30","00:00","-5.0","","-13.2","","53","","","","31","","33","","","","101.70","","","","-13","","NA"
"-63.58","44.66","HALIFAX DOCKYARD","8202240","2020-12-30 01:00","2020","12","30","01:00","-5.4","","-12.8","","56","","","","30","","25","","","","101.73","","","","-13","","NA"
"-63.58","44.66","HALIFAX DOCKYARD","8202240","2020-12-30 02:00","2020","12","30","02:00","-5.3","","-12.3","","58","","","","29","","21","","","","101.86","","","","-12","","NA"
"-63.58","44.66","HALIFAX DOCKYARD","8202240","2020-12-30 03:00","2020","12","30","03:00","-5.4","","-11.9","","60","","","","30","","24","","","","101.94","","","","-13","","NA"
"-63.58","44.66","HALIFAX DOCKYARD","8202240","2020-12-30 04:00","2020","12","30","04:00","-5.3","","-11.4","","62","","","","30","","22","","","","101.97","","","","-12","","NA"
"-63.58","44.66","HALIFAX DOCKYARD","8202240","2020-12-30 05:00","2020","12","30","05:00","-5.7","","-12.2","","60","","","","29","","20","","","","101.98","","","","-12","","NA"
"-63.58","44.66","HALIFAX DOCKYARD","8202240","2020-12-30 06:00","2020","12","30","06:00","-5.4","","-11.1","","64","","","","29","","22","","","","101.98","","","","-12","","NA"
"-63.58","44.66","HALIFAX DOCKYARD","8202240","2020-12-30 07:00","2020","12","30","07:00","-5.3","","-11.0","","64","","","","28","","18","","","","102.10","","","","-12","","NA"
"-63.58","44.66","HALIFAX DOCKYARD","8202240","2020-12-30 08:00","2020","12","30","08:00","-5.3","","-11.2","","63","","","","28","","19","","","","102.16","","","","-12","","NA"
"-63.58","44.66","HALIFAX DOCKYARD","8202240","2020-12-30 09:00","2020","12","30","09:00","-4.7","","-11.7","","58","","","","30","","24","","","","102.17","","","","-12","","NA"
"-63.58","44.66","HALIFAX DOCKYARD","8202240","2020-12-30 10:00","2020","12","30","10:00","-3.8","","-11.5","","55","","","","29","","24","","","","102.29","","","","-11","","NA"
"-63.58","44.66","HALIFAX DOCKYARD","8202240","2020-12-30 11:00","2020","12","30","11:00","-2.8","","-11.0","","54","","","","30","","21","","","","102.28","","","","-9","","NA"
"-63.58","44.66","HALIFAX DOCKYARD","8202240","2020-12-30 12:00","2020","12","30","12:00","-2.2","","-8.3","","63","","","","32","","28","","","","102.15","","","","-9","","NA"
"-63.58","44.66","HALIFAX DOCKYARD","8202240","2020-12-30 13:00","2020","12","30","13:00","-1.4","","-8.7","","57","","","","31","","21","","","","102.10","","","","-7","","NA"
"-63.58","44.66","HALIFAX DOCKYARD","8202240","2020-12-30 14:00","2020","12","30","14:00","-0.5","","-9.4","","51","","","","29","","19","","","","102.10","","","","-6","","NA"
"-63.58","44.66","HALIFAX DOCKYARD","8202240","2020-12-30 15:00","2020","12","30","15:00","-0.4","","-8.3","","55","","","","31","","20","","","","102.16","","","","-6","","NA"
"-63.58","44.66","HALIFAX DOCKYARD","8202240","2020-12-30 16:00","2020","12","30","16:00","-1.1","","-9.6","","52","","","","31","","15","","","","102.24","","","","-6","","NA"
"-63.58","44.66","HALIFAX DOCKYARD","8202240","2020-12-30 17:00","2020","12","30","17:00","-1.4","","-9.2","","55","","","","30","","13","","","","102.28","","","","-6","","NA"
"-63.58","44.66","HALIFAX DOCKYARD","8202240","2020-12-30 18:00","2020","12","30","18:00","-1.6","","-8.6","","59","","","","29","","8","","","","102.30","","","","-5","","NA"
"-63.58","44.66","HALIFAX DOCKYARD","8202240","2020-12-30 19:00","2020","12","30","19:00","-1.9","","-8.6","","60","","","","24","","4","","","","102.36","","","","-3","","NA"
"-63.58","44.66","HALIFAX DOCKYARD","8202240","2020-12-30 20:00","2020","12","30","20:00","-2.2","","-8.1","","64","","","","22","","6","","","","102.39","","","","-5","","NA"
"-63.58","44.66","HALIFAX DOCKYARD","8202240","2020-12-30 21:00","2020","12","30","21:00","-2.1","","-7.1","","69","","","","26","","5","","","","102.34","","","","-4","","NA"
"-63.58","44.66","HALIFAX DOCKYARD","8202240","2020-12-30 22:00","2020","12","30","22:00","-1.7","","-6.4","","70","","","","22","","3","","","","102.23","","","","-3","","NA"
"-63.58","44.66","HALIFAX DOCKYARD","8202240","2020-12-30 23:00","2020","12","30","23:00","-1.1","","-6.1","","69","","","","19","","4","","","","102.19","","","","-2","","NA"
"-63.58","44.66","HALIFAX DOCKYARD","8202240","2020-12-31 00:00","2020","12","31","00:00","-0.5","","-4.4","","75","","","","15","","6","","","","102.04","","","","-3","","NA"
"-63.58","44.66","HALIFAX DOCKYARD","8202240","2020-12-31 01:00","2020","12","31","01:00","0.8","","-3.1","","75","","","","15","","8","","","","101.96","","","","","","NA"
"-63.58","44.66","HALIFAX DOCKYARD","8202240","2020-12-31 02:00","2020","12","31","02:00","3.0","","-1.2","","74","","","","16","","9","","","","101.82","","","","","","NA"
"-63.58","44.66","HALIFAX DOCKYARD","8202240","2020-12-31 03:00","2020","12","31","03:00","4.9","","1.8","","80","","","","18","","12","","","","101.78","","","","","","NA"
"-63.58","44.66","HALIFAX DOCKYARD","8202240","2020-12-31 04:00","2020","12","31","04:00","5.5","","1.8","","77","","","","17","","14","","","","101.61","","","","","","NA"
"-63.58","44.66","HALIFAX DOCKYARD","8202240","2020-12-31 05:00","2020","12","31","05:00","5.9","","4.3","","89","","","","18","","17","","","","101.45","","","","","","NA"
"-63.58","44.66","HALIFAX DOCKYARD","8202240","2020-12-31 06:00","2020","12","31","06:00","6.7","","6.7","","100","","","","18","","16","","","","101.34","","","","","","NA"
"-63.58","44.66","HALIFAX DOCKYARD","8202240","2020-12-31 07:00","2020","12","31","07:00","7.6","","7.6","","100","","","","18","","22","","","","101.14","","","","","","NA"
"-63.58","44.66","HALIFAX DOCKYARD","8202240","2020-12-31 08:00","2020","12","31","08:00","8.6","","8.6","","100","","","","20","","19","","","","100.96","","","","","","NA"
"-63.58","44.66","HALIFAX DOCKYARD","8202240","2020-12-31 09:00","2020","12","31","09:00","9.1","","9.1","","100","","","","22","","25","","","","100.94","","","","","","NA"
"-63.58","44.66","HALIFAX DOCKYARD","8202240","2020-12-31 10:00","2020","12","31","10:00","9.2","","9.1","","100","","","","21","","24","","","","100.90","","","","","","NA"
"-63.58","44.66","HALIFAX DOCKYARD","8202240","2020-12-31 11:00","2020","12","31","11:00","9.1","","9.1","","100","","","","24","","28","","","","100.88","","","","","","NA"
"-63.58","44.66","HALIFAX DOCKYARD","8202240","2020-12-31 12:00","2020","12","31","12:00","8.6","","8.6","","100","","","","27","","20","","","","100.92","","","","","","NA"
"-63.58","44.66","HALIFAX DOCKYARD","8202240","2020-12-31 13:00","2020","12","31","13:00","7.2","","7.2","","100","","","","29","","18","","","","100.96","","","","","","NA"
"-63.58","44.66","HALIFAX DOCKYARD","8202240","2020-12-31 14:00","2020","12","31","14:00","6.6","","6.6","","100","","","","28","","15","","","","101.02","","","","","","NA"
"-63.58","44.66","HALIFAX DOCKYARD","8202240","2020-12-31 15:00","2020","12","31","15:00","6.5","","6.5","","100","","","","27","","12","","","","101.03","","","","","","NA"
"-63.58","44.66","HALIFAX DOCKYARD","8202240","2020-12-31 16:00","2020","12","31","16:00","6.4","","4.4","","87","","","","28","","23","","","","101.15","","","","","","NA"
"-63.58","44.66","HALIFAX DOCKYARD","8202240","2020-12-31 17:00","2020","12","31","17:00","5.1","","2.6","","84","","","","28","","16","","","","101.24","","","","","","NA"
"-63.58","44.66","HALIFAX DOCKYARD","8202240","2020-12-31 18:00","2020","12","31","18:00","3.9","","0.2","","77","","","","29","","17","","","","101.39","","","","","","NA"
"-63.58","44.66","HALIFAX DOCKYARD","8202240","2020-12-31 19:00","2020","12","31","19:00","3.3","","0.4","","81","","","","27","","15","","","","101.49","","","","","","NA"
"-63.58","44.66","HALIFAX DOCKYARD","8202240","2020-12-31 20:00","2020","12","31","20:00","2.9","","-0.3","","79","","","","27","","16","","","","101.58","","","","","","NA"
"-63.58","44.66","HALIFAX DOCKYARD","8202240","2020-12-31 21:00","2020","12","31","21:00","2.3","","-0.6","","81","","","","27","","12","","","","101.65","","","","","","NA"
"-63.58","44.66","HALIFAX DOCKYARD","8202240","2020-12-31 22:00","2020","12","31","22:00","2.2","","-0.8","","81","","","","27","","13","","","","101.70","","","","","","NA"
"-63.58","44.66","HALIFAX DOCKYARD","8202240","2020-12-31 23:00","2020","12","31","23:00","2.2","","-1.3","","77","","","","27","","14","","","","101.76","","","","","","NA"
