"Longitude (x)","Latitude (y)","Station Name","Climate ID","Date/Time (LST)","Year","Month","Day","Time (LST)","Temp (°C)","Temp Flag","Dew Point Temp (°C)","Dew Point Temp Flag","Rel Hum (%)","Rel Hum Flag","Precip. Amount (mm)","Precip. Amount Flag","Wind Dir (10s deg)","Wind Dir Flag","Wind Spd (km/h)","Wind Spd Flag","Visibility (km)","Visibility Flag","Stn Press (kPa)","Stn Press Flag","Hmdx","Hmdx Flag","Wind Chill","Wind Chill Flag","Weather"
"-115.78","60.84","HAY RIVER A","2202401","2023-04-01 00:00","2023","04","01","00:00","-7.7","","-10.8","","79","","","","11","","20","","2.4","","98.70","","","","-15","","Snow"
"-115.78","60.84","HAY RIVER A","2202401","2023-04-01 01:00","2023","04","01","01:00","-8.0","","-11.0","","79","","","","12","","21","","2.4","","98.66","","","","-16","","Snow"
"-115.78","60.84","HAY RIVER A","2202401","2023-04-01 02:00","2023","04","01","02:00","-8.2","","-11.5","","77","","","","12","","18","","2.4","","98.64","","","","-15","","Snow"
"-115.78","60.84","HAY RIVER A","2202401","2023-04-01 03:00","2023","04","01","03:00","-8.6","","-11.4","","80","","","","12","","16","","1.6","","98.60","","","","-15","","Snow,Blowing Snow"
"-115.78","60.84","HAY RIVER A","2202401","2023-04-01 04:00","2023","04","01","04:00","-8.9","","-11.7","","81","","","","11","","19","","1.2","","98.57","","","","-16","","Snow,Blowing Snow"
"-115.78","60.84","HAY RIVER A","2202401","2023-04-01 05:00","2023","04","01","05:00","-9.2","","-11.9","","81","","","","12","","16","","2.0","","98.56","","","","-16","","Snow,Blowing Snow"
"-115.78","60.84","HAY RIVER A","2202401","2023-04-01 06:00","2023","04","01","06:00","-9.5","","-12.4","","80","","","","12","","21","","2.0","","98.57","","","","-17","","Snow,Blowing Snow"
"-115.78","60.84","HAY RIVER A","2202401","2023-04-01 07:00","2023","04","01","07:00","-9.8","","-13.0","","78","","","","11","","18","","16.1","","98.58","","","","-17","","Snow,Blowing Snow"
"-115.78","60.84","HAY RIVER A","2202401","2023-04-01 08:00","2023","04","01","08:00","-10.0","","-13.5","","76","","","","10","","17","","16.1","","98.58","","","","-17","","Snow"
"-115.78","60.84","HAY RIVER A","2202401","2023-04-01 09:00","2023","04","01","09:00","-9.3","","-12.6","","77","","","","13","","15","","16.1","","98.60","","","","-16","","Snow"
"-115.78","60.84","HAY RIVER A","2202401","2023-04-01 10:00","2023","04","01","10:00","-8.7","","-12.0","","77","","","","13","","14","","1.6","","98.60","","","","-15","","Snow"
"-115.78","60.84","HAY RIVER A","2202401","2023-04-01 11:00","2023","04","01","11:00","-8.2","","-11.8","","76","","","","11","","9","","9.7","","98.61","","","","-13","","Snow"
"-115.78","60.84","HAY RIVER A","2202401","2023-04-01 12:00","2023","04","01","12:00","-8.1","","-12.6","","71","","","","9","","13","","19.3","","98.64","","","","-14","","Snow"
"-115.78","60.84","HAY RIVER A","2202401","2023-04-01 13:00","2023","04","01","13:00","-7.8","","-12.6","","69","","","","8","","9","","24.1","","98.67","","","","-12","","Snow"
"-115.78","60.84","HAY RIVER A","2202401","2023-04-01 14:00","2023","04","01","14:00","-7.6","","-12.0","","71","","","","5","","14","","24.1","","98.69","","","","-14","","Cloudy"
"-115.78","60.84","HAY RIVER A","2202401","2023-04-01 15:00","2023","04","01","15:00","-7.8","","-12.3","","70","","","","8","","17","","24.1","","98.72","","","","-14","","NA"
"-115.78","60.84","HAY RIVER A","2202401","2023-04-01 16:00","2023","04","01","16:00","-7.6","","-12.5","","68","","","","7","","8","","24.1","","98.76","","","","-12","","NA"
"-115.78","60.84","HAY RIVER A","2202401","2023-04-01 17:00","2023","04","01","17:00","-7.5","","-11.2","","75","","","","2","","5","","24.1","","98.80","","","","-10","","Cloudy"
"-115.78","60.84","HAY RIVER A","2202401","2023-04-01 18:00","2023","04","01","18:00","-7.9","","-11.7","","75","","","","35","","7","","24.1","","98.84","","","","-12","","NA"
"-115.78","60.84","HAY RIVER A","2202401","2023-04-01 19:00","2023","04","01","19:00","-8.7","","-11.7","","79","","","","33","","7","","24.1","","98.87","","","","-13","","NA"
"-115.78","60.84","HAY RIVER A","2202401","2023-04-01 20:00","2023","04","01","20:00","-9.1","","-11.5","","82","","","","31","","8","","19.3","","98.92","","","","-13","","Snow"
"-115.78","60.84","HAY RIVER A","2202401","2023-04-01 21:00","2023","04","01","21:00","-9.3","","-11.8","","82","","","","30","","11","","16.1","","98.94","","","","-15","","Snow"
"-115.78","60.84","HAY RIVER A","2202401","2023-04-01 22:00","2023","04","01","22:00","-9.2","","-11.5","","84","","","","31","","9","","16.1","","98.95","","","","-14","","Snow"
"-115.78","60.84","HAY RIVER A","2202401","2023-04-01 23:00","2023","04","01","23:00","-9.4","","-11.7","","84","","","","32","","12","","16.1","","98.97","","","","-15","","Snow"
"-115.78","60.84","HAY RIVER A","2202401","2023-04-02 00:00","2023","04","02","00:00"
"-115.78","60.84","HAY RIVER A","2202401","2023-04-02 01:00","2023","04","02","01:00","-9.6","","-12.0","","83","","","","31","","14","","19.3","","99.05","","","","-16","","NA"
"-115.78","60.84","HAY RIVER A","2202401","2023-04-02 02:00","2023","04","02","02:00","-10.0","","-12.4","","82","","","","32","","19","","16.1","","99.08","","","","-18","","Snow"
"-115.78","60.84","HAY RIVER A","2202401","2023-04-02 03:00","2023","04","02","03:00","-10.1","","-12.6","","82","","","","31","","20","","16.1","","99.12","","","","-18","","Snow"
"-115.78","60.84","HAY RIVER A","2202401","2023-04-02 04:00","2023","04","02","04:00","-10.6","","-13.2","","81","","","","31","","23","","8.1","","99.18","","","","-19","","Snow"
"-115.78","60.84","HAY RIVER A","2202401","2023-04-02 05:00","2023","04","02","05:00","-10.8","","-13.5","","81","","","","31","","19","","4.8","","99.24","","","","-19","","Snow"
"-115.78","60.84","HAY RIVER A","2202401","2023-04-02 06:00","2023","04","02","06:00","-11.1","","-13.8","","81","","","","29","","16","","2.8","","99.30","","","","-18","","Snow"
"-115.78","60.84","HAY RIVER A","2202401","2023-04-02 07:00","2023","04","02","07:00","-11.4","","-14.3","","80","","","","31","","19","","2.8","","99.35","","","","-19","","Snow"
"-115.78","60.84","HAY RIVER A","2202401","2023-04-02 08:00","2023","04","02","08:00","-11.6","","-14.6","","78","","","","31","","18","","2.8","","99.40","","","","-19","","Snow"
"-115.78","60.84","HAY RIVER A","2202401","2023-04-02 09:00","2023","04","02","09:00","-11.0","","-14.5","","76","","","","32","","17","","2.8","","99.45","","","","-18","","Snow"
"-115.78","60.84","HAY RIVER A","2202401","2023-04-02 10:00","2023","04","02","10:00","-10.4","","-14.3","","73","","","","33","","12","","4.0","","99.49","","","","-16","","Snow"
"-115.78","60.84","HAY RIVER A","2202401","2023-04-02 11:00","2023","04","02","11:00","-9.8","","-14.7","","68","","","","34","","8","","4.0","","99.55","","","","-14","","Snow"
"-115.78","60.84","HAY RIVER A","2202401","2023-04-02 12:00","2023","04","02","12:00","-9.2","","-14.6","","65","","","","35","","10","","4.0","","99.58","","","","-14","","Snow"
"-115.78","60.84","HAY RIVER A","2202401","2023-04-02 13:00","2023","04","02","13:00","-7.7","","-14.1","","61","","","","34","","9","","4.0","","99.62","","","","-12","","Snow"
"-115.78","60.84","HAY RIVER A","2202401","2023-04-02 14:00","2023","04","02","14:00","-8.1","","-14.6","","60","","","","32","","8","","19.3","","99.63","","","","-12","","Snow"
"-115.78","60.84","HAY RIVER A","2202401","2023-04-02 15:00","2023","04","02","15:00","-8.6","","-14.8","","61","","","","31","","9","","24.1","","99.66","","","","-13","","Snow"
"-115.78","60.84","HAY RIVER A","2202401","2023-04-02 16:00","2023","04","02","16:00","-8.4","","-14.7","","60","","","","31","","9","","24.1","","99.67","","","","-13","","Snow"
"-115.78","60.84","HAY RIVER A","2202401","2023-04-02 17:00","2023","04","02","17:00","-10.4","","-14.9","","70","","","","8","","10","","24.1","","99.67","","","","-16","","Cloudy"
"-115.78","60.84","HAY RIVER A","2202401","2023-04-02 18:00","2023","04","02","18:00","-11.6","","-15.6","","73","","","","8","","12","","24.1","","99.68","","","","-18","","NA"
"-115.78","60.84","HAY RIVER A","2202401","2023-04-02 19:00","2023","04","02","19:00","-13.1","","-16.8","","74","","","","8","","10","","24.1","","99.69","","","","-19","","NA"
"-115.78","60.84","HAY RIVER A","2202401","2023-04-02 20:00","2023","04","02","20:00","-14.6","","-18.1","","75","","","","9","","8","","24.1","","99.70","","","","-20","","Snow"
"-115.78","60.84","HAY RIVER A","2202401","2023-04-02 21:00","2023","04","02","21:00","-16.6","","-19.4","","80","","","","11","","3","","24.1","","99.69","","","","-19","","NA"
"-115.78","60.84","HAY RIVER A","2202401","2023-04-02 22:00","2023","04","02","22:00","-17.1","","-19.6","","81","","","","9","","7","","24.1","","99.67","","","","-22","","NA"
"-115.78","60.84","HAY RIVER A","2202401","2023-04-02 23:00","2023","04","02","23:00","-15.8","","-18.7","","79","","","","11","","4","","24.1","","99.66","","","","-19","","Mostly Cloudy"
"-115.78","60.84","HAY RIVER A","2202401","2023-04-03 00:00","2023","04","03","00:00","-16.4","","-19.0","","80","","","","12","","3","","24.1","","99.66","","","","-19","","NA"
"-115.78","60.84","HAY RIVER A","2202401","2023-04-03 01:00","2023","04","03","01:00","-16.5","","-20.0","","75","","","","8","","4","","24.1","","99.67","","","","-20","","NA"
"-115.78","60.84","HAY RIVER A","2202401","2023-04-03 02:00","2023","04","03","02:00","-19.2","","-22.1","","78","","","","9","","5","","24.1","","99.67","","","","-23","","Mostly Cloudy"
"-115.78","60.84","HAY RIVER A","2202401","2023-04-03 03:00","2023","04","03","03:00","-19.2","","-22.1","","78","","","","11","","3","","24.1","","99.68","","","","-22","","NA"
"-115.78","60.84","HAY RIVER A","2202401","2023-04-03 04:00","2023","04","03","04:00","-20.4","","-23.3","","78","","","","8","","6","","24.1","","99.70","","","","-25","","NA"
"-115.78","60.84","HAY RIVER A","2202401","2023-04-03 05:00","2023","04","03","05:00","-21.9","","-24.8","","78","","","","8","","9","","24.1","","99.71","","","","-29","","Mainly Clear"
"-115.78","60.84","HAY RIVER A","2202401","2023-04-03 06:00","2023","04","03","06:00","-20.3","","-22.8","","81","","","","8","","11","","24.1","","99.74","","","","-28","","NA"
"-115.78","60.84","HAY RIVER A","2202401","2023-04-03 07:00","2023","04","03","07:00","-18.2","","-21.2","","78","","","","9","","9","","24.1","","99.75","","","","-25","","NA"
"-115.78","60.84","HAY RIVER A","2202401","2023-04-03 08:00","2023","04","03","08:00","-14.7","","-17.9","","77","","","","7","","12","","24.1","","99.76","","","","-22","","Mostly Cloudy"
"-115.78","60.84","HAY RIVER A","2202401","2023-04-03 09:00","2023","04","03","09:00","-14.2","","-18.7","","69","","","","7","","13","","24.1","","99.76","","","","-21","","NA"
"-115.78","60.84","HAY RIVER A","2202401","2023-04-03 10:00","2023","04","03","10:00","-12.9","","-18.4","","64","","","","8","","15","","24.1","","99.78","","","","-20","","NA"
"-115.78","60.84","HAY RIVER A","2202401","2023-04-03 11:00","2023","04","03","11:00","-10.8","","-16.8","","62","","","","8","","15","","24.1","","99.81","","","","-18","","Mostly Cloudy"
"-115.78","60.84","HAY RIVER A","2202401","2023-04-03 12:00","2023","04","03","12:00","-10.5","","-16.0","","65","","","","8","","19","","24.1","","99.84","","","","-18","","NA"
"-115.78","60.84","HAY RIVER A","2202401","2023-04-03 13:00","2023","04","03","13:00","-8.7","","-15.4","","59","","","","7","","14","","24.1","","99.88","","","","-15","","NA"
"-115.78","60.84","HAY RIVER A","2202401","2023-04-03 14:00","2023","04","03","14:00","-9.3","","-14.8","","64","","","","8","","21","","24.1","","99.91","","","","-17","","Mostly Cloudy"
"-115.78","60.84","HAY RIVER A","2202401","2023-04-03 15:00","2023","04","03","15:00","-9.6","","-15.1","","65","","","","7","","21","","24.1","","99.96","","","","-18","","NA"
"-115.78","60.84","HAY RIVER A","2202401","2023-04-03 16:00","2023","04","03","16:00","-9.7","","-15.1","","65","","","","5","","12","","24.1","","100.00","","","","-16","","NA"
"-115.78","60.84","HAY RIVER A","2202401","2023-04-03 17:00","2023","04","03","17:00","-9.5","","-15.6","","62","","","","4","","14","","24.1","","100.04","","","","-16","","Cloudy"
"-115.78","60.84","HAY RIVER A","2202401","2023-04-03 18:00","2023","04","03","18:00","-11.0","","-16.2","","66","","","","4","","9","","24.1","","100.07","","","","-16","","NA"
"-115.78","60.84","HAY RIVER A","2202401","2023-04-03 19:00","2023","04","03","19:00","-11.3","","-16.4","","66","","","","3","","8","","24.1","","100.12","","","","-16","","NA"
"-115.78","60.84","HAY RIVER A","2202401","2023-04-03 20:00","2023","04","03","20:00","-16.8","","-20.0","","76","","","","34","","3","","24.1","","100.17","","","","-19","","Mostly Cloudy"
"-115.78","60.84","HAY RIVER A","2202401","2023-04-03 21:00","2023","04","03","21:00","-15.2","","-17.7","","81","","","","36","","3","","24.1","","100.20","","","","-17","","NA"
"-115.78","60.84","HAY RIVER A","2202401","2023-04-03 22:00","2023","04","03","22:00","-15.9","","-18.4","","81","","","","33","","7","","24.1","","100.24","","","","-21","","NA"
"-115.78","60.84","HAY RIVER A","2202401","2023-04-03 23:00","2023","04","03","23:00","-15.4","","-18.3","","79","","","","36","","1","","24.1","","100.24","","","","-16","","Mostly Cloudy"
"-115.78","60.84","HAY RIVER A","2202401","2023-04-04 00:00","2023","04","04","00:00","-15.2","","-18.2","","78","","","","36","","2","","24.1","","100.26","","","","-17","","NA"
"-115.78","60.84","HAY RIVER A","2202401","2023-04-04 01:00","2023","04","04","01:00","-15.6","","-18.6","","78","","","","17","","4","","24.1","","100.27","","","","-19","","Snow"
"-115.78","60.84","HAY RIVER A","2202401","2023-04-04 02:00","2023","04","04","02:00","-18.5","","-22.1","","73","","","","36","","1","","24.1","","100.31","","","","-19","","Mainly Clear"
"-115.78","60.84","HAY RIVER A","2202401","2023-04-04 03:00","2023","04","04","03:00","-19.5","","-22.3","","78","","","","36","","1","","24.1","","100.31","","","","-20","","NA"
"-115.78","60.84","HAY RIVER A","2202401","2023-04-04 04:00","2023","04","04","04:00","-20.7","","-23.8","","77","","","","15","","3","","24.1","","100.34","","","","-23","","NA"
"-115.78","60.84","HAY RIVER A","2202401","2023-04-04 05:00","2023","04","04","05:00","-22.0","","-25.1","","76","","","","13","","3","","24.1","","100.36","","","","-25","","Mainly Clear"
"-115.78","60.84","HAY RIVER A","2202401","2023-04-04 06:00","2023","04","04","06:00","-22.1","","-25.3","","76","","","","15","","5","","24.1","","100.36","","","","-27","","NA"
"-115.78","60.84","HAY RIVER A","2202401","2023-04-04 07:00","2023","04","04","07:00","-19.9","","-23.1","","76","","","","15","","7","","24.1","","100.37","","","","-26","","NA"
"-115.78","60.84","HAY RIVER A","2202401","2023-04-04 08:00","2023","04","04","08:00","-14.6","","-17.8","","77","","","","15","","6","","24.1","","100.38","","","","-19","","Mainly Clear"
"-115.78","60.84","HAY RIVER A","2202401","2023-04-04 09:00","2023","04","04","09:00","-6.9","","-13.8","","58","","","","17","","8","","24.1","","100.37","","","","-11","","NA"
"-115.78","60.84","HAY RIVER A","2202401","2023-04-04 10:00","2023","04","04","10:00","-5.3","","-14.3","","49","","","","18","","7","","24.1","","100.36","","","","-9","","NA"
"-115.78","60.84","HAY RIVER A","2202401","2023-04-04 11:00","2023","04","04","11:00","-4.7","","-14.6","","46","","","","18","","7","","24.1","","100.34","","","","-8","","Mainly Clear"
"-115.78","60.84","HAY RIVER A","2202401","2023-04-04 12:00","2023","04","04","12:00","-5.2","","-14.0","","51","","","","8","","8","","24.1","","100.30","","","","-9","","NA"
"-115.78","60.84","HAY RIVER A","2202401","2023-04-04 13:00","2023","04","04","13:00","-5.8","","-13.8","","54","","","","7","","13","","24.1","","100.27","","","","-11","","NA"
"-115.78","60.84","HAY RIVER A","2202401","2023-04-04 14:00","2023","04","04","14:00","-6.3","","-13.4","","57","","","","7","","19","","24.1","","100.23","","","","-13","","Clear"
"-115.78","60.84","HAY RIVER A","2202401","2023-04-04 15:00","2023","04","04","15:00","-6.3","","-13.6","","57","","","","7","","22","","24.1","","100.19","","","","-14","","NA"
"-115.78","60.84","HAY RIVER A","2202401","2023-04-04 16:00","2023","04","04","16:00","-7.3","","-14.0","","59","","","","8","","23","","24.1","","100.16","","","","-15","","NA"
"-115.78","60.84","HAY RIVER A","2202401","2023-04-04 17:00","2023","04","04","17:00","-8.6","","-14.8","","61","","","","8","","18","","24.1","","100.12","","","","-16","","Clear"
"-115.78","60.84","HAY RIVER A","2202401","2023-04-04 18:00","2023","04","04","18:00","-10.0","","-15.7","","64","","","","8","","21","","24.1","","100.07","","","","-18","","NA"
"-115.78","60.84","HAY RIVER A","2202401","2023-04-04 19:00","2023","04","04","19:00","-12.0","","-16.9","","67","","","","8","","21","","24.1","","100.02","","","","-21","","NA"
"-115.78","60.84","HAY RIVER A","2202401","2023-04-04 20:00","2023","04","04","20:00","-14.6","","-17.8","","77","","","","8","","14","","24.1","","99.99","","","","-22","","Mainly Clear"
"-115.78","60.84","HAY RIVER A","2202401","2023-04-04 21:00","2023","04","04","21:00","-15.6","","-18.8","","76","","","","8","","10","","24.1","","99.95","","","","-22","","NA"
"-115.78","60.84","HAY RIVER A","2202401","2023-04-04 22:00","2023","04","04","22:00","-14.0","","-18.0","","73","","","","9","","13","","24.1","","99.89","","","","-21","","NA"
"-115.78","60.84","HAY RIVER A","2202401","2023-04-04 23:00","2023","04","04","23:00","-15.3","","-18.6","","76","","","","12","","9","","24.1","","99.85","","","","-21","","Mainly Clear"
"-115.78","60.84","HAY RIVER A","2202401","2023-04-05 00:00","2023","04","05","00:00","-14.7","","-18.3","","75","","","","11","","8","","24.1","","99.79","","","","-20","","NA"
"-115.78","60.84","HAY RIVER A","2202401","2023-04-05 01:00","2023","04","05","01:00","-13.8","","-17.5","","74","","","","11","","10","","24.1","","99.75","","","","-20","","NA"
"-115.78","60.84","HAY RIVER A","2202401","2023-04-05 02:00","2023","04","05","02:00","-14.4","","-17.1","","81","","","","15","","8","","24.1","","99.72","","","","-20","","Mainly Clear"
"-115.78","60.84","HAY RIVER A","2202401","2023-04-05 03:00","2023","04","05","03:00","-15.6","","-18.4","","79","","","","12","","5","","24.1","","99.66","","","","-19","","NA"
"-115.78","60.84","HAY RIVER A","2202401","2023-04-05 04:00","2023","04","05","04:00","-14.7","","-17.4","","80","","","","14","","8","","24.1","","99.62","","","","-20","","NA"
"-115.78","60.84","HAY RIVER A","2202401","2023-04-05 05:00","2023","04","05","05:00","-15.3","","-18.1","","80","","","","15","","9","","24.1","","99.59","","","","-21","","Mainly Clear"
"-115.78","60.84","HAY RIVER A","2202401","2023-04-05 06:00","2023","04","05","06:00","-13.7","","-16.4","","81","","","","15","","15","","24.1","","99.59","","","","-21","","NA"
"-115.78","60.84","HAY RIVER A","2202401","2023-04-05 07:00","2023","04","05","07:00","-12.3","","-15.5","","77","","","","16","","14","","24.1","","99.57","","","","-19","","NA"
"-115.78","60.84","HAY RIVER A","2202401","2023-04-05 08:00","2023","04","05","08:00","-9.4","","-13.9","","70","","","","16","","15","","24.1","","99.55","","","","-16","","Mainly Clear"
"-115.78","60.84","HAY RIVER A","2202401","2023-04-05 09:00","2023","04","05","09:00","-5.2","","-11.9","","60","","","","16","","17","","24.1","","99.50","","","","-11","","NA"
"-115.78","60.84","HAY RIVER A","2202401","2023-04-05 10:00","2023","04","05","10:00","-1.3","","-10.4","","50","","","","16","","27","","24.1","","99.43","","","","-8","","NA"
"-115.78","60.84","HAY RIVER A","2202401","2023-04-05 11:00","2023","04","05","11:00","0.9","","-9.1","","47","","","","17","","16","","24.1","","99.38","","","","","","Clear"
"-115.78","60.84","HAY RIVER A","2202401","2023-04-05 12:00","2023","04","05","12:00","3.1","","-8.2","","43","","","","15","","19","","24.1","","99.33","","","","","","NA"
"-115.78","60.84","HAY RIVER A","2202401","2023-04-05 13:00","2023","04","05","13:00","3.6","","-9.3","","38","","","","15","","21","","24.1","","99.30","","","","","","NA"
"-115.78","60.84","HAY RIVER A","2202401","2023-04-05 14:00","2023","04","05","14:00","4.0","","-10.2","","35","","","","16","","18","","24.1","","99.26","","","","","","Mainly Clear"
"-115.78","60.84","HAY RIVER A","2202401","2023-04-05 15:00","2023","04","05","15:00","4.3","","-11.3","","31","","","","16","","17","","24.1","","99.24","","","","","","NA"
"-115.78","60.84","HAY RIVER A","2202401","2023-04-05 16:00","2023","04","05","16:00","4.3","","-10.7","","33","","","","16","","18","","24.1","","99.19","","","","","","NA"
"-115.78","60.84","HAY RIVER A","2202401","2023-04-05 17:00","2023","04","05","17:00","3.7","","-11.2","","33","","","","16","","19","","24.1","","99.15","","","","","","Mainly Clear"
"-115.78","60.84","HAY RIVER A","2202401","2023-04-05 18:00","2023","04","05","18:00","3.7","","-11.7","","32","","","","14","","16","","24.1","","99.12","","","","","","NA"
"-115.78","60.84","HAY RIVER A","2202401","2023-04-05 19:00","2023","04","05","19:00","2.1","","-10.6","","39","","","","13","","12","","24.1","","99.11","","","","","","NA"
"-115.78","60.84","HAY RIVER A","2202401","2023-04-05 20:00","2023","04","05","20:00","-0.6","","-10.2","","48","","","","12","","16","","24.1","","99.08","","","","-5","","Mainly Clear"
"-115.78","60.84","HAY RIVER A","2202401","2023-04-05 21:00","2023","04","05","21:00","-1.0","","-8.1","","58","","","","13","","15","","24.1","","99.05","","","","-6","","NA"
"-115.78","60.84","HAY RIVER A","2202401","2023-04-05 22:00","2023","04","05","22:00","-1.2","","-7.6","","62","","","","14","","16","","24.1","","99.02","","","","-6","","NA"
"-115.78","60.84","HAY RIVER A","2202401","2023-04-05 23:00","2023","04","05","23:00","-2.4","","-8.3","","64","","","","15","","14","","24.1","","99.01","","","","-7","","Mostly Cloudy"
"-115.78","60.84","HAY RIVER A","2202401","2023-04-06 00:00","2023","04","06","00:00","-3.1","","-8.9","","64","","","","16","","16","","24.1","","99.01","","","","-8","","NA"
"-115.78","60.84","HAY RIVER A","2202401","2023-04-06 01:00","2023","04","06","01:00","-4.0","","-9.2","","67","","","","16","","16","","24.1","","98.97","","","","-10","","NA"
"-115.78","60.84","HAY RIVER A","2202401","2023-04-06 02:00","2023","04","06","02:00","-4.3","","-8.8","","71","","","","15","","11","","24.1","","98.94","","","","-9","","Mostly Cloudy"
"-115.78","60.84","HAY RIVER A","2202401","2023-04-06 03:00","2023","04","06","03:00","-4.3","","-8.9","","71","","","","15","","14","","24.1","","98.91","","","","-9","","NA"
"-115.78","60.84","HAY RIVER A","2202401","2023-04-06 04:00","2023","04","06","04:00","-4.3","","-8.8","","71","","","","15","","15","","24.1","","98.87","","","","-10","","NA"
"-115.78","60.84","HAY RIVER A","2202401","2023-04-06 05:00","2023","04","06","05:00","-5.0","","-9.3","","72","","","","15","","15","","24.1","","98.81","","","","-11","","Mostly Cloudy"
"-115.78","60.84","HAY RIVER A","2202401","2023-04-06 06:00","2023","04","06","06:00","-5.2","","-9.3","","73","","","","15","","14","","24.1","","98.79","","","","-11","","NA"
"-115.78","60.84","HAY RIVER A","2202401","2023-04-06 07:00","2023","04","06","07:00","-4.5","","-8.9","","71","","","","16","","17","","24.1","","98.74","","","","-10","","NA"
"-115.78","60.84","HAY RIVER A","2202401","2023-04-06 08:00","2023","04","06","08:00","-2.4","","-8.1","","65","","","","16","","18","","24.1","","98.72","","","","-8","","Mainly Clear"
"-115.78","60.84","HAY RIVER A","2202401","2023-04-06 09:00","2023","04","06","09:00","0.6","","-6.9","","57","","","","16","","22","","24.1","","98.68","","","","","","NA"
"-115.78","60.84","HAY RIVER A","2202401","2023-04-06 10:00","2023","04","06","10:00","3.6","","-6.0","","50","","","","17","","19","","24.1","","98.65","","","","","","NA"
"-115.78","60.84","HAY RIVER A","2202401","2023-04-06 11:00","2023","04","06","11:00","4.5","","-7.1","","43","","","","17","","23","","24.1","","98.60","","","","","","Mostly Cloudy"
"-115.78","60.84","HAY RIVER A","2202401","2023-04-06 12:00","2023","04","06","12:00","6.2","","-6.9","","39","","","","16","","21","","24.1","","98.53","","","","","","NA"
"-115.78","60.84","HAY RIVER A","2202401","2023-04-06 13:00","2023","04","06","13:00","8.3","","-6.1","","35","","","","14","","19","","24.1","","98.47","","","","","","NA"
"-115.78","60.84","HAY RIVER A","2202401","2023-04-06 14:00","2023","04","06","14:00","9.6","","-6.6","","31","","","","15","","21","","24.1","","98.42","","","","","","Mainly Clear"
"-115.78","60.84","HAY RIVER A","2202401","2023-04-06 15:00","2023","04","06","15:00","9.6","","-5.8","","33","","","","14","","22","","24.1","","98.37","","","","","","NA"
"-115.78","60.84","HAY RIVER A","2202401","2023-04-06 16:00","2023","04","06","16:00","8.9","","-5.1","","37","","","","15","","27","","24.1","","98.31","","","","","","NA"
"-115.78","60.84","HAY RIVER A","2202401","2023-04-06 17:00","2023","04","06","17:00","8.7","","-4.6","","39","","","","14","","20","","24.1","","98.26","","","","","","Mainly Clear"
"-115.78","60.84","HAY RIVER A","2202401","2023-04-06 18:00","2023","04","06","18:00","8.2","","-4.4","","41","","","","14","","18","","24.1","","98.20","","","","","","NA"
"-115.78","60.84","HAY RIVER A","2202401","2023-04-06 19:00","2023","04","06","19:00","7.6","","-4.3","","43","","","","15","","18","","24.1","","98.16","","","","","","NA"
"-115.78","60.84","HAY RIVER A","2202401","2023-04-06 20:00","2023","04","06","20:00","5.5","","-4.3","","49","","","","14","","12","","24.1","","98.13","","","","","","Mainly Clear"
"-115.78","60.84","HAY RIVER A","2202401","2023-04-06 21:00","2023","04","06","21:00","4.2","","-4.2","","55","","","","14","","13","","24.1","","98.08","","","","","","NA"
"-115.78","60.84","HAY RIVER A","2202401","2023-04-06 22:00","2023","04","06","22:00","3.7","","-4.2","","56","","","","15","","14","","24.1","","98.03","","","","","","NA"
"-115.78","60.84","HAY RIVER A","2202401","2023-04-06 23:00","2023","04","06","23:00","3.5","","-4.3","","57","","","","16","","17","","24.1","","97.99","","","","","","Mainly Clear"
"-115.78","60.84","HAY RIVER A","2202401","2023-04-07 00:00","2023","04","07","00:00","3.2","","-4.3","","58","","","","16","","21","","24.1","","97.96","","","","","","NA"
"-115.78","60.84","HAY RIVER A","2202401","2023-04-07 01:00","2023","04","07","01:00","2.8","","-4.6","","58","","","","16","","21","","24.1","","97.93","","","","","","NA"
"-115.78","60.84","HAY RIVER A","2202401","2023-04-07 02:00","2023","04","07","02:00","2.2","","-4.9","","59","","","","16","","19","","24.1","","97.90","","","","","","Mainly Clear"
"-115.78","60.84","HAY RIVER A","2202401","2023-04-07 03:00","2023","04","07","03:00","1.2","","-5.1","","63","","","","16","","19","","24.1","","97.86","","","","","","NA"
"-115.78","60.84","HAY RIVER A","2202401","2023-04-07 04:00","2023","04","07","04:00","0.8","","-5.3","","63","","","","16","","21","","24.1","","97.83","","","","","","NA"
"-115.78","60.84","HAY RIVER A","2202401","2023-04-07 05:00","2023","04","07","05:00","1.2","","-5.3","","62","","","","16","","19","","24.1","","97.77","","","","","","Mostly Cloudy"
"-115.78","60.84","HAY RIVER A","2202401","2023-04-07 06:00","2023","04","07","06:00","1.4","","-5.2","","61","","","","16","","19","","24.1","","97.70","","","","","","NA"
"-115.78","60.84","HAY RIVER A","2202401","2023-04-07 07:00","2023","04","07","07:00","1.6","","-5.2","","61","","","","16","","19","","24.1","","97.65","","","","","","NA"
"-115.78","60.84","HAY RIVER A","2202401","2023-04-07 08:00","2023","04","07","08:00","4.3","","-3.9","","55","","","","18","","17","","24.1","","97.62","","","","","","Mostly Cloudy"
"-115.78","60.84","HAY RIVER A","2202401","2023-04-07 09:00","2023","04","07","09:00","7.5","","-3.8","","45","","","","19","","22","","24.1","","97.58","","","","","","NA"
"-115.78","60.84","HAY RIVER A","2202401","2023-04-07 10:00","2023","04","07","10:00","8.4","","-3.9","","42","","","","19","","28","","24.1","","97.54","","","","","","NA"
"-115.78","60.84","HAY RIVER A","2202401","2023-04-07 11:00","2023","04","07","11:00","9.6","","-3.2","","41","","","","18","","26","","24.1","","97.50","","","","","","Mostly Cloudy"
"-115.78","60.84","HAY RIVER A","2202401","2023-04-07 12:00","2023","04","07","12:00","9.8","","-3.0","","40","","","","19","","30","","22.5","","97.46","","","","","","NA"
"-115.78","60.84","HAY RIVER A","2202401","2023-04-07 13:00","2023","04","07","13:00","10.1","","-2.4","","42","","","","17","","23","","24.1","","97.43","","","","","","NA"
"-115.78","60.84","HAY RIVER A","2202401","2023-04-07 14:00","2023","04","07","14:00","11.2","","-2.1","","39","","","","19","","24","","32.2","","97.39","","","","","","Mainly Clear"
"-115.78","60.84","HAY RIVER A","2202401","2023-04-07 15:00","2023","04","07","15:00","11.4","","-1.8","","40","","","","19","","22","","24.1","","97.37","","","","","","NA"
"-115.78","60.84","HAY RIVER A","2202401","2023-04-07 16:00","2023","04","07","16:00","11.3","","-1.9","","40","","","","18","","32","","24.1","","97.32","","","","","","NA"
"-115.78","60.84","HAY RIVER A","2202401","2023-04-07 17:00","2023","04","07","17:00","10.9","","-1.9","","41","","","","18","","19","","24.1","","97.30","","","","","","Mostly Cloudy"
"-115.78","60.84","HAY RIVER A","2202401","2023-04-07 18:00","2023","04","07","18:00","11.6","","-2.0","","39","","","","19","","17","","24.1","","97.28","","","","","","NA"
"-115.78","60.84","HAY RIVER A","2202401","2023-04-07 19:00","2023","04","07","19:00","8.6","","-2.0","","47","","","","17","","21","","24.1","","97.26","","","","","","NA"
"-115.78","60.84","HAY RIVER A","2202401","2023-04-07 20:00","2023","04","07","20:00","7.1","","-2.0","","52","","","","17","","14","","24.1","","97.29","","","","","","Mostly Cloudy"
"-115.78","60.84","HAY RIVER A","2202401","2023-04-07 21:00","2023","04","07","21:00","5.5","","-2.1","","58","","","","16","","17","","24.1","","97.28","","","","","","NA"
"-115.78","60.84","HAY RIVER A","2202401","2023-04-07 22:00","2023","04","07","22:00","5.3","","-2.1","","59","","","","16","","16","","24.1","","97.26","","","","","","NA"
"-115.78","60.84","HAY RIVER A","2202401","2023-04-07 23:00","2023","04","07","23:00","5.6","","-2.2","","57","","","","16","","20","","24.1","","97.24","","","","","","Mostly Cloudy"
"-115.78","60.84","HAY RIVER A","2202401","2023-04-08 00:00","2023","04","08","00:00","5.0","","-2.3","","59","","","","17","","21","","24.1","","97.25","","","","","","NA"
"-115.78","60.84","HAY RIVER A","2202401","2023-04-08 01:00","2023","04","08","01:00","4.1","","-2.4","","63","","","","16","","20","","24.1","","97.25","","","","","","NA"
"-115.78","60.84","HAY RIVER A","2202401","2023-04-08 02:00","2023","04","08","02:00","3.8","","-2.4","","64","","","","19","","17","","24.1","","97.23","","","","","","Mostly Cloudy"
"-115.78","60.84","HAY RIVER A","2202401","2023-04-08 03:00","2023","04","08","03:00","4.0","","-2.7","","62","","","","18","","19","","24.1","","97.19","","","","","","NA"
"-115.78","60.84","HAY RIVER A","2202401","2023-04-08 04:00","2023","04","08","04:00","3.2","","-3.1","","64","","","","17","","21","","24.1","","97.18","","","","","","NA"
"-115.78","60.84","HAY RIVER A","2202401","2023-04-08 05:00","2023","04","08","05:00","4.4","","-4.1","","54","","","","19","","20","","24.1","","97.16","","","","","","Mainly Clear"
"-115.78","60.84","HAY RIVER A","2202401","2023-04-08 06:00","2023","04","08","06:00"
"-115.78","60.84","HAY RIVER A","2202401","2023-04-08 07:00","2023","04","08","07:00"
"-115.78","60.84","HAY RIVER A","2202401","2023-04-08 08:00","2023","04","08","08:00"
"-115.78","60.84","HAY RIVER A","2202401","2023-04-08 09:00","2023","04","08","09:00"
"-115.78","60.84","HAY RIVER A","2202401","2023-04-08 10:00","2023","04","08","10:00"
"-115.78","60.84","HAY RIVER A","2202401","2023-04-08 11:00","2023","04","08","11:00"
"-115.78","60.84","HAY RIVER A","2202401","2023-04-08 12:00","2023","04","08","12:00"
"-115.78","60.84","HAY RIVER A","2202401","2023-04-08 13:00","2023","04","08","13:00"
"-115.78","60.84","HAY RIVER A","2202401","2023-04-08 14:00","2023","04","08","14:00"
"-115.78","60.84","HAY RIVER A","2202401","2023-04-08 15:00","2023","04","08","15:00"
"-115.78","60.84","HAY RIVER A","2202401","2023-04-08 16:00","2023","04","08","16:00"
"-115.78","60.84","HAY RIVER A","2202401","2023-04-08 17:00","2023","04","08","17:00"
"-115.78","60.84","HAY RIVER A","2202401","2023-04-08 18:00","2023","04","08","18:00","2.3","","-1.2","","78","","","","31","","10","","24.1","","97.82","","","","","","NA"
"-115.78","60.84","HAY RIVER A","2202401","2023-04-08 19:00","2023","04","08","19:00","2.0","","-1.3","","79","","","","28","","7","","24.1","","97.87","","","","","","NA"
"-115.78","60.84","HAY RIVER A","2202401","2023-04-08 20:00","2023","04","08","20:00","1.4","","-1.5","","81","","","","28","","4","","24.1","","97.91","","","","","","Mostly Cloudy"
"-115.78","60.84","HAY RIVER A","2202401","2023-04-08 21:00","2023","04","08","21:00","0.8","","-1.9","","82","","","","34","","4","","24.1","","97.96","","","","","","NA"
"-115.78","60.84","HAY RIVER A","2202401","2023-04-08 22:00","2023","04","08","22:00","-0.4","","-2.6","","85","","","","2","","5","","24.1","","97.99","","","","-2","","NA"
"-115.78","60.84","HAY RIVER A","2202401","2023-04-08 23:00","2023","04","08","23:00","-1.9","","-3.8","","87","","","","36","","1","","24.1","","98.01","","","","-2","","Mostly Cloudy"
"-115.78","60.84","HAY RIVER A","2202401","2023-04-09 00:00","2023","04","09","00:00","-2.6","","-3.5","","94","","","","8","","3","","24.1","","98.05","","","","-4","","NA"
"-115.78","60.84","HAY RIVER A","2202401","2023-04-09 01:00","2023","04","09","01:00","-2.9","","-3.3","","97","","","","36","","3","","24.1","","98.10","","","","-4","","NA"
"-115.78","60.84","HAY RIVER A","2202401","2023-04-09 02:00","2023","04","09","02:00","-4.2","","-4.7","","96","","","","36","","1","","24.1","","98.14","","","","-5","","Mostly Cloudy"
"-115.78","60.84","HAY RIVER A","2202401","2023-04-09 03:00","2023","04","09","03:00","-4.5","","-5.1","","96","","","","8","","4","","24.1","","98.14","","","","-6","","NA"
"-115.78","60.84","HAY RIVER A","2202401","2023-04-09 04:00","2023","04","09","04:00","-4.4","","-4.9","","97","","","","10","","4","","24.1","","98.19","","","","-6","","NA"
"-115.78","60.84","HAY RIVER A","2202401","2023-04-09 05:00","2023","04","09","05:00","-4.8","","-5.2","","96","","","","36","","3","","4.8","","98.24","","","","-6","","Fog"
"-115.78","60.84","HAY RIVER A","2202401","2023-04-09 06:00","2023","04","09","06:00","-4.8","","-5.3","","96","","","","7","","6","","1.0","","98.25","","","","-8","","Fog"
"-115.78","60.84","HAY RIVER A","2202401","2023-04-09 07:00","2023","04","09","07:00","-3.4","","-3.7","","98","","","","10","","5","","1.0","","98.29","","","","-5","","Fog"
"-115.78","60.84","HAY RIVER A","2202401","2023-04-09 08:00","2023","04","09","08:00","-0.6","","-3.0","","84","","","","9","","10","","24.1","","98.29","","","","-4","","Clear"
"-115.78","60.84","HAY RIVER A","2202401","2023-04-09 09:00","2023","04","09","09:00","2.5","","-2.4","","70","","","","8","","11","","24.1","","98.31","","","","","","NA"
"-115.78","60.84","HAY RIVER A","2202401","2023-04-09 10:00","2023","04","09","10:00","3.7","","-2.4","","64","","","","7","","14","","24.1","","98.35","","","","","","NA"
"-115.78","60.84","HAY RIVER A","2202401","2023-04-09 11:00","2023","04","09","11:00","3.7","","-2.2","","65","","","","7","","19","","24.1","","98.30","","","","","","Mainly Clear"
"-115.78","60.84","HAY RIVER A","2202401","2023-04-09 12:00","2023","04","09","12:00","4.2","","-1.8","","65","","","","8","","20","","24.1","","98.30","","","","","","NA"
"-115.78","60.84","HAY RIVER A","2202401","2023-04-09 13:00","2023","04","09","13:00","4.2","","-1.6","","66","","","","7","","21","","24.1","","98.24","","","","","","NA"
"-115.78","60.84","HAY RIVER A","2202401","2023-04-09 14:00","2023","04","09","14:00","4.7","","-1.3","","65","","","","7","","21","","24.1","","98.13","","","","","","Mainly Clear"
"-115.78","60.84","HAY RIVER A","2202401","2023-04-09 15:00","2023","04","09","15:00","6.5","","-1.3","","57","","","","7","","13","","24.1","","98.11","","","","","","NA"
"-115.78","60.84","HAY RIVER A","2202401","2023-04-09 16:00","2023","04","09","16:00","10.1","","-1.7","","43","","","","13","","18","","24.1","","98.06","","","","","","NA"
"-115.78","60.84","HAY RIVER A","2202401","2023-04-09 17:00","2023","04","09","17:00","6.0","","-1.7","","58","","","","7","","16","","24.1","","97.97","","","","","","Mostly Cloudy"
"-115.78","60.84","HAY RIVER A","2202401","2023-04-09 18:00","2023","04","09","18:00","5.7","","-1.0","","62","","","","7","","17","","24.1","","97.82","","","","","","NA"
"-115.78","60.84","HAY RIVER A","2202401","2023-04-09 19:00","2023","04","09","19:00","5.1","","-0.8","","66","","","","10","","14","","24.1","","97.74","","","","","","NA"
"-115.78","60.84","HAY RIVER A","2202401","2023-04-09 20:00","2023","04","09","20:00","6.7","","-1.1","","57","","","","11","","19","","24.1","","97.62","","","","","","Cloudy"
"-115.78","60.84","HAY RIVER A","2202401","2023-04-09 21:00","2023","04","09","21:00","6.3","","-1.2","","59","","","","12","","19","","24.1","","97.58","","","","","","NA"
"-115.78","60.84","HAY RIVER A","2202401","2023-04-09 22:00","2023","04","09","22:00","6.0","","-1.5","","58","","","","14","","13","","24.1","","97.57","","","","","","NA"
"-115.78","60.84","HAY RIVER A","2202401","2023-04-09 23:00","2023","04","09","23:00","5.6","","-2.1","","58","","","","14","","11","","24.1","","97.52","","","","","","Cloudy"
"-115.78","60.84","HAY RIVER A","2202401","2023-04-10 00:00","2023","04","10","00:00","4.2","","-0.7","","70","","","","12","","17","","19.3","","97.36","","","","","","Rain"
"-115.78","60.84","HAY RIVER A","2202401","2023-04-10 01:00","2023","04","10","01:00","5.4","","0.2","","69","","","","12","","21","","24.1","","97.25","","","","","","NA"
"-115.78","60.84","HAY RIVER A","2202401","2023-04-10 02:00","2023","04","10","02:00","5.2","","0.2","","70","","","","12","","15","","24.1","","97.16","","","","","","Cloudy"
"-115.78","60.84","HAY RIVER A","2202401","2023-04-10 03:00","2023","04","10","03:00","4.8","","0.6","","74","","","","12","","18","","24.1","","97.08","","","","","","NA"
"-115.78","60.84","HAY RIVER A","2202401","2023-04-10 04:00","2023","04","10","04:00","3.6","","1.6","","87","","","","12","","14","","19.3","","97.02","","","","","","Rain"
"-115.78","60.84","HAY RIVER A","2202401","2023-04-10 05:00","2023","04","10","05:00","3.0","","2.7","","98","","","","13","","8","","19.3","","96.96","","","","","","Rain"
"-115.78","60.84","HAY RIVER A","2202401","2023-04-10 06:00","2023","04","10","06:00","2.8","","2.8","","100","","","","13","","11","","24.1","","96.93","","","","","","Rain"
"-115.78","60.84","HAY RIVER A","2202401","2023-04-10 07:00","2023","04","10","07:00","3.0","","2.8","","99","","","","24","","18","","24.1","","96.96","","","","","","Rain"
"-115.78","60.84","HAY RIVER A","2202401","2023-04-10 08:00","2023","04","10","08:00","2.2","","1.0","","92","","","","23","","14","","24.1","","97.05","","","","","","Rain"
"-115.78","60.84","HAY RIVER A","2202401","2023-04-10 09:00","2023","04","10","09:00","1.8","","0.7","","93","","","","25","","21","","16.1","","97.06","","","","","","Rain"
"-115.78","60.84","HAY RIVER A","2202401","2023-04-10 10:00","2023","04","10","10:00","2.1","","0.9","","92","","","","24","","22","","24.1","","97.11","","","","","","Rain"
"-115.78","60.84","HAY RIVER A","2202401","2023-04-10 11:00","2023","04","10","11:00","2.8","","1.2","","90","","","","25","","28","","24.1","","97.15","","","","","","Rain"
"-115.78","60.84","HAY RIVER A","2202401","2023-04-10 12:00","2023","04","10","12:00","3.1","","1.0","","86","","","","25","","30","","24.1","","97.25","","","","","","Rain"
"-115.78","60.84","HAY RIVER A","2202401","2023-04-10 13:00","2023","04","10","13:00","3.0","","0.6","","84","","","","26","","28","","24.1","","97.34","","","","","","Rain"
"-115.78","60.84","HAY RIVER A","2202401","2023-04-10 14:00","2023","04","10","14:00","3.0","","0.3","","82","","","","25","","28","","24.1","","97.44","","","","","","Rain"
"-115.78","60.84","HAY RIVER A","2202401","2023-04-10 15:00","2023","04","10","15:00","3.1","","-0.1","","80","","","","25","","27","","24.1","","97.52","","","","","","Rain"
"-115.78","60.84","HAY RIVER A","2202401","2023-04-10 16:00","2023","04","10","16:00","2.7","","0.0","","82","","","","25","","34","","24.1","","97.60","","","","","","Rain"
"-115.78","60.84","HAY RIVER A","2202401","2023-04-10 17:00","2023","04","10","17:00","2.0","","0.4","","89","","","","26","","23","","19.3","","97.67","","","","","","Rain,Snow"
"-115.78","60.84","HAY RIVER A","2202401","2023-04-10 18:00","2023","04","10","18:00","1.9","","1.0","","94","","","","26","","20","","19.3","","97.73","","","","","","Rain,Snow"
"-115.78","60.84","HAY RIVER A","2202401","2023-04-10 19:00","2023","04","10","19:00","1.7","","0.7","","93","","","","27","","22","","19.3","","97.74","","","","","","Rain"
"-115.78","60.84","HAY RIVER A","2202401","2023-04-10 20:00","2023","04","10","20:00","1.2","","0.5","","95","","","","28","","20","","24.1","","97.78","","","","","","Rain"
"-115.78","60.84","HAY RIVER A","2202401","2023-04-10 21:00","2023","04","10","21:00","0.8","","0.2","","95","","","","27","","19","","19.3","","97.83","","","","","","Rain"
"-115.78","60.84","HAY RIVER A","2202401","2023-04-10 22:00","2023","04","10","22:00","0.4","","0.0","","98","","","","25","","13","","4.0","","97.87","","","","","","Rain,Snow"
"-115.78","60.84","HAY RIVER A","2202401","2023-04-10 23:00","2023","04","10","23:00","0.2","","0.1","","99","","","","27","","10","","4.0","","97.90","","","","","","Rain,Snow"
"-115.78","60.84","HAY RIVER A","2202401","2023-04-11 00:00","2023","04","11","00:00","-0.1","","-0.2","","99","","","","30","","17","","4.8","","97.95","","","","-5","","Snow"
"-115.78","60.84","HAY RIVER A","2202401","2023-04-11 01:00","2023","04","11","01:00","-0.3","","-0.4","","99","","","","30","","14","","4.8","","98.01","","","","-5","","Snow"
"-115.78","60.84","HAY RIVER A","2202401","2023-04-11 02:00","2023","04","11","02:00","-0.8","","-1.2","","97","","","","31","","14","","3.2","","98.07","","","","-5","","Snow"
"-115.78","60.84","HAY RIVER A","2202401","2023-04-11 03:00","2023","04","11","03:00","-1.2","","-1.8","","96","","","","32","","14","","2.4","","98.09","","","","-6","","Snow"
"-115.78","60.84","HAY RIVER A","2202401","2023-04-11 04:00","2023","04","11","04:00","-1.6","","-2.3","","96","","","","36","","7","","2.4","","98.15","","","","-4","","Snow"
"-115.78","60.84","HAY RIVER A","2202401","2023-04-11 05:00","2023","04","11","05:00","-2.9","","-4.4","","89","","","","3","","8","","1.6","","98.20","","","","-6","","Snow"
"-115.78","60.84","HAY RIVER A","2202401","2023-04-11 06:00","2023","04","11","06:00","-3.5","","-5.2","","88","","","","5","","6","","2.0","","98.23","","","","-6","","Snow"
"-115.78","60.84","HAY RIVER A","2202401","2023-04-11 07:00","2023","04","11","07:00","-4.0","","-6.0","","86","","","","5","","9","","2.0","","98.30","","","","-8","","Snow"
"-115.78","60.84","HAY RIVER A","2202401","2023-04-11 08:00","2023","04","11","08:00","-4.0","","-6.6","","82","","","","6","","9","","2.0","","98.34","","","","-8","","Snow"
"-115.78","60.84","HAY RIVER A","2202401","2023-04-11 09:00","2023","04","11","09:00","-3.5","","-6.5","","79","","","","4","","7","","2.0","","98.38","","","","-6","","Snow"
"-115.78","60.84","HAY RIVER A","2202401","2023-04-11 10:00","2023","04","11","10:00","-2.6","","-6.8","","73","","","","5","","3","","3.2","","98.42","","","","-4","","Snow"
"-115.78","60.84","HAY RIVER A","2202401","2023-04-11 11:00","2023","04","11","11:00","-2.0","","-6.2","","73","","","","32","","9","","3.2","","98.47","","","","-5","","Snow"
"-115.78","60.84","HAY RIVER A","2202401","2023-04-11 12:00","2023","04","11","12:00","-0.7","","-6.0","","68","","","","33","","6","","1.6","","98.50","","","","-3","","Snow"
"-115.78","60.84","HAY RIVER A","2202401","2023-04-11 13:00","2023","04","11","13:00","0.0","","-5.7","","66","","","","33","","7","","1.6","","98.52","","","","-2","","Snow"
"-115.78","60.84","HAY RIVER A","2202401","2023-04-11 14:00","2023","04","11","14:00","-1.0","","-5.7","","71","","","","33","","10","","4.0","","98.56","","","","-5","","Snow"
"-115.78","60.84","HAY RIVER A","2202401","2023-04-11 15:00","2023","04","11","15:00","-1.7","","-5.8","","74","","","","32","","8","","24.1","","98.61","","","","-5","","NA"
"-115.78","60.84","HAY RIVER A","2202401","2023-04-11 16:00","2023","04","11","16:00","-2.4","","-5.1","","82","","","","32","","9","","4.0","","98.65","","","","-6","","Snow"
"-115.78","60.84","HAY RIVER A","2202401","2023-04-11 17:00","2023","04","11","17:00","-2.2","","-4.1","","87","","","","32","","16","","6.4","","98.69","","","","-7","","Snow"
"-115.78","60.84","HAY RIVER A","2202401","2023-04-11 18:00","2023","04","11","18:00","-2.2","","-4.8","","83","","","","32","","21","","24.1","","98.71","","","","-8","","NA"
"-115.78","60.84","HAY RIVER A","2202401","2023-04-11 19:00","2023","04","11","19:00","-2.7","","-5.2","","83","","","","33","","19","","24.1","","98.73","","","","-8","","NA"
"-115.78","60.84","HAY RIVER A","2202401","2023-04-11 20:00","2023","04","11","20:00","-3.3","","-5.8","","83","","","","32","","20","","24.1","","98.77","","","","-9","","Mostly Cloudy"
"-115.78","60.84","HAY RIVER A","2202401","2023-04-11 21:00","2023","04","11","21:00","-3.8","","-6.7","","80","","","","32","","18","","24.1","","98.79","","","","-10","","NA"
"-115.78","60.84","HAY RIVER A","2202401","2023-04-11 22:00","2023","04","11","22:00","-3.9","","-6.5","","82","","","","31","","13","","24.1","","98.81","","","","-9","","NA"
"-115.78","60.84","HAY RIVER A","2202401","2023-04-11 23:00","2023","04","11","23:00","-4.0","","-5.9","","87","","","","30","","15","","24.1","","98.79","","","","-9","","Mostly Cloudy"
"-115.78","60.84","HAY RIVER A","2202401","2023-04-12 00:00","2023","04","12","00:00","-3.6","","-5.8","","85","","","","30","","21","","24.1","","98.79","","","","-10","","NA"
"-115.78","60.84","HAY RIVER A","2202401","2023-04-12 01:00","2023","04","12","01:00","-3.8","","-6.3","","83","","","","30","","24","","24.1","","98.80","","","","-11","","NA"
"-115.78","60.84","HAY RIVER A","2202401","2023-04-12 02:00","2023","04","12","02:00","-4.4","","-8.3","","74","","","","31","","27","","24.1","","98.84","","","","-12","","Mostly Cloudy"
"-115.78","60.84","HAY RIVER A","2202401","2023-04-12 03:00","2023","04","12","03:00","-4.6","","-7.4","","81","","","","31","","27","","24.1","","98.86","","","","-12","","NA"
"-115.78","60.84","HAY RIVER A","2202401","2023-04-12 04:00","2023","04","12","04:00","-4.7","","-7.9","","78","","","","31","","27","","24.1","","98.89","","","","-12","","NA"
"-115.78","60.84","HAY RIVER A","2202401","2023-04-12 05:00","2023","04","12","05:00","-6.2","","-8.9","","81","","","","31","","25","","24.1","","98.92","","","","-14","","Mostly Cloudy"
"-115.78","60.84","HAY RIVER A","2202401","2023-04-12 06:00","2023","04","12","06:00","-6.8","","-9.1","","84","","","","31","","21","","24.1","","98.96","","","","-14","","NA"
"-115.78","60.84","HAY RIVER A","2202401","2023-04-12 07:00","2023","04","12","07:00","-4.5","","-7.7","","78","","","","31","","22","","24.1","","98.99","","","","-11","","NA"
"-115.78","60.84","HAY RIVER A","2202401","2023-04-12 08:00","2023","04","12","08:00","-3.3","","-7.8","","72","","","","31","","18","","24.1","","99.00","","","","-9","","Mainly Clear"
"-115.78","60.84","HAY RIVER A","2202401","2023-04-12 09:00","2023","04","12","09:00","-2.4","","-7.3","","69","","","","31","","19","","24.1","","99.00","","","","-8","","NA"
"-115.78","60.84","HAY RIVER A","2202401","2023-04-12 10:00","2023","04","12","10:00","-2.3","","-7.8","","66","","","","32","","20","","24.1","","99.00","","","","-8","","NA"
"-115.78","60.84","HAY RIVER A","2202401","2023-04-12 11:00","2023","04","12","11:00","-1.5","","-7.6","","63","","","","33","","20","","24.1","","99.01","","","","-7","","Mostly Cloudy"
"-115.78","60.84","HAY RIVER A","2202401","2023-04-12 12:00","2023","04","12","12:00","-1.1","","-7.8","","61","","","","33","","16","","24.1","","99.01","","","","-6","","NA"
"-115.78","60.84","HAY RIVER A","2202401","2023-04-12 13:00","2023","04","12","13:00","0.3","","-7.0","","58","","","","32","","14","","24.1","","99.01","","","","","","NA"
"-115.78","60.84","HAY RIVER A","2202401","2023-04-12 14:00","2023","04","12","14:00","0.6","","-6.3","","60","","","","33","","13","","24.1","","99.01","","","","","","Mainly Clear"
"-115.78","60.84","HAY RIVER A","2202401","2023-04-12 15:00","2023","04","12","15:00","1.1","","-5.5","","61","","","","32","","12","","24.1","","98.99","","","","","","NA"
"-115.78","60.84","HAY RIVER A","2202401","2023-04-12 16:00","2023","04","12","16:00","1.1","","-5.8","","60","","","","30","","9","","24.1","","99.00","","","","","","NA"
"-115.78","60.84","HAY RIVER A","2202401","2023-04-12 17:00","2023","04","12","17:00","-2.2","","-7.2","","68","","","","8","","14","","24.1","","99.00","","","","-7","","Mainly Clear"
"-115.78","60.84","HAY RIVER A","2202401","2023-04-12 18:00","2023","04","12","18:00","-4.1","","-9.4","","67","","","","7","","16","","24.1","","99.01","","","","-10","","NA"
"-115.78","60.84","HAY RIVER A","2202401","2023-04-12 19:00","2023","04","12","19:00","-5.0","","-10.3","","67","","","","7","","18","","24.1","","99.00","","","","-11","","NA"
"-115.78","60.84","HAY RIVER A","2202401","2023-04-12 20:00","2023","04","12","20:00","-7.1","","-10.5","","77","","","","9","","13","","24.1","","98.99","","","","-13","","Mainly Clear"
"-115.78","60.84","HAY RIVER A","2202401","2023-04-12 21:00","2023","04","12","21:00","-8.5","","-11.1","","82","","","","9","","10","","24.1","","99.01","","","","-13","","NA"
"-115.78","60.84","HAY RIVER A","2202401","2023-04-12 22:00","2023","04","12","22:00","-7.7","","-10.2","","83","","","","9","","13","","24.1","","99.02","","","","-13","","NA"
"-115.78","60.84","HAY RIVER A","2202401","2023-04-12 23:00","2023","04","12","23:00","-7.8","","-10.0","","85","","","","10","","10","","24.1","","99.02","","","","-13","","Mainly Clear"
"-115.78","60.84","HAY RIVER A","2202401","2023-04-13 00:00","2023","04","13","00:00","-9.0","","-10.8","","87","","","","11","","10","","24.1","","99.02","","","","-14","","NA"
"-115.78","60.84","HAY RIVER A","2202401","2023-04-13 01:00","2023","04","13","01:00","-9.2","","-10.7","","90","","","","11","","7","","24.1","","99.04","","","","-13","","NA"
"-115.78","60.84","HAY RIVER A","2202401","2023-04-13 02:00","2023","04","13","02:00","-10.2","","-11.8","","88","","","","8","","11","","24.1","","99.03","","","","-16","","Mainly Clear"
"-115.78","60.84","HAY RIVER A","2202401","2023-04-13 03:00","2023","04","13","03:00","-9.0","","-10.2","","91","","","","9","","14","","3.2","","99.06","","","","-15","","Fog"
"-115.78","60.84","HAY RIVER A","2202401","2023-04-13 04:00","2023","04","13","04:00","-9.0","","-10.4","","89","","","","10","","16","","4.0","","99.07","","","","-16","","Fog"
"-115.78","60.84","HAY RIVER A","2202401","2023-04-13 05:00","2023","04","13","05:00","-8.7","","-9.9","","91","","","","9","","13","","2.8","","99.10","","","","-15","","Fog"
"-115.78","60.84","HAY RIVER A","2202401","2023-04-13 06:00","2023","04","13","06:00","-8.3","","-9.7","","90","","","","10","","12","","2.8","","99.12","","","","-14","","Fog"
"-115.78","60.84","HAY RIVER A","2202401","2023-04-13 07:00","2023","04","13","07:00","-7.8","","-9.1","","90","","","","9","","16","","16.1","","99.13","","","","-14","","NA"
"-115.78","60.84","HAY RIVER A","2202401","2023-04-13 08:00","2023","04","13","08:00","-6.5","","-7.7","","91","","","","8","","13","","17.7","","99.13","","","","-12","","Cloudy"
"-115.78","60.84","HAY RIVER A","2202401","2023-04-13 09:00","2023","04","13","09:00","-5.3","","-6.9","","89","","","","7","","13","","24.1","","99.14","","","","-10","","NA"
"-115.78","60.84","HAY RIVER A","2202401","2023-04-13 10:00","2023","04","13","10:00","-3.3","","-7.6","","72","","","","8","","19","","24.1","","99.18","","","","-9","","NA"
"-115.78","60.84","HAY RIVER A","2202401","2023-04-13 11:00","2023","04","13","11:00","-2.3","","-6.7","","72","","","","8","","21","","24.1","","99.19","","","","-8","","Mainly Clear"
"-115.78","60.84","HAY RIVER A","2202401","2023-04-13 12:00","2023","04","13","12:00","-1.5","","-6.6","","69","","","","7","","26","","24.1","","99.18","","","","-8","","NA"
"-115.78","60.84","HAY RIVER A","2202401","2023-04-13 13:00","2023","04","13","13:00","-0.9","","-6.1","","68","","","","6","","21","","24.1","","99.20","","","","-7","","NA"
"-115.78","60.84","HAY RIVER A","2202401","2023-04-13 14:00","2023","04","13","14:00","-1.2","","-5.5","","72","","","","7","","23","","24.1","","99.21","","","","-7","","Mainly Clear"
"-115.78","60.84","HAY RIVER A","2202401","2023-04-13 15:00","2023","04","13","15:00","-0.4","","-5.8","","67","","","","7","","20","","24.1","","99.23","","","","-6","","NA"
"-115.78","60.84","HAY RIVER A","2202401","2023-04-13 16:00","2023","04","13","16:00","-0.4","","-5.3","","70","","","","7","","23","","24.1","","99.24","","","","-6","","NA"
"-115.78","60.84","HAY RIVER A","2202401","2023-04-13 17:00","2023","04","13","17:00","-1.0","","-5.0","","74","","","","7","","19","","24.1","","99.23","","","","-6","","Mainly Clear"
"-115.78","60.84","HAY RIVER A","2202401","2023-04-13 18:00","2023","04","13","18:00","-2.1","","-5.5","","78","","","","7","","24","","24.1","","99.22","","","","-8","","NA"
"-115.78","60.84","HAY RIVER A","2202401","2023-04-13 19:00","2023","04","13","19:00","-3.4","","-6.5","","80","","","","7","","27","","24.1","","99.21","","","","-11","","NA"
"-115.78","60.84","HAY RIVER A","2202401","2023-04-13 20:00","2023","04","13","20:00","-5.1","","-7.4","","84","","","","7","","21","","24.1","","99.25","","","","-12","","Mainly Clear"
"-115.78","60.84","HAY RIVER A","2202401","2023-04-13 21:00","2023","04","13","21:00","-5.8","","-8.1","","84","","","","7","","20","","24.1","","99.29","","","","-13","","NA"
"-115.78","60.84","HAY RIVER A","2202401","2023-04-13 22:00","2023","04","13","22:00","-5.8","","-8.2","","83","","","","7","","19","","24.1","","99.32","","","","-12","","NA"
"-115.78","60.84","HAY RIVER A","2202401","2023-04-13 23:00","2023","04","13","23:00","-5.5","","-7.9","","83","","","","7","","16","","24.1","","99.35","","","","-11","","Mostly Cloudy"
"-115.78","60.84","HAY RIVER A","2202401","2023-04-14 00:00","2023","04","14","00:00","-5.0","","-7.7","","82","","","","7","","14","","24.1","","99.38","","","","-10","","NA"
"-115.78","60.84","HAY RIVER A","2202401","2023-04-14 01:00","2023","04","14","01:00","-5.7","","-8.1","","83","","","","7","","21","","24.1","","99.34","","","","-13","","NA"
"-115.78","60.84","HAY RIVER A","2202401","2023-04-14 02:00","2023","04","14","02:00","-5.8","","-8.3","","83","","","","8","","18","","24.1","","99.34","","","","-12","","Mostly Cloudy"
"-115.78","60.84","HAY RIVER A","2202401","2023-04-14 03:00","2023","04","14","03:00","-6.4","","-8.7","","84","","","","8","","13","","24.1","","99.32","","","","-12","","NA"
"-115.78","60.84","HAY RIVER A","2202401","2023-04-14 04:00","2023","04","14","04:00","-6.2","","-7.2","","93","","","","9","","13","","24.1","","99.34","","","","-12","","NA"
"-115.78","60.84","HAY RIVER A","2202401","2023-04-14 05:00","2023","04","14","05:00","-6.2","","-8.3","","85","","","","7","","12","","24.1","","99.37","","","","-11","","Mostly Cloudy"
"-115.78","60.84","HAY RIVER A","2202401","2023-04-14 06:00","2023","04","14","06:00","-6.2","","-8.4","","85","","","","7","","16","","24.1","","99.39","","","","-12","","NA"
"-115.78","60.84","HAY RIVER A","2202401","2023-04-14 07:00","2023","04","14","07:00","-4.4","","-8.0","","76","","","","8","","16","","24.1","","99.43","","","","-10","","NA"
"-115.78","60.84","HAY RIVER A","2202401","2023-04-14 08:00","2023","04","14","08:00","-3.7","","-7.9","","72","","","","7","","17","","24.1","","99.45","","","","-9","","Mainly Clear"
"-115.78","60.84","HAY RIVER A","2202401","2023-04-14 09:00","2023","04","14","09:00","-2.0","","-6.8","","70","","","","7","","16","","24.1","","99.46","","","","-7","","NA"
"-115.78","60.84","HAY RIVER A","2202401","2023-04-14 10:00","2023","04","14","10:00","-0.2","","-6.1","","65","","","","7","","16","","24.1","","99.47","","","","-5","","NA"
"-115.78","60.84","HAY RIVER A","2202401","2023-04-14 11:00","2023","04","14","11:00","2.1","","-4.4","","62","","","","7","","18","","24.1","","99.47","","","","","","Mostly Cloudy"
"-115.78","60.84","HAY RIVER A","2202401","2023-04-14 12:00","2023","04","14","12:00","3.2","","-3.7","","61","","","","7","","21","","24.1","","99.46","","","","","","NA"
"-115.78","60.84","HAY RIVER A","2202401","2023-04-14 13:00","2023","04","14","13:00","5.4","","-2.3","","57","","","","7","","15","","24.1","","99.44","","","","","","NA"
"-115.78","60.84","HAY RIVER A","2202401","2023-04-14 14:00","2023","04","14","14:00","7.5","","-2.7","","48","","","","8","","17","","24.1","","99.44","","","","","","Mainly Clear"
"-115.78","60.84","HAY RIVER A","2202401","2023-04-14 15:00","2023","04","14","15:00","7.2","","-3.1","","48","","","","7","","16","","24.1","","99.45","","","","","","NA"
"-115.78","60.84","HAY RIVER A","2202401","2023-04-14 16:00","2023","04","14","16:00","7.3","","-3.5","","46","","","","7","","16","","24.1","","99.46","","","","","","NA"
"-115.78","60.84","HAY RIVER A","2202401","2023-04-14 17:00","2023","04","14","17:00","7.0","","-4.0","","45","","","","7","","16","","24.1","","99.45","","","","","","Mainly Clear"
"-115.78","60.84","HAY RIVER A","2202401","2023-04-14 18:00","2023","04","14","18:00","5.0","","-3.5","","54","","","","7","","14","","24.1","","99.47","","","","","","NA"
"-115.78","60.84","HAY RIVER A","2202401","2023-04-14 19:00","2023","04","14","19:00","4.2","","-4.3","","54","","","","8","","14","","24.1","","99.48","","","","","","NA"
"-115.78","60.84","HAY RIVER A","2202401","2023-04-14 20:00","2023","04","14","20:00","2.8","","-4.3","","59","","","","7","","12","","24.1","","99.51","","","","","","Mostly Cloudy"
"-115.78","60.84","HAY RIVER A","2202401","2023-04-14 21:00","2023","04","14","21:00","1.6","","-3.6","","68","","","","7","","13","","24.1","","99.53","","","","","","NA"
"-115.78","60.84","HAY RIVER A","2202401","2023-04-14 22:00","2023","04","14","22:00","1.9","","-4.2","","64","","","","8","","11","","24.1","","99.54","","","","","","NA"
"-115.78","60.84","HAY RIVER A","2202401","2023-04-14 23:00","2023","04","14","23:00","3.6","","-5.0","","53","","","","14","","17","","24.1","","99.55","","","","","","Mostly Cloudy"
"-115.78","60.84","HAY RIVER A","2202401","2023-04-15 00:00","2023","04","15","00:00","3.2","","-5.1","","54","","","","15","","17","","24.1","","99.57","","","","","","NA"
"-115.78","60.84","HAY RIVER A","2202401","2023-04-15 01:00","2023","04","15","01:00","2.6","","-4.8","","58","","","","15","","19","","24.1","","99.59","","","","","","NA"
"-115.78","60.84","HAY RIVER A","2202401","2023-04-15 02:00","2023","04","15","02:00","1.6","","-4.5","","64","","","","16","","14","","24.1","","99.61","","","","","","Mostly Cloudy"
"-115.78","60.84","HAY RIVER A","2202401","2023-04-15 03:00","2023","04","15","03:00","1.1","","-4.4","","67","","","","16","","12","","24.1","","99.65","","","","","","NA"
"-115.78","60.84","HAY RIVER A","2202401","2023-04-15 04:00","2023","04","15","04:00","0.4","","-4.5","","70","","","","18","","9","","24.1","","99.68","","","","","","NA"
"-115.78","60.84","HAY RIVER A","2202401","2023-04-15 05:00","2023","04","15","05:00","0.2","","-4.1","","73","","","","16","","7","","24.1","","99.73","","","","","","Mostly Cloudy"
"-115.78","60.84","HAY RIVER A","2202401","2023-04-15 06:00","2023","04","15","06:00","-1.3","","-4.7","","78","","","","16","","6","","24.1","","99.76","","","","-4","","NA"
"-115.78","60.84","HAY RIVER A","2202401","2023-04-15 07:00","2023","04","15","07:00","1.5","","-4.1","","67","","","","16","","11","","24.1","","99.76","","","","","","NA"
"-115.78","60.84","HAY RIVER A","2202401","2023-04-15 08:00","2023","04","15","08:00","3.4","","-4.2","","58","","","","17","","12","","24.1","","99.73","","","","","","Mainly Clear"
"-115.78","60.84","HAY RIVER A","2202401","2023-04-15 09:00","2023","04","15","09:00","4.8","","-3.4","","55","","","","16","","10","","24.1","","99.74","","","","","","NA"
"-115.78","60.84","HAY RIVER A","2202401","2023-04-15 10:00","2023","04","15","10:00","5.7","","-3.6","","51","","","","15","","14","","24.1","","99.75","","","","","","NA"
"-115.78","60.84","HAY RIVER A","2202401","2023-04-15 11:00","2023","04","15","11:00","8.2","","-3.9","","42","","","","15","","11","","24.1","","99.72","","","","","","Mainly Clear"
"-115.78","60.84","HAY RIVER A","2202401","2023-04-15 12:00","2023","04","15","12:00","8.3","","-3.3","","44","","","","14","","14","","24.1","","99.71","","","","","","NA"
"-115.78","60.84","HAY RIVER A","2202401","2023-04-15 13:00","2023","04","15","13:00","9.3","","-3.1","","41","","","","14","","15","","24.1","","99.69","","","","","","NA"
"-115.78","60.84","HAY RIVER A","2202401","2023-04-15 14:00","2023","04","15","14:00","9.6","","-2.8","","42","","","","16","","14","","24.1","","99.67","","","","","","Mainly Clear"
"-115.78","60.84","HAY RIVER A","2202401","2023-04-15 15:00","2023","04","15","15:00","9.9","","-3.2","","39","","","","16","","16","","24.1","","99.65","","","","","","NA"
"-115.78","60.84","HAY RIVER A","2202401","2023-04-15 16:00","2023","04","15","16:00","10.5","","-3.8","","36","","","","16","","18","","24.1","","99.63","","","","","","NA"
"-115.78","60.84","HAY RIVER A","2202401","2023-04-15 17:00","2023","04","15","17:00","10.1","","-4.6","","35","","","","15","","18","","24.1","","99.63","","","","","","Mainly Clear"
"-115.78","60.84","HAY RIVER A","2202401","2023-04-15 18:00","2023","04","15","18:00","9.2","","-4.1","","39","","","","14","","17","","24.1","","99.61","","","","","","NA"
"-115.78","60.84","HAY RIVER A","2202401","2023-04-15 19:00","2023","04","15","19:00","8.2","","-5.2","","38","","","","14","","19","","24.1","","99.60","","","","","","NA"
"-115.78","60.84","HAY RIVER A","2202401","2023-04-15 20:00","2023","04","15","20:00","6.7","","-5.5","","42","","","","13","","17","","24.1","","99.60","","","","","","Mostly Cloudy"
"-115.78","60.84","HAY RIVER A","2202401","2023-04-15 21:00","2023","04","15","21:00","4.9","","-5.7","","46","","","","12","","15","","24.1","","99.59","","","","","","NA"
"-115.78","60.84","HAY RIVER A","2202401","2023-04-15 22:00","2023","04","15","22:00","4.9","","-5.9","","46","","","","13","","19","","24.1","","99.57","","","","","","NA"
"-115.78","60.84","HAY RIVER A","2202401","2023-04-15 23:00","2023","04","15","23:00","4.5","","-5.8","","47","","","","14","","21","","24.1","","99.57","","","","","","Mostly Cloudy"
"-115.78","60.84","HAY RIVER A","2202401","2023-04-16 00:00","2023","04","16","00:00","3.7","","-5.7","","50","","","","14","","21","","24.1","","99.57","","","","","","NA"
"-115.78","60.84","HAY RIVER A","2202401","2023-04-16 01:00","2023","04","16","01:00","3.2","","-5.3","","54","","","","13","","17","","24.1","","99.53","","","","","","NA"
"-115.78","60.84","HAY RIVER A","2202401","2023-04-16 02:00","2023","04","16","02:00","3.5","","-4.8","","55","","","","14","","22","","24.1","","99.50","","","","","","Mostly Cloudy"
"-115.78","60.84","HAY RIVER A","2202401","2023-04-16 03:00","2023","04","16","03:00","3.0","","-4.5","","58","","","","14","","19","","24.1","","99.46","","","","","","NA"
"-115.78","60.84","HAY RIVER A","2202401","2023-04-16 04:00","2023","04","16","04:00","1.9","","-4.2","","64","","","","16","","17","","24.1","","99.46","","","","","","NA"
"-115.78","60.84","HAY RIVER A","2202401","2023-04-16 05:00","2023","04","16","05:00","1.6","","-4.5","","64","","","","14","","15","","24.1","","99.44","","","","","","Mostly Cloudy"
"-115.78","60.84","HAY RIVER A","2202401","2023-04-16 06:00","2023","04","16","06:00","1.6","","-4.3","","65","","","","14","","13","","24.1","","99.43","","","","","","NA"
"-115.78","60.84","HAY RIVER A","2202401","2023-04-16 07:00","2023","04","16","07:00","1.8","","-3.9","","66","","","","12","","12","","24.1","","99.42","","","","","","NA"
"-115.78","60.84","HAY RIVER A","2202401","2023-04-16 08:00","2023","04","16","08:00","4.2","","-3.7","","56","","","","14","","19","","24.1","","99.36","","","","","","Mainly Clear"
"-115.78","60.84","HAY RIVER A","2202401","2023-04-16 09:00","2023","04","16","09:00","6.8","","-3.0","","50","","","","14","","16","","24.1","","99.33","","","","","","NA"
"-115.78","60.84","HAY RIVER A","2202401","2023-04-16 10:00","2023","04","16","10:00","9.5","","-2.9","","42","","","","11","","13","","24.1","","99.31","","","","","","NA"
"-115.78","60.84","HAY RIVER A","2202401","2023-04-16 11:00","2023","04","16","11:00","9.5","","-2.8","","42","","","","15","","20","","24.1","","99.27","","","","","","Mainly Clear"
"-115.78","60.84","HAY RIVER A","2202401","2023-04-16 12:00","2023","04","16","12:00","10.1","","-2.8","","40","","","","15","","22","","24.1","","99.24","","","","","","NA"
"-115.78","60.84","HAY RIVER A","2202401","2023-04-16 13:00","2023","04","16","13:00","12.1","","-2.4","","36","","","","13","","21","","24.1","","99.18","","","","","","NA"
"-115.78","60.84","HAY RIVER A","2202401","2023-04-16 14:00","2023","04","16","14:00","13.0","","-2.5","","34","","","","15","","22","","24.1","","99.13","","","","","","Mostly Cloudy"
"-115.78","60.84","HAY RIVER A","2202401","2023-04-16 15:00","2023","04","16","15:00","14.0","","-2.5","","32","","","","14","","21","","24.1","","99.07","","","","","","NA"
"-115.78","60.84","HAY RIVER A","2202401","2023-04-16 16:00","2023","04","16","16:00","14.0","","-3.1","","30","","","","13","","27","","24.1","","99.03","","","","","","NA"
"-115.78","60.84","HAY RIVER A","2202401","2023-04-16 17:00","2023","04","16","17:00","13.6","","-3.8","","30","","","","14","","25","","24.1","","99.02","","","","","","Mainly Clear"
"-115.78","60.84","HAY RIVER A","2202401","2023-04-16 18:00","2023","04","16","18:00","12.8","","-3.7","","31","","","","14","","26","","24.1","","98.98","","","","","","NA"
"-115.78","60.84","HAY RIVER A","2202401","2023-04-16 19:00","2023","04","16","19:00","11.9","","-4.5","","31","","","","13","","24","","24.1","","98.99","","","","","","NA"
"-115.78","60.84","HAY RIVER A","2202401","2023-04-16 20:00","2023","04","16","20:00","9.8","","-4.3","","37","","","","13","","15","","24.1","","99.00","","","","","","Mostly Cloudy"
"-115.78","60.84","HAY RIVER A","2202401","2023-04-16 21:00","2023","04","16","21:00","8.3","","-4.6","","40","","","","12","","18","","24.1","","99.00","","","","","","NA"
"-115.78","60.84","HAY RIVER A","2202401","2023-04-16 22:00","2023","04","16","22:00","7.3","","-3.3","","47","","","","13","","23","","24.1","","98.99","","","","","","NA"
"-115.78","60.84","HAY RIVER A","2202401","2023-04-16 23:00","2023","04","16","23:00","6.1","","-3.0","","52","","","","13","","26","","24.1","","98.98","","","","","","Mostly Cloudy"
"-115.78","60.84","HAY RIVER A","2202401","2023-04-17 00:00","2023","04","17","00:00","5.0","","-3.0","","56","","","","13","","23","","24.1","","98.96","","","","","","NA"
"-115.78","60.84","HAY RIVER A","2202401","2023-04-17 01:00","2023","04","17","01:00","4.4","","-3.1","","58","","","","12","","24","","24.1","","98.95","","","","","","NA"
"-115.78","60.84","HAY RIVER A","2202401","2023-04-17 02:00","2023","04","17","02:00","3.8","","-3.2","","60","","","","12","","20","","24.1","","98.93","","","","","","Mostly Cloudy"
"-115.78","60.84","HAY RIVER A","2202401","2023-04-17 03:00","2023","04","17","03:00","2.8","","-3.5","","63","","","","12","","19","","24.1","","98.91","","","","","","NA"
"-115.78","60.84","HAY RIVER A","2202401","2023-04-17 04:00","2023","04","17","04:00","2.4","","-3.8","","64","","","","11","","22","","24.1","","98.89","","","","","","NA"
"-115.78","60.84","HAY RIVER A","2202401","2023-04-17 05:00","2023","04","17","05:00","2.1","","-4.2","","63","","","","10","","20","","24.1","","98.87","","","","","","Mostly Cloudy"
"-115.78","60.84","HAY RIVER A","2202401","2023-04-17 06:00","2023","04","17","06:00","2.2","","-4.2","","62","","","","11","","19","","24.1","","98.89","","","","","","NA"
"-115.78","60.84","HAY RIVER A","2202401","2023-04-17 07:00","2023","04","17","07:00","2.9","","-4.1","","60","","","","11","","22","","24.1","","98.85","","","","","","NA"
"-115.78","60.84","HAY RIVER A","2202401","2023-04-17 08:00","2023","04","17","08:00","4.7","","-4.1","","53","","","","11","","26","","24.1","","98.83","","","","","","Mostly Cloudy"
"-115.78","60.84","HAY RIVER A","2202401","2023-04-17 09:00","2023","04","17","09:00","6.8","","-3.5","","48","","","","11","","30","","24.1","","98.82","","","","","","NA"
"-115.78","60.84","HAY RIVER A","2202401","2023-04-17 10:00","2023","04","17","10:00","9.3","","-2.9","","42","","","","12","","30","","24.1","","98.79","","","","","","NA"
"-115.78","60.84","HAY RIVER A","2202401","2023-04-17 11:00","2023","04","17","11:00","11.0","","-1.4","","42","","","","8","","18","","24.1","","98.77","","","","","","Mainly Clear"
"-115.78","60.84","HAY RIVER A","2202401","2023-04-17 12:00","2023","04","17","12:00","11.0","","-1.6","","41","","","","8","","26","","24.1","","98.76","","","","","","NA"
"-115.78","60.84","HAY RIVER A","2202401","2023-04-17 13:00","2023","04","17","13:00","9.9","","-1.2","","46","","","","8","","25","","24.1","","98.76","","","","","","NA"
"-115.78","60.84","HAY RIVER A","2202401","2023-04-17 14:00","2023","04","17","14:00","9.1","","-1.5","","47","","","","8","","31","","24.1","","98.76","","","","","","Mainly Clear"
"-115.78","60.84","HAY RIVER A","2202401","2023-04-17 15:00","2023","04","17","15:00","8.6","","-1.5","","49","","","","8","","28","","24.1","","98.73","","","","","","NA"
"-115.78","60.84","HAY RIVER A","2202401","2023-04-17 16:00","2023","04","17","16:00","8.0","","-1.0","","53","","","","8","","23","","24.1","","98.71","","","","","","NA"
"-115.78","60.84","HAY RIVER A","2202401","2023-04-17 17:00","2023","04","17","17:00","6.6","","-2.1","","54","","","","7","","28","","24.1","","98.71","","","","","","Mainly Clear"
"-115.78","60.84","HAY RIVER A","2202401","2023-04-17 18:00","2023","04","17","18:00","5.7","","-2.3","","56","","","","8","","24","","24.1","","98.71","","","","","","NA"
"-115.78","60.84","HAY RIVER A","2202401","2023-04-17 19:00","2023","04","17","19:00","4.5","","-3.0","","58","","","","8","","25","","24.1","","98.73","","","","","","NA"
"-115.78","60.84","HAY RIVER A","2202401","2023-04-17 20:00","2023","04","17","20:00","3.0","","-3.2","","64","","","","8","","24","","24.1","","98.76","","","","","","Mostly Cloudy"
"-115.78","60.84","HAY RIVER A","2202401","2023-04-17 21:00","2023","04","17","21:00","2.0","","-3.4","","67","","","","8","","26","","24.1","","98.80","","","","","","NA"
"-115.78","60.84","HAY RIVER A","2202401","2023-04-17 22:00","2023","04","17","22:00","1.7","","-3.5","","68","","","","8","","24","","24.1","","98.82","","","","","","NA"
"-115.78","60.84","HAY RIVER A","2202401","2023-04-17 23:00","2023","04","17","23:00","0.9","","-3.5","","73","","","","8","","25","","24.1","","98.85","","","","","","Mainly Clear"
"-115.78","60.84","HAY RIVER A","2202401","2023-04-18 00:00","2023","04","18","00:00","0.3","","-3.5","","76","","","","8","","21","","24.1","","98.86","","","","","","NA"
"-115.78","60.84","HAY RIVER A","2202401","2023-04-18 01:00","2023","04","18","01:00","0.6","","-3.4","","74","","","","8","","23","","24.1","","98.88","","","","","","NA"
"-115.78","60.84","HAY RIVER A","2202401","2023-04-18 02:00","2023","04","18","02:00","-0.4","","-3.6","","79","","","","7","","18","","24.1","","98.90","","","","-5","","Mainly Clear"
"-115.78","60.84","HAY RIVER A","2202401","2023-04-18 03:00","2023","04","18","03:00","-0.6","","-3.6","","80","","","","7","","14","","24.1","","98.94","","","","-5","","NA"
"-115.78","60.84","HAY RIVER A","2202401","2023-04-18 04:00","2023","04","18","04:00","-1.1","","-3.8","","82","","","","8","","20","","24.1","","98.99","","","","-7","","NA"
"-115.78","60.84","HAY RIVER A","2202401","2023-04-18 05:00","2023","04","18","05:00","-1.2","","-3.8","","82","","","","8","","18","","24.1","","99.05","","","","-6","","Mostly Cloudy"
"-115.78","60.84","HAY RIVER A","2202401","2023-04-18 06:00","2023","04","18","06:00","-0.9","","-3.8","","81","","","","8","","17","","24.1","","99.11","","","","-6","","NA"
"-115.78","60.84","HAY RIVER A","2202401","2023-04-18 07:00","2023","04","18","07:00","1.2","","-3.5","","71","","","","7","","16","","24.1","","99.13","","","","","","NA"
"-115.78","60.84","HAY RIVER A","2202401","2023-04-18 08:00","2023","04","18","08:00","4.5","","-3.4","","57","","","","10","","22","","24.1","","99.18","","","","","","Mostly Cloudy"
"-115.78","60.84","HAY RIVER A","2202401","2023-04-18 09:00","2023","04","18","09:00","4.4","","-2.6","","60","","","","7","","21","","24.1","","99.23","","","","","","NA"
"-115.78","60.84","HAY RIVER A","2202401","2023-04-18 10:00","2023","04","18","10:00","6.2","","-1.9","","56","","","","7","","21","","24.1","","99.28","","","","","","NA"
"-115.78","60.84","HAY RIVER A","2202401","2023-04-18 11:00","2023","04","18","11:00","6.1","","-1.7","","57","","","","7","","24","","24.1","","99.34","","","","","","Mostly Cloudy"
"-115.78","60.84","HAY RIVER A","2202401","2023-04-18 12:00","2023","04","18","12:00","6.4","","-1.6","","56","","","","7","","20","","24.1","","99.41","","","","","","NA"
"-115.78","60.84","HAY RIVER A","2202401","2023-04-18 13:00","2023","04","18","13:00","6.2","","-1.3","","59","","","","7","","21","","24.1","","99.47","","","","","","NA"
"-115.78","60.84","HAY RIVER A","2202401","2023-04-18 14:00","2023","04","18","14:00","6.6","","-1.6","","56","","","","7","","23","","24.1","","99.51","","","","","","Mainly Clear"
"-115.78","60.84","HAY RIVER A","2202401","2023-04-18 15:00","2023","04","18","15:00","7.2","","-1.8","","53","","","","6","","19","","24.1","","99.57","","","","","","NA"
"-115.78","60.84","HAY RIVER A","2202401","2023-04-18 16:00","2023","04","18","16:00","5.3","","-2.5","","57","","","","7","","19","","24.1","","99.62","","","","","","NA"
"-115.78","60.84","HAY RIVER A","2202401","2023-04-18 17:00","2023","04","18","17:00","4.0","","-2.7","","61","","","","7","","17","","24.1","","99.69","","","","","","Mostly Cloudy"
"-115.78","60.84","HAY RIVER A","2202401","2023-04-18 18:00","2023","04","18","18:00","3.7","","-2.4","","64","","","","8","","10","","24.1","","99.77","","","","","","NA"
"-115.78","60.84","HAY RIVER A","2202401","2023-04-18 19:00","2023","04","18","19:00","3.0","","-2.6","","67","","","","6","","9","","24.1","","99.85","","","","","","NA"
"-115.78","60.84","HAY RIVER A","2202401","2023-04-18 20:00","2023","04","18","20:00","2.2","","-2.6","","70","","","","7","","8","","24.1","","99.94","","","","","","Mostly Cloudy"
"-115.78","60.84","HAY RIVER A","2202401","2023-04-18 21:00","2023","04","18","21:00","1.6","","-2.3","","75","","","","8","","7","","24.1","","100.03","","","","","","NA"
"-115.78","60.84","HAY RIVER A","2202401","2023-04-18 22:00","2023","04","18","22:00","2.7","","-4.3","","60","","","","14","","13","","24.1","","100.13","","","","","","NA"
"-115.78","60.84","HAY RIVER A","2202401","2023-04-18 23:00","2023","04","18","23:00","-1.0","","-5.2","","73","","","","10","","8","","24.1","","100.20","","","","-4","","Mostly Cloudy"
"-115.78","60.84","HAY RIVER A","2202401","2023-04-19 00:00","2023","04","19","00:00","-2.4","","-5.6","","79","","","","9","","10","","24.1","","100.26","","","","-6","","NA"
"-115.78","60.84","HAY RIVER A","2202401","2023-04-19 01:00","2023","04","19","01:00","-2.8","","-5.6","","81","","","","10","","9","","24.1","","100.30","","","","-6","","NA"
"-115.78","60.84","HAY RIVER A","2202401","2023-04-19 02:00","2023","04","19","02:00","-2.2","","-5.8","","76","","","","7","","9","","24.1","","100.37","","","","-6","","Mainly Clear"
"-115.78","60.84","HAY RIVER A","2202401","2023-04-19 03:00","2023","04","19","03:00","-3.2","","-6.2","","80","","","","5","","10","","24.1","","100.43","","","","-7","","NA"
"-115.78","60.84","HAY RIVER A","2202401","2023-04-19 04:00","2023","04","19","04:00","-3.4","","-6.9","","77","","","","7","","18","","24.1","","100.49","","","","-9","","NA"
"-115.78","60.84","HAY RIVER A","2202401","2023-04-19 05:00","2023","04","19","05:00","-4.1","","-7.6","","77","","","","8","","16","","24.1","","100.56","","","","-10","","Mainly Clear"
"-115.78","60.84","HAY RIVER A","2202401","2023-04-19 06:00","2023","04","19","06:00","-3.5","","-6.9","","77","","","","7","","10","","24.1","","100.60","","","","-7","","NA"
"-115.78","60.84","HAY RIVER A","2202401","2023-04-19 07:00","2023","04","19","07:00","-2.0","","-6.6","","71","","","","7","","14","","24.1","","100.64","","","","-7","","NA"
"-115.78","60.84","HAY RIVER A","2202401","2023-04-19 08:00","2023","04","19","08:00","-0.9","","-6.1","","68","","","","8","","17","","24.1","","100.69","","","","-6","","Clear"
"-115.78","60.84","HAY RIVER A","2202401","2023-04-19 09:00","2023","04","19","09:00","0.4","","-5.9","","63","","","","8","","16","","24.1","","100.71","","","","","","NA"
"-115.78","60.84","HAY RIVER A","2202401","2023-04-19 10:00","2023","04","19","10:00","1.8","","-5.3","","60","","","","7","","14","","24.1","","100.75","","","","","","NA"
"-115.78","60.84","HAY RIVER A","2202401","2023-04-19 11:00","2023","04","19","11:00","1.9","","-4.4","","63","","","","7","","17","","24.1","","100.77","","","","","","Mainly Clear"
"-115.78","60.84","HAY RIVER A","2202401","2023-04-19 12:00","2023","04","19","12:00","2.7","","-4.1","","61","","","","7","","18","","24.1","","100.81","","","","","","NA"
"-115.78","60.84","HAY RIVER A","2202401","2023-04-19 13:00","2023","04","19","13:00","3.2","","-4.2","","58","","","","5","","18","","24.1","","100.83","","","","","","NA"
"-115.78","60.84","HAY RIVER A","2202401","2023-04-19 14:00","2023","04","19","14:00","3.3","","-3.9","","60","","","","5","","15","","24.1","","100.86","","","","","","Mainly Clear"
"-115.78","60.84","HAY RIVER A","2202401","2023-04-19 15:00","2023","04","19","15:00","2.9","","-4.5","","58","","","","6","","23","","24.1","","100.88","","","","","","NA"
"-115.78","60.84","HAY RIVER A","2202401","2023-04-19 16:00","2023","04","19","16:00","2.1","","-3.5","","66","","","","6","","13","","24.1","","100.90","","","","","","NA"
"-115.78","60.84","HAY RIVER A","2202401","2023-04-19 17:00","2023","04","19","17:00","2.0","","-3.2","","68","","","","6","","12","","24.1","","100.93","","","","","","Mostly Cloudy"
"-115.78","60.84","HAY RIVER A","2202401","2023-04-19 18:00","2023","04","19","18:00","1.5","","-2.8","","73","","","","7","","17","","24.1","","100.98","","","","","","NA"
"-115.78","60.84","HAY RIVER A","2202401","2023-04-19 19:00","2023","04","19","19:00","1.1","","-2.6","","76","","","","7","","10","","56.3","","101.00","","","","","","NA"
"-115.78","60.84","HAY RIVER A","2202401","2023-04-19 20:00","2023","04","19","20:00","0.6","","-2.5","","80","","","","7","","11","","24.1","","101.02","","","","","","Mostly Cloudy"
"-115.78","60.84","HAY RIVER A","2202401","2023-04-19 21:00","2023","04","19","21:00","0.1","","-2.8","","81","","","","7","","12","","24.1","","101.09","","","","","","NA"
"-115.78","60.84","HAY RIVER A","2202401","2023-04-19 22:00","2023","04","19","22:00","-0.1","","-3.0","","81","","","","9","","8","","24.1","","101.15","","","","-3","","NA"
"-115.78","60.84","HAY RIVER A","2202401","2023-04-19 23:00","2023","04","19","23:00","-0.2","","-3.2","","80","","","","9","","6","","24.1","","101.20","","","","-2","","Mostly Cloudy"
"-115.78","60.84","HAY RIVER A","2202401","2023-04-20 00:00","2023","04","20","00:00","-1.8","","-3.5","","88","","","","12","","10","","24.1","","101.24","","","","-5","","NA"
"-115.78","60.84","HAY RIVER A","2202401","2023-04-20 01:00","2023","04","20","01:00","-4.0","","-7.1","","79","","","","8","","7","","24.1","","101.26","","","","-7","","NA"
"-115.78","60.84","HAY RIVER A","2202401","2023-04-20 02:00","2023","04","20","02:00","-2.3","","-4.9","","82","","","","8","","12","","24.1","","101.29","","","","-7","","Mainly Clear"
"-115.78","60.84","HAY RIVER A","2202401","2023-04-20 03:00","2023","04","20","03:00","-2.9","","-5.0","","85","","","","8","","11","","24.1","","101.31","","","","-7","","NA"
"-115.78","60.84","HAY RIVER A","2202401","2023-04-20 04:00","2023","04","20","04:00","-4.0","","-6.1","","85","","","","9","","10","","24.1","","101.33","","","","-8","","NA"
"-115.78","60.84","HAY RIVER A","2202401","2023-04-20 05:00","2023","04","20","05:00","-4.1","","-6.0","","86","","","","9","","9","","24.1","","101.36","","","","-8","","Mainly Clear"
"-115.78","60.84","HAY RIVER A","2202401","2023-04-20 06:00","2023","04","20","06:00","-2.1","","-6.0","","75","","","","10","","7","","24.1","","101.37","","","","-5","","NA"
"-115.78","60.84","HAY RIVER A","2202401","2023-04-20 07:00","2023","04","20","07:00","0.1","","-5.7","","65","","","","9","","10","","24.1","","101.37","","","","","","NA"
"-115.78","60.84","HAY RIVER A","2202401","2023-04-20 08:00","2023","04","20","08:00","2.1","","-5.7","","57","","","","8","","7","","24.1","","101.39","","","","","","Mostly Cloudy"
"-115.78","60.84","HAY RIVER A","2202401","2023-04-20 09:00","2023","04","20","09:00","3.1","","-5.4","","54","","","","8","","11","","24.1","","101.40","","","","","","NA"
"-115.78","60.84","HAY RIVER A","2202401","2023-04-20 10:00","2023","04","20","10:00","5.2","","-5.6","","46","","","","8","","15","","24.1","","101.39","","","","","","NA"
"-115.78","60.84","HAY RIVER A","2202401","2023-04-20 11:00","2023","04","20","11:00","5.4","","-5.4","","46","","","","6","","14","","24.1","","101.38","","","","","","Mainly Clear"
"-115.78","60.84","HAY RIVER A","2202401","2023-04-20 12:00","2023","04","20","12:00","6.3","","-4.8","","45","","","","7","","23","","24.1","","101.33","","","","","","NA"
"-115.78","60.84","HAY RIVER A","2202401","2023-04-20 13:00","2023","04","20","13:00","4.5","","-4.7","","51","","","","7","","17","","24.1","","101.30","","","","","","NA"
"-115.78","60.84","HAY RIVER A","2202401","2023-04-20 14:00","2023","04","20","14:00","4.8","","-4.0","","53","","","","7","","12","","24.1","","101.29","","","","","","Mostly Cloudy"
"-115.78","60.84","HAY RIVER A","2202401","2023-04-20 15:00","2023","04","20","15:00","4.2","","-3.5","","57","","","","7","","13","","24.1","","101.28","","","","","","NA"
"-115.78","60.84","HAY RIVER A","2202401","2023-04-20 16:00","2023","04","20","16:00","3.7","","-3.2","","61","","","","7","","13","","24.1","","101.27","","","","","","NA"
"-115.78","60.84","HAY RIVER A","2202401","2023-04-20 17:00","2023","04","20","17:00","3.4","","-2.7","","64","","","","8","","14","","24.1","","101.25","","","","","","Mostly Cloudy"
"-115.78","60.84","HAY RIVER A","2202401","2023-04-20 18:00","2023","04","20","18:00","2.8","","-3.1","","65","","","","7","","17","","24.1","","101.20","","","","","","NA"
"-115.78","60.84","HAY RIVER A","2202401","2023-04-20 19:00","2023","04","20","19:00","1.9","","-3.2","","69","","","","7","","14","","24.1","","101.19","","","","","","NA"
"-115.78","60.84","HAY RIVER A","2202401","2023-04-20 20:00","2023","04","20","20:00","0.0","","-3.6","","77","","","","7","","11","","24.1","","101.18","","","","-4","","Mostly Cloudy"
"-115.78","60.84","HAY RIVER A","2202401","2023-04-20 21:00","2023","04","20","21:00","-1.0","","-3.8","","81","","","","7","","9","","24.1","","101.18","","","","-4","","NA"
"-115.78","60.84","HAY RIVER A","2202401","2023-04-20 22:00","2023","04","20","22:00","-1.7","","-3.8","","86","","","","9","","5","","24.1","","101.18","","","","-4","","NA"
"-115.78","60.84","HAY RIVER A","2202401","2023-04-20 23:00","2023","04","20","23:00","-2.2","","-3.7","","90","","","","9","","7","","24.1","","101.17","","","","-5","","Mostly Cloudy"
"-115.78","60.84","HAY RIVER A","2202401","2023-04-21 00:00","2023","04","21","00:00","-0.8","","-4.0","","79","","","","8","","8","","24.1","","101.17","","","","-4","","NA"
"-115.78","60.84","HAY RIVER A","2202401","2023-04-21 01:00","2023","04","21","01:00","0.2","","-4.9","","69","","","","12","","5","","24.1","","101.18","","","","","","NA"
"-115.78","60.84","HAY RIVER A","2202401","2023-04-21 02:00","2023","04","21","02:00","0.8","","-5.0","","65","","","","17","","8","","24.1","","101.18","","","","","","Mostly Cloudy"
"-115.78","60.84","HAY RIVER A","2202401","2023-04-21 03:00","2023","04","21","03:00","1.4","","-5.7","","59","","","","14","","4","","24.1","","101.17","","","","","","NA"
"-115.78","60.84","HAY RIVER A","2202401","2023-04-21 04:00","2023","04","21","04:00","-1.0","","-5.8","","70","","","","36","","2","","24.1","","101.16","","","","-2","","NA"
"-115.78","60.84","HAY RIVER A","2202401","2023-04-21 05:00","2023","04","21","05:00","-1.5","","-4.7","","79","","","","8","","6","","24.1","","101.14","","","","-4","","Mostly Cloudy"
"-115.78","60.84","HAY RIVER A","2202401","2023-04-21 06:00","2023","04","21","06:00","-0.8","","-4.7","","75","","","","36","","3","","24.1","","101.13","","","","-2","","NA"
"-115.78","60.84","HAY RIVER A","2202401","2023-04-21 07:00","2023","04","21","07:00","1.0","","-5.0","","64","","","","16","","6","","24.1","","101.12","","","","","","NA"
"-115.78","60.84","HAY RIVER A","2202401","2023-04-21 08:00","2023","04","21","08:00","3.4","","-5.0","","54","","","","18","","9","","24.1","","101.09","","","","","","Mostly Cloudy"
"-115.78","60.84","HAY RIVER A","2202401","2023-04-21 09:00","2023","04","21","09:00","5.8","","-4.5","","48","","","","18","","8","","24.1","","101.04","","","","","","NA"
"-115.78","60.84","HAY RIVER A","2202401","2023-04-21 10:00","2023","04","21","10:00","8.4","","-5.3","","37","","","","23","","7","","24.1","","101.00","","","","","","NA"
"-115.78","60.84","HAY RIVER A","2202401","2023-04-21 11:00","2023","04","21","11:00","11.3","","-3.4","","35","","","","32","","5","","24.1","","100.98","","","","","","Mostly Cloudy"
"-115.78","60.84","HAY RIVER A","2202401","2023-04-21 12:00","2023","04","21","12:00","9.5","","-4.0","","38","","","","35","","7","","24.1","","100.96","","","","","","NA"
"-115.78","60.84","HAY RIVER A","2202401","2023-04-21 13:00","2023","04","21","13:00","8.9","","-4.0","","40","","","","3","","8","","24.1","","100.91","","","","","","NA"
"-115.78","60.84","HAY RIVER A","2202401","2023-04-21 14:00","2023","04","21","14:00","7.9","","-4.1","","42","","","","7","","13","","24.1","","100.86","","","","","","Mostly Cloudy"
"-115.78","60.84","HAY RIVER A","2202401","2023-04-21 15:00","2023","04","21","15:00","6.9","","-4.0","","46","","","","8","","13","","24.1","","100.82","","","","","","NA"
"-115.78","60.84","HAY RIVER A","2202401","2023-04-21 16:00","2023","04","21","16:00","7.5","","-4.4","","43","","","","7","","16","","24.1","","100.74","","","","","","NA"
"-115.78","60.84","HAY RIVER A","2202401","2023-04-21 17:00","2023","04","21","17:00","6.9","","-4.2","","45","","","","7","","20","","24.1","","100.66","","","","","","Mostly Cloudy"
"-115.78","60.84","HAY RIVER A","2202401","2023-04-21 18:00","2023","04","21","18:00","5.3","","-4.1","","51","","","","7","","13","","24.1","","100.62","","","","","","NA"
"-115.78","60.84","HAY RIVER A","2202401","2023-04-21 19:00","2023","04","21","19:00","3.9","","-4.2","","56","","","","7","","15","","24.1","","100.56","","","","","","NA"
"-115.78","60.84","HAY RIVER A","2202401","2023-04-21 20:00","2023","04","21","20:00","3.1","","-3.7","","61","","","","8","","8","","24.1","","100.49","","","","","","Mostly Cloudy"
"-115.78","60.84","HAY RIVER A","2202401","2023-04-21 21:00","2023","04","21","21:00","2.1","","-3.7","","65","","","","9","","7","","24.1","","100.45","","","","","","NA"
"-115.78","60.84","HAY RIVER A","2202401","2023-04-21 22:00","2023","04","21","22:00","0.3","","-3.4","","77","","","","9","","9","","24.1","","100.41","","","","","","NA"
"-115.78","60.84","HAY RIVER A","2202401","2023-04-21 23:00","2023","04","21","23:00","-1.4","","-4.1","","82","","","","8","","12","","24.1","","100.34","","","","-5","","Mostly Cloudy"
"-115.78","60.84","HAY RIVER A","2202401","2023-04-22 00:00","2023","04","22","00:00","-1.8","","-4.2","","84","","","","10","","7","","24.1","","100.27","","","","-4","","NA"
"-115.78","60.84","HAY RIVER A","2202401","2023-04-22 01:00","2023","04","22","01:00","-1.9","","-3.2","","91","","","","9","","5","","24.1","","100.23","","","","-4","","NA"
"-115.78","60.84","HAY RIVER A","2202401","2023-04-22 02:00","2023","04","22","02:00","-0.8","","-3.1","","85","","","","8","","5","","24.1","","100.16","","","","-2","","Mostly Cloudy"
"-115.78","60.84","HAY RIVER A","2202401","2023-04-22 03:00","2023","04","22","03:00"
"-115.78","60.84","HAY RIVER A","2202401","2023-04-22 04:00","2023","04","22","04:00","1.8","","-4.9","","61","","","","17","","12","","24.1","","100.08","","","","","","NA"
"-115.78","60.84","HAY RIVER A","2202401","2023-04-22 05:00","2023","04","22","05:00","0.3","","-6.1","","62","","","","16","","12","","24.1","","100.02","","","","","","Mostly Cloudy"
"-115.78","60.84","HAY RIVER A","2202401","2023-04-22 06:00","2023","04","22","06:00","0.7","","-5.8","","62","","","","16","","12","","24.1","","99.97","","","","","","NA"
"-115.78","60.84","HAY RIVER A","2202401","2023-04-22 07:00","2023","04","22","07:00","3.1","","-5.8","","52","","","","17","","14","","24.1","","99.93","","","","","","NA"
"-115.78","60.84","HAY RIVER A","2202401","2023-04-22 08:00","2023","04","22","08:00","6.1","","-5.8","","42","","","","18","","18","","24.1","","99.87","","","","","","Mostly Cloudy"
"-115.78","60.84","HAY RIVER A","2202401","2023-04-22 09:00","2023","04","22","09:00","6.4","","-5.8","","41","","","","18","","17","","24.1","","99.83","","","","","","NA"
"-115.78","60.84","HAY RIVER A","2202401","2023-04-22 10:00","2023","04","22","10:00","9.6","","-5.2","","35","","","","19","","18","","24.1","","99.79","","","","","","NA"
"-115.78","60.84","HAY RIVER A","2202401","2023-04-22 11:00","2023","04","22","11:00","11.8","","-4.5","","32","","","","17","","20","","24.1","","99.74","","","","","","Mostly Cloudy"
"-115.78","60.84","HAY RIVER A","2202401","2023-04-22 12:00","2023","04","22","12:00","12.8","","-4.4","","30","","","","16","","21","","24.1","","99.70","","","","","","NA"
"-115.78","60.84","HAY RIVER A","2202401","2023-04-22 13:00","2023","04","22","13:00","14.2","","-4.5","","27","","","","14","","13","","24.1","","99.67","","","","","","NA"
"-115.78","60.84","HAY RIVER A","2202401","2023-04-22 14:00","2023","04","22","14:00","14.0","","-5.9","","25","","","","17","","18","","24.1","","99.61","","","","","","Mostly Cloudy"
"-115.78","60.84","HAY RIVER A","2202401","2023-04-22 15:00","2023","04","22","15:00","13.3","","-6.3","","25","","","","12","","19","","24.1","","99.59","","","","","","NA"
"-115.78","60.84","HAY RIVER A","2202401","2023-04-22 16:00","2023","04","22","16:00","13.1","","-6.5","","25","","","","16","","24","","24.1","","99.56","","","","","","NA"
"-115.78","60.84","HAY RIVER A","2202401","2023-04-22 17:00","2023","04","22","17:00","13.0","","-8.6","","21","","","","17","","17","","24.1","","99.55","","","","","","Mostly Cloudy"
"-115.78","60.84","HAY RIVER A","2202401","2023-04-22 18:00","2023","04","22","18:00","12.5","","-7.2","","25","","","","12","","20","","24.1","","99.55","","","","","","NA"
"-115.78","60.84","HAY RIVER A","2202401","2023-04-22 19:00","2023","04","22","19:00","10.8","","-7.6","","27","","","","16","","15","","24.1","","99.55","","","","","","NA"
"-115.78","60.84","HAY RIVER A","2202401","2023-04-22 20:00","2023","04","22","20:00","8.6","","-7.2","","32","","","","14","","12","","24.1","","99.56","","","","","","Mostly Cloudy"
"-115.78","60.84","HAY RIVER A","2202401","2023-04-22 21:00","2023","04","22","21:00","5.7","","-5.6","","44","","","","13","","7","","24.1","","99.56","","","","","","NA"
"-115.78","60.84","HAY RIVER A","2202401","2023-04-22 22:00","2023","04","22","22:00","2.7","","-6.8","","50","","","","12","","6","","24.1","","99.55","","","","","","NA"
"-115.78","60.84","HAY RIVER A","2202401","2023-04-22 23:00","2023","04","22","23:00","0.7","","-6.6","","58","","","","8","","7","","24.1","","99.52","","","","","","Mostly Cloudy"
"-115.78","60.84","HAY RIVER A","2202401","2023-04-23 00:00","2023","04","23","00:00","0.0","","-6.2","","63","","","","36","","1","","24.1","","99.53","","","","0","","NA"
"-115.78","60.84","HAY RIVER A","2202401","2023-04-23 01:00","2023","04","23","01:00","-1.4","","-7.5","","63","","","","10","","8","","24.1","","99.52","","","","-4","","NA"
"-115.78","60.84","HAY RIVER A","2202401","2023-04-23 02:00","2023","04","23","02:00","-1.2","","-7.3","","63","","","","12","","5","","24.1","","99.51","","","","-3","","Mostly Cloudy"
"-115.78","60.84","HAY RIVER A","2202401","2023-04-23 03:00","2023","04","23","03:00","-1.0","","-7.4","","62","","","","12","","5","","24.1","","99.51","","","","-3","","NA"
"-115.78","60.84","HAY RIVER A","2202401","2023-04-23 04:00","2023","04","23","04:00","-2.3","","-6.4","","74","","","","10","","6","","24.1","","99.53","","","","-5","","NA"
"-115.78","60.84","HAY RIVER A","2202401","2023-04-23 05:00","2023","04","23","05:00","-0.7","","-6.5","","65","","","","9","","5","","24.1","","99.54","","","","-2","","Mostly Cloudy"
"-115.78","60.84","HAY RIVER A","2202401","2023-04-23 06:00","2023","04","23","06:00","-1.1","","-6.0","","70","","","","30","","4","","24.1","","99.56","","","","-2","","NA"
"-115.78","60.84","HAY RIVER A","2202401","2023-04-23 07:00","2023","04","23","07:00","2.9","","-5.2","","55","","","","7","","7","","24.1","","99.58","","","","","","NA"
"-115.78","60.84","HAY RIVER A","2202401","2023-04-23 08:00","2023","04","23","08:00","6.5","","-3.4","","49","","","","32","","7","","24.1","","99.58","","","","","","Mainly Clear"
"-115.78","60.84","HAY RIVER A","2202401","2023-04-23 09:00","2023","04","23","09:00","7.5","","-4.7","","42","","","","2","","8","","24.1","","99.59","","","","","","NA"
"-115.78","60.84","HAY RIVER A","2202401","2023-04-23 10:00","2023","04","23","10:00","6.8","","-4.4","","45","","","","4","","9","","24.1","","99.61","","","","","","NA"
"-115.78","60.84","HAY RIVER A","2202401","2023-04-23 11:00","2023","04","23","11:00","7.5","","-3.3","","46","","","","2","","11","","24.1","","99.62","","","","","","Mainly Clear"
"-115.78","60.84","HAY RIVER A","2202401","2023-04-23 12:00","2023","04","23","12:00","8.1","","-3.4","","44","","","","36","","12","","24.1","","99.60","","","","","","NA"
"-115.78","60.84","HAY RIVER A","2202401","2023-04-23 13:00","2023","04","23","13:00","6.7","","-2.9","","51","","","","6","","10","","24.1","","99.60","","","","","","NA"
"-115.78","60.84","HAY RIVER A","2202401","2023-04-23 14:00","2023","04","23","14:00","5.5","","-2.5","","56","","","","3","","9","","24.1","","99.60","","","","","","Mostly Cloudy"
"-115.78","60.84","HAY RIVER A","2202401","2023-04-23 15:00","2023","04","23","15:00","5.7","","-2.3","","57","","","","6","","12","","24.1","","99.60","","","","","","NA"
"-115.78","60.84","HAY RIVER A","2202401","2023-04-23 16:00","2023","04","23","16:00","6.8","","-2.8","","50","","","","6","","15","","24.1","","99.61","","","","","","NA"
"-115.78","60.84","HAY RIVER A","2202401","2023-04-23 17:00","2023","04","23","17:00","6.6","","-2.5","","52","","","","6","","11","","24.1","","99.64","","","","","","Mainly Clear"
"-115.78","60.84","HAY RIVER A","2202401","2023-04-23 18:00","2023","04","23","18:00","4.4","","-2.4","","61","","","","5","","11","","24.1","","99.67","","","","","","NA"
"-115.78","60.84","HAY RIVER A","2202401","2023-04-23 19:00","2023","04","23","19:00","2.7","","-2.6","","68","","","","6","","10","","24.1","","99.66","","","","","","NA"
"-115.78","60.84","HAY RIVER A","2202401","2023-04-23 20:00","2023","04","23","20:00","0.6","","-3.0","","77","","","","6","","10","","24.1","","99.68","","","","","","Mostly Cloudy"
"-115.78","60.84","HAY RIVER A","2202401","2023-04-23 21:00","2023","04","23","21:00","-0.9","","-3.4","","83","","","","5","","8","","24.1","","99.70","","","","-4","","NA"
"-115.78","60.84","HAY RIVER A","2202401","2023-04-23 22:00","2023","04","23","22:00","-1.2","","-4.2","","80","","","","3","","8","","24.1","","99.75","","","","-4","","NA"
"-115.78","60.84","HAY RIVER A","2202401","2023-04-23 23:00","2023","04","23","23:00","-0.6","","-3.8","","79","","","","3","","11","","24.1","","99.76","","","","-4","","Mostly Cloudy"
"-115.78","60.84","HAY RIVER A","2202401","2023-04-24 00:00","2023","04","24","00:00","-1.3","","-4.4","","79","","","","3","","16","","24.1","","99.77","","","","-6","","NA"
"-115.78","60.84","HAY RIVER A","2202401","2023-04-24 01:00","2023","04","24","01:00","-2.1","","-5.1","","80","","","","3","","13","","24.1","","99.78","","","","-7","","NA"
"-115.78","60.84","HAY RIVER A","2202401","2023-04-24 02:00","2023","04","24","02:00","-3.1","","-5.5","","83","","","","1","","11","","24.1","","99.81","","","","-7","","Mostly Cloudy"
"-115.78","60.84","HAY RIVER A","2202401","2023-04-24 03:00","2023","04","24","03:00","-3.8","","-6.1","","84","","","","33","","13","","24.1","","99.86","","","","-9","","NA"
"-115.78","60.84","HAY RIVER A","2202401","2023-04-24 04:00","2023","04","24","04:00","-4.2","","-6.5","","84","","","","30","","13","","24.1","","99.90","","","","-9","","NA"
"-115.78","60.84","HAY RIVER A","2202401","2023-04-24 05:00","2023","04","24","05:00","-5.5","","-7.1","","88","","","","33","","15","","24.1","","99.93","","","","-11","","Mainly Clear"
"-115.78","60.84","HAY RIVER A","2202401","2023-04-24 06:00","2023","04","24","06:00","-5.2","","-7.6","","83","","","","31","","17","","24.1","","99.97","","","","-11","","NA"
"-115.78","60.84","HAY RIVER A","2202401","2023-04-24 07:00","2023","04","24","07:00","-4.6","","-7.5","","80","","","","30","","20","","24.1","","100.00","","","","-11","","NA"
"-115.78","60.84","HAY RIVER A","2202401","2023-04-24 08:00","2023","04","24","08:00","-3.3","","-5.8","","83","","","","31","","18","","24.1","","100.00","","","","-9","","Cloudy"
"-115.78","60.84","HAY RIVER A","2202401","2023-04-24 09:00","2023","04","24","09:00","-1.7","","-4.9","","79","","","","31","","19","","24.1","","100.00","","","","-7","","NA"
"-115.78","60.84","HAY RIVER A","2202401","2023-04-24 10:00","2023","04","24","10:00","-0.9","","-4.5","","77","","","","31","","21","","24.1","","99.99","","","","-7","","NA"
"-115.78","60.84","HAY RIVER A","2202401","2023-04-24 11:00","2023","04","24","11:00","0.0","","-4.2","","73","","","","32","","19","","24.1","","99.98","","","","-5","","Cloudy"
"-115.78","60.84","HAY RIVER A","2202401","2023-04-24 12:00","2023","04","24","12:00","0.8","","-3.8","","71","","","","32","","18","","24.1","","99.94","","","","","","NA"
"-115.78","60.84","HAY RIVER A","2202401","2023-04-24 13:00","2023","04","24","13:00","2.4","","-3.5","","65","","","","32","","21","","24.1","","99.92","","","","","","NA"
"-115.78","60.84","HAY RIVER A","2202401","2023-04-24 14:00","2023","04","24","14:00","3.3","","-3.0","","64","","","","31","","20","","24.1","","99.88","","","","","","Mainly Clear"
"-115.78","60.84","HAY RIVER A","2202401","2023-04-24 15:00","2023","04","24","15:00","3.1","","-2.8","","65","","","","31","","15","","24.1","","99.86","","","","","","NA"
"-115.78","60.84","HAY RIVER A","2202401","2023-04-24 16:00","2023","04","24","16:00","3.1","","-3.2","","63","","","","32","","14","","24.1","","99.80","","","","","","NA"
"-115.78","60.84","HAY RIVER A","2202401","2023-04-24 17:00","2023","04","24","17:00","3.5","","-3.1","","62","","","","35","","5","","24.1","","99.72","","","","","","Mostly Cloudy"
"-115.78","60.84","HAY RIVER A","2202401","2023-04-24 18:00","2023","04","24","18:00","3.5","","-3.4","","61","","","","4","","8","","24.1","","99.65","","","","","","NA"
"-115.78","60.84","HAY RIVER A","2202401","2023-04-24 19:00","2023","04","24","19:00","3.2","","-3.2","","63","","","","2","","6","","24.1","","99.60","","","","","","NA"
"-115.78","60.84","HAY RIVER A","2202401","2023-04-24 20:00","2023","04","24","20:00","1.0","","-3.4","","72","","","","3","","4","","24.1","","99.54","","","","","","Mostly Cloudy"
"-115.78","60.84","HAY RIVER A","2202401","2023-04-24 21:00","2023","04","24","21:00","-0.5","","-3.3","","81","","","","7","","5","","24.1","","99.46","","","","-2","","NA"
"-115.78","60.84","HAY RIVER A","2202401","2023-04-24 22:00","2023","04","24","22:00","-0.9","","-3.4","","83","","","","7","","5","","24.1","","99.39","","","","-3","","NA"
"-115.78","60.84","HAY RIVER A","2202401","2023-04-24 23:00","2023","04","24","23:00","-0.2","","-2.2","","86","","","","18","","3","","24.1","","99.32","","","","-1","","Mostly Cloudy"
"-115.78","60.84","HAY RIVER A","2202401","2023-04-25 00:00","2023","04","25","00:00","0.1","","-2.3","","84","","","","10","","13","","24.1","","99.23","","","","","","NA"
"-115.78","60.84","HAY RIVER A","2202401","2023-04-25 01:00","2023","04","25","01:00","1.1","","-2.6","","76","","","","10","","15","","24.1","","99.15","","","","","","NA"
"-115.78","60.84","HAY RIVER A","2202401","2023-04-25 02:00","2023","04","25","02:00","3.7","","-1.8","","67","","","","13","","17","","24.1","","99.10","","","","","","Mostly Cloudy"
"-115.78","60.84","HAY RIVER A","2202401","2023-04-25 03:00","2023","04","25","03:00","3.8","","-2.1","","65","","","","13","","17","","24.1","","99.04","","","","","","NA"
"-115.78","60.84","HAY RIVER A","2202401","2023-04-25 04:00","2023","04","25","04:00","3.2","","-2.3","","67","","","","12","","18","","24.1","","99.00","","","","","","NA"
"-115.78","60.84","HAY RIVER A","2202401","2023-04-25 05:00","2023","04","25","05:00","2.5","","-2.2","","71","","","","11","","15","","24.1","","98.95","","","","","","Mostly Cloudy"
"-115.78","60.84","HAY RIVER A","2202401","2023-04-25 06:00","2023","04","25","06:00","2.2","","-1.9","","74","","","","10","","13","","24.1","","98.89","","","","","","NA"
"-115.78","60.84","HAY RIVER A","2202401","2023-04-25 07:00","2023","04","25","07:00","2.0","","-1.6","","77","","","","9","","13","","24.1","","98.83","","","","","","NA"
"-115.78","60.84","HAY RIVER A","2202401","2023-04-25 08:00","2023","04","25","08:00","2.4","","-1.8","","74","","","","7","","17","","24.1","","98.76","","","","","","Cloudy"
"-115.78","60.84","HAY RIVER A","2202401","2023-04-25 09:00","2023","04","25","09:00","2.9","","-1.6","","72","","","","7","","14","","24.1","","98.71","","","","","","NA"
"-115.78","60.84","HAY RIVER A","2202401","2023-04-25 10:00","2023","04","25","10:00","2.5","","-1.8","","73","","","","7","","14","","24.1","","98.68","","","","","","NA"
"-115.78","60.84","HAY RIVER A","2202401","2023-04-25 11:00","2023","04","25","11:00","1.4","","-1.5","","81","","","","7","","12","","19.3","","98.70","","","","","","Rain"
"-115.78","60.84","HAY RIVER A","2202401","2023-04-25 12:00","2023","04","25","12:00","1.7","","-0.9","","83","","","","3","","9","","4.0","","98.70","","","","","","Rain,Snow"
"-115.78","60.84","HAY RIVER A","2202401","2023-04-25 13:00","2023","04","25","13:00","1.6","","-0.6","","85","","","","3","","9","","8.1","","98.74","","","","","","Rain,Snow"
"-115.78","60.84","HAY RIVER A","2202401","2023-04-25 14:00","2023","04","25","14:00","1.5","","-0.8","","85","","","","1","","10","","6.4","","98.78","","","","","","Snow"
"-115.78","60.84","HAY RIVER A","2202401","2023-04-25 15:00","2023","04","25","15:00","1.4","","-0.1","","90","","","","35","","11","","12.9","","98.82","","","","","","Drizzle"
"-115.78","60.84","HAY RIVER A","2202401","2023-04-25 16:00","2023","04","25","16:00","0.9","","-0.2","","93","","","","33","","15","","12.9","","98.88","","","","","","Drizzle"
"-115.78","60.84","HAY RIVER A","2202401","2023-04-25 17:00","2023","04","25","17:00","0.9","","0.3","","95","","","","32","","17","","9.7","","98.95","","","","","","Fog"
"-115.78","60.84","HAY RIVER A","2202401","2023-04-25 18:00","2023","04","25","18:00","0.9","","0.3","","95","","","","31","","22","","9.7","","99.01","","","","","","Fog"
"-115.78","60.84","HAY RIVER A","2202401","2023-04-25 19:00","2023","04","25","19:00","1.1","","0.6","","96","","","","31","","19","","9.7","","99.07","","","","","","Drizzle"
"-115.78","60.84","HAY RIVER A","2202401","2023-04-25 20:00","2023","04","25","20:00","0.5","","-0.3","","94","","","","31","","28","","16.1","","99.12","","","","","","Drizzle"
"-115.78","60.84","HAY RIVER A","2202401","2023-04-25 21:00","2023","04","25","21:00","-0.1","","-1.9","","88","","","","30","","23","","24.1","","99.21","","","","-6","","NA"
"-115.78","60.84","HAY RIVER A","2202401","2023-04-25 22:00","2023","04","25","22:00","-0.4","","-2.6","","85","","","","30","","26","","24.1","","99.25","","","","-7","","NA"
"-115.78","60.84","HAY RIVER A","2202401","2023-04-25 23:00","2023","04","25","23:00","-0.9","","-3.3","","84","","","","30","","27","","24.1","","99.29","","","","-7","","Cloudy"
"-115.78","60.84","HAY RIVER A","2202401","2023-04-26 00:00","2023","04","26","00:00","-1.2","","-4.1","","81","","","","30","","27","","24.1","","99.33","","","","-8","","NA"
"-115.78","60.84","HAY RIVER A","2202401","2023-04-26 01:00","2023","04","26","01:00","-1.5","","-3.2","","88","","","","29","","21","","24.1","","99.36","","","","-7","","Snow"
"-115.78","60.84","HAY RIVER A","2202401","2023-04-26 02:00","2023","04","26","02:00","-2.0","","-4.1","","86","","","","29","","23","","24.1","","99.38","","","","-8","","Snow"
"-115.78","60.84","HAY RIVER A","2202401","2023-04-26 03:00","2023","04","26","03:00","-2.4","","-4.7","","84","","","","29","","23","","24.1","","99.40","","","","-9","","Snow"
"-115.78","60.84","HAY RIVER A","2202401","2023-04-26 04:00","2023","04","26","04:00","-2.6","","-5.0","","84","","","","29","","23","","24.1","","99.39","","","","-9","","Snow"
"-115.78","60.84","HAY RIVER A","2202401","2023-04-26 05:00","2023","04","26","05:00","-2.9","","-5.1","","85","","","","29","","25","","24.1","","99.36","","","","-10","","Cloudy"
"-115.78","60.84","HAY RIVER A","2202401","2023-04-26 06:00","2023","04","26","06:00","-3.0","","-5.4","","84","","","","28","","22","","24.1","","99.38","","","","-9","","NA"
"-115.78","60.84","HAY RIVER A","2202401","2023-04-26 07:00","2023","04","26","07:00","-2.9","","-5.3","","83","","","","29","","17","","24.1","","99.36","","","","-8","","NA"
"-115.78","60.84","HAY RIVER A","2202401","2023-04-26 08:00","2023","04","26","08:00","-2.4","","-5.1","","82","","","","28","","14","","24.1","","99.34","","","","-7","","Cloudy"
"-115.78","60.84","HAY RIVER A","2202401","2023-04-26 09:00","2023","04","26","09:00","-1.7","","-5.1","","77","","","","29","","16","","24.1","","99.30","","","","-7","","NA"
"-115.78","60.84","HAY RIVER A","2202401","2023-04-26 10:00","2023","04","26","10:00","1.4","","-4.2","","66","","","","30","","17","","24.1","","99.25","","","","","","NA"
"-115.78","60.84","HAY RIVER A","2202401","2023-04-26 11:00","2023","04","26","11:00","2.3","","-4.3","","62","","","","32","","18","","24.1","","99.19","","","","","","Mostly Cloudy"
"-115.78","60.84","HAY RIVER A","2202401","2023-04-26 12:00","2023","04","26","12:00","3.4","","-3.9","","59","","","","32","","17","","24.1","","99.15","","","","","","NA"
"-115.78","60.84","HAY RIVER A","2202401","2023-04-26 13:00","2023","04","26","13:00","3.3","","-3.8","","60","","","","33","","12","","24.1","","99.13","","","","","","NA"
"-115.78","60.84","HAY RIVER A","2202401","2023-04-26 14:00","2023","04","26","14:00","3.9","","-4.6","","54","","","","34","","15","","24.1","","99.12","","","","","","Mainly Clear"
"-115.78","60.84","HAY RIVER A","2202401","2023-04-26 15:00","2023","04","26","15:00","4.3","","-4.6","","52","","","","1","","12","","24.1","","99.10","","","","","","NA"
"-115.78","60.84","HAY RIVER A","2202401","2023-04-26 16:00","2023","04","26","16:00","3.8","","-4.9","","53","","","","2","","10","","24.1","","99.09","","","","","","NA"
"-115.78","60.84","HAY RIVER A","2202401","2023-04-26 17:00","2023","04","26","17:00","3.1","","-4.7","","56","","","","5","","12","","24.1","","99.09","","","","","","Mainly Clear"
"-115.78","60.84","HAY RIVER A","2202401","2023-04-26 18:00","2023","04","26","18:00","0.9","","-4.1","","69","","","","9","","15","","24.1","","99.11","","","","","","NA"
"-115.78","60.84","HAY RIVER A","2202401","2023-04-26 19:00","2023","04","26","19:00","0.0","","-4.5","","72","","","","8","","13","","24.1","","99.12","","","","-4","","NA"
"-115.78","60.84","HAY RIVER A","2202401","2023-04-26 20:00","2023","04","26","20:00","-1.6","","-4.5","","81","","","","9","","10","","24.1","","99.15","","","","-5","","Mainly Clear"
"-115.78","60.84","HAY RIVER A","2202401","2023-04-26 21:00","2023","04","26","21:00","-4.0","","-5.2","","91","","","","8","","8","","24.1","","99.19","","","","-7","","NA"
"-115.78","60.84","HAY RIVER A","2202401","2023-04-26 22:00","2023","04","26","22:00","-3.9","","-4.8","","93","","","","8","","7","","24.1","","99.19","","","","-7","","NA"
"-115.78","60.84","HAY RIVER A","2202401","2023-04-26 23:00","2023","04","26","23:00","-4.3","","-5.3","","93","","","","7","","4","","24.1","","99.21","","","","-6","","Mainly Clear"
"-115.78","60.84","HAY RIVER A","2202401","2023-04-27 00:00","2023","04","27","00:00","-4.6","","-5.3","","95","","","","11","","7","","24.1","","99.24","","","","-8","","NA"
"-115.78","60.84","HAY RIVER A","2202401","2023-04-27 01:00","2023","04","27","01:00","-6.0","","-6.9","","93","","","","36","","1","","24.1","","99.28","","","","-6","","NA"
"-115.78","60.84","HAY RIVER A","2202401","2023-04-27 02:00","2023","04","27","02:00","-7.2","","-8.7","","89","","","","36","","1","","24.1","","99.31","","","","-8","","Mainly Clear"
"-115.78","60.84","HAY RIVER A","2202401","2023-04-27 03:00","2023","04","27","03:00","-6.0","","-6.7","","95","","","","8","","5","","24.1","","99.33","","","","-8","","NA"
"-115.78","60.84","HAY RIVER A","2202401","2023-04-27 04:00","2023","04","27","04:00","-5.8","","-6.8","","93","","","","12","","5","","24.1","","99.33","","","","-8","","NA"
"-115.78","60.84","HAY RIVER A","2202401","2023-04-27 05:00","2023","04","27","05:00","-5.7","","-6.7","","93","","","","10","","8","","24.1","","99.32","","","","-9","","Mostly Cloudy"
"-115.78","60.84","HAY RIVER A","2202401","2023-04-27 06:00","2023","04","27","06:00","-1.7","","-2.3","","96","","","","16","","10","","24.1","","99.33","","","","-5","","NA"
"-115.78","60.84","HAY RIVER A","2202401","2023-04-27 07:00","2023","04","27","07:00","-0.4","","-2.3","","87","","","","18","","10","","24.1","","99.33","","","","-4","","NA"
"-115.78","60.84","HAY RIVER A","2202401","2023-04-27 08:00","2023","04","27","08:00","3.4","","-0.7","","75","","","","19","","7","","24.1","","99.33","","","","","","Mostly Cloudy"
"-115.78","60.84","HAY RIVER A","2202401","2023-04-27 09:00","2023","04","27","09:00","6.7","","-0.6","","60","","","","21","","10","","24.1","","99.28","","","","","","NA"
"-115.78","60.84","HAY RIVER A","2202401","2023-04-27 10:00","2023","04","27","10:00","9.9","","-0.3","","49","","","","20","","23","","24.1","","99.21","","","","","","NA"
"-115.78","60.84","HAY RIVER A","2202401","2023-04-27 11:00","2023","04","27","11:00","12.2","","-0.9","","40","","","","23","","22","","24.1","","99.14","","","","","","Mostly Cloudy"
"-115.78","60.84","HAY RIVER A","2202401","2023-04-27 12:00","2023","04","27","12:00","13.0","","-3.3","","32","","","","24","","26","","24.1","","99.06","","","","","","NA"
"-115.78","60.84","HAY RIVER A","2202401","2023-04-27 13:00","2023","04","27","13:00","13.7","","-6.5","","24","","","","25","","32","","24.1","","99.04","","","","","","NA"
"-115.78","60.84","HAY RIVER A","2202401","2023-04-27 14:00","2023","04","27","14:00","14.6","","-6.1","","23","","","","26","","28","","24.1","","98.99","","","","","","Mostly Cloudy"
"-115.78","60.84","HAY RIVER A","2202401","2023-04-27 15:00","2023","04","27","15:00","15.4","","-8.2","","19","","","","23","","37","","24.1","","98.97","","","","","","NA"
"-115.78","60.84","HAY RIVER A","2202401","2023-04-27 16:00","2023","04","27","16:00","14.8","","-6.8","","22","","","","25","","21","","24.1","","98.91","","","","","","NA"
"-115.78","60.84","HAY RIVER A","2202401","2023-04-27 17:00","2023","04","27","17:00","11.2","","-6.3","","29","","","","36","","7","","24.1","","98.93","","","","","","Mostly Cloudy"
"-115.78","60.84","HAY RIVER A","2202401","2023-04-27 18:00","2023","04","27","18:00","13.0","","-6.6","","25","","","","32","","8","","24.1","","98.87","","","","","","NA"
"-115.78","60.84","HAY RIVER A","2202401","2023-04-27 19:00","2023","04","27","19:00","11.1","","-6.5","","28","","","","36","","3","","24.1","","98.86","","","","","","NA"
"-115.78","60.84","HAY RIVER A","2202401","2023-04-27 20:00","2023","04","27","20:00","8.7","","-6.1","","35","","","","0","","1","","24.1","","98.87","","","","","","Mostly Cloudy"
"-115.78","60.84","HAY RIVER A","2202401","2023-04-27 21:00","2023","04","27","21:00","5.2","","-5.0","","48","","","","16","","3","","24.1","","98.86","","","","","","NA"
"-115.78","60.84","HAY RIVER A","2202401","2023-04-27 22:00","2023","04","27","22:00","3.9","","-5.0","","52","","","","13","","4","","24.1","","98.84","","","","","","NA"
"-115.78","60.84","HAY RIVER A","2202401","2023-04-27 23:00","2023","04","27","23:00","2.5","","-4.6","","60","","","","36","","1","","24.1","","98.83","","","","","","Mostly Cloudy"
"-115.78","60.84","HAY RIVER A","2202401","2023-04-28 00:00","2023","04","28","00:00","2.2","","-5.0","","59","","","","24","","7","","24.1","","98.88","","","","","","NA"
"-115.78","60.84","HAY RIVER A","2202401","2023-04-28 01:00","2023","04","28","01:00","3.3","","-6.2","","50","","","","23","","13","","24.1","","98.92","","","","","","NA"
"-115.78","60.84","HAY RIVER A","2202401","2023-04-28 02:00","2023","04","28","02:00","5.0","","-5.8","","46","","","","25","","16","","24.1","","98.98","","","","","","Mostly Cloudy"
"-115.78","60.84","HAY RIVER A","2202401","2023-04-28 03:00","2023","04","28","03:00","5.5","","-4.5","","49","","","","27","","19","","24.1","","99.03","","","","","","NA"
"-115.78","60.84","HAY RIVER A","2202401","2023-04-28 04:00","2023","04","28","04:00","5.1","","-4.5","","50","","","","28","","20","","24.1","","99.11","","","","","","NA"
"-115.78","60.84","HAY RIVER A","2202401","2023-04-28 05:00","2023","04","28","05:00","4.0","","-4.4","","54","","","","28","","18","","24.1","","99.19","","","","","","Mainly Clear"
"-115.78","60.84","HAY RIVER A","2202401","2023-04-28 06:00","2023","04","28","06:00","4.5","","-4.3","","53","","","","28","","18","","24.1","","99.28","","","","","","NA"
"-115.78","60.84","HAY RIVER A","2202401","2023-04-28 07:00","2023","04","28","07:00","5.9","","-4.3","","48","","","","28","","21","","24.1","","99.40","","","","","","NA"
"-115.78","60.84","HAY RIVER A","2202401","2023-04-28 08:00","2023","04","28","08:00","7.1","","-4.6","","43","","","","28","","24","","24.1","","99.49","","","","","","Mainly Clear"
"-115.78","60.84","HAY RIVER A","2202401","2023-04-28 09:00","2023","04","28","09:00","7.7","","-3.8","","44","","","","29","","22","","24.1","","99.60","","","","","","NA"
"-115.78","60.84","HAY RIVER A","2202401","2023-04-28 10:00","2023","04","28","10:00","8.9","","-4.0","","40","","","","30","","26","","24.1","","99.70","","","","","","NA"
"-115.78","60.84","HAY RIVER A","2202401","2023-04-28 11:00","2023","04","28","11:00","10.7","","-4.2","","35","","","","30","","23","","24.1","","99.78","","","","","","Mainly Clear"
"-115.78","60.84","HAY RIVER A","2202401","2023-04-28 12:00","2023","04","28","12:00","12.2","","-4.6","","30","","","","31","","18","","24.1","","99.83","","","","","","NA"
"-115.78","60.84","HAY RIVER A","2202401","2023-04-28 13:00","2023","04","28","13:00","13.6","","-6.7","","24","","","","32","","17","","24.1","","99.87","","","","","","NA"
"-115.78","60.84","HAY RIVER A","2202401","2023-04-28 14:00","2023","04","28","14:00","14.4","","-7.7","","21","","","","33","","13","","24.1","","99.93","","","","","","Mainly Clear"
"-115.78","60.84","HAY RIVER A","2202401","2023-04-28 15:00","2023","04","28","15:00","14.6","","-8.1","","20","","","","32","","16","","24.1","","99.96","","","","","","NA"
"-115.78","60.84","HAY RIVER A","2202401","2023-04-28 16:00","2023","04","28","16:00","14.3","","-8.6","","20","","","","2","","12","","24.1","","99.97","","","","","","NA"
"-115.78","60.84","HAY RIVER A","2202401","2023-04-28 17:00","2023","04","28","17:00","12.6","","-7.1","","25","","","","9","","13","","24.1","","100.01","","","","","","Mainly Clear"
"-115.78","60.84","HAY RIVER A","2202401","2023-04-28 18:00","2023","04","28","18:00","11.8","","-8.8","","23","","","","8","","14","","24.1","","100.03","","","","","","NA"
"-115.78","60.84","HAY RIVER A","2202401","2023-04-28 19:00","2023","04","28","19:00","10.6","","-7.5","","27","","","","8","","12","","24.1","","100.06","","","","","","NA"
"-115.78","60.84","HAY RIVER A","2202401","2023-04-28 20:00","2023","04","28","20:00","6.6","","-7.5","","36","","","","9","","12","","24.1","","100.11","","","","","","Mainly Clear"
"-115.78","60.84","HAY RIVER A","2202401","2023-04-28 21:00","2023","04","28","21:00","4.2","","-7.7","","42","","","","9","","7","","24.1","","100.14","","","","","","NA"
"-115.78","60.84","HAY RIVER A","2202401","2023-04-28 22:00","2023","04","28","22:00","1.6","","-7.7","","50","","","","10","","5","","24.1","","100.18","","","","","","NA"
"-115.78","60.84","HAY RIVER A","2202401","2023-04-28 23:00","2023","04","28","23:00","0.2","","-8.1","","54","","","","9","","6","","24.1","","100.23","","","","","","Mainly Clear"
"-115.78","60.84","HAY RIVER A","2202401","2023-04-29 00:00","2023","04","29","00:00","-1.3","","-6.6","","68","","","","10","","5","","24.1","","100.28","","","","-3","","NA"
"-115.78","60.84","HAY RIVER A","2202401","2023-04-29 01:00","2023","04","29","01:00","-0.7","","-7.7","","59","","","","12","","7","","24.1","","100.32","","","","-3","","NA"
"-115.78","60.84","HAY RIVER A","2202401","2023-04-29 02:00","2023","04","29","02:00","0.0","","-8.0","","55","","","","14","","7","","24.1","","100.36","","","","-2","","Mainly Clear"
"-115.78","60.84","HAY RIVER A","2202401","2023-04-29 03:00","2023","04","29","03:00","-1.2","","-8.0","","60","","","","13","","5","","24.1","","100.37","","","","-3","","NA"
"-115.78","60.84","HAY RIVER A","2202401","2023-04-29 04:00","2023","04","29","04:00","-2.6","","-7.9","","67","","","","14","","4","","24.1","","100.39","","","","-4","","NA"
"-115.78","60.84","HAY RIVER A","2202401","2023-04-29 05:00","2023","04","29","05:00","-2.8","","-7.3","","71","","","","12","","8","","24.1","","100.38","","","","-6","","Mainly Clear"
"-115.78","60.84","HAY RIVER A","2202401","2023-04-29 06:00","2023","04","29","06:00","2.9","","-6.3","","51","","","","12","","8","","24.1","","100.39","","","","","","NA"
"-115.78","60.84","HAY RIVER A","2202401","2023-04-29 07:00","2023","04","29","07:00","6.2","","-6.2","","40","","","","11","","12","","24.1","","100.40","","","","","","NA"
"-115.78","60.84","HAY RIVER A","2202401","2023-04-29 08:00","2023","04","29","08:00","9.8","","-6.3","","31","","","","12","","17","","24.1","","100.35","","","","","","Mostly Cloudy"
"-115.78","60.84","HAY RIVER A","2202401","2023-04-29 09:00","2023","04","29","09:00","11.8","","-6.5","","27","","","","14","","20","","24.1","","100.32","","","","","","NA"
"-115.78","60.84","HAY RIVER A","2202401","2023-04-29 10:00","2023","04","29","10:00","13.7","","-6.4","","24","","","","16","","21","","24.1","","100.25","","","","","","NA"
"-115.78","60.84","HAY RIVER A","2202401","2023-04-29 11:00","2023","04","29","11:00","14.9","","-6.1","","23","","","","14","","22","","24.1","","100.18","","","","","","Mainly Clear"
"-115.78","60.84","HAY RIVER A","2202401","2023-04-29 12:00","2023","04","29","12:00","16.6","","-6.1","","20","","","","15","","24","","24.1","","100.10","","","","","","NA"
"-115.78","60.84","HAY RIVER A","2202401","2023-04-29 13:00","2023","04","29","13:00","17.1","","-6.8","","19","","","","14","","19","","24.1","","100.00","","","","","","NA"
"-115.78","60.84","HAY RIVER A","2202401","2023-04-29 14:00","2023","04","29","14:00","17.6","","-6.2","","19","","","","16","","20","","24.1","","99.92","","","","","","Mainly Clear"
"-115.78","60.84","HAY RIVER A","2202401","2023-04-29 15:00","2023","04","29","15:00","18.6","","-6.0","","18","","","","19","","21","","24.1","","99.84","","","","","","NA"
"-115.78","60.84","HAY RIVER A","2202401","2023-04-29 16:00","2023","04","29","16:00","18.6","","-5.9","","18","","","","14","","24","","24.1","","99.78","","","","","","NA"
"-115.78","60.84","HAY RIVER A","2202401","2023-04-29 17:00","2023","04","29","17:00","18.5","","-5.2","","19","","","","14","","17","","24.1","","99.72","","","","","","Mostly Cloudy"
"-115.78","60.84","HAY RIVER A","2202401","2023-04-29 18:00","2023","04","29","18:00","17.5","","-5.2","","21","","","","13","","21","","24.1","","99.69","","","","","","NA"
"-115.78","60.84","HAY RIVER A","2202401","2023-04-29 19:00","2023","04","29","19:00","17.1","","-5.2","","21","","","","13","","25","","24.1","","99.63","","","","","","NA"
"-115.78","60.84","HAY RIVER A","2202401","2023-04-29 20:00","2023","04","29","20:00","15.0","","-4.8","","25","","","","13","","24","","24.1","","99.60","","","","","","Mainly Clear"
"-115.78","60.84","HAY RIVER A","2202401","2023-04-29 21:00","2023","04","29","21:00","12.9","","-4.6","","29","","","","13","","26","","24.1","","99.60","","","","","","NA"
"-115.78","60.84","HAY RIVER A","2202401","2023-04-29 22:00","2023","04","29","22:00","11.5","","-4.9","","31","","","","14","","22","","24.1","","99.55","","","","","","NA"
"-115.78","60.84","HAY RIVER A","2202401","2023-04-29 23:00","2023","04","29","23:00","11.0","","-4.8","","33","","","","15","","27","","24.1","","99.52","","","","","","Mainly Clear"
"-115.78","60.84","HAY RIVER A","2202401","2023-04-30 00:00","2023","04","30","00:00","9.9","","-4.6","","36","","","","16","","26","","24.1","","99.50","","","","","","NA"
"-115.78","60.84","HAY RIVER A","2202401","2023-04-30 01:00","2023","04","30","01:00","8.8","","-5.1","","37","","","","16","","19","","24.1","","99.48","","","","","","NA"
"-115.78","60.84","HAY RIVER A","2202401","2023-04-30 02:00","2023","04","30","02:00","7.8","","-5.4","","39","","","","16","","20","","24.1","","99.46","","","","","","Mainly Clear"
"-115.78","60.84","HAY RIVER A","2202401","2023-04-30 03:00","2023","04","30","03:00","6.6","","-5.6","","41","","","","17","","19","","24.1","","99.44","","","","","","NA"
"-115.78","60.84","HAY RIVER A","2202401","2023-04-30 04:00","2023","04","30","04:00","5.8","","-6.0","","43","","","","16","","19","","24.1","","99.40","","","","","","NA"
"-115.78","60.84","HAY RIVER A","2202401","2023-04-30 05:00","2023","04","30","05:00","5.3","","-6.3","","43","","","","16","","22","","24.1","","99.38","","","","","","Mainly Clear"
"-115.78","60.84","HAY RIVER A","2202401","2023-04-30 06:00","2023","04","30","06:00","6.4","","-6.2","","40","","","","16","","21","","24.1","","99.34","","","","","","NA"
"-115.78","60.84","HAY RIVER A","2202401","2023-04-30 07:00","2023","04","30","07:00","9.0","","-5.7","","35","","","","16","","21","","24.1","","99.34","","","","","","NA"
"-115.78","60.84","HAY RIVER A","2202401","2023-04-30 08:00","2023","04","30","08:00","12.3","","-4.5","","31","","","","16","","17","","24.1","","99.31","","","","","","Mostly Cloudy"
"-115.78","60.84","HAY RIVER A","2202401","2023-04-30 09:00","2023","04","30","09:00","14.6","","-3.7","","28","","","","15","","16","","24.1","","99.25","","","","","","NA"
"-115.78","60.84","HAY RIVER A","2202401","2023-04-30 10:00","2023","04","30","10:00","18.3","","-3.0","","23","","","","16","","16","","24.1","","99.17","","","","","","NA"
"-115.78","60.84","HAY RIVER A","2202401","2023-04-30 11:00","2023","04","30","11:00","20.9","","-2.8","","20","","","","17","","11","","24.1","","99.16","","","","","","Mostly Cloudy"
"-115.78","60.84","HAY RIVER A","2202401","2023-04-30 12:00","2023","04","30","12:00","22.1","","-2.7","","19","","","","15","","11","","24.1","","99.13","","","","","","NA"
"-115.78","60.84","HAY RIVER A","2202401","2023-04-30 13:00","2023","04","30","13:00","19.0","","-2.1","","24","","","","5","","13","","24.1","","99.09","","","","","","NA"
"-115.78","60.84","HAY RIVER A","2202401","2023-04-30 14:00","2023","04","30","14:00","17.9","","-1.9","","26","","","","8","","19","","24.1","","99.06","","","","","","Mainly Clear"
"-115.78","60.84","HAY RIVER A","2202401","2023-04-30 15:00","2023","04","30","15:00","18.3","","-1.3","","26","","","","8","","16","","24.1","","99.01","","","","","","NA"
"-115.78","60.84","HAY RIVER A","2202401","2023-04-30 16:00","2023","04","30","16:00","18.5","","-1.7","","25","","","","9","","19","","24.1","","98.95","","","","","","NA"
"-115.78","60.84","HAY RIVER A","2202401","2023-04-30 17:00","2023","04","30","17:00","17.9","","-2.2","","25","","","","8","","21","","24.1","","98.91","","","","","","Mostly Cloudy"
"-115.78","60.84","HAY RIVER A","2202401","2023-04-30 18:00","2023","04","30","18:00","15.9","","-2.8","","27","","","","7","","18","","24.1","","98.86","","","","","","NA"
"-115.78","60.84","HAY RIVER A","2202401","2023-04-30 19:00","2023","04","30","19:00","10.4","","-2.2","","41","","","","8","","20","","24.1","","98.83","","","","","","NA"
"-115.78","60.84","HAY RIVER A","2202401","2023-04-30 20:00","2023","04","30","20:00","7.0","","-1.7","","54","","","","7","","14","","24.1","","98.80","","","","","","Mostly Cloudy"
"-115.78","60.84","HAY RIVER A","2202401","2023-04-30 21:00","2023","04","30","21:00","6.1","","-1.4","","59","","","","8","","12","","24.1","","98.76","","","","","","NA"
"-115.78","60.84","HAY RIVER A","2202401","2023-04-30 22:00","2023","04","30","22:00","7.2","","-0.8","","57","","","","8","","10","","24.1","","98.71","","","","","","NA"
"-115.78","60.84","HAY RIVER A","2202401","2023-04-30 23:00","2023","04","30","23:00","7.3","","-1.3","","54","","","","7","","9","","24.1","","98.65","","","","","","Mostly Cloudy"
