"Longitude (x)","Latitude (y)","Station Name","Climate ID","Date/Time (LST)","Year","Month","Day","Time (LST)","Temp (°C)","Temp Flag","Dew Point Temp (°C)","Dew Point Temp Flag","Rel Hum (%)","Rel Hum Flag","Precip. Amount (mm)","Precip. Amount Flag","Wind Dir (10s deg)","Wind Dir Flag","Wind Spd (km/h)","Wind Spd Flag","Visibility (km)","Visibility Flag","Stn Press (kPa)","Stn Press Flag","Hmdx","Hmdx Flag","Wind Chill","Wind Chill Flag","Weather"
"-61.05","46.55","GRAND ETANG","8201969","2018-08-01 00:00","2018","08","01","00:00","19.8","","15.9","","78","","","","15","","15","","","","101.63","","","","","","NA"
"-61.05","46.55","GRAND ETANG","8201969","2018-08-01 01:00","2018","08","01","01:00","20.2","","16.5","","79","","","","16","","14","","","","101.64","","25","","","","NA"
"-61.05","46.55","GRAND ETANG","8201969","2018-08-01 02:00","2018","08","01","02:00","18.9","","16.6","","87","","","","16","","11","","","","101.65","","","","","","NA"
"-61.05","46.55","GRAND ETANG","8201969","2018-08-01 03:00","2018","08","01","03:00","18.7","","17.0","","90","","","","15","","13","","","","101.65","","","","","","NA"
"-61.05","46.55","GRAND ETANG","8201969","2018-08-01 04:00","2018","08","01","04:00","18.7","","17.2","","91","","","","15","","13","","","","101.68","","","","","","NA"
"-61.05","46.55","GRAND ETANG","8201969","2018-08-01 05:00","2018","08","01","05:00","18.5","","16.6","","89","","","","16","","11","","","","101.77","","","","","","NA"
"-61.05","46.55","GRAND ETANG","8201969","2018-08-01 06:00","2018","08","01","06:00","20.7","","17.4","","82","","","","16","","11","","","","101.77","","26","","","","NA"
"-61.05","46.55","GRAND ETANG","8201969","2018-08-01 07:00","2018","08","01","07:00","22.6","","17.7","","74","","","","19","","10","","","","101.79","","28","","","","NA"
"-61.05","46.55","GRAND ETANG","8201969","2018-08-01 08:00","2018","08","01","08:00","23.5","","17.9","","71","","","","22","","16","","","","101.83","","29","","","","NA"
"-61.05","46.55","GRAND ETANG","8201969","2018-08-01 09:00","2018","08","01","09:00","23.3","","18.4","","74","","","","23","","22","","","","101.85","","30","","","","NA"
"-61.05","46.55","GRAND ETANG","8201969","2018-08-01 10:00","2018","08","01","10:00","24.0","","19.4","","76","","","","23","","20","","","","101.86","","31","","","","NA"
"-61.05","46.55","GRAND ETANG","8201969","2018-08-01 11:00","2018","08","01","11:00","24.5","","20.1","","77","","","","24","","19","","","","101.88","","32","","","","NA"
"-61.05","46.55","GRAND ETANG","8201969","2018-08-01 12:00","2018","08","01","12:00","25.3","","20.5","","75","","","","24","","17","","","","101.88","","33","","","","NA"
"-61.05","46.55","GRAND ETANG","8201969","2018-08-01 13:00","2018","08","01","13:00","25.9","","20.8","","73","","","","24","","15","","","","101.84","","34","","","","NA"
"-61.05","46.55","GRAND ETANG","8201969","2018-08-01 14:00","2018","08","01","14:00","26.5","","21.1","","72","","","","24","","16","","","","101.83","","35","","","","NA"
"-61.05","46.55","GRAND ETANG","8201969","2018-08-01 15:00","2018","08","01","15:00","25.3","","20.1","","73","","","","23","","14","","","","101.81","","33","","","","NA"
"-61.05","46.55","GRAND ETANG","8201969","2018-08-01 16:00","2018","08","01","16:00","27.4","","17.3","","54","","","","21","","12","","","","101.81","","33","","","","NA"
"-61.05","46.55","GRAND ETANG","8201969","2018-08-01 17:00","2018","08","01","17:00","28.0","","17.3","","52","","","","20","","10","","","","101.78","","33","","","","NA"
"-61.05","46.55","GRAND ETANG","8201969","2018-08-01 18:00","2018","08","01","18:00","27.6","","16.9","","52","","","","20","","8","","","","101.76","","33","","","","NA"
"-61.05","46.55","GRAND ETANG","8201969","2018-08-01 19:00","2018","08","01","19:00","23.7","","17.1","","67","","","","15","","11","","","","101.76","","29","","","","NA"
"-61.05","46.55","GRAND ETANG","8201969","2018-08-01 20:00","2018","08","01","20:00","22.4","","14.9","","63","","","","15","","15","","","","101.76","","26","","","","NA"
"-61.05","46.55","GRAND ETANG","8201969","2018-08-01 21:00","2018","08","01","21:00","22.7","","15.2","","63","","","","15","","15","","","","101.74","","27","","","","NA"
"-61.05","46.55","GRAND ETANG","8201969","2018-08-01 22:00","2018","08","01","22:00","23.3","","15.4","","61","","","","15","","15","","","","101.74","","28","","","","NA"
"-61.05","46.55","GRAND ETANG","8201969","2018-08-01 23:00","2018","08","01","23:00","23.4","","16.1","","64","","","","16","","14","","","","101.74","","28","","","","NA"
"-61.05","46.55","GRAND ETANG","8201969","2018-08-02 00:00","2018","08","02","00:00","24.1","","16.2","","61","","","","18","","15","","","","101.75","","29","","","","NA"
"-61.05","46.55","GRAND ETANG","8201969","2018-08-02 01:00","2018","08","02","01:00","23.5","","16.0","","63","","","","19","","14","","","","101.72","","28","","","","NA"
"-61.05","46.55","GRAND ETANG","8201969","2018-08-02 02:00","2018","08","02","02:00","22.5","","15.9","","66","","","","17","","11","","","","101.73","","27","","","","NA"
"-61.05","46.55","GRAND ETANG","8201969","2018-08-02 03:00","2018","08","02","03:00","22.1","","15.6","","67","","","","17","","13","","","","101.70","","26","","","","NA"
"-61.05","46.55","GRAND ETANG","8201969","2018-08-02 04:00","2018","08","02","04:00","21.9","","15.3","","66","","","","16","","11","","","","101.68","","26","","","","NA"
"-61.05","46.55","GRAND ETANG","8201969","2018-08-02 05:00","2018","08","02","05:00","21.7","","15.0","","66","","","","17","","13","","","","101.71","","26","","","","NA"
"-61.05","46.55","GRAND ETANG","8201969","2018-08-02 06:00","2018","08","02","06:00","22.5","","14.4","","60","","","","18","","15","","","","101.68","","26","","","","NA"
"-61.05","46.55","GRAND ETANG","8201969","2018-08-02 07:00","2018","08","02","07:00","23.2","","11.9","","49","","","","19","","18","","","","101.62","","25","","","","NA"
"-61.05","46.55","GRAND ETANG","8201969","2018-08-02 08:00","2018","08","02","08:00","23.4","","12.7","","51","","","","18","","17","","","","101.61","","26","","","","NA"
"-61.05","46.55","GRAND ETANG","8201969","2018-08-02 09:00","2018","08","02","09:00","25.0","","15.7","","56","","","","18","","27","","","","101.49","","29","","","","NA"
"-61.05","46.55","GRAND ETANG","8201969","2018-08-02 10:00","2018","08","02","10:00","24.8","","18.6","","68","","","","19","","29","","","","101.45","","31","","","","NA"
"-61.05","46.55","GRAND ETANG","8201969","2018-08-02 11:00","2018","08","02","11:00","25.3","","19.9","","72","","","","19","","22","","","","101.40","","33","","","","NA"
"-61.05","46.55","GRAND ETANG","8201969","2018-08-02 12:00","2018","08","02","12:00","25.2","","20.0","","73","","","","19","","32","","","","101.31","","33","","","","NA"
"-61.05","46.55","GRAND ETANG","8201969","2018-08-02 13:00","2018","08","02","13:00","26.6","","21.2","","72","","","","19","","26","","","","101.28","","35","","","","NA"
"-61.05","46.55","GRAND ETANG","8201969","2018-08-02 14:00","2018","08","02","14:00","25.6","","21.2","","77","","","","21","","25","","","","101.23","","34","","","","NA"
"-61.05","46.55","GRAND ETANG","8201969","2018-08-02 15:00","2018","08","02","15:00","26.0","","21.5","","77","","","","20","","19","","","","101.21","","35","","","","NA"
"-61.05","46.55","GRAND ETANG","8201969","2018-08-02 16:00","2018","08","02","16:00","26.7","","22.1","","76","","","","21","","21","","","","101.17","","36","","","","NA"
"-61.05","46.55","GRAND ETANG","8201969","2018-08-02 17:00","2018","08","02","17:00","26.5","","22.1","","77","","","","21","","22","","","","101.19","","36","","","","NA"
"-61.05","46.55","GRAND ETANG","8201969","2018-08-02 18:00","2018","08","02","18:00","25.7","","21.7","","79","","","","20","","24","","","","101.16","","35","","","","NA"
"-61.05","46.55","GRAND ETANG","8201969","2018-08-02 19:00","2018","08","02","19:00","24.7","","21.8","","84","","","","20","","18","","","","101.22","","34","","","","NA"
"-61.05","46.55","GRAND ETANG","8201969","2018-08-02 20:00","2018","08","02","20:00","24.1","","21.7","","86","","","","18","","18","","","","101.26","","33","","","","NA"
"-61.05","46.55","GRAND ETANG","8201969","2018-08-02 21:00","2018","08","02","21:00","23.9","","21.6","","87","","","","19","","14","","","","101.31","","33","","","","NA"
"-61.05","46.55","GRAND ETANG","8201969","2018-08-02 22:00","2018","08","02","22:00","23.9","","21.6","","87","","","","19","","19","","","","101.31","","33","","","","NA"
"-61.05","46.55","GRAND ETANG","8201969","2018-08-02 23:00","2018","08","02","23:00","24.0","","21.9","","88","","","","19","","20","","","","101.33","","33","","","","NA"
"-61.05","46.55","GRAND ETANG","8201969","2018-08-03 00:00","2018","08","03","00:00","24.2","","22.4","","90","","","","19","","20","","","","101.32","","34","","","","NA"
"-61.05","46.55","GRAND ETANG","8201969","2018-08-03 01:00","2018","08","03","01:00","23.9","","22.2","","90","","","","20","","21","","","","101.32","","33","","","","NA"
"-61.05","46.55","GRAND ETANG","8201969","2018-08-03 02:00","2018","08","03","02:00","23.5","","22.2","","93","","","","20","","19","","","","101.34","","33","","","","NA"
"-61.05","46.55","GRAND ETANG","8201969","2018-08-03 03:00","2018","08","03","03:00","23.2","","22.3","","95","","","","20","","18","","","","101.37","","33","","","","NA"
"-61.05","46.55","GRAND ETANG","8201969","2018-08-03 04:00","2018","08","03","04:00","23.0","","22.4","","96","","","","20","","16","","","","101.39","","33","","","","NA"
"-61.05","46.55","GRAND ETANG","8201969","2018-08-03 05:00","2018","08","03","05:00","22.7","","22.3","","97","","","","20","","15","","","","101.46","","32","","","","NA"
"-61.05","46.55","GRAND ETANG","8201969","2018-08-03 06:00","2018","08","03","06:00","22.6","","22.2","","98","","","","21","","16","","","","101.51","","32","","","","NA"
"-61.05","46.55","GRAND ETANG","8201969","2018-08-03 07:00","2018","08","03","07:00","22.6","","22.3","","98","","","","22","","16","","","","101.53","","32","","","","NA"
"-61.05","46.55","GRAND ETANG","8201969","2018-08-03 08:00","2018","08","03","08:00","22.8","","22.4","","97","","","","23","","15","","","","101.54","","32","","","","NA"
"-61.05","46.55","GRAND ETANG","8201969","2018-08-03 09:00","2018","08","03","09:00","23.1","","22.5","","97","","","","24","","17","","","","101.56","","33","","","","NA"
"-61.05","46.55","GRAND ETANG","8201969","2018-08-03 10:00","2018","08","03","10:00","23.6","","22.4","","93","","","","23","","15","","","","101.57","","33","","","","NA"
"-61.05","46.55","GRAND ETANG","8201969","2018-08-03 11:00","2018","08","03","11:00","24.0","","22.1","","89","","","","24","","18","","","","101.59","","33","","","","NA"
"-61.05","46.55","GRAND ETANG","8201969","2018-08-03 12:00","2018","08","03","12:00","24.2","","22.2","","88","","","","26","","18","","","","101.63","","34","","","","NA"
"-61.05","46.55","GRAND ETANG","8201969","2018-08-03 13:00","2018","08","03","13:00","25.7","","22.7","","84","","","","24","","14","","","","101.67","","36","","","","NA"
"-61.05","46.55","GRAND ETANG","8201969","2018-08-03 14:00","2018","08","03","14:00","25.6","","22.6","","83","","","","26","","14","","","","101.69","","35","","","","NA"
"-61.05","46.55","GRAND ETANG","8201969","2018-08-03 15:00","2018","08","03","15:00","26.8","","22.2","","76","","","","28","","10","","","","101.71","","36","","","","NA"
"-61.05","46.55","GRAND ETANG","8201969","2018-08-03 16:00","2018","08","03","16:00","26.8","","22.2","","76","","","","28","","8","","","","101.71","","36","","","","NA"
"-61.05","46.55","GRAND ETANG","8201969","2018-08-03 17:00","2018","08","03","17:00","26.0","","21.3","","75","","","","28","","5","","","","101.73","","35","","","","NA"
"-61.05","46.55","GRAND ETANG","8201969","2018-08-03 18:00","2018","08","03","18:00","24.4","","19.8","","76","","","","32","","2","","","","101.72","","32","","","","NA"
"-61.05","46.55","GRAND ETANG","8201969","2018-08-03 19:00","2018","08","03","19:00","23.8","","19.9","","79","","","","27","","4","","","","101.74","","31","","","","NA"
"-61.05","46.55","GRAND ETANG","8201969","2018-08-03 20:00","2018","08","03","20:00","19.9","","19.4","","97","","","","15","","5","","","","101.78","","","","","","NA"
"-61.05","46.55","GRAND ETANG","8201969","2018-08-03 21:00","2018","08","03","21:00","19.2","","18.8","","97","","","","16","","8","","","","101.80","","","","","","NA"
"-61.05","46.55","GRAND ETANG","8201969","2018-08-03 22:00","2018","08","03","22:00","20.3","","16.6","","79","","","","14","","13","","","","101.80","","25","","","","NA"
"-61.05","46.55","GRAND ETANG","8201969","2018-08-03 23:00","2018","08","03","23:00","20.5","","16.8","","79","","","","14","","15","","","","101.79","","26","","","","NA"
"-61.05","46.55","GRAND ETANG","8201969","2018-08-04 00:00","2018","08","04","00:00","21.2","","16.8","","76","","","","14","","14","","","","101.78","","26","","","","NA"
"-61.05","46.55","GRAND ETANG","8201969","2018-08-04 01:00","2018","08","04","01:00","21.5","","16.7","","74","","","","15","","8","","","","101.75","","27","","","","NA"
"-61.05","46.55","GRAND ETANG","8201969","2018-08-04 02:00","2018","08","04","02:00","21.3","","16.8","","76","","","","17","","7","","","","101.74","","26","","","","NA"
"-61.05","46.55","GRAND ETANG","8201969","2018-08-04 03:00","2018","08","04","03:00","20.4","","16.8","","80","","","","16","","10","","","","101.73","","26","","","","NA"
"-61.05","46.55","GRAND ETANG","8201969","2018-08-04 04:00","2018","08","04","04:00","21.1","","16.2","","74","","","","17","","8","","","","101.76","","26","","","","NA"
"-61.05","46.55","GRAND ETANG","8201969","2018-08-04 05:00","2018","08","04","05:00","21.5","","16.8","","75","","","","16","","11","","","","101.79","","27","","","","NA"
"-61.05","46.55","GRAND ETANG","8201969","2018-08-04 06:00","2018","08","04","06:00","22.7","","18.3","","76","","","","17","","11","","","","101.81","","29","","","","NA"
"-61.05","46.55","GRAND ETANG","8201969","2018-08-04 07:00","2018","08","04","07:00","24.4","","18.9","","71","","","","18","","8","","","","101.83","","31","","","","NA"
"-61.05","46.55","GRAND ETANG","8201969","2018-08-04 08:00","2018","08","04","08:00","24.6","","18.9","","71","","","","23","","9","","","","101.83","","31","","","","NA"
"-61.05","46.55","GRAND ETANG","8201969","2018-08-04 09:00","2018","08","04","09:00","24.8","","19.0","","70","","","","21","","11","","","","101.87","","32","","","","NA"
"-61.05","46.55","GRAND ETANG","8201969","2018-08-04 10:00","2018","08","04","10:00","25.3","","19.8","","72","","","","24","","14","","","","101.91","","33","","","","NA"
"-61.05","46.55","GRAND ETANG","8201969","2018-08-04 11:00","2018","08","04","11:00","24.3","","20.6","","80","","","","24","","18","","","","101.87","","32","","","","NA"
"-61.05","46.55","GRAND ETANG","8201969","2018-08-04 12:00","2018","08","04","12:00","24.4","","20.5","","79","","","","24","","10","","","","101.83","","32","","","","NA"
"-61.05","46.55","GRAND ETANG","8201969","2018-08-04 13:00","2018","08","04","13:00","24.3","","21.2","","83","","","","25","","11","","","","101.87","","33","","","","NA"
"-61.05","46.55","GRAND ETANG","8201969","2018-08-04 14:00","2018","08","04","14:00","25.7","","21.7","","79","","","","28","","7","","","","101.85","","35","","","","NA"
"-61.05","46.55","GRAND ETANG","8201969","2018-08-04 15:00","2018","08","04","15:00","25.7","","21.7","","79","","","","30","","5","","","","101.82","","35","","","","NA"
"-61.05","46.55","GRAND ETANG","8201969","2018-08-04 16:00","2018","08","04","16:00","26.2","","22.0","","78","","","","36","","7","","","","101.79","","36","","","","NA"
"-61.05","46.55","GRAND ETANG","8201969","2018-08-04 17:00","2018","08","04","17:00","25.5","","22.6","","84","","","","34","","10","","","","101.72","","35","","","","NA"
"-61.05","46.55","GRAND ETANG","8201969","2018-08-04 18:00","2018","08","04","18:00","23.8","","21.8","","89","","","","1","","17","","","","101.73","","33","","","","NA"
"-61.05","46.55","GRAND ETANG","8201969","2018-08-04 19:00","2018","08","04","19:00","23.5","","20.3","","82","","","","5","","6","","","","101.68","","31","","","","NA"
"-61.05","46.55","GRAND ETANG","8201969","2018-08-04 20:00","2018","08","04","20:00","23.6","","19.8","","80","","","","18","","6","","","","101.66","","31","","","","NA"
"-61.05","46.55","GRAND ETANG","8201969","2018-08-04 21:00","2018","08","04","21:00","22.2","","21.1","","93","","","","16","","15","","","","101.70","","31","","","","NA"
"-61.05","46.55","GRAND ETANG","8201969","2018-08-04 22:00","2018","08","04","22:00","22.3","","21.3","","94","","","","15","","21","","","","101.63","","31","","","","NA"
"-61.05","46.55","GRAND ETANG","8201969","2018-08-04 23:00","2018","08","04","23:00","23.0","","20.0","","83","","","","15","","19","","","","101.62","","31","","","","NA"
"-61.05","46.55","GRAND ETANG","8201969","2018-08-05 00:00","2018","08","05","00:00","22.1","","21.4","","96","","","","23","","6","","","","101.63","","31","","","","NA"
"-61.05","46.55","GRAND ETANG","8201969","2018-08-05 01:00","2018","08","05","01:00","20.8","","20.6","","99","","","","12","","7","","","","101.58","","29","","","","NA"
"-61.05","46.55","GRAND ETANG","8201969","2018-08-05 02:00","2018","08","05","02:00","21.4","","20.7","","96","","","","18","","10","","","","101.57","","30","","","","NA"
"-61.05","46.55","GRAND ETANG","8201969","2018-08-05 03:00","2018","08","05","03:00","21.7","","20.7","","94","","","","16","","11","","","","101.55","","30","","","","NA"
"-61.05","46.55","GRAND ETANG","8201969","2018-08-05 04:00","2018","08","05","04:00","21.5","","20.7","","96","","","","16","","10","","","","101.51","","30","","","","NA"
"-61.05","46.55","GRAND ETANG","8201969","2018-08-05 05:00","2018","08","05","05:00","21.3","","21.0","","98","","","","18","","14","","","","101.55","","30","","","","NA"
"-61.05","46.55","GRAND ETANG","8201969","2018-08-05 06:00","2018","08","05","06:00","21.3","","21.0","","98","","","","15","","13","","","","101.51","","30","","","","NA"
"-61.05","46.55","GRAND ETANG","8201969","2018-08-05 07:00","2018","08","05","07:00","22.2","","21.6","","97","","","","15","","12","","","","101.49","","31","","","","NA"
"-61.05","46.55","GRAND ETANG","8201969","2018-08-05 08:00","2018","08","05","08:00","23.8","","22.0","","89","","","","20","","9","","","","101.51","","33","","","","NA"
"-61.05","46.55","GRAND ETANG","8201969","2018-08-05 09:00","2018","08","05","09:00","23.3","","22.3","","95","","","","23","","17","","","","101.51","","33","","","","NA"
"-61.05","46.55","GRAND ETANG","8201969","2018-08-05 10:00","2018","08","05","10:00","23.4","","22.4","","94","","","","22","","15","","","","101.50","","33","","","","NA"
"-61.05","46.55","GRAND ETANG","8201969","2018-08-05 11:00","2018","08","05","11:00","23.3","","21.9","","92","","","","23","","21","","","","101.45","","33","","","","NA"
"-61.05","46.55","GRAND ETANG","8201969","2018-08-05 12:00","2018","08","05","12:00","24.0","","21.1","","84","","","","21","","15","","","","101.39","","33","","","","NA"
"-61.05","46.55","GRAND ETANG","8201969","2018-08-05 13:00","2018","08","05","13:00","24.3","","21.4","","84","","","","25","","7","","","","101.37","","33","","","","NA"
"-61.05","46.55","GRAND ETANG","8201969","2018-08-05 14:00","2018","08","05","14:00","22.4","","22.0","","98","","","","21","","9","","","","101.35","","32","","","","NA"
"-61.05","46.55","GRAND ETANG","8201969","2018-08-05 15:00","2018","08","05","15:00","23.6","","22.4","","93","","","","15","","7","","","","101.31","","33","","","","NA"
"-61.05","46.55","GRAND ETANG","8201969","2018-08-05 16:00","2018","08","05","16:00","24.0","","22.2","","90","","","","25","","3","","","","101.27","","34","","","","NA"
"-61.05","46.55","GRAND ETANG","8201969","2018-08-05 17:00","2018","08","05","17:00","22.7","","21.3","","92","","","","17","","10","","","","101.26","","31","","","","NA"
"-61.05","46.55","GRAND ETANG","8201969","2018-08-05 18:00","2018","08","05","18:00","22.3","","21.4","","95","","","","19","","7","","","","101.28","","31","","","","NA"
"-61.05","46.55","GRAND ETANG","8201969","2018-08-05 19:00","2018","08","05","19:00","21.6","","20.7","","95","","","","18","","10","","","","101.29","","30","","","","NA"
"-61.05","46.55","GRAND ETANG","8201969","2018-08-05 20:00","2018","08","05","20:00","21.3","","20.5","","95","","","","15","","15","","","","101.30","","29","","","","NA"
"-61.05","46.55","GRAND ETANG","8201969","2018-08-05 21:00","2018","08","05","21:00","20.8","","20.1","","96","","","","18","","12","","","","101.32","","28","","","","NA"
"-61.05","46.55","GRAND ETANG","8201969","2018-08-05 22:00","2018","08","05","22:00","20.8","","","M","100","","","","26","","16","","","","101.33","","","","","","NA"
"-61.05","46.55","GRAND ETANG","8201969","2018-08-05 23:00","2018","08","05","23:00","19.7","","","M","","M","","","32","","15","","","","101.31","","","","","","NA"
"-61.05","46.55","GRAND ETANG","8201969","2018-08-06 00:00","2018","08","06","00:00","19.4","","","M","","M","","","9","","4","","","","101.31","","","","","","NA"
"-61.05","46.55","GRAND ETANG","8201969","2018-08-06 01:00","2018","08","06","01:00","19.6","","","M","","M","","","31","","6","","","","101.31","","","","","","NA"
"-61.05","46.55","GRAND ETANG","8201969","2018-08-06 02:00","2018","08","06","02:00","19.1","","","M","","M","","","30","","9","","","","101.34","","","","","","NA"
"-61.05","46.55","GRAND ETANG","8201969","2018-08-06 03:00","2018","08","06","03:00","19.0","","","M","","M","","","10","","4","","","","101.39","","","","","","NA"
"-61.05","46.55","GRAND ETANG","8201969","2018-08-06 04:00","2018","08","06","04:00","19.1","","","M","","M","","","12","","5","","","","101.38","","","","","","NA"
"-61.05","46.55","GRAND ETANG","8201969","2018-08-06 05:00","2018","08","06","05:00","18.4","","","M","100","","","","12","","6","","","","101.35","","","","","","NA"
"-61.05","46.55","GRAND ETANG","8201969","2018-08-06 06:00","2018","08","06","06:00","19.2","","","M","","M","","","12","","6","","","","101.37","","","","","","NA"
"-61.05","46.55","GRAND ETANG","8201969","2018-08-06 07:00","2018","08","06","07:00","21.6","","20.6","","94","","","","12","","4","","","","101.35","","30","","","","NA"
"-61.05","46.55","GRAND ETANG","8201969","2018-08-06 08:00","2018","08","06","08:00","22.7","","19.8","","84","","","","25","","1","","","","101.38","","30","","","","NA"
"-61.05","46.55","GRAND ETANG","8201969","2018-08-06 09:00","2018","08","06","09:00","24.8","","19.3","","71","","","","31","","2","","","","101.35","","32","","","","NA"
"-61.05","46.55","GRAND ETANG","8201969","2018-08-06 10:00","2018","08","06","10:00","24.5","","19.7","","75","","","","26","","9","","","","101.33","","32","","","","NA"
"-61.05","46.55","GRAND ETANG","8201969","2018-08-06 11:00","2018","08","06","11:00","25.6","","20.1","","72","","","","27","","9","","","","101.34","","33","","","","NA"
"-61.05","46.55","GRAND ETANG","8201969","2018-08-06 12:00","2018","08","06","12:00","26.0","","20.4","","71","","","","27","","5","","","","101.30","","34","","","","NA"
"-61.05","46.55","GRAND ETANG","8201969","2018-08-06 13:00","2018","08","06","13:00","26.2","","20.8","","72","","","","28","","9","","","","101.28","","34","","","","NA"
"-61.05","46.55","GRAND ETANG","8201969","2018-08-06 14:00","2018","08","06","14:00","26.6","","21.0","","72","","","","30","","5","","","","101.21","","35","","","","NA"
"-61.05","46.55","GRAND ETANG","8201969","2018-08-06 15:00","2018","08","06","15:00","26.4","","21.1","","73","","","","29","","9","","","","101.24","","35","","","","NA"
"-61.05","46.55","GRAND ETANG","8201969","2018-08-06 16:00","2018","08","06","16:00","25.2","","20.5","","75","","","","33","","6","","","","101.22","","33","","","","NA"
"-61.05","46.55","GRAND ETANG","8201969","2018-08-06 17:00","2018","08","06","17:00","25.0","","19.4","","71","","","","33","","3","","","","101.18","","32","","","","NA"
"-61.05","46.55","GRAND ETANG","8201969","2018-08-06 18:00","2018","08","06","18:00","24.1","","19.7","","76","","","","34","","3","","","","101.14","","31","","","","NA"
"-61.05","46.55","GRAND ETANG","8201969","2018-08-06 19:00","2018","08","06","19:00","22.3","","18.2","","78","","","","16","","9","","","","101.15","","28","","","","NA"
"-61.05","46.55","GRAND ETANG","8201969","2018-08-06 20:00","2018","08","06","20:00","21.3","","17.5","","79","","","","14","","17","","","","101.14","","27","","","","NA"
"-61.05","46.55","GRAND ETANG","8201969","2018-08-06 21:00","2018","08","06","21:00","22.5","","18.2","","77","","","","14","","22","","","","101.15","","29","","","","NA"
"-61.05","46.55","GRAND ETANG","8201969","2018-08-06 22:00","2018","08","06","22:00","22.3","","18.6","","80","","","","15","","23","","","","101.12","","29","","","","NA"
"-61.05","46.55","GRAND ETANG","8201969","2018-08-06 23:00","2018","08","06","23:00","22.1","","18.6","","81","","","","15","","20","","","","101.13","","29","","","","NA"
"-61.05","46.55","GRAND ETANG","8201969","2018-08-07 00:00","2018","08","07","00:00","22.2","","18.3","","78","","","","16","","18","","","","101.11","","28","","","","NA"
"-61.05","46.55","GRAND ETANG","8201969","2018-08-07 01:00","2018","08","07","01:00","22.7","","17.4","","72","","","","15","","22","","","","101.03","","28","","","","NA"
"-61.05","46.55","GRAND ETANG","8201969","2018-08-07 02:00","2018","08","07","02:00","23.4","","17.6","","70","","","","18","","12","","","","101.04","","29","","","","NA"
"-61.05","46.55","GRAND ETANG","8201969","2018-08-07 03:00","2018","08","07","03:00","21.5","","19.9","","91","","","","16","","18","","","","101.01","","29","","","","NA"
"-61.05","46.55","GRAND ETANG","8201969","2018-08-07 04:00","2018","08","07","04:00","22.3","","18.6","","80","","","","14","","18","","","","101.01","","29","","","","NA"
"-61.05","46.55","GRAND ETANG","8201969","2018-08-07 05:00","2018","08","07","05:00","21.6","","20.8","","96","","","","15","","20","","","","101.04","","30","","","","NA"
"-61.05","46.55","GRAND ETANG","8201969","2018-08-07 06:00","2018","08","07","06:00","21.9","","20.3","","91","","","","15","","17","","","","101.07","","30","","","","NA"
"-61.05","46.55","GRAND ETANG","8201969","2018-08-07 07:00","2018","08","07","07:00","23.6","","20.9","","85","","","","16","","13","","","","101.06","","32","","","","NA"
"-61.05","46.55","GRAND ETANG","8201969","2018-08-07 08:00","2018","08","07","08:00","25.2","","20.9","","77","","","","18","","13","","","","101.09","","34","","","","NA"
"-61.05","46.55","GRAND ETANG","8201969","2018-08-07 09:00","2018","08","07","09:00","26.0","","21.1","","74","","","","20","","15","","","","101.07","","35","","","","NA"
"-61.05","46.55","GRAND ETANG","8201969","2018-08-07 10:00","2018","08","07","10:00","25.9","","21.2","","75","","","","23","","19","","","","101.06","","34","","","","NA"
"-61.05","46.55","GRAND ETANG","8201969","2018-08-07 11:00","2018","08","07","11:00","26.2","","22.1","","79","","","","23","","17","","","","101.06","","36","","","","NA"
"-61.05","46.55","GRAND ETANG","8201969","2018-08-07 12:00","2018","08","07","12:00","25.9","","22.2","","80","","","","24","","17","","","","101.06","","35","","","","NA"
"-61.05","46.55","GRAND ETANG","8201969","2018-08-07 13:00","2018","08","07","13:00","26.5","","22.5","","79","","","","25","","13","","","","101.02","","36","","","","NA"
"-61.05","46.55","GRAND ETANG","8201969","2018-08-07 14:00","2018","08","07","14:00","28.0","","22.0","","70","","","","24","","10","","","","100.97","","37","","","","NA"
"-61.05","46.55","GRAND ETANG","8201969","2018-08-07 15:00","2018","08","07","15:00","28.9","","21.3","","64","","","","20","","8","","","","100.94","","38","","","","NA"
"-61.05","46.55","GRAND ETANG","8201969","2018-08-07 16:00","2018","08","07","16:00","27.0","","20.8","","69","","","","18","","10","","","","100.92","","35","","","","NA"
"-61.05","46.55","GRAND ETANG","8201969","2018-08-07 17:00","2018","08","07","17:00","27.3","","21.8","","72","","","","17","","7","","","","100.86","","36","","","","NA"
"-61.05","46.55","GRAND ETANG","8201969","2018-08-07 18:00","2018","08","07","18:00","26.2","","22.0","","78","","","","15","","10","","","","100.84","","36","","","","NA"
"-61.05","46.55","GRAND ETANG","8201969","2018-08-07 19:00","2018","08","07","19:00","25.8","","21.7","","79","","","","15","","16","","","","100.84","","35","","","","NA"
"-61.05","46.55","GRAND ETANG","8201969","2018-08-07 20:00","2018","08","07","20:00","25.2","","21.5","","80","","","","14","","17","","","","100.84","","34","","","","NA"
"-61.05","46.55","GRAND ETANG","8201969","2018-08-07 21:00","2018","08","07","21:00","25.3","","21.1","","78","","","","15","","18","","","","100.82","","34","","","","NA"
"-61.05","46.55","GRAND ETANG","8201969","2018-08-07 22:00","2018","08","07","22:00","25.4","","21.0","","77","","","","16","","15","","","","100.78","","34","","","","NA"
"-61.05","46.55","GRAND ETANG","8201969","2018-08-07 23:00","2018","08","07","23:00","25.3","","20.9","","77","","","","18","","17","","","","100.81","","34","","","","NA"
"-61.05","46.55","GRAND ETANG","8201969","2018-08-08 00:00","2018","08","08","00:00","24.4","","20.8","","81","","","","17","","15","","","","100.81","","33","","","","NA"
"-61.05","46.55","GRAND ETANG","8201969","2018-08-08 01:00","2018","08","08","01:00","24.9","","20.5","","76","","","","17","","19","","","","100.74","","33","","","","NA"
"-61.05","46.55","GRAND ETANG","8201969","2018-08-08 02:00","2018","08","08","02:00","24.7","","20.2","","76","","","","18","","17","","","","100.71","","32","","","","NA"
"-61.05","46.55","GRAND ETANG","8201969","2018-08-08 03:00","2018","08","08","03:00","24.5","","20.0","","76","","","","18","","17","","","","100.70","","32","","","","NA"
"-61.05","46.55","GRAND ETANG","8201969","2018-08-08 04:00","2018","08","08","04:00","24.1","","20.1","","78","","","","20","","17","","","","100.76","","32","","","","NA"
"-61.05","46.55","GRAND ETANG","8201969","2018-08-08 05:00","2018","08","08","05:00","23.8","","20.9","","84","","","","23","","21","","","","100.78","","32","","","","NA"
"-61.05","46.55","GRAND ETANG","8201969","2018-08-08 06:00","2018","08","08","06:00","23.3","","21.5","","90","","","","22","","21","","","","100.84","","32","","","","NA"
"-61.05","46.55","GRAND ETANG","8201969","2018-08-08 07:00","2018","08","08","07:00","22.8","","22.1","","96","","","","28","","22","","","","100.90","","32","","","","NA"
"-61.05","46.55","GRAND ETANG","8201969","2018-08-08 08:00","2018","08","08","08:00","23.0","","21.0","","88","","","","29","","21","","","","100.93","","31","","","","NA"
"-61.05","46.55","GRAND ETANG","8201969","2018-08-08 09:00","2018","08","08","09:00","24.1","","20.2","","79","","","","28","","16","","","","100.95","","32","","","","NA"
"-61.05","46.55","GRAND ETANG","8201969","2018-08-08 10:00","2018","08","08","10:00","23.6","","20.3","","82","","","","30","","18","","","","100.99","","31","","","","NA"
"-61.05","46.55","GRAND ETANG","8201969","2018-08-08 11:00","2018","08","08","11:00","23.3","","20.2","","82","","","","33","","15","","","","101.01","","31","","","","NA"
"-61.05","46.55","GRAND ETANG","8201969","2018-08-08 12:00","2018","08","08","12:00","23.2","","19.2","","78","","","","33","","9","","","","101.02","","30","","","","NA"
"-61.05","46.55","GRAND ETANG","8201969","2018-08-08 13:00","2018","08","08","13:00","23.6","","19.2","","77","","","","31","","11","","","","101.04","","31","","","","NA"
"-61.05","46.55","GRAND ETANG","8201969","2018-08-08 14:00","2018","08","08","14:00","24.5","","19.3","","73","","","","33","","10","","","","101.03","","32","","","","NA"
"-61.05","46.55","GRAND ETANG","8201969","2018-08-08 15:00","2018","08","08","15:00","24.7","","19.9","","75","","","","31","","13","","","","101.03","","32","","","","NA"
"-61.05","46.55","GRAND ETANG","8201969","2018-08-08 16:00","2018","08","08","16:00","25.0","","19.7","","73","","","","32","","10","","","","101.04","","32","","","","NA"
"-61.05","46.55","GRAND ETANG","8201969","2018-08-08 17:00","2018","08","08","17:00","24.4","","19.0","","72","","","","33","","9","","","","101.03","","31","","","","NA"
"-61.05","46.55","GRAND ETANG","8201969","2018-08-08 18:00","2018","08","08","18:00","22.4","","19.0","","81","","","","33","","9","","","","101.04","","29","","","","NA"
"-61.05","46.55","GRAND ETANG","8201969","2018-08-08 19:00","2018","08","08","19:00","21.4","","19.0","","86","","","","1","","11","","","","101.04","","28","","","","NA"
"-61.05","46.55","GRAND ETANG","8201969","2018-08-08 20:00","2018","08","08","20:00","19.8","","18.8","","94","","","","6","","8","","","","101.06","","","","","","NA"
"-61.05","46.55","GRAND ETANG","8201969","2018-08-08 21:00","2018","08","08","21:00","18.7","","18.0","","96","","","","11","","8","","","","101.11","","","","","","NA"
"-61.05","46.55","GRAND ETANG","8201969","2018-08-08 22:00","2018","08","08","22:00","17.9","","17.4","","97","","","","13","","5","","","","101.09","","","","","","NA"
"-61.05","46.55","GRAND ETANG","8201969","2018-08-08 23:00","2018","08","08","23:00","17.1","","16.6","","96","","","","14","","8","","","","101.06","","","","","","NA"
"-61.05","46.55","GRAND ETANG","8201969","2018-08-09 00:00","2018","08","09","00:00","16.4","","15.8","","97","","","","15","","11","","","","101.09","","","","","","NA"
"-61.05","46.55","GRAND ETANG","8201969","2018-08-09 01:00","2018","08","09","01:00","16.7","","15.4","","92","","","","15","","10","","","","101.07","","","","","","NA"
"-61.05","46.55","GRAND ETANG","8201969","2018-08-09 02:00","2018","08","09","02:00","16.2","","15.5","","96","","","","14","","10","","","","101.03","","","","","","NA"
"-61.05","46.55","GRAND ETANG","8201969","2018-08-09 03:00","2018","08","09","03:00","17.2","","15.1","","87","","","","9","","6","","","","101.00","","","","","","NA"
"-61.05","46.55","GRAND ETANG","8201969","2018-08-09 04:00","2018","08","09","04:00","17.7","","15.7","","88","","","","16","","8","","","","100.95","","","","","","NA"
"-61.05","46.55","GRAND ETANG","8201969","2018-08-09 05:00","2018","08","09","05:00","18.3","","16.0","","87","","","","16","","4","","","","100.97","","","","","","NA"
"-61.05","46.55","GRAND ETANG","8201969","2018-08-09 06:00","2018","08","09","06:00","21.0","","17.3","","79","","","","28","","3","","","","100.95","","26","","","","NA"
"-61.05","46.55","GRAND ETANG","8201969","2018-08-09 07:00","2018","08","09","07:00","21.1","","17.2","","78","","","","11","","8","","","","100.95","","27","","","","NA"
"-61.05","46.55","GRAND ETANG","8201969","2018-08-09 08:00","2018","08","09","08:00","21.5","","18.3","","82","","","","12","","11","","","","100.91","","28","","","","NA"
"-61.05","46.55","GRAND ETANG","8201969","2018-08-09 09:00","2018","08","09","09:00","21.6","","18.8","","84","","","","14","","21","","","","100.85","","28","","","","NA"
"-61.05","46.55","GRAND ETANG","8201969","2018-08-09 10:00","2018","08","09","10:00","23.7","","19.4","","77","","","","13","","27","","","","100.79","","31","","","","NA"
"-61.05","46.55","GRAND ETANG","8201969","2018-08-09 11:00","2018","08","09","11:00","24.0","","19.5","","76","","","","14","","28","","","","100.75","","31","","","","NA"
"-61.05","46.55","GRAND ETANG","8201969","2018-08-09 12:00","2018","08","09","12:00","25.5","","21.3","","78","","","","14","","26","","","","100.70","","34","","","","NA"
"-61.05","46.55","GRAND ETANG","8201969","2018-08-09 13:00","2018","08","09","13:00","24.4","","20.8","","80","","","","15","","24","","","","100.68","","33","","","","NA"
"-61.05","46.55","GRAND ETANG","8201969","2018-08-09 14:00","2018","08","09","14:00","26.6","","21.5","","74","","","","17","","23","","","","100.55","","35","","","","NA"
"-61.05","46.55","GRAND ETANG","8201969","2018-08-09 15:00","2018","08","09","15:00","26.1","","21.8","","78","","","","16","","25","","","","100.50","","35","","","","NA"
"-61.05","46.55","GRAND ETANG","8201969","2018-08-09 16:00","2018","08","09","16:00","26.0","","21.6","","77","","","","18","","23","","","","100.45","","35","","","","NA"
"-61.05","46.55","GRAND ETANG","8201969","2018-08-09 17:00","2018","08","09","17:00","26.2","","21.0","","73","","","","19","","26","","","","100.40","","35","","","","NA"
"-61.05","46.55","GRAND ETANG","8201969","2018-08-09 18:00","2018","08","09","18:00","25.9","","20.9","","74","","","","19","","23","","","","100.40","","34","","","","NA"
"-61.05","46.55","GRAND ETANG","8201969","2018-08-09 19:00","2018","08","09","19:00","25.3","","20.9","","77","","","","19","","26","","","","100.39","","34","","","","NA"
"-61.05","46.55","GRAND ETANG","8201969","2018-08-09 20:00","2018","08","09","20:00","24.9","","20.8","","78","","","","19","","29","","","","100.39","","33","","","","NA"
"-61.05","46.55","GRAND ETANG","8201969","2018-08-09 21:00","2018","08","09","21:00","23.0","","22.2","","96","","","","21","","28","","","","100.43","","33","","","","NA"
"-61.05","46.55","GRAND ETANG","8201969","2018-08-09 22:00","2018","08","09","22:00","22.2","","20.5","","90","","","","18","","17","","","","100.38","","30","","","","NA"
"-61.05","46.55","GRAND ETANG","8201969","2018-08-09 23:00","2018","08","09","23:00","22.9","","21.6","","92","","","","17","","21","","","","100.30","","32","","","","NA"
"-61.05","46.55","GRAND ETANG","8201969","2018-08-10 00:00","2018","08","10","00:00","22.7","","22.1","","96","","","","19","","23","","","","100.25","","32","","","","NA"
"-61.05","46.55","GRAND ETANG","8201969","2018-08-10 01:00","2018","08","10","01:00","22.4","","21.7","","96","","","","18","","19","","","","100.20","","31","","","","NA"
"-61.05","46.55","GRAND ETANG","8201969","2018-08-10 02:00","2018","08","10","02:00","22.1","","","M","100","","","","18","","17","","","","100.14","","","","","","NA"
"-61.05","46.55","GRAND ETANG","8201969","2018-08-10 03:00","2018","08","10","03:00","22.3","","22.1","","99","","","","19","","12","","","","100.10","","32","","","","NA"
"-61.05","46.55","GRAND ETANG","8201969","2018-08-10 04:00","2018","08","10","04:00","22.2","","22.1","","99","","","","19","","17","","","","100.14","","32","","","","NA"
"-61.05","46.55","GRAND ETANG","8201969","2018-08-10 05:00","2018","08","10","05:00","22.3","","22.1","","99","","","","21","","17","","","","100.17","","32","","","","NA"
"-61.05","46.55","GRAND ETANG","8201969","2018-08-10 06:00","2018","08","10","06:00","22.2","","","M","100","","","","24","","31","","","","100.19","","","","","","NA"
"-61.05","46.55","GRAND ETANG","8201969","2018-08-10 07:00","2018","08","10","07:00","22.3","","22.2","","100","","","","25","","28","","","","100.20","","32","","","","NA"
"-61.05","46.55","GRAND ETANG","8201969","2018-08-10 08:00","2018","08","10","08:00","22.3","","21.8","","97","","","","24","","23","","","","100.25","","31","","","","NA"
"-61.05","46.55","GRAND ETANG","8201969","2018-08-10 09:00","2018","08","10","09:00","22.4","","21.2","","93","","","","25","","23","","","","100.32","","31","","","","NA"
"-61.05","46.55","GRAND ETANG","8201969","2018-08-10 10:00","2018","08","10","10:00","23.0","","20.8","","87","","","","24","","21","","","","100.32","","31","","","","NA"
"-61.05","46.55","GRAND ETANG","8201969","2018-08-10 11:00","2018","08","10","11:00","23.5","","20.5","","83","","","","23","","32","","","","100.36","","31","","","","NA"
"-61.05","46.55","GRAND ETANG","8201969","2018-08-10 12:00","2018","08","10","12:00","23.6","","20.2","","81","","","","23","","33","","","","100.34","","31","","","","NA"
"-61.05","46.55","GRAND ETANG","8201969","2018-08-10 13:00","2018","08","10","13:00","23.2","","19.8","","81","","","","23","","31","","","","100.37","","31","","","","NA"
"-61.05","46.55","GRAND ETANG","8201969","2018-08-10 14:00","2018","08","10","14:00","23.6","","19.8","","79","","","","23","","28","","","","100.36","","31","","","","NA"
"-61.05","46.55","GRAND ETANG","8201969","2018-08-10 15:00","2018","08","10","15:00","23.8","","20.2","","80","","","","23","","23","","","","100.39","","32","","","","NA"
"-61.05","46.55","GRAND ETANG","8201969","2018-08-10 16:00","2018","08","10","16:00","24.9","","20.0","","74","","","","24","","20","","","","100.42","","32","","","","NA"
"-61.05","46.55","GRAND ETANG","8201969","2018-08-10 17:00","2018","08","10","17:00","23.4","","20.0","","81","","","","30","","20","","","","100.41","","31","","","","NA"
"-61.05","46.55","GRAND ETANG","8201969","2018-08-10 18:00","2018","08","10","18:00","22.2","","19.7","","86","","","","31","","13","","","","100.47","","30","","","","NA"
"-61.05","46.55","GRAND ETANG","8201969","2018-08-10 19:00","2018","08","10","19:00","21.3","","19.3","","89","","","","29","","6","","","","100.53","","28","","","","NA"
"-61.05","46.55","GRAND ETANG","8201969","2018-08-10 20:00","2018","08","10","20:00","20.2","","19.6","","97","","","","18","","8","","","","100.62","","27","","","","NA"
"-61.05","46.55","GRAND ETANG","8201969","2018-08-10 21:00","2018","08","10","21:00","20.1","","19.5","","97","","","","20","","10","","","","100.69","","27","","","","NA"
"-61.05","46.55","GRAND ETANG","8201969","2018-08-10 22:00","2018","08","10","22:00","21.1","","17.6","","81","","","","29","","26","","","","100.75","","27","","","","NA"
"-61.05","46.55","GRAND ETANG","8201969","2018-08-10 23:00","2018","08","10","23:00","20.9","","15.5","","71","","","","28","","24","","","","100.79","","25","","","","NA"
"-61.05","46.55","GRAND ETANG","8201969","2018-08-11 00:00","2018","08","11","00:00","21.5","","16.4","","73","","","","26","","36","","","","100.81","","26","","","","NA"
"-61.05","46.55","GRAND ETANG","8201969","2018-08-11 01:00","2018","08","11","01:00","20.9","","14.4","","66","","","","29","","34","","","","100.84","","25","","","","NA"
"-61.05","46.55","GRAND ETANG","8201969","2018-08-11 02:00","2018","08","11","02:00","20.3","","14.5","","69","","","","29","","28","","","","100.89","","","","","","NA"
"-61.05","46.55","GRAND ETANG","8201969","2018-08-11 03:00","2018","08","11","03:00","20.0","","12.7","","63","","","","28","","25","","","","100.91","","","","","","NA"
"-61.05","46.55","GRAND ETANG","8201969","2018-08-11 04:00","2018","08","11","04:00","20.4","","13.1","","63","","","","28","","27","","","","100.94","","","","","","NA"
"-61.05","46.55","GRAND ETANG","8201969","2018-08-11 05:00","2018","08","11","05:00","20.3","","15.0","","72","","","","26","","27","","","","100.98","","","","","","NA"
"-61.05","46.55","GRAND ETANG","8201969","2018-08-11 06:00","2018","08","11","06:00","20.8","","15.3","","71","","","","24","","27","","","","101.04","","25","","","","NA"
"-61.05","46.55","GRAND ETANG","8201969","2018-08-11 07:00","2018","08","11","07:00","21.0","","15.0","","69","","","","26","","36","","","","101.12","","25","","","","NA"
"-61.05","46.55","GRAND ETANG","8201969","2018-08-11 08:00","2018","08","11","08:00","21.3","","15.6","","70","","","","26","","33","","","","101.17","","26","","","","NA"
"-61.05","46.55","GRAND ETANG","8201969","2018-08-11 09:00","2018","08","11","09:00","21.7","","16.9","","74","","","","26","","31","","","","101.24","","27","","","","NA"
"-61.05","46.55","GRAND ETANG","8201969","2018-08-11 10:00","2018","08","11","10:00","22.2","","16.9","","72","","","","26","","28","","","","101.28","","27","","","","NA"
"-61.05","46.55","GRAND ETANG","8201969","2018-08-11 11:00","2018","08","11","11:00","22.7","","16.5","","68","","","","26","","26","","","","101.34","","28","","","","NA"
"-61.05","46.55","GRAND ETANG","8201969","2018-08-11 12:00","2018","08","11","12:00","23.1","","15.9","","64","","","","25","","21","","","","101.38","","28","","","","NA"
"-61.05","46.55","GRAND ETANG","8201969","2018-08-11 13:00","2018","08","11","13:00","23.4","","15.4","","61","","","","26","","21","","","","101.41","","28","","","","NA"
"-61.05","46.55","GRAND ETANG","8201969","2018-08-11 14:00","2018","08","11","14:00","24.3","","13.8","","52","","","","28","","24","","","","101.42","","28","","","","NA"
"-61.05","46.55","GRAND ETANG","8201969","2018-08-11 15:00","2018","08","11","15:00","24.3","","13.7","","52","","","","28","","23","","","","101.45","","27","","","","NA"
"-61.05","46.55","GRAND ETANG","8201969","2018-08-11 16:00","2018","08","11","16:00","23.9","","14.7","","56","","","","30","","22","","","","101.45","","28","","","","NA"
"-61.05","46.55","GRAND ETANG","8201969","2018-08-11 17:00","2018","08","11","17:00","23.2","","13.8","","56","","","","30","","23","","","","101.48","","26","","","","NA"
"-61.05","46.55","GRAND ETANG","8201969","2018-08-11 18:00","2018","08","11","18:00","22.6","","12.5","","53","","","","31","","13","","","","101.51","","25","","","","NA"
"-61.05","46.55","GRAND ETANG","8201969","2018-08-11 19:00","2018","08","11","19:00","18.9","","13.7","","72","","","","11","","3","","","","101.54","","","","","","NA"
"-61.05","46.55","GRAND ETANG","8201969","2018-08-11 20:00","2018","08","11","20:00","16.0","","12.4","","79","","","","14","","15","","","","101.55","","","","","","NA"
"-61.05","46.55","GRAND ETANG","8201969","2018-08-11 21:00","2018","08","11","21:00","17.2","","12.0","","72","","","","14","","16","","","","101.59","","","","","","NA"
"-61.05","46.55","GRAND ETANG","8201969","2018-08-11 22:00","2018","08","11","22:00","17.4","","11.9","","70","","","","14","","18","","","","101.63","","","","","","NA"
"-61.05","46.55","GRAND ETANG","8201969","2018-08-11 23:00","2018","08","11","23:00","17.2","","11.6","","69","","","","14","","16","","","","101.64","","","","","","NA"
"-61.05","46.55","GRAND ETANG","8201969","2018-08-12 00:00","2018","08","12","00:00","17.1","","11.7","","70","","","","15","","13","","","","101.67","","","","","","NA"
"-61.05","46.55","GRAND ETANG","8201969","2018-08-12 01:00","2018","08","12","01:00","17.1","","11.9","","71","","","","15","","14","","","","101.69","","","","","","NA"
"-61.05","46.55","GRAND ETANG","8201969","2018-08-12 02:00","2018","08","12","02:00","17.5","","12.2","","71","","","","15","","16","","","","101.69","","","","","","NA"
"-61.05","46.55","GRAND ETANG","8201969","2018-08-12 03:00","2018","08","12","03:00","17.8","","12.0","","69","","","","17","","14","","","","101.71","","","","","","NA"
"-61.05","46.55","GRAND ETANG","8201969","2018-08-12 04:00","2018","08","12","04:00","18.3","","14.1","","77","","","","17","","15","","","","101.71","","","","","","NA"
"-61.05","46.55","GRAND ETANG","8201969","2018-08-12 05:00","2018","08","12","05:00","18.9","","14.4","","75","","","","16","","15","","","","101.74","","","","","","NA"
"-61.05","46.55","GRAND ETANG","8201969","2018-08-12 06:00","2018","08","12","06:00","18.9","","15.1","","78","","","","16","","11","","","","101.78","","","","","","NA"
"-61.05","46.55","GRAND ETANG","8201969","2018-08-12 07:00","2018","08","12","07:00","20.8","","16.4","","76","","","","17","","10","","","","101.82","","26","","","","NA"
"-61.05","46.55","GRAND ETANG","8201969","2018-08-12 08:00","2018","08","12","08:00","23.3","","17.4","","69","","","","24","","9","","","","101.87","","29","","","","NA"
"-61.05","46.55","GRAND ETANG","8201969","2018-08-12 09:00","2018","08","12","09:00","24.1","","17.9","","68","","","","25","","9","","","","101.90","","30","","","","NA"
"-61.05","46.55","GRAND ETANG","8201969","2018-08-12 10:00","2018","08","12","10:00","24.3","","18.1","","69","","","","24","","12","","","","101.92","","30","","","","NA"
"-61.05","46.55","GRAND ETANG","8201969","2018-08-12 11:00","2018","08","12","11:00","24.0","","18.1","","70","","","","24","","18","","","","101.92","","30","","","","NA"
"-61.05","46.55","GRAND ETANG","8201969","2018-08-12 12:00","2018","08","12","12:00","24.6","","18.5","","69","","","","24","","18","","","","101.94","","31","","","","NA"
"-61.05","46.55","GRAND ETANG","8201969","2018-08-12 13:00","2018","08","12","13:00","25.5","","19.0","","67","","","","24","","15","","","","101.92","","32","","","","NA"
"-61.05","46.55","GRAND ETANG","8201969","2018-08-12 14:00","2018","08","12","14:00","25.9","","19.2","","67","","","","25","","12","","","","101.91","","33","","","","NA"
"-61.05","46.55","GRAND ETANG","8201969","2018-08-12 15:00","2018","08","12","15:00","25.9","","19.1","","66","","","","24","","12","","","","101.88","","33","","","","NA"
"-61.05","46.55","GRAND ETANG","8201969","2018-08-12 16:00","2018","08","12","16:00","25.5","","19.1","","68","","","","25","","10","","","","101.89","","32","","","","NA"
"-61.05","46.55","GRAND ETANG","8201969","2018-08-12 17:00","2018","08","12","17:00","24.8","","19.0","","70","","","","25","","10","","","","101.89","","32","","","","NA"
"-61.05","46.55","GRAND ETANG","8201969","2018-08-12 18:00","2018","08","12","18:00","24.2","","19.0","","73","","","","24","","9","","","","101.87","","31","","","","NA"
"-61.05","46.55","GRAND ETANG","8201969","2018-08-12 19:00","2018","08","12","19:00","20.9","","17.4","","80","","","","18","","2","","","","101.89","","26","","","","NA"
"-61.05","46.55","GRAND ETANG","8201969","2018-08-12 20:00","2018","08","12","20:00","17.3","","15.6","","90","","","","14","","11","","","","101.92","","","","","","NA"
"-61.05","46.55","GRAND ETANG","8201969","2018-08-12 21:00","2018","08","12","21:00","17.0","","12.1","","73","","","","14","","15","","","","101.92","","","","","","NA"
"-61.05","46.55","GRAND ETANG","8201969","2018-08-12 22:00","2018","08","12","22:00","17.2","","13.2","","78","","","","14","","15","","","","101.88","","","","","","NA"
"-61.05","46.55","GRAND ETANG","8201969","2018-08-12 23:00","2018","08","12","23:00","17.8","","14.0","","78","","","","14","","13","","","","101.84","","","","","","NA"
"-61.05","46.55","GRAND ETANG","8201969","2018-08-13 00:00","2018","08","13","00:00","19.2","","15.4","","78","","","","14","","16","","","","101.85","","","","","","NA"
"-61.05","46.55","GRAND ETANG","8201969","2018-08-13 01:00","2018","08","13","01:00","17.7","","13.8","","78","","","","17","","8","","","","101.88","","","","","","NA"
"-61.05","46.55","GRAND ETANG","8201969","2018-08-13 02:00","2018","08","13","02:00","18.7","","14.1","","75","","","","15","","12","","","","101.84","","","","","","NA"
"-61.05","46.55","GRAND ETANG","8201969","2018-08-13 03:00","2018","08","13","03:00","18.4","","13.8","","75","","","","15","","10","","","","101.85","","","","","","NA"
"-61.05","46.55","GRAND ETANG","8201969","2018-08-13 04:00","2018","08","13","04:00","18.3","","15.3","","83","","","","16","","13","","","","101.87","","","","","","NA"
"-61.05","46.55","GRAND ETANG","8201969","2018-08-13 05:00","2018","08","13","05:00","18.8","","17.0","","89","","","","16","","15","","","","101.85","","","","","","NA"
"-61.05","46.55","GRAND ETANG","8201969","2018-08-13 06:00","2018","08","13","06:00","20.3","","18.5","","89","","","","17","","11","","","","101.86","","27","","","","NA"
"-61.05","46.55","GRAND ETANG","8201969","2018-08-13 07:00","2018","08","13","07:00","22.7","","19.0","","80","","","","18","","10","","","","101.87","","29","","","","NA"
"-61.05","46.55","GRAND ETANG","8201969","2018-08-13 08:00","2018","08","13","08:00","23.1","","19.1","","78","","","","20","","14","","","","101.86","","30","","","","NA"
"-61.05","46.55","GRAND ETANG","8201969","2018-08-13 09:00","2018","08","13","09:00","23.6","","19.8","","79","","","","21","","18","","","","101.84","","31","","","","NA"
"-61.05","46.55","GRAND ETANG","8201969","2018-08-13 10:00","2018","08","13","10:00","24.0","","19.5","","76","","","","23","","21","","","","101.82","","31","","","","NA"
"-61.05","46.55","GRAND ETANG","8201969","2018-08-13 11:00","2018","08","13","11:00","24.8","","19.9","","75","","","","23","","20","","","","101.80","","32","","","","NA"
"-61.05","46.55","GRAND ETANG","8201969","2018-08-13 12:00","2018","08","13","12:00","25.5","","19.9","","71","","","","23","","15","","","","101.77","","33","","","","NA"
"-61.05","46.55","GRAND ETANG","8201969","2018-08-13 13:00","2018","08","13","13:00","26.4","","19.4","","66","","","","23","","17","","","","101.72","","33","","","","NA"
"-61.05","46.55","GRAND ETANG","8201969","2018-08-13 14:00","2018","08","13","14:00","26.5","","19.1","","64","","","","23","","18","","","","101.67","","33","","","","NA"
"-61.05","46.55","GRAND ETANG","8201969","2018-08-13 15:00","2018","08","13","15:00","26.3","","16.5","","55","","","","21","","16","","","","101.63","","31","","","","NA"
"-61.05","46.55","GRAND ETANG","8201969","2018-08-13 16:00","2018","08","13","16:00","26.0","","14.2","","48","","","","20","","14","","","","101.60","","29","","","","NA"
"-61.05","46.55","GRAND ETANG","8201969","2018-08-13 17:00","2018","08","13","17:00","26.5","","14.5","","48","","","","22","","11","","","","101.59","","30","","","","NA"
"-61.05","46.55","GRAND ETANG","8201969","2018-08-13 18:00","2018","08","13","18:00","25.6","","15.6","","54","","","","18","","8","","","","101.56","","30","","","","NA"
"-61.05","46.55","GRAND ETANG","8201969","2018-08-13 19:00","2018","08","13","19:00","22.6","","15.9","","66","","","","16","","13","","","","101.51","","27","","","","NA"
"-61.05","46.55","GRAND ETANG","8201969","2018-08-13 20:00","2018","08","13","20:00","21.8","","15.4","","67","","","","15","","17","","","","101.52","","26","","","","NA"
"-61.05","46.55","GRAND ETANG","8201969","2018-08-13 21:00","2018","08","13","21:00","20.9","","15.4","","71","","","","15","","14","","","","101.53","","25","","","","NA"
"-61.05","46.55","GRAND ETANG","8201969","2018-08-13 22:00","2018","08","13","22:00","20.5","","15.4","","73","","","","16","","14","","","","101.49","","25","","","","NA"
"-61.05","46.55","GRAND ETANG","8201969","2018-08-13 23:00","2018","08","13","23:00","20.2","","15.3","","73","","","","16","","13","","","","101.50","","","","","","NA"
"-61.05","46.55","GRAND ETANG","8201969","2018-08-14 00:00","2018","08","14","00:00","20.4","","15.4","","73","","","","16","","15","","","","101.50","","25","","","","NA"
"-61.05","46.55","GRAND ETANG","8201969","2018-08-14 01:00","2018","08","14","01:00","20.0","","15.7","","76","","","","17","","13","","","","101.50","","","","","","NA"
"-61.05","46.55","GRAND ETANG","8201969","2018-08-14 02:00","2018","08","14","02:00","19.7","","16.0","","79","","","","16","","12","","","","101.51","","","","","","NA"
"-61.05","46.55","GRAND ETANG","8201969","2018-08-14 03:00","2018","08","14","03:00","19.1","","15.9","","82","","","","17","","12","","","","101.50","","","","","","NA"
"-61.05","46.55","GRAND ETANG","8201969","2018-08-14 04:00","2018","08","14","04:00","19.4","","16.2","","82","","","","16","","12","","","","101.51","","","","","","NA"
"-61.05","46.55","GRAND ETANG","8201969","2018-08-14 05:00","2018","08","14","05:00","19.3","","16.5","","84","","","","17","","13","","","","101.49","","","","","","NA"
"-61.05","46.55","GRAND ETANG","8201969","2018-08-14 06:00","2018","08","14","06:00","20.5","","17.5","","83","","","","17","","13","","","","101.49","","26","","","","NA"
"-61.05","46.55","GRAND ETANG","8201969","2018-08-14 07:00","2018","08","14","07:00","21.8","","18.0","","79","","","","19","","12","","","","101.50","","28","","","","NA"
"-61.05","46.55","GRAND ETANG","8201969","2018-08-14 08:00","2018","08","14","08:00","24.0","","19.0","","74","","","","20","","13","","","","101.47","","31","","","","NA"
"-61.05","46.55","GRAND ETANG","8201969","2018-08-14 09:00","2018","08","14","09:00","24.3","","19.2","","73","","","","23","","15","","","","101.49","","31","","","","NA"
"-61.05","46.55","GRAND ETANG","8201969","2018-08-14 10:00","2018","08","14","10:00","24.6","","19.6","","74","","","","24","","18","","","","101.48","","32","","","","NA"
"-61.05","46.55","GRAND ETANG","8201969","2018-08-14 11:00","2018","08","14","11:00","25.0","","20.4","","75","","","","24","","15","","","","101.46","","33","","","","NA"
"-61.05","46.55","GRAND ETANG","8201969","2018-08-14 12:00","2018","08","14","12:00","25.8","","20.2","","71","","","","24","","16","","","","101.43","","34","","","","NA"
"-61.05","46.55","GRAND ETANG","8201969","2018-08-14 13:00","2018","08","14","13:00","27.0","","18.3","","59","","","","25","","12","","","","101.39","","33","","","","NA"
"-61.05","46.55","GRAND ETANG","8201969","2018-08-14 14:00","2018","08","14","14:00","27.2","","17.0","","54","","","","23","","13","","","","101.36","","32","","","","NA"
"-61.05","46.55","GRAND ETANG","8201969","2018-08-14 15:00","2018","08","14","15:00","27.0","","17.6","","56","","","","25","","7","","","","101.33","","33","","","","NA"
"-61.05","46.55","GRAND ETANG","8201969","2018-08-14 16:00","2018","08","14","16:00","28.2","","19.8","","60","","","","25","","10","","","","101.26","","36","","","","NA"
"-61.05","46.55","GRAND ETANG","8201969","2018-08-14 17:00","2018","08","14","17:00","26.5","","19.4","","65","","","","19","","8","","","","101.22","","34","","","","NA"
"-61.05","46.55","GRAND ETANG","8201969","2018-08-14 18:00","2018","08","14","18:00","25.2","","18.6","","67","","","","16","","17","","","","101.20","","32","","","","NA"
"-61.05","46.55","GRAND ETANG","8201969","2018-08-14 19:00","2018","08","14","19:00","23.5","","18.1","","72","","","","15","","21","","","","101.19","","30","","","","NA"
"-61.05","46.55","GRAND ETANG","8201969","2018-08-14 20:00","2018","08","14","20:00","22.5","","18.4","","78","","","","17","","20","","","","101.25","","29","","","","NA"
"-61.05","46.55","GRAND ETANG","8201969","2018-08-14 21:00","2018","08","14","21:00","22.3","","18.1","","77","","","","17","","19","","","","101.23","","28","","","","NA"
"-61.05","46.55","GRAND ETANG","8201969","2018-08-14 22:00","2018","08","14","22:00","22.1","","18.0","","78","","","","19","","14","","","","101.18","","28","","","","NA"
"-61.05","46.55","GRAND ETANG","8201969","2018-08-14 23:00","2018","08","14","23:00","22.1","","17.5","","76","","","","19","","15","","","","101.14","","28","","","","NA"
"-61.05","46.55","GRAND ETANG","8201969","2018-08-15 00:00","2018","08","15","00:00","22.3","","19.0","","82","","","","21","","17","","","","101.12","","29","","","","NA"
"-61.05","46.55","GRAND ETANG","8201969","2018-08-15 01:00","2018","08","15","01:00","21.4","","20.1","","92","","","","16","","23","","","","101.06","","29","","","","NA"
"-61.05","46.55","GRAND ETANG","8201969","2018-08-15 02:00","2018","08","15","02:00","22.0","","21.4","","96","","","","18","","15","","","","100.99","","31","","","","NA"
"-61.05","46.55","GRAND ETANG","8201969","2018-08-15 03:00","2018","08","15","03:00","22.5","","21.6","","95","","","","16","","23","","","","100.93","","31","","","","NA"
"-61.05","46.55","GRAND ETANG","8201969","2018-08-15 04:00","2018","08","15","04:00","22.4","","21.8","","96","","","","19","","15","","","","100.94","","32","","","","NA"
"-61.05","46.55","GRAND ETANG","8201969","2018-08-15 05:00","2018","08","15","05:00","22.5","","21.8","","96","","","","18","","16","","","","100.91","","32","","","","NA"
"-61.05","46.55","GRAND ETANG","8201969","2018-08-15 06:00","2018","08","15","06:00","22.5","","21.7","","95","","","","17","","14","","","","100.93","","32","","","","NA"
"-61.05","46.55","GRAND ETANG","8201969","2018-08-15 07:00","2018","08","15","07:00","22.4","","21.9","","97","","","","18","","13","","","","100.88","","32","","","","NA"
"-61.05","46.55","GRAND ETANG","8201969","2018-08-15 08:00","2018","08","15","08:00","22.6","","22.2","","98","","","","18","","14","","","","100.90","","32","","","","NA"
"-61.05","46.55","GRAND ETANG","8201969","2018-08-15 09:00","2018","08","15","09:00","23.8","","21.6","","88","","","","19","","13","","","","100.90","","33","","","","NA"
"-61.05","46.55","GRAND ETANG","8201969","2018-08-15 10:00","2018","08","15","10:00","24.1","","22.0","","88","","","","23","","25","","","","100.91","","33","","","","NA"
"-61.05","46.55","GRAND ETANG","8201969","2018-08-15 11:00","2018","08","15","11:00","25.4","","21.6","","80","","","","23","","27","","","","100.87","","34","","","","NA"
"-61.05","46.55","GRAND ETANG","8201969","2018-08-15 12:00","2018","08","15","12:00","25.6","","21.9","","80","","","","23","","28","","","","100.86","","35","","","","NA"
"-61.05","46.55","GRAND ETANG","8201969","2018-08-15 13:00","2018","08","15","13:00","26.3","","21.2","","74","","","","23","","23","","","","100.84","","35","","","","NA"
"-61.05","46.55","GRAND ETANG","8201969","2018-08-15 14:00","2018","08","15","14:00","26.2","","22.1","","78","","","","23","","24","","","","100.80","","36","","","","NA"
"-61.05","46.55","GRAND ETANG","8201969","2018-08-15 15:00","2018","08","15","15:00","26.1","","21.8","","78","","","","23","","20","","","","100.78","","35","","","","NA"
"-61.05","46.55","GRAND ETANG","8201969","2018-08-15 16:00","2018","08","15","16:00","26.4","","21.9","","76","","","","22","","15","","","","100.74","","36","","","","NA"
"-61.05","46.55","GRAND ETANG","8201969","2018-08-15 17:00","2018","08","15","17:00","26.9","","21.9","","74","","","","22","","13","","","","100.72","","36","","","","NA"
"-61.05","46.55","GRAND ETANG","8201969","2018-08-15 18:00","2018","08","15","18:00","25.5","","21.5","","78","","","","20","","16","","","","100.70","","34","","","","NA"
"-61.05","46.55","GRAND ETANG","8201969","2018-08-15 19:00","2018","08","15","19:00","24.7","","20.7","","78","","","","18","","12","","","","100.72","","33","","","","NA"
"-61.05","46.55","GRAND ETANG","8201969","2018-08-15 20:00","2018","08","15","20:00","23.8","","19.5","","77","","","","19","","14","","","","100.73","","31","","","","NA"
"-61.05","46.55","GRAND ETANG","8201969","2018-08-15 21:00","2018","08","15","21:00","23.3","","18.8","","76","","","","19","","15","","","","100.75","","30","","","","NA"
"-61.05","46.55","GRAND ETANG","8201969","2018-08-15 22:00","2018","08","15","22:00","22.8","","18.8","","78","","","","17","","14","","","","100.79","","29","","","","NA"
"-61.05","46.55","GRAND ETANG","8201969","2018-08-15 23:00","2018","08","15","23:00","22.3","","19.5","","84","","","","18","","13","","","","100.78","","29","","","","NA"
"-61.05","46.55","GRAND ETANG","8201969","2018-08-16 00:00","2018","08","16","00:00","22.1","","19.8","","87","","","","18","","15","","","","100.77","","30","","","","NA"
"-61.05","46.55","GRAND ETANG","8201969","2018-08-16 01:00","2018","08","16","01:00","22.2","","19.9","","87","","","","18","","14","","","","100.75","","30","","","","NA"
"-61.05","46.55","GRAND ETANG","8201969","2018-08-16 02:00","2018","08","16","02:00","22.1","","19.9","","87","","","","18","","12","","","","100.75","","30","","","","NA"
"-61.05","46.55","GRAND ETANG","8201969","2018-08-16 03:00","2018","08","16","03:00","22.0","","20.1","","89","","","","18","","13","","","","100.73","","30","","","","NA"
"-61.05","46.55","GRAND ETANG","8201969","2018-08-16 04:00","2018","08","16","04:00","21.7","","20.9","","95","","","","19","","11","","","","100.71","","30","","","","NA"
"-61.05","46.55","GRAND ETANG","8201969","2018-08-16 05:00","2018","08","16","05:00","22.1","","21.5","","97","","","","25","","22","","","","100.73","","31","","","","NA"
"-61.05","46.55","GRAND ETANG","8201969","2018-08-16 06:00","2018","08","16","06:00","22.0","","21.4","","97","","","","27","","22","","","","100.73","","31","","","","NA"
"-61.05","46.55","GRAND ETANG","8201969","2018-08-16 07:00","2018","08","16","07:00","22.1","","21.5","","96","","","","25","","17","","","","100.77","","31","","","","NA"
"-61.05","46.55","GRAND ETANG","8201969","2018-08-16 08:00","2018","08","16","08:00","22.7","","21.8","","94","","","","27","","17","","","","100.77","","32","","","","NA"
"-61.05","46.55","GRAND ETANG","8201969","2018-08-16 09:00","2018","08","16","09:00","24.3","","21.5","","84","","","","26","","13","","","","100.77","","33","","","","NA"
"-61.05","46.55","GRAND ETANG","8201969","2018-08-16 10:00","2018","08","16","10:00","24.3","","21.0","","82","","","","27","","10","","","","100.81","","33","","","","NA"
"-61.05","46.55","GRAND ETANG","8201969","2018-08-16 11:00","2018","08","16","11:00","27.1","","22.2","","75","","","","26","","8","","","","100.77","","37","","","","NA"
"-61.05","46.55","GRAND ETANG","8201969","2018-08-16 12:00","2018","08","16","12:00","22.2","","21.4","","95","","","","34","","21","","","","100.79","","31","","","","NA"
"-61.05","46.55","GRAND ETANG","8201969","2018-08-16 13:00","2018","08","16","13:00","20.4","","","M","100","","","","3","","13","","","","100.85","","","","","","NA"
"-61.05","46.55","GRAND ETANG","8201969","2018-08-16 14:00","2018","08","16","14:00","22.7","","22.5","","99","","","","1","","15","","","","100.79","","32","","","","NA"
"-61.05","46.55","GRAND ETANG","8201969","2018-08-16 15:00","2018","08","16","15:00","22.3","","20.0","","87","","","","35","","30","","","","100.84","","30","","","","NA"
"-61.05","46.55","GRAND ETANG","8201969","2018-08-16 16:00","2018","08","16","16:00","20.1","","18.7","","92","","","","2","","28","","","","100.94","","27","","","","NA"
"-61.05","46.55","GRAND ETANG","8201969","2018-08-16 17:00","2018","08","16","17:00","19.5","","18.9","","96","","","","1","","26","","","","101.00","","","","","","NA"
"-61.05","46.55","GRAND ETANG","8201969","2018-08-16 18:00","2018","08","16","18:00","19.0","","18.4","","96","","","","35","","27","","","","101.06","","","","","","NA"
"-61.05","46.55","GRAND ETANG","8201969","2018-08-16 19:00","2018","08","16","19:00","18.5","","18.0","","97","","","","35","","26","","","","101.11","","","","","","NA"
"-61.05","46.55","GRAND ETANG","8201969","2018-08-16 20:00","2018","08","16","20:00","18.2","","17.6","","97","","","","36","","25","","","","101.18","","","","","","NA"
"-61.05","46.55","GRAND ETANG","8201969","2018-08-16 21:00","2018","08","16","21:00","17.8","","17.0","","95","","","","36","","23","","","","101.22","","","","","","NA"
"-61.05","46.55","GRAND ETANG","8201969","2018-08-16 22:00","2018","08","16","22:00","17.6","","17.1","","97","","","","35","","27","","","","101.24","","","","","","NA"
"-61.05","46.55","GRAND ETANG","8201969","2018-08-16 23:00","2018","08","16","23:00","17.7","","17.0","","96","","","","35","","25","","","","101.25","","","","","","NA"
"-61.05","46.55","GRAND ETANG","8201969","2018-08-17 00:00","2018","08","17","00:00","17.5","","16.5","","94","","","","35","","27","","","","101.26","","","","","","NA"
"-61.05","46.55","GRAND ETANG","8201969","2018-08-17 01:00","2018","08","17","01:00","18.0","","15.6","","86","","","","35","","27","","","","101.27","","","","","","NA"
"-61.05","46.55","GRAND ETANG","8201969","2018-08-17 02:00","2018","08","17","02:00","17.9","","15.1","","84","","","","34","","28","","","","101.31","","","","","","NA"
"-61.05","46.55","GRAND ETANG","8201969","2018-08-17 03:00","2018","08","17","03:00","17.5","","15.3","","87","","","","34","","30","","","","101.36","","","","","","NA"
"-61.05","46.55","GRAND ETANG","8201969","2018-08-17 04:00","2018","08","17","04:00","17.6","","14.8","","83","","","","33","","27","","","","101.40","","","","","","NA"
"-61.05","46.55","GRAND ETANG","8201969","2018-08-17 05:00","2018","08","17","05:00","17.2","","14.1","","82","","","","34","","25","","","","101.44","","","","","","NA"
"-61.05","46.55","GRAND ETANG","8201969","2018-08-17 06:00","2018","08","17","06:00","17.4","","13.6","","78","","","","34","","27","","","","101.49","","","","","","NA"
"-61.05","46.55","GRAND ETANG","8201969","2018-08-17 07:00","2018","08","17","07:00","17.7","","13.6","","77","","","","34","","24","","","","101.50","","","","","","NA"
"-61.05","46.55","GRAND ETANG","8201969","2018-08-17 08:00","2018","08","17","08:00","17.3","","14.5","","84","","","","34","","29","","","","101.54","","","","","","NA"
"-61.05","46.55","GRAND ETANG","8201969","2018-08-17 09:00","2018","08","17","09:00","17.4","","14.9","","85","","","","35","","31","","","","101.56","","","","","","NA"
"-61.05","46.55","GRAND ETANG","8201969","2018-08-17 10:00","2018","08","17","10:00","17.3","","12.8","","75","","","","35","","31","","","","101.60","","","","","","NA"
"-61.05","46.55","GRAND ETANG","8201969","2018-08-17 11:00","2018","08","17","11:00","18.5","","14.1","","76","","","","1","","24","","","","101.60","","","","","","NA"
"-61.05","46.55","GRAND ETANG","8201969","2018-08-17 12:00","2018","08","17","12:00","18.4","","13.4","","73","","","","36","","25","","","","101.59","","","","","","NA"
"-61.05","46.55","GRAND ETANG","8201969","2018-08-17 13:00","2018","08","17","13:00","19.3","","13.9","","71","","","","36","","25","","","","101.57","","","","","","NA"
"-61.05","46.55","GRAND ETANG","8201969","2018-08-17 14:00","2018","08","17","14:00","20.0","","13.0","","64","","","","36","","20","","","","101.57","","","","","","NA"
"-61.05","46.55","GRAND ETANG","8201969","2018-08-17 15:00","2018","08","17","15:00","20.1","","13.3","","65","","","","34","","20","","","","101.57","","","","","","NA"
"-61.05","46.55","GRAND ETANG","8201969","2018-08-17 16:00","2018","08","17","16:00","19.7","","13.2","","66","","","","34","","18","","","","101.58","","","","","","NA"
"-61.05","46.55","GRAND ETANG","8201969","2018-08-17 17:00","2018","08","17","17:00","19.8","","13.4","","67","","","","35","","14","","","","101.56","","","","","","NA"
"-61.05","46.55","GRAND ETANG","8201969","2018-08-17 18:00","2018","08","17","18:00","18.9","","12.5","","66","","","","36","","11","","","","101.55","","","","","","NA"
"-61.05","46.55","GRAND ETANG","8201969","2018-08-17 19:00","2018","08","17","19:00","16.6","","11.6","","73","","","","6","","9","","","","101.55","","","","","","NA"
"-61.05","46.55","GRAND ETANG","8201969","2018-08-17 20:00","2018","08","17","20:00","13.7","","11.6","","87","","","","12","","10","","","","101.59","","","","","","NA"
"-61.05","46.55","GRAND ETANG","8201969","2018-08-17 21:00","2018","08","17","21:00","12.5","","11.7","","95","","","","14","","12","","","","101.55","","","","","","NA"
"-61.05","46.55","GRAND ETANG","8201969","2018-08-17 22:00","2018","08","17","22:00","14.4","","11.4","","82","","","","12","","9","","","","101.52","","","","","","NA"
"-61.05","46.55","GRAND ETANG","8201969","2018-08-17 23:00","2018","08","17","23:00","14.6","","11.6","","83","","","","15","","14","","","","101.46","","","","","","NA"
"-61.05","46.55","GRAND ETANG","8201969","2018-08-18 00:00","2018","08","18","00:00","14.8","","11.9","","82","","","","15","","19","","","","101.41","","","","","","NA"
"-61.05","46.55","GRAND ETANG","8201969","2018-08-18 01:00","2018","08","18","01:00","15.2","","11.8","","81","","","","15","","19","","","","101.42","","","","","","NA"
"-61.05","46.55","GRAND ETANG","8201969","2018-08-18 02:00","2018","08","18","02:00","15.8","","11.5","","76","","","","14","","21","","","","101.38","","","","","","NA"
"-61.05","46.55","GRAND ETANG","8201969","2018-08-18 03:00","2018","08","18","03:00","15.9","","11.8","","76","","","","15","","17","","","","101.35","","","","","","NA"
"-61.05","46.55","GRAND ETANG","8201969","2018-08-18 04:00","2018","08","18","04:00","16.3","","11.4","","73","","","","14","","21","","","","101.30","","","","","","NA"
"-61.05","46.55","GRAND ETANG","8201969","2018-08-18 05:00","2018","08","18","05:00","16.6","","11.9","","74","","","","15","","21","","","","101.25","","","","","","NA"
"-61.05","46.55","GRAND ETANG","8201969","2018-08-18 06:00","2018","08","18","06:00","16.9","","12.4","","75","","","","14","","19","","","","101.22","","","","","","NA"
"-61.05","46.55","GRAND ETANG","8201969","2018-08-18 07:00","2018","08","18","07:00","17.5","","13.1","","75","","","","15","","17","","","","101.23","","","","","","NA"
"-61.05","46.55","GRAND ETANG","8201969","2018-08-18 08:00","2018","08","18","08:00","17.8","","14.1","","79","","","","15","","13","","","","101.22","","","","","","NA"
"-61.05","46.55","GRAND ETANG","8201969","2018-08-18 09:00","2018","08","18","09:00","18.5","","15.9","","85","","","","15","","12","","","","101.14","","","","","","NA"
"-61.05","46.55","GRAND ETANG","8201969","2018-08-18 10:00","2018","08","18","10:00","18.7","","15.2","","80","","","","18","","12","","","","101.12","","","","","","NA"
"-61.05","46.55","GRAND ETANG","8201969","2018-08-18 11:00","2018","08","18","11:00","17.2","","16.3","","95","","","","17","","11","","","","101.13","","","","","","NA"
"-61.05","46.55","GRAND ETANG","8201969","2018-08-18 12:00","2018","08","18","12:00","17.1","","16.5","","96","","","","15","","8","","","","101.13","","","","","","NA"
"-61.05","46.55","GRAND ETANG","8201969","2018-08-18 13:00","2018","08","18","13:00","16.6","","16.1","","97","","","","4","","3","","","","101.10","","","","","","NA"
"-61.05","46.55","GRAND ETANG","8201969","2018-08-18 14:00","2018","08","18","14:00","16.8","","16.7","","100","","","","9","","2","","","","101.03","","","","","","NA"
"-61.05","46.55","GRAND ETANG","8201969","2018-08-18 15:00","2018","08","18","15:00","16.7","","","M","100","","","","18","","15","","","","100.92","","","","","","NA"
"-61.05","46.55","GRAND ETANG","8201969","2018-08-18 16:00","2018","08","18","16:00","16.9","","16.6","","98","","","","24","","1","","","","100.89","","","","","","NA"
"-61.05","46.55","GRAND ETANG","8201969","2018-08-18 17:00","2018","08","18","17:00","16.9","","16.5","","98","","","","8","","5","","","","100.82","","","","","","NA"
"-61.05","46.55","GRAND ETANG","8201969","2018-08-18 18:00","2018","08","18","18:00","17.1","","16.1","","94","","","","1","","11","","","","100.76","","","","","","NA"
"-61.05","46.55","GRAND ETANG","8201969","2018-08-18 19:00","2018","08","18","19:00","16.9","","16.1","","95","","","","12","","27","","","","100.68","","","","","","NA"
"-61.05","46.55","GRAND ETANG","8201969","2018-08-18 20:00","2018","08","18","20:00","17.1","","16.1","","94","","","","12","","26","","","","100.69","","","","","","NA"
"-61.05","46.55","GRAND ETANG","8201969","2018-08-18 21:00","2018","08","18","21:00","17.5","","15.8","","90","","","","11","","40","","","","100.54","","","","","","NA"
"-61.05","46.55","GRAND ETANG","8201969","2018-08-18 22:00","2018","08","18","22:00","18.1","","16.2","","89","","","","9","","15","","","","100.73","","","","","","NA"
"-61.05","46.55","GRAND ETANG","8201969","2018-08-18 23:00","2018","08","18","23:00","18.0","","16.2","","89","","","","3","","16","","","","100.75","","","","","","NA"
"-61.05","46.55","GRAND ETANG","8201969","2018-08-19 00:00","2018","08","19","00:00","18.4","","16.0","","86","","","","3","","15","","","","100.76","","","","","","NA"
"-61.05","46.55","GRAND ETANG","8201969","2018-08-19 01:00","2018","08","19","01:00","18.0","","15.5","","85","","","","9","","33","","","","100.68","","","","","","NA"
"-61.05","46.55","GRAND ETANG","8201969","2018-08-19 02:00","2018","08","19","02:00","18.0","","15.1","","83","","","","7","","17","","","","100.75","","","","","","NA"
"-61.05","46.55","GRAND ETANG","8201969","2018-08-19 03:00","2018","08","19","03:00","17.9","","15.0","","83","","","","2","","23","","","","100.87","","","","","","NA"
"-61.05","46.55","GRAND ETANG","8201969","2018-08-19 04:00","2018","08","19","04:00","17.2","","14.2","","83","","","","3","","20","","","","100.97","","","","","","NA"
"-61.05","46.55","GRAND ETANG","8201969","2018-08-19 05:00","2018","08","19","05:00","17.2","","13.6","","79","","","","2","","20","","","","101.09","","","","","","NA"
"-61.05","46.55","GRAND ETANG","8201969","2018-08-19 06:00","2018","08","19","06:00","17.1","","13.9","","81","","","","2","","21","","","","101.18","","","","","","NA"
"-61.05","46.55","GRAND ETANG","8201969","2018-08-19 07:00","2018","08","19","07:00","17.6","","13.7","","78","","","","3","","18","","","","101.26","","","","","","NA"
"-61.05","46.55","GRAND ETANG","8201969","2018-08-19 08:00","2018","08","19","08:00","18.5","","13.4","","72","","","","3","","25","","","","101.32","","","","","","NA"
"-61.05","46.55","GRAND ETANG","8201969","2018-08-19 09:00","2018","08","19","09:00","20.5","","14.0","","66","","","","4","","18","","","","101.39","","","","","","NA"
"-61.05","46.55","GRAND ETANG","8201969","2018-08-19 10:00","2018","08","19","10:00","21.7","","14.1","","62","","","","3","","20","","","","101.43","","25","","","","NA"
"-61.05","46.55","GRAND ETANG","8201969","2018-08-19 11:00","2018","08","19","11:00","21.4","","16.0","","71","","","","1","","30","","","","101.47","","26","","","","NA"
"-61.05","46.55","GRAND ETANG","8201969","2018-08-19 12:00","2018","08","19","12:00","20.8","","16.5","","77","","","","1","","32","","","","101.48","","26","","","","NA"
"-61.05","46.55","GRAND ETANG","8201969","2018-08-19 13:00","2018","08","19","13:00","21.5","","17.2","","77","","","","1","","36","","","","101.53","","27","","","","NA"
"-61.05","46.55","GRAND ETANG","8201969","2018-08-19 14:00","2018","08","19","14:00","21.3","","16.7","","75","","","","2","","35","","","","101.58","","26","","","","NA"
"-61.05","46.55","GRAND ETANG","8201969","2018-08-19 15:00","2018","08","19","15:00","21.1","","16.7","","76","","","","2","","37","","","","101.61","","26","","","","NA"
"-61.05","46.55","GRAND ETANG","8201969","2018-08-19 16:00","2018","08","19","16:00","20.7","","16.5","","77","","","","2","","38","","","","101.63","","26","","","","NA"
"-61.05","46.55","GRAND ETANG","8201969","2018-08-19 17:00","2018","08","19","17:00","20.3","","16.7","","80","","","","2","","36","","","","101.68","","25","","","","NA"
"-61.05","46.55","GRAND ETANG","8201969","2018-08-19 18:00","2018","08","19","18:00","19.6","","16.1","","80","","","","2","","30","","","","101.77","","","","","","NA"
"-61.05","46.55","GRAND ETANG","8201969","2018-08-19 19:00","2018","08","19","19:00","17.6","","15.0","","84","","","","5","","14","","","","101.84","","","","","","NA"
"-61.05","46.55","GRAND ETANG","8201969","2018-08-19 20:00","2018","08","19","20:00","16.3","","12.0","","76","","","","9","","8","","","","101.93","","","","","","NA"
"-61.05","46.55","GRAND ETANG","8201969","2018-08-19 21:00","2018","08","19","21:00","16.5","","9.4","","63","","","","7","","14","","","","101.97","","","","","","NA"
"-61.05","46.55","GRAND ETANG","8201969","2018-08-19 22:00","2018","08","19","22:00","13.2","","9.8","","80","","","","12","","9","","","","102.00","","","","","","NA"
"-61.05","46.55","GRAND ETANG","8201969","2018-08-19 23:00","2018","08","19","23:00","12.8","","8.2","","74","","","","14","","8","","","","102.01","","","","","","NA"
"-61.05","46.55","GRAND ETANG","8201969","2018-08-20 00:00","2018","08","20","00:00","11.9","","8.2","","78","","","","14","","10","","","","102.02","","","","","","NA"
"-61.05","46.55","GRAND ETANG","8201969","2018-08-20 01:00","2018","08","20","01:00","11.8","","8.0","","77","","","","14","","8","","","","102.02","","","","","","NA"
"-61.05","46.55","GRAND ETANG","8201969","2018-08-20 02:00","2018","08","20","02:00","12.6","","8.2","","74","","","","15","","10","","","","102.03","","","","","","NA"
"-61.05","46.55","GRAND ETANG","8201969","2018-08-20 03:00","2018","08","20","03:00","11.8","","8.0","","77","","","","15","","8","","","","102.08","","","","","","NA"
"-61.05","46.55","GRAND ETANG","8201969","2018-08-20 04:00","2018","08","20","04:00","11.4","","8.7","","83","","","","13","","8","","","","102.08","","","","","","NA"
"-61.05","46.55","GRAND ETANG","8201969","2018-08-20 05:00","2018","08","20","05:00","12.0","","8.6","","80","","","","16","","9","","","","102.15","","","","","","NA"
"-61.05","46.55","GRAND ETANG","8201969","2018-08-20 06:00","2018","08","20","06:00","12.5","","9.3","","81","","","","12","","5","","","","102.21","","","","","","NA"
"-61.05","46.55","GRAND ETANG","8201969","2018-08-20 07:00","2018","08","20","07:00","16.3","","10.7","","70","","","","12","","7","","","","102.27","","","","","","NA"
"-61.05","46.55","GRAND ETANG","8201969","2018-08-20 08:00","2018","08","20","08:00","19.7","","11.1","","57","","","","14","","4","","","","102.30","","","","","","NA"
"-61.05","46.55","GRAND ETANG","8201969","2018-08-20 09:00","2018","08","20","09:00","20.3","","13.3","","64","","","","24","","3","","","","102.32","","","","","","NA"
"-61.05","46.55","GRAND ETANG","8201969","2018-08-20 10:00","2018","08","20","10:00","21.6","","14.0","","62","","","","31","","3","","","","102.30","","25","","","","NA"
"-61.05","46.55","GRAND ETANG","8201969","2018-08-20 11:00","2018","08","20","11:00","20.6","","12.6","","60","","","","35","","4","","","","102.27","","","","","","NA"
"-61.05","46.55","GRAND ETANG","8201969","2018-08-20 12:00","2018","08","20","12:00","22.1","","13.8","","59","","","","34","","11","","","","102.23","","25","","","","NA"
"-61.05","46.55","GRAND ETANG","8201969","2018-08-20 13:00","2018","08","20","13:00","22.0","","14.7","","63","","","","34","","14","","","","102.20","","26","","","","NA"
"-61.05","46.55","GRAND ETANG","8201969","2018-08-20 14:00","2018","08","20","14:00","22.1","","15.7","","67","","","","34","","17","","","","102.15","","27","","","","NA"
"-61.05","46.55","GRAND ETANG","8201969","2018-08-20 15:00","2018","08","20","15:00","21.8","","15.9","","69","","","","34","","20","","","","102.10","","26","","","","NA"
"-61.05","46.55","GRAND ETANG","8201969","2018-08-20 16:00","2018","08","20","16:00","21.7","","16.0","","70","","","","2","","18","","","","102.09","","26","","","","NA"
"-61.05","46.55","GRAND ETANG","8201969","2018-08-20 17:00","2018","08","20","17:00","21.0","","15.4","","70","","","","1","","17","","","","102.07","","25","","","","NA"
"-61.05","46.55","GRAND ETANG","8201969","2018-08-20 18:00","2018","08","20","18:00","20.6","","14.1","","66","","","","12","","14","","","","102.08","","","","","","NA"
"-61.05","46.55","GRAND ETANG","8201969","2018-08-20 19:00","2018","08","20","19:00","19.1","","14.0","","72","","","","12","","22","","","","102.09","","","","","","NA"
"-61.05","46.55","GRAND ETANG","8201969","2018-08-20 20:00","2018","08","20","20:00","18.3","","13.5","","73","","","","12","","28","","","","102.10","","","","","","NA"
"-61.05","46.55","GRAND ETANG","8201969","2018-08-20 21:00","2018","08","20","21:00","17.6","","13.0","","75","","","","12","","27","","","","102.11","","","","","","NA"
"-61.05","46.55","GRAND ETANG","8201969","2018-08-20 22:00","2018","08","20","22:00","17.2","","12.8","","76","","","","12","","26","","","","102.09","","","","","","NA"
"-61.05","46.55","GRAND ETANG","8201969","2018-08-20 23:00","2018","08","20","23:00","16.7","","12.3","","75","","","","13","","22","","","","102.09","","","","","","NA"
"-61.05","46.55","GRAND ETANG","8201969","2018-08-21 00:00","2018","08","21","00:00","16.5","","11.9","","75","","","","13","","26","","","","102.04","","","","","","NA"
"-61.05","46.55","GRAND ETANG","8201969","2018-08-21 01:00","2018","08","21","01:00","16.2","","12.1","","77","","","","13","","18","","","","102.06","","","","","","NA"
"-61.05","46.55","GRAND ETANG","8201969","2018-08-21 02:00","2018","08","21","02:00","16.4","","11.6","","73","","","","11","","22","","","","102.04","","","","","","NA"
"-61.05","46.55","GRAND ETANG","8201969","2018-08-21 03:00","2018","08","21","03:00","16.8","","12.0","","73","","","","11","","24","","","","101.98","","","","","","NA"
"-61.05","46.55","GRAND ETANG","8201969","2018-08-21 04:00","2018","08","21","04:00","16.4","","12.1","","76","","","","11","","24","","","","101.96","","","","","","NA"
"-61.05","46.55","GRAND ETANG","8201969","2018-08-21 05:00","2018","08","21","05:00","16.0","","12.3","","79","","","","12","","16","","","","102.01","","","","","","NA"
"-61.05","46.55","GRAND ETANG","8201969","2018-08-21 06:00","2018","08","21","06:00","16.9","","12.4","","75","","","","13","","11","","","","102.01","","","","","","NA"
"-61.05","46.55","GRAND ETANG","8201969","2018-08-21 07:00","2018","08","21","07:00","18.6","","13.4","","72","","","","13","","7","","","","101.99","","","","","","NA"
"-61.05","46.55","GRAND ETANG","8201969","2018-08-21 08:00","2018","08","21","08:00","19.5","","14.2","","72","","","","36","","8","","","","101.99","","","","","","NA"
"-61.05","46.55","GRAND ETANG","8201969","2018-08-21 09:00","2018","08","21","09:00","19.6","","15.0","","74","","","","33","","13","","","","101.98","","","","","","NA"
"-61.05","46.55","GRAND ETANG","8201969","2018-08-21 10:00","2018","08","21","10:00","19.5","","14.7","","74","","","","34","","18","","","","101.98","","","","","","NA"
"-61.05","46.55","GRAND ETANG","8201969","2018-08-21 11:00","2018","08","21","11:00","20.2","","14.6","","70","","","","35","","15","","","","101.96","","","","","","NA"
"-61.05","46.55","GRAND ETANG","8201969","2018-08-21 12:00","2018","08","21","12:00","21.6","","15.4","","68","","","","34","","17","","","","101.89","","26","","","","NA"
"-61.05","46.55","GRAND ETANG","8201969","2018-08-21 13:00","2018","08","21","13:00","21.1","","15.3","","69","","","","34","","20","","","","101.83","","25","","","","NA"
"-61.05","46.55","GRAND ETANG","8201969","2018-08-21 14:00","2018","08","21","14:00","22.0","","16.0","","69","","","","34","","17","","","","101.80","","27","","","","NA"
"-61.05","46.55","GRAND ETANG","8201969","2018-08-21 15:00","2018","08","21","15:00","21.8","","15.9","","69","","","","33","","18","","","","101.77","","26","","","","NA"
"-61.05","46.55","GRAND ETANG","8201969","2018-08-21 16:00","2018","08","21","16:00","22.2","","16.4","","70","","","","34","","12","","","","101.75","","27","","","","NA"
"-61.05","46.55","GRAND ETANG","8201969","2018-08-21 17:00","2018","08","21","17:00","22.0","","15.8","","68","","","","34","","8","","","","101.71","","26","","","","NA"
"-61.05","46.55","GRAND ETANG","8201969","2018-08-21 18:00","2018","08","21","18:00","21.3","","15.3","","68","","","","33","","4","","","","101.69","","25","","","","NA"
"-61.05","46.55","GRAND ETANG","8201969","2018-08-21 19:00","2018","08","21","19:00","19.2","","14.8","","76","","","","13","","12","","","","101.68","","","","","","NA"
"-61.05","46.55","GRAND ETANG","8201969","2018-08-21 20:00","2018","08","21","20:00","17.7","","14.3","","81","","","","14","","15","","","","101.71","","","","","","NA"
"-61.05","46.55","GRAND ETANG","8201969","2018-08-21 21:00","2018","08","21","21:00","17.5","","14.4","","82","","","","14","","16","","","","101.71","","","","","","NA"
"-61.05","46.55","GRAND ETANG","8201969","2018-08-21 22:00","2018","08","21","22:00","17.1","","14.2","","83","","","","14","","18","","","","101.70","","","","","","NA"
"-61.05","46.55","GRAND ETANG","8201969","2018-08-21 23:00","2018","08","21","23:00","17.0","","14.2","","84","","","","14","","20","","","","101.67","","","","","","NA"
"-61.05","46.55","GRAND ETANG","8201969","2018-08-22 00:00","2018","08","22","00:00","16.9","","14.2","","84","","","","15","","20","","","","101.66","","","","","","NA"
"-61.05","46.55","GRAND ETANG","8201969","2018-08-22 01:00","2018","08","22","01:00","16.4","","14.3","","87","","","","15","","19","","","","101.59","","","","","","NA"
"-61.05","46.55","GRAND ETANG","8201969","2018-08-22 02:00","2018","08","22","02:00","16.6","","14.1","","85","","","","15","","20","","","","101.55","","","","","","NA"
"-61.05","46.55","GRAND ETANG","8201969","2018-08-22 03:00","2018","08","22","03:00","17.1","","14.2","","83","","","","14","","18","","","","101.48","","","","","","NA"
"-61.05","46.55","GRAND ETANG","8201969","2018-08-22 04:00","2018","08","22","04:00","17.2","","14.3","","83","","","","16","","14","","","","101.44","","","","","","NA"
"-61.05","46.55","GRAND ETANG","8201969","2018-08-22 05:00","2018","08","22","05:00","17.4","","14.8","","84","","","","15","","17","","","","101.44","","","","","","NA"
"-61.05","46.55","GRAND ETANG","8201969","2018-08-22 06:00","2018","08","22","06:00","17.7","","15.0","","85","","","","17","","12","","","","101.43","","","","","","NA"
"-61.05","46.55","GRAND ETANG","8201969","2018-08-22 07:00","2018","08","22","07:00","18.5","","15.8","","85","","","","19","","7","","","","101.41","","","","","","NA"
"-61.05","46.55","GRAND ETANG","8201969","2018-08-22 08:00","2018","08","22","08:00","20.7","","15.9","","74","","","","14","","15","","","","101.36","","25","","","","NA"
"-61.05","46.55","GRAND ETANG","8201969","2018-08-22 09:00","2018","08","22","09:00","22.9","","16.4","","67","","","","13","","11","","","","101.28","","28","","","","NA"
"-61.05","46.55","GRAND ETANG","8201969","2018-08-22 10:00","2018","08","22","10:00","23.7","","16.3","","63","","","","20","","12","","","","101.21","","29","","","","NA"
"-61.05","46.55","GRAND ETANG","8201969","2018-08-22 11:00","2018","08","22","11:00","24.8","","15.3","","56","","","","16","","17","","","","101.14","","29","","","","NA"
"-61.05","46.55","GRAND ETANG","8201969","2018-08-22 12:00","2018","08","22","12:00","25.9","","16.1","","55","","","","16","","16","","","","101.06","","31","","","","NA"
"-61.05","46.55","GRAND ETANG","8201969","2018-08-22 13:00","2018","08","22","13:00","26.2","","16.3","","54","","","","18","","16","","","","100.94","","31","","","","NA"
"-61.05","46.55","GRAND ETANG","8201969","2018-08-22 14:00","2018","08","22","14:00","25.1","","16.4","","59","","","","17","","21","","","","100.90","","30","","","","NA"
"-61.05","46.55","GRAND ETANG","8201969","2018-08-22 15:00","2018","08","22","15:00","24.9","","17.0","","62","","","","17","","15","","","","100.83","","30","","","","NA"
"-61.05","46.55","GRAND ETANG","8201969","2018-08-22 16:00","2018","08","22","16:00","23.7","","17.0","","66","","","","18","","15","","","","100.77","","29","","","","NA"
"-61.05","46.55","GRAND ETANG","8201969","2018-08-22 17:00","2018","08","22","17:00","23.1","","17.2","","69","","","","20","","10","","","","100.70","","29","","","","NA"
"-61.05","46.55","GRAND ETANG","8201969","2018-08-22 18:00","2018","08","22","18:00","22.2","","16.8","","72","","","","16","","12","","","","100.64","","27","","","","NA"
"-61.05","46.55","GRAND ETANG","8201969","2018-08-22 19:00","2018","08","22","19:00","21.3","","17.1","","77","","","","14","","32","","","","100.56","","27","","","","NA"
"-61.05","46.55","GRAND ETANG","8201969","2018-08-22 20:00","2018","08","22","20:00","20.9","","17.4","","80","","","","14","","33","","","","100.54","","26","","","","NA"
"-61.05","46.55","GRAND ETANG","8201969","2018-08-22 21:00","2018","08","22","21:00","20.5","","17.6","","84","","","","15","","21","","","","100.53","","26","","","","NA"
"-61.05","46.55","GRAND ETANG","8201969","2018-08-22 22:00","2018","08","22","22:00","21.9","","18.6","","81","","","","14","","31","","","","100.36","","28","","","","NA"
"-61.05","46.55","GRAND ETANG","8201969","2018-08-22 23:00","2018","08","22","23:00","22.8","","19.6","","82","","","","15","","28","","","","100.29","","30","","","","NA"
"-61.05","46.55","GRAND ETANG","8201969","2018-08-23 00:00","2018","08","23","00:00","23.4","","20.5","","84","","","","16","","36","","","","100.19","","31","","","","NA"
"-61.05","46.55","GRAND ETANG","8201969","2018-08-23 01:00","2018","08","23","01:00","23.4","","20.4","","83","","","","17","","30","","","","100.11","","31","","","","NA"
"-61.05","46.55","GRAND ETANG","8201969","2018-08-23 02:00","2018","08","23","02:00","23.5","","20.8","","85","","","","18","","29","","","","100.08","","32","","","","NA"
"-61.05","46.55","GRAND ETANG","8201969","2018-08-23 03:00","2018","08","23","03:00","23.5","","20.6","","83","","","","19","","29","","","","100.08","","32","","","","NA"
"-61.05","46.55","GRAND ETANG","8201969","2018-08-23 04:00","2018","08","23","04:00","23.4","","20.3","","83","","","","19","","23","","","","100.11","","31","","","","NA"
"-61.05","46.55","GRAND ETANG","8201969","2018-08-23 05:00","2018","08","23","05:00","23.4","","20.4","","83","","","","19","","21","","","","100.14","","31","","","","NA"
"-61.05","46.55","GRAND ETANG","8201969","2018-08-23 06:00","2018","08","23","06:00","23.2","","20.0","","83","","","","20","","21","","","","100.16","","31","","","","NA"
"-61.05","46.55","GRAND ETANG","8201969","2018-08-23 07:00","2018","08","23","07:00","23.2","","20.0","","82","","","","21","","18","","","","100.20","","31","","","","NA"
"-61.05","46.55","GRAND ETANG","8201969","2018-08-23 08:00","2018","08","23","08:00","22.5","","20.4","","88","","","","22","","21","","","","100.24","","30","","","","NA"
"-61.05","46.55","GRAND ETANG","8201969","2018-08-23 09:00","2018","08","23","09:00","23.1","","20.3","","84","","","","21","","22","","","","100.33","","31","","","","NA"
"-61.05","46.55","GRAND ETANG","8201969","2018-08-23 10:00","2018","08","23","10:00","23.4","","20.3","","83","","","","22","","25","","","","100.38","","31","","","","NA"
"-61.05","46.55","GRAND ETANG","8201969","2018-08-23 11:00","2018","08","23","11:00","23.2","","20.3","","84","","","","23","","29","","","","100.37","","31","","","","NA"
"-61.05","46.55","GRAND ETANG","8201969","2018-08-23 12:00","2018","08","23","12:00","23.7","","19.9","","80","","","","23","","25","","","","100.40","","31","","","","NA"
"-61.05","46.55","GRAND ETANG","8201969","2018-08-23 13:00","2018","08","23","13:00","23.0","","19.0","","79","","","","23","","24","","","","100.41","","30","","","","NA"
"-61.05","46.55","GRAND ETANG","8201969","2018-08-23 14:00","2018","08","23","14:00","24.5","","20.0","","77","","","","22","","17","","","","100.39","","32","","","","NA"
"-61.05","46.55","GRAND ETANG","8201969","2018-08-23 15:00","2018","08","23","15:00","24.3","","19.5","","74","","","","21","","19","","","","100.41","","31","","","","NA"
"-61.05","46.55","GRAND ETANG","8201969","2018-08-23 16:00","2018","08","23","16:00","24.1","","18.8","","72","","","","22","","17","","","","100.44","","31","","","","NA"
"-61.05","46.55","GRAND ETANG","8201969","2018-08-23 17:00","2018","08","23","17:00","23.5","","17.5","","69","","","","21","","18","","","","100.49","","29","","","","NA"
"-61.05","46.55","GRAND ETANG","8201969","2018-08-23 18:00","2018","08","23","18:00","22.2","","17.4","","75","","","","18","","12","","","","100.52","","28","","","","NA"
"-61.05","46.55","GRAND ETANG","8201969","2018-08-23 19:00","2018","08","23","19:00","21.8","","16.9","","74","","","","22","","12","","","","100.58","","27","","","","NA"
"-61.05","46.55","GRAND ETANG","8201969","2018-08-23 20:00","2018","08","23","20:00","21.4","","16.5","","74","","","","22","","8","","","","100.65","","26","","","","NA"
"-61.05","46.55","GRAND ETANG","8201969","2018-08-23 21:00","2018","08","23","21:00","21.5","","16.5","","73","","","","27","","17","","","","100.71","","26","","","","NA"
"-61.05","46.55","GRAND ETANG","8201969","2018-08-23 22:00","2018","08","23","22:00","20.4","","17.4","","83","","","","29","","16","","","","100.76","","26","","","","NA"
"-61.05","46.55","GRAND ETANG","8201969","2018-08-23 23:00","2018","08","23","23:00","20.7","","17.5","","82","","","","24","","16","","","","100.79","","26","","","","NA"
"-61.05","46.55","GRAND ETANG","8201969","2018-08-24 00:00","2018","08","24","00:00","20.4","","15.8","","75","","","","25","","23","","","","100.82","","25","","","","NA"
"-61.05","46.55","GRAND ETANG","8201969","2018-08-24 01:00","2018","08","24","01:00","20.2","","16.7","","80","","","","26","","22","","","","100.83","","25","","","","NA"
"-61.05","46.55","GRAND ETANG","8201969","2018-08-24 02:00","2018","08","24","02:00","19.8","","16.8","","83","","","","26","","27","","","","100.84","","","","","","NA"
"-61.05","46.55","GRAND ETANG","8201969","2018-08-24 03:00","2018","08","24","03:00","19.4","","16.8","","85","","","","27","","27","","","","100.88","","","","","","NA"
"-61.05","46.55","GRAND ETANG","8201969","2018-08-24 04:00","2018","08","24","04:00","19.2","","16.9","","87","","","","27","","24","","","","100.96","","","","","","NA"
"-61.05","46.55","GRAND ETANG","8201969","2018-08-24 05:00","2018","08","24","05:00","19.1","","17.7","","91","","","","27","","21","","","","101.03","","","","","","NA"
"-61.05","46.55","GRAND ETANG","8201969","2018-08-24 06:00","2018","08","24","06:00","19.2","","18.0","","93","","","","26","","19","","","","101.13","","","","","","NA"
"-61.05","46.55","GRAND ETANG","8201969","2018-08-24 07:00","2018","08","24","07:00","19.2","","17.9","","92","","","","24","","20","","","","101.24","","","","","","NA"
"-61.05","46.55","GRAND ETANG","8201969","2018-08-24 08:00","2018","08","24","08:00","20.4","","17.3","","83","","","","22","","15","","","","101.33","","26","","","","NA"
"-61.05","46.55","GRAND ETANG","8201969","2018-08-24 09:00","2018","08","24","09:00","21.5","","16.4","","73","","","","23","","18","","","","101.43","","26","","","","NA"
"-61.05","46.55","GRAND ETANG","8201969","2018-08-24 10:00","2018","08","24","10:00","22.0","","16.7","","72","","","","24","","24","","","","101.52","","27","","","","NA"
"-61.05","46.55","GRAND ETANG","8201969","2018-08-24 11:00","2018","08","24","11:00","22.5","","17.1","","72","","","","23","","24","","","","101.55","","28","","","","NA"
"-61.05","46.55","GRAND ETANG","8201969","2018-08-24 12:00","2018","08","24","12:00","22.9","","16.9","","69","","","","23","","23","","","","101.60","","28","","","","NA"
"-61.05","46.55","GRAND ETANG","8201969","2018-08-24 13:00","2018","08","24","13:00","22.9","","16.3","","66","","","","23","","23","","","","101.61","","28","","","","NA"
"-61.05","46.55","GRAND ETANG","8201969","2018-08-24 14:00","2018","08","24","14:00","23.3","","16.6","","66","","","","22","","22","","","","101.66","","28","","","","NA"
"-61.05","46.55","GRAND ETANG","8201969","2018-08-24 15:00","2018","08","24","15:00","23.5","","15.8","","62","","","","21","","18","","","","101.73","","28","","","","NA"
"-61.05","46.55","GRAND ETANG","8201969","2018-08-24 16:00","2018","08","24","16:00","22.9","","15.5","","63","","","","20","","18","","","","101.78","","27","","","","NA"
"-61.05","46.55","GRAND ETANG","8201969","2018-08-24 17:00","2018","08","24","17:00","22.3","","15.2","","64","","","","19","","12","","","","101.84","","26","","","","NA"
"-61.05","46.55","GRAND ETANG","8201969","2018-08-24 18:00","2018","08","24","18:00","21.4","","14.4","","65","","","","18","","14","","","","101.89","","25","","","","NA"
"-61.05","46.55","GRAND ETANG","8201969","2018-08-24 19:00","2018","08","24","19:00","19.8","","14.4","","71","","","","17","","14","","","","101.98","","","","","","NA"
"-61.05","46.55","GRAND ETANG","8201969","2018-08-24 20:00","2018","08","24","20:00","19.9","","15.3","","75","","","","17","","14","","","","102.08","","","","","","NA"
"-61.05","46.55","GRAND ETANG","8201969","2018-08-24 21:00","2018","08","24","21:00","20.0","","15.7","","76","","","","17","","14","","","","102.13","","","","","","NA"
"-61.05","46.55","GRAND ETANG","8201969","2018-08-24 22:00","2018","08","24","22:00","19.4","","15.4","","78","","","","17","","14","","","","102.16","","","","","","NA"
"-61.05","46.55","GRAND ETANG","8201969","2018-08-24 23:00","2018","08","24","23:00","19.1","","14.9","","76","","","","17","","15","","","","102.18","","","","","","NA"
"-61.05","46.55","GRAND ETANG","8201969","2018-08-25 00:00","2018","08","25","00:00","18.7","","14.7","","77","","","","16","","13","","","","102.21","","","","","","NA"
"-61.05","46.55","GRAND ETANG","8201969","2018-08-25 01:00","2018","08","25","01:00","18.8","","14.4","","76","","","","17","","13","","","","102.25","","","","","","NA"
"-61.05","46.55","GRAND ETANG","8201969","2018-08-25 02:00","2018","08","25","02:00","17.8","","14.4","","80","","","","16","","13","","","","102.26","","","","","","NA"
"-61.05","46.55","GRAND ETANG","8201969","2018-08-25 03:00","2018","08","25","03:00","18.0","","13.9","","77","","","","16","","14","","","","102.28","","","","","","NA"
"-61.05","46.55","GRAND ETANG","8201969","2018-08-25 04:00","2018","08","25","04:00","17.5","","14.0","","80","","","","16","","14","","","","102.28","","","","","","NA"
"-61.05","46.55","GRAND ETANG","8201969","2018-08-25 05:00","2018","08","25","05:00","17.8","","14.5","","81","","","","16","","15","","","","102.33","","","","","","NA"
"-61.05","46.55","GRAND ETANG","8201969","2018-08-25 06:00","2018","08","25","06:00","18.3","","14.7","","80","","","","15","","16","","","","102.36","","","","","","NA"
"-61.05","46.55","GRAND ETANG","8201969","2018-08-25 07:00","2018","08","25","07:00","19.2","","15.1","","77","","","","16","","13","","","","102.36","","","","","","NA"
"-61.05","46.55","GRAND ETANG","8201969","2018-08-25 08:00","2018","08","25","08:00","20.9","","15.6","","71","","","","19","","14","","","","102.38","","25","","","","NA"
"-61.05","46.55","GRAND ETANG","8201969","2018-08-25 09:00","2018","08","25","09:00","22.2","","16.3","","69","","","","19","","13","","","","102.40","","27","","","","NA"
"-61.05","46.55","GRAND ETANG","8201969","2018-08-25 10:00","2018","08","25","10:00","23.1","","16.5","","67","","","","22","","16","","","","102.40","","28","","","","NA"
"-61.05","46.55","GRAND ETANG","8201969","2018-08-25 11:00","2018","08","25","11:00","23.5","","17.2","","68","","","","23","","21","","","","102.36","","29","","","","NA"
"-61.05","46.55","GRAND ETANG","8201969","2018-08-25 12:00","2018","08","25","12:00","23.8","","18.2","","71","","","","23","","21","","","","102.33","","30","","","","NA"
"-61.05","46.55","GRAND ETANG","8201969","2018-08-25 13:00","2018","08","25","13:00","24.1","","18.2","","69","","","","23","","24","","","","102.30","","30","","","","NA"
"-61.05","46.55","GRAND ETANG","8201969","2018-08-25 14:00","2018","08","25","14:00","24.8","","17.9","","66","","","","22","","19","","","","102.26","","31","","","","NA"
"-61.05","46.55","GRAND ETANG","8201969","2018-08-25 15:00","2018","08","25","15:00","24.3","","17.4","","65","","","","21","","20","","","","102.22","","30","","","","NA"
"-61.05","46.55","GRAND ETANG","8201969","2018-08-25 16:00","2018","08","25","16:00","24.2","","17.5","","66","","","","20","","17","","","","102.19","","30","","","","NA"
"-61.05","46.55","GRAND ETANG","8201969","2018-08-25 17:00","2018","08","25","17:00","24.6","","17.5","","64","","","","19","","20","","","","102.15","","30","","","","NA"
"-61.05","46.55","GRAND ETANG","8201969","2018-08-25 18:00","2018","08","25","18:00","23.5","","17.4","","69","","","","19","","12","","","","102.13","","29","","","","NA"
"-61.05","46.55","GRAND ETANG","8201969","2018-08-25 19:00","2018","08","25","19:00","21.4","","16.5","","74","","","","17","","12","","","","102.14","","26","","","","NA"
"-61.05","46.55","GRAND ETANG","8201969","2018-08-25 20:00","2018","08","25","20:00","21.1","","16.0","","73","","","","17","","13","","","","102.16","","26","","","","NA"
"-61.05","46.55","GRAND ETANG","8201969","2018-08-25 21:00","2018","08","25","21:00","21.4","","16.2","","72","","","","17","","15","","","","102.18","","26","","","","NA"
"-61.05","46.55","GRAND ETANG","8201969","2018-08-25 22:00","2018","08","25","22:00","20.7","","16.1","","75","","","","17","","14","","","","102.17","","25","","","","NA"
"-61.05","46.55","GRAND ETANG","8201969","2018-08-25 23:00","2018","08","25","23:00","20.0","","15.8","","77","","","","17","","13","","","","102.20","","","","","","NA"
"-61.05","46.55","GRAND ETANG","8201969","2018-08-26 00:00","2018","08","26","00:00","19.9","","15.9","","78","","","","17","","12","","","","102.18","","","","","","NA"
"-61.05","46.55","GRAND ETANG","8201969","2018-08-26 01:00","2018","08","26","01:00","19.5","","16.9","","85","","","","17","","13","","","","102.14","","","","","","NA"
"-61.05","46.55","GRAND ETANG","8201969","2018-08-26 02:00","2018","08","26","02:00","18.8","","16.8","","88","","","","17","","12","","","","102.15","","","","","","NA"
"-61.05","46.55","GRAND ETANG","8201969","2018-08-26 03:00","2018","08","26","03:00","18.7","","15.9","","84","","","","18","","13","","","","102.13","","","","","","NA"
"-61.05","46.55","GRAND ETANG","8201969","2018-08-26 04:00","2018","08","26","04:00","17.8","","14.9","","83","","","","17","","13","","","","102.09","","","","","","NA"
"-61.05","46.55","GRAND ETANG","8201969","2018-08-26 05:00","2018","08","26","05:00","17.4","","14.2","","81","","","","17","","13","","","","102.08","","","","","","NA"
"-61.05","46.55","GRAND ETANG","8201969","2018-08-26 06:00","2018","08","26","06:00","17.7","","13.6","","77","","","","16","","12","","","","102.05","","","","","","NA"
"-61.05","46.55","GRAND ETANG","8201969","2018-08-26 07:00","2018","08","26","07:00","19.2","","14.0","","72","","","","18","","11","","","","102.04","","","","","","NA"
"-61.05","46.55","GRAND ETANG","8201969","2018-08-26 08:00","2018","08","26","08:00","20.4","","14.3","","68","","","","18","","13","","","","102.03","","","","","","NA"
"-61.05","46.55","GRAND ETANG","8201969","2018-08-26 09:00","2018","08","26","09:00","21.4","","14.0","","63","","","","21","","17","","","","101.99","","25","","","","NA"
"-61.05","46.55","GRAND ETANG","8201969","2018-08-26 10:00","2018","08","26","10:00","21.7","","14.7","","64","","","","22","","18","","","","101.96","","25","","","","NA"
"-61.05","46.55","GRAND ETANG","8201969","2018-08-26 11:00","2018","08","26","11:00","22.1","","14.3","","61","","","","23","","25","","","","101.93","","26","","","","NA"
"-61.05","46.55","GRAND ETANG","8201969","2018-08-26 12:00","2018","08","26","12:00","22.5","","14.7","","61","","","","23","","23","","","","101.90","","26","","","","NA"
"-61.05","46.55","GRAND ETANG","8201969","2018-08-26 13:00","2018","08","26","13:00","23.3","","14.4","","58","","","","24","","17","","","","101.81","","27","","","","NA"
"-61.05","46.55","GRAND ETANG","8201969","2018-08-26 14:00","2018","08","26","14:00","22.7","","13.6","","56","","","","23","","17","","","","101.77","","26","","","","NA"
"-61.05","46.55","GRAND ETANG","8201969","2018-08-26 15:00","2018","08","26","15:00","23.0","","11.7","","49","","","","22","","14","","","","101.71","","25","","","","NA"
"-61.05","46.55","GRAND ETANG","8201969","2018-08-26 16:00","2018","08","26","16:00","23.4","","11.2","","46","","","","22","","11","","","","101.66","","25","","","","NA"
"-61.05","46.55","GRAND ETANG","8201969","2018-08-26 17:00","2018","08","26","17:00","22.9","","11.3","","48","","","","23","","7","","","","101.60","","25","","","","NA"
"-61.05","46.55","GRAND ETANG","8201969","2018-08-26 18:00","2018","08","26","18:00","20.2","","13.6","","66","","","","18","","9","","","","101.54","","","","","","NA"
"-61.05","46.55","GRAND ETANG","8201969","2018-08-26 19:00","2018","08","26","19:00","17.3","","13.0","","76","","","","15","","12","","","","101.51","","","","","","NA"
"-61.05","46.55","GRAND ETANG","8201969","2018-08-26 20:00","2018","08","26","20:00","18.8","","14.2","","75","","","","16","","11","","","","101.50","","","","","","NA"
"-61.05","46.55","GRAND ETANG","8201969","2018-08-26 21:00","2018","08","26","21:00","19.3","","15.4","","78","","","","16","","17","","","","101.44","","","","","","NA"
"-61.05","46.55","GRAND ETANG","8201969","2018-08-26 22:00","2018","08","26","22:00","19.3","","15.6","","79","","","","17","","14","","","","101.44","","","","","","NA"
"-61.05","46.55","GRAND ETANG","8201969","2018-08-26 23:00","2018","08","26","23:00","18.2","","15.1","","82","","","","17","","11","","","","101.43","","","","","","NA"
"-61.05","46.55","GRAND ETANG","8201969","2018-08-27 00:00","2018","08","27","00:00","18.0","","14.8","","81","","","","17","","13","","","","101.37","","","","","","NA"
"-61.05","46.55","GRAND ETANG","8201969","2018-08-27 01:00","2018","08","27","01:00","18.2","","15.0","","82","","","","16","","14","","","","101.27","","","","","","NA"
"-61.05","46.55","GRAND ETANG","8201969","2018-08-27 02:00","2018","08","27","02:00","17.8","","15.2","","85","","","","17","","12","","","","101.24","","","","","","NA"
"-61.05","46.55","GRAND ETANG","8201969","2018-08-27 03:00","2018","08","27","03:00","18.5","","15.6","","83","","","","16","","12","","","","101.21","","","","","","NA"
"-61.05","46.55","GRAND ETANG","8201969","2018-08-27 04:00","2018","08","27","04:00","18.4","","15.7","","84","","","","16","","10","","","","101.16","","","","","","NA"
"-61.05","46.55","GRAND ETANG","8201969","2018-08-27 05:00","2018","08","27","05:00","19.0","","15.9","","82","","","","17","","9","","","","101.18","","","","","","NA"
"-61.05","46.55","GRAND ETANG","8201969","2018-08-27 06:00","2018","08","27","06:00","19.3","","16.2","","83","","","","16","","9","","","","101.14","","","","","","NA"
"-61.05","46.55","GRAND ETANG","8201969","2018-08-27 07:00","2018","08","27","07:00","19.8","","16.7","","82","","","","18","","7","","","","101.14","","","","","","NA"
"-61.05","46.55","GRAND ETANG","8201969","2018-08-27 08:00","2018","08","27","08:00","21.2","","16.6","","75","","","","17","","12","","","","101.09","","26","","","","NA"
"-61.05","46.55","GRAND ETANG","8201969","2018-08-27 09:00","2018","08","27","09:00","21.3","","17.0","","77","","","","22","","16","","","","101.09","","27","","","","NA"
"-61.05","46.55","GRAND ETANG","8201969","2018-08-27 10:00","2018","08","27","10:00","22.7","","17.5","","73","","","","23","","24","","","","101.11","","28","","","","NA"
"-61.05","46.55","GRAND ETANG","8201969","2018-08-27 11:00","2018","08","27","11:00","22.5","","17.9","","76","","","","24","","23","","","","101.12","","28","","","","NA"
"-61.05","46.55","GRAND ETANG","8201969","2018-08-27 12:00","2018","08","27","12:00","21.7","","16.6","","73","","","","24","","22","","","","101.08","","27","","","","NA"
"-61.05","46.55","GRAND ETANG","8201969","2018-08-27 13:00","2018","08","27","13:00","21.7","","16.1","","71","","","","23","","19","","","","101.05","","26","","","","NA"
"-61.05","46.55","GRAND ETANG","8201969","2018-08-27 14:00","2018","08","27","14:00","21.9","","15.7","","68","","","","22","","17","","","","101.02","","26","","","","NA"
"-61.05","46.55","GRAND ETANG","8201969","2018-08-27 15:00","2018","08","27","15:00","20.8","","15.2","","70","","","","22","","14","","","","100.98","","25","","","","NA"
"-61.05","46.55","GRAND ETANG","8201969","2018-08-27 16:00","2018","08","27","16:00","20.5","","15.4","","73","","","","23","","14","","","","100.99","","25","","","","NA"
"-61.05","46.55","GRAND ETANG","8201969","2018-08-27 17:00","2018","08","27","17:00","20.1","","15.4","","75","","","","17","","7","","","","101.01","","","","","","NA"
"-61.05","46.55","GRAND ETANG","8201969","2018-08-27 18:00","2018","08","27","18:00","19.7","","15.9","","78","","","","17","","7","","","","100.98","","","","","","NA"
"-61.05","46.55","GRAND ETANG","8201969","2018-08-27 19:00","2018","08","27","19:00","19.7","","16.0","","79","","","","16","","9","","","","101.01","","","","","","NA"
"-61.05","46.55","GRAND ETANG","8201969","2018-08-27 20:00","2018","08","27","20:00","19.1","","16.4","","84","","","","15","","11","","","","101.02","","","","","","NA"
"-61.05","46.55","GRAND ETANG","8201969","2018-08-27 21:00","2018","08","27","21:00","18.7","","16.6","","88","","","","16","","9","","","","101.05","","","","","","NA"
"-61.05","46.55","GRAND ETANG","8201969","2018-08-27 22:00","2018","08","27","22:00","19.1","","17.7","","92","","","","17","","8","","","","101.07","","","","","","NA"
"-61.05","46.55","GRAND ETANG","8201969","2018-08-27 23:00","2018","08","27","23:00","18.3","","17.6","","96","","","","17","","5","","","","101.09","","","","","","NA"
"-61.05","46.55","GRAND ETANG","8201969","2018-08-28 00:00","2018","08","28","00:00","18.5","","18.3","","99","","","","18","","7","","","","101.10","","","","","","NA"
"-61.05","46.55","GRAND ETANG","8201969","2018-08-28 01:00","2018","08","28","01:00","18.4","","","M","100","","","","16","","7","","","","101.07","","","","","","NA"
"-61.05","46.55","GRAND ETANG","8201969","2018-08-28 02:00","2018","08","28","02:00","18.4","","","M","100","","","","14","","5","","","","101.06","","","","","","NA"
"-61.05","46.55","GRAND ETANG","8201969","2018-08-28 03:00","2018","08","28","03:00","17.7","","","M","100","","","","14","","6","","","","101.03","","","","","","NA"
"-61.05","46.55","GRAND ETANG","8201969","2018-08-28 04:00","2018","08","28","04:00","16.9","","","M","100","","","","16","","10","","","","101.02","","","","","","NA"
"-61.05","46.55","GRAND ETANG","8201969","2018-08-28 05:00","2018","08","28","05:00","16.8","","","M","100","","","","14","","13","","","","101.06","","","","","","NA"
"-61.05","46.55","GRAND ETANG","8201969","2018-08-28 06:00","2018","08","28","06:00","17.1","","","M","100","","","","16","","8","","","","101.11","","","","","","NA"
"-61.05","46.55","GRAND ETANG","8201969","2018-08-28 07:00","2018","08","28","07:00","19.4","","19.3","","99","","","","18","","6","","","","101.15","","","","","","NA"
"-61.05","46.55","GRAND ETANG","8201969","2018-08-28 08:00","2018","08","28","08:00","21.4","","19.9","","91","","","","20","","15","","","","101.14","","29","","","","NA"
"-61.05","46.55","GRAND ETANG","8201969","2018-08-28 09:00","2018","08","28","09:00","21.5","","19.4","","88","","","","23","","22","","","","101.16","","29","","","","NA"
"-61.05","46.55","GRAND ETANG","8201969","2018-08-28 10:00","2018","08","28","10:00","22.8","","20.2","","85","","","","24","","19","","","","101.16","","31","","","","NA"
"-61.05","46.55","GRAND ETANG","8201969","2018-08-28 11:00","2018","08","28","11:00","24.1","","20.4","","80","","","","24","","17","","","","101.11","","32","","","","NA"
"-61.05","46.55","GRAND ETANG","8201969","2018-08-28 12:00","2018","08","28","12:00","24.5","","20.8","","80","","","","24","","19","","","","101.06","","33","","","","NA"
"-61.05","46.55","GRAND ETANG","8201969","2018-08-28 13:00","2018","08","28","13:00","26.5","","17.7","","59","","","","22","","16","","","","101.04","","32","","","","NA"
"-61.05","46.55","GRAND ETANG","8201969","2018-08-28 14:00","2018","08","28","14:00","26.7","","16.8","","55","","","","21","","17","","","","100.97","","32","","","","NA"
"-61.05","46.55","GRAND ETANG","8201969","2018-08-28 15:00","2018","08","28","15:00","26.9","","17.3","","56","","","","20","","17","","","","100.91","","32","","","","NA"
"-61.05","46.55","GRAND ETANG","8201969","2018-08-28 16:00","2018","08","28","16:00","27.6","","17.4","","54","","","","22","","14","","","","100.83","","33","","","","NA"
"-61.05","46.55","GRAND ETANG","8201969","2018-08-28 17:00","2018","08","28","17:00","25.1","","17.7","","64","","","","20","","16","","","","100.80","","31","","","","NA"
"-61.05","46.55","GRAND ETANG","8201969","2018-08-28 18:00","2018","08","28","18:00","24.5","","17.4","","64","","","","18","","13","","","","100.70","","30","","","","NA"
"-61.05","46.55","GRAND ETANG","8201969","2018-08-28 19:00","2018","08","28","19:00","23.6","","17.4","","68","","","","18","","12","","","","100.68","","29","","","","NA"
"-61.05","46.55","GRAND ETANG","8201969","2018-08-28 20:00","2018","08","28","20:00","24.9","","17.9","","65","","","","17","","19","","","","100.61","","31","","","","NA"
"-61.05","46.55","GRAND ETANG","8201969","2018-08-28 21:00","2018","08","28","21:00","24.5","","17.4","","65","","","","18","","21","","","","100.61","","30","","","","NA"
"-61.05","46.55","GRAND ETANG","8201969","2018-08-28 22:00","2018","08","28","22:00","24.7","","17.7","","65","","","","19","","19","","","","100.56","","30","","","","NA"
"-61.05","46.55","GRAND ETANG","8201969","2018-08-28 23:00","2018","08","28","23:00","25.2","","18.4","","66","","","","19","","26","","","","100.52","","32","","","","NA"
"-61.05","46.55","GRAND ETANG","8201969","2018-08-29 00:00","2018","08","29","00:00","24.5","","18.9","","71","","","","19","","24","","","","100.42","","31","","","","NA"
"-61.05","46.55","GRAND ETANG","8201969","2018-08-29 01:00","2018","08","29","01:00","24.6","","19.3","","72","","","","19","","21","","","","100.36","","32","","","","NA"
"-61.05","46.55","GRAND ETANG","8201969","2018-08-29 02:00","2018","08","29","02:00","24.2","","19.6","","75","","","","19","","22","","","","100.27","","31","","","","NA"
"-61.05","46.55","GRAND ETANG","8201969","2018-08-29 03:00","2018","08","29","03:00","23.9","","19.8","","78","","","","20","","23","","","","100.26","","31","","","","NA"
"-61.05","46.55","GRAND ETANG","8201969","2018-08-29 04:00","2018","08","29","04:00","23.4","","20.2","","82","","","","20","","28","","","","100.20","","31","","","","NA"
"-61.05","46.55","GRAND ETANG","8201969","2018-08-29 05:00","2018","08","29","05:00","22.6","","21.0","","91","","","","20","","23","","","","100.27","","31","","","","NA"
"-61.05","46.55","GRAND ETANG","8201969","2018-08-29 06:00","2018","08","29","06:00","22.3","","21.3","","94","","","","21","","24","","","","100.38","","31","","","","NA"
"-61.05","46.55","GRAND ETANG","8201969","2018-08-29 07:00","2018","08","29","07:00","22.3","","21.6","","95","","","","23","","17","","","","100.51","","31","","","","NA"
"-61.05","46.55","GRAND ETANG","8201969","2018-08-29 08:00","2018","08","29","08:00","21.9","","19.4","","86","","","","30","","36","","","","100.58","","29","","","","NA"
"-61.05","46.55","GRAND ETANG","8201969","2018-08-29 09:00","2018","08","29","09:00","21.6","","18.9","","85","","","","30","","20","","","","100.69","","28","","","","NA"
"-61.05","46.55","GRAND ETANG","8201969","2018-08-29 10:00","2018","08","29","10:00","21.6","","18.1","","81","","","","32","","32","","","","100.80","","28","","","","NA"
"-61.05","46.55","GRAND ETANG","8201969","2018-08-29 11:00","2018","08","29","11:00","21.3","","16.5","","74","","","","33","","35","","","","100.83","","26","","","","NA"
"-61.05","46.55","GRAND ETANG","8201969","2018-08-29 12:00","2018","08","29","12:00","21.1","","16.3","","74","","","","34","","30","","","","100.91","","26","","","","NA"
"-61.05","46.55","GRAND ETANG","8201969","2018-08-29 13:00","2018","08","29","13:00","21.4","","16.2","","72","","","","34","","26","","","","100.98","","26","","","","NA"
"-61.05","46.55","GRAND ETANG","8201969","2018-08-29 14:00","2018","08","29","14:00","21.7","","16.0","","70","","","","33","","17","","","","100.98","","26","","","","NA"
"-61.05","46.55","GRAND ETANG","8201969","2018-08-29 15:00","2018","08","29","15:00","21.9","","16.1","","70","","","","31","","19","","","","101.01","","27","","","","NA"
"-61.05","46.55","GRAND ETANG","8201969","2018-08-29 16:00","2018","08","29","16:00","21.4","","15.6","","70","","","","33","","11","","","","100.96","","26","","","","NA"
"-61.05","46.55","GRAND ETANG","8201969","2018-08-29 17:00","2018","08","29","17:00","21.3","","15.6","","70","","","","29","","9","","","","101.00","","26","","","","NA"
"-61.05","46.55","GRAND ETANG","8201969","2018-08-29 18:00","2018","08","29","18:00","20.0","","15.4","","75","","","","30","","13","","","","101.14","","","","","","NA"
"-61.05","46.55","GRAND ETANG","8201969","2018-08-29 19:00","2018","08","29","19:00","18.3","","14.4","","78","","","","30","","6","","","","101.16","","","","","","NA"
"-61.05","46.55","GRAND ETANG","8201969","2018-08-29 20:00","2018","08","29","20:00","15.4","","14.6","","95","","","","12","","6","","","","101.14","","","","","","NA"
"-61.05","46.55","GRAND ETANG","8201969","2018-08-29 21:00","2018","08","29","21:00","14.9","","13.4","","91","","","","14","","12","","","","101.15","","","","","","NA"
"-61.05","46.55","GRAND ETANG","8201969","2018-08-29 22:00","2018","08","29","22:00","16.4","","14.1","","86","","","","13","","8","","","","101.01","","","","","","NA"
"-61.05","46.55","GRAND ETANG","8201969","2018-08-29 23:00","2018","08","29","23:00","16.2","","13.5","","84","","","","8","","3","","","","100.98","","","","","","NA"
"-61.05","46.55","GRAND ETANG","8201969","2018-08-30 00:00","2018","08","30","00:00","18.6","","14.2","","75","","","","18","","7","","","","100.94","","","","","","NA"
"-61.05","46.55","GRAND ETANG","8201969","2018-08-30 01:00","2018","08","30","01:00","20.8","","15.3","","71","","","","18","","16","","","","100.85","","25","","","","NA"
"-61.05","46.55","GRAND ETANG","8201969","2018-08-30 02:00","2018","08","30","02:00","20.1","","15.2","","74","","","","15","","22","","","","100.82","","","","","","NA"
"-61.05","46.55","GRAND ETANG","8201969","2018-08-30 03:00","2018","08","30","03:00","19.9","","15.1","","74","","","","15","","34","","","","100.73","","","","","","NA"
"-61.05","46.55","GRAND ETANG","8201969","2018-08-30 04:00","2018","08","30","04:00","20.5","","15.8","","74","","","","15","","31","","","","100.72","","25","","","","NA"
"-61.05","46.55","GRAND ETANG","8201969","2018-08-30 05:00","2018","08","30","05:00","22.1","","17.4","","75","","","","16","","21","","","","100.70","","28","","","","NA"
"-61.05","46.55","GRAND ETANG","8201969","2018-08-30 06:00","2018","08","30","06:00","23.4","","17.8","","71","","","","18","","19","","","","100.73","","29","","","","NA"
"-61.05","46.55","GRAND ETANG","8201969","2018-08-30 07:00","2018","08","30","07:00","23.6","","18.5","","73","","","","19","","20","","","","100.77","","30","","","","NA"
"-61.05","46.55","GRAND ETANG","8201969","2018-08-30 08:00","2018","08","30","08:00","23.2","","19.0","","78","","","","20","","21","","","","100.79","","30","","","","NA"
"-61.05","46.55","GRAND ETANG","8201969","2018-08-30 09:00","2018","08","30","09:00","22.7","","19.6","","83","","","","21","","20","","","","100.81","","30","","","","NA"
"-61.05","46.55","GRAND ETANG","8201969","2018-08-30 10:00","2018","08","30","10:00","22.3","","19.8","","86","","","","22","","22","","","","100.87","","30","","","","NA"
"-61.05","46.55","GRAND ETANG","8201969","2018-08-30 11:00","2018","08","30","11:00","21.7","","20.8","","94","","","","24","","25","","","","100.90","","30","","","","NA"
"-61.05","46.55","GRAND ETANG","8201969","2018-08-30 12:00","2018","08","30","12:00","19.9","","19.2","","96","","","","29","","25","","","","101.00","","","","","","NA"
"-61.05","46.55","GRAND ETANG","8201969","2018-08-30 13:00","2018","08","30","13:00","19.4","","18.6","","95","","","","30","","26","","","","101.10","","","","","","NA"
"-61.05","46.55","GRAND ETANG","8201969","2018-08-30 14:00","2018","08","30","14:00","19.6","","18.6","","94","","","","30","","20","","","","101.16","","","","","","NA"
"-61.05","46.55","GRAND ETANG","8201969","2018-08-30 15:00","2018","08","30","15:00","18.5","","18.0","","97","","","","33","","31","","","","101.23","","","","","","NA"
"-61.05","46.55","GRAND ETANG","8201969","2018-08-30 16:00","2018","08","30","16:00","18.5","","17.0","","91","","","","33","","34","","","","101.31","","","","","","NA"
"-61.05","46.55","GRAND ETANG","8201969","2018-08-30 17:00","2018","08","30","17:00","18.3","","15.6","","84","","","","33","","29","","","","101.36","","","","","","NA"
"-61.05","46.55","GRAND ETANG","8201969","2018-08-30 18:00","2018","08","30","18:00","17.4","","16.6","","95","","","","34","","31","","","","101.40","","","","","","NA"
"-61.05","46.55","GRAND ETANG","8201969","2018-08-30 19:00","2018","08","30","19:00","17.8","","15.0","","84","","","","34","","31","","","","101.45","","","","","","NA"
"-61.05","46.55","GRAND ETANG","8201969","2018-08-30 20:00","2018","08","30","20:00","17.7","","14.9","","83","","","","34","","31","","","","101.53","","","","","","NA"
"-61.05","46.55","GRAND ETANG","8201969","2018-08-30 21:00","2018","08","30","21:00","17.8","","14.7","","82","","","","35","","31","","","","101.59","","","","","","NA"
"-61.05","46.55","GRAND ETANG","8201969","2018-08-30 22:00","2018","08","30","22:00","17.5","","14.3","","82","","","","35","","27","","","","101.61","","","","","","NA"
"-61.05","46.55","GRAND ETANG","8201969","2018-08-30 23:00","2018","08","30","23:00","17.4","","14.2","","81","","","","35","","28","","","","101.65","","","","","","NA"
"-61.05","46.55","GRAND ETANG","8201969","2018-08-31 00:00","2018","08","31","00:00","17.3","","13.6","","79","","","","34","","28","","","","101.68","","","","","","NA"
"-61.05","46.55","GRAND ETANG","8201969","2018-08-31 01:00","2018","08","31","01:00","17.0","","13.8","","81","","","","34","","25","","","","101.70","","","","","","NA"
"-61.05","46.55","GRAND ETANG","8201969","2018-08-31 02:00","2018","08","31","02:00","17.1","","13.8","","81","","","","34","","25","","","","101.75","","","","","","NA"
"-61.05","46.55","GRAND ETANG","8201969","2018-08-31 03:00","2018","08","31","03:00","17.2","","14.1","","82","","","","33","","24","","","","101.82","","","","","","NA"
"-61.05","46.55","GRAND ETANG","8201969","2018-08-31 04:00","2018","08","31","04:00","17.1","","14.6","","85","","","","34","","22","","","","101.87","","","","","","NA"
"-61.05","46.55","GRAND ETANG","8201969","2018-08-31 05:00","2018","08","31","05:00","17.2","","15.1","","87","","","","35","","22","","","","101.95","","","","","","NA"
"-61.05","46.55","GRAND ETANG","8201969","2018-08-31 06:00","2018","08","31","06:00","17.3","","14.8","","85","","","","35","","21","","","","102.02","","","","","","NA"
"-61.05","46.55","GRAND ETANG","8201969","2018-08-31 07:00","2018","08","31","07:00","17.5","","14.5","","83","","","","36","","24","","","","102.10","","","","","","NA"
"-61.05","46.55","GRAND ETANG","8201969","2018-08-31 08:00","2018","08","31","08:00","17.8","","14.0","","78","","","","36","","22","","","","102.18","","","","","","NA"
"-61.05","46.55","GRAND ETANG","8201969","2018-08-31 09:00","2018","08","31","09:00","19.0","","13.8","","72","","","","2","","27","","","","102.24","","","","","","NA"
"-61.05","46.55","GRAND ETANG","8201969","2018-08-31 10:00","2018","08","31","10:00","19.8","","14.6","","72","","","","36","","23","","","","102.31","","","","","","NA"
"-61.05","46.55","GRAND ETANG","8201969","2018-08-31 11:00","2018","08","31","11:00","19.4","","15.0","","76","","","","35","","26","","","","102.33","","","","","","NA"
"-61.05","46.55","GRAND ETANG","8201969","2018-08-31 12:00","2018","08","31","12:00","20.4","","15.1","","72","","","","34","","26","","","","102.40","","","","","","NA"
"-61.05","46.55","GRAND ETANG","8201969","2018-08-31 13:00","2018","08","31","13:00","19.5","","14.2","","71","","","","2","","33","","","","102.44","","","","","","NA"
"-61.05","46.55","GRAND ETANG","8201969","2018-08-31 14:00","2018","08","31","14:00","19.6","","14.4","","72","","","","1","","38","","","","102.43","","","","","","NA"
"-61.05","46.55","GRAND ETANG","8201969","2018-08-31 15:00","2018","08","31","15:00","19.3","","13.6","","70","","","","1","","41","","","","102.48","","","","","","NA"
"-61.05","46.55","GRAND ETANG","8201969","2018-08-31 16:00","2018","08","31","16:00","19.1","","13.3","","69","","","","1","","40","","","","102.49","","","","","","NA"
"-61.05","46.55","GRAND ETANG","8201969","2018-08-31 17:00","2018","08","31","17:00","18.9","","13.1","","69","","","","1","","35","","","","102.50","","","","","","NA"
"-61.05","46.55","GRAND ETANG","8201969","2018-08-31 18:00","2018","08","31","18:00","17.9","","13.1","","73","","","","2","","29","","","","102.54","","","","","","NA"
"-61.05","46.55","GRAND ETANG","8201969","2018-08-31 19:00","2018","08","31","19:00","15.8","","10.9","","73","","","","6","","13","","","","102.61","","","","","","NA"
"-61.05","46.55","GRAND ETANG","8201969","2018-08-31 20:00","2018","08","31","20:00","14.5","","10.6","","77","","","","4","","17","","","","102.70","","","","","","NA"
"-61.05","46.55","GRAND ETANG","8201969","2018-08-31 21:00","2018","08","31","21:00","14.0","","10.8","","81","","","","4","","14","","","","102.74","","","","","","NA"
"-61.05","46.55","GRAND ETANG","8201969","2018-08-31 22:00","2018","08","31","22:00","12.2","","9.5","","84","","","","11","","5","","","","102.78","","","","","","NA"
"-61.05","46.55","GRAND ETANG","8201969","2018-08-31 23:00","2018","08","31","23:00","13.7","","9.9","","78","","","","9","","7","","","","102.79","","","","","","NA"
