"Longitude (x)","Latitude (y)","Station Name","Climate ID","Date/Time (LST)","Year","Month","Day","Time (LST)","Temp (°C)","Temp Flag","Dew Point Temp (°C)","Dew Point Temp Flag","Rel Hum (%)","Rel Hum Flag","Precip. Amount (mm)","Precip. Amount Flag","Wind Dir (10s deg)","Wind Dir Flag","Wind Spd (km/h)","Wind Spd Flag","Visibility (km)","Visibility Flag","Stn Press (kPa)","Stn Press Flag","Hmdx","Hmdx Flag","Wind Chill","Wind Chill Flag","Weather"
"-122.60","58.84","FORT NELSON A","1192946","2020-10-01 00:00","2020","10","01","00:00","7.7","","0.8","","62","","","M","19","","4","","24.1","","97.32","","","","","","NA"
"-122.60","58.84","FORT NELSON A","1192946","2020-10-01 01:00","2020","10","01","01:00","7.3","","2.6","","72","","","M","23","","5","","24.1","","97.26","","","","","","Cloudy"
"-122.60","58.84","FORT NELSON A","1192946","2020-10-01 02:00","2020","10","01","02:00","7.1","","2.0","","70","","","M","22","","8","","24.1","","97.26","","","","","","NA"
"-122.60","58.84","FORT NELSON A","1192946","2020-10-01 03:00","2020","10","01","03:00","7.0","","2.1","","71","","","M","22","","3","","24.1","","97.25","","","","","","NA"
"-122.60","58.84","FORT NELSON A","1192946","2020-10-01 04:00","2020","10","01","04:00","6.9","","2.7","","74","","","M","18","","4","","24.1","","97.27","","","","","","Cloudy"
"-122.60","58.84","FORT NELSON A","1192946","2020-10-01 05:00","2020","10","01","05:00","6.5","","2.8","","77","","","M","17","","4","","24.1","","97.25","","","","","","NA"
"-122.60","58.84","FORT NELSON A","1192946","2020-10-01 06:00","2020","10","01","06:00","6.4","","2.9","","78","","","M","16","","3","","24.1","","97.24","","","","","","NA"
"-122.60","58.84","FORT NELSON A","1192946","2020-10-01 07:00","2020","10","01","07:00","5.2","","2.7","","84","","","M","18","","5","","48.3","","97.25","","","","","","Mainly Clear"
"-122.60","58.84","FORT NELSON A","1192946","2020-10-01 08:00","2020","10","01","08:00","7.3","","3.4","","76","","","M","16","","5","","48.3","","97.26","","","","","","NA"
"-122.60","58.84","FORT NELSON A","1192946","2020-10-01 09:00","2020","10","01","09:00","9.5","","3.8","","67","","","M","18","","10","","48.3","","97.26","","","","","","NA"
"-122.60","58.84","FORT NELSON A","1192946","2020-10-01 10:00","2020","10","01","10:00","11.4","","4.5","","62","","","M","18","","11","","48.3","","97.25","","","","","","Clear"
"-122.60","58.84","FORT NELSON A","1192946","2020-10-01 11:00","2020","10","01","11:00","14.5","","4.9","","52","","","M","13","","3","","48.3","","97.23","","","","","","NA"
"-122.60","58.84","FORT NELSON A","1192946","2020-10-01 12:00","2020","10","01","12:00","16.7","","5.6","","48","","","M","15","","11","","48.3","","97.23","","","","","","NA"
"-122.60","58.84","FORT NELSON A","1192946","2020-10-01 13:00","2020","10","01","13:00","19.6","","2.1","","31","","","M","31","","20","","","M","97.19","","","","","","Mainly Clear"
"-122.60","58.84","FORT NELSON A","1192946","2020-10-01 14:00","2020","10","01","14:00","19.6","","1.1","","29","","","M","29","","28","","48.3","","97.21","","","","","","NA"
"-122.60","58.84","FORT NELSON A","1192946","2020-10-01 15:00","2020","10","01","15:00","19.5","","1.0","","29","","","M","28","","24","","48.3","","97.22","","","","","","NA"
"-122.60","58.84","FORT NELSON A","1192946","2020-10-01 16:00","2020","10","01","16:00","19.0","","0.9","","29","","","M","29","","25","","48.3","","97.24","","","","","","Mainly Clear"
"-122.60","58.84","FORT NELSON A","1192946","2020-10-01 17:00","2020","10","01","17:00","17.8","","0.6","","31","","","M","28","","13","","48.3","","97.26","","","","","","NA"
"-122.60","58.84","FORT NELSON A","1192946","2020-10-01 18:00","2020","10","01","18:00","15.0","","0.2","","36","","","M","33","","15","","","M","97.32","","","","","","NA"
"-122.60","58.84","FORT NELSON A","1192946","2020-10-01 19:00","2020","10","01","19:00","14.1","","-0.2","","37","","","M","30","","6","","24.1","","97.37","","","","","","Clear"
"-122.60","58.84","FORT NELSON A","1192946","2020-10-01 20:00","2020","10","01","20:00","11.3","","0.0","","45","","","M","31","","8","","24.1","","97.42","","","","","","NA"
"-122.60","58.84","FORT NELSON A","1192946","2020-10-01 21:00","2020","10","01","21:00","5.9","","0.8","","70","","","M","23","","8","","24.1","","97.47","","","","","","NA"
"-122.60","58.84","FORT NELSON A","1192946","2020-10-01 22:00","2020","10","01","22:00","6.3","","1.5","","71","","","M","36","","3","","24.1","","97.53","","","","","","Clear"
"-122.60","58.84","FORT NELSON A","1192946","2020-10-01 23:00","2020","10","01","23:00","4.8","","1.0","","77","","","M","14","","8","","24.1","","97.58","","","","","","NA"
"-122.60","58.84","FORT NELSON A","1192946","2020-10-02 00:00","2020","10","02","00:00","3.2","","0.3","","81","","","M","26","","6","","24.1","","97.59","","","","","","NA"
"-122.60","58.84","FORT NELSON A","1192946","2020-10-02 01:00","2020","10","02","01:00","3.5","","1.3","","85","","","M","21","","10","","24.1","","97.64","","","","","","Clear"
"-122.60","58.84","FORT NELSON A","1192946","2020-10-02 02:00","2020","10","02","02:00","4.0","","1.7","","85","","","M","21","","5","","24.1","","97.63","","","","","","NA"
"-122.60","58.84","FORT NELSON A","1192946","2020-10-02 03:00","2020","10","02","03:00","3.6","","1.8","","88","","","M","18","","8","","24.1","","97.65","","","","","","NA"
"-122.60","58.84","FORT NELSON A","1192946","2020-10-02 04:00","2020","10","02","04:00","3.5","","1.6","","87","","","M","18","","9","","24.1","","97.69","","","","","","Clear"
"-122.60","58.84","FORT NELSON A","1192946","2020-10-02 05:00","2020","10","02","05:00","2.8","","1.4","","90","","","M","17","","10","","24.1","","97.68","","","","","","NA"
"-122.60","58.84","FORT NELSON A","1192946","2020-10-02 06:00","2020","10","02","06:00","2.1","","0.9","","92","","","M","17","","7","","48.3","","97.68","","","","","","NA"
"-122.60","58.84","FORT NELSON A","1192946","2020-10-02 07:00","2020","10","02","07:00","2.0","","0.4","","89","","","M","36","","2","","48.3","","97.70","","","","","","Mainly Clear"
"-122.60","58.84","FORT NELSON A","1192946","2020-10-02 08:00","2020","10","02","08:00","3.8","","1.1","","83","","","M","17","","12","","48.3","","97.68","","","","","","NA"
"-122.60","58.84","FORT NELSON A","1192946","2020-10-02 09:00","2020","10","02","09:00","6.4","","1.8","","73","","","M","19","","9","","48.3","","97.68","","","","","","NA"
"-122.60","58.84","FORT NELSON A","1192946","2020-10-02 10:00","2020","10","02","10:00","8.8","","2.4","","64","","","M","15","","5","","48.3","","97.64","","","","","","Mainly Clear"
"-122.60","58.84","FORT NELSON A","1192946","2020-10-02 11:00","2020","10","02","11:00","11.8","","2.8","","54","","","M","12","","5","","48.3","","97.62","","","","","","NA"
"-122.60","58.84","FORT NELSON A","1192946","2020-10-02 12:00","2020","10","02","12:00","14.3","","4.0","","49","","","M","10","","4","","48.3","","97.57","","","","","","NA"
"-122.60","58.84","FORT NELSON A","1192946","2020-10-02 13:00","2020","10","02","13:00","15.8","","2.6","","41","","","M","15","","4","","48.3","","97.50","","","","","","Mostly Cloudy"
"-122.60","58.84","FORT NELSON A","1192946","2020-10-02 14:00","2020","10","02","14:00","17.3","","2.9","","38","","","M","10","","7","","48.3","","97.46","","","","","","NA"
"-122.60","58.84","FORT NELSON A","1192946","2020-10-02 15:00","2020","10","02","15:00","18.1","","2.8","","36","","","M","11","","4","","32.2","","97.38","","","","","","NA"
"-122.60","58.84","FORT NELSON A","1192946","2020-10-02 16:00","2020","10","02","16:00","16.8","","3.2","","40","","","M","36","","2","","48.3","","97.30","","","","","","Mostly Cloudy"
"-122.60","58.84","FORT NELSON A","1192946","2020-10-02 17:00","2020","10","02","17:00","13.7","","6.7","","63","","","M","26","","5","","48.3","","97.25","","","","","","NA"
"-122.60","58.84","FORT NELSON A","1192946","2020-10-02 18:00","2020","10","02","18:00","12.2","","6.7","","69","","","M","35","","3","","24.1","","97.18","","","","","","NA"
"-122.60","58.84","FORT NELSON A","1192946","2020-10-02 19:00","2020","10","02","19:00","9.3","","5.9","","79","","","M","28","","5","","24.1","","97.13","","","","","","Mostly Cloudy"
"-122.60","58.84","FORT NELSON A","1192946","2020-10-02 20:00","2020","10","02","20:00","8.9","","5.9","","81","","","M","27","","5","","24.1","","97.08","","","","","","NA"
"-122.60","58.84","FORT NELSON A","1192946","2020-10-02 21:00","2020","10","02","21:00","8.6","","5.8","","82","","","M","36","","2","","24.1","","97.03","","","","","","NA"
"-122.60","58.84","FORT NELSON A","1192946","2020-10-02 22:00","2020","10","02","22:00","8.5","","5.0","","78","","","M","26","","3","","24.1","","96.96","","","","","","Mostly Cloudy"
"-122.60","58.84","FORT NELSON A","1192946","2020-10-02 23:00","2020","10","02","23:00","9.2","","4.1","","70","","","M","19","","9","","24.1","","96.91","","","","","","NA"
"-122.60","58.84","FORT NELSON A","1192946","2020-10-03 00:00","2020","10","03","00:00","6.7","","4.5","","85","","","M","","","0","","24.1","","96.89","","","","","","NA"
"-122.60","58.84","FORT NELSON A","1192946","2020-10-03 01:00","2020","10","03","01:00","5.6","","4.1","","90","","","M","24","","3","","24.1","","96.85","","","","","","Mainly Clear"
"-122.60","58.84","FORT NELSON A","1192946","2020-10-03 02:00","2020","10","03","02:00","5.5","","3.8","","89","","","M","10","","4","","24.1","","96.81","","","","","","NA"
"-122.60","58.84","FORT NELSON A","1192946","2020-10-03 03:00","2020","10","03","03:00","4.0","","2.7","","91","","","M","26","","5","","24.1","","96.73","","","","","","NA"
"-122.60","58.84","FORT NELSON A","1192946","2020-10-03 04:00","2020","10","03","04:00","3.7","","2.6","","92","","","M","21","","7","","24.1","","96.67","","","","","","Mostly Cloudy"
"-122.60","58.84","FORT NELSON A","1192946","2020-10-03 05:00","2020","10","03","05:00","5.0","","4.1","","94","","","M","32","","4","","24.1","","96.63","","","","","","NA"
"-122.60","58.84","FORT NELSON A","1192946","2020-10-03 06:00","2020","10","03","06:00","4.2","","3.4","","94","","","M","31","","3","","48.3","","96.61","","","","","","NA"
"-122.60","58.84","FORT NELSON A","1192946","2020-10-03 07:00","2020","10","03","07:00","5.2","","4.4","","95","","","M","11","","5","","48.3","","96.55","","","","","","Mostly Cloudy"
"-122.60","58.84","FORT NELSON A","1192946","2020-10-03 08:00","2020","10","03","08:00","7.7","","5.5","","86","","","M","17","","7","","48.3","","96.48","","","","","","NA"
"-122.60","58.84","FORT NELSON A","1192946","2020-10-03 09:00","2020","10","03","09:00","9.2","","5.8","","80","","","M","18","","7","","48.3","","96.46","","","","","","NA"
"-122.60","58.84","FORT NELSON A","1192946","2020-10-03 10:00","2020","10","03","10:00","9.0","","5.9","","81","","","M","17","","8","","48.3","","96.40","","","","","","Mostly Cloudy"
"-122.60","58.84","FORT NELSON A","1192946","2020-10-03 11:00","2020","10","03","11:00","9.6","","6.3","","80","","","M","15","","4","","48.3","","96.34","","","","","","NA"
"-122.60","58.84","FORT NELSON A","1192946","2020-10-03 12:00","2020","10","03","12:00","10.0","","6.3","","77","","","M","16","","10","","48.3","","96.30","","","","","","NA"
"-122.60","58.84","FORT NELSON A","1192946","2020-10-03 13:00","2020","10","03","13:00","10.2","","6.6","","78","","","M","15","","6","","48.3","","96.24","","","","","","Mostly Cloudy"
"-122.60","58.84","FORT NELSON A","1192946","2020-10-03 14:00","2020","10","03","14:00","10.0","","6.6","","79","","","M","19","","4","","48.3","","96.21","","","","","","NA"
"-122.60","58.84","FORT NELSON A","1192946","2020-10-03 15:00","2020","10","03","15:00","11.1","","7.5","","78","","","M","36","","3","","48.3","","96.21","","","","","","NA"
"-122.60","58.84","FORT NELSON A","1192946","2020-10-03 16:00","2020","10","03","16:00","10.6","","7.4","","81","","","M","36","","3","","48.3","","96.13","","","","","","Mostly Cloudy"
"-122.60","58.84","FORT NELSON A","1192946","2020-10-03 17:00","2020","10","03","17:00","10.4","","8.7","","89","","","M","32","","7","","48.3","","96.16","","","","","","Rain"
"-122.60","58.84","FORT NELSON A","1192946","2020-10-03 18:00","2020","10","03","18:00","9.1","","8.7","","97","","","M","36","","1","","48.3","","96.14","","","","","","NA"
"-122.60","58.84","FORT NELSON A","1192946","2020-10-03 19:00","2020","10","03","19:00","7.8","","7.6","","98","","","M","36","","3","","24.1","","96.13","","","","","","Mostly Cloudy"
"-122.60","58.84","FORT NELSON A","1192946","2020-10-03 20:00","2020","10","03","20:00","6.9","","6.7","","99","","","M","26","","8","","24.1","","96.16","","","","","","NA"
"-122.60","58.84","FORT NELSON A","1192946","2020-10-03 21:00","2020","10","03","21:00","5.8","","5.6","","98","","","M","36","","1","","24.1","","96.17","","","","","","NA"
"-122.60","58.84","FORT NELSON A","1192946","2020-10-03 22:00","2020","10","03","22:00","4.7","","4.5","","99","","","M","19","","5","","24.1","","96.15","","","","","","Mainly Clear"
"-122.60","58.84","FORT NELSON A","1192946","2020-10-03 23:00","2020","10","03","23:00","4.7","","4.6","","99","","","M","36","","1","","24.1","","96.16","","","","","","NA"
"-122.60","58.84","FORT NELSON A","1192946","2020-10-04 00:00","2020","10","04","00:00","3.7","","3.6","","99","","","M","25","","7","","24.1","","96.20","","","","","","NA"
"-122.60","58.84","FORT NELSON A","1192946","2020-10-04 01:00","2020","10","04","01:00","4.1","","3.9","","99","","","M","23","","4","","24.1","","96.21","","","","","","Mostly Cloudy"
"-122.60","58.84","FORT NELSON A","1192946","2020-10-04 02:00","2020","10","04","02:00","4.1","","3.9","","98","","","M","21","","8","","24.1","","96.19","","","","","","NA"
"-122.60","58.84","FORT NELSON A","1192946","2020-10-04 03:00","2020","10","04","03:00","3.7","","3.2","","97","","","M","22","","11","","24.1","","96.18","","","","","","NA"
"-122.60","58.84","FORT NELSON A","1192946","2020-10-04 04:00","2020","10","04","04:00","2.9","","2.4","","97","","","M","18","","5","","24.1","","96.18","","","","","","Mostly Cloudy"
"-122.60","58.84","FORT NELSON A","1192946","2020-10-04 05:00","2020","10","04","05:00","3.4","","3.1","","98","","","M","21","","5","","24.1","","96.16","","","","","","NA"
"-122.60","58.84","FORT NELSON A","1192946","2020-10-04 06:00","2020","10","04","06:00","4.6","","3.9","","95","","","M","16","","8","","24.1","","96.15","","","","","","NA"
"-122.60","58.84","FORT NELSON A","1192946","2020-10-04 07:00","2020","10","04","07:00","6.4","","3.6","","83","","","M","21","","12","","48.3","","96.16","","","","","","Cloudy"
"-122.60","58.84","FORT NELSON A","1192946","2020-10-04 08:00","2020","10","04","08:00","7.9","","3.1","","72","","","M","30","","8","","48.3","","96.14","","","","","","NA"
"-122.60","58.84","FORT NELSON A","1192946","2020-10-04 09:00","2020","10","04","09:00","12.8","","1.5","","46","","","M","30","","14","","48.3","","96.19","","","","","","NA"
"-122.60","58.84","FORT NELSON A","1192946","2020-10-04 10:00","2020","10","04","10:00","14.9","","0.1","","36","","","M","30","","29","","48.3","","96.17","","","","","","Mainly Clear"
"-122.60","58.84","FORT NELSON A","1192946","2020-10-04 11:00","2020","10","04","11:00","16.1","","-1.2","","31","","","M","30","","25","","48.3","","96.17","","","","","","NA"
"-122.60","58.84","FORT NELSON A","1192946","2020-10-04 12:00","2020","10","04","12:00","16.8","","-1.5","","28","","","M","26","","30","","48.3","","96.19","","","","","","NA"
"-122.60","58.84","FORT NELSON A","1192946","2020-10-04 13:00","2020","10","04","13:00","17.2","","-2.2","","26","","","M","30","","28","","48.3","","96.19","","","","","","Mainly Clear"
"-122.60","58.84","FORT NELSON A","1192946","2020-10-04 14:00","2020","10","04","14:00","17.1","","-2.0","","27","","","M","28","","21","","48.3","","96.23","","","","","","NA"
"-122.60","58.84","FORT NELSON A","1192946","2020-10-04 15:00","2020","10","04","15:00","16.8","","-2.2","","27","","","M","29","","28","","48.3","","96.26","","","","","","NA"
"-122.60","58.84","FORT NELSON A","1192946","2020-10-04 16:00","2020","10","04","16:00","16.2","","-1.4","","30","","","M","29","","18","","48.3","","96.26","","","","","","Mostly Cloudy"
"-122.60","58.84","FORT NELSON A","1192946","2020-10-04 17:00","2020","10","04","17:00","14.9","","-1.2","","33","","","M","29","","15","","48.3","","96.30","","","","","","NA"
"-122.60","58.84","FORT NELSON A","1192946","2020-10-04 18:00","2020","10","04","18:00","12.7","","-0.7","","39","","","M","31","","10","","48.3","","96.34","","","","","","NA"
"-122.60","58.84","FORT NELSON A","1192946","2020-10-04 19:00","2020","10","04","19:00","11.4","","-0.8","","43","","","M","36","","5","","24.1","","96.33","","","","","","Mainly Clear"
"-122.60","58.84","FORT NELSON A","1192946","2020-10-04 20:00","2020","10","04","20:00","5.2","","-0.1","","69","","","M","21","","9","","24.1","","96.31","","","","","","NA"
"-122.60","58.84","FORT NELSON A","1192946","2020-10-04 21:00","2020","10","04","21:00","4.2","","0.0","","74","","","M","25","","7","","24.1","","96.35","","","","","","NA"
"-122.60","58.84","FORT NELSON A","1192946","2020-10-04 22:00","2020","10","04","22:00","6.0","","0.4","","67","","","M","15","","5","","24.1","","96.35","","","","","","Mostly Cloudy"
"-122.60","58.84","FORT NELSON A","1192946","2020-10-04 23:00","2020","10","04","23:00","3.5","","0.0","","78","","","M","26","","3","","24.1","","96.34","","","","","","NA"
"-122.60","58.84","FORT NELSON A","1192946","2020-10-05 00:00","2020","10","05","00:00","1.5","","-0.6","","86","","","M","36","","3","","24.1","","96.30","","","","","","NA"
"-122.60","58.84","FORT NELSON A","1192946","2020-10-05 01:00","2020","10","05","01:00","0.7","","-1.4","","86","","","M","25","","6","","24.1","","96.25","","","","","","Mainly Clear"
"-122.60","58.84","FORT NELSON A","1192946","2020-10-05 02:00","2020","10","05","02:00","1.9","","-0.2","","86","","","M","36","","2","","24.1","","96.19","","","","","","NA"
"-122.60","58.84","FORT NELSON A","1192946","2020-10-05 03:00","2020","10","05","03:00","2.4","","0.0","","84","","","M","36","","3","","24.1","","96.15","","","","","","NA"
"-122.60","58.84","FORT NELSON A","1192946","2020-10-05 04:00","2020","10","05","04:00","2.1","","0.0","","86","","","M","36","","3","","24.1","","96.00","","","","","","Mainly Clear"
"-122.60","58.84","FORT NELSON A","1192946","2020-10-05 05:00","2020","10","05","05:00","1.3","","-0.2","","89","","","M","18","","4","","24.1","","95.90","","","","","","NA"
"-122.60","58.84","FORT NELSON A","1192946","2020-10-05 06:00","2020","10","05","06:00","2.8","","0.3","","84","","","M","17","","7","","24.1","","95.88","","","","","","NA"
"-122.60","58.84","FORT NELSON A","1192946","2020-10-05 07:00","2020","10","05","07:00","3.8","","0.0","","76","","","M","22","","3","","48.3","","95.76","","","","","","Mostly Cloudy"
"-122.60","58.84","FORT NELSON A","1192946","2020-10-05 08:00","2020","10","05","08:00","3.7","","1.3","","84","","","M","13","","4","","48.3","","95.69","","","","","","NA"
"-122.60","58.84","FORT NELSON A","1192946","2020-10-05 09:00","2020","10","05","09:00","5.1","","1.2","","76","","","M","15","","4","","48.3","","95.69","","","","","","NA"
"-122.60","58.84","FORT NELSON A","1192946","2020-10-05 10:00","2020","10","05","10:00","7.5","","2.1","","69","","","M","14","","7","","48.3","","95.68","","","","","","Mainly Clear"
"-122.60","58.84","FORT NELSON A","1192946","2020-10-05 11:00","2020","10","05","11:00","9.6","","2.3","","60","","","M","14","","5","","48.3","","95.70","","","","","","NA"
"-122.60","58.84","FORT NELSON A","1192946","2020-10-05 12:00","2020","10","05","12:00","12.6","","3.6","","54","","","M","16","","10","","48.3","","95.72","","","","","","NA"
"-122.60","58.84","FORT NELSON A","1192946","2020-10-05 13:00","2020","10","05","13:00","15.4","","4.2","","47","","","M","7","","5","","48.3","","95.74","","","","","","Mainly Clear"
"-122.60","58.84","FORT NELSON A","1192946","2020-10-05 14:00","2020","10","05","14:00","16.8","","4.6","","44","","","M","3","","10","","","M","95.73","","","","","","NA"
"-122.60","58.84","FORT NELSON A","1192946","2020-10-05 15:00","2020","10","05","15:00","15.4","","4.9","","49","","","M","35","","10","","48.3","","95.75","","","","","","NA"
"-122.60","58.84","FORT NELSON A","1192946","2020-10-05 16:00","2020","10","05","16:00","15.9","","4.6","","47","","","M","35","","12","","48.3","","95.76","","","","","","Mostly Cloudy"
"-122.60","58.84","FORT NELSON A","1192946","2020-10-05 17:00","2020","10","05","17:00","14.6","","3.5","","47","","","M","30","","9","","48.3","","95.80","","","","","","NA"
"-122.60","58.84","FORT NELSON A","1192946","2020-10-05 18:00","2020","10","05","18:00","13.1","","2.6","","49","","","M","30","","7","","24.1","","95.84","","","","","","NA"
"-122.60","58.84","FORT NELSON A","1192946","2020-10-05 19:00","2020","10","05","19:00","11.0","","1.9","","53","","","M","27","","13","","24.1","","95.87","","","","","","Mostly Cloudy"
"-122.60","58.84","FORT NELSON A","1192946","2020-10-05 20:00","2020","10","05","20:00","10.4","","0.2","","49","","","M","28","","4","","24.1","","95.93","","","","","","NA"
"-122.60","58.84","FORT NELSON A","1192946","2020-10-05 21:00","2020","10","05","21:00","6.7","","1.7","","70","","","M","26","","3","","24.1","","95.96","","","","","","NA"
"-122.60","58.84","FORT NELSON A","1192946","2020-10-05 22:00","2020","10","05","22:00","5.5","","1.0","","73","","","M","23","","7","","24.1","","95.99","","","","","","Mostly Cloudy"
"-122.60","58.84","FORT NELSON A","1192946","2020-10-05 23:00","2020","10","05","23:00","3.9","","0.2","","77","","","M","22","","13","","24.1","","96.03","","","","","","NA"
"-122.60","58.84","FORT NELSON A","1192946","2020-10-06 00:00","2020","10","06","00:00","5.8","","1.0","","71","","","M","15","","5","","24.1","","96.08","","","","","","NA"
"-122.60","58.84","FORT NELSON A","1192946","2020-10-06 01:00","2020","10","06","01:00","2.7","","0.3","","85","","","M","28","","7","","24.1","","96.15","","","","","","Mainly Clear"
"-122.60","58.84","FORT NELSON A","1192946","2020-10-06 02:00","2020","10","06","02:00","2.9","","0.3","","83","","","M","28","","14","","24.1","","96.16","","","","","","NA"
"-122.60","58.84","FORT NELSON A","1192946","2020-10-06 03:00","2020","10","06","03:00","9.5","","-0.8","","49","","","M","26","","17","","24.1","","96.25","","","","","","NA"
"-122.60","58.84","FORT NELSON A","1192946","2020-10-06 04:00","2020","10","06","04:00","9.7","","-1.1","","47","","","M","25","","16","","24.1","","96.31","","","","","","Mainly Clear"
"-122.60","58.84","FORT NELSON A","1192946","2020-10-06 05:00","2020","10","06","05:00","6.9","","-1.2","","56","","","M","25","","10","","24.1","","96.36","","","","","","NA"
"-122.60","58.84","FORT NELSON A","1192946","2020-10-06 06:00","2020","10","06","06:00","4.0","","-0.5","","73","","","M","28","","5","","48.3","","96.45","","","","","","NA"
"-122.60","58.84","FORT NELSON A","1192946","2020-10-06 07:00","2020","10","06","07:00","8.8","","-1.4","","49","","","M","28","","10","","48.3","","96.51","","","","","","Mostly Cloudy"
"-122.60","58.84","FORT NELSON A","1192946","2020-10-06 08:00","2020","10","06","08:00","9.6","","-0.8","","48","","","M","28","","12","","48.3","","96.61","","","","","","NA"
"-122.60","58.84","FORT NELSON A","1192946","2020-10-06 09:00","2020","10","06","09:00","11.7","","-1.6","","40","","","M","28","","16","","48.3","","96.66","","","","","","NA"
"-122.60","58.84","FORT NELSON A","1192946","2020-10-06 10:00","2020","10","06","10:00","12.5","","-2.6","","35","","","M","29","","20","","48.3","","96.73","","","","","","Mostly Cloudy"
"-122.60","58.84","FORT NELSON A","1192946","2020-10-06 11:00","2020","10","06","11:00","13.6","","-2.5","","33","","","M","30","","25","","48.3","","96.77","","","","","","NA"
"-122.60","58.84","FORT NELSON A","1192946","2020-10-06 12:00","2020","10","06","12:00","13.6","","-2.7","","32","","","M","29","","24","","48.3","","96.80","","","","","","NA"
"-122.60","58.84","FORT NELSON A","1192946","2020-10-06 13:00","2020","10","06","13:00","13.3","","-2.5","","33","","","M","29","","14","","48.3","","96.84","","","","","","Mostly Cloudy"
"-122.60","58.84","FORT NELSON A","1192946","2020-10-06 14:00","2020","10","06","14:00","13.7","","-2.9","","31","","","M","30","","22","","48.3","","96.89","","","","","","NA"
"-122.60","58.84","FORT NELSON A","1192946","2020-10-06 15:00","2020","10","06","15:00","14.6","","-4.5","","26","","","M","29","","29","","48.3","","96.92","","","","","","NA"
"-122.60","58.84","FORT NELSON A","1192946","2020-10-06 16:00","2020","10","06","16:00","14.1","","-4.1","","28","","","M","29","","18","","48.3","","96.95","","","","","","Mostly Cloudy"
"-122.60","58.84","FORT NELSON A","1192946","2020-10-06 17:00","2020","10","06","17:00","12.8","","-4.0","","31","","","M","29","","14","","48.3","","97.00","","","","","","NA"
"-122.60","58.84","FORT NELSON A","1192946","2020-10-06 18:00","2020","10","06","18:00","10.6","","-3.5","","37","","","M","27","","10","","32.2","","97.06","","","","","","NA"
"-122.60","58.84","FORT NELSON A","1192946","2020-10-06 19:00","2020","10","06","19:00","9.1","","-3.0","","42","","","M","30","","11","","32.2","","97.13","","","","","","Mainly Clear"
"-122.60","58.84","FORT NELSON A","1192946","2020-10-06 20:00","2020","10","06","20:00","8.6","","-2.3","","46","","","M","29","","15","","","M","97.16","","","","","","NA"
"-122.60","58.84","FORT NELSON A","1192946","2020-10-06 21:00","2020","10","06","21:00","7.5","","-2.0","","51","","","M","28","","10","","24.1","","97.22","","","","","","NA"
"-122.60","58.84","FORT NELSON A","1192946","2020-10-06 22:00","2020","10","06","22:00","5.9","","-1.9","","57","","","M","26","","5","","24.1","","97.26","","","","","","Mainly Clear"
"-122.60","58.84","FORT NELSON A","1192946","2020-10-06 23:00","2020","10","06","23:00","3.7","","-2.4","","64","","","M","17","","8","","24.1","","97.27","","","","","","NA"
"-122.60","58.84","FORT NELSON A","1192946","2020-10-07 00:00","2020","10","07","00:00","2.1","","-2.0","","74","","","M","19","","5","","24.1","","97.29","","","","","","NA"
"-122.60","58.84","FORT NELSON A","1192946","2020-10-07 01:00","2020","10","07","01:00","3.0","","-1.9","","70","","","M","17","","11","","24.1","","97.30","","","","","","Mainly Clear"
"-122.60","58.84","FORT NELSON A","1192946","2020-10-07 02:00","2020","10","07","02:00","2.3","","-1.8","","74","","","M","17","","13","","24.1","","97.30","","","","","","NA"
"-122.60","58.84","FORT NELSON A","1192946","2020-10-07 03:00","2020","10","07","03:00","2.4","","-1.8","","74","","","M","17","","10","","24.1","","97.32","","","","","","NA"
"-122.60","58.84","FORT NELSON A","1192946","2020-10-07 04:00","2020","10","07","04:00","2.7","","-2.0","","71","","","M","17","","7","","24.1","","97.31","","","","","","Mostly Cloudy"
"-122.60","58.84","FORT NELSON A","1192946","2020-10-07 05:00","2020","10","07","05:00","2.6","","-1.9","","72","","","M","16","","8","","24.1","","97.27","","","","","","NA"
"-122.60","58.84","FORT NELSON A","1192946","2020-10-07 06:00","2020","10","07","06:00","2.6","","-1.9","","72","","","M","17","","9","","24.1","","97.27","","","","","","NA"
"-122.60","58.84","FORT NELSON A","1192946","2020-10-07 07:00","2020","10","07","07:00","2.9","","-2.0","","70","","","M","17","","12","","48.3","","97.26","","","","","","Mostly Cloudy"
"-122.60","58.84","FORT NELSON A","1192946","2020-10-07 08:00","2020","10","07","08:00","3.4","","-2.0","","68","","","M","17","","9","","48.3","","97.26","","","","","","NA"
"-122.60","58.84","FORT NELSON A","1192946","2020-10-07 09:00","2020","10","07","09:00","3.6","","-1.5","","69","","","M","18","","8","","48.3","","97.23","","","","","","NA"
"-122.60","58.84","FORT NELSON A","1192946","2020-10-07 10:00","2020","10","07","10:00","4.2","","-1.4","","67","","","M","18","","7","","48.3","","97.17","","","","","","Mostly Cloudy"
"-122.60","58.84","FORT NELSON A","1192946","2020-10-07 11:00","2020","10","07","11:00","4.7","","-1.0","","67","","","M","16","","6","","48.3","","97.12","","","","","","NA"
"-122.60","58.84","FORT NELSON A","1192946","2020-10-07 12:00","2020","10","07","12:00","6.0","","-0.3","","64","","","M","13","","4","","48.3","","97.05","","","","","","NA"
"-122.60","58.84","FORT NELSON A","1192946","2020-10-07 13:00","2020","10","07","13:00","7.1","","-0.6","","58","","","M","16","","5","","48.3","","96.99","","","","","","Mostly Cloudy"
"-122.60","58.84","FORT NELSON A","1192946","2020-10-07 14:00","2020","10","07","14:00","8.2","","-0.8","","53","","","M","36","","4","","48.3","","96.91","","","","","","NA"
"-122.60","58.84","FORT NELSON A","1192946","2020-10-07 15:00","2020","10","07","15:00","8.8","","0.5","","56","","","M","3","","7","","48.3","","96.82","","","","","","NA"
"-122.60","58.84","FORT NELSON A","1192946","2020-10-07 16:00","2020","10","07","16:00","8.2","","0.9","","60","","","M","33","","6","","48.3","","96.74","","","","","","Cloudy"
"-122.60","58.84","FORT NELSON A","1192946","2020-10-07 17:00","2020","10","07","17:00","7.3","","0.9","","64","","","M","32","","6","","48.3","","96.68","","","","","","NA"
"-122.60","58.84","FORT NELSON A","1192946","2020-10-07 18:00","2020","10","07","18:00","6.3","","0.7","","67","","","M","32","","7","","24.1","","96.62","","","","","","NA"
"-122.60","58.84","FORT NELSON A","1192946","2020-10-07 19:00","2020","10","07","19:00","6.0","","0.4","","67","","","M","33","","4","","24.1","","96.55","","","","","","Mostly Cloudy"
"-122.60","58.84","FORT NELSON A","1192946","2020-10-07 20:00","2020","10","07","20:00","4.5","","0.9","","77","","","M","32","","7","","24.1","","96.49","","","","","","NA"
"-122.60","58.84","FORT NELSON A","1192946","2020-10-07 21:00","2020","10","07","21:00","4.2","","0.4","","76","","","M","30","","7","","24.1","","96.43","","","","","","NA"
"-122.60","58.84","FORT NELSON A","1192946","2020-10-07 22:00","2020","10","07","22:00","2.8","","0.3","","83","","","M","20","","4","","","M","96.39","","","","","","Mostly Cloudy"
"-122.60","58.84","FORT NELSON A","1192946","2020-10-07 23:00","2020","10","07","23:00","1.9","","-0.2","","86","","","M","36","","2","","24.1","","96.33","","","","","","NA"
"-122.60","58.84","FORT NELSON A","1192946","2020-10-08 00:00","2020","10","08","00:00","1.1","","-0.4","","90","","","M","36","","2","","24.1","","96.30","","","","","","NA"
"-122.60","58.84","FORT NELSON A","1192946","2020-10-08 01:00","2020","10","08","01:00","1.3","","-0.3","","89","","","M","18","","3","","24.1","","96.26","","","","","","Cloudy"
"-122.60","58.84","FORT NELSON A","1192946","2020-10-08 02:00","2020","10","08","02:00","0.4","","-1.1","","90","","","M","2","","8","","24.1","","96.28","","","","","","NA"
"-122.60","58.84","FORT NELSON A","1192946","2020-10-08 03:00","2020","10","08","03:00","0.6","","-0.9","","90","","","M","36","","2","","24.1","","96.26","","","","","","NA"
"-122.60","58.84","FORT NELSON A","1192946","2020-10-08 04:00","2020","10","08","04:00","-0.4","","-1.4","","93","","","M","36","","3","","24.1","","96.26","","","","-1","","Mostly Cloudy"
"-122.60","58.84","FORT NELSON A","1192946","2020-10-08 05:00","2020","10","08","05:00","-1.0","","-2.6","","89","","","M","36","","2","","24.1","","96.25","","","","-2","","NA"
"-122.60","58.84","FORT NELSON A","1192946","2020-10-08 06:00","2020","10","08","06:00","-1.6","","-2.5","","94","","","M","25","","8","","48.3","","96.25","","","","-5","","NA"
"-122.60","58.84","FORT NELSON A","1192946","2020-10-08 07:00","2020","10","08","07:00","-1.5","","-2.6","","93","","","M","23","","8","","48.3","","96.27","","","","-5","","Mainly Clear"
"-122.60","58.84","FORT NELSON A","1192946","2020-10-08 08:00","2020","10","08","08:00","0.4","","-0.5","","94","","","M","17","","5","","48.3","","96.28","","","","","","NA"
"-122.60","58.84","FORT NELSON A","1192946","2020-10-08 09:00","2020","10","08","09:00","2.4","","-0.1","","84","","","M","16","","7","","48.3","","96.29","","","","","","NA"
"-122.60","58.84","FORT NELSON A","1192946","2020-10-08 10:00","2020","10","08","10:00","5.7","","0.3","","69","","","M","17","","8","","48.3","","96.26","","","","","","Mainly Clear"
"-122.60","58.84","FORT NELSON A","1192946","2020-10-08 11:00","2020","10","08","11:00","8.2","","-0.2","","55","","","M","16","","10","","48.3","","96.26","","","","","","NA"
"-122.60","58.84","FORT NELSON A","1192946","2020-10-08 12:00","2020","10","08","12:00","9.8","","-0.6","","48","","","M","12","","5","","48.3","","96.21","","","","","","NA"
"-122.60","58.84","FORT NELSON A","1192946","2020-10-08 13:00","2020","10","08","13:00","9.6","","-1.1","","47","","","M","29","","8","","48.3","","96.21","","","","","","Mostly Cloudy"
"-122.60","58.84","FORT NELSON A","1192946","2020-10-08 14:00","2020","10","08","14:00","10.2","","-1.4","","44","","","M","24","","5","","48.3","","96.19","","","","","","NA"
"-122.60","58.84","FORT NELSON A","1192946","2020-10-08 15:00","2020","10","08","15:00","11.3","","-3.0","","37","","","M","33","","6","","48.3","","96.18","","","","","","NA"
"-122.60","58.84","FORT NELSON A","1192946","2020-10-08 16:00","2020","10","08","16:00","10.6","","-3.9","","36","","","M","36","","3","","48.3","","96.16","","","","","","Mostly Cloudy"
"-122.60","58.84","FORT NELSON A","1192946","2020-10-08 17:00","2020","10","08","17:00","9.6","","-3.6","","39","","","M","10","","5","","48.3","","96.15","","","","","","NA"
"-122.60","58.84","FORT NELSON A","1192946","2020-10-08 18:00","2020","10","08","18:00","2.8","","-1.2","","75","","","M","36","","1","","24.1","","96.15","","","","","","NA"
"-122.60","58.84","FORT NELSON A","1192946","2020-10-08 19:00","2020","10","08","19:00","0.9","","-2.5","","78","","","M","24","","4","","24.1","","96.12","","","","","","Mainly Clear"
"-122.60","58.84","FORT NELSON A","1192946","2020-10-08 20:00","2020","10","08","20:00","-0.1","","-3.2","","80","","","M","22","","6","","24.1","","96.12","","","","-2","","NA"
"-122.60","58.84","FORT NELSON A","1192946","2020-10-08 21:00","2020","10","08","21:00","-1.2","","-3.7","","83","","","M","19","","7","","24.1","","96.10","","","","-4","","NA"
"-122.60","58.84","FORT NELSON A","1192946","2020-10-08 22:00","2020","10","08","22:00","-0.8","","-3.5","","82","","","M","18","","5","","24.1","","96.07","","","","-2","","Mainly Clear"
"-122.60","58.84","FORT NELSON A","1192946","2020-10-08 23:00","2020","10","08","23:00","-0.7","","-3.6","","80","","","M","19","","3","","24.1","","96.03","","","","-2","","NA"
"-122.60","58.84","FORT NELSON A","1192946","2020-10-09 00:00","2020","10","09","00:00","-2.4","","-4.2","","88","","","M","22","","7","","24.1","","96.02","","","","-5","","NA"
"-122.60","58.84","FORT NELSON A","1192946","2020-10-09 01:00","2020","10","09","01:00","-2.3","","-4.0","","88","","","M","18","","5","","24.1","","95.99","","","","-4","","Mostly Cloudy"
"-122.60","58.84","FORT NELSON A","1192946","2020-10-09 02:00","2020","10","09","02:00","-2.1","","-4.0","","87","","","M","19","","3","","24.1","","95.96","","","","-3","","NA"
"-122.60","58.84","FORT NELSON A","1192946","2020-10-09 03:00","2020","10","09","03:00","-2.0","","-3.9","","87","","","M","20","","5","","24.1","","95.95","","","","-4","","NA"
"-122.60","58.84","FORT NELSON A","1192946","2020-10-09 04:00","2020","10","09","04:00","-2.7","","-4.3","","89","","","M","20","","6","","24.1","","95.93","","","","-5","","Mostly Cloudy"
"-122.60","58.84","FORT NELSON A","1192946","2020-10-09 05:00","2020","10","09","05:00","-2.9","","-4.2","","91","","","M","15","","5","","24.1","","95.91","","","","-5","","NA"
"-122.60","58.84","FORT NELSON A","1192946","2020-10-09 06:00","2020","10","09","06:00","-1.7","","-2.9","","91","","","M","17","","4","","48.3","","95.87","","","","-3","","NA"
"-122.60","58.84","FORT NELSON A","1192946","2020-10-09 07:00","2020","10","09","07:00","-1.9","","-3.2","","91","","","M","24","","6","","48.3","","95.85","","","","-4","","Mostly Cloudy"
"-122.60","58.84","FORT NELSON A","1192946","2020-10-09 08:00","2020","10","09","08:00","-1.2","","-3.0","","88","","","M","22","","4","","48.3","","95.87","","","","-3","","NA"
"-122.60","58.84","FORT NELSON A","1192946","2020-10-09 09:00","2020","10","09","09:00","1.0","","-1.8","","82","","","M","9","","4","","48.3","","95.80","","","","","","NA"
"-122.60","58.84","FORT NELSON A","1192946","2020-10-09 10:00","2020","10","09","10:00","3.0","","-2.4","","68","","","M","17","","3","","48.3","","95.77","","","","","","Mainly Clear"
"-122.60","58.84","FORT NELSON A","1192946","2020-10-09 11:00","2020","10","09","11:00","4.8","","-2.4","","59","","","M","36","","2","","48.3","","95.72","","","","","","NA"
"-122.60","58.84","FORT NELSON A","1192946","2020-10-09 12:00","2020","10","09","12:00","7.2","","-3.2","","48","","","M","5","","5","","48.3","","95.65","","","","","","NA"
"-122.60","58.84","FORT NELSON A","1192946","2020-10-09 13:00","2020","10","09","13:00","8.9","","-2.6","","44","","","M","1","","8","","48.3","","95.55","","","","","","Mainly Clear"
"-122.60","58.84","FORT NELSON A","1192946","2020-10-09 14:00","2020","10","09","14:00","9.3","","-2.4","","44","","","M","5","","8","","48.3","","95.48","","","","","","NA"
"-122.60","58.84","FORT NELSON A","1192946","2020-10-09 15:00","2020","10","09","15:00","9.3","","-2.4","","44","","","M","9","","6","","48.3","","95.39","","","","","","NA"
"-122.60","58.84","FORT NELSON A","1192946","2020-10-09 16:00","2020","10","09","16:00","8.6","","-0.8","","52","","","M","9","","9","","48.3","","95.33","","","","","","Mostly Cloudy"
"-122.60","58.84","FORT NELSON A","1192946","2020-10-09 17:00","2020","10","09","17:00","8.1","","-0.9","","53","","","M","6","","6","","48.3","","95.26","","","","","","NA"
"-122.60","58.84","FORT NELSON A","1192946","2020-10-09 18:00","2020","10","09","18:00","6.2","","-0.2","","63","","","M","36","","5","","48.3","","95.21","","","","","","NA"
"-122.60","58.84","FORT NELSON A","1192946","2020-10-09 19:00","2020","10","09","19:00","5.9","","-0.4","","64","","","M","34","","8","","24.1","","95.15","","","","","","Mostly Cloudy"
"-122.60","58.84","FORT NELSON A","1192946","2020-10-09 20:00","2020","10","09","20:00","5.8","","-0.4","","64","","","M","36","","3","","24.1","","95.10","","","","","","NA"
"-122.60","58.84","FORT NELSON A","1192946","2020-10-09 21:00","2020","10","09","21:00","5.7","","1.7","","75","","","M","3","","4","","24.1","","95.08","","","","","","NA"
"-122.60","58.84","FORT NELSON A","1192946","2020-10-09 22:00","2020","10","09","22:00","4.0","","2.3","","88","","","M","23","","5","","24.1","","95.04","","","","","","Cloudy"
"-122.60","58.84","FORT NELSON A","1192946","2020-10-09 23:00","2020","10","09","23:00","3.5","","2.5","","93","","","M","23","","5","","24.1","","95.01","","","","","","Rain Showers"
"-122.60","58.84","FORT NELSON A","1192946","2020-10-10 00:00","2020","10","10","00:00","3.4","","3.0","","97","","","M","26","","3","","24.1","","95.00","","","","","","Rain Showers"
"-122.60","58.84","FORT NELSON A","1192946","2020-10-10 01:00","2020","10","10","01:00","3.4","","2.7","","95","","","M","33","","5","","24.1","","95.00","","","","","","Rain Showers"
"-122.60","58.84","FORT NELSON A","1192946","2020-10-10 02:00","2020","10","10","02:00","3.1","","2.2","","93","","","M","36","","1","","24.1","","94.99","","","","","","Rain Showers"
"-122.60","58.84","FORT NELSON A","1192946","2020-10-10 03:00","2020","10","10","03:00","2.6","","1.7","","94","","","M","33","","8","","24.1","","94.93","","","","","","NA"
"-122.60","58.84","FORT NELSON A","1192946","2020-10-10 04:00","2020","10","10","04:00","2.2","","1.4","","95","","","M","29","","4","","24.1","","94.94","","","","","","Mostly Cloudy"
"-122.60","58.84","FORT NELSON A","1192946","2020-10-10 05:00","2020","10","10","05:00","2.4","","1.6","","94","","","M","25","","5","","6.4","","95.00","","","","","","Fog"
"-122.60","58.84","FORT NELSON A","1192946","2020-10-10 06:00","2020","10","10","06:00","2.0","","1.2","","94","","","M","32","","9","","6.4","","94.99","","","","","","Fog"
"-122.60","58.84","FORT NELSON A","1192946","2020-10-10 07:00","2020","10","10","07:00","1.9","","1.2","","95","","","M","25","","6","","24.1","","95.00","","","","","","Mostly Cloudy"
"-122.60","58.84","FORT NELSON A","1192946","2020-10-10 08:00","2020","10","10","08:00","2.4","","1.4","","93","","","M","33","","8","","24.1","","94.95","","","","","","NA"
"-122.60","58.84","FORT NELSON A","1192946","2020-10-10 09:00","2020","10","10","09:00","2.8","","1.5","","91","","","M","27","","5","","24.1","","95.01","","","","","","NA"
"-122.60","58.84","FORT NELSON A","1192946","2020-10-10 10:00","2020","10","10","10:00","3.5","","1.8","","89","","","M","32","","9","","24.1","","95.03","","","","","","Cloudy"
"-122.60","58.84","FORT NELSON A","1192946","2020-10-10 11:00","2020","10","10","11:00","3.7","","1.9","","88","","","M","33","","4","","24.1","","95.05","","","","","","NA"
"-122.60","58.84","FORT NELSON A","1192946","2020-10-10 12:00","2020","10","10","12:00","3.7","","1.7","","87","","","M","36","","7","","24.1","","95.05","","","","","","NA"
"-122.60","58.84","FORT NELSON A","1192946","2020-10-10 13:00","2020","10","10","13:00","4.2","","1.6","","83","","","M","35","","8","","24.1","","95.05","","","","","","Cloudy"
"-122.60","58.84","FORT NELSON A","1192946","2020-10-10 14:00","2020","10","10","14:00","4.2","","1.6","","83","","","M","31","","10","","24.1","","95.07","","","","","","NA"
"-122.60","58.84","FORT NELSON A","1192946","2020-10-10 15:00","2020","10","10","15:00","4.4","","1.4","","81","","","M","29","","9","","24.1","","95.13","","","","","","NA"
"-122.60","58.84","FORT NELSON A","1192946","2020-10-10 16:00","2020","10","10","16:00","4.3","","1.5","","82","","","M","31","","10","","24.1","","95.17","","","","","","Cloudy"
"-122.60","58.84","FORT NELSON A","1192946","2020-10-10 17:00","2020","10","10","17:00","3.9","","1.4","","84","","","M","33","","11","","24.1","","95.23","","","","","","NA"
"-122.60","58.84","FORT NELSON A","1192946","2020-10-10 18:00","2020","10","10","18:00","3.8","","1.5","","85","","","M","31","","8","","24.1","","95.26","","","","","","NA"
"-122.60","58.84","FORT NELSON A","1192946","2020-10-10 19:00","2020","10","10","19:00","3.6","","1.7","","87","","","M","31","","4","","24.1","","95.31","","","","","","Cloudy"
"-122.60","58.84","FORT NELSON A","1192946","2020-10-10 20:00","2020","10","10","20:00","3.4","","1.5","","87","","","M","31","","5","","24.1","","95.37","","","","","","NA"
"-122.60","58.84","FORT NELSON A","1192946","2020-10-10 21:00","2020","10","10","21:00","3.4","","1.4","","87","","","M","31","","4","","24.1","","95.42","","","","","","NA"
"-122.60","58.84","FORT NELSON A","1192946","2020-10-10 22:00","2020","10","10","22:00","3.1","","1.4","","89","","","M","33","","7","","24.1","","95.45","","","","","","Cloudy"
"-122.60","58.84","FORT NELSON A","1192946","2020-10-10 23:00","2020","10","10","23:00","2.8","","1.3","","90","","","M","22","","5","","24.1","","95.48","","","","","","NA"
"-122.60","58.84","FORT NELSON A","1192946","2020-10-11 00:00","2020","10","11","00:00","2.9","","1.0","","87","","","M","32","","5","","24.1","","95.51","","","","","","NA"
"-122.60","58.84","FORT NELSON A","1192946","2020-10-11 01:00","2020","10","11","01:00","2.4","","1.1","","91","","","M","3","","8","","24.1","","95.53","","","","","","Cloudy"
"-122.60","58.84","FORT NELSON A","1192946","2020-10-11 02:00","2020","10","11","02:00","2.2","","1.0","","92","","","M","20","","3","","","M","95.56","","","","","","NA"
"-122.60","58.84","FORT NELSON A","1192946","2020-10-11 03:00","2020","10","11","03:00","1.7","","0.6","","92","","","M","36","","1","","24.1","","95.58","","","","","","NA"
"-122.60","58.84","FORT NELSON A","1192946","2020-10-11 04:00","2020","10","11","04:00","0.7","","0.2","","96","","","M","26","","3","","24.1","","95.60","","","","","","Cloudy"
"-122.60","58.84","FORT NELSON A","1192946","2020-10-11 05:00","2020","10","11","05:00","0.8","","0.0","","94","","","M","36","","3","","24.1","","95.65","","","","","","NA"
"-122.60","58.84","FORT NELSON A","1192946","2020-10-11 06:00","2020","10","11","06:00","0.7","","0.1","","96","","","M","15","","5","","24.1","","95.65","","","","","","NA"
"-122.60","58.84","FORT NELSON A","1192946","2020-10-11 07:00","2020","10","11","07:00","1.1","","0.4","","96","","","M","25","","5","","24.1","","95.69","","","","","","Mostly Cloudy"
"-122.60","58.84","FORT NELSON A","1192946","2020-10-11 08:00","2020","10","11","08:00","1.5","","0.7","","94","","","M","36","","2","","24.1","","95.73","","","","","","NA"
"-122.60","58.84","FORT NELSON A","1192946","2020-10-11 09:00","2020","10","11","09:00","2.8","","1.2","","89","","","M","14","","7","","24.1","","95.75","","","","","","NA"
"-122.60","58.84","FORT NELSON A","1192946","2020-10-11 10:00","2020","10","11","10:00","3.6","","1.8","","88","","","M","21","","10","","24.1","","95.77","","","","","","Mostly Cloudy"
"-122.60","58.84","FORT NELSON A","1192946","2020-10-11 11:00","2020","10","11","11:00","4.3","","1.8","","84","","","M","23","","7","","24.1","","95.79","","","","","","NA"
"-122.60","58.84","FORT NELSON A","1192946","2020-10-11 12:00","2020","10","11","12:00","6.2","","1.9","","74","","","M","20","","10","","48.3","","95.77","","","","","","NA"
"-122.60","58.84","FORT NELSON A","1192946","2020-10-11 13:00","2020","10","11","13:00","7.5","","1.7","","66","","","M","11","","5","","48.3","","95.76","","","","","","Mostly Cloudy"
"-122.60","58.84","FORT NELSON A","1192946","2020-10-11 14:00","2020","10","11","14:00","8.2","","1.8","","64","","","M","16","","5","","48.3","","95.77","","","","","","NA"
"-122.60","58.84","FORT NELSON A","1192946","2020-10-11 15:00","2020","10","11","15:00","8.4","","2.1","","64","","","M","14","","7","","48.3","","95.75","","","","","","NA"
"-122.60","58.84","FORT NELSON A","1192946","2020-10-11 16:00","2020","10","11","16:00","8.4","","1.8","","63","","","M","19","","5","","48.3","","95.75","","","","","","Mostly Cloudy"
"-122.60","58.84","FORT NELSON A","1192946","2020-10-11 17:00","2020","10","11","17:00","5.8","","2.9","","82","","","M","9","","5","","48.3","","95.74","","","","","","Rain Showers"
"-122.60","58.84","FORT NELSON A","1192946","2020-10-11 18:00","2020","10","11","18:00","3.3","","2.9","","97","","","M","24","","10","","24.1","","95.77","","","","","","NA"
"-122.60","58.84","FORT NELSON A","1192946","2020-10-11 19:00","2020","10","11","19:00","1.7","","1.3","","97","","","M","28","","8","","24.1","","95.78","","","","","","Mostly Cloudy"
"-122.60","58.84","FORT NELSON A","1192946","2020-10-11 20:00","2020","10","11","20:00","1.9","","1.4","","97","","","M","30","","8","","24.1","","95.79","","","","","","NA"
"-122.60","58.84","FORT NELSON A","1192946","2020-10-11 21:00","2020","10","11","21:00","1.3","","0.7","","96","","","M","21","","5","","24.1","","95.78","","","","","","NA"
"-122.60","58.84","FORT NELSON A","1192946","2020-10-11 22:00","2020","10","11","22:00","2.4","","1.2","","92","","","M","25","","4","","24.1","","95.80","","","","","","Mostly Cloudy"
"-122.60","58.84","FORT NELSON A","1192946","2020-10-11 23:00","2020","10","11","23:00","1.9","","1.3","","96","","","M","36","","3","","24.1","","95.80","","","","","","NA"
"-122.60","58.84","FORT NELSON A","1192946","2020-10-12 00:00","2020","10","12","00:00","1.1","","0.7","","97","","","M","20","","4","","24.1","","95.84","","","","","","NA"
"-122.60","58.84","FORT NELSON A","1192946","2020-10-12 01:00","2020","10","12","01:00","1.5","","1.0","","97","","","M","16","","3","","24.1","","95.86","","","","","","Mostly Cloudy"
"-122.60","58.84","FORT NELSON A","1192946","2020-10-12 02:00","2020","10","12","02:00","1.6","","1.1","","96","","","M","19","","8","","24.1","","95.87","","","","","","NA"
"-122.60","58.84","FORT NELSON A","1192946","2020-10-12 03:00","2020","10","12","03:00","1.8","","1.0","","94","","","M","17","","4","","24.1","","95.90","","","","","","NA"
"-122.60","58.84","FORT NELSON A","1192946","2020-10-12 04:00","2020","10","12","04:00","1.7","","0.8","","94","","","M","15","","6","","24.1","","95.95","","","","","","Mostly Cloudy"
"-122.60","58.84","FORT NELSON A","1192946","2020-10-12 05:00","2020","10","12","05:00","2.1","","1.1","","93","","","M","22","","7","","24.1","","96.03","","","","","","NA"
"-122.60","58.84","FORT NELSON A","1192946","2020-10-12 06:00","2020","10","12","06:00","5.1","","2.0","","80","","","M","29","","21","","24.1","","96.07","","","","","","NA"
"-122.60","58.84","FORT NELSON A","1192946","2020-10-12 07:00","2020","10","12","07:00","4.2","","2.6","","89","","","M","31","","13","","48.3","","96.16","","","","","","Rain"
"-122.60","58.84","FORT NELSON A","1192946","2020-10-12 08:00","2020","10","12","08:00","3.8","","2.7","","93","","","M","33","","8","","48.3","","96.25","","","","","","Rain"
"-122.60","58.84","FORT NELSON A","1192946","2020-10-12 09:00","2020","10","12","09:00","3.2","","2.2","","93","","","M","33","","14","","32.2","","96.34","","","","","","Rain"
"-122.60","58.84","FORT NELSON A","1192946","2020-10-12 10:00","2020","10","12","10:00","3.3","","2.1","","92","","","M","35","","9","","32.2","","96.42","","","","","","Rain"
"-122.60","58.84","FORT NELSON A","1192946","2020-10-12 11:00","2020","10","12","11:00","3.4","","2.0","","90","","","M","33","","13","","24.1","","96.49","","","","","","Rain"
"-122.60","58.84","FORT NELSON A","1192946","2020-10-12 12:00","2020","10","12","12:00","3.7","","1.8","","87","","","M","34","","9","","24.1","","96.55","","","","","","Rain"
"-122.60","58.84","FORT NELSON A","1192946","2020-10-12 13:00","2020","10","12","13:00","4.2","","1.6","","83","","","M","1","","13","","32.2","","96.60","","","","","","Rain"
"-122.60","58.84","FORT NELSON A","1192946","2020-10-12 14:00","2020","10","12","14:00","4.7","","1.7","","81","","","M","29","","8","","32.2","","96.66","","","","","","NA"
"-122.60","58.84","FORT NELSON A","1192946","2020-10-12 15:00","2020","10","12","15:00","4.6","","1.0","","78","","","M","33","","9","","48.3","","96.71","","","","","","NA"
"-122.60","58.84","FORT NELSON A","1192946","2020-10-12 16:00","2020","10","12","16:00","4.1","","0.7","","78","","","M","33","","8","","48.3","","96.74","","","","","","Cloudy"
"-122.60","58.84","FORT NELSON A","1192946","2020-10-12 17:00","2020","10","12","17:00","3.5","","0.4","","80","","","M","35","","7","","48.3","","96.77","","","","","","NA"
"-122.60","58.84","FORT NELSON A","1192946","2020-10-12 18:00","2020","10","12","18:00","2.8","","0.4","","84","","","M","33","","6","","24.1","","96.79","","","","","","NA"
"-122.60","58.84","FORT NELSON A","1192946","2020-10-12 19:00","2020","10","12","19:00","2.2","","0.2","","86","","","M","33","","5","","24.1","","96.80","","","","","","Cloudy"
"-122.60","58.84","FORT NELSON A","1192946","2020-10-12 20:00","2020","10","12","20:00","2.0","","-0.3","","85","","","M","34","","11","","24.1","","96.80","","","","","","NA"
"-122.60","58.84","FORT NELSON A","1192946","2020-10-12 21:00","2020","10","12","21:00","1.8","","-0.5","","85","","","M","34","","10","","24.1","","96.82","","","","","","NA"
"-122.60","58.84","FORT NELSON A","1192946","2020-10-12 22:00","2020","10","12","22:00","1.3","","-0.7","","87","","","M","35","","7","","24.1","","96.82","","","","","","Cloudy"
"-122.60","58.84","FORT NELSON A","1192946","2020-10-12 23:00","2020","10","12","23:00","0.8","","-0.9","","88","","","M","34","","9","","19.3","","96.83","","","","","","Snow"
"-122.60","58.84","FORT NELSON A","1192946","2020-10-13 00:00","2020","10","13","00:00","0.4","","-0.9","","91","","","M","34","","10","","12.9","","96.84","","","","","","Snow"
"-122.60","58.84","FORT NELSON A","1192946","2020-10-13 01:00","2020","10","13","01:00","-0.1","","-0.9","","94","","","M","35","","8","","9.7","","96.82","","","","-3","","Snow"
"-122.60","58.84","FORT NELSON A","1192946","2020-10-13 02:00","2020","10","13","02:00","-0.2","","-1.0","","95","","","M","35","","9","","9.7","","96.80","","","","-3","","Snow"
"-122.60","58.84","FORT NELSON A","1192946","2020-10-13 03:00","2020","10","13","03:00","-0.4","","-1.1","","95","","","M","35","","9","","8.1","","96.78","","","","-4","","Snow,Fog"
"-122.60","58.84","FORT NELSON A","1192946","2020-10-13 04:00","2020","10","13","04:00","-0.7","","-1.4","","95","","","M","1","","8","","3.2","","96.76","","","","-4","","Freezing Drizzle,Fog"
"-122.60","58.84","FORT NELSON A","1192946","2020-10-13 05:00","2020","10","13","05:00","-1.0","","-1.6","","96","","","M","36","","10","","3.2","","96.73","","","","-5","","Snow"
"-122.60","58.84","FORT NELSON A","1192946","2020-10-13 06:00","2020","10","13","06:00","-1.2","","-1.7","","96","","","M","1","","10","","3.2","","96.70","","","","-5","","Snow"
"-122.60","58.84","FORT NELSON A","1192946","2020-10-13 07:00","2020","10","13","07:00","-1.3","","-1.9","","95","","","M","1","","11","","4.8","","96.67","","","","-5","","Snow"
"-122.60","58.84","FORT NELSON A","1192946","2020-10-13 08:00","2020","10","13","08:00","-1.7","","-2.6","","93","","","M","4","","9","","4.8","","96.66","","","","-5","","Snow"
"-122.60","58.84","FORT NELSON A","1192946","2020-10-13 09:00","2020","10","13","09:00","-1.8","","-3.0","","91","","","M","3","","9","","6.4","","96.65","","","","-5","","Snow"
"-122.60","58.84","FORT NELSON A","1192946","2020-10-13 10:00","2020","10","13","10:00","-1.3","","-3.3","","86","","","M","2","","12","","4.8","","96.62","","","","-5","","Snow"
"-122.60","58.84","FORT NELSON A","1192946","2020-10-13 11:00","2020","10","13","11:00","-1.7","","-2.9","","92","","","M","2","","9","","1.6","","96.61","","","","-5","","Snow"
"-122.60","58.84","FORT NELSON A","1192946","2020-10-13 12:00","2020","10","13","12:00","-0.7","","-3.7","","80","","","M","5","","7","","8.1","","96.61","","","","-3","","Snow"
"-122.60","58.84","FORT NELSON A","1192946","2020-10-13 13:00","2020","10","13","13:00","-0.6","","-3.1","","83","","","M","2","","14","","16.1","","96.59","","","","-5","","Snow"
"-122.60","58.84","FORT NELSON A","1192946","2020-10-13 14:00","2020","10","13","14:00","-0.7","","-3.1","","84","","","M","35","","11","","16.1","","96.60","","","","-4","","Snow"
"-122.60","58.84","FORT NELSON A","1192946","2020-10-13 15:00","2020","10","13","15:00","-0.7","","-4.6","","75","","","M","35","","10","","","M","96.63","","","","-4","","Snow"
"-122.60","58.84","FORT NELSON A","1192946","2020-10-13 16:00","2020","10","13","16:00","-0.8","","-3.7","","81","","","M","33","","10","","32.2","","96.69","","","","-4","","Cloudy"
"-122.60","58.84","FORT NELSON A","1192946","2020-10-13 17:00","2020","10","13","17:00","-1.0","","-4.5","","77","","","M","34","","10","","24.1","","96.73","","","","-5","","Snow"
"-122.60","58.84","FORT NELSON A","1192946","2020-10-13 18:00","2020","10","13","18:00","-1.4","","-4.0","","82","","","M","32","","5","","19.3","","96.76","","","","-3","","Snow"
"-122.60","58.84","FORT NELSON A","1192946","2020-10-13 19:00","2020","10","13","19:00","-1.7","","-3.9","","85","","","M","32","","8","","19.3","","96.81","","","","-5","","Snow"
"-122.60","58.84","FORT NELSON A","1192946","2020-10-13 20:00","2020","10","13","20:00","-2.2","","-4.1","","86","","","M","33","","10","","19.3","","96.86","","","","-6","","Snow"
"-122.60","58.84","FORT NELSON A","1192946","2020-10-13 21:00","2020","10","13","21:00","-2.5","","-4.0","","90","","","M","34","","8","","19.3","","96.89","","","","-6","","Snow"
"-122.60","58.84","FORT NELSON A","1192946","2020-10-13 22:00","2020","10","13","22:00","-2.5","","-4.1","","89","","","M","33","","8","","19.3","","96.95","","","","-6","","Snow"
"-122.60","58.84","FORT NELSON A","1192946","2020-10-13 23:00","2020","10","13","23:00","-2.9","","-3.9","","93","","","M","33","","9","","2.4","","96.99","","","","-6","","Snow"
"-122.60","58.84","FORT NELSON A","1192946","2020-10-14 00:00","2020","10","14","00:00","-3.0","","-4.3","","90","","","M","33","","8","","24.1","","97.04","","","","-6","","Snow"
"-122.60","58.84","FORT NELSON A","1192946","2020-10-14 01:00","2020","10","14","01:00","-3.0","","-4.5","","90","","","M","34","","9","","8.1","","97.08","","","","-7","","Snow"
"-122.60","58.84","FORT NELSON A","1192946","2020-10-14 02:00","2020","10","14","02:00","-3.5","","-4.5","","93","","","M","2","","7","","","M","97.14","","","","-6","","Snow"
"-122.60","58.84","FORT NELSON A","1192946","2020-10-14 03:00","2020","10","14","03:00","-3.9","","-5.0","","92","","","M","35","","4","","19.3","","97.19","","","","-6","","Snow"
"-122.60","58.84","FORT NELSON A","1192946","2020-10-14 04:00","2020","10","14","04:00","-3.7","","-4.8","","92","","","M","34","","9","","19.3","","97.24","","","","-7","","Cloudy"
"-122.60","58.84","FORT NELSON A","1192946","2020-10-14 05:00","2020","10","14","05:00","-3.8","","-4.7","","93","","","M","33","","5","","12.9","","97.26","","","","-6","","Snow"
"-122.60","58.84","FORT NELSON A","1192946","2020-10-14 06:00","2020","10","14","06:00","-4.0","","-5.3","","91","","","M","35","","8","","24.1","","97.31","","","","-7","","Snow"
"-122.60","58.84","FORT NELSON A","1192946","2020-10-14 07:00","2020","10","14","07:00","-4.5","","-5.7","","91","","","M","34","","10","","24.1","","97.36","","","","-9","","Snow"
"-122.60","58.84","FORT NELSON A","1192946","2020-10-14 08:00","2020","10","14","08:00","-4.6","","-6.5","","87","","","M","34","","8","","6.4","","97.43","","","","-8","","Snow"
"-122.60","58.84","FORT NELSON A","1192946","2020-10-14 09:00","2020","10","14","09:00","-4.9","","-6.6","","88","","","M","36","","10","","0.8","","97.48","","","","-9","","Moderate Snow"
"-122.60","58.84","FORT NELSON A","1192946","2020-10-14 10:00","2020","10","14","10:00","-4.2","","-7.1","","80","","","M","35","","9","","4.8","","97.54","","","","-8","","Snow"
"-122.60","58.84","FORT NELSON A","1192946","2020-10-14 11:00","2020","10","14","11:00","-3.5","","-6.2","","82","","","M","33","","5","","24.1","","97.59","","","","-6","","Snow"
"-122.60","58.84","FORT NELSON A","1192946","2020-10-14 12:00","2020","10","14","12:00","-2.8","","-6.0","","79","","","M","33","","3","","24.1","","97.63","","","","-4","","Snow"
"-122.60","58.84","FORT NELSON A","1192946","2020-10-14 13:00","2020","10","14","13:00","-2.6","","-5.9","","78","","","M","33","","10","","24.1","","97.67","","","","-6","","Snow"
"-122.60","58.84","FORT NELSON A","1192946","2020-10-14 14:00","2020","10","14","14:00","-2.7","","-6.9","","73","","","M","34","","8","","24.1","","97.70","","","","-6","","Snow"
"-122.60","58.84","FORT NELSON A","1192946","2020-10-14 15:00","2020","10","14","15:00","-2.5","","-6.1","","76","","","M","36","","2","","32.2","","97.71","","","","-3","","Snow"
"-122.60","58.84","FORT NELSON A","1192946","2020-10-14 16:00","2020","10","14","16:00","-2.4","","-6.0","","76","","","M","35","","4","","32.2","","97.74","","","","-4","","Cloudy"
"-122.60","58.84","FORT NELSON A","1192946","2020-10-14 17:00","2020","10","14","17:00","-2.3","","-5.5","","79","","","M","19","","4","","32.2","","97.76","","","","-4","","NA"
"-122.60","58.84","FORT NELSON A","1192946","2020-10-14 18:00","2020","10","14","18:00","-2.4","","-5.6","","79","","","M","4","","3","","24.1","","97.79","","","","-4","","NA"
"-122.60","58.84","FORT NELSON A","1192946","2020-10-14 19:00","2020","10","14","19:00","-2.5","","-5.0","","83","","","M","12","","4","","24.1","","97.83","","","","-4","","Snow"
"-122.60","58.84","FORT NELSON A","1192946","2020-10-14 20:00","2020","10","14","20:00","-2.3","","-5.3","","80","","","M","0","","1","","24.1","","97.84","","","","-3","","Snow"
"-122.60","58.84","FORT NELSON A","1192946","2020-10-14 21:00","2020","10","14","21:00","-2.6","","-4.4","","87","","","M","36","","2","","24.1","","97.86","","","","-3","","Snow"
"-122.60","58.84","FORT NELSON A","1192946","2020-10-14 22:00","2020","10","14","22:00","-2.8","","-3.9","","92","","","M","1","","5","","24.1","","97.91","","","","-5","","Snow"
"-122.60","58.84","FORT NELSON A","1192946","2020-10-14 23:00","2020","10","14","23:00","-3.3","","-4.3","","93","","","M","3","","7","","24.1","","97.94","","","","-6","","Snow"
"-122.60","58.84","FORT NELSON A","1192946","2020-10-15 00:00","2020","10","15","00:00","-2.9","","-4.0","","92","","","M","36","","2","","24.1","","98.01","","","","-4","","NA"
"-122.60","58.84","FORT NELSON A","1192946","2020-10-15 01:00","2020","10","15","01:00","-3.0","","-4.1","","92","","","M","33","","5","","24.1","","98.09","","","","-5","","Cloudy"
"-122.60","58.84","FORT NELSON A","1192946","2020-10-15 02:00","2020","10","15","02:00","-2.9","","-4.2","","91","","","M","33","","5","","12.9","","98.15","","","","-5","","NA"
"-122.60","58.84","FORT NELSON A","1192946","2020-10-15 03:00","2020","10","15","03:00","-3.0","","-4.4","","90","","","M","34","","5","","24.1","","98.19","","","","-5","","NA"
"-122.60","58.84","FORT NELSON A","1192946","2020-10-15 04:00","2020","10","15","04:00","-3.2","","-4.0","","94","","","M","35","","5","","12.9","","98.23","","","","-5","","Cloudy"
"-122.60","58.84","FORT NELSON A","1192946","2020-10-15 05:00","2020","10","15","05:00","-3.2","","-4.0","","94","","","M","34","","4","","8.1","","98.26","","","","-5","","Fog"
"-122.60","58.84","FORT NELSON A","1192946","2020-10-15 06:00","2020","10","15","06:00","-3.4","","-4.7","","91","","","M","3","","8","","8.1","","98.28","","","","-7","","Fog"
"-122.60","58.84","FORT NELSON A","1192946","2020-10-15 07:00","2020","10","15","07:00","-3.9","","-5.3","","90","","","M","3","","7","","6.4","","98.30","","","","-7","","Snow"
"-122.60","58.84","FORT NELSON A","1192946","2020-10-15 08:00","2020","10","15","08:00","-4.0","","-5.6","","89","","","M","2","","7","","6.4","","98.31","","","","-7","","Snow"
"-122.60","58.84","FORT NELSON A","1192946","2020-10-15 09:00","2020","10","15","09:00","-4.0","","-5.7","","88","","","M","4","","7","","6.4","","98.34","","","","-7","","Snow"
"-122.60","58.84","FORT NELSON A","1192946","2020-10-15 10:00","2020","10","15","10:00","-3.8","","-5.4","","89","","","M","2","","7","","3.2","","98.32","","","","-7","","Snow"
"-122.60","58.84","FORT NELSON A","1192946","2020-10-15 11:00","2020","10","15","11:00","-3.3","","-5.5","","85","","","M","6","","6","","6.4","","98.26","","","","-6","","Snow"
"-122.60","58.84","FORT NELSON A","1192946","2020-10-15 12:00","2020","10","15","12:00","-2.7","","-5.0","","84","","","M","36","","1","","16.1","","98.27","","","","-3","","Snow"
"-122.60","58.84","FORT NELSON A","1192946","2020-10-15 13:00","2020","10","15","13:00","-2.3","","-4.5","","85","","","M","36","","2","","16.1","","98.24","","","","-3","","Mostly Cloudy"
"-122.60","58.84","FORT NELSON A","1192946","2020-10-15 14:00","2020","10","15","14:00","-1.7","","-4.2","","83","","","M","22","","4","","24.1","","98.18","","","","-3","","NA"
"-122.60","58.84","FORT NELSON A","1192946","2020-10-15 15:00","2020","10","15","15:00","-1.2","","-4.0","","81","","","M","36","","3","","32.2","","98.10","","","","-2","","NA"
"-122.60","58.84","FORT NELSON A","1192946","2020-10-15 16:00","2020","10","15","16:00","-1.3","","-3.8","","83","","","M","0","","1","","32.2","","98.06","","","","-2","","Mostly Cloudy"
"-122.60","58.84","FORT NELSON A","1192946","2020-10-15 17:00","2020","10","15","17:00","-2.2","","-4.1","","86","","","M","5","","5","","32.2","","97.98","","","","-4","","NA"
"-122.60","58.84","FORT NELSON A","1192946","2020-10-15 18:00","2020","10","15","18:00","-3.7","","-4.8","","92","","","M","35","","4","","24.1","","97.89","","","","-5","","NA"
"-122.60","58.84","FORT NELSON A","1192946","2020-10-15 19:00","2020","10","15","19:00","-4.6","","-5.5","","93","","","M","36","","1","","24.1","","97.82","","","","-5","","Mainly Clear"
"-122.60","58.84","FORT NELSON A","1192946","2020-10-15 20:00","2020","10","15","20:00","-6.0","","-6.8","","94","","","M","36","","3","","24.1","","97.72","","","","-7","","NA"
"-122.60","58.84","FORT NELSON A","1192946","2020-10-15 21:00","2020","10","15","21:00","-6.7","","-7.5","","94","","","M","26","","3","","24.1","","97.64","","","","-8","","NA"
"-122.60","58.84","FORT NELSON A","1192946","2020-10-15 22:00","2020","10","15","22:00","-7.4","","-8.3","","93","","","M","29","","3","","8.1","","97.59","","","","-9","","Fog"
"-122.60","58.84","FORT NELSON A","1192946","2020-10-15 23:00","2020","10","15","23:00","-8.1","","-9.3","","91","","","M","36","","7","","8.1","","97.53","","","","-12","","Fog"
"-122.60","58.84","FORT NELSON A","1192946","2020-10-16 00:00","2020","10","16","00:00","-8.2","","-9.4","","91","","","M","34","","7","","24.1","","97.49","","","","-12","","NA"
"-122.60","58.84","FORT NELSON A","1192946","2020-10-16 01:00","2020","10","16","01:00","-8.2","","-9.4","","92","","","M","34","","6","","24.1","","97.43","","","","-11","","Mostly Cloudy"
"-122.60","58.84","FORT NELSON A","1192946","2020-10-16 02:00","2020","10","16","02:00","-6.8","","-7.7","","94","","","M","34","","9","","","M","97.45","","","","-11","","Fog"
"-122.60","58.84","FORT NELSON A","1192946","2020-10-16 03:00","2020","10","16","03:00","-5.9","","-6.8","","94","","","M","34","","7","","6.4","","97.42","","","","-9","","Fog"
"-122.60","58.84","FORT NELSON A","1192946","2020-10-16 04:00","2020","10","16","04:00","-5.4","","-6.3","","93","","","M","35","","7","","8.1","","97.41","","","","-9","","Fog"
"-122.60","58.84","FORT NELSON A","1192946","2020-10-16 05:00","2020","10","16","05:00","-4.8","","-5.7","","93","","","M","34","","8","","6.4","","97.46","","","","-8","","Fog"
"-122.60","58.84","FORT NELSON A","1192946","2020-10-16 06:00","2020","10","16","06:00","-5.0","","-5.8","","95","","","M","35","","9","","12.9","","97.53","","","","-9","","NA"
"-122.60","58.84","FORT NELSON A","1192946","2020-10-16 07:00","2020","10","16","07:00","-5.4","","-6.1","","95","","","M","36","","10","","3.2","","97.61","","","","-10","","Fog"
"-122.60","58.84","FORT NELSON A","1192946","2020-10-16 08:00","2020","10","16","08:00","-5.6","","-7.3","","88","","","M","1","","9","","6.4","","97.69","","","","-10","","Fog"
"-122.60","58.84","FORT NELSON A","1192946","2020-10-16 09:00","2020","10","16","09:00","-5.7","","-7.5","","87","","","M","36","","10","","6.4","","97.76","","","","-10","","Fog"
"-122.60","58.84","FORT NELSON A","1192946","2020-10-16 10:00","2020","10","16","10:00","-5.4","","-7.9","","83","","","M","2","","12","","6.4","","97.81","","","","-10","","Fog"
"-122.60","58.84","FORT NELSON A","1192946","2020-10-16 11:00","2020","10","16","11:00","-5.1","","-7.4","","84","","","M","35","","11","","6.4","","97.86","","","","-10","","Fog"
"-122.60","58.84","FORT NELSON A","1192946","2020-10-16 12:00","2020","10","16","12:00","-4.5","","-8.2","","75","","","M","36","","8","","16.1","","97.90","","","","-8","","NA"
"-122.60","58.84","FORT NELSON A","1192946","2020-10-16 13:00","2020","10","16","13:00","-4.6","","-8.9","","72","","","M","33","","13","","24.1","","97.96","","","","-10","","Mostly Cloudy"
"-122.60","58.84","FORT NELSON A","1192946","2020-10-16 14:00","2020","10","16","14:00","-4.5","","-8.2","","75","","","M","31","","15","","24.1","","98.00","","","","-10","","NA"
"-122.60","58.84","FORT NELSON A","1192946","2020-10-16 15:00","2020","10","16","15:00","-4.6","","-8.7","","73","","","M","32","","16","","32.2","","98.01","","","","-10","","NA"
"-122.60","58.84","FORT NELSON A","1192946","2020-10-16 16:00","2020","10","16","16:00","-4.5","","-9.2","","70","","","M","33","","10","","32.2","","98.04","","","","-9","","Mostly Cloudy"
"-122.60","58.84","FORT NELSON A","1192946","2020-10-16 17:00","2020","10","16","17:00","-6.2","","-9.9","","75","","","M","32","","10","","32.2","","98.08","","","","-11","","NA"
"-122.60","58.84","FORT NELSON A","1192946","2020-10-16 18:00","2020","10","16","18:00","-7.1","","-10.9","","75","","","M","32","","10","","24.1","","98.15","","","","-12","","NA"
"-122.60","58.84","FORT NELSON A","1192946","2020-10-16 19:00","2020","10","16","19:00","-8.0","","-11.4","","76","","","M","32","","13","","24.1","","98.23","","","","-14","","Mostly Cloudy"
"-122.60","58.84","FORT NELSON A","1192946","2020-10-16 20:00","2020","10","16","20:00","-8.8","","-11.8","","79","","","M","31","","8","","24.1","","98.31","","","","-13","","NA"
"-122.60","58.84","FORT NELSON A","1192946","2020-10-16 21:00","2020","10","16","21:00","-9.3","","-12.2","","80","","","M","32","","10","","24.1","","98.38","","","","-14","","NA"
"-122.60","58.84","FORT NELSON A","1192946","2020-10-16 22:00","2020","10","16","22:00","-9.8","","-12.6","","80","","","M","30","","8","","24.1","","98.44","","","","-14","","Mainly Clear"
"-122.60","58.84","FORT NELSON A","1192946","2020-10-16 23:00","2020","10","16","23:00","-10.1","","-12.9","","80","","","M","29","","11","","24.1","","98.49","","","","-16","","NA"
"-122.60","58.84","FORT NELSON A","1192946","2020-10-17 00:00","2020","10","17","00:00","-10.2","","-13.3","","78","","","M","28","","10","","24.1","","98.55","","","","-15","","NA"
"-122.60","58.84","FORT NELSON A","1192946","2020-10-17 01:00","2020","10","17","01:00","-10.3","","-13.3","","79","","","M","29","","11","","24.1","","98.60","","","","-16","","Clear"
"-122.60","58.84","FORT NELSON A","1192946","2020-10-17 02:00","2020","10","17","02:00","-10.5","","-13.4","","79","","","M","28","","9","","24.1","","98.66","","","","-15","","NA"
"-122.60","58.84","FORT NELSON A","1192946","2020-10-17 03:00","2020","10","17","03:00","-10.4","","-13.4","","79","","","M","28","","12","","24.1","","98.67","","","","-16","","NA"
"-122.60","58.84","FORT NELSON A","1192946","2020-10-17 04:00","2020","10","17","04:00","-10.7","","-13.5","","80","","","M","26","","11","","24.1","","98.68","","","","-16","","Mainly Clear"
"-122.60","58.84","FORT NELSON A","1192946","2020-10-17 05:00","2020","10","17","05:00","-11.3","","-13.9","","82","","","M","27","","9","","24.1","","98.70","","","","-16","","NA"
"-122.60","58.84","FORT NELSON A","1192946","2020-10-17 06:00","2020","10","17","06:00","-11.5","","-14.0","","82","","","M","24","","4","","24.1","","98.71","","","","-14","","NA"
"-122.60","58.84","FORT NELSON A","1192946","2020-10-17 07:00","2020","10","17","07:00","-12.5","","-14.4","","86","","","M","36","","2","","48.3","","98.71","","","","-14","","Clear"
"-122.60","58.84","FORT NELSON A","1192946","2020-10-17 08:00","2020","10","17","08:00","-10.6","","-13.0","","83","","","M","16","","4","","48.3","","98.71","","","","-13","","NA"
"-122.60","58.84","FORT NELSON A","1192946","2020-10-17 09:00","2020","10","17","09:00","-7.8","","-12.3","","70","","","M","17","","5","","48.3","","98.71","","","","-10","","NA"
"-122.60","58.84","FORT NELSON A","1192946","2020-10-17 10:00","2020","10","17","10:00","-5.8","","-12.7","","58","","","M","24","","11","","48.3","","98.71","","","","-11","","Clear"
"-122.60","58.84","FORT NELSON A","1192946","2020-10-17 11:00","2020","10","17","11:00","-4.6","","-12.1","","56","","","M","23","","7","","48.3","","98.70","","","","-8","","NA"
"-122.60","58.84","FORT NELSON A","1192946","2020-10-17 12:00","2020","10","17","12:00","-3.9","","-13.0","","49","","","M","30","","7","","48.3","","98.66","","","","-7","","NA"
"-122.60","58.84","FORT NELSON A","1192946","2020-10-17 13:00","2020","10","17","13:00","-3.2","","-12.9","","47","","","M","28","","8","","48.3","","98.59","","","","-6","","Mainly Clear"
"-122.60","58.84","FORT NELSON A","1192946","2020-10-17 14:00","2020","10","17","14:00","-2.5","","-12.5","","46","","","M","35","","9","","48.3","","98.53","","","","-6","","NA"
"-122.60","58.84","FORT NELSON A","1192946","2020-10-17 15:00","2020","10","17","15:00","-2.2","","-12.2","","47","","","M","24","","7","","48.3","","98.47","","","","-5","","NA"
"-122.60","58.84","FORT NELSON A","1192946","2020-10-17 16:00","2020","10","17","16:00","-2.8","","-12.3","","48","","","M","20","","8","","48.3","","98.45","","","","-6","","Mainly Clear"
"-122.60","58.84","FORT NELSON A","1192946","2020-10-17 17:00","2020","10","17","17:00","-3.8","","-12.5","","51","","","M","20","","6","","48.3","","98.41","","","","-6","","NA"
"-122.60","58.84","FORT NELSON A","1192946","2020-10-17 18:00","2020","10","17","18:00","-6.0","","-12.3","","61","","","M","21","","4","","24.1","","98.39","","","","-8","","NA"
"-122.60","58.84","FORT NELSON A","1192946","2020-10-17 19:00","2020","10","17","19:00","-8.0","","-11.4","","76","","","M","36","","1","","24.1","","98.34","","","","-9","","Clear"
"-122.60","58.84","FORT NELSON A","1192946","2020-10-17 20:00","2020","10","17","20:00","-10.1","","-12.7","","81","","","M","27","","3","","24.1","","98.27","","","","-12","","NA"
"-122.60","58.84","FORT NELSON A","1192946","2020-10-17 21:00","2020","10","17","21:00","-11.0","","-13.5","","82","","","M","25","","4","","24.1","","98.24","","","","-13","","NA"
"-122.60","58.84","FORT NELSON A","1192946","2020-10-17 22:00","2020","10","17","22:00","-12.0","","-14.2","","84","","","M","20","","4","","24.1","","98.22","","","","-15","","Clear"
"-122.60","58.84","FORT NELSON A","1192946","2020-10-17 23:00","2020","10","17","23:00","-12.3","","-14.7","","82","","","M","18","","5","","24.1","","98.20","","","","-16","","NA"
"-122.60","58.84","FORT NELSON A","1192946","2020-10-18 00:00","2020","10","18","00:00","-10.8","","-12.1","","90","","","M","19","","7","","24.1","","98.17","","","","-15","","NA"
"-122.60","58.84","FORT NELSON A","1192946","2020-10-18 01:00","2020","10","18","01:00","-11.6","","-13.3","","87","","","M","19","","6","","24.1","","98.12","","","","-15","","Clear"
"-122.60","58.84","FORT NELSON A","1192946","2020-10-18 02:00","2020","10","18","02:00","-11.5","","-12.8","","90","","","M","17","","9","","24.1","","98.10","","","","-17","","NA"
"-122.60","58.84","FORT NELSON A","1192946","2020-10-18 03:00","2020","10","18","03:00","-11.9","","-13.3","","90","","","M","18","","7","","24.1","","98.04","","","","-16","","NA"
"-122.60","58.84","FORT NELSON A","1192946","2020-10-18 04:00","2020","10","18","04:00","-12.1","","-13.5","","89","","","M","18","","9","","24.1","","98.01","","","","-17","","Clear"
"-122.60","58.84","FORT NELSON A","1192946","2020-10-18 05:00","2020","10","18","05:00","-12.6","","-14.1","","89","","","M","18","","6","","24.1","","97.98","","","","-17","","NA"
"-122.60","58.84","FORT NELSON A","1192946","2020-10-18 06:00","2020","10","18","06:00","-13.4","","-15.0","","88","","","M","14","","3","","24.1","","97.95","","","","-15","","NA"
"-122.60","58.84","FORT NELSON A","1192946","2020-10-18 07:00","2020","10","18","07:00","-14.6","","-16.2","","88","","","M","16","","4","","48.3","","97.91","","","","-17","","Clear"
"-122.60","58.84","FORT NELSON A","1192946","2020-10-18 08:00","2020","10","18","08:00","-12.7","","-14.4","","87","","","M","19","","4","","","M","97.85","","","","-15","","NA"
"-122.60","58.84","FORT NELSON A","1192946","2020-10-18 09:00","2020","10","18","09:00","-11.4","","-14.0","","82","","","M","19","","10","","48.3","","97.80","","","","-17","","NA"
"-122.60","58.84","FORT NELSON A","1192946","2020-10-18 10:00","2020","10","18","10:00","-9.7","","-12.7","","79","","","M","13","","5","","48.3","","97.75","","","","-13","","Clear"
"-122.60","58.84","FORT NELSON A","1192946","2020-10-18 11:00","2020","10","18","11:00","-7.8","","-12.2","","71","","","M","36","","1","","48.3","","97.67","","","","-8","","NA"
"-122.60","58.84","FORT NELSON A","1192946","2020-10-18 12:00","2020","10","18","12:00","-5.7","","-12.2","","60","","","M","17","","4","","48.3","","97.59","","","","-8","","NA"
"-122.60","58.84","FORT NELSON A","1192946","2020-10-18 13:00","2020","10","18","13:00","-3.3","","-11.0","","55","","","M","36","","3","","48.3","","97.51","","","","-5","","Clear"
"-122.60","58.84","FORT NELSON A","1192946","2020-10-18 14:00","2020","10","18","14:00","-2.4","","-11.2","","51","","","M","5","","6","","48.3","","97.39","","","","-5","","NA"
"-122.60","58.84","FORT NELSON A","1192946","2020-10-18 15:00","2020","10","18","15:00","-1.4","","-11.3","","47","","","M","36","","3","","48.3","","97.30","","","","-2","","NA"
"-122.60","58.84","FORT NELSON A","1192946","2020-10-18 16:00","2020","10","18","16:00","-1.5","","-11.7","","46","","","M","11","","8","","48.3","","97.25","","","","-5","","Mainly Clear"
"-122.60","58.84","FORT NELSON A","1192946","2020-10-18 17:00","2020","10","18","17:00","-2.9","","-11.3","","52","","","M","9","","9","","48.3","","97.19","","","","-6","","NA"
"-122.60","58.84","FORT NELSON A","1192946","2020-10-18 18:00","2020","10","18","18:00","-3.2","","-11.7","","52","","","M","7","","9","","24.1","","97.12","","","","-7","","NA"
"-122.60","58.84","FORT NELSON A","1192946","2020-10-18 19:00","2020","10","18","19:00","-4.5","","-11.6","","58","","","M","9","","8","","24.1","","97.06","","","","-8","","Mainly Clear"
"-122.60","58.84","FORT NELSON A","1192946","2020-10-18 20:00","2020","10","18","20:00","-7.0","","-11.9","","68","","","M","12","","3","","","M","96.98","","","","-9","","NA"
"-122.60","58.84","FORT NELSON A","1192946","2020-10-18 21:00","2020","10","18","21:00","-9.1","","-12.8","","75","","","M","32","","4","","24.1","","96.93","","","","-11","","NA"
"-122.60","58.84","FORT NELSON A","1192946","2020-10-18 22:00","2020","10","18","22:00","-11.5","","-14.0","","82","","","M","26","","3","","24.1","","96.89","","","","-13","","Clear"
"-122.60","58.84","FORT NELSON A","1192946","2020-10-18 23:00","2020","10","18","23:00","-12.6","","-14.8","","84","","","M","30","","5","","24.1","","96.87","","","","-16","","NA"
"-122.60","58.84","FORT NELSON A","1192946","2020-10-19 00:00","2020","10","19","00:00","-13.8","","-15.8","","85","","","M","30","","3","","24.1","","96.86","","","","-16","","NA"
"-122.60","58.84","FORT NELSON A","1192946","2020-10-19 01:00","2020","10","19","01:00","-14.1","","-16.1","","85","","","M","36","","1","","24.1","","96.83","","","","-15","","Clear"
"-122.60","58.84","FORT NELSON A","1192946","2020-10-19 02:00","2020","10","19","02:00","-15.1","","-17.0","","85","","","M","28","","4","","24.1","","96.78","","","","-18","","NA"
"-122.60","58.84","FORT NELSON A","1192946","2020-10-19 03:00","2020","10","19","03:00","-15.5","","-17.6","","84","","","M","27","","5","","24.1","","96.76","","","","-19","","NA"
"-122.60","58.84","FORT NELSON A","1192946","2020-10-19 04:00","2020","10","19","04:00","-15.9","","-18.1","","84","","","M","28","","4","","19.3","","96.78","","","","-19","","Clear"
"-122.60","58.84","FORT NELSON A","1192946","2020-10-19 05:00","2020","10","19","05:00","-16.2","","-18.3","","84","","","M","24","","7","","24.1","","96.77","","","","-21","","NA"
"-122.60","58.84","FORT NELSON A","1192946","2020-10-19 06:00","2020","10","19","06:00","-16.7","","-19.2","","81","","","M","23","","4","","24.1","","96.77","","","","-20","","NA"
"-122.60","58.84","FORT NELSON A","1192946","2020-10-19 07:00","2020","10","19","07:00","-16.5","","-18.9","","82","","","M","16","","3","","48.3","","96.78","","","","-19","","Mainly Clear"
"-122.60","58.84","FORT NELSON A","1192946","2020-10-19 08:00","2020","10","19","08:00","-14.3","","-15.9","","88","","","M","15","","4","","48.3","","96.77","","","","-17","","NA"
"-122.60","58.84","FORT NELSON A","1192946","2020-10-19 09:00","2020","10","19","09:00","-12.5","","-14.7","","84","","","M","13","","4","","48.3","","96.76","","","","-15","","NA"
"-122.60","58.84","FORT NELSON A","1192946","2020-10-19 10:00","2020","10","19","10:00","-10.2","","-13.3","","79","","","M","15","","5","","48.3","","96.79","","","","-13","","Mainly Clear"
"-122.60","58.84","FORT NELSON A","1192946","2020-10-19 11:00","2020","10","19","11:00","-7.5","","-11.9","","71","","","M","14","","7","","48.3","","96.79","","","","-11","","NA"
"-122.60","58.84","FORT NELSON A","1192946","2020-10-19 12:00","2020","10","19","12:00","-4.9","","-11.0","","63","","","M","36","","2","","48.3","","96.78","","","","-6","","NA"
"-122.60","58.84","FORT NELSON A","1192946","2020-10-19 13:00","2020","10","19","13:00","-3.3","","-10.4","","58","","","M","8","","4","","","M","96.79","","","","-5","","Mainly Clear"
"-122.60","58.84","FORT NELSON A","1192946","2020-10-19 14:00","2020","10","19","14:00","-2.4","","-10.3","","55","","","M","16","","5","","48.3","","96.79","","","","-4","","NA"
"-122.60","58.84","FORT NELSON A","1192946","2020-10-19 15:00","2020","10","19","15:00","-2.0","","-9.9","","55","","","M","11","","5","","48.3","","96.82","","","","-4","","NA"
"-122.60","58.84","FORT NELSON A","1192946","2020-10-19 16:00","2020","10","19","16:00","-1.9","","-10.0","","54","","","M","10","","3","","48.3","","96.83","","","","-3","","Mainly Clear"
"-122.60","58.84","FORT NELSON A","1192946","2020-10-19 17:00","2020","10","19","17:00","-3.8","","-9.7","","64","","","M","36","","3","","48.3","","96.87","","","","-5","","NA"
"-122.60","58.84","FORT NELSON A","1192946","2020-10-19 18:00","2020","10","19","18:00","-6.2","","-10.6","","72","","","M","32","","4","","","M","96.89","","","","-8","","NA"
"-122.60","58.84","FORT NELSON A","1192946","2020-10-19 19:00","2020","10","19","19:00","-8.0","","-11.2","","78","","","M","26","","4","","24.1","","96.91","","","","-10","","Mainly Clear"
"-122.60","58.84","FORT NELSON A","1192946","2020-10-19 20:00","2020","10","19","20:00","-9.2","","-11.2","","86","","","M","24","","6","","24.1","","96.90","","","","-13","","NA"
"-122.60","58.84","FORT NELSON A","1192946","2020-10-19 21:00","2020","10","19","21:00","-10.3","","-12.5","","84","","","M","36","","2","","24.1","","96.94","","","","-11","","NA"
"-122.60","58.84","FORT NELSON A","1192946","2020-10-19 22:00","2020","10","19","22:00","-11.1","","-13.1","","85","","","M","27","","3","","","M","96.98","","","","-13","","Clear"
"-122.60","58.84","FORT NELSON A","1192946","2020-10-19 23:00","2020","10","19","23:00","-11.2","","-13.3","","85","","","M","26","","5","","24.1","","97.00","","","","-14","","NA"
"-122.60","58.84","FORT NELSON A","1192946","2020-10-20 00:00","2020","10","20","00:00","-11.8","","-14.1","","84","","","M","19","","4","","24.1","","97.04","","","","-14","","NA"
"-122.60","58.84","FORT NELSON A","1192946","2020-10-20 01:00","2020","10","20","01:00","-11.7","","-13.6","","86","","","M","24","","5","","24.1","","97.08","","","","-15","","Mainly Clear"
"-122.60","58.84","FORT NELSON A","1192946","2020-10-20 02:00","2020","10","20","02:00","-12.5","","-14.3","","87","","","M","36","","2","","24.1","","97.11","","","","-14","","NA"
"-122.60","58.84","FORT NELSON A","1192946","2020-10-20 03:00","2020","10","20","03:00","-12.9","","-14.9","","85","","","M","24","","7","","24.1","","97.13","","","","-17","","NA"
"-122.60","58.84","FORT NELSON A","1192946","2020-10-20 04:00","2020","10","20","04:00","-12.9","","-14.9","","85","","","M","0","","1","","24.1","","97.15","","","","-14","","Mainly Clear"
"-122.60","58.84","FORT NELSON A","1192946","2020-10-20 05:00","2020","10","20","05:00","-11.8","","-13.6","","87","","","M","36","","1","","24.1","","97.18","","","","-12","","NA"
"-122.60","58.84","FORT NELSON A","1192946","2020-10-20 06:00","2020","10","20","06:00","-11.0","","-13.0","","85","","","M","36","","2","","24.1","","97.21","","","","-12","","NA"
"-122.60","58.84","FORT NELSON A","1192946","2020-10-20 07:00","2020","10","20","07:00","-11.0","","-12.8","","86","","","M","0","","1","","48.3","","97.25","","","","-12","","Mostly Cloudy"
"-122.60","58.84","FORT NELSON A","1192946","2020-10-20 08:00","2020","10","20","08:00","-10.2","","-12.3","","85","","","M","2","","5","","32.2","","97.31","","","","-13","","NA"
"-122.60","58.84","FORT NELSON A","1192946","2020-10-20 09:00","2020","10","20","09:00","-9.5","","-11.7","","84","","","M","36","","3","","32.2","","97.35","","","","-11","","NA"
"-122.60","58.84","FORT NELSON A","1192946","2020-10-20 10:00","2020","10","20","10:00","-7.3","","-10.0","","81","","","M","36","","1","","48.3","","97.39","","","","-8","","Mostly Cloudy"
"-122.60","58.84","FORT NELSON A","1192946","2020-10-20 11:00","2020","10","20","11:00","-6.3","","-9.6","","78","","","M","11","","7","","48.3","","97.43","","","","-10","","NA"
"-122.60","58.84","FORT NELSON A","1192946","2020-10-20 12:00","2020","10","20","12:00","-4.7","","-11.9","","57","","","M","33","","10","","48.3","","97.46","","","","-9","","NA"
"-122.60","58.84","FORT NELSON A","1192946","2020-10-20 13:00","2020","10","20","13:00","-4.8","","-11.9","","58","","","M","35","","13","","48.3","","97.50","","","","-10","","Mostly Cloudy"
"-122.60","58.84","FORT NELSON A","1192946","2020-10-20 14:00","2020","10","20","14:00","-4.6","","-11.7","","58","","","M","36","","10","","48.3","","97.53","","","","-9","","NA"
"-122.60","58.84","FORT NELSON A","1192946","2020-10-20 15:00","2020","10","20","15:00","-4.5","","-12.0","","56","","","M","32","","9","","48.3","","97.55","","","","-8","","NA"
"-122.60","58.84","FORT NELSON A","1192946","2020-10-20 16:00","2020","10","20","16:00","-5.4","","-12.1","","60","","","M","28","","5","","48.3","","97.60","","","","-8","","Mostly Cloudy"
"-122.60","58.84","FORT NELSON A","1192946","2020-10-20 17:00","2020","10","20","17:00","-8.4","","-12.2","","75","","","M","25","","6","","48.3","","97.64","","","","-12","","NA"
"-122.60","58.84","FORT NELSON A","1192946","2020-10-20 18:00","2020","10","20","18:00","-8.1","","-12.5","","71","","","M","29","","8","","48.3","","97.68","","","","-12","","NA"
"-122.60","58.84","FORT NELSON A","1192946","2020-10-20 19:00","2020","10","20","19:00","-8.9","","-13.1","","72","","","M","30","","8","","24.1","","97.74","","","","-13","","Mainly Clear"
"-122.60","58.84","FORT NELSON A","1192946","2020-10-20 20:00","2020","10","20","20:00","-10.2","","-13.4","","78","","","M","30","","3","","24.1","","97.82","","","","-12","","NA"
"-122.60","58.84","FORT NELSON A","1192946","2020-10-20 21:00","2020","10","20","21:00","-10.0","","-13.6","","75","","","M","31","","9","","24.1","","97.90","","","","-15","","NA"
"-122.60","58.84","FORT NELSON A","1192946","2020-10-20 22:00","2020","10","20","22:00","-9.5","","-13.8","","71","","","M","32","","10","","24.1","","97.98","","","","-15","","Mainly Clear"
"-122.60","58.84","FORT NELSON A","1192946","2020-10-20 23:00","2020","10","20","23:00","-8.8","","-13.4","","69","","","M","31","","10","","24.1","","98.08","","","","-14","","NA"
"-122.60","58.84","FORT NELSON A","1192946","2020-10-21 00:00","2020","10","21","00:00","-8.2","","-13.4","","66","","","M","31","","10","","24.1","","98.17","","","","-13","","NA"
"-122.60","58.84","FORT NELSON A","1192946","2020-10-21 01:00","2020","10","21","01:00","-8.0","","-13.4","","65","","","M","29","","7","","24.1","","98.23","","","","-12","","Cloudy"
"-122.60","58.84","FORT NELSON A","1192946","2020-10-21 02:00","2020","10","21","02:00","-8.6","","-13.4","","68","","","M","27","","8","","24.1","","98.29","","","","-13","","NA"
"-122.60","58.84","FORT NELSON A","1192946","2020-10-21 03:00","2020","10","21","03:00","-9.3","","-13.4","","72","","","M","28","","10","","24.1","","98.35","","","","-14","","NA"
"-122.60","58.84","FORT NELSON A","1192946","2020-10-21 04:00","2020","10","21","04:00","-8.7","","-13.3","","69","","","M","29","","13","","24.1","","98.40","","","","-15","","Cloudy"
"-122.60","58.84","FORT NELSON A","1192946","2020-10-21 05:00","2020","10","21","05:00","-8.2","","-13.0","","68","","","M","28","","9","","24.1","","98.47","","","","-13","","NA"
"-122.60","58.84","FORT NELSON A","1192946","2020-10-21 06:00","2020","10","21","06:00","-7.9","","-12.6","","69","","","M","29","","8","","24.1","","98.52","","","","-12","","NA"
"-122.60","58.84","FORT NELSON A","1192946","2020-10-21 07:00","2020","10","21","07:00","-8.0","","-12.2","","72","","","M","27","","12","","32.2","","98.59","","","","-13","","Cloudy"
"-122.60","58.84","FORT NELSON A","1192946","2020-10-21 08:00","2020","10","21","08:00","-7.6","","-11.8","","72","","","M","28","","12","","19.3","","98.63","","","","-13","","NA"
"-122.60","58.84","FORT NELSON A","1192946","2020-10-21 09:00","2020","10","21","09:00","-7.0","","-10.8","","74","","","M","29","","9","","8.1","","98.68","","","","-11","","Snow"
"-122.60","58.84","FORT NELSON A","1192946","2020-10-21 10:00","2020","10","21","10:00","-6.3","","-11.1","","69","","","M","31","","14","","19.3","","98.76","","","","-12","","Mostly Cloudy"
"-122.60","58.84","FORT NELSON A","1192946","2020-10-21 11:00","2020","10","21","11:00","-5.6","","-11.6","","63","","","M","31","","14","","16.1","","98.79","","","","-11","","NA"
"-122.60","58.84","FORT NELSON A","1192946","2020-10-21 12:00","2020","10","21","12:00","-5.4","","-10.7","","66","","","M","33","","17","","8.1","","98.79","","","","-11","","Snow"
"-122.60","58.84","FORT NELSON A","1192946","2020-10-21 13:00","2020","10","21","13:00","-4.5","","-11.1","","60","","","M","27","","12","","24.1","","98.80","","","","-9","","Mostly Cloudy"
"-122.60","58.84","FORT NELSON A","1192946","2020-10-21 14:00","2020","10","21","14:00","-4.5","","-13.0","","52","","","M","29","","16","","24.1","","98.82","","","","-10","","NA"
"-122.60","58.84","FORT NELSON A","1192946","2020-10-21 15:00","2020","10","21","15:00","-4.7","","-13.2","","52","","","M","31","","10","","","M","98.85","","","","-9","","NA"
"-122.60","58.84","FORT NELSON A","1192946","2020-10-21 16:00","2020","10","21","16:00","-5.1","","-12.4","","57","","","M","28","","9","","24.1","","98.86","","","","-9","","Snow"
"-122.60","58.84","FORT NELSON A","1192946","2020-10-21 17:00","2020","10","21","17:00","-5.2","","-12.3","","58","","","M","29","","8","","48.3","","98.88","","","","-9","","Snow"
"-122.60","58.84","FORT NELSON A","1192946","2020-10-21 18:00","2020","10","21","18:00","-5.4","","-12.0","","60","","","M","25","","8","","","M","98.90","","","","-9","","Snow"
"-122.60","58.84","FORT NELSON A","1192946","2020-10-21 19:00","2020","10","21","19:00","-6.0","","-11.3","","66","","","M","23","","8","","24.1","","98.90","","","","-10","","Snow"
"-122.60","58.84","FORT NELSON A","1192946","2020-10-21 20:00","2020","10","21","20:00","-5.9","","-11.7","","64","","","M","21","","5","","24.1","","98.90","","","","-8","","NA"
"-122.60","58.84","FORT NELSON A","1192946","2020-10-21 21:00","2020","10","21","21:00","-5.4","","-12.5","","58","","","M","24","","8","","24.1","","98.90","","","","-9","","NA"
"-122.60","58.84","FORT NELSON A","1192946","2020-10-21 22:00","2020","10","21","22:00","-5.4","","-12.7","","57","","","M","25","","11","","24.1","","98.91","","","","-10","","Cloudy"
"-122.60","58.84","FORT NELSON A","1192946","2020-10-21 23:00","2020","10","21","23:00","-5.4","","-12.7","","57","","","M","24","","9","","24.1","","98.91","","","","-9","","NA"
"-122.60","58.84","FORT NELSON A","1192946","2020-10-22 00:00","2020","10","22","00:00","-5.9","","-12.4","","60","","","M","29","","7","","24.1","","98.95","","","","-9","","NA"
"-122.60","58.84","FORT NELSON A","1192946","2020-10-22 01:00","2020","10","22","01:00","-5.9","","-12.3","","61","","","M","29","","4","","24.1","","98.97","","","","-8","","Cloudy"
"-122.60","58.84","FORT NELSON A","1192946","2020-10-22 02:00","2020","10","22","02:00","-6.1","","-11.9","","64","","","M","34","","3","","24.1","","99.00","","","","-8","","NA"
"-122.60","58.84","FORT NELSON A","1192946","2020-10-22 03:00","2020","10","22","03:00","-6.3","","-11.1","","69","","","M","33","","4","","24.1","","99.00","","","","-8","","Snow"
"-122.60","58.84","FORT NELSON A","1192946","2020-10-22 04:00","2020","10","22","04:00","-6.7","","-10.4","","75","","","M","19","","3","","24.1","","98.99","","","","-8","","Snow"
"-122.60","58.84","FORT NELSON A","1192946","2020-10-22 05:00","2020","10","22","05:00","-6.8","","-10.6","","75","","","M","36","","3","","24.1","","99.01","","","","-8","","Snow"
"-122.60","58.84","FORT NELSON A","1192946","2020-10-22 06:00","2020","10","22","06:00","-6.9","","-10.3","","77","","","M","","","0","","24.1","","99.01","","","","","","Snow"
"-122.60","58.84","FORT NELSON A","1192946","2020-10-22 07:00","2020","10","22","07:00","-7.3","","-10.0","","81","","","M","36","","2","","48.3","","99.03","","","","-8","","Snow"
"-122.60","58.84","FORT NELSON A","1192946","2020-10-22 08:00","2020","10","22","08:00","-7.0","","-10.3","","77","","","M","36","","1","","48.3","","99.05","","","","-8","","NA"
"-122.60","58.84","FORT NELSON A","1192946","2020-10-22 09:00","2020","10","22","09:00","-6.3","","-9.8","","77","","","M","36","","2","","48.3","","99.06","","","","-7","","NA"
"-122.60","58.84","FORT NELSON A","1192946","2020-10-22 10:00","2020","10","22","10:00","-5.3","","-9.6","","72","","","M","10","","4","","48.3","","99.04","","","","-7","","Clear"
"-122.60","58.84","FORT NELSON A","1192946","2020-10-22 11:00","2020","10","22","11:00","-4.5","","-10.8","","62","","","M","26","","3","","48.3","","99.05","","","","-6","","NA"
"-122.60","58.84","FORT NELSON A","1192946","2020-10-22 12:00","2020","10","22","12:00","-4.0","","-10.5","","61","","","M","13","","6","","48.3","","99.03","","","","-7","","NA"
"-122.60","58.84","FORT NELSON A","1192946","2020-10-22 13:00","2020","10","22","13:00","-3.6","","-10.8","","58","","","M","9","","6","","48.3","","99.01","","","","-6","","Mostly Cloudy"
"-122.60","58.84","FORT NELSON A","1192946","2020-10-22 14:00","2020","10","22","14:00","-3.3","","-10.9","","56","","","M","20","","5","","48.3","","98.99","","","","-5","","NA"
"-122.60","58.84","FORT NELSON A","1192946","2020-10-22 15:00","2020","10","22","15:00","-2.0","","-11.2","","49","","","M","33","","9","","48.3","","98.96","","","","-5","","NA"
"-122.60","58.84","FORT NELSON A","1192946","2020-10-22 16:00","2020","10","22","16:00","-3.4","","-11.7","","53","","","M","31","","3","","48.3","","98.93","","","","-5","","Mostly Cloudy"
"-122.60","58.84","FORT NELSON A","1192946","2020-10-22 17:00","2020","10","22","17:00","-5.9","","-11.4","","65","","","M","23","","8","","48.3","","98.89","","","","-10","","NA"
"-122.60","58.84","FORT NELSON A","1192946","2020-10-22 18:00","2020","10","22","18:00","-7.4","","-11.3","","74","","","M","24","","5","","24.1","","98.88","","","","-10","","NA"
"-122.60","58.84","FORT NELSON A","1192946","2020-10-22 19:00","2020","10","22","19:00","-7.6","","-11.0","","77","","","M","27","","6","","24.1","","98.86","","","","-11","","Mostly Cloudy"
"-122.60","58.84","FORT NELSON A","1192946","2020-10-22 20:00","2020","10","22","20:00","-7.1","","-10.6","","76","","","M","23","","4","","24.1","","98.84","","","","-9","","NA"
"-122.60","58.84","FORT NELSON A","1192946","2020-10-22 21:00","2020","10","22","21:00","-6.4","","-10.7","","72","","","M","36","","2","","24.1","","98.83","","","","-7","","NA"
"-122.60","58.84","FORT NELSON A","1192946","2020-10-22 22:00","2020","10","22","22:00","-7.0","","-10.7","","75","","","M","28","","5","","24.1","","98.83","","","","-10","","Mostly Cloudy"
"-122.60","58.84","FORT NELSON A","1192946","2020-10-22 23:00","2020","10","22","23:00","-6.9","","-10.5","","76","","","M","7","","4","","24.1","","98.82","","","","-9","","NA"
"-122.60","58.84","FORT NELSON A","1192946","2020-10-23 00:00","2020","10","23","00:00","-7.7","","-10.7","","79","","","M","36","","2","","24.1","","98.81","","","","-9","","NA"
"-122.60","58.84","FORT NELSON A","1192946","2020-10-23 01:00","2020","10","23","01:00","-7.9","","-10.6","","81","","","M","2","","3","","24.1","","98.80","","","","-9","","Cloudy"
"-122.60","58.84","FORT NELSON A","1192946","2020-10-23 02:00","2020","10","23","02:00","-7.7","","-10.2","","82","","","M","36","","3","","24.1","","98.78","","","","-9","","NA"
"-122.60","58.84","FORT NELSON A","1192946","2020-10-23 03:00","2020","10","23","03:00","-7.6","","-10.4","","81","","","M","36","","2","","24.1","","98.76","","","","-9","","NA"
"-122.60","58.84","FORT NELSON A","1192946","2020-10-23 04:00","2020","10","23","04:00","-7.7","","-9.8","","85","","","M","36","","2","","24.1","","98.74","","","","-9","","Cloudy"
"-122.60","58.84","FORT NELSON A","1192946","2020-10-23 05:00","2020","10","23","05:00","-7.4","","-9.4","","85","","","M","17","","3","","24.1","","98.73","","","","-9","","NA"
"-122.60","58.84","FORT NELSON A","1192946","2020-10-23 06:00","2020","10","23","06:00","-7.8","","-9.7","","86","","","M","15","","4","","24.1","","98.75","","","","-10","","NA"
"-122.60","58.84","FORT NELSON A","1192946","2020-10-23 07:00","2020","10","23","07:00","-7.7","","-9.4","","87","","","M","36","","3","","48.3","","98.77","","","","-9","","Cloudy"
"-122.60","58.84","FORT NELSON A","1192946","2020-10-23 08:00","2020","10","23","08:00","-7.5","","-9.2","","88","","","M","36","","3","","48.3","","98.80","","","","-9","","NA"
"-122.60","58.84","FORT NELSON A","1192946","2020-10-23 09:00","2020","10","23","09:00","-6.5","","-9.2","","82","","","M","13","","4","","48.3","","98.82","","","","-8","","NA"
"-122.60","58.84","FORT NELSON A","1192946","2020-10-23 10:00","2020","10","23","10:00","-3.9","","-12.1","","53","","","M","26","","12","","48.3","","98.83","","","","-9","","Mostly Cloudy"
"-122.60","58.84","FORT NELSON A","1192946","2020-10-23 11:00","2020","10","23","11:00","-3.3","","-13.0","","47","","","M","24","","11","","48.3","","98.83","","","","-8","","NA"
"-122.60","58.84","FORT NELSON A","1192946","2020-10-23 12:00","2020","10","23","12:00","-2.5","","-13.6","","43","","","M","24","","14","","48.3","","98.83","","","","-7","","NA"
"-122.60","58.84","FORT NELSON A","1192946","2020-10-23 13:00","2020","10","23","13:00","-2.1","","-14.1","","40","","","M","23","","18","","48.3","","98.81","","","","-8","","Mainly Clear"
"-122.60","58.84","FORT NELSON A","1192946","2020-10-23 14:00","2020","10","23","14:00","-1.7","","-14.2","","38","","","M","23","","18","","48.3","","98.78","","","","-7","","NA"
"-122.60","58.84","FORT NELSON A","1192946","2020-10-23 15:00","2020","10","23","15:00","-1.7","","-14.3","","38","","","M","24","","14","","48.3","","98.77","","","","-6","","NA"
"-122.60","58.84","FORT NELSON A","1192946","2020-10-23 16:00","2020","10","23","16:00","-2.1","","-14.4","","39","","","M","32","","7","","48.3","","98.77","","","","-5","","Clear"
"-122.60","58.84","FORT NELSON A","1192946","2020-10-23 17:00","2020","10","23","17:00","-3.7","","-14.6","","43","","","M","29","","8","","48.3","","98.79","","","","-7","","NA"
"-122.60","58.84","FORT NELSON A","1192946","2020-10-23 18:00","2020","10","23","18:00","-6.8","","-13.9","","57","","","M","26","","6","","24.1","","98.83","","","","-10","","NA"
"-122.60","58.84","FORT NELSON A","1192946","2020-10-23 19:00","2020","10","23","19:00","-9.5","","-14.3","","69","","","M","27","","7","","24.1","","98.85","","","","-13","","Clear"
"-122.60","58.84","FORT NELSON A","1192946","2020-10-23 20:00","2020","10","23","20:00","-10.2","","-14.6","","71","","","M","26","","9","","24.1","","98.88","","","","-15","","NA"
"-122.60","58.84","FORT NELSON A","1192946","2020-10-23 21:00","2020","10","23","21:00","-9.8","","-15.1","","66","","","M","15","","5","","24.1","","98.91","","","","-13","","NA"
"-122.60","58.84","FORT NELSON A","1192946","2020-10-23 22:00","2020","10","23","22:00","-11.9","","-15.5","","75","","","M","23","","4","","24.1","","98.93","","","","-14","","Clear"
"-122.60","58.84","FORT NELSON A","1192946","2020-10-23 23:00","2020","10","23","23:00","-12.2","","-15.6","","76","","","M","18","","3","","24.1","","98.96","","","","-14","","NA"
"-122.60","58.84","FORT NELSON A","1192946","2020-10-24 00:00","2020","10","24","00:00","-12.8","","-16.1","","76","","","M","21","","3","","24.1","","98.97","","","","-15","","NA"
"-122.60","58.84","FORT NELSON A","1192946","2020-10-24 01:00","2020","10","24","01:00","-11.0","","-14.9","","74","","","M","18","","10","","24.1","","98.98","","","","-16","","Clear"
"-122.60","58.84","FORT NELSON A","1192946","2020-10-24 02:00","2020","10","24","02:00","-13.1","","-15.8","","80","","","M","","","0","","24.1","","99.00","","","","","","NA"
"-122.60","58.84","FORT NELSON A","1192946","2020-10-24 03:00","2020","10","24","03:00","-13.7","","-16.7","","79","","","M","17","","3","","24.1","","99.01","","","","-16","","NA"
"-122.60","58.84","FORT NELSON A","1192946","2020-10-24 04:00","2020","10","24","04:00","-14.7","","-17.2","","82","","","M","23","","4","","24.1","","99.00","","","","-18","","Clear"
"-122.60","58.84","FORT NELSON A","1192946","2020-10-24 05:00","2020","10","24","05:00","-13.1","","-15.3","","84","","","M","18","","10","","24.1","","99.00","","","","-19","","NA"
"-122.60","58.84","FORT NELSON A","1192946","2020-10-24 06:00","2020","10","24","06:00","-13.4","","-15.8","","82","","","M","18","","8","","24.1","","99.00","","","","-18","","NA"
"-122.60","58.84","FORT NELSON A","1192946","2020-10-24 07:00","2020","10","24","07:00","-13.8","","-15.9","","84","","","M","17","","9","","48.3","","99.02","","","","-19","","Mainly Clear"
"-122.60","58.84","FORT NELSON A","1192946","2020-10-24 08:00","2020","10","24","08:00","-13.3","","-16.0","","80","","","M","17","","12","","48.3","","99.03","","","","-20","","NA"
"-122.60","58.84","FORT NELSON A","1192946","2020-10-24 09:00","2020","10","24","09:00","-11.7","","-15.3","","75","","","M","17","","11","","48.3","","99.00","","","","-18","","NA"
"-122.60","58.84","FORT NELSON A","1192946","2020-10-24 10:00","2020","10","24","10:00","-9.4","","-14.8","","65","","","M","16","","12","","48.3","","98.96","","","","-15","","Clear"
"-122.60","58.84","FORT NELSON A","1192946","2020-10-24 11:00","2020","10","24","11:00","-7.3","","-14.7","","56","","","M","16","","12","","48.3","","98.91","","","","-13","","NA"
"-122.60","58.84","FORT NELSON A","1192946","2020-10-24 12:00","2020","10","24","12:00","-4.8","","-14.2","","48","","","M","18","","12","","48.3","","98.85","","","","-10","","NA"
"-122.60","58.84","FORT NELSON A","1192946","2020-10-24 13:00","2020","10","24","13:00","-2.9","","-13.6","","44","","","M","19","","10","","48.3","","98.78","","","","-7","","Clear"
"-122.60","58.84","FORT NELSON A","1192946","2020-10-24 14:00","2020","10","24","14:00","-1.4","","-13.1","","41","","","M","18","","7","","48.3","","98.72","","","","-4","","NA"
"-122.60","58.84","FORT NELSON A","1192946","2020-10-24 15:00","2020","10","24","15:00","-0.4","","-12.6","","39","","","M","21","","4","","48.3","","98.64","","","","-2","","NA"
"-122.60","58.84","FORT NELSON A","1192946","2020-10-24 16:00","2020","10","24","16:00","-1.1","","-12.2","","43","","","M","22","","3","","48.3","","98.60","","","","-2","","Mainly Clear"
"-122.60","58.84","FORT NELSON A","1192946","2020-10-24 17:00","2020","10","24","17:00","-3.3","","-11.9","","51","","","M","36","","2","","48.3","","98.55","","","","-4","","NA"
"-122.60","58.84","FORT NELSON A","1192946","2020-10-24 18:00","2020","10","24","18:00","-4.3","","-11.6","","57","","","M","14","","5","","24.1","","98.49","","","","-6","","NA"
"-122.60","58.84","FORT NELSON A","1192946","2020-10-24 19:00","2020","10","24","19:00","-7.8","","-12.5","","69","","","M","29","","7","","24.1","","98.40","","","","-11","","Mainly Clear"
"-122.60","58.84","FORT NELSON A","1192946","2020-10-24 20:00","2020","10","24","20:00","-8.9","","-12.4","","76","","","M","19","","7","","24.1","","98.30","","","","-13","","NA"
"-122.60","58.84","FORT NELSON A","1192946","2020-10-24 21:00","2020","10","24","21:00","-7.5","","-12.3","","69","","","M","16","","7","","24.1","","98.21","","","","-11","","NA"
"-122.60","58.84","FORT NELSON A","1192946","2020-10-24 22:00","2020","10","24","22:00","-8.6","","-12.6","","73","","","M","14","","4","","24.1","","98.10","","","","-11","","Mostly Cloudy"
"-122.60","58.84","FORT NELSON A","1192946","2020-10-24 23:00","2020","10","24","23:00","-7.1","","-12.5","","65","","","M","20","","7","","24.1","","98.00","","","","-11","","NA"
"-122.60","58.84","FORT NELSON A","1192946","2020-10-25 00:00","2020","10","25","00:00","-9.3","","-13.6","","71","","","M","16","","6","","24.1","","97.92","","","","-13","","NA"
"-122.60","58.84","FORT NELSON A","1192946","2020-10-25 01:00","2020","10","25","01:00","-10.4","","-13.7","","77","","","M","36","","1","","24.1","","97.88","","","","-11","","Mainly Clear"
"-122.60","58.84","FORT NELSON A","1192946","2020-10-25 02:00","2020","10","25","02:00","-11.8","","-14.6","","80","","","M","24","","5","","24.1","","97.85","","","","-15","","NA"
"-122.60","58.84","FORT NELSON A","1192946","2020-10-25 03:00","2020","10","25","03:00","-10.0","","-12.8","","80","","","M","20","","9","","24.1","","97.75","","","","-15","","NA"
"-122.60","58.84","FORT NELSON A","1192946","2020-10-25 04:00","2020","10","25","04:00","-9.8","","-13.0","","78","","","M","17","","6","","24.1","","97.68","","","","-13","","Mainly Clear"
"-122.60","58.84","FORT NELSON A","1192946","2020-10-25 05:00","2020","10","25","05:00","-11.1","","-13.7","","81","","","M","20","","7","","24.1","","97.61","","","","-15","","NA"
"-122.60","58.84","FORT NELSON A","1192946","2020-10-25 06:00","2020","10","25","06:00","-11.0","","-13.6","","81","","","M","17","","10","","24.1","","97.58","","","","-16","","NA"
"-122.60","58.84","FORT NELSON A","1192946","2020-10-25 07:00","2020","10","25","07:00","-11.2","","-13.8","","81","","","M","17","","10","","48.3","","97.56","","","","-17","","Mainly Clear"
"-122.60","58.84","FORT NELSON A","1192946","2020-10-25 08:00","2020","10","25","08:00","-10.5","","-13.6","","78","","","M","17","","5","","48.3","","97.55","","","","-14","","NA"
"-122.60","58.84","FORT NELSON A","1192946","2020-10-25 09:00","2020","10","25","09:00","-9.1","","-13.1","","73","","","M","16","","5","","48.3","","97.52","","","","-12","","NA"
"-122.60","58.84","FORT NELSON A","1192946","2020-10-25 10:00","2020","10","25","10:00","-7.2","","-12.4","","67","","","M","17","","7","","48.3","","97.54","","","","-11","","Mostly Cloudy"
"-122.60","58.84","FORT NELSON A","1192946","2020-10-25 11:00","2020","10","25","11:00","-5.6","","-11.7","","63","","","M","16","","5","","48.3","","97.52","","","","-8","","NA"
"-122.60","58.84","FORT NELSON A","1192946","2020-10-25 12:00","2020","10","25","12:00","-4.3","","-11.3","","58","","","M","16","","10","","48.3","","97.46","","","","-8","","NA"
"-122.60","58.84","FORT NELSON A","1192946","2020-10-25 13:00","2020","10","25","13:00","-2.3","","-10.6","","53","","","M","16","","8","","48.3","","97.42","","","","-5","","Cloudy"
"-122.60","58.84","FORT NELSON A","1192946","2020-10-25 14:00","2020","10","25","14:00","-1.0","","-10.0","","50","","","M","20","","9","","48.3","","97.33","","","","-4","","NA"
"-122.60","58.84","FORT NELSON A","1192946","2020-10-25 15:00","2020","10","25","15:00","-1.2","","-10.4","","50","","","M","17","","11","","48.3","","97.28","","","","-5","","NA"
"-122.60","58.84","FORT NELSON A","1192946","2020-10-25 16:00","2020","10","25","16:00","-1.5","","-10.2","","52","","","M","18","","5","","48.3","","97.27","","","","-3","","Cloudy"
"-122.60","58.84","FORT NELSON A","1192946","2020-10-25 17:00","2020","10","25","17:00","-1.9","","-10.1","","54","","","M","19","","6","","48.3","","97.25","","","","-4","","NA"
"-122.60","58.84","FORT NELSON A","1192946","2020-10-25 18:00","2020","10","25","18:00","-2.2","","-10.1","","55","","","M","18","","9","","24.1","","97.31","","","","-6","","NA"
"-122.60","58.84","FORT NELSON A","1192946","2020-10-25 19:00","2020","10","25","19:00","-2.3","","-9.8","","57","","","M","18","","9","","24.1","","97.31","","","","-6","","Mostly Cloudy"
"-122.60","58.84","FORT NELSON A","1192946","2020-10-25 20:00","2020","10","25","20:00","-3.3","","-9.8","","61","","","M","0","","1","","24.1","","97.29","","","","-4","","NA"
"-122.60","58.84","FORT NELSON A","1192946","2020-10-25 21:00","2020","10","25","21:00","-4.7","","-9.7","","68","","","M","22","","9","","24.1","","97.27","","","","-9","","NA"
"-122.60","58.84","FORT NELSON A","1192946","2020-10-25 22:00","2020","10","25","22:00","-3.9","","-9.1","","67","","","M","24","","5","","24.1","","97.30","","","","-6","","Mostly Cloudy"
"-122.60","58.84","FORT NELSON A","1192946","2020-10-25 23:00","2020","10","25","23:00","-4.0","","-8.5","","71","","","M","36","","3","","24.1","","97.27","","","","-5","","NA"
"-122.60","58.84","FORT NELSON A","1192946","2020-10-26 00:00","2020","10","26","00:00","-3.8","","-7.9","","73","","","M","21","","4","","24.1","","97.28","","","","-5","","NA"
"-122.60","58.84","FORT NELSON A","1192946","2020-10-26 01:00","2020","10","26","01:00","-3.5","","-8.7","","68","","","M","16","","4","","24.1","","97.22","","","","-5","","Mostly Cloudy"
"-122.60","58.84","FORT NELSON A","1192946","2020-10-26 02:00","2020","10","26","02:00","-3.5","","-8.7","","68","","","M","36","","1","","24.1","","97.18","","","","-4","","NA"
"-122.60","58.84","FORT NELSON A","1192946","2020-10-26 03:00","2020","10","26","03:00","-4.2","","-7.7","","76","","","M","22","","3","","24.1","","97.09","","","","-5","","NA"
"-122.60","58.84","FORT NELSON A","1192946","2020-10-26 04:00","2020","10","26","04:00","-2.5","","-9.1","","61","","","M","16","","5","","24.1","","97.07","","","","-4","","Cloudy"
"-122.60","58.84","FORT NELSON A","1192946","2020-10-26 05:00","2020","10","26","05:00","-3.0","","-8.0","","68","","","M","36","","2","","24.1","","97.03","","","","-4","","NA"
"-122.60","58.84","FORT NELSON A","1192946","2020-10-26 06:00","2020","10","26","06:00","-3.6","","-5.7","","85","","","M","17","","7","","1.6","","96.95","","","","-7","","Snow"
"-122.60","58.84","FORT NELSON A","1192946","2020-10-26 07:00","2020","10","26","07:00","-3.7","","-4.5","","94","","","M","36","","3","","0.8","","96.81","","","","-5","","Moderate Snow"
"-122.60","58.84","FORT NELSON A","1192946","2020-10-26 08:00","2020","10","26","08:00","-3.2","","-4.0","","95","","","M","36","","1","","0.8","","96.68","","","","-4","","Moderate Snow"
"-122.60","58.84","FORT NELSON A","1192946","2020-10-26 09:00","2020","10","26","09:00","-2.1","","-2.7","","96","","","M","8","","6","","0.8","","96.51","","","","-4","","Moderate Snow"
"-122.60","58.84","FORT NELSON A","1192946","2020-10-26 10:00","2020","10","26","10:00","-1.6","","-2.3","","95","","","M","8","","8","","0.8","","96.35","","","","-5","","Moderate Snow"
"-122.60","58.84","FORT NELSON A","1192946","2020-10-26 11:00","2020","10","26","11:00","-1.5","","-2.4","","94","","","M","12","","8","","2.0","","96.17","","","","-5","","Snow"
"-122.60","58.84","FORT NELSON A","1192946","2020-10-26 12:00","2020","10","26","12:00","-0.9","","-1.9","","93","","","M","11","","9","","6.4","","95.95","","","","-4","","Snow"
"-122.60","58.84","FORT NELSON A","1192946","2020-10-26 13:00","2020","10","26","13:00","-0.5","","-1.5","","93","","","M","12","","8","","6.4","","95.76","","","","-3","","Freezing Rain"
"-122.60","58.84","FORT NELSON A","1192946","2020-10-26 14:00","2020","10","26","14:00","-0.3","","-1.4","","93","","","M","12","","7","","6.4","","95.58","","","","-3","","Fog"
"-122.60","58.84","FORT NELSON A","1192946","2020-10-26 15:00","2020","10","26","15:00","-0.1","","-1.3","","92","","","M","36","","3","","6.4","","95.55","","","","-1","","Rain,Fog"
"-122.60","58.84","FORT NELSON A","1192946","2020-10-26 16:00","2020","10","26","16:00","-0.2","","-0.8","","96","","","M","14","","6","","6.4","","95.42","","","","-2","","Freezing Rain,Fog"
"-122.60","58.84","FORT NELSON A","1192946","2020-10-26 17:00","2020","10","26","17:00","-0.3","","-0.9","","96","","","M","19","","14","","6.4","","95.21","","","","-5","","Fog"
"-122.60","58.84","FORT NELSON A","1192946","2020-10-26 18:00","2020","10","26","18:00","-0.4","","-0.8","","97","","","M","17","","9","","6.4","","95.13","","","","-4","","Fog"
"-122.60","58.84","FORT NELSON A","1192946","2020-10-26 19:00","2020","10","26","19:00","-0.6","","-1.0","","98","","","M","16","","6","","6.4","","95.08","","","","-3","","Fog"
"-122.60","58.84","FORT NELSON A","1192946","2020-10-26 20:00","2020","10","26","20:00","-0.9","","-1.3","","97","","","M","16","","4","","6.4","","95.07","","","","-2","","Fog"
"-122.60","58.84","FORT NELSON A","1192946","2020-10-26 21:00","2020","10","26","21:00","-1.6","","-1.8","","99","","","M","18","","10","","0.4","","95.05","","","","-5","","Freezing Fog"
"-122.60","58.84","FORT NELSON A","1192946","2020-10-26 22:00","2020","10","26","22:00","-2.0","","-2.2","","98","","","M","23","","9","","0.2","","95.09","","","","-5","","Freezing Fog"
"-122.60","58.84","FORT NELSON A","1192946","2020-10-26 23:00","2020","10","26","23:00","-2.8","","-3.2","","97","","","M","24","","5","","0.4","","95.18","","","","-5","","Freezing Fog"
"-122.60","58.84","FORT NELSON A","1192946","2020-10-27 00:00","2020","10","27","00:00","-2.8","","-3.2","","97","","","M","21","","9","","0.4","","95.24","","","","-6","","Freezing Fog"
"-122.60","58.84","FORT NELSON A","1192946","2020-10-27 01:00","2020","10","27","01:00","-3.4","","-3.9","","97","","","M","19","","10","","0.8","","95.30","","","","-7","","Freezing Fog"
"-122.60","58.84","FORT NELSON A","1192946","2020-10-27 02:00","2020","10","27","02:00","-3.8","","-4.3","","96","","","M","17","","8","","0.8","","95.36","","","","-7","","Freezing Fog"
"-122.60","58.84","FORT NELSON A","1192946","2020-10-27 03:00","2020","10","27","03:00","-4.9","","-5.5","","95","","","M","18","","5","","24.1","","95.40","","","","-7","","NA"
"-122.60","58.84","FORT NELSON A","1192946","2020-10-27 04:00","2020","10","27","04:00","-5.2","","-5.9","","95","","","M","19","","5","","24.1","","95.41","","","","-7","","Mainly Clear"
"-122.60","58.84","FORT NELSON A","1192946","2020-10-27 05:00","2020","10","27","05:00","-4.8","","-5.1","","97","","","M","19","","13","","24.1","","95.47","","","","-10","","NA"
"-122.60","58.84","FORT NELSON A","1192946","2020-10-27 06:00","2020","10","27","06:00","-3.9","","-4.4","","96","","","M","13","","6","","24.1","","95.51","","","","-7","","NA"
"-122.60","58.84","FORT NELSON A","1192946","2020-10-27 07:00","2020","10","27","07:00","-4.6","","-5.4","","95","","","M","15","","8","","48.3","","95.54","","","","-8","","Mostly Cloudy"
"-122.60","58.84","FORT NELSON A","1192946","2020-10-27 08:00","2020","10","27","08:00","-3.4","","-3.9","","97","","","M","18","","10","","48.3","","95.65","","","","-7","","NA"
"-122.60","58.84","FORT NELSON A","1192946","2020-10-27 09:00","2020","10","27","09:00","0.3","","-1.2","","90","","","M","28","","13","","48.3","","95.80","","","","","","NA"
"-122.60","58.84","FORT NELSON A","1192946","2020-10-27 10:00","2020","10","27","10:00","-1.4","","-2.5","","92","","","M","15","","4","","48.3","","95.94","","","","-3","","Mostly Cloudy"
"-122.60","58.84","FORT NELSON A","1192946","2020-10-27 11:00","2020","10","27","11:00","2.2","","-0.3","","83","","","M","35","","17","","48.3","","96.13","","","","","","NA"
"-122.60","58.84","FORT NELSON A","1192946","2020-10-27 12:00","2020","10","27","12:00","1.0","","-2.2","","79","","","M","33","","27","","48.3","","96.23","","","","","","NA"
"-122.60","58.84","FORT NELSON A","1192946","2020-10-27 13:00","2020","10","27","13:00","0.4","","-2.9","","79","","","M","35","","16","","48.3","","96.34","","","","","","Mostly Cloudy"
"-122.60","58.84","FORT NELSON A","1192946","2020-10-27 14:00","2020","10","27","14:00","0.5","","-3.0","","77","","","M","35","","12","","48.3","","96.45","","","","","","NA"
"-122.60","58.84","FORT NELSON A","1192946","2020-10-27 15:00","2020","10","27","15:00","0.8","","-2.9","","76","","","M","2","","4","","48.3","","96.54","","","","","","NA"
"-122.60","58.84","FORT NELSON A","1192946","2020-10-27 16:00","2020","10","27","16:00","-0.9","","-3.7","","81","","","M","34","","9","","48.3","","96.58","","","","-4","","Mostly Cloudy"
"-122.60","58.84","FORT NELSON A","1192946","2020-10-27 17:00","2020","10","27","17:00","-2.3","","-3.7","","90","","","M","36","","3","","48.3","","96.63","","","","-3","","NA"
"-122.60","58.84","FORT NELSON A","1192946","2020-10-27 18:00","2020","10","27","18:00","-3.8","","-4.3","","96","","","M","26","","3","","","M","96.65","","","","-5","","NA"
"-122.60","58.84","FORT NELSON A","1192946","2020-10-27 19:00","2020","10","27","19:00","-5.6","","-6.9","","91","","","M","36","","1","","24.1","","96.67","","","","-6","","Mainly Clear"
"-122.60","58.84","FORT NELSON A","1192946","2020-10-27 20:00","2020","10","27","20:00","-5.0","","-5.7","","95","","","M","36","","2","","24.1","","96.67","","","","-6","","NA"
"-122.60","58.84","FORT NELSON A","1192946","2020-10-27 21:00","2020","10","27","21:00","-4.9","","-5.5","","95","","","M","36","","1","","24.1","","96.66","","","","-5","","NA"
"-122.60","58.84","FORT NELSON A","1192946","2020-10-27 22:00","2020","10","27","22:00","-5.4","","-6.0","","95","","","M","21","","5","","24.1","","96.65","","","","-8","","Mainly Clear"
"-122.60","58.84","FORT NELSON A","1192946","2020-10-27 23:00","2020","10","27","23:00","-4.4","","-4.8","","96","","","M","16","","5","","24.1","","96.65","","","","-7","","NA"
"-122.60","58.84","FORT NELSON A","1192946","2020-10-28 00:00","2020","10","28","00:00","-4.0","","-4.5","","96","","","M","17","","11","","","M","96.64","","","","-8","","NA"
"-122.60","58.84","FORT NELSON A","1192946","2020-10-28 01:00","2020","10","28","01:00","-4.6","","-5.2","","95","","","M","17","","12","","24.1","","96.65","","","","-9","","Mostly Cloudy"
"-122.60","58.84","FORT NELSON A","1192946","2020-10-28 02:00","2020","10","28","02:00","-4.4","","-5.1","","95","","","M","19","","4","","24.1","","96.70","","","","-6","","NA"
"-122.60","58.84","FORT NELSON A","1192946","2020-10-28 03:00","2020","10","28","03:00","-4.8","","-5.4","","96","","","M","36","","4","","24.1","","96.72","","","","-7","","NA"
"-122.60","58.84","FORT NELSON A","1192946","2020-10-28 04:00","2020","10","28","04:00","-4.9","","-5.5","","96","","","M","34","","4","","","M","96.73","","","","-7","","Mostly Cloudy"
"-122.60","58.84","FORT NELSON A","1192946","2020-10-28 05:00","2020","10","28","05:00","-5.3","","-6.0","","94","","","M","36","","3","","24.1","","96.74","","","","-7","","NA"
"-122.60","58.84","FORT NELSON A","1192946","2020-10-28 06:00","2020","10","28","06:00","-5.3","","-6.0","","95","","","M","35","","4","","24.1","","96.74","","","","-7","","NA"
"-122.60","58.84","FORT NELSON A","1192946","2020-10-28 07:00","2020","10","28","07:00","-5.5","","-6.2","","94","","","M","27","","3","","48.3","","96.74","","","","-7","","Cloudy"
"-122.60","58.84","FORT NELSON A","1192946","2020-10-28 08:00","2020","10","28","08:00","-5.3","","-6.0","","95","","","M","23","","3","","48.3","","96.72","","","","-7","","NA"
"-122.60","58.84","FORT NELSON A","1192946","2020-10-28 09:00","2020","10","28","09:00","-4.7","","-5.4","","95","","","M","2","","3","","48.3","","96.72","","","","-6","","NA"
"-122.60","58.84","FORT NELSON A","1192946","2020-10-28 10:00","2020","10","28","10:00","-4.1","","-4.8","","95","","","M","0","","1","","48.3","","96.72","","","","-5","","Mostly Cloudy"
"-122.60","58.84","FORT NELSON A","1192946","2020-10-28 11:00","2020","10","28","11:00","-3.2","","-4.0","","94","","","M","36","","2","","48.3","","96.71","","","","-4","","NA"
"-122.60","58.84","FORT NELSON A","1192946","2020-10-28 12:00","2020","10","28","12:00","-2.0","","-3.2","","92","","","M","36","","2","","48.3","","96.69","","","","-3","","NA"
"-122.60","58.84","FORT NELSON A","1192946","2020-10-28 13:00","2020","10","28","13:00","-1.2","","-2.5","","90","","","M","36","","3","","48.3","","96.64","","","","-2","","Mostly Cloudy"
"-122.60","58.84","FORT NELSON A","1192946","2020-10-28 14:00","2020","10","28","14:00","0.1","","-1.8","","87","","","M","36","","3","","48.3","","96.60","","","","","","NA"
"-122.60","58.84","FORT NELSON A","1192946","2020-10-28 15:00","2020","10","28","15:00","1.3","","-1.6","","81","","","M","5","","3","","48.3","","96.58","","","","","","NA"
"-122.60","58.84","FORT NELSON A","1192946","2020-10-28 16:00","2020","10","28","16:00","0.9","","-1.8","","82","","","M","36","","1","","48.3","","96.54","","","","","","Mostly Cloudy"
"-122.60","58.84","FORT NELSON A","1192946","2020-10-28 17:00","2020","10","28","17:00","-1.8","","-2.4","","96","","","M","36","","2","","48.3","","96.53","","","","-3","","NA"
"-122.60","58.84","FORT NELSON A","1192946","2020-10-28 18:00","2020","10","28","18:00","-2.3","","-2.9","","96","","","M","31","","5","","24.1","","96.53","","","","-4","","NA"
"-122.60","58.84","FORT NELSON A","1192946","2020-10-28 19:00","2020","10","28","19:00","-1.6","","-2.7","","92","","","M","33","","8","","24.1","","96.55","","","","-5","","Cloudy"
"-122.60","58.84","FORT NELSON A","1192946","2020-10-28 20:00","2020","10","28","20:00","-2.0","","-3.8","","87","","","M","","","","M","24.1","","","M","","","","","NA"
"-122.60","58.84","FORT NELSON A","1192946","2020-10-28 21:00","2020","10","28","21:00","-1.4","","-3.0","","89","","","M","2","","6","","24.1","","96.61","","","","-4","","NA"
"-122.60","58.84","FORT NELSON A","1192946","2020-10-28 22:00","2020","10","28","22:00","-1.7","","-3.2","","89","","","M","31","","5","","24.1","","96.69","","","","-4","","Mostly Cloudy"
"-122.60","58.84","FORT NELSON A","1192946","2020-10-28 23:00","2020","10","28","23:00","-1.4","","-3.3","","87","","","M","31","","10","","24.1","","96.78","","","","-5","","NA"
"-122.60","58.84","FORT NELSON A","1192946","2020-10-29 00:00","2020","10","29","00:00","-3.0","","-3.6","","95","","","M","3","","10","","24.1","","96.81","","","","-7","","NA"
"-122.60","58.84","FORT NELSON A","1192946","2020-10-29 01:00","2020","10","29","01:00","-3.7","","-4.4","","95","","","M","3","","5","","24.1","","96.88","","","","-6","","Mostly Cloudy"
"-122.60","58.84","FORT NELSON A","1192946","2020-10-29 02:00","2020","10","29","02:00","-4.0","","-4.6","","95","","","M","35","","5","","24.1","","96.95","","","","-6","","NA"
"-122.60","58.84","FORT NELSON A","1192946","2020-10-29 03:00","2020","10","29","03:00","-4.1","","-5.1","","93","","","M","1","","4","","24.1","","96.99","","","","-6","","NA"
"-122.60","58.84","FORT NELSON A","1192946","2020-10-29 04:00","2020","10","29","04:00","-4.5","","-5.2","","95","","","M","4","","5","","24.1","","97.02","","","","-7","","Mostly Cloudy"
"-122.60","58.84","FORT NELSON A","1192946","2020-10-29 05:00","2020","10","29","05:00","-5.1","","-5.6","","96","","","M","1","","6","","24.1","","97.05","","","","-8","","NA"
"-122.60","58.84","FORT NELSON A","1192946","2020-10-29 06:00","2020","10","29","06:00","-4.9","","-5.6","","95","","","M","1","","6","","24.1","","97.07","","","","-8","","NA"
"-122.60","58.84","FORT NELSON A","1192946","2020-10-29 07:00","2020","10","29","07:00","-5.0","","-5.6","","96","","","M","7","","5","","48.3","","97.09","","","","-7","","Mostly Cloudy"
"-122.60","58.84","FORT NELSON A","1192946","2020-10-29 08:00","2020","10","29","08:00","-5.3","","-6.0","","95","","","M","3","","7","","24.1","","97.08","","","","-9","","NA"
"-122.60","58.84","FORT NELSON A","1192946","2020-10-29 09:00","2020","10","29","09:00","-5.0","","-5.6","","96","","","M","7","","6","","12.9","","97.08","","","","-8","","NA"
"-122.60","58.84","FORT NELSON A","1192946","2020-10-29 10:00","2020","10","29","10:00","-4.3","","-4.9","","96","","","M","36","","3","","12.9","","97.05","","","","-6","","Cloudy"
"-122.60","58.84","FORT NELSON A","1192946","2020-10-29 11:00","2020","10","29","11:00","-3.6","","-4.2","","95","","","M","8","","4","","12.9","","97.00","","","","-5","","NA"
"-122.60","58.84","FORT NELSON A","1192946","2020-10-29 12:00","2020","10","29","12:00","-2.9","","-3.7","","95","","","M","4","","3","","9.7","","96.95","","","","-4","","Fog"
"-122.60","58.84","FORT NELSON A","1192946","2020-10-29 13:00","2020","10","29","13:00","-2.2","","-3.2","","92","","","M","2","","8","","9.7","","96.87","","","","-5","","Fog"
"-122.60","58.84","FORT NELSON A","1192946","2020-10-29 14:00","2020","10","29","14:00","-1.7","","-3.0","","91","","","M","2","","5","","16.1","","96.79","","","","-4","","NA"
"-122.60","58.84","FORT NELSON A","1192946","2020-10-29 15:00","2020","10","29","15:00","-1.5","","-3.0","","90","","","M","1","","5","","24.1","","96.72","","","","-3","","NA"
"-122.60","58.84","FORT NELSON A","1192946","2020-10-29 16:00","2020","10","29","16:00","-1.6","","-3.1","","90","","","M","1","","7","","24.1","","96.68","","","","-4","","Mostly Cloudy"
"-122.60","58.84","FORT NELSON A","1192946","2020-10-29 17:00","2020","10","29","17:00","-2.6","","-3.7","","92","","","M","32","","8","","24.1","","96.63","","","","-6","","NA"
"-122.60","58.84","FORT NELSON A","1192946","2020-10-29 18:00","2020","10","29","18:00","-3.7","","-4.4","","95","","","M","32","","9","","24.1","","96.57","","","","-7","","NA"
"-122.60","58.84","FORT NELSON A","1192946","2020-10-29 19:00","2020","10","29","19:00","-2.9","","-3.5","","95","","","M","30","","10","","16.1","","96.55","","","","-7","","Cloudy"
"-122.60","58.84","FORT NELSON A","1192946","2020-10-29 20:00","2020","10","29","20:00","-3.2","","-3.6","","97","","","M","36","","2","","8.1","","96.52","","","","-4","","Fog"
"-122.60","58.84","FORT NELSON A","1192946","2020-10-29 21:00","2020","10","29","21:00","-2.9","","-3.5","","96","","","M","35","","7","","12.9","","96.46","","","","-6","","NA"
"-122.60","58.84","FORT NELSON A","1192946","2020-10-29 22:00","2020","10","29","22:00","-2.9","","-3.8","","94","","","M","36","","5","","12.9","","96.37","","","","-5","","Cloudy"
"-122.60","58.84","FORT NELSON A","1192946","2020-10-29 23:00","2020","10","29","23:00","-3.2","","-4.0","","94","","","M","32","","5","","1.6","","96.31","","","","-5","","Snow"
"-122.60","58.84","FORT NELSON A","1192946","2020-10-30 00:00","2020","10","30","00:00","-3.4","","-4.5","","92","","","M","31","","5","","8.1","","96.29","","","","-5","","Snow"
"-122.60","58.84","FORT NELSON A","1192946","2020-10-30 01:00","2020","10","30","01:00","-3.7","","-4.7","","93","","","M","32","","4","","8.1","","96.22","","","","-5","","Snow"
"-122.60","58.84","FORT NELSON A","1192946","2020-10-30 02:00","2020","10","30","02:00","-3.9","","-4.5","","95","","","M","36","","10","","4.8","","96.15","","","","-8","","Snow"
"-122.60","58.84","FORT NELSON A","1192946","2020-10-30 03:00","2020","10","30","03:00","-4.1","","-4.7","","96","","","M","35","","7","","4.8","","96.08","","","","-7","","Snow"
"-122.60","58.84","FORT NELSON A","1192946","2020-10-30 04:00","2020","10","30","04:00","-4.3","","-5.0","","95","","","M","32","","10","","4.8","","96.07","","","","-8","","Snow"
"-122.60","58.84","FORT NELSON A","1192946","2020-10-30 05:00","2020","10","30","05:00","-5.0","","-5.8","","94","","","M","29","","11","","4.8","","96.05","","","","-10","","Snow"
"-122.60","58.84","FORT NELSON A","1192946","2020-10-30 06:00","2020","10","30","06:00","-5.4","","-6.1","","95","","","M","31","","14","","4.8","","96.03","","","","-11","","Snow"
"-122.60","58.84","FORT NELSON A","1192946","2020-10-30 07:00","2020","10","30","07:00","-5.7","","-6.6","","93","","","M","31","","16","","3.2","","96.05","","","","-12","","Freezing Drizzle,Snow,Fog"
"-122.60","58.84","FORT NELSON A","1192946","2020-10-30 08:00","2020","10","30","08:00","-5.8","","-6.9","","92","","","M","30","","13","","2.4","","96.07","","","","-11","","Freezing Drizzle,Snow,Fog"
"-122.60","58.84","FORT NELSON A","1192946","2020-10-30 09:00","2020","10","30","09:00","-5.9","","-7.2","","91","","","M","30","","13","","1.6","","96.08","","","","-11","","Snow,Fog"
"-122.60","58.84","FORT NELSON A","1192946","2020-10-30 10:00","2020","10","30","10:00","-5.7","","-7.1","","90","","","M","31","","17","","3.2","","96.14","","","","-12","","Snow,Fog"
"-122.60","58.84","FORT NELSON A","1192946","2020-10-30 11:00","2020","10","30","11:00","-5.5","","-7.4","","87","","","M","30","","15","","4.8","","96.21","","","","-11","","Snow,Fog"
"-122.60","58.84","FORT NELSON A","1192946","2020-10-30 12:00","2020","10","30","12:00","-5.4","","-7.5","","85","","","M","31","","12","","6.4","","96.24","","","","-10","","Snow,Fog"
"-122.60","58.84","FORT NELSON A","1192946","2020-10-30 13:00","2020","10","30","13:00","-5.4","","-7.9","","82","","","M","29","","13","","24.1","","96.27","","","","-11","","Snow"
"-122.60","58.84","FORT NELSON A","1192946","2020-10-30 14:00","2020","10","30","14:00","-5.3","","-7.6","","84","","","M","30","","14","","24.1","","96.30","","","","-11","","NA"
"-122.60","58.84","FORT NELSON A","1192946","2020-10-30 15:00","2020","10","30","15:00","-5.4","","-7.5","","86","","","M","31","","9","","24.1","","96.38","","","","-9","","NA"
"-122.60","58.84","FORT NELSON A","1192946","2020-10-30 16:00","2020","10","30","16:00","-5.6","","-7.6","","86","","","M","32","","7","","24.1","","96.44","","","","-9","","Mostly Cloudy"
"-122.60","58.84","FORT NELSON A","1192946","2020-10-30 17:00","2020","10","30","17:00","-6.0","","-7.5","","89","","","M","36","","2","","24.1","","96.51","","","","-7","","NA"
"-122.60","58.84","FORT NELSON A","1192946","2020-10-30 18:00","2020","10","30","18:00","-7.5","","-8.3","","94","","","M","14","","6","","24.1","","96.55","","","","-11","","NA"
"-122.60","58.84","FORT NELSON A","1192946","2020-10-30 19:00","2020","10","30","19:00","-9.8","","-11.0","","91","","","M","16","","5","","24.1","","96.57","","","","-13","","Mainly Clear"
"-122.60","58.84","FORT NELSON A","1192946","2020-10-30 20:00","2020","10","30","20:00","-9.2","","-9.9","","94","","","M","14","","8","","24.1","","96.57","","","","-14","","NA"
"-122.60","58.84","FORT NELSON A","1192946","2020-10-30 21:00","2020","10","30","21:00","-10.2","","-11.0","","94","","","M","15","","8","","24.1","","96.53","","","","-15","","NA"
"-122.60","58.84","FORT NELSON A","1192946","2020-10-30 22:00","2020","10","30","22:00","-9.8","","-10.8","","92","","","M","19","","6","","24.1","","96.56","","","","-13","","Clear"
"-122.60","58.84","FORT NELSON A","1192946","2020-10-30 23:00","2020","10","30","23:00","-9.2","","-10.0","","94","","","M","17","","8","","24.1","","96.54","","","","-14","","NA"
"-122.60","58.84","FORT NELSON A","1192946","2020-10-31 00:00","2020","10","31","00:00","-8.7","","-9.9","","91","","","M","16","","9","","24.1","","96.53","","","","-13","","NA"
"-122.60","58.84","FORT NELSON A","1192946","2020-10-31 01:00","2020","10","31","01:00","-9.2","","-10.4","","91","","","M","15","","10","","24.1","","96.53","","","","-14","","Mostly Cloudy"
"-122.60","58.84","FORT NELSON A","1192946","2020-10-31 02:00","2020","10","31","02:00","-9.4","","-10.6","","91","","","M","14","","7","","24.1","","96.50","","","","-13","","NA"
"-122.60","58.84","FORT NELSON A","1192946","2020-10-31 03:00","2020","10","31","03:00","-9.2","","-10.5","","90","","","M","14","","8","","24.1","","96.48","","","","-14","","NA"
"-122.60","58.84","FORT NELSON A","1192946","2020-10-31 04:00","2020","10","31","04:00","-8.7","","-10.1","","89","","","M","36","","2","","24.1","","96.46","","","","-10","","Mostly Cloudy"
"-122.60","58.84","FORT NELSON A","1192946","2020-10-31 05:00","2020","10","31","05:00","-8.4","","-9.8","","90","","","M","4","","3","","24.1","","96.44","","","","-10","","NA"
"-122.60","58.84","FORT NELSON A","1192946","2020-10-31 06:00","2020","10","31","06:00","-9.0","","-10.3","","91","","","M","15","","3","","24.1","","96.41","","","","-11","","NA"
"-122.60","58.84","FORT NELSON A","1192946","2020-10-31 07:00","2020","10","31","07:00","-9.8","","-11.0","","91","","","M","22","","3","","32.2","","96.39","","","","-12","","Mostly Cloudy"
"-122.60","58.84","FORT NELSON A","1192946","2020-10-31 08:00","2020","10","31","08:00","-10.0","","-11.5","","89","","","M","22","","3","","32.2","","96.34","","","","-12","","NA"
"-122.60","58.84","FORT NELSON A","1192946","2020-10-31 09:00","2020","10","31","09:00","-10.0","","-11.2","","91","","","M","20","","5","","48.3","","96.30","","","","-13","","NA"
"-122.60","58.84","FORT NELSON A","1192946","2020-10-31 10:00","2020","10","31","10:00","-7.9","","-9.3","","90","","","M","19","","5","","48.3","","96.27","","","","-11","","Mostly Cloudy"
"-122.60","58.84","FORT NELSON A","1192946","2020-10-31 11:00","2020","10","31","11:00","-6.9","","-8.4","","89","","","M","20","","5","","48.3","","96.26","","","","-9","","NA"
"-122.60","58.84","FORT NELSON A","1192946","2020-10-31 12:00","2020","10","31","12:00","-5.9","","-7.1","","91","","","M","23","","10","","48.3","","96.23","","","","-10","","NA"
"-122.60","58.84","FORT NELSON A","1192946","2020-10-31 13:00","2020","10","31","13:00","-4.4","","-5.8","","90","","","M","19","","6","","48.3","","96.10","","","","-7","","Cloudy"
"-122.60","58.84","FORT NELSON A","1192946","2020-10-31 14:00","2020","10","31","14:00","-3.2","","-4.7","","89","","","M","20","","5","","48.3","","96.05","","","","-5","","NA"
"-122.60","58.84","FORT NELSON A","1192946","2020-10-31 15:00","2020","10","31","15:00","-2.7","","-4.4","","88","","","M","23","","4","","48.3","","96.00","","","","-4","","NA"
"-122.60","58.84","FORT NELSON A","1192946","2020-10-31 16:00","2020","10","31","16:00","-3.3","","-4.5","","91","","","M","21","","8","","48.3","","95.91","","","","-7","","Mostly Cloudy"
"-122.60","58.84","FORT NELSON A","1192946","2020-10-31 17:00","2020","10","31","17:00","-4.9","","-5.6","","95","","","M","19","","6","","48.3","","95.84","","","","-8","","NA"
"-122.60","58.84","FORT NELSON A","1192946","2020-10-31 18:00","2020","10","31","18:00","-5.7","","-6.4","","95","","","M","18","","8","","24.1","","95.77","","","","-9","","NA"
"-122.60","58.84","FORT NELSON A","1192946","2020-10-31 19:00","2020","10","31","19:00","-6.1","","-6.9","","94","","","M","16","","4","","24.1","","95.74","","","","-8","","Mainly Clear"
"-122.60","58.84","FORT NELSON A","1192946","2020-10-31 20:00","2020","10","31","20:00","-6.3","","-7.5","","91","","","M","15","","4","","24.1","","95.69","","","","-8","","NA"
"-122.60","58.84","FORT NELSON A","1192946","2020-10-31 21:00","2020","10","31","21:00","-6.3","","-7.5","","91","","","M","9","","7","","24.1","","95.71","","","","-10","","NA"
"-122.60","58.84","FORT NELSON A","1192946","2020-10-31 22:00","2020","10","31","22:00","-6.3","","-7.3","","93","","","M","10","","1","","","M","95.65","","","","-7","","Mostly Cloudy"
"-122.60","58.84","FORT NELSON A","1192946","2020-10-31 23:00","2020","10","31","23:00","-5.7","","-6.8","","92","","","M","1","","4","","","M","95.64","","","","-8","","NA"
