"Longitude (x)","Latitude (y)","Station Name","Climate ID","Date/Time (LST)","Year","Month","Day","Time (LST)","Temp (°C)","Temp Flag","Dew Point Temp (°C)","Dew Point Temp Flag","Rel Hum (%)","Rel Hum Flag","Precip. Amount (mm)","Precip. Amount Flag","Wind Dir (10s deg)","Wind Dir Flag","Wind Spd (km/h)","Wind Spd Flag","Visibility (km)","Visibility Flag","Stn Press (kPa)","Stn Press Flag","Hmdx","Hmdx Flag","Wind Chill","Wind Chill Flag","Weather"
"-72.52","46.35","TROIS-RIVIERES","7018562","2022-01-01 00:00","2022","01","01","00:00","-1.0","","-2.3","","91","","","","2","","4","","","","101.18","","","","-2","","NA"
"-72.52","46.35","TROIS-RIVIERES","7018562","2022-01-01 01:00","2022","01","01","01:00","-0.8","","-1.9","","92","","","","8","","8","","","","101.16","","","","-4","","NA"
"-72.52","46.35","TROIS-RIVIERES","7018562","2022-01-01 02:00","2022","01","01","02:00","-0.7","","-1.8","","92","","","","7","","4","","","","101.17","","","","-2","","NA"
"-72.52","46.35","TROIS-RIVIERES","7018562","2022-01-01 03:00","2022","01","01","03:00","-0.7","","-1.4","","95","","","","6","","10","","","","101.10","","","","-4","","NA"
"-72.52","46.35","TROIS-RIVIERES","7018562","2022-01-01 04:00","2022","01","01","04:00","-0.9","","-1.7","","95","","","","32","","4","","","","101.09","","","","-2","","NA"
"-72.52","46.35","TROIS-RIVIERES","7018562","2022-01-01 05:00","2022","01","01","05:00","-1.0","","-1.4","","97","","","","2","","5","","","","101.04","","","","-3","","NA"
"-72.52","46.35","TROIS-RIVIERES","7018562","2022-01-01 06:00","2022","01","01","06:00","-0.8","","-1.1","","98","","","","4","","6","","","","100.95","","","","-3","","NA"
"-72.52","46.35","TROIS-RIVIERES","7018562","2022-01-01 07:00","2022","01","01","07:00","-0.4","","-0.6","","98","","","","7","","10","","","","100.86","","","","-4","","NA"
"-72.52","46.35","TROIS-RIVIERES","7018562","2022-01-01 08:00","2022","01","01","08:00","-0.3","","-0.6","","98","","","","4","","7","","","","100.72","","","","-3","","NA"
"-72.52","46.35","TROIS-RIVIERES","7018562","2022-01-01 09:00","2022","01","01","09:00","0.1","","-0.2","","98","","","","3","","12","","","","100.68","","","","","","NA"
"-72.52","46.35","TROIS-RIVIERES","7018562","2022-01-01 10:00","2022","01","01","10:00","0.4","","0.1","","98","","","","35","","8","","","","100.76","","","","","","NA"
"-72.52","46.35","TROIS-RIVIERES","7018562","2022-01-01 11:00","2022","01","01","11:00","0.5","","-0.1","","96","","","","35","","9","","","","100.73","","","","","","NA"
"-72.52","46.35","TROIS-RIVIERES","7018562","2022-01-01 12:00","2022","01","01","12:00","0.6","","0.0","","95","","","","8","","10","","","","100.56","","","","","","NA"
"-72.52","46.35","TROIS-RIVIERES","7018562","2022-01-01 13:00","2022","01","01","13:00","0.9","","0.3","","96","","","","36","","3","","","","100.59","","","","","","NA"
"-72.52","46.35","TROIS-RIVIERES","7018562","2022-01-01 14:00","2022","01","01","14:00","1.0","","0.4","","95","","","","32","","4","","","","100.57","","","","","","NA"
"-72.52","46.35","TROIS-RIVIERES","7018562","2022-01-01 15:00","2022","01","01","15:00","1.2","","0.8","","97","","","","31","","6","","","","100.61","","","","","","NA"
"-72.52","46.35","TROIS-RIVIERES","7018562","2022-01-01 16:00","2022","01","01","16:00","1.3","","0.9","","97","","","","32","","3","","","","100.66","","","","","","NA"
"-72.52","46.35","TROIS-RIVIERES","7018562","2022-01-01 17:00","2022","01","01","17:00","1.3","","0.8","","96","","","","30","","4","","","","100.67","","","","","","NA"
"-72.52","46.35","TROIS-RIVIERES","7018562","2022-01-01 18:00","2022","01","01","18:00","1.0","","0.5","","97","","","","23","","2","","","","100.68","","","","","","NA"
"-72.52","46.35","TROIS-RIVIERES","7018562","2022-01-01 19:00","2022","01","01","19:00","0.9","","-0.9","","87","","","","33","","19","","","","100.79","","","","","","NA"
"-72.52","46.35","TROIS-RIVIERES","7018562","2022-01-01 20:00","2022","01","01","20:00","-0.1","","-4.0","","75","","","","33","","17","","","","100.81","","","","-5","","NA"
"-72.52","46.35","TROIS-RIVIERES","7018562","2022-01-01 21:00","2022","01","01","21:00","-0.8","","-4.9","","74","","","","34","","16","","","","100.82","","","","-6","","NA"
"-72.52","46.35","TROIS-RIVIERES","7018562","2022-01-01 22:00","2022","01","01","22:00","-1.3","","-5.0","","76","","","","33","","15","","","","100.85","","","","-6","","NA"
"-72.52","46.35","TROIS-RIVIERES","7018562","2022-01-01 23:00","2022","01","01","23:00","-2.0","","-5.8","","75","","","","34","","16","","","","100.88","","","","-7","","NA"
"-72.52","46.35","TROIS-RIVIERES","7018562","2022-01-02 00:00","2022","01","02","00:00","-2.7","","-6.3","","76","","","","33","","17","","","","100.87","","","","-8","","NA"
"-72.52","46.35","TROIS-RIVIERES","7018562","2022-01-02 01:00","2022","01","02","01:00","-4.8","","-8.7","","74","","","","33","","18","","","","100.85","","","","-11","","NA"
"-72.52","46.35","TROIS-RIVIERES","7018562","2022-01-02 02:00","2022","01","02","02:00","-5.7","","-10.5","","69","","","","34","","13","","","","100.87","","","","-11","","NA"
"-72.52","46.35","TROIS-RIVIERES","7018562","2022-01-02 03:00","2022","01","02","03:00","-7.3","","-13.1","","63","","","","33","","21","","","","100.91","","","","-15","","NA"
"-72.52","46.35","TROIS-RIVIERES","7018562","2022-01-02 04:00","2022","01","02","04:00","-9.0","","-11.5","","82","","","","35","","16","","","","100.93","","","","-16","","NA"
"-72.52","46.35","TROIS-RIVIERES","7018562","2022-01-02 05:00","2022","01","02","05:00","-9.7","","-13.4","","74","","","","34","","12","","","","100.89","","","","-16","","NA"
"-72.52","46.35","TROIS-RIVIERES","7018562","2022-01-02 06:00","2022","01","02","06:00","-10.1","","-14.4","","71","","","","35","","17","","","","100.85","","","","-17","","NA"
"-72.52","46.35","TROIS-RIVIERES","7018562","2022-01-02 07:00","2022","01","02","07:00","-10.6","","-13.6","","78","","","","34","","16","","","","100.91","","","","-18","","NA"
"-72.52","46.35","TROIS-RIVIERES","7018562","2022-01-02 08:00","2022","01","02","08:00","-11.4","","-14.7","","76","","","","33","","18","","","","100.98","","","","-19","","NA"
"-72.52","46.35","TROIS-RIVIERES","7018562","2022-01-02 09:00","2022","01","02","09:00","-11.3","","-14.1","","80","","","","35","","15","","","","100.97","","","","-18","","NA"
"-72.52","46.35","TROIS-RIVIERES","7018562","2022-01-02 10:00","2022","01","02","10:00","-11.6","","-13.9","","83","","","","35","","15","","","","101.06","","","","-19","","NA"
"-72.52","46.35","TROIS-RIVIERES","7018562","2022-01-02 11:00","2022","01","02","11:00","-11.2","","-14.2","","79","","","","35","","12","","","","101.02","","","","-17","","NA"
"-72.52","46.35","TROIS-RIVIERES","7018562","2022-01-02 12:00","2022","01","02","12:00","-10.8","","-14.6","","73","","","","33","","15","","","","100.96","","","","-18","","NA"
"-72.52","46.35","TROIS-RIVIERES","7018562","2022-01-02 13:00","2022","01","02","13:00","-10.3","","-16.1","","62","","","","33","","19","","","","100.98","","","","-18","","NA"
"-72.52","46.35","TROIS-RIVIERES","7018562","2022-01-02 14:00","2022","01","02","14:00","-10.1","","-16.6","","59","","","","32","","16","","","","101.00","","","","-17","","NA"
"-72.52","46.35","TROIS-RIVIERES","7018562","2022-01-02 15:00","2022","01","02","15:00","-9.9","","-16.5","","59","","","","33","","18","","","","101.10","","","","-17","","NA"
"-72.52","46.35","TROIS-RIVIERES","7018562","2022-01-02 16:00","2022","01","02","16:00","-10.2","","-17.0","","58","","","","35","","13","","","","101.20","","","","-16","","NA"
"-72.52","46.35","TROIS-RIVIERES","7018562","2022-01-02 17:00","2022","01","02","17:00","-10.5","","-17.4","","57","","","","32","","17","","","","101.31","","","","-18","","NA"
"-72.52","46.35","TROIS-RIVIERES","7018562","2022-01-02 18:00","2022","01","02","18:00","-10.8","","-17.0","","60","","","","32","","14","","","","101.40","","","","-17","","NA"
"-72.52","46.35","TROIS-RIVIERES","7018562","2022-01-02 19:00","2022","01","02","19:00","-11.6","","-17.9","","60","","","","31","","13","","","","101.54","","","","-18","","NA"
"-72.52","46.35","TROIS-RIVIERES","7018562","2022-01-02 20:00","2022","01","02","20:00","-12.3","","-18.9","","57","","","","29","","11","","","","101.67","","","","-18","","NA"
"-72.52","46.35","TROIS-RIVIERES","7018562","2022-01-02 21:00","2022","01","02","21:00","-13.0","","-18.9","","61","","","","29","","10","","","","101.77","","","","-19","","NA"
"-72.52","46.35","TROIS-RIVIERES","7018562","2022-01-02 22:00","2022","01","02","22:00","-13.8","","-18.9","","65","","","","29","","8","","","","101.87","","","","-19","","NA"
"-72.52","46.35","TROIS-RIVIERES","7018562","2022-01-02 23:00","2022","01","02","23:00","-14.1","","-19.9","","62","","","","32","","14","","","","101.93","","","","-22","","NA"
"-72.52","46.35","TROIS-RIVIERES","7018562","2022-01-03 00:00","2022","01","03","00:00","-15.2","","-20.6","","63","","","","31","","14","","","","102.05","","","","-23","","NA"
"-72.52","46.35","TROIS-RIVIERES","7018562","2022-01-03 01:00","2022","01","03","01:00","-16.3","","-22.1","","61","","","","30","","13","","","","102.16","","","","-24","","NA"
"-72.52","46.35","TROIS-RIVIERES","7018562","2022-01-03 02:00","2022","01","03","02:00","-17.1","","-22.9","","61","","","","32","","14","","","","102.24","","","","-25","","NA"
"-72.52","46.35","TROIS-RIVIERES","7018562","2022-01-03 03:00","2022","01","03","03:00","-18.0","","-23.4","","63","","","","32","","10","","","","102.40","","","","-25","","NA"
"-72.52","46.35","TROIS-RIVIERES","7018562","2022-01-03 04:00","2022","01","03","04:00","-18.5","","-23.7","","63","","","","27","","5","","","","102.46","","","","-23","","NA"
"-72.52","46.35","TROIS-RIVIERES","7018562","2022-01-03 05:00","2022","01","03","05:00","-19.0","","-23.8","","66","","","","30","","11","","","","102.54","","","","-26","","NA"
"-72.52","46.35","TROIS-RIVIERES","7018562","2022-01-03 06:00","2022","01","03","06:00","-19.6","","-24.1","","67","","","","27","","5","","","","102.69","","","","-24","","NA"
"-72.52","46.35","TROIS-RIVIERES","7018562","2022-01-03 07:00","2022","01","03","07:00","-20.0","","-24.2","","69","","","","28","","5","","","","102.75","","","","-24","","NA"
"-72.52","46.35","TROIS-RIVIERES","7018562","2022-01-03 08:00","2022","01","03","08:00","-19.8","","-24.3","","68","","","","31","","11","","","","102.76","","","","-27","","NA"
"-72.52","46.35","TROIS-RIVIERES","7018562","2022-01-03 09:00","2022","01","03","09:00","-19.4","","-24.9","","62","","","","32","","13","","","","102.81","","","","-28","","NA"
"-72.52","46.35","TROIS-RIVIERES","7018562","2022-01-03 10:00","2022","01","03","10:00","-18.7","","-25.4","","55","","","","33","","9","","","","102.85","","","","-25","","NA"
"-72.52","46.35","TROIS-RIVIERES","7018562","2022-01-03 11:00","2022","01","03","11:00","-17.6","","-25.3","","51","","","","30","","7","","","","102.81","","","","-23","","NA"
"-72.52","46.35","TROIS-RIVIERES","7018562","2022-01-03 12:00","2022","01","03","12:00","-16.7","","-25.3","","47","","","","29","","5","","","","102.73","","","","-21","","NA"
"-72.52","46.35","TROIS-RIVIERES","7018562","2022-01-03 13:00","2022","01","03","13:00","-15.4","","-22.2","","56","","","","20","","10","","","","102.71","","","","-22","","NA"
"-72.52","46.35","TROIS-RIVIERES","7018562","2022-01-03 14:00","2022","01","03","14:00","-15.3","","-20.6","","64","","","","19","","16","","","","102.66","","","","-24","","NA"
"-72.52","46.35","TROIS-RIVIERES","7018562","2022-01-03 15:00","2022","01","03","15:00","-14.3","","-21.3","","56","","","","22","","9","","","","102.61","","","","-20","","NA"
"-72.52","46.35","TROIS-RIVIERES","7018562","2022-01-03 16:00","2022","01","03","16:00","-15.0","","-19.1","","71","","","","17","","20","","","","102.65","","","","-24","","NA"
"-72.52","46.35","TROIS-RIVIERES","7018562","2022-01-03 17:00","2022","01","03","17:00","-15.0","","-18.5","","75","","","","19","","14","","","","102.69","","","","-23","","NA"
"-72.52","46.35","TROIS-RIVIERES","7018562","2022-01-03 18:00","2022","01","03","18:00","-16.5","","-20.7","","70","","","","27","","6","","","","102.65","","","","-21","","NA"
"-72.52","46.35","TROIS-RIVIERES","7018562","2022-01-03 19:00","2022","01","03","19:00","-17.6","","-21.5","","72","","","","30","","7","","","","102.66","","","","-23","","NA"
"-72.52","46.35","TROIS-RIVIERES","7018562","2022-01-03 20:00","2022","01","03","20:00","-16.8","","-20.9","","70","","","","30","","4","","","","102.64","","","","-20","","NA"
"-72.52","46.35","TROIS-RIVIERES","7018562","2022-01-03 21:00","2022","01","03","21:00","-16.8","","-20.4","","74","","","","29","","4","","","","102.64","","","","-20","","NA"
"-72.52","46.35","TROIS-RIVIERES","7018562","2022-01-03 22:00","2022","01","03","22:00","-16.6","","-18.8","","83","","","","21","","8","","","","102.61","","","","-22","","NA"
"-72.52","46.35","TROIS-RIVIERES","7018562","2022-01-03 23:00","2022","01","03","23:00","-16.5","","-18.4","","86","","","","17","","12","","","","102.58","","","","-24","","NA"
"-72.52","46.35","TROIS-RIVIERES","7018562","2022-01-04 00:00","2022","01","04","00:00","-17.0","","-18.7","","87","","","","18","","13","","","","102.55","","","","-25","","NA"
"-72.52","46.35","TROIS-RIVIERES","7018562","2022-01-04 01:00","2022","01","04","01:00","-16.6","","-18.3","","87","","","","20","","11","","","","102.59","","","","-24","","NA"
"-72.52","46.35","TROIS-RIVIERES","7018562","2022-01-04 02:00","2022","01","04","02:00","-17.6","","-19.7","","84","","","","19","","13","","","","102.60","","","","-25","","NA"
"-72.52","46.35","TROIS-RIVIERES","7018562","2022-01-04 03:00","2022","01","04","03:00","-17.3","","-19.2","","85","","","","19","","12","","","","102.61","","","","-25","","NA"
"-72.52","46.35","TROIS-RIVIERES","7018562","2022-01-04 04:00","2022","01","04","04:00","-16.7","","-18.6","","85","","","","18","","12","","","","102.57","","","","-24","","NA"
"-72.52","46.35","TROIS-RIVIERES","7018562","2022-01-04 05:00","2022","01","04","05:00","-16.9","","-18.9","","85","","","","17","","13","","","","102.52","","","","-25","","NA"
"-72.52","46.35","TROIS-RIVIERES","7018562","2022-01-04 06:00","2022","01","04","06:00","-16.4","","-18.3","","85","","","","19","","11","","","","102.49","","","","-23","","NA"
"-72.52","46.35","TROIS-RIVIERES","7018562","2022-01-04 07:00","2022","01","04","07:00","-15.2","","-17.0","","86","","","","18","","10","","","","102.46","","","","-21","","NA"
"-72.52","46.35","TROIS-RIVIERES","7018562","2022-01-04 08:00","2022","01","04","08:00","-14.8","","-16.6","","86","","","","19","","12","","","","102.40","","","","-22","","NA"
"-72.52","46.35","TROIS-RIVIERES","7018562","2022-01-04 09:00","2022","01","04","09:00","-12.5","","-14.1","","88","","","","19","","17","","","","102.38","","","","-20","","NA"
"-72.52","46.35","TROIS-RIVIERES","7018562","2022-01-04 10:00","2022","01","04","10:00","-12.2","","-13.8","","88","","","","19","","17","","","","102.39","","","","-20","","NA"
"-72.52","46.35","TROIS-RIVIERES","7018562","2022-01-04 11:00","2022","01","04","11:00","-11.6","","-13.1","","88","","","","20","","17","","","","102.32","","","","-19","","NA"
"-72.52","46.35","TROIS-RIVIERES","7018562","2022-01-04 12:00","2022","01","04","12:00","-11.0","","-12.6","","88","","","","21","","15","","","","102.23","","","","-18","","NA"
"-72.52","46.35","TROIS-RIVIERES","7018562","2022-01-04 13:00","2022","01","04","13:00","-9.4","","-10.8","","90","","","","20","","20","","","","102.19","","","","-17","","NA"
"-72.52","46.35","TROIS-RIVIERES","7018562","2022-01-04 14:00","2022","01","04","14:00","-8.7","","-10.1","","90","","","","20","","21","","","","102.12","","","","-16","","NA"
"-72.52","46.35","TROIS-RIVIERES","7018562","2022-01-04 15:00","2022","01","04","15:00","-7.9","","-9.4","","89","","","","19","","17","","","","102.13","","","","-15","","NA"
"-72.52","46.35","TROIS-RIVIERES","7018562","2022-01-04 16:00","2022","01","04","16:00","-7.1","","-8.6","","89","","","","19","","15","","","","102.13","","","","-13","","NA"
"-72.52","46.35","TROIS-RIVIERES","7018562","2022-01-04 17:00","2022","01","04","17:00","-6.7","","-8.3","","88","","","","19","","16","","","","102.16","","","","-13","","NA"
"-72.52","46.35","TROIS-RIVIERES","7018562","2022-01-04 18:00","2022","01","04","18:00","-6.6","","-8.6","","85","","","","20","","13","","","","102.16","","","","-12","","NA"
"-72.52","46.35","TROIS-RIVIERES","7018562","2022-01-04 19:00","2022","01","04","19:00","-8.0","","-10.0","","85","","","","33","","4","","","","102.16","","","","-10","","NA"
"-72.52","46.35","TROIS-RIVIERES","7018562","2022-01-04 20:00","2022","01","04","20:00","-9.4","","-10.7","","91","","","","36","","7","","","","102.16","","","","-13","","NA"
"-72.52","46.35","TROIS-RIVIERES","7018562","2022-01-04 21:00","2022","01","04","21:00","-9.7","","-10.9","","91","","","","36","","6","","","","102.14","","","","-13","","NA"
"-72.52","46.35","TROIS-RIVIERES","7018562","2022-01-04 22:00","2022","01","04","22:00","-9.6","","-10.9","","91","","","","36","","6","","","","102.11","","","","-13","","NA"
"-72.52","46.35","TROIS-RIVIERES","7018562","2022-01-04 23:00","2022","01","04","23:00","-9.6","","-10.8","","91","","","","36","","6","","","","102.00","","","","-13","","NA"
"-72.52","46.35","TROIS-RIVIERES","7018562","2022-01-05 00:00","2022","01","05","00:00","-9.5","","-10.8","","91","","","","1","","6","","","","101.90","","","","-13","","NA"
"-72.52","46.35","TROIS-RIVIERES","7018562","2022-01-05 01:00","2022","01","05","01:00","-9.3","","-10.5","","91","","","","1","","8","","","","101.83","","","","-14","","NA"
"-72.52","46.35","TROIS-RIVIERES","7018562","2022-01-05 02:00","2022","01","05","02:00","-9.2","","-10.5","","91","","","","1","","8","","","","101.76","","","","-14","","NA"
"-72.52","46.35","TROIS-RIVIERES","7018562","2022-01-05 03:00","2022","01","05","03:00","-8.8","","-10.0","","91","","","","1","","9","","","","101.65","","","","-13","","NA"
"-72.52","46.35","TROIS-RIVIERES","7018562","2022-01-05 04:00","2022","01","05","04:00","-8.6","","-9.8","","91","","","","1","","11","","","","101.49","","","","-14","","NA"
"-72.52","46.35","TROIS-RIVIERES","7018562","2022-01-05 05:00","2022","01","05","05:00","-8.2","","-9.4","","91","","","","2","","12","","","","101.34","","","","-14","","NA"
"-72.52","46.35","TROIS-RIVIERES","7018562","2022-01-05 06:00","2022","01","05","06:00","-7.6","","-8.7","","92","","","","1","","10","","","","101.26","","","","-12","","NA"
"-72.52","46.35","TROIS-RIVIERES","7018562","2022-01-05 07:00","2022","01","05","07:00","-7.2","","-8.3","","92","","","","2","","9","","","","101.18","","","","-12","","NA"
"-72.52","46.35","TROIS-RIVIERES","7018562","2022-01-05 08:00","2022","01","05","08:00","-6.3","","-7.2","","93","","","","4","","9","","","","101.09","","","","-11","","NA"
"-72.52","46.35","TROIS-RIVIERES","7018562","2022-01-05 09:00","2022","01","05","09:00","-5.9","","-7.5","","89","","","","5","","10","","","","101.03","","","","-10","","NA"
"-72.52","46.35","TROIS-RIVIERES","7018562","2022-01-05 10:00","2022","01","05","10:00","-5.5","","-7.4","","87","","","","2","","8","","","","100.96","","","","-9","","NA"
"-72.52","46.35","TROIS-RIVIERES","7018562","2022-01-05 11:00","2022","01","05","11:00","-4.8","","-7.3","","82","","","","2","","7","","","","100.85","","","","-8","","NA"
"-72.52","46.35","TROIS-RIVIERES","7018562","2022-01-05 12:00","2022","01","05","12:00","-3.9","","-7.1","","79","","","","3","","10","","","","100.74","","","","-8","","NA"
"-72.52","46.35","TROIS-RIVIERES","7018562","2022-01-05 13:00","2022","01","05","13:00","-2.9","","-6.0","","79","","","","4","","10","","","","100.60","","","","-7","","NA"
"-72.52","46.35","TROIS-RIVIERES","7018562","2022-01-05 14:00","2022","01","05","14:00","-2.7","","-6.3","","76","","","","3","","12","","","","100.48","","","","-7","","NA"
"-72.52","46.35","TROIS-RIVIERES","7018562","2022-01-05 15:00","2022","01","05","15:00","-2.3","","-5.3","","80","","","","4","","10","","","","100.45","","","","-6","","NA"
"-72.52","46.35","TROIS-RIVIERES","7018562","2022-01-05 16:00","2022","01","05","16:00","-2.5","","-5.4","","81","","","","2","","13","","","","100.42","","","","-7","","NA"
"-72.52","46.35","TROIS-RIVIERES","7018562","2022-01-05 17:00","2022","01","05","17:00","-2.4","","-5.0","","82","","","","3","","11","","","","100.41","","","","-6","","NA"
"-72.52","46.35","TROIS-RIVIERES","7018562","2022-01-05 18:00","2022","01","05","18:00","-2.1","","-4.4","","84","","","","5","","15","","","","100.36","","","","-7","","NA"
"-72.52","46.35","TROIS-RIVIERES","7018562","2022-01-05 19:00","2022","01","05","19:00","-2.8","","-4.9","","86","","","","4","","9","","","","100.30","","","","-6","","NA"
"-72.52","46.35","TROIS-RIVIERES","7018562","2022-01-05 20:00","2022","01","05","20:00","-2.6","","-4.6","","86","","","","3","","9","","","","100.28","","","","-6","","NA"
"-72.52","46.35","TROIS-RIVIERES","7018562","2022-01-05 21:00","2022","01","05","21:00","-2.6","","-4.4","","87","","","","6","","19","","","","100.19","","","","-8","","NA"
"-72.52","46.35","TROIS-RIVIERES","7018562","2022-01-05 22:00","2022","01","05","22:00","-2.6","","-4.0","","91","","","","5","","16","","","","100.12","","","","-8","","NA"
"-72.52","46.35","TROIS-RIVIERES","7018562","2022-01-05 23:00","2022","01","05","23:00","-2.8","","-3.4","","95","","","","6","","15","","","","100.11","","","","-8","","NA"
"-72.52","46.35","TROIS-RIVIERES","7018562","2022-01-06 00:00","2022","01","06","00:00","-2.8","","-3.4","","95","","","","6","","14","","","","100.03","","","","-8","","NA"
"-72.52","46.35","TROIS-RIVIERES","7018562","2022-01-06 01:00","2022","01","06","01:00","-2.5","","-3.1","","96","","","","5","","12","","","","99.96","","","","-7","","NA"
"-72.52","46.35","TROIS-RIVIERES","7018562","2022-01-06 02:00","2022","01","06","02:00","-2.6","","-3.4","","94","","","","5","","8","","","","99.98","","","","-6","","NA"
"-72.52","46.35","TROIS-RIVIERES","7018562","2022-01-06 03:00","2022","01","06","03:00","-2.0","","-2.8","","94","","","","8","","12","","","","99.97","","","","-6","","NA"
"-72.52","46.35","TROIS-RIVIERES","7018562","2022-01-06 04:00","2022","01","06","04:00","-1.0","","-2.3","","91","","","","14","","4","","","","99.93","","","","-2","","NA"
"-72.52","46.35","TROIS-RIVIERES","7018562","2022-01-06 05:00","2022","01","06","05:00","1.0","","-2.9","","75","","","","21","","34","","","","99.92","","","","","","NA"
"-72.52","46.35","TROIS-RIVIERES","7018562","2022-01-06 06:00","2022","01","06","06:00","0.2","","-2.6","","81","","","","22","","41","","","","99.99","","","","","","NA"
"-72.52","46.35","TROIS-RIVIERES","7018562","2022-01-06 07:00","2022","01","06","07:00","-0.5","","-3.0","","83","","","","22","","41","","","","100.05","","","","-8","","NA"
"-72.52","46.35","TROIS-RIVIERES","7018562","2022-01-06 08:00","2022","01","06","08:00","-0.9","","-3.9","","80","","","","22","","38","","","","100.17","","","","-8","","NA"
"-72.52","46.35","TROIS-RIVIERES","7018562","2022-01-06 09:00","2022","01","06","09:00","-1.2","","-4.3","","80","","","","22","","43","","","","100.26","","","","-9","","NA"
"-72.52","46.35","TROIS-RIVIERES","7018562","2022-01-06 10:00","2022","01","06","10:00","-1.4","","-4.9","","77","","","","22","","37","","","","100.39","","","","-9","","NA"
"-72.52","46.35","TROIS-RIVIERES","7018562","2022-01-06 11:00","2022","01","06","11:00","-1.4","","-4.7","","78","","","","23","","30","","","","100.47","","","","-8","","NA"
"-72.52","46.35","TROIS-RIVIERES","7018562","2022-01-06 12:00","2022","01","06","12:00","-1.5","","-4.7","","79","","","","24","","17","","","","100.53","","","","-7","","NA"
"-72.52","46.35","TROIS-RIVIERES","7018562","2022-01-06 13:00","2022","01","06","13:00","-1.6","","-4.4","","81","","","","24","","16","","","","100.64","","","","-7","","NA"
"-72.52","46.35","TROIS-RIVIERES","7018562","2022-01-06 14:00","2022","01","06","14:00","-2.2","","-5.0","","81","","","","25","","9","","","","100.75","","","","-6","","NA"
"-72.52","46.35","TROIS-RIVIERES","7018562","2022-01-06 15:00","2022","01","06","15:00","-2.9","","-4.6","","88","","","","29","","5","","","","100.87","","","","-5","","NA"
"-72.52","46.35","TROIS-RIVIERES","7018562","2022-01-06 16:00","2022","01","06","16:00","-3.1","","-6.3","","79","","","","27","","9","","","","101.00","","","","-7","","NA"
"-72.52","46.35","TROIS-RIVIERES","7018562","2022-01-06 17:00","2022","01","06","17:00","-3.9","","-5.8","","87","","","","33","","9","","","","101.06","","","","-8","","NA"
"-72.52","46.35","TROIS-RIVIERES","7018562","2022-01-06 18:00","2022","01","06","18:00","-4.7","","-7.5","","81","","","","33","","9","","","","101.14","","","","-9","","NA"
"-72.52","46.35","TROIS-RIVIERES","7018562","2022-01-06 19:00","2022","01","06","19:00","-5.0","","-8.0","","79","","","","1","","7","","","","101.24","","","","-8","","NA"
"-72.52","46.35","TROIS-RIVIERES","7018562","2022-01-06 20:00","2022","01","06","20:00","-5.6","","-9.6","","73","","","","1","","7","","","","101.32","","","","-9","","NA"
"-72.52","46.35","TROIS-RIVIERES","7018562","2022-01-06 21:00","2022","01","06","21:00","-6.0","","-9.3","","77","","","","36","","8","","","","101.23","","","","-10","","NA"
"-72.52","46.35","TROIS-RIVIERES","7018562","2022-01-06 22:00","2022","01","06","22:00","-6.4","","-10.2","","75","","","","34","","5","","","","101.30","","","","-9","","NA"
"-72.52","46.35","TROIS-RIVIERES","7018562","2022-01-06 23:00","2022","01","06","23:00","-6.6","","-10.2","","76","","","","36","","4","","","","101.33","","","","-9","","NA"
"-72.52","46.35","TROIS-RIVIERES","7018562","2022-01-07 00:00","2022","01","07","00:00","-7.3","","-10.6","","78","","","","36","","7","","","","101.29","","","","-11","","NA"
"-72.52","46.35","TROIS-RIVIERES","7018562","2022-01-07 01:00","2022","01","07","01:00","-7.2","","-10.7","","76","","","","1","","7","","","","101.28","","","","-11","","NA"
"-72.52","46.35","TROIS-RIVIERES","7018562","2022-01-07 02:00","2022","01","07","02:00","-7.5","","-10.6","","78","","","","35","","7","","","","101.34","","","","-11","","NA"
"-72.52","46.35","TROIS-RIVIERES","7018562","2022-01-07 03:00","2022","01","07","03:00","-7.7","","-10.7","","79","","","","1","","7","","","","101.34","","","","-11","","NA"
"-72.52","46.35","TROIS-RIVIERES","7018562","2022-01-07 04:00","2022","01","07","04:00","-7.9","","-10.4","","82","","","","36","","5","","","","101.32","","","","-11","","NA"
"-72.52","46.35","TROIS-RIVIERES","7018562","2022-01-07 05:00","2022","01","07","05:00","-8.4","","-10.3","","86","","","","1","","8","","","","101.22","","","","-13","","NA"
"-72.52","46.35","TROIS-RIVIERES","7018562","2022-01-07 06:00","2022","01","07","06:00","-9.1","","-10.9","","87","","","","34","","9","","","","101.20","","","","-14","","NA"
"-72.52","46.35","TROIS-RIVIERES","7018562","2022-01-07 07:00","2022","01","07","07:00","-8.8","","-10.4","","88","","","","1","","5","","","","101.20","","","","-12","","NA"
"-72.52","46.35","TROIS-RIVIERES","7018562","2022-01-07 08:00","2022","01","07","08:00","-8.7","","-10.4","","88","","","","35","","11","","","","101.13","","","","-14","","NA"
"-72.52","46.35","TROIS-RIVIERES","7018562","2022-01-07 09:00","2022","01","07","09:00","-8.6","","-10.6","","85","","","","34","","9","","","","101.16","","","","-13","","NA"
"-72.52","46.35","TROIS-RIVIERES","7018562","2022-01-07 10:00","2022","01","07","10:00","-8.1","","-10.4","","83","","","","36","","8","","","","101.13","","","","-12","","NA"
"-72.52","46.35","TROIS-RIVIERES","7018562","2022-01-07 11:00","2022","01","07","11:00","-6.9","","-9.6","","81","","","","35","","6","","","","101.10","","","","-10","","NA"
"-72.52","46.35","TROIS-RIVIERES","7018562","2022-01-07 12:00","2022","01","07","12:00","-6.4","","-9.5","","79","","","","36","","9","","","","101.00","","","","-11","","NA"
"-72.52","46.35","TROIS-RIVIERES","7018562","2022-01-07 13:00","2022","01","07","13:00","-5.9","","-8.6","","81","","","","34","","6","","","","100.93","","","","-9","","NA"
"-72.52","46.35","TROIS-RIVIERES","7018562","2022-01-07 14:00","2022","01","07","14:00","-5.5","","-8.0","","83","","","","32","","8","","","","100.94","","","","-9","","NA"
"-72.52","46.35","TROIS-RIVIERES","7018562","2022-01-07 15:00","2022","01","07","15:00","-5.4","","-8.7","","77","","","","33","","9","","","","100.99","","","","-9","","NA"
"-72.52","46.35","TROIS-RIVIERES","7018562","2022-01-07 16:00","2022","01","07","16:00","-5.4","","-9.0","","76","","","","33","","9","","","","101.04","","","","-9","","NA"
"-72.52","46.35","TROIS-RIVIERES","7018562","2022-01-07 17:00","2022","01","07","17:00","-7.0","","-10.7","","75","","","","30","","8","","","","101.09","","","","-11","","NA"
"-72.52","46.35","TROIS-RIVIERES","7018562","2022-01-07 18:00","2022","01","07","18:00","-7.2","","-11.0","","74","","","","32","","17","","","","101.21","","","","-14","","NA"
"-72.52","46.35","TROIS-RIVIERES","7018562","2022-01-07 19:00","2022","01","07","19:00","-9.2","","-12.8","","75","","","","33","","13","","","","101.34","","","","-15","","NA"
"-72.52","46.35","TROIS-RIVIERES","7018562","2022-01-07 20:00","2022","01","07","20:00","-10.1","","-13.8","","75","","","","32","","17","","","","101.43","","","","-17","","NA"
"-72.52","46.35","TROIS-RIVIERES","7018562","2022-01-07 21:00","2022","01","07","21:00","-10.2","","-14.3","","72","","","","31","","19","","","","101.51","","","","-18","","NA"
"-72.52","46.35","TROIS-RIVIERES","7018562","2022-01-07 22:00","2022","01","07","22:00","-11.0","","-15.4","","70","","","","31","","19","","","","101.65","","","","-19","","NA"
"-72.52","46.35","TROIS-RIVIERES","7018562","2022-01-07 23:00","2022","01","07","23:00","-11.7","","-16.4","","68","","","","30","","12","","","","101.81","","","","-18","","NA"
"-72.52","46.35","TROIS-RIVIERES","7018562","2022-01-08 00:00","2022","01","08","00:00","-12.6","","-17.2","","69","","","","29","","13","","","","101.93","","","","-19","","NA"
"-72.52","46.35","TROIS-RIVIERES","7018562","2022-01-08 01:00","2022","01","08","01:00","-13.6","","-18.5","","66","","","","30","","14","","","","102.14","","","","-21","","NA"
"-72.52","46.35","TROIS-RIVIERES","7018562","2022-01-08 02:00","2022","01","08","02:00","-14.7","","-19.3","","68","","","","29","","14","","","","102.36","","","","-22","","NA"
"-72.52","46.35","TROIS-RIVIERES","7018562","2022-01-08 03:00","2022","01","08","03:00","-15.4","","-20.5","","65","","","","29","","13","","","","102.54","","","","-23","","NA"
"-72.52","46.35","TROIS-RIVIERES","7018562","2022-01-08 04:00","2022","01","08","04:00","-16.1","","-21.4","","64","","","","27","","7","","","","102.68","","","","-21","","NA"
"-72.52","46.35","TROIS-RIVIERES","7018562","2022-01-08 05:00","2022","01","08","05:00","-16.9","","-21.8","","66","","","","26","","5","","","","102.86","","","","-21","","NA"
"-72.52","46.35","TROIS-RIVIERES","7018562","2022-01-08 06:00","2022","01","08","06:00","-17.5","","-23.0","","62","","","","25","","6","","","","103.03","","","","-22","","NA"
"-72.52","46.35","TROIS-RIVIERES","7018562","2022-01-08 07:00","2022","01","08","07:00","-18.2","","-23.4","","64","","","","26","","7","","","","103.16","","","","-24","","NA"
"-72.52","46.35","TROIS-RIVIERES","7018562","2022-01-08 08:00","2022","01","08","08:00","-18.3","","-24.4","","59","","","","27","","7","","","","103.29","","","","-24","","NA"
"-72.52","46.35","TROIS-RIVIERES","7018562","2022-01-08 09:00","2022","01","08","09:00","-17.3","","-24.9","","52","","","","27","","7","","","","103.43","","","","-23","","NA"
"-72.52","46.35","TROIS-RIVIERES","7018562","2022-01-08 10:00","2022","01","08","10:00","-16.3","","-24.7","","48","","","","27","","6","","","","103.44","","","","-21","","NA"
"-72.52","46.35","TROIS-RIVIERES","7018562","2022-01-08 11:00","2022","01","08","11:00","-14.6","","-23.2","","48","","","","27","","11","","","","103.59","","","","-21","","NA"
"-72.52","46.35","TROIS-RIVIERES","7018562","2022-01-08 12:00","2022","01","08","12:00","-13.9","","-23.6","","44","","","","24","","15","","","","103.58","","","","-22","","NA"
"-72.52","46.35","TROIS-RIVIERES","7018562","2022-01-08 13:00","2022","01","08","13:00","-12.7","","-19.2","","58","","","","22","","19","","","","103.51","","","","-21","","NA"
"-72.52","46.35","TROIS-RIVIERES","7018562","2022-01-08 14:00","2022","01","08","14:00","-12.9","","-19.0","","60","","","","19","","19","","","","103.45","","","","-21","","NA"
"-72.52","46.35","TROIS-RIVIERES","7018562","2022-01-08 15:00","2022","01","08","15:00","-13.0","","-17.6","","68","","","","21","","21","","","","103.52","","","","-22","","NA"
"-72.52","46.35","TROIS-RIVIERES","7018562","2022-01-08 16:00","2022","01","08","16:00","-13.6","","-18.7","","66","","","","18","","17","","","","103.45","","","","-22","","NA"
"-72.52","46.35","TROIS-RIVIERES","7018562","2022-01-08 17:00","2022","01","08","17:00","-13.6","","-17.4","","73","","","","19","","19","","","","103.50","","","","-22","","NA"
"-72.52","46.35","TROIS-RIVIERES","7018562","2022-01-08 18:00","2022","01","08","18:00","-13.9","","-17.3","","75","","","","20","","14","","","","103.46","","","","-21","","NA"
"-72.52","46.35","TROIS-RIVIERES","7018562","2022-01-08 19:00","2022","01","08","19:00","-14.1","","-17.6","","75","","","","19","","15","","","","103.38","","","","-22","","NA"
"-72.52","46.35","TROIS-RIVIERES","7018562","2022-01-08 20:00","2022","01","08","20:00","-13.9","","-17.3","","75","","","","16","","10","","","","103.23","","","","-20","","NA"
"-72.52","46.35","TROIS-RIVIERES","7018562","2022-01-08 21:00","2022","01","08","21:00","-12.9","","-17.7","","68","","","","15","","6","","","","103.10","","","","-17","","NA"
"-72.52","46.35","TROIS-RIVIERES","7018562","2022-01-08 22:00","2022","01","08","22:00","-13.0","","-18.1","","65","","","","3","","3","","","","102.99","","","","-15","","NA"
"-72.52","46.35","TROIS-RIVIERES","7018562","2022-01-08 23:00","2022","01","08","23:00","-13.2","","-17.5","","70","","","","1","","10","","","","102.85","","","","-19","","NA"
"-72.52","46.35","TROIS-RIVIERES","7018562","2022-01-09 00:00","2022","01","09","00:00","-13.1","","-16.9","","73","","","","2","","8","","","","102.69","","","","-18","","NA"
"-72.52","46.35","TROIS-RIVIERES","7018562","2022-01-09 01:00","2022","01","09","01:00","-11.9","","-15.9","","72","","","","6","","13","","","","102.51","","","","-19","","NA"
"-72.52","46.35","TROIS-RIVIERES","7018562","2022-01-09 02:00","2022","01","09","02:00","-10.6","","-14.3","","75","","","","6","","14","","","","102.38","","","","-17","","NA"
"-72.52","46.35","TROIS-RIVIERES","7018562","2022-01-09 03:00","2022","01","09","03:00","-11.1","","-14.7","","74","","","","3","","9","","","","102.20","","","","-16","","NA"
"-72.52","46.35","TROIS-RIVIERES","7018562","2022-01-09 04:00","2022","01","09","04:00","-10.9","","-14.1","","77","","","","36","","7","","","","102.01","","","","-15","","NA"
"-72.52","46.35","TROIS-RIVIERES","7018562","2022-01-09 05:00","2022","01","09","05:00","-10.9","","-14.8","","73","","","","34","","7","","","","101.91","","","","-15","","NA"
"-72.52","46.35","TROIS-RIVIERES","7018562","2022-01-09 06:00","2022","01","09","06:00","-10.2","","-12.6","","82","","","","3","","7","","","","101.76","","","","-14","","NA"
"-72.52","46.35","TROIS-RIVIERES","7018562","2022-01-09 07:00","2022","01","09","07:00","-9.1","","-11.4","","83","","","","7","","12","","","","101.55","","","","-15","","NA"
"-72.52","46.35","TROIS-RIVIERES","7018562","2022-01-09 08:00","2022","01","09","08:00","-9.5","","-11.9","","83","","","","3","","6","","","","101.36","","","","-13","","NA"
"-72.52","46.35","TROIS-RIVIERES","7018562","2022-01-09 09:00","2022","01","09","09:00","-9.6","","-12.6","","79","","","","35","","7","","","","101.21","","","","-14","","NA"
"-72.52","46.35","TROIS-RIVIERES","7018562","2022-01-09 10:00","2022","01","09","10:00","-9.1","","-11.2","","85","","","","35","","7","","","","101.11","","","","-13","","NA"
"-72.52","46.35","TROIS-RIVIERES","7018562","2022-01-09 11:00","2022","01","09","11:00","-8.6","","-10.3","","88","","","","35","","5","","","","100.89","","","","-11","","NA"
"-72.52","46.35","TROIS-RIVIERES","7018562","2022-01-09 12:00","2022","01","09","12:00","-7.6","","-9.1","","89","","","","31","","6","","","","100.73","","","","-11","","NA"
"-72.52","46.35","TROIS-RIVIERES","7018562","2022-01-09 13:00","2022","01","09","13:00","-6.9","","-8.2","","90","","","","31","","5","","","","100.50","","","","-9","","NA"
"-72.52","46.35","TROIS-RIVIERES","7018562","2022-01-09 14:00","2022","01","09","14:00","-6.6","","-7.7","","92","","","","31","","8","","","","100.41","","","","-10","","NA"
"-72.52","46.35","TROIS-RIVIERES","7018562","2022-01-09 15:00","2022","01","09","15:00","-6.0","","-7.1","","92","","","","35","","4","","","","100.31","","","","-8","","NA"
"-72.52","46.35","TROIS-RIVIERES","7018562","2022-01-09 16:00","2022","01","09","16:00","-5.3","","-6.1","","94","","","","26","","3","","","","100.22","","","","-7","","NA"
"-72.52","46.35","TROIS-RIVIERES","7018562","2022-01-09 17:00","2022","01","09","17:00","-4.7","","-5.6","","93","","","","26","","4","","","","100.22","","","","-6","","NA"
"-72.52","46.35","TROIS-RIVIERES","7018562","2022-01-09 18:00","2022","01","09","18:00","-4.1","","-5.0","","93","","","","23","","12","","","","100.21","","","","-9","","NA"
"-72.52","46.35","TROIS-RIVIERES","7018562","2022-01-09 19:00","2022","01","09","19:00","-2.3","","-3.0","","95","","","","22","","22","","","","100.24","","","","-8","","NA"
"-72.52","46.35","TROIS-RIVIERES","7018562","2022-01-09 20:00","2022","01","09","20:00","-1.9","","-3.2","","91","","","","22","","17","","","","100.32","","","","-7","","NA"
"-72.52","46.35","TROIS-RIVIERES","7018562","2022-01-09 21:00","2022","01","09","21:00","-2.0","","-7.0","","69","","","","24","","14","","","","100.42","","","","-7","","NA"
"-72.52","46.35","TROIS-RIVIERES","7018562","2022-01-09 22:00","2022","01","09","22:00","-2.3","","-8.1","","64","","","","25","","16","","","","100.53","","","","-7","","NA"
"-72.52","46.35","TROIS-RIVIERES","7018562","2022-01-09 23:00","2022","01","09","23:00","-3.2","","-8.8","","65","","","","28","","15","","","","100.70","","","","-8","","NA"
"-72.52","46.35","TROIS-RIVIERES","7018562","2022-01-10 00:00","2022","01","10","00:00","-5.7","","-13.8","","53","","","","29","","29","","","","100.89","","","","-14","","NA"
"-72.52","46.35","TROIS-RIVIERES","7018562","2022-01-10 01:00","2022","01","10","01:00","-8.0","","-15.5","","55","","","","29","","35","","","","101.05","","","","-18","","NA"
"-72.52","46.35","TROIS-RIVIERES","7018562","2022-01-10 02:00","2022","01","10","02:00","-10.4","","-17.9","","54","","","","29","","19","","","","101.30","","","","-18","","NA"
"-72.52","46.35","TROIS-RIVIERES","7018562","2022-01-10 03:00","2022","01","10","03:00","-12.0","","-18.2","","60","","","","29","","14","","","","101.43","","","","-19","","NA"
"-72.52","46.35","TROIS-RIVIERES","7018562","2022-01-10 04:00","2022","01","10","04:00","-12.5","","-19.2","","57","","","","27","","11","","","","101.53","","","","-19","","NA"
"-72.52","46.35","TROIS-RIVIERES","7018562","2022-01-10 05:00","2022","01","10","05:00","-13.4","","-20.7","","54","","","","27","","12","","","","101.57","","","","-20","","NA"
"-72.52","46.35","TROIS-RIVIERES","7018562","2022-01-10 06:00","2022","01","10","06:00","-14.9","","-20.8","","60","","","","28","","9","","","","101.64","","","","-21","","NA"
"-72.52","46.35","TROIS-RIVIERES","7018562","2022-01-10 07:00","2022","01","10","07:00","-15.2","","-20.9","","62","","","","29","","7","","","","101.65","","","","-20","","NA"
"-72.52","46.35","TROIS-RIVIERES","7018562","2022-01-10 08:00","2022","01","10","08:00","-16.6","","-20.7","","71","","","","29","","8","","","","101.67","","","","-22","","NA"
"-72.52","46.35","TROIS-RIVIERES","7018562","2022-01-10 09:00","2022","01","10","09:00","-14.6","","-20.0","","64","","","","29","","8","","","","101.68","","","","-20","","NA"
"-72.52","46.35","TROIS-RIVIERES","7018562","2022-01-10 10:00","2022","01","10","10:00","-14.1","","-20.8","","57","","","","29","","13","","","","101.72","","","","-21","","NA"
"-72.52","46.35","TROIS-RIVIERES","7018562","2022-01-10 11:00","2022","01","10","11:00","-12.8","","-21.3","","49","","","","28","","16","","","","101.63","","","","-20","","NA"
"-72.52","46.35","TROIS-RIVIERES","7018562","2022-01-10 12:00","2022","01","10","12:00","-12.9","","-21.3","","49","","","","28","","16","","","","101.55","","","","-21","","NA"
"-72.52","46.35","TROIS-RIVIERES","7018562","2022-01-10 13:00","2022","01","10","13:00","-12.1","","-20.6","","49","","","","25","","11","","","","101.50","","","","-18","","NA"
"-72.52","46.35","TROIS-RIVIERES","7018562","2022-01-10 14:00","2022","01","10","14:00","-12.6","","-22.8","","42","","","","28","","17","","","","101.50","","","","-20","","NA"
"-72.52","46.35","TROIS-RIVIERES","7018562","2022-01-10 15:00","2022","01","10","15:00","-12.4","","-22.8","","42","","","","27","","17","","","","101.55","","","","-20","","NA"
"-72.52","46.35","TROIS-RIVIERES","7018562","2022-01-10 16:00","2022","01","10","16:00","-13.7","","-23.4","","44","","","","29","","13","","","","101.62","","","","-21","","NA"
"-72.52","46.35","TROIS-RIVIERES","7018562","2022-01-10 17:00","2022","01","10","17:00","-14.8","","-22.5","","52","","","","31","","16","","","","101.72","","","","-23","","NA"
"-72.52","46.35","TROIS-RIVIERES","7018562","2022-01-10 18:00","2022","01","10","18:00","-15.5","","-22.8","","54","","","","31","","24","","","","101.84","","","","-26","","NA"
"-72.52","46.35","TROIS-RIVIERES","7018562","2022-01-10 19:00","2022","01","10","19:00","-16.6","","-22.2","","62","","","","31","","23","","","","101.95","","","","-27","","NA"
"-72.52","46.35","TROIS-RIVIERES","7018562","2022-01-10 20:00","2022","01","10","20:00","-17.6","","-24.5","","55","","","","31","","18","","","","102.05","","","","-27","","NA"
"-72.52","46.35","TROIS-RIVIERES","7018562","2022-01-10 21:00","2022","01","10","21:00","-18.6","","-24.7","","59","","","","30","","14","","","","102.15","","","","-27","","NA"
"-72.52","46.35","TROIS-RIVIERES","7018562","2022-01-10 22:00","2022","01","10","22:00","-18.9","","-25.2","","58","","","","32","","18","","","","102.22","","","","-29","","NA"
"-72.52","46.35","TROIS-RIVIERES","7018562","2022-01-10 23:00","2022","01","10","23:00","-20.1","","-26.4","","57","","","","32","","14","","","","102.37","","","","-29","","NA"
"-72.52","46.35","TROIS-RIVIERES","7018562","2022-01-11 00:00","2022","01","11","00:00","-21.3","","-27.7","","56","","","","33","","12","","","","102.48","","","","-30","","NA"
"-72.52","46.35","TROIS-RIVIERES","7018562","2022-01-11 01:00","2022","01","11","01:00","-22.1","","-27.7","","61","","","","32","","14","","","","102.59","","","","-31","","NA"
"-72.52","46.35","TROIS-RIVIERES","7018562","2022-01-11 02:00","2022","01","11","02:00","-22.8","","-28.8","","58","","","","31","","16","","","","102.73","","","","-33","","NA"
"-72.52","46.35","TROIS-RIVIERES","7018562","2022-01-11 03:00","2022","01","11","03:00","-23.9","","-29.5","","60","","","","30","","12","","","","102.84","","","","-33","","NA"
"-72.52","46.35","TROIS-RIVIERES","7018562","2022-01-11 04:00","2022","01","11","04:00","-24.6","","-30.5","","58","","","","30","","8","","","","102.95","","","","-32","","NA"
"-72.52","46.35","TROIS-RIVIERES","7018562","2022-01-11 05:00","2022","01","11","05:00","-25.5","","-31.4","","58","","","","30","","12","","","","103.08","","","","-35","","NA"
"-72.52","46.35","TROIS-RIVIERES","7018562","2022-01-11 06:00","2022","01","11","06:00","-26.0","","-31.4","","60","","","","29","","18","","","","103.26","","","","-37","","NA"
"-72.52","46.35","TROIS-RIVIERES","7018562","2022-01-11 07:00","2022","01","11","07:00","-26.5","","-31.8","","61","","","","29","","13","","","","103.37","","","","-36","","NA"
"-72.52","46.35","TROIS-RIVIERES","7018562","2022-01-11 08:00","2022","01","11","08:00","-26.6","","-31.8","","61","","","","28","","9","","","","103.42","","","","-35","","NA"
"-72.52","46.35","TROIS-RIVIERES","7018562","2022-01-11 09:00","2022","01","11","09:00","-26.0","","-32.2","","56","","","","29","","10","","","","103.51","","","","-34","","NA"
"-72.52","46.35","TROIS-RIVIERES","7018562","2022-01-11 10:00","2022","01","11","10:00","-25.3","","-33.0","","49","","","","29","","11","","","","103.50","","","","-34","","NA"
"-72.52","46.35","TROIS-RIVIERES","7018562","2022-01-11 11:00","2022","01","11","11:00","-24.1","","-32.8","","45","","","","26","","9","","","","103.51","","","","-32","","NA"
"-72.52","46.35","TROIS-RIVIERES","7018562","2022-01-11 12:00","2022","01","11","12:00","-22.9","","-28.7","","59","","","","23","","14","","","","103.47","","","","-32","","NA"
"-72.52","46.35","TROIS-RIVIERES","7018562","2022-01-11 13:00","2022","01","11","13:00","-22.6","","-28.6","","58","","","","23","","17","","","","103.42","","","","-33","","NA"
"-72.52","46.35","TROIS-RIVIERES","7018562","2022-01-11 14:00","2022","01","11","14:00","-21.2","","-26.0","","65","","","","24","","11","","","","103.32","","","","-29","","NA"
"-72.52","46.35","TROIS-RIVIERES","7018562","2022-01-11 15:00","2022","01","11","15:00","-20.2","","-23.8","","73","","","","21","","24","","","","103.30","","","","-32","","NA"
"-72.52","46.35","TROIS-RIVIERES","7018562","2022-01-11 16:00","2022","01","11","16:00","-20.4","","-23.9","","74","","","","19","","24","","","","103.25","","","","-32","","NA"
"-72.52","46.35","TROIS-RIVIERES","7018562","2022-01-11 17:00","2022","01","11","17:00","-20.8","","-23.6","","78","","","","18","","19","","","","103.26","","","","-31","","NA"
"-72.52","46.35","TROIS-RIVIERES","7018562","2022-01-11 18:00","2022","01","11","18:00","-20.7","","-22.9","","83","","","","18","","18","","","","103.24","","","","-31","","NA"
"-72.52","46.35","TROIS-RIVIERES","7018562","2022-01-11 19:00","2022","01","11","19:00","-20.8","","-23.0","","82","","","","17","","19","","","","103.16","","","","-31","","NA"
"-72.52","46.35","TROIS-RIVIERES","7018562","2022-01-11 20:00","2022","01","11","20:00","-21.0","","-23.4","","81","","","","18","","18","","","","103.07","","","","-31","","NA"
"-72.52","46.35","TROIS-RIVIERES","7018562","2022-01-11 21:00","2022","01","11","21:00","-21.9","","-24.3","","80","","","","19","","15","","","","102.96","","","","-31","","NA"
"-72.52","46.35","TROIS-RIVIERES","7018562","2022-01-11 22:00","2022","01","11","22:00","-20.7","","-23.1","","81","","","","18","","19","","","","102.85","","","","-31","","NA"
"-72.52","46.35","TROIS-RIVIERES","7018562","2022-01-11 23:00","2022","01","11","23:00","-21.1","","-23.5","","81","","","","16","","12","","","","102.76","","","","-29","","NA"
"-72.52","46.35","TROIS-RIVIERES","7018562","2022-01-12 00:00","2022","01","12","00:00","-21.7","","-24.2","","80","","","","17","","8","","","","102.66","","","","-28","","NA"
"-72.52","46.35","TROIS-RIVIERES","7018562","2022-01-12 01:00","2022","01","12","01:00","-21.1","","-23.5","","81","","","","12","","9","","","","102.49","","","","-28","","NA"
"-72.52","46.35","TROIS-RIVIERES","7018562","2022-01-12 02:00","2022","01","12","02:00","-21.2","","-23.6","","81","","","","6","","11","","","","102.33","","","","-29","","NA"
"-72.52","46.35","TROIS-RIVIERES","7018562","2022-01-12 03:00","2022","01","12","03:00","-20.2","","-22.6","","81","","","","5","","10","","","","102.11","","","","-27","","NA"
"-72.52","46.35","TROIS-RIVIERES","7018562","2022-01-12 04:00","2022","01","12","04:00","-20.8","","-23.3","","81","","","","36","","8","","","","101.88","","","","-27","","NA"
"-72.52","46.35","TROIS-RIVIERES","7018562","2022-01-12 05:00","2022","01","12","05:00","-21.3","","-23.7","","80","","","","36","","10","","","","101.75","","","","-29","","NA"
"-72.52","46.35","TROIS-RIVIERES","7018562","2022-01-12 06:00","2022","01","12","06:00","-20.7","","-23.1","","81","","","","36","","10","","","","101.64","","","","-28","","NA"
"-72.52","46.35","TROIS-RIVIERES","7018562","2022-01-12 07:00","2022","01","12","07:00","-19.6","","-21.9","","82","","","","36","","9","","","","101.53","","","","-26","","NA"
"-72.52","46.35","TROIS-RIVIERES","7018562","2022-01-12 08:00","2022","01","12","08:00","-19.3","","-21.5","","82","","","","35","","8","","","","101.44","","","","-25","","NA"
"-72.52","46.35","TROIS-RIVIERES","7018562","2022-01-12 09:00","2022","01","12","09:00","-18.5","","-20.7","","83","","","","36","","9","","","","101.42","","","","-25","","NA"
"-72.52","46.35","TROIS-RIVIERES","7018562","2022-01-12 10:00","2022","01","12","10:00","-17.5","","-19.7","","83","","","","36","","8","","","","101.38","","","","-23","","NA"
"-72.52","46.35","TROIS-RIVIERES","7018562","2022-01-12 11:00","2022","01","12","11:00","-16.6","","-18.7","","83","","","","36","","9","","","","101.30","","","","-23","","NA"
"-72.52","46.35","TROIS-RIVIERES","7018562","2022-01-12 12:00","2022","01","12","12:00","-15.3","","-17.4","","84","","","","36","","9","","","","101.24","","","","-21","","NA"
"-72.52","46.35","TROIS-RIVIERES","7018562","2022-01-12 13:00","2022","01","12","13:00","-14.5","","-16.4","","85","","","","35","","9","","","","101.20","","","","-20","","NA"
"-72.52","46.35","TROIS-RIVIERES","7018562","2022-01-12 14:00","2022","01","12","14:00","-14.0","","-15.9","","86","","","","36","","6","","","","101.21","","","","-18","","NA"
"-72.52","46.35","TROIS-RIVIERES","7018562","2022-01-12 15:00","2022","01","12","15:00","-13.3","","-15.2","","86","","","","34","","6","","","","101.27","","","","-17","","NA"
"-72.52","46.35","TROIS-RIVIERES","7018562","2022-01-12 16:00","2022","01","12","16:00","-13.0","","-14.8","","87","","","","34","","8","","","","101.35","","","","-18","","NA"
"-72.52","46.35","TROIS-RIVIERES","7018562","2022-01-12 17:00","2022","01","12","17:00","-12.8","","-14.5","","87","","","","35","","6","","","","101.42","","","","-17","","NA"
"-72.52","46.35","TROIS-RIVIERES","7018562","2022-01-12 18:00","2022","01","12","18:00","-12.4","","-14.1","","87","","","","36","","7","","","","101.50","","","","-17","","NA"
"-72.52","46.35","TROIS-RIVIERES","7018562","2022-01-12 19:00","2022","01","12","19:00","-12.3","","-14.0","","87","","","","34","","10","","","","101.61","","","","-18","","NA"
"-72.52","46.35","TROIS-RIVIERES","7018562","2022-01-12 20:00","2022","01","12","20:00","-12.2","","-14.0","","86","","","","35","","9","","","","101.68","","","","-17","","NA"
"-72.52","46.35","TROIS-RIVIERES","7018562","2022-01-12 21:00","2022","01","12","21:00","-12.3","","-14.1","","86","","","","35","","8","","","","101.74","","","","-17","","NA"
"-72.52","46.35","TROIS-RIVIERES","7018562","2022-01-12 22:00","2022","01","12","22:00","-12.3","","-14.1","","86","","","","30","","6","","","","101.81","","","","-16","","NA"
"-72.52","46.35","TROIS-RIVIERES","7018562","2022-01-12 23:00","2022","01","12","23:00","-12.1","","-14.0","","86","","","","24","","3","","","","101.85","","","","-14","","NA"
"-72.52","46.35","TROIS-RIVIERES","7018562","2022-01-13 00:00","2022","01","13","00:00","-11.6","","-13.7","","85","","","","36","","6","","","","101.79","","","","-15","","NA"
"-72.52","46.35","TROIS-RIVIERES","7018562","2022-01-13 01:00","2022","01","13","01:00","-11.4","","-13.9","","82","","","","32","","7","","","","101.78","","","","-16","","NA"
"-72.52","46.35","TROIS-RIVIERES","7018562","2022-01-13 02:00","2022","01","13","02:00","-11.5","","-14.0","","82","","","","28","","2","","","","101.84","","","","-13","","NA"
"-72.52","46.35","TROIS-RIVIERES","7018562","2022-01-13 03:00","2022","01","13","03:00","-11.1","","-13.8","","81","","","","32","","4","","","","101.82","","","","-14","","NA"
"-72.52","46.35","TROIS-RIVIERES","7018562","2022-01-13 04:00","2022","01","13","04:00","-11.4","","-14.3","","79","","","","2","","5","","","","101.84","","","","-15","","NA"
"-72.52","46.35","TROIS-RIVIERES","7018562","2022-01-13 05:00","2022","01","13","05:00","-11.7","","-14.5","","80","","","","35","","9","","","","101.81","","","","-17","","NA"
"-72.52","46.35","TROIS-RIVIERES","7018562","2022-01-13 06:00","2022","01","13","06:00","-11.9","","-14.8","","79","","","","34","","12","","","","101.85","","","","-18","","NA"
"-72.52","46.35","TROIS-RIVIERES","7018562","2022-01-13 07:00","2022","01","13","07:00","-12.0","","-14.8","","80","","","","1","","10","","","","101.79","","","","-18","","NA"
"-72.52","46.35","TROIS-RIVIERES","7018562","2022-01-13 08:00","2022","01","13","08:00","-11.9","","-14.5","","81","","","","36","","7","","","","101.84","","","","-16","","NA"
"-72.52","46.35","TROIS-RIVIERES","7018562","2022-01-13 09:00","2022","01","13","09:00","-11.3","","-13.7","","82","","","","35","","8","","","","101.81","","","","-16","","NA"
"-72.52","46.35","TROIS-RIVIERES","7018562","2022-01-13 10:00","2022","01","13","10:00","-10.3","","-13.0","","81","","","","2","","9","","","","101.79","","","","-15","","NA"
"-72.52","46.35","TROIS-RIVIERES","7018562","2022-01-13 11:00","2022","01","13","11:00","-9.2","","-12.0","","80","","","","1","","9","","","","101.70","","","","-14","","NA"
"-72.52","46.35","TROIS-RIVIERES","7018562","2022-01-13 12:00","2022","01","13","12:00","-8.4","","-11.4","","79","","","","2","","13","","","","101.59","","","","-14","","NA"
"-72.52","46.35","TROIS-RIVIERES","7018562","2022-01-13 13:00","2022","01","13","13:00","-8.0","","-10.6","","82","","","","1","","9","","","","101.51","","","","-13","","NA"
"-72.52","46.35","TROIS-RIVIERES","7018562","2022-01-13 14:00","2022","01","13","14:00","-7.2","","-10.0","","80","","","","3","","12","","","","101.45","","","","-13","","NA"
"-72.52","46.35","TROIS-RIVIERES","7018562","2022-01-13 15:00","2022","01","13","15:00","-7.1","","-9.8","","81","","","","2","","10","","","","101.41","","","","-12","","NA"
"-72.52","46.35","TROIS-RIVIERES","7018562","2022-01-13 16:00","2022","01","13","16:00","-7.2","","-8.9","","88","","","","2","","7","","","","101.38","","","","-11","","NA"
"-72.52","46.35","TROIS-RIVIERES","7018562","2022-01-13 17:00","2022","01","13","17:00","-7.4","","-8.6","","92","","","","36","","10","","","","101.38","","","","-12","","NA"
"-72.52","46.35","TROIS-RIVIERES","7018562","2022-01-13 18:00","2022","01","13","18:00","-7.3","","-8.3","","93","","","","1","","7","","","","101.42","","","","-11","","NA"
"-72.52","46.35","TROIS-RIVIERES","7018562","2022-01-13 19:00","2022","01","13","19:00","-7.4","","-8.5","","92","","","","1","","8","","","","101.44","","","","-11","","NA"
"-72.52","46.35","TROIS-RIVIERES","7018562","2022-01-13 20:00","2022","01","13","20:00","-7.3","","-8.6","","90","","","","2","","7","","","","101.43","","","","-11","","NA"
"-72.52","46.35","TROIS-RIVIERES","7018562","2022-01-13 21:00","2022","01","13","21:00","-6.8","","-7.9","","92","","","","8","","10","","","","101.37","","","","-11","","NA"
"-72.52","46.35","TROIS-RIVIERES","7018562","2022-01-13 22:00","2022","01","13","22:00","-6.9","","-8.4","","90","","","","6","","9","","","","101.36","","","","-11","","NA"
"-72.52","46.35","TROIS-RIVIERES","7018562","2022-01-13 23:00","2022","01","13","23:00","-7.3","","-8.7","","90","","","","35","","8","","","","101.37","","","","-11","","NA"
"-72.52","46.35","TROIS-RIVIERES","7018562","2022-01-14 00:00","2022","01","14","00:00","-7.4","","-8.7","","90","","","","33","","9","","","","101.36","","","","-12","","NA"
"-72.52","46.35","TROIS-RIVIERES","7018562","2022-01-14 01:00","2022","01","14","01:00","-7.3","","-8.7","","90","","","","31","","8","","","","101.37","","","","-11","","NA"
"-72.52","46.35","TROIS-RIVIERES","7018562","2022-01-14 02:00","2022","01","14","02:00","-7.2","","-8.7","","90","","","","1","","5","","","","101.36","","","","-10","","NA"
"-72.52","46.35","TROIS-RIVIERES","7018562","2022-01-14 03:00","2022","01","14","03:00","-7.2","","-8.7","","89","","","","30","","7","","","","101.44","","","","-11","","NA"
"-72.52","46.35","TROIS-RIVIERES","7018562","2022-01-14 04:00","2022","01","14","04:00","-7.2","","-8.7","","89","","","","29","","5","","","","101.49","","","","-10","","NA"
"-72.52","46.35","TROIS-RIVIERES","7018562","2022-01-14 05:00","2022","01","14","05:00","-7.3","","-8.9","","88","","","","27","","4","","","","101.60","","","","-9","","NA"
"-72.52","46.35","TROIS-RIVIERES","7018562","2022-01-14 06:00","2022","01","14","06:00","-7.0","","-10.2","","78","","","","33","","11","","","","101.70","","","","-12","","NA"
"-72.52","46.35","TROIS-RIVIERES","7018562","2022-01-14 07:00","2022","01","14","07:00","-8.7","","-12.9","","72","","","","33","","15","","","","101.85","","","","-15","","NA"
"-72.52","46.35","TROIS-RIVIERES","7018562","2022-01-14 08:00","2022","01","14","08:00","-10.0","","-14.0","","72","","","","32","","23","","","","101.98","","","","-18","","NA"
"-72.52","46.35","TROIS-RIVIERES","7018562","2022-01-14 09:00","2022","01","14","09:00","-11.2","","-15.9","","68","","","","32","","18","","","","102.20","","","","-19","","NA"
"-72.52","46.35","TROIS-RIVIERES","7018562","2022-01-14 10:00","2022","01","14","10:00","-12.4","","-18.3","","61","","","","34","","19","","","","102.32","","","","-21","","NA"
"-72.52","46.35","TROIS-RIVIERES","7018562","2022-01-14 11:00","2022","01","14","11:00","-13.0","","-19.5","","58","","","","34","","21","","","","102.32","","","","-22","","NA"
"-72.52","46.35","TROIS-RIVIERES","7018562","2022-01-14 12:00","2022","01","14","12:00","-13.8","","-21.1","","54","","","","33","","22","","","","102.33","","","","-23","","NA"
"-72.52","46.35","TROIS-RIVIERES","7018562","2022-01-14 13:00","2022","01","14","13:00","-14.7","","-23.5","","47","","","","34","","23","","","","102.33","","","","-24","","NA"
"-72.52","46.35","TROIS-RIVIERES","7018562","2022-01-14 14:00","2022","01","14","14:00","-15.2","","-23.2","","50","","","","33","","24","","","","102.41","","","","-25","","NA"
"-72.52","46.35","TROIS-RIVIERES","7018562","2022-01-14 15:00","2022","01","14","15:00","-15.7","","-23.2","","53","","","","33","","21","","","","102.50","","","","-25","","NA"
"-72.52","46.35","TROIS-RIVIERES","7018562","2022-01-14 16:00","2022","01","14","16:00","-16.4","","-23.0","","57","","","","33","","23","","","","102.51","","","","-27","","NA"
"-72.52","46.35","TROIS-RIVIERES","7018562","2022-01-14 17:00","2022","01","14","17:00","-17.5","","-23.6","","59","","","","34","","19","","","","102.58","","","","-27","","NA"
"-72.52","46.35","TROIS-RIVIERES","7018562","2022-01-14 18:00","2022","01","14","18:00","-18.2","","-23.7","","62","","","","35","","16","","","","102.63","","","","-27","","NA"
"-72.52","46.35","TROIS-RIVIERES","7018562","2022-01-14 19:00","2022","01","14","19:00","-18.8","","-24.4","","61","","","","35","","22","","","","102.64","","","","-29","","NA"
"-72.52","46.35","TROIS-RIVIERES","7018562","2022-01-14 20:00","2022","01","14","20:00","-19.6","","-25.2","","61","","","","36","","20","","","","102.73","","","","-30","","NA"
"-72.52","46.35","TROIS-RIVIERES","7018562","2022-01-14 21:00","2022","01","14","21:00","-20.5","","-26.4","","59","","","","36","","21","","","","102.77","","","","-31","","NA"
"-72.52","46.35","TROIS-RIVIERES","7018562","2022-01-14 22:00","2022","01","14","22:00","-21.5","","-26.7","","63","","","","35","","24","","","","102.73","","","","-33","","NA"
"-72.52","46.35","TROIS-RIVIERES","7018562","2022-01-14 23:00","2022","01","14","23:00","-22.1","","-26.7","","66","","","","34","","18","","","","102.67","","","","-33","","NA"
"-72.52","46.35","TROIS-RIVIERES","7018562","2022-01-15 00:00","2022","01","15","00:00","-23.1","","-28.1","","63","","","","32","","18","","","","102.63","","","","-34","","NA"
"-72.52","46.35","TROIS-RIVIERES","7018562","2022-01-15 01:00","2022","01","15","01:00","-23.6","","-28.3","","65","","","","35","","15","","","","102.64","","","","-34","","NA"
"-72.52","46.35","TROIS-RIVIERES","7018562","2022-01-15 02:00","2022","01","15","02:00","-24.2","","-29.0","","64","","","","34","","14","","","","102.69","","","","-34","","NA"
"-72.52","46.35","TROIS-RIVIERES","7018562","2022-01-15 03:00","2022","01","15","03:00","-24.4","","-29.4","","63","","","","32","","17","","","","102.74","","","","-35","","NA"
"-72.52","46.35","TROIS-RIVIERES","7018562","2022-01-15 04:00","2022","01","15","04:00","-24.7","","-29.6","","64","","","","32","","16","","","","102.78","","","","-35","","NA"
"-72.52","46.35","TROIS-RIVIERES","7018562","2022-01-15 05:00","2022","01","15","05:00","-25.1","","-29.9","","64","","","","32","","12","","","","102.80","","","","-34","","NA"
"-72.52","46.35","TROIS-RIVIERES","7018562","2022-01-15 06:00","2022","01","15","06:00","-25.3","","-29.9","","66","","","","32","","15","","","","102.85","","","","-36","","NA"
"-72.52","46.35","TROIS-RIVIERES","7018562","2022-01-15 07:00","2022","01","15","07:00","-25.3","","-29.6","","68","","","","31","","20","","","","102.88","","","","-37","","NA"
"-72.52","46.35","TROIS-RIVIERES","7018562","2022-01-15 08:00","2022","01","15","08:00","-25.1","","-29.9","","65","","","","32","","17","","","","102.95","","","","-36","","NA"
"-72.52","46.35","TROIS-RIVIERES","7018562","2022-01-15 09:00","2022","01","15","09:00","-24.4","","-30.6","","56","","","","32","","18","","","","102.98","","","","-35","","NA"
"-72.52","46.35","TROIS-RIVIERES","7018562","2022-01-15 10:00","2022","01","15","10:00","-23.1","","-29.7","","55","","","","32","","18","","","","103.00","","","","-34","","NA"
"-72.52","46.35","TROIS-RIVIERES","7018562","2022-01-15 11:00","2022","01","15","11:00","-21.4","","-29.4","","48","","","","33","","18","","","","102.91","","","","-32","","NA"
"-72.52","46.35","TROIS-RIVIERES","7018562","2022-01-15 12:00","2022","01","15","12:00","-20.0","","-28.4","","47","","","","32","","15","","","","102.85","","","","-29","","NA"
"-72.52","46.35","TROIS-RIVIERES","7018562","2022-01-15 13:00","2022","01","15","13:00","-18.9","","-27.2","","48","","","","32","","21","","","","102.87","","","","-29","","NA"
"-72.52","46.35","TROIS-RIVIERES","7018562","2022-01-15 14:00","2022","01","15","14:00","-17.9","","-26.8","","45","","","","31","","14","","","","102.86","","","","-26","","NA"
"-72.52","46.35","TROIS-RIVIERES","7018562","2022-01-15 15:00","2022","01","15","15:00","-17.2","","-26.5","","44","","","","31","","12","","","","102.86","","","","-25","","NA"
"-72.52","46.35","TROIS-RIVIERES","7018562","2022-01-15 16:00","2022","01","15","16:00","-17.3","","-26.0","","47","","","","29","","9","","","","102.89","","","","-24","","NA"
"-72.52","46.35","TROIS-RIVIERES","7018562","2022-01-15 17:00","2022","01","15","17:00","-17.7","","-25.4","","51","","","","29","","8","","","","102.91","","","","-24","","NA"
"-72.52","46.35","TROIS-RIVIERES","7018562","2022-01-15 18:00","2022","01","15","18:00","-19.1","","-25.5","","57","","","","29","","12","","","","102.99","","","","-27","","NA"
"-72.52","46.35","TROIS-RIVIERES","7018562","2022-01-15 19:00","2022","01","15","19:00","-19.1","","-25.4","","58","","","","28","","10","","","","103.00","","","","-26","","NA"
"-72.52","46.35","TROIS-RIVIERES","7018562","2022-01-15 20:00","2022","01","15","20:00","-19.5","","-25.9","","57","","","","27","","7","","","","103.02","","","","-25","","NA"
"-72.52","46.35","TROIS-RIVIERES","7018562","2022-01-15 21:00","2022","01","15","21:00","-19.8","","-25.9","","59","","","","26","","6","","","","103.01","","","","-25","","NA"
"-72.52","46.35","TROIS-RIVIERES","7018562","2022-01-15 22:00","2022","01","15","22:00","-20.4","","-26.0","","61","","","","26","","5","","","","103.03","","","","-25","","NA"
"-72.52","46.35","TROIS-RIVIERES","7018562","2022-01-15 23:00","2022","01","15","23:00","-20.5","","-25.5","","64","","","","25","","7","","","","103.05","","","","-26","","NA"
"-72.52","46.35","TROIS-RIVIERES","7018562","2022-01-16 00:00","2022","01","16","00:00","-21.0","","-26.3","","63","","","","25","","6","","","","103.00","","","","-26","","NA"
"-72.52","46.35","TROIS-RIVIERES","7018562","2022-01-16 01:00","2022","01","16","01:00","-21.2","","-23.8","","80","","","","24","","8","","","","103.11","","","","-28","","NA"
"-72.52","46.35","TROIS-RIVIERES","7018562","2022-01-16 02:00","2022","01","16","02:00","-21.7","","-24.2","","80","","","","23","","9","","","","103.17","","","","-29","","NA"
"-72.52","46.35","TROIS-RIVIERES","7018562","2022-01-16 03:00","2022","01","16","03:00","-22.0","","-24.3","","81","","","","19","","13","","","","103.11","","","","-31","","NA"
"-72.52","46.35","TROIS-RIVIERES","7018562","2022-01-16 04:00","2022","01","16","04:00","-22.2","","-24.7","","80","","","","18","","13","","","","103.08","","","","-31","","NA"
"-72.52","46.35","TROIS-RIVIERES","7018562","2022-01-16 05:00","2022","01","16","05:00","-22.6","","-25.1","","80","","","","17","","12","","","","103.07","","","","-31","","NA"
"-72.52","46.35","TROIS-RIVIERES","7018562","2022-01-16 06:00","2022","01","16","06:00","-22.5","","-25.0","","80","","","","19","","11","","","","103.05","","","","-31","","NA"
"-72.52","46.35","TROIS-RIVIERES","7018562","2022-01-16 07:00","2022","01","16","07:00","-22.1","","-24.6","","80","","","","19","","11","","","","103.09","","","","-30","","NA"
"-72.52","46.35","TROIS-RIVIERES","7018562","2022-01-16 08:00","2022","01","16","08:00","-22.4","","-25.1","","79","","","","19","","10","","","","103.07","","","","-30","","NA"
"-72.52","46.35","TROIS-RIVIERES","7018562","2022-01-16 09:00","2022","01","16","09:00","-21.4","","-24.1","","79","","","","19","","10","","","","103.06","","","","-29","","NA"
"-72.52","46.35","TROIS-RIVIERES","7018562","2022-01-16 10:00","2022","01","16","10:00","-19.8","","-22.5","","79","","","","18","","14","","","","103.05","","","","-29","","NA"
"-72.52","46.35","TROIS-RIVIERES","7018562","2022-01-16 11:00","2022","01","16","11:00","-18.9","","-21.6","","80","","","","19","","10","","","","102.97","","","","-26","","NA"
"-72.52","46.35","TROIS-RIVIERES","7018562","2022-01-16 12:00","2022","01","16","12:00","-17.7","","-20.2","","81","","","","19","","12","","","","102.85","","","","-25","","NA"
"-72.52","46.35","TROIS-RIVIERES","7018562","2022-01-16 13:00","2022","01","16","13:00","-16.5","","-18.9","","81","","","","22","","7","","","","102.78","","","","-22","","NA"
"-72.52","46.35","TROIS-RIVIERES","7018562","2022-01-16 14:00","2022","01","16","14:00","-16.1","","-18.5","","82","","","","22","","1","","","","102.63","","","","-17","","NA"
"-72.52","46.35","TROIS-RIVIERES","7018562","2022-01-16 15:00","2022","01","16","15:00","-16.2","","-18.7","","81","","","","2","","2","","","","102.50","","","","-18","","NA"
"-72.52","46.35","TROIS-RIVIERES","7018562","2022-01-16 16:00","2022","01","16","16:00","-16.5","","-19.9","","75","","","","36","","8","","","","102.40","","","","-22","","NA"
"-72.52","46.35","TROIS-RIVIERES","7018562","2022-01-16 17:00","2022","01","16","17:00","-16.9","","-20.6","","73","","","","1","","11","","","","102.35","","","","-24","","NA"
"-72.52","46.35","TROIS-RIVIERES","7018562","2022-01-16 18:00","2022","01","16","18:00","-17.9","","-22.3","","68","","","","2","","12","","","","102.24","","","","-25","","NA"
"-72.52","46.35","TROIS-RIVIERES","7018562","2022-01-16 19:00","2022","01","16","19:00","-18.7","","-23.0","","69","","","","1","","10","","","","102.21","","","","-26","","NA"
"-72.52","46.35","TROIS-RIVIERES","7018562","2022-01-16 20:00","2022","01","16","20:00","-18.9","","-23.4","","68","","","","1","","9","","","","102.15","","","","-25","","NA"
"-72.52","46.35","TROIS-RIVIERES","7018562","2022-01-16 21:00","2022","01","16","21:00","-19.8","","-23.8","","71","","","","36","","9","","","","102.08","","","","-27","","NA"
"-72.52","46.35","TROIS-RIVIERES","7018562","2022-01-16 22:00","2022","01","16","22:00","-19.7","","-23.7","","70","","","","36","","11","","","","101.91","","","","-27","","NA"
"-72.52","46.35","TROIS-RIVIERES","7018562","2022-01-16 23:00","2022","01","16","23:00","-19.5","","-23.2","","73","","","","1","","11","","","","101.88","","","","-27","","NA"
"-72.52","46.35","TROIS-RIVIERES","7018562","2022-01-17 00:00","2022","01","17","00:00","-19.2","","-22.6","","74","","","","36","","10","","","","101.77","","","","-26","","NA"
"-72.52","46.35","TROIS-RIVIERES","7018562","2022-01-17 01:00","2022","01","17","01:00","-18.3","","-21.4","","77","","","","1","","10","","","","101.66","","","","-25","","NA"
"-72.52","46.35","TROIS-RIVIERES","7018562","2022-01-17 02:00","2022","01","17","02:00","-17.1","","-20.3","","76","","","","1","","9","","","","101.57","","","","-23","","NA"
"-72.52","46.35","TROIS-RIVIERES","7018562","2022-01-17 03:00","2022","01","17","03:00","-15.8","","-18.8","","78","","","","1","","11","","","","101.42","","","","-23","","NA"
"-72.52","46.35","TROIS-RIVIERES","7018562","2022-01-17 04:00","2022","01","17","04:00","-14.4","","-18.0","","74","","","","2","","13","","","","101.24","","","","-22","","NA"
"-72.52","46.35","TROIS-RIVIERES","7018562","2022-01-17 05:00","2022","01","17","05:00","-12.6","","-17.1","","69","","","","2","","14","","","","101.05","","","","-20","","NA"
"-72.52","46.35","TROIS-RIVIERES","7018562","2022-01-17 06:00","2022","01","17","06:00","-11.3","","-16.3","","67","","","","3","","14","","","","100.85","","","","-18","","NA"
"-72.52","46.35","TROIS-RIVIERES","7018562","2022-01-17 07:00","2022","01","17","07:00","-9.8","","-14.7","","68","","","","3","","13","","","","100.59","","","","-16","","NA"
"-72.52","46.35","TROIS-RIVIERES","7018562","2022-01-17 08:00","2022","01","17","08:00","-8.2","","-13.4","","66","","","","5","","27","","","","100.41","","","","-17","","NA"
"-72.52","46.35","TROIS-RIVIERES","7018562","2022-01-17 09:00","2022","01","17","09:00","-8.8","","-10.5","","88","","","","3","","21","","","","100.12","","","","-17","","NA"
"-72.52","46.35","TROIS-RIVIERES","7018562","2022-01-17 10:00","2022","01","17","10:00","-7.2","","-8.3","","92","","","","3","","23","","","","99.93","","","","-15","","NA"
"-72.52","46.35","TROIS-RIVIERES","7018562","2022-01-17 11:00","2022","01","17","11:00","-5.3","","-6.7","","90","","","","3","","27","","","","99.49","","","","-13","","NA"
"-72.52","46.35","TROIS-RIVIERES","7018562","2022-01-17 12:00","2022","01","17","12:00","-4.3","","-6.3","","86","","","","4","","24","","","","99.22","","","","-11","","NA"
"-72.52","46.35","TROIS-RIVIERES","7018562","2022-01-17 13:00","2022","01","17","13:00","-4.7","","-6.9","","85","","","","3","","25","","","","98.91","","","","-12","","NA"
"-72.52","46.35","TROIS-RIVIERES","7018562","2022-01-17 14:00","2022","01","17","14:00","-5.0","","-6.2","","91","","","","3","","25","","","","98.65","","","","-12","","NA"
"-72.52","46.35","TROIS-RIVIERES","7018562","2022-01-17 15:00","2022","01","17","15:00","-4.2","","-6.4","","84","","","","3","","28","","","","98.40","","","","-12","","NA"
"-72.52","46.35","TROIS-RIVIERES","7018562","2022-01-17 16:00","2022","01","17","16:00","-4.4","","-6.6","","84","","","","2","","24","","","","98.24","","","","-11","","NA"
"-72.52","46.35","TROIS-RIVIERES","7018562","2022-01-17 17:00","2022","01","17","17:00","-4.7","","-6.0","","91","","","","2","","21","","","","98.14","","","","-11","","NA"
"-72.52","46.35","TROIS-RIVIERES","7018562","2022-01-17 18:00","2022","01","17","18:00","-4.5","","-5.4","","94","","","","2","","20","","","","98.09","","","","-11","","NA"
"-72.52","46.35","TROIS-RIVIERES","7018562","2022-01-17 19:00","2022","01","17","19:00","-4.2","","-5.2","","93","","","","36","","16","","","","98.14","","","","-10","","NA"
"-72.52","46.35","TROIS-RIVIERES","7018562","2022-01-17 20:00","2022","01","17","20:00","-4.6","","-6.1","","90","","","","31","","19","","","","98.25","","","","-11","","NA"
"-72.52","46.35","TROIS-RIVIERES","7018562","2022-01-17 21:00","2022","01","17","21:00","-6.3","","-8.5","","84","","","","30","","20","","","","98.43","","","","-13","","NA"
"-72.52","46.35","TROIS-RIVIERES","7018562","2022-01-17 22:00","2022","01","17","22:00","-6.7","","-8.6","","86","","","","28","","11","","","","98.55","","","","-12","","NA"
"-72.52","46.35","TROIS-RIVIERES","7018562","2022-01-17 23:00","2022","01","17","23:00","-7.1","","-9.0","","86","","","","27","","10","","","","98.71","","","","-12","","NA"
"-72.52","46.35","TROIS-RIVIERES","7018562","2022-01-18 00:00","2022","01","18","00:00","-6.8","","-9.3","","83","","","","28","","13","","","","98.83","","","","-12","","NA"
"-72.52","46.35","TROIS-RIVIERES","7018562","2022-01-18 01:00","2022","01","18","01:00","-7.3","","-11.4","","73","","","","28","","13","","","","98.98","","","","-13","","NA"
"-72.52","46.35","TROIS-RIVIERES","7018562","2022-01-18 02:00","2022","01","18","02:00","-7.5","","-12.7","","66","","","","29","","16","","","","99.20","","","","-14","","NA"
"-72.52","46.35","TROIS-RIVIERES","7018562","2022-01-18 03:00","2022","01","18","03:00","-7.9","","-13.4","","64","","","","29","","16","","","","99.39","","","","-14","","NA"
"-72.52","46.35","TROIS-RIVIERES","7018562","2022-01-18 04:00","2022","01","18","04:00","-9.3","","-14.8","","64","","","","28","","13","","","","99.57","","","","-15","","NA"
"-72.52","46.35","TROIS-RIVIERES","7018562","2022-01-18 05:00","2022","01","18","05:00","-10.0","","-15.7","","63","","","","29","","24","","","","99.75","","","","-19","","NA"
"-72.52","46.35","TROIS-RIVIERES","7018562","2022-01-18 06:00","2022","01","18","06:00","-11.0","","-16.7","","63","","","","30","","30","","","","99.95","","","","-21","","NA"
"-72.52","46.35","TROIS-RIVIERES","7018562","2022-01-18 07:00","2022","01","18","07:00","-11.8","","-17.5","","63","","","","28","","18","","","","100.16","","","","-20","","NA"
"-72.52","46.35","TROIS-RIVIERES","7018562","2022-01-18 08:00","2022","01","18","08:00","-12.2","","-18.4","","60","","","","29","","16","","","","100.34","","","","-20","","NA"
"-72.52","46.35","TROIS-RIVIERES","7018562","2022-01-18 09:00","2022","01","18","09:00","-12.8","","-18.5","","62","","","","29","","10","","","","100.49","","","","-19","","NA"
"-72.52","46.35","TROIS-RIVIERES","7018562","2022-01-18 10:00","2022","01","18","10:00","-13.0","","-20.7","","52","","","","30","","20","","","","100.64","","","","-22","","NA"
"-72.52","46.35","TROIS-RIVIERES","7018562","2022-01-18 11:00","2022","01","18","11:00","-14.1","","-22.3","","50","","","","29","","24","","","","100.75","","","","-24","","NA"
"-72.52","46.35","TROIS-RIVIERES","7018562","2022-01-18 12:00","2022","01","18","12:00","-14.4","","-22.8","","49","","","","29","","22","","","","100.87","","","","-24","","NA"
"-72.52","46.35","TROIS-RIVIERES","7018562","2022-01-18 13:00","2022","01","18","13:00","-14.2","","-22.9","","48","","","","29","","17","","","","100.97","","","","-22","","NA"
"-72.52","46.35","TROIS-RIVIERES","7018562","2022-01-18 14:00","2022","01","18","14:00","-14.2","","-22.9","","48","","","","29","","20","","","","101.09","","","","-23","","NA"
"-72.52","46.35","TROIS-RIVIERES","7018562","2022-01-18 15:00","2022","01","18","15:00","-13.9","","-22.7","","47","","","","29","","19","","","","101.24","","","","-23","","NA"
"-72.52","46.35","TROIS-RIVIERES","7018562","2022-01-18 16:00","2022","01","18","16:00","-14.4","","-22.8","","49","","","","28","","22","","","","101.37","","","","-24","","NA"
"-72.52","46.35","TROIS-RIVIERES","7018562","2022-01-18 17:00","2022","01","18","17:00","-15.5","","-22.7","","54","","","","28","","17","","","","101.56","","","","-24","","NA"
"-72.52","46.35","TROIS-RIVIERES","7018562","2022-01-18 18:00","2022","01","18","18:00","-16.1","","-23.2","","54","","","","27","","11","","","","101.75","","","","-23","","NA"
"-72.52","46.35","TROIS-RIVIERES","7018562","2022-01-18 19:00","2022","01","18","19:00","-16.7","","-23.2","","57","","","","26","","9","","","","101.84","","","","-23","","NA"
"-72.52","46.35","TROIS-RIVIERES","7018562","2022-01-18 20:00","2022","01","18","20:00","-17.5","","-23.1","","62","","","","28","","9","","","","101.93","","","","-24","","NA"
"-72.52","46.35","TROIS-RIVIERES","7018562","2022-01-18 21:00","2022","01","18","21:00","-18.8","","-23.2","","69","","","","28","","6","","","","102.02","","","","-24","","NA"
"-72.52","46.35","TROIS-RIVIERES","7018562","2022-01-18 22:00","2022","01","18","22:00","-20.1","","-23.0","","78","","","","29","","5","","","","102.05","","","","-24","","NA"
"-72.52","46.35","TROIS-RIVIERES","7018562","2022-01-18 23:00","2022","01","18","23:00","-22.3","","-24.1","","85","","","","29","","4","","","","102.07","","","","-26","","NA"
"-72.52","46.35","TROIS-RIVIERES","7018562","2022-01-19 00:00","2022","01","19","00:00","-22.3","","-24.2","","85","","","","30","","5","","","","102.08","","","","-27","","NA"
"-72.52","46.35","TROIS-RIVIERES","7018562","2022-01-19 01:00","2022","01","19","01:00","-23.0","","-25.2","","82","","","","29","","5","","","","102.06","","","","-28","","NA"
"-72.52","46.35","TROIS-RIVIERES","7018562","2022-01-19 02:00","2022","01","19","02:00","-22.8","","-25.1","","82","","","","30","","5","","","","102.05","","","","-27","","NA"
"-72.52","46.35","TROIS-RIVIERES","7018562","2022-01-19 03:00","2022","01","19","03:00","-23.1","","-25.5","","81","","","","29","","8","","","","102.04","","","","-30","","NA"
"-72.52","46.35","TROIS-RIVIERES","7018562","2022-01-19 04:00","2022","01","19","04:00","-21.7","","-24.1","","81","","","","32","","4","","","","101.95","","","","-25","","NA"
"-72.52","46.35","TROIS-RIVIERES","7018562","2022-01-19 05:00","2022","01","19","05:00","-18.9","","-21.1","","83","","","","36","","6","","","","101.86","","","","-24","","NA"
"-72.52","46.35","TROIS-RIVIERES","7018562","2022-01-19 06:00","2022","01","19","06:00","-18.7","","-20.8","","83","","","","8","","16","","","","101.78","","","","-28","","NA"
"-72.52","46.35","TROIS-RIVIERES","7018562","2022-01-19 07:00","2022","01","19","07:00","-18.2","","-20.3","","83","","","","6","","18","","","","101.63","","","","-28","","NA"
"-72.52","46.35","TROIS-RIVIERES","7018562","2022-01-19 08:00","2022","01","19","08:00","-18.0","","-20.2","","83","","","","6","","35","","","","101.50","","","","-31","","NA"
"-72.52","46.35","TROIS-RIVIERES","7018562","2022-01-19 09:00","2022","01","19","09:00","-17.5","","-19.6","","84","","","","6","","33","","","","101.32","","","","-30","","NA"
"-72.52","46.35","TROIS-RIVIERES","7018562","2022-01-19 10:00","2022","01","19","10:00","-16.7","","-18.7","","84","","","","6","","30","","","","101.21","","","","-28","","NA"
"-72.52","46.35","TROIS-RIVIERES","7018562","2022-01-19 11:00","2022","01","19","11:00","-16.1","","-18.1","","85","","","","6","","32","","","","101.02","","","","-28","","NA"
"-72.52","46.35","TROIS-RIVIERES","7018562","2022-01-19 12:00","2022","01","19","12:00","-16.6","","-18.7","","84","","","","2","","13","","","","100.86","","","","-24","","NA"
"-72.52","46.35","TROIS-RIVIERES","7018562","2022-01-19 13:00","2022","01","19","13:00","-14.6","","-16.4","","86","","","","6","","22","","","","100.71","","","","-24","","NA"
"-72.52","46.35","TROIS-RIVIERES","7018562","2022-01-19 14:00","2022","01","19","14:00","-13.9","","-15.7","","86","","","","3","","9","","","","100.64","","","","-20","","NA"
"-72.52","46.35","TROIS-RIVIERES","7018562","2022-01-19 15:00","2022","01","19","15:00","-13.9","","-15.7","","86","","","","1","","10","","","","100.64","","","","-20","","NA"
"-72.52","46.35","TROIS-RIVIERES","7018562","2022-01-19 16:00","2022","01","19","16:00","-13.3","","-15.0","","87","","","","36","","10","","","","100.65","","","","-19","","NA"
"-72.52","46.35","TROIS-RIVIERES","7018562","2022-01-19 17:00","2022","01","19","17:00","-11.8","","-13.3","","88","","","","6","","16","","","","100.65","","","","-19","","NA"
"-72.52","46.35","TROIS-RIVIERES","7018562","2022-01-19 18:00","2022","01","19","18:00","-11.6","","-13.0","","89","","","","7","","15","","","","100.64","","","","-19","","NA"
"-72.52","46.35","TROIS-RIVIERES","7018562","2022-01-19 19:00","2022","01","19","19:00","-10.8","","-12.2","","89","","","","6","","12","","","","100.62","","","","-17","","NA"
"-72.52","46.35","TROIS-RIVIERES","7018562","2022-01-19 20:00","2022","01","19","20:00","-10.6","","-12.0","","90","","","","6","","7","","","","100.70","","","","-15","","NA"
"-72.52","46.35","TROIS-RIVIERES","7018562","2022-01-19 21:00","2022","01","19","21:00","-10.6","","-12.0","","89","","","","8","","4","","","","100.78","","","","-13","","NA"
"-72.52","46.35","TROIS-RIVIERES","7018562","2022-01-19 22:00","2022","01","19","22:00","-11.1","","-12.5","","89","","","","31","","4","","","","100.89","","","","-14","","NA"
"-72.52","46.35","TROIS-RIVIERES","7018562","2022-01-19 23:00","2022","01","19","23:00","-11.9","","-13.4","","89","","","","22","","8","","","","101.00","","","","-17","","NA"
"-72.52","46.35","TROIS-RIVIERES","7018562","2022-01-20 00:00","2022","01","20","00:00","-10.6","","-11.9","","90","","","","19","","13","","","","101.08","","","","-17","","NA"
"-72.52","46.35","TROIS-RIVIERES","7018562","2022-01-20 01:00","2022","01","20","01:00","-11.4","","-12.9","","89","","","","27","","6","","","","101.19","","","","-15","","NA"
"-72.52","46.35","TROIS-RIVIERES","7018562","2022-01-20 02:00","2022","01","20","02:00","-11.5","","-12.9","","89","","","","26","","4","","","","101.36","","","","-14","","NA"
"-72.52","46.35","TROIS-RIVIERES","7018562","2022-01-20 03:00","2022","01","20","03:00","-11.8","","-13.3","","88","","","","27","","3","","","","101.50","","","","-14","","NA"
"-72.52","46.35","TROIS-RIVIERES","7018562","2022-01-20 04:00","2022","01","20","04:00","-11.4","","-13.2","","87","","","","30","","16","","","","101.66","","","","-19","","NA"
"-72.52","46.35","TROIS-RIVIERES","7018562","2022-01-20 05:00","2022","01","20","05:00","-12.7","","-15.3","","81","","","","30","","13","","","","101.85","","","","-20","","NA"
"-72.52","46.35","TROIS-RIVIERES","7018562","2022-01-20 06:00","2022","01","20","06:00","-14.6","","-18.5","","72","","","","31","","25","","","","102.04","","","","-25","","NA"
"-72.52","46.35","TROIS-RIVIERES","7018562","2022-01-20 07:00","2022","01","20","07:00","-16.4","","-20.3","","72","","","","30","","7","","","","102.18","","","","-21","","NA"
"-72.52","46.35","TROIS-RIVIERES","7018562","2022-01-20 08:00","2022","01","20","08:00","-17.2","","-20.8","","74","","","","29","","7","","","","102.31","","","","-22","","NA"
"-72.52","46.35","TROIS-RIVIERES","7018562","2022-01-20 09:00","2022","01","20","09:00","-16.4","","-21.1","","67","","","","28","","8","","","","102.43","","","","-22","","NA"
"-72.52","46.35","TROIS-RIVIERES","7018562","2022-01-20 10:00","2022","01","20","10:00","-16.0","","-21.4","","63","","","","30","","13","","","","102.55","","","","-24","","NA"
"-72.52","46.35","TROIS-RIVIERES","7018562","2022-01-20 11:00","2022","01","20","11:00","-15.6","","-21.8","","59","","","","28","","9","","","","102.61","","","","-22","","NA"
"-72.52","46.35","TROIS-RIVIERES","7018562","2022-01-20 12:00","2022","01","20","12:00","-15.2","","-21.4","","59","","","","29","","12","","","","102.60","","","","-22","","NA"
"-72.52","46.35","TROIS-RIVIERES","7018562","2022-01-20 13:00","2022","01","20","13:00","-14.6","","-21.3","","57","","","","30","","11","","","","102.63","","","","-21","","NA"
"-72.52","46.35","TROIS-RIVIERES","7018562","2022-01-20 14:00","2022","01","20","14:00","-14.4","","-22.1","","52","","","","28","","9","","","","102.66","","","","-20","","NA"
"-72.52","46.35","TROIS-RIVIERES","7018562","2022-01-20 15:00","2022","01","20","15:00","-13.2","","-20.1","","56","","","","21","","14","","","","102.68","","","","-20","","NA"
"-72.52","46.35","TROIS-RIVIERES","7018562","2022-01-20 16:00","2022","01","20","16:00","-13.9","","-20.0","","60","","","","24","","10","","","","102.75","","","","-20","","NA"
"-72.52","46.35","TROIS-RIVIERES","7018562","2022-01-20 17:00","2022","01","20","17:00","-15.7","","-20.9","","64","","","","26","","5","","","","102.83","","","","-19","","NA"
"-72.52","46.35","TROIS-RIVIERES","7018562","2022-01-20 18:00","2022","01","20","18:00","-17.5","","-21.3","","72","","","","30","","7","","","","102.93","","","","-23","","NA"
"-72.52","46.35","TROIS-RIVIERES","7018562","2022-01-20 19:00","2022","01","20","19:00","-19.7","","-22.8","","76","","","","28","","5","","","","103.00","","","","-24","","NA"
"-72.52","46.35","TROIS-RIVIERES","7018562","2022-01-20 20:00","2022","01","20","20:00","-21.8","","-24.5","","78","","","","29","","7","","","","103.11","","","","-28","","NA"
"-72.52","46.35","TROIS-RIVIERES","7018562","2022-01-20 21:00","2022","01","20","21:00","-21.9","","-24.4","","81","","","","25","","3","","","","103.21","","","","-25","","NA"
"-72.52","46.35","TROIS-RIVIERES","7018562","2022-01-20 22:00","2022","01","20","22:00","-24.4","","-26.3","","84","","","","27","","4","","","","103.31","","","","-28","","NA"
"-72.52","46.35","TROIS-RIVIERES","7018562","2022-01-20 23:00","2022","01","20","23:00","-25.3","","-27.7","","81","","","","27","","5","","","","103.36","","","","-30","","NA"
"-72.52","46.35","TROIS-RIVIERES","7018562","2022-01-21 00:00","2022","01","21","00:00","-26.5","","-29.1","","79","","","","30","","10","","","","103.38","","","","-35","","NA"
"-72.52","46.35","TROIS-RIVIERES","7018562","2022-01-21 01:00","2022","01","21","01:00","-25.2","","-27.7","","80","","","","30","","12","","","","103.46","","","","-34","","NA"
"-72.52","46.35","TROIS-RIVIERES","7018562","2022-01-21 02:00","2022","01","21","02:00","-26.5","","-29.2","","78","","","","30","","10","","","","103.56","","","","-35","","NA"
"-72.52","46.35","TROIS-RIVIERES","7018562","2022-01-21 03:00","2022","01","21","03:00","-26.9","","-29.6","","78","","","","30","","9","","","","103.59","","","","-35","","NA"
"-72.52","46.35","TROIS-RIVIERES","7018562","2022-01-21 04:00","2022","01","21","04:00","-26.4","","-29.2","","77","","","","31","","9","","","","103.60","","","","-34","","NA"
"-72.52","46.35","TROIS-RIVIERES","7018562","2022-01-21 05:00","2022","01","21","05:00","-30.1","","-33.0","","76","","","","29","","8","","","","103.64","","","","-38","","NA"
"-72.52","46.35","TROIS-RIVIERES","7018562","2022-01-21 06:00","2022","01","21","06:00","-30.4","","-33.2","","76","","","","29","","8","","","","103.72","","","","-38","","NA"
"-72.52","46.35","TROIS-RIVIERES","7018562","2022-01-21 07:00","2022","01","21","07:00","-29.6","","-32.4","","77","","","","29","","10","","","","103.81","","","","-39","","NA"
"-72.52","46.35","TROIS-RIVIERES","7018562","2022-01-21 08:00","2022","01","21","08:00","-28.8","","-31.8","","75","","","","29","","8","","","","103.90","","","","-37","","NA"
"-72.52","46.35","TROIS-RIVIERES","7018562","2022-01-21 09:00","2022","01","21","09:00","-25.3","","-28.6","","74","","","","29","","9","","","","103.95","","","","-33","","NA"
"-72.52","46.35","TROIS-RIVIERES","7018562","2022-01-21 10:00","2022","01","21","10:00","-22.8","","-26.7","","70","","","","30","","8","","","","104.02","","","","-30","","NA"
"-72.52","46.35","TROIS-RIVIERES","7018562","2022-01-21 11:00","2022","01","21","11:00","-21.6","","-27.6","","58","","","","31","","5","","","","104.03","","","","-26","","NA"
"-72.52","46.35","TROIS-RIVIERES","7018562","2022-01-21 12:00","2022","01","21","12:00","-19.5","","-24.7","","64","","","","18","","9","","","","103.97","","","","-26","","NA"
"-72.52","46.35","TROIS-RIVIERES","7018562","2022-01-21 13:00","2022","01","21","13:00","-18.3","","-22.1","","72","","","","18","","14","","","","103.91","","","","-27","","NA"
"-72.52","46.35","TROIS-RIVIERES","7018562","2022-01-21 14:00","2022","01","21","14:00","-18.3","","-21.7","","75","","","","18","","18","","","","103.88","","","","-28","","NA"
"-72.52","46.35","TROIS-RIVIERES","7018562","2022-01-21 15:00","2022","01","21","15:00","-18.0","","-21.5","","74","","","","21","","18","","","","103.89","","","","-27","","NA"
"-72.52","46.35","TROIS-RIVIERES","7018562","2022-01-21 16:00","2022","01","21","16:00","-18.5","","-23.1","","67","","","","21","","15","","","","103.91","","","","-27","","NA"
"-72.52","46.35","TROIS-RIVIERES","7018562","2022-01-21 17:00","2022","01","21","17:00","-18.6","","-21.9","","75","","","","19","","19","","","","103.90","","","","-28","","NA"
"-72.52","46.35","TROIS-RIVIERES","7018562","2022-01-21 18:00","2022","01","21","18:00","-19.1","","-21.8","","79","","","","19","","16","","","","103.94","","","","-28","","NA"
"-72.52","46.35","TROIS-RIVIERES","7018562","2022-01-21 19:00","2022","01","21","19:00","-19.1","","-21.4","","82","","","","19","","13","","","","103.92","","","","-27","","NA"
"-72.52","46.35","TROIS-RIVIERES","7018562","2022-01-21 20:00","2022","01","21","20:00","-23.0","","-25.8","","77","","","","27","","6","","","","103.88","","","","-28","","NA"
"-72.52","46.35","TROIS-RIVIERES","7018562","2022-01-21 21:00","2022","01","21","21:00","-23.7","","-26.3","","79","","","","20","","7","","","","103.86","","","","-30","","NA"
"-72.52","46.35","TROIS-RIVIERES","7018562","2022-01-21 22:00","2022","01","21","22:00","-27.0","","-29.6","","78","","","","30","","3","","","","103.85","","","","-30","","NA"
"-72.52","46.35","TROIS-RIVIERES","7018562","2022-01-21 23:00","2022","01","21","23:00","-26.0","","-28.2","","82","","","","22","","3","","","","103.82","","","","-29","","NA"
"-72.52","46.35","TROIS-RIVIERES","7018562","2022-01-22 00:00","2022","01","22","00:00","-28.0","","-30.9","","76","","","","29","","4","","","","103.80","","","","-32","","NA"
"-72.52","46.35","TROIS-RIVIERES","7018562","2022-01-22 01:00","2022","01","22","01:00","-29.2","","-32.0","","76","","","","30","","6","","","","103.73","","","","-36","","NA"
"-72.52","46.35","TROIS-RIVIERES","7018562","2022-01-22 02:00","2022","01","22","02:00","-29.4","","-32.3","","76","","","","30","","8","","","","103.68","","","","-37","","NA"
"-72.52","46.35","TROIS-RIVIERES","7018562","2022-01-22 03:00","2022","01","22","03:00","-29.7","","-32.6","","75","","","","32","","7","","","","103.63","","","","-37","","NA"
"-72.52","46.35","TROIS-RIVIERES","7018562","2022-01-22 04:00","2022","01","22","04:00","-28.5","","-31.5","","76","","","","32","","7","","","","103.58","","","","-36","","NA"
"-72.52","46.35","TROIS-RIVIERES","7018562","2022-01-22 05:00","2022","01","22","05:00","-28.7","","-31.6","","76","","","","33","","6","","","","103.52","","","","-35","","NA"
"-72.52","46.35","TROIS-RIVIERES","7018562","2022-01-22 06:00","2022","01","22","06:00","-28.8","","-31.8","","75","","","","34","","8","","","","103.46","","","","-37","","NA"
"-72.52","46.35","TROIS-RIVIERES","7018562","2022-01-22 07:00","2022","01","22","07:00","-28.9","","-31.9","","75","","","","31","","7","","","","103.42","","","","-36","","NA"
"-72.52","46.35","TROIS-RIVIERES","7018562","2022-01-22 08:00","2022","01","22","08:00","-28.7","","-31.7","","75","","","","32","","7","","","","103.34","","","","-36","","NA"
"-72.52","46.35","TROIS-RIVIERES","7018562","2022-01-22 09:00","2022","01","22","09:00","-27.4","","-30.4","","76","","","","35","","7","","","","103.25","","","","-34","","NA"
"-72.52","46.35","TROIS-RIVIERES","7018562","2022-01-22 10:00","2022","01","22","10:00","-25.4","","-28.4","","76","","","","36","","5","","","","103.19","","","","-30","","NA"
"-72.52","46.35","TROIS-RIVIERES","7018562","2022-01-22 11:00","2022","01","22","11:00","-23.2","","-26.0","","78","","","","36","","3","","","","103.12","","","","-26","","NA"
"-72.52","46.35","TROIS-RIVIERES","7018562","2022-01-22 12:00","2022","01","22","12:00","-19.9","","-22.7","","78","","","","6","","10","","","","102.88","","","","-27","","NA"
"-72.52","46.35","TROIS-RIVIERES","7018562","2022-01-22 13:00","2022","01","22","13:00","-18.7","","-21.5","","78","","","","29","","6","","","","102.78","","","","-24","","NA"
"-72.52","46.35","TROIS-RIVIERES","7018562","2022-01-22 14:00","2022","01","22","14:00","-17.3","","-19.6","","82","","","","","","0","","","","102.58","","","","","","NA"
"-72.52","46.35","TROIS-RIVIERES","7018562","2022-01-22 15:00","2022","01","22","15:00","-16.5","","-19.0","","81","","","","13","","3","","","","102.44","","","","-19","","NA"
"-72.52","46.35","TROIS-RIVIERES","7018562","2022-01-22 16:00","2022","01","22","16:00","-17.8","","-20.3","","80","","","","3","","3","","","","102.30","","","","-20","","NA"
"-72.52","46.35","TROIS-RIVIERES","7018562","2022-01-22 17:00","2022","01","22","17:00","-17.3","","-20.3","","78","","","","36","","6","","","","102.12","","","","-22","","NA"
"-72.52","46.35","TROIS-RIVIERES","7018562","2022-01-22 18:00","2022","01","22","18:00","-17.9","","-20.9","","77","","","","1","","6","","","","101.99","","","","-23","","NA"
"-72.52","46.35","TROIS-RIVIERES","7018562","2022-01-22 19:00","2022","01","22","19:00","-17.6","","-20.9","","76","","","","36","","8","","","","101.82","","","","-23","","NA"
"-72.52","46.35","TROIS-RIVIERES","7018562","2022-01-22 20:00","2022","01","22","20:00","-17.7","","-21.5","","72","","","","36","","9","","","","101.64","","","","-24","","NA"
"-72.52","46.35","TROIS-RIVIERES","7018562","2022-01-22 21:00","2022","01","22","21:00","-17.2","","-20.9","","73","","","","36","","9","","","","101.47","","","","-23","","NA"
"-72.52","46.35","TROIS-RIVIERES","7018562","2022-01-22 22:00","2022","01","22","22:00","-17.1","","-20.7","","74","","","","36","","8","","","","101.36","","","","-23","","NA"
"-72.52","46.35","TROIS-RIVIERES","7018562","2022-01-22 23:00","2022","01","22","23:00","-16.5","","-20.0","","74","","","","35","","8","","","","101.26","","","","-22","","NA"
"-72.52","46.35","TROIS-RIVIERES","7018562","2022-01-23 00:00","2022","01","23","00:00","-16.4","","-19.9","","74","","","","31","","6","","","","101.13","","","","-21","","NA"
"-72.52","46.35","TROIS-RIVIERES","7018562","2022-01-23 01:00","2022","01","23","01:00","-16.0","","-18.6","","80","","","","34","","3","","","","101.02","","","","-18","","NA"
"-72.52","46.35","TROIS-RIVIERES","7018562","2022-01-23 02:00","2022","01","23","02:00","-14.8","","-16.5","","87","","","","15","","8","","","","100.92","","","","-20","","NA"
"-72.52","46.35","TROIS-RIVIERES","7018562","2022-01-23 03:00","2022","01","23","03:00","-15.1","","-17.0","","85","","","","27","","5","","","","100.88","","","","-19","","NA"
"-72.52","46.35","TROIS-RIVIERES","7018562","2022-01-23 04:00","2022","01","23","04:00","-15.0","","-16.9","","85","","","","25","","6","","","","100.80","","","","-19","","NA"
"-72.52","46.35","TROIS-RIVIERES","7018562","2022-01-23 05:00","2022","01","23","05:00","-14.1","","-15.7","","88","","","","23","","11","","","","100.75","","","","-21","","NA"
"-72.52","46.35","TROIS-RIVIERES","7018562","2022-01-23 06:00","2022","01","23","06:00","-13.1","","-14.7","","87","","","","23","","12","","","","100.73","","","","-20","","NA"
"-72.52","46.35","TROIS-RIVIERES","7018562","2022-01-23 07:00","2022","01","23","07:00","-12.9","","-14.5","","88","","","","19","","18","","","","100.72","","","","-21","","NA"
"-72.52","46.35","TROIS-RIVIERES","7018562","2022-01-23 08:00","2022","01","23","08:00","-12.4","","-14.1","","88","","","","19","","17","","","","100.67","","","","-20","","NA"
"-72.52","46.35","TROIS-RIVIERES","7018562","2022-01-23 09:00","2022","01","23","09:00","-11.7","","-13.3","","88","","","","22","","20","","","","100.66","","","","-20","","NA"
"-72.52","46.35","TROIS-RIVIERES","7018562","2022-01-23 10:00","2022","01","23","10:00","-11.9","","-13.7","","86","","","","23","","16","","","","100.67","","","","-19","","NA"
"-72.52","46.35","TROIS-RIVIERES","7018562","2022-01-23 11:00","2022","01","23","11:00","-10.8","","-12.6","","86","","","","22","","18","","","","100.65","","","","-18","","NA"
"-72.52","46.35","TROIS-RIVIERES","7018562","2022-01-23 12:00","2022","01","23","12:00","-9.4","","-12.5","","78","","","","22","","20","","","","100.59","","","","-17","","NA"
"-72.52","46.35","TROIS-RIVIERES","7018562","2022-01-23 13:00","2022","01","23","13:00","-7.7","","-12.7","","68","","","","22","","23","","","","100.58","","","","-15","","NA"
"-72.52","46.35","TROIS-RIVIERES","7018562","2022-01-23 14:00","2022","01","23","14:00","-6.9","","-12.2","","66","","","","22","","25","","","","100.58","","","","-15","","NA"
"-72.52","46.35","TROIS-RIVIERES","7018562","2022-01-23 15:00","2022","01","23","15:00","-6.6","","-13.7","","57","","","","22","","26","","","","100.59","","","","-15","","NA"
"-72.52","46.35","TROIS-RIVIERES","7018562","2022-01-23 16:00","2022","01","23","16:00","-8.7","","-17.7","","48","","","","30","","14","","","","100.69","","","","-15","","NA"
"-72.52","46.35","TROIS-RIVIERES","7018562","2022-01-23 17:00","2022","01","23","17:00","-11.2","","-18.5","","55","","","","31","","12","","","","100.78","","","","-17","","NA"
"-72.52","46.35","TROIS-RIVIERES","7018562","2022-01-23 18:00","2022","01","23","18:00","-12.5","","-18.6","","60","","","","32","","7","","","","100.89","","","","-17","","NA"
"-72.52","46.35","TROIS-RIVIERES","7018562","2022-01-23 19:00","2022","01","23","19:00","-13.6","","-19.6","","60","","","","33","","12","","","","100.98","","","","-20","","NA"
"-72.52","46.35","TROIS-RIVIERES","7018562","2022-01-23 20:00","2022","01","23","20:00","-15.0","","-20.5","","63","","","","1","","2","","","","101.05","","","","-16","","NA"
"-72.52","46.35","TROIS-RIVIERES","7018562","2022-01-23 21:00","2022","01","23","21:00","-15.9","","-21.2","","64","","","","34","","2","","","","101.11","","","","-17","","NA"
"-72.52","46.35","TROIS-RIVIERES","7018562","2022-01-23 22:00","2022","01","23","22:00","-19.4","","-23.2","","72","","","","32","","3","","","","101.15","","","","-22","","NA"
"-72.52","46.35","TROIS-RIVIERES","7018562","2022-01-23 23:00","2022","01","23","23:00","-22.2","","-24.3","","83","","","","30","","5","","","","101.18","","","","-27","","NA"
"-72.52","46.35","TROIS-RIVIERES","7018562","2022-01-24 00:00","2022","01","24","00:00","-23.0","","-25.0","","84","","","","30","","7","","","","101.25","","","","-29","","NA"
"-72.52","46.35","TROIS-RIVIERES","7018562","2022-01-24 01:00","2022","01","24","01:00","-24.1","","-26.6","","79","","","","30","","8","","","","101.25","","","","-31","","NA"
"-72.52","46.35","TROIS-RIVIERES","7018562","2022-01-24 02:00","2022","01","24","02:00","-25.9","","-28.4","","79","","","","28","","7","","","","101.26","","","","-33","","NA"
"-72.52","46.35","TROIS-RIVIERES","7018562","2022-01-24 03:00","2022","01","24","03:00","-27.6","","-30.0","","80","","","","29","","10","","","","101.30","","","","-36","","NA"
"-72.52","46.35","TROIS-RIVIERES","7018562","2022-01-24 04:00","2022","01","24","04:00","-27.2","","-29.7","","80","","","","28","","8","","","","101.34","","","","-35","","NA"
"-72.52","46.35","TROIS-RIVIERES","7018562","2022-01-24 05:00","2022","01","24","05:00","-27.5","","-30.0","","79","","","","30","","7","","","","101.35","","","","-34","","NA"
"-72.52","46.35","TROIS-RIVIERES","7018562","2022-01-24 06:00","2022","01","24","06:00","-27.3","","-29.9","","79","","","","30","","4","","","","101.37","","","","-32","","NA"
"-72.52","46.35","TROIS-RIVIERES","7018562","2022-01-24 07:00","2022","01","24","07:00","-27.0","","-29.6","","79","","","","28","","6","","","","101.44","","","","-33","","NA"
"-72.52","46.35","TROIS-RIVIERES","7018562","2022-01-24 08:00","2022","01","24","08:00","-26.2","","-28.8","","78","","","","27","","4","","","","101.50","","","","-30","","NA"
"-72.52","46.35","TROIS-RIVIERES","7018562","2022-01-24 09:00","2022","01","24","09:00","-22.7","","-25.1","","80","","","","20","","5","","","","101.52","","","","-27","","NA"
"-72.52","46.35","TROIS-RIVIERES","7018562","2022-01-24 10:00","2022","01","24","10:00","-21.0","","-23.5","","80","","","","18","","6","","","","101.58","","","","-26","","NA"
"-72.52","46.35","TROIS-RIVIERES","7018562","2022-01-24 11:00","2022","01","24","11:00","-19.2","","-21.6","","81","","","","0","","1","","","","101.56","","","","-20","","NA"
"-72.52","46.35","TROIS-RIVIERES","7018562","2022-01-24 12:00","2022","01","24","12:00","-17.5","","-19.9","","81","","","","20","","8","","","","101.52","","","","-23","","NA"
"-72.52","46.35","TROIS-RIVIERES","7018562","2022-01-24 13:00","2022","01","24","13:00","-17.0","","-19.4","","81","","","","20","","14","","","","101.43","","","","-25","","NA"
"-72.52","46.35","TROIS-RIVIERES","7018562","2022-01-24 14:00","2022","01","24","14:00","-16.1","","-18.7","","80","","","","19","","8","","","","101.34","","","","-22","","NA"
"-72.52","46.35","TROIS-RIVIERES","7018562","2022-01-24 15:00","2022","01","24","15:00","-15.5","","-18.7","","77","","","","19","","12","","","","101.37","","","","-23","","NA"
"-72.52","46.35","TROIS-RIVIERES","7018562","2022-01-24 16:00","2022","01","24","16:00","-15.2","","-19.5","","69","","","","16","","6","","","","101.36","","","","-19","","NA"
"-72.52","46.35","TROIS-RIVIERES","7018562","2022-01-24 17:00","2022","01","24","17:00","-14.7","","-20.3","","62","","","","14","","5","","","","101.34","","","","-18","","NA"
"-72.52","46.35","TROIS-RIVIERES","7018562","2022-01-24 18:00","2022","01","24","18:00","-14.0","","-19.6","","63","","","","10","","8","","","","101.37","","","","-19","","NA"
"-72.52","46.35","TROIS-RIVIERES","7018562","2022-01-24 19:00","2022","01","24","19:00","-14.3","","-20.2","","61","","","","7","","9","","","","101.40","","","","-20","","NA"
"-72.52","46.35","TROIS-RIVIERES","7018562","2022-01-24 20:00","2022","01","24","20:00","-15.0","","-19.7","","67","","","","2","","6","","","","101.38","","","","-19","","NA"
"-72.52","46.35","TROIS-RIVIERES","7018562","2022-01-24 21:00","2022","01","24","21:00","-14.9","","-19.4","","68","","","","1","","6","","","","101.34","","","","-19","","NA"
"-72.52","46.35","TROIS-RIVIERES","7018562","2022-01-24 22:00","2022","01","24","22:00","-15.2","","-19.5","","69","","","","1","","10","","","","101.30","","","","-21","","NA"
"-72.52","46.35","TROIS-RIVIERES","7018562","2022-01-24 23:00","2022","01","24","23:00","-15.3","","-19.1","","72","","","","1","","9","","","","101.28","","","","-21","","NA"
"-72.52","46.35","TROIS-RIVIERES","7018562","2022-01-25 00:00","2022","01","25","00:00","-15.4","","-18.9","","75","","","","1","","8","","","","101.23","","","","-21","","NA"
"-72.52","46.35","TROIS-RIVIERES","7018562","2022-01-25 01:00","2022","01","25","01:00","-15.1","","-17.9","","79","","","","2","","12","","","","101.16","","","","-22","","NA"
"-72.52","46.35","TROIS-RIVIERES","7018562","2022-01-25 02:00","2022","01","25","02:00","-15.1","","-17.7","","80","","","","2","","11","","","","101.12","","","","-22","","NA"
"-72.52","46.35","TROIS-RIVIERES","7018562","2022-01-25 03:00","2022","01","25","03:00","-15.0","","-17.6","","81","","","","1","","11","","","","101.11","","","","-22","","NA"
"-72.52","46.35","TROIS-RIVIERES","7018562","2022-01-25 04:00","2022","01","25","04:00","-14.9","","-17.3","","82","","","","1","","12","","","","101.07","","","","-22","","NA"
"-72.52","46.35","TROIS-RIVIERES","7018562","2022-01-25 05:00","2022","01","25","05:00","-14.9","","-17.2","","83","","","","36","","8","","","","101.06","","","","-20","","NA"
"-72.52","46.35","TROIS-RIVIERES","7018562","2022-01-25 06:00","2022","01","25","06:00","-15.0","","-17.4","","82","","","","35","","9","","","","101.10","","","","-21","","NA"
"-72.52","46.35","TROIS-RIVIERES","7018562","2022-01-25 07:00","2022","01","25","07:00","-15.7","","-18.0","","83","","","","36","","8","","","","101.14","","","","-21","","NA"
"-72.52","46.35","TROIS-RIVIERES","7018562","2022-01-25 08:00","2022","01","25","08:00","-15.9","","-18.1","","83","","","","35","","9","","","","101.20","","","","-22","","NA"
"-72.52","46.35","TROIS-RIVIERES","7018562","2022-01-25 09:00","2022","01","25","09:00","-15.0","","-17.6","","80","","","","35","","7","","","","101.23","","","","-20","","NA"
"-72.52","46.35","TROIS-RIVIERES","7018562","2022-01-25 10:00","2022","01","25","10:00","-12.6","","-16.6","","72","","","","36","","5","","","","101.28","","","","-16","","NA"
"-72.52","46.35","TROIS-RIVIERES","7018562","2022-01-25 11:00","2022","01","25","11:00","-11.1","","-15.5","","70","","","","31","","2","","","","101.28","","","","-12","","NA"
"-72.52","46.35","TROIS-RIVIERES","7018562","2022-01-25 12:00","2022","01","25","12:00","-9.3","","-14.5","","66","","","","19","","2","","","","101.26","","","","-10","","NA"
"-72.52","46.35","TROIS-RIVIERES","7018562","2022-01-25 13:00","2022","01","25","13:00","-9.2","","-12.9","","75","","","","17","","7","","","","101.24","","","","-13","","NA"
"-72.52","46.35","TROIS-RIVIERES","7018562","2022-01-25 14:00","2022","01","25","14:00","-8.7","","-12.0","","77","","","","22","","11","","","","101.25","","","","-14","","NA"
"-72.52","46.35","TROIS-RIVIERES","7018562","2022-01-25 15:00","2022","01","25","15:00","-8.9","","-10.6","","88","","","","20","","17","","","","101.33","","","","-16","","NA"
"-72.52","46.35","TROIS-RIVIERES","7018562","2022-01-25 16:00","2022","01","25","16:00","-9.1","","-10.8","","87","","","","22","","12","","","","101.38","","","","-15","","NA"
"-72.52","46.35","TROIS-RIVIERES","7018562","2022-01-25 17:00","2022","01","25","17:00","-10.0","","-12.0","","85","","","","24","","10","","","","101.51","","","","-15","","NA"
"-72.52","46.35","TROIS-RIVIERES","7018562","2022-01-25 18:00","2022","01","25","18:00","-10.0","","-11.9","","86","","","","24","","11","","","","101.65","","","","-16","","NA"
"-72.52","46.35","TROIS-RIVIERES","7018562","2022-01-25 19:00","2022","01","25","19:00","-10.3","","-12.1","","86","","","","25","","8","","","","101.73","","","","-15","","NA"
"-72.52","46.35","TROIS-RIVIERES","7018562","2022-01-25 20:00","2022","01","25","20:00","-9.9","","-12.0","","84","","","","24","","7","","","","101.81","","","","-14","","NA"
"-72.52","46.35","TROIS-RIVIERES","7018562","2022-01-25 21:00","2022","01","25","21:00","-12.2","","-16.0","","73","","","","29","","10","","","","101.91","","","","-18","","NA"
"-72.52","46.35","TROIS-RIVIERES","7018562","2022-01-25 22:00","2022","01","25","22:00","-12.7","","-18.4","","63","","","","32","","20","","","","102.01","","","","-21","","NA"
"-72.52","46.35","TROIS-RIVIERES","7018562","2022-01-25 23:00","2022","01","25","23:00","-14.8","","-19.9","","65","","","","30","","13","","","","102.14","","","","-22","","NA"
"-72.52","46.35","TROIS-RIVIERES","7018562","2022-01-26 00:00","2022","01","26","00:00","-16.4","","-22.0","","62","","","","33","","12","","","","102.22","","","","-24","","NA"
"-72.52","46.35","TROIS-RIVIERES","7018562","2022-01-26 01:00","2022","01","26","01:00","-18.7","","-24.3","","61","","","","30","","13","","","","102.28","","","","-27","","NA"
"-72.52","46.35","TROIS-RIVIERES","7018562","2022-01-26 02:00","2022","01","26","02:00","-19.5","","-24.5","","65","","","","31","","15","","","","102.38","","","","-28","","NA"
"-72.52","46.35","TROIS-RIVIERES","7018562","2022-01-26 03:00","2022","01","26","03:00","-20.7","","-25.9","","63","","","","31","","15","","","","102.46","","","","-30","","NA"
"-72.52","46.35","TROIS-RIVIERES","7018562","2022-01-26 04:00","2022","01","26","04:00","-21.6","","-26.2","","66","","","","31","","9","","","","102.54","","","","-29","","NA"
"-72.52","46.35","TROIS-RIVIERES","7018562","2022-01-26 05:00","2022","01","26","05:00","-22.8","","-27.6","","64","","","","30","","7","","","","102.63","","","","-29","","NA"
"-72.52","46.35","TROIS-RIVIERES","7018562","2022-01-26 06:00","2022","01","26","06:00","-23.3","","-27.9","","66","","","","28","","5","","","","102.72","","","","-28","","NA"
"-72.52","46.35","TROIS-RIVIERES","7018562","2022-01-26 07:00","2022","01","26","07:00","-28.0","","-31.1","","75","","","","29","","8","","","","102.83","","","","-36","","NA"
"-72.52","46.35","TROIS-RIVIERES","7018562","2022-01-26 08:00","2022","01","26","08:00","-23.9","","-28.7","","64","","","","28","","8","","","","102.92","","","","-31","","NA"
"-72.52","46.35","TROIS-RIVIERES","7018562","2022-01-26 09:00","2022","01","26","09:00","-22.8","","-29.3","","55","","","","27","","7","","","","103.01","","","","-29","","NA"
"-72.52","46.35","TROIS-RIVIERES","7018562","2022-01-26 10:00","2022","01","26","10:00","-21.3","","-28.5","","52","","","","32","","12","","","","103.07","","","","-30","","NA"
"-72.52","46.35","TROIS-RIVIERES","7018562","2022-01-26 11:00","2022","01","26","11:00","-20.3","","-28.9","","46","","","","28","","8","","","","103.10","","","","-27","","NA"
"-72.52","46.35","TROIS-RIVIERES","7018562","2022-01-26 12:00","2022","01","26","12:00","-19.0","","-28.1","","45","","","","30","","11","","","","103.05","","","","-26","","NA"
"-72.52","46.35","TROIS-RIVIERES","7018562","2022-01-26 13:00","2022","01","26","13:00","-17.8","","-22.0","","69","","","","19","","18","","","","103.00","","","","-27","","NA"
"-72.52","46.35","TROIS-RIVIERES","7018562","2022-01-26 14:00","2022","01","26","14:00","-18.0","","-21.9","","71","","","","19","","20","","","","103.00","","","","-28","","NA"
"-72.52","46.35","TROIS-RIVIERES","7018562","2022-01-26 15:00","2022","01","26","15:00","-17.8","","-21.7","","72","","","","18","","18","","","","103.06","","","","-27","","NA"
"-72.52","46.35","TROIS-RIVIERES","7018562","2022-01-26 16:00","2022","01","26","16:00","-17.9","","-23.2","","63","","","","19","","16","","","","103.11","","","","-27","","NA"
"-72.52","46.35","TROIS-RIVIERES","7018562","2022-01-26 17:00","2022","01","26","17:00","-18.4","","-22.1","","73","","","","20","","11","","","","103.13","","","","-26","","NA"
"-72.52","46.35","TROIS-RIVIERES","7018562","2022-01-26 18:00","2022","01","26","18:00","-18.4","","-21.4","","77","","","","20","","17","","","","103.18","","","","-28","","NA"
"-72.52","46.35","TROIS-RIVIERES","7018562","2022-01-26 19:00","2022","01","26","19:00","-20.1","","-22.6","","80","","","","18","","12","","","","103.20","","","","-28","","NA"
"-72.52","46.35","TROIS-RIVIERES","7018562","2022-01-26 20:00","2022","01","26","20:00","-20.2","","-22.8","","80","","","","18","","12","","","","103.24","","","","-28","","NA"
"-72.52","46.35","TROIS-RIVIERES","7018562","2022-01-26 21:00","2022","01","26","21:00","-19.9","","-22.0","","83","","","","18","","14","","","","103.22","","","","-29","","NA"
"-72.52","46.35","TROIS-RIVIERES","7018562","2022-01-26 22:00","2022","01","26","22:00","-20.2","","-22.4","","83","","","","19","","14","","","","103.22","","","","-29","","NA"
"-72.52","46.35","TROIS-RIVIERES","7018562","2022-01-26 23:00","2022","01","26","23:00","-20.9","","-23.2","","82","","","","18","","14","","","","103.17","","","","-30","","NA"
"-72.52","46.35","TROIS-RIVIERES","7018562","2022-01-27 00:00","2022","01","27","00:00","-21.3","","-23.5","","83","","","","17","","8","","","","103.18","","","","-28","","NA"
"-72.52","46.35","TROIS-RIVIERES","7018562","2022-01-27 01:00","2022","01","27","01:00","-29.3","","-32.2","","76","","","","29","","3","","","","103.16","","","","-33","","NA"
"-72.52","46.35","TROIS-RIVIERES","7018562","2022-01-27 02:00","2022","01","27","02:00","-29.9","","-32.9","","75","","","","31","","4","","","","103.09","","","","-34","","NA"
"-72.52","46.35","TROIS-RIVIERES","7018562","2022-01-27 03:00","2022","01","27","03:00","-28.7","","-31.6","","76","","","","31","","5","","","","103.08","","","","-34","","NA"
"-72.52","46.35","TROIS-RIVIERES","7018562","2022-01-27 04:00","2022","01","27","04:00","-28.7","","-31.7","","76","","","","31","","4","","","","103.03","","","","-33","","NA"
"-72.52","46.35","TROIS-RIVIERES","7018562","2022-01-27 05:00","2022","01","27","05:00","-30.1","","-33.1","","75","","","","31","","4","","","","102.96","","","","-35","","NA"
"-72.52","46.35","TROIS-RIVIERES","7018562","2022-01-27 06:00","2022","01","27","06:00","-27.5","","-30.4","","76","","","","32","","5","","","","102.91","","","","-33","","NA"
"-72.52","46.35","TROIS-RIVIERES","7018562","2022-01-27 07:00","2022","01","27","07:00","-26.5","","-29.3","","77","","","","33","","5","","","","102.91","","","","-32","","NA"
"-72.52","46.35","TROIS-RIVIERES","7018562","2022-01-27 08:00","2022","01","27","08:00","-21.8","","-24.0","","82","","","","6","","9","","","","102.79","","","","-29","","NA"
"-72.52","46.35","TROIS-RIVIERES","7018562","2022-01-27 09:00","2022","01","27","09:00","-23.3","","-26.1","","78","","","","36","","7","","","","102.69","","","","-29","","NA"
"-72.52","46.35","TROIS-RIVIERES","7018562","2022-01-27 10:00","2022","01","27","10:00","-20.8","","-23.5","","79","","","","9","","3","","","","102.60","","","","-23","","NA"
"-72.52","46.35","TROIS-RIVIERES","7018562","2022-01-27 11:00","2022","01","27","11:00","-19.7","","-22.4","","79","","","","1","","5","","","","102.47","","","","-24","","NA"
"-72.52","46.35","TROIS-RIVIERES","7018562","2022-01-27 12:00","2022","01","27","12:00","-18.3","","-21.1","","79","","","","35","","7","","","","102.28","","","","-24","","NA"
"-72.52","46.35","TROIS-RIVIERES","7018562","2022-01-27 13:00","2022","01","27","13:00","-16.5","","-19.7","","76","","","","2","","3","","","","102.16","","","","-19","","NA"
"-72.52","46.35","TROIS-RIVIERES","7018562","2022-01-27 14:00","2022","01","27","14:00","-14.2","","-17.6","","75","","","","6","","9","","","","101.98","","","","-20","","NA"
"-72.52","46.35","TROIS-RIVIERES","7018562","2022-01-27 15:00","2022","01","27","15:00","-12.7","","-18.9","","60","","","","11","","5","","","","101.89","","","","-16","","NA"
"-72.52","46.35","TROIS-RIVIERES","7018562","2022-01-27 16:00","2022","01","27","16:00","-13.9","","-18.4","","68","","","","35","","8","","","","101.89","","","","-19","","NA"
"-72.52","46.35","TROIS-RIVIERES","7018562","2022-01-27 17:00","2022","01","27","17:00","-13.1","","-17.4","","70","","","","3","","4","","","","101.79","","","","-16","","NA"
"-72.52","46.35","TROIS-RIVIERES","7018562","2022-01-27 18:00","2022","01","27","18:00","-13.4","","-18.2","","67","","","","36","","6","","","","101.77","","","","-17","","NA"
"-72.52","46.35","TROIS-RIVIERES","7018562","2022-01-27 19:00","2022","01","27","19:00","-13.1","","-16.2","","77","","","","1","","3","","","","101.76","","","","-15","","NA"
"-72.52","46.35","TROIS-RIVIERES","7018562","2022-01-27 20:00","2022","01","27","20:00","-12.4","","-13.9","","88","","","","11","","6","","","","101.72","","","","-16","","NA"
"-72.52","46.35","TROIS-RIVIERES","7018562","2022-01-27 21:00","2022","01","27","21:00","-11.5","","-13.0","","89","","","","13","","2","","","","101.66","","","","-13","","NA"
"-72.52","46.35","TROIS-RIVIERES","7018562","2022-01-27 22:00","2022","01","27","22:00","-11.8","","-13.4","","87","","","","29","","4","","","","101.58","","","","-14","","NA"
"-72.52","46.35","TROIS-RIVIERES","7018562","2022-01-27 23:00","2022","01","27","23:00","-11.3","","-12.9","","89","","","","30","","5","","","","101.54","","","","-14","","NA"
"-72.52","46.35","TROIS-RIVIERES","7018562","2022-01-28 00:00","2022","01","28","00:00","-11.2","","-12.8","","88","","","","30","","6","","","","101.51","","","","-15","","NA"
"-72.52","46.35","TROIS-RIVIERES","7018562","2022-01-28 01:00","2022","01","28","01:00","-11.7","","-13.4","","87","","","","32","","5","","","","101.49","","","","-15","","NA"
"-72.52","46.35","TROIS-RIVIERES","7018562","2022-01-28 02:00","2022","01","28","02:00","-11.6","","-13.3","","87","","","","31","","2","","","","101.49","","","","-13","","NA"
"-72.52","46.35","TROIS-RIVIERES","7018562","2022-01-28 03:00","2022","01","28","03:00","-11.1","","-12.8","","87","","","","30","","2","","","","101.47","","","","-12","","NA"
"-72.52","46.35","TROIS-RIVIERES","7018562","2022-01-28 04:00","2022","01","28","04:00","-10.9","","-12.6","","87","","","","29","","5","","","","101.48","","","","-14","","NA"
"-72.52","46.35","TROIS-RIVIERES","7018562","2022-01-28 05:00","2022","01","28","05:00","-10.7","","-12.3","","88","","","","28","","5","","","","101.57","","","","-14","","NA"
"-72.52","46.35","TROIS-RIVIERES","7018562","2022-01-28 06:00","2022","01","28","06:00","-9.6","","-13.3","","74","","","","33","","24","","","","101.74","","","","-18","","NA"
"-72.52","46.35","TROIS-RIVIERES","7018562","2022-01-28 07:00","2022","01","28","07:00","-12.8","","-17.4","","68","","","","33","","19","","","","101.98","","","","-21","","NA"
"-72.52","46.35","TROIS-RIVIERES","7018562","2022-01-28 08:00","2022","01","28","08:00","-14.9","","-20.2","","64","","","","33","","26","","","","102.12","","","","-25","","NA"
"-72.52","46.35","TROIS-RIVIERES","7018562","2022-01-28 09:00","2022","01","28","09:00","-15.7","","-21.5","","61","","","","34","","17","","","","102.23","","","","-24","","NA"
"-72.52","46.35","TROIS-RIVIERES","7018562","2022-01-28 10:00","2022","01","28","10:00","-16.3","","-22.5","","59","","","","33","","19","","","","102.33","","","","-26","","NA"
"-72.52","46.35","TROIS-RIVIERES","7018562","2022-01-28 11:00","2022","01","28","11:00","-16.0","","-23.3","","53","","","","32","","17","","","","102.43","","","","-25","","NA"
"-72.52","46.35","TROIS-RIVIERES","7018562","2022-01-28 12:00","2022","01","28","12:00","-15.3","","-24.2","","47","","","","34","","14","","","","102.43","","","","-23","","NA"
"-72.52","46.35","TROIS-RIVIERES","7018562","2022-01-28 13:00","2022","01","28","13:00","-14.9","","-23.5","","48","","","","31","","14","","","","102.42","","","","-22","","NA"
"-72.52","46.35","TROIS-RIVIERES","7018562","2022-01-28 14:00","2022","01","28","14:00","-14.4","","-23.8","","45","","","","34","","14","","","","102.42","","","","-22","","NA"
"-72.52","46.35","TROIS-RIVIERES","7018562","2022-01-28 15:00","2022","01","28","15:00","-14.2","","-23.4","","46","","","","32","","12","","","","102.45","","","","-21","","NA"
"-72.52","46.35","TROIS-RIVIERES","7018562","2022-01-28 16:00","2022","01","28","16:00","-14.2","","-22.8","","48","","","","32","","14","","","","102.51","","","","-22","","NA"
"-72.52","46.35","TROIS-RIVIERES","7018562","2022-01-28 17:00","2022","01","28","17:00","-16.0","","-22.9","","56","","","","31","","10","","","","102.57","","","","-22","","NA"
"-72.52","46.35","TROIS-RIVIERES","7018562","2022-01-28 18:00","2022","01","28","18:00","-18.0","","-24.0","","60","","","","30","","7","","","","102.66","","","","-23","","NA"
"-72.52","46.35","TROIS-RIVIERES","7018562","2022-01-28 19:00","2022","01","28","19:00","-18.0","","-23.0","","65","","","","24","","4","","","","102.71","","","","-21","","NA"
"-72.52","46.35","TROIS-RIVIERES","7018562","2022-01-28 20:00","2022","01","28","20:00","-22.0","","-24.8","","78","","","","29","","9","","","","102.74","","","","-29","","NA"
"-72.52","46.35","TROIS-RIVIERES","7018562","2022-01-28 21:00","2022","01","28","21:00","-21.0","","-24.9","","71","","","","28","","3","","","","102.74","","","","-24","","NA"
"-72.52","46.35","TROIS-RIVIERES","7018562","2022-01-28 22:00","2022","01","28","22:00","-20.7","","-24.1","","74","","","","32","","11","","","","102.69","","","","-28","","NA"
"-72.52","46.35","TROIS-RIVIERES","7018562","2022-01-28 23:00","2022","01","28","23:00","-19.6","","-24.1","","67","","","","34","","19","","","","102.68","","","","-30","","NA"
"-72.52","46.35","TROIS-RIVIERES","7018562","2022-01-29 00:00","2022","01","29","00:00","-20.0","","-24.8","","66","","","","34","","13","","","","102.78","","","","-28","","NA"
"-72.52","46.35","TROIS-RIVIERES","7018562","2022-01-29 01:00","2022","01","29","01:00","-21.4","","-25.1","","72","","","","1","","7","","","","102.84","","","","-27","","NA"
"-72.52","46.35","TROIS-RIVIERES","7018562","2022-01-29 02:00","2022","01","29","02:00","-21.5","","-24.9","","74","","","","2","","8","","","","102.78","","","","-28","","NA"
"-72.52","46.35","TROIS-RIVIERES","7018562","2022-01-29 03:00","2022","01","29","03:00","-21.2","","-24.8","","73","","","","35","","13","","","","102.64","","","","-30","","NA"
"-72.52","46.35","TROIS-RIVIERES","7018562","2022-01-29 04:00","2022","01","29","04:00","-20.4","","-24.5","","70","","","","34","","17","","","","102.59","","","","-30","","NA"
"-72.52","46.35","TROIS-RIVIERES","7018562","2022-01-29 05:00","2022","01","29","05:00","-20.6","","-24.5","","71","","","","1","","9","","","","102.66","","","","-27","","NA"
"-72.52","46.35","TROIS-RIVIERES","7018562","2022-01-29 06:00","2022","01","29","06:00","-20.4","","-23.9","","73","","","","35","","14","","","","102.57","","","","-29","","NA"
"-72.52","46.35","TROIS-RIVIERES","7018562","2022-01-29 07:00","2022","01","29","07:00","-21.0","","-24.8","","71","","","","35","","17","","","","102.52","","","","-31","","NA"
"-72.52","46.35","TROIS-RIVIERES","7018562","2022-01-29 08:00","2022","01","29","08:00","-21.2","","-25.3","","70","","","","35","","17","","","","102.49","","","","-31","","NA"
"-72.52","46.35","TROIS-RIVIERES","7018562","2022-01-29 09:00","2022","01","29","09:00","-20.7","","-25.1","","68","","","","35","","18","","","","102.38","","","","-31","","NA"
"-72.52","46.35","TROIS-RIVIERES","7018562","2022-01-29 10:00","2022","01","29","10:00","-19.4","","-24.8","","62","","","","35","","16","","","","102.37","","","","-29","","NA"
"-72.52","46.35","TROIS-RIVIERES","7018562","2022-01-29 11:00","2022","01","29","11:00","-17.5","","-24.2","","56","","","","1","","17","","","","102.20","","","","-27","","NA"
"-72.52","46.35","TROIS-RIVIERES","7018562","2022-01-29 12:00","2022","01","29","12:00","-16.3","","-23.9","","52","","","","35","","18","","","","101.95","","","","-25","","NA"
"-72.52","46.35","TROIS-RIVIERES","7018562","2022-01-29 13:00","2022","01","29","13:00","-15.5","","-24.0","","48","","","","36","","19","","","","101.76","","","","-25","","NA"
"-72.52","46.35","TROIS-RIVIERES","7018562","2022-01-29 14:00","2022","01","29","14:00","-15.8","","-23.5","","52","","","","32","","19","","","","101.58","","","","-25","","NA"
"-72.52","46.35","TROIS-RIVIERES","7018562","2022-01-29 15:00","2022","01","29","15:00","-14.2","","-22.1","","51","","","","33","","13","","","","101.39","","","","-21","","NA"
"-72.52","46.35","TROIS-RIVIERES","7018562","2022-01-29 16:00","2022","01","29","16:00","-13.3","","-20.3","","55","","","","33","","14","","","","101.22","","","","-21","","NA"
"-72.52","46.35","TROIS-RIVIERES","7018562","2022-01-29 17:00","2022","01","29","17:00","-13.1","","-19.9","","56","","","","33","","16","","","","101.15","","","","-21","","NA"
"-72.52","46.35","TROIS-RIVIERES","7018562","2022-01-29 18:00","2022","01","29","18:00","-13.0","","-19.9","","56","","","","34","","16","","","","101.07","","","","-21","","NA"
"-72.52","46.35","TROIS-RIVIERES","7018562","2022-01-29 19:00","2022","01","29","19:00","-14.0","","-21.4","","54","","","","34","","18","","","","101.02","","","","-22","","NA"
"-72.52","46.35","TROIS-RIVIERES","7018562","2022-01-29 20:00","2022","01","29","20:00","-15.3","","-21.7","","58","","","","33","","28","","","","100.99","","","","-26","","NA"
"-72.52","46.35","TROIS-RIVIERES","7018562","2022-01-29 21:00","2022","01","29","21:00","-15.8","","-21.5","","62","","","","34","","25","","","","100.91","","","","-26","","NA"
"-72.52","46.35","TROIS-RIVIERES","7018562","2022-01-29 22:00","2022","01","29","22:00","-16.1","","-22.0","","60","","","","33","","27","","","","100.82","","","","-27","","NA"
"-72.52","46.35","TROIS-RIVIERES","7018562","2022-01-29 23:00","2022","01","29","23:00","-16.2","","-22.3","","59","","","","34","","17","","","","100.74","","","","-25","","NA"
"-72.52","46.35","TROIS-RIVIERES","7018562","2022-01-30 00:00","2022","01","30","00:00","-16.9","","-23.0","","59","","","","34","","14","","","","100.70","","","","-25","","NA"
"-72.52","46.35","TROIS-RIVIERES","7018562","2022-01-30 01:00","2022","01","30","01:00","-17.0","","-23.4","","58","","","","33","","10","","","","100.58","","","","-24","","NA"
"-72.52","46.35","TROIS-RIVIERES","7018562","2022-01-30 02:00","2022","01","30","02:00","-16.9","","-23.9","","55","","","","32","","16","","","","100.52","","","","-26","","NA"
"-72.52","46.35","TROIS-RIVIERES","7018562","2022-01-30 03:00","2022","01","30","03:00","-16.9","","-23.8","","55","","","","31","","16","","","","100.53","","","","-26","","NA"
"-72.52","46.35","TROIS-RIVIERES","7018562","2022-01-30 04:00","2022","01","30","04:00","-17.3","","-24.8","","52","","","","30","","8","","","","100.58","","","","-23","","NA"
"-72.52","46.35","TROIS-RIVIERES","7018562","2022-01-30 05:00","2022","01","30","05:00","-17.4","","-25.9","","48","","","","27","","6","","","","100.64","","","","-22","","NA"
"-72.52","46.35","TROIS-RIVIERES","7018562","2022-01-30 06:00","2022","01","30","06:00","-18.2","","-26.0","","50","","","","29","","11","","","","100.70","","","","-25","","NA"
"-72.52","46.35","TROIS-RIVIERES","7018562","2022-01-30 07:00","2022","01","30","07:00","-17.2","","-25.5","","49","","","","28","","12","","","","100.78","","","","-25","","NA"
"-72.52","46.35","TROIS-RIVIERES","7018562","2022-01-30 08:00","2022","01","30","08:00","-17.2","","-24.8","","52","","","","24","","8","","","","100.83","","","","-23","","NA"
"-72.52","46.35","TROIS-RIVIERES","7018562","2022-01-30 09:00","2022","01","30","09:00","-15.5","","-25.6","","42","","","","25","","11","","","","100.90","","","","-22","","NA"
"-72.52","46.35","TROIS-RIVIERES","7018562","2022-01-30 10:00","2022","01","30","10:00","-14.0","","-25.3","","38","","","","27","","14","","","","100.96","","","","-21","","NA"
"-72.52","46.35","TROIS-RIVIERES","7018562","2022-01-30 11:00","2022","01","30","11:00","-12.2","","-24.5","","35","","","","27","","16","","","","100.99","","","","-20","","NA"
"-72.52","46.35","TROIS-RIVIERES","7018562","2022-01-30 12:00","2022","01","30","12:00","-10.5","","-21.3","","41","","","","25","","12","","","","100.98","","","","-17","","NA"
"-72.52","46.35","TROIS-RIVIERES","7018562","2022-01-30 13:00","2022","01","30","13:00","-9.4","","-16.0","","59","","","","22","","26","","","","100.94","","","","-18","","NA"
"-72.52","46.35","TROIS-RIVIERES","7018562","2022-01-30 14:00","2022","01","30","14:00","-8.1","","-15.6","","55","","","","22","","21","","","","100.96","","","","-16","","NA"
"-72.52","46.35","TROIS-RIVIERES","7018562","2022-01-30 15:00","2022","01","30","15:00","-7.4","","-15.4","","53","","","","25","","15","","","","101.03","","","","-14","","NA"
"-72.52","46.35","TROIS-RIVIERES","7018562","2022-01-30 16:00","2022","01","30","16:00","-7.6","","-14.8","","57","","","","23","","19","","","","101.11","","","","-15","","NA"
"-72.52","46.35","TROIS-RIVIERES","7018562","2022-01-30 17:00","2022","01","30","17:00","-8.8","","-15.7","","57","","","","24","","10","","","","101.20","","","","-14","","NA"
"-72.52","46.35","TROIS-RIVIERES","7018562","2022-01-30 18:00","2022","01","30","18:00","-9.5","","-13.9","","71","","","","19","","11","","","","101.33","","","","-15","","NA"
"-72.52","46.35","TROIS-RIVIERES","7018562","2022-01-30 19:00","2022","01","30","19:00","-11.0","","-15.9","","67","","","","24","","4","","","","101.46","","","","-13","","NA"
"-72.52","46.35","TROIS-RIVIERES","7018562","2022-01-30 20:00","2022","01","30","20:00","-11.8","","-16.3","","70","","","","27","","6","","","","101.54","","","","-16","","NA"
"-72.52","46.35","TROIS-RIVIERES","7018562","2022-01-30 21:00","2022","01","30","21:00","-10.9","","-16.5","","64","","","","24","","8","","","","101.61","","","","-16","","NA"
"-72.52","46.35","TROIS-RIVIERES","7018562","2022-01-30 22:00","2022","01","30","22:00","-11.2","","-16.8","","63","","","","25","","9","","","","101.69","","","","-16","","NA"
"-72.52","46.35","TROIS-RIVIERES","7018562","2022-01-30 23:00","2022","01","30","23:00","-12.0","","-17.0","","66","","","","24","","10","","","","101.75","","","","-18","","NA"
"-72.52","46.35","TROIS-RIVIERES","7018562","2022-01-31 00:00","2022","01","31","00:00","-11.7","","-14.9","","77","","","","23","","8","","","","101.80","","","","-16","","NA"
"-72.52","46.35","TROIS-RIVIERES","7018562","2022-01-31 01:00","2022","01","31","01:00","-14.0","","-17.6","","75","","","","26","","7","","","","101.83","","","","-19","","NA"
"-72.52","46.35","TROIS-RIVIERES","7018562","2022-01-31 02:00","2022","01","31","02:00","-12.9","","-15.3","","82","","","","20","","10","","","","101.88","","","","-19","","NA"
"-72.52","46.35","TROIS-RIVIERES","7018562","2022-01-31 03:00","2022","01","31","03:00","-13.5","","-15.8","","83","","","","19","","11","","","","101.98","","","","-20","","NA"
"-72.52","46.35","TROIS-RIVIERES","7018562","2022-01-31 04:00","2022","01","31","04:00","-17.7","","-19.7","","84","","","","30","","3","","","","102.11","","","","-20","","NA"
"-72.52","46.35","TROIS-RIVIERES","7018562","2022-01-31 05:00","2022","01","31","05:00","-19.0","","-21.1","","84","","","","29","","5","","","","102.18","","","","-23","","NA"
"-72.52","46.35","TROIS-RIVIERES","7018562","2022-01-31 06:00","2022","01","31","06:00","-19.9","","-22.1","","83","","","","29","","8","","","","102.30","","","","-26","","NA"
"-72.52","46.35","TROIS-RIVIERES","7018562","2022-01-31 07:00","2022","01","31","07:00","-20.3","","-22.6","","82","","","","34","","9","","","","102.39","","","","-27","","NA"
"-72.52","46.35","TROIS-RIVIERES","7018562","2022-01-31 08:00","2022","01","31","08:00","-16.8","","-20.0","","76","","","","34","","8","","","","102.50","","","","-22","","NA"
"-72.52","46.35","TROIS-RIVIERES","7018562","2022-01-31 09:00","2022","01","31","09:00","-15.1","","-19.5","","69","","","","33","","10","","","","102.61","","","","-21","","NA"
"-72.52","46.35","TROIS-RIVIERES","7018562","2022-01-31 10:00","2022","01","31","10:00","-14.7","","-21.8","","55","","","","35","","11","","","","102.69","","","","-21","","NA"
"-72.52","46.35","TROIS-RIVIERES","7018562","2022-01-31 11:00","2022","01","31","11:00","-14.1","","-22.4","","50","","","","36","","11","","","","102.77","","","","-21","","NA"
"-72.52","46.35","TROIS-RIVIERES","7018562","2022-01-31 12:00","2022","01","31","12:00","-12.1","","-20.7","","49","","","","3","","6","","","","102.77","","","","-16","","NA"
"-72.52","46.35","TROIS-RIVIERES","7018562","2022-01-31 13:00","2022","01","31","13:00","-12.0","","-21.7","","44","","","","33","","3","","","","102.77","","","","-14","","NA"
"-72.52","46.35","TROIS-RIVIERES","7018562","2022-01-31 14:00","2022","01","31","14:00","-10.7","","-20.8","","43","","","","0","","1","","","","102.78","","","","-11","","NA"
"-72.52","46.35","TROIS-RIVIERES","7018562","2022-01-31 15:00","2022","01","31","15:00","-10.0","","-19.7","","45","","","","12","","2","","","","102.83","","","","-11","","NA"
"-72.52","46.35","TROIS-RIVIERES","7018562","2022-01-31 16:00","2022","01","31","16:00","-10.2","","-19.5","","47","","","","16","","2","","","","102.91","","","","-11","","NA"
"-72.52","46.35","TROIS-RIVIERES","7018562","2022-01-31 17:00","2022","01","31","17:00","-11.6","","-19.4","","52","","","","1","","4","","","","102.98","","","","-14","","NA"
"-72.52","46.35","TROIS-RIVIERES","7018562","2022-01-31 18:00","2022","01","31","18:00","-11.5","","-17.0","","63","","","","8","","6","","","","103.08","","","","-15","","NA"
"-72.52","46.35","TROIS-RIVIERES","7018562","2022-01-31 19:00","2022","01","31","19:00","-14.7","","-20.9","","59","","","","10","","6","","","","103.18","","","","-19","","NA"
"-72.52","46.35","TROIS-RIVIERES","7018562","2022-01-31 20:00","2022","01","31","20:00","-18.4","","-21.6","","76","","","","31","","4","","","","103.26","","","","-22","","NA"
"-72.52","46.35","TROIS-RIVIERES","7018562","2022-01-31 21:00","2022","01","31","21:00","-20.4","","-23.2","","79","","","","33","","6","","","","103.30","","","","-25","","NA"
"-72.52","46.35","TROIS-RIVIERES","7018562","2022-01-31 22:00","2022","01","31","22:00","-20.3","","-22.2","","84","","","","30","","8","","","","103.33","","","","-27","","NA"
"-72.52","46.35","TROIS-RIVIERES","7018562","2022-01-31 23:00","2022","01","31","23:00","-20.0","","-22.1","","83","","","","35","","6","","","","103.40","","","","-25","","NA"
