"Longitude (x)","Latitude (y)","Station Name","Climate ID","Date/Time (LST)","Year","Month","Day","Time (LST)","Temp (°C)","Temp Flag","Dew Point Temp (°C)","Dew Point Temp Flag","Rel Hum (%)","Rel Hum Flag","Precip. Amount (mm)","Precip. Amount Flag","Wind Dir (10s deg)","Wind Dir Flag","Wind Spd (km/h)","Wind Spd Flag","Visibility (km)","Visibility Flag","Stn Press (kPa)","Stn Press Flag","Hmdx","Hmdx Flag","Wind Chill","Wind Chill Flag","Weather"
"-79.42","46.36","NORTH BAY A","6085680","2022-12-01 00:00","2022","12","01","00:00","-3.7","","-5.6","","87","","0.0","","25","","39","","2.0","","95.83","","","","-12","","Snow"
"-79.42","46.36","NORTH BAY A","6085680","2022-12-01 01:00","2022","12","01","01:00","-3.3","","-5.8","","83","","0.0","","26","","28","","4.8","","95.89","","","","-11","","Snow"
"-79.42","46.36","NORTH BAY A","6085680","2022-12-01 02:00","2022","12","01","02:00","-2.8","","-7.9","","68","","0.0","","25","","26","","16.1","","96.00","","","","-10","","NA"
"-79.42","46.36","NORTH BAY A","6085680","2022-12-01 03:00","2022","12","01","03:00","-3.4","","-8.3","","69","","0.0","","27","","26","","16.1","","96.15","","","","-10","","NA"
"-79.42","46.36","NORTH BAY A","6085680","2022-12-01 04:00","2022","12","01","04:00","-3.5","","-7.8","","72","","0.0","","26","","32","","16.1","","96.30","","","","-11","","Snow"
"-79.42","46.36","NORTH BAY A","6085680","2022-12-01 05:00","2022","12","01","05:00","-3.9","","-6.9","","80","","0.0","","27","","28","","8.1","","96.45","","","","-11","","Snow"
"-79.42","46.36","NORTH BAY A","6085680","2022-12-01 06:00","2022","12","01","06:00","-4.5","","-6.4","","87","","0.0","","28","","21","","12.9","","96.67","","","","-11","","Snow"
"-79.42","46.36","NORTH BAY A","6085680","2022-12-01 07:00","2022","12","01","07:00","-4.4","","-8.7","","72","","0.0","","28","","18","","16.1","","96.83","","","","-10","","Snow"
"-79.42","46.36","NORTH BAY A","6085680","2022-12-01 08:00","2022","12","01","08:00","-4.3","","-9.2","","69","","0.0","","28","","22","","16.1","","96.99","","","","-11","","NA"
"-79.42","46.36","NORTH BAY A","6085680","2022-12-01 09:00","2022","12","01","09:00","-4.0","","-8.3","","72","","0.0","","28","","18","","16.1","","97.16","","","","-10","","Snow"
"-79.42","46.36","NORTH BAY A","6085680","2022-12-01 10:00","2022","12","01","10:00","-4.0","","-10.1","","63","","0.0","","29","","30","","16.1","","97.32","","","","-12","","NA"
"-79.42","46.36","NORTH BAY A","6085680","2022-12-01 11:00","2022","12","01","11:00","-3.7","","-9.8","","63","","0.0","","28","","28","","16.1","","97.45","","","","-11","","NA"
"-79.42","46.36","NORTH BAY A","6085680","2022-12-01 12:00","2022","12","01","12:00","-2.9","","-10.4","","57","","0.0","","29","","22","","16.1","","97.53","","","","-9","","NA"
"-79.42","46.36","NORTH BAY A","6085680","2022-12-01 13:00","2022","12","01","13:00","-3.1","","-9.8","","60","","0.0","","27","","21","","16.1","","97.64","","","","-9","","NA"
"-79.42","46.36","NORTH BAY A","6085680","2022-12-01 14:00","2022","12","01","14:00","-1.8","","-10.2","","53","","0.0","","27","","21","","16.1","","97.69","","","","-8","","NA"
"-79.42","46.36","NORTH BAY A","6085680","2022-12-01 15:00","2022","12","01","15:00","-1.6","","-9.6","","55","","0.0","","28","","21","","16.1","","97.77","","","","-7","","NA"
"-79.42","46.36","NORTH BAY A","6085680","2022-12-01 16:00","2022","12","01","16:00","-2.3","","-10.2","","55","","0.0","","27","","17","","16.1","","97.88","","","","-8","","NA"
"-79.42","46.36","NORTH BAY A","6085680","2022-12-01 17:00","2022","12","01","17:00","-2.8","","-10.9","","54","","0.0","","28","","13","","16.1","","97.94","","","","-7","","NA"
"-79.42","46.36","NORTH BAY A","6085680","2022-12-01 18:00","2022","12","01","18:00","-3.4","","-10.8","","57","","0.0","","28","","8","","16.1","","98.00","","","","-7","","NA"
"-79.42","46.36","NORTH BAY A","6085680","2022-12-01 19:00","2022","12","01","19:00","-3.7","","-11.0","","57","","0.0","","29","","8","","16.1","","97.97","","","","-7","","NA"
"-79.42","46.36","NORTH BAY A","6085680","2022-12-01 20:00","2022","12","01","20:00","-4.1","","-11.0","","59","","0.0","","27","","8","","16.1","","98.00","","","","-8","","NA"
"-79.42","46.36","NORTH BAY A","6085680","2022-12-01 21:00","2022","12","01","21:00","-4.2","","-11.1","","59","","0.0","","27","","8","","16.1","","97.99","","","","-8","","NA"
"-79.42","46.36","NORTH BAY A","6085680","2022-12-01 22:00","2022","12","01","22:00","-3.2","","-8.9","","65","","0.0","","26","","9","","16.1","","97.99","","","","-7","","NA"
"-79.42","46.36","NORTH BAY A","6085680","2022-12-01 23:00","2022","12","01","23:00","-3.1","","-7.0","","75","","0.0","","24","","11","","16.1","","97.99","","","","-7","","NA"
"-79.42","46.36","NORTH BAY A","6085680","2022-12-02 00:00","2022","12","02","00:00","-2.8","","-5.8","","80","","0.0","","25","","9","","4.0","","98.00","","","","-6","","Snow"
"-79.42","46.36","NORTH BAY A","6085680","2022-12-02 01:00","2022","12","02","01:00","-3.0","","-4.0","","93","","0.0","","20","","9","","2.0","","97.98","","","","-7","","Snow"
"-79.42","46.36","NORTH BAY A","6085680","2022-12-02 02:00","2022","12","02","02:00","-3.4","","-4.0","","96","","0.2","","16","","11","","16.1","","97.92","","","","-8","","NA"
"-79.42","46.36","NORTH BAY A","6085680","2022-12-02 03:00","2022","12","02","03:00","-2.9","","-4.0","","92","","0.0","","19","","17","","16.1","","97.90","","","","-8","","NA"
"-79.42","46.36","NORTH BAY A","6085680","2022-12-02 04:00","2022","12","02","04:00","-1.8","","-3.8","","86","","0.0","","20","","21","","16.1","","97.90","","","","-8","","NA"
"-79.42","46.36","NORTH BAY A","6085680","2022-12-02 05:00","2022","12","02","05:00","-2.1","","-4.0","","87","","0.0","","18","","15","","16.1","","97.85","","","","-7","","NA"
"-79.42","46.36","NORTH BAY A","6085680","2022-12-02 06:00","2022","12","02","06:00","-2.4","","-4.6","","85","","0.0","","17","","18","","16.1","","97.79","","","","-8","","NA"
"-79.42","46.36","NORTH BAY A","6085680","2022-12-02 07:00","2022","12","02","07:00","-3.1","","-5.3","","85","","0.0","","16","","17","","16.1","","97.70","","","","-9","","NA"
"-79.42","46.36","NORTH BAY A","6085680","2022-12-02 08:00","2022","12","02","08:00","-3.5","","-6.1","","82","","0.0","","16","","18","","16.1","","97.59","","","","-9","","NA"
"-79.42","46.36","NORTH BAY A","6085680","2022-12-02 09:00","2022","12","02","09:00","-2.5","","-5.7","","79","","0.0","","15","","18","","16.1","","97.51","","","","-8","","NA"
"-79.42","46.36","NORTH BAY A","6085680","2022-12-02 10:00","2022","12","02","10:00","-1.2","","-5.8","","71","","0.0","","17","","18","","16.1","","97.49","","","","-6","","NA"
"-79.42","46.36","NORTH BAY A","6085680","2022-12-02 11:00","2022","12","02","11:00","-0.4","","-5.6","","68","","0.0","","18","","28","","16.1","","97.38","","","","-7","","NA"
"-79.42","46.36","NORTH BAY A","6085680","2022-12-02 12:00","2022","12","02","12:00","0.7","","-5.2","","65","","0.0","","19","","24","","16.1","","97.29","","","","","","NA"
"-79.42","46.36","NORTH BAY A","6085680","2022-12-02 13:00","2022","12","02","13:00","1.5","","-4.8","","63","","0.0","","18","","26","","16.1","","97.19","","","","","","NA"
"-79.42","46.36","NORTH BAY A","6085680","2022-12-02 14:00","2022","12","02","14:00","1.7","","-4.8","","62","","0.0","","17","","21","","16.1","","97.13","","","","","","NA"
"-79.42","46.36","NORTH BAY A","6085680","2022-12-02 15:00","2022","12","02","15:00","2.0","","-4.5","","62","","0.0","","16","","22","","16.1","","97.02","","","","","","NA"
"-79.42","46.36","NORTH BAY A","6085680","2022-12-02 16:00","2022","12","02","16:00","1.9","","-5.0","","60","","0.0","","17","","26","","16.1","","96.91","","","","","","NA"
"-79.42","46.36","NORTH BAY A","6085680","2022-12-02 17:00","2022","12","02","17:00","1.6","","-5.6","","59","","0.0","","17","","26","","16.1","","96.83","","","","","","NA"
"-79.42","46.36","NORTH BAY A","6085680","2022-12-02 18:00","2022","12","02","18:00","1.7","","-5.3","","60","","0.0","","17","","32","","16.1","","96.75","","","","","","Rain"
"-79.42","46.36","NORTH BAY A","6085680","2022-12-02 19:00","2022","12","02","19:00","1.6","","-4.0","","67","","0.2","","17","","30","","16.1","","96.67","","","","","","NA"
"-79.42","46.36","NORTH BAY A","6085680","2022-12-02 20:00","2022","12","02","20:00","0.6","","-1.6","","85","","0.5","","18","","30","","12.9","","96.65","","","","","","Freezing Rain"
"-79.42","46.36","NORTH BAY A","6085680","2022-12-02 21:00","2022","12","02","21:00","1.2","","-2.0","","79","","0.0","","18","","26","","16.1","","96.59","","","","","","NA"
"-79.42","46.36","NORTH BAY A","6085680","2022-12-02 22:00","2022","12","02","22:00","1.3","","-1.2","","83","","0.0","","19","","35","","16.1","","96.50","","","","","","NA"
"-79.42","46.36","NORTH BAY A","6085680","2022-12-02 23:00","2022","12","02","23:00","1.7","","-1.2","","81","","0.0","","18","","26","","16.1","","96.35","","","","","","NA"
"-79.42","46.36","NORTH BAY A","6085680","2022-12-03 00:00","2022","12","03","00:00","2.3","","-1.1","","78","","0.0","","18","","32","","16.1","","96.25","","","","","","NA"
"-79.42","46.36","NORTH BAY A","6085680","2022-12-03 01:00","2022","12","03","01:00","3.3","","-0.7","","75","","0.0","","17","","28","","16.1","","96.10","","","","","","NA"
"-79.42","46.36","NORTH BAY A","6085680","2022-12-03 02:00","2022","12","03","02:00","3.8","","-0.6","","73","","0.0","","18","","22","","16.1","","95.98","","","","","","NA"
"-79.42","46.36","NORTH BAY A","6085680","2022-12-03 03:00","2022","12","03","03:00","3.9","","0.6","","79","","0.0","","18","","22","","16.1","","95.90","","","","","","NA"
"-79.42","46.36","NORTH BAY A","6085680","2022-12-03 04:00","2022","12","03","04:00","3.5","","1.7","","88","","0.0","","17","","28","","16.1","","95.79","","","","","","NA"
"-79.42","46.36","NORTH BAY A","6085680","2022-12-03 05:00","2022","12","03","05:00","3.1","","2.8","","98","","0.5","","18","","24","","4.8","","95.72","","","","","","Rain,Fog"
"-79.42","46.36","NORTH BAY A","6085680","2022-12-03 06:00","2022","12","03","06:00","3.5","","3.4","","99","","0.2","","18","","18","","2.4","","95.64","","","","","","Rain,Fog"
"-79.42","46.36","NORTH BAY A","6085680","2022-12-03 07:00","2022","12","03","07:00","4.0","","3.9","","99","","0.8","","18","","18","","1.0","","95.58","","","","","","Rain,Fog"
"-79.42","46.36","NORTH BAY A","6085680","2022-12-03 08:00","2022","12","03","08:00","4.4","","4.4","","100","","1.2","","18","","22","","0.2","","95.51","","","","","","Rain,Fog"
"-79.42","46.36","NORTH BAY A","6085680","2022-12-03 09:00","2022","12","03","09:00","5.0","","5.0","","100","","0.8","","20","","15","","0.8","","95.48","","","","","","Rain,Fog"
"-79.42","46.36","NORTH BAY A","6085680","2022-12-03 10:00","2022","12","03","10:00","5.3","","5.3","","100","","3.2","","24","","18","","4.8","","95.46","","","","","","Rain,Fog"
"-79.42","46.36","NORTH BAY A","6085680","2022-12-03 11:00","2022","12","03","11:00","3.0","","2.9","","99","","3.2","","27","","26","","8.1","","95.59","","","","","","Rain,Fog"
"-79.42","46.36","NORTH BAY A","6085680","2022-12-03 12:00","2022","12","03","12:00","0.9","","0.5","","97","","0.8","","28","","17","","4.8","","95.79","","","","","","Snow"
"-79.42","46.36","NORTH BAY A","6085680","2022-12-03 13:00","2022","12","03","13:00","1.2","","0.6","","96","","0.0","","27","","22","","16.1","","95.93","","","","","","Snow"
"-79.42","46.36","NORTH BAY A","6085680","2022-12-03 14:00","2022","12","03","14:00","-0.4","","-1.3","","94","","0.0","","29","","37","","1.2","","96.19","","","","-8","","Snow"
"-79.42","46.36","NORTH BAY A","6085680","2022-12-03 15:00","2022","12","03","15:00","-2.9","","-5.1","","85","","0.0","","30","","26","","16.1","","96.54","","","","-10","","NA"
"-79.42","46.36","NORTH BAY A","6085680","2022-12-03 16:00","2022","12","03","16:00","-4.3","","-7.3","","80","","0.0","","30","","30","","16.1","","96.82","","","","-12","","NA"
"-79.42","46.36","NORTH BAY A","6085680","2022-12-03 17:00","2022","12","03","17:00","-5.3","","-9.2","","74","","0.0","","31","","28","","16.1","","97.02","","","","-13","","Snow"
"-79.42","46.36","NORTH BAY A","6085680","2022-12-03 18:00","2022","12","03","18:00","-5.9","","-8.8","","80","","0.0","","29","","15","","16.1","","97.19","","","","-12","","Snow"
"-79.42","46.36","NORTH BAY A","6085680","2022-12-03 19:00","2022","12","03","19:00","-6.3","","-9.5","","78","","0.0","","31","","21","","16.1","","97.29","","","","-13","","Snow"
"-79.42","46.36","NORTH BAY A","6085680","2022-12-03 20:00","2022","12","03","20:00","-7.1","","-11.0","","74","","0.0","","31","","18","","16.1","","97.41","","","","-14","","NA"
"-79.42","46.36","NORTH BAY A","6085680","2022-12-03 21:00","2022","12","03","21:00","-7.6","","-10.5","","80","","0.0","","29","","15","","16.1","","97.46","","","","-14","","Snow"
"-79.42","46.36","NORTH BAY A","6085680","2022-12-03 22:00","2022","12","03","22:00","-7.9","","-10.5","","82","","0.0","","30","","15","","16.1","","97.48","","","","-14","","Snow"
"-79.42","46.36","NORTH BAY A","6085680","2022-12-03 23:00","2022","12","03","23:00","-8.2","","-10.9","","81","","0.0","","28","","13","","16.1","","97.55","","","","-14","","Snow"
"-79.42","46.36","NORTH BAY A","6085680","2022-12-04 00:00","2022","12","04","00:00","-8.0","","-12.4","","71","","0.0","","27","","13","","16.1","","97.59","","","","-14","","NA"
"-79.42","46.36","NORTH BAY A","6085680","2022-12-04 01:00","2022","12","04","01:00","-8.8","","-12.3","","76","","0.0","","28","","9","","16.1","","97.52","","","","-13","","NA"
"-79.42","46.36","NORTH BAY A","6085680","2022-12-04 02:00","2022","12","04","02:00","-9.8","","-12.5","","81","","0.0","","30","","8","","16.1","","97.52","","","","-14","","NA"
"-79.42","46.36","NORTH BAY A","6085680","2022-12-04 03:00","2022","12","04","03:00","-8.9","","-11.8","","80","","0.0","","23","","4","","16.1","","97.49","","","","-11","","NA"
"-79.42","46.36","NORTH BAY A","6085680","2022-12-04 04:00","2022","12","04","04:00","-8.1","","-11.8","","75","","0.0","","","","0","","16.1","","97.42","","","","","","Snow"
"-79.42","46.36","NORTH BAY A","6085680","2022-12-04 05:00","2022","12","04","05:00","-8.0","","-10.4","","83","","0.0","","13","","9","","16.1","","97.37","","","","-13","","Snow"
"-79.42","46.36","NORTH BAY A","6085680","2022-12-04 06:00","2022","12","04","06:00","-7.1","","-9.7","","82","","0.0","","17","","11","","16.1","","97.33","","","","-12","","Snow"
"-79.42","46.36","NORTH BAY A","6085680","2022-12-04 07:00","2022","12","04","07:00","-6.9","","-9.5","","82","","0.0","","17","","9","","16.1","","97.28","","","","-11","","Snow"
"-79.42","46.36","NORTH BAY A","6085680","2022-12-04 08:00","2022","12","04","08:00","-6.8","","-8.2","","90","","0.0","","17","","9","","2.8","","97.19","","","","-11","","Snow"
"-79.42","46.36","NORTH BAY A","6085680","2022-12-04 09:00","2022","12","04","09:00","-6.4","","-7.4","","93","","0.8","","18","","13","","2.0","","97.10","","","","-12","","Snow"
"-79.42","46.36","NORTH BAY A","6085680","2022-12-04 10:00","2022","12","04","10:00","-5.7","","-6.5","","94","","0.8","","17","","11","","1.6","","97.01","","","","-10","","Snow"
"-79.42","46.36","NORTH BAY A","6085680","2022-12-04 11:00","2022","12","04","11:00","-3.5","","-4.3","","94","","0.5","","22","","28","","2.0","","96.88","","","","-11","","Snow"
"-79.42","46.36","NORTH BAY A","6085680","2022-12-04 12:00","2022","12","04","12:00","-3.3","","-4.2","","94","","0.0","","22","","22","","6.4","","96.80","","","","-10","","Snow"
"-79.42","46.36","NORTH BAY A","6085680","2022-12-04 13:00","2022","12","04","13:00","-3.2","","-4.0","","94","","0.2","","22","","32","","1.2","","96.71","","","","-11","","Snow"
"-79.42","46.36","NORTH BAY A","6085680","2022-12-04 14:00","2022","12","04","14:00","-3.1","","-5.9","","81","","0.0","","24","","32","","16.1","","96.66","","","","-11","","Snow"
"-79.42","46.36","NORTH BAY A","6085680","2022-12-04 15:00","2022","12","04","15:00","-2.9","","-6.2","","78","","0.0","","23","","30","","16.1","","96.65","","","","-10","","Snow"
"-79.42","46.36","NORTH BAY A","6085680","2022-12-04 16:00","2022","12","04","16:00","-3.1","","-6.7","","77","","0.0","","23","","28","","16.1","","96.64","","","","-10","","NA"
"-79.42","46.36","NORTH BAY A","6085680","2022-12-04 17:00","2022","12","04","17:00","-3.2","","-6.8","","77","","0.0","","22","","21","","16.1","","96.62","","","","-9","","NA"
"-79.42","46.36","NORTH BAY A","6085680","2022-12-04 18:00","2022","12","04","18:00","-2.9","","-6.2","","78","","0.0","","23","","21","","16.1","","96.63","","","","-9","","Snow"
"-79.42","46.36","NORTH BAY A","6085680","2022-12-04 19:00","2022","12","04","19:00","-2.9","","-5.0","","85","","0.0","","21","","28","","4.8","","96.61","","","","-10","","Snow"
"-79.42","46.36","NORTH BAY A","6085680","2022-12-04 20:00","2022","12","04","20:00","-3.3","","-4.7","","90","","0.0","","24","","13","","16.1","","96.54","","","","-8","","Snow"
"-79.42","46.36","NORTH BAY A","6085680","2022-12-04 21:00","2022","12","04","21:00","-3.0","","-4.7","","88","","0.0","","20","","15","","9.7","","96.44","","","","-8","","Snow"
"-79.42","46.36","NORTH BAY A","6085680","2022-12-04 22:00","2022","12","04","22:00","-3.2","","-4.0","","94","","0.2","","17","","11","","2.8","","96.36","","","","-7","","Snow"
"-79.42","46.36","NORTH BAY A","6085680","2022-12-04 23:00","2022","12","04","23:00","-2.2","","-2.8","","96","","0.8","","20","","22","","0.8","","96.30","","","","-8","","Moderate Snow"
"-79.42","46.36","NORTH BAY A","6085680","2022-12-05 00:00","2022","12","05","00:00","-1.9","","-2.2","","98","","1.0","","20","","17","","1.6","","96.27","","","","-7","","Snow"
"-79.42","46.36","NORTH BAY A","6085680","2022-12-05 01:00","2022","12","05","01:00","-1.4","","-1.5","","99","","0.5","","22","","24","","16.1","","96.23","","","","-8","","Snow"
"-79.42","46.36","NORTH BAY A","6085680","2022-12-05 02:00","2022","12","05","02:00","-1.1","","-1.4","","98","","0.2","","20","","17","","12.9","","96.21","","","","-6","","Snow"
"-79.42","46.36","NORTH BAY A","6085680","2022-12-05 03:00","2022","12","05","03:00","-0.5","","-1.9","","90","","0.0","","22","","22","","16.1","","96.22","","","","-6","","NA"
"-79.42","46.36","NORTH BAY A","6085680","2022-12-05 04:00","2022","12","05","04:00","-0.5","","-2.4","","87","","0.0","","23","","21","","16.1","","96.21","","","","-6","","NA"
"-79.42","46.36","NORTH BAY A","6085680","2022-12-05 05:00","2022","12","05","05:00","-0.1","","-2.2","","86","","0.0","","21","","28","","16.1","","96.19","","","","-6","","NA"
"-79.42","46.36","NORTH BAY A","6085680","2022-12-05 06:00","2022","12","05","06:00","0.1","","-2.2","","85","","0.0","","20","","28","","16.1","","96.18","","","","","","NA"
"-79.42","46.36","NORTH BAY A","6085680","2022-12-05 07:00","2022","12","05","07:00","0.0","","-1.8","","88","","0.0","","22","","24","","16.1","","96.23","","","","-6","","NA"
"-79.42","46.36","NORTH BAY A","6085680","2022-12-05 08:00","2022","12","05","08:00","-0.3","","-2.2","","87","","0.0","","21","","24","","16.1","","96.21","","","","-6","","NA"
"-79.42","46.36","NORTH BAY A","6085680","2022-12-05 09:00","2022","12","05","09:00","0.6","","-1.5","","86","","0.0","","22","","32","","16.1","","96.28","","","","","","NA"
"-79.42","46.36","NORTH BAY A","6085680","2022-12-05 10:00","2022","12","05","10:00","1.0","","-1.2","","85","","0.0","","21","","28","","16.1","","96.35","","","","","","NA"
"-79.42","46.36","NORTH BAY A","6085680","2022-12-05 11:00","2022","12","05","11:00","1.4","","-1.3","","82","","0.0","","22","","26","","16.1","","96.37","","","","","","NA"
"-79.42","46.36","NORTH BAY A","6085680","2022-12-05 12:00","2022","12","05","12:00","1.7","","-1.0","","82","","0.0","","22","","24","","16.1","","96.38","","","","","","NA"
"-79.42","46.36","NORTH BAY A","6085680","2022-12-05 13:00","2022","12","05","13:00","1.7","","-1.0","","82","","0.0","","21","","32","","16.1","","96.40","","","","","","NA"
"-79.42","46.36","NORTH BAY A","6085680","2022-12-05 14:00","2022","12","05","14:00","1.9","","-0.9","","82","","0.0","","21","","28","","16.1","","96.47","","","","","","NA"
"-79.42","46.36","NORTH BAY A","6085680","2022-12-05 15:00","2022","12","05","15:00","2.1","","-0.8","","81","","0.0","","20","","32","","16.1","","96.50","","","","","","NA"
"-79.42","46.36","NORTH BAY A","6085680","2022-12-05 16:00","2022","12","05","16:00","1.8","","-1.0","","82","","0.0","","20","","26","","16.1","","96.57","","","","","","NA"
"-79.42","46.36","NORTH BAY A","6085680","2022-12-05 17:00","2022","12","05","17:00","1.4","","-1.2","","83","","0.0","","20","","21","","16.1","","96.71","","","","","","NA"
"-79.42","46.36","NORTH BAY A","6085680","2022-12-05 18:00","2022","12","05","18:00","1.3","","-1.5","","82","","0.0","","20","","21","","16.1","","96.74","","","","","","NA"
"-79.42","46.36","NORTH BAY A","6085680","2022-12-05 19:00","2022","12","05","19:00","1.2","","-2.2","","78","","0.0","","19","","15","","16.1","","96.81","","","","","","NA"
"-79.42","46.36","NORTH BAY A","6085680","2022-12-05 20:00","2022","12","05","20:00","1.0","","-2.8","","76","","0.0","","18","","13","","16.1","","96.87","","","","","","NA"
"-79.42","46.36","NORTH BAY A","6085680","2022-12-05 21:00","2022","12","05","21:00","0.9","","-3.8","","71","","0.0","","17","","13","","16.1","","96.90","","","","","","NA"
"-79.42","46.36","NORTH BAY A","6085680","2022-12-05 22:00","2022","12","05","22:00","0.7","","-3.7","","73","","0.0","","18","","15","","16.1","","96.93","","","","","","Rain"
"-79.42","46.36","NORTH BAY A","6085680","2022-12-05 23:00","2022","12","05","23:00","0.8","","-3.7","","72","","0.0","","18","","11","","16.1","","96.94","","","","","","NA"
"-79.42","46.36","NORTH BAY A","6085680","2022-12-06 00:00","2022","12","06","00:00","0.2","","-3.4","","77","","0.0","","14","","5","","16.1","","96.96","","","","","","NA"
"-79.42","46.36","NORTH BAY A","6085680","2022-12-06 01:00","2022","12","06","01:00","-0.2","","-2.7","","83","","0.0","","12","","4","","16.1","","97.04","","","","-1","","NA"
"-79.42","46.36","NORTH BAY A","6085680","2022-12-06 02:00","2022","12","06","02:00","0.3","","-3.6","","75","","0.0","","15","","8","","16.1","","97.09","","","","","","NA"
"-79.42","46.36","NORTH BAY A","6085680","2022-12-06 03:00","2022","12","06","03:00","0.0","","-2.9","","81","","0.0","","13","","8","","9.7","","97.14","","","","-3","","NA"
"-79.42","46.36","NORTH BAY A","6085680","2022-12-06 04:00","2022","12","06","04:00","-0.7","","-1.3","","96","","0.8","","13","","9","","1.6","","97.11","","","","-4","","Snow"
"-79.42","46.36","NORTH BAY A","6085680","2022-12-06 05:00","2022","12","06","05:00","-0.4","","-1.0","","96","","0.0","","","","0","","2.4","","97.18","","","","","","Snow"
"-79.42","46.36","NORTH BAY A","6085680","2022-12-06 06:00","2022","12","06","06:00","-0.9","","-1.6","","95","","0.0","","9","","9","","4.8","","97.23","","","","-4","","Snow"
"-79.42","46.36","NORTH BAY A","6085680","2022-12-06 07:00","2022","12","06","07:00","-0.4","","-1.3","","94","","0.0","","8","","8","","16.1","","97.33","","","","-3","","NA"
"-79.42","46.36","NORTH BAY A","6085680","2022-12-06 08:00","2022","12","06","08:00","-0.3","","-1.0","","95","","0.0","","5","","8","","16.1","","97.41","","","","-3","","NA"
"-79.42","46.36","NORTH BAY A","6085680","2022-12-06 09:00","2022","12","06","09:00","-0.2","","-0.8","","96","","0.0","","9","","9","","14.5","","97.51","","","","-3","","NA"
"-79.42","46.36","NORTH BAY A","6085680","2022-12-06 10:00","2022","12","06","10:00","0.0","","-0.7","","95","","0.0","","9","","8","","11.3","","97.56","","","","-3","","Snow"
"-79.42","46.36","NORTH BAY A","6085680","2022-12-06 11:00","2022","12","06","11:00","0.3","","-0.3","","96","","0.0","","4","","8","","8.1","","97.58","","","","","","Snow"
"-79.42","46.36","NORTH BAY A","6085680","2022-12-06 12:00","2022","12","06","12:00","-0.6","","-1.2","","96","","0.0","","5","","15","","16.1","","97.53","","","","-5","","Snow"
"-79.42","46.36","NORTH BAY A","6085680","2022-12-06 13:00","2022","12","06","13:00","-1.6","","-2.3","","95","","0.0","","3","","11","","16.1","","97.55","","","","-5","","NA"
"-79.42","46.36","NORTH BAY A","6085680","2022-12-06 14:00","2022","12","06","14:00","-2.5","","-3.3","","94","","0.0","","2","","21","","16.1","","97.62","","","","-9","","NA"
"-79.42","46.36","NORTH BAY A","6085680","2022-12-06 15:00","2022","12","06","15:00","-2.9","","-3.6","","95","","0.0","","3","","18","","16.1","","97.61","","","","-9","","NA"
"-79.42","46.36","NORTH BAY A","6085680","2022-12-06 16:00","2022","12","06","16:00","-3.4","","-4.0","","96","","0.0","","3","","21","","4.8","","97.56","","","","-10","","Fog"
"-79.42","46.36","NORTH BAY A","6085680","2022-12-06 17:00","2022","12","06","17:00","-3.3","","-3.9","","96","","0.0","","4","","13","","16.1","","97.65","","","","-8","","NA"
"-79.42","46.36","NORTH BAY A","6085680","2022-12-06 18:00","2022","12","06","18:00","-3.3","","-3.7","","97","","0.0","","5","","17","","6.4","","97.62","","","","-9","","Fog"
"-79.42","46.36","NORTH BAY A","6085680","2022-12-06 19:00","2022","12","06","19:00","-2.9","","-3.3","","97","","0.0","","5","","17","","11.3","","97.61","","","","-8","","NA"
"-79.42","46.36","NORTH BAY A","6085680","2022-12-06 20:00","2022","12","06","20:00","-2.7","","-3.0","","98","","0.0","","2","","15","","6.4","","97.63","","","","-8","","Snow"
"-79.42","46.36","NORTH BAY A","6085680","2022-12-06 21:00","2022","12","06","21:00","-2.2","","-2.5","","98","","0.0","","7","","18","","11.3","","97.57","","","","-8","","Snow"
"-79.42","46.36","NORTH BAY A","6085680","2022-12-06 22:00","2022","12","06","22:00","-1.3","","-1.6","","98","","0.2","","8","","17","","9.7","","97.52","","","","-6","","Snow"
"-79.42","46.36","NORTH BAY A","6085680","2022-12-06 23:00","2022","12","06","23:00","-0.5","","-0.8","","98","","0.0","","10","","13","","11.3","","97.45","","","","-5","","Freezing Rain,Snow"
"-79.42","46.36","NORTH BAY A","6085680","2022-12-07 00:00","2022","12","07","00:00","0.1","","-0.2","","98","","0.0","","9","","13","","11.3","","97.39","","","","","","Rain"
"-79.42","46.36","NORTH BAY A","6085680","2022-12-07 01:00","2022","12","07","01:00","0.3","","0.0","","98","","0.2","","8","","8","","8.1","","97.45","","","","","","Rain,Fog"
"-79.42","46.36","NORTH BAY A","6085680","2022-12-07 02:00","2022","12","07","02:00","0.4","","0.1","","98","","0.2","","","M","4","","9.7","","97.47","","","","","","Rain,Fog"
"-79.42","46.36","NORTH BAY A","6085680","2022-12-07 03:00","2022","12","07","03:00","0.4","","0.3","","99","","0.5","","6","","8","","4.0","","97.49","","","","","","Rain,Fog"
"-79.42","46.36","NORTH BAY A","6085680","2022-12-07 04:00","2022","12","07","04:00","0.1","","0.0","","99","","0.2","","","","0","","3.2","","97.48","","","","","","Rain,Fog"
"-79.42","46.36","NORTH BAY A","6085680","2022-12-07 05:00","2022","12","07","05:00","0.0","","-0.1","","99","","0.0","","35","","5","","4.8","","97.51","","","","-2","","Rain,Fog"
"-79.42","46.36","NORTH BAY A","6085680","2022-12-07 06:00","2022","12","07","06:00","0.2","","0.1","","99","","0.0","","","","0","","11.3","","97.52","","","","","","NA"
"-79.42","46.36","NORTH BAY A","6085680","2022-12-07 07:00","2022","12","07","07:00","0.0","","-0.1","","99","","0.0","","33","","5","","2.0","","97.58","","","","-2","","Rain,Fog"
"-79.42","46.36","NORTH BAY A","6085680","2022-12-07 08:00","2022","12","07","08:00","-0.1","","-0.2","","99","","0.0","","36","","5","","2.4","","97.62","","","","-2","","Snow"
"-79.42","46.36","NORTH BAY A","6085680","2022-12-07 09:00","2022","12","07","09:00","0.0","","-0.1","","99","","0.0","","","M","4","","12.9","","97.61","","","","-1","","NA"
"-79.42","46.36","NORTH BAY A","6085680","2022-12-07 10:00","2022","12","07","10:00","0.2","","-0.1","","98","","0.0","","1","","9","","16.1","","97.64","","","","","","NA"
"-79.42","46.36","NORTH BAY A","6085680","2022-12-07 11:00","2022","12","07","11:00","0.6","","-0.1","","95","","0.0","","4","","8","","16.1","","97.66","","","","","","NA"
"-79.42","46.36","NORTH BAY A","6085680","2022-12-07 12:00","2022","12","07","12:00","1.0","","-0.2","","92","","0.0","","7","","8","","16.1","","97.64","","","","","","NA"
"-79.42","46.36","NORTH BAY A","6085680","2022-12-07 13:00","2022","12","07","13:00","1.1","","-0.1","","92","","0.0","","7","","8","","16.1","","97.64","","","","","","NA"
"-79.42","46.36","NORTH BAY A","6085680","2022-12-07 14:00","2022","12","07","14:00","1.0","","-0.3","","91","","0.0","","8","","9","","16.1","","97.65","","","","","","NA"
"-79.42","46.36","NORTH BAY A","6085680","2022-12-07 15:00","2022","12","07","15:00","1.0","","-0.2","","92","","0.0","","8","","8","","16.1","","97.64","","","","","","NA"
"-79.42","46.36","NORTH BAY A","6085680","2022-12-07 16:00","2022","12","07","16:00","0.8","","-0.1","","94","","0.0","","6","","5","","16.1","","97.69","","","","","","NA"
"-79.42","46.36","NORTH BAY A","6085680","2022-12-07 17:00","2022","12","07","17:00","0.5","","0.0","","96","","0.0","","30","","4","","14.5","","97.75","","","","","","NA"
"-79.42","46.36","NORTH BAY A","6085680","2022-12-07 18:00","2022","12","07","18:00","0.3","","-0.1","","97","","0.0","","4","","4","","16.1","","97.77","","","","","","NA"
"-79.42","46.36","NORTH BAY A","6085680","2022-12-07 19:00","2022","12","07","19:00","0.0","","-0.3","","98","","0.0","","30","","5","","6.4","","97.83","","","","-2","","Fog"
"-79.42","46.36","NORTH BAY A","6085680","2022-12-07 20:00","2022","12","07","20:00","0.0","","-0.1","","99","","0.0","","","","0","","9.7","","97.85","","","","","","Rain,Fog"
"-79.42","46.36","NORTH BAY A","6085680","2022-12-07 21:00","2022","12","07","21:00","0.1","","0.0","","99","","0.0","","","","0","","3.6","","97.86","","","","","","Fog"
"-79.42","46.36","NORTH BAY A","6085680","2022-12-07 22:00","2022","12","07","22:00","0.1","","0.0","","99","","0.0","","36","","4","","4.8","","97.89","","","","","","Snow"
"-79.42","46.36","NORTH BAY A","6085680","2022-12-07 23:00","2022","12","07","23:00","-1.8","","-2.5","","95","","0.0","","36","","18","","2.4","","97.93","","","","-7","","Snow"
"-79.42","46.36","NORTH BAY A","6085680","2022-12-08 00:00","2022","12","08","00:00","-3.6","","-5.0","","90","","0.0","","36","","26","","2.4","","97.98","","","","-11","","Snow"
"-79.42","46.36","NORTH BAY A","6085680","2022-12-08 01:00","2022","12","08","01:00","-5.4","","-7.2","","87","","0.0","","36","","26","","4.8","","98.03","","","","-13","","Snow"
"-79.42","46.36","NORTH BAY A","6085680","2022-12-08 02:00","2022","12","08","02:00","-6.2","","-8.0","","87","","0.0","","36","","21","","14.5","","98.11","","","","-13","","Snow"
"-79.42","46.36","NORTH BAY A","6085680","2022-12-08 03:00","2022","12","08","03:00","-6.6","","-8.6","","86","","0.0","","1","","18","","16.1","","98.16","","","","-13","","Snow"
"-79.42","46.36","NORTH BAY A","6085680","2022-12-08 04:00","2022","12","08","04:00","-6.8","","-8.6","","87","","0.0","","1","","17","","16.1","","98.19","","","","-13","","NA"
"-79.42","46.36","NORTH BAY A","6085680","2022-12-08 05:00","2022","12","08","05:00","-7.7","","-9.2","","89","","0.0","","36","","15","","9.7","","98.20","","","","-14","","Snow"
"-79.42","46.36","NORTH BAY A","6085680","2022-12-08 06:00","2022","12","08","06:00","-8.8","","-10.2","","90","","0.0","","35","","8","","14.5","","98.29","","","","-13","","Snow"
"-79.42","46.36","NORTH BAY A","6085680","2022-12-08 07:00","2022","12","08","07:00","-10.2","","-11.8","","88","","0.0","","35","","9","","9.7","","98.36","","","","-15","","Snow"
"-79.42","46.36","NORTH BAY A","6085680","2022-12-08 08:00","2022","12","08","08:00","-10.7","","-12.5","","87","","0.0","","2","","13","","11.3","","98.38","","","","-17","","Snow"
"-79.42","46.36","NORTH BAY A","6085680","2022-12-08 09:00","2022","12","08","09:00","-10.6","","-12.4","","87","","0.0","","3","","15","","9.7","","98.40","","","","-17","","Snow"
"-79.42","46.36","NORTH BAY A","6085680","2022-12-08 10:00","2022","12","08","10:00","-9.9","","-11.7","","87","","0.0","","2","","9","","16.1","","98.42","","","","-15","","NA"
"-79.42","46.36","NORTH BAY A","6085680","2022-12-08 11:00","2022","12","08","11:00","-8.9","","-10.9","","86","","0.0","","4","","9","","16.1","","98.39","","","","-14","","NA"
"-79.42","46.36","NORTH BAY A","6085680","2022-12-08 12:00","2022","12","08","12:00","-7.9","","-9.7","","87","","0.0","","32","","5","","16.1","","98.38","","","","-11","","NA"
"-79.42","46.36","NORTH BAY A","6085680","2022-12-08 13:00","2022","12","08","13:00","-7.1","","-8.6","","89","","0.0","","28","","4","","16.1","","98.32","","","","-9","","NA"
"-79.42","46.36","NORTH BAY A","6085680","2022-12-08 14:00","2022","12","08","14:00","-6.8","","-8.5","","88","","0.0","","","M","4","","8.1","","98.33","","","","-9","","Fog"
"-79.42","46.36","NORTH BAY A","6085680","2022-12-08 15:00","2022","12","08","15:00","-6.7","","-8.4","","88","","0.0","","","M","4","","16.1","","98.32","","","","-9","","NA"
"-79.42","46.36","NORTH BAY A","6085680","2022-12-08 16:00","2022","12","08","16:00","-6.9","","-8.6","","88","","0.0","","","","0","","16.1","","98.36","","","","","","NA"
"-79.42","46.36","NORTH BAY A","6085680","2022-12-08 17:00","2022","12","08","17:00","-7.2","","-8.6","","90","","0.0","","14","","4","","16.1","","98.39","","","","-9","","NA"
"-79.42","46.36","NORTH BAY A","6085680","2022-12-08 18:00","2022","12","08","18:00","-6.8","","-7.9","","92","","0.0","","23","","5","","16.1","","98.43","","","","-9","","NA"
"-79.42","46.36","NORTH BAY A","6085680","2022-12-08 19:00","2022","12","08","19:00","-7.0","","-8.0","","93","","0.0","","","M","4","","16.1","","98.45","","","","-9","","NA"
"-79.42","46.36","NORTH BAY A","6085680","2022-12-08 20:00","2022","12","08","20:00","-7.1","","-7.9","","94","","0.0","","","M","4","","16.1","","98.48","","","","-9","","NA"
"-79.42","46.36","NORTH BAY A","6085680","2022-12-08 21:00","2022","12","08","21:00","-7.2","","-7.9","","95","","0.0","","11","","5","","16.1","","98.50","","","","-10","","NA"
"-79.42","46.36","NORTH BAY A","6085680","2022-12-08 22:00","2022","12","08","22:00","-7.2","","-7.7","","96","","0.0","","","","0","","12.9","","98.52","","","","","","NA"
"-79.42","46.36","NORTH BAY A","6085680","2022-12-08 23:00","2022","12","08","23:00","-7.3","","-7.8","","96","","0.0","","","M","4","","16.1","","98.52","","","","-9","","NA"
"-79.42","46.36","NORTH BAY A","6085680","2022-12-09 00:00","2022","12","09","00:00","-7.7","","-8.4","","95","","0.0","","1","","8","","9.7","","98.53","","","","-12","","Fog"
"-79.42","46.36","NORTH BAY A","6085680","2022-12-09 01:00","2022","12","09","01:00","-9.1","","-10.0","","93","","0.0","","","M","4","","2.4","","98.54","","","","-11","","Fog"
"-79.42","46.36","NORTH BAY A","6085680","2022-12-09 02:00","2022","12","09","02:00","-9.5","","-10.4","","93","","0.0","","","M","4","","16.1","","98.60","","","","-12","","NA"
"-79.42","46.36","NORTH BAY A","6085680","2022-12-09 03:00","2022","12","09","03:00","-9.1","","-10.0","","93","","0.0","","6","","5","","16.1","","98.65","","","","-12","","Snow"
"-79.42","46.36","NORTH BAY A","6085680","2022-12-09 04:00","2022","12","09","04:00","-9.3","","-10.4","","92","","0.0","","7","","8","","6.4","","98.65","","","","-14","","Snow"
"-79.42","46.36","NORTH BAY A","6085680","2022-12-09 05:00","2022","12","09","05:00","-9.4","","-10.5","","92","","0.0","","6","","8","","11.3","","98.67","","","","-14","","Snow"
"-79.42","46.36","NORTH BAY A","6085680","2022-12-09 06:00","2022","12","09","06:00","-10.3","","-11.5","","91","","0.0","","4","","8","","16.1","","98.67","","","","-15","","NA"
"-79.42","46.36","NORTH BAY A","6085680","2022-12-09 07:00","2022","12","09","07:00","-10.1","","-11.3","","91","","0.0","","4","","9","","16.1","","98.71","","","","-15","","NA"
"-79.42","46.36","NORTH BAY A","6085680","2022-12-09 08:00","2022","12","09","08:00","-11.0","","-12.3","","90","","0.0","","6","","15","","16.1","","98.76","","","","-18","","NA"
"-79.42","46.36","NORTH BAY A","6085680","2022-12-09 09:00","2022","12","09","09:00","-10.5","","-12.7","","84","","0.0","","6","","15","","11.3","","98.79","","","","-17","","Snow"
"-79.42","46.36","NORTH BAY A","6085680","2022-12-09 10:00","2022","12","09","10:00","-9.7","","-12.4","","81","","0.0","","7","","18","","16.1","","98.85","","","","-17","","Snow"
"-79.42","46.36","NORTH BAY A","6085680","2022-12-09 11:00","2022","12","09","11:00","-8.2","","-11.8","","75","","0.0","","6","","17","","16.1","","98.82","","","","-15","","NA"
"-79.42","46.36","NORTH BAY A","6085680","2022-12-09 12:00","2022","12","09","12:00","-7.1","","-11.3","","72","","0.0","","6","","17","","16.1","","98.78","","","","-14","","NA"
"-79.42","46.36","NORTH BAY A","6085680","2022-12-09 13:00","2022","12","09","13:00","-6.5","","-11.1","","70","","0.0","","6","","18","","16.1","","98.73","","","","-13","","NA"
"-79.42","46.36","NORTH BAY A","6085680","2022-12-09 14:00","2022","12","09","14:00","-6.9","","-11.0","","73","","0.0","","5","","15","","16.1","","98.72","","","","-13","","NA"
"-79.42","46.36","NORTH BAY A","6085680","2022-12-09 15:00","2022","12","09","15:00","-7.2","","-10.7","","76","","0.0","","5","","15","","16.1","","98.73","","","","-13","","NA"
"-79.42","46.36","NORTH BAY A","6085680","2022-12-09 16:00","2022","12","09","16:00","-7.9","","-11.1","","78","","0.0","","4","","15","","16.1","","98.81","","","","-14","","Snow"
"-79.42","46.36","NORTH BAY A","6085680","2022-12-09 17:00","2022","12","09","17:00","-9.2","","-11.9","","81","","0.0","","5","","13","","16.1","","98.82","","","","-15","","Snow"
"-79.42","46.36","NORTH BAY A","6085680","2022-12-09 18:00","2022","12","09","18:00","-9.8","","-12.0","","84","","0.0","","4","","9","","16.1","","98.82","","","","-15","","Snow"
"-79.42","46.36","NORTH BAY A","6085680","2022-12-09 19:00","2022","12","09","19:00","-10.6","","-13.0","","83","","0.0","","4","","13","","16.1","","98.80","","","","-17","","Snow"
"-79.42","46.36","NORTH BAY A","6085680","2022-12-09 20:00","2022","12","09","20:00","-11.3","","-13.6","","83","","0.0","","6","","18","","16.1","","98.85","","","","-19","","Snow"
"-79.42","46.36","NORTH BAY A","6085680","2022-12-09 21:00","2022","12","09","21:00","-11.9","","-14.2","","83","","0.0","","6","","21","","16.1","","98.81","","","","-20","","NA"
"-79.42","46.36","NORTH BAY A","6085680","2022-12-09 22:00","2022","12","09","22:00","-12.4","","-14.6","","84","","0.0","","6","","17","","16.1","","98.83","","","","-20","","NA"
"-79.42","46.36","NORTH BAY A","6085680","2022-12-09 23:00","2022","12","09","23:00","-12.9","","-15.2","","83","","0.0","","6","","18","","16.1","","98.80","","","","-21","","NA"
"-79.42","46.36","NORTH BAY A","6085680","2022-12-10 00:00","2022","12","10","00:00","-13.4","","-15.6","","84","","0.0","","7","","17","","16.1","","98.79","","","","-21","","NA"
"-79.42","46.36","NORTH BAY A","6085680","2022-12-10 01:00","2022","12","10","01:00","-13.7","","-15.9","","84","","0.0","","7","","11","","16.1","","98.78","","","","-20","","NA"
"-79.42","46.36","NORTH BAY A","6085680","2022-12-10 02:00","2022","12","10","02:00","-13.9","","-16.1","","84","","0.0","","6","","8","","16.1","","98.80","","","","-19","","NA"
"-79.42","46.36","NORTH BAY A","6085680","2022-12-10 03:00","2022","12","10","03:00","-14.1","","-16.5","","82","","0.0","","5","","13","","16.1","","98.82","","","","-21","","NA"
"-79.42","46.36","NORTH BAY A","6085680","2022-12-10 04:00","2022","12","10","04:00","-14.6","","-16.9","","83","","0.0","","7","","15","","16.1","","98.78","","","","-22","","NA"
"-79.42","46.36","NORTH BAY A","6085680","2022-12-10 05:00","2022","12","10","05:00","-15.0","","-17.1","","84","","0.0","","7","","17","","16.1","","98.75","","","","-23","","NA"
"-79.42","46.36","NORTH BAY A","6085680","2022-12-10 06:00","2022","12","10","06:00","-15.2","","-17.3","","84","","0.0","","7","","22","","16.1","","98.72","","","","-25","","NA"
"-79.42","46.36","NORTH BAY A","6085680","2022-12-10 07:00","2022","12","10","07:00","-15.3","","-17.6","","83","","0.0","","7","","21","","16.1","","98.71","","","","-25","","NA"
"-79.42","46.36","NORTH BAY A","6085680","2022-12-10 08:00","2022","12","10","08:00","-15.3","","-17.4","","84","","0.0","","8","","22","","16.1","","98.70","","","","-25","","NA"
"-79.42","46.36","NORTH BAY A","6085680","2022-12-10 09:00","2022","12","10","09:00","-14.3","","-16.8","","81","","0.0","","8","","30","","16.1","","98.65","","","","-25","","NA"
"-79.42","46.36","NORTH BAY A","6085680","2022-12-10 10:00","2022","12","10","10:00","-12.4","","-15.6","","77","","0.0","","9","","24","","16.1","","98.63","","","","-22","","NA"
"-79.42","46.36","NORTH BAY A","6085680","2022-12-10 11:00","2022","12","10","11:00","-9.9","","-14.8","","68","","0.0","","9","","24","","16.1","","98.59","","","","-18","","NA"
"-79.42","46.36","NORTH BAY A","6085680","2022-12-10 12:00","2022","12","10","12:00","-7.8","","-14.5","","59","","0.0","","9","","22","","16.1","","98.51","","","","-15","","NA"
"-79.42","46.36","NORTH BAY A","6085680","2022-12-10 13:00","2022","12","10","13:00","-6.7","","-14.5","","54","","0.0","","9","","18","","16.1","","98.48","","","","-13","","NA"
"-79.42","46.36","NORTH BAY A","6085680","2022-12-10 14:00","2022","12","10","14:00","-5.9","","-14.6","","51","","0.0","","8","","26","","16.1","","98.42","","","","-14","","NA"
"-79.42","46.36","NORTH BAY A","6085680","2022-12-10 15:00","2022","12","10","15:00","-5.2","","-14.9","","47","","0.0","","7","","21","","16.1","","98.39","","","","-12","","NA"
"-79.42","46.36","NORTH BAY A","6085680","2022-12-10 16:00","2022","12","10","16:00","-5.9","","-14.8","","50","","0.0","","7","","18","","16.1","","98.36","","","","-12","","NA"
"-79.42","46.36","NORTH BAY A","6085680","2022-12-10 17:00","2022","12","10","17:00","-6.5","","-13.7","","57","","0.0","","7","","24","","16.1","","98.22","","","","-14","","NA"
"-79.42","46.36","NORTH BAY A","6085680","2022-12-10 18:00","2022","12","10","18:00","-7.5","","-13.4","","63","","0.0","","8","","24","","16.1","","98.20","","","","-15","","NA"
"-79.42","46.36","NORTH BAY A","6085680","2022-12-10 19:00","2022","12","10","19:00","-7.6","","-13.7","","62","","0.0","","9","","24","","16.1","","98.18","","","","-16","","NA"
"-79.42","46.36","NORTH BAY A","6085680","2022-12-10 20:00","2022","12","10","20:00","-7.7","","-14.0","","61","","0.0","","10","","30","","16.1","","98.17","","","","-17","","NA"
"-79.42","46.36","NORTH BAY A","6085680","2022-12-10 21:00","2022","12","10","21:00","-7.9","","-14.5","","59","","0.0","","9","","34","","16.1","","98.06","","","","-17","","NA"
"-79.42","46.36","NORTH BAY A","6085680","2022-12-10 22:00","2022","12","10","22:00","-8.3","","-14.3","","62","","0.0","","10","","34","","16.1","","98.00","","","","-18","","NA"
"-79.42","46.36","NORTH BAY A","6085680","2022-12-10 23:00","2022","12","10","23:00","-8.5","","-14.2","","64","","0.0","","9","","28","","16.1","","97.97","","","","-17","","NA"
"-79.42","46.36","NORTH BAY A","6085680","2022-12-11 00:00","2022","12","11","00:00","-8.5","","-14.4","","63","","0.0","","10","","24","","16.1","","97.93","","","","-17","","NA"
"-79.42","46.36","NORTH BAY A","6085680","2022-12-11 01:00","2022","12","11","01:00","-8.8","","-14.1","","66","","0.0","","10","","18","","16.1","","97.89","","","","-16","","NA"
"-79.42","46.36","NORTH BAY A","6085680","2022-12-11 02:00","2022","12","11","02:00","-8.9","","-13.4","","70","","0.0","","9","","24","","16.1","","97.88","","","","-17","","NA"
"-79.42","46.36","NORTH BAY A","6085680","2022-12-11 03:00","2022","12","11","03:00","-9.1","","-12.9","","74","","0.0","","10","","22","","16.1","","97.83","","","","-17","","NA"
"-79.42","46.36","NORTH BAY A","6085680","2022-12-11 04:00","2022","12","11","04:00","-9.3","","-12.5","","78","","0.0","","10","","21","","16.1","","97.79","","","","-17","","NA"
"-79.42","46.36","NORTH BAY A","6085680","2022-12-11 05:00","2022","12","11","05:00","-9.5","","-12.5","","79","","0.0","","9","","21","","16.1","","97.76","","","","-17","","NA"
"-79.42","46.36","NORTH BAY A","6085680","2022-12-11 06:00","2022","12","11","06:00","-9.5","","-12.3","","80","","0.0","","9","","18","","16.1","","97.72","","","","-17","","NA"
"-79.42","46.36","NORTH BAY A","6085680","2022-12-11 07:00","2022","12","11","07:00","-9.4","","-12.2","","80","","0.0","","9","","18","","16.1","","97.71","","","","-17","","NA"
"-79.42","46.36","NORTH BAY A","6085680","2022-12-11 08:00","2022","12","11","08:00","-9.3","","-12.0","","81","","0.0","","8","","22","","16.1","","97.67","","","","-17","","NA"
"-79.42","46.36","NORTH BAY A","6085680","2022-12-11 09:00","2022","12","11","09:00","-9.0","","-11.9","","80","","0.0","","7","","17","","16.1","","97.67","","","","-16","","NA"
"-79.42","46.36","NORTH BAY A","6085680","2022-12-11 10:00","2022","12","11","10:00","-8.6","","-11.6","","79","","0.0","","7","","11","","16.1","","97.69","","","","-14","","NA"
"-79.42","46.36","NORTH BAY A","6085680","2022-12-11 11:00","2022","12","11","11:00","-7.8","","-11.2","","77","","0.0","","5","","13","","16.1","","97.66","","","","-14","","Snow"
"-79.42","46.36","NORTH BAY A","6085680","2022-12-11 12:00","2022","12","11","12:00","-6.9","","-10.3","","77","","0.0","","7","","13","","12.9","","97.61","","","","-12","","Snow"
"-79.42","46.36","NORTH BAY A","6085680","2022-12-11 13:00","2022","12","11","13:00","-5.7","","-9.5","","75","","0.0","","6","","13","","16.1","","97.56","","","","-11","","NA"
"-79.42","46.36","NORTH BAY A","6085680","2022-12-11 14:00","2022","12","11","14:00","-3.9","","-9.0","","68","","0.0","","5","","9","","16.1","","97.55","","","","-8","","NA"
"-79.42","46.36","NORTH BAY A","6085680","2022-12-11 15:00","2022","12","11","15:00","-5.5","","-9.9","","71","","0.0","","4","","13","","16.1","","97.59","","","","-11","","NA"
"-79.42","46.36","NORTH BAY A","6085680","2022-12-11 16:00","2022","12","11","16:00","-5.3","","-9.4","","73","","0.0","","3","","11","","16.1","","97.62","","","","-10","","NA"
"-79.42","46.36","NORTH BAY A","6085680","2022-12-11 17:00","2022","12","11","17:00","-5.9","","-8.8","","80","","0.0","","3","","11","","16.1","","97.70","","","","-11","","NA"
"-79.42","46.36","NORTH BAY A","6085680","2022-12-11 18:00","2022","12","11","18:00","-6.4","","-8.4","","86","","0.0","","4","","5","","16.1","","97.73","","","","-9","","NA"
"-79.42","46.36","NORTH BAY A","6085680","2022-12-11 19:00","2022","12","11","19:00","-6.7","","-8.7","","86","","0.0","","2","","8","","16.1","","97.77","","","","-11","","NA"
"-79.42","46.36","NORTH BAY A","6085680","2022-12-11 20:00","2022","12","11","20:00","-6.9","","-8.9","","86","","0.0","","3","","8","","16.1","","97.80","","","","-11","","NA"
"-79.42","46.36","NORTH BAY A","6085680","2022-12-11 21:00","2022","12","11","21:00","-7.0","","-8.9","","87","","0.0","","2","","8","","16.1","","97.80","","","","-11","","NA"
"-79.42","46.36","NORTH BAY A","6085680","2022-12-11 22:00","2022","12","11","22:00","-7.2","","-8.9","","88","","0.0","","1","","15","","16.1","","97.81","","","","-13","","NA"
"-79.42","46.36","NORTH BAY A","6085680","2022-12-11 23:00","2022","12","11","23:00","-7.7","","-8.9","","91","","0.0","","1","","11","","16.1","","97.85","","","","-13","","NA"
"-79.42","46.36","NORTH BAY A","6085680","2022-12-12 00:00","2022","12","12","00:00","-7.8","","-8.6","","94","","0.0","","3","","8","","14.5","","97.89","","","","-12","","NA"
"-79.42","46.36","NORTH BAY A","6085680","2022-12-12 01:00","2022","12","12","01:00","-8.0","","-8.7","","95","","0.0","","1","","8","","8.1","","97.95","","","","-12","","Fog"
"-79.42","46.36","NORTH BAY A","6085680","2022-12-12 02:00","2022","12","12","02:00","-8.2","","-8.9","","95","","0.0","","5","","8","","9.7","","97.99","","","","-12","","Fog"
"-79.42","46.36","NORTH BAY A","6085680","2022-12-12 03:00","2022","12","12","03:00","-8.6","","-9.3","","95","","0.0","","5","","11","","6.4","","98.05","","","","-14","","Fog"
"-79.42","46.36","NORTH BAY A","6085680","2022-12-12 04:00","2022","12","12","04:00","-8.9","","-9.6","","95","","0.0","","6","","15","","14.5","","98.11","","","","-15","","NA"
"-79.42","46.36","NORTH BAY A","6085680","2022-12-12 05:00","2022","12","12","05:00","-8.8","","-9.6","","94","","0.0","","4","","11","","16.1","","98.15","","","","-14","","NA"
"-79.42","46.36","NORTH BAY A","6085680","2022-12-12 06:00","2022","12","12","06:00","-8.8","","-9.6","","94","","0.0","","6","","11","","16.1","","98.21","","","","-14","","NA"
"-79.42","46.36","NORTH BAY A","6085680","2022-12-12 07:00","2022","12","12","07:00","-8.8","","-9.7","","93","","0.0","","4","","11","","16.1","","98.26","","","","-14","","NA"
"-79.42","46.36","NORTH BAY A","6085680","2022-12-12 08:00","2022","12","12","08:00","-9.0","","-10.1","","92","","0.0","","5","","15","","16.1","","98.30","","","","-16","","NA"
"-79.42","46.36","NORTH BAY A","6085680","2022-12-12 09:00","2022","12","12","09:00","-9.1","","-10.3","","91","","0.0","","3","","8","","16.1","","98.36","","","","-13","","NA"
"-79.42","46.36","NORTH BAY A","6085680","2022-12-12 10:00","2022","12","12","10:00","-9.6","","-11.1","","89","","0.0","","3","","13","","16.1","","98.41","","","","-16","","NA"
"-79.42","46.36","NORTH BAY A","6085680","2022-12-12 11:00","2022","12","12","11:00","-8.1","","-11.3","","78","","0.0","","5","","17","","16.1","","98.40","","","","-15","","NA"
"-79.42","46.36","NORTH BAY A","6085680","2022-12-12 12:00","2022","12","12","12:00","-6.4","","-12.0","","65","","0.0","","5","","11","","16.1","","98.42","","","","-11","","NA"
"-79.42","46.36","NORTH BAY A","6085680","2022-12-12 13:00","2022","12","12","13:00","-5.1","","-11.3","","62","","0.0","","6","","9","","16.1","","98.36","","","","-9","","NA"
"-79.42","46.36","NORTH BAY A","6085680","2022-12-12 14:00","2022","12","12","14:00","-4.2","","-13.2","","50","","0.0","","4","","11","","16.1","","98.35","","","","-9","","NA"
"-79.42","46.36","NORTH BAY A","6085680","2022-12-12 15:00","2022","12","12","15:00","-4.6","","-13.7","","50","","0.0","","9","","11","","16.1","","98.36","","","","-9","","NA"
"-79.42","46.36","NORTH BAY A","6085680","2022-12-12 16:00","2022","12","12","16:00","-5.1","","-13.8","","51","","0.0","","2","","8","","16.1","","98.41","","","","-9","","NA"
"-79.42","46.36","NORTH BAY A","6085680","2022-12-12 17:00","2022","12","12","17:00","-7.0","","-14.2","","57","","0.0","","3","","9","","16.1","","98.47","","","","-11","","NA"
"-79.42","46.36","NORTH BAY A","6085680","2022-12-12 18:00","2022","12","12","18:00","-8.3","","-13.6","","66","","0.0","","2","","11","","16.1","","98.49","","","","-14","","NA"
"-79.42","46.36","NORTH BAY A","6085680","2022-12-12 19:00","2022","12","12","19:00","-9.1","","-13.8","","69","","0.0","","2","","11","","16.1","","98.49","","","","-15","","NA"
"-79.42","46.36","NORTH BAY A","6085680","2022-12-12 20:00","2022","12","12","20:00","-9.5","","-13.8","","71","","0.0","","3","","15","","16.1","","98.52","","","","-16","","NA"
"-79.42","46.36","NORTH BAY A","6085680","2022-12-12 21:00","2022","12","12","21:00","-10.1","","-13.9","","74","","0.0","","3","","11","","16.1","","98.55","","","","-16","","NA"
"-79.42","46.36","NORTH BAY A","6085680","2022-12-12 22:00","2022","12","12","22:00","-10.4","","-14.2","","74","","0.0","","4","","11","","16.1","","98.54","","","","-16","","NA"
"-79.42","46.36","NORTH BAY A","6085680","2022-12-12 23:00","2022","12","12","23:00","-11.3","","-14.7","","76","","0.0","","4","","8","","16.1","","98.53","","","","-16","","NA"
"-79.42","46.36","NORTH BAY A","6085680","2022-12-13 00:00","2022","12","13","00:00","-12.0","","-14.8","","80","","0.0","","2","","8","","16.1","","98.53","","","","-17","","NA"
"-79.42","46.36","NORTH BAY A","6085680","2022-12-13 01:00","2022","12","13","01:00","-13.9","","-16.2","","83","","0.0","","","","0","","16.1","","98.51","","","","","","NA"
"-79.42","46.36","NORTH BAY A","6085680","2022-12-13 02:00","2022","12","13","02:00","-12.1","","-14.9","","80","","0.0","","2","","11","","16.1","","98.52","","","","-18","","NA"
"-79.42","46.36","NORTH BAY A","6085680","2022-12-13 03:00","2022","12","13","03:00","-11.3","","-14.3","","79","","0.0","","3","","15","","16.1","","98.51","","","","-18","","NA"
"-79.42","46.36","NORTH BAY A","6085680","2022-12-13 04:00","2022","12","13","04:00","-11.7","","-14.0","","83","","0.0","","3","","17","","16.1","","98.49","","","","-19","","NA"
"-79.42","46.36","NORTH BAY A","6085680","2022-12-13 05:00","2022","12","13","05:00","-13.5","","-15.3","","86","","0.0","","","","0","","16.1","","98.51","","","","","","NA"
"-79.42","46.36","NORTH BAY A","6085680","2022-12-13 06:00","2022","12","13","06:00","-12.3","","-14.0","","87","","0.0","","4","","15","","16.1","","98.47","","","","-20","","NA"
"-79.42","46.36","NORTH BAY A","6085680","2022-12-13 07:00","2022","12","13","07:00","-12.6","","-14.2","","88","","0.0","","","M","4","","16.1","","98.51","","","","-15","","NA"
"-79.42","46.36","NORTH BAY A","6085680","2022-12-13 08:00","2022","12","13","08:00","-14.2","","-15.7","","89","","0.0","","30","","4","","16.1","","98.53","","","","-17","","NA"
"-79.42","46.36","NORTH BAY A","6085680","2022-12-13 09:00","2022","12","13","09:00","-12.5","","-14.1","","88","","0.0","","31","","4","","16.1","","98.56","","","","-15","","NA"
"-79.42","46.36","NORTH BAY A","6085680","2022-12-13 10:00","2022","12","13","10:00","-9.6","","-11.7","","85","","0.0","","1","","8","","16.1","","98.58","","","","-14","","NA"
"-79.42","46.36","NORTH BAY A","6085680","2022-12-13 11:00","2022","12","13","11:00","-7.8","","-10.5","","81","","0.0","","1","","5","","16.1","","98.57","","","","-10","","NA"
"-79.42","46.36","NORTH BAY A","6085680","2022-12-13 12:00","2022","12","13","12:00","-5.6","","-9.2","","76","","0.0","","","M","4","","16.1","","98.47","","","","-7","","NA"
"-79.42","46.36","NORTH BAY A","6085680","2022-12-13 13:00","2022","12","13","13:00","-3.7","","-8.6","","69","","0.0","","35","","11","","16.1","","98.35","","","","-8","","NA"
"-79.42","46.36","NORTH BAY A","6085680","2022-12-13 14:00","2022","12","13","14:00","-3.1","","-7.5","","72","","0.0","","35","","11","","16.1","","98.32","","","","-7","","NA"
"-79.42","46.36","NORTH BAY A","6085680","2022-12-13 15:00","2022","12","13","15:00","-2.9","","-7.1","","73","","0.0","","2","","13","","16.1","","98.30","","","","-8","","NA"
"-79.42","46.36","NORTH BAY A","6085680","2022-12-13 16:00","2022","12","13","16:00","-3.8","","-7.1","","78","","0.0","","2","","13","","16.1","","98.30","","","","-9","","NA"
"-79.42","46.36","NORTH BAY A","6085680","2022-12-13 17:00","2022","12","13","17:00","-5.5","","-7.6","","85","","0.0","","36","","9","","16.1","","98.34","","","","-10","","NA"
"-79.42","46.36","NORTH BAY A","6085680","2022-12-13 18:00","2022","12","13","18:00","-7.5","","-8.6","","92","","0.0","","35","","8","","16.1","","98.31","","","","-12","","NA"
"-79.42","46.36","NORTH BAY A","6085680","2022-12-13 19:00","2022","12","13","19:00","-8.8","","-9.8","","93","","0.0","","35","","11","","16.1","","98.34","","","","-14","","NA"
"-79.42","46.36","NORTH BAY A","6085680","2022-12-13 20:00","2022","12","13","20:00","-8.8","","-10.0","","91","","0.0","","36","","13","","16.1","","98.33","","","","-15","","NA"
"-79.42","46.36","NORTH BAY A","6085680","2022-12-13 21:00","2022","12","13","21:00","-8.2","","-9.6","","90","","0.0","","36","","13","","16.1","","98.30","","","","-14","","NA"
"-79.42","46.36","NORTH BAY A","6085680","2022-12-13 22:00","2022","12","13","22:00","-8.6","","-9.7","","92","","0.0","","1","","17","","16.1","","98.27","","","","-15","","NA"
"-79.42","46.36","NORTH BAY A","6085680","2022-12-13 23:00","2022","12","13","23:00","-9.0","","-10.2","","91","","0.0","","3","","24","","16.1","","98.24","","","","-17","","NA"
"-79.42","46.36","NORTH BAY A","6085680","2022-12-14 00:00","2022","12","14","00:00","-9.7","","-11.5","","87","","0.0","","4","","15","","14.5","","98.23","","","","-16","","Snow"
"-79.42","46.36","NORTH BAY A","6085680","2022-12-14 01:00","2022","12","14","01:00","-10.0","","-11.3","","90","","0.0","","4","","11","","16.1","","98.20","","","","-16","","NA"
"-79.42","46.36","NORTH BAY A","6085680","2022-12-14 02:00","2022","12","14","02:00","-9.4","","-10.8","","90","","0.0","","4","","13","","16.1","","98.17","","","","-15","","NA"
"-79.42","46.36","NORTH BAY A","6085680","2022-12-14 03:00","2022","12","14","03:00","-9.7","","-11.0","","90","","0.0","","2","","9","","16.1","","98.22","","","","-15","","NA"
"-79.42","46.36","NORTH BAY A","6085680","2022-12-14 04:00","2022","12","14","04:00","-9.9","","-11.4","","89","","0.0","","2","","9","","16.1","","98.22","","","","-15","","NA"
"-79.42","46.36","NORTH BAY A","6085680","2022-12-14 05:00","2022","12","14","05:00","-10.4","","-11.9","","89","","0.0","","3","","9","","16.1","","98.27","","","","-15","","NA"
"-79.42","46.36","NORTH BAY A","6085680","2022-12-14 06:00","2022","12","14","06:00","-10.9","","-12.4","","89","","0.0","","2","","17","","16.1","","98.29","","","","-18","","NA"
"-79.42","46.36","NORTH BAY A","6085680","2022-12-14 07:00","2022","12","14","07:00","-11.1","","-12.8","","87","","0.0","","1","","15","","16.1","","98.38","","","","-18","","NA"
"-79.42","46.36","NORTH BAY A","6085680","2022-12-14 08:00","2022","12","14","08:00","-11.2","","-13.4","","84","","0.0","","1","","9","","16.1","","98.31","","","","-16","","NA"
"-79.42","46.36","NORTH BAY A","6085680","2022-12-14 09:00","2022","12","14","09:00","-9.9","","-13.2","","77","","0.0","","","M","5","","16.1","","98.32","","","","-13","","NA"
"-79.42","46.36","NORTH BAY A","6085680","2022-12-14 10:00","2022","12","14","10:00","-8.9","","-13.1","","72","","0.0","","3","","13","","16.1","","98.28","","","","-15","","NA"
"-79.42","46.36","NORTH BAY A","6085680","2022-12-14 11:00","2022","12","14","11:00","-6.9","","-11.3","","71","","0.0","","5","","15","","16.1","","98.21","","","","-13","","NA"
"-79.42","46.36","NORTH BAY A","6085680","2022-12-14 12:00","2022","12","14","12:00","-6.3","","-10.6","","72","","0.0","","8","","17","","16.1","","98.20","","","","-13","","NA"
"-79.42","46.36","NORTH BAY A","6085680","2022-12-14 13:00","2022","12","14","13:00","-5.6","","-9.9","","72","","0.0","","5","","11","","16.1","","98.14","","","","-10","","NA"
"-79.42","46.36","NORTH BAY A","6085680","2022-12-14 14:00","2022","12","14","14:00","-4.6","","-9.3","","70","","0.0","","9","","15","","16.1","","98.15","","","","-10","","NA"
"-79.42","46.36","NORTH BAY A","6085680","2022-12-14 15:00","2022","12","14","15:00","-3.9","","-9.2","","67","","0.0","","3","","9","","16.1","","98.08","","","","-8","","NA"
"-79.42","46.36","NORTH BAY A","6085680","2022-12-14 16:00","2022","12","14","16:00","-4.6","","-9.1","","71","","0.0","","5","","11","","16.1","","98.05","","","","-9","","NA"
"-79.42","46.36","NORTH BAY A","6085680","2022-12-14 17:00","2022","12","14","17:00","-5.9","","-9.5","","76","","0.0","","5","","11","","16.1","","98.05","","","","-11","","NA"
"-79.42","46.36","NORTH BAY A","6085680","2022-12-14 18:00","2022","12","14","18:00","-5.9","","-9.1","","78","","0.0","","5","","17","","16.1","","98.04","","","","-12","","NA"
"-79.42","46.36","NORTH BAY A","6085680","2022-12-14 19:00","2022","12","14","19:00","-5.8","","-9.0","","79","","0.0","","6","","11","","16.1","","98.06","","","","-11","","NA"
"-79.42","46.36","NORTH BAY A","6085680","2022-12-14 20:00","2022","12","14","20:00","-6.4","","-9.0","","82","","0.0","","7","","18","","16.1","","97.97","","","","-13","","NA"
"-79.42","46.36","NORTH BAY A","6085680","2022-12-14 21:00","2022","12","14","21:00","-6.4","","-8.8","","83","","0.0","","7","","18","","16.1","","97.97","","","","-13","","NA"
"-79.42","46.36","NORTH BAY A","6085680","2022-12-14 22:00","2022","12","14","22:00","-6.8","","-8.9","","85","","0.0","","8","","21","","16.1","","97.99","","","","-14","","NA"
"-79.42","46.36","NORTH BAY A","6085680","2022-12-14 23:00","2022","12","14","23:00","-6.6","","-8.7","","85","","0.0","","9","","24","","16.1","","97.99","","","","-14","","NA"
"-79.42","46.36","NORTH BAY A","6085680","2022-12-15 00:00","2022","12","15","00:00","-6.4","","-8.8","","83","","0.0","","8","","30","","16.1","","97.88","","","","-15","","NA"
"-79.42","46.36","NORTH BAY A","6085680","2022-12-15 01:00","2022","12","15","01:00","-6.6","","-8.7","","85","","0.0","","7","","26","","16.1","","97.78","","","","-15","","NA"
"-79.42","46.36","NORTH BAY A","6085680","2022-12-15 02:00","2022","12","15","02:00","-6.1","","-8.5","","83","","0.0","","9","","30","","16.1","","97.74","","","","-14","","NA"
"-79.42","46.36","NORTH BAY A","6085680","2022-12-15 03:00","2022","12","15","03:00","-5.4","","-8.0","","82","","0.0","","9","","32","","16.1","","97.67","","","","-14","","NA"
"-79.42","46.36","NORTH BAY A","6085680","2022-12-15 04:00","2022","12","15","04:00","-4.2","","-6.8","","82","","0.0","","10","","45","","16.1","","97.54","","","","-13","","NA"
"-79.42","46.36","NORTH BAY A","6085680","2022-12-15 05:00","2022","12","15","05:00","-3.9","","-6.3","","83","","0.0","","10","","39","","16.1","","97.49","","","","-13","","NA"
"-79.42","46.36","NORTH BAY A","6085680","2022-12-15 06:00","2022","12","15","06:00","-3.5","","-5.5","","86","","0.0","","10","","46","","12.9","","97.32","","","","-13","","NA"
"-79.42","46.36","NORTH BAY A","6085680","2022-12-15 07:00","2022","12","15","07:00","-2.9","","-4.8","","87","","0.0","","11","","43","","16.1","","97.31","","","","-12","","NA"
"-79.42","46.36","NORTH BAY A","6085680","2022-12-15 08:00","2022","12","15","08:00","-2.2","","-4.2","","86","","0.0","","10","","48","","16.1","","97.25","","","","-11","","NA"
"-79.42","46.36","NORTH BAY A","6085680","2022-12-15 09:00","2022","12","15","09:00","-1.9","","-3.9","","86","","0.0","","11","","45","","16.1","","97.30","","","","-10","","NA"
"-79.42","46.36","NORTH BAY A","6085680","2022-12-15 10:00","2022","12","15","10:00","-1.5","","-3.9","","84","","0.0","","11","","45","","16.1","","97.19","","","","-10","","NA"
"-79.42","46.36","NORTH BAY A","6085680","2022-12-15 11:00","2022","12","15","11:00","-1.1","","-3.5","","84","","0.0","","10","","45","","16.1","","97.04","","","","-9","","NA"
"-79.42","46.36","NORTH BAY A","6085680","2022-12-15 12:00","2022","12","15","12:00","-0.5","","-3.2","","82","","0.0","","11","","37","","16.1","","97.03","","","","-8","","NA"
"-79.42","46.36","NORTH BAY A","6085680","2022-12-15 13:00","2022","12","15","13:00","-0.2","","-3.1","","81","","0.0","","11","","35","","16.1","","96.96","","","","-7","","NA"
"-79.42","46.36","NORTH BAY A","6085680","2022-12-15 14:00","2022","12","15","14:00","-0.1","","-3.1","","80","","0.0","","10","","41","","16.1","","96.81","","","","-8","","NA"
"-79.42","46.36","NORTH BAY A","6085680","2022-12-15 15:00","2022","12","15","15:00","0.1","","-3.1","","79","","0.0","","10","","34","","16.1","","96.85","","","","","","NA"
"-79.42","46.36","NORTH BAY A","6085680","2022-12-15 16:00","2022","12","15","16:00","0.3","","-3.4","","76","","0.0","","10","","41","","16.1","","96.81","","","","","","NA"
"-79.42","46.36","NORTH BAY A","6085680","2022-12-15 17:00","2022","12","15","17:00","-0.9","","-2.0","","92","","0.0","","10","","30","","2.8","","96.81","","","","-8","","Snow"
"-79.42","46.36","NORTH BAY A","6085680","2022-12-15 18:00","2022","12","15","18:00","-1.0","","-2.0","","93","","0.0","","10","","39","","2.0","","96.74","","","","-9","","Snow"
"-79.42","46.36","NORTH BAY A","6085680","2022-12-15 19:00","2022","12","15","19:00","-0.8","","-1.7","","94","","0.2","","11","","35","","4.0","","96.74","","","","-8","","Snow"
"-79.42","46.36","NORTH BAY A","6085680","2022-12-15 20:00","2022","12","15","20:00","-0.7","","-1.4","","95","","0.2","","11","","28","","2.8","","96.72","","","","-7","","Snow"
"-79.42","46.36","NORTH BAY A","6085680","2022-12-15 21:00","2022","12","15","21:00","-0.6","","-1.3","","95","","0.0","","11","","30","","2.0","","96.69","","","","-7","","Snow"
"-79.42","46.36","NORTH BAY A","6085680","2022-12-15 22:00","2022","12","15","22:00","-0.5","","-1.2","","95","","0.5","","11","","32","","2.4","","96.65","","","","-7","","Snow"
"-79.42","46.36","NORTH BAY A","6085680","2022-12-15 23:00","2022","12","15","23:00","-0.5","","-1.2","","95","","0.5","","11","","32","","2.4","","96.62","","","","-7","","Snow"
"-79.42","46.36","NORTH BAY A","6085680","2022-12-16 00:00","2022","12","16","00:00","-0.5","","-1.2","","95","","0.2","","11","","30","","2.4","","96.59","","","","-7","","Snow"
"-79.42","46.36","NORTH BAY A","6085680","2022-12-16 01:00","2022","12","16","01:00","-0.4","","-1.1","","95","","0.2","","11","","28","","11.3","","96.55","","","","-7","","Snow"
"-79.42","46.36","NORTH BAY A","6085680","2022-12-16 02:00","2022","12","16","02:00","-0.5","","-1.2","","95","","0.2","","11","","28","","4.0","","96.53","","","","-7","","Snow"
"-79.42","46.36","NORTH BAY A","6085680","2022-12-16 03:00","2022","12","16","03:00","-0.5","","-1.2","","95","","0.2","","10","","28","","4.0","","96.52","","","","-7","","Snow"
"-79.42","46.36","NORTH BAY A","6085680","2022-12-16 04:00","2022","12","16","04:00","-0.5","","-1.4","","94","","0.2","","10","","32","","6.4","","96.47","","","","-7","","Snow"
"-79.42","46.36","NORTH BAY A","6085680","2022-12-16 05:00","2022","12","16","05:00","-0.5","","-1.5","","93","","0.0","","11","","30","","9.7","","96.43","","","","-7","","Snow"
"-79.42","46.36","NORTH BAY A","6085680","2022-12-16 06:00","2022","12","16","06:00","-0.4","","-1.3","","94","","0.0","","11","","24","","12.9","","96.40","","","","-6","","Snow"
"-79.42","46.36","NORTH BAY A","6085680","2022-12-16 07:00","2022","12","16","07:00","-0.5","","-1.2","","95","","0.0","","11","","28","","16.1","","96.39","","","","-7","","Snow"
"-79.42","46.36","NORTH BAY A","6085680","2022-12-16 08:00","2022","12","16","08:00","-0.4","","-1.3","","94","","0.0","","11","","28","","16.1","","96.37","","","","-7","","Snow"
"-79.42","46.36","NORTH BAY A","6085680","2022-12-16 09:00","2022","12","16","09:00","-0.4","","-1.1","","95","","0.0","","11","","22","","4.8","","96.36","","","","-6","","Snow"
"-79.42","46.36","NORTH BAY A","6085680","2022-12-16 10:00","2022","12","16","10:00","-0.2","","-1.1","","94","","0.2","","11","","24","","4.8","","96.35","","","","-6","","Snow"
"-79.42","46.36","NORTH BAY A","6085680","2022-12-16 11:00","2022","12","16","11:00","-0.1","","-1.0","","94","","0.0","","11","","22","","16.1","","96.29","","","","-6","","Snow"
"-79.42","46.36","NORTH BAY A","6085680","2022-12-16 12:00","2022","12","16","12:00","-0.1","","-0.8","","95","","0.0","","11","","22","","6.4","","96.22","","","","-6","","Snow"
"-79.42","46.36","NORTH BAY A","6085680","2022-12-16 13:00","2022","12","16","13:00","-0.1","","-0.8","","95","","0.0","","11","","21","","6.4","","96.17","","","","-6","","Snow"
"-79.42","46.36","NORTH BAY A","6085680","2022-12-16 14:00","2022","12","16","14:00","-0.2","","-0.8","","96","","0.0","","10","","18","","8.1","","96.14","","","","-5","","Snow"
"-79.42","46.36","NORTH BAY A","6085680","2022-12-16 15:00","2022","12","16","15:00","-0.4","","-1.0","","96","","0.0","","11","","21","","8.1","","96.12","","","","-6","","Snow"
"-79.42","46.36","NORTH BAY A","6085680","2022-12-16 16:00","2022","12","16","16:00","-0.6","","-1.3","","95","","0.2","","11","","17","","4.8","","96.14","","","","-6","","Snow"
"-79.42","46.36","NORTH BAY A","6085680","2022-12-16 17:00","2022","12","16","17:00","-0.8","","-1.4","","96","","0.0","","11","","17","","11.3","","96.14","","","","-6","","Snow"
"-79.42","46.36","NORTH BAY A","6085680","2022-12-16 18:00","2022","12","16","18:00","-1.0","","-1.7","","95","","0.0","","11","","17","","14.5","","96.12","","","","-6","","Snow"
"-79.42","46.36","NORTH BAY A","6085680","2022-12-16 19:00","2022","12","16","19:00","-1.3","","-2.0","","95","","0.2","","11","","18","","4.0","","96.11","","","","-7","","Snow"
"-79.42","46.36","NORTH BAY A","6085680","2022-12-16 20:00","2022","12","16","20:00","-1.5","","-2.1","","96","","0.2","","11","","18","","6.4","","96.05","","","","-7","","Snow"
"-79.42","46.36","NORTH BAY A","6085680","2022-12-16 21:00","2022","12","16","21:00","-1.7","","-2.3","","96","","0.0","","12","","18","","4.8","","96.01","","","","-7","","Snow"
"-79.42","46.36","NORTH BAY A","6085680","2022-12-16 22:00","2022","12","16","22:00","-1.8","","-2.4","","96","","0.2","","11","","15","","16.1","","95.96","","","","-7","","Snow"
"-79.42","46.36","NORTH BAY A","6085680","2022-12-16 23:00","2022","12","16","23:00","-1.8","","-2.4","","96","","0.0","","12","","13","","6.4","","95.93","","","","-6","","Snow"
"-79.42","46.36","NORTH BAY A","6085680","2022-12-17 00:00","2022","12","17","00:00","-1.8","","-2.2","","97","","0.0","","11","","15","","4.0","","95.91","","","","-7","","Snow"
"-79.42","46.36","NORTH BAY A","6085680","2022-12-17 01:00","2022","12","17","01:00","-1.8","","-2.2","","97","","0.2","","11","","13","","4.8","","95.87","","","","-6","","Snow"
"-79.42","46.36","NORTH BAY A","6085680","2022-12-17 02:00","2022","12","17","02:00","-1.9","","-2.2","","98","","0.5","","10","","9","","4.0","","95.85","","","","-5","","Snow"
"-79.42","46.36","NORTH BAY A","6085680","2022-12-17 03:00","2022","12","17","03:00","-1.9","","-2.2","","98","","0.0","","10","","11","","12.9","","95.86","","","","-6","","Snow"
"-79.42","46.36","NORTH BAY A","6085680","2022-12-17 04:00","2022","12","17","04:00","-1.8","","-2.1","","98","","0.0","","11","","11","","16.1","","95.82","","","","-6","","Snow"
"-79.42","46.36","NORTH BAY A","6085680","2022-12-17 05:00","2022","12","17","05:00","-1.8","","-1.9","","99","","0.0","","12","","9","","14.5","","95.80","","","","-5","","Snow"
"-79.42","46.36","NORTH BAY A","6085680","2022-12-17 06:00","2022","12","17","06:00","-1.7","","-1.8","","99","","0.0","","12","","9","","3.6","","95.82","","","","-5","","Snow"
"-79.42","46.36","NORTH BAY A","6085680","2022-12-17 07:00","2022","12","17","07:00","-1.7","","-1.8","","99","","0.0","","14","","8","","3.6","","95.84","","","","-5","","Snow"
"-79.42","46.36","NORTH BAY A","6085680","2022-12-17 08:00","2022","12","17","08:00","-1.4","","-1.5","","99","","0.0","","18","","9","","3.2","","95.84","","","","-5","","Snow"
"-79.42","46.36","NORTH BAY A","6085680","2022-12-17 09:00","2022","12","17","09:00","-1.2","","-1.3","","99","","0.0","","17","","11","","14.5","","95.86","","","","-5","","Snow"
"-79.42","46.36","NORTH BAY A","6085680","2022-12-17 10:00","2022","12","17","10:00","-1.2","","-1.6","","97","","0.0","","17","","15","","12.9","","95.89","","","","-6","","Snow"
"-79.42","46.36","NORTH BAY A","6085680","2022-12-17 11:00","2022","12","17","11:00","-1.1","","-1.5","","97","","0.0","","18","","11","","6.4","","95.87","","","","-5","","Snow"
"-79.42","46.36","NORTH BAY A","6085680","2022-12-17 12:00","2022","12","17","12:00","-1.0","","-1.4","","97","","0.8","","21","","15","","1.6","","95.82","","","","-6","","Snow"
"-79.42","46.36","NORTH BAY A","6085680","2022-12-17 13:00","2022","12","17","13:00","-0.8","","-1.5","","95","","0.0","","23","","11","","2.8","","95.77","","","","-5","","Snow"
"-79.42","46.36","NORTH BAY A","6085680","2022-12-17 14:00","2022","12","17","14:00","-0.8","","-1.9","","92","","0.0","","24","","11","","16.1","","95.77","","","","-5","","NA"
"-79.42","46.36","NORTH BAY A","6085680","2022-12-17 15:00","2022","12","17","15:00","-1.5","","-2.9","","90","","0.0","","24","","9","","16.1","","95.83","","","","-5","","NA"
"-79.42","46.36","NORTH BAY A","6085680","2022-12-17 16:00","2022","12","17","16:00","-1.8","","-2.9","","92","","0.0","","25","","8","","16.1","","95.88","","","","-5","","NA"
"-79.42","46.36","NORTH BAY A","6085680","2022-12-17 17:00","2022","12","17","17:00","-2.0","","-3.1","","92","","0.0","","25","","8","","8.1","","95.93","","","","-5","","Snow"
"-79.42","46.36","NORTH BAY A","6085680","2022-12-17 18:00","2022","12","17","18:00","-2.4","","-3.2","","94","","0.0","","21","","9","","2.4","","95.98","","","","-6","","Snow"
"-79.42","46.36","NORTH BAY A","6085680","2022-12-17 19:00","2022","12","17","19:00","-2.8","","-3.2","","97","","0.0","","22","","5","","3.2","","95.99","","","","-5","","Snow"
"-79.42","46.36","NORTH BAY A","6085680","2022-12-17 20:00","2022","12","17","20:00","-2.3","","-2.6","","98","","0.0","","21","","11","","2.8","","96.00","","","","-6","","Snow"
"-79.42","46.36","NORTH BAY A","6085680","2022-12-17 21:00","2022","12","17","21:00","-2.5","","-2.8","","98","","0.2","","20","","11","","6.4","","95.98","","","","-7","","Snow"
"-79.42","46.36","NORTH BAY A","6085680","2022-12-17 22:00","2022","12","17","22:00","-2.7","","-3.0","","98","","0.0","","18","","11","","6.4","","95.95","","","","-7","","Snow"
"-79.42","46.36","NORTH BAY A","6085680","2022-12-17 23:00","2022","12","17","23:00","-2.7","","-3.0","","98","","0.0","","19","","13","","6.4","","95.95","","","","-7","","Snow"
"-79.42","46.36","NORTH BAY A","6085680","2022-12-18 00:00","2022","12","18","00:00","-2.7","","-3.0","","98","","0.2","","21","","15","","4.8","","95.95","","","","-8","","Snow"
"-79.42","46.36","NORTH BAY A","6085680","2022-12-18 01:00","2022","12","18","01:00","-2.9","","-3.2","","98","","0.0","","19","","13","","9.7","","95.94","","","","-8","","Snow"
"-79.42","46.36","NORTH BAY A","6085680","2022-12-18 02:00","2022","12","18","02:00","-3.2","","-3.5","","98","","0.0","","20","","17","","16.1","","95.97","","","","-9","","NA"
"-79.42","46.36","NORTH BAY A","6085680","2022-12-18 03:00","2022","12","18","03:00","-4.2","","-4.6","","97","","0.0","","20","","13","","16.1","","96.00","","","","-9","","NA"
"-79.42","46.36","NORTH BAY A","6085680","2022-12-18 04:00","2022","12","18","04:00","-3.7","","-4.1","","97","","0.0","","22","","8","","16.1","","96.01","","","","-7","","NA"
"-79.42","46.36","NORTH BAY A","6085680","2022-12-18 05:00","2022","12","18","05:00","-3.5","","-3.8","","98","","0.0","","24","","9","","16.1","","96.02","","","","-7","","NA"
"-79.42","46.36","NORTH BAY A","6085680","2022-12-18 06:00","2022","12","18","06:00","-3.7","","-4.1","","97","","0.0","","29","","8","","16.1","","96.06","","","","-7","","NA"
"-79.42","46.36","NORTH BAY A","6085680","2022-12-18 07:00","2022","12","18","07:00","-3.8","","-4.2","","97","","0.0","","25","","8","","16.1","","96.09","","","","-7","","NA"
"-79.42","46.36","NORTH BAY A","6085680","2022-12-18 08:00","2022","12","18","08:00","-4.2","","-4.6","","97","","0.0","","22","","5","","11.3","","96.13","","","","-6","","NA"
"-79.42","46.36","NORTH BAY A","6085680","2022-12-18 09:00","2022","12","18","09:00","-4.2","","-4.6","","97","","0.0","","25","","8","","0.6","","96.17","","","","-8","","Freezing Fog"
"-79.42","46.36","NORTH BAY A","6085680","2022-12-18 10:00","2022","12","18","10:00","-4.1","","-4.5","","97","","0.0","","28","","8","","11.3","","96.22","","","","-8","","Snow"
"-79.42","46.36","NORTH BAY A","6085680","2022-12-18 11:00","2022","12","18","11:00","-3.8","","-4.2","","97","","0.0","","21","","5","","16.1","","96.25","","","","-6","","NA"
"-79.42","46.36","NORTH BAY A","6085680","2022-12-18 12:00","2022","12","18","12:00","-3.8","","-4.4","","96","","0.0","","24","","13","","16.1","","96.25","","","","-9","","Snow"
"-79.42","46.36","NORTH BAY A","6085680","2022-12-18 13:00","2022","12","18","13:00","-3.9","","-4.6","","95","","0.0","","23","","17","","16.1","","96.25","","","","-10","","Snow"
"-79.42","46.36","NORTH BAY A","6085680","2022-12-18 14:00","2022","12","18","14:00","-3.4","","-4.5","","92","","0.0","","23","","18","","16.1","","96.30","","","","-9","","Snow"
"-79.42","46.36","NORTH BAY A","6085680","2022-12-18 15:00","2022","12","18","15:00","-3.3","","-4.4","","92","","0.0","","24","","13","","4.8","","96.35","","","","-8","","Snow"
"-79.42","46.36","NORTH BAY A","6085680","2022-12-18 16:00","2022","12","18","16:00","-3.4","","-4.4","","93","","0.0","","25","","13","","4.0","","96.43","","","","-8","","Snow"
"-79.42","46.36","NORTH BAY A","6085680","2022-12-18 17:00","2022","12","18","17:00","-3.7","","-4.3","","96","","0.0","","26","","8","","4.8","","96.49","","","","-7","","Snow"
"-79.42","46.36","NORTH BAY A","6085680","2022-12-18 18:00","2022","12","18","18:00","-3.7","","-4.4","","95","","0.0","","25","","8","","9.7","","96.52","","","","-7","","Snow"
"-79.42","46.36","NORTH BAY A","6085680","2022-12-18 19:00","2022","12","18","19:00","-3.8","","-4.4","","96","","0.0","","27","","8","","16.1","","96.57","","","","-7","","NA"
"-79.42","46.36","NORTH BAY A","6085680","2022-12-18 20:00","2022","12","18","20:00","-3.5","","-4.1","","96","","0.0","","27","","4","","16.1","","96.61","","","","-5","","NA"
"-79.42","46.36","NORTH BAY A","6085680","2022-12-18 21:00","2022","12","18","21:00","-3.5","","-3.9","","97","","0.0","","23","","9","","2.8","","96.64","","","","-7","","Snow"
"-79.42","46.36","NORTH BAY A","6085680","2022-12-18 22:00","2022","12","18","22:00","-3.5","","-3.9","","97","","0.2","","26","","11","","4.8","","96.69","","","","-8","","Snow"
"-79.42","46.36","NORTH BAY A","6085680","2022-12-18 23:00","2022","12","18","23:00","-3.7","","-4.3","","96","","0.0","","26","","9","","4.0","","96.75","","","","-7","","Snow"
"-79.42","46.36","NORTH BAY A","6085680","2022-12-19 00:00","2022","12","19","00:00","-3.9","","-4.5","","96","","0.0","","25","","9","","8.1","","96.80","","","","-8","","Snow"
"-79.42","46.36","NORTH BAY A","6085680","2022-12-19 01:00","2022","12","19","01:00","-4.1","","-4.6","","96","","0.2","","26","","8","","2.4","","96.81","","","","-8","","Snow"
"-79.42","46.36","NORTH BAY A","6085680","2022-12-19 02:00","2022","12","19","02:00","-4.0","","-4.6","","96","","0.0","","26","","9","","4.8","","96.87","","","","-8","","Snow"
"-79.42","46.36","NORTH BAY A","6085680","2022-12-19 03:00","2022","12","19","03:00","-4.1","","-4.6","","96","","0.0","","26","","9","","4.0","","96.95","","","","-8","","Snow"
"-79.42","46.36","NORTH BAY A","6085680","2022-12-19 04:00","2022","12","19","04:00","-4.0","","-4.6","","96","","0.0","","30","","15","","4.8","","97.01","","","","-9","","Snow"
"-79.42","46.36","NORTH BAY A","6085680","2022-12-19 05:00","2022","12","19","05:00","-5.0","","-6.3","","91","","0.2","","31","","18","","8.1","","97.10","","","","-11","","Snow"
"-79.42","46.36","NORTH BAY A","6085680","2022-12-19 06:00","2022","12","19","06:00","-6.4","","-7.6","","91","","0.0","","30","","18","","4.0","","97.19","","","","-13","","Snow"
"-79.42","46.36","NORTH BAY A","6085680","2022-12-19 07:00","2022","12","19","07:00","-7.1","","-8.3","","91","","0.0","","32","","13","","4.0","","97.30","","","","-13","","Snow"
"-79.42","46.36","NORTH BAY A","6085680","2022-12-19 08:00","2022","12","19","08:00","-7.5","","-8.8","","90","","0.0","","31","","13","","6.4","","97.39","","","","-13","","Snow"
"-79.42","46.36","NORTH BAY A","6085680","2022-12-19 09:00","2022","12","19","09:00","-7.4","","-8.8","","90","","0.0","","31","","11","","16.1","","97.50","","","","-12","","Snow"
"-79.42","46.36","NORTH BAY A","6085680","2022-12-19 10:00","2022","12","19","10:00","-7.6","","-9.3","","88","","0.0","","31","","15","","16.1","","97.61","","","","-14","","Snow"
"-79.42","46.36","NORTH BAY A","6085680","2022-12-19 11:00","2022","12","19","11:00","-7.5","","-9.2","","88","","0.0","","32","","11","","16.1","","97.68","","","","-13","","Snow"
"-79.42","46.36","NORTH BAY A","6085680","2022-12-19 12:00","2022","12","19","12:00","-7.5","","-8.9","","90","","0.0","","31","","13","","16.1","","97.71","","","","-13","","Snow"
"-79.42","46.36","NORTH BAY A","6085680","2022-12-19 13:00","2022","12","19","13:00","-7.2","","-8.4","","91","","0.0","","29","","8","","14.5","","97.74","","","","-11","","Snow"
"-79.42","46.36","NORTH BAY A","6085680","2022-12-19 14:00","2022","12","19","14:00","-7.4","","-8.9","","89","","0.0","","31","","18","","14.5","","97.82","","","","-14","","NA"
"-79.42","46.36","NORTH BAY A","6085680","2022-12-19 15:00","2022","12","19","15:00","-7.5","","-9.0","","89","","0.0","","30","","13","","12.9","","97.93","","","","-13","","NA"
"-79.42","46.36","NORTH BAY A","6085680","2022-12-19 16:00","2022","12","19","16:00","-7.5","","-9.2","","88","","0.0","","28","","5","","16.1","","98.01","","","","-10","","Snow"
"-79.42","46.36","NORTH BAY A","6085680","2022-12-19 17:00","2022","12","19","17:00","-7.5","","-8.9","","90","","0.0","","28","","5","","11.3","","98.10","","","","-10","","Snow"
"-79.42","46.36","NORTH BAY A","6085680","2022-12-19 18:00","2022","12","19","18:00","-7.6","","-8.7","","92","","0.0","","26","","8","","14.5","","98.14","","","","-12","","Snow"
"-79.42","46.36","NORTH BAY A","6085680","2022-12-19 19:00","2022","12","19","19:00","-7.7","","-8.8","","92","","0.0","","27","","13","","9.7","","98.19","","","","-13","","Snow"
"-79.42","46.36","NORTH BAY A","6085680","2022-12-19 20:00","2022","12","19","20:00","-7.6","","-8.5","","93","","0.0","","30","","8","","12.9","","98.22","","","","-12","","NA"
"-79.42","46.36","NORTH BAY A","6085680","2022-12-19 21:00","2022","12","19","21:00","-7.5","","-9.0","","89","","0.0","","36","","5","","12.9","","98.25","","","","-10","","NA"
"-79.42","46.36","NORTH BAY A","6085680","2022-12-19 22:00","2022","12","19","22:00","-7.8","","-9.0","","91","","0.0","","28","","5","","14.5","","98.30","","","","-10","","NA"
"-79.42","46.36","NORTH BAY A","6085680","2022-12-19 23:00","2022","12","19","23:00","-8.1","","-9.2","","92","","0.0","","26","","11","","12.9","","98.38","","","","-13","","Snow"
"-79.42","46.36","NORTH BAY A","6085680","2022-12-20 00:00","2022","12","20","00:00","-8.3","","-9.2","","93","","0.0","","30","","8","","11.3","","98.39","","","","-12","","Snow"
"-79.42","46.36","NORTH BAY A","6085680","2022-12-20 01:00","2022","12","20","01:00","-8.6","","-9.4","","94","","0.0","","30","","8","","11.3","","98.37","","","","-13","","Snow"
"-79.42","46.36","NORTH BAY A","6085680","2022-12-20 02:00","2022","12","20","02:00","-9.0","","-9.7","","95","","0.0","","25","","5","","11.3","","98.41","","","","-12","","Snow"
"-79.42","46.36","NORTH BAY A","6085680","2022-12-20 03:00","2022","12","20","03:00","-9.3","","-10.0","","95","","0.0","","25","","5","","11.3","","98.45","","","","-12","","Snow"
"-79.42","46.36","NORTH BAY A","6085680","2022-12-20 04:00","2022","12","20","04:00","-9.3","","-10.0","","95","","0.0","","","M","4","","9.7","","98.41","","","","-12","","Snow"
"-79.42","46.36","NORTH BAY A","6085680","2022-12-20 05:00","2022","12","20","05:00","-9.2","","-10.1","","93","","0.0","","26","","8","","8.1","","98.44","","","","-14","","Snow"
"-79.42","46.36","NORTH BAY A","6085680","2022-12-20 06:00","2022","12","20","06:00","-9.2","","-10.1","","93","","0.0","","27","","5","","9.7","","98.45","","","","-12","","Fog"
"-79.42","46.36","NORTH BAY A","6085680","2022-12-20 07:00","2022","12","20","07:00","-9.1","","-10.0","","93","","0.0","","","","0","","4.8","","98.46","","","","","","Snow"
"-79.42","46.36","NORTH BAY A","6085680","2022-12-20 08:00","2022","12","20","08:00","-8.9","","-9.8","","93","","0.0","","13","","8","","1.6","","98.43","","","","-13","","Snow"
"-79.42","46.36","NORTH BAY A","6085680","2022-12-20 09:00","2022","12","20","09:00","-8.7","","-9.6","","93","","0.0","","14","","9","","11.3","","98.43","","","","-13","","Snow"
"-79.42","46.36","NORTH BAY A","6085680","2022-12-20 10:00","2022","12","20","10:00","-8.5","","-9.4","","93","","0.0","","14","","13","","16.1","","98.42","","","","-14","","NA"
"-79.42","46.36","NORTH BAY A","6085680","2022-12-20 11:00","2022","12","20","11:00","-7.9","","-8.8","","93","","0.0","","12","","13","","16.1","","98.38","","","","-14","","NA"
"-79.42","46.36","NORTH BAY A","6085680","2022-12-20 12:00","2022","12","20","12:00","-7.2","","-8.1","","93","","0.0","","12","","15","","16.1","","98.27","","","","-13","","NA"
"-79.42","46.36","NORTH BAY A","6085680","2022-12-20 13:00","2022","12","20","13:00","-6.4","","-7.2","","94","","0.0","","13","","15","","16.1","","98.18","","","","-12","","NA"
"-79.42","46.36","NORTH BAY A","6085680","2022-12-20 14:00","2022","12","20","14:00","-5.7","","-6.7","","93","","0.0","","13","","11","","6.4","","98.10","","","","-10","","Snow"
"-79.42","46.36","NORTH BAY A","6085680","2022-12-20 15:00","2022","12","20","15:00","-4.9","","-5.6","","95","","0.0","","15","","15","","12.9","","98.03","","","","-10","","Snow"
"-79.42","46.36","NORTH BAY A","6085680","2022-12-20 16:00","2022","12","20","16:00","-4.5","","-5.2","","95","","0.0","","15","","18","","16.1","","97.97","","","","-11","","NA"
"-79.42","46.36","NORTH BAY A","6085680","2022-12-20 17:00","2022","12","20","17:00","-4.3","","-5.1","","94","","0.0","","16","","18","","16.1","","97.94","","","","-10","","Snow"
"-79.42","46.36","NORTH BAY A","6085680","2022-12-20 18:00","2022","12","20","18:00","-4.2","","-5.2","","93","","0.0","","18","","21","","16.1","","97.92","","","","-11","","Snow"
"-79.42","46.36","NORTH BAY A","6085680","2022-12-20 19:00","2022","12","20","19:00","-3.9","","-4.8","","93","","0.0","","17","","30","","16.1","","97.84","","","","-12","","Snow"
"-79.42","46.36","NORTH BAY A","6085680","2022-12-20 20:00","2022","12","20","20:00","-3.3","","-4.1","","94","","0.0","","19","","24","","14.5","","97.83","","","","-10","","Snow"
"-79.42","46.36","NORTH BAY A","6085680","2022-12-20 21:00","2022","12","20","21:00","-3.0","","-3.8","","94","","0.0","","20","","24","","12.9","","97.78","","","","-10","","NA"
"-79.42","46.36","NORTH BAY A","6085680","2022-12-20 22:00","2022","12","20","22:00","-2.5","","-3.5","","93","","0.0","","23","","24","","11.3","","97.75","","","","-9","","Snow"
"-79.42","46.36","NORTH BAY A","6085680","2022-12-20 23:00","2022","12","20","23:00","-3.3","","-5.6","","84","","0.0","","24","","17","","16.1","","97.76","","","","-9","","Snow"
"-79.42","46.36","NORTH BAY A","6085680","2022-12-21 00:00","2022","12","21","00:00","-3.8","","-6.1","","84","","0.0","","25","","15","","16.1","","97.76","","","","-9","","NA"
"-79.42","46.36","NORTH BAY A","6085680","2022-12-21 01:00","2022","12","21","01:00","-4.2","","-6.1","","87","","0.0","","25","","13","","16.1","","97.74","","","","-9","","Snow"
"-79.42","46.36","NORTH BAY A","6085680","2022-12-21 02:00","2022","12","21","02:00","-4.7","","-6.0","","91","","0.0","","26","","15","","11.3","","97.74","","","","-10","","Snow"
"-79.42","46.36","NORTH BAY A","6085680","2022-12-21 03:00","2022","12","21","03:00","-6.5","","-8.5","","86","","0.0","","29","","21","","4.8","","97.80","","","","-14","","Snow"
"-79.42","46.36","NORTH BAY A","6085680","2022-12-21 04:00","2022","12","21","04:00","-7.3","","-9.1","","87","","0.0","","28","","21","","12.9","","97.80","","","","-15","","Snow"
"-79.42","46.36","NORTH BAY A","6085680","2022-12-21 05:00","2022","12","21","05:00","-7.9","","-10.0","","85","","0.0","","28","","18","","16.1","","97.82","","","","-15","","Snow"
"-79.42","46.36","NORTH BAY A","6085680","2022-12-21 06:00","2022","12","21","06:00","-8.6","","-10.8","","84","","0.2","","29","","17","","16.1","","97.89","","","","-15","","NA"
"-79.42","46.36","NORTH BAY A","6085680","2022-12-21 07:00","2022","12","21","07:00","-9.7","","-12.4","","81","","0.0","","27","","17","","16.1","","97.95","","","","-17","","NA"
"-79.42","46.36","NORTH BAY A","6085680","2022-12-21 08:00","2022","12","21","08:00","-10.7","","-12.8","","85","","0.0","","29","","15","","16.1","","98.05","","","","-18","","NA"
"-79.42","46.36","NORTH BAY A","6085680","2022-12-21 09:00","2022","12","21","09:00","-10.8","","-13.5","","81","","0.0","","27","","13","","16.1","","98.11","","","","-17","","NA"
"-79.42","46.36","NORTH BAY A","6085680","2022-12-21 10:00","2022","12","21","10:00","-10.1","","-13.6","","76","","0.0","","26","","21","","16.1","","98.16","","","","-18","","NA"
"-79.42","46.36","NORTH BAY A","6085680","2022-12-21 11:00","2022","12","21","11:00","-9.4","","-12.9","","76","","0.0","","28","","11","","16.1","","98.20","","","","-15","","NA"
"-79.42","46.36","NORTH BAY A","6085680","2022-12-21 12:00","2022","12","21","12:00","-9.0","","-12.7","","75","","0.0","","22","","15","","16.1","","98.19","","","","-16","","NA"
"-79.42","46.36","NORTH BAY A","6085680","2022-12-21 13:00","2022","12","21","13:00","-9.0","","-12.9","","74","","0.0","","26","","15","","16.1","","98.21","","","","-16","","NA"
"-79.42","46.36","NORTH BAY A","6085680","2022-12-21 14:00","2022","12","21","14:00","-8.4","","-13.6","","67","","0.0","","25","","18","","16.1","","98.22","","","","-15","","NA"
"-79.42","46.36","NORTH BAY A","6085680","2022-12-21 15:00","2022","12","21","15:00","-8.5","","-13.7","","66","","0.0","","26","","18","","16.1","","98.25","","","","-16","","NA"
"-79.42","46.36","NORTH BAY A","6085680","2022-12-21 16:00","2022","12","21","16:00","-8.9","","-13.3","","71","","0.0","","26","","9","","16.1","","98.30","","","","-14","","NA"
"-79.42","46.36","NORTH BAY A","6085680","2022-12-21 17:00","2022","12","21","17:00","-11.4","","-13.7","","83","","0.0","","23","","4","","16.1","","98.31","","","","-14","","NA"
"-79.42","46.36","NORTH BAY A","6085680","2022-12-21 18:00","2022","12","21","18:00","-12.0","","-13.5","","89","","0.0","","","","0","","16.1","","98.33","","","","","","NA"
"-79.42","46.36","NORTH BAY A","6085680","2022-12-21 19:00","2022","12","21","19:00","-13.6","","-14.5","","93","","0.0","","","","0","","16.1","","98.38","","","","","","NA"
"-79.42","46.36","NORTH BAY A","6085680","2022-12-21 20:00","2022","12","21","20:00","-14.7","","-16.3","","88","","0.0","","","","0","","16.1","","98.38","","","","","","NA"
"-79.42","46.36","NORTH BAY A","6085680","2022-12-21 21:00","2022","12","21","21:00","-17.1","","-19.1","","85","","0.0","","6","","4","","16.1","","98.38","","","","-20","","NA"
"-79.42","46.36","NORTH BAY A","6085680","2022-12-21 22:00","2022","12","21","22:00","-15.8","","-17.6","","86","","0.0","","8","","11","","16.1","","98.36","","","","-23","","NA"
"-79.42","46.36","NORTH BAY A","6085680","2022-12-21 23:00","2022","12","21","23:00","-11.2","","-13.0","","87","","0.0","","7","","17","","16.1","","98.33","","","","-19","","NA"
"-79.42","46.36","NORTH BAY A","6085680","2022-12-22 00:00","2022","12","22","00:00","-11.3","","-13.2","","86","","0.0","","11","","11","","16.1","","98.30","","","","-17","","NA"
"-79.42","46.36","NORTH BAY A","6085680","2022-12-22 01:00","2022","12","22","01:00","-10.6","","-12.9","","83","","0.0","","8","","13","","16.1","","98.24","","","","-17","","NA"
"-79.42","46.36","NORTH BAY A","6085680","2022-12-22 02:00","2022","12","22","02:00","-12.3","","-14.2","","86","","0.0","","9","","11","","16.1","","98.21","","","","-18","","NA"
"-79.42","46.36","NORTH BAY A","6085680","2022-12-22 03:00","2022","12","22","03:00","-11.7","","-13.6","","86","","0.0","","10","","13","","16.1","","98.26","","","","-18","","NA"
"-79.42","46.36","NORTH BAY A","6085680","2022-12-22 04:00","2022","12","22","04:00","-10.6","","-12.8","","84","","0.0","","9","","17","","16.1","","98.16","","","","-18","","NA"
"-79.42","46.36","NORTH BAY A","6085680","2022-12-22 05:00","2022","12","22","05:00","-10.9","","-13.0","","85","","0.0","","9","","18","","16.1","","98.10","","","","-19","","NA"
"-79.42","46.36","NORTH BAY A","6085680","2022-12-22 06:00","2022","12","22","06:00","-10.0","","-12.4","","83","","0.0","","10","","26","","16.1","","97.98","","","","-19","","NA"
"-79.42","46.36","NORTH BAY A","6085680","2022-12-22 07:00","2022","12","22","07:00","-9.6","","-11.8","","84","","0.0","","10","","26","","16.1","","97.87","","","","-18","","NA"
"-79.42","46.36","NORTH BAY A","6085680","2022-12-22 08:00","2022","12","22","08:00","-9.4","","-11.3","","86","","0.0","","9","","22","","16.1","","97.77","","","","-17","","NA"
"-79.42","46.36","NORTH BAY A","6085680","2022-12-22 09:00","2022","12","22","09:00","-9.0","","-10.8","","87","","0.0","","9","","32","","16.1","","97.68","","","","-18","","NA"
"-79.42","46.36","NORTH BAY A","6085680","2022-12-22 10:00","2022","12","22","10:00","-8.3","","-10.0","","88","","0.0","","9","","34","","16.1","","97.59","","","","-18","","NA"
"-79.42","46.36","NORTH BAY A","6085680","2022-12-22 11:00","2022","12","22","11:00","-6.9","","-8.9","","86","","0.0","","10","","32","","16.1","","97.52","","","","-16","","NA"
"-79.42","46.36","NORTH BAY A","6085680","2022-12-22 12:00","2022","12","22","12:00","-5.7","","-8.3","","82","","0.0","","10","","32","","16.1","","97.38","","","","-14","","NA"
"-79.42","46.36","NORTH BAY A","6085680","2022-12-22 13:00","2022","12","22","13:00","-5.6","","-7.9","","84","","0.0","","10","","26","","16.1","","97.31","","","","-13","","NA"
"-79.42","46.36","NORTH BAY A","6085680","2022-12-22 14:00","2022","12","22","14:00","-5.2","","-7.2","","86","","0.0","","9","","30","","16.1","","97.14","","","","-13","","NA"
"-79.42","46.36","NORTH BAY A","6085680","2022-12-22 15:00","2022","12","22","15:00","-5.3","","-7.1","","87","","0.0","","10","","30","","16.1","","97.10","","","","-13","","NA"
"-79.42","46.36","NORTH BAY A","6085680","2022-12-22 16:00","2022","12","22","16:00","-5.7","","-7.2","","89","","0.0","","9","","30","","16.1","","97.02","","","","-14","","NA"
"-79.42","46.36","NORTH BAY A","6085680","2022-12-22 17:00","2022","12","22","17:00","-6.0","","-7.4","","90","","0.0","","9","","32","","16.1","","96.91","","","","-15","","NA"
"-79.42","46.36","NORTH BAY A","6085680","2022-12-22 18:00","2022","12","22","18:00","-5.3","","-6.7","","90","","0.0","","10","","30","","16.1","","96.84","","","","-13","","NA"
"-79.42","46.36","NORTH BAY A","6085680","2022-12-22 19:00","2022","12","22","19:00","-5.2","","-6.5","","91","","0.0","","9","","32","","16.1","","96.77","","","","-13","","NA"
"-79.42","46.36","NORTH BAY A","6085680","2022-12-22 20:00","2022","12","22","20:00","-4.6","","-5.9","","91","","0.0","","10","","30","","16.1","","96.62","","","","-12","","NA"
"-79.42","46.36","NORTH BAY A","6085680","2022-12-22 21:00","2022","12","22","21:00","-4.2","","-5.3","","92","","0.0","","10","","32","","16.1","","96.42","","","","-12","","NA"
"-79.42","46.36","NORTH BAY A","6085680","2022-12-22 22:00","2022","12","22","22:00","-4.0","","-5.0","","93","","0.0","","10","","34","","16.1","","96.22","","","","-12","","NA"
"-79.42","46.36","NORTH BAY A","6085680","2022-12-22 23:00","2022","12","22","23:00","-3.6","","-4.7","","92","","0.0","","10","","32","","16.1","","96.06","","","","-11","","NA"
"-79.42","46.36","NORTH BAY A","6085680","2022-12-23 00:00","2022","12","23","00:00","-3.8","","-4.5","","95","","0.0","","8","","35","","12.9","","95.87","","","","-12","","NA"
"-79.42","46.36","NORTH BAY A","6085680","2022-12-23 01:00","2022","12","23","01:00","-3.4","","-4.1","","95","","0.0","","8","","34","","4.8","","95.59","","","","-11","","Snow"
"-79.42","46.36","NORTH BAY A","6085680","2022-12-23 02:00","2022","12","23","02:00","-2.9","","-3.9","","93","","0.0","","9","","41","","2.0","","95.36","","","","-11","","Snow"
"-79.42","46.36","NORTH BAY A","6085680","2022-12-23 03:00","2022","12","23","03:00","-2.2","","-3.5","","91","","0.2","","10","","41","","4.8","","95.16","","","","-10","","Snow"
"-79.42","46.36","NORTH BAY A","6085680","2022-12-23 04:00","2022","12","23","04:00","-1.8","","-2.9","","92","","0.0","","9","","39","","4.8","","94.88","","","","-10","","Snow"
"-79.42","46.36","NORTH BAY A","6085680","2022-12-23 05:00","2022","12","23","05:00","-1.4","","-2.8","","90","","0.0","","10","","41","","6.4","","94.65","","","","-9","","Snow"
"-79.42","46.36","NORTH BAY A","6085680","2022-12-23 06:00","2022","12","23","06:00","-1.5","","-2.3","","94","","0.2","","9","","39","","1.2","","94.38","","","","-9","","Snow"
"-79.42","46.36","NORTH BAY A","6085680","2022-12-23 07:00","2022","12","23","07:00","-1.1","","-1.9","","94","","0.2","","8","","35","","4.8","","94.16","","","","-8","","Snow"
"-79.42","46.36","NORTH BAY A","6085680","2022-12-23 08:00","2022","12","23","08:00","-1.1","","-2.1","","93","","0.0","","8","","24","","4.8","","93.92","","","","-7","","Snow"
"-79.42","46.36","NORTH BAY A","6085680","2022-12-23 09:00","2022","12","23","09:00","-1.3","","-2.1","","94","","0.0","","6","","17","","2.8","","93.73","","","","-6","","Snow"
"-79.42","46.36","NORTH BAY A","6085680","2022-12-23 10:00","2022","12","23","10:00","-1.1","","-1.8","","95","","0.5","","7","","15","","2.0","","93.59","","","","-6","","Snow"
"-79.42","46.36","NORTH BAY A","6085680","2022-12-23 11:00","2022","12","23","11:00","-1.0","","-1.7","","95","","0.2","","5","","13","","1.6","","93.42","","","","-5","","Snow"
"-79.42","46.36","NORTH BAY A","6085680","2022-12-23 12:00","2022","12","23","12:00","-0.7","","-1.4","","95","","0.5","","6","","11","","2.0","","93.24","","","","-4","","Snow"
"-79.42","46.36","NORTH BAY A","6085680","2022-12-23 13:00","2022","12","23","13:00","-0.4","","-1.3","","94","","0.2","","8","","9","","2.0","","93.13","","","","-4","","Snow"
"-79.42","46.36","NORTH BAY A","6085680","2022-12-23 14:00","2022","12","23","14:00","-0.3","","-1.0","","95","","0.0","","11","","9","","4.8","","93.04","","","","-3","","Snow"
"-79.42","46.36","NORTH BAY A","6085680","2022-12-23 15:00","2022","12","23","15:00","-0.5","","-1.2","","95","","0.0","","21","","5","","16.1","","92.98","","","","-2","","Snow"
"-79.42","46.36","NORTH BAY A","6085680","2022-12-23 16:00","2022","12","23","16:00","-0.8","","-1.4","","96","","0.0","","23","","11","","2.0","","92.94","","","","-5","","Snow"
"-79.42","46.36","NORTH BAY A","6085680","2022-12-23 17:00","2022","12","23","17:00","-1.2","","-1.5","","98","","0.0","","23","","15","","0.6","","92.97","","","","-6","","Moderate Snow"
"-79.42","46.36","NORTH BAY A","6085680","2022-12-23 18:00","2022","12","23","18:00","-1.4","","-1.5","","99","","0.2","","24","","13","","2.4","","92.98","","","","-6","","Snow"
"-79.42","46.36","NORTH BAY A","6085680","2022-12-23 19:00","2022","12","23","19:00","-2.0","","-2.1","","99","","0.2","","25","","24","","2.4","","92.93","","","","-8","","Snow"
"-79.42","46.36","NORTH BAY A","6085680","2022-12-23 20:00","2022","12","23","20:00","-2.3","","-2.6","","98","","0.0","","25","","26","","4.8","","92.92","","","","-9","","Snow"
"-79.42","46.36","NORTH BAY A","6085680","2022-12-23 21:00","2022","12","23","21:00","-2.9","","-3.2","","98","","0.0","","25","","22","","2.0","","92.92","","","","-9","","Snow"
"-79.42","46.36","NORTH BAY A","6085680","2022-12-23 22:00","2022","12","23","22:00","-3.6","","-4.2","","96","","0.0","","25","","28","","4.8","","92.91","","","","-11","","Snow"
"-79.42","46.36","NORTH BAY A","6085680","2022-12-23 23:00","2022","12","23","23:00","-4.8","","-5.9","","92","","0.2","","26","","34","","3.2","","92.98","","","","-13","","Snow"
"-79.42","46.36","NORTH BAY A","6085680","2022-12-24 00:00","2022","12","24","00:00","-6.8","","-8.3","","89","","0.0","","26","","28","","4.8","","93.07","","","","-15","","Snow"
"-79.42","46.36","NORTH BAY A","6085680","2022-12-24 01:00","2022","12","24","01:00","-7.7","","-9.1","","90","","0.0","","25","","30","","2.8","","93.12","","","","-17","","Snow"
"-79.42","46.36","NORTH BAY A","6085680","2022-12-24 02:00","2022","12","24","02:00","-8.2","","-9.6","","90","","0.0","","24","","32","","2.4","","93.18","","","","-17","","Snow"
"-79.42","46.36","NORTH BAY A","6085680","2022-12-24 03:00","2022","12","24","03:00","-8.5","","-9.9","","90","","0.0","","24","","34","","3.2","","93.25","","","","-18","","Snow"
"-79.42","46.36","NORTH BAY A","6085680","2022-12-24 04:00","2022","12","24","04:00","-9.0","","-10.5","","89","","0.0","","24","","34","","2.0","","93.28","","","","-19","","Snow"
"-79.42","46.36","NORTH BAY A","6085680","2022-12-24 05:00","2022","12","24","05:00","-9.5","","-11.1","","88","","0.0","","24","","32","","4.8","","93.33","","","","-19","","Snow"
"-79.42","46.36","NORTH BAY A","6085680","2022-12-24 06:00","2022","12","24","06:00","-9.8","","-11.6","","87","","0.0","","25","","35","","2.8","","93.39","","","","-20","","Snow"
"-79.42","46.36","NORTH BAY A","6085680","2022-12-24 07:00","2022","12","24","07:00","-10.1","","-11.6","","89","","0.0","","24","","30","","1.6","","93.48","","","","-20","","Snow"
"-79.42","46.36","NORTH BAY A","6085680","2022-12-24 08:00","2022","12","24","08:00","-10.3","","-11.8","","89","","0.0","","24","","28","","1.6","","93.56","","","","-20","","Snow"
"-79.42","46.36","NORTH BAY A","6085680","2022-12-24 09:00","2022","12","24","09:00","-10.3","","-12.1","","87","","0.0","","24","","32","","2.4","","93.64","","","","-20","","Snow"
"-79.42","46.36","NORTH BAY A","6085680","2022-12-24 10:00","2022","12","24","10:00","-10.3","","-11.9","","88","","0.0","","25","","26","","1.2","","93.73","","","","-19","","Snow"
"-79.42","46.36","NORTH BAY A","6085680","2022-12-24 11:00","2022","12","24","11:00","-10.0","","-12.3","","84","","0.0","","24","","28","","3.2","","93.76","","","","-19","","Snow"
"-79.42","46.36","NORTH BAY A","6085680","2022-12-24 12:00","2022","12","24","12:00","-10.1","","-12.5","","83","","0.0","","24","","24","","3.2","","93.80","","","","-19","","Snow"
"-79.42","46.36","NORTH BAY A","6085680","2022-12-24 13:00","2022","12","24","13:00","-10.1","","-12.3","","84","","0.0","","25","","37","","1.2","","93.85","","","","-21","","Snow"
"-79.42","46.36","NORTH BAY A","6085680","2022-12-24 14:00","2022","12","24","14:00","-10.9","","-13.1","","84","","0.0","","26","","32","","1.6","","93.92","","","","-21","","Snow"
"-79.42","46.36","NORTH BAY A","6085680","2022-12-24 15:00","2022","12","24","15:00","-11.0","","-12.9","","86","","0.0","","25","","24","","1.6","","94.00","","","","-20","","Snow"
"-79.42","46.36","NORTH BAY A","6085680","2022-12-24 16:00","2022","12","24","16:00","-11.5","","-14.0","","82","","0.0","","26","","28","","2.8","","94.06","","","","-21","","Snow"
"-79.42","46.36","NORTH BAY A","6085680","2022-12-24 17:00","2022","12","24","17:00","-12.1","","-14.0","","86","","0.0","","26","","18","","2.4","","94.22","","","","-20","","Snow"
"-79.42","46.36","NORTH BAY A","6085680","2022-12-24 18:00","2022","12","24","18:00","-12.3","","-14.5","","84","","0.0","","26","","21","","9.7","","94.30","","","","-21","","Snow"
"-79.42","46.36","NORTH BAY A","6085680","2022-12-24 19:00","2022","12","24","19:00","-12.4","","-15.0","","81","","0.0","","25","","22","","12.9","","94.38","","","","-21","","Snow"
"-79.42","46.36","NORTH BAY A","6085680","2022-12-24 20:00","2022","12","24","20:00","-12.4","","-15.2","","80","","0.0","","25","","24","","9.7","","94.42","","","","-22","","Snow"
"-79.42","46.36","NORTH BAY A","6085680","2022-12-24 21:00","2022","12","24","21:00","-12.7","","-14.6","","86","","0.0","","26","","21","","2.0","","94.45","","","","-21","","Snow"
"-79.42","46.36","NORTH BAY A","6085680","2022-12-24 22:00","2022","12","24","22:00","-12.6","","-14.5","","86","","0.0","","26","","24","","1.6","","94.50","","","","-22","","Snow"
"-79.42","46.36","NORTH BAY A","6085680","2022-12-24 23:00","2022","12","24","23:00","-12.7","","-14.4","","87","","0.0","","25","","21","","1.6","","94.53","","","","-21","","Snow"
"-79.42","46.36","NORTH BAY A","6085680","2022-12-25 00:00","2022","12","25","00:00","-12.8","","-14.7","","86","","0.0","","25","","17","","1.6","","94.58","","","","-21","","Snow"
"-79.42","46.36","NORTH BAY A","6085680","2022-12-25 01:00","2022","12","25","01:00","-12.9","","-14.7","","87","","0.0","","24","","24","","1.6","","94.61","","","","-22","","Snow"
"-79.42","46.36","NORTH BAY A","6085680","2022-12-25 02:00","2022","12","25","02:00","-12.9","","-14.6","","87","","0.0","","25","","22","","1.6","","94.69","","","","-22","","Snow"
"-79.42","46.36","NORTH BAY A","6085680","2022-12-25 03:00","2022","12","25","03:00","-13.2","","-15.2","","85","","0.0","","26","","26","","3.2","","94.78","","","","-23","","Snow"
"-79.42","46.36","NORTH BAY A","6085680","2022-12-25 04:00","2022","12","25","04:00","-13.6","","-15.6","","85","","0.0","","25","","21","","4.8","","94.78","","","","-23","","Snow"
"-79.42","46.36","NORTH BAY A","6085680","2022-12-25 05:00","2022","12","25","05:00","-13.6","","-15.6","","85","","0.0","","26","","17","","2.0","","94.89","","","","-22","","Snow"
"-79.42","46.36","NORTH BAY A","6085680","2022-12-25 06:00","2022","12","25","06:00","-13.5","","-15.5","","85","","0.0","","26","","18","","2.4","","94.97","","","","-22","","Snow"
"-79.42","46.36","NORTH BAY A","6085680","2022-12-25 07:00","2022","12","25","07:00","-13.5","","-15.4","","86","","0.0","","25","","26","","1.6","","95.02","","","","-23","","Snow"
"-79.42","46.36","NORTH BAY A","6085680","2022-12-25 08:00","2022","12","25","08:00","-13.9","","-15.9","","85","","0.0","","25","","18","","12.9","","95.10","","","","-22","","Snow"
"-79.42","46.36","NORTH BAY A","6085680","2022-12-25 09:00","2022","12","25","09:00","-14.3","","-16.7","","82","","0.0","","25","","24","","14.5","","95.22","","","","-24","","Snow"
"-79.42","46.36","NORTH BAY A","6085680","2022-12-25 10:00","2022","12","25","10:00","-13.9","","-17.0","","78","","0.0","","25","","22","","16.1","","95.31","","","","-23","","NA"
"-79.42","46.36","NORTH BAY A","6085680","2022-12-25 11:00","2022","12","25","11:00","-13.4","","-16.7","","77","","0.0","","25","","26","","16.1","","95.35","","","","-23","","NA"
"-79.42","46.36","NORTH BAY A","6085680","2022-12-25 12:00","2022","12","25","12:00","-12.7","","-16.2","","75","","0.0","","27","","21","","16.1","","95.39","","","","-21","","NA"
"-79.42","46.36","NORTH BAY A","6085680","2022-12-25 13:00","2022","12","25","13:00","-12.3","","-15.9","","75","","0.0","","27","","18","","6.4","","95.43","","","","-20","","Haze"
"-79.42","46.36","NORTH BAY A","6085680","2022-12-25 14:00","2022","12","25","14:00","-12.5","","-15.6","","78","","0.0","","24","","26","","6.4","","95.50","","","","-22","","Snow"
"-79.42","46.36","NORTH BAY A","6085680","2022-12-25 15:00","2022","12","25","15:00","-12.4","","-15.3","","79","","0.0","","25","","26","","4.8","","95.62","","","","-22","","Snow"
"-79.42","46.36","NORTH BAY A","6085680","2022-12-25 16:00","2022","12","25","16:00","-12.5","","-15.6","","78","","0.0","","27","","15","","16.1","","95.73","","","","-20","","Snow"
"-79.42","46.36","NORTH BAY A","6085680","2022-12-25 17:00","2022","12","25","17:00","-12.9","","-15.4","","82","","0.0","","27","","17","","12.9","","95.83","","","","-21","","Snow"
"-79.42","46.36","NORTH BAY A","6085680","2022-12-25 18:00","2022","12","25","18:00","-13.8","","-15.5","","87","","0.0","","28","","13","","6.4","","95.93","","","","-21","","Snow"
"-79.42","46.36","NORTH BAY A","6085680","2022-12-25 19:00","2022","12","25","19:00","-13.5","","-15.7","","84","","0.0","","28","","9","","16.1","","96.00","","","","-19","","NA"
"-79.42","46.36","NORTH BAY A","6085680","2022-12-25 20:00","2022","12","25","20:00","-13.8","","-15.8","","85","","0.0","","26","","5","","16.1","","96.05","","","","-17","","NA"
"-79.42","46.36","NORTH BAY A","6085680","2022-12-25 21:00","2022","12","25","21:00","-13.9","","-15.6","","87","","0.0","","26","","5","","16.1","","96.09","","","","-17","","NA"
"-79.42","46.36","NORTH BAY A","6085680","2022-12-25 22:00","2022","12","25","22:00","-13.5","","-15.4","","86","","0.0","","28","","8","","14.5","","96.16","","","","-19","","Snow"
"-79.42","46.36","NORTH BAY A","6085680","2022-12-25 23:00","2022","12","25","23:00","-13.2","","-15.5","","83","","0.0","","27","","11","","16.1","","96.21","","","","-19","","Snow"
"-79.42","46.36","NORTH BAY A","6085680","2022-12-26 00:00","2022","12","26","00:00","-13.2","","-15.5","","83","","0.0","","30","","17","","16.1","","96.27","","","","-21","","Snow"
"-79.42","46.36","NORTH BAY A","6085680","2022-12-26 01:00","2022","12","26","01:00","-13.2","","-15.5","","83","","0.0","","29","","11","","9.7","","96.32","","","","-19","","Snow"
"-79.42","46.36","NORTH BAY A","6085680","2022-12-26 02:00","2022","12","26","02:00","-13.3","","-15.3","","85","","0.0","","25","","9","","16.1","","96.40","","","","-19","","Snow"
"-79.42","46.36","NORTH BAY A","6085680","2022-12-26 03:00","2022","12","26","03:00","-13.4","","-15.6","","84","","0.0","","26","","13","","9.7","","96.50","","","","-20","","Snow"
"-79.42","46.36","NORTH BAY A","6085680","2022-12-26 04:00","2022","12","26","04:00","-13.7","","-15.7","","85","","0.0","","26","","13","","16.1","","96.53","","","","-21","","Snow"
"-79.42","46.36","NORTH BAY A","6085680","2022-12-26 05:00","2022","12","26","05:00","-13.8","","-15.8","","85","","0.0","","27","","11","","12.9","","96.60","","","","-20","","Snow"
"-79.42","46.36","NORTH BAY A","6085680","2022-12-26 06:00","2022","12","26","06:00","-15.0","","-16.4","","89","","0.0","","28","","5","","16.1","","96.68","","","","-19","","NA"
"-79.42","46.36","NORTH BAY A","6085680","2022-12-26 07:00","2022","12","26","07:00","-14.4","","-16.1","","87","","0.0","","","M","4","","16.1","","96.74","","","","-17","","Snow"
"-79.42","46.36","NORTH BAY A","6085680","2022-12-26 08:00","2022","12","26","08:00","-14.2","","-15.8","","88","","0.0","","23","","8","","4.0","","96.80","","","","-19","","Snow"
"-79.42","46.36","NORTH BAY A","6085680","2022-12-26 09:00","2022","12","26","09:00","-13.6","","-15.2","","88","","0.0","","25","","8","","6.4","","96.84","","","","-19","","Snow"
"-79.42","46.36","NORTH BAY A","6085680","2022-12-26 10:00","2022","12","26","10:00","-13.1","","-15.0","","86","","0.0","","25","","11","","6.4","","96.88","","","","-19","","Snow"
"-79.42","46.36","NORTH BAY A","6085680","2022-12-26 11:00","2022","12","26","11:00","-12.6","","-14.9","","83","","0.0","","23","","9","","4.8","","96.90","","","","-18","","Snow"
"-79.42","46.36","NORTH BAY A","6085680","2022-12-26 12:00","2022","12","26","12:00","-12.6","","-15.1","","82","","0.0","","22","","15","","6.4","","96.87","","","","-20","","Snow"
"-79.42","46.36","NORTH BAY A","6085680","2022-12-26 13:00","2022","12","26","13:00","-12.1","","-14.4","","83","","0.0","","21","","13","","4.0","","96.84","","","","-19","","Snow"
"-79.42","46.36","NORTH BAY A","6085680","2022-12-26 14:00","2022","12","26","14:00","-11.5","","-13.8","","83","","0.0","","24","","11","","2.8","","96.84","","","","-17","","Snow"
"-79.42","46.36","NORTH BAY A","6085680","2022-12-26 15:00","2022","12","26","15:00","-11.4","","-14.2","","80","","0.0","","27","","15","","16.1","","96.87","","","","-18","","Snow"
"-79.42","46.36","NORTH BAY A","6085680","2022-12-26 16:00","2022","12","26","16:00","-12.1","","-13.8","","87","","0.0","","27","","8","","6.4","","96.93","","","","-17","","Snow"
"-79.42","46.36","NORTH BAY A","6085680","2022-12-26 17:00","2022","12","26","17:00","-13.8","","-15.1","","90","","0.0","","25","","8","","16.1","","96.98","","","","-19","","NA"
"-79.42","46.36","NORTH BAY A","6085680","2022-12-26 18:00","2022","12","26","18:00","-14.5","","-15.8","","90","","0.0","","30","","5","","16.1","","97.04","","","","-18","","NA"
"-79.42","46.36","NORTH BAY A","6085680","2022-12-26 19:00","2022","12","26","19:00","-13.8","","-15.2","","89","","0.0","","32","","5","","16.1","","97.07","","","","-17","","Snow"
"-79.42","46.36","NORTH BAY A","6085680","2022-12-26 20:00","2022","12","26","20:00","-15.1","","-16.8","","87","","0.0","","31","","8","","16.1","","97.09","","","","-20","","NA"
"-79.42","46.36","NORTH BAY A","6085680","2022-12-26 21:00","2022","12","26","21:00","-14.1","","-15.8","","87","","0.0","","31","","8","","16.1","","97.14","","","","-19","","NA"
"-79.42","46.36","NORTH BAY A","6085680","2022-12-26 22:00","2022","12","26","22:00","-14.7","","-16.4","","87","","0.0","","30","","5","","16.1","","97.12","","","","-18","","NA"
"-79.42","46.36","NORTH BAY A","6085680","2022-12-26 23:00","2022","12","26","23:00","-15.9","","-17.5","","88","","0.0","","31","","8","","16.1","","97.13","","","","-21","","NA"
"-79.42","46.36","NORTH BAY A","6085680","2022-12-27 00:00","2022","12","27","00:00","-15.9","","-17.6","","87","","0.0","","25","","4","","16.1","","97.15","","","","-19","","NA"
"-79.42","46.36","NORTH BAY A","6085680","2022-12-27 01:00","2022","12","27","01:00","-15.2","","-17.0","","86","","0.0","","26","","5","","16.1","","97.13","","","","-19","","NA"
"-79.42","46.36","NORTH BAY A","6085680","2022-12-27 02:00","2022","12","27","02:00","-13.8","","-15.4","","88","","0.0","","22","","8","","3.6","","97.15","","","","-19","","Snow"
"-79.42","46.36","NORTH BAY A","6085680","2022-12-27 03:00","2022","12","27","03:00","-13.3","","-14.9","","88","","0.0","","24","","9","","4.0","","97.21","","","","-19","","Snow"
"-79.42","46.36","NORTH BAY A","6085680","2022-12-27 04:00","2022","12","27","04:00","-12.9","","-14.4","","89","","0.0","","23","","8","","2.0","","97.18","","","","-18","","Snow"
"-79.42","46.36","NORTH BAY A","6085680","2022-12-27 05:00","2022","12","27","05:00","-12.5","","-13.8","","90","","0.2","","22","","11","","2.0","","97.15","","","","-19","","Snow"
"-79.42","46.36","NORTH BAY A","6085680","2022-12-27 06:00","2022","12","27","06:00","-12.3","","-13.6","","90","","0.0","","20","","9","","2.0","","97.17","","","","-18","","Snow"
"-79.42","46.36","NORTH BAY A","6085680","2022-12-27 07:00","2022","12","27","07:00","-12.4","","-13.7","","90","","0.0","","19","","11","","2.8","","97.18","","","","-18","","Snow"
"-79.42","46.36","NORTH BAY A","6085680","2022-12-27 08:00","2022","12","27","08:00","-12.0","","-13.2","","91","","0.0","","19","","11","","14.5","","97.18","","","","-18","","Snow"
"-79.42","46.36","NORTH BAY A","6085680","2022-12-27 09:00","2022","12","27","09:00","-11.5","","-12.7","","91","","0.0","","20","","8","","9.7","","97.23","","","","-16","","Snow"
"-79.42","46.36","NORTH BAY A","6085680","2022-12-27 10:00","2022","12","27","10:00","-10.9","","-12.1","","91","","0.0","","20","","9","","8.1","","97.26","","","","-16","","Snow"
"-79.42","46.36","NORTH BAY A","6085680","2022-12-27 11:00","2022","12","27","11:00","-10.0","","-11.2","","91","","0.0","","20","","13","","16.1","","97.28","","","","-16","","Snow"
"-79.42","46.36","NORTH BAY A","6085680","2022-12-27 12:00","2022","12","27","12:00","-8.9","","-10.1","","91","","0.0","","20","","13","","11.3","","97.22","","","","-15","","Snow"
"-79.42","46.36","NORTH BAY A","6085680","2022-12-27 13:00","2022","12","27","13:00","-8.4","","-9.8","","90","","0.0","","19","","11","","14.5","","97.15","","","","-14","","Snow"
"-79.42","46.36","NORTH BAY A","6085680","2022-12-27 14:00","2022","12","27","14:00","-7.7","","-9.1","","90","","0.0","","19","","9","","12.9","","97.13","","","","-12","","Snow"
"-79.42","46.36","NORTH BAY A","6085680","2022-12-27 15:00","2022","12","27","15:00","-7.2","","-9.0","","87","","0.0","","20","","9","","16.1","","97.12","","","","-12","","NA"
"-79.42","46.36","NORTH BAY A","6085680","2022-12-27 16:00","2022","12","27","16:00","-7.1","","-8.8","","88","","0.0","","18","","8","","16.1","","97.15","","","","-11","","Snow"
"-79.42","46.36","NORTH BAY A","6085680","2022-12-27 17:00","2022","12","27","17:00","-6.9","","-8.0","","92","","0.0","","16","","11","","6.4","","97.11","","","","-12","","Snow"
"-79.42","46.36","NORTH BAY A","6085680","2022-12-27 18:00","2022","12","27","18:00","-6.9","","-7.7","","94","","0.2","","16","","11","","4.0","","97.13","","","","-12","","Snow"
"-79.42","46.36","NORTH BAY A","6085680","2022-12-27 19:00","2022","12","27","19:00","-7.0","","-7.7","","95","","0.0","","14","","13","","11.3","","97.07","","","","-13","","Snow"
"-79.42","46.36","NORTH BAY A","6085680","2022-12-27 20:00","2022","12","27","20:00","-6.3","","-7.1","","94","","0.5","","16","","15","","2.8","","97.04","","","","-12","","Snow"
"-79.42","46.36","NORTH BAY A","6085680","2022-12-27 21:00","2022","12","27","21:00","-5.8","","-6.5","","95","","0.2","","17","","15","","9.7","","96.96","","","","-12","","Snow"
"-79.42","46.36","NORTH BAY A","6085680","2022-12-27 22:00","2022","12","27","22:00","-5.8","","-6.5","","95","","0.0","","17","","18","","16.1","","96.91","","","","-12","","Snow"
"-79.42","46.36","NORTH BAY A","6085680","2022-12-27 23:00","2022","12","27","23:00","-6.0","","-6.8","","94","","0.0","","18","","22","","11.3","","96.92","","","","-13","","Snow"
"-79.42","46.36","NORTH BAY A","6085680","2022-12-28 00:00","2022","12","28","00:00","-6.1","","-7.2","","92","","0.0","","17","","22","","6.4","","96.84","","","","-13","","Snow"
"-79.42","46.36","NORTH BAY A","6085680","2022-12-28 01:00","2022","12","28","01:00","-6.2","","-7.0","","94","","0.0","","17","","22","","2.4","","96.80","","","","-13","","Snow"
"-79.42","46.36","NORTH BAY A","6085680","2022-12-28 02:00","2022","12","28","02:00","-6.1","","-6.9","","94","","0.8","","17","","24","","2.0","","96.82","","","","-14","","Snow"
"-79.42","46.36","NORTH BAY A","6085680","2022-12-28 03:00","2022","12","28","03:00","-6.1","","-6.9","","94","","1.0","","17","","22","","1.6","","96.83","","","","-13","","Snow"
"-79.42","46.36","NORTH BAY A","6085680","2022-12-28 04:00","2022","12","28","04:00","-5.9","","-6.6","","95","","0.8","","17","","22","","2.0","","96.79","","","","-13","","Snow"
"-79.42","46.36","NORTH BAY A","6085680","2022-12-28 05:00","2022","12","28","05:00","-5.8","","-6.6","","94","","0.5","","17","","13","","1.6","","96.81","","","","-11","","Snow"
"-79.42","46.36","NORTH BAY A","6085680","2022-12-28 06:00","2022","12","28","06:00","-5.9","","-6.6","","95","","0.5","","13","","13","","4.0","","96.76","","","","-11","","Snow"
"-79.42","46.36","NORTH BAY A","6085680","2022-12-28 07:00","2022","12","28","07:00","-5.5","","-6.1","","96","","0.0","","17","","17","","4.8","","96.73","","","","-12","","Snow"
"-79.42","46.36","NORTH BAY A","6085680","2022-12-28 08:00","2022","12","28","08:00","-5.1","","-5.8","","95","","0.0","","17","","15","","6.4","","96.73","","","","-11","","Snow"
"-79.42","46.36","NORTH BAY A","6085680","2022-12-28 09:00","2022","12","28","09:00","-4.6","","-5.4","","94","","0.0","","17","","11","","8.1","","96.78","","","","-9","","Snow"
"-79.42","46.36","NORTH BAY A","6085680","2022-12-28 10:00","2022","12","28","10:00","-3.6","","-4.4","","94","","0.0","","19","","15","","6.4","","96.87","","","","-9","","Snow"
"-79.42","46.36","NORTH BAY A","6085680","2022-12-28 11:00","2022","12","28","11:00","-3.1","","-3.7","","96","","0.0","","19","","15","","3.2","","96.88","","","","-8","","Snow"
"-79.42","46.36","NORTH BAY A","6085680","2022-12-28 12:00","2022","12","28","12:00","-2.7","","-3.1","","97","","0.2","","18","","15","","2.8","","96.84","","","","-8","","Snow"
"-79.42","46.36","NORTH BAY A","6085680","2022-12-28 13:00","2022","12","28","13:00","-2.3","","-2.7","","97","","0.0","","19","","11","","4.8","","96.87","","","","-6","","Snow"
"-79.42","46.36","NORTH BAY A","6085680","2022-12-28 14:00","2022","12","28","14:00","-1.8","","-2.2","","97","","0.0","","18","","13","","4.8","","96.86","","","","-6","","Freezing Rain,Snow"
"-79.42","46.36","NORTH BAY A","6085680","2022-12-28 15:00","2022","12","28","15:00","-1.5","","-2.1","","96","","0.0","","17","","13","","4.8","","96.87","","","","-6","","Snow"
"-79.42","46.36","NORTH BAY A","6085680","2022-12-28 16:00","2022","12","28","16:00","-1.5","","-1.9","","97","","0.0","","15","","13","","4.8","","96.93","","","","-6","","Fog"
"-79.42","46.36","NORTH BAY A","6085680","2022-12-28 17:00","2022","12","28","17:00","-1.3","","-1.7","","97","","0.0","","17","","17","","4.0","","96.98","","","","-6","","Fog"
"-79.42","46.36","NORTH BAY A","6085680","2022-12-28 18:00","2022","12","28","18:00","-1.3","","-1.7","","97","","0.0","","16","","22","","4.8","","96.96","","","","-7","","Fog"
"-79.42","46.36","NORTH BAY A","6085680","2022-12-28 19:00","2022","12","28","19:00","-1.4","","-2.1","","95","","0.0","","14","","17","","8.1","","96.95","","","","-7","","Fog"
"-79.42","46.36","NORTH BAY A","6085680","2022-12-28 20:00","2022","12","28","20:00","-1.6","","-2.4","","94","","0.0","","14","","15","","8.1","","96.96","","","","-6","","Fog"
"-79.42","46.36","NORTH BAY A","6085680","2022-12-28 21:00","2022","12","28","21:00","-1.7","","-2.4","","95","","0.0","","13","","17","","8.1","","96.91","","","","-7","","Fog"
"-79.42","46.36","NORTH BAY A","6085680","2022-12-28 22:00","2022","12","28","22:00","-2.0","","-2.7","","95","","0.0","","13","","13","","8.1","","96.89","","","","-6","","Fog"
"-79.42","46.36","NORTH BAY A","6085680","2022-12-28 23:00","2022","12","28","23:00","-2.1","","-2.8","","95","","0.0","","14","","15","","9.7","","96.90","","","","-7","","Fog"
"-79.42","46.36","NORTH BAY A","6085680","2022-12-29 00:00","2022","12","29","00:00","-2.5","","-3.3","","94","","0.0","","14","","11","","11.3","","96.87","","","","-7","","NA"
"-79.42","46.36","NORTH BAY A","6085680","2022-12-29 01:00","2022","12","29","01:00","-0.7","","-2.1","","90","","0.0","","16","","15","","16.1","","96.80","","","","-5","","NA"
"-79.42","46.36","NORTH BAY A","6085680","2022-12-29 02:00","2022","12","29","02:00","-0.3","","-2.1","","88","","0.0","","16","","13","","16.1","","96.82","","","","-4","","NA"
"-79.42","46.36","NORTH BAY A","6085680","2022-12-29 03:00","2022","12","29","03:00","0.4","","-1.6","","87","","0.0","","17","","15","","16.1","","96.79","","","","","","NA"
"-79.42","46.36","NORTH BAY A","6085680","2022-12-29 04:00","2022","12","29","04:00","0.9","","-1.3","","85","","0.0","","17","","15","","16.1","","96.73","","","","","","Rain"
"-79.42","46.36","NORTH BAY A","6085680","2022-12-29 05:00","2022","12","29","05:00","1.4","","-1.3","","82","","0.0","","19","","13","","16.1","","96.74","","","","","","NA"
"-79.42","46.36","NORTH BAY A","6085680","2022-12-29 06:00","2022","12","29","06:00","1.5","","-1.3","","82","","0.0","","19","","15","","16.1","","96.76","","","","","","NA"
"-79.42","46.36","NORTH BAY A","6085680","2022-12-29 07:00","2022","12","29","07:00","1.2","","-1.2","","84","","0.0","","18","","17","","16.1","","96.78","","","","","","NA"
"-79.42","46.36","NORTH BAY A","6085680","2022-12-29 08:00","2022","12","29","08:00","0.9","","-1.3","","85","","0.0","","17","","13","","16.1","","96.77","","","","","","NA"
"-79.42","46.36","NORTH BAY A","6085680","2022-12-29 09:00","2022","12","29","09:00","0.3","","-1.5","","88","","0.0","","18","","11","","16.1","","96.80","","","","","","NA"
"-79.42","46.36","NORTH BAY A","6085680","2022-12-29 10:00","2022","12","29","10:00","1.7","","-0.7","","84","","0.0","","17","","11","","16.1","","96.80","","","","","","NA"
"-79.42","46.36","NORTH BAY A","6085680","2022-12-29 11:00","2022","12","29","11:00","2.9","","-0.2","","80","","0.0","","20","","18","","16.1","","96.82","","","","","","NA"
"-79.42","46.36","NORTH BAY A","6085680","2022-12-29 12:00","2022","12","29","12:00","3.5","","0.4","","80","","0.0","","20","","24","","16.1","","96.76","","","","","","NA"
"-79.42","46.36","NORTH BAY A","6085680","2022-12-29 13:00","2022","12","29","13:00","3.6","","0.8","","82","","0.0","","20","","22","","16.1","","96.71","","","","","","NA"
"-79.42","46.36","NORTH BAY A","6085680","2022-12-29 14:00","2022","12","29","14:00","3.3","","1.0","","85","","0.0","","20","","17","","16.1","","96.73","","","","","","NA"
"-79.42","46.36","NORTH BAY A","6085680","2022-12-29 15:00","2022","12","29","15:00","3.3","","1.4","","87","","0.0","","19","","18","","16.1","","96.74","","","","","","NA"
"-79.42","46.36","NORTH BAY A","6085680","2022-12-29 16:00","2022","12","29","16:00","3.6","","1.8","","88","","0.0","","20","","24","","16.1","","96.77","","","","","","NA"
"-79.42","46.36","NORTH BAY A","6085680","2022-12-29 17:00","2022","12","29","17:00","3.4","","2.4","","93","","0.0","","21","","22","","16.1","","96.83","","","","","","NA"
"-79.42","46.36","NORTH BAY A","6085680","2022-12-29 18:00","2022","12","29","18:00","3.1","","2.8","","98","","0.0","","19","","21","","2.4","","96.87","","","","","","Fog"
"-79.42","46.36","NORTH BAY A","6085680","2022-12-29 19:00","2022","12","29","19:00","2.9","","2.8","","99","","0.0","","20","","18","","0.2","","96.89","","","","","","Rain,Fog"
"-79.42","46.36","NORTH BAY A","6085680","2022-12-29 20:00","2022","12","29","20:00","3.1","","3.0","","99","","0.0","","19","","15","","0.2","","96.88","","","","","","Rain,Fog"
"-79.42","46.36","NORTH BAY A","6085680","2022-12-29 21:00","2022","12","29","21:00","3.2","","3.2","","100","","0.0","","18","","17","","0.2","","96.88","","","","","","Rain,Fog"
"-79.42","46.36","NORTH BAY A","6085680","2022-12-29 22:00","2022","12","29","22:00","3.7","","3.7","","100","","0.0","","21","","18","","0.2","","96.93","","","","","","Fog"
"-79.42","46.36","NORTH BAY A","6085680","2022-12-29 23:00","2022","12","29","23:00","3.4","","3.4","","100","","0.0","","20","","17","","0.2","","96.94","","","","","","Fog"
"-79.42","46.36","NORTH BAY A","6085680","2022-12-30 00:00","2022","12","30","00:00","3.7","","3.7","","100","","0.0","","20","","18","","0.2","","96.95","","","","","","Rain,Fog"
"-79.42","46.36","NORTH BAY A","6085680","2022-12-30 01:00","2022","12","30","01:00","4.1","","4.1","","100","","0.0","","19","","18","","0.2","","96.93","","","","","","Fog"
"-79.42","46.36","NORTH BAY A","6085680","2022-12-30 02:00","2022","12","30","02:00","3.9","","3.9","","100","","0.0","","20","","13","","0.2","","96.94","","","","","","Fog"
"-79.42","46.36","NORTH BAY A","6085680","2022-12-30 03:00","2022","12","30","03:00","4.2","","4.2","","100","","0.0","","20","","13","","0.2","","96.96","","","","","","Fog"
"-79.42","46.36","NORTH BAY A","6085680","2022-12-30 04:00","2022","12","30","04:00","5.0","","5.0","","100","","0.0","","19","","17","","0.2","","96.87","","","","","","Fog"
"-79.42","46.36","NORTH BAY A","6085680","2022-12-30 05:00","2022","12","30","05:00","4.5","","4.5","","100","","0.0","","19","","13","","0.2","","96.81","","","","","","Fog"
"-79.42","46.36","NORTH BAY A","6085680","2022-12-30 06:00","2022","12","30","06:00","5.2","","5.2","","100","","0.0","","19","","17","","1.2","","96.80","","","","","","Fog"
"-79.42","46.36","NORTH BAY A","6085680","2022-12-30 07:00","2022","12","30","07:00","5.6","","5.6","","100","","0.0","","19","","18","","4.8","","96.79","","","","","","Fog"
"-79.42","46.36","NORTH BAY A","6085680","2022-12-30 08:00","2022","12","30","08:00","5.9","","5.9","","100","","0.0","","20","","22","","0.4","","96.78","","","","","","Rain,Fog"
"-79.42","46.36","NORTH BAY A","6085680","2022-12-30 09:00","2022","12","30","09:00","5.8","","5.8","","100","","0.2","","20","","15","","0.0","","96.76","","","","","","Rain,Fog"
"-79.42","46.36","NORTH BAY A","6085680","2022-12-30 10:00","2022","12","30","10:00","5.9","","5.9","","100","","0.5","","20","","21","","0.0","","96.75","","","","","","Rain,Fog"
"-79.42","46.36","NORTH BAY A","6085680","2022-12-30 11:00","2022","12","30","11:00","6.0","","6.0","","100","","0.0","","20","","24","","0.0","","96.72","","","","","","Fog"
"-79.42","46.36","NORTH BAY A","6085680","2022-12-30 12:00","2022","12","30","12:00","6.1","","6.1","","100","","0.0","","21","","24","","0.0","","96.66","","","","","","Rain,Fog"
"-79.42","46.36","NORTH BAY A","6085680","2022-12-30 13:00","2022","12","30","13:00","6.0","","6.0","","100","","0.0","","20","","17","","0.0","","96.61","","","","","","Fog"
"-79.42","46.36","NORTH BAY A","6085680","2022-12-30 14:00","2022","12","30","14:00","6.5","","6.5","","100","","0.0","","21","","21","","0.0","","96.59","","","","","","Fog"
"-79.42","46.36","NORTH BAY A","6085680","2022-12-30 15:00","2022","12","30","15:00","6.7","","6.7","","100","","0.0","","21","","21","","0.0","","96.57","","","","","","Fog"
"-79.42","46.36","NORTH BAY A","6085680","2022-12-30 16:00","2022","12","30","16:00","6.4","","6.4","","100","","0.0","","21","","24","","0.0","","96.60","","","","","","Fog"
"-79.42","46.36","NORTH BAY A","6085680","2022-12-30 17:00","2022","12","30","17:00","6.4","","6.4","","100","","0.2","","22","","22","","0.0","","96.63","","","","","","Fog"
"-79.42","46.36","NORTH BAY A","6085680","2022-12-30 18:00","2022","12","30","18:00","5.8","","5.8","","100","","0.0","","27","","21","","1.2","","96.74","","","","","","Rain,Fog"
"-79.42","46.36","NORTH BAY A","6085680","2022-12-30 19:00","2022","12","30","19:00","4.9","","4.9","","100","","0.2","","25","","13","","4.0","","96.82","","","","","","Fog"
"-79.42","46.36","NORTH BAY A","6085680","2022-12-30 20:00","2022","12","30","20:00","4.1","","4.1","","100","","0.0","","24","","17","","4.0","","96.86","","","","","","Fog"
"-79.42","46.36","NORTH BAY A","6085680","2022-12-30 21:00","2022","12","30","21:00","3.4","","3.4","","100","","0.0","","24","","17","","4.8","","96.87","","","","","","Fog"
"-79.42","46.36","NORTH BAY A","6085680","2022-12-30 22:00","2022","12","30","22:00","2.9","","2.9","","100","","0.0","","23","","15","","4.8","","96.88","","","","","","Fog"
"-79.42","46.36","NORTH BAY A","6085680","2022-12-30 23:00","2022","12","30","23:00","2.7","","2.7","","100","","0.0","","24","","15","","4.8","","96.91","","","","","","Fog"
"-79.42","46.36","NORTH BAY A","6085680","2022-12-31 00:00","2022","12","31","00:00","2.3","","2.3","","100","","0.0","","24","","15","","1.0","","96.93","","","","","","Fog"
"-79.42","46.36","NORTH BAY A","6085680","2022-12-31 01:00","2022","12","31","01:00","1.9","","1.9","","100","","0.0","","23","","13","","2.0","","96.90","","","","","","Fog"
"-79.42","46.36","NORTH BAY A","6085680","2022-12-31 02:00","2022","12","31","02:00","1.4","","1.4","","100","","0.0","","24","","11","","1.0","","96.91","","","","","","Fog"
"-79.42","46.36","NORTH BAY A","6085680","2022-12-31 03:00","2022","12","31","03:00","1.1","","1.1","","100","","0.0","","23","","9","","0.6","","96.92","","","","","","Fog"
"-79.42","46.36","NORTH BAY A","6085680","2022-12-31 04:00","2022","12","31","04:00","0.9","","0.9","","100","","0.0","","25","","9","","4.8","","96.88","","","","","","Fog"
"-79.42","46.36","NORTH BAY A","6085680","2022-12-31 05:00","2022","12","31","05:00","0.6","","0.6","","100","","0.0","","","M","","M","14.5","","96.87","","","","","","NA"
"-79.42","46.36","NORTH BAY A","6085680","2022-12-31 06:00","2022","12","31","06:00","0.3","","0.3","","100","","0.0","","28","","4","","12.9","","96.82","","","","","","NA"
"-79.42","46.36","NORTH BAY A","6085680","2022-12-31 07:00","2022","12","31","07:00","0.1","","0.1","","100","","0.0","","20","","4","","4.8","","96.81","","","","","","Fog"
"-79.42","46.36","NORTH BAY A","6085680","2022-12-31 08:00","2022","12","31","08:00","0.1","","0.1","","100","","0.0","","","","0","","0.8","","96.80","","","","","","Fog"
"-79.42","46.36","NORTH BAY A","6085680","2022-12-31 09:00","2022","12","31","09:00","0.0","","0.0","","100","","0.0","","18","","5","","0.2","","96.76","","","","-2","","Fog"
"-79.42","46.36","NORTH BAY A","6085680","2022-12-31 10:00","2022","12","31","10:00","0.3","","0.3","","100","","0.0","","22","","4","","11.3","","96.81","","","","","","NA"
"-79.42","46.36","NORTH BAY A","6085680","2022-12-31 11:00","2022","12","31","11:00","0.2","","0.2","","100","","0.0","","16","","4","","16.1","","96.74","","","","","","NA"
"-79.42","46.36","NORTH BAY A","6085680","2022-12-31 12:00","2022","12","31","12:00","0.6","","0.5","","99","","0.0","","30","","5","","16.1","","96.64","","","","","","NA"
"-79.42","46.36","NORTH BAY A","6085680","2022-12-31 13:00","2022","12","31","13:00","0.9","","0.3","","96","","0.0","","33","","8","","16.1","","96.56","","","","","","NA"
"-79.42","46.36","NORTH BAY A","6085680","2022-12-31 14:00","2022","12","31","14:00","1.5","","-0.1","","89","","0.0","","","M","4","","16.1","","96.45","","","","","","NA"
"-79.42","46.36","NORTH BAY A","6085680","2022-12-31 15:00","2022","12","31","15:00","1.6","","-0.3","","87","","0.0","","","","0","","16.1","","96.44","","","","","","NA"
"-79.42","46.36","NORTH BAY A","6085680","2022-12-31 16:00","2022","12","31","16:00","0.7","","-0.2","","94","","0.0","","23","","8","","16.1","","96.45","","","","","","NA"
"-79.42","46.36","NORTH BAY A","6085680","2022-12-31 17:00","2022","12","31","17:00","0.1","","-0.3","","97","","0.0","","29","","4","","16.1","","96.44","","","","","","NA"
"-79.42","46.36","NORTH BAY A","6085680","2022-12-31 18:00","2022","12","31","18:00","0.3","","0.0","","98","","0.0","","36","","4","","16.1","","96.43","","","","","","NA"
"-79.42","46.36","NORTH BAY A","6085680","2022-12-31 19:00","2022","12","31","19:00","0.5","","-0.2","","95","","0.0","","1","","8","","16.1","","96.43","","","","","","NA"
"-79.42","46.36","NORTH BAY A","6085680","2022-12-31 20:00","2022","12","31","20:00","0.3","","-0.3","","96","","0.0","","35","","9","","16.1","","96.46","","","","","","NA"
"-79.42","46.36","NORTH BAY A","6085680","2022-12-31 21:00","2022","12","31","21:00","-0.3","","-1.0","","95","","0.0","","34","","13","","14.5","","96.48","","","","-4","","Snow"
"-79.42","46.36","NORTH BAY A","6085680","2022-12-31 22:00","2022","12","31","22:00","-0.6","","-1.5","","94","","0.0","","35","","13","","16.1","","96.46","","","","-5","","NA"
"-79.42","46.36","NORTH BAY A","6085680","2022-12-31 23:00","2022","12","31","23:00","-0.7","","-1.6","","94","","0.0","","34","","11","","16.1","","96.48","","","","-4","","NA"
