"Longitude (x)","Latitude (y)","Station Name","Climate ID","Date/Time (LST)","Year","Month","Day","Time (LST)","Temp (°C)","Temp Flag","Dew Point Temp (°C)","Dew Point Temp Flag","Rel Hum (%)","Rel Hum Flag","Precip. Amount (mm)","Precip. Amount Flag","Wind Dir (10s deg)","Wind Dir Flag","Wind Spd (km/h)","Wind Spd Flag","Visibility (km)","Visibility Flag","Stn Press (kPa)","Stn Press Flag","Hmdx","Hmdx Flag","Wind Chill","Wind Chill Flag","Weather"
"-65.89","45.32","SAINT JOHN A","8104901","2018-09-01 00:00","2018","09","01","00:00","14.9","","11.9","","82","","","","9","","13","","24.1","","101.59","","","","","","NA"
"-65.89","45.32","SAINT JOHN A","8104901","2018-09-01 01:00","2018","09","01","01:00","14.0","","11.9","","87","","","","10","","15","","24.1","","101.58","","","","","","NA"
"-65.89","45.32","SAINT JOHN A","8104901","2018-09-01 02:00","2018","09","01","02:00","14.3","","12.5","","89","","","","10","","13","","24.1","","101.57","","","","","","Mainly Clear"
"-65.89","45.32","SAINT JOHN A","8104901","2018-09-01 03:00","2018","09","01","03:00","14.4","","12.7","","90","","","","10","","13","","24.1","","101.59","","","","","","NA"
"-65.89","45.32","SAINT JOHN A","8104901","2018-09-01 04:00","2018","09","01","04:00","14.0","","12.6","","91","","","","10","","10","","24.1","","101.60","","","","","","NA"
"-65.89","45.32","SAINT JOHN A","8104901","2018-09-01 05:00","2018","09","01","05:00","13.2","","12.0","","93","","","","31","","3","","24.1","","101.63","","","","","","Mostly Cloudy"
"-65.89","45.32","SAINT JOHN A","8104901","2018-09-01 06:00","2018","09","01","06:00","12.3","","11.5","","95","","","","35","","4","","24.1","","101.63","","","","","","NA"
"-65.89","45.32","SAINT JOHN A","8104901","2018-09-01 07:00","2018","09","01","07:00","13.9","","12.5","","91","","","","36","","2","","24.1","","101.64","","","","","","NA"
"-65.89","45.32","SAINT JOHN A","8104901","2018-09-01 08:00","2018","09","01","08:00","17.3","","13.6","","79","","","","12","","9","","24.1","","101.67","","","","","","Mainly Clear"
"-65.89","45.32","SAINT JOHN A","8104901","2018-09-01 09:00","2018","09","01","09:00","18.8","","13.5","","71","","","","13","","9","","24.1","","101.63","","","","","","NA"
"-65.89","45.32","SAINT JOHN A","8104901","2018-09-01 10:00","2018","09","01","10:00","20.5","","13.8","","65","","","","12","","6","","24.1","","101.63","","","","","","NA"
"-65.89","45.32","SAINT JOHN A","8104901","2018-09-01 11:00","2018","09","01","11:00","19.9","","12.2","","61","","","","24","","13","","24.1","","101.60","","","","","","Mainly Clear"
"-65.89","45.32","SAINT JOHN A","8104901","2018-09-01 12:00","2018","09","01","12:00","20.3","","12.1","","59","","","","26","","11","","24.1","","101.57","","","","","","NA"
"-65.89","45.32","SAINT JOHN A","8104901","2018-09-01 13:00","2018","09","01","13:00","22.8","","12.2","","51","","","","20","","17","","24.1","","101.51","","25","","","","NA"
"-65.89","45.32","SAINT JOHN A","8104901","2018-09-01 14:00","2018","09","01","14:00","22.3","","10.4","","47","","","","22","","12","","24.1","","101.47","","","","","","Mainly Clear"
"-65.89","45.32","SAINT JOHN A","8104901","2018-09-01 15:00","2018","09","01","15:00","22.8","","9.6","","42","","","","22","","13","","24.1","","101.45","","","","","","NA"
"-65.89","45.32","SAINT JOHN A","8104901","2018-09-01 16:00","2018","09","01","16:00","22.2","","8.5","","41","","","","24","","14","","24.1","","101.41","","","","","","NA"
"-65.89","45.32","SAINT JOHN A","8104901","2018-09-01 17:00","2018","09","01","17:00","22.1","","9.9","","45","","","","23","","13","","24.1","","101.36","","","","","","Mainly Clear"
"-65.89","45.32","SAINT JOHN A","8104901","2018-09-01 18:00","2018","09","01","18:00","20.9","","10.4","","51","","","","21","","15","","24.1","","101.32","","","","","","NA"
"-65.89","45.32","SAINT JOHN A","8104901","2018-09-01 19:00","2018","09","01","19:00","16.9","","11.8","","71","","","","18","","15","","24.1","","101.28","","","","","","NA"
"-65.89","45.32","SAINT JOHN A","8104901","2018-09-01 20:00","2018","09","01","20:00","14.4","","12.2","","87","","","","19","","10","","24.1","","101.31","","","","","","Mainly Clear"
"-65.89","45.32","SAINT JOHN A","8104901","2018-09-01 21:00","2018","09","01","21:00","13.6","","12.6","","94","","","","17","","6","","24.1","","101.34","","","","","","NA"
"-65.89","45.32","SAINT JOHN A","8104901","2018-09-01 22:00","2018","09","01","22:00","13.2","","12.2","","93","","","","19","","10","","24.1","","101.30","","","","","","NA"
"-65.89","45.32","SAINT JOHN A","8104901","2018-09-01 23:00","2018","09","01","23:00","12.3","","11.3","","94","","","","20","","9","","24.1","","101.24","","","","","","Mainly Clear"
"-65.89","45.32","SAINT JOHN A","8104901","2018-09-02 00:00","2018","09","02","00:00","12.3","","11.6","","95","","","","21","","10","","24.1","","101.23","","","","","","NA"
"-65.89","45.32","SAINT JOHN A","8104901","2018-09-02 01:00","2018","09","02","01:00","12.3","","11.2","","93","","","","16","","5","","24.1","","101.24","","","","","","NA"
"-65.89","45.32","SAINT JOHN A","8104901","2018-09-02 02:00","2018","09","02","02:00","13.2","","12.4","","95","","","","17","","8","","24.1","","101.27","","","","","","Mostly Cloudy"
"-65.89","45.32","SAINT JOHN A","8104901","2018-09-02 03:00","2018","09","02","03:00","15.0","","14.0","","94","","","","22","","9","","24.1","","101.26","","","","","","NA"
"-65.89","45.32","SAINT JOHN A","8104901","2018-09-02 04:00","2018","09","02","04:00","15.1","","14.2","","94","","","","20","","13","","24.1","","101.23","","","","","","NA"
"-65.89","45.32","SAINT JOHN A","8104901","2018-09-02 05:00","2018","09","02","05:00","14.9","","14.3","","96","","","","21","","9","","24.1","","101.22","","","","","","Mostly Cloudy"
"-65.89","45.32","SAINT JOHN A","8104901","2018-09-02 06:00","2018","09","02","06:00","14.9","","14.3","","96","","","","20","","14","","24.1","","101.22","","","","","","NA"
"-65.89","45.32","SAINT JOHN A","8104901","2018-09-02 07:00","2018","09","02","07:00","15.5","","14.7","","95","","","","19","","17","","24.1","","101.25","","","","","","NA"
"-65.89","45.32","SAINT JOHN A","8104901","2018-09-02 08:00","2018","09","02","08:00","16.6","","15.5","","93","","","","19","","13","","24.1","","101.24","","","","","","Mostly Cloudy"
"-65.89","45.32","SAINT JOHN A","8104901","2018-09-02 09:00","2018","09","02","09:00","16.7","","15.7","","94","","","","21","","19","","4.8","","101.24","","","","","","Fog"
"-65.89","45.32","SAINT JOHN A","8104901","2018-09-02 10:00","2018","09","02","10:00","18.1","","15.6","","85","","","","21","","26","","24.1","","101.24","","","","","","NA"
"-65.89","45.32","SAINT JOHN A","8104901","2018-09-02 11:00","2018","09","02","11:00","18.6","","16.0","","85","","","","23","","21","","24.1","","101.20","","","","","","Mostly Cloudy"
"-65.89","45.32","SAINT JOHN A","8104901","2018-09-02 12:00","2018","09","02","12:00","19.7","","16.3","","80","","","","22","","17","","24.1","","101.15","","","","","","NA"
"-65.89","45.32","SAINT JOHN A","8104901","2018-09-02 13:00","2018","09","02","13:00","19.0","","16.2","","84","","","","19","","24","","24.1","","101.13","","","","","","NA"
"-65.89","45.32","SAINT JOHN A","8104901","2018-09-02 14:00","2018","09","02","14:00","19.1","","16.5","","85","","","","21","","21","","24.1","","101.11","","","","","","Mostly Cloudy"
"-65.89","45.32","SAINT JOHN A","8104901","2018-09-02 15:00","2018","09","02","15:00","19.3","","17.0","","86","","","","21","","21","","24.1","","101.10","","","","","","NA"
"-65.89","45.32","SAINT JOHN A","8104901","2018-09-02 16:00","2018","09","02","16:00","19.4","","17.0","","86","","","","22","","26","","24.1","","101.07","","","","","","NA"
"-65.89","45.32","SAINT JOHN A","8104901","2018-09-02 17:00","2018","09","02","17:00","19.3","","16.7","","85","","","","22","","27","","24.1","","101.04","","","","","","Mostly Cloudy"
"-65.89","45.32","SAINT JOHN A","8104901","2018-09-02 18:00","2018","09","02","18:00","18.2","","17.1","","93","","","","24","","12","","24.1","","101.05","","","","","","NA"
"-65.89","45.32","SAINT JOHN A","8104901","2018-09-02 19:00","2018","09","02","19:00","17.5","","16.4","","94","","","","21","","19","","16.1","","101.01","","","","","","NA"
"-65.89","45.32","SAINT JOHN A","8104901","2018-09-02 20:00","2018","09","02","20:00","17.1","","14.8","","86","","","","20","","19","","16.1","","101.05","","","","","","Cloudy"
"-65.89","45.32","SAINT JOHN A","8104901","2018-09-02 21:00","2018","09","02","21:00","17.2","","15.1","","87","","","","22","","15","","16.1","","101.11","","","","","","NA"
"-65.89","45.32","SAINT JOHN A","8104901","2018-09-02 22:00","2018","09","02","22:00","16.6","","16.1","","96","","","","23","","16","","16.1","","101.14","","","","","","NA"
"-65.89","45.32","SAINT JOHN A","8104901","2018-09-02 23:00","2018","09","02","23:00","16.9","","16.1","","95","","","","23","","13","","16.1","","101.16","","","","","","Cloudy"
"-65.89","45.32","SAINT JOHN A","8104901","2018-09-03 00:00","2018","09","03","00:00","16.8","","16.0","","95","","","","22","","18","","24.1","","101.10","","","","","","NA"
"-65.89","45.32","SAINT JOHN A","8104901","2018-09-03 01:00","2018","09","03","01:00","16.5","","15.8","","95","","","","20","","16","","24.1","","101.10","","","","","","NA"
"-65.89","45.32","SAINT JOHN A","8104901","2018-09-03 02:00","2018","09","03","02:00","16.5","","15.7","","95","","","","21","","13","","24.1","","101.09","","","","","","Mostly Cloudy"
"-65.89","45.32","SAINT JOHN A","8104901","2018-09-03 03:00","2018","09","03","03:00","17.0","","15.8","","93","","","","21","","14","","24.1","","101.06","","","","","","NA"
"-65.89","45.32","SAINT JOHN A","8104901","2018-09-03 04:00","2018","09","03","04:00","16.9","","15.7","","93","","","","20","","13","","24.1","","101.03","","","","","","NA"
"-65.89","45.32","SAINT JOHN A","8104901","2018-09-03 05:00","2018","09","03","05:00","17.2","","15.9","","92","","","","20","","13","","24.1","","101.01","","","","","","Cloudy"
"-65.89","45.32","SAINT JOHN A","8104901","2018-09-03 06:00","2018","09","03","06:00","17.0","","15.9","","93","","","","19","","14","","24.1","","101.04","","","","","","NA"
"-65.89","45.32","SAINT JOHN A","8104901","2018-09-03 07:00","2018","09","03","07:00","16.7","","16.1","","96","","","","20","","18","","2.4","","101.04","","","","","","Fog"
"-65.89","45.32","SAINT JOHN A","8104901","2018-09-03 08:00","2018","09","03","08:00","17.6","","16.4","","92","","","","21","","22","","6.4","","101.03","","","","","","Fog"
"-65.89","45.32","SAINT JOHN A","8104901","2018-09-03 09:00","2018","09","03","09:00","18.5","","16.9","","90","","","","20","","23","","6.4","","101.03","","","","","","Fog"
"-65.89","45.32","SAINT JOHN A","8104901","2018-09-03 10:00","2018","09","03","10:00","18.2","","17.0","","93","","","","20","","23","","4.8","","101.05","","","","","","Fog"
"-65.89","45.32","SAINT JOHN A","8104901","2018-09-03 11:00","2018","09","03","11:00","17.9","","16.9","","93","","","","19","","19","","3.2","","101.03","","","","","","Fog"
"-65.89","45.32","SAINT JOHN A","8104901","2018-09-03 12:00","2018","09","03","12:00","17.3","","16.9","","97","","","","19","","21","","1.2","","100.97","","","","","","Fog"
"-65.89","45.32","SAINT JOHN A","8104901","2018-09-03 13:00","2018","09","03","13:00","17.4","","17.0","","97","","","","20","","23","","0.8","","100.88","","","","","","Fog"
"-65.89","45.32","SAINT JOHN A","8104901","2018-09-03 14:00","2018","09","03","14:00","18.3","","17.8","","97","","","","20","","22","","0.6","","100.83","","","","","","Fog"
"-65.89","45.32","SAINT JOHN A","8104901","2018-09-03 15:00","2018","09","03","15:00","17.8","","17.4","","98","","","","20","","30","","0.8","","100.81","","","","","","Fog"
"-65.89","45.32","SAINT JOHN A","8104901","2018-09-03 16:00","2018","09","03","16:00","17.6","","17.5","","99","","","","20","","22","","0.6","","100.79","","","","","","Fog"
"-65.89","45.32","SAINT JOHN A","8104901","2018-09-03 17:00","2018","09","03","17:00","17.4","","17.4","","100","","","","21","","19","","0.4","","100.75","","","","","","Fog"
"-65.89","45.32","SAINT JOHN A","8104901","2018-09-03 18:00","2018","09","03","18:00","17.6","","17.6","","100","","","","21","","27","","0.6","","100.72","","","","","","Fog"
"-65.89","45.32","SAINT JOHN A","8104901","2018-09-03 19:00","2018","09","03","19:00","17.4","","17.4","","100","","","","21","","17","","0.8","","100.76","","","","","","Drizzle,Fog"
"-65.89","45.32","SAINT JOHN A","8104901","2018-09-03 20:00","2018","09","03","20:00","17.1","","17.1","","100","","","","20","","22","","1.2","","100.73","","","","","","Drizzle,Fog"
"-65.89","45.32","SAINT JOHN A","8104901","2018-09-03 21:00","2018","09","03","21:00","17.3","","17.3","","100","","","","21","","21","","1.2","","100.71","","","","","","Drizzle,Fog"
"-65.89","45.32","SAINT JOHN A","8104901","2018-09-03 22:00","2018","09","03","22:00","17.0","","17.0","","100","","","","20","","21","","1.2","","100.68","","","","","","Drizzle,Fog"
"-65.89","45.32","SAINT JOHN A","8104901","2018-09-03 23:00","2018","09","03","23:00","17.3","","17.3","","100","","","","21","","22","","1.2","","100.63","","","","","","Drizzle,Fog"
"-65.89","45.32","SAINT JOHN A","8104901","2018-09-04 00:00","2018","09","04","00:00","17.0","","17.0","","100","","","","21","","19","","1.2","","100.56","","","","","","Drizzle,Fog"
"-65.89","45.32","SAINT JOHN A","8104901","2018-09-04 01:00","2018","09","04","01:00","16.9","","16.9","","100","","","","21","","15","","1.2","","100.53","","","","","","Thunderstorms,Rain,Fog"
"-65.89","45.32","SAINT JOHN A","8104901","2018-09-04 02:00","2018","09","04","02:00","16.8","","16.8","","100","","","","21","","16","","2.4","","100.49","","","","","","Fog"
"-65.89","45.32","SAINT JOHN A","8104901","2018-09-04 03:00","2018","09","04","03:00","16.9","","16.9","","100","","","","21","","8","","0.8","","100.46","","","","","","Fog"
"-65.89","45.32","SAINT JOHN A","8104901","2018-09-04 04:00","2018","09","04","04:00","16.9","","16.9","","100","","","","36","","2","","0.8","","100.47","","","","","","Fog"
"-65.89","45.32","SAINT JOHN A","8104901","2018-09-04 05:00","2018","09","04","05:00","16.7","","16.7","","100","","","","20","","3","","0.4","","100.54","","","","","","Fog"
"-65.89","45.32","SAINT JOHN A","8104901","2018-09-04 06:00","2018","09","04","06:00","17.0","","17.0","","100","","","","34","","4","","0.2","","100.58","","","","","","Fog"
"-65.89","45.32","SAINT JOHN A","8104901","2018-09-04 07:00","2018","09","04","07:00","18.3","","18.3","","100","","","","34","","5","","1.2","","100.64","","","","","","Fog"
"-65.89","45.32","SAINT JOHN A","8104901","2018-09-04 08:00","2018","09","04","08:00","20.3","","20.1","","98","","","","34","","28","","4.8","","100.68","","28","","","","Fog"
"-65.89","45.32","SAINT JOHN A","8104901","2018-09-04 09:00","2018","09","04","09:00","21.1","","17.7","","81","","","","35","","34","","12.9","","100.76","","27","","","","NA"
"-65.89","45.32","SAINT JOHN A","8104901","2018-09-04 10:00","2018","09","04","10:00","21.3","","15.4","","69","","","","35","","35","","24.1","","100.78","","26","","","","NA"
"-65.89","45.32","SAINT JOHN A","8104901","2018-09-04 11:00","2018","09","04","11:00","22.3","","15.0","","63","","","","1","","26","","24.1","","100.81","","26","","","","Mostly Cloudy"
"-65.89","45.32","SAINT JOHN A","8104901","2018-09-04 12:00","2018","09","04","12:00","21.6","","9.2","","44","","","","36","","28","","24.1","","100.82","","","","","","NA"
"-65.89","45.32","SAINT JOHN A","8104901","2018-09-04 13:00","2018","09","04","13:00","24.4","","7.5","","33","","","","36","","18","","24.1","","100.82","","25","","","","NA"
"-65.89","45.32","SAINT JOHN A","8104901","2018-09-04 14:00","2018","09","04","14:00","23.6","","8.2","","36","","","","36","","18","","24.1","","100.80","","","","","","Mostly Cloudy"
"-65.89","45.32","SAINT JOHN A","8104901","2018-09-04 15:00","2018","09","04","15:00","23.6","","11.9","","47","","","","35","","15","","24.1","","100.81","","26","","","","NA"
"-65.89","45.32","SAINT JOHN A","8104901","2018-09-04 16:00","2018","09","04","16:00","24.6","","10.2","","40","","","","32","","24","","24.1","","100.79","","26","","","","NA"
"-65.89","45.32","SAINT JOHN A","8104901","2018-09-04 17:00","2018","09","04","17:00","23.8","","10.5","","43","","","","33","","19","","24.1","","100.77","","25","","","","Mostly Cloudy"
"-65.89","45.32","SAINT JOHN A","8104901","2018-09-04 18:00","2018","09","04","18:00","22.9","","10.7","","46","","","","29","","11","","24.1","","100.80","","25","","","","NA"
"-65.89","45.32","SAINT JOHN A","8104901","2018-09-04 19:00","2018","09","04","19:00","20.0","","11.9","","59","","","","27","","7","","24.1","","100.83","","","","","","NA"
"-65.89","45.32","SAINT JOHN A","8104901","2018-09-04 20:00","2018","09","04","20:00","17.6","","12.3","","71","","","","28","","9","","24.1","","100.90","","","","","","Mostly Cloudy"
"-65.89","45.32","SAINT JOHN A","8104901","2018-09-04 21:00","2018","09","04","21:00","17.4","","12.5","","72","","","","31","","11","","24.1","","100.93","","","","","","NA"
"-65.89","45.32","SAINT JOHN A","8104901","2018-09-04 22:00","2018","09","04","22:00","17.2","","12.3","","73","","","","31","","11","","24.1","","100.94","","","","","","NA"
"-65.89","45.32","SAINT JOHN A","8104901","2018-09-04 23:00","2018","09","04","23:00","16.7","","11.7","","72","","","","32","","10","","24.1","","100.96","","","","","","Mostly Cloudy"
"-65.89","45.32","SAINT JOHN A","8104901","2018-09-05 00:00","2018","09","05","00:00","13.8","","11.0","","83","","","","32","","5","","24.1","","100.98","","","","","","NA"
"-65.89","45.32","SAINT JOHN A","8104901","2018-09-05 01:00","2018","09","05","01:00","12.4","","10.8","","90","","","","19","","7","","24.1","","101.00","","","","","","NA"
"-65.89","45.32","SAINT JOHN A","8104901","2018-09-05 02:00","2018","09","05","02:00","9.9","","9.2","","95","","","","36","","2","","24.1","","101.01","","","","","","Mostly Cloudy"
"-65.89","45.32","SAINT JOHN A","8104901","2018-09-05 03:00","2018","09","05","03:00","8.2","","8.1","","99","","","","36","","4","","24.1","","101.03","","","","","","NA"
"-65.89","45.32","SAINT JOHN A","8104901","2018-09-05 04:00","2018","09","05","04:00","9.7","","9.5","","99","","","","6","","7","","24.1","","101.02","","","","","","NA"
"-65.89","45.32","SAINT JOHN A","8104901","2018-09-05 05:00","2018","09","05","05:00","9.8","","9.4","","97","","","","10","","3","","24.1","","101.05","","","","","","Mostly Cloudy"
"-65.89","45.32","SAINT JOHN A","8104901","2018-09-05 06:00","2018","09","05","06:00","7.4","","7.4","","100","","","","2","","3","","24.1","","101.07","","","","","","NA"
"-65.89","45.32","SAINT JOHN A","8104901","2018-09-05 07:00","2018","09","05","07:00","10.3","","10.2","","99","","","","6","","5","","24.1","","101.12","","","","","","NA"
"-65.89","45.32","SAINT JOHN A","8104901","2018-09-05 08:00","2018","09","05","08:00","15.3","","13.3","","87","","","","36","","2","","24.1","","101.17","","","","","","Cloudy"
"-65.89","45.32","SAINT JOHN A","8104901","2018-09-05 09:00","2018","09","05","09:00","19.4","","12.5","","64","","","","0","","1","","24.1","","101.16","","","","","","NA"
"-65.89","45.32","SAINT JOHN A","8104901","2018-09-05 10:00","2018","09","05","10:00","22.9","","9.6","","42","","","","23","","11","","24.1","","101.15","","","","","","NA"
"-65.89","45.32","SAINT JOHN A","8104901","2018-09-05 11:00","2018","09","05","11:00","24.7","","9.3","","37","","","","18","","14","","24.1","","101.08","","26","","","","Mostly Cloudy"
"-65.89","45.32","SAINT JOHN A","8104901","2018-09-05 12:00","2018","09","05","12:00","25.4","","7.3","","31","","","","23","","9","","24.1","","101.06","","26","","","","NA"
"-65.89","45.32","SAINT JOHN A","8104901","2018-09-05 13:00","2018","09","05","13:00","26.1","","7.4","","30","","","","22","","16","","24.1","","101.03","","26","","","","NA"
"-65.89","45.32","SAINT JOHN A","8104901","2018-09-05 14:00","2018","09","05","14:00","25.2","","7.8","","32","","","","19","","23","","24.1","","100.96","","26","","","","Mostly Cloudy"
"-65.89","45.32","SAINT JOHN A","8104901","2018-09-05 15:00","2018","09","05","15:00","23.1","","10.0","","43","","","","20","","25","","24.1","","100.94","","","","","","NA"
"-65.89","45.32","SAINT JOHN A","8104901","2018-09-05 16:00","2018","09","05","16:00","22.8","","11.0","","47","","","","21","","21","","24.1","","100.93","","25","","","","NA"
"-65.89","45.32","SAINT JOHN A","8104901","2018-09-05 17:00","2018","09","05","17:00","21.2","","10.6","","50","","","","21","","23","","24.1","","100.90","","","","","","Mostly Cloudy"
"-65.89","45.32","SAINT JOHN A","8104901","2018-09-05 18:00","2018","09","05","18:00","19.5","","11.2","","58","","","","21","","19","","24.1","","100.85","","","","","","NA"
"-65.89","45.32","SAINT JOHN A","8104901","2018-09-05 19:00","2018","09","05","19:00","17.8","","12.0","","69","","","","21","","12","","24.1","","100.81","","","","","","NA"
"-65.89","45.32","SAINT JOHN A","8104901","2018-09-05 20:00","2018","09","05","20:00","17.0","","13.2","","78","","","","21","","16","","24.1","","100.80","","","","","","Mostly Cloudy"
"-65.89","45.32","SAINT JOHN A","8104901","2018-09-05 21:00","2018","09","05","21:00","16.6","","14.2","","86","","","","21","","12","","24.1","","100.81","","","","","","NA"
"-65.89","45.32","SAINT JOHN A","8104901","2018-09-05 22:00","2018","09","05","22:00","16.4","","14.8","","90","","","","21","","11","","24.1","","100.78","","","","","","NA"
"-65.89","45.32","SAINT JOHN A","8104901","2018-09-05 23:00","2018","09","05","23:00","16.2","","14.4","","89","","","","19","","11","","24.1","","100.72","","","","","","Cloudy"
"-65.89","45.32","SAINT JOHN A","8104901","2018-09-06 00:00","2018","09","06","00:00","16.4","","13.8","","84","","","","17","","10","","24.1","","100.64","","","","","","NA"
"-65.89","45.32","SAINT JOHN A","8104901","2018-09-06 01:00","2018","09","06","01:00","16.5","","14.7","","89","","","","21","","20","","24.1","","100.59","","","","","","NA"
"-65.89","45.32","SAINT JOHN A","8104901","2018-09-06 02:00","2018","09","06","02:00","16.7","","15.4","","92","","","","21","","23","","24.1","","100.56","","","","","","Cloudy"
"-65.89","45.32","SAINT JOHN A","8104901","2018-09-06 03:00","2018","09","06","03:00","16.4","","14.7","","90","","","","21","","26","","24.1","","100.47","","","","","","NA"
"-65.89","45.32","SAINT JOHN A","8104901","2018-09-06 04:00","2018","09","06","04:00","16.1","","14.8","","92","","","","21","","19","","24.1","","100.41","","","","","","NA"
"-65.89","45.32","SAINT JOHN A","8104901","2018-09-06 05:00","2018","09","06","05:00","16.2","","14.8","","91","","","","20","","22","","24.1","","100.35","","","","","","Mostly Cloudy"
"-65.89","45.32","SAINT JOHN A","8104901","2018-09-06 06:00","2018","09","06","06:00","16.6","","15.1","","91","","","","21","","28","","24.1","","100.28","","","","","","NA"
"-65.89","45.32","SAINT JOHN A","8104901","2018-09-06 07:00","2018","09","06","07:00","17.3","","15.4","","88","","","","21","","28","","24.1","","100.30","","","","","","NA"
"-65.89","45.32","SAINT JOHN A","8104901","2018-09-06 08:00","2018","09","06","08:00","17.7","","15.9","","89","","","","22","","29","","24.1","","100.27","","","","","","Cloudy"
"-65.89","45.32","SAINT JOHN A","8104901","2018-09-06 09:00","2018","09","06","09:00","17.7","","16.8","","95","","","","22","","19","","4.8","","100.25","","","","","","Fog"
"-65.89","45.32","SAINT JOHN A","8104901","2018-09-06 10:00","2018","09","06","10:00","18.7","","17.7","","94","","","","22","","23","","2.0","","100.24","","","","","","Fog"
"-65.89","45.32","SAINT JOHN A","8104901","2018-09-06 11:00","2018","09","06","11:00","20.2","","18.1","","88","","","","20","","23","","8.1","","100.20","","26","","","","Fog"
"-65.89","45.32","SAINT JOHN A","8104901","2018-09-06 12:00","2018","09","06","12:00","21.9","","18.6","","81","","","","20","","13","","24.1","","100.19","","28","","","","NA"
"-65.89","45.32","SAINT JOHN A","8104901","2018-09-06 13:00","2018","09","06","13:00","21.5","","18.8","","84","","","","19","","10","","24.1","","100.16","","28","","","","NA"
"-65.89","45.32","SAINT JOHN A","8104901","2018-09-06 14:00","2018","09","06","14:00","24.0","","19.1","","74","","","","20","","9","","24.1","","100.15","","31","","","","Mostly Cloudy"
"-65.89","45.32","SAINT JOHN A","8104901","2018-09-06 15:00","2018","09","06","15:00","20.4","","17.9","","86","","","","21","","15","","24.1","","100.19","","26","","","","NA"
"-65.89","45.32","SAINT JOHN A","8104901","2018-09-06 16:00","2018","09","06","16:00","21.0","","18.2","","84","","","","21","","7","","24.1","","100.20","","27","","","","NA"
"-65.89","45.32","SAINT JOHN A","8104901","2018-09-06 17:00","2018","09","06","17:00","21.9","","19.0","","83","","","","20","","5","","24.1","","100.20","","29","","","","Mostly Cloudy"
"-65.89","45.32","SAINT JOHN A","8104901","2018-09-06 18:00","2018","09","06","18:00","23.2","","19.9","","81","","","","24","","4","","24.1","","100.23","","31","","","","NA"
"-65.89","45.32","SAINT JOHN A","8104901","2018-09-06 19:00","2018","09","06","19:00","21.2","","16.9","","76","","","","32","","9","","24.1","","100.31","","26","","","","NA"
"-65.89","45.32","SAINT JOHN A","8104901","2018-09-06 20:00","2018","09","06","20:00","20.9","","13.3","","61","","","","36","","23","","24.1","","100.44","","","","","","Mostly Cloudy"
"-65.89","45.32","SAINT JOHN A","8104901","2018-09-06 21:00","2018","09","06","21:00","18.8","","11.1","","61","","","","36","","14","","24.1","","100.55","","","","","","NA"
"-65.89","45.32","SAINT JOHN A","8104901","2018-09-06 22:00","2018","09","06","22:00","17.4","","10.5","","64","","","","35","","17","","24.1","","100.64","","","","","","NA"
"-65.89","45.32","SAINT JOHN A","8104901","2018-09-06 23:00","2018","09","06","23:00","16.0","","10.0","","67","","","","35","","18","","24.1","","100.70","","","","","","Mostly Cloudy"
"-65.89","45.32","SAINT JOHN A","8104901","2018-09-07 00:00","2018","09","07","00:00","14.7","","10.4","","76","","","","36","","17","","24.1","","100.72","","","","","","NA"
"-65.89","45.32","SAINT JOHN A","8104901","2018-09-07 01:00","2018","09","07","01:00","14.1","","10.6","","79","","","","35","","17","","24.1","","100.77","","","","","","NA"
"-65.89","45.32","SAINT JOHN A","8104901","2018-09-07 02:00","2018","09","07","02:00","13.2","","10.2","","82","","","","1","","12","","24.1","","100.80","","","","","","Cloudy"
"-65.89","45.32","SAINT JOHN A","8104901","2018-09-07 03:00","2018","09","07","03:00","12.4","","9.7","","84","","","","36","","2","","24.1","","100.81","","","","","","NA"
"-65.89","45.32","SAINT JOHN A","8104901","2018-09-07 04:00","2018","09","07","04:00","9.0","","8.2","","95","","","","21","","3","","24.1","","100.87","","","","","","NA"
"-65.89","45.32","SAINT JOHN A","8104901","2018-09-07 05:00","2018","09","07","05:00","7.2","","6.4","","95","","","","36","","1","","24.1","","100.90","","","","","","Mostly Cloudy"
"-65.89","45.32","SAINT JOHN A","8104901","2018-09-07 06:00","2018","09","07","06:00","7.0","","6.3","","95","","","","32","","3","","24.1","","100.95","","","","","","NA"
"-65.89","45.32","SAINT JOHN A","8104901","2018-09-07 07:00","2018","09","07","07:00","9.1","","8.5","","96","","","","3","","4","","24.1","","100.99","","","","","","NA"
"-65.89","45.32","SAINT JOHN A","8104901","2018-09-07 08:00","2018","09","07","08:00","14.7","","8.7","","67","","","","1","","17","","24.1","","100.98","","","","","","Mostly Cloudy"
"-65.89","45.32","SAINT JOHN A","8104901","2018-09-07 09:00","2018","09","07","09:00","16.4","","8.6","","60","","","","2","","16","","24.1","","100.99","","","","","","NA"
"-65.89","45.32","SAINT JOHN A","8104901","2018-09-07 10:00","2018","09","07","10:00","17.3","","7.2","","51","","","","2","","12","","24.1","","100.98","","","","","","NA"
"-65.89","45.32","SAINT JOHN A","8104901","2018-09-07 11:00","2018","09","07","11:00","18.5","","7.2","","47","","","","4","","13","","24.1","","100.93","","","","","","Mostly Cloudy"
"-65.89","45.32","SAINT JOHN A","8104901","2018-09-07 12:00","2018","09","07","12:00","19.3","","7.5","","46","","","","1","","7","","24.1","","100.88","","","","","","NA"
"-65.89","45.32","SAINT JOHN A","8104901","2018-09-07 13:00","2018","09","07","13:00","20.4","","6.4","","40","","","","36","","7","","24.1","","100.80","","","","","","NA"
"-65.89","45.32","SAINT JOHN A","8104901","2018-09-07 14:00","2018","09","07","14:00","21.0","","6.6","","39","","","","1","","7","","24.1","","100.71","","","","","","Mostly Cloudy"
"-65.89","45.32","SAINT JOHN A","8104901","2018-09-07 15:00","2018","09","07","15:00","20.9","","8.7","","45","","","","21","","14","","24.1","","100.65","","","","","","NA"
"-65.89","45.32","SAINT JOHN A","8104901","2018-09-07 16:00","2018","09","07","16:00","18.2","","9.8","","58","","","","20","","16","","24.1","","100.60","","","","","","NA"
"-65.89","45.32","SAINT JOHN A","8104901","2018-09-07 17:00","2018","09","07","17:00","17.9","","9.4","","57","","","","19","","12","","24.1","","100.54","","","","","","Mostly Cloudy"
"-65.89","45.32","SAINT JOHN A","8104901","2018-09-07 18:00","2018","09","07","18:00","15.6","","7.9","","60","","","","23","","10","","24.1","","100.56","","","","","","NA"
"-65.89","45.32","SAINT JOHN A","8104901","2018-09-07 19:00","2018","09","07","19:00","13.3","","7.9","","69","","","","22","","11","","24.1","","100.54","","","","","","NA"
"-65.89","45.32","SAINT JOHN A","8104901","2018-09-07 20:00","2018","09","07","20:00","11.7","","7.8","","77","","","","21","","8","","24.1","","100.56","","","","","","Mainly Clear"
"-65.89","45.32","SAINT JOHN A","8104901","2018-09-07 21:00","2018","09","07","21:00","7.7","","6.8","","94","","","","36","","2","","24.1","","100.55","","","","","","NA"
"-65.89","45.32","SAINT JOHN A","8104901","2018-09-07 22:00","2018","09","07","22:00","6.2","","5.5","","96","","","","36","","2","","24.1","","100.52","","","","","","NA"
"-65.89","45.32","SAINT JOHN A","8104901","2018-09-07 23:00","2018","09","07","23:00","5.5","","5.0","","96","","","","36","","2","","24.1","","100.47","","","","","","Clear"
"-65.89","45.32","SAINT JOHN A","8104901","2018-09-08 00:00","2018","09","08","00:00","5.7","","5.3","","97","","","","36","","2","","24.1","","100.44","","","","","","NA"
"-65.89","45.32","SAINT JOHN A","8104901","2018-09-08 01:00","2018","09","08","01:00","6.4","","5.8","","96","","","","0","","1","","24.1","","100.41","","","","","","NA"
"-65.89","45.32","SAINT JOHN A","8104901","2018-09-08 02:00","2018","09","08","02:00","4.9","","4.5","","97","","","","36","","3","","24.1","","100.36","","","","","","Mainly Clear"
"-65.89","45.32","SAINT JOHN A","8104901","2018-09-08 03:00","2018","09","08","03:00","5.5","","4.7","","95","","","","2","","4","","24.1","","100.34","","","","","","NA"
"-65.89","45.32","SAINT JOHN A","8104901","2018-09-08 04:00","2018","09","08","04:00","7.2","","6.3","","94","","","","32","","4","","24.1","","100.34","","","","","","NA"
"-65.89","45.32","SAINT JOHN A","8104901","2018-09-08 05:00","2018","09","08","05:00","11.4","","9.3","","87","","","","36","","15","","24.1","","100.37","","","","","","Mainly Clear"
"-65.89","45.32","SAINT JOHN A","8104901","2018-09-08 06:00","2018","09","08","06:00","10.5","","8.8","","90","","","","35","","18","","24.1","","100.42","","","","","","NA"
"-65.89","45.32","SAINT JOHN A","8104901","2018-09-08 07:00","2018","09","08","07:00","11.4","","9.0","","85","","","","35","","23","","24.1","","100.49","","","","","","NA"
"-65.89","45.32","SAINT JOHN A","8104901","2018-09-08 08:00","2018","09","08","08:00","11.4","","9.3","","87","","","","35","","14","","24.1","","100.56","","","","","","Mainly Clear"
"-65.89","45.32","SAINT JOHN A","8104901","2018-09-08 09:00","2018","09","08","09:00","14.5","","7.4","","62","","","","36","","23","","24.1","","100.57","","","","","","NA"
"-65.89","45.32","SAINT JOHN A","8104901","2018-09-08 10:00","2018","09","08","10:00","15.9","","7.5","","57","","","","35","","18","","24.1","","100.59","","","","","","NA"
"-65.89","45.32","SAINT JOHN A","8104901","2018-09-08 11:00","2018","09","08","11:00","16.4","","5.2","","47","","","","35","","17","","24.1","","100.59","","","","","","Mainly Clear"
"-65.89","45.32","SAINT JOHN A","8104901","2018-09-08 12:00","2018","09","08","12:00","17.1","","5.1","","45","","","","36","","18","","24.1","","100.59","","","","","","NA"
"-65.89","45.32","SAINT JOHN A","8104901","2018-09-08 13:00","2018","09","08","13:00","17.8","","3.5","","38","","","","33","","18","","24.1","","100.54","","","","","","NA"
"-65.89","45.32","SAINT JOHN A","8104901","2018-09-08 14:00","2018","09","08","14:00","18.3","","4.0","","38","","","","34","","24","","24.1","","100.55","","","","","","Mainly Clear"
"-65.89","45.32","SAINT JOHN A","8104901","2018-09-08 15:00","2018","09","08","15:00","17.7","","3.8","","39","","","","35","","24","","24.1","","100.54","","","","","","NA"
"-65.89","45.32","SAINT JOHN A","8104901","2018-09-08 16:00","2018","09","08","16:00","17.3","","3.5","","39","","","","34","","24","","24.1","","100.58","","","","","","NA"
"-65.89","45.32","SAINT JOHN A","8104901","2018-09-08 17:00","2018","09","08","17:00","17.1","","3.3","","39","","","","33","","19","","24.1","","100.61","","","","","","Mainly Clear"
"-65.89","45.32","SAINT JOHN A","8104901","2018-09-08 18:00","2018","09","08","18:00","15.1","","3.1","","44","","","","34","","22","","24.1","","100.66","","","","","","NA"
"-65.89","45.32","SAINT JOHN A","8104901","2018-09-08 19:00","2018","09","08","19:00","12.6","","3.6","","54","","","","32","","16","","24.1","","100.75","","","","","","NA"
"-65.89","45.32","SAINT JOHN A","8104901","2018-09-08 20:00","2018","09","08","20:00","11.5","","3.2","","56","","","","34","","16","","24.1","","100.87","","","","","","Mainly Clear"
"-65.89","45.32","SAINT JOHN A","8104901","2018-09-08 21:00","2018","09","08","21:00","10.4","","3.2","","61","","","","34","","14","","24.1","","100.91","","","","","","NA"
"-65.89","45.32","SAINT JOHN A","8104901","2018-09-08 22:00","2018","09","08","22:00","6.5","","3.9","","83","","","","1","","5","","24.1","","100.95","","","","","","NA"
"-65.89","45.32","SAINT JOHN A","8104901","2018-09-08 23:00","2018","09","08","23:00","7.9","","4.8","","81","","","","34","","16","","24.1","","100.95","","","","","","Clear"
"-65.89","45.32","SAINT JOHN A","8104901","2018-09-09 00:00","2018","09","09","00:00","7.8","","4.5","","80","","","","36","","16","","24.1","","100.98","","","","","","NA"
"-65.89","45.32","SAINT JOHN A","8104901","2018-09-09 01:00","2018","09","09","01:00","7.4","","5.0","","84","","","","35","","13","","24.1","","100.99","","","","","","NA"
"-65.89","45.32","SAINT JOHN A","8104901","2018-09-09 02:00","2018","09","09","02:00","4.1","","3.0","","93","","","","7","","5","","24.1","","101.02","","","","","","Clear"
"-65.89","45.32","SAINT JOHN A","8104901","2018-09-09 03:00","2018","09","09","03:00","4.1","","3.5","","96","","","","3","","3","","24.1","","101.03","","","","","","NA"
"-65.89","45.32","SAINT JOHN A","8104901","2018-09-09 04:00","2018","09","09","04:00","6.7","","5.0","","89","","","","36","","16","","24.1","","101.04","","","","","","NA"
"-65.89","45.32","SAINT JOHN A","8104901","2018-09-09 05:00","2018","09","09","05:00","4.6","","3.9","","95","","","","36","","2","","24.1","","101.04","","","","","","Clear"
"-65.89","45.32","SAINT JOHN A","8104901","2018-09-09 06:00","2018","09","09","06:00","3.2","","2.7","","96","","","","33","","6","","24.1","","101.09","","","","","","NA"
"-65.89","45.32","SAINT JOHN A","8104901","2018-09-09 07:00","2018","09","09","07:00","6.9","","5.8","","93","","","","1","","4","","24.1","","101.16","","","","","","NA"
"-65.89","45.32","SAINT JOHN A","8104901","2018-09-09 08:00","2018","09","09","08:00","9.9","","5.2","","73","","","","35","","13","","24.1","","101.22","","","","","","Mainly Clear"
"-65.89","45.32","SAINT JOHN A","8104901","2018-09-09 09:00","2018","09","09","09:00","11.7","","5.5","","65","","","","2","","10","","24.1","","101.25","","","","","","NA"
"-65.89","45.32","SAINT JOHN A","8104901","2018-09-09 10:00","2018","09","09","10:00","14.3","","6.0","","57","","","","1","","9","","24.1","","101.26","","","","","","NA"
"-65.89","45.32","SAINT JOHN A","8104901","2018-09-09 11:00","2018","09","09","11:00","15.2","","4.5","","48","","","","34","","9","","24.1","","101.29","","","","","","Mainly Clear"
"-65.89","45.32","SAINT JOHN A","8104901","2018-09-09 12:00","2018","09","09","12:00","16.8","","4.7","","44","","","","2","","15","","24.1","","101.27","","","","","","NA"
"-65.89","45.32","SAINT JOHN A","8104901","2018-09-09 13:00","2018","09","09","13:00","17.3","","4.0","","41","","","","35","","17","","24.1","","101.25","","","","","","NA"
"-65.89","45.32","SAINT JOHN A","8104901","2018-09-09 14:00","2018","09","09","14:00","17.7","","3.9","","40","","","","2","","10","","24.1","","101.23","","","","","","Mainly Clear"
"-65.89","45.32","SAINT JOHN A","8104901","2018-09-09 15:00","2018","09","09","15:00","18.0","","2.7","","36","","","","2","","9","","24.1","","101.21","","","","","","NA"
"-65.89","45.32","SAINT JOHN A","8104901","2018-09-09 16:00","2018","09","09","16:00","17.6","","2.8","","37","","","","4","","17","","24.1","","101.22","","","","","","NA"
"-65.89","45.32","SAINT JOHN A","8104901","2018-09-09 17:00","2018","09","09","17:00","16.4","","3.8","","43","","","","17","","13","","24.1","","101.27","","","","","","Mainly Clear"
"-65.89","45.32","SAINT JOHN A","8104901","2018-09-09 18:00","2018","09","09","18:00","14.5","","4.9","","52","","","","17","","8","","24.1","","101.32","","","","","","NA"
"-65.89","45.32","SAINT JOHN A","8104901","2018-09-09 19:00","2018","09","09","19:00","8.9","","6.0","","82","","","","36","","2","","24.1","","101.35","","","","","","NA"
"-65.89","45.32","SAINT JOHN A","8104901","2018-09-09 20:00","2018","09","09","20:00","7.3","","5.7","","89","","","","35","","4","","24.1","","101.42","","","","","","Mainly Clear"
"-65.89","45.32","SAINT JOHN A","8104901","2018-09-09 21:00","2018","09","09","21:00","5.6","","4.5","","93","","","","32","","3","","24.1","","101.49","","","","","","NA"
"-65.89","45.32","SAINT JOHN A","8104901","2018-09-09 22:00","2018","09","09","22:00","4.5","","3.9","","95","","","","6","","5","","24.1","","101.55","","","","","","NA"
"-65.89","45.32","SAINT JOHN A","8104901","2018-09-09 23:00","2018","09","09","23:00","3.0","","2.6","","97","","","","6","","6","","24.1","","101.61","","","","","","Clear"
"-65.89","45.32","SAINT JOHN A","8104901","2018-09-10 00:00","2018","09","10","00:00","3.9","","3.3","","96","","","","2","","3","","24.1","","101.66","","","","","","NA"
"-65.89","45.32","SAINT JOHN A","8104901","2018-09-10 01:00","2018","09","10","01:00","2.5","","2.1","","97","","","","36","","3","","24.1","","101.68","","","","","","NA"
"-65.89","45.32","SAINT JOHN A","8104901","2018-09-10 02:00","2018","09","10","02:00","1.7","","1.4","","98","","","","2","","5","","24.1","","101.68","","","","","","Clear"
"-65.89","45.32","SAINT JOHN A","8104901","2018-09-10 03:00","2018","09","10","03:00","2.0","","1.9","","99","","","","3","","4","","24.1","","101.72","","","","","","NA"
"-65.89","45.32","SAINT JOHN A","8104901","2018-09-10 04:00","2018","09","10","04:00","3.8","","3.7","","99","","","","3","","7","","24.1","","101.76","","","","","","NA"
"-65.89","45.32","SAINT JOHN A","8104901","2018-09-10 05:00","2018","09","10","05:00","1.8","","1.6","","99","","","","5","","5","","24.1","","101.80","","","","","","Clear"
"-65.89","45.32","SAINT JOHN A","8104901","2018-09-10 06:00","2018","09","10","06:00","2.7","","2.7","","100","","","","5","","5","","24.1","","101.82","","","","","","NA"
"-65.89","45.32","SAINT JOHN A","8104901","2018-09-10 07:00","2018","09","10","07:00","6.0","","6.0","","100","","","","6","","7","","24.1","","101.87","","","","","","NA"
"-65.89","45.32","SAINT JOHN A","8104901","2018-09-10 08:00","2018","09","10","08:00","13.2","","10.2","","82","","","","10","","14","","24.1","","101.89","","","","","","Mainly Clear"
"-65.89","45.32","SAINT JOHN A","8104901","2018-09-10 09:00","2018","09","10","09:00","15.2","","7.6","","60","","","","10","","17","","24.1","","101.91","","","","","","NA"
"-65.89","45.32","SAINT JOHN A","8104901","2018-09-10 10:00","2018","09","10","10:00","16.1","","7.1","","55","","","","12","","21","","24.1","","101.94","","","","","","NA"
"-65.89","45.32","SAINT JOHN A","8104901","2018-09-10 11:00","2018","09","10","11:00","17.2","","6.0","","47","","","","12","","14","","24.1","","101.96","","","","","","Mainly Clear"
"-65.89","45.32","SAINT JOHN A","8104901","2018-09-10 12:00","2018","09","10","12:00","17.3","","5.7","","46","","","","11","","17","","24.1","","101.94","","","","","","NA"
"-65.89","45.32","SAINT JOHN A","8104901","2018-09-10 13:00","2018","09","10","13:00","17.3","","4.8","","43","","","","12","","17","","24.1","","101.95","","","","","","NA"
"-65.89","45.32","SAINT JOHN A","8104901","2018-09-10 14:00","2018","09","10","14:00","17.7","","1.7","","34","","","","12","","19","","24.1","","101.87","","","","","","Mostly Cloudy"
"-65.89","45.32","SAINT JOHN A","8104901","2018-09-10 15:00","2018","09","10","15:00","17.3","","2.3","","36","","","","17","","14","","24.1","","101.82","","","","","","NA"
"-65.89","45.32","SAINT JOHN A","8104901","2018-09-10 16:00","2018","09","10","16:00","17.8","","4.4","","41","","","","14","","8","","24.1","","101.80","","","","","","NA"
"-65.89","45.32","SAINT JOHN A","8104901","2018-09-10 17:00","2018","09","10","17:00","17.0","","5.0","","45","","","","15","","7","","24.1","","101.77","","","","","","Mostly Cloudy"
"-65.89","45.32","SAINT JOHN A","8104901","2018-09-10 18:00","2018","09","10","18:00","15.1","","7.1","","59","","","","15","","6","","24.1","","101.78","","","","","","NA"
"-65.89","45.32","SAINT JOHN A","8104901","2018-09-10 19:00","2018","09","10","19:00","12.2","","7.6","","73","","","","8","","4","","24.1","","101.76","","","","","","NA"
"-65.89","45.32","SAINT JOHN A","8104901","2018-09-10 20:00","2018","09","10","20:00","8.3","","6.8","","90","","","","3","","4","","24.1","","101.79","","","","","","Cloudy"
"-65.89","45.32","SAINT JOHN A","8104901","2018-09-10 21:00","2018","09","10","21:00","10.3","","5.7","","73","","","","11","","8","","24.1","","101.77","","","","","","NA"
"-65.89","45.32","SAINT JOHN A","8104901","2018-09-10 22:00","2018","09","10","22:00","13.0","","8.7","","75","","","","11","","12","","24.1","","101.77","","","","","","NA"
"-65.89","45.32","SAINT JOHN A","8104901","2018-09-10 23:00","2018","09","10","23:00","13.4","","10.4","","82","","","","14","","15","","24.1","","101.76","","","","","","Cloudy"
"-65.89","45.32","SAINT JOHN A","8104901","2018-09-11 00:00","2018","09","11","00:00","13.7","","11.1","","84","","","","15","","13","","24.1","","101.74","","","","","","NA"
"-65.89","45.32","SAINT JOHN A","8104901","2018-09-11 01:00","2018","09","11","01:00","13.7","","11.0","","83","","","","13","","18","","24.1","","101.74","","","","","","NA"
"-65.89","45.32","SAINT JOHN A","8104901","2018-09-11 02:00","2018","09","11","02:00","13.6","","10.7","","82","","","","13","","18","","24.1","","101.70","","","","","","Cloudy"
"-65.89","45.32","SAINT JOHN A","8104901","2018-09-11 03:00","2018","09","11","03:00","13.6","","10.2","","80","","","","13","","17","","24.1","","101.63","","","","","","NA"
"-65.89","45.32","SAINT JOHN A","8104901","2018-09-11 04:00","2018","09","11","04:00","13.7","","10.1","","78","","","","12","","16","","24.1","","101.56","","","","","","NA"
"-65.89","45.32","SAINT JOHN A","8104901","2018-09-11 05:00","2018","09","11","05:00","13.4","","10.1","","80","","","","11","","15","","24.1","","101.54","","","","","","Cloudy"
"-65.89","45.32","SAINT JOHN A","8104901","2018-09-11 06:00","2018","09","11","06:00","13.6","","10.1","","79","","","","12","","19","","24.1","","101.50","","","","","","Rain"
"-65.89","45.32","SAINT JOHN A","8104901","2018-09-11 07:00","2018","09","11","07:00","13.0","","11.2","","89","","","","13","","16","","24.1","","101.51","","","","","","Rain"
"-65.89","45.32","SAINT JOHN A","8104901","2018-09-11 08:00","2018","09","11","08:00","12.8","","11.9","","94","","","","12","","16","","19.3","","101.50","","","","","","Rain"
"-65.89","45.32","SAINT JOHN A","8104901","2018-09-11 09:00","2018","09","11","09:00","13.1","","12.6","","97","","","","13","","11","","6.4","","101.52","","","","","","Rain,Fog"
"-65.89","45.32","SAINT JOHN A","8104901","2018-09-11 10:00","2018","09","11","10:00","13.7","","13.3","","97","","","","13","","22","","3.2","","101.44","","","","","","Rain,Fog"
"-65.89","45.32","SAINT JOHN A","8104901","2018-09-11 11:00","2018","09","11","11:00","14.7","","14.2","","97","","","","12","","21","","4.8","","101.37","","","","","","Rain,Fog"
"-65.89","45.32","SAINT JOHN A","8104901","2018-09-11 12:00","2018","09","11","12:00","15.0","","14.5","","97","","","","13","","29","","6.4","","101.27","","","","","","Rain,Fog"
"-65.89","45.32","SAINT JOHN A","8104901","2018-09-11 13:00","2018","09","11","13:00","15.9","","15.6","","98","","","","13","","22","","6.4","","101.25","","","","","","Rain,Fog"
"-65.89","45.32","SAINT JOHN A","8104901","2018-09-11 14:00","2018","09","11","14:00","16.9","","16.4","","97","","","","14","","21","","6.4","","101.18","","","","","","Rain,Fog"
"-65.89","45.32","SAINT JOHN A","8104901","2018-09-11 15:00","2018","09","11","15:00","16.7","","16.4","","98","","","","14","","19","","3.2","","101.08","","","","","","Rain,Fog"
"-65.89","45.32","SAINT JOHN A","8104901","2018-09-11 16:00","2018","09","11","16:00","16.9","","16.6","","98","","","","13","","28","","3.2","","100.98","","","","","","Rain,Fog"
"-65.89","45.32","SAINT JOHN A","8104901","2018-09-11 17:00","2018","09","11","17:00","17.1","","16.8","","98","","","","13","","25","","3.2","","100.89","","","","","","Rain,Fog"
"-65.89","45.32","SAINT JOHN A","8104901","2018-09-11 18:00","2018","09","11","18:00","17.5","","17.3","","99","","","","11","","21","","2.4","","100.83","","","","","","Rain,Fog"
"-65.89","45.32","SAINT JOHN A","8104901","2018-09-11 19:00","2018","09","11","19:00","17.6","","17.4","","99","","","","12","","23","","3.2","","100.80","","","","","","Rain,Fog"
"-65.89","45.32","SAINT JOHN A","8104901","2018-09-11 20:00","2018","09","11","20:00","17.7","","17.6","","99","","","","13","","17","","3.2","","100.80","","","","","","Drizzle,Fog"
"-65.89","45.32","SAINT JOHN A","8104901","2018-09-11 21:00","2018","09","11","21:00","17.8","","17.7","","100","","","","19","","19","","3.2","","100.79","","","","","","Drizzle,Fog"
"-65.89","45.32","SAINT JOHN A","8104901","2018-09-11 22:00","2018","09","11","22:00","17.1","","17.1","","100","","","","23","","16","","1.2","","100.78","","","","","","Drizzle,Fog"
"-65.89","45.32","SAINT JOHN A","8104901","2018-09-11 23:00","2018","09","11","23:00","16.2","","16.2","","100","","","","23","","9","","1.2","","100.77","","","","","","Drizzle,Fog"
"-65.89","45.32","SAINT JOHN A","8104901","2018-09-12 00:00","2018","09","12","00:00","16.3","","16.3","","100","","","","27","","6","","0.8","","100.79","","","","","","Drizzle,Fog"
"-65.89","45.32","SAINT JOHN A","8104901","2018-09-12 01:00","2018","09","12","01:00","16.6","","16.6","","100","","","","31","","10","","8.1","","100.83","","","","","","Fog"
"-65.89","45.32","SAINT JOHN A","8104901","2018-09-12 02:00","2018","09","12","02:00","16.9","","16.9","","100","","","","31","","12","","24.1","","100.86","","","","","","Cloudy"
"-65.89","45.32","SAINT JOHN A","8104901","2018-09-12 03:00","2018","09","12","03:00","17.0","","16.8","","99","","","","32","","16","","24.1","","100.89","","","","","","NA"
"-65.89","45.32","SAINT JOHN A","8104901","2018-09-12 04:00","2018","09","12","04:00","17.0","","16.4","","96","","","","35","","20","","24.1","","100.92","","","","","","NA"
"-65.89","45.32","SAINT JOHN A","8104901","2018-09-12 05:00","2018","09","12","05:00","16.1","","15.8","","99","","","","33","","13","","24.1","","100.98","","","","","","Mostly Cloudy"
"-65.89","45.32","SAINT JOHN A","8104901","2018-09-12 06:00","2018","09","12","06:00","16.4","","16.1","","97","","","","34","","11","","24.1","","101.05","","","","","","NA"
"-65.89","45.32","SAINT JOHN A","8104901","2018-09-12 07:00","2018","09","12","07:00","16.6","","15.7","","94","","","","35","","19","","24.1","","101.17","","","","","","NA"
"-65.89","45.32","SAINT JOHN A","8104901","2018-09-12 08:00","2018","09","12","08:00","17.2","","16.0","","92","","","","1","","12","","24.1","","101.21","","","","","","Mostly Cloudy"
"-65.89","45.32","SAINT JOHN A","8104901","2018-09-12 09:00","2018","09","12","09:00","17.4","","15.9","","91","","","","36","","13","","24.1","","101.25","","","","","","NA"
"-65.89","45.32","SAINT JOHN A","8104901","2018-09-12 10:00","2018","09","12","10:00","19.4","","16.4","","83","","","","1","","10","","24.1","","101.26","","","","","","NA"
"-65.89","45.32","SAINT JOHN A","8104901","2018-09-12 11:00","2018","09","12","11:00","19.8","","15.2","","74","","","","36","","18","","24.1","","101.22","","","","","","Mostly Cloudy"
"-65.89","45.32","SAINT JOHN A","8104901","2018-09-12 12:00","2018","09","12","12:00","20.0","","14.6","","71","","","","36","","11","","24.1","","101.22","","","","","","NA"
"-65.89","45.32","SAINT JOHN A","8104901","2018-09-12 13:00","2018","09","12","13:00","20.4","","14.5","","69","","","","36","","15","","24.1","","101.21","","","","","","NA"
"-65.89","45.32","SAINT JOHN A","8104901","2018-09-12 14:00","2018","09","12","14:00","20.7","","14.9","","69","","","","1","","14","","24.1","","101.22","","25","","","","Mostly Cloudy"
"-65.89","45.32","SAINT JOHN A","8104901","2018-09-12 15:00","2018","09","12","15:00","20.1","","14.6","","70","","","","33","","14","","24.1","","101.23","","","","","","NA"
"-65.89","45.32","SAINT JOHN A","8104901","2018-09-12 16:00","2018","09","12","16:00","19.5","","14.8","","74","","","","2","","8","","24.1","","101.22","","","","","","NA"
"-65.89","45.32","SAINT JOHN A","8104901","2018-09-12 17:00","2018","09","12","17:00","19.6","","15.0","","74","","","","28","","6","","24.1","","101.22","","","","","","Cloudy"
"-65.89","45.32","SAINT JOHN A","8104901","2018-09-12 18:00","2018","09","12","18:00","19.1","","15.5","","79","","","","34","","10","","24.1","","101.23","","","","","","NA"
"-65.89","45.32","SAINT JOHN A","8104901","2018-09-12 19:00","2018","09","12","19:00","18.3","","15.6","","84","","","","36","","2","","24.1","","101.24","","","","","","NA"
"-65.89","45.32","SAINT JOHN A","8104901","2018-09-12 20:00","2018","09","12","20:00","17.2","","16.1","","93","","","","20","","3","","24.1","","101.26","","","","","","Cloudy"
"-65.89","45.32","SAINT JOHN A","8104901","2018-09-12 21:00","2018","09","12","21:00","16.6","","15.9","","95","","","","36","","1","","24.1","","101.24","","","","","","NA"
"-65.89","45.32","SAINT JOHN A","8104901","2018-09-12 22:00","2018","09","12","22:00","15.0","","14.6","","97","","","","","","0","","24.1","","101.23","","","","","","NA"
"-65.89","45.32","SAINT JOHN A","8104901","2018-09-12 23:00","2018","09","12","23:00","12.1","","12.1","","100","","","","36","","2","","1.6","","101.22","","","","","","Fog"
"-65.89","45.32","SAINT JOHN A","8104901","2018-09-13 00:00","2018","09","13","00:00","11.1","","11.1","","100","","","","36","","1","","1.6","","101.21","","","","","","Fog"
"-65.89","45.32","SAINT JOHN A","8104901","2018-09-13 01:00","2018","09","13","01:00"
"-65.89","45.32","SAINT JOHN A","8104901","2018-09-13 02:00","2018","09","13","02:00","9.4","","9.4","","100","","","","36","","1","","0.6","","101.24","","","","","","Fog"
"-65.89","45.32","SAINT JOHN A","8104901","2018-09-13 03:00","2018","09","13","03:00","10.1","","10.1","","100","","","","4","","3","","1.6","","101.24","","","","","","Fog"
"-65.89","45.32","SAINT JOHN A","8104901","2018-09-13 04:00","2018","09","13","04:00","9.8","","9.8","","100","","","","35","","3","","0.8","","101.21","","","","","","Fog"
"-65.89","45.32","SAINT JOHN A","8104901","2018-09-13 05:00","2018","09","13","05:00","8.9","","8.9","","100","","","","7","","4","","2.4","","101.22","","","","","","Fog"
"-65.89","45.32","SAINT JOHN A","8104901","2018-09-13 06:00","2018","09","13","06:00","9.3","","9.3","","100","","","","36","","2","","12.9","","101.24","","","","","","NA"
"-65.89","45.32","SAINT JOHN A","8104901","2018-09-13 07:00","2018","09","13","07:00","9.8","","9.8","","100","","","","36","","2","","24.1","","101.25","","","","","","NA"
"-65.89","45.32","SAINT JOHN A","8104901","2018-09-13 08:00","2018","09","13","08:00","15.8","","15.8","","100","","","","2","","8","","24.1","","101.28","","","","","","Mainly Clear"
"-65.89","45.32","SAINT JOHN A","8104901","2018-09-13 09:00","2018","09","13","09:00","17.7","","16.2","","91","","","","1","","5","","24.1","","101.31","","","","","","NA"
"-65.89","45.32","SAINT JOHN A","8104901","2018-09-13 10:00","2018","09","13","10:00","19.3","","16.0","","81","","","","2","","8","","24.1","","101.29","","","","","","NA"
"-65.89","45.32","SAINT JOHN A","8104901","2018-09-13 11:00","2018","09","13","11:00","21.9","","15.7","","68","","","","1","","6","","24.1","","101.26","","26","","","","Mainly Clear"
"-65.89","45.32","SAINT JOHN A","8104901","2018-09-13 12:00","2018","09","13","12:00","22.7","","15.4","","63","","","","1","","4","","24.1","","101.21","","27","","","","NA"
"-65.89","45.32","SAINT JOHN A","8104901","2018-09-13 13:00","2018","09","13","13:00","23.9","","14.8","","56","","","","1","","7","","24.1","","101.18","","28","","","","NA"
"-65.89","45.32","SAINT JOHN A","8104901","2018-09-13 14:00","2018","09","13","14:00","24.8","","14.9","","54","","","","32","","7","","24.1","","101.12","","29","","","","Clear"
"-65.89","45.32","SAINT JOHN A","8104901","2018-09-13 15:00","2018","09","13","15:00","24.5","","15.9","","58","","","","26","","11","","24.1","","101.08","","29","","","","NA"
"-65.89","45.32","SAINT JOHN A","8104901","2018-09-13 16:00","2018","09","13","16:00","23.2","","16.1","","64","","","","22","","13","","24.1","","101.09","","28","","","","NA"
"-65.89","45.32","SAINT JOHN A","8104901","2018-09-13 17:00","2018","09","13","17:00","22.0","","15.9","","68","","","","22","","9","","24.1","","101.10","","27","","","","Clear"
"-65.89","45.32","SAINT JOHN A","8104901","2018-09-13 18:00","2018","09","13","18:00","19.9","","15.7","","77","","","","21","","10","","24.1","","101.12","","","","","","NA"
"-65.89","45.32","SAINT JOHN A","8104901","2018-09-13 19:00","2018","09","13","19:00","17.4","","15.0","","86","","","","23","","4","","24.1","","101.13","","","","","","NA"
"-65.89","45.32","SAINT JOHN A","8104901","2018-09-13 20:00","2018","09","13","20:00","15.3","","14.2","","93","","","","21","","5","","24.1","","101.18","","","","","","Clear"
"-65.89","45.32","SAINT JOHN A","8104901","2018-09-13 21:00","2018","09","13","21:00","12.4","","11.7","","96","","","","","","0","","24.1","","101.19","","","","","","NA"
"-65.89","45.32","SAINT JOHN A","8104901","2018-09-13 22:00","2018","09","13","22:00","11.9","","11.4","","97","","","","0","","1","","24.1","","101.18","","","","","","NA"
"-65.89","45.32","SAINT JOHN A","8104901","2018-09-13 23:00","2018","09","13","23:00","11.1","","10.7","","98","","","","36","","3","","24.1","","101.17","","","","","","Clear"
"-65.89","45.32","SAINT JOHN A","8104901","2018-09-14 00:00","2018","09","14","00:00","10.7","","10.3","","98","","","","36","","2","","24.1","","101.15","","","","","","NA"
"-65.89","45.32","SAINT JOHN A","8104901","2018-09-14 01:00","2018","09","14","01:00","11.4","","11.2","","99","","","","3","","5","","24.1","","101.16","","","","","","NA"
"-65.89","45.32","SAINT JOHN A","8104901","2018-09-14 02:00","2018","09","14","02:00","11.1","","10.9","","99","","","","4","","5","","24.1","","101.17","","","","","","Clear"
"-65.89","45.32","SAINT JOHN A","8104901","2018-09-14 03:00","2018","09","14","03:00","11.1","","10.8","","99","","","","36","","3","","24.1","","101.15","","","","","","NA"
"-65.89","45.32","SAINT JOHN A","8104901","2018-09-14 04:00","2018","09","14","04:00","10.9","","10.7","","99","","","","36","","2","","24.1","","101.15","","","","","","NA"
"-65.89","45.32","SAINT JOHN A","8104901","2018-09-14 05:00","2018","09","14","05:00","10.0","","10.0","","99","","","","8","","5","","24.1","","101.16","","","","","","Clear"
"-65.89","45.32","SAINT JOHN A","8104901","2018-09-14 06:00","2018","09","14","06:00","9.6","","9.3","","98","","","","36","","1","","24.1","","101.23","","","","","","NA"
"-65.89","45.32","SAINT JOHN A","8104901","2018-09-14 07:00","2018","09","14","07:00","12.1","","11.9","","99","","","","36","","3","","24.1","","101.25","","","","","","NA"
"-65.89","45.32","SAINT JOHN A","8104901","2018-09-14 08:00","2018","09","14","08:00","16.5","","14.8","","89","","","","36","","3","","24.1","","101.27","","","","","","Clear"
"-65.89","45.32","SAINT JOHN A","8104901","2018-09-14 09:00","2018","09","14","09:00","20.4","","16.3","","77","","","","17","","3","","24.1","","101.27","","25","","","","NA"
"-65.89","45.32","SAINT JOHN A","8104901","2018-09-14 10:00","2018","09","14","10:00","23.3","","16.8","","66","","","","15","","9","","24.1","","101.27","","28","","","","NA"
"-65.89","45.32","SAINT JOHN A","8104901","2018-09-14 11:00","2018","09","14","11:00","24.2","","16.8","","63","","","","16","","9","","24.1","","101.23","","29","","","","Clear"
"-65.89","45.32","SAINT JOHN A","8104901","2018-09-14 12:00","2018","09","14","12:00","23.9","","16.9","","65","","","","15","","12","","24.1","","101.20","","29","","","","NA"
"-65.89","45.32","SAINT JOHN A","8104901","2018-09-14 13:00","2018","09","14","13:00","25.3","","16.1","","56","","","","20","","17","","24.1","","101.18","","30","","","","NA"
"-65.89","45.32","SAINT JOHN A","8104901","2018-09-14 14:00","2018","09","14","14:00","25.1","","16.4","","58","","","","19","","14","","24.1","","101.14","","30","","","","Mainly Clear"
"-65.89","45.32","SAINT JOHN A","8104901","2018-09-14 15:00","2018","09","14","15:00","24.6","","15.6","","57","","","","22","","17","","24.1","","101.10","","29","","","","NA"
"-65.89","45.32","SAINT JOHN A","8104901","2018-09-14 16:00","2018","09","14","16:00","24.5","","15.9","","58","","","","23","","10","","24.1","","101.08","","29","","","","NA"
"-65.89","45.32","SAINT JOHN A","8104901","2018-09-14 17:00","2018","09","14","17:00","23.5","","15.4","","60","","","","23","","10","","24.1","","101.06","","28","","","","Clear"
"-65.89","45.32","SAINT JOHN A","8104901","2018-09-14 18:00","2018","09","14","18:00","21.2","","15.7","","70","","","","21","","8","","24.1","","101.05","","26","","","","NA"
"-65.89","45.32","SAINT JOHN A","8104901","2018-09-14 19:00","2018","09","14","19:00","18.4","","15.3","","82","","","","19","","4","","24.1","","101.03","","","","","","NA"
"-65.89","45.32","SAINT JOHN A","8104901","2018-09-14 20:00","2018","09","14","20:00","16.1","","14.4","","90","","","","20","","7","","24.1","","101.02","","","","","","Clear"
"-65.89","45.32","SAINT JOHN A","8104901","2018-09-14 21:00","2018","09","14","21:00","14.5","","13.7","","95","","","","19","","5","","24.1","","101.01","","","","","","NA"
"-65.89","45.32","SAINT JOHN A","8104901","2018-09-14 22:00","2018","09","14","22:00","13.7","","13.2","","96","","","","19","","5","","24.1","","101.00","","","","","","NA"
"-65.89","45.32","SAINT JOHN A","8104901","2018-09-14 23:00","2018","09","14","23:00","11.3","","11.0","","98","","","","36","","1","","24.1","","101.00","","","","","","Clear"
"-65.89","45.32","SAINT JOHN A","8104901","2018-09-15 00:00","2018","09","15","00:00","11.6","","11.5","","99","","","","36","","2","","24.1","","101.00","","","","","","NA"
"-65.89","45.32","SAINT JOHN A","8104901","2018-09-15 01:00","2018","09","15","01:00","11.7","","11.3","","97","","","","19","","4","","24.1","","101.00","","","","","","NA"
"-65.89","45.32","SAINT JOHN A","8104901","2018-09-15 02:00","2018","09","15","02:00","11.6","","11.6","","100","","","","20","","6","","24.1","","101.01","","","","","","Clear"
"-65.89","45.32","SAINT JOHN A","8104901","2018-09-15 03:00","2018","09","15","03:00","9.5","","9.3","","99","","","","36","","2","","24.1","","100.97","","","","","","NA"
"-65.89","45.32","SAINT JOHN A","8104901","2018-09-15 04:00","2018","09","15","04:00","9.1","","8.9","","99","","","","36","","1","","8.1","","100.95","","","","","","Fog"
"-65.89","45.32","SAINT JOHN A","8104901","2018-09-15 05:00","2018","09","15","05:00","8.3","","8.2","","99","","","","36","","1","","4.8","","100.93","","","","","","Fog"
"-65.89","45.32","SAINT JOHN A","8104901","2018-09-15 06:00","2018","09","15","06:00","8.3","","8.2","","100","","","","3","","4","","1.6","","100.95","","","","","","Fog"
"-65.89","45.32","SAINT JOHN A","8104901","2018-09-15 07:00","2018","09","15","07:00","10.5","","10.4","","99","","","","19","","5","","3.2","","100.95","","","","","","Fog"
"-65.89","45.32","SAINT JOHN A","8104901","2018-09-15 08:00","2018","09","15","08:00","15.1","","14.2","","94","","","","18","","5","","24.1","","100.97","","","","","","Clear"
"-65.89","45.32","SAINT JOHN A","8104901","2018-09-15 09:00","2018","09","15","09:00","20.1","","15.5","","75","","","","22","","8","","24.1","","100.94","","","","","","NA"
"-65.89","45.32","SAINT JOHN A","8104901","2018-09-15 10:00","2018","09","15","10:00","22.2","","14.0","","59","","","","22","","13","","24.1","","100.92","","26","","","","NA"
"-65.89","45.32","SAINT JOHN A","8104901","2018-09-15 11:00","2018","09","15","11:00","22.5","","14.5","","60","","","","20","","19","","24.1","","100.90","","26","","","","Clear"
"-65.89","45.32","SAINT JOHN A","8104901","2018-09-15 12:00","2018","09","15","12:00","23.1","","15.0","","60","","","","19","","17","","24.1","","100.87","","27","","","","NA"
"-65.89","45.32","SAINT JOHN A","8104901","2018-09-15 13:00","2018","09","15","13:00","22.7","","12.2","","51","","","","22","","22","","24.1","","100.85","","25","","","","NA"
"-65.89","45.32","SAINT JOHN A","8104901","2018-09-15 14:00","2018","09","15","14:00","22.8","","12.9","","53","","","","21","","25","","24.1","","100.84","","26","","","","Clear"
"-65.89","45.32","SAINT JOHN A","8104901","2018-09-15 15:00","2018","09","15","15:00","21.8","","13.1","","57","","","","22","","28","","24.1","","100.80","","25","","","","NA"
"-65.89","45.32","SAINT JOHN A","8104901","2018-09-15 16:00","2018","09","15","16:00","19.8","","14.7","","72","","","","21","","19","","24.1","","100.77","","","","","","NA"
"-65.89","45.32","SAINT JOHN A","8104901","2018-09-15 17:00","2018","09","15","17:00","18.9","","14.7","","76","","","","20","","14","","24.1","","100.79","","","","","","Clear"
"-65.89","45.32","SAINT JOHN A","8104901","2018-09-15 18:00","2018","09","15","18:00","16.6","","13.9","","84","","","","19","","16","","24.1","","100.79","","","","","","NA"
"-65.89","45.32","SAINT JOHN A","8104901","2018-09-15 19:00","2018","09","15","19:00","14.0","","13.5","","97","","","","20","","11","","24.1","","100.79","","","","","","NA"
"-65.89","45.32","SAINT JOHN A","8104901","2018-09-15 20:00","2018","09","15","20:00","13.6","","13.5","","99","","","","21","","13","","1.2","","100.80","","","","","","Fog"
"-65.89","45.32","SAINT JOHN A","8104901","2018-09-15 21:00","2018","09","15","21:00","13.2","","13.2","","100","","","","21","","14","","1.6","","100.77","","","","","","Fog"
"-65.89","45.32","SAINT JOHN A","8104901","2018-09-15 22:00","2018","09","15","22:00","13.2","","13.2","","99","","","","21","","10","","3.2","","100.78","","","","","","Fog"
"-65.89","45.32","SAINT JOHN A","8104901","2018-09-15 23:00","2018","09","15","23:00","13.3","","13.2","","99","","","","21","","13","","3.2","","100.76","","","","","","Fog"
"-65.89","45.32","SAINT JOHN A","8104901","2018-09-16 00:00","2018","09","16","00:00","13.0","","12.9","","99","","","","22","","12","","3.2","","100.77","","","","","","Fog"
"-65.89","45.32","SAINT JOHN A","8104901","2018-09-16 01:00","2018","09","16","01:00","12.8","","12.8","","100","","","","22","","10","","0.6","","100.75","","","","","","Fog"
"-65.89","45.32","SAINT JOHN A","8104901","2018-09-16 02:00","2018","09","16","02:00","12.4","","12.4","","100","","","","22","","12","","0.6","","100.74","","","","","","Fog"
"-65.89","45.32","SAINT JOHN A","8104901","2018-09-16 03:00","2018","09","16","03:00","12.5","","12.5","","100","","","","20","","11","","0.4","","100.71","","","","","","Fog"
"-65.89","45.32","SAINT JOHN A","8104901","2018-09-16 04:00","2018","09","16","04:00","12.6","","12.6","","100","","","","21","","9","","0.6","","100.72","","","","","","Fog"
"-65.89","45.32","SAINT JOHN A","8104901","2018-09-16 05:00","2018","09","16","05:00","12.7","","12.7","","100","","","","22","","6","","0.4","","100.72","","","","","","Fog"
"-65.89","45.32","SAINT JOHN A","8104901","2018-09-16 06:00","2018","09","16","06:00","12.7","","12.7","","100","","","","25","","3","","0.2","","100.77","","","","","","Fog"
"-65.89","45.32","SAINT JOHN A","8104901","2018-09-16 07:00","2018","09","16","07:00","12.8","","12.8","","100","","","","20","","8","","0.2","","100.79","","","","","","Fog"
"-65.89","45.32","SAINT JOHN A","8104901","2018-09-16 08:00","2018","09","16","08:00","13.1","","13.1","","100","","","","36","","3","","0.8","","100.83","","","","","","Fog"
"-65.89","45.32","SAINT JOHN A","8104901","2018-09-16 09:00","2018","09","16","09:00","14.8","","14.8","","100","","","","34","","5","","4.8","","100.89","","","","","","Fog"
"-65.89","45.32","SAINT JOHN A","8104901","2018-09-16 10:00","2018","09","16","10:00","20.4","","16.5","","78","","","","2","","13","","24.1","","100.93","","25","","","","NA"
"-65.89","45.32","SAINT JOHN A","8104901","2018-09-16 11:00","2018","09","16","11:00","22.8","","17.2","","71","","","","35","","14","","24.1","","100.92","","28","","","","Mainly Clear"
"-65.89","45.32","SAINT JOHN A","8104901","2018-09-16 12:00","2018","09","16","12:00","24.5","","16.3","","60","","","","1","","21","","24.1","","100.94","","29","","","","NA"
"-65.89","45.32","SAINT JOHN A","8104901","2018-09-16 13:00","2018","09","16","13:00","23.7","","16.5","","64","","","","1","","18","","24.1","","100.96","","29","","","","NA"
"-65.89","45.32","SAINT JOHN A","8104901","2018-09-16 14:00","2018","09","16","14:00","23.1","","16.7","","67","","","","1","","15","","24.1","","100.96","","28","","","","Mostly Cloudy"
"-65.89","45.32","SAINT JOHN A","8104901","2018-09-16 15:00","2018","09","16","15:00","22.6","","17.0","","70","","","","19","","4","","24.1","","100.95","","28","","","","NA"
"-65.89","45.32","SAINT JOHN A","8104901","2018-09-16 16:00","2018","09","16","16:00","22.7","","16.7","","68","","","","12","","10","","24.1","","100.93","","28","","","","NA"
"-65.89","45.32","SAINT JOHN A","8104901","2018-09-16 17:00","2018","09","16","17:00","21.2","","15.8","","71","","","","16","","8","","24.1","","100.97","","26","","","","Mainly Clear"
"-65.89","45.32","SAINT JOHN A","8104901","2018-09-16 18:00","2018","09","16","18:00","19.6","","14.9","","74","","","","14","","5","","24.1","","101.00","","","","","","NA"
"-65.89","45.32","SAINT JOHN A","8104901","2018-09-16 19:00","2018","09","16","19:00","16.9","","14.6","","86","","","","5","","3","","24.1","","100.98","","","","","","NA"
"-65.89","45.32","SAINT JOHN A","8104901","2018-09-16 20:00","2018","09","16","20:00","13.6","","12.8","","95","","","","36","","3","","24.1","","101.00","","","","","","Clear"
"-65.89","45.32","SAINT JOHN A","8104901","2018-09-16 21:00","2018","09","16","21:00","14.1","","13.1","","94","","","","36","","3","","24.1","","101.01","","","","","","NA"
"-65.89","45.32","SAINT JOHN A","8104901","2018-09-16 22:00","2018","09","16","22:00","11.7","","11.2","","97","","","","0","","1","","24.1","","100.96","","","","","","NA"
"-65.89","45.32","SAINT JOHN A","8104901","2018-09-16 23:00","2018","09","16","23:00","11.0","","10.6","","97","","","","36","","1","","24.1","","100.98","","","","","","Clear"
"-65.89","45.32","SAINT JOHN A","8104901","2018-09-17 00:00","2018","09","17","00:00","10.8","","10.3","","97","","","","","","0","","24.1","","101.00","","","","","","NA"
"-65.89","45.32","SAINT JOHN A","8104901","2018-09-17 01:00","2018","09","17","01:00","10.4","","9.9","","97","","","","","","0","","24.1","","100.94","","","","","","NA"
"-65.89","45.32","SAINT JOHN A","8104901","2018-09-17 02:00","2018","09","17","02:00","9.6","","9.4","","99","","","","6","","5","","24.1","","100.88","","","","","","Clear"
"-65.89","45.32","SAINT JOHN A","8104901","2018-09-17 03:00","2018","09","17","03:00","10.1","","9.5","","96","","","","36","","2","","9.7","","100.84","","","","","","Fog"
"-65.89","45.32","SAINT JOHN A","8104901","2018-09-17 04:00","2018","09","17","04:00","9.1","","8.9","","99","","","","2","","4","","9.7","","100.79","","","","","","Fog"
"-65.89","45.32","SAINT JOHN A","8104901","2018-09-17 05:00","2018","09","17","05:00","9.9","","9.6","","97","","","","36","","2","","1.2","","100.74","","","","","","Fog"
"-65.89","45.32","SAINT JOHN A","8104901","2018-09-17 06:00","2018","09","17","06:00","11.1","","10.8","","98","","","","18","","4","","4.8","","100.72","","","","","","Fog"
"-65.89","45.32","SAINT JOHN A","8104901","2018-09-17 07:00","2018","09","17","07:00","12.8","","12.8","","100","","","","19","","8","","0.4","","100.69","","","","","","Fog"
"-65.89","45.32","SAINT JOHN A","8104901","2018-09-17 08:00","2018","09","17","08:00","13.9","","13.9","","100","","","","20","","15","","0.8","","100.65","","","","","","Fog"
"-65.89","45.32","SAINT JOHN A","8104901","2018-09-17 09:00","2018","09","17","09:00","15.1","","15.1","","100","","","","18","","10","","0.8","","100.63","","","","","","Fog"
"-65.89","45.32","SAINT JOHN A","8104901","2018-09-17 10:00","2018","09","17","10:00","18.7","","16.0","","84","","","","20","","19","","24.1","","100.58","","","","","","NA"
"-65.89","45.32","SAINT JOHN A","8104901","2018-09-17 11:00","2018","09","17","11:00","17.7","","15.6","","88","","","","20","","24","","24.1","","100.52","","","","","","Mostly Cloudy"
"-65.89","45.32","SAINT JOHN A","8104901","2018-09-17 12:00","2018","09","17","12:00","17.6","","16.3","","92","","","","21","","18","","1.6","","100.45","","","","","","Fog"
"-65.89","45.32","SAINT JOHN A","8104901","2018-09-17 13:00","2018","09","17","13:00","19.3","","16.2","","82","","","","22","","26","","24.1","","100.37","","","","","","NA"
"-65.89","45.32","SAINT JOHN A","8104901","2018-09-17 14:00","2018","09","17","14:00","19.3","","16.4","","83","","","","20","","26","","24.1","","100.29","","","","","","Mainly Clear"
"-65.89","45.32","SAINT JOHN A","8104901","2018-09-17 15:00","2018","09","17","15:00","18.0","","15.9","","87","","","","21","","26","","16.1","","100.25","","","","","","NA"
"-65.89","45.32","SAINT JOHN A","8104901","2018-09-17 16:00","2018","09","17","16:00","16.5","","15.6","","94","","","","21","","25","","4.8","","100.17","","","","","","Fog"
"-65.89","45.32","SAINT JOHN A","8104901","2018-09-17 17:00","2018","09","17","17:00","16.2","","15.7","","97","","","","21","","28","","1.6","","100.11","","","","","","Fog"
"-65.89","45.32","SAINT JOHN A","8104901","2018-09-17 18:00","2018","09","17","18:00","15.6","","15.4","","99","","","","21","","22","","0.8","","100.08","","","","","","Fog"
"-65.89","45.32","SAINT JOHN A","8104901","2018-09-17 19:00","2018","09","17","19:00","15.7","","15.7","","100","","","","22","","23","","0.8","","100.04","","","","","","Fog"
"-65.89","45.32","SAINT JOHN A","8104901","2018-09-17 20:00","2018","09","17","20:00","15.8","","15.8","","100","","","","22","","18","","0.8","","100.02","","","","","","Fog"
"-65.89","45.32","SAINT JOHN A","8104901","2018-09-17 21:00","2018","09","17","21:00","15.9","","15.9","","100","","","","20","","22","","0.8","","99.99","","","","","","Fog"
"-65.89","45.32","SAINT JOHN A","8104901","2018-09-17 22:00","2018","09","17","22:00","15.6","","15.6","","100","","","","21","","18","","0.8","","99.92","","","","","","Fog"
"-65.89","45.32","SAINT JOHN A","8104901","2018-09-17 23:00","2018","09","17","23:00","15.5","","15.5","","100","","","","20","","22","","0.8","","99.87","","","","","","Fog"
"-65.89","45.32","SAINT JOHN A","8104901","2018-09-18 00:00","2018","09","18","00:00","15.8","","15.8","","100","","","","21","","17","","0.8","","99.84","","","","","","Fog"
"-65.89","45.32","SAINT JOHN A","8104901","2018-09-18 01:00","2018","09","18","01:00","15.6","","15.6","","100","","","","21","","16","","0.8","","99.74","","","","","","Fog"
"-65.89","45.32","SAINT JOHN A","8104901","2018-09-18 02:00","2018","09","18","02:00","15.4","","15.4","","100","","","","21","","11","","0.8","","99.68","","","","","","Fog"
"-65.89","45.32","SAINT JOHN A","8104901","2018-09-18 03:00","2018","09","18","03:00","15.4","","15.4","","100","","","","21","","14","","0.8","","99.63","","","","","","Fog"
"-65.89","45.32","SAINT JOHN A","8104901","2018-09-18 04:00","2018","09","18","04:00","15.4","","15.4","","100","","","","21","","13","","1.0","","99.59","","","","","","Fog"
"-65.89","45.32","SAINT JOHN A","8104901","2018-09-18 05:00","2018","09","18","05:00","15.3","","15.3","","100","","","","21","","12","","1.2","","99.59","","","","","","Fog"
"-65.89","45.32","SAINT JOHN A","8104901","2018-09-18 06:00","2018","09","18","06:00","15.1","","15.1","","100","","","","19","","3","","0.8","","99.60","","","","","","Fog"
"-65.89","45.32","SAINT JOHN A","8104901","2018-09-18 07:00","2018","09","18","07:00","15.2","","15.2","","100","","","","20","","10","","0.2","","99.61","","","","","","Fog"
"-65.89","45.32","SAINT JOHN A","8104901","2018-09-18 08:00","2018","09","18","08:00","16.4","","16.4","","100","","","","20","","11","","0.8","","99.58","","","","","","Fog"
"-65.89","45.32","SAINT JOHN A","8104901","2018-09-18 09:00","2018","09","18","09:00","17.7","","17.5","","99","","","","21","","13","","8.1","","99.57","","","","","","Fog"
"-65.89","45.32","SAINT JOHN A","8104901","2018-09-18 10:00","2018","09","18","10:00","18.9","","17.1","","89","","","","19","","11","","19.3","","99.58","","","","","","NA"
"-65.89","45.32","SAINT JOHN A","8104901","2018-09-18 11:00","2018","09","18","11:00","22.6","","18.1","","75","","","","25","","12","","24.1","","99.53","","29","","","","Mostly Cloudy"
"-65.89","45.32","SAINT JOHN A","8104901","2018-09-18 12:00","2018","09","18","12:00","22.7","","18.6","","77","","","","21","","17","","24.1","","99.50","","29","","","","NA"
"-65.89","45.32","SAINT JOHN A","8104901","2018-09-18 13:00","2018","09","18","13:00","19.9","","16.9","","83","","","","18","","16","","24.1","","99.46","","","","","","NA"
"-65.89","45.32","SAINT JOHN A","8104901","2018-09-18 14:00","2018","09","18","14:00","18.9","","16.8","","87","","","","24","","5","","24.1","","99.46","","","","","","Cloudy"
"-65.89","45.32","SAINT JOHN A","8104901","2018-09-18 15:00","2018","09","18","15:00","20.3","","17.8","","85","","","","19","","9","","24.1","","99.44","","26","","","","NA"
"-65.89","45.32","SAINT JOHN A","8104901","2018-09-18 16:00","2018","09","18","16:00","18.3","","16.0","","86","","","","2","","20","","24.1","","99.43","","","","","","NA"
"-65.89","45.32","SAINT JOHN A","8104901","2018-09-18 17:00","2018","09","18","17:00","16.6","","14.8","","89","","","","3","","23","","19.3","","99.48","","","","","","Cloudy"
"-65.89","45.32","SAINT JOHN A","8104901","2018-09-18 18:00","2018","09","18","18:00","15.9","","14.4","","91","","","","3","","19","","19.3","","99.49","","","","","","NA"
"-65.89","45.32","SAINT JOHN A","8104901","2018-09-18 19:00","2018","09","18","19:00","15.5","","13.8","","89","","","","3","","16","","24.1","","99.52","","","","","","NA"
"-65.89","45.32","SAINT JOHN A","8104901","2018-09-18 20:00","2018","09","18","20:00","14.9","","13.3","","91","","","","3","","25","","24.1","","99.59","","","","","","Cloudy"
"-65.89","45.32","SAINT JOHN A","8104901","2018-09-18 21:00","2018","09","18","21:00","14.6","","12.6","","87","","","","3","","23","","24.1","","99.68","","","","","","NA"
"-65.89","45.32","SAINT JOHN A","8104901","2018-09-18 22:00","2018","09","18","22:00","13.7","","12.1","","90","","","","3","","23","","8.1","","99.67","","","","","","Drizzle"
"-65.89","45.32","SAINT JOHN A","8104901","2018-09-18 23:00","2018","09","18","23:00","13.5","","11.5","","88","","","","2","","19","","9.7","","99.70","","","","","","Drizzle"
"-65.89","45.32","SAINT JOHN A","8104901","2018-09-19 00:00","2018","09","19","00:00","13.3","","11.2","","87","","","","2","","19","","12.9","","99.74","","","","","","Drizzle"
"-65.89","45.32","SAINT JOHN A","8104901","2018-09-19 01:00","2018","09","19","01:00","12.8","","11.0","","89","","","","2","","24","","24.1","","99.73","","","","","","NA"
"-65.89","45.32","SAINT JOHN A","8104901","2018-09-19 02:00","2018","09","19","02:00","12.1","","11.5","","96","","","","1","","21","","9.7","","99.75","","","","","","Drizzle"
"-65.89","45.32","SAINT JOHN A","8104901","2018-09-19 03:00","2018","09","19","03:00","11.7","","11.4","","98","","","","2","","14","","9.7","","99.78","","","","","","Drizzle"
"-65.89","45.32","SAINT JOHN A","8104901","2018-09-19 04:00","2018","09","19","04:00","11.9","","11.6","","98","","","","2","","17","","8.1","","99.80","","","","","","Drizzle"
"-65.89","45.32","SAINT JOHN A","8104901","2018-09-19 05:00","2018","09","19","05:00","11.5","","11.2","","98","","","","3","","19","","8.1","","99.84","","","","","","Drizzle"
"-65.89","45.32","SAINT JOHN A","8104901","2018-09-19 06:00","2018","09","19","06:00","11.3","","11.1","","99","","","","2","","18","","4.8","","99.95","","","","","","Drizzle"
"-65.89","45.32","SAINT JOHN A","8104901","2018-09-19 07:00","2018","09","19","07:00","11.5","","11.2","","98","","","","2","","20","","3.2","","100.00","","","","","","Drizzle,Fog"
"-65.89","45.32","SAINT JOHN A","8104901","2018-09-19 08:00","2018","09","19","08:00","11.8","","11.6","","99","","","","2","","22","","3.2","","100.06","","","","","","Drizzle,Fog"
"-65.89","45.32","SAINT JOHN A","8104901","2018-09-19 09:00","2018","09","19","09:00","12.1","","11.7","","98","","","","2","","21","","4.8","","100.16","","","","","","Fog"
"-65.89","45.32","SAINT JOHN A","8104901","2018-09-19 10:00","2018","09","19","10:00","13.3","","12.7","","96","","","","2","","21","","3.2","","100.19","","","","","","Fog"
"-65.89","45.32","SAINT JOHN A","8104901","2018-09-19 11:00","2018","09","19","11:00","14.9","","12.9","","87","","","","4","","19","","12.9","","100.22","","","","","","Cloudy"
"-65.89","45.32","SAINT JOHN A","8104901","2018-09-19 12:00","2018","09","19","12:00","15.7","","12.5","","81","","","","2","","22","","19.3","","100.23","","","","","","NA"
"-65.89","45.32","SAINT JOHN A","8104901","2018-09-19 13:00","2018","09","19","13:00","16.4","","12.8","","79","","","","2","","18","","19.3","","100.24","","","","","","NA"
"-65.89","45.32","SAINT JOHN A","8104901","2018-09-19 14:00","2018","09","19","14:00","15.7","","12.1","","79","","","","4","","19","","19.3","","100.26","","","","","","Cloudy"
"-65.89","45.32","SAINT JOHN A","8104901","2018-09-19 15:00","2018","09","19","15:00","15.1","","12.6","","85","","","","3","","27","","19.3","","100.30","","","","","","NA"
"-65.89","45.32","SAINT JOHN A","8104901","2018-09-19 16:00","2018","09","19","16:00","14.8","","12.3","","85","","","","2","","22","","12.9","","100.36","","","","","","NA"
"-65.89","45.32","SAINT JOHN A","8104901","2018-09-19 17:00","2018","09","19","17:00","12.8","","12.1","","96","","","","3","","20","","4.8","","100.43","","","","","","Fog"
"-65.89","45.32","SAINT JOHN A","8104901","2018-09-19 18:00","2018","09","19","18:00","12.7","","11.2","","91","","","","2","","19","","8.1","","100.53","","","","","","Fog"
"-65.89","45.32","SAINT JOHN A","8104901","2018-09-19 19:00","2018","09","19","19:00","11.5","","10.1","","91","","","","3","","22","","24.1","","100.62","","","","","","NA"
"-65.89","45.32","SAINT JOHN A","8104901","2018-09-19 20:00","2018","09","19","20:00","10.6","","8.5","","87","","","","2","","27","","24.1","","100.68","","","","","","Mostly Cloudy"
"-65.89","45.32","SAINT JOHN A","8104901","2018-09-19 21:00","2018","09","19","21:00","9.9","","8.3","","90","","","","3","","22","","24.1","","100.72","","","","","","NA"
"-65.89","45.32","SAINT JOHN A","8104901","2018-09-19 22:00","2018","09","19","22:00","10.2","","8.6","","90","","","","3","","14","","24.1","","100.77","","","","","","NA"
"-65.89","45.32","SAINT JOHN A","8104901","2018-09-19 23:00","2018","09","19","23:00","9.8","","8.7","","93","","","","2","","13","","24.1","","100.80","","","","","","Mostly Cloudy"
"-65.89","45.32","SAINT JOHN A","8104901","2018-09-20 00:00","2018","09","20","00:00","9.7","","8.9","","95","","","","1","","17","","24.1","","100.82","","","","","","NA"
"-65.89","45.32","SAINT JOHN A","8104901","2018-09-20 01:00","2018","09","20","01:00","9.6","","9.0","","96","","","","2","","18","","24.1","","100.85","","","","","","NA"
"-65.89","45.32","SAINT JOHN A","8104901","2018-09-20 02:00","2018","09","20","02:00","9.2","","8.8","","97","","","","2","","13","","24.1","","100.88","","","","","","Mostly Cloudy"
"-65.89","45.32","SAINT JOHN A","8104901","2018-09-20 03:00","2018","09","20","03:00","9.1","","8.8","","98","","","","2","","16","","24.1","","100.91","","","","","","NA"
"-65.89","45.32","SAINT JOHN A","8104901","2018-09-20 04:00","2018","09","20","04:00","8.8","","8.5","","98","","","","5","","7","","24.1","","100.95","","","","","","NA"
"-65.89","45.32","SAINT JOHN A","8104901","2018-09-20 05:00","2018","09","20","05:00","8.8","","8.4","","97","","","","1","","15","","24.1","","100.97","","","","","","Mainly Clear"
"-65.89","45.32","SAINT JOHN A","8104901","2018-09-20 06:00","2018","09","20","06:00","8.0","","7.7","","98","","","","2","","13","","24.1","","100.99","","","","","","NA"
"-65.89","45.32","SAINT JOHN A","8104901","2018-09-20 07:00","2018","09","20","07:00","9.2","","8.2","","93","","","","1","","16","","24.1","","101.07","","","","","","NA"
"-65.89","45.32","SAINT JOHN A","8104901","2018-09-20 08:00","2018","09","20","08:00","10.7","","7.9","","83","","","","1","","17","","24.1","","101.12","","","","","","Mainly Clear"
"-65.89","45.32","SAINT JOHN A","8104901","2018-09-20 09:00","2018","09","20","09:00","11.4","","6.5","","72","","","","1","","21","","24.1","","101.18","","","","","","NA"
"-65.89","45.32","SAINT JOHN A","8104901","2018-09-20 10:00","2018","09","20","10:00","12.2","","6.9","","70","","","","2","","14","","24.1","","101.23","","","","","","NA"
"-65.89","45.32","SAINT JOHN A","8104901","2018-09-20 11:00","2018","09","20","11:00","13.7","","7.2","","65","","","","1","","18","","24.1","","101.22","","","","","","Mostly Cloudy"
"-65.89","45.32","SAINT JOHN A","8104901","2018-09-20 12:00","2018","09","20","12:00","14.3","","5.6","","56","","","","36","","6","","24.1","","101.21","","","","","","NA"
"-65.89","45.32","SAINT JOHN A","8104901","2018-09-20 13:00","2018","09","20","13:00","15.3","","5.9","","53","","","","5","","9","","24.1","","101.18","","","","","","NA"
"-65.89","45.32","SAINT JOHN A","8104901","2018-09-20 14:00","2018","09","20","14:00","16.1","","5.2","","48","","","","35","","11","","24.1","","101.16","","","","","","Mostly Cloudy"
"-65.89","45.32","SAINT JOHN A","8104901","2018-09-20 15:00","2018","09","20","15:00","14.3","","5.6","","55","","","","4","","16","","24.1","","101.08","","","","","","NA"
"-65.89","45.32","SAINT JOHN A","8104901","2018-09-20 16:00","2018","09","20","16:00","16.2","","6.1","","51","","","","3","","15","","24.1","","101.10","","","","","","NA"
"-65.89","45.32","SAINT JOHN A","8104901","2018-09-20 17:00","2018","09","20","17:00","13.8","","7.0","","63","","","","4","","8","","24.1","","101.11","","","","","","Cloudy"
"-65.89","45.32","SAINT JOHN A","8104901","2018-09-20 18:00","2018","09","20","18:00","12.7","","8.2","","74","","","","18","","10","","24.1","","101.18","","","","","","NA"
"-65.89","45.32","SAINT JOHN A","8104901","2018-09-20 19:00","2018","09","20","19:00","11.7","","8.8","","82","","","","17","","5","","24.1","","101.24","","","","","","NA"
"-65.89","45.32","SAINT JOHN A","8104901","2018-09-20 20:00","2018","09","20","20:00","11.1","","8.6","","84","","","","36","","3","","24.1","","101.28","","","","","","Mostly Cloudy"
"-65.89","45.32","SAINT JOHN A","8104901","2018-09-20 21:00","2018","09","20","21:00","7.7","","6.7","","94","","","","36","","2","","24.1","","101.33","","","","","","NA"
"-65.89","45.32","SAINT JOHN A","8104901","2018-09-20 22:00","2018","09","20","22:00","8.5","","7.8","","95","","","","36","","2","","24.1","","101.35","","","","","","NA"
"-65.89","45.32","SAINT JOHN A","8104901","2018-09-20 23:00","2018","09","20","23:00","8.4","","7.8","","96","","","","36","","2","","24.1","","101.39","","","","","","Cloudy"
"-65.89","45.32","SAINT JOHN A","8104901","2018-09-21 00:00","2018","09","21","00:00","7.2","","6.7","","97","","","","36","","3","","24.1","","101.41","","","","","","NA"
"-65.89","45.32","SAINT JOHN A","8104901","2018-09-21 01:00","2018","09","21","01:00","7.6","","7.0","","96","","","","36","","4","","24.1","","101.39","","","","","","NA"
"-65.89","45.32","SAINT JOHN A","8104901","2018-09-21 02:00","2018","09","21","02:00","5.9","","5.4","","97","","","","36","","2","","24.1","","101.38","","","","","","Mostly Cloudy"
"-65.89","45.32","SAINT JOHN A","8104901","2018-09-21 03:00","2018","09","21","03:00","4.1","","3.8","","98","","","","36","","1","","24.1","","101.38","","","","","","NA"
"-65.89","45.32","SAINT JOHN A","8104901","2018-09-21 04:00","2018","09","21","04:00","3.0","","2.8","","99","","","","2","","4","","24.1","","101.38","","","","","","NA"
"-65.89","45.32","SAINT JOHN A","8104901","2018-09-21 05:00","2018","09","21","05:00","4.2","","4.1","","99","","","","3","","5","","24.1","","101.35","","","","","","Mainly Clear"
"-65.89","45.32","SAINT JOHN A","8104901","2018-09-21 06:00","2018","09","21","06:00","1.6","","1.5","","99","","","","5","","3","","19.3","","101.37","","","","","","NA"
"-65.89","45.32","SAINT JOHN A","8104901","2018-09-21 07:00","2018","09","21","07:00","3.0","","2.9","","100","","","","36","","2","","24.1","","101.42","","","","","","NA"
"-65.89","45.32","SAINT JOHN A","8104901","2018-09-21 08:00","2018","09","21","08:00","10.0","","9.1","","94","","","","36","","2","","24.1","","101.37","","","","","","Mainly Clear"
"-65.89","45.32","SAINT JOHN A","8104901","2018-09-21 09:00","2018","09","21","09:00","14.0","","10.3","","78","","","","17","","11","","24.1","","101.42","","","","","","NA"
"-65.89","45.32","SAINT JOHN A","8104901","2018-09-21 10:00","2018","09","21","10:00","14.6","","8.8","","68","","","","18","","12","","24.1","","101.37","","","","","","NA"
"-65.89","45.32","SAINT JOHN A","8104901","2018-09-21 11:00","2018","09","21","11:00","15.3","","8.5","","63","","","","18","","18","","24.1","","101.33","","","","","","Mostly Cloudy"
"-65.89","45.32","SAINT JOHN A","8104901","2018-09-21 12:00","2018","09","21","12:00","14.6","","7.7","","63","","","","18","","18","","24.1","","101.26","","","","","","NA"
"-65.89","45.32","SAINT JOHN A","8104901","2018-09-21 13:00","2018","09","21","13:00","14.8","","7.6","","62","","","","16","","16","","24.1","","101.17","","","","","","NA"
"-65.89","45.32","SAINT JOHN A","8104901","2018-09-21 14:00","2018","09","21","14:00","14.6","","5.8","","56","","","","18","","19","","24.1","","101.04","","","","","","Cloudy"
"-65.89","45.32","SAINT JOHN A","8104901","2018-09-21 15:00","2018","09","21","15:00","14.4","","8.0","","65","","","","18","","17","","24.1","","100.93","","","","","","NA"
"-65.89","45.32","SAINT JOHN A","8104901","2018-09-21 16:00","2018","09","21","16:00","14.1","","8.0","","67","","","","19","","18","","24.1","","100.83","","","","","","NA"
"-65.89","45.32","SAINT JOHN A","8104901","2018-09-21 17:00","2018","09","21","17:00","12.5","","9.4","","81","","","","17","","16","","24.1","","100.64","","","","","","Rain Showers"
"-65.89","45.32","SAINT JOHN A","8104901","2018-09-21 18:00","2018","09","21","18:00","12.6","","9.9","","84","","","","17","","17","","24.1","","100.58","","","","","","NA"
"-65.89","45.32","SAINT JOHN A","8104901","2018-09-21 19:00","2018","09","21","19:00","12.6","","10.8","","89","","","","16","","18","","16.1","","100.42","","","","","","Rain Showers"
"-65.89","45.32","SAINT JOHN A","8104901","2018-09-21 20:00","2018","09","21","20:00","13.8","","11.0","","83","","","","17","","22","","16.1","","100.35","","","","","","Rain Showers"
"-65.89","45.32","SAINT JOHN A","8104901","2018-09-21 21:00","2018","09","21","21:00","14.6","","11.4","","81","","","","18","","30","","24.1","","100.20","","","","","","NA"
"-65.89","45.32","SAINT JOHN A","8104901","2018-09-21 22:00","2018","09","21","22:00","14.8","","12.1","","84","","","","19","","30","","24.1","","100.09","","","","","","NA"
"-65.89","45.32","SAINT JOHN A","8104901","2018-09-21 23:00","2018","09","21","23:00","15.7","","12.7","","82","","","","20","","40","","24.1","","99.99","","","","","","Cloudy"
"-65.89","45.32","SAINT JOHN A","8104901","2018-09-22 00:00","2018","09","22","00:00","15.7","","13.3","","86","","","","20","","43","","16.1","","99.82","","","","","","NA"
"-65.89","45.32","SAINT JOHN A","8104901","2018-09-22 01:00","2018","09","22","01:00","15.7","","14.0","","90","","","","20","","54","","12.9","","99.63","","","","","","NA"
"-65.89","45.32","SAINT JOHN A","8104901","2018-09-22 02:00","2018","09","22","02:00","15.4","","14.0","","91","","","","20","","48","","12.9","","99.55","","","","","","Cloudy"
"-65.89","45.32","SAINT JOHN A","8104901","2018-09-22 03:00","2018","09","22","03:00","15.7","","14.0","","90","","","","20","","49","","12.9","","99.41","","","","","","NA"
"-65.89","45.32","SAINT JOHN A","8104901","2018-09-22 04:00","2018","09","22","04:00","15.3","","14.7","","96","","","","21","","42","","6.4","","99.34","","","","","","Rain,Fog"
"-65.89","45.32","SAINT JOHN A","8104901","2018-09-22 05:00","2018","09","22","05:00","15.5","","15.1","","97","","","","22","","34","","3.2","","99.28","","","","","","Rain,Fog"
"-65.89","45.32","SAINT JOHN A","8104901","2018-09-22 06:00","2018","09","22","06:00","15.8","","15.6","","98","","","","22","","34","","3.2","","99.34","","","","","","Rain,Fog"
"-65.89","45.32","SAINT JOHN A","8104901","2018-09-22 07:00","2018","09","22","07:00","15.9","","15.7","","98","","","","22","","30","","3.2","","99.33","","","","","","Drizzle,Fog"
"-65.89","45.32","SAINT JOHN A","8104901","2018-09-22 08:00","2018","09","22","08:00","16.6","","16.2","","98","","","","23","","22","","9.7","","99.41","","","","","","Fog"
"-65.89","45.32","SAINT JOHN A","8104901","2018-09-22 09:00","2018","09","22","09:00","19.4","","15.0","","75","","","","29","","29","","24.1","","99.48","","","","","","NA"
"-65.89","45.32","SAINT JOHN A","8104901","2018-09-22 10:00","2018","09","22","10:00","18.4","","11.0","","62","","","","30","","26","","24.1","","99.65","","","","","","NA"
"-65.89","45.32","SAINT JOHN A","8104901","2018-09-22 11:00","2018","09","22","11:00","17.6","","8.9","","56","","","","31","","22","","24.1","","99.80","","","","","","Mostly Cloudy"
"-65.89","45.32","SAINT JOHN A","8104901","2018-09-22 12:00","2018","09","22","12:00","17.9","","5.7","","44","","","","34","","40","","24.1","","99.93","","","","","","NA"
"-65.89","45.32","SAINT JOHN A","8104901","2018-09-22 13:00","2018","09","22","13:00","17.6","","3.5","","39","","","","31","","35","","24.1","","100.02","","","","","","NA"
"-65.89","45.32","SAINT JOHN A","8104901","2018-09-22 14:00","2018","09","22","14:00","17.6","","3.8","","39","","","","32","","32","","24.1","","100.12","","","","","","Mostly Cloudy"
"-65.89","45.32","SAINT JOHN A","8104901","2018-09-22 15:00","2018","09","22","15:00","17.4","","2.0","","35","","","","33","","35","","24.1","","100.20","","","","","","NA"
"-65.89","45.32","SAINT JOHN A","8104901","2018-09-22 16:00","2018","09","22","16:00","16.7","","1.8","","36","","","","31","","30","","24.1","","100.32","","","","","","NA"
"-65.89","45.32","SAINT JOHN A","8104901","2018-09-22 17:00","2018","09","22","17:00","14.6","","2.0","","42","","","","32","","19","","24.1","","100.39","","","","","","Mostly Cloudy"
"-65.89","45.32","SAINT JOHN A","8104901","2018-09-22 18:00","2018","09","22","18:00","12.4","","3.2","","53","","","","30","","7","","24.1","","100.52","","","","","","NA"
"-65.89","45.32","SAINT JOHN A","8104901","2018-09-22 19:00","2018","09","22","19:00","8.9","","4.9","","76","","","","16","","5","","24.1","","100.57","","","","","","NA"
"-65.89","45.32","SAINT JOHN A","8104901","2018-09-22 20:00","2018","09","22","20:00","7.1","","4.9","","86","","","","28","","5","","24.1","","100.68","","","","","","Mainly Clear"
"-65.89","45.32","SAINT JOHN A","8104901","2018-09-22 21:00","2018","09","22","21:00","5.9","","3.8","","87","","","","20","","5","","24.1","","100.77","","","","","","NA"
"-65.89","45.32","SAINT JOHN A","8104901","2018-09-22 22:00","2018","09","22","22:00","2.7","","1.4","","91","","","","36","","1","","24.1","","100.85","","","","","","NA"
"-65.89","45.32","SAINT JOHN A","8104901","2018-09-22 23:00","2018","09","22","23:00","1.7","","1.2","","96","","","","36","","1","","24.1","","100.89","","","","","","Mostly Cloudy"
"-65.89","45.32","SAINT JOHN A","8104901","2018-09-23 00:00","2018","09","23","00:00","0.7","","0.2","","96","","","","36","","3","","24.1","","100.91","","","","","","NA"
"-65.89","45.32","SAINT JOHN A","8104901","2018-09-23 01:00","2018","09","23","01:00","1.0","","0.5","","97","","","","36","","2","","24.1","","100.91","","","","","","NA"
"-65.89","45.32","SAINT JOHN A","8104901","2018-09-23 02:00","2018","09","23","02:00","1.7","","1.4","","98","","","","36","","2","","24.1","","100.93","","","","","","Mostly Cloudy"
"-65.89","45.32","SAINT JOHN A","8104901","2018-09-23 03:00","2018","09","23","03:00","-0.1","","-0.4","","98","","","","1","","3","","24.1","","100.92","","","","-1","","NA"
"-65.89","45.32","SAINT JOHN A","8104901","2018-09-23 04:00","2018","09","23","04:00","0.2","","0.0","","98","","","","36","","3","","24.1","","100.93","","","","","","NA"
"-65.89","45.32","SAINT JOHN A","8104901","2018-09-23 05:00","2018","09","23","05:00","-0.1","","-0.3","","98","","","","4","","3","","24.1","","100.94","","","","-1","","Mostly Cloudy"
"-65.89","45.32","SAINT JOHN A","8104901","2018-09-23 06:00","2018","09","23","06:00","-1.2","","-1.5","","98","","","","34","","5","","24.1","","101.00","","","","-3","","NA"
"-65.89","45.32","SAINT JOHN A","8104901","2018-09-23 07:00","2018","09","23","07:00","0.7","","0.5","","99","","","","36","","3","","24.1","","101.01","","","","","","NA"
"-65.89","45.32","SAINT JOHN A","8104901","2018-09-23 08:00","2018","09","23","08:00","7.4","","6.3","","92","","","","36","","2","","24.1","","101.04","","","","","","Mainly Clear"
"-65.89","45.32","SAINT JOHN A","8104901","2018-09-23 09:00","2018","09","23","09:00","11.8","","3.5","","57","","","","25","","10","","24.1","","101.08","","","","","","NA"
"-65.89","45.32","SAINT JOHN A","8104901","2018-09-23 10:00","2018","09","23","10:00","13.9","","2.4","","46","","","","23","","14","","24.1","","101.05","","","","","","NA"
"-65.89","45.32","SAINT JOHN A","8104901","2018-09-23 11:00","2018","09","23","11:00","15.1","","2.2","","42","","","","23","","19","","24.1","","101.02","","","","","","Mainly Clear"
"-65.89","45.32","SAINT JOHN A","8104901","2018-09-23 12:00","2018","09","23","12:00","15.6","","2.3","","40","","","","23","","16","","24.1","","100.99","","","","","","NA"
"-65.89","45.32","SAINT JOHN A","8104901","2018-09-23 13:00","2018","09","23","13:00","15.9","","3.9","","44","","","","22","","26","","24.1","","100.89","","","","","","NA"
"-65.89","45.32","SAINT JOHN A","8104901","2018-09-23 14:00","2018","09","23","14:00","15.5","","5.2","","50","","","","19","","29","","24.1","","100.86","","","","","","Mainly Clear"
"-65.89","45.32","SAINT JOHN A","8104901","2018-09-23 15:00","2018","09","23","15:00","15.7","","5.3","","50","","","","21","","27","","24.1","","100.85","","","","","","NA"
"-65.89","45.32","SAINT JOHN A","8104901","2018-09-23 16:00","2018","09","23","16:00","14.9","","5.8","","54","","","","21","","30","","24.1","","100.86","","","","","","NA"
"-65.89","45.32","SAINT JOHN A","8104901","2018-09-23 17:00","2018","09","23","17:00","13.7","","6.4","","61","","","","22","","26","","24.1","","100.90","","","","","","Mainly Clear"
"-65.89","45.32","SAINT JOHN A","8104901","2018-09-23 18:00","2018","09","23","18:00","12.2","","8.2","","76","","","","22","","13","","24.1","","100.94","","","","","","NA"
"-65.89","45.32","SAINT JOHN A","8104901","2018-09-23 19:00","2018","09","23","19:00","10.5","","8.3","","86","","","","20","","8","","24.1","","101.00","","","","","","NA"
"-65.89","45.32","SAINT JOHN A","8104901","2018-09-23 20:00","2018","09","23","20:00","11.1","","8.3","","82","","","","24","","8","","24.1","","101.06","","","","","","Mostly Cloudy"
"-65.89","45.32","SAINT JOHN A","8104901","2018-09-23 21:00","2018","09","23","21:00","11.5","","8.8","","83","","","","30","","9","","24.1","","101.16","","","","","","NA"
"-65.89","45.32","SAINT JOHN A","8104901","2018-09-23 22:00","2018","09","23","22:00","10.2","","5.8","","74","","","","1","","20","","24.1","","101.33","","","","","","NA"
"-65.89","45.32","SAINT JOHN A","8104901","2018-09-23 23:00","2018","09","23","23:00","9.1","","4.5","","73","","","","2","","21","","24.1","","101.41","","","","","","Mostly Cloudy"
"-65.89","45.32","SAINT JOHN A","8104901","2018-09-24 00:00","2018","09","24","00:00","8.2","","1.5","","63","","","","1","","23","","24.1","","101.48","","","","","","NA"
"-65.89","45.32","SAINT JOHN A","8104901","2018-09-24 01:00","2018","09","24","01:00","7.3","","0.9","","64","","","","36","","32","","24.1","","101.55","","","","","","NA"
"-65.89","45.32","SAINT JOHN A","8104901","2018-09-24 02:00","2018","09","24","02:00","6.1","","1.1","","70","","","","36","","25","","24.1","","101.63","","","","","","Mostly Cloudy"
"-65.89","45.32","SAINT JOHN A","8104901","2018-09-24 03:00","2018","09","24","03:00","4.9","","0.4","","73","","","","36","","20","","24.1","","101.70","","","","","","NA"
"-65.89","45.32","SAINT JOHN A","8104901","2018-09-24 04:00","2018","09","24","04:00","3.8","","-0.2","","75","","","","36","","16","","24.1","","101.82","","","","","","NA"
"-65.89","45.32","SAINT JOHN A","8104901","2018-09-24 05:00","2018","09","24","05:00","2.1","","-0.1","","85","","","","35","","10","","24.1","","101.91","","","","","","Clear"
"-65.89","45.32","SAINT JOHN A","8104901","2018-09-24 06:00","2018","09","24","06:00","0.1","","-0.8","","94","","","","1","","4","","24.1","","102.02","","","","","","NA"
"-65.89","45.32","SAINT JOHN A","8104901","2018-09-24 07:00","2018","09","24","07:00","3.2","","0.2","","80","","","","35","","16","","24.1","","102.14","","","","","","NA"
"-65.89","45.32","SAINT JOHN A","8104901","2018-09-24 08:00","2018","09","24","08:00","5.4","","-1.8","","60","","","","2","","20","","24.1","","102.22","","","","","","Clear"
"-65.89","45.32","SAINT JOHN A","8104901","2018-09-24 09:00","2018","09","24","09:00","7.0","","-3.4","","48","","","","36","","22","","24.1","","102.30","","","","","","NA"
"-65.89","45.32","SAINT JOHN A","8104901","2018-09-24 10:00","2018","09","24","10:00","8.2","","-3.7","","43","","","","35","","19","","24.1","","102.32","","","","","","NA"
"-65.89","45.32","SAINT JOHN A","8104901","2018-09-24 11:00","2018","09","24","11:00","10.1","","-5.3","","33","","","","1","","21","","24.1","","102.31","","","","","","Clear"
"-65.89","45.32","SAINT JOHN A","8104901","2018-09-24 12:00","2018","09","24","12:00","11.4","","-5.0","","31","","","","3","","19","","24.1","","102.31","","","","","","NA"
"-65.89","45.32","SAINT JOHN A","8104901","2018-09-24 13:00","2018","09","24","13:00","12.4","","-5.9","","27","","","","3","","14","","24.1","","102.29","","","","","","NA"
"-65.89","45.32","SAINT JOHN A","8104901","2018-09-24 14:00","2018","09","24","14:00","12.8","","-4.7","","29","","","","1","","15","","24.1","","102.25","","","","","","Clear"
"-65.89","45.32","SAINT JOHN A","8104901","2018-09-24 15:00","2018","09","24","15:00","13.1","","-5.8","","26","","","","1","","9","","24.1","","102.24","","","","","","NA"
"-65.89","45.32","SAINT JOHN A","8104901","2018-09-24 16:00","2018","09","24","16:00","12.6","","-6.6","","26","","","","35","","12","","24.1","","102.25","","","","","","NA"
"-65.89","45.32","SAINT JOHN A","8104901","2018-09-24 17:00","2018","09","24","17:00","12.1","","-5.4","","29","","","","34","","14","","24.1","","102.27","","","","","","Mainly Clear"
"-65.89","45.32","SAINT JOHN A","8104901","2018-09-24 18:00","2018","09","24","18:00","9.3","","0.2","","53","","","","17","","9","","24.1","","102.31","","","","","","NA"
"-65.89","45.32","SAINT JOHN A","8104901","2018-09-24 19:00","2018","09","24","19:00","4.8","","0.8","","75","","","","36","","2","","24.1","","102.43","","","","","","NA"
"-65.89","45.32","SAINT JOHN A","8104901","2018-09-24 20:00","2018","09","24","20:00","0.2","","-1.0","","92","","","","36","","2","","24.1","","102.52","","","","","","Clear"
"-65.89","45.32","SAINT JOHN A","8104901","2018-09-24 21:00","2018","09","24","21:00","0.2","","-0.9","","92","","","","4","","3","","24.1","","102.54","","","","","","NA"
"-65.89","45.32","SAINT JOHN A","8104901","2018-09-24 22:00","2018","09","24","22:00","-1.2","","-2.2","","93","","","","0","","1","","24.1","","102.55","","","","-2","","NA"
"-65.89","45.32","SAINT JOHN A","8104901","2018-09-24 23:00","2018","09","24","23:00","-1.1","","-1.7","","95","","","","5","","7","","24.1","","102.60","","","","-4","","Clear"
"-65.89","45.32","SAINT JOHN A","8104901","2018-09-25 00:00","2018","09","25","00:00","-2.2","","-2.8","","96","","","","4","","4","","24.1","","102.58","","","","-4","","NA"
"-65.89","45.32","SAINT JOHN A","8104901","2018-09-25 01:00","2018","09","25","01:00","-2.9","","-3.3","","97","","","","5","","6","","24.1","","102.56","","","","-5","","NA"
"-65.89","45.32","SAINT JOHN A","8104901","2018-09-25 02:00","2018","09","25","02:00","-2.5","","-3.3","","94","","","","4","","5","","24.1","","102.57","","","","-4","","Clear"
"-65.89","45.32","SAINT JOHN A","8104901","2018-09-25 03:00","2018","09","25","03:00","-1.2","","-1.8","","96","","","","3","","4","","24.1","","102.52","","","","-3","","NA"
"-65.89","45.32","SAINT JOHN A","8104901","2018-09-25 04:00","2018","09","25","04:00","-1.7","","-2.2","","97","","","","5","","5","","24.1","","102.51","","","","-4","","NA"
"-65.89","45.32","SAINT JOHN A","8104901","2018-09-25 05:00","2018","09","25","05:00","-2.5","","-2.9","","97","","","","36","","1","","1.2","","102.57","","","","-3","","Fog"
"-65.89","45.32","SAINT JOHN A","8104901","2018-09-25 06:00","2018","09","25","06:00","-1.4","","-1.6","","98","","","","6","","6","","24.1","","102.59","","","","-4","","NA"
"-65.89","45.32","SAINT JOHN A","8104901","2018-09-25 07:00","2018","09","25","07:00","-0.4","","-0.8","","97","","","","1","","4","","24.1","","102.57","","","","-2","","NA"
"-65.89","45.32","SAINT JOHN A","8104901","2018-09-25 08:00","2018","09","25","08:00","4.3","","3.5","","94","","","","36","","3","","24.1","","102.57","","","","","","Mostly Cloudy"
"-65.89","45.32","SAINT JOHN A","8104901","2018-09-25 09:00","2018","09","25","09:00","11.0","","2.3","","55","","","","14","","16","","24.1","","102.56","","","","","","NA"
"-65.89","45.32","SAINT JOHN A","8104901","2018-09-25 10:00","2018","09","25","10:00","12.7","","1.6","","46","","","","16","","24","","24.1","","102.54","","","","","","NA"
"-65.89","45.32","SAINT JOHN A","8104901","2018-09-25 11:00","2018","09","25","11:00","13.7","","1.8","","44","","","","17","","21","","24.1","","102.49","","","","","","Mostly Cloudy"
"-65.89","45.32","SAINT JOHN A","8104901","2018-09-25 12:00","2018","09","25","12:00","14.1","","2.0","","44","","","","18","","26","","24.1","","102.46","","","","","","NA"
"-65.89","45.32","SAINT JOHN A","8104901","2018-09-25 13:00","2018","09","25","13:00","15.1","","1.4","","39","","","","20","","28","","24.1","","102.36","","","","","","NA"
"-65.89","45.32","SAINT JOHN A","8104901","2018-09-25 14:00","2018","09","25","14:00","14.1","","2.6","","46","","","","17","","20","","24.1","","102.24","","","","","","Mostly Cloudy"
"-65.89","45.32","SAINT JOHN A","8104901","2018-09-25 15:00","2018","09","25","15:00","13.6","","3.3","","50","","","","17","","13","","24.1","","102.16","","","","","","NA"
"-65.89","45.32","SAINT JOHN A","8104901","2018-09-25 16:00","2018","09","25","16:00","13.8","","3.7","","50","","","","16","","16","","24.1","","102.09","","","","","","NA"
"-65.89","45.32","SAINT JOHN A","8104901","2018-09-25 17:00","2018","09","25","17:00","12.8","","5.4","","61","","","","15","","14","","24.1","","101.99","","","","","","Cloudy"
"-65.89","45.32","SAINT JOHN A","8104901","2018-09-25 18:00","2018","09","25","18:00","12.9","","6.8","","67","","","","17","","20","","24.1","","101.93","","","","","","NA"
"-65.89","45.32","SAINT JOHN A","8104901","2018-09-25 19:00","2018","09","25","19:00","12.7","","7.0","","68","","","","17","","21","","24.1","","101.86","","","","","","NA"
"-65.89","45.32","SAINT JOHN A","8104901","2018-09-25 20:00","2018","09","25","20:00","11.9","","8.6","","80","","","","16","","24","","24.1","","101.79","","","","","","Rain"
"-65.89","45.32","SAINT JOHN A","8104901","2018-09-25 21:00","2018","09","25","21:00","11.2","","9.2","","87","","","","16","","21","","16.1","","101.69","","","","","","Rain"
"-65.89","45.32","SAINT JOHN A","8104901","2018-09-25 22:00","2018","09","25","22:00","11.3","","9.3","","87","","","","16","","21","","16.1","","101.64","","","","","","Rain"
"-65.89","45.32","SAINT JOHN A","8104901","2018-09-25 23:00","2018","09","25","23:00","11.4","","9.9","","91","","","","17","","21","","16.1","","101.56","","","","","","Rain"
"-65.89","45.32","SAINT JOHN A","8104901","2018-09-26 00:00","2018","09","26","00:00","11.4","","10.5","","94","","","","16","","25","","8.1","","101.45","","","","","","Rain,Fog"
"-65.89","45.32","SAINT JOHN A","8104901","2018-09-26 01:00","2018","09","26","01:00","11.5","","10.8","","95","","","","15","","27","","9.7","","101.28","","","","","","Rain,Fog"
"-65.89","45.32","SAINT JOHN A","8104901","2018-09-26 02:00","2018","09","26","02:00","11.7","","11.2","","97","","","","16","","30","","9.7","","101.17","","","","","","Rain,Fog"
"-65.89","45.32","SAINT JOHN A","8104901","2018-09-26 03:00","2018","09","26","03:00","11.8","","11.5","","98","","","","14","","26","","4.8","","101.00","","","","","","Rain,Fog"
"-65.89","45.32","SAINT JOHN A","8104901","2018-09-26 04:00","2018","09","26","04:00","12.3","","12.1","","98","","","","14","","25","","4.8","","100.93","","","","","","Rain,Fog"
"-65.89","45.32","SAINT JOHN A","8104901","2018-09-26 05:00","2018","09","26","05:00","13.0","","12.8","","99","","","","14","","28","","4.8","","100.77","","","","","","Rain,Fog"
"-65.89","45.32","SAINT JOHN A","8104901","2018-09-26 06:00","2018","09","26","06:00","13.7","","13.5","","99","","","","15","","22","","4.8","","100.71","","","","","","Rain,Fog"
"-65.89","45.32","SAINT JOHN A","8104901","2018-09-26 07:00","2018","09","26","07:00","14.8","","14.6","","99","","","","16","","29","","2.4","","100.64","","","","","","Rain"
"-65.89","45.32","SAINT JOHN A","8104901","2018-09-26 08:00","2018","09","26","08:00","15.3","","15.0","","98","","","","18","","24","","1.6","","100.58","","","","","","Moderate Rain,Fog"
"-65.89","45.32","SAINT JOHN A","8104901","2018-09-26 09:00","2018","09","26","09:00","16.1","","16.0","","99","","","","19","","34","","4.0","","100.51","","","","","","Rain,Fog"
"-65.89","45.32","SAINT JOHN A","8104901","2018-09-26 10:00","2018","09","26","10:00","16.5","","16.4","","99","","","","20","","42","","3.2","","100.46","","","","","","Rain,Fog"
"-65.89","45.32","SAINT JOHN A","8104901","2018-09-26 11:00","2018","09","26","11:00","16.4","","16.4","","100","","","","20","","43","","0.6","","100.41","","","","","","Drizzle,Fog"
"-65.89","45.32","SAINT JOHN A","8104901","2018-09-26 12:00","2018","09","26","12:00","16.4","","16.4","","100","","","","20","","45","","1.2","","100.33","","","","","","Rain,Fog"
"-65.89","45.32","SAINT JOHN A","8104901","2018-09-26 13:00","2018","09","26","13:00","16.7","","16.7","","100","","","","20","","46","","0.6","","100.24","","","","","","Fog"
"-65.89","45.32","SAINT JOHN A","8104901","2018-09-26 14:00","2018","09","26","14:00","16.6","","16.6","","100","","","","20","","45","","0.4","","100.17","","","","","","Fog"
"-65.89","45.32","SAINT JOHN A","8104901","2018-09-26 15:00","2018","09","26","15:00","16.9","","16.9","","100","","","","20","","36","","0.4","","100.09","","","","","","Fog"
"-65.89","45.32","SAINT JOHN A","8104901","2018-09-26 16:00","2018","09","26","16:00","17.2","","17.2","","100","","","","21","","31","","0.6","","100.07","","","","","","Rain,Fog"
"-65.89","45.32","SAINT JOHN A","8104901","2018-09-26 17:00","2018","09","26","17:00","17.0","","17.0","","100","","","","21","","32","","0.4","","99.99","","","","","","Rain,Fog"
"-65.89","45.32","SAINT JOHN A","8104901","2018-09-26 18:00","2018","09","26","18:00","16.9","","16.9","","100","","","","20","","32","","0.4","","99.94","","","","","","Rain,Fog"
"-65.89","45.32","SAINT JOHN A","8104901","2018-09-26 19:00","2018","09","26","19:00","17.1","","17.1","","100","","","","21","","32","","0.8","","99.92","","","","","","Fog"
"-65.89","45.32","SAINT JOHN A","8104901","2018-09-26 20:00","2018","09","26","20:00","17.2","","17.2","","100","","","","21","","37","","0.8","","99.86","","","","","","Rain,Fog"
"-65.89","45.32","SAINT JOHN A","8104901","2018-09-26 21:00","2018","09","26","21:00","17.7","","17.7","","100","","","","21","","39","","0.8","","99.82","","","","","","Fog"
"-65.89","45.32","SAINT JOHN A","8104901","2018-09-26 22:00","2018","09","26","22:00","17.7","","17.7","","100","","","","20","","46","","0.8","","99.74","","","","","","Drizzle,Fog"
"-65.89","45.32","SAINT JOHN A","8104901","2018-09-26 23:00","2018","09","26","23:00","17.1","","17.1","","100","","","","21","","43","","1.2","","99.73","","","","","","Rain,Fog"
"-65.89","45.32","SAINT JOHN A","8104901","2018-09-27 00:00","2018","09","27","00:00","17.2","","17.2","","100","","","","21","","40","","0.8","","99.75","","","","","","Rain,Fog"
"-65.89","45.32","SAINT JOHN A","8104901","2018-09-27 01:00","2018","09","27","01:00","17.0","","17.0","","100","","","","21","","37","","0.8","","99.74","","","","","","Rain,Fog"
"-65.89","45.32","SAINT JOHN A","8104901","2018-09-27 02:00","2018","09","27","02:00","16.6","","16.6","","100","","","","22","","18","","0.8","","99.83","","","","","","Rain,Fog"
"-65.89","45.32","SAINT JOHN A","8104901","2018-09-27 03:00","2018","09","27","03:00","16.4","","16.4","","100","","","","21","","9","","1.6","","99.89","","","","","","Rain,Fog"
"-65.89","45.32","SAINT JOHN A","8104901","2018-09-27 04:00","2018","09","27","04:00","17.3","","16.9","","98","","","","29","","20","","2.4","","100.01","","","","","","Rain,Fog"
"-65.89","45.32","SAINT JOHN A","8104901","2018-09-27 05:00","2018","09","27","05:00","15.3","","13.7","","90","","","","34","","17","","24.1","","100.11","","","","","","Rain"
"-65.89","45.32","SAINT JOHN A","8104901","2018-09-27 06:00","2018","09","27","06:00","15.1","","13.8","","92","","","","34","","25","","16.1","","100.19","","","","","","Rain"
"-65.89","45.32","SAINT JOHN A","8104901","2018-09-27 07:00","2018","09","27","07:00","13.4","","11.3","","87","","","","36","","27","","19.3","","100.39","","","","","","NA"
"-65.89","45.32","SAINT JOHN A","8104901","2018-09-27 08:00","2018","09","27","08:00","11.8","","8.9","","82","","","","36","","22","","24.1","","100.55","","","","","","Cloudy"
"-65.89","45.32","SAINT JOHN A","8104901","2018-09-27 09:00","2018","09","27","09:00","11.2","","6.7","","73","","","","35","","32","","24.1","","100.67","","","","","","NA"
"-65.89","45.32","SAINT JOHN A","8104901","2018-09-27 10:00","2018","09","27","10:00","12.0","","7.4","","73","","","","35","","23","","24.1","","100.72","","","","","","NA"
"-65.89","45.32","SAINT JOHN A","8104901","2018-09-27 11:00","2018","09","27","11:00","12.8","","7.0","","68","","","","1","","22","","24.1","","100.71","","","","","","Mostly Cloudy"
"-65.89","45.32","SAINT JOHN A","8104901","2018-09-27 12:00","2018","09","27","12:00","13.5","","6.7","","63","","","","1","","26","","24.1","","100.76","","","","","","NA"
"-65.89","45.32","SAINT JOHN A","8104901","2018-09-27 13:00","2018","09","27","13:00","14.6","","7.6","","63","","","","36","","12","","24.1","","100.77","","","","","","NA"
"-65.89","45.32","SAINT JOHN A","8104901","2018-09-27 14:00","2018","09","27","14:00","15.5","","6.9","","56","","","","3","","20","","24.1","","100.77","","","","","","Mostly Cloudy"
"-65.89","45.32","SAINT JOHN A","8104901","2018-09-27 15:00","2018","09","27","15:00","16.4","","8.1","","58","","","","2","","14","","24.1","","100.86","","","","","","NA"
"-65.89","45.32","SAINT JOHN A","8104901","2018-09-27 16:00","2018","09","27","16:00","15.9","","8.3","","60","","","","2","","16","","24.1","","100.85","","","","","","NA"
"-65.89","45.32","SAINT JOHN A","8104901","2018-09-27 17:00","2018","09","27","17:00","15.7","","8.6","","63","","","","3","","14","","24.1","","100.85","","","","","","Mostly Cloudy"
"-65.89","45.32","SAINT JOHN A","8104901","2018-09-27 18:00","2018","09","27","18:00","13.0","","9.9","","81","","","","10","","8","","24.1","","100.89","","","","","","NA"
"-65.89","45.32","SAINT JOHN A","8104901","2018-09-27 19:00","2018","09","27","19:00","10.4","","8.5","","88","","","","9","","9","","24.1","","100.92","","","","","","NA"
"-65.89","45.32","SAINT JOHN A","8104901","2018-09-27 20:00","2018","09","27","20:00","9.2","","7.4","","89","","","","9","","9","","24.1","","100.99","","","","","","Mainly Clear"
"-65.89","45.32","SAINT JOHN A","8104901","2018-09-27 21:00","2018","09","27","21:00","7.9","","7.0","","94","","","","6","","9","","24.1","","101.01","","","","","","NA"
"-65.89","45.32","SAINT JOHN A","8104901","2018-09-27 22:00","2018","09","27","22:00","9.6","","8.0","","89","","","","6","","13","","24.1","","100.98","","","","","","NA"
"-65.89","45.32","SAINT JOHN A","8104901","2018-09-27 23:00","2018","09","27","23:00","9.6","","7.8","","88","","","","7","","12","","24.1","","100.99","","","","","","Mostly Cloudy"
"-65.89","45.32","SAINT JOHN A","8104901","2018-09-28 00:00","2018","09","28","00:00","9.0","","7.5","","90","","","","4","","7","","24.1","","100.92","","","","","","NA"
"-65.89","45.32","SAINT JOHN A","8104901","2018-09-28 01:00","2018","09","28","01:00","8.9","","7.7","","92","","","","3","","13","","24.1","","100.90","","","","","","NA"
"-65.89","45.32","SAINT JOHN A","8104901","2018-09-28 02:00","2018","09","28","02:00","9.1","","8.4","","95","","","","4","","12","","24.1","","100.86","","","","","","Cloudy"
"-65.89","45.32","SAINT JOHN A","8104901","2018-09-28 03:00","2018","09","28","03:00","10.3","","9.6","","95","","","","6","","10","","24.1","","100.74","","","","","","NA"
"-65.89","45.32","SAINT JOHN A","8104901","2018-09-28 04:00","2018","09","28","04:00","11.2","","9.9","","91","","","","5","","15","","24.1","","100.84","","","","","","NA"
"-65.89","45.32","SAINT JOHN A","8104901","2018-09-28 05:00","2018","09","28","05:00","9.5","","8.9","","96","","","","1","","16","","9.7","","100.78","","","","","","Drizzle,Fog"
"-65.89","45.32","SAINT JOHN A","8104901","2018-09-28 06:00","2018","09","28","06:00","9.5","","9.1","","97","","","","4","","13","","9.7","","100.73","","","","","","Drizzle,Fog"
"-65.89","45.32","SAINT JOHN A","8104901","2018-09-28 07:00","2018","09","28","07:00","9.3","","8.7","","96","","","","5","","20","","24.1","","100.70","","","","","","Rain,Fog"
"-65.89","45.32","SAINT JOHN A","8104901","2018-09-28 08:00","2018","09","28","08:00","9.5","","9.0","","97","","","","2","","15","","8.1","","100.71","","","","","","Rain,Fog"
"-65.89","45.32","SAINT JOHN A","8104901","2018-09-28 09:00","2018","09","28","09:00","9.6","","9.3","","98","","","","3","","12","","3.2","","100.71","","","","","","Rain Showers,Fog"
"-65.89","45.32","SAINT JOHN A","8104901","2018-09-28 10:00","2018","09","28","10:00","10.0","","9.7","","98","","","","35","","11","","4.8","","100.68","","","","","","Rain Showers,Fog"
"-65.89","45.32","SAINT JOHN A","8104901","2018-09-28 11:00","2018","09","28","11:00","9.9","","9.6","","98","","","","33","","15","","3.2","","100.65","","","","","","Rain Showers,Fog"
"-65.89","45.32","SAINT JOHN A","8104901","2018-09-28 12:00","2018","09","28","12:00","10.3","","9.9","","98","","","","4","","17","","4.8","","100.47","","","","","","Rain Showers,Fog"
"-65.89","45.32","SAINT JOHN A","8104901","2018-09-28 13:00","2018","09","28","13:00","11.2","","10.7","","96","","","","3","","22","","6.4","","100.40","","","","","","Rain Showers,Fog"
"-65.89","45.32","SAINT JOHN A","8104901","2018-09-28 14:00","2018","09","28","14:00","11.3","","10.8","","97","","","","34","","18","","4.8","","100.40","","","","","","Rain Showers,Fog"
"-65.89","45.32","SAINT JOHN A","8104901","2018-09-28 15:00","2018","09","28","15:00","11.2","","10.8","","97","","","","2","","22","","4.0","","100.34","","","","","","Rain Showers,Fog"
"-65.89","45.32","SAINT JOHN A","8104901","2018-09-28 16:00","2018","09","28","16:00","11.4","","10.8","","96","","","","2","","17","","4.8","","100.36","","","","","","Fog"
"-65.89","45.32","SAINT JOHN A","8104901","2018-09-28 17:00","2018","09","28","17:00","11.5","","11.0","","97","","","","2","","14","","4.8","","100.28","","","","","","Fog"
"-65.89","45.32","SAINT JOHN A","8104901","2018-09-28 18:00","2018","09","28","18:00","11.2","","10.9","","98","","","","2","","12","","4.8","","100.32","","","","","","Fog"
"-65.89","45.32","SAINT JOHN A","8104901","2018-09-28 19:00","2018","09","28","19:00","11.0","","10.7","","98","","","","2","","16","","4.8","","100.33","","","","","","Rain,Fog"
"-65.89","45.32","SAINT JOHN A","8104901","2018-09-28 20:00","2018","09","28","20:00","10.6","","10.3","","98","","","","2","","16","","4.8","","100.35","","","","","","Fog"
"-65.89","45.32","SAINT JOHN A","8104901","2018-09-28 21:00","2018","09","28","21:00","10.4","","10.1","","98","","","","3","","10","","4.8","","100.35","","","","","","Fog"
"-65.89","45.32","SAINT JOHN A","8104901","2018-09-28 22:00","2018","09","28","22:00","10.0","","9.7","","98","","","","36","","14","","4.8","","100.34","","","","","","Fog"
"-65.89","45.32","SAINT JOHN A","8104901","2018-09-28 23:00","2018","09","28","23:00","10.0","","9.8","","99","","","","35","","12","","3.2","","100.31","","","","","","Fog"
"-65.89","45.32","SAINT JOHN A","8104901","2018-09-29 00:00","2018","09","29","00:00","9.8","","9.7","","99","","","","34","","13","","1.6","","100.30","","","","","","Drizzle,Fog"
"-65.89","45.32","SAINT JOHN A","8104901","2018-09-29 01:00","2018","09","29","01:00","9.6","","9.2","","98","","","","36","","13","","2.4","","100.31","","","","","","Drizzle,Fog"
"-65.89","45.32","SAINT JOHN A","8104901","2018-09-29 02:00","2018","09","29","02:00","9.6","","9.3","","98","","","","34","","11","","3.2","","100.29","","","","","","Drizzle,Fog"
"-65.89","45.32","SAINT JOHN A","8104901","2018-09-29 03:00","2018","09","29","03:00","9.4","","9.3","","99","","","","33","","14","","3.2","","100.26","","","","","","Fog"
"-65.89","45.32","SAINT JOHN A","8104901","2018-09-29 04:00","2018","09","29","04:00","9.5","","9.5","","100","","","","32","","7","","0.8","","100.26","","","","","","Fog"
"-65.89","45.32","SAINT JOHN A","8104901","2018-09-29 05:00","2018","09","29","05:00","9.2","","9.2","","100","","","","33","","8","","0.6","","100.29","","","","","","Fog"
"-65.89","45.32","SAINT JOHN A","8104901","2018-09-29 06:00","2018","09","29","06:00","9.1","","9.1","","100","","","","29","","8","","0.8","","100.39","","","","","","Fog"
"-65.89","45.32","SAINT JOHN A","8104901","2018-09-29 07:00","2018","09","29","07:00","9.1","","9.1","","100","","","","29","","6","","1.6","","100.43","","","","","","Fog"
"-65.89","45.32","SAINT JOHN A","8104901","2018-09-29 08:00","2018","09","29","08:00","9.3","","9.3","","100","","","","28","","8","","3.2","","100.43","","","","","","Fog"
"-65.89","45.32","SAINT JOHN A","8104901","2018-09-29 09:00","2018","09","29","09:00","10.3","","9.5","","95","","","","29","","4","","12.9","","100.46","","","","","","NA"
"-65.89","45.32","SAINT JOHN A","8104901","2018-09-29 10:00","2018","09","29","10:00","12.5","","10.4","","87","","","","27","","12","","24.1","","100.51","","","","","","NA"
"-65.89","45.32","SAINT JOHN A","8104901","2018-09-29 11:00","2018","09","29","11:00","13.9","","10.6","","80","","","","31","","11","","24.1","","100.46","","","","","","Mainly Clear"
"-65.89","45.32","SAINT JOHN A","8104901","2018-09-29 12:00","2018","09","29","12:00","16.5","","11.9","","74","","","","25","","9","","24.1","","100.44","","","","","","NA"
"-65.89","45.32","SAINT JOHN A","8104901","2018-09-29 13:00","2018","09","29","13:00","17.7","","11.7","","67","","","","34","","20","","24.1","","100.44","","","","","","NA"
"-65.89","45.32","SAINT JOHN A","8104901","2018-09-29 14:00","2018","09","29","14:00","16.4","","11.7","","73","","","","27","","12","","24.1","","100.47","","","","","","Mostly Cloudy"
"-65.89","45.32","SAINT JOHN A","8104901","2018-09-29 15:00","2018","09","29","15:00","16.4","","9.8","","65","","","","31","","10","","24.1","","100.49","","","","","","NA"
"-65.89","45.32","SAINT JOHN A","8104901","2018-09-29 16:00","2018","09","29","16:00","15.9","","9.8","","67","","","","34","","21","","24.1","","100.56","","","","","","NA"
"-65.89","45.32","SAINT JOHN A","8104901","2018-09-29 17:00","2018","09","29","17:00","15.2","","8.8","","65","","","","34","","16","","24.1","","100.61","","","","","","Mainly Clear"
"-65.89","45.32","SAINT JOHN A","8104901","2018-09-29 18:00","2018","09","29","18:00","13.3","","7.9","","70","","","","35","","13","","24.1","","100.68","","","","","","NA"
"-65.89","45.32","SAINT JOHN A","8104901","2018-09-29 19:00","2018","09","29","19:00","9.1","","7.7","","91","","","","22","","3","","24.1","","100.74","","","","","","NA"
"-65.89","45.32","SAINT JOHN A","8104901","2018-09-29 20:00","2018","09","29","20:00","5.6","","5.3","","98","","","","36","","1","","24.1","","100.80","","","","","","Mainly Clear"
"-65.89","45.32","SAINT JOHN A","8104901","2018-09-29 21:00","2018","09","29","21:00","5.4","","5.2","","98","","","","36","","1","","24.1","","100.85","","","","","","NA"
"-65.89","45.32","SAINT JOHN A","8104901","2018-09-29 22:00","2018","09","29","22:00","4.0","","3.8","","99","","","","2","","3","","24.1","","100.91","","","","","","NA"
"-65.89","45.32","SAINT JOHN A","8104901","2018-09-29 23:00","2018","09","29","23:00","4.6","","4.6","","100","","","","3","","4","","24.1","","100.95","","","","","","Mainly Clear"
"-65.89","45.32","SAINT JOHN A","8104901","2018-09-30 00:00","2018","09","30","00:00","2.8","","2.7","","99","","","","36","","4","","24.1","","100.96","","","","","","NA"
"-65.89","45.32","SAINT JOHN A","8104901","2018-09-30 01:00","2018","09","30","01:00","2.5","","2.4","","99","","","","6","","4","","24.1","","100.99","","","","","","NA"
"-65.89","45.32","SAINT JOHN A","8104901","2018-09-30 02:00","2018","09","30","02:00","3.1","","2.8","","98","","","","8","","4","","24.1","","101.03","","","","","","Clear"
"-65.89","45.32","SAINT JOHN A","8104901","2018-09-30 03:00","2018","09","30","03:00","4.2","","4.1","","99","","","","8","","4","","24.1","","101.09","","","","","","NA"
"-65.89","45.32","SAINT JOHN A","8104901","2018-09-30 04:00","2018","09","30","04:00","4.9","","4.0","","94","","","","25","","3","","24.1","","101.08","","","","","","NA"
"-65.89","45.32","SAINT JOHN A","8104901","2018-09-30 05:00","2018","09","30","05:00","2.4","","2.2","","99","","","","1","","3","","24.1","","101.12","","","","","","Clear"
"-65.89","45.32","SAINT JOHN A","8104901","2018-09-30 06:00","2018","09","30","06:00","1.2","","0.9","","98","","","","33","","5","","24.1","","101.19","","","","","","NA"
"-65.89","45.32","SAINT JOHN A","8104901","2018-09-30 07:00","2018","09","30","07:00","3.0","","2.7","","98","","","","36","","3","","24.1","","101.26","","","","","","NA"
"-65.89","45.32","SAINT JOHN A","8104901","2018-09-30 08:00","2018","09","30","08:00","8.2","","6.7","","90","","","","4","","3","","24.1","","101.32","","","","","","Mainly Clear"
"-65.89","45.32","SAINT JOHN A","8104901","2018-09-30 09:00","2018","09","30","09:00","12.2","","8.3","","77","","","","12","","11","","24.1","","101.33","","","","","","NA"
"-65.89","45.32","SAINT JOHN A","8104901","2018-09-30 10:00","2018","09","30","10:00","12.9","","8.0","","72","","","","13","","17","","24.1","","101.35","","","","","","NA"
"-65.89","45.32","SAINT JOHN A","8104901","2018-09-30 11:00","2018","09","30","11:00","14.1","","7.2","","63","","","","15","","17","","24.1","","101.33","","","","","","Mainly Clear"
"-65.89","45.32","SAINT JOHN A","8104901","2018-09-30 12:00","2018","09","30","12:00","15.0","","7.4","","60","","","","16","","17","","24.1","","101.32","","","","","","NA"
"-65.89","45.32","SAINT JOHN A","8104901","2018-09-30 13:00","2018","09","30","13:00","14.9","","7.1","","59","","","","20","","21","","24.1","","101.28","","","","","","NA"
"-65.89","45.32","SAINT JOHN A","8104901","2018-09-30 14:00","2018","09","30","14:00","15.1","","8.3","","64","","","","20","","14","","24.1","","101.22","","","","","","Mostly Cloudy"
"-65.89","45.32","SAINT JOHN A","8104901","2018-09-30 15:00","2018","09","30","15:00","14.7","","9.1","","69","","","","20","","20","","24.1","","101.19","","","","","","NA"
"-65.89","45.32","SAINT JOHN A","8104901","2018-09-30 16:00","2018","09","30","16:00","14.3","","8.9","","69","","","","21","","17","","24.1","","101.17","","","","","","NA"
"-65.89","45.32","SAINT JOHN A","8104901","2018-09-30 17:00","2018","09","30","17:00","13.3","","10.3","","82","","","","20","","17","","24.1","","101.19","","","","","","Cloudy"
"-65.89","45.32","SAINT JOHN A","8104901","2018-09-30 18:00","2018","09","30","18:00","12.9","","11.0","","88","","","","20","","13","","24.1","","101.16","","","","","","NA"
"-65.89","45.32","SAINT JOHN A","8104901","2018-09-30 19:00","2018","09","30","19:00","12.5","","10.9","","90","","","","21","","10","","24.1","","101.17","","","","","","NA"
"-65.89","45.32","SAINT JOHN A","8104901","2018-09-30 20:00","2018","09","30","20:00","12.1","","11.2","","94","","","","21","","10","","24.1","","101.15","","","","","","Cloudy"
"-65.89","45.32","SAINT JOHN A","8104901","2018-09-30 21:00","2018","09","30","21:00","12.2","","10.9","","92","","","","21","","12","","24.1","","101.13","","","","","","NA"
"-65.89","45.32","SAINT JOHN A","8104901","2018-09-30 22:00","2018","09","30","22:00","12.7","","11.2","","91","","","","20","","17","","24.1","","101.13","","","","","","NA"
"-65.89","45.32","SAINT JOHN A","8104901","2018-09-30 23:00","2018","09","30","23:00","12.8","","11.2","","90","","","","21","","16","","24.1","","101.10","","","","","","Cloudy"
