"Longitude (x)","Latitude (y)","Station Name","Climate ID","Date/Time (LST)","Year","Month","Day","Time (LST)","Temp (°C)","Temp Flag","Dew Point Temp (°C)","Dew Point Temp Flag","Rel Hum (%)","Rel Hum Flag","Precip. Amount (mm)","Precip. Amount Flag","Wind Dir (10s deg)","Wind Dir Flag","Wind Spd (km/h)","Wind Spd Flag","Visibility (km)","Visibility Flag","Stn Press (kPa)","Stn Press Flag","Hmdx","Hmdx Flag","Wind Chill","Wind Chill Flag","Weather"
"-135.44","69.63","PELLY ISLAND","2203095","2023-03-01 00:00","2023","03","01","00:00","-34.2","","-37.5","","72","","","","10","","15","","","","99.30","","","","-47","","NA"
"-135.44","69.63","PELLY ISLAND","2203095","2023-03-01 01:00","2023","03","01","01:00","-34.3","","-37.6","","72","","","","9","","13","","","","99.24","","","","-46","","NA"
"-135.44","69.63","PELLY ISLAND","2203095","2023-03-01 02:00","2023","03","01","02:00","-34.4","","-37.7","","72","","","","9","","13","","","","99.19","","","","-46","","NA"
"-135.44","69.63","PELLY ISLAND","2203095","2023-03-01 03:00","2023","03","01","03:00","-34.7","","-38.1","","72","","","","8","","14","","","","99.16","","","","-47","","NA"
"-135.44","69.63","PELLY ISLAND","2203095","2023-03-01 04:00","2023","03","01","04:00","-34.6","","-37.9","","72","","","","9","","16","","","","99.10","","","","-47","","NA"
"-135.44","69.63","PELLY ISLAND","2203095","2023-03-01 05:00","2023","03","01","05:00","-34.7","","-38.0","","72","","","","9","","15","","","","99.05","","","","-47","","NA"
"-135.44","69.63","PELLY ISLAND","2203095","2023-03-01 06:00","2023","03","01","06:00","-34.7","","-38.1","","72","","","","9","","14","","","","99.02","","","","-47","","NA"
"-135.44","69.63","PELLY ISLAND","2203095","2023-03-01 07:00","2023","03","01","07:00","-34.8","","-38.1","","72","","","","9","","12","","","","98.99","","","","-46","","NA"
"-135.44","69.63","PELLY ISLAND","2203095","2023-03-01 08:00","2023","03","01","08:00","-35.0","","-38.4","","71","","","","8","","16","","","","98.93","","","","-48","","NA"
"-135.44","69.63","PELLY ISLAND","2203095","2023-03-01 09:00","2023","03","01","09:00","-35.2","","-38.6","","71","","","","7","","14","","","","98.88","","","","-47","","NA"
"-135.44","69.63","PELLY ISLAND","2203095","2023-03-01 10:00","2023","03","01","10:00","-34.9","","-38.3","","71","","","","7","","15","","","","98.83","","","","-47","","NA"
"-135.44","69.63","PELLY ISLAND","2203095","2023-03-01 11:00","2023","03","01","11:00","-33.8","","-37.2","","72","","","","9","","18","","","","98.77","","","","-47","","NA"
"-135.44","69.63","PELLY ISLAND","2203095","2023-03-01 12:00","2023","03","01","12:00","-33.0","","-36.2","","72","","","","9","","18","","","","98.74","","","","-46","","NA"
"-135.44","69.63","PELLY ISLAND","2203095","2023-03-01 13:00","2023","03","01","13:00","-31.8","","-35.0","","73","","","","8","","24","","","","98.70","","","","-47","","NA"
"-135.44","69.63","PELLY ISLAND","2203095","2023-03-01 14:00","2023","03","01","14:00"
"-135.44","69.63","PELLY ISLAND","2203095","2023-03-01 15:00","2023","03","01","15:00","-31.1","","-34.3","","74","","","","7","","22","","","","98.71","","","","-45","","NA"
"-135.44","69.63","PELLY ISLAND","2203095","2023-03-01 16:00","2023","03","01","16:00","-31.0","","-34.1","","74","","","","8","","23","","","","98.68","","","","-45","","NA"
"-135.44","69.63","PELLY ISLAND","2203095","2023-03-01 17:00","2023","03","01","17:00","-30.3","","-33.4","","74","","","","8","","27","","","","98.69","","","","-45","","NA"
"-135.44","69.63","PELLY ISLAND","2203095","2023-03-01 18:00","2023","03","01","18:00","-29.9","","-32.9","","75","","","","8","","23","","","","98.67","","","","-44","","NA"
"-135.44","69.63","PELLY ISLAND","2203095","2023-03-01 19:00","2023","03","01","19:00","-30.9","","-34.0","","74","","","","8","","22","","","","98.68","","","","-45","","NA"
"-135.44","69.63","PELLY ISLAND","2203095","2023-03-01 20:00","2023","03","01","20:00","-31.1","","-34.3","","74","","","","7","","24","","","","98.71","","","","-46","","NA"
"-135.44","69.63","PELLY ISLAND","2203095","2023-03-01 21:00","2023","03","01","21:00","-31.0","","-34.2","","74","","","","7","","22","","","","98.75","","","","-45","","NA"
"-135.44","69.63","PELLY ISLAND","2203095","2023-03-01 22:00","2023","03","01","22:00","-31.1","","-34.2","","74","","","","6","","24","","","","98.80","","","","-46","","NA"
"-135.44","69.63","PELLY ISLAND","2203095","2023-03-01 23:00","2023","03","01","23:00","-30.5","","-33.6","","74","","","","6","","23","","","","98.86","","","","-45","","NA"
"-135.44","69.63","PELLY ISLAND","2203095","2023-03-02 00:00","2023","03","02","00:00","-30.0","","-33.1","","74","","","","6","","22","","","","98.94","","","","-44","","NA"
"-135.44","69.63","PELLY ISLAND","2203095","2023-03-02 01:00","2023","03","02","01:00","-30.9","","-34.0","","74","","","","6","","20","","","","99.00","","","","-44","","NA"
"-135.44","69.63","PELLY ISLAND","2203095","2023-03-02 02:00","2023","03","02","02:00","-30.7","","-33.8","","74","","","","5","","22","","","","99.08","","","","-45","","NA"
"-135.44","69.63","PELLY ISLAND","2203095","2023-03-02 03:00","2023","03","02","03:00","-30.7","","-33.8","","74","","","","4","","20","","","","99.17","","","","-44","","NA"
"-135.44","69.63","PELLY ISLAND","2203095","2023-03-02 04:00","2023","03","02","04:00","-30.4","","-33.5","","74","","","","4","","21","","","","99.26","","","","-44","","NA"
"-135.44","69.63","PELLY ISLAND","2203095","2023-03-02 05:00","2023","03","02","05:00","-30.4","","-33.5","","74","","","","4","","19","","","","99.35","","","","-43","","NA"
"-135.44","69.63","PELLY ISLAND","2203095","2023-03-02 06:00","2023","03","02","06:00","-30.4","","-33.5","","74","","","","3","","14","","","","99.45","","","","-42","","NA"
"-135.44","69.63","PELLY ISLAND","2203095","2023-03-02 07:00","2023","03","02","07:00","-30.0","","-33.1","","74","","","","3","","18","","","","99.53","","","","-42","","NA"
"-135.44","69.63","PELLY ISLAND","2203095","2023-03-02 08:00","2023","03","02","08:00","-30.1","","-33.1","","75","","","","3","","16","","","","99.66","","","","-42","","NA"
"-135.44","69.63","PELLY ISLAND","2203095","2023-03-02 09:00","2023","03","02","09:00","-29.9","","-33.0","","74","","","","3","","14","","","","99.76","","","","-41","","NA"
"-135.44","69.63","PELLY ISLAND","2203095","2023-03-02 10:00","2023","03","02","10:00","-29.3","","-32.3","","75","","","","3","","13","","","","99.85","","","","-40","","NA"
"-135.44","69.63","PELLY ISLAND","2203095","2023-03-02 11:00","2023","03","02","11:00","-27.5","","-30.5","","76","","","","3","","11","","","","99.92","","","","-37","","NA"
"-135.44","69.63","PELLY ISLAND","2203095","2023-03-02 12:00","2023","03","02","12:00","-26.5","","-29.3","","77","","","","3","","11","","","","99.99","","","","-35","","NA"
"-135.44","69.63","PELLY ISLAND","2203095","2023-03-02 13:00","2023","03","02","13:00","-25.9","","-28.6","","78","","","","3","","11","","","","100.07","","","","-35","","NA"
"-135.44","69.63","PELLY ISLAND","2203095","2023-03-02 14:00","2023","03","02","14:00","-25.4","","-28.0","","79","","","","2","","5","","","","100.16","","","","-30","","NA"
"-135.44","69.63","PELLY ISLAND","2203095","2023-03-02 15:00","2023","03","02","15:00","-23.1","","-25.6","","79","","","","2","","3","","","","100.24","","","","-26","","NA"
"-135.44","69.63","PELLY ISLAND","2203095","2023-03-02 16:00","2023","03","02","16:00","-25.1","","-27.6","","79","","","","36","","6","","","","100.30","","","","-31","","NA"
"-135.44","69.63","PELLY ISLAND","2203095","2023-03-02 17:00","2023","03","02","17:00","-25.0","","-27.5","","79","","","","2","","6","","","","100.38","","","","-31","","NA"
"-135.44","69.63","PELLY ISLAND","2203095","2023-03-02 18:00","2023","03","02","18:00","-26.8","","-29.2","","80","","","","2","","3","","","","100.44","","","","-30","","NA"
"-135.44","69.63","PELLY ISLAND","2203095","2023-03-02 19:00","2023","03","02","19:00","-28.7","","-31.4","","77","","","","","","0","","","","100.49","","","","","","NA"
"-135.44","69.63","PELLY ISLAND","2203095","2023-03-02 20:00","2023","03","02","20:00","-30.1","","-33.1","","75","","","","","","0","","","","100.56","","","","","","NA"
"-135.44","69.63","PELLY ISLAND","2203095","2023-03-02 21:00","2023","03","02","21:00","-30.6","","-33.7","","75","","","","","","0","","","","100.62","","","","","","NA"
"-135.44","69.63","PELLY ISLAND","2203095","2023-03-02 22:00","2023","03","02","22:00","-31.0","","-34.1","","74","","","","21","","1","","","","100.68","","","","-32","","NA"
"-135.44","69.63","PELLY ISLAND","2203095","2023-03-02 23:00","2023","03","02","23:00","-30.2","","-33.3","","74","","","","","","0","","","","100.73","","","","","","NA"
"-135.44","69.63","PELLY ISLAND","2203095","2023-03-03 00:00","2023","03","03","00:00","-30.5","","-33.7","","74","","","","21","","2","","","","100.78","","","","-33","","NA"
"-135.44","69.63","PELLY ISLAND","2203095","2023-03-03 01:00","2023","03","03","01:00","-30.5","","-33.6","","74","","","","","","0","","","","100.86","","","","","","NA"
"-135.44","69.63","PELLY ISLAND","2203095","2023-03-03 02:00","2023","03","03","02:00","-30.9","","-34.0","","74","","","","","","0","","","","100.93","","","","","","NA"
"-135.44","69.63","PELLY ISLAND","2203095","2023-03-03 03:00","2023","03","03","03:00","-31.3","","-34.5","","74","","","","21","","1","","","","100.98","","","","-32","","NA"
"-135.44","69.63","PELLY ISLAND","2203095","2023-03-03 04:00","2023","03","03","04:00","-31.4","","-34.5","","73","","","","","","0","","","","101.05","","","","","","NA"
"-135.44","69.63","PELLY ISLAND","2203095","2023-03-03 05:00","2023","03","03","05:00","-32.4","","-35.7","","73","","","","","","0","","","","101.12","","","","","","NA"
"-135.44","69.63","PELLY ISLAND","2203095","2023-03-03 06:00","2023","03","03","06:00","-31.8","","-35.0","","73","","","","","","0","","","","101.18","","","","","","NA"
"-135.44","69.63","PELLY ISLAND","2203095","2023-03-03 07:00","2023","03","03","07:00","-31.9","","-35.1","","73","","","","","","0","","","","101.26","","","","","","NA"
"-135.44","69.63","PELLY ISLAND","2203095","2023-03-03 08:00","2023","03","03","08:00","-32.2","","-35.5","","73","","","","0","","1","","","","101.32","","","","-33","","NA"
"-135.44","69.63","PELLY ISLAND","2203095","2023-03-03 09:00","2023","03","03","09:00","-30.7","","-33.9","","73","","","","36","","6","","","","101.38","","","","-37","","NA"
"-135.44","69.63","PELLY ISLAND","2203095","2023-03-03 10:00","2023","03","03","10:00","-30.2","","-33.4","","74","","","","36","","4","","","","101.48","","","","-35","","NA"
"-135.44","69.63","PELLY ISLAND","2203095","2023-03-03 11:00","2023","03","03","11:00","-27.0","","-30.1","","75","","","","7","","3","","","","101.55","","","","-30","","NA"
"-135.44","69.63","PELLY ISLAND","2203095","2023-03-03 12:00","2023","03","03","12:00","-25.5","","-28.3","","77","","","","7","","3","","","","101.61","","","","-29","","NA"
"-135.44","69.63","PELLY ISLAND","2203095","2023-03-03 13:00","2023","03","03","13:00","-25.3","","-28.0","","78","","","","7","","6","","","","101.69","","","","-31","","NA"
"-135.44","69.63","PELLY ISLAND","2203095","2023-03-03 14:00","2023","03","03","14:00","-27.6","","-30.5","","77","","","","8","","10","","","","101.79","","","","-36","","NA"
"-135.44","69.63","PELLY ISLAND","2203095","2023-03-03 15:00","2023","03","03","15:00","-27.7","","-30.5","","77","","","","8","","10","","","","101.88","","","","-36","","NA"
"-135.44","69.63","PELLY ISLAND","2203095","2023-03-03 16:00","2023","03","03","16:00","-26.6","","-29.5","","77","","","","8","","7","","","","101.97","","","","-33","","NA"
"-135.44","69.63","PELLY ISLAND","2203095","2023-03-03 17:00","2023","03","03","17:00","-26.8","","-29.5","","78","","","","8","","4","","","","102.07","","","","-31","","NA"
"-135.44","69.63","PELLY ISLAND","2203095","2023-03-03 18:00","2023","03","03","18:00","-29.2","","-31.9","","77","","","","8","","6","","","","102.16","","","","-36","","NA"
"-135.44","69.63","PELLY ISLAND","2203095","2023-03-03 19:00","2023","03","03","19:00","-30.4","","-33.3","","75","","","","8","","4","","","","102.24","","","","-35","","NA"
"-135.44","69.63","PELLY ISLAND","2203095","2023-03-03 20:00","2023","03","03","20:00","-30.2","","-33.3","","74","","","","","","0","","","","102.33","","","","","","NA"
"-135.44","69.63","PELLY ISLAND","2203095","2023-03-03 21:00","2023","03","03","21:00","-30.2","","-33.2","","75","","","","35","","11","","","","102.40","","","","-40","","NA"
"-135.44","69.63","PELLY ISLAND","2203095","2023-03-03 22:00","2023","03","03","22:00","-32.1","","-35.2","","74","","","","27","","9","","","","102.49","","","","-41","","NA"
"-135.44","69.63","PELLY ISLAND","2203095","2023-03-03 23:00","2023","03","03","23:00","-31.6","","-34.7","","74","","","","28","","7","","","","102.58","","","","-39","","NA"
"-135.44","69.63","PELLY ISLAND","2203095","2023-03-04 00:00","2023","03","04","00:00","-31.1","","-34.3","","74","","","","29","","8","","","","102.66","","","","-39","","NA"
"-135.44","69.63","PELLY ISLAND","2203095","2023-03-04 01:00","2023","03","04","01:00","-30.9","","-34.0","","74","","","","28","","7","","","","102.73","","","","-38","","NA"
"-135.44","69.63","PELLY ISLAND","2203095","2023-03-04 02:00","2023","03","04","02:00","-30.5","","-33.6","","74","","","","27","","7","","","","102.83","","","","-38","","NA"
"-135.44","69.63","PELLY ISLAND","2203095","2023-03-04 03:00","2023","03","04","03:00","-30.9","","-34.0","","74","","","","26","","5","","","","102.89","","","","-37","","NA"
"-135.44","69.63","PELLY ISLAND","2203095","2023-03-04 04:00","2023","03","04","04:00","-30.0","","-33.0","","75","","","","0","","1","","","","102.97","","","","-31","","NA"
"-135.44","69.63","PELLY ISLAND","2203095","2023-03-04 05:00","2023","03","04","05:00","-28.8","","-31.8","","75","","","","26","","2","","","","103.03","","","","-31","","NA"
"-135.44","69.63","PELLY ISLAND","2203095","2023-03-04 06:00","2023","03","04","06:00","-28.8","","-31.7","","75","","","","26","","4","","","","103.09","","","","-33","","NA"
"-135.44","69.63","PELLY ISLAND","2203095","2023-03-04 07:00","2023","03","04","07:00","-30.1","","-33.1","","75","","","","28","","8","","","","103.13","","","","-38","","NA"
"-135.44","69.63","PELLY ISLAND","2203095","2023-03-04 08:00","2023","03","04","08:00","-29.3","","-32.4","","75","","","","28","","8","","","","103.16","","","","-37","","NA"
"-135.44","69.63","PELLY ISLAND","2203095","2023-03-04 09:00","2023","03","04","09:00","-30.0","","-33.0","","75","","","","27","","8","","","","103.20","","","","-38","","NA"
"-135.44","69.63","PELLY ISLAND","2203095","2023-03-04 10:00","2023","03","04","10:00","-28.5","","-31.5","","75","","","","28","","7","","","","103.24","","","","-36","","NA"
"-135.44","69.63","PELLY ISLAND","2203095","2023-03-04 11:00","2023","03","04","11:00","-27.1","","-30.0","","76","","","","26","","7","","","","103.27","","","","-34","","NA"
"-135.44","69.63","PELLY ISLAND","2203095","2023-03-04 12:00","2023","03","04","12:00","-22.7","","-25.5","","78","","","","0","","1","","","","103.29","","","","-24","","NA"
"-135.44","69.63","PELLY ISLAND","2203095","2023-03-04 13:00","2023","03","04","13:00","-16.8","","-19.4","","80","","","","","","0","","","","103.30","","","","","","NA"
"-135.44","69.63","PELLY ISLAND","2203095","2023-03-04 14:00","2023","03","04","14:00","-23.0","","-25.6","","79","","","","16","","5","","","","103.30","","","","-28","","NA"
"-135.44","69.63","PELLY ISLAND","2203095","2023-03-04 15:00","2023","03","04","15:00","-26.9","","-29.7","","77","","","","18","","9","","","","103.30","","","","-35","","NA"
"-135.44","69.63","PELLY ISLAND","2203095","2023-03-04 16:00","2023","03","04","16:00","-30.0","","-33.0","","75","","","","17","","10","","","","103.27","","","","-39","","NA"
"-135.44","69.63","PELLY ISLAND","2203095","2023-03-04 17:00","2023","03","04","17:00","-31.2","","-34.3","","74","","","","17","","10","","","","103.26","","","","-41","","NA"
"-135.44","69.63","PELLY ISLAND","2203095","2023-03-04 18:00","2023","03","04","18:00","-32.3","","-35.4","","74","","","","14","","11","","","","103.26","","","","-42","","NA"
"-135.44","69.63","PELLY ISLAND","2203095","2023-03-04 19:00","2023","03","04","19:00","-33.5","","-36.7","","73","","","","13","","15","","","","103.25","","","","-46","","NA"
"-135.44","69.63","PELLY ISLAND","2203095","2023-03-04 20:00","2023","03","04","20:00","-32.6","","-35.7","","73","","","","13","","16","","","","103.22","","","","-45","","NA"
"-135.44","69.63","PELLY ISLAND","2203095","2023-03-04 21:00","2023","03","04","21:00","-33.1","","-36.3","","73","","","","14","","16","","","","103.18","","","","-46","","NA"
"-135.44","69.63","PELLY ISLAND","2203095","2023-03-04 22:00","2023","03","04","22:00","-33.3","","-36.6","","73","","","","13","","15","","","","103.17","","","","-45","","NA"
"-135.44","69.63","PELLY ISLAND","2203095","2023-03-04 23:00","2023","03","04","23:00","-32.9","","-36.1","","73","","","","14","","16","","","","103.12","","","","-45","","NA"
"-135.44","69.63","PELLY ISLAND","2203095","2023-03-05 00:00","2023","03","05","00:00","-32.6","","-35.8","","73","","","","13","","14","","","","103.11","","","","-44","","NA"
"-135.44","69.63","PELLY ISLAND","2203095","2023-03-05 01:00","2023","03","05","01:00","-31.8","","-34.9","","74","","","","14","","16","","","","103.09","","","","-44","","NA"
"-135.44","69.63","PELLY ISLAND","2203095","2023-03-05 02:00","2023","03","05","02:00","-33.7","","-36.9","","72","","","","12","","16","","","","103.09","","","","-46","","NA"
"-135.44","69.63","PELLY ISLAND","2203095","2023-03-05 03:00","2023","03","05","03:00","-32.9","","-36.2","","73","","","","12","","15","","","","103.10","","","","-45","","NA"
"-135.44","69.63","PELLY ISLAND","2203095","2023-03-05 04:00","2023","03","05","04:00","-32.9","","-36.1","","73","","","","11","","18","","","","103.08","","","","-46","","NA"
"-135.44","69.63","PELLY ISLAND","2203095","2023-03-05 05:00","2023","03","05","05:00","-31.7","","-34.9","","74","","","","12","","18","","","","103.08","","","","-45","","NA"
"-135.44","69.63","PELLY ISLAND","2203095","2023-03-05 06:00","2023","03","05","06:00","-33.4","","-36.7","","73","","","","12","","14","","","","103.07","","","","-45","","NA"
"-135.44","69.63","PELLY ISLAND","2203095","2023-03-05 07:00","2023","03","05","07:00","-33.8","","-37.0","","72","","","","11","","15","","","","103.06","","","","-46","","NA"
"-135.44","69.63","PELLY ISLAND","2203095","2023-03-05 08:00","2023","03","05","08:00","-33.9","","-37.2","","72","","","","11","","16","","","","103.09","","","","-47","","NA"
"-135.44","69.63","PELLY ISLAND","2203095","2023-03-05 09:00","2023","03","05","09:00","-33.4","","-36.7","","72","","","","12","","16","","","","103.08","","","","-46","","NA"
"-135.44","69.63","PELLY ISLAND","2203095","2023-03-05 10:00","2023","03","05","10:00","-32.7","","-36.0","","73","","","","11","","13","","","","103.08","","","","-44","","NA"
"-135.44","69.63","PELLY ISLAND","2203095","2023-03-05 11:00","2023","03","05","11:00","-31.6","","-34.8","","73","","","","12","","15","","","","103.09","","","","-43","","NA"
"-135.44","69.63","PELLY ISLAND","2203095","2023-03-05 12:00","2023","03","05","12:00","-30.9","","-34.1","","74","","","","12","","12","","","","103.07","","","","-41","","NA"
"-135.44","69.63","PELLY ISLAND","2203095","2023-03-05 13:00","2023","03","05","13:00","-29.9","","-33.0","","74","","","","12","","13","","","","103.05","","","","-40","","NA"
"-135.44","69.63","PELLY ISLAND","2203095","2023-03-05 14:00","2023","03","05","14:00","-29.4","","-32.5","","75","","","","12","","13","","","","103.05","","","","-40","","NA"
"-135.44","69.63","PELLY ISLAND","2203095","2023-03-05 15:00","2023","03","05","15:00","-28.7","","-31.7","","75","","","","11","","12","","","","103.04","","","","-39","","NA"
"-135.44","69.63","PELLY ISLAND","2203095","2023-03-05 16:00","2023","03","05","16:00","-28.7","","-31.7","","76","","","","10","","15","","","","102.99","","","","-40","","NA"
"-135.44","69.63","PELLY ISLAND","2203095","2023-03-05 17:00","2023","03","05","17:00","-29.1","","-32.0","","75","","","","10","","15","","","","102.99","","","","-40","","NA"
"-135.44","69.63","PELLY ISLAND","2203095","2023-03-05 18:00","2023","03","05","18:00","-29.9","","-32.9","","75","","","","10","","18","","","","102.98","","","","-42","","NA"
"-135.44","69.63","PELLY ISLAND","2203095","2023-03-05 19:00","2023","03","05","19:00","-30.7","","-33.8","","74","","","","9","","17","","","","102.98","","","","-43","","NA"
"-135.44","69.63","PELLY ISLAND","2203095","2023-03-05 20:00","2023","03","05","20:00","-31.5","","-34.6","","74","","","","10","","18","","","","102.90","","","","-44","","NA"
"-135.44","69.63","PELLY ISLAND","2203095","2023-03-05 21:00","2023","03","05","21:00","-31.4","","-34.5","","74","","","","10","","19","","","","102.87","","","","-45","","NA"
"-135.44","69.63","PELLY ISLAND","2203095","2023-03-05 22:00","2023","03","05","22:00","-31.7","","-34.8","","74","","","","11","","19","","","","102.83","","","","-45","","NA"
"-135.44","69.63","PELLY ISLAND","2203095","2023-03-05 23:00","2023","03","05","23:00","-31.3","","-34.5","","74","","","","12","","16","","","","102.82","","","","-43","","NA"
"-135.44","69.63","PELLY ISLAND","2203095","2023-03-06 00:00","2023","03","06","00:00","-31.2","","-34.3","","74","","","","11","","19","","","","102.80","","","","-44","","NA"
"-135.44","69.63","PELLY ISLAND","2203095","2023-03-06 01:00","2023","03","06","01:00","-31.3","","-34.4","","74","","","","12","","15","","","","102.77","","","","-43","","NA"
"-135.44","69.63","PELLY ISLAND","2203095","2023-03-06 02:00","2023","03","06","02:00","-30.9","","-34.1","","74","","","","11","","14","","","","102.73","","","","-42","","NA"
"-135.44","69.63","PELLY ISLAND","2203095","2023-03-06 03:00","2023","03","06","03:00","-32.1","","-35.3","","73","","","","10","","15","","","","102.71","","","","-44","","NA"
"-135.44","69.63","PELLY ISLAND","2203095","2023-03-06 04:00","2023","03","06","04:00","-32.2","","-35.4","","73","","","","11","","16","","","","102.71","","","","-45","","NA"
"-135.44","69.63","PELLY ISLAND","2203095","2023-03-06 05:00","2023","03","06","05:00","-31.1","","-34.2","","74","","","","10","","18","","","","102.69","","","","-44","","NA"
"-135.44","69.63","PELLY ISLAND","2203095","2023-03-06 06:00","2023","03","06","06:00","-31.4","","-34.5","","74","","","","10","","19","","","","102.66","","","","-45","","NA"
"-135.44","69.63","PELLY ISLAND","2203095","2023-03-06 07:00","2023","03","06","07:00","-31.5","","-34.6","","74","","","","10","","18","","","","102.64","","","","-44","","NA"
"-135.44","69.63","PELLY ISLAND","2203095","2023-03-06 08:00","2023","03","06","08:00","-30.1","","-33.2","","75","","","","12","","15","","","","102.63","","","","-42","","NA"
"-135.44","69.63","PELLY ISLAND","2203095","2023-03-06 09:00","2023","03","06","09:00","-30.7","","-33.8","","74","","","","11","","13","","","","102.65","","","","-41","","NA"
"-135.44","69.63","PELLY ISLAND","2203095","2023-03-06 10:00","2023","03","06","10:00","-29.6","","-32.6","","75","","","","12","","12","","","","102.66","","","","-40","","NA"
"-135.44","69.63","PELLY ISLAND","2203095","2023-03-06 11:00","2023","03","06","11:00","-29.1","","-32.2","","75","","","","8","","15","","","","102.68","","","","-40","","NA"
"-135.44","69.63","PELLY ISLAND","2203095","2023-03-06 12:00","2023","03","06","12:00","-27.3","","-30.2","","76","","","","9","","13","","","","102.69","","","","-37","","NA"
"-135.44","69.63","PELLY ISLAND","2203095","2023-03-06 13:00","2023","03","06","13:00","-26.2","","-29.0","","77","","","","9","","10","","","","102.68","","","","-35","","NA"
"-135.44","69.63","PELLY ISLAND","2203095","2023-03-06 14:00","2023","03","06","14:00","-26.7","","-29.5","","77","","","","9","","16","","","","102.71","","","","-38","","NA"
"-135.44","69.63","PELLY ISLAND","2203095","2023-03-06 15:00","2023","03","06","15:00","-26.7","","-29.5","","77","","","","9","","15","","","","102.73","","","","-37","","NA"
"-135.44","69.63","PELLY ISLAND","2203095","2023-03-06 16:00","2023","03","06","16:00","-26.5","","-29.3","","77","","","","8","","15","","","","102.79","","","","-37","","NA"
"-135.44","69.63","PELLY ISLAND","2203095","2023-03-06 17:00","2023","03","06","17:00","-28.1","","-31.0","","76","","","","9","","18","","","","102.82","","","","-40","","NA"
"-135.44","69.63","PELLY ISLAND","2203095","2023-03-06 18:00","2023","03","06","18:00","-28.7","","-31.6","","76","","","","9","","13","","","","102.86","","","","-39","","NA"
"-135.44","69.63","PELLY ISLAND","2203095","2023-03-06 19:00","2023","03","06","19:00","-29.6","","-32.5","","75","","","","8","","19","","","","102.86","","","","-42","","NA"
"-135.44","69.63","PELLY ISLAND","2203095","2023-03-06 20:00","2023","03","06","20:00","-30.3","","-33.3","","75","","","","10","","22","","","","102.85","","","","-44","","NA"
"-135.44","69.63","PELLY ISLAND","2203095","2023-03-06 21:00","2023","03","06","21:00","-30.8","","-33.9","","74","","","","10","","19","","","","102.91","","","","-44","","NA"
"-135.44","69.63","PELLY ISLAND","2203095","2023-03-06 22:00","2023","03","06","22:00","-31.2","","-34.3","","74","","","","9","","18","","","","102.93","","","","-44","","NA"
"-135.44","69.63","PELLY ISLAND","2203095","2023-03-06 23:00","2023","03","06","23:00","-31.4","","-34.6","","74","","","","9","","20","","","","102.94","","","","-45","","NA"
"-135.44","69.63","PELLY ISLAND","2203095","2023-03-07 00:00","2023","03","07","00:00","-31.9","","-35.1","","73","","","","9","","21","","","","102.97","","","","-46","","NA"
"-135.44","69.63","PELLY ISLAND","2203095","2023-03-07 01:00","2023","03","07","01:00","-32.0","","-35.2","","73","","","","10","","19","","","","102.99","","","","-45","","NA"
"-135.44","69.63","PELLY ISLAND","2203095","2023-03-07 02:00","2023","03","07","02:00","-31.5","","-34.7","","74","","","","11","","16","","","","103.02","","","","-44","","NA"
"-135.44","69.63","PELLY ISLAND","2203095","2023-03-07 03:00","2023","03","07","03:00","-31.7","","-34.9","","74","","","","11","","16","","","","103.01","","","","-44","","NA"
"-135.44","69.63","PELLY ISLAND","2203095","2023-03-07 04:00","2023","03","07","04:00","-31.7","","-34.8","","74","","","","11","","15","","","","103.02","","","","-44","","NA"
"-135.44","69.63","PELLY ISLAND","2203095","2023-03-07 05:00","2023","03","07","05:00","-31.3","","-34.5","","74","","","","11","","16","","","","103.07","","","","-43","","NA"
"-135.44","69.63","PELLY ISLAND","2203095","2023-03-07 06:00","2023","03","07","06:00","-31.3","","-34.4","","74","","","","11","","18","","","","103.03","","","","-44","","NA"
"-135.44","69.63","PELLY ISLAND","2203095","2023-03-07 07:00","2023","03","07","07:00","-30.7","","-33.8","","74","","","","12","","23","","","","103.03","","","","-45","","NA"
"-135.44","69.63","PELLY ISLAND","2203095","2023-03-07 08:00","2023","03","07","08:00","-30.3","","-33.4","","74","","","","12","","22","","","","103.00","","","","-44","","NA"
"-135.44","69.63","PELLY ISLAND","2203095","2023-03-07 09:00","2023","03","07","09:00","-30.2","","-33.2","","75","","","","12","","21","","","","102.96","","","","-44","","NA"
"-135.44","69.63","PELLY ISLAND","2203095","2023-03-07 10:00","2023","03","07","10:00","-29.9","","-33.0","","74","","","","12","","21","","","","103.00","","","","-43","","NA"
"-135.44","69.63","PELLY ISLAND","2203095","2023-03-07 11:00","2023","03","07","11:00","-28.4","","-31.4","","75","","","","12","","24","","","","102.99","","","","-42","","NA"
"-135.44","69.63","PELLY ISLAND","2203095","2023-03-07 12:00","2023","03","07","12:00","-27.2","","-30.1","","76","","","","12","","26","","","","102.98","","","","-41","","NA"
"-135.44","69.63","PELLY ISLAND","2203095","2023-03-07 13:00","2023","03","07","13:00","-25.9","","-28.8","","77","","","","12","","27","","","","103.01","","","","-40","","NA"
"-135.44","69.63","PELLY ISLAND","2203095","2023-03-07 14:00","2023","03","07","14:00","-25.0","","-27.7","","78","","","","12","","32","","","","102.99","","","","-39","","NA"
"-135.44","69.63","PELLY ISLAND","2203095","2023-03-07 15:00","2023","03","07","15:00","-23.9","","-26.6","","79","","","","12","","36","","","","102.94","","","","-39","","NA"
"-135.44","69.63","PELLY ISLAND","2203095","2023-03-07 16:00","2023","03","07","16:00","-22.7","","-25.3","","79","","","","12","","37","","","","102.94","","","","-37","","NA"
"-135.44","69.63","PELLY ISLAND","2203095","2023-03-07 17:00","2023","03","07","17:00","-21.9","","-24.4","","80","","","","12","","38","","","","102.93","","","","-36","","NA"
"-135.44","69.63","PELLY ISLAND","2203095","2023-03-07 18:00","2023","03","07","18:00","-21.8","","-24.3","","81","","","","12","","41","","","","102.87","","","","-37","","NA"
"-135.44","69.63","PELLY ISLAND","2203095","2023-03-07 19:00","2023","03","07","19:00","-21.1","","-23.5","","81","","","","13","","41","","","","102.85","","","","-36","","NA"
"-135.44","69.63","PELLY ISLAND","2203095","2023-03-07 20:00","2023","03","07","20:00"
"-135.44","69.63","PELLY ISLAND","2203095","2023-03-07 21:00","2023","03","07","21:00","-20.9","","-23.3","","81","","","","13","","42","","","","102.83","","","","-36","","NA"
"-135.44","69.63","PELLY ISLAND","2203095","2023-03-07 22:00","2023","03","07","22:00","-21.2","","-23.6","","81","","","","13","","43","","","","102.80","","","","-36","","NA"
"-135.44","69.63","PELLY ISLAND","2203095","2023-03-07 23:00","2023","03","07","23:00","-21.0","","-23.3","","82","","","","13","","43","","","","102.76","","","","-36","","NA"
"-135.44","69.63","PELLY ISLAND","2203095","2023-03-08 00:00","2023","03","08","00:00","-21.4","","-23.8","","81","","","","13","","40","","","","102.73","","","","-36","","NA"
"-135.44","69.63","PELLY ISLAND","2203095","2023-03-08 01:00","2023","03","08","01:00","-19.8","","-22.0","","83","","","","14","","49","","","","102.59","","","","-35","","NA"
"-135.44","69.63","PELLY ISLAND","2203095","2023-03-08 02:00","2023","03","08","02:00","-19.0","","-21.1","","83","","","","14","","49","","","","102.59","","","","-34","","NA"
"-135.44","69.63","PELLY ISLAND","2203095","2023-03-08 03:00","2023","03","08","03:00","-18.3","","-20.4","","84","","","","15","","48","","","","102.62","","","","-33","","NA"
"-135.44","69.63","PELLY ISLAND","2203095","2023-03-08 04:00","2023","03","08","04:00","-18.3","","-20.4","","84","","","","14","","50","","","","102.53","","","","-33","","NA"
"-135.44","69.63","PELLY ISLAND","2203095","2023-03-08 05:00","2023","03","08","05:00","-18.5","","-20.5","","84","","","","13","","59","","","","102.42","","","","-34","","NA"
"-135.44","69.63","PELLY ISLAND","2203095","2023-03-08 06:00","2023","03","08","06:00","-18.2","","-20.3","","84","","","","14","","52","","","","102.45","","","","-33","","NA"
"-135.44","69.63","PELLY ISLAND","2203095","2023-03-08 07:00","2023","03","08","07:00","-17.9","","-19.9","","84","","","","14","","53","","","","102.42","","","","-33","","NA"
"-135.44","69.63","PELLY ISLAND","2203095","2023-03-08 08:00","2023","03","08","08:00","-17.9","","-20.0","","84","","","","14","","56","","","","102.34","","","","-33","","NA"
"-135.44","69.63","PELLY ISLAND","2203095","2023-03-08 09:00","2023","03","08","09:00","-18.1","","-20.2","","84","","","","14","","49","","","","102.32","","","","-33","","NA"
"-135.44","69.63","PELLY ISLAND","2203095","2023-03-08 10:00","2023","03","08","10:00","-18.2","","-20.3","","84","","","","14","","53","","","","102.24","","","","-33","","NA"
"-135.44","69.63","PELLY ISLAND","2203095","2023-03-08 11:00","2023","03","08","11:00","-18.5","","-20.7","","83","","","","14","","53","","","","102.22","","","","-34","","NA"
"-135.44","69.63","PELLY ISLAND","2203095","2023-03-08 12:00","2023","03","08","12:00","-17.9","","-20.0","","84","","","","15","","53","","","","102.19","","","","-33","","NA"
"-135.44","69.63","PELLY ISLAND","2203095","2023-03-08 13:00","2023","03","08","13:00","-17.7","","-19.8","","84","","","","14","","51","","","","102.14","","","","-32","","NA"
"-135.44","69.63","PELLY ISLAND","2203095","2023-03-08 14:00","2023","03","08","14:00","-17.3","","-19.3","","84","","","","15","","45","","","","102.12","","","","-31","","NA"
"-135.44","69.63","PELLY ISLAND","2203095","2023-03-08 15:00","2023","03","08","15:00","-16.9","","-18.9","","84","","","","15","","43","","","","102.04","","","","-30","","NA"
"-135.44","69.63","PELLY ISLAND","2203095","2023-03-08 16:00","2023","03","08","16:00","-16.2","","-18.1","","85","","","","14","","42","","","","101.99","","","","-29","","NA"
"-135.44","69.63","PELLY ISLAND","2203095","2023-03-08 17:00","2023","03","08","17:00","-16.2","","-18.1","","85","","","","15","","38","","","","101.95","","","","-29","","NA"
"-135.44","69.63","PELLY ISLAND","2203095","2023-03-08 18:00","2023","03","08","18:00","-16.6","","-18.5","","85","","","","15","","32","","","","101.87","","","","-28","","NA"
"-135.44","69.63","PELLY ISLAND","2203095","2023-03-08 19:00","2023","03","08","19:00","-16.3","","-18.1","","86","","","","15","","33","","","","101.82","","","","-28","","NA"
"-135.44","69.63","PELLY ISLAND","2203095","2023-03-08 20:00","2023","03","08","20:00","-15.9","","-17.7","","86","","","","15","","36","","","","101.78","","","","-28","","NA"
"-135.44","69.63","PELLY ISLAND","2203095","2023-03-08 21:00","2023","03","08","21:00","-15.9","","-17.8","","86","","","","15","","32","","","","101.75","","","","-28","","NA"
"-135.44","69.63","PELLY ISLAND","2203095","2023-03-08 22:00","2023","03","08","22:00","-16.2","","-18.0","","86","","","","15","","34","","","","101.70","","","","-28","","NA"
"-135.44","69.63","PELLY ISLAND","2203095","2023-03-08 23:00","2023","03","08","23:00"
"-135.44","69.63","PELLY ISLAND","2203095","2023-03-09 00:00","2023","03","09","00:00","-16.9","","-18.8","","85","","","","15","","28","","","","101.61","","","","-28","","NA"
"-135.44","69.63","PELLY ISLAND","2203095","2023-03-09 01:00","2023","03","09","01:00","-16.4","","-18.3","","85","","","","15","","28","","","","101.60","","","","-28","","NA"
"-135.44","69.63","PELLY ISLAND","2203095","2023-03-09 02:00","2023","03","09","02:00","-16.3","","-18.1","","86","","","","15","","26","","","","101.58","","","","-27","","NA"
"-135.44","69.63","PELLY ISLAND","2203095","2023-03-09 03:00","2023","03","09","03:00","-16.2","","-18.1","","86","","","","13","","21","","","","101.63","","","","-26","","NA"
"-135.44","69.63","PELLY ISLAND","2203095","2023-03-09 04:00","2023","03","09","04:00","-16.7","","-18.6","","85","","","","11","","18","","","","101.68","","","","-26","","NA"
"-135.44","69.63","PELLY ISLAND","2203095","2023-03-09 05:00","2023","03","09","05:00","-17.6","","-19.6","","85","","","","10","","13","","","","101.77","","","","-25","","NA"
"-135.44","69.63","PELLY ISLAND","2203095","2023-03-09 06:00","2023","03","09","06:00","-17.9","","-19.9","","84","","","","10","","9","","","","101.85","","","","-24","","NA"
"-135.44","69.63","PELLY ISLAND","2203095","2023-03-09 07:00","2023","03","09","07:00","-18.1","","-20.1","","84","","","","11","","7","","","","101.90","","","","-23","","NA"
"-135.44","69.63","PELLY ISLAND","2203095","2023-03-09 08:00","2023","03","09","08:00","-17.7","","-19.7","","84","","","","0","","1","","","","101.97","","","","-18","","NA"
"-135.44","69.63","PELLY ISLAND","2203095","2023-03-09 09:00","2023","03","09","09:00","-17.5","","-19.5","","85","","","","34","","5","","","","102.06","","","","-21","","NA"
"-135.44","69.63","PELLY ISLAND","2203095","2023-03-09 10:00","2023","03","09","10:00","-14.5","","-16.2","","87","","","","31","","29","","","","102.07","","","","-25","","NA"
"-135.44","69.63","PELLY ISLAND","2203095","2023-03-09 11:00","2023","03","09","11:00","-13.1","","-14.7","","88","","","","31","","47","","","","102.20","","","","-26","","NA"
"-135.44","69.63","PELLY ISLAND","2203095","2023-03-09 12:00","2023","03","09","12:00","-14.2","","-15.9","","87","","","","32","","52","","","","102.28","","","","-28","","NA"
"-135.44","69.63","PELLY ISLAND","2203095","2023-03-09 13:00","2023","03","09","13:00","-14.8","","-16.6","","86","","","","31","","54","","","","102.38","","","","-29","","NA"
"-135.44","69.63","PELLY ISLAND","2203095","2023-03-09 14:00","2023","03","09","14:00","-15.4","","-17.2","","86","","","","31","","51","","","","102.47","","","","-29","","NA"
"-135.44","69.63","PELLY ISLAND","2203095","2023-03-09 15:00","2023","03","09","15:00","-15.6","","-17.5","","86","","","","32","","50","","","","102.55","","","","-29","","NA"
"-135.44","69.63","PELLY ISLAND","2203095","2023-03-09 16:00","2023","03","09","16:00","-16.0","","-17.9","","85","","","","32","","54","","","","102.59","","","","-30","","NA"
"-135.44","69.63","PELLY ISLAND","2203095","2023-03-09 17:00","2023","03","09","17:00","-16.5","","-18.4","","85","","","","32","","49","","","","102.69","","","","-31","","NA"
"-135.44","69.63","PELLY ISLAND","2203095","2023-03-09 18:00","2023","03","09","18:00","-17.1","","-19.1","","85","","","","32","","49","","","","102.76","","","","-31","","NA"
"-135.44","69.63","PELLY ISLAND","2203095","2023-03-09 19:00","2023","03","09","19:00","-17.6","","-19.6","","85","","","","32","","52","","","","102.79","","","","-32","","NA"
"-135.44","69.63","PELLY ISLAND","2203095","2023-03-09 20:00","2023","03","09","20:00","-17.8","","-19.8","","84","","","","32","","50","","","","102.85","","","","-32","","NA"
"-135.44","69.63","PELLY ISLAND","2203095","2023-03-09 21:00","2023","03","09","21:00","-17.9","","-20.0","","84","","","","32","","45","","","","102.90","","","","-32","","NA"
"-135.44","69.63","PELLY ISLAND","2203095","2023-03-09 22:00","2023","03","09","22:00","-18.1","","-20.1","","84","","","","32","","47","","","","102.94","","","","-32","","NA"
"-135.44","69.63","PELLY ISLAND","2203095","2023-03-09 23:00","2023","03","09","23:00","-18.2","","-20.2","","84","","","","31","","41","","","","102.99","","","","-32","","NA"
"-135.44","69.63","PELLY ISLAND","2203095","2023-03-10 00:00","2023","03","10","00:00","-18.8","","-20.9","","84","","","","32","","41","","","","103.01","","","","-33","","NA"
"-135.44","69.63","PELLY ISLAND","2203095","2023-03-10 01:00","2023","03","10","01:00","-18.8","","-20.9","","84","","","","32","","44","","","","103.02","","","","-33","","NA"
"-135.44","69.63","PELLY ISLAND","2203095","2023-03-10 02:00","2023","03","10","02:00","-19.2","","-21.4","","83","","","","32","","36","","","","103.05","","","","-32","","NA"
"-135.44","69.63","PELLY ISLAND","2203095","2023-03-10 03:00","2023","03","10","03:00","-19.4","","-21.5","","83","","","","32","","34","","","","103.06","","","","-32","","NA"
"-135.44","69.63","PELLY ISLAND","2203095","2023-03-10 04:00","2023","03","10","04:00","-19.2","","-21.3","","83","","","","32","","33","","","","103.06","","","","-32","","NA"
"-135.44","69.63","PELLY ISLAND","2203095","2023-03-10 05:00","2023","03","10","05:00","-18.9","","-21.0","","83","","","","31","","30","","","","103.06","","","","-31","","NA"
"-135.44","69.63","PELLY ISLAND","2203095","2023-03-10 06:00","2023","03","10","06:00","-19.0","","-21.1","","83","","","","30","","28","","","","103.06","","","","-31","","NA"
"-135.44","69.63","PELLY ISLAND","2203095","2023-03-10 07:00","2023","03","10","07:00","-19.5","","-21.7","","83","","","","30","","27","","","","103.06","","","","-31","","NA"
"-135.44","69.63","PELLY ISLAND","2203095","2023-03-10 08:00","2023","03","10","08:00","-19.2","","-21.3","","83","","","","30","","31","","","","103.04","","","","-32","","NA"
"-135.44","69.63","PELLY ISLAND","2203095","2023-03-10 09:00","2023","03","10","09:00","-19.6","","-21.7","","83","","","","30","","26","","","","103.02","","","","-31","","NA"
"-135.44","69.63","PELLY ISLAND","2203095","2023-03-10 10:00","2023","03","10","10:00","-20.4","","-22.6","","82","","","","30","","21","","","","102.99","","","","-31","","NA"
"-135.44","69.63","PELLY ISLAND","2203095","2023-03-10 11:00","2023","03","10","11:00","-19.9","","-22.2","","82","","","","28","","22","","","","102.98","","","","-31","","NA"
"-135.44","69.63","PELLY ISLAND","2203095","2023-03-10 12:00","2023","03","10","12:00","-19.1","","-21.4","","82","","","","28","","23","","","","102.94","","","","-30","","NA"
"-135.44","69.63","PELLY ISLAND","2203095","2023-03-10 13:00","2023","03","10","13:00","-18.4","","-20.6","","83","","","","28","","28","","","","102.91","","","","-30","","NA"
"-135.44","69.63","PELLY ISLAND","2203095","2023-03-10 14:00","2023","03","10","14:00","-18.1","","-20.3","","83","","","","27","","25","","","","102.89","","","","-29","","NA"
"-135.44","69.63","PELLY ISLAND","2203095","2023-03-10 15:00","2023","03","10","15:00","-17.6","","-19.7","","83","","","","28","","28","","","","102.87","","","","-29","","NA"
"-135.44","69.63","PELLY ISLAND","2203095","2023-03-10 16:00","2023","03","10","16:00","-17.9","","-20.1","","83","","","","27","","23","","","","102.84","","","","-29","","NA"
"-135.44","69.63","PELLY ISLAND","2203095","2023-03-10 17:00","2023","03","10","17:00","-18.4","","-20.6","","83","","","","27","","23","","","","102.81","","","","-29","","NA"
"-135.44","69.63","PELLY ISLAND","2203095","2023-03-10 18:00","2023","03","10","18:00","-19.0","","-21.2","","83","","","","28","","21","","","","102.78","","","","-29","","NA"
"-135.44","69.63","PELLY ISLAND","2203095","2023-03-10 19:00","2023","03","10","19:00","-20.7","","-23.0","","82","","","","27","","20","","","","102.77","","","","-31","","NA"
"-135.44","69.63","PELLY ISLAND","2203095","2023-03-10 20:00","2023","03","10","20:00","-21.0","","-23.3","","82","","","","27","","19","","","","102.75","","","","-31","","NA"
"-135.44","69.63","PELLY ISLAND","2203095","2023-03-10 21:00","2023","03","10","21:00","-20.8","","-23.1","","82","","","","27","","22","","","","102.72","","","","-32","","NA"
"-135.44","69.63","PELLY ISLAND","2203095","2023-03-10 22:00","2023","03","10","22:00","-22.1","","-24.5","","81","","","","27","","21","","","","102.68","","","","-33","","NA"
"-135.44","69.63","PELLY ISLAND","2203095","2023-03-10 23:00","2023","03","10","23:00","-22.1","","-24.5","","81","","","","27","","19","","","","102.67","","","","-33","","NA"
"-135.44","69.63","PELLY ISLAND","2203095","2023-03-11 00:00","2023","03","11","00:00","-19.8","","-22.0","","83","","","","28","","17","","","","102.65","","","","-29","","NA"
"-135.44","69.63","PELLY ISLAND","2203095","2023-03-11 01:00","2023","03","11","01:00","-22.0","","-24.4","","81","","","","26","","15","","","","102.63","","","","-32","","NA"
"-135.44","69.63","PELLY ISLAND","2203095","2023-03-11 02:00","2023","03","11","02:00","-20.3","","-22.5","","83","","","","24","","12","","","","102.60","","","","-28","","NA"
"-135.44","69.63","PELLY ISLAND","2203095","2023-03-11 03:00","2023","03","11","03:00","-20.8","","-23.0","","82","","","","23","","15","","","","102.55","","","","-30","","NA"
"-135.44","69.63","PELLY ISLAND","2203095","2023-03-11 04:00","2023","03","11","04:00","-20.5","","-22.7","","82","","","","22","","20","","","","102.52","","","","-31","","NA"
"-135.44","69.63","PELLY ISLAND","2203095","2023-03-11 05:00","2023","03","11","05:00","-21.9","","-24.2","","81","","","","20","","21","","","","102.48","","","","-33","","NA"
"-135.44","69.63","PELLY ISLAND","2203095","2023-03-11 06:00","2023","03","11","06:00","-23.0","","-25.5","","80","","","","20","","17","","","","102.44","","","","-33","","NA"
"-135.44","69.63","PELLY ISLAND","2203095","2023-03-11 07:00","2023","03","11","07:00","-21.2","","-23.6","","82","","","","22","","23","","","","102.40","","","","-33","","NA"
"-135.44","69.63","PELLY ISLAND","2203095","2023-03-11 08:00","2023","03","11","08:00","-20.4","","-22.7","","82","","","","24","","22","","","","102.37","","","","-31","","NA"
"-135.44","69.63","PELLY ISLAND","2203095","2023-03-11 09:00","2023","03","11","09:00","-18.0","","-20.0","","84","","","","25","","20","","","","102.36","","","","-28","","NA"
"-135.44","69.63","PELLY ISLAND","2203095","2023-03-11 10:00","2023","03","11","10:00","-17.2","","-19.2","","84","","","","25","","25","","","","102.35","","","","-28","","NA"
"-135.44","69.63","PELLY ISLAND","2203095","2023-03-11 11:00","2023","03","11","11:00","-15.6","","-17.4","","86","","","","25","","27","","","","102.33","","","","-26","","NA"
"-135.44","69.63","PELLY ISLAND","2203095","2023-03-11 12:00","2023","03","11","12:00","-13.1","","-14.8","","88","","","","27","","27","","","","102.34","","","","-23","","NA"
"-135.44","69.63","PELLY ISLAND","2203095","2023-03-11 13:00","2023","03","11","13:00","-12.3","","-13.8","","88","","","","29","","31","","","","102.37","","","","-23","","NA"
"-135.44","69.63","PELLY ISLAND","2203095","2023-03-11 14:00","2023","03","11","14:00","-12.9","","-14.6","","88","","","","29","","30","","","","102.41","","","","-23","","NA"
"-135.44","69.63","PELLY ISLAND","2203095","2023-03-11 15:00","2023","03","11","15:00","-13.3","","-14.9","","88","","","","29","","26","","","","102.40","","","","-23","","NA"
"-135.44","69.63","PELLY ISLAND","2203095","2023-03-11 16:00","2023","03","11","16:00","-13.1","","-14.6","","88","","","","29","","22","","","","102.40","","","","-22","","NA"
"-135.44","69.63","PELLY ISLAND","2203095","2023-03-11 17:00","2023","03","11","17:00","-12.9","","-14.5","","88","","","","29","","20","","","","102.35","","","","-22","","NA"
"-135.44","69.63","PELLY ISLAND","2203095","2023-03-11 18:00","2023","03","11","18:00","-14.5","","-16.2","","87","","","","26","","10","","","","102.33","","","","-21","","NA"
"-135.44","69.63","PELLY ISLAND","2203095","2023-03-11 19:00","2023","03","11","19:00","-14.9","","-16.6","","87","","","","25","","9","","","","102.32","","","","-21","","NA"
"-135.44","69.63","PELLY ISLAND","2203095","2023-03-11 20:00","2023","03","11","20:00","-14.5","","-16.2","","87","","","","30","","11","","","","102.27","","","","-21","","NA"
"-135.44","69.63","PELLY ISLAND","2203095","2023-03-11 21:00","2023","03","11","21:00","-16.0","","-17.7","","86","","","","24","","6","","","","102.26","","","","-20","","NA"
"-135.44","69.63","PELLY ISLAND","2203095","2023-03-11 22:00","2023","03","11","22:00","-16.8","","-18.7","","85","","","","23","","7","","","","102.19","","","","-22","","NA"
"-135.44","69.63","PELLY ISLAND","2203095","2023-03-11 23:00","2023","03","11","23:00","-17.6","","-19.6","","85","","","","22","","12","","","","102.14","","","","-25","","NA"
"-135.44","69.63","PELLY ISLAND","2203095","2023-03-12 00:00","2023","03","12","00:00","-17.6","","-19.5","","85","","","","23","","12","","","","102.07","","","","-25","","NA"
"-135.44","69.63","PELLY ISLAND","2203095","2023-03-12 01:00","2023","03","12","01:00","-18.7","","-20.9","","83","","","","16","","5","","","","102.02","","","","-23","","NA"
"-135.44","69.63","PELLY ISLAND","2203095","2023-03-12 02:00","2023","03","12","02:00","-20.8","","-23.1","","82","","","","11","","14","","","","101.97","","","","-30","","NA"
"-135.44","69.63","PELLY ISLAND","2203095","2023-03-12 03:00","2023","03","12","03:00","-21.5","","-23.7","","82","","","","11","","11","","","","101.90","","","","-29","","NA"
"-135.44","69.63","PELLY ISLAND","2203095","2023-03-12 04:00","2023","03","12","04:00","-21.5","","-23.8","","82","","","","10","","10","","","","101.81","","","","-29","","NA"
"-135.44","69.63","PELLY ISLAND","2203095","2023-03-12 05:00","2023","03","12","05:00","-20.6","","-22.9","","82","","","","12","","8","","","","101.76","","","","-27","","NA"
"-135.44","69.63","PELLY ISLAND","2203095","2023-03-12 06:00","2023","03","12","06:00","-20.0","","-22.2","","83","","","","12","","8","","","","101.68","","","","-26","","NA"
"-135.44","69.63","PELLY ISLAND","2203095","2023-03-12 07:00","2023","03","12","07:00","-19.0","","-21.1","","83","","","","12","","9","","","","101.63","","","","-26","","NA"
"-135.44","69.63","PELLY ISLAND","2203095","2023-03-12 08:00","2023","03","12","08:00","-18.3","","-20.4","","84","","","","12","","14","","","","101.58","","","","-27","","NA"
"-135.44","69.63","PELLY ISLAND","2203095","2023-03-12 09:00","2023","03","12","09:00","-18.0","","-20.1","","84","","","","14","","12","","","","101.56","","","","-26","","NA"
"-135.44","69.63","PELLY ISLAND","2203095","2023-03-12 10:00","2023","03","12","10:00","-17.7","","-19.7","","84","","","","17","","9","","","","101.52","","","","-24","","NA"
"-135.44","69.63","PELLY ISLAND","2203095","2023-03-12 11:00","2023","03","12","11:00","-17.4","","-19.4","","84","","","","21","","7","","","","101.50","","","","-23","","NA"
"-135.44","69.63","PELLY ISLAND","2203095","2023-03-12 12:00","2023","03","12","12:00","-17.0","","-18.9","","85","","","","29","","9","","","","101.48","","","","-23","","NA"
"-135.44","69.63","PELLY ISLAND","2203095","2023-03-12 13:00","2023","03","12","13:00","-17.1","","-19.0","","85","","","","30","","17","","","","101.50","","","","-26","","NA"
"-135.44","69.63","PELLY ISLAND","2203095","2023-03-12 14:00","2023","03","12","14:00","-15.6","","-17.5","","86","","","","31","","23","","","","101.54","","","","-26","","NA"
"-135.44","69.63","PELLY ISLAND","2203095","2023-03-12 15:00","2023","03","12","15:00","-16.4","","-18.4","","85","","","","32","","45","","","","101.56","","","","-30","","NA"
"-135.44","69.63","PELLY ISLAND","2203095","2023-03-12 16:00","2023","03","12","16:00","-17.5","","-19.6","","84","","","","32","","45","","","","101.64","","","","-31","","NA"
"-135.44","69.63","PELLY ISLAND","2203095","2023-03-12 17:00","2023","03","12","17:00","-18.1","","-20.2","","84","","","","31","","43","","","","101.68","","","","-32","","NA"
"-135.44","69.63","PELLY ISLAND","2203095","2023-03-12 18:00","2023","03","12","18:00","-18.8","","-21.0","","83","","","","31","","41","","","","101.71","","","","-33","","NA"
"-135.44","69.63","PELLY ISLAND","2203095","2023-03-12 19:00","2023","03","12","19:00","-19.0","","-21.1","","83","","","","32","","41","","","","101.74","","","","-33","","NA"
"-135.44","69.63","PELLY ISLAND","2203095","2023-03-12 20:00","2023","03","12","20:00","-19.2","","-21.3","","83","","","","32","","35","","","","101.79","","","","-32","","NA"
"-135.44","69.63","PELLY ISLAND","2203095","2023-03-12 21:00","2023","03","12","21:00","-19.8","","-22.0","","83","","","","31","","38","","","","101.83","","","","-34","","NA"
"-135.44","69.63","PELLY ISLAND","2203095","2023-03-12 22:00","2023","03","12","22:00","-21.0","","-23.3","","82","","","","31","","35","","","","101.85","","","","-35","","NA"
"-135.44","69.63","PELLY ISLAND","2203095","2023-03-12 23:00","2023","03","12","23:00","-21.9","","-24.3","","81","","","","31","","29","","","","101.90","","","","-35","","NA"
"-135.44","69.63","PELLY ISLAND","2203095","2023-03-13 00:00","2023","03","13","00:00","-22.6","","-25.0","","81","","","","31","","27","","","","101.92","","","","-35","","NA"
"-135.44","69.63","PELLY ISLAND","2203095","2023-03-13 01:00","2023","03","13","01:00","-22.5","","-24.9","","81","","","","31","","29","","","","101.95","","","","-36","","NA"
"-135.44","69.63","PELLY ISLAND","2203095","2023-03-13 02:00","2023","03","13","02:00","-23.7","","-26.2","","80","","","","30","","22","","","","101.96","","","","-36","","NA"
"-135.44","69.63","PELLY ISLAND","2203095","2023-03-13 03:00","2023","03","13","03:00","-25.3","","-27.9","","79","","","","29","","17","","","","101.98","","","","-36","","NA"
"-135.44","69.63","PELLY ISLAND","2203095","2023-03-13 04:00","2023","03","13","04:00","-26.1","","-28.7","","78","","","","28","","16","","","","101.99","","","","-37","","NA"
"-135.44","69.63","PELLY ISLAND","2203095","2023-03-13 05:00","2023","03","13","05:00","-27.7","","-30.4","","77","","","","26","","15","","","","102.00","","","","-39","","NA"
"-135.44","69.63","PELLY ISLAND","2203095","2023-03-13 06:00","2023","03","13","06:00","-28.2","","-31.1","","77","","","","26","","16","","","","101.99","","","","-40","","NA"
"-135.44","69.63","PELLY ISLAND","2203095","2023-03-13 07:00","2023","03","13","07:00","-28.5","","-31.3","","77","","","","26","","22","","","","101.98","","","","-42","","NA"
"-135.44","69.63","PELLY ISLAND","2203095","2023-03-13 08:00","2023","03","13","08:00","-28.8","","-31.7","","76","","","","26","","20","","","","101.94","","","","-42","","NA"
"-135.44","69.63","PELLY ISLAND","2203095","2023-03-13 09:00","2023","03","13","09:00","-29.1","","-32.1","","76","","","","26","","19","","","","101.94","","","","-42","","NA"
"-135.44","69.63","PELLY ISLAND","2203095","2023-03-13 10:00","2023","03","13","10:00","-27.0","","-29.8","","77","","","","28","","25","","","","101.90","","","","-41","","NA"
"-135.44","69.63","PELLY ISLAND","2203095","2023-03-13 11:00","2023","03","13","11:00","-27.7","","-30.6","","76","","","","27","","19","","","","101.88","","","","-40","","NA"
"-135.44","69.63","PELLY ISLAND","2203095","2023-03-13 12:00","2023","03","13","12:00","-25.6","","-28.4","","77","","","","28","","22","","","","101.85","","","","-38","","NA"
"-135.44","69.63","PELLY ISLAND","2203095","2023-03-13 13:00","2023","03","13","13:00","-25.5","","-28.4","","77","","","","27","","18","","","","101.84","","","","-37","","NA"
"-135.44","69.63","PELLY ISLAND","2203095","2023-03-13 14:00","2023","03","13","14:00","-24.3","","-27.0","","78","","","","27","","16","","","","101.81","","","","-35","","NA"
"-135.44","69.63","PELLY ISLAND","2203095","2023-03-13 15:00","2023","03","13","15:00","-23.6","","-26.3","","79","","","","28","","21","","","","101.79","","","","-35","","NA"
"-135.44","69.63","PELLY ISLAND","2203095","2023-03-13 16:00","2023","03","13","16:00","-23.5","","-26.2","","79","","","","28","","20","","","","101.75","","","","-35","","NA"
"-135.44","69.63","PELLY ISLAND","2203095","2023-03-13 17:00","2023","03","13","17:00","-23.7","","-26.4","","79","","","","28","","17","","","","101.72","","","","-34","","NA"
"-135.44","69.63","PELLY ISLAND","2203095","2023-03-13 18:00","2023","03","13","18:00","-24.7","","-27.4","","79","","","","27","","14","","","","101.69","","","","-35","","NA"
"-135.44","69.63","PELLY ISLAND","2203095","2023-03-13 19:00","2023","03","13","19:00","-25.1","","-27.8","","78","","","","26","","14","","","","101.68","","","","-35","","NA"
"-135.44","69.63","PELLY ISLAND","2203095","2023-03-13 20:00","2023","03","13","20:00","-25.9","","-28.6","","78","","","","27","","20","","","","101.66","","","","-38","","NA"
"-135.44","69.63","PELLY ISLAND","2203095","2023-03-13 21:00","2023","03","13","21:00","-26.2","","-29.0","","78","","","","27","","17","","","","101.66","","","","-37","","NA"
"-135.44","69.63","PELLY ISLAND","2203095","2023-03-13 22:00","2023","03","13","22:00","-26.9","","-29.7","","77","","","","27","","14","","","","101.66","","","","-37","","NA"
"-135.44","69.63","PELLY ISLAND","2203095","2023-03-13 23:00","2023","03","13","23:00","-26.1","","-28.8","","78","","","","28","","20","","","","101.66","","","","-38","","NA"
"-135.44","69.63","PELLY ISLAND","2203095","2023-03-14 00:00","2023","03","14","00:00","-27.1","","-29.9","","77","","","","28","","18","","","","101.67","","","","-39","","NA"
"-135.44","69.63","PELLY ISLAND","2203095","2023-03-14 01:00","2023","03","14","01:00","-26.4","","-29.2","","78","","","","29","","24","","","","101.67","","","","-40","","NA"
"-135.44","69.63","PELLY ISLAND","2203095","2023-03-14 02:00","2023","03","14","02:00","-27.6","","-30.4","","77","","","","29","","16","","","","101.70","","","","-39","","NA"
"-135.44","69.63","PELLY ISLAND","2203095","2023-03-14 03:00","2023","03","14","03:00","-27.4","","-30.2","","77","","","","29","","16","","","","101.71","","","","-39","","NA"
"-135.44","69.63","PELLY ISLAND","2203095","2023-03-14 04:00","2023","03","14","04:00","-28.4","","-31.3","","76","","","","30","","14","","","","101.74","","","","-39","","NA"
"-135.44","69.63","PELLY ISLAND","2203095","2023-03-14 05:00","2023","03","14","05:00","-28.5","","-31.4","","76","","","","31","","16","","","","101.74","","","","-40","","NA"
"-135.44","69.63","PELLY ISLAND","2203095","2023-03-14 06:00","2023","03","14","06:00","-28.4","","-31.3","","76","","","","31","","14","","","","101.77","","","","-39","","NA"
"-135.44","69.63","PELLY ISLAND","2203095","2023-03-14 07:00","2023","03","14","07:00","-29.2","","-32.1","","76","","","","31","","17","","","","101.81","","","","-41","","NA"
"-135.44","69.63","PELLY ISLAND","2203095","2023-03-14 08:00","2023","03","14","08:00","-29.3","","-32.3","","76","","","","32","","17","","","","101.86","","","","-41","","NA"
"-135.44","69.63","PELLY ISLAND","2203095","2023-03-14 09:00","2023","03","14","09:00","-29.4","","-32.4","","75","","","","32","","18","","","","101.90","","","","-42","","NA"
"-135.44","69.63","PELLY ISLAND","2203095","2023-03-14 10:00","2023","03","14","10:00","-28.6","","-31.6","","76","","","","30","","12","","","","101.94","","","","-38","","NA"
"-135.44","69.63","PELLY ISLAND","2203095","2023-03-14 11:00","2023","03","14","11:00","-30.1","","-33.2","","75","","","","27","","13","","","","101.96","","","","-41","","NA"
"-135.44","69.63","PELLY ISLAND","2203095","2023-03-14 12:00","2023","03","14","12:00","-28.5","","-31.6","","75","","","","28","","15","","","","101.98","","","","-40","","NA"
"-135.44","69.63","PELLY ISLAND","2203095","2023-03-14 13:00","2023","03","14","13:00","-26.7","","-29.6","","76","","","","29","","18","","","","102.01","","","","-38","","NA"
"-135.44","69.63","PELLY ISLAND","2203095","2023-03-14 14:00","2023","03","14","14:00","-26.1","","-29.0","","77","","","","31","","21","","","","102.03","","","","-38","","NA"
"-135.44","69.63","PELLY ISLAND","2203095","2023-03-14 15:00","2023","03","14","15:00","-26.2","","-29.1","","77","","","","31","","25","","","","102.04","","","","-40","","NA"
"-135.44","69.63","PELLY ISLAND","2203095","2023-03-14 16:00","2023","03","14","16:00","-26.3","","-29.2","","77","","","","31","","23","","","","102.07","","","","-39","","NA"
"-135.44","69.63","PELLY ISLAND","2203095","2023-03-14 17:00","2023","03","14","17:00","-26.6","","-29.5","","77","","","","31","","20","","","","102.08","","","","-39","","NA"
"-135.44","69.63","PELLY ISLAND","2203095","2023-03-14 18:00","2023","03","14","18:00","-27.2","","-30.1","","77","","","","31","","16","","","","102.10","","","","-38","","NA"
"-135.44","69.63","PELLY ISLAND","2203095","2023-03-14 19:00","2023","03","14","19:00","-28.2","","-31.1","","76","","","","30","","17","","","","102.14","","","","-40","","NA"
"-135.44","69.63","PELLY ISLAND","2203095","2023-03-14 20:00","2023","03","14","20:00","-29.0","","-31.9","","76","","","","31","","17","","","","102.15","","","","-41","","NA"
"-135.44","69.63","PELLY ISLAND","2203095","2023-03-14 21:00","2023","03","14","21:00","-29.5","","-32.5","","75","","","","31","","17","","","","102.19","","","","-42","","NA"
"-135.44","69.63","PELLY ISLAND","2203095","2023-03-14 22:00","2023","03","14","22:00","-30.2","","-33.2","","75","","","","31","","15","","","","102.21","","","","-42","","NA"
"-135.44","69.63","PELLY ISLAND","2203095","2023-03-14 23:00","2023","03","14","23:00","-30.0","","-33.0","","75","","","","31","","14","","","","102.22","","","","-41","","NA"
"-135.44","69.63","PELLY ISLAND","2203095","2023-03-15 00:00","2023","03","15","00:00","-30.2","","-33.3","","75","","","","31","","14","","","","102.22","","","","-41","","NA"
"-135.44","69.63","PELLY ISLAND","2203095","2023-03-15 01:00","2023","03","15","01:00","-30.1","","-33.1","","75","","","","31","","13","","","","102.23","","","","-41","","NA"
"-135.44","69.63","PELLY ISLAND","2203095","2023-03-15 02:00","2023","03","15","02:00","-30.1","","-33.1","","75","","","","31","","13","","","","102.23","","","","-41","","NA"
"-135.44","69.63","PELLY ISLAND","2203095","2023-03-15 03:00","2023","03","15","03:00","-30.0","","-33.0","","75","","","","31","","12","","","","102.22","","","","-40","","NA"
"-135.44","69.63","PELLY ISLAND","2203095","2023-03-15 04:00","2023","03","15","04:00","-29.9","","-32.9","","75","","","","31","","8","","","","102.21","","","","-38","","NA"
"-135.44","69.63","PELLY ISLAND","2203095","2023-03-15 05:00","2023","03","15","05:00","-30.7","","-33.7","","74","","","","29","","7","","","","102.21","","","","-38","","NA"
"-135.44","69.63","PELLY ISLAND","2203095","2023-03-15 06:00","2023","03","15","06:00","-30.9","","-34.0","","74","","","","29","","7","","","","102.20","","","","-38","","NA"
"-135.44","69.63","PELLY ISLAND","2203095","2023-03-15 07:00","2023","03","15","07:00","-30.7","","-33.8","","74","","","","27","","5","","","","102.18","","","","-36","","NA"
"-135.44","69.63","PELLY ISLAND","2203095","2023-03-15 08:00","2023","03","15","08:00","-30.4","","-33.5","","74","","","","26","","6","","","","102.15","","","","-37","","NA"
"-135.44","69.63","PELLY ISLAND","2203095","2023-03-15 09:00","2023","03","15","09:00","-29.6","","-32.7","","75","","","","25","","4","","","","102.15","","","","-34","","NA"
"-135.44","69.63","PELLY ISLAND","2203095","2023-03-15 10:00","2023","03","15","10:00","-28.1","","-31.1","","75","","","","26","","5","","","","102.12","","","","-33","","NA"
"-135.44","69.63","PELLY ISLAND","2203095","2023-03-15 11:00","2023","03","15","11:00","-28.4","","-31.4","","75","","","","26","","6","","","","102.10","","","","-35","","NA"
"-135.44","69.63","PELLY ISLAND","2203095","2023-03-15 12:00","2023","03","15","12:00","-26.1","","-29.1","","76","","","","26","","5","","","","102.09","","","","-31","","NA"
"-135.44","69.63","PELLY ISLAND","2203095","2023-03-15 13:00","2023","03","15","13:00","-24.7","","-27.6","","77","","","","26","","5","","","","102.08","","","","-30","","NA"
"-135.44","69.63","PELLY ISLAND","2203095","2023-03-15 14:00","2023","03","15","14:00","-22.4","","-25.2","","77","","","","26","","4","","","","102.05","","","","-26","","NA"
"-135.44","69.63","PELLY ISLAND","2203095","2023-03-15 15:00","2023","03","15","15:00","-26.8","","-29.6","","77","","","","26","","1","","","","102.01","","","","-28","","NA"
"-135.44","69.63","PELLY ISLAND","2203095","2023-03-15 16:00","2023","03","15","16:00","-29.4","","-32.4","","75","","","","18","","6","","","","101.96","","","","-36","","NA"
"-135.44","69.63","PELLY ISLAND","2203095","2023-03-15 17:00","2023","03","15","17:00","-29.2","","-32.2","","75","","","","16","","5","","","","101.90","","","","-35","","NA"
"-135.44","69.63","PELLY ISLAND","2203095","2023-03-15 18:00","2023","03","15","18:00","-30.0","","-33.0","","75","","","","14","","6","","","","101.86","","","","-37","","NA"
"-135.44","69.63","PELLY ISLAND","2203095","2023-03-15 19:00","2023","03","15","19:00","-31.0","","-34.1","","74","","","","16","","7","","","","101.84","","","","-38","","NA"
"-135.44","69.63","PELLY ISLAND","2203095","2023-03-15 20:00","2023","03","15","20:00","-31.9","","-35.0","","74","","","","13","","5","","","","101.80","","","","-38","","NA"
"-135.44","69.63","PELLY ISLAND","2203095","2023-03-15 21:00","2023","03","15","21:00","-32.4","","-35.6","","73","","","","15","","7","","","","101.78","","","","-40","","NA"
"-135.44","69.63","PELLY ISLAND","2203095","2023-03-15 22:00","2023","03","15","22:00","-32.7","","-35.9","","73","","","","14","","8","","","","101.76","","","","-41","","NA"
"-135.44","69.63","PELLY ISLAND","2203095","2023-03-15 23:00","2023","03","15","23:00","-33.1","","-36.4","","73","","","","13","","9","","","","101.75","","","","-42","","NA"
"-135.44","69.63","PELLY ISLAND","2203095","2023-03-16 00:00","2023","03","16","00:00","-33.2","","-36.4","","73","","","","13","","8","","","","101.73","","","","-42","","NA"
"-135.44","69.63","PELLY ISLAND","2203095","2023-03-16 01:00","2023","03","16","01:00","-33.0","","-36.2","","73","","","","13","","8","","","","101.71","","","","-41","","NA"
"-135.44","69.63","PELLY ISLAND","2203095","2023-03-16 02:00","2023","03","16","02:00","-33.3","","-36.5","","73","","","","12","","8","","","","101.68","","","","-42","","NA"
"-135.44","69.63","PELLY ISLAND","2203095","2023-03-16 03:00","2023","03","16","03:00","-33.4","","-36.7","","73","","","","13","","7","","","","101.67","","","","-41","","NA"
"-135.44","69.63","PELLY ISLAND","2203095","2023-03-16 04:00","2023","03","16","04:00","-33.8","","-37.0","","72","","","","13","","8","","","","101.65","","","","-42","","NA"
"-135.44","69.63","PELLY ISLAND","2203095","2023-03-16 05:00","2023","03","16","05:00","-34.2","","-37.5","","72","","","","13","","9","","","","101.63","","","","-44","","NA"
"-135.44","69.63","PELLY ISLAND","2203095","2023-03-16 06:00","2023","03","16","06:00","-34.4","","-37.7","","72","","","","14","","10","","","","101.63","","","","-44","","NA"
"-135.44","69.63","PELLY ISLAND","2203095","2023-03-16 07:00","2023","03","16","07:00","-34.6","","-37.9","","72","","","","14","","5","","","","101.67","","","","-41","","NA"
"-135.44","69.63","PELLY ISLAND","2203095","2023-03-16 08:00","2023","03","16","08:00","-34.6","","-38.0","","72","","","","","","0","","","","101.67","","","","","","NA"
"-135.44","69.63","PELLY ISLAND","2203095","2023-03-16 09:00","2023","03","16","09:00","-34.4","","-37.7","","72","","","","10","","4","","","","101.68","","","","-39","","NA"
"-135.44","69.63","PELLY ISLAND","2203095","2023-03-16 10:00","2023","03","16","10:00","-33.6","","-36.9","","72","","","","10","","5","","","","101.68","","","","-40","","NA"
"-135.44","69.63","PELLY ISLAND","2203095","2023-03-16 11:00","2023","03","16","11:00","-32.5","","-35.8","","72","","","","10","","6","","","","101.68","","","","-39","","NA"
"-135.44","69.63","PELLY ISLAND","2203095","2023-03-16 12:00","2023","03","16","12:00","-31.6","","-34.8","","73","","","","12","","6","","","","101.68","","","","-38","","NA"
"-135.44","69.63","PELLY ISLAND","2203095","2023-03-16 13:00","2023","03","16","13:00","-29.2","","-32.3","","74","","","","12","","5","","","","101.69","","","","-35","","NA"
"-135.44","69.63","PELLY ISLAND","2203095","2023-03-16 14:00","2023","03","16","14:00","-29.2","","-32.3","","74","","","","12","","2","","","","101.70","","","","-31","","NA"
"-135.44","69.63","PELLY ISLAND","2203095","2023-03-16 15:00","2023","03","16","15:00","-28.7","","-31.8","","75","","","","0","","1","","","","101.72","","","","-30","","NA"
"-135.44","69.63","PELLY ISLAND","2203095","2023-03-16 16:00","2023","03","16","16:00","-29.4","","-32.5","","74","","","","","","0","","","","101.74","","","","","","NA"
"-135.44","69.63","PELLY ISLAND","2203095","2023-03-16 17:00","2023","03","16","17:00","-29.8","","-32.9","","75","","","","0","","1","","","","101.72","","","","-31","","NA"
"-135.44","69.63","PELLY ISLAND","2203095","2023-03-16 18:00","2023","03","16","18:00","-30.1","","-33.1","","75","","","","12","","3","","","","101.70","","","","-33","","NA"
"-135.44","69.63","PELLY ISLAND","2203095","2023-03-16 19:00","2023","03","16","19:00","-30.2","","-33.2","","75","","","","12","","4","","","","101.68","","","","-35","","NA"
"-135.44","69.63","PELLY ISLAND","2203095","2023-03-16 20:00","2023","03","16","20:00","-31.7","","-34.9","","74","","","","10","","8","","","","101.69","","","","-40","","NA"
"-135.44","69.63","PELLY ISLAND","2203095","2023-03-16 21:00","2023","03","16","21:00","-32.2","","-35.4","","73","","","","12","","9","","","","101.72","","","","-41","","NA"
"-135.44","69.63","PELLY ISLAND","2203095","2023-03-16 22:00","2023","03","16","22:00","-32.7","","-35.9","","73","","","","12","","11","","","","101.69","","","","-43","","NA"
"-135.44","69.63","PELLY ISLAND","2203095","2023-03-16 23:00","2023","03","16","23:00","-33.0","","-36.2","","73","","","","12","","11","","","","101.68","","","","-43","","NA"
"-135.44","69.63","PELLY ISLAND","2203095","2023-03-17 00:00","2023","03","17","00:00","-33.2","","-36.4","","73","","","","11","","10","","","","101.69","","","","-43","","NA"
"-135.44","69.63","PELLY ISLAND","2203095","2023-03-17 01:00","2023","03","17","01:00","-33.4","","-36.7","","72","","","","10","","9","","","","101.72","","","","-43","","NA"
"-135.44","69.63","PELLY ISLAND","2203095","2023-03-17 02:00","2023","03","17","02:00","-33.8","","-37.1","","72","","","","9","","9","","","","101.73","","","","-43","","NA"
"-135.44","69.63","PELLY ISLAND","2203095","2023-03-17 03:00","2023","03","17","03:00","-34.0","","-37.3","","72","","","","9","","14","","","","101.69","","","","-46","","NA"
"-135.44","69.63","PELLY ISLAND","2203095","2023-03-17 04:00","2023","03","17","04:00","-33.7","","-36.9","","72","","","","9","","16","","","","101.65","","","","-46","","NA"
"-135.44","69.63","PELLY ISLAND","2203095","2023-03-17 05:00","2023","03","17","05:00","-34.0","","-37.3","","72","","","","9","","15","","","","101.64","","","","-46","","NA"
"-135.44","69.63","PELLY ISLAND","2203095","2023-03-17 06:00","2023","03","17","06:00","-34.3","","-37.7","","72","","","","9","","14","","","","101.68","","","","-46","","NA"
"-135.44","69.63","PELLY ISLAND","2203095","2023-03-17 07:00","2023","03","17","07:00","-34.4","","-37.8","","72","","","","8","","15","","","","101.68","","","","-47","","NA"
"-135.44","69.63","PELLY ISLAND","2203095","2023-03-17 08:00","2023","03","17","08:00","-34.3","","-37.6","","72","","","","8","","13","","","","101.68","","","","-46","","NA"
"-135.44","69.63","PELLY ISLAND","2203095","2023-03-17 09:00","2023","03","17","09:00","-33.6","","-36.9","","72","","","","8","","16","","","","101.68","","","","-46","","NA"
"-135.44","69.63","PELLY ISLAND","2203095","2023-03-17 10:00","2023","03","17","10:00","-32.8","","-36.1","","72","","","","8","","15","","","","101.70","","","","-45","","NA"
"-135.44","69.63","PELLY ISLAND","2203095","2023-03-17 11:00","2023","03","17","11:00","-32.0","","-35.3","","73","","","","8","","13","","","","101.71","","","","-43","","NA"
"-135.44","69.63","PELLY ISLAND","2203095","2023-03-17 12:00","2023","03","17","12:00","-30.9","","-34.1","","73","","","","9","","13","","","","101.74","","","","-42","","NA"
"-135.44","69.63","PELLY ISLAND","2203095","2023-03-17 13:00","2023","03","17","13:00","-30.1","","-33.3","","73","","","","9","","13","","","","101.72","","","","-41","","NA"
"-135.44","69.63","PELLY ISLAND","2203095","2023-03-17 14:00","2023","03","17","14:00","-29.3","","-32.5","","74","","","","10","","13","","","","101.74","","","","-40","","NA"
"-135.44","69.63","PELLY ISLAND","2203095","2023-03-17 15:00","2023","03","17","15:00","-28.6","","-31.7","","74","","","","9","","14","","","","101.72","","","","-39","","NA"
"-135.44","69.63","PELLY ISLAND","2203095","2023-03-17 16:00","2023","03","17","16:00","-28.0","","-31.1","","75","","","","9","","14","","","","101.73","","","","-39","","NA"
"-135.44","69.63","PELLY ISLAND","2203095","2023-03-17 17:00","2023","03","17","17:00","-27.6","","-30.6","","76","","","","9","","14","","","","101.75","","","","-38","","NA"
"-135.44","69.63","PELLY ISLAND","2203095","2023-03-17 18:00","2023","03","17","18:00","-27.8","","-30.8","","76","","","","8","","15","","","","101.74","","","","-39","","NA"
"-135.44","69.63","PELLY ISLAND","2203095","2023-03-17 19:00","2023","03","17","19:00","-28.0","","-31.0","","76","","","","8","","15","","","","101.74","","","","-39","","NA"
"-135.44","69.63","PELLY ISLAND","2203095","2023-03-17 20:00","2023","03","17","20:00","-28.5","","-31.4","","76","","","","9","","15","","","","101.75","","","","-40","","NA"
"-135.44","69.63","PELLY ISLAND","2203095","2023-03-17 21:00","2023","03","17","21:00","-29.3","","-32.3","","75","","","","10","","13","","","","101.75","","","","-40","","NA"
"-135.44","69.63","PELLY ISLAND","2203095","2023-03-17 22:00","2023","03","17","22:00","-29.9","","-32.9","","75","","","","8","","16","","","","101.75","","","","-42","","NA"
"-135.44","69.63","PELLY ISLAND","2203095","2023-03-17 23:00","2023","03","17","23:00","-30.4","","-33.5","","74","","","","7","","19","","","","101.71","","","","-43","","NA"
"-135.44","69.63","PELLY ISLAND","2203095","2023-03-18 00:00","2023","03","18","00:00","-30.7","","-33.8","","74","","","","8","","15","","","","101.73","","","","-42","","NA"
"-135.44","69.63","PELLY ISLAND","2203095","2023-03-18 01:00","2023","03","18","01:00","-31.1","","-34.2","","74","","","","8","","16","","","","101.73","","","","-43","","NA"
"-135.44","69.63","PELLY ISLAND","2203095","2023-03-18 02:00","2023","03","18","02:00","-31.4","","-34.5","","74","","","","8","","15","","","","101.66","","","","-43","","NA"
"-135.44","69.63","PELLY ISLAND","2203095","2023-03-18 03:00","2023","03","18","03:00","-31.5","","-34.6","","74","","","","6","","17","","","","101.66","","","","-44","","NA"
"-135.44","69.63","PELLY ISLAND","2203095","2023-03-18 04:00","2023","03","18","04:00","-31.5","","-34.6","","74","","","","8","","14","","","","101.66","","","","-43","","NA"
"-135.44","69.63","PELLY ISLAND","2203095","2023-03-18 05:00","2023","03","18","05:00","-31.4","","-34.6","","74","","","","8","","15","","","","101.65","","","","-43","","NA"
"-135.44","69.63","PELLY ISLAND","2203095","2023-03-18 06:00","2023","03","18","06:00","-31.4","","-34.5","","74","","","","7","","17","","","","101.65","","","","-44","","NA"
"-135.44","69.63","PELLY ISLAND","2203095","2023-03-18 07:00","2023","03","18","07:00","-30.6","","-33.8","","74","","","","7","","19","","","","101.62","","","","-44","","NA"
"-135.44","69.63","PELLY ISLAND","2203095","2023-03-18 08:00","2023","03","18","08:00","-30.9","","-34.0","","74","","","","8","","16","","","","101.61","","","","-43","","NA"
"-135.44","69.63","PELLY ISLAND","2203095","2023-03-18 09:00","2023","03","18","09:00","-30.5","","-33.6","","74","","","","9","","15","","","","101.62","","","","-42","","NA"
"-135.44","69.63","PELLY ISLAND","2203095","2023-03-18 10:00","2023","03","18","10:00","-29.5","","-32.5","","75","","","","8","","16","","","","101.59","","","","-41","","NA"
"-135.44","69.63","PELLY ISLAND","2203095","2023-03-18 11:00","2023","03","18","11:00","-26.4","","-29.3","","77","","","","8","","16","","","","101.53","","","","-37","","NA"
"-135.44","69.63","PELLY ISLAND","2203095","2023-03-18 12:00","2023","03","18","12:00","-23.9","","-26.6","","78","","","","9","","15","","","","101.53","","","","-34","","NA"
"-135.44","69.63","PELLY ISLAND","2203095","2023-03-18 13:00","2023","03","18","13:00","-22.3","","-24.9","","79","","","","9","","14","","","","101.55","","","","-32","","NA"
"-135.44","69.63","PELLY ISLAND","2203095","2023-03-18 14:00","2023","03","18","14:00","-22.2","","-24.7","","80","","","","8","","16","","","","101.54","","","","-32","","NA"
"-135.44","69.63","PELLY ISLAND","2203095","2023-03-18 15:00","2023","03","18","15:00","-21.5","","-24.0","","80","","","","9","","16","","","","101.53","","","","-31","","NA"
"-135.44","69.63","PELLY ISLAND","2203095","2023-03-18 16:00","2023","03","18","16:00","-21.4","","-23.9","","80","","","","10","","23","","","","101.43","","","","-33","","NA"
"-135.44","69.63","PELLY ISLAND","2203095","2023-03-18 17:00","2023","03","18","17:00","-20.5","","-23.0","","81","","","","11","","21","","","","101.42","","","","-31","","NA"
"-135.44","69.63","PELLY ISLAND","2203095","2023-03-18 18:00","2023","03","18","18:00","-20.3","","-22.7","","81","","","","11","","23","","","","101.35","","","","-32","","NA"
"-135.44","69.63","PELLY ISLAND","2203095","2023-03-18 19:00","2023","03","18","19:00","-20.2","","-22.5","","82","","","","11","","25","","","","101.34","","","","-32","","NA"
"-135.44","69.63","PELLY ISLAND","2203095","2023-03-18 20:00","2023","03","18","20:00","-19.8","","-22.0","","82","","","","11","","29","","","","101.30","","","","-32","","NA"
"-135.44","69.63","PELLY ISLAND","2203095","2023-03-18 21:00","2023","03","18","21:00","-20.3","","-22.5","","82","","","","10","","25","","","","101.26","","","","-32","","NA"
"-135.44","69.63","PELLY ISLAND","2203095","2023-03-18 22:00","2023","03","18","22:00","-20.4","","-22.6","","82","","","","11","","25","","","","101.23","","","","-32","","NA"
"-135.44","69.63","PELLY ISLAND","2203095","2023-03-18 23:00","2023","03","18","23:00","-20.2","","-22.4","","82","","","","12","","23","","","","101.19","","","","-31","","NA"
"-135.44","69.63","PELLY ISLAND","2203095","2023-03-19 00:00","2023","03","19","00:00","-19.8","","-22.0","","83","","","","11","","25","","","","101.15","","","","-31","","NA"
"-135.44","69.63","PELLY ISLAND","2203095","2023-03-19 01:00","2023","03","19","01:00","-19.8","","-22.0","","82","","","","12","","26","","","","101.11","","","","-32","","NA"
"-135.44","69.63","PELLY ISLAND","2203095","2023-03-19 02:00","2023","03","19","02:00","-19.2","","-21.3","","83","","","","11","","24","","","","101.07","","","","-30","","NA"
"-135.44","69.63","PELLY ISLAND","2203095","2023-03-19 03:00","2023","03","19","03:00","-18.8","","-21.0","","83","","","","10","","24","","","","101.04","","","","-30","","NA"
"-135.44","69.63","PELLY ISLAND","2203095","2023-03-19 04:00","2023","03","19","04:00","-19.3","","-21.5","","83","","","","10","","28","","","","100.97","","","","-31","","NA"
"-135.44","69.63","PELLY ISLAND","2203095","2023-03-19 05:00","2023","03","19","05:00","-19.4","","-21.5","","83","","","","9","","23","","","","100.95","","","","-30","","NA"
"-135.44","69.63","PELLY ISLAND","2203095","2023-03-19 06:00","2023","03","19","06:00","-19.0","","-21.1","","83","","","","9","","27","","","","100.88","","","","-31","","NA"
"-135.44","69.63","PELLY ISLAND","2203095","2023-03-19 07:00","2023","03","19","07:00","-17.5","","-19.5","","84","","","","10","","28","","","","100.86","","","","-29","","NA"
"-135.44","69.63","PELLY ISLAND","2203095","2023-03-19 08:00","2023","03","19","08:00","-16.1","","-18.0","","86","","","","10","","29","","","","100.80","","","","-27","","NA"
"-135.44","69.63","PELLY ISLAND","2203095","2023-03-19 09:00","2023","03","19","09:00","-15.7","","-17.5","","86","","","","10","","29","","","","100.76","","","","-27","","NA"
"-135.44","69.63","PELLY ISLAND","2203095","2023-03-19 10:00","2023","03","19","10:00","-15.8","","-17.7","","85","","","","10","","31","","","","100.73","","","","-27","","NA"
"-135.44","69.63","PELLY ISLAND","2203095","2023-03-19 11:00","2023","03","19","11:00","-16.1","","-18.1","","85","","","","10","","28","","","","100.65","","","","-27","","NA"
"-135.44","69.63","PELLY ISLAND","2203095","2023-03-19 12:00","2023","03","19","12:00","-15.9","","-17.9","","84","","","","11","","29","","","","100.66","","","","-27","","NA"
"-135.44","69.63","PELLY ISLAND","2203095","2023-03-19 13:00","2023","03","19","13:00","-15.5","","-17.5","","85","","","","11","","24","","","","100.67","","","","-26","","NA"
"-135.44","69.63","PELLY ISLAND","2203095","2023-03-19 14:00","2023","03","19","14:00","-14.7","","-16.7","","85","","","","11","","27","","","","100.63","","","","-25","","NA"
"-135.44","69.63","PELLY ISLAND","2203095","2023-03-19 15:00","2023","03","19","15:00","-14.6","","-16.5","","86","","","","11","","31","","","","100.55","","","","-26","","NA"
"-135.44","69.63","PELLY ISLAND","2203095","2023-03-19 16:00","2023","03","19","16:00","-14.1","","-15.8","","87","","","","11","","30","","","","100.49","","","","-25","","NA"
"-135.44","69.63","PELLY ISLAND","2203095","2023-03-19 17:00","2023","03","19","17:00","-13.5","","-15.2","","87","","","","11","","31","","","","100.45","","","","-24","","NA"
"-135.44","69.63","PELLY ISLAND","2203095","2023-03-19 18:00","2023","03","19","18:00","-12.7","","-14.3","","88","","","","11","","33","","","","100.43","","","","-23","","NA"
"-135.44","69.63","PELLY ISLAND","2203095","2023-03-19 19:00","2023","03","19","19:00","-12.4","","-14.0","","88","","","","12","","31","","","","100.46","","","","-23","","NA"
"-135.44","69.63","PELLY ISLAND","2203095","2023-03-19 20:00","2023","03","19","20:00","-12.4","","-14.0","","88","","","","12","","29","","","","100.48","","","","-23","","NA"
"-135.44","69.63","PELLY ISLAND","2203095","2023-03-19 21:00","2023","03","19","21:00","-12.9","","-14.5","","88","","","","12","","23","","","","100.47","","","","-22","","NA"
"-135.44","69.63","PELLY ISLAND","2203095","2023-03-19 22:00","2023","03","19","22:00","-11.6","","-13.1","","89","","","","14","","26","","","","100.46","","","","-21","","NA"
"-135.44","69.63","PELLY ISLAND","2203095","2023-03-19 23:00","2023","03","19","23:00","-10.9","","-12.4","","89","","","","14","","25","","","","100.45","","","","-20","","NA"
"-135.44","69.63","PELLY ISLAND","2203095","2023-03-20 00:00","2023","03","20","00:00","-10.6","","-12.1","","89","","","","15","","23","","","","100.48","","","","-19","","NA"
"-135.44","69.63","PELLY ISLAND","2203095","2023-03-20 01:00","2023","03","20","01:00","-11.0","","-12.6","","88","","","","16","","24","","","","100.50","","","","-20","","NA"
"-135.44","69.63","PELLY ISLAND","2203095","2023-03-20 02:00","2023","03","20","02:00","-11.8","","-13.5","","87","","","","16","","21","","","","100.55","","","","-20","","NA"
"-135.44","69.63","PELLY ISLAND","2203095","2023-03-20 03:00","2023","03","20","03:00","-12.3","","-14.0","","87","","","","17","","23","","","","100.55","","","","-21","","NA"
"-135.44","69.63","PELLY ISLAND","2203095","2023-03-20 04:00","2023","03","20","04:00","-12.9","","-14.6","","87","","","","17","","23","","","","100.59","","","","-22","","NA"
"-135.44","69.63","PELLY ISLAND","2203095","2023-03-20 05:00","2023","03","20","05:00","-12.9","","-14.6","","87","","","","18","","22","","","","100.60","","","","-22","","NA"
"-135.44","69.63","PELLY ISLAND","2203095","2023-03-20 06:00","2023","03","20","06:00","-13.1","","-14.8","","87","","","","18","","19","","","","100.62","","","","-22","","NA"
"-135.44","69.63","PELLY ISLAND","2203095","2023-03-20 07:00","2023","03","20","07:00","-13.3","","-15.0","","87","","","","20","","23","","","","100.64","","","","-23","","NA"
"-135.44","69.63","PELLY ISLAND","2203095","2023-03-20 08:00","2023","03","20","08:00","-13.6","","-15.4","","87","","","","20","","21","","","","100.68","","","","-23","","NA"
"-135.44","69.63","PELLY ISLAND","2203095","2023-03-20 09:00","2023","03","20","09:00","-14.1","","-15.9","","86","","","","20","","16","","","","100.71","","","","-22","","NA"
"-135.44","69.63","PELLY ISLAND","2203095","2023-03-20 10:00","2023","03","20","10:00","-14.0","","-15.9","","86","","","","20","","20","","","","100.69","","","","-23","","NA"
"-135.44","69.63","PELLY ISLAND","2203095","2023-03-20 11:00","2023","03","20","11:00","-14.1","","-16.0","","85","","","","18","","18","","","","100.71","","","","-23","","NA"
"-135.44","69.63","PELLY ISLAND","2203095","2023-03-20 12:00","2023","03","20","12:00","-12.9","","-15.0","","85","","","","17","","14","","","","100.71","","","","-20","","NA"
"-135.44","69.63","PELLY ISLAND","2203095","2023-03-20 13:00","2023","03","20","13:00","-11.8","","-13.7","","86","","","","19","","16","","","","100.69","","","","-19","","NA"
"-135.44","69.63","PELLY ISLAND","2203095","2023-03-20 14:00","2023","03","20","14:00","-10.5","","-12.4","","86","","","","19","","17","","","","100.68","","","","-18","","NA"
"-135.44","69.63","PELLY ISLAND","2203095","2023-03-20 15:00","2023","03","20","15:00","-9.5","","-11.5","","86","","","","19","","18","","","","100.64","","","","-17","","NA"
"-135.44","69.63","PELLY ISLAND","2203095","2023-03-20 16:00","2023","03","20","16:00","-8.2","","-10.3","","85","","","","20","","21","","","","100.57","","","","-16","","NA"
"-135.44","69.63","PELLY ISLAND","2203095","2023-03-20 17:00","2023","03","20","17:00","-8.9","","-10.8","","86","","","","19","","21","","","","100.48","","","","-17","","NA"
"-135.44","69.63","PELLY ISLAND","2203095","2023-03-20 18:00","2023","03","20","18:00","-10.8","","-12.6","","86","","","","10","","16","","","","100.46","","","","-18","","NA"
"-135.44","69.63","PELLY ISLAND","2203095","2023-03-20 19:00","2023","03","20","19:00","-11.0","","-12.7","","87","","","","10","","19","","","","100.39","","","","-19","","NA"
"-135.44","69.63","PELLY ISLAND","2203095","2023-03-20 20:00","2023","03","20","20:00","-11.7","","-13.3","","88","","","","11","","16","","","","100.36","","","","-19","","NA"
"-135.44","69.63","PELLY ISLAND","2203095","2023-03-20 21:00","2023","03","20","21:00","-12.2","","-13.9","","88","","","","11","","19","","","","100.30","","","","-20","","NA"
"-135.44","69.63","PELLY ISLAND","2203095","2023-03-20 22:00","2023","03","20","22:00","-13.4","","-15.1","","87","","","","11","","18","","","","100.23","","","","-22","","NA"
"-135.44","69.63","PELLY ISLAND","2203095","2023-03-20 23:00","2023","03","20","23:00","-12.9","","-14.7","","86","","","","12","","17","","","","100.20","","","","-21","","NA"
"-135.44","69.63","PELLY ISLAND","2203095","2023-03-21 00:00","2023","03","21","00:00","-13.6","","-15.3","","87","","","","11","","17","","","","100.13","","","","-22","","NA"
"-135.44","69.63","PELLY ISLAND","2203095","2023-03-21 01:00","2023","03","21","01:00","-12.8","","-14.5","","87","","","","11","","20","","","","100.07","","","","-21","","NA"
"-135.44","69.63","PELLY ISLAND","2203095","2023-03-21 02:00","2023","03","21","02:00","-11.2","","-12.9","","87","","","","12","","23","","","","100.04","","","","-20","","NA"
"-135.44","69.63","PELLY ISLAND","2203095","2023-03-21 03:00","2023","03","21","03:00","-11.3","","-12.9","","88","","","","12","","22","","","","100.00","","","","-20","","NA"
"-135.44","69.63","PELLY ISLAND","2203095","2023-03-21 04:00","2023","03","21","04:00","-9.6","","-11.2","","88","","","","13","","22","","","","99.95","","","","-18","","NA"
"-135.44","69.63","PELLY ISLAND","2203095","2023-03-21 05:00","2023","03","21","05:00","-9.7","","-11.1","","89","","","","14","","18","","","","99.91","","","","-17","","NA"
"-135.44","69.63","PELLY ISLAND","2203095","2023-03-21 06:00","2023","03","21","06:00","-10.5","","-12.0","","89","","","","12","","19","","","","99.91","","","","-18","","NA"
"-135.44","69.63","PELLY ISLAND","2203095","2023-03-21 07:00","2023","03","21","07:00","-10.5","","-12.0","","89","","","","12","","19","","","","99.88","","","","-18","","NA"
"-135.44","69.63","PELLY ISLAND","2203095","2023-03-21 08:00","2023","03","21","08:00","-9.7","","-11.1","","90","","","","12","","21","","","","99.85","","","","-18","","NA"
"-135.44","69.63","PELLY ISLAND","2203095","2023-03-21 09:00","2023","03","21","09:00","-9.8","","-11.3","","89","","","","13","","20","","","","99.83","","","","-18","","NA"
"-135.44","69.63","PELLY ISLAND","2203095","2023-03-21 10:00","2023","03","21","10:00","-9.5","","-11.0","","89","","","","14","","18","","","","99.82","","","","-17","","NA"
"-135.44","69.63","PELLY ISLAND","2203095","2023-03-21 11:00","2023","03","21","11:00","-8.4","","-10.1","","87","","","","15","","20","","","","99.80","","","","-16","","NA"
"-135.44","69.63","PELLY ISLAND","2203095","2023-03-21 12:00","2023","03","21","12:00","-8.3","","-10.2","","86","","","","15","","17","","","","99.80","","","","-15","","NA"
"-135.44","69.63","PELLY ISLAND","2203095","2023-03-21 13:00","2023","03","21","13:00","-8.6","","-10.6","","85","","","","15","","19","","","","99.79","","","","-16","","NA"
"-135.44","69.63","PELLY ISLAND","2203095","2023-03-21 14:00","2023","03","21","14:00","-8.2","","-10.3","","85","","","","16","","18","","","","99.81","","","","-15","","NA"
"-135.44","69.63","PELLY ISLAND","2203095","2023-03-21 15:00","2023","03","21","15:00","-8.0","","-10.1","","85","","","","14","","16","","","","99.80","","","","-15","","NA"
"-135.44","69.63","PELLY ISLAND","2203095","2023-03-21 16:00","2023","03","21","16:00","-8.2","","-10.0","","87","","","","13","","15","","","","99.80","","","","-15","","NA"
"-135.44","69.63","PELLY ISLAND","2203095","2023-03-21 17:00","2023","03","21","17:00"
"-135.44","69.63","PELLY ISLAND","2203095","2023-03-21 18:00","2023","03","21","18:00","-8.9","","-10.7","","86","","","","14","","16","","","","99.78","","","","-16","","NA"
"-135.44","69.63","PELLY ISLAND","2203095","2023-03-21 19:00","2023","03","21","19:00","-9.1","","-10.9","","87","","","","13","","14","","","","99.76","","","","-15","","NA"
"-135.44","69.63","PELLY ISLAND","2203095","2023-03-21 20:00","2023","03","21","20:00","-10.4","","-12.1","","87","","","","14","","14","","","","99.75","","","","-17","","NA"
"-135.44","69.63","PELLY ISLAND","2203095","2023-03-21 21:00","2023","03","21","21:00","-11.1","","-12.7","","88","","","","13","","12","","","","99.78","","","","-17","","NA"
"-135.44","69.63","PELLY ISLAND","2203095","2023-03-21 22:00","2023","03","21","22:00","-12.0","","-13.5","","88","","","","13","","12","","","","99.77","","","","-18","","NA"
"-135.44","69.63","PELLY ISLAND","2203095","2023-03-21 23:00","2023","03","21","23:00","-12.1","","-13.7","","88","","","","14","","14","","","","99.75","","","","-19","","NA"
"-135.44","69.63","PELLY ISLAND","2203095","2023-03-22 00:00","2023","03","22","00:00","-13.5","","-15.3","","87","","","","15","","12","","","","99.76","","","","-20","","NA"
"-135.44","69.63","PELLY ISLAND","2203095","2023-03-22 01:00","2023","03","22","01:00","-14.1","","-15.7","","88","","","","13","","11","","","","99.75","","","","-21","","NA"
"-135.44","69.63","PELLY ISLAND","2203095","2023-03-22 02:00","2023","03","22","02:00","-13.6","","-15.5","","86","","","","14","","12","","","","99.77","","","","-20","","NA"
"-135.44","69.63","PELLY ISLAND","2203095","2023-03-22 03:00","2023","03","22","03:00","-14.7","","-16.1","","89","","","","12","","15","","","","99.80","","","","-23","","NA"
"-135.44","69.63","PELLY ISLAND","2203095","2023-03-22 04:00","2023","03","22","04:00","-15.2","","-17.0","","87","","","","13","","13","","","","99.80","","","","-23","","NA"
"-135.44","69.63","PELLY ISLAND","2203095","2023-03-22 05:00","2023","03","22","05:00","-15.4","","-17.0","","87","","","","13","","13","","","","99.81","","","","-23","","NA"
"-135.44","69.63","PELLY ISLAND","2203095","2023-03-22 06:00","2023","03","22","06:00","-15.9","","-17.5","","87","","","","12","","16","","","","99.84","","","","-24","","NA"
"-135.44","69.63","PELLY ISLAND","2203095","2023-03-22 07:00","2023","03","22","07:00","-15.8","","-17.4","","87","","","","14","","16","","","","99.85","","","","-24","","NA"
"-135.44","69.63","PELLY ISLAND","2203095","2023-03-22 08:00","2023","03","22","08:00","-15.2","","-16.7","","88","","","","15","","16","","","","99.85","","","","-23","","NA"
"-135.44","69.63","PELLY ISLAND","2203095","2023-03-22 09:00","2023","03","22","09:00","-16.6","","-18.6","","85","","","","13","","14","","","","99.89","","","","-25","","NA"
"-135.44","69.63","PELLY ISLAND","2203095","2023-03-22 10:00","2023","03","22","10:00","-15.1","","-17.1","","85","","","","15","","15","","","","99.92","","","","-23","","NA"
"-135.44","69.63","PELLY ISLAND","2203095","2023-03-22 11:00","2023","03","22","11:00","-15.6","","-17.7","","84","","","","13","","15","","","","99.95","","","","-24","","NA"
"-135.44","69.63","PELLY ISLAND","2203095","2023-03-22 12:00","2023","03","22","12:00","-15.3","","-17.5","","83","","","","13","","14","","","","99.99","","","","-23","","NA"
"-135.44","69.63","PELLY ISLAND","2203095","2023-03-22 13:00","2023","03","22","13:00","-14.1","","-16.2","","84","","","","14","","15","","","","100.03","","","","-22","","NA"
"-135.44","69.63","PELLY ISLAND","2203095","2023-03-22 14:00","2023","03","22","14:00","-13.4","","-15.5","","84","","","","13","","14","","","","100.09","","","","-21","","NA"
"-135.44","69.63","PELLY ISLAND","2203095","2023-03-22 15:00","2023","03","22","15:00","-12.4","","-14.5","","85","","","","12","","16","","","","100.12","","","","-20","","NA"
"-135.44","69.63","PELLY ISLAND","2203095","2023-03-22 16:00","2023","03","22","16:00","-12.2","","-14.3","","84","","","","11","","13","","","","100.14","","","","-19","","NA"
"-135.44","69.63","PELLY ISLAND","2203095","2023-03-22 17:00","2023","03","22","17:00","-12.3","","-14.3","","85","","","","11","","15","","","","100.16","","","","-20","","NA"
"-135.44","69.63","PELLY ISLAND","2203095","2023-03-22 18:00","2023","03","22","18:00","-12.3","","-14.3","","85","","","","10","","17","","","","100.18","","","","-20","","NA"
"-135.44","69.63","PELLY ISLAND","2203095","2023-03-22 19:00","2023","03","22","19:00","-13.0","","-14.9","","86","","","","10","","16","","","","100.19","","","","-21","","NA"
"-135.44","69.63","PELLY ISLAND","2203095","2023-03-22 20:00","2023","03","22","20:00","-13.1","","-14.9","","86","","","","11","","21","","","","100.19","","","","-22","","NA"
"-135.44","69.63","PELLY ISLAND","2203095","2023-03-22 21:00","2023","03","22","21:00","-14.1","","-15.8","","87","","","","11","","19","","","","100.22","","","","-23","","NA"
"-135.44","69.63","PELLY ISLAND","2203095","2023-03-22 22:00","2023","03","22","22:00","-14.8","","-16.6","","86","","","","12","","16","","","","100.23","","","","-23","","NA"
"-135.44","69.63","PELLY ISLAND","2203095","2023-03-22 23:00","2023","03","22","23:00","-15.2","","-16.9","","86","","","","13","","18","","","","100.24","","","","-24","","NA"
"-135.44","69.63","PELLY ISLAND","2203095","2023-03-23 00:00","2023","03","23","00:00","-15.6","","-17.3","","87","","","","13","","15","","","","100.26","","","","-24","","NA"
"-135.44","69.63","PELLY ISLAND","2203095","2023-03-23 01:00","2023","03","23","01:00","-16.4","","-18.1","","86","","","","12","","16","","","","100.28","","","","-25","","NA"
"-135.44","69.63","PELLY ISLAND","2203095","2023-03-23 02:00","2023","03","23","02:00","-15.5","","-17.3","","86","","","","12","","18","","","","100.29","","","","-24","","NA"
"-135.44","69.63","PELLY ISLAND","2203095","2023-03-23 03:00","2023","03","23","03:00","-15.7","","-17.5","","87","","","","12","","18","","","","100.30","","","","-25","","NA"
"-135.44","69.63","PELLY ISLAND","2203095","2023-03-23 04:00","2023","03","23","04:00","-14.9","","-16.6","","87","","","","13","","20","","","","100.32","","","","-24","","NA"
"-135.44","69.63","PELLY ISLAND","2203095","2023-03-23 05:00","2023","03","23","05:00","-15.6","","-17.3","","87","","","","12","","19","","","","100.32","","","","-25","","NA"
"-135.44","69.63","PELLY ISLAND","2203095","2023-03-23 06:00","2023","03","23","06:00","-14.9","","-16.6","","87","","","","13","","25","","","","100.35","","","","-25","","NA"
"-135.44","69.63","PELLY ISLAND","2203095","2023-03-23 07:00","2023","03","23","07:00"
"-135.44","69.63","PELLY ISLAND","2203095","2023-03-23 08:00","2023","03","23","08:00","-11.1","","-12.4","","90","","","","12","","21","","","","100.38","","","","-19","","NA"
"-135.44","69.63","PELLY ISLAND","2203095","2023-03-23 09:00","2023","03","23","09:00","-12.3","","-13.8","","88","","","","12","","25","","","","100.37","","","","-22","","NA"
"-135.44","69.63","PELLY ISLAND","2203095","2023-03-23 10:00","2023","03","23","10:00","-9.9","","-11.2","","90","","","","12","","26","","","","100.36","","","","-19","","NA"
"-135.44","69.63","PELLY ISLAND","2203095","2023-03-23 11:00","2023","03","23","11:00","-8.8","","-10.0","","91","","","","13","","34","","","","100.34","","","","-18","","NA"
"-135.44","69.63","PELLY ISLAND","2203095","2023-03-23 12:00","2023","03","23","12:00","-8.1","","-9.6","","89","","","","12","","32","","","","100.34","","","","-17","","NA"
"-135.44","69.63","PELLY ISLAND","2203095","2023-03-23 13:00","2023","03","23","13:00","-7.9","","-9.4","","89","","","","12","","35","","","","100.32","","","","-17","","NA"
"-135.44","69.63","PELLY ISLAND","2203095","2023-03-23 14:00","2023","03","23","14:00","-7.8","","-9.3","","89","","","","11","","33","","","","100.29","","","","-17","","NA"
"-135.44","69.63","PELLY ISLAND","2203095","2023-03-23 15:00","2023","03","23","15:00","-8.2","","-9.8","","88","","","","12","","38","","","","100.28","","","","-18","","NA"
"-135.44","69.63","PELLY ISLAND","2203095","2023-03-23 16:00","2023","03","23","16:00","-8.4","","-9.9","","88","","","","11","","33","","","","100.26","","","","-18","","NA"
"-135.44","69.63","PELLY ISLAND","2203095","2023-03-23 17:00","2023","03","23","17:00","-10.1","","-12.2","","84","","","","12","","34","","","","100.23","","","","-20","","NA"
"-135.44","69.63","PELLY ISLAND","2203095","2023-03-23 18:00","2023","03","23","18:00","-10.5","","-12.6","","85","","","","12","","35","","","","100.18","","","","-21","","NA"
"-135.44","69.63","PELLY ISLAND","2203095","2023-03-23 19:00","2023","03","23","19:00","-10.7","","-12.8","","85","","","","12","","37","","","","100.14","","","","-21","","NA"
"-135.44","69.63","PELLY ISLAND","2203095","2023-03-23 20:00","2023","03","23","20:00","-11.2","","-13.4","","84","","","","12","","35","","","","100.11","","","","-22","","NA"
"-135.44","69.63","PELLY ISLAND","2203095","2023-03-23 21:00","2023","03","23","21:00","-12.0","","-14.3","","83","","","","12","","36","","","","100.10","","","","-23","","NA"
"-135.44","69.63","PELLY ISLAND","2203095","2023-03-23 22:00","2023","03","23","22:00","-12.4","","-14.6","","84","","","","12","","39","","","","100.08","","","","-24","","NA"
"-135.44","69.63","PELLY ISLAND","2203095","2023-03-23 23:00","2023","03","23","23:00","-12.4","","-14.7","","84","","","","13","","36","","","","100.09","","","","-23","","NA"
"-135.44","69.63","PELLY ISLAND","2203095","2023-03-24 00:00","2023","03","24","00:00","-12.5","","-14.6","","84","","","","13","","35","","","","100.07","","","","-23","","NA"
"-135.44","69.63","PELLY ISLAND","2203095","2023-03-24 01:00","2023","03","24","01:00","-13.0","","-15.0","","85","","","","13","","32","","","","100.08","","","","-24","","NA"
"-135.44","69.63","PELLY ISLAND","2203095","2023-03-24 02:00","2023","03","24","02:00","-13.5","","-15.4","","85","","","","13","","32","","","","100.08","","","","-24","","NA"
"-135.44","69.63","PELLY ISLAND","2203095","2023-03-24 03:00","2023","03","24","03:00","-14.1","","-16.0","","86","","","","14","","28","","","","100.10","","","","-25","","NA"
"-135.44","69.63","PELLY ISLAND","2203095","2023-03-24 04:00","2023","03","24","04:00","-14.3","","-16.1","","86","","","","14","","21","","","","100.13","","","","-24","","NA"
"-135.44","69.63","PELLY ISLAND","2203095","2023-03-24 05:00","2023","03","24","05:00","-13.0","","-14.9","","85","","","","16","","28","","","","100.12","","","","-23","","NA"
"-135.44","69.63","PELLY ISLAND","2203095","2023-03-24 06:00","2023","03","24","06:00","-13.2","","-15.1","","86","","","","16","","26","","","","100.14","","","","-23","","NA"
"-135.44","69.63","PELLY ISLAND","2203095","2023-03-24 07:00","2023","03","24","07:00","-13.5","","-15.4","","85","","","","17","","29","","","","100.15","","","","-24","","NA"
"-135.44","69.63","PELLY ISLAND","2203095","2023-03-24 08:00","2023","03","24","08:00","-13.1","","-15.2","","84","","","","18","","34","","","","100.19","","","","-24","","NA"
"-135.44","69.63","PELLY ISLAND","2203095","2023-03-24 09:00","2023","03","24","09:00","-13.0","","-15.4","","82","","","","18","","31","","","","100.28","","","","-24","","NA"
"-135.44","69.63","PELLY ISLAND","2203095","2023-03-24 10:00","2023","03","24","10:00","-10.8","","-13.6","","80","","","","20","","28","","","","100.34","","","","-20","","NA"
"-135.44","69.63","PELLY ISLAND","2203095","2023-03-24 11:00","2023","03","24","11:00","-11.5","","-14.1","","80","","","","20","","26","","","","100.38","","","","-21","","NA"
"-135.44","69.63","PELLY ISLAND","2203095","2023-03-24 12:00","2023","03","24","12:00","-9.0","","-11.5","","82","","","","20","","25","","","","100.42","","","","-17","","NA"
"-135.44","69.63","PELLY ISLAND","2203095","2023-03-24 13:00","2023","03","24","13:00","-4.1","","-8.0","","75","","","","22","","38","","","","100.46","","","","-13","","NA"
"-135.44","69.63","PELLY ISLAND","2203095","2023-03-24 14:00","2023","03","24","14:00","-4.2","","-7.3","","79","","","","24","","29","","","","100.54","","","","-12","","NA"
"-135.44","69.63","PELLY ISLAND","2203095","2023-03-24 15:00","2023","03","24","15:00","-3.5","","-7.1","","76","","","","21","","27","","","","100.62","","","","-11","","NA"
"-135.44","69.63","PELLY ISLAND","2203095","2023-03-24 16:00","2023","03","24","16:00","-3.8","","-7.4","","76","","","","21","","28","","","","100.67","","","","-11","","NA"
"-135.44","69.63","PELLY ISLAND","2203095","2023-03-24 17:00","2023","03","24","17:00","-4.1","","-7.9","","75","","","","22","","32","","","","100.70","","","","-12","","NA"
"-135.44","69.63","PELLY ISLAND","2203095","2023-03-24 18:00","2023","03","24","18:00","-4.7","","-8.4","","75","","","","23","","33","","","","100.74","","","","-13","","NA"
"-135.44","69.63","PELLY ISLAND","2203095","2023-03-24 19:00","2023","03","24","19:00","-5.5","","-9.6","","73","","","","24","","35","","","","100.79","","","","-14","","NA"
"-135.44","69.63","PELLY ISLAND","2203095","2023-03-24 20:00","2023","03","24","20:00","-6.8","","-10.4","","76","","","","24","","33","","","","100.87","","","","-16","","NA"
"-135.44","69.63","PELLY ISLAND","2203095","2023-03-24 21:00","2023","03","24","21:00","-7.8","","-11.5","","75","","","","25","","32","","","","100.95","","","","-17","","NA"
"-135.44","69.63","PELLY ISLAND","2203095","2023-03-24 22:00","2023","03","24","22:00","-8.4","","-12.0","","75","","","","24","","25","","","","101.01","","","","-17","","NA"
"-135.44","69.63","PELLY ISLAND","2203095","2023-03-24 23:00","2023","03","24","23:00","-9.6","","-12.5","","79","","","","25","","28","","","","101.09","","","","-19","","NA"
"-135.44","69.63","PELLY ISLAND","2203095","2023-03-25 00:00","2023","03","25","00:00","-9.8","","-12.6","","80","","","","25","","25","","","","101.17","","","","-19","","NA"
"-135.44","69.63","PELLY ISLAND","2203095","2023-03-25 01:00","2023","03","25","01:00","-11.2","","-13.1","","85","","","","26","","25","","","","101.22","","","","-20","","NA"
"-135.44","69.63","PELLY ISLAND","2203095","2023-03-25 02:00","2023","03","25","02:00","-10.4","","-12.1","","87","","","","29","","27","","","","101.33","","","","-20","","NA"
"-135.44","69.63","PELLY ISLAND","2203095","2023-03-25 03:00","2023","03","25","03:00","-10.2","","-12.0","","86","","","","31","","27","","","","101.47","","","","-19","","NA"
"-135.44","69.63","PELLY ISLAND","2203095","2023-03-25 04:00","2023","03","25","04:00","-10.1","","-11.5","","90","","","","31","","27","","","","101.60","","","","-19","","NA"
"-135.44","69.63","PELLY ISLAND","2203095","2023-03-25 05:00","2023","03","25","05:00","-10.9","","-13.1","","83","","","","30","","29","","","","101.76","","","","-21","","NA"
"-135.44","69.63","PELLY ISLAND","2203095","2023-03-25 06:00","2023","03","25","06:00","-11.2","","-13.0","","86","","","","30","","33","","","","101.86","","","","-22","","NA"
"-135.44","69.63","PELLY ISLAND","2203095","2023-03-25 07:00","2023","03","25","07:00","-11.3","","-12.9","","88","","","","30","","38","","","","101.99","","","","-22","","NA"
"-135.44","69.63","PELLY ISLAND","2203095","2023-03-25 08:00","2023","03","25","08:00","-11.9","","-13.3","","89","","","","30","","35","","","","102.12","","","","-23","","NA"
"-135.44","69.63","PELLY ISLAND","2203095","2023-03-25 09:00","2023","03","25","09:00","-11.4","","-13.0","","88","","","","31","","39","","","","102.22","","","","-23","","NA"
"-135.44","69.63","PELLY ISLAND","2203095","2023-03-25 10:00","2023","03","25","10:00","-10.9","","-12.6","","87","","","","31","","36","","","","102.35","","","","-21","","NA"
"-135.44","69.63","PELLY ISLAND","2203095","2023-03-25 11:00","2023","03","25","11:00","-11.2","","-12.8","","87","","","","31","","34","","","","102.48","","","","-22","","NA"
"-135.44","69.63","PELLY ISLAND","2203095","2023-03-25 12:00","2023","03","25","12:00","-11.2","","-13.1","","85","","","","31","","33","","","","102.61","","","","-22","","NA"
"-135.44","69.63","PELLY ISLAND","2203095","2023-03-25 13:00","2023","03","25","13:00","-11.0","","-13.0","","85","","","","32","","33","","","","102.71","","","","-21","","NA"
"-135.44","69.63","PELLY ISLAND","2203095","2023-03-25 14:00","2023","03","25","14:00","-10.9","","-13.4","","82","","","","32","","30","","","","102.83","","","","-21","","NA"
"-135.44","69.63","PELLY ISLAND","2203095","2023-03-25 15:00","2023","03","25","15:00","-10.9","","-14.7","","74","","","","32","","25","","","","102.93","","","","-20","","NA"
"-135.44","69.63","PELLY ISLAND","2203095","2023-03-25 16:00","2023","03","25","16:00","-11.2","","-15.4","","71","","","","33","","24","","","","103.01","","","","-20","","NA"
"-135.44","69.63","PELLY ISLAND","2203095","2023-03-25 17:00","2023","03","25","17:00","-11.4","","-15.4","","72","","","","33","","19","","","","103.09","","","","-19","","NA"
"-135.44","69.63","PELLY ISLAND","2203095","2023-03-25 18:00","2023","03","25","18:00","-12.2","","-15.5","","76","","","","33","","12","","","","103.15","","","","-19","","NA"
"-135.44","69.63","PELLY ISLAND","2203095","2023-03-25 19:00","2023","03","25","19:00","-11.9","","-16.3","","70","","","","1","","8","","","","103.19","","","","-17","","NA"
"-135.44","69.63","PELLY ISLAND","2203095","2023-03-25 20:00","2023","03","25","20:00","-12.0","","-17.4","","64","","","","3","","4","","","","103.20","","","","-15","","NA"
"-135.44","69.63","PELLY ISLAND","2203095","2023-03-25 21:00","2023","03","25","21:00","-14.9","","-18.1","","76","","","","22","","10","","","","103.25","","","","-21","","NA"
"-135.44","69.63","PELLY ISLAND","2203095","2023-03-25 22:00","2023","03","25","22:00"
"-135.44","69.63","PELLY ISLAND","2203095","2023-03-25 23:00","2023","03","25","23:00","-15.3","","-19.1","","73","","","","14","","11","","","","103.15","","","","-22","","NA"
"-135.44","69.63","PELLY ISLAND","2203095","2023-03-26 00:00","2023","03","26","00:00","-18.0","","-20.8","","79","","","","12","","15","","","","103.08","","","","-27","","NA"
"-135.44","69.63","PELLY ISLAND","2203095","2023-03-26 01:00","2023","03","26","01:00","-20.1","","-22.2","","83","","","","15","","19","","","","103.05","","","","-30","","NA"
"-135.44","69.63","PELLY ISLAND","2203095","2023-03-26 02:00","2023","03","26","02:00","-19.6","","-21.6","","84","","","","16","","24","","","","102.99","","","","-31","","NA"
"-135.44","69.63","PELLY ISLAND","2203095","2023-03-26 03:00","2023","03","26","03:00","-19.0","","-21.1","","84","","","","16","","27","","","","102.93","","","","-31","","NA"
"-135.44","69.63","PELLY ISLAND","2203095","2023-03-26 04:00","2023","03","26","04:00","-18.6","","-21.0","","82","","","","16","","29","","","","102.84","","","","-31","","NA"
"-135.44","69.63","PELLY ISLAND","2203095","2023-03-26 05:00","2023","03","26","05:00","-18.5","","-20.7","","83","","","","16","","32","","","","102.77","","","","-31","","NA"
"-135.44","69.63","PELLY ISLAND","2203095","2023-03-26 06:00","2023","03","26","06:00","-18.6","","-20.7","","84","","","","16","","31","","","","102.70","","","","-31","","NA"
"-135.44","69.63","PELLY ISLAND","2203095","2023-03-26 07:00","2023","03","26","07:00","-18.7","","-20.9","","83","","","","16","","30","","","","102.61","","","","-31","","NA"
"-135.44","69.63","PELLY ISLAND","2203095","2023-03-26 08:00","2023","03","26","08:00","-18.7","","-21.1","","81","","","","15","","34","","","","102.47","","","","-32","","NA"
"-135.44","69.63","PELLY ISLAND","2203095","2023-03-26 09:00","2023","03","26","09:00","-17.8","","-20.6","","79","","","","16","","32","","","","102.37","","","","-30","","NA"
"-135.44","69.63","PELLY ISLAND","2203095","2023-03-26 10:00","2023","03","26","10:00","-16.9","","-20.0","","77","","","","16","","38","","","","102.28","","","","-30","","NA"
"-135.44","69.63","PELLY ISLAND","2203095","2023-03-26 11:00","2023","03","26","11:00","-15.4","","-18.6","","76","","","","16","","39","","","","102.18","","","","-28","","NA"
"-135.44","69.63","PELLY ISLAND","2203095","2023-03-26 12:00","2023","03","26","12:00","-14.3","","-17.9","","74","","","","16","","38","","","","102.09","","","","-26","","NA"
"-135.44","69.63","PELLY ISLAND","2203095","2023-03-26 13:00","2023","03","26","13:00","-13.3","","-17.0","","74","","","","16","","39","","","","101.99","","","","-25","","NA"
"-135.44","69.63","PELLY ISLAND","2203095","2023-03-26 14:00","2023","03","26","14:00","-11.9","","-15.8","","73","","","","17","","41","","","","101.89","","","","-23","","NA"
"-135.44","69.63","PELLY ISLAND","2203095","2023-03-26 15:00","2023","03","26","15:00","-10.4","","-14.2","","73","","","","17","","43","","","","101.82","","","","-22","","NA"
"-135.44","69.63","PELLY ISLAND","2203095","2023-03-26 16:00","2023","03","26","16:00","-9.2","","-13.3","","72","","","","17","","43","","","","101.70","","","","-20","","NA"
"-135.44","69.63","PELLY ISLAND","2203095","2023-03-26 17:00","2023","03","26","17:00","-8.3","","-12.2","","73","","","","16","","41","","","","101.58","","","","-19","","NA"
"-135.44","69.63","PELLY ISLAND","2203095","2023-03-26 18:00","2023","03","26","18:00","-8.1","","-11.5","","77","","","","17","","47","","","","101.46","","","","-19","","NA"
"-135.44","69.63","PELLY ISLAND","2203095","2023-03-26 19:00","2023","03","26","19:00","-8.1","","-11.5","","76","","","","18","","39","","","","101.40","","","","-18","","NA"
"-135.44","69.63","PELLY ISLAND","2203095","2023-03-26 20:00","2023","03","26","20:00","-7.7","","-11.7","","73","","","","18","","34","","","","101.31","","","","-17","","NA"
"-135.44","69.63","PELLY ISLAND","2203095","2023-03-26 21:00","2023","03","26","21:00","-5.5","","-9.7","","72","","","","20","","54","","","","101.15","","","","-16","","NA"
"-135.44","69.63","PELLY ISLAND","2203095","2023-03-26 22:00","2023","03","26","22:00","-6.9","","-9.5","","82","","","","21","","53","","","","101.05","","","","-18","","NA"
"-135.44","69.63","PELLY ISLAND","2203095","2023-03-26 23:00","2023","03","26","23:00","-6.8","","-9.6","","80","","","","21","","45","","","","101.05","","","","-17","","NA"
"-135.44","69.63","PELLY ISLAND","2203095","2023-03-27 00:00","2023","03","27","00:00","-6.0","","-10.1","","73","","","","22","","53","","","","100.97","","","","-17","","NA"
"-135.44","69.63","PELLY ISLAND","2203095","2023-03-27 01:00","2023","03","27","01:00","-6.1","","-9.0","","80","","","","24","","57","","","","100.94","","","","-17","","NA"
"-135.44","69.63","PELLY ISLAND","2203095","2023-03-27 02:00","2023","03","27","02:00","-5.8","","-8.8","","79","","","","24","","46","","","","100.94","","","","-16","","NA"
"-135.44","69.63","PELLY ISLAND","2203095","2023-03-27 03:00","2023","03","27","03:00","-5.3","","-8.7","","77","","","","23","","42","","","","100.94","","","","-15","","NA"
"-135.44","69.63","PELLY ISLAND","2203095","2023-03-27 04:00","2023","03","27","04:00","-5.2","","-8.3","","79","","","","24","","45","","","","100.90","","","","-15","","NA"
"-135.44","69.63","PELLY ISLAND","2203095","2023-03-27 05:00","2023","03","27","05:00","-5.6","","-8.1","","82","","","","23","","39","","","","100.89","","","","-15","","NA"
"-135.44","69.63","PELLY ISLAND","2203095","2023-03-27 06:00","2023","03","27","06:00","-4.8","","-7.6","","81","","","","24","","34","","","","100.88","","","","-13","","NA"
"-135.44","69.63","PELLY ISLAND","2203095","2023-03-27 07:00","2023","03","27","07:00","-3.9","","-6.6","","81","","","","24","","31","","","","100.85","","","","-12","","NA"
"-135.44","69.63","PELLY ISLAND","2203095","2023-03-27 08:00","2023","03","27","08:00","-3.8","","-6.0","","85","","","","23","","37","","","","100.78","","","","-12","","NA"
"-135.44","69.63","PELLY ISLAND","2203095","2023-03-27 09:00","2023","03","27","09:00","-3.6","","-5.4","","88","","","","25","","34","","","","100.83","","","","-12","","NA"
"-135.44","69.63","PELLY ISLAND","2203095","2023-03-27 10:00","2023","03","27","10:00","-4.1","","-6.6","","83","","","","25","","25","","","","100.86","","","","-11","","NA"
"-135.44","69.63","PELLY ISLAND","2203095","2023-03-27 11:00","2023","03","27","11:00","-4.1","","-6.5","","84","","","","24","","25","","","","100.87","","","","-11","","NA"
"-135.44","69.63","PELLY ISLAND","2203095","2023-03-27 12:00","2023","03","27","12:00","-2.7","","-5.7","","80","","","","25","","29","","","","100.88","","","","-10","","NA"
"-135.44","69.63","PELLY ISLAND","2203095","2023-03-27 13:00","2023","03","27","13:00","-2.3","","-5.0","","81","","","","26","","24","","","","100.91","","","","-9","","NA"
"-135.44","69.63","PELLY ISLAND","2203095","2023-03-27 14:00","2023","03","27","14:00","-2.0","","-4.6","","83","","","","26","","20","","","","100.95","","","","-8","","NA"
"-135.44","69.63","PELLY ISLAND","2203095","2023-03-27 15:00","2023","03","27","15:00","-2.6","","-4.5","","87","","","","28","","22","","","","100.98","","","","-9","","NA"
"-135.44","69.63","PELLY ISLAND","2203095","2023-03-27 16:00","2023","03","27","16:00","-3.4","","-4.8","","90","","","","28","","20","","","","101.02","","","","-10","","NA"
"-135.44","69.63","PELLY ISLAND","2203095","2023-03-27 17:00","2023","03","27","17:00","-4.8","","-6.8","","86","","","","26","","23","","","","101.08","","","","-12","","NA"
"-135.44","69.63","PELLY ISLAND","2203095","2023-03-27 18:00","2023","03","27","18:00","-4.4","","-6.0","","89","","","","27","","23","","","","101.10","","","","-11","","NA"
"-135.44","69.63","PELLY ISLAND","2203095","2023-03-27 19:00","2023","03","27","19:00","-4.1","","-5.2","","92","","","","27","","23","","","","101.11","","","","-11","","NA"
"-135.44","69.63","PELLY ISLAND","2203095","2023-03-27 20:00","2023","03","27","20:00","-4.2","","-4.9","","95","","","","26","","20","","","","101.11","","","","-11","","NA"
"-135.44","69.63","PELLY ISLAND","2203095","2023-03-27 21:00","2023","03","27","21:00","-4.2","","-4.9","","95","","","","29","","12","","","","101.07","","","","-9","","NA"
"-135.44","69.63","PELLY ISLAND","2203095","2023-03-27 22:00","2023","03","27","22:00","-4.5","","-5.0","","96","","","","30","","11","","","","101.05","","","","-9","","NA"
"-135.44","69.63","PELLY ISLAND","2203095","2023-03-27 23:00","2023","03","27","23:00","-4.1","","-4.6","","96","","","","32","","17","","","","101.08","","","","-10","","NA"
"-135.44","69.63","PELLY ISLAND","2203095","2023-03-28 00:00","2023","03","28","00:00","-3.7","","-4.2","","96","","","","33","","18","","","","101.15","","","","-10","","NA"
"-135.44","69.63","PELLY ISLAND","2203095","2023-03-28 01:00","2023","03","28","01:00","-3.8","","-4.3","","96","","","","33","","23","","","","101.16","","","","-11","","NA"
"-135.44","69.63","PELLY ISLAND","2203095","2023-03-28 02:00","2023","03","28","02:00","-4.4","","-5.1","","95","","","","34","","25","","","","101.22","","","","-12","","NA"
"-135.44","69.63","PELLY ISLAND","2203095","2023-03-28 03:00","2023","03","28","03:00","-5.1","","-7.1","","86","","","","36","","15","","","","101.23","","","","-11","","NA"
"-135.44","69.63","PELLY ISLAND","2203095","2023-03-28 04:00","2023","03","28","04:00","-6.1","","-7.3","","91","","","","28","","14","","","","101.31","","","","-12","","NA"
"-135.44","69.63","PELLY ISLAND","2203095","2023-03-28 05:00","2023","03","28","05:00","-7.6","","-9.0","","90","","","","29","","16","","","","101.39","","","","-14","","NA"
"-135.44","69.63","PELLY ISLAND","2203095","2023-03-28 06:00","2023","03","28","06:00","-7.3","","-8.8","","89","","","","29","","14","","","","101.44","","","","-13","","NA"
"-135.44","69.63","PELLY ISLAND","2203095","2023-03-28 07:00","2023","03","28","07:00","-7.3","","-8.7","","90","","","","29","","15","","","","101.49","","","","-13","","NA"
"-135.44","69.63","PELLY ISLAND","2203095","2023-03-28 08:00","2023","03","28","08:00","-6.9","","-8.1","","91","","","","29","","15","","","","101.55","","","","-13","","NA"
"-135.44","69.63","PELLY ISLAND","2203095","2023-03-28 09:00","2023","03","28","09:00","-7.3","","-8.4","","92","","","","29","","15","","","","101.58","","","","-13","","NA"
"-135.44","69.63","PELLY ISLAND","2203095","2023-03-28 10:00","2023","03","28","10:00","-8.5","","-10.0","","89","","","","32","","16","","","","101.62","","","","-15","","NA"
"-135.44","69.63","PELLY ISLAND","2203095","2023-03-28 11:00","2023","03","28","11:00","-9.2","","-12.0","","80","","","","32","","18","","","","101.69","","","","-16","","NA"
"-135.44","69.63","PELLY ISLAND","2203095","2023-03-28 12:00","2023","03","28","12:00","-10.8","","-13.6","","80","","","","30","","19","","","","101.76","","","","-19","","NA"
"-135.44","69.63","PELLY ISLAND","2203095","2023-03-28 13:00","2023","03","28","13:00","-9.2","","-11.4","","84","","","","31","","32","","","","101.81","","","","-19","","NA"
"-135.44","69.63","PELLY ISLAND","2203095","2023-03-28 14:00","2023","03","28","14:00","-9.7","","-11.7","","85","","","","30","","40","","","","101.88","","","","-20","","NA"
"-135.44","69.63","PELLY ISLAND","2203095","2023-03-28 15:00","2023","03","28","15:00","-10.9","","-13.7","","80","","","","30","","45","","","","101.97","","","","-23","","NA"
"-135.44","69.63","PELLY ISLAND","2203095","2023-03-28 16:00","2023","03","28","16:00","-11.6","","-13.9","","83","","","","30","","38","","","","102.05","","","","-23","","NA"
"-135.44","69.63","PELLY ISLAND","2203095","2023-03-28 17:00","2023","03","28","17:00","-12.6","","-15.3","","80","","","","30","","48","","","","102.06","","","","-25","","NA"
"-135.44","69.63","PELLY ISLAND","2203095","2023-03-28 18:00","2023","03","28","18:00","-12.5","","-15.1","","81","","","","31","","37","","","","102.11","","","","-24","","NA"
"-135.44","69.63","PELLY ISLAND","2203095","2023-03-28 19:00","2023","03","28","19:00","-12.8","","-15.6","","79","","","","31","","35","","","","102.20","","","","-24","","NA"
"-135.44","69.63","PELLY ISLAND","2203095","2023-03-28 20:00","2023","03","28","20:00","-13.8","","-16.5","","80","","","","30","","31","","","","102.25","","","","-25","","NA"
"-135.44","69.63","PELLY ISLAND","2203095","2023-03-28 21:00","2023","03","28","21:00","-14.5","","-17.3","","79","","","","29","","24","","","","102.29","","","","-24","","NA"
"-135.44","69.63","PELLY ISLAND","2203095","2023-03-28 22:00","2023","03","28","22:00","-15.4","","-17.7","","83","","","","29","","20","","","","102.31","","","","-25","","NA"
"-135.44","69.63","PELLY ISLAND","2203095","2023-03-28 23:00","2023","03","28","23:00","-15.4","","-18.0","","80","","","","28","","25","","","","102.33","","","","-26","","NA"
"-135.44","69.63","PELLY ISLAND","2203095","2023-03-29 00:00","2023","03","29","00:00","-17.9","","-20.2","","82","","","","26","","23","","","","102.33","","","","-29","","NA"
"-135.44","69.63","PELLY ISLAND","2203095","2023-03-29 01:00","2023","03","29","01:00","-18.2","","-20.1","","85","","","","27","","25","","","","102.35","","","","-29","","NA"
"-135.44","69.63","PELLY ISLAND","2203095","2023-03-29 02:00","2023","03","29","02:00","-19.7","","-21.7","","84","","","","26","","20","","","","102.35","","","","-30","","NA"
"-135.44","69.63","PELLY ISLAND","2203095","2023-03-29 03:00","2023","03","29","03:00","-18.6","","-20.8","","83","","","","28","","20","","","","102.34","","","","-29","","NA"
"-135.44","69.63","PELLY ISLAND","2203095","2023-03-29 04:00","2023","03","29","04:00","-20.8","","-23.0","","83","","","","26","","18","","","","102.35","","","","-31","","NA"
"-135.44","69.63","PELLY ISLAND","2203095","2023-03-29 05:00","2023","03","29","05:00","-19.3","","-21.7","","81","","","","27","","23","","","","102.33","","","","-30","","NA"
"-135.44","69.63","PELLY ISLAND","2203095","2023-03-29 06:00","2023","03","29","06:00","-18.9","","-21.3","","81","","","","28","","19","","","","102.30","","","","-29","","NA"
"-135.44","69.63","PELLY ISLAND","2203095","2023-03-29 07:00","2023","03","29","07:00","-19.8","","-22.6","","79","","","","24","","12","","","","102.32","","","","-28","","NA"
"-135.44","69.63","PELLY ISLAND","2203095","2023-03-29 08:00","2023","03","29","08:00","-19.2","","-22.4","","76","","","","24","","8","","","","102.30","","","","-25","","NA"
"-135.44","69.63","PELLY ISLAND","2203095","2023-03-29 09:00","2023","03","29","09:00","-18.1","","-21.9","","72","","","","23","","6","","","","102.28","","","","-23","","NA"
"-135.44","69.63","PELLY ISLAND","2203095","2023-03-29 10:00","2023","03","29","10:00","-20.4","","-23.9","","74","","","","20","","11","","","","102.29","","","","-28","","NA"
"-135.44","69.63","PELLY ISLAND","2203095","2023-03-29 11:00","2023","03","29","11:00","-18.7","","-22.7","","71","","","","19","","7","","","","102.24","","","","-24","","NA"
"-135.44","69.63","PELLY ISLAND","2203095","2023-03-29 12:00","2023","03","29","12:00","-19.4","","-23.0","","73","","","","16","","10","","","","102.22","","","","-26","","NA"
"-135.44","69.63","PELLY ISLAND","2203095","2023-03-29 13:00","2023","03","29","13:00","-17.3","","-21.0","","73","","","","12","","9","","","","102.18","","","","-24","","NA"
"-135.44","69.63","PELLY ISLAND","2203095","2023-03-29 14:00","2023","03","29","14:00","-17.5","","-20.9","","75","","","","10","","12","","","","102.13","","","","-25","","NA"
"-135.44","69.63","PELLY ISLAND","2203095","2023-03-29 15:00","2023","03","29","15:00","-16.5","","-19.7","","76","","","","12","","11","","","","102.10","","","","-23","","NA"
"-135.44","69.63","PELLY ISLAND","2203095","2023-03-29 16:00","2023","03","29","16:00","-15.8","","-19.1","","76","","","","11","","18","","","","102.03","","","","-25","","NA"
"-135.44","69.63","PELLY ISLAND","2203095","2023-03-29 17:00","2023","03","29","17:00","-16.0","","-19.1","","77","","","","12","","16","","","","101.98","","","","-24","","NA"
"-135.44","69.63","PELLY ISLAND","2203095","2023-03-29 18:00","2023","03","29","18:00","-16.5","","-19.4","","78","","","","12","","16","","","","101.94","","","","-25","","NA"
"-135.44","69.63","PELLY ISLAND","2203095","2023-03-29 19:00","2023","03","29","19:00","-17.1","","-20.1","","77","","","","12","","19","","","","101.88","","","","-27","","NA"
"-135.44","69.63","PELLY ISLAND","2203095","2023-03-29 20:00","2023","03","29","20:00","-18.5","","-21.3","","78","","","","11","","22","","","","101.83","","","","-29","","NA"
"-135.44","69.63","PELLY ISLAND","2203095","2023-03-29 21:00","2023","03","29","21:00","-19.4","","-22.1","","79","","","","12","","24","","","","101.79","","","","-31","","NA"
"-135.44","69.63","PELLY ISLAND","2203095","2023-03-29 22:00","2023","03","29","22:00","-20.2","","-23.0","","78","","","","12","","24","","","","101.76","","","","-32","","NA"
"-135.44","69.63","PELLY ISLAND","2203095","2023-03-29 23:00","2023","03","29","23:00","-20.9","","-23.7","","78","","","","12","","24","","","","101.70","","","","-33","","NA"
"-135.44","69.63","PELLY ISLAND","2203095","2023-03-30 00:00","2023","03","30","00:00","-21.3","","-24.0","","79","","","","12","","25","","","","101.67","","","","-33","","NA"
"-135.44","69.63","PELLY ISLAND","2203095","2023-03-30 01:00","2023","03","30","01:00","-21.6","","-24.2","","79","","","","12","","25","","","","101.63","","","","-34","","NA"
"-135.44","69.63","PELLY ISLAND","2203095","2023-03-30 02:00","2023","03","30","02:00","-21.8","","-24.4","","80","","","","12","","24","","","","101.59","","","","-34","","NA"
"-135.44","69.63","PELLY ISLAND","2203095","2023-03-30 03:00","2023","03","30","03:00","-22.2","","-24.7","","80","","","","11","","24","","","","101.55","","","","-34","","NA"
"-135.44","69.63","PELLY ISLAND","2203095","2023-03-30 04:00","2023","03","30","04:00","-22.9","","-25.2","","81","","","","11","","23","","","","101.48","","","","-35","","NA"
"-135.44","69.63","PELLY ISLAND","2203095","2023-03-30 05:00","2023","03","30","05:00","-22.5","","-24.9","","81","","","","12","","27","","","","101.43","","","","-35","","NA"
"-135.44","69.63","PELLY ISLAND","2203095","2023-03-30 06:00","2023","03","30","06:00","-22.9","","-25.4","","81","","","","12","","26","","","","101.41","","","","-36","","NA"
"-135.44","69.63","PELLY ISLAND","2203095","2023-03-30 07:00","2023","03","30","07:00","-22.9","","-25.3","","80","","","","12","","26","","","","101.38","","","","-36","","NA"
"-135.44","69.63","PELLY ISLAND","2203095","2023-03-30 08:00","2023","03","30","08:00","-23.2","","-25.9","","78","","","","11","","26","","","","101.36","","","","-36","","NA"
"-135.44","69.63","PELLY ISLAND","2203095","2023-03-30 09:00","2023","03","30","09:00","-22.8","","-25.6","","78","","","","12","","29","","","","101.33","","","","-36","","NA"
"-135.44","69.63","PELLY ISLAND","2203095","2023-03-30 10:00","2023","03","30","10:00","-21.7","","-24.4","","78","","","","12","","29","","","","101.29","","","","-35","","NA"
"-135.44","69.63","PELLY ISLAND","2203095","2023-03-30 11:00","2023","03","30","11:00","-20.8","","-23.5","","79","","","","12","","29","","","","101.27","","","","-33","","NA"
"-135.44","69.63","PELLY ISLAND","2203095","2023-03-30 12:00","2023","03","30","12:00","-19.9","","-22.7","","79","","","","12","","28","","","","101.27","","","","-32","","NA"
"-135.44","69.63","PELLY ISLAND","2203095","2023-03-30 13:00","2023","03","30","13:00","-19.3","","-22.1","","78","","","","12","","30","","","","101.26","","","","-32","","NA"
"-135.44","69.63","PELLY ISLAND","2203095","2023-03-30 14:00","2023","03","30","14:00","-18.4","","-21.3","","78","","","","12","","34","","","","101.22","","","","-31","","NA"
"-135.44","69.63","PELLY ISLAND","2203095","2023-03-30 15:00","2023","03","30","15:00","-17.5","","-20.6","","77","","","","11","","34","","","","101.18","","","","-30","","NA"
"-135.44","69.63","PELLY ISLAND","2203095","2023-03-30 16:00","2023","03","30","16:00","-17.2","","-20.2","","78","","","","11","","37","","","","101.13","","","","-30","","NA"
"-135.44","69.63","PELLY ISLAND","2203095","2023-03-30 17:00","2023","03","30","17:00","-16.9","","-19.7","","78","","","","11","","37","","","","101.12","","","","-30","","NA"
"-135.44","69.63","PELLY ISLAND","2203095","2023-03-30 18:00","2023","03","30","18:00","-17.0","","-19.7","","79","","","","11","","35","","","","101.08","","","","-29","","NA"
"-135.44","69.63","PELLY ISLAND","2203095","2023-03-30 19:00","2023","03","30","19:00","-17.1","","-19.7","","80","","","","10","","38","","","","101.03","","","","-30","","NA"
"-135.44","69.63","PELLY ISLAND","2203095","2023-03-30 20:00","2023","03","30","20:00","-17.9","","-20.4","","81","","","","10","","39","","","","101.00","","","","-31","","NA"
"-135.44","69.63","PELLY ISLAND","2203095","2023-03-30 21:00","2023","03","30","21:00","-18.6","","-21.1","","81","","","","10","","39","","","","100.99","","","","-32","","NA"
"-135.44","69.63","PELLY ISLAND","2203095","2023-03-30 22:00","2023","03","30","22:00","-19.5","","-22.1","","80","","","","11","","33","","","","101.02","","","","-32","","NA"
"-135.44","69.63","PELLY ISLAND","2203095","2023-03-30 23:00","2023","03","30","23:00","-20.7","","-23.3","","80","","","","11","","30","","","","101.02","","","","-33","","NA"
"-135.44","69.63","PELLY ISLAND","2203095","2023-03-31 00:00","2023","03","31","00:00","-20.9","","-23.6","","79","","","","10","","37","","","","100.98","","","","-35","","NA"
"-135.44","69.63","PELLY ISLAND","2203095","2023-03-31 01:00","2023","03","31","01:00","-21.3","","-24.0","","79","","","","11","","33","","","","101.00","","","","-35","","NA"
"-135.44","69.63","PELLY ISLAND","2203095","2023-03-31 02:00","2023","03","31","02:00","-21.9","","-24.5","","79","","","","10","","33","","","","100.97","","","","-36","","NA"
"-135.44","69.63","PELLY ISLAND","2203095","2023-03-31 03:00","2023","03","31","03:00","-22.1","","-24.7","","79","","","","10","","33","","","","100.95","","","","-36","","NA"
"-135.44","69.63","PELLY ISLAND","2203095","2023-03-31 04:00","2023","03","31","04:00","-22.8","","-25.4","","79","","","","10","","33","","","","100.95","","","","-37","","NA"
"-135.44","69.63","PELLY ISLAND","2203095","2023-03-31 05:00","2023","03","31","05:00","-23.7","","-26.2","","80","","","","9","","34","","","","100.91","","","","-38","","NA"
"-135.44","69.63","PELLY ISLAND","2203095","2023-03-31 06:00","2023","03","31","06:00","-23.9","","-26.6","","79","","","","9","","36","","","","100.90","","","","-39","","NA"
"-135.44","69.63","PELLY ISLAND","2203095","2023-03-31 07:00","2023","03","31","07:00","-24.1","","-26.8","","79","","","","9","","36","","","","100.88","","","","-39","","NA"
"-135.44","69.63","PELLY ISLAND","2203095","2023-03-31 08:00","2023","03","31","08:00","-24.3","","-27.3","","76","","","","10","","34","","","","100.87","","","","-39","","NA"
"-135.44","69.63","PELLY ISLAND","2203095","2023-03-31 09:00","2023","03","31","09:00","-24.5","","-27.5","","76","","","","10","","29","","","","100.87","","","","-38","","NA"
"-135.44","69.63","PELLY ISLAND","2203095","2023-03-31 10:00","2023","03","31","10:00","-24.1","","-27.2","","76","","","","9","","31","","","","100.83","","","","-38","","NA"
"-135.44","69.63","PELLY ISLAND","2203095","2023-03-31 11:00","2023","03","31","11:00","-23.6","","-26.7","","76","","","","9","","35","","","","100.78","","","","-38","","NA"
"-135.44","69.63","PELLY ISLAND","2203095","2023-03-31 12:00","2023","03","31","12:00","-22.6","","-25.7","","76","","","","9","","34","","","","100.78","","","","-37","","NA"
"-135.44","69.63","PELLY ISLAND","2203095","2023-03-31 13:00","2023","03","31","13:00","-21.7","","-24.8","","76","","","","9","","37","","","","100.75","","","","-36","","NA"
"-135.44","69.63","PELLY ISLAND","2203095","2023-03-31 14:00","2023","03","31","14:00","-20.8","","-23.9","","76","","","","9","","34","","","","100.79","","","","-34","","NA"
"-135.44","69.63","PELLY ISLAND","2203095","2023-03-31 15:00","2023","03","31","15:00","-20.4","","-23.4","","77","","","","9","","38","","","","100.77","","","","-34","","NA"
"-135.44","69.63","PELLY ISLAND","2203095","2023-03-31 16:00","2023","03","31","16:00","-19.6","","-22.7","","77","","","","10","","38","","","","100.75","","","","-33","","NA"
"-135.44","69.63","PELLY ISLAND","2203095","2023-03-31 17:00","2023","03","31","17:00","-19.2","","-22.1","","77","","","","9","","35","","","","100.73","","","","-32","","NA"
"-135.44","69.63","PELLY ISLAND","2203095","2023-03-31 18:00","2023","03","31","18:00","-19.1","","-21.9","","78","","","","9","","31","","","","100.74","","","","-32","","NA"
"-135.44","69.63","PELLY ISLAND","2203095","2023-03-31 19:00","2023","03","31","19:00","-19.1","","-22.0","","78","","","","10","","33","","","","100.72","","","","-32","","NA"
"-135.44","69.63","PELLY ISLAND","2203095","2023-03-31 20:00","2023","03","31","20:00","-19.7","","-22.5","","79","","","","10","","33","","","","100.74","","","","-33","","NA"
"-135.44","69.63","PELLY ISLAND","2203095","2023-03-31 21:00","2023","03","31","21:00","-20.7","","-23.3","","80","","","","9","","31","","","","100.77","","","","-34","","NA"
"-135.44","69.63","PELLY ISLAND","2203095","2023-03-31 22:00","2023","03","31","22:00","-21.2","","-23.9","","79","","","","10","","29","","","","100.77","","","","-34","","NA"
"-135.44","69.63","PELLY ISLAND","2203095","2023-03-31 23:00","2023","03","31","23:00","-22.0","","-24.6","","79","","","","9","","28","","","","100.79","","","","-35","","NA"
