"Longitude (x)","Latitude (y)","Station Name","Climate ID","Date/Time (LST)","Year","Month","Day","Time (LST)","Temp (°C)","Temp Flag","Dew Point Temp (°C)","Dew Point Temp Flag","Rel Hum (%)","Rel Hum Flag","Precip. Amount (mm)","Precip. Amount Flag","Wind Dir (10s deg)","Wind Dir Flag","Wind Spd (km/h)","Wind Spd Flag","Visibility (km)","Visibility Flag","Stn Press (kPa)","Stn Press Flag","Hmdx","Hmdx Flag","Wind Chill","Wind Chill Flag","Weather"
"-124.43","49.49","SISTERS ISLAND","1027403","2021-12-01 00:00","2021","12","01","00:00","12.1","","9.6","","85","","","","8","","15","","","","101.41","","","","","","NA"
"-124.43","49.49","SISTERS ISLAND","1027403","2021-12-01 01:00","2021","12","01","01:00","11.6","","9.7","","88","","","","6","","21","","","","101.38","","","","","","NA"
"-124.43","49.49","SISTERS ISLAND","1027403","2021-12-01 02:00","2021","12","01","02:00","11.1","","9.8","","91","","","","7","","26","","","","101.35","","","","","","NA"
"-124.43","49.49","SISTERS ISLAND","1027403","2021-12-01 03:00","2021","12","01","03:00","10.9","","9.2","","89","","","","13","","45","","","","101.26","","","","","","NA"
"-124.43","49.49","SISTERS ISLAND","1027403","2021-12-01 04:00","2021","12","01","04:00","12.4","","9.6","","83","","","","12","","21","","","","101.24","","","","","","NA"
"-124.43","49.49","SISTERS ISLAND","1027403","2021-12-01 05:00","2021","12","01","05:00","12.4","","9.2","","81","","","","9","","20","","","","101.26","","","","","","NA"
"-124.43","49.49","SISTERS ISLAND","1027403","2021-12-01 06:00","2021","12","01","06:00","11.5","","9.0","","85","","","","3","","4","","","","101.24","","","","","","NA"
"-124.43","49.49","SISTERS ISLAND","1027403","2021-12-01 07:00","2021","12","01","07:00","11.7","","9.0","","83","","","","11","","8","","","","101.12","","","","","","NA"
"-124.43","49.49","SISTERS ISLAND","1027403","2021-12-01 08:00","2021","12","01","08:00","14.3","","8.7","","69","","","","22","","40","","","","101.11","","","","","","NA"
"-124.43","49.49","SISTERS ISLAND","1027403","2021-12-01 09:00","2021","12","01","09:00","14.3","","8.3","","67","","","","21","","51","","","","101.05","","","","","","NA"
"-124.43","49.49","SISTERS ISLAND","1027403","2021-12-01 10:00","2021","12","01","10:00","14.3","","8.2","","66","","","","21","","55","","","","101.06","","","","","","NA"
"-124.43","49.49","SISTERS ISLAND","1027403","2021-12-01 11:00","2021","12","01","11:00","14.7","","7.8","","63","","","","21","","51","","","","101.07","","","","","","NA"
"-124.43","49.49","SISTERS ISLAND","1027403","2021-12-01 12:00","2021","12","01","12:00","14.7","","8.3","","66","","","","23","","41","","","","101.13","","","","","","NA"
"-124.43","49.49","SISTERS ISLAND","1027403","2021-12-01 13:00","2021","12","01","13:00","13.9","","8.2","","69","","","","25","","40","","","","101.25","","","","","","NA"
"-124.43","49.49","SISTERS ISLAND","1027403","2021-12-01 14:00","2021","12","01","14:00","13.7","","8.2","","69","","","","23","","38","","","","101.21","","","","","","NA"
"-124.43","49.49","SISTERS ISLAND","1027403","2021-12-01 15:00","2021","12","01","15:00","13.8","","8.7","","71","","","","23","","44","","","","101.18","","","","","","NA"
"-124.43","49.49","SISTERS ISLAND","1027403","2021-12-01 16:00","2021","12","01","16:00","12.7","","8.4","","75","","","","23","","45","","","","101.23","","","","","","NA"
"-124.43","49.49","SISTERS ISLAND","1027403","2021-12-01 17:00","2021","12","01","17:00","11.9","","8.6","","80","","","","23","","34","","","","101.33","","","","","","NA"
"-124.43","49.49","SISTERS ISLAND","1027403","2021-12-01 18:00","2021","12","01","18:00","12.6","","5.7","","63","","","","23","","22","","","","101.35","","","","","","NA"
"-124.43","49.49","SISTERS ISLAND","1027403","2021-12-01 19:00","2021","12","01","19:00","11.7","","4.8","","63","","","","24","","50","","","","101.30","","","","","","NA"
"-124.43","49.49","SISTERS ISLAND","1027403","2021-12-01 20:00","2021","12","01","20:00","11.8","","3.7","","58","","","","22","","42","","","","101.34","","","","","","NA"
"-124.43","49.49","SISTERS ISLAND","1027403","2021-12-01 21:00","2021","12","01","21:00","11.1","","4.0","","61","","","","23","","45","","","","101.41","","","","","","NA"
"-124.43","49.49","SISTERS ISLAND","1027403","2021-12-01 22:00","2021","12","01","22:00","11.0","","4.6","","64","","","","23","","45","","","","101.40","","","","","","NA"
"-124.43","49.49","SISTERS ISLAND","1027403","2021-12-01 23:00","2021","12","01","23:00","10.4","","5.7","","72","","","","23","","36","","","","101.55","","","","","","NA"
"-124.43","49.49","SISTERS ISLAND","1027403","2021-12-02 00:00","2021","12","02","00:00","8.3","","4.4","","77","","","","32","","45","","","","101.73","","","","","","NA"
"-124.43","49.49","SISTERS ISLAND","1027403","2021-12-02 01:00","2021","12","02","01:00","8.3","","3.7","","73","","","","32","","39","","","","101.78","","","","","","NA"
"-124.43","49.49","SISTERS ISLAND","1027403","2021-12-02 02:00","2021","12","02","02:00","8.0","","3.6","","74","","","","31","","45","","","","101.85","","","","","","NA"
"-124.43","49.49","SISTERS ISLAND","1027403","2021-12-02 03:00","2021","12","02","03:00","7.7","","3.3","","74","","","","30","","35","","","","101.95","","","","","","NA"
"-124.43","49.49","SISTERS ISLAND","1027403","2021-12-02 04:00","2021","12","02","04:00","7.5","","3.1","","74","","","","30","","34","","","","101.99","","","","","","NA"
"-124.43","49.49","SISTERS ISLAND","1027403","2021-12-02 05:00","2021","12","02","05:00","7.1","","2.3","","72","","","","30","","32","","","","102.04","","","","","","NA"
"-124.43","49.49","SISTERS ISLAND","1027403","2021-12-02 06:00","2021","12","02","06:00","6.7","","2.3","","74","","","","30","","36","","","","102.06","","","","","","NA"
"-124.43","49.49","SISTERS ISLAND","1027403","2021-12-02 07:00","2021","12","02","07:00","6.7","","2.1","","72","","","","31","","43","","","","102.11","","","","","","NA"
"-124.43","49.49","SISTERS ISLAND","1027403","2021-12-02 08:00","2021","12","02","08:00","6.3","","1.1","","69","","","","30","","39","","","","102.18","","","","","","NA"
"-124.43","49.49","SISTERS ISLAND","1027403","2021-12-02 09:00","2021","12","02","09:00","6.4","","0.8","","67","","","","30","","41","","","","102.24","","","","","","NA"
"-124.43","49.49","SISTERS ISLAND","1027403","2021-12-02 10:00","2021","12","02","10:00","6.4","","0.3","","65","","","","30","","42","","","","102.31","","","","","","NA"
"-124.43","49.49","SISTERS ISLAND","1027403","2021-12-02 11:00","2021","12","02","11:00","6.4","","0.7","","67","","","","30","","38","","","","102.40","","","","","","NA"
"-124.43","49.49","SISTERS ISLAND","1027403","2021-12-02 12:00","2021","12","02","12:00","6.5","","0.0","","63","","","","30","","32","","","","102.43","","","","","","NA"
"-124.43","49.49","SISTERS ISLAND","1027403","2021-12-02 13:00","2021","12","02","13:00","7.3","","0.5","","62","","","","30","","30","","","","102.47","","","","","","NA"
"-124.43","49.49","SISTERS ISLAND","1027403","2021-12-02 14:00","2021","12","02","14:00","7.4","","-2.5","","49","","","","31","","44","","","","102.44","","","","","","NA"
"-124.43","49.49","SISTERS ISLAND","1027403","2021-12-02 15:00","2021","12","02","15:00","7.2","","-1.9","","52","","","","31","","41","","","","102.44","","","","","","NA"
"-124.43","49.49","SISTERS ISLAND","1027403","2021-12-02 16:00","2021","12","02","16:00","7.4","","-2.8","","48","","","","32","","41","","","","102.49","","","","","","NA"
"-124.43","49.49","SISTERS ISLAND","1027403","2021-12-02 17:00","2021","12","02","17:00","7.3","","-1.0","","56","","","","32","","32","","","","102.52","","","","","","NA"
"-124.43","49.49","SISTERS ISLAND","1027403","2021-12-02 18:00","2021","12","02","18:00","7.0","","0.3","","62","","","","30","","29","","","","102.55","","","","","","NA"
"-124.43","49.49","SISTERS ISLAND","1027403","2021-12-02 19:00","2021","12","02","19:00","6.5","","0.3","","64","","","","33","","37","","","","102.61","","","","","","NA"
"-124.43","49.49","SISTERS ISLAND","1027403","2021-12-02 20:00","2021","12","02","20:00","5.8","","1.0","","71","","","","28","","24","","","","102.68","","","","","","NA"
"-124.43","49.49","SISTERS ISLAND","1027403","2021-12-02 21:00","2021","12","02","21:00","5.7","","0.6","","70","","","","30","","27","","","","102.67","","","","","","NA"
"-124.43","49.49","SISTERS ISLAND","1027403","2021-12-02 22:00","2021","12","02","22:00","5.7","","0.0","","67","","","","32","","32","","","","102.68","","","","","","NA"
"-124.43","49.49","SISTERS ISLAND","1027403","2021-12-02 23:00","2021","12","02","23:00","5.5","","0.5","","70","","","","33","","32","","","","102.72","","","","","","NA"
"-124.43","49.49","SISTERS ISLAND","1027403","2021-12-03 00:00","2021","12","03","00:00","5.3","","0.0","","69","","","","33","","32","","","","102.71","","","","","","NA"
"-124.43","49.49","SISTERS ISLAND","1027403","2021-12-03 01:00","2021","12","03","01:00","5.4","","0.4","","70","","","","31","","33","","","","102.69","","","","","","NA"
"-124.43","49.49","SISTERS ISLAND","1027403","2021-12-03 02:00","2021","12","03","02:00","4.5","","1.0","","78","","","","28","","22","","","","102.71","","","","","","NA"
"-124.43","49.49","SISTERS ISLAND","1027403","2021-12-03 03:00","2021","12","03","03:00","4.5","","1.3","","79","","","","27","","21","","","","102.74","","","","","","NA"
"-124.43","49.49","SISTERS ISLAND","1027403","2021-12-03 04:00","2021","12","03","04:00","4.6","","1.7","","81","","","","29","","22","","","","102.71","","","","","","NA"
"-124.43","49.49","SISTERS ISLAND","1027403","2021-12-03 05:00","2021","12","03","05:00","4.4","","1.8","","83","","","","29","","24","","","","102.69","","","","","","NA"
"-124.43","49.49","SISTERS ISLAND","1027403","2021-12-03 06:00","2021","12","03","06:00","3.9","","1.1","","82","","","","28","","24","","","","102.63","","","","","","NA"
"-124.43","49.49","SISTERS ISLAND","1027403","2021-12-03 07:00","2021","12","03","07:00","4.1","","0.9","","80","","","","31","","25","","","","102.62","","","","","","NA"
"-124.43","49.49","SISTERS ISLAND","1027403","2021-12-03 08:00","2021","12","03","08:00","4.2","","1.3","","81","","","","30","","20","","","","102.62","","","","","","NA"
"-124.43","49.49","SISTERS ISLAND","1027403","2021-12-03 09:00","2021","12","03","09:00","4.1","","1.2","","82","","","","34","","14","","","","102.64","","","","","","NA"
"-124.43","49.49","SISTERS ISLAND","1027403","2021-12-03 10:00","2021","12","03","10:00","4.2","","1.4","","82","","","","32","","13","","","","102.63","","","","","","NA"
"-124.43","49.49","SISTERS ISLAND","1027403","2021-12-03 11:00","2021","12","03","11:00","4.3","","1.0","","79","","","","29","","16","","","","102.62","","","","","","NA"
"-124.43","49.49","SISTERS ISLAND","1027403","2021-12-03 12:00","2021","12","03","12:00","4.7","","0.5","","74","","","","30","","14","","","","102.54","","","","","","NA"
"-124.43","49.49","SISTERS ISLAND","1027403","2021-12-03 13:00","2021","12","03","13:00","5.5","","0.3","","69","","","","29","","16","","","","102.47","","","","","","NA"
"-124.43","49.49","SISTERS ISLAND","1027403","2021-12-03 14:00","2021","12","03","14:00","5.0","","0.4","","72","","","","31","","15","","","","102.39","","","","","","NA"
"-124.43","49.49","SISTERS ISLAND","1027403","2021-12-03 15:00","2021","12","03","15:00","4.7","","0.2","","73","","","","32","","15","","","","102.31","","","","","","NA"
"-124.43","49.49","SISTERS ISLAND","1027403","2021-12-03 16:00","2021","12","03","16:00","4.3","","0.7","","77","","","","31","","16","","","","102.25","","","","","","NA"
"-124.43","49.49","SISTERS ISLAND","1027403","2021-12-03 17:00","2021","12","03","17:00","4.3","","-0.3","","72","","","","32","","16","","","","102.18","","","","","","NA"
"-124.43","49.49","SISTERS ISLAND","1027403","2021-12-03 18:00","2021","12","03","18:00","4.3","","-0.3","","72","","","","32","","18","","","","102.14","","","","","","NA"
"-124.43","49.49","SISTERS ISLAND","1027403","2021-12-03 19:00","2021","12","03","19:00","4.3","","-0.2","","73","","","","31","","14","","","","102.05","","","","","","NA"
"-124.43","49.49","SISTERS ISLAND","1027403","2021-12-03 20:00","2021","12","03","20:00","4.5","","-0.4","","71","","","","30","","16","","","","102.00","","","","","","NA"
"-124.43","49.49","SISTERS ISLAND","1027403","2021-12-03 21:00","2021","12","03","21:00","4.5","","0.7","","77","","","","30","","12","","","","101.92","","","","","","NA"
"-124.43","49.49","SISTERS ISLAND","1027403","2021-12-03 22:00","2021","12","03","22:00","4.5","","0.9","","77","","","","31","","15","","","","101.87","","","","","","NA"
"-124.43","49.49","SISTERS ISLAND","1027403","2021-12-03 23:00","2021","12","03","23:00","4.4","","0.8","","77","","","","30","","14","","","","101.79","","","","","","NA"
"-124.43","49.49","SISTERS ISLAND","1027403","2021-12-04 00:00","2021","12","04","00:00","4.3","","1.3","","81","","","","35","","9","","","","101.73","","","","","","NA"
"-124.43","49.49","SISTERS ISLAND","1027403","2021-12-04 01:00","2021","12","04","01:00","4.5","","1.3","","80","","","","33","","7","","","","101.68","","","","","","NA"
"-124.43","49.49","SISTERS ISLAND","1027403","2021-12-04 02:00","2021","12","04","02:00","4.3","","1.2","","80","","","","26","","14","","","","101.67","","","","","","NA"
"-124.43","49.49","SISTERS ISLAND","1027403","2021-12-04 03:00","2021","12","04","03:00","3.8","","0.1","","77","","","","","","0","","","","101.65","","","","","","NA"
"-124.43","49.49","SISTERS ISLAND","1027403","2021-12-04 04:00","2021","12","04","04:00","1.8","","0.6","","92","","","","21","","12","","","","101.62","","","","","","NA"
"-124.43","49.49","SISTERS ISLAND","1027403","2021-12-04 05:00","2021","12","04","05:00","1.7","","0.7","","93","","","","23","","8","","","","101.56","","","","","","NA"
"-124.43","49.49","SISTERS ISLAND","1027403","2021-12-04 06:00","2021","12","04","06:00","2.2","","1.0","","92","","","","28","","11","","","","101.59","","","","","","NA"
"-124.43","49.49","SISTERS ISLAND","1027403","2021-12-04 07:00","2021","12","04","07:00","2.3","","1.0","","91","","","","30","","14","","","","101.56","","","","","","NA"
"-124.43","49.49","SISTERS ISLAND","1027403","2021-12-04 08:00","2021","12","04","08:00","2.6","","1.1","","90","","","","31","","12","","","","101.56","","","","","","NA"
"-124.43","49.49","SISTERS ISLAND","1027403","2021-12-04 09:00","2021","12","04","09:00","3.2","","1.1","","86","","","","30","","13","","","","101.63","","","","","","NA"
"-124.43","49.49","SISTERS ISLAND","1027403","2021-12-04 10:00","2021","12","04","10:00","3.4","","1.1","","85","","","","33","","12","","","","101.68","","","","","","NA"
"-124.43","49.49","SISTERS ISLAND","1027403","2021-12-04 11:00","2021","12","04","11:00","3.9","","0.9","","81","","","","31","","12","","","","101.73","","","","","","NA"
"-124.43","49.49","SISTERS ISLAND","1027403","2021-12-04 12:00","2021","12","04","12:00","6.3","","1.5","","71","","","","28","","9","","","","101.76","","","","","","NA"
"-124.43","49.49","SISTERS ISLAND","1027403","2021-12-04 13:00","2021","12","04","13:00","6.1","","1.3","","71","","","","30","","11","","","","101.78","","","","","","NA"
"-124.43","49.49","SISTERS ISLAND","1027403","2021-12-04 14:00","2021","12","04","14:00","6.2","","0.5","","67","","","","31","","11","","","","101.82","","","","","","NA"
"-124.43","49.49","SISTERS ISLAND","1027403","2021-12-04 15:00","2021","12","04","15:00","5.1","","-0.6","","67","","","","29","","14","","","","101.91","","","","","","NA"
"-124.43","49.49","SISTERS ISLAND","1027403","2021-12-04 16:00","2021","12","04","16:00","5.0","","-0.4","","68","","","","29","","18","","","","101.97","","","","","","NA"
"-124.43","49.49","SISTERS ISLAND","1027403","2021-12-04 17:00","2021","12","04","17:00","5.0","","0.4","","72","","","","28","","18","","","","102.06","","","","","","NA"
"-124.43","49.49","SISTERS ISLAND","1027403","2021-12-04 18:00","2021","12","04","18:00","5.3","","0.4","","71","","","","28","","21","","","","102.08","","","","","","NA"
"-124.43","49.49","SISTERS ISLAND","1027403","2021-12-04 19:00","2021","12","04","19:00","5.5","","0.3","","69","","","","30","","29","","","","102.16","","","","","","NA"
"-124.43","49.49","SISTERS ISLAND","1027403","2021-12-04 20:00","2021","12","04","20:00","5.2","","-0.7","","65","","","","29","","31","","","","102.26","","","","","","NA"
"-124.43","49.49","SISTERS ISLAND","1027403","2021-12-04 21:00","2021","12","04","21:00","5.5","","-1.4","","61","","","","31","","33","","","","102.35","","","","","","NA"
"-124.43","49.49","SISTERS ISLAND","1027403","2021-12-04 22:00","2021","12","04","22:00","5.5","","-2.4","","56","","","","32","","46","","","","102.44","","","","","","NA"
"-124.43","49.49","SISTERS ISLAND","1027403","2021-12-04 23:00","2021","12","04","23:00","5.1","","-2.9","","56","","","","32","","47","","","","102.53","","","","","","NA"
"-124.43","49.49","SISTERS ISLAND","1027403","2021-12-05 00:00","2021","12","05","00:00","5.2","","-1.8","","60","","","","32","","44","","","","102.63","","","","","","NA"
"-124.43","49.49","SISTERS ISLAND","1027403","2021-12-05 01:00","2021","12","05","01:00","5.1","","-2.7","","57","","","","33","","43","","","","102.73","","","","","","NA"
"-124.43","49.49","SISTERS ISLAND","1027403","2021-12-05 02:00","2021","12","05","02:00","4.9","","-3.0","","57","","","","33","","41","","","","102.84","","","","","","NA"
"-124.43","49.49","SISTERS ISLAND","1027403","2021-12-05 03:00","2021","12","05","03:00","4.8","","-2.5","","59","","","","33","","43","","","","102.91","","","","","","NA"
"-124.43","49.49","SISTERS ISLAND","1027403","2021-12-05 04:00","2021","12","05","04:00","4.5","","-2.9","","59","","","","34","","31","","","","102.96","","","","","","NA"
"-124.43","49.49","SISTERS ISLAND","1027403","2021-12-05 05:00","2021","12","05","05:00","4.5","","-3.6","","56","","","","32","","33","","","","103.01","","","","","","NA"
"-124.43","49.49","SISTERS ISLAND","1027403","2021-12-05 06:00","2021","12","05","06:00","3.6","","-2.3","","65","","","","25","","24","","","","103.04","","","","","","NA"
"-124.43","49.49","SISTERS ISLAND","1027403","2021-12-05 07:00","2021","12","05","07:00","3.4","","-2.4","","65","","","","27","","20","","","","103.07","","","","","","NA"
"-124.43","49.49","SISTERS ISLAND","1027403","2021-12-05 08:00","2021","12","05","08:00","3.3","","-2.9","","64","","","","29","","24","","","","103.14","","","","","","NA"
"-124.43","49.49","SISTERS ISLAND","1027403","2021-12-05 09:00","2021","12","05","09:00","3.7","","-3.2","","61","","","","27","","20","","","","103.20","","","","","","NA"
"-124.43","49.49","SISTERS ISLAND","1027403","2021-12-05 10:00","2021","12","05","10:00","4.4","","-2.5","","61","","","","29","","19","","","","103.27","","","","","","NA"
"-124.43","49.49","SISTERS ISLAND","1027403","2021-12-05 11:00","2021","12","05","11:00","5.7","","-2.1","","57","","","","29","","12","","","","103.32","","","","","","NA"
"-124.43","49.49","SISTERS ISLAND","1027403","2021-12-05 12:00","2021","12","05","12:00","4.3","","-2.3","","62","","","","30","","9","","","","103.29","","","","","","NA"
"-124.43","49.49","SISTERS ISLAND","1027403","2021-12-05 13:00","2021","12","05","13:00","4.0","","-2.2","","64","","","","23","","5","","","","103.23","","","","","","NA"
"-124.43","49.49","SISTERS ISLAND","1027403","2021-12-05 14:00","2021","12","05","14:00","6.2","","-1.7","","57","","","","28","","1","","","","103.15","","","","","","NA"
"-124.43","49.49","SISTERS ISLAND","1027403","2021-12-05 15:00","2021","12","05","15:00","3.7","","-2.5","","64","","","","16","","8","","","","103.09","","","","","","NA"
"-124.43","49.49","SISTERS ISLAND","1027403","2021-12-05 16:00","2021","12","05","16:00","3.8","","-2.3","","64","","","","14","","9","","","","103.03","","","","","","NA"
"-124.43","49.49","SISTERS ISLAND","1027403","2021-12-05 17:00","2021","12","05","17:00","4.0","","-3.2","","59","","","","14","","10","","","","102.99","","","","","","NA"
"-124.43","49.49","SISTERS ISLAND","1027403","2021-12-05 18:00","2021","12","05","18:00","4.4","","-0.8","","69","","","","13","","14","","","","102.94","","","","","","NA"
"-124.43","49.49","SISTERS ISLAND","1027403","2021-12-05 19:00","2021","12","05","19:00","4.2","","-0.7","","71","","","","14","","18","","","","102.78","","","","","","NA"
"-124.43","49.49","SISTERS ISLAND","1027403","2021-12-05 20:00","2021","12","05","20:00","4.3","","-0.1","","73","","","","15","","23","","","","102.67","","","","","","NA"
"-124.43","49.49","SISTERS ISLAND","1027403","2021-12-05 21:00","2021","12","05","21:00","3.8","","-1.9","","66","","","","18","","13","","","","102.67","","","","","","NA"
"-124.43","49.49","SISTERS ISLAND","1027403","2021-12-05 22:00","2021","12","05","22:00","0.7","","0.0","","95","","","","22","","21","","","","102.61","","","","","","NA"
"-124.43","49.49","SISTERS ISLAND","1027403","2021-12-05 23:00","2021","12","05","23:00","0.9","","0.4","","97","","","","16","","20","","","","102.50","","","","","","NA"
"-124.43","49.49","SISTERS ISLAND","1027403","2021-12-06 00:00","2021","12","06","00:00","1.3","","0.6","","95","","","","10","","23","","","","102.37","","","","","","NA"
"-124.43","49.49","SISTERS ISLAND","1027403","2021-12-06 01:00","2021","12","06","01:00","1.7","","0.6","","93","","","","11","","34","","","","102.16","","","","","","NA"
"-124.43","49.49","SISTERS ISLAND","1027403","2021-12-06 02:00","2021","12","06","02:00","2.1","","0.5","","89","","","","12","","41","","","","102.01","","","","","","NA"
"-124.43","49.49","SISTERS ISLAND","1027403","2021-12-06 03:00","2021","12","06","03:00","1.5","","0.8","","96","","","","12","","42","","","","101.89","","","","","","NA"
"-124.43","49.49","SISTERS ISLAND","1027403","2021-12-06 04:00","2021","12","06","04:00","1.7","","0.7","","93","","","","11","","43","","","","101.80","","","","","","NA"
"-124.43","49.49","SISTERS ISLAND","1027403","2021-12-06 05:00","2021","12","06","05:00","1.9","","0.8","","92","","","","10","","39","","","","101.73","","","","","","NA"
"-124.43","49.49","SISTERS ISLAND","1027403","2021-12-06 06:00","2021","12","06","06:00","2.1","","0.5","","89","","","","10","","30","","","","101.63","","","","","","NA"
"-124.43","49.49","SISTERS ISLAND","1027403","2021-12-06 07:00","2021","12","06","07:00","2.4","","0.7","","88","","","","8","","26","","","","101.60","","","","","","NA"
"-124.43","49.49","SISTERS ISLAND","1027403","2021-12-06 08:00","2021","12","06","08:00","2.1","","0.8","","91","","","","9","","25","","","","101.53","","","","","","NA"
"-124.43","49.49","SISTERS ISLAND","1027403","2021-12-06 09:00","2021","12","06","09:00","2.2","","0.7","","89","","","","9","","26","","","","101.53","","","","","","NA"
"-124.43","49.49","SISTERS ISLAND","1027403","2021-12-06 10:00","2021","12","06","10:00","2.6","","1.1","","90","","","","10","","33","","","","101.53","","","","","","NA"
"-124.43","49.49","SISTERS ISLAND","1027403","2021-12-06 11:00","2021","12","06","11:00","2.6","","1.4","","92","","","","10","","29","","","","101.50","","","","","","NA"
"-124.43","49.49","SISTERS ISLAND","1027403","2021-12-06 12:00","2021","12","06","12:00","2.8","","1.8","","93","","","","10","","27","","","","101.44","","","","","","NA"
"-124.43","49.49","SISTERS ISLAND","1027403","2021-12-06 13:00","2021","12","06","13:00","3.1","","2.0","","92","","","","9","","23","","","","101.38","","","","","","NA"
"-124.43","49.49","SISTERS ISLAND","1027403","2021-12-06 14:00","2021","12","06","14:00","2.9","","1.9","","93","","","","7","","14","","","","101.39","","","","","","NA"
"-124.43","49.49","SISTERS ISLAND","1027403","2021-12-06 15:00","2021","12","06","15:00","3.0","","1.8","","92","","","","9","","15","","","","101.35","","","","","","NA"
"-124.43","49.49","SISTERS ISLAND","1027403","2021-12-06 16:00","2021","12","06","16:00","3.4","","1.7","","89","","","","8","","13","","","","101.38","","","","","","NA"
"-124.43","49.49","SISTERS ISLAND","1027403","2021-12-06 17:00","2021","12","06","17:00","3.6","","1.9","","89","","","","8","","10","","","","101.41","","","","","","NA"
"-124.43","49.49","SISTERS ISLAND","1027403","2021-12-06 18:00","2021","12","06","18:00","3.4","","2.5","","94","","","","8","","9","","","","101.37","","","","","","NA"
"-124.43","49.49","SISTERS ISLAND","1027403","2021-12-06 19:00","2021","12","06","19:00","3.6","","2.6","","93","","","","6","","9","","","","101.37","","","","","","NA"
"-124.43","49.49","SISTERS ISLAND","1027403","2021-12-06 20:00","2021","12","06","20:00","3.8","","2.4","","90","","","","4","","6","","","","101.39","","","","","","NA"
"-124.43","49.49","SISTERS ISLAND","1027403","2021-12-06 21:00","2021","12","06","21:00","4.0","","2.9","","93","","","","1","","7","","","","101.43","","","","","","NA"
"-124.43","49.49","SISTERS ISLAND","1027403","2021-12-06 22:00","2021","12","06","22:00","4.0","","3.1","","94","","","","4","","7","","","","101.46","","","","","","NA"
"-124.43","49.49","SISTERS ISLAND","1027403","2021-12-06 23:00","2021","12","06","23:00","3.9","","3.2","","95","","","","19","","13","","","","101.37","","","","","","NA"
"-124.43","49.49","SISTERS ISLAND","1027403","2021-12-07 00:00","2021","12","07","00:00","4.0","","3.1","","94","","","","22","","6","","","","101.41","","","","","","NA"
"-124.43","49.49","SISTERS ISLAND","1027403","2021-12-07 01:00","2021","12","07","01:00","4.0","","3.2","","95","","","","26","","11","","","","101.43","","","","","","NA"
"-124.43","49.49","SISTERS ISLAND","1027403","2021-12-07 02:00","2021","12","07","02:00","4.0","","3.4","","96","","","","26","","9","","","","101.41","","","","","","NA"
"-124.43","49.49","SISTERS ISLAND","1027403","2021-12-07 03:00","2021","12","07","03:00","4.1","","3.5","","96","","","","28","","11","","","","101.48","","","","","","NA"
"-124.43","49.49","SISTERS ISLAND","1027403","2021-12-07 04:00","2021","12","07","04:00","4.1","","3.5","","96","","","","25","","9","","","","101.44","","","","","","NA"
"-124.43","49.49","SISTERS ISLAND","1027403","2021-12-07 05:00","2021","12","07","05:00","4.2","","3.3","","94","","","","22","","9","","","","101.38","","","","","","NA"
"-124.43","49.49","SISTERS ISLAND","1027403","2021-12-07 06:00","2021","12","07","06:00","4.4","","3.3","","93","","","","22","","3","","","","101.43","","","","","","NA"
"-124.43","49.49","SISTERS ISLAND","1027403","2021-12-07 07:00","2021","12","07","07:00","4.4","","3.4","","93","","","","18","","3","","","","101.43","","","","","","NA"
"-124.43","49.49","SISTERS ISLAND","1027403","2021-12-07 08:00","2021","12","07","08:00","4.3","","3.5","","94","","","","11","","12","","","","101.37","","","","","","NA"
"-124.43","49.49","SISTERS ISLAND","1027403","2021-12-07 09:00","2021","12","07","09:00","4.3","","3.6","","95","","","","9","","14","","","","101.41","","","","","","NA"
"-124.43","49.49","SISTERS ISLAND","1027403","2021-12-07 10:00","2021","12","07","10:00","4.7","","4.0","","95","","","","8","","16","","","","101.38","","","","","","NA"
"-124.43","49.49","SISTERS ISLAND","1027403","2021-12-07 11:00","2021","12","07","11:00","5.4","","3.6","","88","","","","12","","26","","","","101.36","","","","","","NA"
"-124.43","49.49","SISTERS ISLAND","1027403","2021-12-07 12:00","2021","12","07","12:00","5.6","","3.9","","89","","","","13","","28","","","","101.30","","","","","","NA"
"-124.43","49.49","SISTERS ISLAND","1027403","2021-12-07 13:00","2021","12","07","13:00","5.5","","4.4","","93","","","","12","","35","","","","101.19","","","","","","NA"
"-124.43","49.49","SISTERS ISLAND","1027403","2021-12-07 14:00","2021","12","07","14:00","5.5","","4.4","","92","","","","12","","38","","","","101.08","","","","","","NA"
"-124.43","49.49","SISTERS ISLAND","1027403","2021-12-07 15:00","2021","12","07","15:00","5.8","","4.2","","90","","","","13","","42","","","","100.96","","","","","","NA"
"-124.43","49.49","SISTERS ISLAND","1027403","2021-12-07 16:00","2021","12","07","16:00","5.8","","4.7","","93","","","","12","","50","","","","100.82","","","","","","NA"
"-124.43","49.49","SISTERS ISLAND","1027403","2021-12-07 17:00","2021","12","07","17:00","6.0","","5.4","","96","","","","12","","54","","","","100.68","","","","","","NA"
"-124.43","49.49","SISTERS ISLAND","1027403","2021-12-07 18:00","2021","12","07","18:00","6.2","","5.8","","97","","","","12","","52","","","","100.57","","","","","","NA"
"-124.43","49.49","SISTERS ISLAND","1027403","2021-12-07 19:00","2021","12","07","19:00","6.6","","6.1","","97","","","","11","","52","","","","100.50","","","","","","NA"
"-124.43","49.49","SISTERS ISLAND","1027403","2021-12-07 20:00","2021","12","07","20:00","6.9","","6.2","","95","","","","12","","48","","","","100.48","","","","","","NA"
"-124.43","49.49","SISTERS ISLAND","1027403","2021-12-07 21:00","2021","12","07","21:00","7.1","","6.4","","95","","","","12","","44","","","","100.39","","","","","","NA"
"-124.43","49.49","SISTERS ISLAND","1027403","2021-12-07 22:00","2021","12","07","22:00","7.7","","6.4","","91","","","","12","","33","","","","100.32","","","","","","NA"
"-124.43","49.49","SISTERS ISLAND","1027403","2021-12-07 23:00","2021","12","07","23:00","8.4","","6.0","","85","","","","15","","26","","","","100.26","","","","","","NA"
"-124.43","49.49","SISTERS ISLAND","1027403","2021-12-08 00:00","2021","12","08","00:00","8.8","","4.9","","76","","","","20","","26","","","","100.23","","","","","","NA"
"-124.43","49.49","SISTERS ISLAND","1027403","2021-12-08 01:00","2021","12","08","01:00","8.4","","4.7","","77","","","","23","","37","","","","100.15","","","","","","NA"
"-124.43","49.49","SISTERS ISLAND","1027403","2021-12-08 02:00","2021","12","08","02:00","6.4","","5.0","","91","","","","32","","55","","","","100.28","","","","","","NA"
"-124.43","49.49","SISTERS ISLAND","1027403","2021-12-08 03:00","2021","12","08","03:00","6.0","","2.3","","77","","","","33","","55","","","","100.40","","","","","","NA"
"-124.43","49.49","SISTERS ISLAND","1027403","2021-12-08 04:00","2021","12","08","04:00","6.8","","1.1","","67","","","","32","","49","","","","100.44","","","","","","NA"
"-124.43","49.49","SISTERS ISLAND","1027403","2021-12-08 05:00","2021","12","08","05:00","5.9","","0.9","","70","","","","34","","33","","","","100.56","","","","","","NA"
"-124.43","49.49","SISTERS ISLAND","1027403","2021-12-08 06:00","2021","12","08","06:00","5.7","","0.9","","71","","","","33","","38","","","","100.63","","","","","","NA"
"-124.43","49.49","SISTERS ISLAND","1027403","2021-12-08 07:00","2021","12","08","07:00","5.5","","0.8","","72","","","","34","","30","","","","100.71","","","","","","NA"
"-124.43","49.49","SISTERS ISLAND","1027403","2021-12-08 08:00","2021","12","08","08:00","5.6","","0.8","","71","","","","32","","24","","","","100.79","","","","","","NA"
"-124.43","49.49","SISTERS ISLAND","1027403","2021-12-08 09:00","2021","12","08","09:00","5.5","","1.5","","75","","","","30","","16","","","","100.88","","","","","","NA"
"-124.43","49.49","SISTERS ISLAND","1027403","2021-12-08 10:00","2021","12","08","10:00","6.0","","0.6","","68","","","","33","","10","","","","100.96","","","","","","NA"
"-124.43","49.49","SISTERS ISLAND","1027403","2021-12-08 11:00","2021","12","08","11:00","8.0","","1.5","","64","","","","31","","9","","","","101.00","","","","","","NA"
"-124.43","49.49","SISTERS ISLAND","1027403","2021-12-08 12:00","2021","12","08","12:00","9.5","","2.2","","60","","","","29","","4","","","","100.99","","","","","","NA"
"-124.43","49.49","SISTERS ISLAND","1027403","2021-12-08 13:00","2021","12","08","13:00","9.6","","2.4","","60","","","","33","","4","","","","100.97","","","","","","NA"
"-124.43","49.49","SISTERS ISLAND","1027403","2021-12-08 14:00","2021","12","08","14:00","6.0","","0.8","","69","","","","2","","12","","","","100.97","","","","","","NA"
"-124.43","49.49","SISTERS ISLAND","1027403","2021-12-08 15:00","2021","12","08","15:00","6.3","","-0.1","","64","","","","2","","2","","","","100.97","","","","","","NA"
"-124.43","49.49","SISTERS ISLAND","1027403","2021-12-08 16:00","2021","12","08","16:00","5.9","","-0.1","","66","","","","1","","6","","","","100.99","","","","","","NA"
"-124.43","49.49","SISTERS ISLAND","1027403","2021-12-08 17:00","2021","12","08","17:00","6.0","","0.4","","68","","","","25","","26","","","","100.97","","","","","","NA"
"-124.43","49.49","SISTERS ISLAND","1027403","2021-12-08 18:00","2021","12","08","18:00","5.9","","-0.2","","65","","","","25","","32","","","","100.95","","","","","","NA"
"-124.43","49.49","SISTERS ISLAND","1027403","2021-12-08 19:00","2021","12","08","19:00","5.9","","-0.2","","65","","","","23","","31","","","","100.90","","","","","","NA"
"-124.43","49.49","SISTERS ISLAND","1027403","2021-12-08 20:00","2021","12","08","20:00","5.9","","-0.9","","62","","","","22","","22","","","","100.96","","","","","","NA"
"-124.43","49.49","SISTERS ISLAND","1027403","2021-12-08 21:00","2021","12","08","21:00","5.4","","0.5","","71","","","","24","","35","","","","100.90","","","","","","NA"
"-124.43","49.49","SISTERS ISLAND","1027403","2021-12-08 22:00","2021","12","08","22:00","5.5","","0.0","","68","","","","24","","40","","","","100.90","","","","","","NA"
"-124.43","49.49","SISTERS ISLAND","1027403","2021-12-08 23:00","2021","12","08","23:00","5.5","","0.0","","68","","","","24","","37","","","","100.90","","","","","","NA"
"-124.43","49.49","SISTERS ISLAND","1027403","2021-12-09 00:00","2021","12","09","00:00","5.5","","0.0","","68","","","","24","","37","","","","100.90","","","","","","NA"
"-124.43","49.49","SISTERS ISLAND","1027403","2021-12-09 01:00","2021","12","09","01:00","5.5","","0.5","","70","","","","23","","36","","","","100.83","","","","","","NA"
"-124.43","49.49","SISTERS ISLAND","1027403","2021-12-09 02:00","2021","12","09","02:00","5.5","","0.3","","69","","","","25","","26","","","","100.84","","","","","","NA"
"-124.43","49.49","SISTERS ISLAND","1027403","2021-12-09 03:00","2021","12","09","03:00","5.8","","-1.0","","61","","","","16","","8","","","","100.83","","","","","","NA"
"-124.43","49.49","SISTERS ISLAND","1027403","2021-12-09 04:00","2021","12","09","04:00","5.1","","0.4","","72","","","","7","","14","","","","100.78","","","","","","NA"
"-124.43","49.49","SISTERS ISLAND","1027403","2021-12-09 05:00","2021","12","09","05:00","5.5","","0.7","","71","","","","9","","15","","","","100.74","","","","","","NA"
"-124.43","49.49","SISTERS ISLAND","1027403","2021-12-09 06:00","2021","12","09","06:00","5.3","","-0.1","","68","","","","16","","12","","","","100.72","","","","","","NA"
"-124.43","49.49","SISTERS ISLAND","1027403","2021-12-09 07:00","2021","12","09","07:00","5.1","","0.3","","71","","","","11","","15","","","","100.70","","","","","","NA"
"-124.43","49.49","SISTERS ISLAND","1027403","2021-12-09 08:00","2021","12","09","08:00","5.2","","0.9","","74","","","","13","","16","","","","100.70","","","","","","NA"
"-124.43","49.49","SISTERS ISLAND","1027403","2021-12-09 09:00","2021","12","09","09:00","5.3","","-0.1","","68","","","","19","","8","","","","100.77","","","","","","NA"
"-124.43","49.49","SISTERS ISLAND","1027403","2021-12-09 10:00","2021","12","09","10:00","5.0","","0.6","","73","","","","23","","25","","","","100.81","","","","","","NA"
"-124.43","49.49","SISTERS ISLAND","1027403","2021-12-09 11:00","2021","12","09","11:00","5.5","","1.6","","76","","","","26","","19","","","","100.88","","","","","","NA"
"-124.43","49.49","SISTERS ISLAND","1027403","2021-12-09 12:00","2021","12","09","12:00","5.7","","2.4","","79","","","","30","","28","","","","100.88","","","","","","NA"
"-124.43","49.49","SISTERS ISLAND","1027403","2021-12-09 13:00","2021","12","09","13:00","6.4","","1.7","","72","","","","28","","22","","","","100.87","","","","","","NA"
"-124.43","49.49","SISTERS ISLAND","1027403","2021-12-09 14:00","2021","12","09","14:00","6.3","","1.8","","73","","","","29","","17","","","","100.89","","","","","","NA"
"-124.43","49.49","SISTERS ISLAND","1027403","2021-12-09 15:00","2021","12","09","15:00","5.4","","0.5","","71","","","","32","","14","","","","100.92","","","","","","NA"
"-124.43","49.49","SISTERS ISLAND","1027403","2021-12-09 16:00","2021","12","09","16:00","5.1","","1.0","","75","","","","32","","9","","","","100.93","","","","","","NA"
"-124.43","49.49","SISTERS ISLAND","1027403","2021-12-09 17:00","2021","12","09","17:00","5.2","","0.4","","71","","","","31","","10","","","","100.97","","","","","","NA"
"-124.43","49.49","SISTERS ISLAND","1027403","2021-12-09 18:00","2021","12","09","18:00","5.1","","1.5","","77","","","","34","","7","","","","101.02","","","","","","NA"
"-124.43","49.49","SISTERS ISLAND","1027403","2021-12-09 19:00","2021","12","09","19:00","4.7","","2.5","","86","","","","10","","5","","","","101.06","","","","","","NA"
"-124.43","49.49","SISTERS ISLAND","1027403","2021-12-09 20:00","2021","12","09","20:00","4.8","","2.1","","82","","","","21","","1","","","","101.09","","","","","","NA"
"-124.43","49.49","SISTERS ISLAND","1027403","2021-12-09 21:00","2021","12","09","21:00","4.6","","2.4","","86","","","","9","","5","","","","101.13","","","","","","NA"
"-124.43","49.49","SISTERS ISLAND","1027403","2021-12-09 22:00","2021","12","09","22:00","4.7","","1.2","","78","","","","4","","4","","","","101.20","","","","","","NA"
"-124.43","49.49","SISTERS ISLAND","1027403","2021-12-09 23:00","2021","12","09","23:00","4.4","","1.9","","84","","","","26","","11","","","","101.25","","","","","","NA"
"-124.43","49.49","SISTERS ISLAND","1027403","2021-12-10 00:00","2021","12","10","00:00","4.3","","1.6","","83","","","","23","","9","","","","101.30","","","","","","NA"
"-124.43","49.49","SISTERS ISLAND","1027403","2021-12-10 01:00","2021","12","10","01:00","4.1","","1.6","","84","","","","23","","12","","","","101.29","","","","","","NA"
"-124.43","49.49","SISTERS ISLAND","1027403","2021-12-10 02:00","2021","12","10","02:00","3.9","","1.2","","83","","","","23","","16","","","","101.29","","","","","","NA"
"-124.43","49.49","SISTERS ISLAND","1027403","2021-12-10 03:00","2021","12","10","03:00","3.8","","1.0","","82","","","","19","","9","","","","101.32","","","","","","NA"
"-124.43","49.49","SISTERS ISLAND","1027403","2021-12-10 04:00","2021","12","10","04:00","3.7","","0.5","","80","","","","18","","7","","","","101.37","","","","","","NA"
"-124.43","49.49","SISTERS ISLAND","1027403","2021-12-10 05:00","2021","12","10","05:00","3.7","","0.6","","80","","","","20","","6","","","","101.38","","","","","","NA"
"-124.43","49.49","SISTERS ISLAND","1027403","2021-12-10 06:00","2021","12","10","06:00","3.8","","0.9","","81","","","","15","","10","","","","101.31","","","","","","NA"
"-124.43","49.49","SISTERS ISLAND","1027403","2021-12-10 07:00","2021","12","10","07:00","3.6","","-0.4","","75","","","","16","","15","","","","101.33","","","","","","NA"
"-124.43","49.49","SISTERS ISLAND","1027403","2021-12-10 08:00","2021","12","10","08:00","4.5","","2.3","","85","","","","13","","29","","","","101.24","","","","","","NA"
"-124.43","49.49","SISTERS ISLAND","1027403","2021-12-10 09:00","2021","12","10","09:00","4.4","","1.5","","82","","","","11","","44","","","","101.17","","","","","","NA"
"-124.43","49.49","SISTERS ISLAND","1027403","2021-12-10 10:00","2021","12","10","10:00","4.5","","2.1","","84","","","","11","","45","","","","101.12","","","","","","NA"
"-124.43","49.49","SISTERS ISLAND","1027403","2021-12-10 11:00","2021","12","10","11:00","4.5","","2.0","","84","","","","11","","52","","","","101.07","","","","","","NA"
"-124.43","49.49","SISTERS ISLAND","1027403","2021-12-10 12:00","2021","12","10","12:00","4.8","","2.2","","83","","","","11","","53","","","","101.01","","","","","","NA"
"-124.43","49.49","SISTERS ISLAND","1027403","2021-12-10 13:00","2021","12","10","13:00","4.7","","2.3","","85","","","","10","","59","","","","100.78","","","","","","NA"
"-124.43","49.49","SISTERS ISLAND","1027403","2021-12-10 14:00","2021","12","10","14:00","5.1","","3.4","","89","","","","10","","65","","","","100.63","","","","","","NA"
"-124.43","49.49","SISTERS ISLAND","1027403","2021-12-10 15:00","2021","12","10","15:00","5.6","","3.2","","85","","","","12","","70","","","","100.50","","","","","","NA"
"-124.43","49.49","SISTERS ISLAND","1027403","2021-12-10 16:00","2021","12","10","16:00","5.5","","3.7","","88","","","","11","","75","","","","100.27","","","","","","NA"
"-124.43","49.49","SISTERS ISLAND","1027403","2021-12-10 17:00","2021","12","10","17:00","4.9","","3.1","","88","","","","12","","70","","","","100.15","","","","","","NA"
"-124.43","49.49","SISTERS ISLAND","1027403","2021-12-10 18:00","2021","12","10","18:00","5.9","","4.8","","92","","","","12","","68","","","","100.06","","","","","","NA"
"-124.43","49.49","SISTERS ISLAND","1027403","2021-12-10 19:00","2021","12","10","19:00","5.7","","4.1","","89","","","","13","","67","","","","99.87","","","","","","NA"
"-124.43","49.49","SISTERS ISLAND","1027403","2021-12-10 20:00","2021","12","10","20:00","6.2","","4.5","","89","","","","13","","59","","","","99.79","","","","","","NA"
"-124.43","49.49","SISTERS ISLAND","1027403","2021-12-10 21:00","2021","12","10","21:00","6.2","","4.8","","90","","","","12","","60","","","","99.64","","","","","","NA"
"-124.43","49.49","SISTERS ISLAND","1027403","2021-12-10 22:00","2021","12","10","22:00","6.7","","5.1","","89","","","","11","","65","","","","99.38","","","","","","NA"
"-124.43","49.49","SISTERS ISLAND","1027403","2021-12-10 23:00","2021","12","10","23:00","7.3","","5.4","","88","","","","12","","58","","","","99.23","","","","","","NA"
"-124.43","49.49","SISTERS ISLAND","1027403","2021-12-11 00:00","2021","12","11","00:00","7.2","","5.1","","86","","","","12","","60","","","","99.03","","","","","","NA"
"-124.43","49.49","SISTERS ISLAND","1027403","2021-12-11 01:00","2021","12","11","01:00","7.2","","5.2","","87","","","","12","","57","","","","98.90","","","","","","NA"
"-124.43","49.49","SISTERS ISLAND","1027403","2021-12-11 02:00","2021","12","11","02:00","7.6","","5.0","","84","","","","12","","33","","","","99.01","","","","","","NA"
"-124.43","49.49","SISTERS ISLAND","1027403","2021-12-11 03:00","2021","12","11","03:00","9.6","","5.3","","75","","","","16","","20","","","","99.05","","","","","","NA"
"-124.43","49.49","SISTERS ISLAND","1027403","2021-12-11 04:00","2021","12","11","04:00","9.7","","4.1","","68","","","","21","","20","","","","99.06","","","","","","NA"
"-124.43","49.49","SISTERS ISLAND","1027403","2021-12-11 05:00","2021","12","11","05:00","8.8","","3.2","","68","","","","22","","32","","","","99.06","","","","","","NA"
"-124.43","49.49","SISTERS ISLAND","1027403","2021-12-11 06:00","2021","12","11","06:00","8.0","","3.0","","70","","","","24","","31","","","","99.09","","","","","","NA"
"-124.43","49.49","SISTERS ISLAND","1027403","2021-12-11 07:00","2021","12","11","07:00","7.6","","0.7","","61","","","","22","","38","","","","99.03","","","","","","NA"
"-124.43","49.49","SISTERS ISLAND","1027403","2021-12-11 08:00","2021","12","11","08:00","7.2","","0.2","","61","","","","21","","34","","","","99.05","","","","","","NA"
"-124.43","49.49","SISTERS ISLAND","1027403","2021-12-11 09:00","2021","12","11","09:00","8.1","","0.7","","60","","","","24","","32","","","","99.10","","","","","","NA"
"-124.43","49.49","SISTERS ISLAND","1027403","2021-12-11 10:00","2021","12","11","10:00","5.1","","1.2","","76","","","","19","","33","","","","99.15","","","","","","NA"
"-124.43","49.49","SISTERS ISLAND","1027403","2021-12-11 11:00","2021","12","11","11:00","5.8","","0.9","","71","","","","19","","26","","","","99.20","","","","","","NA"
"-124.43","49.49","SISTERS ISLAND","1027403","2021-12-11 12:00","2021","12","11","12:00","6.1","","1.1","","71","","","","17","","18","","","","99.13","","","","","","NA"
"-124.43","49.49","SISTERS ISLAND","1027403","2021-12-11 13:00","2021","12","11","13:00","5.7","","2.2","","78","","","","17","","29","","","","99.05","","","","","","NA"
"-124.43","49.49","SISTERS ISLAND","1027403","2021-12-11 14:00","2021","12","11","14:00","5.6","","2.3","","79","","","","14","","20","","","","99.07","","","","","","NA"
"-124.43","49.49","SISTERS ISLAND","1027403","2021-12-11 15:00","2021","12","11","15:00","5.5","","1.2","","74","","","","20","","27","","","","99.12","","","","","","NA"
"-124.43","49.49","SISTERS ISLAND","1027403","2021-12-11 16:00","2021","12","11","16:00","5.1","","0.4","","72","","","","22","","29","","","","99.10","","","","","","NA"
"-124.43","49.49","SISTERS ISLAND","1027403","2021-12-11 17:00","2021","12","11","17:00","4.7","","0.1","","72","","","","22","","51","","","","99.07","","","","","","NA"
"-124.43","49.49","SISTERS ISLAND","1027403","2021-12-11 18:00","2021","12","11","18:00","4.5","","-1.0","","68","","","","25","","34","","","","99.26","","","","","","NA"
"-124.43","49.49","SISTERS ISLAND","1027403","2021-12-11 19:00","2021","12","11","19:00","4.3","","-0.5","","70","","","","22","","17","","","","99.27","","","","","","NA"
"-124.43","49.49","SISTERS ISLAND","1027403","2021-12-11 20:00","2021","12","11","20:00","5.2","","-2.3","","58","","","","23","","24","","","","99.25","","","","","","NA"
"-124.43","49.49","SISTERS ISLAND","1027403","2021-12-11 21:00","2021","12","11","21:00","5.4","","-1.2","","62","","","","18","","12","","","","99.25","","","","","","NA"
"-124.43","49.49","SISTERS ISLAND","1027403","2021-12-11 22:00","2021","12","11","22:00","3.8","","0.5","","79","","","","20","","25","","","","99.18","","","","","","NA"
"-124.43","49.49","SISTERS ISLAND","1027403","2021-12-11 23:00","2021","12","11","23:00","2.8","","-0.4","","79","","","","18","","18","","","","99.24","","","","","","NA"
"-124.43","49.49","SISTERS ISLAND","1027403","2021-12-12 00:00","2021","12","12","00:00","1.7","","0.8","","93","","","","12","","29","","","","99.15","","","","","","NA"
"-124.43","49.49","SISTERS ISLAND","1027403","2021-12-12 01:00","2021","12","12","01:00","3.0","","1.4","","89","","","","12","","40","","","","99.07","","","","","","NA"
"-124.43","49.49","SISTERS ISLAND","1027403","2021-12-12 02:00","2021","12","12","02:00","3.8","","1.7","","86","","","","13","","34","","","","99.07","","","","","","NA"
"-124.43","49.49","SISTERS ISLAND","1027403","2021-12-12 03:00","2021","12","12","03:00","5.4","","-4.0","","51","","","","19","","27","","","","99.17","","","","","","NA"
"-124.43","49.49","SISTERS ISLAND","1027403","2021-12-12 04:00","2021","12","12","04:00","3.8","","-0.7","","73","","","","22","","18","","","","99.27","","","","","","NA"
"-124.43","49.49","SISTERS ISLAND","1027403","2021-12-12 05:00","2021","12","12","05:00","4.1","","-0.9","","70","","","","21","","16","","","","99.30","","","","","","NA"
"-124.43","49.49","SISTERS ISLAND","1027403","2021-12-12 06:00","2021","12","12","06:00","4.0","","-0.4","","73","","","","11","","23","","","","99.34","","","","","","NA"
"-124.43","49.49","SISTERS ISLAND","1027403","2021-12-12 07:00","2021","12","12","07:00","4.6","","-1.8","","63","","","","21","","22","","","","99.38","","","","","","NA"
"-124.43","49.49","SISTERS ISLAND","1027403","2021-12-12 08:00","2021","12","12","08:00","4.0","","-0.5","","73","","","","9","","17","","","","99.47","","","","","","NA"
"-124.43","49.49","SISTERS ISLAND","1027403","2021-12-12 09:00","2021","12","12","09:00","5.2","","-2.0","","60","","","","13","","23","","","","99.52","","","","","","NA"
"-124.43","49.49","SISTERS ISLAND","1027403","2021-12-12 10:00","2021","12","12","10:00","4.2","","-0.7","","71","","","","16","","32","","","","99.57","","","","","","NA"
"-124.43","49.49","SISTERS ISLAND","1027403","2021-12-12 11:00","2021","12","12","11:00","5.1","","-0.5","","67","","","","13","","36","","","","99.57","","","","","","NA"
"-124.43","49.49","SISTERS ISLAND","1027403","2021-12-12 12:00","2021","12","12","12:00","4.9","","0.6","","73","","","","13","","40","","","","99.60","","","","","","NA"
"-124.43","49.49","SISTERS ISLAND","1027403","2021-12-12 13:00","2021","12","12","13:00","4.4","","-0.4","","71","","","","14","","40","","","","99.62","","","","","","NA"
"-124.43","49.49","SISTERS ISLAND","1027403","2021-12-12 14:00","2021","12","12","14:00","3.2","","1.3","","87","","","","12","","30","","","","99.62","","","","","","NA"
"-124.43","49.49","SISTERS ISLAND","1027403","2021-12-12 15:00","2021","12","12","15:00","3.9","","1.2","","83","","","","13","","36","","","","99.61","","","","","","NA"
"-124.43","49.49","SISTERS ISLAND","1027403","2021-12-12 16:00","2021","12","12","16:00","4.1","","1.2","","81","","","","14","","18","","","","99.68","","","","","","NA"
"-124.43","49.49","SISTERS ISLAND","1027403","2021-12-12 17:00","2021","12","12","17:00","4.2","","1.7","","84","","","","13","","12","","","","99.69","","","","","","NA"
"-124.43","49.49","SISTERS ISLAND","1027403","2021-12-12 18:00","2021","12","12","18:00","4.0","","1.0","","81","","","","12","","20","","","","99.70","","","","","","NA"
"-124.43","49.49","SISTERS ISLAND","1027403","2021-12-12 19:00","2021","12","12","19:00","4.3","","2.0","","85","","","","12","","26","","","","99.68","","","","","","NA"
"-124.43","49.49","SISTERS ISLAND","1027403","2021-12-12 20:00","2021","12","12","20:00","4.6","","2.2","","85","","","","12","","16","","","","99.70","","","","","","NA"
"-124.43","49.49","SISTERS ISLAND","1027403","2021-12-12 21:00","2021","12","12","21:00","4.3","","0.5","","77","","","","15","","19","","","","99.70","","","","","","NA"
"-124.43","49.49","SISTERS ISLAND","1027403","2021-12-12 22:00","2021","12","12","22:00","5.3","","1.0","","74","","","","13","","22","","","","99.68","","","","","","NA"
"-124.43","49.49","SISTERS ISLAND","1027403","2021-12-12 23:00","2021","12","12","23:00","4.7","","1.1","","78","","","","12","","44","","","","99.61","","","","","","NA"
"-124.43","49.49","SISTERS ISLAND","1027403","2021-12-13 00:00","2021","12","13","00:00","5.2","","1.3","","76","","","","13","","43","","","","99.57","","","","","","NA"
"-124.43","49.49","SISTERS ISLAND","1027403","2021-12-13 01:00","2021","12","13","01:00","5.2","","1.8","","79","","","","12","","56","","","","99.42","","","","","","NA"
"-124.43","49.49","SISTERS ISLAND","1027403","2021-12-13 02:00","2021","12","13","02:00","5.2","","2.2","","81","","","","9","","44","","","","99.34","","","","","","NA"
"-124.43","49.49","SISTERS ISLAND","1027403","2021-12-13 03:00","2021","12","13","03:00","6.1","","1.2","","71","","","","10","","43","","","","99.27","","","","","","NA"
"-124.43","49.49","SISTERS ISLAND","1027403","2021-12-13 04:00","2021","12","13","04:00","6.4","","0.9","","68","","","","12","","67","","","","99.15","","","","","","NA"
"-124.43","49.49","SISTERS ISLAND","1027403","2021-12-13 05:00","2021","12","13","05:00","5.4","","1.3","","75","","","","11","","70","","","","99.04","","","","","","NA"
"-124.43","49.49","SISTERS ISLAND","1027403","2021-12-13 06:00","2021","12","13","06:00","4.5","","2.2","","85","","","","12","","62","","","","99.13","","","","","","NA"
"-124.43","49.49","SISTERS ISLAND","1027403","2021-12-13 07:00","2021","12","13","07:00","4.2","","2.4","","88","","","","12","","62","","","","99.16","","","","","","NA"
"-124.43","49.49","SISTERS ISLAND","1027403","2021-12-13 08:00","2021","12","13","08:00","4.3","","2.3","","87","","","","10","","64","","","","99.19","","","","","","NA"
"-124.43","49.49","SISTERS ISLAND","1027403","2021-12-13 09:00","2021","12","13","09:00","5.2","","3.4","","88","","","","9","","52","","","","99.32","","","","","","NA"
"-124.43","49.49","SISTERS ISLAND","1027403","2021-12-13 10:00","2021","12","13","10:00","5.6","","2.9","","83","","","","9","","41","","","","99.39","","","","","","NA"
"-124.43","49.49","SISTERS ISLAND","1027403","2021-12-13 11:00","2021","12","13","11:00","5.9","","2.4","","78","","","","10","","32","","","","99.39","","","","","","NA"
"-124.43","49.49","SISTERS ISLAND","1027403","2021-12-13 12:00","2021","12","13","12:00","6.2","","2.8","","79","","","","10","","40","","","","99.43","","","","","","NA"
"-124.43","49.49","SISTERS ISLAND","1027403","2021-12-13 13:00","2021","12","13","13:00","5.8","","2.7","","80","","","","14","","25","","","","99.37","","","","","","NA"
"-124.43","49.49","SISTERS ISLAND","1027403","2021-12-13 14:00","2021","12","13","14:00","5.9","","2.5","","79","","","","9","","9","","","","99.32","","","","","","NA"
"-124.43","49.49","SISTERS ISLAND","1027403","2021-12-13 15:00","2021","12","13","15:00","6.1","","1.7","","73","","","","17","","4","","","","99.27","","","","","","NA"
"-124.43","49.49","SISTERS ISLAND","1027403","2021-12-13 16:00","2021","12","13","16:00","6.0","","2.6","","78","","","","32","","17","","","","99.23","","","","","","NA"
"-124.43","49.49","SISTERS ISLAND","1027403","2021-12-13 17:00","2021","12","13","17:00","5.7","","1.8","","76","","","","36","","25","","","","99.26","","","","","","NA"
"-124.43","49.49","SISTERS ISLAND","1027403","2021-12-13 18:00","2021","12","13","18:00","5.4","","2.3","","80","","","","34","","35","","","","99.24","","","","","","NA"
"-124.43","49.49","SISTERS ISLAND","1027403","2021-12-13 19:00","2021","12","13","19:00","5.1","","1.6","","78","","","","35","","23","","","","99.27","","","","","","NA"
"-124.43","49.49","SISTERS ISLAND","1027403","2021-12-13 20:00","2021","12","13","20:00","5.1","","1.4","","77","","","","32","","15","","","","99.31","","","","","","NA"
"-124.43","49.49","SISTERS ISLAND","1027403","2021-12-13 21:00","2021","12","13","21:00","4.9","","0.8","","75","","","","32","","18","","","","99.36","","","","","","NA"
"-124.43","49.49","SISTERS ISLAND","1027403","2021-12-13 22:00","2021","12","13","22:00","4.2","","0.9","","79","","","","33","","12","","","","99.47","","","","","","NA"
"-124.43","49.49","SISTERS ISLAND","1027403","2021-12-13 23:00","2021","12","13","23:00","4.2","","1.2","","81","","","","36","","9","","","","99.56","","","","","","NA"
"-124.43","49.49","SISTERS ISLAND","1027403","2021-12-14 00:00","2021","12","14","00:00","3.6","","1.5","","86","","","","27","","15","","","","99.64","","","","","","NA"
"-124.43","49.49","SISTERS ISLAND","1027403","2021-12-14 01:00","2021","12","14","01:00","3.1","","1.6","","89","","","","30","","21","","","","99.72","","","","","","NA"
"-124.43","49.49","SISTERS ISLAND","1027403","2021-12-14 02:00","2021","12","14","02:00","3.6","","1.0","","83","","","","33","","17","","","","99.84","","","","","","NA"
"-124.43","49.49","SISTERS ISLAND","1027403","2021-12-14 03:00","2021","12","14","03:00","3.5","","2.1","","91","","","","34","","11","","","","99.94","","","","","","NA"
"-124.43","49.49","SISTERS ISLAND","1027403","2021-12-14 04:00","2021","12","14","04:00","3.1","","1.8","","91","","","","24","","9","","","","100.01","","","","","","NA"
"-124.43","49.49","SISTERS ISLAND","1027403","2021-12-14 05:00","2021","12","14","05:00","3.3","","1.7","","89","","","","25","","8","","","","100.06","","","","","","NA"
"-124.43","49.49","SISTERS ISLAND","1027403","2021-12-14 06:00","2021","12","14","06:00","3.4","","1.7","","88","","","","23","","3","","","","100.12","","","","","","NA"
"-124.43","49.49","SISTERS ISLAND","1027403","2021-12-14 07:00","2021","12","14","07:00","3.5","","1.6","","87","","","","27","","8","","","","100.18","","","","","","NA"
"-124.43","49.49","SISTERS ISLAND","1027403","2021-12-14 08:00","2021","12","14","08:00","3.7","","1.8","","88","","","","30","","9","","","","100.27","","","","","","NA"
"-124.43","49.49","SISTERS ISLAND","1027403","2021-12-14 09:00","2021","12","14","09:00","4.5","","2.0","","84","","","","0","","1","","","","100.34","","","","","","NA"
"-124.43","49.49","SISTERS ISLAND","1027403","2021-12-14 10:00","2021","12","14","10:00","4.7","","1.9","","82","","","","","","0","","","","100.41","","","","","","NA"
"-124.43","49.49","SISTERS ISLAND","1027403","2021-12-14 11:00","2021","12","14","11:00","5.4","","1.7","","77","","","","13","","9","","","","100.46","","","","","","NA"
"-124.43","49.49","SISTERS ISLAND","1027403","2021-12-14 12:00","2021","12","14","12:00","4.8","","1.7","","80","","","","13","","25","","","","100.44","","","","","","NA"
"-124.43","49.49","SISTERS ISLAND","1027403","2021-12-14 13:00","2021","12","14","13:00","4.6","","1.8","","82","","","","13","","37","","","","100.39","","","","","","NA"
"-124.43","49.49","SISTERS ISLAND","1027403","2021-12-14 14:00","2021","12","14","14:00","4.6","","1.1","","78","","","","13","","41","","","","100.38","","","","","","NA"
"-124.43","49.49","SISTERS ISLAND","1027403","2021-12-14 15:00","2021","12","14","15:00","4.6","","1.2","","79","","","","13","","35","","","","100.44","","","","","","NA"
"-124.43","49.49","SISTERS ISLAND","1027403","2021-12-14 16:00","2021","12","14","16:00","4.8","","0.9","","76","","","","13","","35","","","","100.44","","","","","","NA"
"-124.43","49.49","SISTERS ISLAND","1027403","2021-12-14 17:00","2021","12","14","17:00","4.5","","1.9","","83","","","","10","","34","","","","100.45","","","","","","NA"
"-124.43","49.49","SISTERS ISLAND","1027403","2021-12-14 18:00","2021","12","14","18:00","5.3","","1.6","","77","","","","12","","39","","","","100.42","","","","","","NA"
"-124.43","49.49","SISTERS ISLAND","1027403","2021-12-14 19:00","2021","12","14","19:00","5.3","","1.0","","74","","","","12","","47","","","","100.34","","","","","","NA"
"-124.43","49.49","SISTERS ISLAND","1027403","2021-12-14 20:00","2021","12","14","20:00","4.8","","2.4","","85","","","","10","","51","","","","100.33","","","","","","NA"
"-124.43","49.49","SISTERS ISLAND","1027403","2021-12-14 21:00","2021","12","14","21:00","5.1","","2.8","","85","","","","10","","50","","","","100.34","","","","","","NA"
"-124.43","49.49","SISTERS ISLAND","1027403","2021-12-14 22:00","2021","12","14","22:00","4.8","","2.5","","85","","","","10","","52","","","","100.33","","","","","","NA"
"-124.43","49.49","SISTERS ISLAND","1027403","2021-12-14 23:00","2021","12","14","23:00","4.8","","2.4","","84","","","","10","","59","","","","100.25","","","","","","NA"
"-124.43","49.49","SISTERS ISLAND","1027403","2021-12-15 00:00","2021","12","15","00:00","4.8","","2.6","","86","","","","11","","61","","","","100.26","","","","","","NA"
"-124.43","49.49","SISTERS ISLAND","1027403","2021-12-15 01:00","2021","12","15","01:00","4.6","","2.8","","88","","","","11","","63","","","","100.21","","","","","","NA"
"-124.43","49.49","SISTERS ISLAND","1027403","2021-12-15 02:00","2021","12","15","02:00","4.7","","2.5","","86","","","","11","","66","","","","100.20","","","","","","NA"
"-124.43","49.49","SISTERS ISLAND","1027403","2021-12-15 03:00","2021","12","15","03:00","4.8","","2.0","","82","","","","11","","66","","","","100.19","","","","","","NA"
"-124.43","49.49","SISTERS ISLAND","1027403","2021-12-15 04:00","2021","12","15","04:00","5.4","","1.9","","78","","","","11","","63","","","","100.19","","","","","","NA"
"-124.43","49.49","SISTERS ISLAND","1027403","2021-12-15 05:00","2021","12","15","05:00","5.4","","2.3","","80","","","","11","","63","","","","100.13","","","","","","NA"
"-124.43","49.49","SISTERS ISLAND","1027403","2021-12-15 06:00","2021","12","15","06:00","5.0","","2.7","","85","","","","10","","63","","","","100.16","","","","","","NA"
"-124.43","49.49","SISTERS ISLAND","1027403","2021-12-15 07:00","2021","12","15","07:00","5.0","","2.3","","83","","","","11","","64","","","","100.14","","","","","","NA"
"-124.43","49.49","SISTERS ISLAND","1027403","2021-12-15 08:00","2021","12","15","08:00","5.4","","2.2","","80","","","","11","","65","","","","100.11","","","","","","NA"
"-124.43","49.49","SISTERS ISLAND","1027403","2021-12-15 09:00","2021","12","15","09:00","5.9","","1.0","","71","","","","11","","65","","","","100.12","","","","","","NA"
"-124.43","49.49","SISTERS ISLAND","1027403","2021-12-15 10:00","2021","12","15","10:00","6.5","","0.3","","65","","","","11","","63","","","","100.15","","","","","","NA"
"-124.43","49.49","SISTERS ISLAND","1027403","2021-12-15 11:00","2021","12","15","11:00","6.9","","-0.2","","61","","","","11","","62","","","","100.15","","","","","","NA"
"-124.43","49.49","SISTERS ISLAND","1027403","2021-12-15 12:00","2021","12","15","12:00","7.2","","-0.2","","60","","","","10","","59","","","","100.15","","","","","","NA"
"-124.43","49.49","SISTERS ISLAND","1027403","2021-12-15 13:00","2021","12","15","13:00","7.1","","0.3","","62","","","","11","","52","","","","100.18","","","","","","NA"
"-124.43","49.49","SISTERS ISLAND","1027403","2021-12-15 14:00","2021","12","15","14:00","7.4","","-1.4","","54","","","","11","","41","","","","100.22","","","","","","NA"
"-124.43","49.49","SISTERS ISLAND","1027403","2021-12-15 15:00","2021","12","15","15:00","7.7","","-1.7","","51","","","","13","","33","","","","100.24","","","","","","NA"
"-124.43","49.49","SISTERS ISLAND","1027403","2021-12-15 16:00","2021","12","15","16:00","7.3","","1.2","","65","","","","14","","27","","","","100.33","","","","","","NA"
"-124.43","49.49","SISTERS ISLAND","1027403","2021-12-15 17:00","2021","12","15","17:00","6.7","","1.8","","71","","","","19","","12","","","","100.37","","","","","","NA"
"-124.43","49.49","SISTERS ISLAND","1027403","2021-12-15 18:00","2021","12","15","18:00","6.6","","1.9","","72","","","","18","","4","","","","100.42","","","","","","NA"
"-124.43","49.49","SISTERS ISLAND","1027403","2021-12-15 19:00","2021","12","15","19:00","6.4","","1.3","","70","","","","18","","14","","","","100.44","","","","","","NA"
"-124.43","49.49","SISTERS ISLAND","1027403","2021-12-15 20:00","2021","12","15","20:00","6.4","","1.4","","70","","","","24","","6","","","","100.49","","","","","","NA"
"-124.43","49.49","SISTERS ISLAND","1027403","2021-12-15 21:00","2021","12","15","21:00","6.3","","2.2","","75","","","","31","","19","","","","100.55","","","","","","NA"
"-124.43","49.49","SISTERS ISLAND","1027403","2021-12-15 22:00","2021","12","15","22:00","5.6","","3.3","","85","","","","31","","27","","","","100.62","","","","","","NA"
"-124.43","49.49","SISTERS ISLAND","1027403","2021-12-15 23:00","2021","12","15","23:00","5.1","","3.3","","88","","","","31","","23","","","","100.72","","","","","","NA"
"-124.43","49.49","SISTERS ISLAND","1027403","2021-12-16 00:00","2021","12","16","00:00","5.1","","2.2","","82","","","","34","","19","","","","100.74","","","","","","NA"
"-124.43","49.49","SISTERS ISLAND","1027403","2021-12-16 01:00","2021","12","16","01:00","5.6","","2.1","","78","","","","33","","16","","","","100.75","","","","","","NA"
"-124.43","49.49","SISTERS ISLAND","1027403","2021-12-16 02:00","2021","12","16","02:00","5.4","","2.3","","80","","","","35","","4","","","","100.75","","","","","","NA"
"-124.43","49.49","SISTERS ISLAND","1027403","2021-12-16 03:00","2021","12","16","03:00","5.5","","2.4","","81","","","","32","","3","","","","100.79","","","","","","NA"
"-124.43","49.49","SISTERS ISLAND","1027403","2021-12-16 04:00","2021","12","16","04:00","5.0","","3.2","","88","","","","29","","15","","","","100.80","","","","","","NA"
"-124.43","49.49","SISTERS ISLAND","1027403","2021-12-16 05:00","2021","12","16","05:00","5.3","","3.2","","86","","","","31","","22","","","","100.84","","","","","","NA"
"-124.43","49.49","SISTERS ISLAND","1027403","2021-12-16 06:00","2021","12","16","06:00","5.2","","2.8","","84","","","","31","","30","","","","100.89","","","","","","NA"
"-124.43","49.49","SISTERS ISLAND","1027403","2021-12-16 07:00","2021","12","16","07:00","4.8","","2.3","","84","","","","30","","23","","","","100.94","","","","","","NA"
"-124.43","49.49","SISTERS ISLAND","1027403","2021-12-16 08:00","2021","12","16","08:00","4.7","","1.4","","79","","","","29","","15","","","","100.97","","","","","","NA"
"-124.43","49.49","SISTERS ISLAND","1027403","2021-12-16 09:00","2021","12","16","09:00","5.1","","2.0","","81","","","","29","","23","","","","101.03","","","","","","NA"
"-124.43","49.49","SISTERS ISLAND","1027403","2021-12-16 10:00","2021","12","16","10:00","6.0","","2.0","","76","","","","29","","22","","","","101.11","","","","","","NA"
"-124.43","49.49","SISTERS ISLAND","1027403","2021-12-16 11:00","2021","12","16","11:00","6.1","","0.2","","66","","","","30","","35","","","","101.14","","","","","","NA"
"-124.43","49.49","SISTERS ISLAND","1027403","2021-12-16 12:00","2021","12","16","12:00","6.0","","0.2","","66","","","","30","","35","","","","101.19","","","","","","NA"
"-124.43","49.49","SISTERS ISLAND","1027403","2021-12-16 13:00","2021","12","16","13:00","5.5","","0.1","","68","","","","32","","35","","","","101.22","","","","","","NA"
"-124.43","49.49","SISTERS ISLAND","1027403","2021-12-16 14:00","2021","12","16","14:00","6.1","","0.6","","68","","","","31","","38","","","","101.25","","","","","","NA"
"-124.43","49.49","SISTERS ISLAND","1027403","2021-12-16 15:00","2021","12","16","15:00","5.8","","-0.2","","65","","","","32","","44","","","","101.31","","","","","","NA"
"-124.43","49.49","SISTERS ISLAND","1027403","2021-12-16 16:00","2021","12","16","16:00","5.7","","-0.2","","66","","","","32","","39","","","","101.40","","","","","","NA"
"-124.43","49.49","SISTERS ISLAND","1027403","2021-12-16 17:00","2021","12","16","17:00","5.4","","-0.7","","65","","","","32","","34","","","","101.50","","","","","","NA"
"-124.43","49.49","SISTERS ISLAND","1027403","2021-12-16 18:00","2021","12","16","18:00","5.4","","-0.7","","65","","","","32","","30","","","","101.61","","","","","","NA"
"-124.43","49.49","SISTERS ISLAND","1027403","2021-12-16 19:00","2021","12","16","19:00","4.5","","-0.1","","72","","","","27","","26","","","","101.68","","","","","","NA"
"-124.43","49.49","SISTERS ISLAND","1027403","2021-12-16 20:00","2021","12","16","20:00","4.5","","0.2","","74","","","","28","","27","","","","101.79","","","","","","NA"
"-124.43","49.49","SISTERS ISLAND","1027403","2021-12-16 21:00","2021","12","16","21:00","4.2","","-0.1","","73","","","","28","","25","","","","101.84","","","","","","NA"
"-124.43","49.49","SISTERS ISLAND","1027403","2021-12-16 22:00","2021","12","16","22:00","4.1","","0.0","","75","","","","29","","21","","","","101.93","","","","","","NA"
"-124.43","49.49","SISTERS ISLAND","1027403","2021-12-16 23:00","2021","12","16","23:00","4.3","","0.4","","76","","","","29","","16","","","","101.99","","","","","","NA"
"-124.43","49.49","SISTERS ISLAND","1027403","2021-12-17 00:00","2021","12","17","00:00","4.0","","0.0","","75","","","","27","","12","","","","102.04","","","","","","NA"
"-124.43","49.49","SISTERS ISLAND","1027403","2021-12-17 01:00","2021","12","17","01:00","3.9","","0.4","","78","","","","26","","15","","","","102.14","","","","","","NA"
"-124.43","49.49","SISTERS ISLAND","1027403","2021-12-17 02:00","2021","12","17","02:00","3.6","","0.6","","81","","","","27","","7","","","","102.16","","","","","","NA"
"-124.43","49.49","SISTERS ISLAND","1027403","2021-12-17 03:00","2021","12","17","03:00","3.1","","-0.3","","78","","","","21","","11","","","","102.23","","","","","","NA"
"-124.43","49.49","SISTERS ISLAND","1027403","2021-12-17 04:00","2021","12","17","04:00","3.1","","0.2","","81","","","","21","","7","","","","102.30","","","","","","NA"
"-124.43","49.49","SISTERS ISLAND","1027403","2021-12-17 05:00","2021","12","17","05:00","3.5","","-0.3","","76","","","","9","","3","","","","102.32","","","","","","NA"
"-124.43","49.49","SISTERS ISLAND","1027403","2021-12-17 06:00","2021","12","17","06:00","3.5","","0.6","","81","","","","15","","21","","","","102.29","","","","","","NA"
"-124.43","49.49","SISTERS ISLAND","1027403","2021-12-17 07:00","2021","12","17","07:00","3.8","","0.2","","77","","","","14","","28","","","","102.28","","","","","","NA"
"-124.43","49.49","SISTERS ISLAND","1027403","2021-12-17 08:00","2021","12","17","08:00","3.4","","-1.4","","71","","","","13","","40","","","","102.27","","","","","","NA"
"-124.43","49.49","SISTERS ISLAND","1027403","2021-12-17 09:00","2021","12","17","09:00","3.3","","-1.5","","71","","","","13","","44","","","","102.27","","","","","","NA"
"-124.43","49.49","SISTERS ISLAND","1027403","2021-12-17 10:00","2021","12","17","10:00","3.5","","-1.9","","68","","","","13","","44","","","","102.31","","","","","","NA"
"-124.43","49.49","SISTERS ISLAND","1027403","2021-12-17 11:00","2021","12","17","11:00","3.2","","-1.4","","72","","","","13","","47","","","","102.31","","","","","","NA"
"-124.43","49.49","SISTERS ISLAND","1027403","2021-12-17 12:00","2021","12","17","12:00","3.5","","-0.9","","73","","","","13","","46","","","","102.27","","","","","","NA"
"-124.43","49.49","SISTERS ISLAND","1027403","2021-12-17 13:00","2021","12","17","13:00","3.4","","-1.7","","69","","","","13","","46","","","","102.21","","","","","","NA"
"-124.43","49.49","SISTERS ISLAND","1027403","2021-12-17 14:00","2021","12","17","14:00","3.3","","0.6","","82","","","","12","","51","","","","102.13","","","","","","NA"
"-124.43","49.49","SISTERS ISLAND","1027403","2021-12-17 15:00","2021","12","17","15:00","3.3","","1.0","","85","","","","12","","50","","","","102.12","","","","","","NA"
"-124.43","49.49","SISTERS ISLAND","1027403","2021-12-17 16:00","2021","12","17","16:00","2.9","","-0.3","","79","","","","13","","48","","","","102.09","","","","","","NA"
"-124.43","49.49","SISTERS ISLAND","1027403","2021-12-17 17:00","2021","12","17","17:00","2.2","","0.8","","90","","","","13","","40","","","","102.08","","","","","","NA"
"-124.43","49.49","SISTERS ISLAND","1027403","2021-12-17 18:00","2021","12","17","18:00","2.3","","0.8","","90","","","","12","","49","","","","101.96","","","","","","NA"
"-124.43","49.49","SISTERS ISLAND","1027403","2021-12-17 19:00","2021","12","17","19:00","2.9","","1.6","","91","","","","12","","51","","","","101.86","","","","","","NA"
"-124.43","49.49","SISTERS ISLAND","1027403","2021-12-17 20:00","2021","12","17","20:00","2.7","","1.2","","90","","","","12","","58","","","","101.77","","","","","","NA"
"-124.43","49.49","SISTERS ISLAND","1027403","2021-12-17 21:00","2021","12","17","21:00","2.8","","1.5","","91","","","","11","","55","","","","101.65","","","","","","NA"
"-124.43","49.49","SISTERS ISLAND","1027403","2021-12-17 22:00","2021","12","17","22:00","3.0","","1.6","","90","","","","11","","61","","","","101.48","","","","","","NA"
"-124.43","49.49","SISTERS ISLAND","1027403","2021-12-17 23:00","2021","12","17","23:00","3.2","","2.1","","92","","","","11","","66","","","","101.32","","","","","","NA"
"-124.43","49.49","SISTERS ISLAND","1027403","2021-12-18 00:00","2021","12","18","00:00","3.1","","1.6","","90","","","","11","","68","","","","101.20","","","","","","NA"
"-124.43","49.49","SISTERS ISLAND","1027403","2021-12-18 01:00","2021","12","18","01:00","3.3","","2.4","","94","","","","11","","64","","","","101.05","","","","","","NA"
"-124.43","49.49","SISTERS ISLAND","1027403","2021-12-18 02:00","2021","12","18","02:00","3.2","","1.9","","91","","","","11","","69","","","","100.88","","","","","","NA"
"-124.43","49.49","SISTERS ISLAND","1027403","2021-12-18 03:00","2021","12","18","03:00","3.7","","2.4","","91","","","","11","","72","","","","100.68","","","","","","NA"
"-124.43","49.49","SISTERS ISLAND","1027403","2021-12-18 04:00","2021","12","18","04:00","4.2","","2.9","","91","","","","11","","72","","","","100.51","","","","","","NA"
"-124.43","49.49","SISTERS ISLAND","1027403","2021-12-18 05:00","2021","12","18","05:00","4.2","","2.5","","89","","","","11","","77","","","","100.37","","","","","","NA"
"-124.43","49.49","SISTERS ISLAND","1027403","2021-12-18 06:00","2021","12","18","06:00","4.9","","3.2","","89","","","","11","","77","","","","100.15","","","","","","NA"
"-124.43","49.49","SISTERS ISLAND","1027403","2021-12-18 07:00","2021","12","18","07:00","4.8","","3.4","","90","","","","10","","79","","","","99.94","","","","","","NA"
"-124.43","49.49","SISTERS ISLAND","1027403","2021-12-18 08:00","2021","12","18","08:00","5.4","","4.0","","91","","","","11","","72","","","","100.02","","","","","","NA"
"-124.43","49.49","SISTERS ISLAND","1027403","2021-12-18 09:00","2021","12","18","09:00","5.8","","4.8","","93","","","","11","","62","","","","100.03","","","","","","NA"
"-124.43","49.49","SISTERS ISLAND","1027403","2021-12-18 10:00","2021","12","18","10:00","6.3","","5.2","","93","","","","13","","51","","","","99.96","","","","","","NA"
"-124.43","49.49","SISTERS ISLAND","1027403","2021-12-18 11:00","2021","12","18","11:00","6.5","","5.4","","93","","","","12","","40","","","","99.96","","","","","","NA"
"-124.43","49.49","SISTERS ISLAND","1027403","2021-12-18 12:00","2021","12","18","12:00","6.8","","5.5","","91","","","","11","","28","","","","100.04","","","","","","NA"
"-124.43","49.49","SISTERS ISLAND","1027403","2021-12-18 13:00","2021","12","18","13:00","6.8","","3.6","","80","","","","23","","24","","","","100.12","","","","","","NA"
"-124.43","49.49","SISTERS ISLAND","1027403","2021-12-18 14:00","2021","12","18","14:00","7.0","","2.3","","72","","","","22","","43","","","","100.12","","","","","","NA"
"-124.43","49.49","SISTERS ISLAND","1027403","2021-12-18 15:00","2021","12","18","15:00","6.9","","-0.3","","60","","","","22","","36","","","","100.20","","","","","","NA"
"-124.43","49.49","SISTERS ISLAND","1027403","2021-12-18 16:00","2021","12","18","16:00","6.8","","0.4","","63","","","","24","","22","","","","100.33","","","","","","NA"
"-124.43","49.49","SISTERS ISLAND","1027403","2021-12-18 17:00","2021","12","18","17:00","6.2","","0.7","","68","","","","23","","24","","","","100.35","","","","","","NA"
"-124.43","49.49","SISTERS ISLAND","1027403","2021-12-18 18:00","2021","12","18","18:00","5.1","","1.6","","78","","","","24","","20","","","","100.45","","","","","","NA"
"-124.43","49.49","SISTERS ISLAND","1027403","2021-12-18 19:00","2021","12","18","19:00","5.4","","1.4","","76","","","","26","","28","","","","100.53","","","","","","NA"
"-124.43","49.49","SISTERS ISLAND","1027403","2021-12-18 20:00","2021","12","18","20:00","5.0","","3.3","","89","","","","29","","22","","","","100.63","","","","","","NA"
"-124.43","49.49","SISTERS ISLAND","1027403","2021-12-18 21:00","2021","12","18","21:00","4.1","","2.1","","87","","","","27","","24","","","","100.72","","","","","","NA"
"-124.43","49.49","SISTERS ISLAND","1027403","2021-12-18 22:00","2021","12","18","22:00","4.5","","2.0","","84","","","","28","","17","","","","100.81","","","","","","NA"
"-124.43","49.49","SISTERS ISLAND","1027403","2021-12-18 23:00","2021","12","18","23:00","4.2","","2.3","","88","","","","33","","11","","","","100.88","","","","","","NA"
"-124.43","49.49","SISTERS ISLAND","1027403","2021-12-19 00:00","2021","12","19","00:00","4.5","","3.0","","90","","","","34","","13","","","","100.96","","","","","","NA"
"-124.43","49.49","SISTERS ISLAND","1027403","2021-12-19 01:00","2021","12","19","01:00","4.2","","2.5","","89","","","","28","","16","","","","101.00","","","","","","NA"
"-124.43","49.49","SISTERS ISLAND","1027403","2021-12-19 02:00","2021","12","19","02:00","3.5","","2.5","","93","","","","30","","20","","","","101.07","","","","","","NA"
"-124.43","49.49","SISTERS ISLAND","1027403","2021-12-19 03:00","2021","12","19","03:00","3.7","","3.1","","96","","","","28","","17","","","","101.15","","","","","","NA"
"-124.43","49.49","SISTERS ISLAND","1027403","2021-12-19 04:00","2021","12","19","04:00","3.8","","2.9","","94","","","","30","","20","","","","101.18","","","","","","NA"
"-124.43","49.49","SISTERS ISLAND","1027403","2021-12-19 05:00","2021","12","19","05:00","3.7","","2.7","","93","","","","28","","21","","","","101.22","","","","","","NA"
"-124.43","49.49","SISTERS ISLAND","1027403","2021-12-19 06:00","2021","12","19","06:00","4.5","","3.2","","92","","","","29","","24","","","","101.24","","","","","","NA"
"-124.43","49.49","SISTERS ISLAND","1027403","2021-12-19 07:00","2021","12","19","07:00","4.0","","1.6","","85","","","","33","","23","","","","101.30","","","","","","NA"
"-124.43","49.49","SISTERS ISLAND","1027403","2021-12-19 08:00","2021","12","19","08:00","3.9","","1.3","","83","","","","29","","12","","","","101.35","","","","","","NA"
"-124.43","49.49","SISTERS ISLAND","1027403","2021-12-19 09:00","2021","12","19","09:00","3.7","","2.7","","93","","","","30","","26","","","","101.38","","","","","","NA"
"-124.43","49.49","SISTERS ISLAND","1027403","2021-12-19 10:00","2021","12","19","10:00","3.6","","2.3","","91","","","","30","","26","","","","101.42","","","","","","NA"
"-124.43","49.49","SISTERS ISLAND","1027403","2021-12-19 11:00","2021","12","19","11:00","4.1","","1.9","","86","","","","32","","25","","","","101.47","","","","","","NA"
"-124.43","49.49","SISTERS ISLAND","1027403","2021-12-19 12:00","2021","12","19","12:00","4.5","","1.3","","79","","","","33","","13","","","","101.49","","","","","","NA"
"-124.43","49.49","SISTERS ISLAND","1027403","2021-12-19 13:00","2021","12","19","13:00","3.9","","2.2","","89","","","","29","","24","","","","101.48","","","","","","NA"
"-124.43","49.49","SISTERS ISLAND","1027403","2021-12-19 14:00","2021","12","19","14:00","3.8","","1.2","","83","","","","31","","25","","","","101.47","","","","","","NA"
"-124.43","49.49","SISTERS ISLAND","1027403","2021-12-19 15:00","2021","12","19","15:00","3.7","","0.8","","81","","","","31","","27","","","","101.48","","","","","","NA"
"-124.43","49.49","SISTERS ISLAND","1027403","2021-12-19 16:00","2021","12","19","16:00","3.5","","0.4","","80","","","","31","","26","","","","101.51","","","","","","NA"
"-124.43","49.49","SISTERS ISLAND","1027403","2021-12-19 17:00","2021","12","19","17:00","3.5","","0.6","","81","","","","31","","25","","","","101.51","","","","","","NA"
"-124.43","49.49","SISTERS ISLAND","1027403","2021-12-19 18:00","2021","12","19","18:00","2.9","","0.5","","84","","","","29","","24","","","","101.52","","","","","","NA"
"-124.43","49.49","SISTERS ISLAND","1027403","2021-12-19 19:00","2021","12","19","19:00","3.0","","0.7","","85","","","","30","","22","","","","101.54","","","","","","NA"
"-124.43","49.49","SISTERS ISLAND","1027403","2021-12-19 20:00","2021","12","19","20:00","3.1","","0.6","","84","","","","29","","24","","","","101.58","","","","","","NA"
"-124.43","49.49","SISTERS ISLAND","1027403","2021-12-19 21:00","2021","12","19","21:00","3.1","","0.5","","83","","","","29","","20","","","","101.59","","","","","","NA"
"-124.43","49.49","SISTERS ISLAND","1027403","2021-12-19 22:00","2021","12","19","22:00","3.0","","-0.1","","80","","","","29","","20","","","","101.57","","","","","","NA"
"-124.43","49.49","SISTERS ISLAND","1027403","2021-12-19 23:00","2021","12","19","23:00","3.1","","0.0","","80","","","","29","","19","","","","101.58","","","","","","NA"
"-124.43","49.49","SISTERS ISLAND","1027403","2021-12-20 00:00","2021","12","20","00:00","3.1","","-0.4","","78","","","","30","","18","","","","101.59","","","","","","NA"
"-124.43","49.49","SISTERS ISLAND","1027403","2021-12-20 01:00","2021","12","20","01:00","3.1","","0.1","","80","","","","31","","20","","","","101.58","","","","","","NA"
"-124.43","49.49","SISTERS ISLAND","1027403","2021-12-20 02:00","2021","12","20","02:00","3.2","","-0.2","","79","","","","33","","22","","","","101.58","","","","","","NA"
"-124.43","49.49","SISTERS ISLAND","1027403","2021-12-20 03:00","2021","12","20","03:00","2.8","","-0.5","","79","","","","35","","25","","","","101.58","","","","","","NA"
"-124.43","49.49","SISTERS ISLAND","1027403","2021-12-20 04:00","2021","12","20","04:00","2.9","","-0.6","","78","","","","34","","21","","","","101.57","","","","","","NA"
"-124.43","49.49","SISTERS ISLAND","1027403","2021-12-20 05:00","2021","12","20","05:00","2.3","","-0.5","","82","","","","30","","29","","","","101.56","","","","","","NA"
"-124.43","49.49","SISTERS ISLAND","1027403","2021-12-20 06:00","2021","12","20","06:00","1.8","","-1.1","","81","","","","29","","26","","","","101.56","","","","","","NA"
"-124.43","49.49","SISTERS ISLAND","1027403","2021-12-20 07:00","2021","12","20","07:00","1.8","","-1.4","","79","","","","30","","25","","","","101.56","","","","","","NA"
"-124.43","49.49","SISTERS ISLAND","1027403","2021-12-20 08:00","2021","12","20","08:00","1.9","","-0.5","","84","","","","31","","26","","","","101.56","","","","","","NA"
"-124.43","49.49","SISTERS ISLAND","1027403","2021-12-20 09:00","2021","12","20","09:00","1.9","","-1.9","","76","","","","30","","20","","","","101.64","","","","","","NA"
"-124.43","49.49","SISTERS ISLAND","1027403","2021-12-20 10:00","2021","12","20","10:00","1.6","","-1.5","","80","","","","28","","20","","","","101.71","","","","","","NA"
"-124.43","49.49","SISTERS ISLAND","1027403","2021-12-20 11:00","2021","12","20","11:00","1.7","","-1.4","","80","","","","28","","19","","","","101.75","","","","","","NA"
"-124.43","49.49","SISTERS ISLAND","1027403","2021-12-20 12:00","2021","12","20","12:00","2.3","","-1.5","","76","","","","29","","20","","","","101.76","","","","","","NA"
"-124.43","49.49","SISTERS ISLAND","1027403","2021-12-20 13:00","2021","12","20","13:00","3.1","","-2.0","","69","","","","29","","17","","","","101.79","","","","","","NA"
"-124.43","49.49","SISTERS ISLAND","1027403","2021-12-20 14:00","2021","12","20","14:00","3.0","","-2.4","","68","","","","29","","15","","","","101.82","","","","","","NA"
"-124.43","49.49","SISTERS ISLAND","1027403","2021-12-20 15:00","2021","12","20","15:00","2.3","","-4.1","","63","","","","31","","14","","","","101.84","","","","","","NA"
"-124.43","49.49","SISTERS ISLAND","1027403","2021-12-20 16:00","2021","12","20","16:00","1.9","","-4.4","","63","","","","30","","11","","","","101.90","","","","","","NA"
"-124.43","49.49","SISTERS ISLAND","1027403","2021-12-20 17:00","2021","12","20","17:00","1.7","","-3.9","","66","","","","30","","10","","","","101.94","","","","","","NA"
"-124.43","49.49","SISTERS ISLAND","1027403","2021-12-20 18:00","2021","12","20","18:00","2.1","","-2.5","","72","","","","32","","10","","","","102.01","","","","","","NA"
"-124.43","49.49","SISTERS ISLAND","1027403","2021-12-20 19:00","2021","12","20","19:00","2.1","","-2.8","","70","","","","1","","5","","","","102.01","","","","","","NA"
"-124.43","49.49","SISTERS ISLAND","1027403","2021-12-20 20:00","2021","12","20","20:00","2.1","","-2.2","","73","","","","10","","9","","","","102.03","","","","","","NA"
"-124.43","49.49","SISTERS ISLAND","1027403","2021-12-20 21:00","2021","12","20","21:00","1.9","","-1.6","","78","","","","19","","2","","","","102.12","","","","","","NA"
"-124.43","49.49","SISTERS ISLAND","1027403","2021-12-20 22:00","2021","12","20","22:00","1.9","","-2.0","","75","","","","25","","10","","","","102.16","","","","","","NA"
"-124.43","49.49","SISTERS ISLAND","1027403","2021-12-20 23:00","2021","12","20","23:00","2.0","","-2.5","","73","","","","26","","8","","","","102.20","","","","","","NA"
"-124.43","49.49","SISTERS ISLAND","1027403","2021-12-21 00:00","2021","12","21","00:00","2.1","","-1.8","","75","","","","28","","13","","","","102.16","","","","","","NA"
"-124.43","49.49","SISTERS ISLAND","1027403","2021-12-21 01:00","2021","12","21","01:00","1.9","","-1.8","","76","","","","25","","13","","","","102.10","","","","","","NA"
"-124.43","49.49","SISTERS ISLAND","1027403","2021-12-21 02:00","2021","12","21","02:00","2.1","","-1.8","","75","","","","32","","18","","","","102.12","","","","","","NA"
"-124.43","49.49","SISTERS ISLAND","1027403","2021-12-21 03:00","2021","12","21","03:00","2.0","","-1.8","","76","","","","31","","9","","","","102.12","","","","","","NA"
"-124.43","49.49","SISTERS ISLAND","1027403","2021-12-21 04:00","2021","12","21","04:00","2.0","","-1.9","","75","","","","32","","12","","","","102.12","","","","","","NA"
"-124.43","49.49","SISTERS ISLAND","1027403","2021-12-21 05:00","2021","12","21","05:00","1.9","","-1.3","","79","","","","9","","8","","","","102.05","","","","","","NA"
"-124.43","49.49","SISTERS ISLAND","1027403","2021-12-21 06:00","2021","12","21","06:00","1.4","","-1.4","","82","","","","26","","13","","","","101.97","","","","","","NA"
"-124.43","49.49","SISTERS ISLAND","1027403","2021-12-21 07:00","2021","12","21","07:00","1.5","","-1.9","","78","","","","25","","12","","","","101.94","","","","","","NA"
"-124.43","49.49","SISTERS ISLAND","1027403","2021-12-21 08:00","2021","12","21","08:00","1.5","","-2.7","","74","","","","24","","7","","","","101.90","","","","","","NA"
"-124.43","49.49","SISTERS ISLAND","1027403","2021-12-21 09:00","2021","12","21","09:00","1.6","","-1.9","","78","","","","28","","9","","","","101.89","","","","","","NA"
"-124.43","49.49","SISTERS ISLAND","1027403","2021-12-21 10:00","2021","12","21","10:00","1.7","","-2.0","","77","","","","26","","11","","","","101.85","","","","","","NA"
"-124.43","49.49","SISTERS ISLAND","1027403","2021-12-21 11:00","2021","12","21","11:00","2.0","","-2.0","","75","","","","30","","8","","","","101.79","","","","","","NA"
"-124.43","49.49","SISTERS ISLAND","1027403","2021-12-21 12:00","2021","12","21","12:00","2.1","","-1.5","","77","","","","28","","10","","","","101.67","","","","","","NA"
"-124.43","49.49","SISTERS ISLAND","1027403","2021-12-21 13:00","2021","12","21","13:00","2.0","","-1.4","","78","","","","30","","8","","","","101.56","","","","","","NA"
"-124.43","49.49","SISTERS ISLAND","1027403","2021-12-21 14:00","2021","12","21","14:00","1.1","","-0.2","","91","","","","21","","4","","","","101.43","","","","","","NA"
"-124.43","49.49","SISTERS ISLAND","1027403","2021-12-21 15:00","2021","12","21","15:00","1.2","","0.1","","93","","","","","","0","","","","101.33","","","","","","NA"
"-124.43","49.49","SISTERS ISLAND","1027403","2021-12-21 16:00","2021","12","21","16:00","1.2","","0.1","","92","","","","7","","10","","","","101.21","","","","","","NA"
"-124.43","49.49","SISTERS ISLAND","1027403","2021-12-21 17:00","2021","12","21","17:00","1.3","","0.1","","92","","","","10","","15","","","","101.10","","","","","","NA"
"-124.43","49.49","SISTERS ISLAND","1027403","2021-12-21 18:00","2021","12","21","18:00","1.5","","0.4","","92","","","","9","","17","","","","100.92","","","","","","NA"
"-124.43","49.49","SISTERS ISLAND","1027403","2021-12-21 19:00","2021","12","21","19:00","2.1","","0.6","","90","","","","12","","32","","","","100.75","","","","","","NA"
"-124.43","49.49","SISTERS ISLAND","1027403","2021-12-21 20:00","2021","12","21","20:00","2.3","","0.9","","90","","","","13","","40","","","","100.56","","","","","","NA"
"-124.43","49.49","SISTERS ISLAND","1027403","2021-12-21 21:00","2021","12","21","21:00","2.9","","1.9","","93","","","","12","","44","","","","100.38","","","","","","NA"
"-124.43","49.49","SISTERS ISLAND","1027403","2021-12-21 22:00","2021","12","21","22:00","3.1","","1.5","","89","","","","12","","60","","","","100.10","","","","","","NA"
"-124.43","49.49","SISTERS ISLAND","1027403","2021-12-21 23:00","2021","12","21","23:00","3.1","","1.9","","92","","","","12","","64","","","","99.96","","","","","","NA"
"-124.43","49.49","SISTERS ISLAND","1027403","2021-12-22 00:00","2021","12","22","00:00","3.5","","2.9","","96","","","","11","","64","","","","99.80","","","","","","NA"
"-124.43","49.49","SISTERS ISLAND","1027403","2021-12-22 01:00","2021","12","22","01:00","4.2","","3.0","","92","","","","11","","65","","","","99.78","","","","","","NA"
"-124.43","49.49","SISTERS ISLAND","1027403","2021-12-22 02:00","2021","12","22","02:00","4.6","","3.4","","92","","","","11","","61","","","","99.74","","","","","","NA"
"-124.43","49.49","SISTERS ISLAND","1027403","2021-12-22 03:00","2021","12","22","03:00","5.5","","4.2","","92","","","","10","","56","","","","99.76","","","","","","NA"
"-124.43","49.49","SISTERS ISLAND","1027403","2021-12-22 04:00","2021","12","22","04:00","6.0","","4.9","","92","","","","11","","58","","","","99.69","","","","","","NA"
"-124.43","49.49","SISTERS ISLAND","1027403","2021-12-22 05:00","2021","12","22","05:00","6.0","","5.5","","96","","","","11","","57","","","","99.66","","","","","","NA"
"-124.43","49.49","SISTERS ISLAND","1027403","2021-12-22 06:00","2021","12","22","06:00","6.8","","5.6","","92","","","","11","","53","","","","99.63","","","","","","NA"
"-124.43","49.49","SISTERS ISLAND","1027403","2021-12-22 07:00","2021","12","22","07:00","6.8","","5.5","","91","","","","11","","47","","","","99.59","","","","","","NA"
"-124.43","49.49","SISTERS ISLAND","1027403","2021-12-22 08:00","2021","12","22","08:00","7.3","","6.0","","92","","","","10","","44","","","","99.55","","","","","","NA"
"-124.43","49.49","SISTERS ISLAND","1027403","2021-12-22 09:00","2021","12","22","09:00","7.1","","5.9","","92","","","","12","","35","","","","99.58","","","","","","NA"
"-124.43","49.49","SISTERS ISLAND","1027403","2021-12-22 10:00","2021","12","22","10:00","7.3","","6.1","","92","","","","11","","40","","","","99.49","","","","","","NA"
"-124.43","49.49","SISTERS ISLAND","1027403","2021-12-22 11:00","2021","12","22","11:00","7.5","","5.8","","89","","","","11","","50","","","","99.38","","","","","","NA"
"-124.43","49.49","SISTERS ISLAND","1027403","2021-12-22 12:00","2021","12","22","12:00","7.4","","6.1","","91","","","","11","","53","","","","99.29","","","","","","NA"
"-124.43","49.49","SISTERS ISLAND","1027403","2021-12-22 13:00","2021","12","22","13:00","7.8","","5.7","","87","","","","10","","58","","","","99.15","","","","","","NA"
"-124.43","49.49","SISTERS ISLAND","1027403","2021-12-22 14:00","2021","12","22","14:00","7.8","","6.3","","90","","","","11","","57","","","","99.06","","","","","","NA"
"-124.43","49.49","SISTERS ISLAND","1027403","2021-12-22 15:00","2021","12","22","15:00","7.6","","6.4","","92","","","","11","","50","","","","98.97","","","","","","NA"
"-124.43","49.49","SISTERS ISLAND","1027403","2021-12-22 16:00","2021","12","22","16:00","7.7","","6.2","","90","","","","11","","58","","","","98.96","","","","","","NA"
"-124.43","49.49","SISTERS ISLAND","1027403","2021-12-22 17:00","2021","12","22","17:00","7.5","","5.0","","84","","","","13","","49","","","","99.00","","","","","","NA"
"-124.43","49.49","SISTERS ISLAND","1027403","2021-12-22 18:00","2021","12","22","18:00","7.9","","5.4","","84","","","","14","","34","","","","99.01","","","","","","NA"
"-124.43","49.49","SISTERS ISLAND","1027403","2021-12-22 19:00","2021","12","22","19:00","6.2","","3.2","","81","","","","23","","26","","","","99.04","","","","","","NA"
"-124.43","49.49","SISTERS ISLAND","1027403","2021-12-22 20:00","2021","12","22","20:00","5.0","","3.7","","91","","","","29","","24","","","","99.10","","","","","","NA"
"-124.43","49.49","SISTERS ISLAND","1027403","2021-12-22 21:00","2021","12","22","21:00","5.1","","3.7","","90","","","","29","","15","","","","99.12","","","","","","NA"
"-124.43","49.49","SISTERS ISLAND","1027403","2021-12-22 22:00","2021","12","22","22:00","4.6","","3.0","","90","","","","30","","26","","","","99.09","","","","","","NA"
"-124.43","49.49","SISTERS ISLAND","1027403","2021-12-22 23:00","2021","12","22","23:00","4.6","","3.1","","90","","","","31","","27","","","","99.14","","","","","","NA"
"-124.43","49.49","SISTERS ISLAND","1027403","2021-12-23 00:00","2021","12","23","00:00","4.4","","3.5","","94","","","","28","","20","","","","99.18","","","","","","NA"
"-124.43","49.49","SISTERS ISLAND","1027403","2021-12-23 01:00","2021","12","23","01:00","4.5","","2.9","","89","","","","29","","17","","","","99.17","","","","","","NA"
"-124.43","49.49","SISTERS ISLAND","1027403","2021-12-23 02:00","2021","12","23","02:00","4.5","","2.2","","85","","","","29","","15","","","","99.21","","","","","","NA"
"-124.43","49.49","SISTERS ISLAND","1027403","2021-12-23 03:00","2021","12","23","03:00","4.4","","1.9","","84","","","","28","","14","","","","99.26","","","","","","NA"
"-124.43","49.49","SISTERS ISLAND","1027403","2021-12-23 04:00","2021","12","23","04:00","4.4","","2.2","","86","","","","29","","14","","","","99.20","","","","","","NA"
"-124.43","49.49","SISTERS ISLAND","1027403","2021-12-23 05:00","2021","12","23","05:00","4.2","","2.1","","86","","","","29","","11","","","","99.22","","","","","","NA"
"-124.43","49.49","SISTERS ISLAND","1027403","2021-12-23 06:00","2021","12","23","06:00","4.0","","1.5","","83","","","","30","","18","","","","99.22","","","","","","NA"
"-124.43","49.49","SISTERS ISLAND","1027403","2021-12-23 07:00","2021","12","23","07:00","3.1","","1.0","","86","","","","36","","21","","","","99.20","","","","","","NA"
"-124.43","49.49","SISTERS ISLAND","1027403","2021-12-23 08:00","2021","12","23","08:00","3.0","","0.6","","84","","","","36","","16","","","","99.26","","","","","","NA"
"-124.43","49.49","SISTERS ISLAND","1027403","2021-12-23 09:00","2021","12","23","09:00","3.1","","1.4","","89","","","","36","","8","","","","99.27","","","","","","NA"
"-124.43","49.49","SISTERS ISLAND","1027403","2021-12-23 10:00","2021","12","23","10:00","4.0","","0.7","","80","","","","27","","16","","","","99.28","","","","","","NA"
"-124.43","49.49","SISTERS ISLAND","1027403","2021-12-23 11:00","2021","12","23","11:00","4.0","","0.5","","78","","","","27","","18","","","","99.30","","","","","","NA"
"-124.43","49.49","SISTERS ISLAND","1027403","2021-12-23 12:00","2021","12","23","12:00","4.0","","-0.3","","74","","","","30","","19","","","","99.27","","","","","","NA"
"-124.43","49.49","SISTERS ISLAND","1027403","2021-12-23 13:00","2021","12","23","13:00","4.0","","-1.4","","68","","","","33","","20","","","","99.24","","","","","","NA"
"-124.43","49.49","SISTERS ISLAND","1027403","2021-12-23 14:00","2021","12","23","14:00","3.5","","-0.8","","73","","","","33","","26","","","","99.23","","","","","","NA"
"-124.43","49.49","SISTERS ISLAND","1027403","2021-12-23 15:00","2021","12","23","15:00","2.1","","0.1","","86","","","","32","","20","","","","99.29","","","","","","NA"
"-124.43","49.49","SISTERS ISLAND","1027403","2021-12-23 16:00","2021","12","23","16:00","2.6","","0.2","","84","","","","32","","17","","","","99.28","","","","","","NA"
"-124.43","49.49","SISTERS ISLAND","1027403","2021-12-23 17:00","2021","12","23","17:00","2.7","","-0.5","","79","","","","1","","4","","","","99.21","","","","","","NA"
"-124.43","49.49","SISTERS ISLAND","1027403","2021-12-23 18:00","2021","12","23","18:00","3.1","","-0.5","","77","","","","14","","4","","","","99.17","","","","","","NA"
"-124.43","49.49","SISTERS ISLAND","1027403","2021-12-23 19:00","2021","12","23","19:00","3.2","","-0.6","","76","","","","10","","13","","","","99.11","","","","","","NA"
"-124.43","49.49","SISTERS ISLAND","1027403","2021-12-23 20:00","2021","12","23","20:00","3.5","","0.8","","83","","","","12","","19","","","","99.03","","","","","","NA"
"-124.43","49.49","SISTERS ISLAND","1027403","2021-12-23 21:00","2021","12","23","21:00","3.3","","-0.1","","78","","","","9","","24","","","","98.90","","","","","","NA"
"-124.43","49.49","SISTERS ISLAND","1027403","2021-12-23 22:00","2021","12","23","22:00","3.4","","0.4","","80","","","","9","","28","","","","98.88","","","","","","NA"
"-124.43","49.49","SISTERS ISLAND","1027403","2021-12-23 23:00","2021","12","23","23:00","3.8","","-0.6","","73","","","","10","","44","","","","98.72","","","","","","NA"
"-124.43","49.49","SISTERS ISLAND","1027403","2021-12-24 00:00","2021","12","24","00:00","3.5","","0.4","","81","","","","10","","46","","","","98.62","","","","","","NA"
"-124.43","49.49","SISTERS ISLAND","1027403","2021-12-24 01:00","2021","12","24","01:00","2.8","","1.0","","88","","","","10","","60","","","","98.49","","","","","","NA"
"-124.43","49.49","SISTERS ISLAND","1027403","2021-12-24 02:00","2021","12","24","02:00","2.4","","1.2","","92","","","","9","","42","","","","98.51","","","","","","NA"
"-124.43","49.49","SISTERS ISLAND","1027403","2021-12-24 03:00","2021","12","24","03:00","2.7","","0.8","","87","","","","9","","46","","","","98.49","","","","","","NA"
"-124.43","49.49","SISTERS ISLAND","1027403","2021-12-24 04:00","2021","12","24","04:00","2.9","","0.7","","85","","","","10","","38","","","","98.45","","","","","","NA"
"-124.43","49.49","SISTERS ISLAND","1027403","2021-12-24 05:00","2021","12","24","05:00","3.4","","1.1","","85","","","","12","","54","","","","98.41","","","","","","NA"
"-124.43","49.49","SISTERS ISLAND","1027403","2021-12-24 06:00","2021","12","24","06:00","3.4","","1.6","","88","","","","12","","52","","","","98.43","","","","","","NA"
"-124.43","49.49","SISTERS ISLAND","1027403","2021-12-24 07:00","2021","12","24","07:00","3.4","","1.5","","87","","","","10","","50","","","","98.49","","","","","","NA"
"-124.43","49.49","SISTERS ISLAND","1027403","2021-12-24 08:00","2021","12","24","08:00","3.6","","1.7","","88","","","","11","","41","","","","98.58","","","","","","NA"
"-124.43","49.49","SISTERS ISLAND","1027403","2021-12-24 09:00","2021","12","24","09:00","1.7","","0.6","","92","","","","31","","14","","","","98.72","","","","","","NA"
"-124.43","49.49","SISTERS ISLAND","1027403","2021-12-24 10:00","2021","12","24","10:00","1.5","","0.9","","96","","","","31","","24","","","","98.78","","","","","","NA"
"-124.43","49.49","SISTERS ISLAND","1027403","2021-12-24 11:00","2021","12","24","11:00","1.8","","0.8","","94","","","","1","","16","","","","98.86","","","","","","NA"
"-124.43","49.49","SISTERS ISLAND","1027403","2021-12-24 12:00","2021","12","24","12:00","1.9","","1.0","","93","","","","32","","11","","","","98.87","","","","","","NA"
"-124.43","49.49","SISTERS ISLAND","1027403","2021-12-24 13:00","2021","12","24","13:00","2.2","","1.2","","93","","","","34","","18","","","","98.88","","","","","","NA"
"-124.43","49.49","SISTERS ISLAND","1027403","2021-12-24 14:00","2021","12","24","14:00","1.9","","0.7","","92","","","","32","","38","","","","98.90","","","","","","NA"
"-124.43","49.49","SISTERS ISLAND","1027403","2021-12-24 15:00","2021","12","24","15:00","2.2","","-0.8","","80","","","","32","","35","","","","98.96","","","","","","NA"
"-124.43","49.49","SISTERS ISLAND","1027403","2021-12-24 16:00","2021","12","24","16:00","2.3","","-1.7","","75","","","","32","","31","","","","99.04","","","","","","NA"
"-124.43","49.49","SISTERS ISLAND","1027403","2021-12-24 17:00","2021","12","24","17:00","2.4","","-0.9","","79","","","","32","","36","","","","99.07","","","","","","NA"
"-124.43","49.49","SISTERS ISLAND","1027403","2021-12-24 18:00","2021","12","24","18:00","2.2","","-1.8","","75","","","","31","","30","","","","99.14","","","","","","NA"
"-124.43","49.49","SISTERS ISLAND","1027403","2021-12-24 19:00","2021","12","24","19:00","2.4","","-1.6","","75","","","","32","","23","","","","99.17","","","","","","NA"
"-124.43","49.49","SISTERS ISLAND","1027403","2021-12-24 20:00","2021","12","24","20:00","2.5","","-2.3","","71","","","","30","","24","","","","99.19","","","","","","NA"
"-124.43","49.49","SISTERS ISLAND","1027403","2021-12-24 21:00","2021","12","24","21:00","2.0","","-2.7","","71","","","","32","","24","","","","99.22","","","","","","NA"
"-124.43","49.49","SISTERS ISLAND","1027403","2021-12-24 22:00","2021","12","24","22:00","2.0","","-2.2","","74","","","","30","","25","","","","99.25","","","","","","NA"
"-124.43","49.49","SISTERS ISLAND","1027403","2021-12-24 23:00","2021","12","24","23:00","1.9","","-2.5","","73","","","","29","","26","","","","99.28","","","","","","NA"
"-124.43","49.49","SISTERS ISLAND","1027403","2021-12-25 00:00","2021","12","25","00:00","1.3","","-2.3","","77","","","","27","","18","","","","99.29","","","","","","NA"
"-124.43","49.49","SISTERS ISLAND","1027403","2021-12-25 01:00","2021","12","25","01:00","1.4","","-2.5","","75","","","","29","","13","","","","99.24","","","","","","NA"
"-124.43","49.49","SISTERS ISLAND","1027403","2021-12-25 02:00","2021","12","25","02:00","1.2","","-2.7","","75","","","","28","","16","","","","99.26","","","","","","NA"
"-124.43","49.49","SISTERS ISLAND","1027403","2021-12-25 03:00","2021","12","25","03:00","0.9","","-1.9","","81","","","","30","","17","","","","99.29","","","","","","NA"
"-124.43","49.49","SISTERS ISLAND","1027403","2021-12-25 04:00","2021","12","25","04:00","0.0","","-1.0","","93","","","","30","","23","","","","99.26","","","","-6","","NA"
"-124.43","49.49","SISTERS ISLAND","1027403","2021-12-25 05:00","2021","12","25","05:00","-0.5","","-1.4","","93","","","","30","","26","","","","99.23","","","","-7","","NA"
"-124.43","49.49","SISTERS ISLAND","1027403","2021-12-25 06:00","2021","12","25","06:00","-0.7","","-1.8","","92","","","","33","","18","","","","99.25","","","","-6","","NA"
"-124.43","49.49","SISTERS ISLAND","1027403","2021-12-25 07:00","2021","12","25","07:00","-0.8","","-1.4","","95","","","","29","","21","","","","99.27","","","","-6","","NA"
"-124.43","49.49","SISTERS ISLAND","1027403","2021-12-25 08:00","2021","12","25","08:00","-1.2","","-2.0","","94","","","","33","","27","","","","99.25","","","","-8","","NA"
"-124.43","49.49","SISTERS ISLAND","1027403","2021-12-25 09:00","2021","12","25","09:00","-1.1","","-2.9","","88","","","","31","","32","","","","99.30","","","","-8","","NA"
"-124.43","49.49","SISTERS ISLAND","1027403","2021-12-25 10:00","2021","12","25","10:00","-1.4","","-3.4","","86","","","","32","","28","","","","99.36","","","","-8","","NA"
"-124.43","49.49","SISTERS ISLAND","1027403","2021-12-25 11:00","2021","12","25","11:00","-1.6","","-3.6","","86","","","","31","","30","","","","99.38","","","","-9","","NA"
"-124.43","49.49","SISTERS ISLAND","1027403","2021-12-25 12:00","2021","12","25","12:00","-1.7","","-4.1","","83","","","","30","","31","","","","99.39","","","","-9","","NA"
"-124.43","49.49","SISTERS ISLAND","1027403","2021-12-25 13:00","2021","12","25","13:00","-1.8","","-4.3","","83","","","","30","","29","","","","99.38","","","","-9","","NA"
"-124.43","49.49","SISTERS ISLAND","1027403","2021-12-25 14:00","2021","12","25","14:00","-1.7","","-3.8","","86","","","","29","","26","","","","99.38","","","","-8","","NA"
"-124.43","49.49","SISTERS ISLAND","1027403","2021-12-25 15:00","2021","12","25","15:00","-2.1","","-3.7","","89","","","","30","","36","","","","99.36","","","","-10","","NA"
"-124.43","49.49","SISTERS ISLAND","1027403","2021-12-25 16:00","2021","12","25","16:00","-2.0","","-5.4","","78","","","","31","","37","","","","99.37","","","","-10","","NA"
"-124.43","49.49","SISTERS ISLAND","1027403","2021-12-25 17:00","2021","12","25","17:00","-2.3","","-4.7","","84","","","","30","","38","","","","99.36","","","","-10","","NA"
"-124.43","49.49","SISTERS ISLAND","1027403","2021-12-25 18:00","2021","12","25","18:00","-2.4","","-4.8","","83","","","","30","","45","","","","99.33","","","","-11","","NA"
"-124.43","49.49","SISTERS ISLAND","1027403","2021-12-25 19:00","2021","12","25","19:00","-2.8","","-5.1","","84","","","","30","","42","","","","99.36","","","","-11","","NA"
"-124.43","49.49","SISTERS ISLAND","1027403","2021-12-25 20:00","2021","12","25","20:00","-3.1","","-5.5","","84","","","","30","","44","","","","99.37","","","","-12","","NA"
"-124.43","49.49","SISTERS ISLAND","1027403","2021-12-25 21:00","2021","12","25","21:00","-3.1","","-5.6","","83","","","","30","","47","","","","99.36","","","","-12","","NA"
"-124.43","49.49","SISTERS ISLAND","1027403","2021-12-25 22:00","2021","12","25","22:00","-3.3","","-5.5","","85","","","","30","","47","","","","99.37","","","","-12","","NA"
"-124.43","49.49","SISTERS ISLAND","1027403","2021-12-25 23:00","2021","12","25","23:00","-3.7","","-5.6","","87","","","","30","","46","","","","99.38","","","","-13","","NA"
"-124.43","49.49","SISTERS ISLAND","1027403","2021-12-26 00:00","2021","12","26","00:00","-3.9","","-5.9","","86","","","","30","","49","","","","99.36","","","","-13","","NA"
"-124.43","49.49","SISTERS ISLAND","1027403","2021-12-26 01:00","2021","12","26","01:00","-3.8","","-5.9","","85","","","","31","","49","","","","99.35","","","","-13","","NA"
"-124.43","49.49","SISTERS ISLAND","1027403","2021-12-26 02:00","2021","12","26","02:00","-4.0","","-6.7","","82","","","","30","","51","","","","99.40","","","","-14","","NA"
"-124.43","49.49","SISTERS ISLAND","1027403","2021-12-26 03:00","2021","12","26","03:00","-4.1","","-7.1","","80","","","","30","","49","","","","99.44","","","","-14","","NA"
"-124.43","49.49","SISTERS ISLAND","1027403","2021-12-26 04:00","2021","12","26","04:00","-4.1","","-9.3","","67","","","","30","","49","","","","99.47","","","","-14","","NA"
"-124.43","49.49","SISTERS ISLAND","1027403","2021-12-26 05:00","2021","12","26","05:00","-4.0","","-9.3","","67","","","","31","","50","","","","99.48","","","","-14","","NA"
"-124.43","49.49","SISTERS ISLAND","1027403","2021-12-26 06:00","2021","12","26","06:00","-4.7","","-10.2","","66","","","","32","","45","","","","99.53","","","","-14","","NA"
"-124.43","49.49","SISTERS ISLAND","1027403","2021-12-26 07:00","2021","12","26","07:00","-5.1","","-10.2","","67","","","","32","","46","","","","99.58","","","","-15","","NA"
"-124.43","49.49","SISTERS ISLAND","1027403","2021-12-26 08:00","2021","12","26","08:00","-5.1","","-10.4","","67","","","","32","","41","","","","99.64","","","","-14","","NA"
"-124.43","49.49","SISTERS ISLAND","1027403","2021-12-26 09:00","2021","12","26","09:00","-5.2","","-10.0","","69","","","","30","","41","","","","99.67","","","","-14","","NA"
"-124.43","49.49","SISTERS ISLAND","1027403","2021-12-26 10:00","2021","12","26","10:00","-5.7","","-10.0","","72","","","","29","","40","","","","99.74","","","","-15","","NA"
"-124.43","49.49","SISTERS ISLAND","1027403","2021-12-26 11:00","2021","12","26","11:00","-5.9","","-10.3","","71","","","","29","","40","","","","99.76","","","","-15","","NA"
"-124.43","49.49","SISTERS ISLAND","1027403","2021-12-26 12:00","2021","12","26","12:00","-5.9","","-10.6","","70","","","","30","","35","","","","99.78","","","","-15","","NA"
"-124.43","49.49","SISTERS ISLAND","1027403","2021-12-26 13:00","2021","12","26","13:00","-5.4","","-9.6","","72","","","","29","","38","","","","99.80","","","","-14","","NA"
"-124.43","49.49","SISTERS ISLAND","1027403","2021-12-26 14:00","2021","12","26","14:00","-5.2","","-9.1","","74","","","","29","","40","","","","99.83","","","","-14","","NA"
"-124.43","49.49","SISTERS ISLAND","1027403","2021-12-26 15:00","2021","12","26","15:00","-5.0","","-9.4","","71","","","","31","","39","","","","99.92","","","","-14","","NA"
"-124.43","49.49","SISTERS ISLAND","1027403","2021-12-26 16:00","2021","12","26","16:00","-4.6","","-10.4","","64","","","","32","","36","","","","100.01","","","","-13","","NA"
"-124.43","49.49","SISTERS ISLAND","1027403","2021-12-26 17:00","2021","12","26","17:00","-4.4","","-9.6","","67","","","","31","","46","","","","100.10","","","","-14","","NA"
"-124.43","49.49","SISTERS ISLAND","1027403","2021-12-26 18:00","2021","12","26","18:00","-4.3","","-8.9","","70","","","","33","","48","","","","100.20","","","","-14","","NA"
"-124.43","49.49","SISTERS ISLAND","1027403","2021-12-26 19:00","2021","12","26","19:00","-4.0","","-12.7","","51","","","","1","","20","","","","100.33","","","","-10","","NA"
"-124.43","49.49","SISTERS ISLAND","1027403","2021-12-26 20:00","2021","12","26","20:00","-4.3","","-10.0","","65","","","","35","","26","","","","100.39","","","","-12","","NA"
"-124.43","49.49","SISTERS ISLAND","1027403","2021-12-26 21:00","2021","12","26","21:00","-4.2","","-12.9","","51","","","","33","","21","","","","100.48","","","","-11","","NA"
"-124.43","49.49","SISTERS ISLAND","1027403","2021-12-26 22:00","2021","12","26","22:00","-4.7","","-10.6","","63","","","","33","","43","","","","100.58","","","","-14","","NA"
"-124.43","49.49","SISTERS ISLAND","1027403","2021-12-26 23:00","2021","12","26","23:00","-4.9","","-11.4","","60","","","","32","","37","","","","100.66","","","","-14","","NA"
"-124.43","49.49","SISTERS ISLAND","1027403","2021-12-27 00:00","2021","12","27","00:00","-5.8","","-10.5","","69","","","","30","","47","","","","100.70","","","","-16","","NA"
"-124.43","49.49","SISTERS ISLAND","1027403","2021-12-27 01:00","2021","12","27","01:00","-5.6","","-10.4","","69","","","","30","","40","","","","100.73","","","","-15","","NA"
"-124.43","49.49","SISTERS ISLAND","1027403","2021-12-27 02:00","2021","12","27","02:00","-5.9","","-10.1","","73","","","","29","","47","","","","100.77","","","","-16","","NA"
"-124.43","49.49","SISTERS ISLAND","1027403","2021-12-27 03:00","2021","12","27","03:00","-5.5","","-10.0","","71","","","","30","","40","","","","100.89","","","","-15","","NA"
"-124.43","49.49","SISTERS ISLAND","1027403","2021-12-27 04:00","2021","12","27","04:00","-5.6","","-9.9","","72","","","","30","","32","","","","100.90","","","","-14","","NA"
"-124.43","49.49","SISTERS ISLAND","1027403","2021-12-27 05:00","2021","12","27","05:00","-6.2","","-10.6","","71","","","","29","","28","","","","100.88","","","","-14","","NA"
"-124.43","49.49","SISTERS ISLAND","1027403","2021-12-27 06:00","2021","12","27","06:00","-6.3","","-10.5","","72","","","","29","","30","","","","100.89","","","","-15","","NA"
"-124.43","49.49","SISTERS ISLAND","1027403","2021-12-27 07:00","2021","12","27","07:00","-6.1","","-10.6","","70","","","","30","","26","","","","100.90","","","","-14","","NA"
"-124.43","49.49","SISTERS ISLAND","1027403","2021-12-27 08:00","2021","12","27","08:00","-5.6","","-9.8","","72","","","","31","","19","","","","100.91","","","","-12","","NA"
"-124.43","49.49","SISTERS ISLAND","1027403","2021-12-27 09:00","2021","12","27","09:00","-5.4","","-9.5","","73","","","","30","","20","","","","100.87","","","","-12","","NA"
"-124.43","49.49","SISTERS ISLAND","1027403","2021-12-27 10:00","2021","12","27","10:00","-5.5","","-9.9","","71","","","","29","","23","","","","100.89","","","","-13","","NA"
"-124.43","49.49","SISTERS ISLAND","1027403","2021-12-27 11:00","2021","12","27","11:00","-5.1","","-9.6","","71","","","","30","","16","","","","100.83","","","","-11","","NA"
"-124.43","49.49","SISTERS ISLAND","1027403","2021-12-27 12:00","2021","12","27","12:00","-5.0","","-9.0","","73","","","","29","","20","","","","100.74","","","","-12","","NA"
"-124.43","49.49","SISTERS ISLAND","1027403","2021-12-27 13:00","2021","12","27","13:00","-4.7","","-8.3","","76","","","","30","","14","","","","100.70","","","","-10","","NA"
"-124.43","49.49","SISTERS ISLAND","1027403","2021-12-27 14:00","2021","12","27","14:00","-4.7","","-8.7","","73","","","","28","","13","","","","100.64","","","","-10","","NA"
"-124.43","49.49","SISTERS ISLAND","1027403","2021-12-27 15:00","2021","12","27","15:00","-5.4","","-6.8","","90","","","","7","","1","","","","100.64","","","","-6","","NA"
"-124.43","49.49","SISTERS ISLAND","1027403","2021-12-27 16:00","2021","12","27","16:00","-5.0","","-7.0","","86","","","","14","","18","","","","100.61","","","","-11","","NA"
"-124.43","49.49","SISTERS ISLAND","1027403","2021-12-27 17:00","2021","12","27","17:00","-5.6","","-7.6","","85","","","","15","","24","","","","100.66","","","","-13","","NA"
"-124.43","49.49","SISTERS ISLAND","1027403","2021-12-27 18:00","2021","12","27","18:00","-5.3","","-7.3","","86","","","","15","","29","","","","100.65","","","","-13","","NA"
"-124.43","49.49","SISTERS ISLAND","1027403","2021-12-27 19:00","2021","12","27","19:00","-4.9","","-8.0","","79","","","","16","","28","","","","100.69","","","","-13","","NA"
"-124.43","49.49","SISTERS ISLAND","1027403","2021-12-27 20:00","2021","12","27","20:00","-4.3","","-6.5","","84","","","","13","","29","","","","100.77","","","","-12","","NA"
"-124.43","49.49","SISTERS ISLAND","1027403","2021-12-27 21:00","2021","12","27","21:00","-4.5","","-7.2","","81","","","","15","","25","","","","100.84","","","","-12","","NA"
"-124.43","49.49","SISTERS ISLAND","1027403","2021-12-27 22:00","2021","12","27","22:00","-4.4","","-6.8","","83","","","","15","","20","","","","100.87","","","","-11","","NA"
"-124.43","49.49","SISTERS ISLAND","1027403","2021-12-27 23:00","2021","12","27","23:00","-4.4","","-7.4","","79","","","","16","","12","","","","100.97","","","","-9","","NA"
"-124.43","49.49","SISTERS ISLAND","1027403","2021-12-28 00:00","2021","12","28","00:00","-4.3","","-6.8","","82","","","","13","","10","","","","100.96","","","","-8","","NA"
"-124.43","49.49","SISTERS ISLAND","1027403","2021-12-28 01:00","2021","12","28","01:00","-4.3","","-7.7","","77","","","","16","","14","","","","100.92","","","","-9","","NA"
"-124.43","49.49","SISTERS ISLAND","1027403","2021-12-28 02:00","2021","12","28","02:00","-4.0","","-7.3","","78","","","","15","","10","","","","100.95","","","","-8","","NA"
"-124.43","49.49","SISTERS ISLAND","1027403","2021-12-28 03:00","2021","12","28","03:00","-4.0","","-7.5","","77","","","","20","","11","","","","100.96","","","","-8","","NA"
"-124.43","49.49","SISTERS ISLAND","1027403","2021-12-28 04:00","2021","12","28","04:00","-3.8","","-8.1","","72","","","","22","","10","","","","100.95","","","","-8","","NA"
"-124.43","49.49","SISTERS ISLAND","1027403","2021-12-28 05:00","2021","12","28","05:00","-3.3","","-7.6","","72","","","","20","","7","","","","100.90","","","","-6","","NA"
"-124.43","49.49","SISTERS ISLAND","1027403","2021-12-28 06:00","2021","12","28","06:00","-3.0","","-7.8","","69","","","","11","","3","","","","100.93","","","","-4","","NA"
"-124.43","49.49","SISTERS ISLAND","1027403","2021-12-28 07:00","2021","12","28","07:00","-2.9","","-7.8","","69","","","","21","","6","","","","100.89","","","","-5","","NA"
"-124.43","49.49","SISTERS ISLAND","1027403","2021-12-28 08:00","2021","12","28","08:00","-2.8","","-6.2","","78","","","","20","","10","","","","100.86","","","","-7","","NA"
"-124.43","49.49","SISTERS ISLAND","1027403","2021-12-28 09:00","2021","12","28","09:00","-2.8","","-7.3","","71","","","","16","","10","","","","100.88","","","","-7","","NA"
"-124.43","49.49","SISTERS ISLAND","1027403","2021-12-28 10:00","2021","12","28","10:00","-2.7","","-7.2","","71","","","","12","","9","","","","100.94","","","","-6","","NA"
"-124.43","49.49","SISTERS ISLAND","1027403","2021-12-28 11:00","2021","12","28","11:00","-2.6","","-7.0","","72","","","","12","","12","","","","100.95","","","","-7","","NA"
"-124.43","49.49","SISTERS ISLAND","1027403","2021-12-28 12:00","2021","12","28","12:00","-2.8","","-6.7","","74","","","","14","","16","","","","100.84","","","","-8","","NA"
"-124.43","49.49","SISTERS ISLAND","1027403","2021-12-28 13:00","2021","12","28","13:00","-2.6","","-7.4","","69","","","","11","","14","","","","100.78","","","","-7","","NA"
"-124.43","49.49","SISTERS ISLAND","1027403","2021-12-28 14:00","2021","12","28","14:00","-2.6","","-7.8","","67","","","","12","","3","","","","100.77","","","","-4","","NA"
"-124.43","49.49","SISTERS ISLAND","1027403","2021-12-28 15:00","2021","12","28","15:00","-2.4","","-6.9","","71","","","","6","","12","","","","100.70","","","","-7","","NA"
"-124.43","49.49","SISTERS ISLAND","1027403","2021-12-28 16:00","2021","12","28","16:00","-2.4","","-6.9","","71","","","","7","","9","","","","100.72","","","","-6","","NA"
"-124.43","49.49","SISTERS ISLAND","1027403","2021-12-28 17:00","2021","12","28","17:00","-2.1","","-7.2","","68","","","","14","","3","","","","100.70","","","","-3","","NA"
"-124.43","49.49","SISTERS ISLAND","1027403","2021-12-28 18:00","2021","12","28","18:00","-2.1","","-7.0","","69","","","","22","","4","","","","100.67","","","","-4","","NA"
"-124.43","49.49","SISTERS ISLAND","1027403","2021-12-28 19:00","2021","12","28","19:00","-1.9","","-6.6","","70","","","","28","","8","","","","100.71","","","","-5","","NA"
"-124.43","49.49","SISTERS ISLAND","1027403","2021-12-28 20:00","2021","12","28","20:00","-1.6","","-5.2","","76","","","","28","","14","","","","100.74","","","","-6","","NA"
"-124.43","49.49","SISTERS ISLAND","1027403","2021-12-28 21:00","2021","12","28","21:00","-1.5","","-5.1","","77","","","","29","","24","","","","100.80","","","","-8","","NA"
"-124.43","49.49","SISTERS ISLAND","1027403","2021-12-28 22:00","2021","12","28","22:00","-1.1","","-4.0","","81","","","","29","","30","","","","100.78","","","","-8","","NA"
"-124.43","49.49","SISTERS ISLAND","1027403","2021-12-28 23:00","2021","12","28","23:00","-1.1","","-5.0","","75","","","","32","","31","","","","100.78","","","","-8","","NA"
"-124.43","49.49","SISTERS ISLAND","1027403","2021-12-29 00:00","2021","12","29","00:00","-1.4","","-4.9","","77","","","","31","","32","","","","100.87","","","","-9","","NA"
"-124.43","49.49","SISTERS ISLAND","1027403","2021-12-29 01:00","2021","12","29","01:00","-1.7","","-6.3","","71","","","","31","","30","","","","100.96","","","","-9","","NA"
"-124.43","49.49","SISTERS ISLAND","1027403","2021-12-29 02:00","2021","12","29","02:00","-2.0","","-5.8","","75","","","","28","","27","","","","100.97","","","","-9","","NA"
"-124.43","49.49","SISTERS ISLAND","1027403","2021-12-29 03:00","2021","12","29","03:00","-1.1","","-5.0","","75","","","","31","","26","","","","101.06","","","","-7","","NA"
"-124.43","49.49","SISTERS ISLAND","1027403","2021-12-29 04:00","2021","12","29","04:00","-1.2","","-5.7","","72","","","","32","","20","","","","101.05","","","","-7","","NA"
"-124.43","49.49","SISTERS ISLAND","1027403","2021-12-29 05:00","2021","12","29","05:00","-1.5","","-4.7","","79","","","","35","","14","","","","101.10","","","","-6","","NA"
"-124.43","49.49","SISTERS ISLAND","1027403","2021-12-29 06:00","2021","12","29","06:00","-1.5","","-4.5","","80","","","","34","","12","","","","101.13","","","","-6","","NA"
"-124.43","49.49","SISTERS ISLAND","1027403","2021-12-29 07:00","2021","12","29","07:00","-1.4","","-5.2","","76","","","","36","","11","","","","101.23","","","","-5","","NA"
"-124.43","49.49","SISTERS ISLAND","1027403","2021-12-29 08:00","2021","12","29","08:00","-1.4","","-5.2","","75","","","","36","","8","","","","101.27","","","","-4","","NA"
"-124.43","49.49","SISTERS ISLAND","1027403","2021-12-29 09:00","2021","12","29","09:00","-1.1","","-5.3","","73","","","","2","","5","","","","101.31","","","","-3","","NA"
"-124.43","49.49","SISTERS ISLAND","1027403","2021-12-29 10:00","2021","12","29","10:00","-1.3","","-5.6","","72","","","","11","","8","","","","101.33","","","","-4","","NA"
"-124.43","49.49","SISTERS ISLAND","1027403","2021-12-29 11:00","2021","12","29","11:00","-1.1","","-5.4","","73","","","","8","","9","","","","101.30","","","","-4","","NA"
"-124.43","49.49","SISTERS ISLAND","1027403","2021-12-29 12:00","2021","12","29","12:00","-0.9","","-5.4","","72","","","","7","","10","","","","101.31","","","","-4","","NA"
"-124.43","49.49","SISTERS ISLAND","1027403","2021-12-29 13:00","2021","12","29","13:00","-0.7","","-5.6","","69","","","","11","","5","","","","101.14","","","","-2","","NA"
"-124.43","49.49","SISTERS ISLAND","1027403","2021-12-29 14:00","2021","12","29","14:00","-0.7","","-6.1","","67","","","","26","","8","","","","101.13","","","","-4","","NA"
"-124.43","49.49","SISTERS ISLAND","1027403","2021-12-29 15:00","2021","12","29","15:00","-0.8","","-6.7","","64","","","","19","","4","","","","101.13","","","","-2","","NA"
"-124.43","49.49","SISTERS ISLAND","1027403","2021-12-29 16:00","2021","12","29","16:00","-0.7","","-6.0","","67","","","","11","","16","","","","101.06","","","","-5","","NA"
"-124.43","49.49","SISTERS ISLAND","1027403","2021-12-29 17:00","2021","12","29","17:00","-0.9","","-6.7","","65","","","","13","","19","","","","100.95","","","","-6","","NA"
"-124.43","49.49","SISTERS ISLAND","1027403","2021-12-29 18:00","2021","12","29","18:00","-1.1","","-6.5","","66","","","","13","","23","","","","100.85","","","","-7","","NA"
"-124.43","49.49","SISTERS ISLAND","1027403","2021-12-29 19:00","2021","12","29","19:00","-1.0","","-6.5","","66","","","","10","","25","","","","100.76","","","","-7","","NA"
"-124.43","49.49","SISTERS ISLAND","1027403","2021-12-29 20:00","2021","12","29","20:00","-0.9","","-5.8","","69","","","","13","","33","","","","100.66","","","","-8","","NA"
"-124.43","49.49","SISTERS ISLAND","1027403","2021-12-29 21:00","2021","12","29","21:00","-1.1","","-5.3","","73","","","","11","","48","","","","100.45","","","","-9","","NA"
"-124.43","49.49","SISTERS ISLAND","1027403","2021-12-29 22:00","2021","12","29","22:00","-2.0","","-5.8","","75","","","","10","","57","","","","100.38","","","","-11","","NA"
"-124.43","49.49","SISTERS ISLAND","1027403","2021-12-29 23:00","2021","12","29","23:00","-2.2","","-4.0","","87","","","","10","","56","","","","100.25","","","","-12","","NA"
"-124.43","49.49","SISTERS ISLAND","1027403","2021-12-30 00:00","2021","12","30","00:00","-2.2","","-4.1","","87","","","","10","","56","","","","100.08","","","","-12","","NA"
"-124.43","49.49","SISTERS ISLAND","1027403","2021-12-30 01:00","2021","12","30","01:00","-1.7","","-3.3","","89","","","","11","","65","","","","99.93","","","","-11","","NA"
"-124.43","49.49","SISTERS ISLAND","1027403","2021-12-30 02:00","2021","12","30","02:00","-1.3","","-2.8","","89","","","","10","","57","","","","99.91","","","","-10","","NA"
"-124.43","49.49","SISTERS ISLAND","1027403","2021-12-30 03:00","2021","12","30","03:00","-1.4","","-2.3","","94","","","","10","","48","","","","99.92","","","","-10","","NA"
"-124.43","49.49","SISTERS ISLAND","1027403","2021-12-30 04:00","2021","12","30","04:00","-1.8","","-3.3","","90","","","","7","","20","","","","100.07","","","","-8","","NA"
"-124.43","49.49","SISTERS ISLAND","1027403","2021-12-30 05:00","2021","12","30","05:00","-1.4","","-3.8","","84","","","","7","","13","","","","100.10","","","","-6","","NA"
"-124.43","49.49","SISTERS ISLAND","1027403","2021-12-30 06:00","2021","12","30","06:00","-0.6","","-3.7","","79","","","","36","","18","","","","100.09","","","","-6","","NA"
"-124.43","49.49","SISTERS ISLAND","1027403","2021-12-30 07:00","2021","12","30","07:00","-0.2","","-3.4","","79","","","","36","","15","","","","100.13","","","","-5","","NA"
"-124.43","49.49","SISTERS ISLAND","1027403","2021-12-30 08:00","2021","12","30","08:00","-0.8","","-2.6","","87","","","","35","","17","","","","100.17","","","","-6","","NA"
"-124.43","49.49","SISTERS ISLAND","1027403","2021-12-30 09:00","2021","12","30","09:00","0.1","","-3.3","","78","","","","33","","19","","","","100.22","","","","","","NA"
"-124.43","49.49","SISTERS ISLAND","1027403","2021-12-30 10:00","2021","12","30","10:00","-0.2","","-2.4","","84","","","","28","","31","","","","100.23","","","","-7","","NA"
"-124.43","49.49","SISTERS ISLAND","1027403","2021-12-30 11:00","2021","12","30","11:00","0.3","","-3.2","","77","","","","30","","29","","","","100.25","","","","","","NA"
"-124.43","49.49","SISTERS ISLAND","1027403","2021-12-30 12:00","2021","12","30","12:00","0.5","","-3.8","","73","","","","32","","29","","","","100.28","","","","","","NA"
"-124.43","49.49","SISTERS ISLAND","1027403","2021-12-30 13:00","2021","12","30","13:00","0.3","","-3.6","","75","","","","30","","32","","","","100.29","","","","","","NA"
"-124.43","49.49","SISTERS ISLAND","1027403","2021-12-30 14:00","2021","12","30","14:00","0.6","","-3.3","","75","","","","31","","28","","","","100.33","","","","","","NA"
"-124.43","49.49","SISTERS ISLAND","1027403","2021-12-30 15:00","2021","12","30","15:00","0.7","","-3.6","","73","","","","30","","29","","","","100.35","","","","","","NA"
"-124.43","49.49","SISTERS ISLAND","1027403","2021-12-30 16:00","2021","12","30","16:00","0.8","","-3.7","","71","","","","29","","22","","","","100.38","","","","","","NA"
"-124.43","49.49","SISTERS ISLAND","1027403","2021-12-30 17:00","2021","12","30","17:00","1.2","","-3.3","","72","","","","31","","32","","","","100.42","","","","","","NA"
"-124.43","49.49","SISTERS ISLAND","1027403","2021-12-30 18:00","2021","12","30","18:00","1.4","","-3.1","","72","","","","32","","31","","","","100.46","","","","","","NA"
"-124.43","49.49","SISTERS ISLAND","1027403","2021-12-30 19:00","2021","12","30","19:00","0.9","","-2.9","","75","","","","30","","17","","","","100.50","","","","","","NA"
"-124.43","49.49","SISTERS ISLAND","1027403","2021-12-30 20:00","2021","12","30","20:00","0.9","","-3.3","","73","","","","34","","16","","","","100.56","","","","","","NA"
"-124.43","49.49","SISTERS ISLAND","1027403","2021-12-30 21:00","2021","12","30","21:00","1.3","","-3.1","","73","","","","32","","25","","","","100.59","","","","","","NA"
"-124.43","49.49","SISTERS ISLAND","1027403","2021-12-30 22:00","2021","12","30","22:00","0.9","","-2.3","","79","","","","27","","23","","","","100.63","","","","","","NA"
"-124.43","49.49","SISTERS ISLAND","1027403","2021-12-30 23:00","2021","12","30","23:00","0.7","","-2.8","","77","","","","31","","21","","","","100.68","","","","","","NA"
"-124.43","49.49","SISTERS ISLAND","1027403","2021-12-31 00:00","2021","12","31","00:00","0.6","","-4.3","","70","","","","35","","17","","","","100.75","","","","","","NA"
"-124.43","49.49","SISTERS ISLAND","1027403","2021-12-31 01:00","2021","12","31","01:00","0.3","","-4.2","","72","","","","33","","20","","","","100.79","","","","","","NA"
"-124.43","49.49","SISTERS ISLAND","1027403","2021-12-31 02:00","2021","12","31","02:00","0.1","","-4.2","","72","","","","34","","23","","","","100.87","","","","","","NA"
"-124.43","49.49","SISTERS ISLAND","1027403","2021-12-31 03:00","2021","12","31","03:00","0.1","","-5.5","","66","","","","36","","16","","","","100.98","","","","","","NA"
"-124.43","49.49","SISTERS ISLAND","1027403","2021-12-31 04:00","2021","12","31","04:00","-0.2","","-4.1","","75","","","","1","","15","","","","101.04","","","","-5","","NA"
"-124.43","49.49","SISTERS ISLAND","1027403","2021-12-31 05:00","2021","12","31","05:00","-0.4","","-4.2","","75","","","","35","","17","","","","101.12","","","","-5","","NA"
"-124.43","49.49","SISTERS ISLAND","1027403","2021-12-31 06:00","2021","12","31","06:00","0.0","","-4.3","","73","","","","34","","17","","","","101.23","","","","-5","","NA"
"-124.43","49.49","SISTERS ISLAND","1027403","2021-12-31 07:00","2021","12","31","07:00","-0.2","","-4.4","","73","","","","32","","16","","","","101.28","","","","-5","","NA"
"-124.43","49.49","SISTERS ISLAND","1027403","2021-12-31 08:00","2021","12","31","08:00","0.0","","-5.7","","65","","","","33","","12","","","","101.39","","","","-4","","NA"
"-124.43","49.49","SISTERS ISLAND","1027403","2021-12-31 09:00","2021","12","31","09:00","0.0","","-4.7","","70","","","","31","","19","","","","101.51","","","","-5","","NA"
"-124.43","49.49","SISTERS ISLAND","1027403","2021-12-31 10:00","2021","12","31","10:00","1.4","","-4.1","","67","","","","33","","19","","","","101.61","","","","","","NA"
"-124.43","49.49","SISTERS ISLAND","1027403","2021-12-31 11:00","2021","12","31","11:00","0.2","","-4.2","","72","","","","35","","12","","","","101.67","","","","","","NA"
"-124.43","49.49","SISTERS ISLAND","1027403","2021-12-31 12:00","2021","12","31","12:00","0.9","","-4.2","","69","","","","35","","8","","","","101.67","","","","","","NA"
"-124.43","49.49","SISTERS ISLAND","1027403","2021-12-31 13:00","2021","12","31","13:00","1.0","","-4.5","","67","","","","33","","12","","","","101.68","","","","","","NA"
"-124.43","49.49","SISTERS ISLAND","1027403","2021-12-31 14:00","2021","12","31","14:00","1.7","","-4.8","","62","","","","30","","13","","","","101.70","","","","","","NA"
"-124.43","49.49","SISTERS ISLAND","1027403","2021-12-31 15:00","2021","12","31","15:00","1.1","","-6.3","","58","","","","30","","7","","","","101.71","","","","","","NA"
"-124.43","49.49","SISTERS ISLAND","1027403","2021-12-31 16:00","2021","12","31","16:00","0.8","","-6.7","","57","","","","30","","3","","","","101.76","","","","","","NA"
"-124.43","49.49","SISTERS ISLAND","1027403","2021-12-31 17:00","2021","12","31","17:00","0.2","","-5.5","","66","","","","","","0","","","","101.80","","","","","","NA"
"-124.43","49.49","SISTERS ISLAND","1027403","2021-12-31 18:00","2021","12","31","18:00","0.3","","-5.5","","65","","","","9","","14","","","","101.84","","","","","","NA"
"-124.43","49.49","SISTERS ISLAND","1027403","2021-12-31 19:00","2021","12","31","19:00","0.3","","-5.1","","67","","","","9","","16","","","","101.87","","","","","","NA"
"-124.43","49.49","SISTERS ISLAND","1027403","2021-12-31 20:00","2021","12","31","20:00","0.2","","-4.6","","70","","","","17","","13","","","","101.87","","","","","","NA"
"-124.43","49.49","SISTERS ISLAND","1027403","2021-12-31 21:00","2021","12","31","21:00","-0.2","","-5.3","","68","","","","14","","18","","","","101.87","","","","-5","","NA"
"-124.43","49.49","SISTERS ISLAND","1027403","2021-12-31 22:00","2021","12","31","22:00","-0.4","","-5.7","","68","","","","15","","20","","","","101.90","","","","-6","","NA"
"-124.43","49.49","SISTERS ISLAND","1027403","2021-12-31 23:00","2021","12","31","23:00","-0.3","","-5.0","","70","","","","14","","24","","","","101.91","","","","-6","","NA"
