"Longitude (x)","Latitude (y)","Station Name","Climate ID","Date/Time (LST)","Year","Month","Day","Time (LST)","Temp (°C)","Temp Flag","Dew Point Temp (°C)","Dew Point Temp Flag","Rel Hum (%)","Rel Hum Flag","Precip. Amount (mm)","Precip. Amount Flag","Wind Dir (10s deg)","Wind Dir Flag","Wind Spd (km/h)","Wind Spd Flag","Visibility (km)","Visibility Flag","Stn Press (kPa)","Stn Press Flag","Hmdx","Hmdx Flag","Wind Chill","Wind Chill Flag","Weather"
"-124.43","49.49","SISTERS ISLAND","1027403","2021-02-01 00:00","2021","02","01","00:00","6.5","","5.5","","94","","","","11","","32","","","","100.88","","","","","","NA"
"-124.43","49.49","SISTERS ISLAND","1027403","2021-02-01 01:00","2021","02","01","01:00","6.5","","5.3","","92","","","","12","","36","","","","100.86","","","","","","NA"
"-124.43","49.49","SISTERS ISLAND","1027403","2021-02-01 02:00","2021","02","01","02:00","6.4","","5.5","","94","","","","11","","29","","","","100.78","","","","","","NA"
"-124.43","49.49","SISTERS ISLAND","1027403","2021-02-01 03:00","2021","02","01","03:00","6.2","","5.6","","96","","","","13","","33","","","","100.77","","","","","","NA"
"-124.43","49.49","SISTERS ISLAND","1027403","2021-02-01 04:00","2021","02","01","04:00","6.4","","5.4","","94","","","","13","","28","","","","100.71","","","","","","NA"
"-124.43","49.49","SISTERS ISLAND","1027403","2021-02-01 05:00","2021","02","01","05:00","6.3","","5.0","","91","","","","14","","28","","","","100.61","","","","","","NA"
"-124.43","49.49","SISTERS ISLAND","1027403","2021-02-01 06:00","2021","02","01","06:00","6.2","","5.3","","94","","","","13","","29","","","","100.56","","","","","","NA"
"-124.43","49.49","SISTERS ISLAND","1027403","2021-02-01 07:00","2021","02","01","07:00","6.1","","4.8","","91","","","","13","","25","","","","100.51","","","","","","NA"
"-124.43","49.49","SISTERS ISLAND","1027403","2021-02-01 08:00","2021","02","01","08:00","6.1","","4.9","","92","","","","12","","27","","","","100.41","","","","","","NA"
"-124.43","49.49","SISTERS ISLAND","1027403","2021-02-01 09:00","2021","02","01","09:00","6.1","","5.0","","93","","","","13","","23","","","","100.39","","","","","","NA"
"-124.43","49.49","SISTERS ISLAND","1027403","2021-02-01 10:00","2021","02","01","10:00","6.2","","5.2","","93","","","","14","","20","","","","100.35","","","","","","NA"
"-124.43","49.49","SISTERS ISLAND","1027403","2021-02-01 11:00","2021","02","01","11:00","6.0","","5.4","","96","","","","12","","20","","","","100.34","","","","","","NA"
"-124.43","49.49","SISTERS ISLAND","1027403","2021-02-01 12:00","2021","02","01","12:00","6.0","","5.6","","97","","","","12","","27","","","","100.26","","","","","","NA"
"-124.43","49.49","SISTERS ISLAND","1027403","2021-02-01 13:00","2021","02","01","13:00","6.2","","5.7","","97","","","","11","","32","","","","100.11","","","","","","NA"
"-124.43","49.49","SISTERS ISLAND","1027403","2021-02-01 14:00","2021","02","01","14:00","6.5","","5.9","","96","","","","11","","32","","","","100.11","","","","","","NA"
"-124.43","49.49","SISTERS ISLAND","1027403","2021-02-01 15:00","2021","02","01","15:00","6.9","","6.1","","94","","","","14","","30","","","","100.09","","","","","","NA"
"-124.43","49.49","SISTERS ISLAND","1027403","2021-02-01 16:00","2021","02","01","16:00","7.0","","6.3","","95","","","","13","","32","","","","100.06","","","","","","NA"
"-124.43","49.49","SISTERS ISLAND","1027403","2021-02-01 17:00","2021","02","01","17:00","7.3","","6.5","","94","","","","13","","36","","","","100.05","","","","","","NA"
"-124.43","49.49","SISTERS ISLAND","1027403","2021-02-01 18:00","2021","02","01","18:00","7.3","","6.4","","94","","","","11","","35","","","","100.01","","","","","","NA"
"-124.43","49.49","SISTERS ISLAND","1027403","2021-02-01 19:00","2021","02","01","19:00","7.3","","6.6","","95","","","","12","","26","","","","100.03","","","","","","NA"
"-124.43","49.49","SISTERS ISLAND","1027403","2021-02-01 20:00","2021","02","01","20:00","7.3","","6.6","","95","","","","12","","19","","","","100.04","","","","","","NA"
"-124.43","49.49","SISTERS ISLAND","1027403","2021-02-01 21:00","2021","02","01","21:00","7.0","","6.2","","95","","","","16","","13","","","","100.06","","","","","","NA"
"-124.43","49.49","SISTERS ISLAND","1027403","2021-02-01 22:00","2021","02","01","22:00","6.9","","6.1","","94","","","","15","","9","","","","100.00","","","","","","NA"
"-124.43","49.49","SISTERS ISLAND","1027403","2021-02-01 23:00","2021","02","01","23:00","6.6","","5.2","","91","","","","23","","16","","","","100.07","","","","","","NA"
"-124.43","49.49","SISTERS ISLAND","1027403","2021-02-02 00:00","2021","02","02","00:00","6.4","","5.2","","91","","","","29","","6","","","","100.14","","","","","","NA"
"-124.43","49.49","SISTERS ISLAND","1027403","2021-02-02 01:00","2021","02","02","01:00","6.7","","3.8","","82","","","","24","","29","","","","100.16","","","","","","NA"
"-124.43","49.49","SISTERS ISLAND","1027403","2021-02-02 02:00","2021","02","02","02:00","6.8","","4.2","","84","","","","18","","16","","","","100.30","","","","","","NA"
"-124.43","49.49","SISTERS ISLAND","1027403","2021-02-02 03:00","2021","02","02","03:00","6.9","","4.9","","87","","","","16","","13","","","","100.38","","","","","","NA"
"-124.43","49.49","SISTERS ISLAND","1027403","2021-02-02 04:00","2021","02","02","04:00","7.8","","3.3","","74","","","","16","","19","","","","100.44","","","","","","NA"
"-124.43","49.49","SISTERS ISLAND","1027403","2021-02-02 05:00","2021","02","02","05:00","6.8","","5.7","","93","","","","13","","17","","","","100.46","","","","","","NA"
"-124.43","49.49","SISTERS ISLAND","1027403","2021-02-02 06:00","2021","02","02","06:00","6.6","","5.2","","91","","","","13","","19","","","","100.47","","","","","","NA"
"-124.43","49.49","SISTERS ISLAND","1027403","2021-02-02 07:00","2021","02","02","07:00","6.6","","5.2","","90","","","","12","","22","","","","100.48","","","","","","NA"
"-124.43","49.49","SISTERS ISLAND","1027403","2021-02-02 08:00","2021","02","02","08:00","6.4","","4.3","","86","","","","13","","16","","","","100.51","","","","","","NA"
"-124.43","49.49","SISTERS ISLAND","1027403","2021-02-02 09:00","2021","02","02","09:00","6.6","","2.2","","74","","","","14","","17","","","","100.53","","","","","","NA"
"-124.43","49.49","SISTERS ISLAND","1027403","2021-02-02 10:00","2021","02","02","10:00","6.7","","4.3","","85","","","","12","","18","","","","100.50","","","","","","NA"
"-124.43","49.49","SISTERS ISLAND","1027403","2021-02-02 11:00","2021","02","02","11:00","6.7","","3.8","","82","","","","10","","16","","","","100.51","","","","","","NA"
"-124.43","49.49","SISTERS ISLAND","1027403","2021-02-02 12:00","2021","02","02","12:00","7.0","","3.2","","77","","","","11","","20","","","","100.47","","","","","","NA"
"-124.43","49.49","SISTERS ISLAND","1027403","2021-02-02 13:00","2021","02","02","13:00","7.0","","3.8","","80","","","","12","","22","","","","100.43","","","","","","NA"
"-124.43","49.49","SISTERS ISLAND","1027403","2021-02-02 14:00","2021","02","02","14:00","6.9","","3.3","","78","","","","12","","31","","","","100.37","","","","","","NA"
"-124.43","49.49","SISTERS ISLAND","1027403","2021-02-02 15:00","2021","02","02","15:00","6.8","","4.0","","83","","","","11","","33","","","","100.34","","","","","","NA"
"-124.43","49.49","SISTERS ISLAND","1027403","2021-02-02 16:00","2021","02","02","16:00","6.2","","4.1","","86","","","","11","","47","","","","100.30","","","","","","NA"
"-124.43","49.49","SISTERS ISLAND","1027403","2021-02-02 17:00","2021","02","02","17:00","5.9","","3.9","","87","","","","11","","51","","","","100.28","","","","","","NA"
"-124.43","49.49","SISTERS ISLAND","1027403","2021-02-02 18:00","2021","02","02","18:00","5.9","","3.8","","86","","","","10","","48","","","","100.31","","","","","","NA"
"-124.43","49.49","SISTERS ISLAND","1027403","2021-02-02 19:00","2021","02","02","19:00","6.1","","3.5","","83","","","","11","","49","","","","100.33","","","","","","NA"
"-124.43","49.49","SISTERS ISLAND","1027403","2021-02-02 20:00","2021","02","02","20:00","6.1","","3.7","","85","","","","10","","51","","","","100.37","","","","","","NA"
"-124.43","49.49","SISTERS ISLAND","1027403","2021-02-02 21:00","2021","02","02","21:00","6.2","","4.0","","86","","","","11","","50","","","","100.45","","","","","","NA"
"-124.43","49.49","SISTERS ISLAND","1027403","2021-02-02 22:00","2021","02","02","22:00","6.2","","3.7","","84","","","","11","","40","","","","100.57","","","","","","NA"
"-124.43","49.49","SISTERS ISLAND","1027403","2021-02-02 23:00","2021","02","02","23:00","6.5","","3.1","","79","","","","10","","32","","","","100.65","","","","","","NA"
"-124.43","49.49","SISTERS ISLAND","1027403","2021-02-03 00:00","2021","02","03","00:00","6.5","","2.6","","76","","","","9","","25","","","","100.75","","","","","","NA"
"-124.43","49.49","SISTERS ISLAND","1027403","2021-02-03 01:00","2021","02","03","01:00","6.6","","1.9","","72","","","","7","","17","","","","100.84","","","","","","NA"
"-124.43","49.49","SISTERS ISLAND","1027403","2021-02-03 02:00","2021","02","03","02:00","6.2","","3.1","","81","","","","14","","16","","","","100.94","","","","","","NA"
"-124.43","49.49","SISTERS ISLAND","1027403","2021-02-03 03:00","2021","02","03","03:00","6.2","","3.2","","81","","","","32","","6","","","","101.05","","","","","","NA"
"-124.43","49.49","SISTERS ISLAND","1027403","2021-02-03 04:00","2021","02","03","04:00","5.8","","2.7","","81","","","","33","","22","","","","101.11","","","","","","NA"
"-124.43","49.49","SISTERS ISLAND","1027403","2021-02-03 05:00","2021","02","03","05:00","5.9","","2.8","","81","","","","33","","31","","","","101.25","","","","","","NA"
"-124.43","49.49","SISTERS ISLAND","1027403","2021-02-03 06:00","2021","02","03","06:00","5.6","","2.0","","77","","","","33","","33","","","","101.41","","","","","","NA"
"-124.43","49.49","SISTERS ISLAND","1027403","2021-02-03 07:00","2021","02","03","07:00","5.5","","1.7","","76","","","","31","","26","","","","101.46","","","","","","NA"
"-124.43","49.49","SISTERS ISLAND","1027403","2021-02-03 08:00","2021","02","03","08:00","5.5","","3.0","","84","","","","30","","25","","","","101.56","","","","","","NA"
"-124.43","49.49","SISTERS ISLAND","1027403","2021-02-03 09:00","2021","02","03","09:00","5.6","","2.9","","83","","","","30","","23","","","","101.64","","","","","","NA"
"-124.43","49.49","SISTERS ISLAND","1027403","2021-02-03 10:00","2021","02","03","10:00","5.2","","2.6","","83","","","","29","","19","","","","101.76","","","","","","NA"
"-124.43","49.49","SISTERS ISLAND","1027403","2021-02-03 11:00","2021","02","03","11:00","6.1","","2.4","","77","","","","29","","18","","","","101.88","","","","","","NA"
"-124.43","49.49","SISTERS ISLAND","1027403","2021-02-03 12:00","2021","02","03","12:00","6.5","","2.3","","75","","","","31","","16","","","","101.93","","","","","","NA"
"-124.43","49.49","SISTERS ISLAND","1027403","2021-02-03 13:00","2021","02","03","13:00","6.6","","2.0","","72","","","","31","","17","","","","101.98","","","","","","NA"
"-124.43","49.49","SISTERS ISLAND","1027403","2021-02-03 14:00","2021","02","03","14:00","6.1","","2.1","","75","","","","33","","15","","","","101.99","","","","","","NA"
"-124.43","49.49","SISTERS ISLAND","1027403","2021-02-03 15:00","2021","02","03","15:00","6.2","","1.3","","71","","","","36","","15","","","","102.03","","","","","","NA"
"-124.43","49.49","SISTERS ISLAND","1027403","2021-02-03 16:00","2021","02","03","16:00","5.9","","1.7","","75","","","","1","","12","","","","102.09","","","","","","NA"
"-124.43","49.49","SISTERS ISLAND","1027403","2021-02-03 17:00","2021","02","03","17:00","5.9","","1.0","","71","","","","34","","5","","","","102.17","","","","","","NA"
"-124.43","49.49","SISTERS ISLAND","1027403","2021-02-03 18:00","2021","02","03","18:00","6.0","","1.6","","74","","","","33","","6","","","","102.22","","","","","","NA"
"-124.43","49.49","SISTERS ISLAND","1027403","2021-02-03 19:00","2021","02","03","19:00","6.3","","2.1","","75","","","","30","","9","","","","102.27","","","","","","NA"
"-124.43","49.49","SISTERS ISLAND","1027403","2021-02-03 20:00","2021","02","03","20:00","6.1","","2.4","","77","","","","28","","5","","","","102.30","","","","","","NA"
"-124.43","49.49","SISTERS ISLAND","1027403","2021-02-03 21:00","2021","02","03","21:00","6.3","","2.1","","74","","","","32","","5","","","","102.37","","","","","","NA"
"-124.43","49.49","SISTERS ISLAND","1027403","2021-02-03 22:00","2021","02","03","22:00","6.1","","2.7","","79","","","","27","","11","","","","102.39","","","","","","NA"
"-124.43","49.49","SISTERS ISLAND","1027403","2021-02-03 23:00","2021","02","03","23:00","6.1","","2.8","","79","","","","31","","5","","","","102.43","","","","","","NA"
"-124.43","49.49","SISTERS ISLAND","1027403","2021-02-04 00:00","2021","02","04","00:00","5.7","","3.8","","88","","","","12","","8","","","","102.44","","","","","","NA"
"-124.43","49.49","SISTERS ISLAND","1027403","2021-02-04 01:00","2021","02","04","01:00","5.8","","4.2","","89","","","","12","","6","","","","102.45","","","","","","NA"
"-124.43","49.49","SISTERS ISLAND","1027403","2021-02-04 02:00","2021","02","04","02:00","5.7","","4.2","","90","","","","13","","6","","","","102.48","","","","","","NA"
"-124.43","49.49","SISTERS ISLAND","1027403","2021-02-04 03:00","2021","02","04","03:00","5.8","","3.9","","88","","","","18","","6","","","","102.48","","","","","","NA"
"-124.43","49.49","SISTERS ISLAND","1027403","2021-02-04 04:00","2021","02","04","04:00","5.9","","3.6","","86","","","","19","","7","","","","102.45","","","","","","NA"
"-124.43","49.49","SISTERS ISLAND","1027403","2021-02-04 05:00","2021","02","04","05:00","5.8","","3.6","","86","","","","","","0","","","","102.48","","","","","","NA"
"-124.43","49.49","SISTERS ISLAND","1027403","2021-02-04 06:00","2021","02","04","06:00","5.6","","3.9","","89","","","","14","","8","","","","102.48","","","","","","NA"
"-124.43","49.49","SISTERS ISLAND","1027403","2021-02-04 07:00","2021","02","04","07:00","5.6","","4.4","","92","","","","14","","10","","","","102.42","","","","","","NA"
"-124.43","49.49","SISTERS ISLAND","1027403","2021-02-04 08:00","2021","02","04","08:00","5.4","","4.0","","91","","","","14","","12","","","","102.42","","","","","","NA"
"-124.43","49.49","SISTERS ISLAND","1027403","2021-02-04 09:00","2021","02","04","09:00","5.4","","3.8","","90","","","","14","","16","","","","102.46","","","","","","NA"
"-124.43","49.49","SISTERS ISLAND","1027403","2021-02-04 10:00","2021","02","04","10:00","5.5","","4.1","","90","","","","12","","21","","","","102.45","","","","","","NA"
"-124.43","49.49","SISTERS ISLAND","1027403","2021-02-04 11:00","2021","02","04","11:00","5.6","","3.9","","89","","","","12","","30","","","","102.41","","","","","","NA"
"-124.43","49.49","SISTERS ISLAND","1027403","2021-02-04 12:00","2021","02","04","12:00","5.5","","4.0","","90","","","","11","","30","","","","102.34","","","","","","NA"
"-124.43","49.49","SISTERS ISLAND","1027403","2021-02-04 13:00","2021","02","04","13:00","5.5","","4.0","","90","","","","12","","30","","","","102.27","","","","","","NA"
"-124.43","49.49","SISTERS ISLAND","1027403","2021-02-04 14:00","2021","02","04","14:00","5.7","","4.2","","91","","","","11","","35","","","","102.10","","","","","","NA"
"-124.43","49.49","SISTERS ISLAND","1027403","2021-02-04 15:00","2021","02","04","15:00","5.8","","4.0","","88","","","","11","","36","","","","102.08","","","","","","NA"
"-124.43","49.49","SISTERS ISLAND","1027403","2021-02-04 16:00","2021","02","04","16:00","5.9","","4.0","","87","","","","12","","37","","","","102.04","","","","","","NA"
"-124.43","49.49","SISTERS ISLAND","1027403","2021-02-04 17:00","2021","02","04","17:00","6.0","","4.4","","89","","","","10","","27","","","","101.95","","","","","","NA"
"-124.43","49.49","SISTERS ISLAND","1027403","2021-02-04 18:00","2021","02","04","18:00","6.0","","4.6","","91","","","","11","","33","","","","101.85","","","","","","NA"
"-124.43","49.49","SISTERS ISLAND","1027403","2021-02-04 19:00","2021","02","04","19:00","6.1","","4.4","","89","","","","12","","32","","","","101.75","","","","","","NA"
"-124.43","49.49","SISTERS ISLAND","1027403","2021-02-04 20:00","2021","02","04","20:00","5.9","","4.3","","89","","","","12","","28","","","","101.66","","","","","","NA"
"-124.43","49.49","SISTERS ISLAND","1027403","2021-02-04 21:00","2021","02","04","21:00","5.9","","4.2","","89","","","","11","","26","","","","101.56","","","","","","NA"
"-124.43","49.49","SISTERS ISLAND","1027403","2021-02-04 22:00","2021","02","04","22:00","6.2","","4.2","","87","","","","12","","27","","","","101.46","","","","","","NA"
"-124.43","49.49","SISTERS ISLAND","1027403","2021-02-04 23:00","2021","02","04","23:00","6.2","","4.5","","89","","","","12","","25","","","","101.37","","","","","","NA"
"-124.43","49.49","SISTERS ISLAND","1027403","2021-02-05 00:00","2021","02","05","00:00","6.1","","4.6","","90","","","","12","","30","","","","101.26","","","","","","NA"
"-124.43","49.49","SISTERS ISLAND","1027403","2021-02-05 01:00","2021","02","05","01:00","6.3","","4.8","","90","","","","9","","10","","","","101.34","","","","","","NA"
"-124.43","49.49","SISTERS ISLAND","1027403","2021-02-05 02:00","2021","02","05","02:00","6.5","","5.1","","91","","","","31","","14","","","","101.43","","","","","","NA"
"-124.43","49.49","SISTERS ISLAND","1027403","2021-02-05 03:00","2021","02","05","03:00","5.6","","4.4","","92","","","","32","","31","","","","101.53","","","","","","NA"
"-124.43","49.49","SISTERS ISLAND","1027403","2021-02-05 04:00","2021","02","05","04:00","5.4","","4.1","","91","","","","30","","26","","","","101.62","","","","","","NA"
"-124.43","49.49","SISTERS ISLAND","1027403","2021-02-05 05:00","2021","02","05","05:00","5.2","","4.0","","92","","","","32","","26","","","","101.69","","","","","","NA"
"-124.43","49.49","SISTERS ISLAND","1027403","2021-02-05 06:00","2021","02","05","06:00","5.7","","4.2","","90","","","","29","","32","","","","101.75","","","","","","NA"
"-124.43","49.49","SISTERS ISLAND","1027403","2021-02-05 07:00","2021","02","05","07:00","5.7","","3.9","","88","","","","29","","33","","","","101.83","","","","","","NA"
"-124.43","49.49","SISTERS ISLAND","1027403","2021-02-05 08:00","2021","02","05","08:00","5.6","","4.0","","89","","","","28","","30","","","","101.87","","","","","","NA"
"-124.43","49.49","SISTERS ISLAND","1027403","2021-02-05 09:00","2021","02","05","09:00","6.0","","4.0","","87","","","","29","","29","","","","101.96","","","","","","NA"
"-124.43","49.49","SISTERS ISLAND","1027403","2021-02-05 10:00","2021","02","05","10:00","6.5","","4.1","","85","","","","29","","28","","","","102.05","","","","","","NA"
"-124.43","49.49","SISTERS ISLAND","1027403","2021-02-05 11:00","2021","02","05","11:00","6.7","","3.9","","82","","","","28","","25","","","","102.12","","","","","","NA"
"-124.43","49.49","SISTERS ISLAND","1027403","2021-02-05 12:00","2021","02","05","12:00","7.8","","3.9","","77","","","","29","","22","","","","102.12","","","","","","NA"
"-124.43","49.49","SISTERS ISLAND","1027403","2021-02-05 13:00","2021","02","05","13:00","7.3","","3.9","","79","","","","31","","23","","","","102.10","","","","","","NA"
"-124.43","49.49","SISTERS ISLAND","1027403","2021-02-05 14:00","2021","02","05","14:00","7.6","","4.4","","80","","","","31","","8","","","","102.09","","","","","","NA"
"-124.43","49.49","SISTERS ISLAND","1027403","2021-02-05 15:00","2021","02","05","15:00","7.5","","4.3","","80","","","","34","","20","","","","102.08","","","","","","NA"
"-124.43","49.49","SISTERS ISLAND","1027403","2021-02-05 16:00","2021","02","05","16:00","7.6","","4.2","","79","","","","30","","15","","","","102.10","","","","","","NA"
"-124.43","49.49","SISTERS ISLAND","1027403","2021-02-05 17:00","2021","02","05","17:00","7.2","","4.5","","83","","","","27","","9","","","","102.08","","","","","","NA"
"-124.43","49.49","SISTERS ISLAND","1027403","2021-02-05 18:00","2021","02","05","18:00","7.3","","4.8","","84","","","","27","","14","","","","102.11","","","","","","NA"
"-124.43","49.49","SISTERS ISLAND","1027403","2021-02-05 19:00","2021","02","05","19:00","7.2","","5.0","","86","","","","25","","13","","","","102.09","","","","","","NA"
"-124.43","49.49","SISTERS ISLAND","1027403","2021-02-05 20:00","2021","02","05","20:00","7.3","","4.8","","84","","","","25","","14","","","","102.08","","","","","","NA"
"-124.43","49.49","SISTERS ISLAND","1027403","2021-02-05 21:00","2021","02","05","21:00","7.2","","4.3","","82","","","","27","","14","","","","102.03","","","","","","NA"
"-124.43","49.49","SISTERS ISLAND","1027403","2021-02-05 22:00","2021","02","05","22:00","7.3","","1.5","","66","","","","30","","19","","","","101.98","","","","","","NA"
"-124.43","49.49","SISTERS ISLAND","1027403","2021-02-05 23:00","2021","02","05","23:00","7.0","","1.5","","68","","","","30","","15","","","","101.90","","","","","","NA"
"-124.43","49.49","SISTERS ISLAND","1027403","2021-02-06 00:00","2021","02","06","00:00","6.9","","2.7","","74","","","","32","","11","","","","101.86","","","","","","NA"
"-124.43","49.49","SISTERS ISLAND","1027403","2021-02-06 01:00","2021","02","06","01:00","6.5","","4.1","","85","","","","1","","7","","","","101.75","","","","","","NA"
"-124.43","49.49","SISTERS ISLAND","1027403","2021-02-06 02:00","2021","02","06","02:00","6.6","","1.9","","72","","","","3","","5","","","","101.63","","","","","","NA"
"-124.43","49.49","SISTERS ISLAND","1027403","2021-02-06 03:00","2021","02","06","03:00","6.4","","4.6","","88","","","","13","","18","","","","101.47","","","","","","NA"
"-124.43","49.49","SISTERS ISLAND","1027403","2021-02-06 04:00","2021","02","06","04:00","6.3","","4.7","","90","","","","14","","19","","","","101.35","","","","","","NA"
"-124.43","49.49","SISTERS ISLAND","1027403","2021-02-06 05:00","2021","02","06","05:00","6.7","","4.1","","83","","","","12","","23","","","","101.23","","","","","","NA"
"-124.43","49.49","SISTERS ISLAND","1027403","2021-02-06 06:00","2021","02","06","06:00","6.7","","3.8","","82","","","","13","","14","","","","101.15","","","","","","NA"
"-124.43","49.49","SISTERS ISLAND","1027403","2021-02-06 07:00","2021","02","06","07:00","6.4","","4.2","","86","","","","14","","15","","","","101.04","","","","","","NA"
"-124.43","49.49","SISTERS ISLAND","1027403","2021-02-06 08:00","2021","02","06","08:00","6.1","","3.3","","82","","","","11","","22","","","","100.95","","","","","","NA"
"-124.43","49.49","SISTERS ISLAND","1027403","2021-02-06 09:00","2021","02","06","09:00","6.1","","3.5","","83","","","","11","","20","","","","100.93","","","","","","NA"
"-124.43","49.49","SISTERS ISLAND","1027403","2021-02-06 10:00","2021","02","06","10:00","5.6","","4.1","","90","","","","30","","19","","","","101.00","","","","","","NA"
"-124.43","49.49","SISTERS ISLAND","1027403","2021-02-06 11:00","2021","02","06","11:00","5.5","","4.1","","90","","","","30","","28","","","","101.05","","","","","","NA"
"-124.43","49.49","SISTERS ISLAND","1027403","2021-02-06 12:00","2021","02","06","12:00","5.8","","4.0","","88","","","","30","","32","","","","101.04","","","","","","NA"
"-124.43","49.49","SISTERS ISLAND","1027403","2021-02-06 13:00","2021","02","06","13:00","5.2","","3.4","","88","","","","32","","29","","","","101.05","","","","","","NA"
"-124.43","49.49","SISTERS ISLAND","1027403","2021-02-06 14:00","2021","02","06","14:00","5.5","","3.6","","88","","","","31","","31","","","","101.09","","","","","","NA"
"-124.43","49.49","SISTERS ISLAND","1027403","2021-02-06 15:00","2021","02","06","15:00","6.5","","3.1","","79","","","","31","","38","","","","101.09","","","","","","NA"
"-124.43","49.49","SISTERS ISLAND","1027403","2021-02-06 16:00","2021","02","06","16:00","6.6","","3.7","","82","","","","29","","25","","","","101.18","","","","","","NA"
"-124.43","49.49","SISTERS ISLAND","1027403","2021-02-06 17:00","2021","02","06","17:00","7.1","","2.8","","74","","","","31","","26","","","","101.20","","","","","","NA"
"-124.43","49.49","SISTERS ISLAND","1027403","2021-02-06 18:00","2021","02","06","18:00","7.4","","1.2","","65","","","","32","","45","","","","101.13","","","","","","NA"
"-124.43","49.49","SISTERS ISLAND","1027403","2021-02-06 19:00","2021","02","06","19:00","7.2","","0.5","","63","","","","33","","49","","","","101.16","","","","","","NA"
"-124.43","49.49","SISTERS ISLAND","1027403","2021-02-06 20:00","2021","02","06","20:00","7.0","","-0.4","","59","","","","31","","48","","","","101.15","","","","","","NA"
"-124.43","49.49","SISTERS ISLAND","1027403","2021-02-06 21:00","2021","02","06","21:00","6.9","","-0.6","","59","","","","31","","45","","","","101.18","","","","","","NA"
"-124.43","49.49","SISTERS ISLAND","1027403","2021-02-06 22:00","2021","02","06","22:00","6.7","","-1.7","","55","","","","31","","37","","","","101.22","","","","","","NA"
"-124.43","49.49","SISTERS ISLAND","1027403","2021-02-06 23:00","2021","02","06","23:00","6.6","","-0.9","","59","","","","32","","49","","","","101.22","","","","","","NA"
"-124.43","49.49","SISTERS ISLAND","1027403","2021-02-07 00:00","2021","02","07","00:00","6.5","","-1.1","","58","","","","32","","52","","","","101.25","","","","","","NA"
"-124.43","49.49","SISTERS ISLAND","1027403","2021-02-07 01:00","2021","02","07","01:00","6.1","","-0.3","","64","","","","32","","45","","","","101.25","","","","","","NA"
"-124.43","49.49","SISTERS ISLAND","1027403","2021-02-07 02:00","2021","02","07","02:00","6.1","","-0.7","","62","","","","32","","46","","","","101.27","","","","","","NA"
"-124.43","49.49","SISTERS ISLAND","1027403","2021-02-07 03:00","2021","02","07","03:00","6.0","","0.0","","65","","","","31","","49","","","","101.30","","","","","","NA"
"-124.43","49.49","SISTERS ISLAND","1027403","2021-02-07 04:00","2021","02","07","04:00","5.5","","-0.2","","66","","","","30","","36","","","","101.31","","","","","","NA"
"-124.43","49.49","SISTERS ISLAND","1027403","2021-02-07 05:00","2021","02","07","05:00","5.6","","-0.5","","65","","","","32","","39","","","","101.31","","","","","","NA"
"-124.43","49.49","SISTERS ISLAND","1027403","2021-02-07 06:00","2021","02","07","06:00","5.4","","0.1","","69","","","","32","","33","","","","101.30","","","","","","NA"
"-124.43","49.49","SISTERS ISLAND","1027403","2021-02-07 07:00","2021","02","07","07:00","5.2","","0.7","","72","","","","34","","22","","","","101.32","","","","","","NA"
"-124.43","49.49","SISTERS ISLAND","1027403","2021-02-07 08:00","2021","02","07","08:00","5.4","","0.5","","71","","","","28","","26","","","","101.31","","","","","","NA"
"-124.43","49.49","SISTERS ISLAND","1027403","2021-02-07 09:00","2021","02","07","09:00","5.1","","0.1","","70","","","","27","","21","","","","101.31","","","","","","NA"
"-124.43","49.49","SISTERS ISLAND","1027403","2021-02-07 10:00","2021","02","07","10:00","6.3","","-0.3","","63","","","","28","","17","","","","101.33","","","","","","NA"
"-124.43","49.49","SISTERS ISLAND","1027403","2021-02-07 11:00","2021","02","07","11:00","7.3","","0.5","","62","","","","28","","12","","","","101.33","","","","","","NA"
"-124.43","49.49","SISTERS ISLAND","1027403","2021-02-07 12:00","2021","02","07","12:00","6.3","","0.9","","69","","","","29","","12","","","","101.32","","","","","","NA"
"-124.43","49.49","SISTERS ISLAND","1027403","2021-02-07 13:00","2021","02","07","13:00","6.2","","1.0","","69","","","","33","","20","","","","101.27","","","","","","NA"
"-124.43","49.49","SISTERS ISLAND","1027403","2021-02-07 14:00","2021","02","07","14:00","6.4","","1.2","","69","","","","33","","18","","","","101.20","","","","","","NA"
"-124.43","49.49","SISTERS ISLAND","1027403","2021-02-07 15:00","2021","02","07","15:00","6.3","","0.7","","68","","","","32","","19","","","","101.16","","","","","","NA"
"-124.43","49.49","SISTERS ISLAND","1027403","2021-02-07 16:00","2021","02","07","16:00","6.1","","0.3","","66","","","","31","","17","","","","101.16","","","","","","NA"
"-124.43","49.49","SISTERS ISLAND","1027403","2021-02-07 17:00","2021","02","07","17:00","6.1","","0.4","","67","","","","30","","23","","","","101.15","","","","","","NA"
"-124.43","49.49","SISTERS ISLAND","1027403","2021-02-07 18:00","2021","02","07","18:00","6.3","","-2.8","","52","","","","32","","39","","","","101.13","","","","","","NA"
"-124.43","49.49","SISTERS ISLAND","1027403","2021-02-07 19:00","2021","02","07","19:00","5.5","","-1.8","","60","","","","34","","33","","","","101.15","","","","","","NA"
"-124.43","49.49","SISTERS ISLAND","1027403","2021-02-07 20:00","2021","02","07","20:00","5.2","","-2.2","","59","","","","33","","47","","","","101.15","","","","","","NA"
"-124.43","49.49","SISTERS ISLAND","1027403","2021-02-07 21:00","2021","02","07","21:00","5.0","","-1.9","","61","","","","32","","42","","","","101.17","","","","","","NA"
"-124.43","49.49","SISTERS ISLAND","1027403","2021-02-07 22:00","2021","02","07","22:00","4.6","","-2.9","","58","","","","32","","40","","","","101.21","","","","","","NA"
"-124.43","49.49","SISTERS ISLAND","1027403","2021-02-07 23:00","2021","02","07","23:00","4.4","","-3.2","","58","","","","32","","49","","","","101.21","","","","","","NA"
"-124.43","49.49","SISTERS ISLAND","1027403","2021-02-08 00:00","2021","02","08","00:00","4.1","","-3.5","","58","","","","31","","46","","","","101.25","","","","","","NA"
"-124.43","49.49","SISTERS ISLAND","1027403","2021-02-08 01:00","2021","02","08","01:00","3.9","","-3.3","","59","","","","32","","47","","","","101.27","","","","","","NA"
"-124.43","49.49","SISTERS ISLAND","1027403","2021-02-08 02:00","2021","02","08","02:00","3.6","","-4.2","","57","","","","31","","43","","","","101.29","","","","","","NA"
"-124.43","49.49","SISTERS ISLAND","1027403","2021-02-08 03:00","2021","02","08","03:00","3.8","","-3.6","","58","","","","32","","43","","","","101.30","","","","","","NA"
"-124.43","49.49","SISTERS ISLAND","1027403","2021-02-08 04:00","2021","02","08","04:00","3.6","","-3.4","","60","","","","32","","44","","","","101.33","","","","","","NA"
"-124.43","49.49","SISTERS ISLAND","1027403","2021-02-08 05:00","2021","02","08","05:00","3.3","","-3.3","","62","","","","31","","39","","","","101.37","","","","","","NA"
"-124.43","49.49","SISTERS ISLAND","1027403","2021-02-08 06:00","2021","02","08","06:00","3.4","","-1.9","","68","","","","31","","36","","","","101.39","","","","","","NA"
"-124.43","49.49","SISTERS ISLAND","1027403","2021-02-08 07:00","2021","02","08","07:00","3.2","","-2.4","","67","","","","31","","38","","","","101.42","","","","","","NA"
"-124.43","49.49","SISTERS ISLAND","1027403","2021-02-08 08:00","2021","02","08","08:00","3.1","","-2.2","","68","","","","32","","33","","","","101.46","","","","","","NA"
"-124.43","49.49","SISTERS ISLAND","1027403","2021-02-08 09:00","2021","02","08","09:00","3.2","","-2.3","","67","","","","31","","30","","","","101.52","","","","","","NA"
"-124.43","49.49","SISTERS ISLAND","1027403","2021-02-08 10:00","2021","02","08","10:00","3.9","","-3.6","","58","","","","31","","27","","","","101.56","","","","","","NA"
"-124.43","49.49","SISTERS ISLAND","1027403","2021-02-08 11:00","2021","02","08","11:00","3.0","","-3.4","","63","","","","31","","29","","","","101.62","","","","","","NA"
"-124.43","49.49","SISTERS ISLAND","1027403","2021-02-08 12:00","2021","02","08","12:00","3.9","","-4.9","","53","","","","31","","22","","","","101.63","","","","","","NA"
"-124.43","49.49","SISTERS ISLAND","1027403","2021-02-08 13:00","2021","02","08","13:00","4.1","","-5.4","","50","","","","30","","18","","","","101.63","","","","","","NA"
"-124.43","49.49","SISTERS ISLAND","1027403","2021-02-08 14:00","2021","02","08","14:00","3.9","","-5.3","","51","","","","30","","18","","","","101.61","","","","","","NA"
"-124.43","49.49","SISTERS ISLAND","1027403","2021-02-08 15:00","2021","02","08","15:00","3.8","","-6.5","","47","","","","31","","17","","","","101.63","","","","","","NA"
"-124.43","49.49","SISTERS ISLAND","1027403","2021-02-08 16:00","2021","02","08","16:00","3.9","","-7.0","","45","","","","31","","16","","","","101.61","","","","","","NA"
"-124.43","49.49","SISTERS ISLAND","1027403","2021-02-08 17:00","2021","02","08","17:00","4.1","","-7.0","","44","","","","31","","18","","","","101.59","","","","","","NA"
"-124.43","49.49","SISTERS ISLAND","1027403","2021-02-08 18:00","2021","02","08","18:00","3.8","","-8.5","","40","","","","33","","18","","","","101.62","","","","","","NA"
"-124.43","49.49","SISTERS ISLAND","1027403","2021-02-08 19:00","2021","02","08","19:00","3.9","","-6.4","","47","","","","1","","13","","","","101.65","","","","","","NA"
"-124.43","49.49","SISTERS ISLAND","1027403","2021-02-08 20:00","2021","02","08","20:00","3.7","","-6.9","","46","","","","2","","8","","","","101.69","","","","","","NA"
"-124.43","49.49","SISTERS ISLAND","1027403","2021-02-08 21:00","2021","02","08","21:00","3.6","","-7.1","","46","","","","32","","5","","","","101.70","","","","","","NA"
"-124.43","49.49","SISTERS ISLAND","1027403","2021-02-08 22:00","2021","02","08","22:00","3.5","","-4.9","","54","","","","29","","12","","","","101.72","","","","","","NA"
"-124.43","49.49","SISTERS ISLAND","1027403","2021-02-08 23:00","2021","02","08","23:00","3.3","","-3.9","","59","","","","29","","20","","","","101.75","","","","","","NA"
"-124.43","49.49","SISTERS ISLAND","1027403","2021-02-09 00:00","2021","02","09","00:00","3.2","","-3.9","","60","","","","31","","17","","","","101.76","","","","","","NA"
"-124.43","49.49","SISTERS ISLAND","1027403","2021-02-09 01:00","2021","02","09","01:00","2.8","","-3.0","","66","","","","12","","22","","","","101.76","","","","","","NA"
"-124.43","49.49","SISTERS ISLAND","1027403","2021-02-09 02:00","2021","02","09","02:00","2.7","","-2.8","","67","","","","11","","21","","","","101.76","","","","","","NA"
"-124.43","49.49","SISTERS ISLAND","1027403","2021-02-09 03:00","2021","02","09","03:00","2.4","","-3.7","","64","","","","12","","21","","","","101.79","","","","","","NA"
"-124.43","49.49","SISTERS ISLAND","1027403","2021-02-09 04:00","2021","02","09","04:00","2.0","","-4.3","","63","","","","12","","21","","","","101.80","","","","","","NA"
"-124.43","49.49","SISTERS ISLAND","1027403","2021-02-09 05:00","2021","02","09","05:00","1.8","","-3.8","","66","","","","30","","20","","","","101.84","","","","","","NA"
"-124.43","49.49","SISTERS ISLAND","1027403","2021-02-09 06:00","2021","02","09","06:00","1.6","","-4.2","","65","","","","31","","20","","","","101.83","","","","","","NA"
"-124.43","49.49","SISTERS ISLAND","1027403","2021-02-09 07:00","2021","02","09","07:00","1.6","","-3.6","","68","","","","30","","20","","","","101.85","","","","","","NA"
"-124.43","49.49","SISTERS ISLAND","1027403","2021-02-09 08:00","2021","02","09","08:00","1.3","","-3.6","","69","","","","29","","26","","","","101.90","","","","","","NA"
"-124.43","49.49","SISTERS ISLAND","1027403","2021-02-09 09:00","2021","02","09","09:00","0.9","","-4.0","","70","","","","28","","24","","","","101.94","","","","","","NA"
"-124.43","49.49","SISTERS ISLAND","1027403","2021-02-09 10:00","2021","02","09","10:00","1.2","","-3.9","","69","","","","30","","22","","","","102.00","","","","","","NA"
"-124.43","49.49","SISTERS ISLAND","1027403","2021-02-09 11:00","2021","02","09","11:00","1.9","","-3.1","","70","","","","29","","23","","","","102.03","","","","","","NA"
"-124.43","49.49","SISTERS ISLAND","1027403","2021-02-09 12:00","2021","02","09","12:00","1.9","","-3.9","","65","","","","29","","14","","","","102.05","","","","","","NA"
"-124.43","49.49","SISTERS ISLAND","1027403","2021-02-09 13:00","2021","02","09","13:00","2.9","","-3.7","","62","","","","29","","10","","","","102.03","","","","","","NA"
"-124.43","49.49","SISTERS ISLAND","1027403","2021-02-09 14:00","2021","02","09","14:00","3.7","","-4.2","","56","","","","30","","6","","","","102.00","","","","","","NA"
"-124.43","49.49","SISTERS ISLAND","1027403","2021-02-09 15:00","2021","02","09","15:00","4.0","","-4.7","","53","","","","30","","1","","","","101.98","","","","","","NA"
"-124.43","49.49","SISTERS ISLAND","1027403","2021-02-09 16:00","2021","02","09","16:00","3.4","","-5.3","","53","","","","31","","2","","","","101.95","","","","","","NA"
"-124.43","49.49","SISTERS ISLAND","1027403","2021-02-09 17:00","2021","02","09","17:00","3.6","","-4.4","","56","","","","35","","4","","","","101.94","","","","","","NA"
"-124.43","49.49","SISTERS ISLAND","1027403","2021-02-09 18:00","2021","02","09","18:00","2.4","","-3.5","","65","","","","5","","2","","","","101.93","","","","","","NA"
"-124.43","49.49","SISTERS ISLAND","1027403","2021-02-09 19:00","2021","02","09","19:00","2.5","","-3.5","","64","","","","4","","2","","","","101.94","","","","","","NA"
"-124.43","49.49","SISTERS ISLAND","1027403","2021-02-09 20:00","2021","02","09","20:00","2.6","","-2.6","","68","","","","9","","7","","","","101.93","","","","","","NA"
"-124.43","49.49","SISTERS ISLAND","1027403","2021-02-09 21:00","2021","02","09","21:00","2.5","","-2.7","","69","","","","7","","7","","","","101.91","","","","","","NA"
"-124.43","49.49","SISTERS ISLAND","1027403","2021-02-09 22:00","2021","02","09","22:00","2.6","","-2.3","","70","","","","12","","8","","","","101.92","","","","","","NA"
"-124.43","49.49","SISTERS ISLAND","1027403","2021-02-09 23:00","2021","02","09","23:00","2.6","","-1.6","","74","","","","14","","12","","","","101.88","","","","","","NA"
"-124.43","49.49","SISTERS ISLAND","1027403","2021-02-10 00:00","2021","02","10","00:00","2.6","","-1.7","","73","","","","10","","15","","","","101.87","","","","","","NA"
"-124.43","49.49","SISTERS ISLAND","1027403","2021-02-10 01:00","2021","02","10","01:00","2.8","","-2.6","","67","","","","12","","21","","","","101.84","","","","","","NA"
"-124.43","49.49","SISTERS ISLAND","1027403","2021-02-10 02:00","2021","02","10","02:00","2.8","","-3.1","","65","","","","14","","17","","","","101.86","","","","","","NA"
"-124.43","49.49","SISTERS ISLAND","1027403","2021-02-10 03:00","2021","02","10","03:00","2.6","","-1.5","","74","","","","17","","8","","","","101.86","","","","","","NA"
"-124.43","49.49","SISTERS ISLAND","1027403","2021-02-10 04:00","2021","02","10","04:00","2.7","","-1.9","","72","","","","14","","14","","","","101.87","","","","","","NA"
"-124.43","49.49","SISTERS ISLAND","1027403","2021-02-10 05:00","2021","02","10","05:00","2.4","","-2.1","","72","","","","12","","14","","","","101.87","","","","","","NA"
"-124.43","49.49","SISTERS ISLAND","1027403","2021-02-10 06:00","2021","02","10","06:00","2.4","","-1.7","","74","","","","14","","14","","","","101.87","","","","","","NA"
"-124.43","49.49","SISTERS ISLAND","1027403","2021-02-10 07:00","2021","02","10","07:00","2.2","","0.1","","86","","","","29","","29","","","","101.86","","","","","","NA"
"-124.43","49.49","SISTERS ISLAND","1027403","2021-02-10 08:00","2021","02","10","08:00","1.3","","-0.2","","90","","","","30","","37","","","","101.88","","","","","","NA"
"-124.43","49.49","SISTERS ISLAND","1027403","2021-02-10 09:00","2021","02","10","09:00","0.4","","-1.2","","89","","","","31","","41","","","","101.91","","","","","","NA"
"-124.43","49.49","SISTERS ISLAND","1027403","2021-02-10 10:00","2021","02","10","10:00","0.8","","-3.2","","75","","","","32","","29","","","","101.97","","","","","","NA"
"-124.43","49.49","SISTERS ISLAND","1027403","2021-02-10 11:00","2021","02","10","11:00","0.9","","-5.1","","64","","","","31","","25","","","","102.03","","","","","","NA"
"-124.43","49.49","SISTERS ISLAND","1027403","2021-02-10 12:00","2021","02","10","12:00","0.9","","-5.0","","65","","","","31","","22","","","","102.04","","","","","","NA"
"-124.43","49.49","SISTERS ISLAND","1027403","2021-02-10 13:00","2021","02","10","13:00","0.9","","-3.8","","70","","","","35","","9","","","","102.07","","","","","","NA"
"-124.43","49.49","SISTERS ISLAND","1027403","2021-02-10 14:00","2021","02","10","14:00","0.0","","-1.2","","91","","","","13","","28","","","","102.03","","","","-6","","NA"
"-124.43","49.49","SISTERS ISLAND","1027403","2021-02-10 15:00","2021","02","10","15:00","0.0","","-1.7","","88","","","","13","","39","","","","102.00","","","","-7","","NA"
"-124.43","49.49","SISTERS ISLAND","1027403","2021-02-10 16:00","2021","02","10","16:00","0.3","","-3.5","","76","","","","13","","39","","","","102.02","","","","","","NA"
"-124.43","49.49","SISTERS ISLAND","1027403","2021-02-10 17:00","2021","02","10","17:00","0.1","","-4.8","","70","","","","12","","39","","","","102.03","","","","","","NA"
"-124.43","49.49","SISTERS ISLAND","1027403","2021-02-10 18:00","2021","02","10","18:00","0.1","","-4.5","","71","","","","13","","40","","","","102.03","","","","","","NA"
"-124.43","49.49","SISTERS ISLAND","1027403","2021-02-10 19:00","2021","02","10","19:00","-0.2","","-4.8","","71","","","","13","","38","","","","102.03","","","","-7","","NA"
"-124.43","49.49","SISTERS ISLAND","1027403","2021-02-10 20:00","2021","02","10","20:00","-0.1","","-5.7","","66","","","","13","","40","","","","102.01","","","","-8","","NA"
"-124.43","49.49","SISTERS ISLAND","1027403","2021-02-10 21:00","2021","02","10","21:00","0.1","","-5.1","","68","","","","13","","35","","","","102.04","","","","","","NA"
"-124.43","49.49","SISTERS ISLAND","1027403","2021-02-10 22:00","2021","02","10","22:00","0.0","","-5.6","","66","","","","13","","36","","","","102.07","","","","-7","","NA"
"-124.43","49.49","SISTERS ISLAND","1027403","2021-02-10 23:00","2021","02","10","23:00","-0.1","","-6.7","","61","","","","13","","33","","","","102.08","","","","-7","","NA"
"-124.43","49.49","SISTERS ISLAND","1027403","2021-02-11 00:00","2021","02","11","00:00","0.0","","-6.6","","61","","","","13","","30","","","","102.10","","","","-6","","NA"
"-124.43","49.49","SISTERS ISLAND","1027403","2021-02-11 01:00","2021","02","11","01:00","0.0","","-6.8","","60","","","","12","","25","","","","102.13","","","","-6","","NA"
"-124.43","49.49","SISTERS ISLAND","1027403","2021-02-11 02:00","2021","02","11","02:00","0.1","","-6.6","","61","","","","14","","26","","","","102.11","","","","","","NA"
"-124.43","49.49","SISTERS ISLAND","1027403","2021-02-11 03:00","2021","02","11","03:00","-0.3","","-7.1","","60","","","","15","","22","","","","102.14","","","","-6","","NA"
"-124.43","49.49","SISTERS ISLAND","1027403","2021-02-11 04:00","2021","02","11","04:00","-0.2","","-7.0","","60","","","","15","","21","","","","102.09","","","","-6","","NA"
"-124.43","49.49","SISTERS ISLAND","1027403","2021-02-11 05:00","2021","02","11","05:00","-0.3","","-7.4","","58","","","","15","","26","","","","102.06","","","","-6","","NA"
"-124.43","49.49","SISTERS ISLAND","1027403","2021-02-11 06:00","2021","02","11","06:00","-0.5","","-8.0","","57","","","","15","","29","","","","102.03","","","","-7","","NA"
"-124.43","49.49","SISTERS ISLAND","1027403","2021-02-11 07:00","2021","02","11","07:00","-0.2","","-7.5","","58","","","","14","","26","","","","102.00","","","","-6","","NA"
"-124.43","49.49","SISTERS ISLAND","1027403","2021-02-11 08:00","2021","02","11","08:00","-0.3","","-7.4","","59","","","","15","","22","","","","102.03","","","","-6","","NA"
"-124.43","49.49","SISTERS ISLAND","1027403","2021-02-11 09:00","2021","02","11","09:00","-0.9","","-7.7","","60","","","","15","","19","","","","102.06","","","","-6","","NA"
"-124.43","49.49","SISTERS ISLAND","1027403","2021-02-11 10:00","2021","02","11","10:00","-0.5","","-7.8","","58","","","","14","","19","","","","102.04","","","","-6","","NA"
"-124.43","49.49","SISTERS ISLAND","1027403","2021-02-11 11:00","2021","02","11","11:00","-0.2","","-8.4","","54","","","","11","","19","","","","102.01","","","","-5","","NA"
"-124.43","49.49","SISTERS ISLAND","1027403","2021-02-11 12:00","2021","02","11","12:00","0.0","","-7.7","","56","","","","14","","15","","","","102.01","","","","-4","","NA"
"-124.43","49.49","SISTERS ISLAND","1027403","2021-02-11 13:00","2021","02","11","13:00","-0.2","","-4.9","","71","","","","19","","3","","","","101.94","","","","-1","","NA"
"-124.43","49.49","SISTERS ISLAND","1027403","2021-02-11 14:00","2021","02","11","14:00","-0.2","","-5.2","","69","","","","33","","16","","","","101.88","","","","-5","","NA"
"-124.43","49.49","SISTERS ISLAND","1027403","2021-02-11 15:00","2021","02","11","15:00","-0.1","","-5.1","","69","","","","35","","14","","","","101.82","","","","-4","","NA"
"-124.43","49.49","SISTERS ISLAND","1027403","2021-02-11 16:00","2021","02","11","16:00","0.1","","-7.7","","56","","","","3","","9","","","","101.79","","","","","","NA"
"-124.43","49.49","SISTERS ISLAND","1027403","2021-02-11 17:00","2021","02","11","17:00","0.1","","-6.4","","61","","","","36","","6","","","","101.77","","","","","","NA"
"-124.43","49.49","SISTERS ISLAND","1027403","2021-02-11 18:00","2021","02","11","18:00","0.4","","-10.4","","44","","","","12","","5","","","","101.73","","","","","","NA"
"-124.43","49.49","SISTERS ISLAND","1027403","2021-02-11 19:00","2021","02","11","19:00","0.3","","-8.7","","51","","","","2","","10","","","","101.72","","","","","","NA"
"-124.43","49.49","SISTERS ISLAND","1027403","2021-02-11 20:00","2021","02","11","20:00","0.4","","-12.5","","37","","","","5","","10","","","","101.69","","","","","","NA"
"-124.43","49.49","SISTERS ISLAND","1027403","2021-02-11 21:00","2021","02","11","21:00","0.3","","-13.4","","35","","","","6","","16","","","","101.69","","","","","","NA"
"-124.43","49.49","SISTERS ISLAND","1027403","2021-02-11 22:00","2021","02","11","22:00","0.2","","-12.6","","38","","","","5","","19","","","","101.71","","","","","","NA"
"-124.43","49.49","SISTERS ISLAND","1027403","2021-02-11 23:00","2021","02","11","23:00","0.3","","-8.1","","53","","","","21","","13","","","","101.71","","","","","","NA"
"-124.43","49.49","SISTERS ISLAND","1027403","2021-02-12 00:00","2021","02","12","00:00","-0.5","","-13.2","","38","","","","18","","17","","","","101.71","","","","-5","","NA"
"-124.43","49.49","SISTERS ISLAND","1027403","2021-02-12 01:00","2021","02","12","01:00","-0.9","","-12.7","","40","","","","18","","16","","","","101.72","","","","-6","","NA"
"-124.43","49.49","SISTERS ISLAND","1027403","2021-02-12 02:00","2021","02","12","02:00","-1.1","","-11.7","","44","","","","18","","14","","","","101.78","","","","-6","","NA"
"-124.43","49.49","SISTERS ISLAND","1027403","2021-02-12 03:00","2021","02","12","03:00","-0.6","","-9.9","","49","","","","16","","15","","","","101.79","","","","-5","","NA"
"-124.43","49.49","SISTERS ISLAND","1027403","2021-02-12 04:00","2021","02","12","04:00","-1.1","","-10.1","","50","","","","15","","23","","","","101.71","","","","-7","","NA"
"-124.43","49.49","SISTERS ISLAND","1027403","2021-02-12 05:00","2021","02","12","05:00","-1.2","","-11.3","","46","","","","17","","21","","","","101.82","","","","-7","","NA"
"-124.43","49.49","SISTERS ISLAND","1027403","2021-02-12 06:00","2021","02","12","06:00","-1.2","","-11.5","","45","","","","16","","21","","","","101.84","","","","-7","","NA"
"-124.43","49.49","SISTERS ISLAND","1027403","2021-02-12 07:00","2021","02","12","07:00","-1.3","","-11.5","","45","","","","16","","22","","","","101.82","","","","-7","","NA"
"-124.43","49.49","SISTERS ISLAND","1027403","2021-02-12 08:00","2021","02","12","08:00","-1.5","","-11.9","","45","","","","15","","27","","","","101.80","","","","-8","","NA"
"-124.43","49.49","SISTERS ISLAND","1027403","2021-02-12 09:00","2021","02","12","09:00","-1.3","","-10.6","","49","","","","16","","26","","","","101.83","","","","-8","","NA"
"-124.43","49.49","SISTERS ISLAND","1027403","2021-02-12 10:00","2021","02","12","10:00","-1.3","","-10.6","","49","","","","16","","24","","","","101.81","","","","-7","","NA"
"-124.43","49.49","SISTERS ISLAND","1027403","2021-02-12 11:00","2021","02","12","11:00","-1.0","","-10.8","","47","","","","13","","27","","","","101.78","","","","-7","","NA"
"-124.43","49.49","SISTERS ISLAND","1027403","2021-02-12 12:00","2021","02","12","12:00","-1.2","","-13.4","","39","","","","12","","29","","","","101.77","","","","-8","","NA"
"-124.43","49.49","SISTERS ISLAND","1027403","2021-02-12 13:00","2021","02","12","13:00","-1.0","","-12.2","","42","","","","13","","28","","","","101.69","","","","-8","","NA"
"-124.43","49.49","SISTERS ISLAND","1027403","2021-02-12 14:00","2021","02","12","14:00","-1.0","","-11.9","","43","","","","13","","28","","","","101.60","","","","-8","","NA"
"-124.43","49.49","SISTERS ISLAND","1027403","2021-02-12 15:00","2021","02","12","15:00","-0.8","","-13.0","","39","","","","14","","26","","","","101.56","","","","-7","","NA"
"-124.43","49.49","SISTERS ISLAND","1027403","2021-02-12 16:00","2021","02","12","16:00","-0.6","","-14.0","","35","","","","13","","21","","","","101.49","","","","-6","","NA"
"-124.43","49.49","SISTERS ISLAND","1027403","2021-02-12 17:00","2021","02","12","17:00","-0.1","","-12.2","","39","","","","12","","25","","","","101.35","","","","-6","","NA"
"-124.43","49.49","SISTERS ISLAND","1027403","2021-02-12 18:00","2021","02","12","18:00","0.1","","-12.0","","40","","","","14","","25","","","","101.22","","","","","","NA"
"-124.43","49.49","SISTERS ISLAND","1027403","2021-02-12 19:00","2021","02","12","19:00","0.5","","-10.9","","42","","","","15","","26","","","","101.10","","","","","","NA"
"-124.43","49.49","SISTERS ISLAND","1027403","2021-02-12 20:00","2021","02","12","20:00","0.8","","-11.2","","40","","","","13","","33","","","","100.95","","","","","","NA"
"-124.43","49.49","SISTERS ISLAND","1027403","2021-02-12 21:00","2021","02","12","21:00","0.5","","-8.9","","49","","","","14","","39","","","","100.87","","","","","","NA"
"-124.43","49.49","SISTERS ISLAND","1027403","2021-02-12 22:00","2021","02","12","22:00","-0.9","","-4.5","","77","","","","15","","42","","","","100.78","","","","-9","","NA"
"-124.43","49.49","SISTERS ISLAND","1027403","2021-02-12 23:00","2021","02","12","23:00","-1.7","","-3.9","","85","","","","15","","39","","","","100.72","","","","-10","","NA"
"-124.43","49.49","SISTERS ISLAND","1027403","2021-02-13 00:00","2021","02","13","00:00","-1.6","","-2.7","","92","","","","13","","34","","","","100.66","","","","-9","","NA"
"-124.43","49.49","SISTERS ISLAND","1027403","2021-02-13 01:00","2021","02","13","01:00","-2.0","","-3.5","","90","","","","12","","37","","","","100.58","","","","-10","","NA"
"-124.43","49.49","SISTERS ISLAND","1027403","2021-02-13 02:00","2021","02","13","02:00","-2.1","","-3.4","","91","","","","13","","35","","","","100.48","","","","-10","","NA"
"-124.43","49.49","SISTERS ISLAND","1027403","2021-02-13 03:00","2021","02","13","03:00","-1.7","","-3.1","","91","","","","12","","31","","","","100.39","","","","-9","","NA"
"-124.43","49.49","SISTERS ISLAND","1027403","2021-02-13 04:00","2021","02","13","04:00","-1.8","","-2.5","","95","","","","13","","23","","","","100.30","","","","-8","","NA"
"-124.43","49.49","SISTERS ISLAND","1027403","2021-02-13 05:00","2021","02","13","05:00","-1.6","","-2.1","","97","","","","14","","4","","","","100.32","","","","-3","","NA"
"-124.43","49.49","SISTERS ISLAND","1027403","2021-02-13 06:00","2021","02","13","06:00","-2.0","","-2.4","","97","","","","0","","1","","","","100.36","","","","-2","","NA"
"-124.43","49.49","SISTERS ISLAND","1027403","2021-02-13 07:00","2021","02","13","07:00","-1.5","","-1.9","","97","","","","36","","17","","","","100.39","","","","-7","","NA"
"-124.43","49.49","SISTERS ISLAND","1027403","2021-02-13 08:00","2021","02","13","08:00","-1.3","","-1.7","","97","","","","29","","8","","","","100.49","","","","-4","","NA"
"-124.43","49.49","SISTERS ISLAND","1027403","2021-02-13 09:00","2021","02","13","09:00","-1.3","","-1.8","","97","","","","28","","13","","","","100.56","","","","-6","","NA"
"-124.43","49.49","SISTERS ISLAND","1027403","2021-02-13 10:00","2021","02","13","10:00","-1.0","","-1.6","","96","","","","27","","15","","","","100.68","","","","-6","","NA"
"-124.43","49.49","SISTERS ISLAND","1027403","2021-02-13 11:00","2021","02","13","11:00","-0.8","","-1.2","","97","","","","28","","17","","","","100.76","","","","-6","","NA"
"-124.43","49.49","SISTERS ISLAND","1027403","2021-02-13 12:00","2021","02","13","12:00","-0.7","","-1.1","","97","","","","32","","10","","","","100.84","","","","-4","","NA"
"-124.43","49.49","SISTERS ISLAND","1027403","2021-02-13 13:00","2021","02","13","13:00","-0.5","","-0.8","","98","","","","26","","7","","","","100.90","","","","-3","","NA"
"-124.43","49.49","SISTERS ISLAND","1027403","2021-02-13 14:00","2021","02","13","14:00","-0.1","","-0.4","","97","","","","29","","6","","","","100.96","","","","-2","","NA"
"-124.43","49.49","SISTERS ISLAND","1027403","2021-02-13 15:00","2021","02","13","15:00","0.3","","-0.1","","97","","","","30","","4","","","","101.04","","","","","","NA"
"-124.43","49.49","SISTERS ISLAND","1027403","2021-02-13 16:00","2021","02","13","16:00","0.4","","0.0","","97","","","","29","","4","","","","101.10","","","","","","NA"
"-124.43","49.49","SISTERS ISLAND","1027403","2021-02-13 17:00","2021","02","13","17:00","0.4","","-0.3","","95","","","","5","","4","","","","101.13","","","","","","NA"
"-124.43","49.49","SISTERS ISLAND","1027403","2021-02-13 18:00","2021","02","13","18:00","1.4","","-0.4","","88","","","","9","","19","","","","101.19","","","","","","NA"
"-124.43","49.49","SISTERS ISLAND","1027403","2021-02-13 19:00","2021","02","13","19:00","2.0","","-1.6","","77","","","","14","","28","","","","101.26","","","","","","NA"
"-124.43","49.49","SISTERS ISLAND","1027403","2021-02-13 20:00","2021","02","13","20:00","1.6","","-2.4","","74","","","","16","","22","","","","101.29","","","","","","NA"
"-124.43","49.49","SISTERS ISLAND","1027403","2021-02-13 21:00","2021","02","13","21:00","1.8","","-2.4","","74","","","","14","","30","","","","101.24","","","","","","NA"
"-124.43","49.49","SISTERS ISLAND","1027403","2021-02-13 22:00","2021","02","13","22:00","1.6","","-2.9","","72","","","","16","","23","","","","101.41","","","","","","NA"
"-124.43","49.49","SISTERS ISLAND","1027403","2021-02-13 23:00","2021","02","13","23:00","1.8","","-2.3","","74","","","","14","","32","","","","101.39","","","","","","NA"
"-124.43","49.49","SISTERS ISLAND","1027403","2021-02-14 00:00","2021","02","14","00:00","1.9","","-2.2","","74","","","","13","","34","","","","101.33","","","","","","NA"
"-124.43","49.49","SISTERS ISLAND","1027403","2021-02-14 01:00","2021","02","14","01:00","2.0","","-3.0","","70","","","","11","","36","","","","101.32","","","","","","NA"
"-124.43","49.49","SISTERS ISLAND","1027403","2021-02-14 02:00","2021","02","14","02:00","2.0","","-3.3","","68","","","","12","","33","","","","101.30","","","","","","NA"
"-124.43","49.49","SISTERS ISLAND","1027403","2021-02-14 03:00","2021","02","14","03:00","1.9","","-2.7","","71","","","","13","","38","","","","101.23","","","","","","NA"
"-124.43","49.49","SISTERS ISLAND","1027403","2021-02-14 04:00","2021","02","14","04:00","2.1","","-3.3","","68","","","","12","","47","","","","101.13","","","","","","NA"
"-124.43","49.49","SISTERS ISLAND","1027403","2021-02-14 05:00","2021","02","14","05:00","2.2","","-2.5","","71","","","","12","","44","","","","101.12","","","","","","NA"
"-124.43","49.49","SISTERS ISLAND","1027403","2021-02-14 06:00","2021","02","14","06:00","1.1","","-1.4","","83","","","","12","","40","","","","101.15","","","","","","NA"
"-124.43","49.49","SISTERS ISLAND","1027403","2021-02-14 07:00","2021","02","14","07:00","0.5","","-0.5","","93","","","","11","","39","","","","101.09","","","","","","NA"
"-124.43","49.49","SISTERS ISLAND","1027403","2021-02-14 08:00","2021","02","14","08:00","0.7","","-0.3","","93","","","","10","","31","","","","101.09","","","","","","NA"
"-124.43","49.49","SISTERS ISLAND","1027403","2021-02-14 09:00","2021","02","14","09:00","1.2","","-0.3","","89","","","","11","","38","","","","101.04","","","","","","NA"
"-124.43","49.49","SISTERS ISLAND","1027403","2021-02-14 10:00","2021","02","14","10:00","1.2","","-0.1","","92","","","","11","","38","","","","101.00","","","","","","NA"
"-124.43","49.49","SISTERS ISLAND","1027403","2021-02-14 11:00","2021","02","14","11:00","1.4","","-0.2","","89","","","","11","","39","","","","100.99","","","","","","NA"
"-124.43","49.49","SISTERS ISLAND","1027403","2021-02-14 12:00","2021","02","14","12:00","1.4","","0.4","","93","","","","10","","43","","","","100.91","","","","","","NA"
"-124.43","49.49","SISTERS ISLAND","1027403","2021-02-14 13:00","2021","02","14","13:00","1.5","","0.1","","91","","","","10","","42","","","","100.83","","","","","","NA"
"-124.43","49.49","SISTERS ISLAND","1027403","2021-02-14 14:00","2021","02","14","14:00","1.8","","-0.1","","87","","","","11","","41","","","","100.74","","","","","","NA"
"-124.43","49.49","SISTERS ISLAND","1027403","2021-02-14 15:00","2021","02","14","15:00","2.0","","0.6","","90","","","","12","","42","","","","100.67","","","","","","NA"
"-124.43","49.49","SISTERS ISLAND","1027403","2021-02-14 16:00","2021","02","14","16:00","2.2","","0.2","","87","","","","12","","44","","","","100.59","","","","","","NA"
"-124.43","49.49","SISTERS ISLAND","1027403","2021-02-14 17:00","2021","02","14","17:00","2.2","","1.0","","92","","","","11","","44","","","","100.47","","","","","","NA"
"-124.43","49.49","SISTERS ISLAND","1027403","2021-02-14 18:00","2021","02","14","18:00","2.1","","0.9","","91","","","","12","","40","","","","100.42","","","","","","NA"
"-124.43","49.49","SISTERS ISLAND","1027403","2021-02-14 19:00","2021","02","14","19:00","2.7","","1.3","","91","","","","12","","38","","","","100.40","","","","","","NA"
"-124.43","49.49","SISTERS ISLAND","1027403","2021-02-14 20:00","2021","02","14","20:00","2.7","","1.5","","91","","","","12","","34","","","","100.37","","","","","","NA"
"-124.43","49.49","SISTERS ISLAND","1027403","2021-02-14 21:00","2021","02","14","21:00","2.6","","1.5","","92","","","","13","","32","","","","100.31","","","","","","NA"
"-124.43","49.49","SISTERS ISLAND","1027403","2021-02-14 22:00","2021","02","14","22:00","2.9","","1.8","","92","","","","13","","30","","","","100.28","","","","","","NA"
"-124.43","49.49","SISTERS ISLAND","1027403","2021-02-14 23:00","2021","02","14","23:00","3.1","","1.9","","92","","","","13","","33","","","","100.15","","","","","","NA"
"-124.43","49.49","SISTERS ISLAND","1027403","2021-02-15 00:00","2021","02","15","00:00","3.2","","1.7","","90","","","","12","","34","","","","100.09","","","","","","NA"
"-124.43","49.49","SISTERS ISLAND","1027403","2021-02-15 01:00","2021","02","15","01:00","3.5","","2.3","","92","","","","13","","36","","","","100.03","","","","","","NA"
"-124.43","49.49","SISTERS ISLAND","1027403","2021-02-15 02:00","2021","02","15","02:00","3.1","","1.6","","90","","","","12","","39","","","","99.95","","","","","","NA"
"-124.43","49.49","SISTERS ISLAND","1027403","2021-02-15 03:00","2021","02","15","03:00","2.6","","1.3","","91","","","","12","","36","","","","99.89","","","","","","NA"
"-124.43","49.49","SISTERS ISLAND","1027403","2021-02-15 04:00","2021","02","15","04:00","2.9","","1.5","","90","","","","12","","43","","","","99.81","","","","","","NA"
"-124.43","49.49","SISTERS ISLAND","1027403","2021-02-15 05:00","2021","02","15","05:00","2.8","","1.5","","91","","","","12","","39","","","","99.77","","","","","","NA"
"-124.43","49.49","SISTERS ISLAND","1027403","2021-02-15 06:00","2021","02","15","06:00","2.8","","1.6","","92","","","","13","","37","","","","99.76","","","","","","NA"
"-124.43","49.49","SISTERS ISLAND","1027403","2021-02-15 07:00","2021","02","15","07:00","2.9","","1.6","","91","","","","12","","34","","","","99.73","","","","","","NA"
"-124.43","49.49","SISTERS ISLAND","1027403","2021-02-15 08:00","2021","02","15","08:00","2.7","","1.6","","93","","","","13","","29","","","","99.76","","","","","","NA"
"-124.43","49.49","SISTERS ISLAND","1027403","2021-02-15 09:00","2021","02","15","09:00","2.9","","1.7","","92","","","","13","","24","","","","99.83","","","","","","NA"
"-124.43","49.49","SISTERS ISLAND","1027403","2021-02-15 10:00","2021","02","15","10:00","2.8","","1.4","","91","","","","14","","21","","","","99.86","","","","","","NA"
"-124.43","49.49","SISTERS ISLAND","1027403","2021-02-15 11:00","2021","02","15","11:00","2.7","","1.6","","92","","","","16","","10","","","","99.93","","","","","","NA"
"-124.43","49.49","SISTERS ISLAND","1027403","2021-02-15 12:00","2021","02","15","12:00","3.0","","1.8","","92","","","","15","","2","","","","100.01","","","","","","NA"
"-124.43","49.49","SISTERS ISLAND","1027403","2021-02-15 13:00","2021","02","15","13:00","2.8","","1.8","","93","","","","33","","14","","","","100.03","","","","","","NA"
"-124.43","49.49","SISTERS ISLAND","1027403","2021-02-15 14:00","2021","02","15","14:00","3.8","","1.9","","88","","","","32","","19","","","","100.06","","","","","","NA"
"-124.43","49.49","SISTERS ISLAND","1027403","2021-02-15 15:00","2021","02","15","15:00","3.8","","1.8","","87","","","","31","","21","","","","100.10","","","","","","NA"
"-124.43","49.49","SISTERS ISLAND","1027403","2021-02-15 16:00","2021","02","15","16:00","4.0","","1.4","","83","","","","31","","25","","","","100.20","","","","","","NA"
"-124.43","49.49","SISTERS ISLAND","1027403","2021-02-15 17:00","2021","02","15","17:00","4.3","","1.9","","84","","","","30","","19","","","","100.25","","","","","","NA"
"-124.43","49.49","SISTERS ISLAND","1027403","2021-02-15 18:00","2021","02","15","18:00","4.0","","1.9","","86","","","","27","","15","","","","100.31","","","","","","NA"
"-124.43","49.49","SISTERS ISLAND","1027403","2021-02-15 19:00","2021","02","15","19:00","4.1","","1.9","","86","","","","26","","10","","","","100.38","","","","","","NA"
"-124.43","49.49","SISTERS ISLAND","1027403","2021-02-15 20:00","2021","02","15","20:00","4.2","","1.8","","85","","","","25","","12","","","","100.47","","","","","","NA"
"-124.43","49.49","SISTERS ISLAND","1027403","2021-02-15 21:00","2021","02","15","21:00","4.1","","1.9","","85","","","","27","","10","","","","100.54","","","","","","NA"
"-124.43","49.49","SISTERS ISLAND","1027403","2021-02-15 22:00","2021","02","15","22:00","5.1","","1.7","","79","","","","31","","14","","","","100.65","","","","","","NA"
"-124.43","49.49","SISTERS ISLAND","1027403","2021-02-15 23:00","2021","02","15","23:00","5.0","","2.2","","82","","","","25","","13","","","","100.74","","","","","","NA"
"-124.43","49.49","SISTERS ISLAND","1027403","2021-02-16 00:00","2021","02","16","00:00","5.0","","2.7","","85","","","","26","","11","","","","100.81","","","","","","NA"
"-124.43","49.49","SISTERS ISLAND","1027403","2021-02-16 01:00","2021","02","16","01:00","4.9","","3.3","","89","","","","25","","12","","","","100.88","","","","","","NA"
"-124.43","49.49","SISTERS ISLAND","1027403","2021-02-16 02:00","2021","02","16","02:00","4.9","","3.1","","88","","","","25","","14","","","","100.94","","","","","","NA"
"-124.43","49.49","SISTERS ISLAND","1027403","2021-02-16 03:00","2021","02","16","03:00","4.8","","3.2","","89","","","","24","","15","","","","100.99","","","","","","NA"
"-124.43","49.49","SISTERS ISLAND","1027403","2021-02-16 04:00","2021","02","16","04:00","4.7","","2.9","","88","","","","25","","12","","","","101.02","","","","","","NA"
"-124.43","49.49","SISTERS ISLAND","1027403","2021-02-16 05:00","2021","02","16","05:00","4.9","","3.5","","90","","","","26","","14","","","","101.06","","","","","","NA"
"-124.43","49.49","SISTERS ISLAND","1027403","2021-02-16 06:00","2021","02","16","06:00","5.1","","3.3","","88","","","","27","","16","","","","101.13","","","","","","NA"
"-124.43","49.49","SISTERS ISLAND","1027403","2021-02-16 07:00","2021","02","16","07:00","5.0","","2.8","","86","","","","27","","15","","","","101.17","","","","","","NA"
"-124.43","49.49","SISTERS ISLAND","1027403","2021-02-16 08:00","2021","02","16","08:00","4.5","","2.6","","87","","","","25","","17","","","","101.24","","","","","","NA"
"-124.43","49.49","SISTERS ISLAND","1027403","2021-02-16 09:00","2021","02","16","09:00","5.1","","2.8","","85","","","","26","","15","","","","101.32","","","","","","NA"
"-124.43","49.49","SISTERS ISLAND","1027403","2021-02-16 10:00","2021","02","16","10:00","6.0","","3.0","","81","","","","27","","10","","","","101.37","","","","","","NA"
"-124.43","49.49","SISTERS ISLAND","1027403","2021-02-16 11:00","2021","02","16","11:00","6.7","","3.3","","79","","","","26","","13","","","","101.43","","","","","","NA"
"-124.43","49.49","SISTERS ISLAND","1027403","2021-02-16 12:00","2021","02","16","12:00","7.6","","1.8","","67","","","","27","","14","","","","101.44","","","","","","NA"
"-124.43","49.49","SISTERS ISLAND","1027403","2021-02-16 13:00","2021","02","16","13:00","8.0","","1.9","","66","","","","29","","10","","","","101.42","","","","","","NA"
"-124.43","49.49","SISTERS ISLAND","1027403","2021-02-16 14:00","2021","02","16","14:00","7.3","","2.3","","71","","","","28","","9","","","","101.44","","","","","","NA"
"-124.43","49.49","SISTERS ISLAND","1027403","2021-02-16 15:00","2021","02","16","15:00","7.1","","2.1","","70","","","","31","","10","","","","101.45","","","","","","NA"
"-124.43","49.49","SISTERS ISLAND","1027403","2021-02-16 16:00","2021","02","16","16:00","6.8","","2.5","","74","","","","31","","14","","","","101.49","","","","","","NA"
"-124.43","49.49","SISTERS ISLAND","1027403","2021-02-16 17:00","2021","02","16","17:00","6.8","","2.9","","76","","","","28","","23","","","","101.49","","","","","","NA"
"-124.43","49.49","SISTERS ISLAND","1027403","2021-02-16 18:00","2021","02","16","18:00","6.5","","3.3","","80","","","","32","","16","","","","101.54","","","","","","NA"
"-124.43","49.49","SISTERS ISLAND","1027403","2021-02-16 19:00","2021","02","16","19:00","7.8","","0.3","","59","","","","31","","31","","","","101.58","","","","","","NA"
"-124.43","49.49","SISTERS ISLAND","1027403","2021-02-16 20:00","2021","02","16","20:00","6.5","","-0.1","","63","","","","34","","19","","","","101.65","","","","","","NA"
"-124.43","49.49","SISTERS ISLAND","1027403","2021-02-16 21:00","2021","02","16","21:00","6.5","","0.1","","64","","","","33","","36","","","","101.67","","","","","","NA"
"-124.43","49.49","SISTERS ISLAND","1027403","2021-02-16 22:00","2021","02","16","22:00","6.1","","-0.3","","63","","","","33","","46","","","","101.70","","","","","","NA"
"-124.43","49.49","SISTERS ISLAND","1027403","2021-02-16 23:00","2021","02","16","23:00","6.1","","-0.4","","63","","","","32","","52","","","","101.78","","","","","","NA"
"-124.43","49.49","SISTERS ISLAND","1027403","2021-02-17 00:00","2021","02","17","00:00","5.9","","0.2","","67","","","","33","","52","","","","101.88","","","","","","NA"
"-124.43","49.49","SISTERS ISLAND","1027403","2021-02-17 01:00","2021","02","17","01:00","5.9","","-0.1","","65","","","","33","","51","","","","101.93","","","","","","NA"
"-124.43","49.49","SISTERS ISLAND","1027403","2021-02-17 02:00","2021","02","17","02:00","5.7","","-0.4","","65","","","","32","","54","","","","102.01","","","","","","NA"
"-124.43","49.49","SISTERS ISLAND","1027403","2021-02-17 03:00","2021","02","17","03:00","5.5","","-0.2","","67","","","","32","","47","","","","102.05","","","","","","NA"
"-124.43","49.49","SISTERS ISLAND","1027403","2021-02-17 04:00","2021","02","17","04:00","5.4","","-1.0","","63","","","","32","","53","","","","102.09","","","","","","NA"
"-124.43","49.49","SISTERS ISLAND","1027403","2021-02-17 05:00","2021","02","17","05:00","5.2","","0.0","","69","","","","30","","39","","","","102.17","","","","","","NA"
"-124.43","49.49","SISTERS ISLAND","1027403","2021-02-17 06:00","2021","02","17","06:00","5.1","","-0.1","","69","","","","32","","47","","","","102.19","","","","","","NA"
"-124.43","49.49","SISTERS ISLAND","1027403","2021-02-17 07:00","2021","02","17","07:00","4.6","","-0.4","","70","","","","29","","29","","","","102.28","","","","","","NA"
"-124.43","49.49","SISTERS ISLAND","1027403","2021-02-17 08:00","2021","02","17","08:00","5.4","","0.4","","71","","","","31","","34","","","","102.37","","","","","","NA"
"-124.43","49.49","SISTERS ISLAND","1027403","2021-02-17 09:00","2021","02","17","09:00","5.6","","-0.6","","64","","","","33","","35","","","","102.45","","","","","","NA"
"-124.43","49.49","SISTERS ISLAND","1027403","2021-02-17 10:00","2021","02","17","10:00","5.7","","-1.1","","61","","","","32","","32","","","","102.53","","","","","","NA"
"-124.43","49.49","SISTERS ISLAND","1027403","2021-02-17 11:00","2021","02","17","11:00","5.8","","-1.4","","60","","","","31","","26","","","","102.55","","","","","","NA"
"-124.43","49.49","SISTERS ISLAND","1027403","2021-02-17 12:00","2021","02","17","12:00","6.0","","-1.0","","61","","","","31","","27","","","","102.55","","","","","","NA"
"-124.43","49.49","SISTERS ISLAND","1027403","2021-02-17 13:00","2021","02","17","13:00","6.4","","-0.9","","60","","","","32","","17","","","","102.50","","","","","","NA"
"-124.43","49.49","SISTERS ISLAND","1027403","2021-02-17 14:00","2021","02","17","14:00","6.9","","-0.2","","61","","","","31","","8","","","","102.51","","","","","","NA"
"-124.43","49.49","SISTERS ISLAND","1027403","2021-02-17 15:00","2021","02","17","15:00","6.7","","-0.8","","59","","","","32","","3","","","","102.51","","","","","","NA"
"-124.43","49.49","SISTERS ISLAND","1027403","2021-02-17 16:00","2021","02","17","16:00","5.3","","-0.2","","67","","","","6","","6","","","","102.48","","","","","","NA"
"-124.43","49.49","SISTERS ISLAND","1027403","2021-02-17 17:00","2021","02","17","17:00","5.4","","-0.1","","67","","","","13","","16","","","","102.48","","","","","","NA"
"-124.43","49.49","SISTERS ISLAND","1027403","2021-02-17 18:00","2021","02","17","18:00","5.1","","0.6","","73","","","","9","","18","","","","102.46","","","","","","NA"
"-124.43","49.49","SISTERS ISLAND","1027403","2021-02-17 19:00","2021","02","17","19:00","5.1","","0.4","","71","","","","12","","9","","","","102.47","","","","","","NA"
"-124.43","49.49","SISTERS ISLAND","1027403","2021-02-17 20:00","2021","02","17","20:00","5.6","","1.5","","75","","","","10","","21","","","","102.37","","","","","","NA"
"-124.43","49.49","SISTERS ISLAND","1027403","2021-02-17 21:00","2021","02","17","21:00","5.9","","1.1","","71","","","","11","","35","","","","102.34","","","","","","NA"
"-124.43","49.49","SISTERS ISLAND","1027403","2021-02-17 22:00","2021","02","17","22:00","5.6","","1.4","","74","","","","12","","40","","","","102.31","","","","","","NA"
"-124.43","49.49","SISTERS ISLAND","1027403","2021-02-17 23:00","2021","02","17","23:00","5.5","","2.2","","79","","","","13","","38","","","","102.27","","","","","","NA"
"-124.43","49.49","SISTERS ISLAND","1027403","2021-02-18 00:00","2021","02","18","00:00","5.3","","2.1","","80","","","","12","","47","","","","102.14","","","","","","NA"
"-124.43","49.49","SISTERS ISLAND","1027403","2021-02-18 01:00","2021","02","18","01:00","5.2","","2.6","","84","","","","13","","45","","","","102.11","","","","","","NA"
"-124.43","49.49","SISTERS ISLAND","1027403","2021-02-18 02:00","2021","02","18","02:00","5.0","","2.2","","82","","","","13","","42","","","","102.10","","","","","","NA"
"-124.43","49.49","SISTERS ISLAND","1027403","2021-02-18 03:00","2021","02","18","03:00","4.9","","1.4","","78","","","","13","","42","","","","102.05","","","","","","NA"
"-124.43","49.49","SISTERS ISLAND","1027403","2021-02-18 04:00","2021","02","18","04:00","4.9","","1.3","","77","","","","13","","42","","","","101.92","","","","","","NA"
"-124.43","49.49","SISTERS ISLAND","1027403","2021-02-18 05:00","2021","02","18","05:00","5.0","","0.5","","72","","","","12","","48","","","","101.77","","","","","","NA"
"-124.43","49.49","SISTERS ISLAND","1027403","2021-02-18 06:00","2021","02","18","06:00","5.1","","1.1","","75","","","","13","","40","","","","101.72","","","","","","NA"
"-124.43","49.49","SISTERS ISLAND","1027403","2021-02-18 07:00","2021","02","18","07:00","5.2","","0.3","","71","","","","14","","43","","","","101.63","","","","","","NA"
"-124.43","49.49","SISTERS ISLAND","1027403","2021-02-18 08:00","2021","02","18","08:00","5.1","","0.2","","71","","","","12","","47","","","","101.54","","","","","","NA"
"-124.43","49.49","SISTERS ISLAND","1027403","2021-02-18 09:00","2021","02","18","09:00","5.1","","0.8","","74","","","","13","","41","","","","101.51","","","","","","NA"
"-124.43","49.49","SISTERS ISLAND","1027403","2021-02-18 10:00","2021","02","18","10:00","5.1","","0.1","","70","","","","14","","45","","","","101.43","","","","","","NA"
"-124.43","49.49","SISTERS ISLAND","1027403","2021-02-18 11:00","2021","02","18","11:00","5.2","","-0.1","","69","","","","13","","43","","","","101.40","","","","","","NA"
"-124.43","49.49","SISTERS ISLAND","1027403","2021-02-18 12:00","2021","02","18","12:00","5.1","","0.6","","73","","","","12","","47","","","","101.36","","","","","","NA"
"-124.43","49.49","SISTERS ISLAND","1027403","2021-02-18 13:00","2021","02","18","13:00","5.3","","-0.1","","68","","","","11","","57","","","","101.18","","","","","","NA"
"-124.43","49.49","SISTERS ISLAND","1027403","2021-02-18 14:00","2021","02","18","14:00","4.4","","2.2","","85","","","","12","","56","","","","101.10","","","","","","NA"
"-124.43","49.49","SISTERS ISLAND","1027403","2021-02-18 15:00","2021","02","18","15:00","4.5","","1.8","","83","","","","12","","57","","","","101.01","","","","","","NA"
"-124.43","49.49","SISTERS ISLAND","1027403","2021-02-18 16:00","2021","02","18","16:00","4.6","","2.2","","85","","","","13","","50","","","","100.98","","","","","","NA"
"-124.43","49.49","SISTERS ISLAND","1027403","2021-02-18 17:00","2021","02","18","17:00","4.3","","2.3","","87","","","","13","","49","","","","100.91","","","","","","NA"
"-124.43","49.49","SISTERS ISLAND","1027403","2021-02-18 18:00","2021","02","18","18:00","4.6","","2.5","","87","","","","13","","51","","","","100.85","","","","","","NA"
"-124.43","49.49","SISTERS ISLAND","1027403","2021-02-18 19:00","2021","02","18","19:00","4.9","","2.1","","82","","","","12","","56","","","","100.83","","","","","","NA"
"-124.43","49.49","SISTERS ISLAND","1027403","2021-02-18 20:00","2021","02","18","20:00","5.0","","3.0","","87","","","","12","","50","","","","100.87","","","","","","NA"
"-124.43","49.49","SISTERS ISLAND","1027403","2021-02-18 21:00","2021","02","18","21:00","4.9","","3.0","","88","","","","12","","51","","","","100.89","","","","","","NA"
"-124.43","49.49","SISTERS ISLAND","1027403","2021-02-18 22:00","2021","02","18","22:00","5.0","","3.4","","89","","","","13","","48","","","","100.91","","","","","","NA"
"-124.43","49.49","SISTERS ISLAND","1027403","2021-02-18 23:00","2021","02","18","23:00","5.0","","3.5","","90","","","","12","","41","","","","100.97","","","","","","NA"
"-124.43","49.49","SISTERS ISLAND","1027403","2021-02-19 00:00","2021","02","19","00:00","5.1","","3.5","","89","","","","13","","34","","","","101.04","","","","","","NA"
"-124.43","49.49","SISTERS ISLAND","1027403","2021-02-19 01:00","2021","02","19","01:00","6.1","","2.7","","79","","","","14","","27","","","","101.09","","","","","","NA"
"-124.43","49.49","SISTERS ISLAND","1027403","2021-02-19 02:00","2021","02","19","02:00","6.1","","2.4","","77","","","","17","","24","","","","101.13","","","","","","NA"
"-124.43","49.49","SISTERS ISLAND","1027403","2021-02-19 03:00","2021","02","19","03:00","4.8","","3.5","","91","","","","18","","20","","","","101.15","","","","","","NA"
"-124.43","49.49","SISTERS ISLAND","1027403","2021-02-19 04:00","2021","02","19","04:00","5.3","","3.8","","90","","","","16","","20","","","","101.18","","","","","","NA"
"-124.43","49.49","SISTERS ISLAND","1027403","2021-02-19 05:00","2021","02","19","05:00","5.4","","3.6","","88","","","","12","","18","","","","101.23","","","","","","NA"
"-124.43","49.49","SISTERS ISLAND","1027403","2021-02-19 06:00","2021","02","19","06:00","5.2","","3.6","","90","","","","12","","25","","","","101.25","","","","","","NA"
"-124.43","49.49","SISTERS ISLAND","1027403","2021-02-19 07:00","2021","02","19","07:00","5.6","","3.2","","84","","","","13","","22","","","","101.24","","","","","","NA"
"-124.43","49.49","SISTERS ISLAND","1027403","2021-02-19 08:00","2021","02","19","08:00","5.4","","3.7","","89","","","","11","","30","","","","101.27","","","","","","NA"
"-124.43","49.49","SISTERS ISLAND","1027403","2021-02-19 09:00","2021","02","19","09:00","5.9","","2.1","","76","","","","12","","27","","","","101.31","","","","","","NA"
"-124.43","49.49","SISTERS ISLAND","1027403","2021-02-19 10:00","2021","02","19","10:00","6.0","","3.0","","81","","","","11","","33","","","","101.29","","","","","","NA"
"-124.43","49.49","SISTERS ISLAND","1027403","2021-02-19 11:00","2021","02","19","11:00","6.0","","3.5","","84","","","","11","","34","","","","101.33","","","","","","NA"
"-124.43","49.49","SISTERS ISLAND","1027403","2021-02-19 12:00","2021","02","19","12:00","5.9","","3.3","","83","","","","11","","39","","","","101.31","","","","","","NA"
"-124.43","49.49","SISTERS ISLAND","1027403","2021-02-19 13:00","2021","02","19","13:00","6.2","","2.7","","78","","","","11","","39","","","","101.25","","","","","","NA"
"-124.43","49.49","SISTERS ISLAND","1027403","2021-02-19 14:00","2021","02","19","14:00","6.5","","3.4","","81","","","","11","","32","","","","101.25","","","","","","NA"
"-124.43","49.49","SISTERS ISLAND","1027403","2021-02-19 15:00","2021","02","19","15:00","7.5","","1.8","","67","","","","10","","18","","","","101.24","","","","","","NA"
"-124.43","49.49","SISTERS ISLAND","1027403","2021-02-19 16:00","2021","02","19","16:00","7.1","","2.7","","74","","","","11","","26","","","","101.21","","","","","","NA"
"-124.43","49.49","SISTERS ISLAND","1027403","2021-02-19 17:00","2021","02","19","17:00","7.0","","2.4","","72","","","","11","","20","","","","101.22","","","","","","NA"
"-124.43","49.49","SISTERS ISLAND","1027403","2021-02-19 18:00","2021","02","19","18:00","6.6","","3.0","","78","","","","9","","21","","","","101.20","","","","","","NA"
"-124.43","49.49","SISTERS ISLAND","1027403","2021-02-19 19:00","2021","02","19","19:00","6.8","","3.1","","78","","","","11","","13","","","","101.28","","","","","","NA"
"-124.43","49.49","SISTERS ISLAND","1027403","2021-02-19 20:00","2021","02","19","20:00","6.5","","1.6","","71","","","","23","","20","","","","101.28","","","","","","NA"
"-124.43","49.49","SISTERS ISLAND","1027403","2021-02-19 21:00","2021","02","19","21:00","6.1","","1.0","","70","","","","22","","18","","","","101.32","","","","","","NA"
"-124.43","49.49","SISTERS ISLAND","1027403","2021-02-19 22:00","2021","02","19","22:00","5.7","","1.9","","77","","","","19","","21","","","","101.40","","","","","","NA"
"-124.43","49.49","SISTERS ISLAND","1027403","2021-02-19 23:00","2021","02","19","23:00","6.3","","1.5","","71","","","","24","","25","","","","101.42","","","","","","NA"
"-124.43","49.49","SISTERS ISLAND","1027403","2021-02-20 00:00","2021","02","20","00:00","5.9","","2.3","","78","","","","29","","16","","","","101.49","","","","","","NA"
"-124.43","49.49","SISTERS ISLAND","1027403","2021-02-20 01:00","2021","02","20","01:00","5.3","","1.8","","78","","","","26","","19","","","","101.54","","","","","","NA"
"-124.43","49.49","SISTERS ISLAND","1027403","2021-02-20 02:00","2021","02","20","02:00","5.6","","1.3","","73","","","","25","","24","","","","101.56","","","","","","NA"
"-124.43","49.49","SISTERS ISLAND","1027403","2021-02-20 03:00","2021","02","20","03:00","5.3","","1.5","","76","","","","25","","29","","","","101.57","","","","","","NA"
"-124.43","49.49","SISTERS ISLAND","1027403","2021-02-20 04:00","2021","02","20","04:00","4.8","","0.7","","75","","","","24","","35","","","","101.51","","","","","","NA"
"-124.43","49.49","SISTERS ISLAND","1027403","2021-02-20 05:00","2021","02","20","05:00","5.2","","1.1","","75","","","","24","","37","","","","101.59","","","","","","NA"
"-124.43","49.49","SISTERS ISLAND","1027403","2021-02-20 06:00","2021","02","20","06:00","5.9","","-0.1","","66","","","","24","","39","","","","101.59","","","","","","NA"
"-124.43","49.49","SISTERS ISLAND","1027403","2021-02-20 07:00","2021","02","20","07:00","5.6","","1.2","","73","","","","25","","29","","","","101.68","","","","","","NA"
"-124.43","49.49","SISTERS ISLAND","1027403","2021-02-20 08:00","2021","02","20","08:00","5.5","","1.4","","75","","","","24","","35","","","","101.70","","","","","","NA"
"-124.43","49.49","SISTERS ISLAND","1027403","2021-02-20 09:00","2021","02","20","09:00","5.5","","1.7","","77","","","","28","","24","","","","101.89","","","","","","NA"
"-124.43","49.49","SISTERS ISLAND","1027403","2021-02-20 10:00","2021","02","20","10:00","5.1","","1.6","","79","","","","25","","11","","","","101.97","","","","","","NA"
"-124.43","49.49","SISTERS ISLAND","1027403","2021-02-20 11:00","2021","02","20","11:00","5.5","","1.6","","76","","","","29","","8","","","","102.02","","","","","","NA"
"-124.43","49.49","SISTERS ISLAND","1027403","2021-02-20 12:00","2021","02","20","12:00","6.4","","1.6","","72","","","","25","","23","","","","102.05","","","","","","NA"
"-124.43","49.49","SISTERS ISLAND","1027403","2021-02-20 13:00","2021","02","20","13:00","6.7","","0.8","","66","","","","20","","13","","","","102.05","","","","","","NA"
"-124.43","49.49","SISTERS ISLAND","1027403","2021-02-20 14:00","2021","02","20","14:00","6.5","","1.3","","69","","","","23","","26","","","","102.07","","","","","","NA"
"-124.43","49.49","SISTERS ISLAND","1027403","2021-02-20 15:00","2021","02","20","15:00","6.0","","2.5","","78","","","","13","","28","","","","102.06","","","","","","NA"
"-124.43","49.49","SISTERS ISLAND","1027403","2021-02-20 16:00","2021","02","20","16:00","6.1","","2.3","","76","","","","13","","33","","","","102.05","","","","","","NA"
"-124.43","49.49","SISTERS ISLAND","1027403","2021-02-20 17:00","2021","02","20","17:00","5.9","","2.0","","76","","","","11","","36","","","","102.01","","","","","","NA"
"-124.43","49.49","SISTERS ISLAND","1027403","2021-02-20 18:00","2021","02","20","18:00","6.0","","1.9","","75","","","","10","","32","","","","102.00","","","","","","NA"
"-124.43","49.49","SISTERS ISLAND","1027403","2021-02-20 19:00","2021","02","20","19:00","6.4","","0.8","","67","","","","11","","40","","","","101.99","","","","","","NA"
"-124.43","49.49","SISTERS ISLAND","1027403","2021-02-20 20:00","2021","02","20","20:00","6.4","","2.5","","77","","","","10","","41","","","","101.98","","","","","","NA"
"-124.43","49.49","SISTERS ISLAND","1027403","2021-02-20 21:00","2021","02","20","21:00","6.5","","2.9","","78","","","","11","","46","","","","101.92","","","","","","NA"
"-124.43","49.49","SISTERS ISLAND","1027403","2021-02-20 22:00","2021","02","20","22:00","6.3","","3.1","","80","","","","10","","51","","","","101.87","","","","","","NA"
"-124.43","49.49","SISTERS ISLAND","1027403","2021-02-20 23:00","2021","02","20","23:00","6.2","","3.3","","81","","","","10","","49","","","","101.86","","","","","","NA"
"-124.43","49.49","SISTERS ISLAND","1027403","2021-02-21 00:00","2021","02","21","00:00","6.5","","3.9","","84","","","","10","","53","","","","101.77","","","","","","NA"
"-124.43","49.49","SISTERS ISLAND","1027403","2021-02-21 01:00","2021","02","21","01:00","6.0","","4.3","","89","","","","10","","55","","","","101.72","","","","","","NA"
"-124.43","49.49","SISTERS ISLAND","1027403","2021-02-21 02:00","2021","02","21","02:00","6.2","","4.3","","88","","","","10","","56","","","","101.70","","","","","","NA"
"-124.43","49.49","SISTERS ISLAND","1027403","2021-02-21 03:00","2021","02","21","03:00","6.3","","4.4","","87","","","","11","","57","","","","101.68","","","","","","NA"
"-124.43","49.49","SISTERS ISLAND","1027403","2021-02-21 04:00","2021","02","21","04:00","6.5","","4.4","","87","","","","11","","50","","","","101.68","","","","","","NA"
"-124.43","49.49","SISTERS ISLAND","1027403","2021-02-21 05:00","2021","02","21","05:00","6.6","","4.4","","86","","","","11","","43","","","","101.69","","","","","","NA"
"-124.43","49.49","SISTERS ISLAND","1027403","2021-02-21 06:00","2021","02","21","06:00","6.8","","4.3","","84","","","","12","","40","","","","101.75","","","","","","NA"
"-124.43","49.49","SISTERS ISLAND","1027403","2021-02-21 07:00","2021","02","21","07:00","6.8","","4.6","","86","","","","12","","46","","","","101.68","","","","","","NA"
"-124.43","49.49","SISTERS ISLAND","1027403","2021-02-21 08:00","2021","02","21","08:00","7.0","","4.9","","86","","","","13","","42","","","","101.71","","","","","","NA"
"-124.43","49.49","SISTERS ISLAND","1027403","2021-02-21 09:00","2021","02","21","09:00","7.3","","5.1","","86","","","","11","","42","","","","101.73","","","","","","NA"
"-124.43","49.49","SISTERS ISLAND","1027403","2021-02-21 10:00","2021","02","21","10:00","8.2","","5.0","","80","","","","13","","35","","","","101.71","","","","","","NA"
"-124.43","49.49","SISTERS ISLAND","1027403","2021-02-21 11:00","2021","02","21","11:00","9.8","","4.8","","71","","","","14","","21","","","","101.74","","","","","","NA"
"-124.43","49.49","SISTERS ISLAND","1027403","2021-02-21 12:00","2021","02","21","12:00","10.0","","5.0","","71","","","","17","","15","","","","101.78","","","","","","NA"
"-124.43","49.49","SISTERS ISLAND","1027403","2021-02-21 13:00","2021","02","21","13:00","10.9","","5.1","","68","","","","21","","31","","","","101.71","","","","","","NA"
"-124.43","49.49","SISTERS ISLAND","1027403","2021-02-21 14:00","2021","02","21","14:00","9.7","","5.3","","74","","","","14","","21","","","","101.78","","","","","","NA"
"-124.43","49.49","SISTERS ISLAND","1027403","2021-02-21 15:00","2021","02","21","15:00","9.4","","5.5","","76","","","","13","","33","","","","101.70","","","","","","NA"
"-124.43","49.49","SISTERS ISLAND","1027403","2021-02-21 16:00","2021","02","21","16:00","9.0","","5.6","","79","","","","12","","46","","","","101.47","","","","","","NA"
"-124.43","49.49","SISTERS ISLAND","1027403","2021-02-21 17:00","2021","02","21","17:00","11.0","","5.7","","70","","","","12","","25","","","","101.55","","","","","","NA"
"-124.43","49.49","SISTERS ISLAND","1027403","2021-02-21 18:00","2021","02","21","18:00","11.1","","6.0","","71","","","","20","","17","","","","101.49","","","","","","NA"
"-124.43","49.49","SISTERS ISLAND","1027403","2021-02-21 19:00","2021","02","21","19:00","11.3","","5.9","","70","","","","15","","23","","","","101.45","","","","","","NA"
"-124.43","49.49","SISTERS ISLAND","1027403","2021-02-21 20:00","2021","02","21","20:00","11.0","","5.2","","67","","","","11","","16","","","","101.32","","","","","","NA"
"-124.43","49.49","SISTERS ISLAND","1027403","2021-02-21 21:00","2021","02","21","21:00","11.8","","5.8","","67","","","","24","","7","","","","101.37","","","","","","NA"
"-124.43","49.49","SISTERS ISLAND","1027403","2021-02-21 22:00","2021","02","21","22:00","11.3","","6.5","","72","","","","21","","22","","","","101.38","","","","","","NA"
"-124.43","49.49","SISTERS ISLAND","1027403","2021-02-21 23:00","2021","02","21","23:00","9.9","","6.7","","80","","","","13","","21","","","","101.39","","","","","","NA"
"-124.43","49.49","SISTERS ISLAND","1027403","2021-02-22 00:00","2021","02","22","00:00","8.5","","6.9","","90","","","","12","","29","","","","101.43","","","","","","NA"
"-124.43","49.49","SISTERS ISLAND","1027403","2021-02-22 01:00","2021","02","22","01:00","10.2","","6.9","","80","","","","14","","19","","","","101.50","","","","","","NA"
"-124.43","49.49","SISTERS ISLAND","1027403","2021-02-22 02:00","2021","02","22","02:00","10.1","","6.5","","78","","","","18","","21","","","","101.55","","","","","","NA"
"-124.43","49.49","SISTERS ISLAND","1027403","2021-02-22 03:00","2021","02","22","03:00","7.2","","6.3","","94","","","","30","","27","","","","101.62","","","","","","NA"
"-124.43","49.49","SISTERS ISLAND","1027403","2021-02-22 04:00","2021","02","22","04:00","6.9","","6.2","","95","","","","30","","25","","","","101.67","","","","","","NA"
"-124.43","49.49","SISTERS ISLAND","1027403","2021-02-22 05:00","2021","02","22","05:00","7.5","","6.5","","93","","","","27","","18","","","","101.68","","","","","","NA"
"-124.43","49.49","SISTERS ISLAND","1027403","2021-02-22 06:00","2021","02","22","06:00","8.1","","6.5","","90","","","","27","","13","","","","101.69","","","","","","NA"
"-124.43","49.49","SISTERS ISLAND","1027403","2021-02-22 07:00","2021","02","22","07:00","8.1","","5.6","","84","","","","33","","14","","","","101.65","","","","","","NA"
"-124.43","49.49","SISTERS ISLAND","1027403","2021-02-22 08:00","2021","02","22","08:00","7.6","","5.9","","89","","","","34","","9","","","","101.63","","","","","","NA"
"-124.43","49.49","SISTERS ISLAND","1027403","2021-02-22 09:00","2021","02","22","09:00","7.3","","6.0","","91","","","","33","","8","","","","101.68","","","","","","NA"
"-124.43","49.49","SISTERS ISLAND","1027403","2021-02-22 10:00","2021","02","22","10:00","7.8","","6.1","","89","","","","29","","2","","","","101.64","","","","","","NA"
"-124.43","49.49","SISTERS ISLAND","1027403","2021-02-22 11:00","2021","02","22","11:00","8.0","","4.7","","80","","","","36","","11","","","","101.63","","","","","","NA"
"-124.43","49.49","SISTERS ISLAND","1027403","2021-02-22 12:00","2021","02","22","12:00","9.7","","2.0","","59","","","","21","","16","","","","101.53","","","","","","NA"
"-124.43","49.49","SISTERS ISLAND","1027403","2021-02-22 13:00","2021","02","22","13:00","8.9","","2.9","","66","","","","22","","37","","","","101.43","","","","","","NA"
"-124.43","49.49","SISTERS ISLAND","1027403","2021-02-22 14:00","2021","02","22","14:00","9.2","","3.0","","65","","","","22","","22","","","","101.39","","","","","","NA"
"-124.43","49.49","SISTERS ISLAND","1027403","2021-02-22 15:00","2021","02","22","15:00","9.2","","3.0","","65","","","","29","","18","","","","101.37","","","","","","NA"
"-124.43","49.49","SISTERS ISLAND","1027403","2021-02-22 16:00","2021","02","22","16:00","7.7","","4.8","","82","","","","29","","16","","","","101.40","","","","","","NA"
"-124.43","49.49","SISTERS ISLAND","1027403","2021-02-22 17:00","2021","02","22","17:00","9.2","","-0.4","","51","","","","24","","40","","","","101.38","","","","","","NA"
"-124.43","49.49","SISTERS ISLAND","1027403","2021-02-22 18:00","2021","02","22","18:00","8.4","","1.2","","60","","","","23","","45","","","","101.41","","","","","","NA"
"-124.43","49.49","SISTERS ISLAND","1027403","2021-02-22 19:00","2021","02","22","19:00","5.3","","2.6","","83","","","","35","","41","","","","101.63","","","","","","NA"
"-124.43","49.49","SISTERS ISLAND","1027403","2021-02-22 20:00","2021","02","22","20:00","6.2","","2.2","","76","","","","33","","26","","","","101.78","","","","","","NA"
"-124.43","49.49","SISTERS ISLAND","1027403","2021-02-22 21:00","2021","02","22","21:00","6.1","","1.5","","72","","","","33","","30","","","","101.86","","","","","","NA"
"-124.43","49.49","SISTERS ISLAND","1027403","2021-02-22 22:00","2021","02","22","22:00","6.0","","1.8","","75","","","","31","","26","","","","101.96","","","","","","NA"
"-124.43","49.49","SISTERS ISLAND","1027403","2021-02-22 23:00","2021","02","22","23:00","5.8","","1.0","","71","","","","33","","21","","","","102.01","","","","","","NA"
"-124.43","49.49","SISTERS ISLAND","1027403","2021-02-23 00:00","2021","02","23","00:00","5.5","","0.9","","72","","","","33","","15","","","","102.06","","","","","","NA"
"-124.43","49.49","SISTERS ISLAND","1027403","2021-02-23 01:00","2021","02","23","01:00","5.6","","1.1","","73","","","","35","","14","","","","102.12","","","","","","NA"
"-124.43","49.49","SISTERS ISLAND","1027403","2021-02-23 02:00","2021","02","23","02:00","5.5","","0.4","","70","","","","33","","7","","","","102.15","","","","","","NA"
"-124.43","49.49","SISTERS ISLAND","1027403","2021-02-23 03:00","2021","02","23","03:00","4.8","","2.1","","82","","","","8","","9","","","","102.15","","","","","","NA"
"-124.43","49.49","SISTERS ISLAND","1027403","2021-02-23 04:00","2021","02","23","04:00","5.7","","0.9","","71","","","","27","","9","","","","102.12","","","","","","NA"
"-124.43","49.49","SISTERS ISLAND","1027403","2021-02-23 05:00","2021","02","23","05:00","5.6","","0.7","","71","","","","21","","15","","","","102.09","","","","","","NA"
"-124.43","49.49","SISTERS ISLAND","1027403","2021-02-23 06:00","2021","02","23","06:00","5.9","","0.4","","68","","","","22","","28","","","","102.07","","","","","","NA"
"-124.43","49.49","SISTERS ISLAND","1027403","2021-02-23 07:00","2021","02","23","07:00","6.1","","-0.2","","64","","","","23","","28","","","","101.99","","","","","","NA"
"-124.43","49.49","SISTERS ISLAND","1027403","2021-02-23 08:00","2021","02","23","08:00","6.0","","0.4","","67","","","","21","","27","","","","102.00","","","","","","NA"
"-124.43","49.49","SISTERS ISLAND","1027403","2021-02-23 09:00","2021","02","23","09:00","6.2","","1.5","","72","","","","26","","29","","","","102.08","","","","","","NA"
"-124.43","49.49","SISTERS ISLAND","1027403","2021-02-23 10:00","2021","02","23","10:00","3.5","","1.1","","84","","","","34","","58","","","","102.18","","","","","","NA"
"-124.43","49.49","SISTERS ISLAND","1027403","2021-02-23 11:00","2021","02","23","11:00","4.1","","0.8","","79","","","","34","","19","","","","102.26","","","","","","NA"
"-124.43","49.49","SISTERS ISLAND","1027403","2021-02-23 12:00","2021","02","23","12:00","6.3","","1.2","","70","","","","29","","11","","","","102.27","","","","","","NA"
"-124.43","49.49","SISTERS ISLAND","1027403","2021-02-23 13:00","2021","02","23","13:00","5.0","","0.4","","73","","","","29","","24","","","","102.21","","","","","","NA"
"-124.43","49.49","SISTERS ISLAND","1027403","2021-02-23 14:00","2021","02","23","14:00","5.2","","1.1","","75","","","","30","","32","","","","102.16","","","","","","NA"
"-124.43","49.49","SISTERS ISLAND","1027403","2021-02-23 15:00","2021","02","23","15:00","5.9","","-0.1","","65","","","","30","","25","","","","102.20","","","","","","NA"
"-124.43","49.49","SISTERS ISLAND","1027403","2021-02-23 16:00","2021","02","23","16:00","6.2","","-1.8","","56","","","","33","","39","","","","102.17","","","","","","NA"
"-124.43","49.49","SISTERS ISLAND","1027403","2021-02-23 17:00","2021","02","23","17:00","6.8","","-2.7","","51","","","","32","","46","","","","102.17","","","","","","NA"
"-124.43","49.49","SISTERS ISLAND","1027403","2021-02-23 18:00","2021","02","23","18:00","5.9","","-4.3","","48","","","","33","","48","","","","102.23","","","","","","NA"
"-124.43","49.49","SISTERS ISLAND","1027403","2021-02-23 19:00","2021","02","23","19:00","5.9","","-3.7","","50","","","","32","","52","","","","102.29","","","","","","NA"
"-124.43","49.49","SISTERS ISLAND","1027403","2021-02-23 20:00","2021","02","23","20:00","5.4","","-1.7","","60","","","","33","","54","","","","102.38","","","","","","NA"
"-124.43","49.49","SISTERS ISLAND","1027403","2021-02-23 21:00","2021","02","23","21:00","5.2","","-1.6","","61","","","","32","","56","","","","102.43","","","","","","NA"
"-124.43","49.49","SISTERS ISLAND","1027403","2021-02-23 22:00","2021","02","23","22:00","5.1","","-1.3","","64","","","","32","","47","","","","102.57","","","","","","NA"
"-124.43","49.49","SISTERS ISLAND","1027403","2021-02-23 23:00","2021","02","23","23:00","4.9","","-0.8","","67","","","","32","","47","","","","102.65","","","","","","NA"
"-124.43","49.49","SISTERS ISLAND","1027403","2021-02-24 00:00","2021","02","24","00:00","4.7","","-1.1","","66","","","","32","","46","","","","102.74","","","","","","NA"
"-124.43","49.49","SISTERS ISLAND","1027403","2021-02-24 01:00","2021","02","24","01:00","4.6","","-0.9","","68","","","","32","","44","","","","102.87","","","","","","NA"
"-124.43","49.49","SISTERS ISLAND","1027403","2021-02-24 02:00","2021","02","24","02:00","4.4","","-0.5","","70","","","","32","","38","","","","102.99","","","","","","NA"
"-124.43","49.49","SISTERS ISLAND","1027403","2021-02-24 03:00","2021","02","24","03:00","4.3","","-0.4","","72","","","","32","","32","","","","103.06","","","","","","NA"
"-124.43","49.49","SISTERS ISLAND","1027403","2021-02-24 04:00","2021","02","24","04:00","4.2","","-0.4","","72","","","","33","","24","","","","103.08","","","","","","NA"
"-124.43","49.49","SISTERS ISLAND","1027403","2021-02-24 05:00","2021","02","24","05:00","4.0","","-0.3","","74","","","","32","","18","","","","103.13","","","","","","NA"
"-124.43","49.49","SISTERS ISLAND","1027403","2021-02-24 06:00","2021","02","24","06:00","3.5","","-0.1","","77","","","","36","","11","","","","103.19","","","","","","NA"
"-124.43","49.49","SISTERS ISLAND","1027403","2021-02-24 07:00","2021","02","24","07:00","3.6","","-0.2","","77","","","","32","","10","","","","103.20","","","","","","NA"
"-124.43","49.49","SISTERS ISLAND","1027403","2021-02-24 08:00","2021","02","24","08:00","4.0","","-0.4","","73","","","","28","","11","","","","103.23","","","","","","NA"
"-124.43","49.49","SISTERS ISLAND","1027403","2021-02-24 09:00","2021","02","24","09:00","4.2","","-0.5","","71","","","","29","","11","","","","103.31","","","","","","NA"
"-124.43","49.49","SISTERS ISLAND","1027403","2021-02-24 10:00","2021","02","24","10:00","5.6","","-0.3","","66","","","","30","","4","","","","103.33","","","","","","NA"
"-124.43","49.49","SISTERS ISLAND","1027403","2021-02-24 11:00","2021","02","24","11:00","4.6","","-0.5","","70","","","","17","","3","","","","103.31","","","","","","NA"
"-124.43","49.49","SISTERS ISLAND","1027403","2021-02-24 12:00","2021","02","24","12:00","4.2","","-0.3","","72","","","","14","","10","","","","103.31","","","","","","NA"
"-124.43","49.49","SISTERS ISLAND","1027403","2021-02-24 13:00","2021","02","24","13:00","4.2","","-0.4","","72","","","","13","","20","","","","103.22","","","","","","NA"
"-124.43","49.49","SISTERS ISLAND","1027403","2021-02-24 14:00","2021","02","24","14:00","4.4","","0.3","","74","","","","12","","23","","","","103.16","","","","","","NA"
"-124.43","49.49","SISTERS ISLAND","1027403","2021-02-24 15:00","2021","02","24","15:00","4.7","","0.4","","74","","","","12","","28","","","","103.09","","","","","","NA"
"-124.43","49.49","SISTERS ISLAND","1027403","2021-02-24 16:00","2021","02","24","16:00","4.9","","1.0","","76","","","","11","","29","","","","103.05","","","","","","NA"
"-124.43","49.49","SISTERS ISLAND","1027403","2021-02-24 17:00","2021","02","24","17:00","5.0","","1.0","","76","","","","12","","33","","","","102.92","","","","","","NA"
"-124.43","49.49","SISTERS ISLAND","1027403","2021-02-24 18:00","2021","02","24","18:00","5.3","","1.9","","79","","","","11","","40","","","","102.79","","","","","","NA"
"-124.43","49.49","SISTERS ISLAND","1027403","2021-02-24 19:00","2021","02","24","19:00","5.7","","1.6","","75","","","","12","","47","","","","102.65","","","","","","NA"
"-124.43","49.49","SISTERS ISLAND","1027403","2021-02-24 20:00","2021","02","24","20:00","5.7","","1.7","","76","","","","12","","51","","","","102.49","","","","","","NA"
"-124.43","49.49","SISTERS ISLAND","1027403","2021-02-24 21:00","2021","02","24","21:00","5.5","","2.4","","81","","","","11","","55","","","","102.29","","","","","","NA"
"-124.43","49.49","SISTERS ISLAND","1027403","2021-02-24 22:00","2021","02","24","22:00","5.3","","1.6","","77","","","","11","","63","","","","102.07","","","","","","NA"
"-124.43","49.49","SISTERS ISLAND","1027403","2021-02-24 23:00","2021","02","24","23:00","5.0","","1.9","","80","","","","11","","66","","","","101.85","","","","","","NA"
"-124.43","49.49","SISTERS ISLAND","1027403","2021-02-25 00:00","2021","02","25","00:00","4.3","","1.9","","84","","","","11","","65","","","","101.74","","","","","","NA"
"-124.43","49.49","SISTERS ISLAND","1027403","2021-02-25 01:00","2021","02","25","01:00","4.1","","2.5","","89","","","","12","","66","","","","101.51","","","","","","NA"
"-124.43","49.49","SISTERS ISLAND","1027403","2021-02-25 02:00","2021","02","25","02:00","4.2","","2.2","","87","","","","12","","58","","","","101.34","","","","","","NA"
"-124.43","49.49","SISTERS ISLAND","1027403","2021-02-25 03:00","2021","02","25","03:00","4.2","","2.0","","86","","","","12","","58","","","","101.26","","","","","","NA"
"-124.43","49.49","SISTERS ISLAND","1027403","2021-02-25 04:00","2021","02","25","04:00","4.4","","2.2","","86","","","","12","","52","","","","101.21","","","","","","NA"
"-124.43","49.49","SISTERS ISLAND","1027403","2021-02-25 05:00","2021","02","25","05:00","4.3","","2.0","","85","","","","12","","39","","","","101.24","","","","","","NA"
"-124.43","49.49","SISTERS ISLAND","1027403","2021-02-25 06:00","2021","02","25","06:00","4.6","","2.5","","86","","","","13","","35","","","","101.23","","","","","","NA"
"-124.43","49.49","SISTERS ISLAND","1027403","2021-02-25 07:00","2021","02","25","07:00","4.3","","2.5","","88","","","","14","","23","","","","101.22","","","","","","NA"
"-124.43","49.49","SISTERS ISLAND","1027403","2021-02-25 08:00","2021","02","25","08:00","5.7","","2.5","","80","","","","13","","21","","","","101.19","","","","","","NA"
"-124.43","49.49","SISTERS ISLAND","1027403","2021-02-25 09:00","2021","02","25","09:00","5.6","","2.5","","81","","","","17","","18","","","","101.20","","","","","","NA"
"-124.43","49.49","SISTERS ISLAND","1027403","2021-02-25 10:00","2021","02","25","10:00","5.9","","1.8","","75","","","","23","","36","","","","101.08","","","","","","NA"
"-124.43","49.49","SISTERS ISLAND","1027403","2021-02-25 11:00","2021","02","25","11:00","7.0","","0.9","","65","","","","24","","46","","","","101.05","","","","","","NA"
"-124.43","49.49","SISTERS ISLAND","1027403","2021-02-25 12:00","2021","02","25","12:00","7.1","","1.5","","67","","","","24","","45","","","","100.99","","","","","","NA"
"-124.43","49.49","SISTERS ISLAND","1027403","2021-02-25 13:00","2021","02","25","13:00","7.1","","1.4","","67","","","","23","","45","","","","100.98","","","","","","NA"
"-124.43","49.49","SISTERS ISLAND","1027403","2021-02-25 14:00","2021","02","25","14:00","7.7","","0.8","","62","","","","24","","38","","","","101.01","","","","","","NA"
"-124.43","49.49","SISTERS ISLAND","1027403","2021-02-25 15:00","2021","02","25","15:00","7.7","","1.0","","62","","","","25","","28","","","","101.05","","","","","","NA"
"-124.43","49.49","SISTERS ISLAND","1027403","2021-02-25 16:00","2021","02","25","16:00","8.0","","1.5","","64","","","","26","","18","","","","101.01","","","","","","NA"
"-124.43","49.49","SISTERS ISLAND","1027403","2021-02-25 17:00","2021","02","25","17:00","7.9","","1.2","","63","","","","24","","42","","","","100.95","","","","","","NA"
"-124.43","49.49","SISTERS ISLAND","1027403","2021-02-25 18:00","2021","02","25","18:00","7.4","","1.4","","66","","","","24","","40","","","","100.90","","","","","","NA"
"-124.43","49.49","SISTERS ISLAND","1027403","2021-02-25 19:00","2021","02","25","19:00","7.2","","1.7","","68","","","","24","","40","","","","100.95","","","","","","NA"
"-124.43","49.49","SISTERS ISLAND","1027403","2021-02-25 20:00","2021","02","25","20:00","7.2","","0.9","","64","","","","24","","44","","","","100.83","","","","","","NA"
"-124.43","49.49","SISTERS ISLAND","1027403","2021-02-25 21:00","2021","02","25","21:00","7.4","","0.0","","59","","","","24","","39","","","","100.80","","","","","","NA"
"-124.43","49.49","SISTERS ISLAND","1027403","2021-02-25 22:00","2021","02","25","22:00","6.9","","0.7","","65","","","","24","","36","","","","100.75","","","","","","NA"
"-124.43","49.49","SISTERS ISLAND","1027403","2021-02-25 23:00","2021","02","25","23:00","6.3","","1.0","","69","","","","25","","32","","","","100.73","","","","","","NA"
"-124.43","49.49","SISTERS ISLAND","1027403","2021-02-26 00:00","2021","02","26","00:00","6.6","","0.6","","66","","","","26","","29","","","","100.71","","","","","","NA"
"-124.43","49.49","SISTERS ISLAND","1027403","2021-02-26 01:00","2021","02","26","01:00","5.1","","1.8","","79","","","","36","","36","","","","100.71","","","","","","NA"
"-124.43","49.49","SISTERS ISLAND","1027403","2021-02-26 02:00","2021","02","26","02:00","4.7","","2.2","","84","","","","34","","31","","","","100.81","","","","","","NA"
"-124.43","49.49","SISTERS ISLAND","1027403","2021-02-26 03:00","2021","02","26","03:00","5.0","","2.5","","84","","","","32","","24","","","","100.86","","","","","","NA"
"-124.43","49.49","SISTERS ISLAND","1027403","2021-02-26 04:00","2021","02","26","04:00","5.2","","1.9","","79","","","","31","","20","","","","100.89","","","","","","NA"
"-124.43","49.49","SISTERS ISLAND","1027403","2021-02-26 05:00","2021","02","26","05:00","5.3","","1.5","","77","","","","29","","27","","","","100.95","","","","","","NA"
"-124.43","49.49","SISTERS ISLAND","1027403","2021-02-26 06:00","2021","02","26","06:00","5.4","","0.6","","71","","","","29","","28","","","","101.02","","","","","","NA"
"-124.43","49.49","SISTERS ISLAND","1027403","2021-02-26 07:00","2021","02","26","07:00","5.9","","0.9","","70","","","","32","","50","","","","101.02","","","","","","NA"
"-124.43","49.49","SISTERS ISLAND","1027403","2021-02-26 08:00","2021","02","26","08:00","6.3","","0.1","","64","","","","32","","55","","","","101.03","","","","","","NA"
"-124.43","49.49","SISTERS ISLAND","1027403","2021-02-26 09:00","2021","02","26","09:00","6.7","","0.8","","66","","","","32","","47","","","","101.13","","","","","","NA"
"-124.43","49.49","SISTERS ISLAND","1027403","2021-02-26 10:00","2021","02","26","10:00","6.9","","1.3","","68","","","","33","","45","","","","101.19","","","","","","NA"
"-124.43","49.49","SISTERS ISLAND","1027403","2021-02-26 11:00","2021","02","26","11:00","7.3","","-0.2","","59","","","","32","","59","","","","101.16","","","","","","NA"
"-124.43","49.49","SISTERS ISLAND","1027403","2021-02-26 12:00","2021","02","26","12:00","7.4","","0.0","","59","","","","33","","54","","","","101.16","","","","","","NA"
"-124.43","49.49","SISTERS ISLAND","1027403","2021-02-26 13:00","2021","02","26","13:00","7.8","","-0.1","","57","","","","34","","43","","","","101.14","","","","","","NA"
"-124.43","49.49","SISTERS ISLAND","1027403","2021-02-26 14:00","2021","02","26","14:00","8.2","","-1.4","","51","","","","33","","54","","","","101.09","","","","","","NA"
"-124.43","49.49","SISTERS ISLAND","1027403","2021-02-26 15:00","2021","02","26","15:00","8.0","","-1.7","","50","","","","33","","62","","","","101.03","","","","","","NA"
"-124.43","49.49","SISTERS ISLAND","1027403","2021-02-26 16:00","2021","02","26","16:00","7.8","","-0.7","","55","","","","32","","64","","","","101.00","","","","","","NA"
"-124.43","49.49","SISTERS ISLAND","1027403","2021-02-26 17:00","2021","02","26","17:00","7.5","","-0.1","","58","","","","32","","56","","","","101.04","","","","","","NA"
"-124.43","49.49","SISTERS ISLAND","1027403","2021-02-26 18:00","2021","02","26","18:00","7.3","","-0.8","","56","","","","31","","70","","","","101.03","","","","","","NA"
"-124.43","49.49","SISTERS ISLAND","1027403","2021-02-26 19:00","2021","02","26","19:00","7.1","","-1.0","","56","","","","32","","67","","","","101.10","","","","","","NA"
"-124.43","49.49","SISTERS ISLAND","1027403","2021-02-26 20:00","2021","02","26","20:00","6.8","","-1.4","","56","","","","32","","62","","","","101.18","","","","","","NA"
"-124.43","49.49","SISTERS ISLAND","1027403","2021-02-26 21:00","2021","02","26","21:00","6.4","","-0.1","","63","","","","32","","53","","","","101.29","","","","","","NA"
"-124.43","49.49","SISTERS ISLAND","1027403","2021-02-26 22:00","2021","02","26","22:00","6.3","","0.3","","66","","","","32","","56","","","","101.35","","","","","","NA"
"-124.43","49.49","SISTERS ISLAND","1027403","2021-02-26 23:00","2021","02","26","23:00","6.3","","1.3","","70","","","","32","","57","","","","101.43","","","","","","NA"
"-124.43","49.49","SISTERS ISLAND","1027403","2021-02-27 00:00","2021","02","27","00:00","6.1","","0.4","","67","","","","33","","60","","","","101.45","","","","","","NA"
"-124.43","49.49","SISTERS ISLAND","1027403","2021-02-27 01:00","2021","02","27","01:00","6.0","","0.4","","68","","","","33","","53","","","","101.56","","","","","","NA"
"-124.43","49.49","SISTERS ISLAND","1027403","2021-02-27 02:00","2021","02","27","02:00","5.9","","0.1","","66","","","","32","","47","","","","101.65","","","","","","NA"
"-124.43","49.49","SISTERS ISLAND","1027403","2021-02-27 03:00","2021","02","27","03:00","5.7","","0.1","","67","","","","31","","46","","","","101.70","","","","","","NA"
"-124.43","49.49","SISTERS ISLAND","1027403","2021-02-27 04:00","2021","02","27","04:00","5.6","","-0.8","","64","","","","31","","45","","","","101.76","","","","","","NA"
"-124.43","49.49","SISTERS ISLAND","1027403","2021-02-27 05:00","2021","02","27","05:00","5.4","","-0.3","","67","","","","31","","38","","","","101.85","","","","","","NA"
"-124.43","49.49","SISTERS ISLAND","1027403","2021-02-27 06:00","2021","02","27","06:00","5.2","","0.3","","70","","","","31","","32","","","","101.90","","","","","","NA"
"-124.43","49.49","SISTERS ISLAND","1027403","2021-02-27 07:00","2021","02","27","07:00","5.1","","-0.2","","69","","","","31","","28","","","","101.96","","","","","","NA"
"-124.43","49.49","SISTERS ISLAND","1027403","2021-02-27 08:00","2021","02","27","08:00","5.2","","0.4","","71","","","","33","","26","","","","102.01","","","","","","NA"
"-124.43","49.49","SISTERS ISLAND","1027403","2021-02-27 09:00","2021","02","27","09:00","5.3","","-0.2","","68","","","","31","","19","","","","102.08","","","","","","NA"
"-124.43","49.49","SISTERS ISLAND","1027403","2021-02-27 10:00","2021","02","27","10:00","6.1","","-0.5","","62","","","","28","","14","","","","102.11","","","","","","NA"
"-124.43","49.49","SISTERS ISLAND","1027403","2021-02-27 11:00","2021","02","27","11:00","5.5","","-0.5","","65","","","","28","","11","","","","102.15","","","","","","NA"
"-124.43","49.49","SISTERS ISLAND","1027403","2021-02-27 12:00","2021","02","27","12:00","5.5","","-0.4","","66","","","","30","","14","","","","102.17","","","","","","NA"
"-124.43","49.49","SISTERS ISLAND","1027403","2021-02-27 13:00","2021","02","27","13:00","6.4","","-0.2","","63","","","","30","","6","","","","102.17","","","","","","NA"
"-124.43","49.49","SISTERS ISLAND","1027403","2021-02-27 14:00","2021","02","27","14:00","5.8","","-0.3","","65","","","","30","","9","","","","102.16","","","","","","NA"
"-124.43","49.49","SISTERS ISLAND","1027403","2021-02-27 15:00","2021","02","27","15:00","6.0","","-0.1","","65","","","","33","","6","","","","102.18","","","","","","NA"
"-124.43","49.49","SISTERS ISLAND","1027403","2021-02-27 16:00","2021","02","27","16:00","5.5","","-0.3","","66","","","","3","","4","","","","102.16","","","","","","NA"
"-124.43","49.49","SISTERS ISLAND","1027403","2021-02-27 17:00","2021","02","27","17:00","5.6","","0.2","","68","","","","12","","6","","","","102.17","","","","","","NA"
"-124.43","49.49","SISTERS ISLAND","1027403","2021-02-27 18:00","2021","02","27","18:00","5.5","","-0.3","","66","","","","15","","8","","","","102.17","","","","","","NA"
"-124.43","49.49","SISTERS ISLAND","1027403","2021-02-27 19:00","2021","02","27","19:00","4.9","","0.3","","72","","","","14","","12","","","","102.17","","","","","","NA"
"-124.43","49.49","SISTERS ISLAND","1027403","2021-02-27 20:00","2021","02","27","20:00","4.9","","1.1","","76","","","","10","","15","","","","102.17","","","","","","NA"
"-124.43","49.49","SISTERS ISLAND","1027403","2021-02-27 21:00","2021","02","27","21:00","4.8","","1.8","","81","","","","12","","27","","","","102.15","","","","","","NA"
"-124.43","49.49","SISTERS ISLAND","1027403","2021-02-27 22:00","2021","02","27","22:00","4.9","","1.9","","81","","","","12","","31","","","","102.12","","","","","","NA"
"-124.43","49.49","SISTERS ISLAND","1027403","2021-02-27 23:00","2021","02","27","23:00","4.9","","2.1","","83","","","","11","","30","","","","102.13","","","","","","NA"
"-124.43","49.49","SISTERS ISLAND","1027403","2021-02-28 00:00","2021","02","28","00:00","4.7","","2.0","","83","","","","11","","33","","","","102.07","","","","","","NA"
"-124.43","49.49","SISTERS ISLAND","1027403","2021-02-28 01:00","2021","02","28","01:00","4.8","","2.4","","84","","","","11","","32","","","","102.06","","","","","","NA"
"-124.43","49.49","SISTERS ISLAND","1027403","2021-02-28 02:00","2021","02","28","02:00","4.8","","2.3","","84","","","","11","","37","","","","102.06","","","","","","NA"
"-124.43","49.49","SISTERS ISLAND","1027403","2021-02-28 03:00","2021","02","28","03:00","4.7","","2.3","","84","","","","11","","38","","","","102.06","","","","","","NA"
"-124.43","49.49","SISTERS ISLAND","1027403","2021-02-28 04:00","2021","02","28","04:00","4.8","","3.1","","88","","","","11","","36","","","","102.07","","","","","","NA"
"-124.43","49.49","SISTERS ISLAND","1027403","2021-02-28 05:00","2021","02","28","05:00","4.8","","3.5","","91","","","","12","","32","","","","102.10","","","","","","NA"
"-124.43","49.49","SISTERS ISLAND","1027403","2021-02-28 06:00","2021","02","28","06:00","5.0","","3.8","","92","","","","12","","40","","","","102.06","","","","","","NA"
"-124.43","49.49","SISTERS ISLAND","1027403","2021-02-28 07:00","2021","02","28","07:00","5.0","","3.8","","92","","","","12","","42","","","","102.05","","","","","","NA"
"-124.43","49.49","SISTERS ISLAND","1027403","2021-02-28 08:00","2021","02","28","08:00","5.3","","4.0","","91","","","","12","","40","","","","102.09","","","","","","NA"
"-124.43","49.49","SISTERS ISLAND","1027403","2021-02-28 09:00","2021","02","28","09:00","5.5","","4.1","","91","","","","11","","43","","","","102.12","","","","","","NA"
"-124.43","49.49","SISTERS ISLAND","1027403","2021-02-28 10:00","2021","02","28","10:00","5.6","","4.2","","90","","","","10","","50","","","","102.09","","","","","","NA"
"-124.43","49.49","SISTERS ISLAND","1027403","2021-02-28 11:00","2021","02","28","11:00","5.6","","4.2","","91","","","","11","","53","","","","102.04","","","","","","NA"
"-124.43","49.49","SISTERS ISLAND","1027403","2021-02-28 12:00","2021","02","28","12:00","5.8","","4.4","","91","","","","11","","52","","","","102.02","","","","","","NA"
"-124.43","49.49","SISTERS ISLAND","1027403","2021-02-28 13:00","2021","02","28","13:00","5.9","","4.3","","90","","","","11","","59","","","","101.88","","","","","","NA"
"-124.43","49.49","SISTERS ISLAND","1027403","2021-02-28 14:00","2021","02","28","14:00","6.2","","4.6","","90","","","","11","","57","","","","101.83","","","","","","NA"
"-124.43","49.49","SISTERS ISLAND","1027403","2021-02-28 15:00","2021","02","28","15:00","6.4","","4.9","","91","","","","11","","60","","","","101.77","","","","","","NA"
"-124.43","49.49","SISTERS ISLAND","1027403","2021-02-28 16:00","2021","02","28","16:00","6.5","","5.2","","92","","","","11","","58","","","","101.74","","","","","","NA"
"-124.43","49.49","SISTERS ISLAND","1027403","2021-02-28 17:00","2021","02","28","17:00","6.7","","5.3","","91","","","","11","","56","","","","101.68","","","","","","NA"
"-124.43","49.49","SISTERS ISLAND","1027403","2021-02-28 18:00","2021","02","28","18:00","6.9","","5.6","","91","","","","11","","55","","","","101.61","","","","","","NA"
"-124.43","49.49","SISTERS ISLAND","1027403","2021-02-28 19:00","2021","02","28","19:00","7.1","","5.5","","90","","","","11","","54","","","","101.54","","","","","","NA"
"-124.43","49.49","SISTERS ISLAND","1027403","2021-02-28 20:00","2021","02","28","20:00","7.2","","5.7","","90","","","","11","","55","","","","101.49","","","","","","NA"
"-124.43","49.49","SISTERS ISLAND","1027403","2021-02-28 21:00","2021","02","28","21:00","7.5","","5.6","","88","","","","11","","60","","","","101.41","","","","","","NA"
"-124.43","49.49","SISTERS ISLAND","1027403","2021-02-28 22:00","2021","02","28","22:00","7.5","","5.6","","88","","","","11","","53","","","","101.46","","","","","","NA"
"-124.43","49.49","SISTERS ISLAND","1027403","2021-02-28 23:00","2021","02","28","23:00","7.4","","5.7","","89","","","","11","","45","","","","101.46","","","","","","NA"
