"Longitude (x)","Latitude (y)","Station Name","Climate ID","Date/Time (LST)","Year","Month","Day","Time (LST)","Temp (°C)","Temp Flag","Dew Point Temp (°C)","Dew Point Temp Flag","Rel Hum (%)","Rel Hum Flag","Precip. Amount (mm)","Precip. Amount Flag","Wind Dir (10s deg)","Wind Dir Flag","Wind Spd (km/h)","Wind Spd Flag","Visibility (km)","Visibility Flag","Stn Press (kPa)","Stn Press Flag","Hmdx","Hmdx Flag","Wind Chill","Wind Chill Flag","Weather"
"-94.07","61.09","ARVIAT A","2300427","2022-02-01 00:00","2022","02","01","00:00","-30.3","","-34.0","","71","","0.0","","32","","17","","16.1","","101.12","","","","-43","","NA"
"-94.07","61.09","ARVIAT A","2300427","2022-02-01 01:00","2022","02","01","01:00","-30.0","","-33.7","","71","","0.0","","33","","28","","16.1","","101.12","","","","-45","","NA"
"-94.07","61.09","ARVIAT A","2300427","2022-02-01 02:00","2022","02","01","02:00","-30.7","","-34.4","","71","","0.0","","33","","32","","16.1","","101.12","","","","-47","","NA"
"-94.07","61.09","ARVIAT A","2300427","2022-02-01 03:00","2022","02","01","03:00","-31.3","","-34.8","","72","","0.0","","34","","24","","16.1","","101.22","","","","-46","","NA"
"-94.07","61.09","ARVIAT A","2300427","2022-02-01 04:00","2022","02","01","04:00","-29.9","","-33.6","","71","","0.0","","34","","32","","16.1","","101.26","","","","-46","","NA"
"-94.07","61.09","ARVIAT A","2300427","2022-02-01 05:00","2022","02","01","05:00","-30.8","","-34.5","","71","","0.0","","34","","37","","6.4","","101.32","","","","-48","","Haze"
"-94.07","61.09","ARVIAT A","2300427","2022-02-01 06:00","2022","02","01","06:00","-32.2","","-35.9","","70","","0.0","","34","","39","","2.4","","101.34","","","","-50","","Snow"
"-94.07","61.09","ARVIAT A","2300427","2022-02-01 07:00","2022","02","01","07:00","-32.1","","-36.0","","69","","0.0","","34","","37","","2.4","","101.41","","","","-50","","Haze"
"-94.07","61.09","ARVIAT A","2300427","2022-02-01 08:00","2022","02","01","08:00","-33.6","","-37.6","","68","","0.0","","34","","37","","2.0","","101.45","","","","-52","","Haze"
"-94.07","61.09","ARVIAT A","2300427","2022-02-01 09:00","2022","02","01","09:00","-34.7","","-38.8","","67","","0.0","","34","","39","","2.8","","101.46","","","","-54","","Haze"
"-94.07","61.09","ARVIAT A","2300427","2022-02-01 10:00","2022","02","01","10:00","-35.4","","-39.7","","66","","0.0","","33","","34","","3.6","","101.48","","","","-54","","Haze"
"-94.07","61.09","ARVIAT A","2300427","2022-02-01 11:00","2022","02","01","11:00","-34.2","","-38.7","","65","","0.0","","33","","34","","4.8","","101.51","","","","-52","","Haze"
"-94.07","61.09","ARVIAT A","2300427","2022-02-01 12:00","2022","02","01","12:00","-34.1","","-38.7","","64","","0.0","","33","","32","","8.1","","101.52","","","","-51","","Haze"
"-94.07","61.09","ARVIAT A","2300427","2022-02-01 13:00","2022","02","01","13:00","-34.5","","-39.1","","64","","0.0","","33","","32","","9.7","","101.49","","","","-52","","Haze"
"-94.07","61.09","ARVIAT A","2300427","2022-02-01 14:00","2022","02","01","14:00","-34.5","","-39.1","","64","","0.0","","33","","32","","11.3","","101.46","","","","-52","","NA"
"-94.07","61.09","ARVIAT A","2300427","2022-02-01 15:00","2022","02","01","15:00","-33.5","","-38.0","","65","","0.0","","32","","34","","6.4","","101.43","","","","-51","","Haze"
"-94.07","61.09","ARVIAT A","2300427","2022-02-01 16:00","2022","02","01","16:00","-34.1","","-38.7","","64","","0.0","","32","","30","","16.1","","101.43","","","","-51","","NA"
"-94.07","61.09","ARVIAT A","2300427","2022-02-01 17:00","2022","02","01","17:00","-35.4","","-39.8","","65","","0.0","","31","","21","","16.1","","101.43","","","","-50","","NA"
"-94.07","61.09","ARVIAT A","2300427","2022-02-01 18:00","2022","02","01","18:00","-35.2","","-39.6","","65","","0.0","","31","","21","","16.1","","101.40","","","","-50","","NA"
"-94.07","61.09","ARVIAT A","2300427","2022-02-01 19:00","2022","02","01","19:00","-34.5","","-39.0","","65","","0.0","","30","","22","","16.1","","101.37","","","","-49","","NA"
"-94.07","61.09","ARVIAT A","2300427","2022-02-01 20:00","2022","02","01","20:00","-34.9","","-39.3","","65","","0.0","","29","","18","","16.1","","101.32","","","","-49","","NA"
"-94.07","61.09","ARVIAT A","2300427","2022-02-01 21:00","2022","02","01","21:00","-35.4","","-39.7","","66","","0.0","","30","","24","","16.1","","101.27","","","","-51","","NA"
"-94.07","61.09","ARVIAT A","2300427","2022-02-01 22:00","2022","02","01","22:00","-35.9","","-40.0","","67","","0.0","","30","","21","","16.1","","101.23","","","","-51","","NA"
"-94.07","61.09","ARVIAT A","2300427","2022-02-01 23:00","2022","02","01","23:00","-35.7","","-40.0","","66","","0.0","","33","","21","","16.1","","101.18","","","","-51","","NA"
"-94.07","61.09","ARVIAT A","2300427","2022-02-02 00:00","2022","02","02","00:00","-36.3","","-40.8","","64","","0.0","","33","","26","","16.1","","101.16","","","","-53","","NA"
"-94.07","61.09","ARVIAT A","2300427","2022-02-02 01:00","2022","02","02","01:00","-37.1","","-41.6","","64","","0.0","","33","","22","","16.1","","101.10","","","","-53","","NA"
"-94.07","61.09","ARVIAT A","2300427","2022-02-02 02:00","2022","02","02","02:00","-37.7","","-42.0","","65","","0.0","","33","","26","","16.1","","101.09","","","","-55","","NA"
"-94.07","61.09","ARVIAT A","2300427","2022-02-02 03:00","2022","02","02","03:00","-37.7","","-42.0","","65","","0.0","","33","","32","","16.1","","101.08","","","","-56","","NA"
"-94.07","61.09","ARVIAT A","2300427","2022-02-02 04:00","2022","02","02","04:00","-36.9","","-41.1","","66","","0.0","","33","","34","","4.8","","101.04","","","","-56","","Haze"
"-94.07","61.09","ARVIAT A","2300427","2022-02-02 05:00","2022","02","02","05:00","-34.9","","-38.9","","68","","0.0","","33","","37","","2.0","","101.06","","","","-53","","Haze"
"-94.07","61.09","ARVIAT A","2300427","2022-02-02 06:00","2022","02","02","06:00","-33.5","","-37.4","","69","","0.0","","33","","41","","0.8","","101.08","","","","-52","","Moderate Snow,Blowing Snow"
"-94.07","61.09","ARVIAT A","2300427","2022-02-02 07:00","2022","02","02","07:00","-32.7","","-36.3","","71","","0.0","","34","","41","","0.6","","101.05","","","","-51","","Moderate Snow,Blowing Snow"
"-94.07","61.09","ARVIAT A","2300427","2022-02-02 08:00","2022","02","02","08:00","-32.3","","-35.9","","71","","","M","34","","54","","0.2","","101.06","","","","-53","","Heavy Snow,Blowing Snow"
"-94.07","61.09","ARVIAT A","2300427","2022-02-02 09:00","2022","02","02","09:00","-31.4","","-35.0","","71","","","M","33","","46","","0.2","","101.08","","","","-50","","Heavy Snow,Blowing Snow"
"-94.07","61.09","ARVIAT A","2300427","2022-02-02 10:00","2022","02","02","10:00","-31.6","","-35.2","","71","","","M","34","","65","","0.0","","101.02","","","","-53","","Heavy Snow,Blowing Snow"
"-94.07","61.09","ARVIAT A","2300427","2022-02-02 11:00","2022","02","02","11:00","-32.3","","-35.9","","71","","","M","34","","61","","0.0","","101.07","","","","-54","","Heavy Snow,Blowing Snow"
"-94.07","61.09","ARVIAT A","2300427","2022-02-02 12:00","2022","02","02","12:00","-32.3","","-35.9","","71","","","M","33","","55","","0.0","","101.11","","","","-53","","Heavy Snow,Blowing Snow"
"-94.07","61.09","ARVIAT A","2300427","2022-02-02 13:00","2022","02","02","13:00","-31.7","","-35.5","","70","","","M","33","","65","","0.0","","101.12","","","","-53","","Heavy Snow,Blowing Snow"
"-94.07","61.09","ARVIAT A","2300427","2022-02-02 14:00","2022","02","02","14:00","-32.0","","-35.8","","70","","","M","33","","54","","0.0","","101.21","","","","-52","","Heavy Snow,Blowing Snow"
"-94.07","61.09","ARVIAT A","2300427","2022-02-02 15:00","2022","02","02","15:00","-32.7","","-36.5","","70","","","M","33","","55","","0.0","","101.25","","","","-53","","Heavy Snow,Blowing Snow"
"-94.07","61.09","ARVIAT A","2300427","2022-02-02 16:00","2022","02","02","16:00","-31.6","","-35.4","","70","","","M","33","","54","","0.0","","101.31","","","","-52","","Heavy Snow,Blowing Snow"
"-94.07","61.09","ARVIAT A","2300427","2022-02-02 17:00","2022","02","02","17:00","-32.3","","-36.1","","70","","","M","33","","46","","0.0","","101.37","","","","-52","","Heavy Snow,Blowing Snow"
"-94.07","61.09","ARVIAT A","2300427","2022-02-02 18:00","2022","02","02","18:00","-33.0","","-36.7","","70","","0.2","","33","","43","","0.2","","101.44","","","","-52","","Heavy Snow,Blowing Snow"
"-94.07","61.09","ARVIAT A","2300427","2022-02-02 19:00","2022","02","02","19:00","-32.2","","-36.0","","70","","0.1","","32","","48","","0.8","","101.44","","","","-52","","Moderate Snow,Blowing Snow"
"-94.07","61.09","ARVIAT A","2300427","2022-02-02 20:00","2022","02","02","20:00","-32.2","","-36.0","","70","","0.1","","32","","45","","0.6","","101.45","","","","-51","","Moderate Snow,Blowing Snow"
"-94.07","61.09","ARVIAT A","2300427","2022-02-02 21:00","2022","02","02","21:00","-32.7","","-36.5","","70","","0.0","","32","","45","","1.0","","101.46","","","","-52","","Snow,Blowing Snow"
"-94.07","61.09","ARVIAT A","2300427","2022-02-02 22:00","2022","02","02","22:00","-33.0","","-36.7","","70","","0.1","","32","","50","","0.8","","101.40","","","","-53","","Moderate Snow,Blowing Snow"
"-94.07","61.09","ARVIAT A","2300427","2022-02-02 23:00","2022","02","02","23:00","-32.0","","-35.8","","70","","0.0","","32","","37","","1.2","","101.46","","","","-50","","Snow"
"-94.07","61.09","ARVIAT A","2300427","2022-02-03 00:00","2022","02","03","00:00","-32.4","","-36.2","","70","","0.0","","32","","35","","2.4","","101.49","","","","-50","","Haze"
"-94.07","61.09","ARVIAT A","2300427","2022-02-03 01:00","2022","02","03","01:00","-33.3","","-37.2","","69","","0.0","","32","","30","","4.8","","101.48","","","","-50","","Haze"
"-94.07","61.09","ARVIAT A","2300427","2022-02-03 02:00","2022","02","03","02:00","-32.9","","-37.0","","68","","0.0","","31","","26","","6.4","","101.48","","","","-48","","Haze"
"-94.07","61.09","ARVIAT A","2300427","2022-02-03 03:00","2022","02","03","03:00","-32.1","","-36.2","","68","","0.0","","29","","22","","16.1","","101.47","","","","-46","","NA"
"-94.07","61.09","ARVIAT A","2300427","2022-02-03 04:00","2022","02","03","04:00","-32.8","","-37.0","","67","","0.0","","29","","26","","16.1","","101.45","","","","-48","","NA"
"-94.07","61.09","ARVIAT A","2300427","2022-02-03 05:00","2022","02","03","05:00","-33.2","","-37.2","","68","","0.0","","29","","24","","14.5","","101.44","","","","-48","","NA"
"-94.07","61.09","ARVIAT A","2300427","2022-02-03 06:00","2022","02","03","06:00","-32.6","","-37.0","","66","","0.0","","30","","22","","16.1","","101.47","","","","-47","","NA"
"-94.07","61.09","ARVIAT A","2300427","2022-02-03 07:00","2022","02","03","07:00","-33.1","","-37.5","","66","","0.0","","28","","11","","16.1","","101.48","","","","-43","","NA"
"-94.07","61.09","ARVIAT A","2300427","2022-02-03 08:00","2022","02","03","08:00","-34.7","","-39.0","","66","","0.0","","27","","22","","16.1","","101.41","","","","-50","","NA"
"-94.07","61.09","ARVIAT A","2300427","2022-02-03 09:00","2022","02","03","09:00","-34.0","","-38.3","","66","","0.0","","28","","11","","12.9","","101.39","","","","-44","","NA"
"-94.07","61.09","ARVIAT A","2300427","2022-02-03 10:00","2022","02","03","10:00","-32.0","","-36.2","","67","","0.0","","29","","24","","16.1","","101.35","","","","-47","","NA"
"-94.07","61.09","ARVIAT A","2300427","2022-02-03 11:00","2022","02","03","11:00","-31.8","","-35.7","","69","","0.0","","31","","21","","4.0","","101.39","","","","-46","","Haze"
"-94.07","61.09","ARVIAT A","2300427","2022-02-03 12:00","2022","02","03","12:00","-30.6","","-34.4","","70","","0.0","","31","","26","","1.6","","101.38","","","","-45","","Snow"
"-94.07","61.09","ARVIAT A","2300427","2022-02-03 13:00","2022","02","03","13:00","-31.0","","-35.1","","68","","0.0","","30","","26","","4.8","","101.36","","","","-46","","Haze"
"-94.07","61.09","ARVIAT A","2300427","2022-02-03 14:00","2022","02","03","14:00","-31.7","","-35.8","","68","","0.0","","30","","30","","2.0","","101.40","","","","-48","","Haze"
"-94.07","61.09","ARVIAT A","2300427","2022-02-03 15:00","2022","02","03","15:00","-30.4","","-34.5","","68","","0.0","","30","","35","","2.0","","101.42","","","","-47","","Haze"
"-94.07","61.09","ARVIAT A","2300427","2022-02-03 16:00","2022","02","03","16:00","-31.9","","-36.0","","68","","0.0","","30","","34","","6.4","","101.46","","","","-49","","Haze"
"-94.07","61.09","ARVIAT A","2300427","2022-02-03 17:00","2022","02","03","17:00","-31.0","","-35.0","","69","","0.0","","30","","32","","4.8","","101.53","","","","-47","","Haze"
"-94.07","61.09","ARVIAT A","2300427","2022-02-03 18:00","2022","02","03","18:00","-32.0","","-35.9","","69","","0.0","","30","","35","","4.8","","101.58","","","","-49","","Haze"
"-94.07","61.09","ARVIAT A","2300427","2022-02-03 19:00","2022","02","03","19:00","-32.9","","-36.8","","69","","0.0","","30","","32","","4.8","","101.66","","","","-50","","Haze"
"-94.07","61.09","ARVIAT A","2300427","2022-02-03 20:00","2022","02","03","20:00","-31.9","","-36.0","","68","","0.0","","30","","32","","3.6","","101.66","","","","-49","","Haze"
"-94.07","61.09","ARVIAT A","2300427","2022-02-03 21:00","2022","02","03","21:00","-32.5","","-36.6","","68","","0.0","","30","","35","","8.1","","101.69","","","","-50","","Haze"
"-94.07","61.09","ARVIAT A","2300427","2022-02-03 22:00","2022","02","03","22:00","-33.3","","-37.5","","67","","0.0","","29","","28","","11.3","","101.69","","","","-49","","NA"
"-94.07","61.09","ARVIAT A","2300427","2022-02-03 23:00","2022","02","03","23:00","-33.7","","-37.9","","67","","0.0","","29","","26","","16.1","","101.73","","","","-49","","NA"
"-94.07","61.09","ARVIAT A","2300427","2022-02-04 00:00","2022","02","04","00:00","-32.6","","-36.7","","68","","0.0","","30","","28","","9.7","","101.72","","","","-49","","Haze"
"-94.07","61.09","ARVIAT A","2300427","2022-02-04 01:00","2022","02","04","01:00","-32.9","","-37.1","","67","","0.0","","29","","28","","9.7","","101.69","","","","-49","","Haze"
"-94.07","61.09","ARVIAT A","2300427","2022-02-04 02:00","2022","02","04","02:00","-33.7","","-37.9","","67","","0.0","","29","","30","","11.3","","101.69","","","","-50","","NA"
"-94.07","61.09","ARVIAT A","2300427","2022-02-04 03:00","2022","02","04","03:00","-33.5","","-37.8","","66","","0.0","","28","","22","","16.1","","101.68","","","","-48","","NA"
"-94.07","61.09","ARVIAT A","2300427","2022-02-04 04:00","2022","02","04","04:00","-33.6","","-37.9","","66","","0.0","","26","","22","","16.1","","101.66","","","","-48","","NA"
"-94.07","61.09","ARVIAT A","2300427","2022-02-04 05:00","2022","02","04","05:00","-33.4","","-37.7","","66","","0.0","","27","","26","","14.5","","101.60","","","","-49","","NA"
"-94.07","61.09","ARVIAT A","2300427","2022-02-04 06:00","2022","02","04","06:00","-34.8","","-39.1","","66","","0.0","","27","","24","","16.1","","101.54","","","","-50","","NA"
"-94.07","61.09","ARVIAT A","2300427","2022-02-04 07:00","2022","02","04","07:00","-32.9","","-37.1","","67","","0.0","","28","","22","","16.1","","101.49","","","","-47","","NA"
"-94.07","61.09","ARVIAT A","2300427","2022-02-04 08:00","2022","02","04","08:00","-32.0","","-35.9","","69","","0.0","","28","","28","","9.7","","101.45","","","","-48","","Haze"
"-94.07","61.09","ARVIAT A","2300427","2022-02-04 09:00","2022","02","04","09:00","-32.2","","-36.0","","70","","0.0","","28","","32","","2.8","","101.41","","","","-49","","Snow"
"-94.07","61.09","ARVIAT A","2300427","2022-02-04 10:00","2022","02","04","10:00","-31.1","","-34.6","","72","","0.0","","30","","43","","1.0","","101.40","","","","-49","","Snow,Blowing Snow"
"-94.07","61.09","ARVIAT A","2300427","2022-02-04 11:00","2022","02","04","11:00","-30.5","","-34.2","","71","","0.0","","30","","35","","1.6","","101.45","","","","-47","","Haze"
"-94.07","61.09","ARVIAT A","2300427","2022-02-04 12:00","2022","02","04","12:00","-30.9","","-34.7","","70","","0.0","","31","","37","","3.6","","101.54","","","","-48","","Haze"
"-94.07","61.09","ARVIAT A","2300427","2022-02-04 13:00","2022","02","04","13:00","-29.5","","-33.4","","70","","0.0","","32","","39","","1.6","","101.56","","","","-47","","Blowing Snow"
"-94.07","61.09","ARVIAT A","2300427","2022-02-04 14:00","2022","02","04","14:00","-30.9","","-34.7","","70","","0.0","","32","","43","","0.8","","101.60","","","","-49","","Moderate Snow,Blowing Snow"
"-94.07","61.09","ARVIAT A","2300427","2022-02-04 15:00","2022","02","04","15:00","-30.1","","-33.9","","70","","0.0","","32","","39","","1.2","","101.67","","","","-47","","Haze"
"-94.07","61.09","ARVIAT A","2300427","2022-02-04 16:00","2022","02","04","16:00","-30.8","","-34.8","","69","","0.0","","31","","34","","2.4","","101.70","","","","-47","","Snow"
"-94.07","61.09","ARVIAT A","2300427","2022-02-04 17:00","2022","02","04","17:00","-30.5","","-34.5","","69","","0.0","","31","","26","","9.7","","101.77","","","","-45","","Haze"
"-94.07","61.09","ARVIAT A","2300427","2022-02-04 18:00","2022","02","04","18:00","-31.0","","-35.0","","69","","0.0","","31","","24","","8.1","","101.80","","","","-45","","Haze"
"-94.07","61.09","ARVIAT A","2300427","2022-02-04 19:00","2022","02","04","19:00","-32.5","","-36.6","","68","","0.0","","30","","13","","16.1","","101.84","","","","-44","","NA"
"-94.07","61.09","ARVIAT A","2300427","2022-02-04 20:00","2022","02","04","20:00","-31.3","","-35.3","","69","","0.0","","31","","24","","12.9","","101.78","","","","-46","","NA"
"-94.07","61.09","ARVIAT A","2300427","2022-02-04 21:00","2022","02","04","21:00","-31.8","","-35.7","","69","","0.0","","31","","30","","12.9","","101.80","","","","-48","","NA"
"-94.07","61.09","ARVIAT A","2300427","2022-02-04 22:00","2022","02","04","22:00","-33.0","","-37.0","","68","","0.0","","32","","24","","16.1","","101.79","","","","-48","","NA"
"-94.07","61.09","ARVIAT A","2300427","2022-02-04 23:00","2022","02","04","23:00","-32.5","","-36.6","","68","","0.0","","31","","21","","16.1","","101.80","","","","-47","","NA"
"-94.07","61.09","ARVIAT A","2300427","2022-02-05 00:00","2022","02","05","00:00","-32.3","","-36.5","","67","","0.0","","30","","24","","16.1","","101.83","","","","-47","","NA"
"-94.07","61.09","ARVIAT A","2300427","2022-02-05 01:00","2022","02","05","01:00","-33.2","","-37.4","","67","","0.0","","30","","35","","6.4","","101.78","","","","-51","","Haze"
"-94.07","61.09","ARVIAT A","2300427","2022-02-05 02:00","2022","02","05","02:00","-33.7","","-37.9","","67","","0.0","","30","","28","","16.1","","101.78","","","","-50","","NA"
"-94.07","61.09","ARVIAT A","2300427","2022-02-05 03:00","2022","02","05","03:00","-32.2","","-36.4","","67","","0.0","","31","","28","","16.1","","101.74","","","","-48","","NA"
"-94.07","61.09","ARVIAT A","2300427","2022-02-05 04:00","2022","02","05","04:00","-32.8","","-37.0","","67","","0.0","","29","","22","","16.1","","101.75","","","","-47","","NA"
"-94.07","61.09","ARVIAT A","2300427","2022-02-05 05:00","2022","02","05","05:00","-34.0","","-38.2","","67","","0.0","","28","","18","","16.1","","101.77","","","","-47","","NA"
"-94.07","61.09","ARVIAT A","2300427","2022-02-05 06:00","2022","02","05","06:00","-32.6","","-36.8","","67","","0.0","","29","","21","","16.1","","101.77","","","","-47","","NA"
"-94.07","61.09","ARVIAT A","2300427","2022-02-05 07:00","2022","02","05","07:00","-33.0","","-37.2","","67","","0.0","","31","","17","","16.1","","101.74","","","","-46","","NA"
"-94.07","61.09","ARVIAT A","2300427","2022-02-05 08:00","2022","02","05","08:00","-33.2","","-37.4","","67","","0.0","","29","","15","","14.5","","101.76","","","","-45","","NA"
"-94.07","61.09","ARVIAT A","2300427","2022-02-05 09:00","2022","02","05","09:00","-34.4","","-38.6","","67","","0.0","","29","","15","","16.1","","101.78","","","","-47","","NA"
"-94.07","61.09","ARVIAT A","2300427","2022-02-05 10:00","2022","02","05","10:00","-32.8","","-37.0","","67","","0.0","","32","","22","","16.1","","101.78","","","","-47","","NA"
"-94.07","61.09","ARVIAT A","2300427","2022-02-05 11:00","2022","02","05","11:00","-33.7","","-38.2","","65","","0.0","","32","","21","","16.1","","101.85","","","","-48","","NA"
"-94.07","61.09","ARVIAT A","2300427","2022-02-05 12:00","2022","02","05","12:00","-34.1","","-38.6","","65","","0.0","","31","","21","","16.1","","101.92","","","","-49","","NA"
"-94.07","61.09","ARVIAT A","2300427","2022-02-05 13:00","2022","02","05","13:00","-32.5","","-37.0","","65","","0.0","","31","","21","","16.1","","101.95","","","","-47","","NA"
"-94.07","61.09","ARVIAT A","2300427","2022-02-05 14:00","2022","02","05","14:00","-32.6","","-37.1","","65","","0.0","","32","","24","","16.1","","101.97","","","","-48","","NA"
"-94.07","61.09","ARVIAT A","2300427","2022-02-05 15:00","2022","02","05","15:00","-31.9","","-36.3","","66","","0.0","","32","","22","","16.1","","102.02","","","","-46","","NA"
"-94.07","61.09","ARVIAT A","2300427","2022-02-05 16:00","2022","02","05","16:00","-31.8","","-36.0","","67","","0.0","","31","","26","","16.1","","102.04","","","","-47","","NA"
"-94.07","61.09","ARVIAT A","2300427","2022-02-05 17:00","2022","02","05","17:00","-33.0","","-37.2","","67","","0.0","","32","","26","","16.1","","102.11","","","","-49","","NA"
"-94.07","61.09","ARVIAT A","2300427","2022-02-05 18:00","2022","02","05","18:00","-32.1","","-36.3","","67","","0.0","","33","","24","","16.1","","102.15","","","","-47","","NA"
"-94.07","61.09","ARVIAT A","2300427","2022-02-05 19:00","2022","02","05","19:00","-32.8","","-36.9","","68","","0.0","","32","","26","","16.1","","102.18","","","","-48","","NA"
"-94.07","61.09","ARVIAT A","2300427","2022-02-05 20:00","2022","02","05","20:00","-33.8","","-38.0","","67","","0.0","","32","","24","","16.1","","102.24","","","","-49","","NA"
"-94.07","61.09","ARVIAT A","2300427","2022-02-05 21:00","2022","02","05","21:00","-34.1","","-38.3","","67","","0.0","","32","","26","","16.1","","102.28","","","","-50","","NA"
"-94.07","61.09","ARVIAT A","2300427","2022-02-05 22:00","2022","02","05","22:00","-33.4","","-37.6","","67","","0.0","","31","","24","","16.1","","102.30","","","","-49","","NA"
"-94.07","61.09","ARVIAT A","2300427","2022-02-05 23:00","2022","02","05","23:00","-34.0","","-38.2","","67","","0.0","","31","","24","","16.1","","102.33","","","","-49","","NA"
"-94.07","61.09","ARVIAT A","2300427","2022-02-06 00:00","2022","02","06","00:00","-35.1","","-39.2","","67","","0.0","","31","","22","","16.1","","102.34","","","","-50","","NA"
"-94.07","61.09","ARVIAT A","2300427","2022-02-06 01:00","2022","02","06","01:00","-35.7","","-39.8","","67","","0.0","","31","","22","","16.1","","102.36","","","","-51","","NA"
"-94.07","61.09","ARVIAT A","2300427","2022-02-06 02:00","2022","02","06","02:00","-34.5","","-38.6","","67","","0.0","","31","","22","","16.1","","102.34","","","","-49","","NA"
"-94.07","61.09","ARVIAT A","2300427","2022-02-06 03:00","2022","02","06","03:00","-34.2","","-38.5","","66","","0.0","","31","","21","","16.1","","102.34","","","","-49","","NA"
"-94.07","61.09","ARVIAT A","2300427","2022-02-06 04:00","2022","02","06","04:00","-35.6","","-39.7","","67","","0.0","","29","","11","","16.1","","102.35","","","","-46","","NA"
"-94.07","61.09","ARVIAT A","2300427","2022-02-06 05:00","2022","02","06","05:00","-36.0","","-40.2","","66","","0.0","","29","","15","","16.1","","102.35","","","","-49","","NA"
"-94.07","61.09","ARVIAT A","2300427","2022-02-06 06:00","2022","02","06","06:00","-35.5","","-39.6","","67","","0.0","","27","","8","","16.1","","102.35","","","","-44","","NA"
"-94.07","61.09","ARVIAT A","2300427","2022-02-06 07:00","2022","02","06","07:00","-34.4","","-38.4","","68","","0.0","","27","","9","","16.1","","102.31","","","","-44","","NA"
"-94.07","61.09","ARVIAT A","2300427","2022-02-06 08:00","2022","02","06","08:00","-36.3","","-40.4","","67","","0.0","","26","","11","","16.1","","102.25","","","","-47","","NA"
"-94.07","61.09","ARVIAT A","2300427","2022-02-06 09:00","2022","02","06","09:00","-36.9","","-41.0","","67","","0.0","","19","","8","","16.1","","102.21","","","","-46","","NA"
"-94.07","61.09","ARVIAT A","2300427","2022-02-06 10:00","2022","02","06","10:00","-34.9","","-39.2","","66","","0.0","","23","","11","","16.1","","102.17","","","","-46","","NA"
"-94.07","61.09","ARVIAT A","2300427","2022-02-06 11:00","2022","02","06","11:00","-34.7","","-39.0","","66","","0.0","","24","","13","","16.1","","102.17","","","","-46","","NA"
"-94.07","61.09","ARVIAT A","2300427","2022-02-06 12:00","2022","02","06","12:00","-34.2","","-38.5","","66","","0.0","","21","","11","","16.1","","102.05","","","","-45","","NA"
"-94.07","61.09","ARVIAT A","2300427","2022-02-06 13:00","2022","02","06","13:00","-32.0","","-36.2","","67","","0.0","","21","","15","","16.1","","101.99","","","","-44","","NA"
"-94.07","61.09","ARVIAT A","2300427","2022-02-06 14:00","2022","02","06","14:00","-32.3","","-36.4","","68","","0.0","","22","","17","","16.1","","101.93","","","","-45","","NA"
"-94.07","61.09","ARVIAT A","2300427","2022-02-06 15:00","2022","02","06","15:00","-30.7","","-34.5","","70","","0.0","","21","","17","","16.1","","101.82","","","","-43","","NA"
"-94.07","61.09","ARVIAT A","2300427","2022-02-06 16:00","2022","02","06","16:00","-30.1","","-34.1","","69","","0.0","","22","","17","","16.1","","101.73","","","","-42","","NA"
"-94.07","61.09","ARVIAT A","2300427","2022-02-06 17:00","2022","02","06","17:00","-30.5","","-34.2","","71","","0.0","","20","","18","","16.1","","101.58","","","","-43","","NA"
"-94.07","61.09","ARVIAT A","2300427","2022-02-06 18:00","2022","02","06","18:00","-29.7","","-33.1","","73","","0.0","","21","","21","","16.1","","101.53","","","","-43","","NA"
"-94.07","61.09","ARVIAT A","2300427","2022-02-06 19:00","2022","02","06","19:00","-29.5","","-32.8","","74","","0.0","","21","","18","","16.1","","101.41","","","","-42","","NA"
"-94.07","61.09","ARVIAT A","2300427","2022-02-06 20:00","2022","02","06","20:00","-27.9","","-31.2","","74","","0.0","","21","","28","","16.1","","101.25","","","","-42","","NA"
"-94.07","61.09","ARVIAT A","2300427","2022-02-06 21:00","2022","02","06","21:00","-25.6","","-29.0","","74","","0.0","","22","","28","","16.1","","101.16","","","","-39","","NA"
"-94.07","61.09","ARVIAT A","2300427","2022-02-06 22:00","2022","02","06","22:00","-22.9","","-26.7","","72","","0.0","","22","","30","","16.1","","101.00","","","","-36","","NA"
"-94.07","61.09","ARVIAT A","2300427","2022-02-06 23:00","2022","02","06","23:00","-20.9","","-24.7","","72","","0.0","","21","","32","","16.1","","100.85","","","","-34","","NA"
"-94.07","61.09","ARVIAT A","2300427","2022-02-07 00:00","2022","02","07","00:00","-20.5","","-25.5","","65","","0.0","","21","","37","","16.1","","100.71","","","","-34","","NA"
"-94.07","61.09","ARVIAT A","2300427","2022-02-07 01:00","2022","02","07","01:00","-20.6","","-24.1","","74","","0.0","","20","","35","","9.7","","100.63","","","","-34","","Snow"
"-94.07","61.09","ARVIAT A","2300427","2022-02-07 02:00","2022","02","07","02:00","-20.8","","-24.1","","75","","0.0","","20","","28","","16.1","","100.52","","","","-33","","NA"
"-94.07","61.09","ARVIAT A","2300427","2022-02-07 03:00","2022","02","07","03:00","-22.0","","-26.1","","70","","0.0","","20","","30","","16.1","","100.44","","","","-35","","NA"
"-94.07","61.09","ARVIAT A","2300427","2022-02-07 04:00","2022","02","07","04:00","-22.8","","-26.6","","72","","0.0","","21","","30","","16.1","","100.31","","","","-36","","NA"
"-94.07","61.09","ARVIAT A","2300427","2022-02-07 05:00","2022","02","07","05:00","-22.8","","-26.1","","75","","0.0","","22","","22","","16.1","","100.23","","","","-35","","NA"
"-94.07","61.09","ARVIAT A","2300427","2022-02-07 06:00","2022","02","07","06:00","-22.4","","-25.6","","76","","0.0","","23","","15","","16.1","","100.14","","","","-32","","NA"
"-94.07","61.09","ARVIAT A","2300427","2022-02-07 07:00","2022","02","07","07:00","-22.3","","-25.2","","78","","0.0","","23","","8","","16.1","","100.10","","","","-29","","NA"
"-94.07","61.09","ARVIAT A","2300427","2022-02-07 08:00","2022","02","07","08:00","-22.0","","-24.9","","78","","0.0","","21","","8","","16.1","","100.04","","","","-29","","NA"
"-94.07","61.09","ARVIAT A","2300427","2022-02-07 09:00","2022","02","07","09:00","-22.0","","-24.7","","79","","0.0","","24","","8","","16.1","","99.98","","","","-29","","NA"
"-94.07","61.09","ARVIAT A","2300427","2022-02-07 10:00","2022","02","07","10:00","-21.7","","-24.3","","80","","0.0","","21","","4","","16.1","","99.92","","","","-25","","NA"
"-94.07","61.09","ARVIAT A","2300427","2022-02-07 11:00","2022","02","07","11:00","-21.5","","-24.1","","80","","0.0","","22","","4","","16.1","","99.86","","","","-25","","NA"
"-94.07","61.09","ARVIAT A","2300427","2022-02-07 12:00","2022","02","07","12:00","-21.1","","-23.8","","79","","0.0","","","","0","","16.1","","99.84","","","","","","NA"
"-94.07","61.09","ARVIAT A","2300427","2022-02-07 13:00","2022","02","07","13:00","-20.8","","-23.4","","80","","0.0","","","","0","","16.1","","99.79","","","","","","NA"
"-94.07","61.09","ARVIAT A","2300427","2022-02-07 14:00","2022","02","07","14:00","-20.3","","-22.9","","80","","0.0","","3","","9","","16.1","","99.71","","","","-27","","NA"
"-94.07","61.09","ARVIAT A","2300427","2022-02-07 15:00","2022","02","07","15:00","-19.8","","-22.3","","81","","0.0","","36","","8","","16.1","","99.70","","","","-26","","NA"
"-94.07","61.09","ARVIAT A","2300427","2022-02-07 16:00","2022","02","07","16:00","-19.9","","-22.2","","82","","0.0","","34","","9","","9.7","","99.71","","","","-27","","Snow"
"-94.07","61.09","ARVIAT A","2300427","2022-02-07 17:00","2022","02","07","17:00","-18.9","","-21.1","","83","","0.0","","2","","8","","16.1","","99.61","","","","-25","","Snow"
"-94.07","61.09","ARVIAT A","2300427","2022-02-07 18:00","2022","02","07","18:00","-18.3","","-20.4","","84","","0.0","","2","","8","","16.1","","99.55","","","","-24","","NA"
"-94.07","61.09","ARVIAT A","2300427","2022-02-07 19:00","2022","02","07","19:00","-18.5","","-20.6","","84","","0.0","","36","","13","","16.1","","99.67","","","","-27","","NA"
"-94.07","61.09","ARVIAT A","2300427","2022-02-07 20:00","2022","02","07","20:00","-18.2","","-20.3","","84","","0.0","","36","","11","","16.1","","99.64","","","","-25","","NA"
"-94.07","61.09","ARVIAT A","2300427","2022-02-07 21:00","2022","02","07","21:00","-18.2","","-20.3","","84","","0.0","","2","","11","","16.1","","99.61","","","","-25","","Snow"
"-94.07","61.09","ARVIAT A","2300427","2022-02-07 22:00","2022","02","07","22:00","-18.1","","-20.2","","84","","0.0","","1","","13","","16.1","","99.63","","","","-26","","Snow"
"-94.07","61.09","ARVIAT A","2300427","2022-02-07 23:00","2022","02","07","23:00","-17.8","","-19.9","","84","","0.0","","1","","11","","16.1","","99.63","","","","-25","","NA"
"-94.07","61.09","ARVIAT A","2300427","2022-02-08 00:00","2022","02","08","00:00","-17.4","","-19.5","","84","","0.0","","2","","17","","16.1","","99.65","","","","-26","","Snow"
"-94.07","61.09","ARVIAT A","2300427","2022-02-08 01:00","2022","02","08","01:00","-17.3","","-19.4","","84","","0.0","","1","","18","","16.1","","99.65","","","","-27","","Snow"
"-94.07","61.09","ARVIAT A","2300427","2022-02-08 02:00","2022","02","08","02:00","-17.4","","-19.6","","83","","0.0","","1","","15","","16.1","","99.68","","","","-26","","NA"
"-94.07","61.09","ARVIAT A","2300427","2022-02-08 03:00","2022","02","08","03:00","-18.4","","-20.6","","83","","0.0","","1","","18","","16.1","","99.76","","","","-28","","NA"
"-94.07","61.09","ARVIAT A","2300427","2022-02-08 04:00","2022","02","08","04:00","-18.6","","-21.0","","82","","0.0","","1","","21","","16.1","","99.89","","","","-29","","NA"
"-94.07","61.09","ARVIAT A","2300427","2022-02-08 05:00","2022","02","08","05:00","-18.6","","-21.0","","82","","0.0","","36","","18","","16.1","","99.95","","","","-28","","NA"
"-94.07","61.09","ARVIAT A","2300427","2022-02-08 06:00","2022","02","08","06:00","-18.9","","-21.1","","83","","0.0","","36","","22","","4.8","","100.01","","","","-30","","Snow"
"-94.07","61.09","ARVIAT A","2300427","2022-02-08 07:00","2022","02","08","07:00","-19.2","","-21.5","","82","","0.0","","36","","22","","16.1","","100.09","","","","-30","","Snow"
"-94.07","61.09","ARVIAT A","2300427","2022-02-08 08:00","2022","02","08","08:00","-19.0","","-21.8","","79","","0.0","","35","","32","","16.1","","100.20","","","","-32","","NA"
"-94.07","61.09","ARVIAT A","2300427","2022-02-08 09:00","2022","02","08","09:00","-19.4","","-22.0","","80","","0.0","","35","","34","","16.1","","100.29","","","","-32","","NA"
"-94.07","61.09","ARVIAT A","2300427","2022-02-08 10:00","2022","02","08","10:00","-20.8","","-23.7","","78","","0.0","","36","","37","","8.1","","100.37","","","","-35","","Haze"
"-94.07","61.09","ARVIAT A","2300427","2022-02-08 11:00","2022","02","08","11:00","-22.6","","-25.6","","77","","0.0","","36","","35","","4.8","","100.47","","","","-37","","Snow"
"-94.07","61.09","ARVIAT A","2300427","2022-02-08 12:00","2022","02","08","12:00","-23.5","","-26.6","","76","","0.0","","36","","35","","4.0","","100.56","","","","-38","","Snow"
"-94.07","61.09","ARVIAT A","2300427","2022-02-08 13:00","2022","02","08","13:00","-23.5","","-26.8","","75","","0.0","","35","","34","","12.9","","100.60","","","","-38","","NA"
"-94.07","61.09","ARVIAT A","2300427","2022-02-08 14:00","2022","02","08","14:00","-23.6","","-26.7","","76","","0.0","","35","","37","","4.8","","100.69","","","","-38","","Haze"
"-94.07","61.09","ARVIAT A","2300427","2022-02-08 15:00","2022","02","08","15:00","-24.7","","-27.8","","76","","0.0","","34","","50","","1.0","","100.78","","","","-42","","Snow,Blowing Snow"
"-94.07","61.09","ARVIAT A","2300427","2022-02-08 16:00","2022","02","08","16:00","-24.3","","-27.3","","77","","0.0","","34","","46","","1.2","","100.89","","","","-41","","Snow,Blowing Snow"
"-94.07","61.09","ARVIAT A","2300427","2022-02-08 17:00","2022","02","08","17:00","-24.5","","-27.5","","77","","0.0","","35","","43","","1.2","","101.02","","","","-41","","Snow,Blowing Snow"
"-94.07","61.09","ARVIAT A","2300427","2022-02-08 18:00","2022","02","08","18:00","-26.3","","-29.5","","75","","0.0","","35","","43","","1.6","","101.13","","","","-43","","Snow,Blowing Snow"
"-94.07","61.09","ARVIAT A","2300427","2022-02-08 19:00","2022","02","08","19:00","-28.7","","-32.0","","74","","0.0","","35","","43","","3.2","","101.24","","","","-46","","Snow,Blowing Snow"
"-94.07","61.09","ARVIAT A","2300427","2022-02-08 20:00","2022","02","08","20:00","-28.5","","-31.9","","73","","0.0","","35","","37","","4.0","","101.29","","","","-45","","Snow"
"-94.07","61.09","ARVIAT A","2300427","2022-02-08 21:00","2022","02","08","21:00","-29.8","","-33.2","","73","","0.0","","35","","46","","2.0","","101.33","","","","-48","","Snow,Blowing Snow"
"-94.07","61.09","ARVIAT A","2300427","2022-02-08 22:00","2022","02","08","22:00","-29.6","","-33.3","","71","","0.0","","35","","39","","6.4","","101.39","","","","-47","","Snow"
"-94.07","61.09","ARVIAT A","2300427","2022-02-08 23:00","2022","02","08","23:00","-30.6","","-34.3","","71","","0.0","","35","","34","","9.7","","101.45","","","","-47","","Haze"
"-94.07","61.09","ARVIAT A","2300427","2022-02-09 00:00","2022","02","09","00:00","-32.0","","-35.8","","70","","0.0","","35","","35","","16.1","","101.49","","","","-49","","NA"
"-94.07","61.09","ARVIAT A","2300427","2022-02-09 01:00","2022","02","09","01:00","-31.3","","-35.3","","69","","0.0","","35","","35","","14.5","","101.51","","","","-48","","NA"
"-94.07","61.09","ARVIAT A","2300427","2022-02-09 02:00","2022","02","09","02:00","-32.2","","-36.1","","69","","0.0","","34","","39","","8.1","","101.56","","","","-50","","Haze"
"-94.07","61.09","ARVIAT A","2300427","2022-02-09 03:00","2022","02","09","03:00","-33.1","","-37.0","","69","","0.0","","34","","41","","12.9","","101.63","","","","-52","","NA"
"-94.07","61.09","ARVIAT A","2300427","2022-02-09 04:00","2022","02","09","04:00","-32.3","","-36.4","","68","","0.0","","35","","28","","16.1","","101.69","","","","-48","","NA"
"-94.07","61.09","ARVIAT A","2300427","2022-02-09 05:00","2022","02","09","05:00","-32.9","","-37.0","","68","","0.0","","35","","30","","16.1","","101.68","","","","-49","","NA"
"-94.07","61.09","ARVIAT A","2300427","2022-02-09 06:00","2022","02","09","06:00","-33.8","","-37.8","","68","","0.0","","33","","32","","16.1","","101.69","","","","-51","","NA"
"-94.07","61.09","ARVIAT A","2300427","2022-02-09 07:00","2022","02","09","07:00","-34.6","","-38.7","","67","","0.0","","33","","30","","16.1","","101.75","","","","-52","","NA"
"-94.07","61.09","ARVIAT A","2300427","2022-02-09 08:00","2022","02","09","08:00","-33.4","","-37.4","","68","","0.0","","34","","37","","12.9","","101.75","","","","-51","","NA"
"-94.07","61.09","ARVIAT A","2300427","2022-02-09 09:00","2022","02","09","09:00","-33.3","","-37.2","","69","","0.0","","33","","34","","16.1","","101.80","","","","-51","","NA"
"-94.07","61.09","ARVIAT A","2300427","2022-02-09 10:00","2022","02","09","10:00","-33.0","","-36.9","","69","","0.0","","34","","34","","16.1","","101.81","","","","-50","","NA"
"-94.07","61.09","ARVIAT A","2300427","2022-02-09 11:00","2022","02","09","11:00","-33.3","","-37.3","","68","","0.0","","33","","32","","16.1","","101.78","","","","-50","","NA"
"-94.07","61.09","ARVIAT A","2300427","2022-02-09 12:00","2022","02","09","12:00","-31.6","","-35.8","","67","","0.0","","33","","32","","16.1","","101.84","","","","-48","","NA"
"-94.07","61.09","ARVIAT A","2300427","2022-02-09 13:00","2022","02","09","13:00","-31.8","","-35.9","","68","","0.0","","33","","30","","16.1","","101.84","","","","-48","","NA"
"-94.07","61.09","ARVIAT A","2300427","2022-02-09 14:00","2022","02","09","14:00","-31.3","","-35.4","","68","","0.0","","33","","32","","14.5","","101.82","","","","-48","","NA"
"-94.07","61.09","ARVIAT A","2300427","2022-02-09 15:00","2022","02","09","15:00","-30.6","","-34.9","","67","","0.0","","34","","28","","16.1","","101.83","","","","-46","","NA"
"-94.07","61.09","ARVIAT A","2300427","2022-02-09 16:00","2022","02","09","16:00","-31.1","","-35.2","","68","","0.0","","34","","34","","16.1","","101.81","","","","-48","","NA"
"-94.07","61.09","ARVIAT A","2300427","2022-02-09 17:00","2022","02","09","17:00","-30.5","","-34.6","","68","","0.0","","34","","21","","16.1","","101.77","","","","-44","","NA"
"-94.07","61.09","ARVIAT A","2300427","2022-02-09 18:00","2022","02","09","18:00","-32.1","","-36.0","","69","","0.0","","33","","17","","16.1","","101.79","","","","-45","","NA"
"-94.07","61.09","ARVIAT A","2300427","2022-02-09 19:00","2022","02","09","19:00","-30.8","","-34.6","","70","","0.0","","32","","17","","16.1","","101.80","","","","-43","","NA"
"-94.07","61.09","ARVIAT A","2300427","2022-02-09 20:00","2022","02","09","20:00","-32.4","","-36.3","","69","","0.0","","32","","21","","16.1","","101.75","","","","-46","","NA"
"-94.07","61.09","ARVIAT A","2300427","2022-02-09 21:00","2022","02","09","21:00","-32.9","","-36.8","","69","","0.0","","33","","18","","16.1","","101.72","","","","-46","","NA"
"-94.07","61.09","ARVIAT A","2300427","2022-02-09 22:00","2022","02","09","22:00","-32.3","","-36.2","","69","","0.0","","34","","22","","16.1","","101.67","","","","-47","","NA"
"-94.07","61.09","ARVIAT A","2300427","2022-02-09 23:00","2022","02","09","23:00","-33.2","","-37.4","","67","","0.0","","34","","30","","16.1","","101.61","","","","-50","","NA"
"-94.07","61.09","ARVIAT A","2300427","2022-02-10 00:00","2022","02","10","00:00","-34.3","","-38.5","","67","","0.0","","35","","30","","16.1","","101.52","","","","-51","","NA"
"-94.07","61.09","ARVIAT A","2300427","2022-02-10 01:00","2022","02","10","01:00","-34.1","","-38.4","","66","","0.0","","34","","30","","16.1","","101.48","","","","-51","","NA"
"-94.07","61.09","ARVIAT A","2300427","2022-02-10 02:00","2022","02","10","02:00","-34.0","","-38.3","","66","","0.0","","34","","30","","16.1","","101.46","","","","-51","","NA"
"-94.07","61.09","ARVIAT A","2300427","2022-02-10 03:00","2022","02","10","03:00","-35.0","","-39.3","","66","","0.0","","33","","24","","16.1","","101.45","","","","-51","","NA"
"-94.07","61.09","ARVIAT A","2300427","2022-02-10 04:00","2022","02","10","04:00","-35.7","","-40.1","","65","","0.0","","35","","34","","16.1","","101.42","","","","-54","","NA"
"-94.07","61.09","ARVIAT A","2300427","2022-02-10 05:00","2022","02","10","05:00","-36.4","","-40.8","","65","","0.0","","36","","30","","16.1","","101.42","","","","-54","","NA"
"-94.07","61.09","ARVIAT A","2300427","2022-02-10 06:00","2022","02","10","06:00","-36.2","","-40.7","","64","","0.0","","35","","30","","16.1","","101.43","","","","-54","","NA"
"-94.07","61.09","ARVIAT A","2300427","2022-02-10 07:00","2022","02","10","07:00","-36.4","","-40.9","","64","","0.0","","35","","28","","16.1","","101.42","","","","-53","","NA"
"-94.07","61.09","ARVIAT A","2300427","2022-02-10 08:00","2022","02","10","08:00","-37.2","","-41.9","","63","","0.0","","36","","32","","16.1","","101.41","","","","-55","","NA"
"-94.07","61.09","ARVIAT A","2300427","2022-02-10 09:00","2022","02","10","09:00","-37.8","","-42.4","","63","","0.0","","35","","26","","16.1","","101.45","","","","-55","","NA"
"-94.07","61.09","ARVIAT A","2300427","2022-02-10 10:00","2022","02","10","10:00","-38.0","","-42.6","","63","","0.0","","35","","26","","16.1","","101.44","","","","-55","","NA"
"-94.07","61.09","ARVIAT A","2300427","2022-02-10 11:00","2022","02","10","11:00","-37.9","","-42.5","","63","","0.0","","34","","32","","16.1","","101.48","","","","-56","","NA"
"-94.07","61.09","ARVIAT A","2300427","2022-02-10 12:00","2022","02","10","12:00","-37.0","","-41.7","","63","","0.0","","33","","30","","12.9","","101.52","","","","-55","","NA"
"-94.07","61.09","ARVIAT A","2300427","2022-02-10 13:00","2022","02","10","13:00","-35.5","","-40.2","","63","","0.0","","33","","32","","16.1","","101.55","","","","-53","","NA"
"-94.07","61.09","ARVIAT A","2300427","2022-02-10 14:00","2022","02","10","14:00","-35.1","","-39.6","","65","","0.0","","34","","37","","4.0","","101.54","","","","-54","","Haze"
"-94.07","61.09","ARVIAT A","2300427","2022-02-10 15:00","2022","02","10","15:00","-35.3","","-39.6","","66","","0.0","","33","","45","","1.2","","101.56","","","","-55","","Snow,Blowing Snow"
"-94.07","61.09","ARVIAT A","2300427","2022-02-10 16:00","2022","02","10","16:00","-34.6","","-38.7","","67","","0.0","","34","","35","","2.0","","101.64","","","","-53","","Haze"
"-94.07","61.09","ARVIAT A","2300427","2022-02-10 17:00","2022","02","10","17:00","-33.7","","-37.9","","67","","0.0","","34","","34","","2.4","","101.68","","","","-51","","Haze"
"-94.07","61.09","ARVIAT A","2300427","2022-02-10 18:00","2022","02","10","18:00","-34.4","","-38.4","","68","","0.0","","33","","48","","0.8","","101.71","","","","-55","","Moderate Snow,Blowing Snow"
"-94.07","61.09","ARVIAT A","2300427","2022-02-10 19:00","2022","02","10","19:00","-35.2","","-39.2","","68","","0.0","","33","","43","","2.0","","101.76","","","","-55","","Snow,Blowing Snow"
"-94.07","61.09","ARVIAT A","2300427","2022-02-10 20:00","2022","02","10","20:00","-35.6","","-39.6","","68","","0.0","","33","","43","","1.2","","101.78","","","","-56","","Snow,Blowing Snow"
"-94.07","61.09","ARVIAT A","2300427","2022-02-10 21:00","2022","02","10","21:00","-34.6","","-38.6","","68","","0.0","","33","","46","","1.2","","101.80","","","","-55","","Snow,Blowing Snow"
"-94.07","61.09","ARVIAT A","2300427","2022-02-10 22:00","2022","02","10","22:00","-34.2","","-38.2","","68","","0.0","","34","","41","","1.2","","101.85","","","","-53","","Snow,Blowing Snow"
"-94.07","61.09","ARVIAT A","2300427","2022-02-10 23:00","2022","02","10","23:00","-34.3","","-38.3","","68","","0.0","","33","","43","","1.0","","101.85","","","","-54","","Snow,Blowing Snow"
"-94.07","61.09","ARVIAT A","2300427","2022-02-11 00:00","2022","02","11","00:00","-34.7","","-38.7","","68","","0.1","","33","","48","","0.6","","101.85","","","","-55","","Moderate Snow,Blowing Snow"
"-94.07","61.09","ARVIAT A","2300427","2022-02-11 01:00","2022","02","11","01:00","-34.9","","-38.7","","69","","0.1","","33","","43","","0.8","","101.88","","","","-55","","Moderate Snow,Blowing Snow"
"-94.07","61.09","ARVIAT A","2300427","2022-02-11 02:00","2022","02","11","02:00","-34.0","","-37.9","","69","","","M","33","","48","","0.4","","101.91","","","","-54","","Heavy Snow,Blowing Snow"
"-94.07","61.09","ARVIAT A","2300427","2022-02-11 03:00","2022","02","11","03:00","-33.4","","-37.3","","69","","","M","33","","46","","0.4","","101.94","","","","-53","","Heavy Snow,Blowing Snow"
"-94.07","61.09","ARVIAT A","2300427","2022-02-11 04:00","2022","02","11","04:00","-33.7","","-37.6","","69","","","M","33","","45","","0.4","","102.04","","","","-53","","Heavy Snow,Blowing Snow"
"-94.07","61.09","ARVIAT A","2300427","2022-02-11 05:00","2022","02","11","05:00","-34.3","","-38.2","","69","","","M","33","","46","","0.4","","102.06","","","","-54","","Heavy Snow,Blowing Snow"
"-94.07","61.09","ARVIAT A","2300427","2022-02-11 06:00","2022","02","11","06:00","-34.6","","-38.4","","69","","","M","32","","45","","0.6","","102.09","","","","-55","","Moderate Snow,Blowing Snow"
"-94.07","61.09","ARVIAT A","2300427","2022-02-11 07:00","2022","02","11","07:00","-33.5","","-37.4","","69","","","M","33","","46","","0.8","","102.14","","","","-53","","Moderate Snow,Blowing Snow"
"-94.07","61.09","ARVIAT A","2300427","2022-02-11 08:00","2022","02","11","08:00","-33.2","","-37.1","","69","","0.0","","32","","39","","1.2","","102.26","","","","-52","","Snow,Blowing Snow"
"-94.07","61.09","ARVIAT A","2300427","2022-02-11 09:00","2022","02","11","09:00","-33.7","","-37.7","","68","","0.0","","32","","43","","1.0","","102.26","","","","-53","","Moderate Snow,Blowing Snow"
"-94.07","61.09","ARVIAT A","2300427","2022-02-11 10:00","2022","02","11","10:00","-34.0","","-37.9","","69","","0.0","","32","","43","","2.0","","102.33","","","","-53","","Blowing Snow"
"-94.07","61.09","ARVIAT A","2300427","2022-02-11 11:00","2022","02","11","11:00","-32.7","","-36.8","","68","","0.0","","32","","37","","1.6","","102.31","","","","-51","","Haze"
"-94.07","61.09","ARVIAT A","2300427","2022-02-11 12:00","2022","02","11","12:00","-31.6","","-35.5","","69","","0.0","","32","","43","","1.6","","102.27","","","","-50","","Snow,Blowing Snow"
"-94.07","61.09","ARVIAT A","2300427","2022-02-11 13:00","2022","02","11","13:00","-31.7","","-35.7","","69","","0.0","","33","","37","","4.8","","102.27","","","","-49","","Haze"
"-94.07","61.09","ARVIAT A","2300427","2022-02-11 14:00","2022","02","11","14:00","-29.6","","-33.5","","70","","0.0","","32","","45","","2.0","","102.19","","","","-48","","Blowing Snow"
"-94.07","61.09","ARVIAT A","2300427","2022-02-11 15:00","2022","02","11","15:00","-29.6","","-33.5","","70","","0.0","","32","","39","","2.8","","102.20","","","","-47","","Haze"
"-94.07","61.09","ARVIAT A","2300427","2022-02-11 16:00","2022","02","11","16:00","-28.2","","-32.1","","70","","0.0","","31","","41","","6.4","","102.17","","","","-45","","Haze"
"-94.07","61.09","ARVIAT A","2300427","2022-02-11 17:00","2022","02","11","17:00","-29.7","","-33.7","","69","","0.0","","32","","34","","16.1","","102.21","","","","-46","","NA"
"-94.07","61.09","ARVIAT A","2300427","2022-02-11 18:00","2022","02","11","18:00","-29.6","","-33.5","","70","","0.0","","31","","26","","12.9","","102.23","","","","-44","","NA"
"-94.07","61.09","ARVIAT A","2300427","2022-02-11 19:00","2022","02","11","19:00","-31.0","","-35.1","","68","","0.0","","30","","34","","16.1","","102.14","","","","-48","","NA"
"-94.07","61.09","ARVIAT A","2300427","2022-02-11 20:00","2022","02","11","20:00","-29.8","","-34.1","","67","","0.0","","31","","35","","9.7","","102.06","","","","-46","","Haze"
"-94.07","61.09","ARVIAT A","2300427","2022-02-11 21:00","2022","02","11","21:00","-30.3","","-34.4","","68","","0.0","","31","","34","","9.7","","102.01","","","","-47","","Haze"
"-94.07","61.09","ARVIAT A","2300427","2022-02-11 22:00","2022","02","11","22:00","-31.2","","-35.3","","68","","0.0","","30","","32","","16.1","","101.95","","","","-48","","NA"
"-94.07","61.09","ARVIAT A","2300427","2022-02-11 23:00","2022","02","11","23:00","-29.4","","-33.4","","69","","0.0","","31","","41","","4.8","","101.83","","","","-47","","Haze"
"-94.07","61.09","ARVIAT A","2300427","2022-02-12 00:00","2022","02","12","00:00","-30.1","","-34.2","","68","","0.0","","33","","32","","16.1","","101.88","","","","-46","","NA"
"-94.07","61.09","ARVIAT A","2300427","2022-02-12 01:00","2022","02","12","01:00","-29.0","","-33.3","","67","","0.0","","32","","32","","16.1","","101.85","","","","-45","","NA"
"-94.07","61.09","ARVIAT A","2300427","2022-02-12 02:00","2022","02","12","02:00","-29.5","","-33.7","","68","","0.0","","32","","30","","16.1","","101.88","","","","-45","","NA"
"-94.07","61.09","ARVIAT A","2300427","2022-02-12 03:00","2022","02","12","03:00","-30.6","","-34.6","","69","","0.0","","32","","35","","16.1","","101.82","","","","-47","","NA"
"-94.07","61.09","ARVIAT A","2300427","2022-02-12 04:00","2022","02","12","04:00","-29.8","","-33.8","","69","","0.0","","32","","32","","16.1","","101.80","","","","-46","","NA"
"-94.07","61.09","ARVIAT A","2300427","2022-02-12 05:00","2022","02","12","05:00","-30.6","","-34.4","","70","","0.0","","32","","35","","12.9","","101.81","","","","-47","","NA"
"-94.07","61.09","ARVIAT A","2300427","2022-02-12 06:00","2022","02","12","06:00","-29.5","","-33.4","","70","","0.0","","31","","30","","16.1","","101.85","","","","-45","","NA"
"-94.07","61.09","ARVIAT A","2300427","2022-02-12 07:00","2022","02","12","07:00","-29.8","","-33.5","","71","","0.0","","32","","39","","2.4","","101.85","","","","-47","","Haze"
"-94.07","61.09","ARVIAT A","2300427","2022-02-12 08:00","2022","02","12","08:00","-30.6","","-34.4","","70","","0.0","","32","","39","","6.4","","101.90","","","","-48","","Haze"
"-94.07","61.09","ARVIAT A","2300427","2022-02-12 09:00","2022","02","12","09:00","-29.7","","-33.6","","70","","0.0","","32","","35","","9.7","","101.89","","","","-46","","Haze"
"-94.07","61.09","ARVIAT A","2300427","2022-02-12 10:00","2022","02","12","10:00","-30.6","","-34.6","","69","","0.0","","32","","32","","16.1","","101.90","","","","-47","","NA"
"-94.07","61.09","ARVIAT A","2300427","2022-02-12 11:00","2022","02","12","11:00","-29.3","","-33.3","","69","","0.0","","32","","37","","9.7","","101.90","","","","-46","","Haze"
"-94.07","61.09","ARVIAT A","2300427","2022-02-12 12:00","2022","02","12","12:00","-29.6","","-33.5","","70","","0.0","","32","","39","","6.4","","101.93","","","","-47","","Haze"
"-94.07","61.09","ARVIAT A","2300427","2022-02-12 13:00","2022","02","12","13:00","-28.6","","-32.5","","70","","0.0","","32","","41","","4.0","","101.96","","","","-46","","Blowing Snow"
"-94.07","61.09","ARVIAT A","2300427","2022-02-12 14:00","2022","02","12","14:00","-28.7","","-32.6","","70","","0.0","","32","","35","","2.4","","101.99","","","","-45","","Haze"
"-94.07","61.09","ARVIAT A","2300427","2022-02-12 15:00","2022","02","12","15:00","-28.9","","-32.8","","70","","0.0","","32","","39","","4.8","","102.01","","","","-46","","Haze"
"-94.07","61.09","ARVIAT A","2300427","2022-02-12 16:00","2022","02","12","16:00","-28.3","","-32.2","","70","","0.0","","32","","37","","4.8","","102.08","","","","-45","","Haze"
"-94.07","61.09","ARVIAT A","2300427","2022-02-12 17:00","2022","02","12","17:00","-29.9","","-33.6","","71","","0.0","","33","","37","","6.4","","102.11","","","","-47","","Haze"
"-94.07","61.09","ARVIAT A","2300427","2022-02-12 18:00","2022","02","12","18:00","-29.0","","-32.7","","71","","0.0","","32","","34","","16.1","","102.16","","","","-45","","NA"
"-94.07","61.09","ARVIAT A","2300427","2022-02-12 19:00","2022","02","12","19:00","-29.9","","-33.6","","71","","0.0","","33","","32","","16.1","","102.14","","","","-46","","NA"
"-94.07","61.09","ARVIAT A","2300427","2022-02-12 20:00","2022","02","12","20:00","-28.6","","-32.3","","71","","0.0","","33","","34","","8.1","","102.14","","","","-45","","Haze"
"-94.07","61.09","ARVIAT A","2300427","2022-02-12 21:00","2022","02","12","21:00","-29.8","","-33.5","","71","","0.0","","33","","30","","16.1","","102.10","","","","-45","","NA"
"-94.07","61.09","ARVIAT A","2300427","2022-02-12 22:00","2022","02","12","22:00","-29.6","","-33.5","","70","","0.0","","33","","30","","16.1","","102.04","","","","-45","","NA"
"-94.07","61.09","ARVIAT A","2300427","2022-02-12 23:00","2022","02","12","23:00","-30.5","","-34.5","","69","","0.0","","33","","28","","16.1","","101.99","","","","-46","","NA"
"-94.07","61.09","ARVIAT A","2300427","2022-02-13 00:00","2022","02","13","00:00","-31.7","","-35.5","","70","","0.0","","32","","34","","16.1","","102.02","","","","-49","","NA"
"-94.07","61.09","ARVIAT A","2300427","2022-02-13 01:00","2022","02","13","01:00","-30.5","","-34.3","","70","","0.0","","32","","32","","8.1","","102.02","","","","-47","","Haze"
"-94.07","61.09","ARVIAT A","2300427","2022-02-13 02:00","2022","02","13","02:00","-31.2","","-35.1","","69","","0.0","","32","","30","","12.9","","102.00","","","","-47","","NA"
"-94.07","61.09","ARVIAT A","2300427","2022-02-13 03:00","2022","02","13","03:00","-32.1","","-36.0","","69","","0.0","","33","","30","","12.9","","101.98","","","","-48","","NA"
"-94.07","61.09","ARVIAT A","2300427","2022-02-13 04:00","2022","02","13","04:00","-31.3","","-35.4","","68","","0.0","","33","","32","","16.1","","101.93","","","","-48","","NA"
"-94.07","61.09","ARVIAT A","2300427","2022-02-13 05:00","2022","02","13","05:00","-32.5","","-36.6","","68","","0.0","","33","","22","","16.1","","101.91","","","","-47","","NA"
"-94.07","61.09","ARVIAT A","2300427","2022-02-13 06:00","2022","02","13","06:00","-33.4","","-37.4","","68","","0.0","","31","","21","","16.1","","101.88","","","","-48","","NA"
"-94.07","61.09","ARVIAT A","2300427","2022-02-13 07:00","2022","02","13","07:00","-33.0","","-37.0","","68","","0.0","","32","","21","","16.1","","101.87","","","","-47","","NA"
"-94.07","61.09","ARVIAT A","2300427","2022-02-13 08:00","2022","02","13","08:00","-33.7","","-37.9","","67","","0.0","","31","","18","","16.1","","101.84","","","","-47","","NA"
"-94.07","61.09","ARVIAT A","2300427","2022-02-13 09:00","2022","02","13","09:00","-34.8","","-38.8","","68","","0.0","","31","","22","","16.1","","101.80","","","","-50","","NA"
"-94.07","61.09","ARVIAT A","2300427","2022-02-13 10:00","2022","02","13","10:00","-35.0","","-39.1","","67","","0.0","","31","","22","","16.1","","101.79","","","","-50","","NA"
"-94.07","61.09","ARVIAT A","2300427","2022-02-13 11:00","2022","02","13","11:00","-32.6","","-37.0","","66","","0.0","","32","","24","","16.1","","101.80","","","","-48","","NA"
"-94.07","61.09","ARVIAT A","2300427","2022-02-13 12:00","2022","02","13","12:00","-32.6","","-37.1","","65","","0.0","","33","","26","","16.1","","101.80","","","","-48","","NA"
"-94.07","61.09","ARVIAT A","2300427","2022-02-13 13:00","2022","02","13","13:00","-33.0","","-37.5","","65","","0.0","","33","","35","","2.8","","101.76","","","","-51","","Haze"
"-94.07","61.09","ARVIAT A","2300427","2022-02-13 14:00","2022","02","13","14:00","-31.6","","-36.0","","66","","0.0","","33","","35","","2.4","","101.79","","","","-49","","Haze"
"-94.07","61.09","ARVIAT A","2300427","2022-02-13 15:00","2022","02","13","15:00","-32.1","","-36.3","","67","","0.0","","33","","41","","1.2","","101.76","","","","-50","","Blowing Snow"
"-94.07","61.09","ARVIAT A","2300427","2022-02-13 16:00","2022","02","13","16:00","-31.9","","-36.1","","67","","0.0","","33","","41","","1.2","","101.81","","","","-50","","Blowing Snow"
"-94.07","61.09","ARVIAT A","2300427","2022-02-13 17:00","2022","02","13","17:00","-31.4","","-35.5","","68","","0.0","","33","","32","","6.4","","101.87","","","","-48","","Haze"
"-94.07","61.09","ARVIAT A","2300427","2022-02-13 18:00","2022","02","13","18:00","-32.7","","-36.6","","69","","0.0","","33","","37","","1.6","","101.88","","","","-51","","Haze"
"-94.07","61.09","ARVIAT A","2300427","2022-02-13 19:00","2022","02","13","19:00","-31.9","","-35.8","","69","","0.0","","32","","43","","1.6","","101.88","","","","-51","","Snow,Blowing Snow"
"-94.07","61.09","ARVIAT A","2300427","2022-02-13 20:00","2022","02","13","20:00","-31.8","","-35.7","","69","","0.0","","33","","43","","2.0","","101.94","","","","-50","","Snow,Blowing Snow"
"-94.07","61.09","ARVIAT A","2300427","2022-02-13 21:00","2022","02","13","21:00","-33.1","","-37.3","","67","","0.0","","32","","32","","9.7","","102.00","","","","-50","","Haze"
"-94.07","61.09","ARVIAT A","2300427","2022-02-13 22:00","2022","02","13","22:00","-33.9","","-38.1","","67","","0.0","","32","","28","","16.1","","101.99","","","","-50","","NA"
"-94.07","61.09","ARVIAT A","2300427","2022-02-13 23:00","2022","02","13","23:00","-33.0","","-37.2","","67","","0.0","","32","","34","","3.2","","101.97","","","","-50","","Haze"
"-94.07","61.09","ARVIAT A","2300427","2022-02-14 00:00","2022","02","14","00:00","-33.1","","-37.3","","67","","0.0","","32","","30","","9.7","","101.97","","","","-50","","Haze"
"-94.07","61.09","ARVIAT A","2300427","2022-02-14 01:00","2022","02","14","01:00","-33.4","","-37.6","","67","","0.0","","32","","34","","16.1","","101.92","","","","-51","","NA"
"-94.07","61.09","ARVIAT A","2300427","2022-02-14 02:00","2022","02","14","02:00","-33.5","","-37.4","","69","","0.0","","32","","35","","2.8","","101.94","","","","-51","","Haze"
"-94.07","61.09","ARVIAT A","2300427","2022-02-14 03:00","2022","02","14","03:00","-31.8","","-35.7","","69","","0.0","","32","","45","","2.0","","101.91","","","","-51","","Snow,Blowing Snow"
"-94.07","61.09","ARVIAT A","2300427","2022-02-14 04:00","2022","02","14","04:00","-32.0","","-36.0","","68","","0.0","","32","","41","","4.0","","101.95","","","","-50","","Blowing Snow"
"-94.07","61.09","ARVIAT A","2300427","2022-02-14 05:00","2022","02","14","05:00","-32.5","","-36.6","","68","","0.0","","31","","30","","6.4","","102.00","","","","-49","","Haze"
"-94.07","61.09","ARVIAT A","2300427","2022-02-14 06:00","2022","02","14","06:00","-32.3","","-36.4","","68","","0.0","","32","","32","","6.4","","101.98","","","","-49","","Haze"
"-94.07","61.09","ARVIAT A","2300427","2022-02-14 07:00","2022","02","14","07:00","-31.4","","-35.3","","69","","0.0","","31","","39","","2.0","","101.95","","","","-49","","Blowing Snow"
"-94.07","61.09","ARVIAT A","2300427","2022-02-14 08:00","2022","02","14","08:00","-32.1","","-36.0","","69","","0.0","","32","","35","","4.0","","101.97","","","","-49","","Haze"
"-94.07","61.09","ARVIAT A","2300427","2022-02-14 09:00","2022","02","14","09:00","-32.4","","-36.3","","69","","0.0","","32","","41","","8.1","","101.95","","","","-51","","Haze"
"-94.07","61.09","ARVIAT A","2300427","2022-02-14 10:00","2022","02","14","10:00","-30.9","","-35.0","","68","","0.0","","32","","34","","14.5","","101.98","","","","-48","","NA"
"-94.07","61.09","ARVIAT A","2300427","2022-02-14 11:00","2022","02","14","11:00","-31.0","","-35.1","","68","","0.0","","32","","37","","4.0","","101.96","","","","-48","","Haze"
"-94.07","61.09","ARVIAT A","2300427","2022-02-14 12:00","2022","02","14","12:00","-29.9","","-34.1","","68","","0.0","","31","","41","","8.1","","101.93","","","","-48","","Haze"
"-94.07","61.09","ARVIAT A","2300427","2022-02-14 13:00","2022","02","14","13:00","-29.5","","-33.7","","68","","0.0","","31","","39","","4.0","","101.92","","","","-47","","Haze"
"-94.07","61.09","ARVIAT A","2300427","2022-02-14 14:00","2022","02","14","14:00","-28.6","","-32.8","","68","","0.0","","31","","41","","3.6","","101.87","","","","-46","","Blowing Snow"
"-94.07","61.09","ARVIAT A","2300427","2022-02-14 15:00","2022","02","14","15:00","-28.8","","-32.8","","69","","0.0","","32","","32","","9.7","","101.90","","","","-44","","Haze"
"-94.07","61.09","ARVIAT A","2300427","2022-02-14 16:00","2022","02","14","16:00","-28.1","","-32.3","","68","","0.0","","32","","39","","9.7","","101.93","","","","-45","","Haze"
"-94.07","61.09","ARVIAT A","2300427","2022-02-14 17:00","2022","02","14","17:00","-28.0","","-31.9","","70","","0.0","","31","","45","","1.6","","101.90","","","","-46","","Snow,Blowing Snow"
"-94.07","61.09","ARVIAT A","2300427","2022-02-14 18:00","2022","02","14","18:00","-29.4","","-33.4","","69","","0.0","","32","","28","","16.1","","101.95","","","","-44","","NA"
"-94.07","61.09","ARVIAT A","2300427","2022-02-14 19:00","2022","02","14","19:00","-29.1","","-33.0","","70","","0.0","","31","","26","","6.4","","101.96","","","","-44","","Haze"
"-94.07","61.09","ARVIAT A","2300427","2022-02-14 20:00","2022","02","14","20:00","-29.7","","-33.6","","70","","0.0","","30","","39","","11.3","","101.92","","","","-47","","NA"
"-94.07","61.09","ARVIAT A","2300427","2022-02-14 21:00","2022","02","14","21:00","-30.6","","-34.4","","70","","0.0","","30","","32","","16.1","","101.90","","","","-47","","NA"
"-94.07","61.09","ARVIAT A","2300427","2022-02-14 22:00","2022","02","14","22:00","-29.9","","-33.7","","70","","0.0","","31","","24","","16.1","","101.83","","","","-44","","NA"
"-94.07","61.09","ARVIAT A","2300427","2022-02-14 23:00","2022","02","14","23:00","-30.9","","-34.7","","70","","0.0","","30","","37","","6.4","","101.77","","","","-48","","Haze"
"-94.07","61.09","ARVIAT A","2300427","2022-02-15 00:00","2022","02","15","00:00","-30.9","","-34.9","","69","","0.0","","30","","30","","16.1","","101.78","","","","-47","","NA"
"-94.07","61.09","ARVIAT A","2300427","2022-02-15 01:00","2022","02","15","01:00","-30.4","","-34.4","","69","","0.0","","29","","22","","16.1","","101.77","","","","-44","","NA"
"-94.07","61.09","ARVIAT A","2300427","2022-02-15 02:00","2022","02","15","02:00","-31.6","","-35.4","","70","","0.0","","29","","17","","16.1","","101.74","","","","-44","","NA"
"-94.07","61.09","ARVIAT A","2300427","2022-02-15 03:00","2022","02","15","03:00","-30.3","","-34.1","","70","","0.0","","28","","18","","16.1","","101.73","","","","-43","","NA"
"-94.07","61.09","ARVIAT A","2300427","2022-02-15 04:00","2022","02","15","04:00","-31.1","","-34.9","","70","","0.0","","29","","15","","16.1","","101.70","","","","-43","","NA"
"-94.07","61.09","ARVIAT A","2300427","2022-02-15 05:00","2022","02","15","05:00","-32.6","","-36.2","","71","","0.0","","25","","11","","16.1","","101.67","","","","-43","","NA"
"-94.07","61.09","ARVIAT A","2300427","2022-02-15 06:00","2022","02","15","06:00","-30.6","","-34.3","","71","","0.0","","22","","11","","16.1","","101.57","","","","-40","","Snow"
"-94.07","61.09","ARVIAT A","2300427","2022-02-15 07:00","2022","02","15","07:00","-31.3","","-35.0","","71","","0.0","","22","","9","","14.5","","101.50","","","","-40","","NA"
"-94.07","61.09","ARVIAT A","2300427","2022-02-15 08:00","2022","02","15","08:00","-30.0","","-33.5","","72","","0.0","","24","","9","","12.9","","101.42","","","","-39","","Snow"
"-94.07","61.09","ARVIAT A","2300427","2022-02-15 09:00","2022","02","15","09:00","-30.3","","-33.8","","72","","0.0","","22","","8","","4.8","","101.33","","","","-38","","Snow"
"-94.07","61.09","ARVIAT A","2300427","2022-02-15 10:00","2022","02","15","10:00","-28.9","","-32.3","","73","","0.0","","25","","4","","8.1","","101.26","","","","-33","","Snow"
"-94.07","61.09","ARVIAT A","2300427","2022-02-15 11:00","2022","02","15","11:00","-27.9","","-31.4","","73","","0.0","","","M","4","","4.8","","101.24","","","","-32","","Snow"
"-94.07","61.09","ARVIAT A","2300427","2022-02-15 12:00","2022","02","15","12:00","-26.9","","-30.2","","74","","0.1","","33","","9","","6.4","","101.18","","","","-35","","Snow"
"-94.07","61.09","ARVIAT A","2300427","2022-02-15 13:00","2022","02","15","13:00","-26.2","","-29.6","","74","","0.0","","2","","13","","6.4","","101.11","","","","-36","","Snow"
"-94.07","61.09","ARVIAT A","2300427","2022-02-15 14:00","2022","02","15","14:00","-25.9","","-29.3","","74","","0.0","","2","","15","","8.1","","101.04","","","","-36","","Snow"
"-94.07","61.09","ARVIAT A","2300427","2022-02-15 15:00","2022","02","15","15:00","-25.9","","-29.4","","73","","0.0","","2","","18","","6.4","","101.02","","","","-37","","Snow"
"-94.07","61.09","ARVIAT A","2300427","2022-02-15 16:00","2022","02","15","16:00","-25.8","","-29.2","","74","","0.0","","2","","17","","4.8","","100.97","","","","-37","","Snow"
"-94.07","61.09","ARVIAT A","2300427","2022-02-15 17:00","2022","02","15","17:00","-25.9","","-29.3","","74","","0.1","","1","","26","","4.8","","100.96","","","","-39","","Snow"
"-94.07","61.09","ARVIAT A","2300427","2022-02-15 18:00","2022","02","15","18:00","-25.9","","-29.3","","74","","0.1","","1","","26","","4.0","","101.00","","","","-39","","Snow"
"-94.07","61.09","ARVIAT A","2300427","2022-02-15 19:00","2022","02","15","19:00","-27.6","","-30.9","","74","","0.0","","36","","30","","2.8","","101.03","","","","-42","","Snow"
"-94.07","61.09","ARVIAT A","2300427","2022-02-15 20:00","2022","02","15","20:00","-28.4","","-32.0","","72","","0.0","","36","","35","","3.6","","101.06","","","","-45","","Snow"
"-94.07","61.09","ARVIAT A","2300427","2022-02-15 21:00","2022","02","15","21:00","-30.5","","-34.2","","71","","0.0","","36","","32","","6.4","","101.10","","","","-47","","Haze"
"-94.07","61.09","ARVIAT A","2300427","2022-02-15 22:00","2022","02","15","22:00","-30.6","","-34.4","","70","","0.0","","36","","34","","4.8","","101.14","","","","-47","","Haze"
"-94.07","61.09","ARVIAT A","2300427","2022-02-15 23:00","2022","02","15","23:00","-32.1","","-35.9","","70","","0.0","","35","","34","","11.3","","101.16","","","","-49","","NA"
"-94.07","61.09","ARVIAT A","2300427","2022-02-16 00:00","2022","02","16","00:00","-32.9","","-36.7","","70","","0.0","","35","","30","","8.1","","101.20","","","","-49","","Haze"
"-94.07","61.09","ARVIAT A","2300427","2022-02-16 01:00","2022","02","16","01:00","-32.1","","-35.9","","70","","0.0","","35","","37","","6.4","","101.21","","","","-50","","Haze"
"-94.07","61.09","ARVIAT A","2300427","2022-02-16 02:00","2022","02","16","02:00","-33.1","","-37.0","","69","","0.0","","35","","35","","4.8","","101.22","","","","-51","","Haze"
"-94.07","61.09","ARVIAT A","2300427","2022-02-16 03:00","2022","02","16","03:00","-33.8","","-37.7","","69","","0.0","","35","","35","","4.8","","101.26","","","","-52","","Haze"
"-94.07","61.09","ARVIAT A","2300427","2022-02-16 04:00","2022","02","16","04:00","-33.8","","-37.7","","69","","0.0","","34","","30","","4.8","","101.27","","","","-51","","Haze"
"-94.07","61.09","ARVIAT A","2300427","2022-02-16 05:00","2022","02","16","05:00","-33.3","","-37.2","","69","","0.0","","34","","35","","2.4","","101.27","","","","-51","","Haze"
"-94.07","61.09","ARVIAT A","2300427","2022-02-16 06:00","2022","02","16","06:00","-33.7","","-37.6","","69","","0.0","","35","","30","","2.8","","101.34","","","","-50","","Haze"
"-94.07","61.09","ARVIAT A","2300427","2022-02-16 07:00","2022","02","16","07:00","-34.4","","-38.3","","69","","0.0","","34","","35","","2.0","","101.35","","","","-52","","Haze"
"-94.07","61.09","ARVIAT A","2300427","2022-02-16 08:00","2022","02","16","08:00","-34.7","","-38.7","","68","","0.0","","33","","28","","2.8","","101.38","","","","-51","","Haze"
"-94.07","61.09","ARVIAT A","2300427","2022-02-16 09:00","2022","02","16","09:00","-33.5","","-37.5","","68","","0.0","","34","","30","","2.8","","101.40","","","","-50","","Haze"
"-94.07","61.09","ARVIAT A","2300427","2022-02-16 10:00","2022","02","16","10:00","-33.7","","-37.7","","68","","0.0","","33","","35","","1.2","","101.40","","","","-52","","Haze"
"-94.07","61.09","ARVIAT A","2300427","2022-02-16 11:00","2022","02","16","11:00","-33.5","","-37.5","","68","","0.0","","33","","34","","1.2","","101.44","","","","-51","","Haze"
"-94.07","61.09","ARVIAT A","2300427","2022-02-16 12:00","2022","02","16","12:00","-32.3","","-36.4","","68","","0.0","","33","","35","","2.0","","101.42","","","","-50","","Haze"
"-94.07","61.09","ARVIAT A","2300427","2022-02-16 13:00","2022","02","16","13:00","-31.4","","-35.5","","68","","0.0","","33","","32","","2.0","","101.41","","","","-48","","Haze"
"-94.07","61.09","ARVIAT A","2300427","2022-02-16 14:00","2022","02","16","14:00","-31.8","","-35.7","","69","","0.0","","32","","34","","2.8","","101.42","","","","-49","","Haze"
"-94.07","61.09","ARVIAT A","2300427","2022-02-16 15:00","2022","02","16","15:00","-30.6","","-34.6","","69","","0.0","","32","","37","","2.0","","101.44","","","","-48","","Haze"
"-94.07","61.09","ARVIAT A","2300427","2022-02-16 16:00","2022","02","16","16:00","-31.6","","-35.5","","69","","0.0","","32","","39","","1.6","","101.43","","","","-49","","Haze"
"-94.07","61.09","ARVIAT A","2300427","2022-02-16 17:00","2022","02","16","17:00","-30.4","","-34.2","","70","","0.0","","32","","39","","1.6","","101.45","","","","-48","","Haze"
"-94.07","61.09","ARVIAT A","2300427","2022-02-16 18:00","2022","02","16","18:00","-31.4","","-35.2","","70","","0.0","","31","","35","","2.4","","101.53","","","","-48","","Haze"
"-94.07","61.09","ARVIAT A","2300427","2022-02-16 19:00","2022","02","16","19:00","-31.8","","-35.6","","70","","0.0","","32","","39","","3.2","","101.53","","","","-50","","Haze"
"-94.07","61.09","ARVIAT A","2300427","2022-02-16 20:00","2022","02","16","20:00","-31.1","","-34.9","","70","","0.0","","31","","34","","6.4","","101.54","","","","-48","","Haze"
"-94.07","61.09","ARVIAT A","2300427","2022-02-16 21:00","2022","02","16","21:00","-31.8","","-35.6","","70","","0.0","","31","","24","","16.1","","101.58","","","","-47","","NA"
"-94.07","61.09","ARVIAT A","2300427","2022-02-16 22:00","2022","02","16","22:00","-32.2","","-36.1","","69","","0.0","","31","","24","","16.1","","101.60","","","","-47","","NA"
"-94.07","61.09","ARVIAT A","2300427","2022-02-16 23:00","2022","02","16","23:00","-31.0","","-34.8","","70","","0.0","","31","","26","","12.9","","101.54","","","","-46","","NA"
"-94.07","61.09","ARVIAT A","2300427","2022-02-17 00:00","2022","02","17","00:00","-31.6","","-35.4","","70","","0.0","","30","","26","","16.1","","101.57","","","","-47","","NA"
"-94.07","61.09","ARVIAT A","2300427","2022-02-17 01:00","2022","02","17","01:00","-31.7","","-35.6","","69","","0.0","","30","","32","","16.1","","101.54","","","","-48","","NA"
"-94.07","61.09","ARVIAT A","2300427","2022-02-17 02:00","2022","02","17","02:00","-31.2","","-35.2","","69","","0.0","","30","","26","","16.1","","101.52","","","","-46","","NA"
"-94.07","61.09","ARVIAT A","2300427","2022-02-17 03:00","2022","02","17","03:00","-31.7","","-35.6","","69","","0.0","","30","","32","","16.1","","101.53","","","","-48","","NA"
"-94.07","61.09","ARVIAT A","2300427","2022-02-17 04:00","2022","02","17","04:00","-31.7","","-35.6","","69","","0.0","","30","","32","","16.1","","101.53","","","","-48","","NA"
"-94.07","61.09","ARVIAT A","2300427","2022-02-17 05:00","2022","02","17","05:00","-31.3","","-35.3","","69","","0.0","","30","","26","","16.1","","101.53","","","","-46","","NA"
"-94.07","61.09","ARVIAT A","2300427","2022-02-17 06:00","2022","02","17","06:00","-32.5","","-36.6","","68","","0.0","","28","","17","","16.1","","101.52","","","","-45","","NA"
"-94.07","61.09","ARVIAT A","2300427","2022-02-17 07:00","2022","02","17","07:00","-32.2","","-36.3","","68","","0.0","","29","","22","","16.1","","101.48","","","","-46","","NA"
"-94.07","61.09","ARVIAT A","2300427","2022-02-17 08:00","2022","02","17","08:00","-32.8","","-36.9","","68","","0.0","","26","","13","","16.1","","101.49","","","","-44","","NA"
"-94.07","61.09","ARVIAT A","2300427","2022-02-17 09:00","2022","02","17","09:00","-33.3","","-37.3","","68","","0.0","","28","","13","","16.1","","101.42","","","","-45","","NA"
"-94.07","61.09","ARVIAT A","2300427","2022-02-17 10:00","2022","02","17","10:00","-32.9","","-37.1","","67","","0.0","","25","","8","","16.1","","101.45","","","","-41","","NA"
"-94.07","61.09","ARVIAT A","2300427","2022-02-17 11:00","2022","02","17","11:00","-32.2","","-36.6","","66","","0.0","","24","","13","","16.1","","101.44","","","","-43","","NA"
"-94.07","61.09","ARVIAT A","2300427","2022-02-17 12:00","2022","02","17","12:00","-30.5","","-34.8","","67","","0.0","","25","","15","","14.5","","101.39","","","","-42","","NA"
"-94.07","61.09","ARVIAT A","2300427","2022-02-17 13:00","2022","02","17","13:00","-30.3","","-34.8","","66","","0.0","","26","","22","","16.1","","101.34","","","","-44","","NA"
"-94.07","61.09","ARVIAT A","2300427","2022-02-17 14:00","2022","02","17","14:00","-28.9","","-33.6","","65","","0.0","","27","","21","","16.1","","101.31","","","","-42","","NA"
"-94.07","61.09","ARVIAT A","2300427","2022-02-17 15:00","2022","02","17","15:00","-28.2","","-32.6","","67","","0.0","","27","","18","","16.1","","101.26","","","","-40","","NA"
"-94.07","61.09","ARVIAT A","2300427","2022-02-17 16:00","2022","02","17","16:00","-27.8","","-32.3","","66","","0.0","","28","","18","","16.1","","101.22","","","","-40","","NA"
"-94.07","61.09","ARVIAT A","2300427","2022-02-17 17:00","2022","02","17","17:00","-28.0","","-32.2","","68","","0.0","","26","","17","","16.1","","101.16","","","","-40","","NA"
"-94.07","61.09","ARVIAT A","2300427","2022-02-17 18:00","2022","02","17","18:00","-28.7","","-32.4","","71","","0.0","","24","","13","","16.1","","101.18","","","","-39","","NA"
"-94.07","61.09","ARVIAT A","2300427","2022-02-17 19:00","2022","02","17","19:00","-29.8","","-33.7","","69","","0.0","","19","","9","","16.1","","101.14","","","","-38","","NA"
"-94.07","61.09","ARVIAT A","2300427","2022-02-17 20:00","2022","02","17","20:00","-29.8","","-33.5","","71","","0.0","","23","","9","","16.1","","101.06","","","","-38","","NA"
"-94.07","61.09","ARVIAT A","2300427","2022-02-17 21:00","2022","02","17","21:00","-30.5","","-34.1","","71","","0.0","","23","","11","","16.1","","100.98","","","","-40","","NA"
"-94.07","61.09","ARVIAT A","2300427","2022-02-17 22:00","2022","02","17","22:00","-30.9","","-34.5","","71","","0.0","","26","","15","","16.1","","100.93","","","","-43","","NA"
"-94.07","61.09","ARVIAT A","2300427","2022-02-17 23:00","2022","02","17","23:00","-30.1","","-33.8","","71","","0.0","","24","","9","","16.1","","100.90","","","","-39","","NA"
"-94.07","61.09","ARVIAT A","2300427","2022-02-18 00:00","2022","02","18","00:00","-30.5","","-34.2","","71","","0.0","","26","","15","","16.1","","100.84","","","","-42","","NA"
"-94.07","61.09","ARVIAT A","2300427","2022-02-18 01:00","2022","02","18","01:00","-29.5","","-33.2","","71","","0.0","","26","","13","","16.1","","100.76","","","","-40","","NA"
"-94.07","61.09","ARVIAT A","2300427","2022-02-18 02:00","2022","02","18","02:00","-30.5","","-34.2","","71","","0.0","","24","","15","","16.1","","100.74","","","","-42","","NA"
"-94.07","61.09","ARVIAT A","2300427","2022-02-18 03:00","2022","02","18","03:00","-29.6","","-33.2","","72","","0.0","","26","","17","","16.1","","100.72","","","","-42","","NA"
"-94.07","61.09","ARVIAT A","2300427","2022-02-18 04:00","2022","02","18","04:00","-31.1","","-34.6","","72","","0.0","","27","","13","","11.3","","100.71","","","","-42","","Snow"
"-94.07","61.09","ARVIAT A","2300427","2022-02-18 05:00","2022","02","18","05:00","-28.8","","-32.2","","73","","0.0","","29","","15","","9.7","","100.65","","","","-40","","Haze"
"-94.07","61.09","ARVIAT A","2300427","2022-02-18 06:00","2022","02","18","06:00","-29.9","","-33.3","","73","","0.0","","29","","15","","9.7","","100.64","","","","-41","","Haze"
"-94.07","61.09","ARVIAT A","2300427","2022-02-18 07:00","2022","02","18","07:00","-29.0","","-32.7","","71","","0.0","","31","","17","","14.5","","100.68","","","","-41","","NA"
"-94.07","61.09","ARVIAT A","2300427","2022-02-18 08:00","2022","02","18","08:00","-30.6","","-34.3","","71","","0.0","","31","","18","","16.1","","100.68","","","","-43","","Snow"
"-94.07","61.09","ARVIAT A","2300427","2022-02-18 09:00","2022","02","18","09:00","-29.5","","-33.2","","71","","0.0","","30","","9","","9.7","","100.67","","","","-38","","Haze"
"-94.07","61.09","ARVIAT A","2300427","2022-02-18 10:00","2022","02","18","10:00","-30.6","","-34.6","","69","","0.0","","32","","32","","4.0","","100.69","","","","-47","","Snow"
"-94.07","61.09","ARVIAT A","2300427","2022-02-18 11:00","2022","02","18","11:00","-29.2","","-33.2","","69","","0.0","","31","","22","","16.1","","100.73","","","","-43","","NA"
"-94.07","61.09","ARVIAT A","2300427","2022-02-18 12:00","2022","02","18","12:00","-29.4","","-33.3","","70","","0.0","","31","","24","","6.4","","100.72","","","","-43","","Haze"
"-94.07","61.09","ARVIAT A","2300427","2022-02-18 13:00","2022","02","18","13:00","-27.2","","-31.0","","71","","0.0","","31","","34","","4.0","","100.71","","","","-43","","Haze"
"-94.07","61.09","ARVIAT A","2300427","2022-02-18 14:00","2022","02","18","14:00","-26.9","","-30.7","","71","","0.0","","31","","28","","3.2","","100.71","","","","-41","","Haze"
"-94.07","61.09","ARVIAT A","2300427","2022-02-18 15:00","2022","02","18","15:00","-27.3","","-31.4","","69","","0.0","","30","","32","","4.8","","100.75","","","","-42","","Haze"
"-94.07","61.09","ARVIAT A","2300427","2022-02-18 16:00","2022","02","18","16:00","-27.9","","-32.0","","69","","0.0","","30","","32","","6.4","","100.78","","","","-43","","Haze"
"-94.07","61.09","ARVIAT A","2300427","2022-02-18 17:00","2022","02","18","17:00","-28.8","","-32.8","","69","","0.0","","31","","24","","6.4","","100.84","","","","-43","","Haze"
"-94.07","61.09","ARVIAT A","2300427","2022-02-18 18:00","2022","02","18","18:00","-29.6","","-33.6","","69","","0.0","","30","","24","","16.1","","100.88","","","","-44","","NA"
"-94.07","61.09","ARVIAT A","2300427","2022-02-18 19:00","2022","02","18","19:00","-31.1","","-35.1","","69","","0.0","","30","","30","","16.1","","100.86","","","","-47","","NA"
"-94.07","61.09","ARVIAT A","2300427","2022-02-18 20:00","2022","02","18","20:00","-30.5","","-34.9","","66","","0.0","","31","","28","","16.1","","100.83","","","","-46","","NA"
"-94.07","61.09","ARVIAT A","2300427","2022-02-18 21:00","2022","02","18","21:00","-32.0","","-36.1","","68","","0.0","","30","","18","","11.3","","100.83","","","","-45","","NA"
"-94.07","61.09","ARVIAT A","2300427","2022-02-18 22:00","2022","02","18","22:00","-31.8","","-35.7","","69","","0.0","","30","","30","","16.1","","100.76","","","","-48","","NA"
"-94.07","61.09","ARVIAT A","2300427","2022-02-18 23:00","2022","02","18","23:00","-31.1","","-35.2","","68","","0.0","","32","","24","","16.1","","100.74","","","","-46","","NA"
"-94.07","61.09","ARVIAT A","2300427","2022-02-19 00:00","2022","02","19","00:00","-33.0","","-37.0","","68","","0.0","","32","","24","","16.1","","100.73","","","","-48","","NA"
"-94.07","61.09","ARVIAT A","2300427","2022-02-19 01:00","2022","02","19","01:00","-34.2","","-38.2","","68","","0.0","","33","","26","","16.1","","100.76","","","","-50","","NA"
"-94.07","61.09","ARVIAT A","2300427","2022-02-19 02:00","2022","02","19","02:00","-33.5","","-37.7","","67","","0.0","","32","","24","","16.1","","100.74","","","","-49","","NA"
"-94.07","61.09","ARVIAT A","2300427","2022-02-19 03:00","2022","02","19","03:00","-34.7","","-39.0","","66","","0.0","","32","","22","","16.1","","100.73","","","","-50","","NA"
"-94.07","61.09","ARVIAT A","2300427","2022-02-19 04:00","2022","02","19","04:00","-35.8","","-40.2","","65","","0.0","","31","","32","","16.1","","100.68","","","","-54","","NA"
"-94.07","61.09","ARVIAT A","2300427","2022-02-19 05:00","2022","02","19","05:00","-36.6","","-41.1","","64","","0.0","","32","","24","","16.1","","100.67","","","","-53","","NA"
"-94.07","61.09","ARVIAT A","2300427","2022-02-19 06:00","2022","02","19","06:00","-37.0","","-41.5","","64","","0.0","","31","","21","","16.1","","100.64","","","","-52","","NA"
"-94.07","61.09","ARVIAT A","2300427","2022-02-19 07:00","2022","02","19","07:00","-36.6","","-41.3","","63","","0.0","","30","","22","","16.1","","100.66","","","","-52","","NA"
"-94.07","61.09","ARVIAT A","2300427","2022-02-19 08:00","2022","02","19","08:00","-36.8","","-41.6","","62","","0.0","","32","","22","","16.1","","100.68","","","","-52","","NA"
"-94.07","61.09","ARVIAT A","2300427","2022-02-19 09:00","2022","02","19","09:00","-37.6","","-42.3","","63","","0.0","","31","","24","","16.1","","100.63","","","","-54","","NA"
"-94.07","61.09","ARVIAT A","2300427","2022-02-19 10:00","2022","02","19","10:00","-38.0","","-42.8","","62","","0.0","","32","","22","","16.1","","100.64","","","","-54","","NA"
"-94.07","61.09","ARVIAT A","2300427","2022-02-19 11:00","2022","02","19","11:00","-38.0","","-43.0","","61","","0.0","","32","","22","","16.1","","100.60","","","","-54","","NA"
"-94.07","61.09","ARVIAT A","2300427","2022-02-19 12:00","2022","02","19","12:00","-37.0","","-41.9","","62","","0.0","","32","","32","","8.1","","100.59","","","","-55","","Haze"
"-94.07","61.09","ARVIAT A","2300427","2022-02-19 13:00","2022","02","19","13:00","-36.0","","-40.9","","62","","0.0","","33","","28","","3.2","","100.58","","","","-53","","Haze"
"-94.07","61.09","ARVIAT A","2300427","2022-02-19 14:00","2022","02","19","14:00","-36.0","","-40.7","","63","","0.0","","34","","26","","4.8","","100.61","","","","-52","","Haze"
"-94.07","61.09","ARVIAT A","2300427","2022-02-19 15:00","2022","02","19","15:00","-36.3","","-41.0","","63","","0.0","","32","","32","","2.8","","100.60","","","","-54","","Haze"
"-94.07","61.09","ARVIAT A","2300427","2022-02-19 16:00","2022","02","19","16:00","-35.8","","-40.4","","64","","0.0","","32","","32","","4.0","","100.63","","","","-54","","Haze"
"-94.07","61.09","ARVIAT A","2300427","2022-02-19 17:00","2022","02","19","17:00","-35.1","","-39.7","","64","","0.0","","32","","32","","4.0","","100.65","","","","-53","","Haze"
"-94.07","61.09","ARVIAT A","2300427","2022-02-19 18:00","2022","02","19","18:00","-35.7","","-40.1","","65","","0.0","","32","","26","","8.1","","100.69","","","","-52","","Haze"
"-94.07","61.09","ARVIAT A","2300427","2022-02-19 19:00","2022","02","19","19:00","-36.5","","-40.9","","65","","0.0","","32","","30","","11.3","","100.73","","","","-54","","NA"
"-94.07","61.09","ARVIAT A","2300427","2022-02-19 20:00","2022","02","19","20:00","-37.2","","-41.6","","65","","0.0","","33","","32","","6.4","","100.76","","","","-55","","Haze"
"-94.07","61.09","ARVIAT A","2300427","2022-02-19 21:00","2022","02","19","21:00","-37.5","","-42.0","","64","","0.0","","33","","26","","8.1","","100.82","","","","-54","","Haze"
"-94.07","61.09","ARVIAT A","2300427","2022-02-19 22:00","2022","02","19","22:00","-36.7","","-41.4","","63","","0.0","","32","","26","","16.1","","100.83","","","","-53","","NA"
"-94.07","61.09","ARVIAT A","2300427","2022-02-19 23:00","2022","02","19","23:00","-36.8","","-41.3","","64","","0.0","","32","","26","","14.5","","100.83","","","","-53","","NA"
"-94.07","61.09","ARVIAT A","2300427","2022-02-20 00:00","2022","02","20","00:00","-37.4","","-42.1","","63","","0.0","","33","","35","","3.2","","100.81","","","","-56","","Haze"
"-94.07","61.09","ARVIAT A","2300427","2022-02-20 01:00","2022","02","20","01:00","-37.9","","-42.4","","64","","0.0","","33","","34","","2.8","","100.85","","","","-57","","Haze"
"-94.07","61.09","ARVIAT A","2300427","2022-02-20 02:00","2022","02","20","02:00","-38.3","","-42.8","","64","","0.0","","33","","35","","3.2","","100.91","","","","-58","","Haze"
"-94.07","61.09","ARVIAT A","2300427","2022-02-20 03:00","2022","02","20","03:00","-38.5","","-43.0","","64","","0.0","","34","","35","","2.8","","100.96","","","","-58","","Haze"
"-94.07","61.09","ARVIAT A","2300427","2022-02-20 04:00","2022","02","20","04:00","-38.5","","-43.0","","64","","0.0","","33","","37","","1.6","","101.02","","","","-58","","Haze"
"-94.07","61.09","ARVIAT A","2300427","2022-02-20 05:00","2022","02","20","05:00","-37.9","","-42.2","","65","","0.0","","33","","37","","1.6","","101.08","","","","-57","","Haze"
"-94.07","61.09","ARVIAT A","2300427","2022-02-20 06:00","2022","02","20","06:00","-37.1","","-41.5","","65","","0.0","","34","","35","","1.6","","101.13","","","","-56","","Haze"
"-94.07","61.09","ARVIAT A","2300427","2022-02-20 07:00","2022","02","20","07:00","-36.7","","-41.1","","65","","0.0","","34","","37","","1.6","","101.19","","","","-56","","Haze"
"-94.07","61.09","ARVIAT A","2300427","2022-02-20 08:00","2022","02","20","08:00","-36.9","","-41.3","","65","","0.0","","33","","37","","1.6","","101.25","","","","-56","","Haze"
"-94.07","61.09","ARVIAT A","2300427","2022-02-20 09:00","2022","02","20","09:00","-37.0","","-41.4","","65","","0.0","","34","","41","","0.8","","101.29","","","","-57","","Blowing Snow"
"-94.07","61.09","ARVIAT A","2300427","2022-02-20 10:00","2022","02","20","10:00","-36.8","","-41.0","","66","","0.0","","33","","41","","0.6","","101.34","","","","-57","","Moderate Snow,Blowing Snow"
"-94.07","61.09","ARVIAT A","2300427","2022-02-20 11:00","2022","02","20","11:00","-36.5","","-40.7","","66","","0.0","","33","","43","","0.6","","101.40","","","","-57","","Moderate Snow,Blowing Snow"
"-94.07","61.09","ARVIAT A","2300427","2022-02-20 12:00","2022","02","20","12:00","-35.0","","-39.3","","66","","0.0","","33","","45","","0.4","","101.45","","","","-55","","Heavy Snow,Blowing Snow"
"-94.07","61.09","ARVIAT A","2300427","2022-02-20 13:00","2022","02","20","13:00","-33.8","","-38.1","","66","","0.0","","34","","39","","0.6","","101.51","","","","-52","","Haze"
"-94.07","61.09","ARVIAT A","2300427","2022-02-20 14:00","2022","02","20","14:00","-33.4","","-37.6","","67","","0.0","","34","","41","","0.6","","101.54","","","","-52","","Blowing Snow"
"-94.07","61.09","ARVIAT A","2300427","2022-02-20 15:00","2022","02","20","15:00","-33.4","","-37.4","","68","","0.0","","34","","43","","0.2","","101.58","","","","-53","","Heavy Snow,Blowing Snow"
"-94.07","61.09","ARVIAT A","2300427","2022-02-20 16:00","2022","02","20","16:00","-31.7","","-35.6","","69","","0.0","","33","","41","","0.4","","101.66","","","","-50","","Heavy Snow,Blowing Snow"
"-94.07","61.09","ARVIAT A","2300427","2022-02-20 17:00","2022","02","20","17:00","-32.3","","-36.1","","70","","0.0","","33","","41","","0.2","","101.72","","","","-51","","Heavy Snow,Blowing Snow"
"-94.07","61.09","ARVIAT A","2300427","2022-02-20 18:00","2022","02","20","18:00","-32.8","","-36.6","","70","","0.0","","32","","35","","0.4","","101.80","","","","-50","","Heavy Snow"
"-94.07","61.09","ARVIAT A","2300427","2022-02-20 19:00","2022","02","20","19:00","-31.8","","-35.6","","70","","0.0","","32","","35","","0.8","","101.90","","","","-49","","Moderate Snow"
"-94.07","61.09","ARVIAT A","2300427","2022-02-20 20:00","2022","02","20","20:00","-32.5","","-36.3","","70","","0.0","","32","","46","","0.8","","101.89","","","","-52","","Moderate Snow,Blowing Snow"
"-94.07","61.09","ARVIAT A","2300427","2022-02-20 21:00","2022","02","20","21:00","-33.4","","-37.3","","69","","0.0","","32","","43","","1.2","","101.93","","","","-53","","Snow,Blowing Snow"
"-94.07","61.09","ARVIAT A","2300427","2022-02-20 22:00","2022","02","20","22:00","-33.1","","-37.0","","69","","0.0","","32","","41","","1.2","","101.95","","","","-52","","Snow,Blowing Snow"
"-94.07","61.09","ARVIAT A","2300427","2022-02-20 23:00","2022","02","20","23:00","-32.3","","-36.2","","69","","0.0","","32","","41","","1.6","","101.96","","","","-51","","Blowing Snow"
"-94.07","61.09","ARVIAT A","2300427","2022-02-21 00:00","2022","02","21","00:00","-32.8","","-36.7","","69","","0.0","","33","","41","","1.2","","101.97","","","","-51","","Snow,Blowing Snow"
"-94.07","61.09","ARVIAT A","2300427","2022-02-21 01:00","2022","02","21","01:00","-33.2","","-36.9","","70","","0.0","","32","","39","","1.2","","102.01","","","","-52","","Haze"
"-94.07","61.09","ARVIAT A","2300427","2022-02-21 02:00","2022","02","21","02:00","-31.6","","-35.2","","71","","0.0","","32","","43","","0.8","","102.00","","","","-50","","Moderate Snow,Blowing Snow"
"-94.07","61.09","ARVIAT A","2300427","2022-02-21 03:00","2022","02","21","03:00","-31.3","","-35.1","","70","","0.0","","32","","35","","1.2","","102.04","","","","-48","","Haze"
"-94.07","61.09","ARVIAT A","2300427","2022-02-21 04:00","2022","02","21","04:00","-31.5","","-35.1","","71","","0.0","","31","","41","","1.2","","102.04","","","","-50","","Snow,Blowing Snow"
"-94.07","61.09","ARVIAT A","2300427","2022-02-21 05:00","2022","02","21","05:00","-30.6","","-34.1","","72","","0.0","","31","","35","","1.2","","102.09","","","","-47","","Snow"
"-94.07","61.09","ARVIAT A","2300427","2022-02-21 06:00","2022","02","21","06:00","-29.5","","-33.1","","72","","0.0","","32","","37","","1.2","","102.11","","","","-46","","Snow"
"-94.07","61.09","ARVIAT A","2300427","2022-02-21 07:00","2022","02","21","07:00","-30.2","","-33.7","","72","","0.0","","31","","39","","1.2","","102.11","","","","-48","","Snow"
"-94.07","61.09","ARVIAT A","2300427","2022-02-21 08:00","2022","02","21","08:00","-29.0","","-32.6","","72","","0.0","","32","","41","","1.2","","102.16","","","","-46","","Snow,Blowing Snow"
"-94.07","61.09","ARVIAT A","2300427","2022-02-21 09:00","2022","02","21","09:00","-29.3","","-32.8","","73","","0.0","","31","","37","","1.2","","102.21","","","","-46","","Snow"
"-94.07","61.09","ARVIAT A","2300427","2022-02-21 10:00","2022","02","21","10:00","-28.6","","-32.3","","71","","0.0","","31","","41","","1.2","","102.21","","","","-46","","Blowing Snow"
"-94.07","61.09","ARVIAT A","2300427","2022-02-21 11:00","2022","02","21","11:00","-29.7","","-33.6","","70","","0.0","","30","","41","","1.6","","102.27","","","","-47","","Blowing Snow"
"-94.07","61.09","ARVIAT A","2300427","2022-02-21 12:00","2022","02","21","12:00","-29.2","","-32.9","","71","","0.0","","31","","35","","1.6","","102.25","","","","-46","","Haze"
"-94.07","61.09","ARVIAT A","2300427","2022-02-21 13:00","2022","02","21","13:00","-29.0","","-32.7","","71","","0.0","","30","","45","","1.0","","102.25","","","","-47","","Blowing Snow"
"-94.07","61.09","ARVIAT A","2300427","2022-02-21 14:00","2022","02","21","14:00","-28.5","","-32.4","","70","","0.0","","31","","39","","0.8","","102.34","","","","-45","","Moderate Snow"
"-94.07","61.09","ARVIAT A","2300427","2022-02-21 15:00","2022","02","21","15:00","-29.0","","-32.8","","71","","0.0","","30","","41","","1.0","","102.31","","","","-46","","Blowing Snow"
"-94.07","61.09","ARVIAT A","2300427","2022-02-21 16:00","2022","02","21","16:00","-28.0","","-31.6","","72","","0.0","","30","","37","","1.6","","102.37","","","","-44","","Haze"
"-94.07","61.09","ARVIAT A","2300427","2022-02-21 17:00","2022","02","21","17:00","-28.1","","-31.8","","71","","0.0","","30","","41","","2.4","","102.39","","","","-45","","Blowing Snow"
"-94.07","61.09","ARVIAT A","2300427","2022-02-21 18:00","2022","02","21","18:00","-28.9","","-32.6","","71","","0.0","","30","","34","","9.7","","102.46","","","","-45","","Haze"
"-94.07","61.09","ARVIAT A","2300427","2022-02-21 19:00","2022","02","21","19:00","-29.5","","-33.4","","70","","0.0","","29","","22","","16.1","","102.54","","","","-43","","NA"
"-94.07","61.09","ARVIAT A","2300427","2022-02-21 20:00","2022","02","21","20:00","-29.3","","-33.3","","69","","0.0","","30","","28","","9.7","","102.58","","","","-44","","Haze"
"-94.07","61.09","ARVIAT A","2300427","2022-02-21 21:00","2022","02","21","21:00","-31.0","","-35.0","","69","","0.0","","30","","35","","6.4","","102.57","","","","-48","","Haze"
"-94.07","61.09","ARVIAT A","2300427","2022-02-21 22:00","2022","02","21","22:00","-29.8","","-33.8","","69","","0.0","","30","","41","","2.4","","102.54","","","","-47","","Blowing Snow"
"-94.07","61.09","ARVIAT A","2300427","2022-02-21 23:00","2022","02","21","23:00","-30.3","","-34.3","","69","","0.0","","30","","37","","4.0","","102.54","","","","-47","","Haze"
"-94.07","61.09","ARVIAT A","2300427","2022-02-22 00:00","2022","02","22","00:00","-31.0","","-35.0","","69","","0.0","","30","","30","","8.1","","102.61","","","","-47","","Haze"
"-94.07","61.09","ARVIAT A","2300427","2022-02-22 01:00","2022","02","22","01:00","-30.6","","-34.7","","68","","0.0","","29","","21","","16.1","","102.62","","","","-44","","NA"
"-94.07","61.09","ARVIAT A","2300427","2022-02-22 02:00","2022","02","22","02:00","-31.5","","-35.6","","68","","0.0","","29","","28","","16.1","","102.62","","","","-47","","NA"
"-94.07","61.09","ARVIAT A","2300427","2022-02-22 03:00","2022","02","22","03:00","-31.8","","-36.0","","67","","0.0","","29","","26","","16.1","","102.67","","","","-47","","NA"
"-94.07","61.09","ARVIAT A","2300427","2022-02-22 04:00","2022","02","22","04:00","-31.6","","-35.8","","67","","0.0","","28","","22","","16.1","","102.68","","","","-46","","NA"
"-94.07","61.09","ARVIAT A","2300427","2022-02-22 05:00","2022","02","22","05:00","-32.5","","-36.9","","66","","0.0","","29","","21","","16.1","","102.64","","","","-47","","NA"
"-94.07","61.09","ARVIAT A","2300427","2022-02-22 06:00","2022","02","22","06:00","-33.3","","-37.6","","66","","0.0","","28","","26","","16.1","","102.68","","","","-49","","NA"
"-94.07","61.09","ARVIAT A","2300427","2022-02-22 07:00","2022","02","22","07:00","-32.1","","-36.5","","66","","0.0","","30","","30","","16.1","","102.64","","","","-48","","NA"
"-94.07","61.09","ARVIAT A","2300427","2022-02-22 08:00","2022","02","22","08:00","-32.5","","-36.7","","67","","0.0","","30","","30","","12.9","","102.64","","","","-49","","NA"
"-94.07","61.09","ARVIAT A","2300427","2022-02-22 09:00","2022","02","22","09:00","-33.6","","-37.8","","67","","0.0","","30","","22","","16.1","","102.68","","","","-48","","NA"
"-94.07","61.09","ARVIAT A","2300427","2022-02-22 10:00","2022","02","22","10:00","-32.5","","-36.9","","66","","0.0","","31","","26","","16.1","","102.67","","","","-48","","NA"
"-94.07","61.09","ARVIAT A","2300427","2022-02-22 11:00","2022","02","22","11:00","-32.6","","-37.0","","66","","0.0","","30","","22","","16.1","","102.68","","","","-47","","NA"
"-94.07","61.09","ARVIAT A","2300427","2022-02-22 12:00","2022","02","22","12:00","-32.4","","-36.9","","65","","0.0","","32","","30","","14.5","","102.72","","","","-49","","NA"
"-94.07","61.09","ARVIAT A","2300427","2022-02-22 13:00","2022","02","22","13:00","-31.0","","-35.7","","64","","0.0","","33","","28","","16.1","","102.72","","","","-46","","NA"
"-94.07","61.09","ARVIAT A","2300427","2022-02-22 14:00","2022","02","22","14:00","-31.9","","-36.6","","64","","0.0","","31","","28","","16.1","","102.75","","","","-48","","NA"
"-94.07","61.09","ARVIAT A","2300427","2022-02-22 15:00","2022","02","22","15:00","-30.5","","-35.1","","65","","0.0","","32","","28","","14.5","","102.77","","","","-46","","NA"
"-94.07","61.09","ARVIAT A","2300427","2022-02-22 16:00","2022","02","22","16:00","-31.3","","-35.9","","65","","0.0","","32","","26","","16.1","","102.77","","","","-46","","NA"
"-94.07","61.09","ARVIAT A","2300427","2022-02-22 17:00","2022","02","22","17:00","-30.2","","-34.7","","66","","0.0","","32","","26","","12.9","","102.80","","","","-45","","NA"
"-94.07","61.09","ARVIAT A","2300427","2022-02-22 18:00","2022","02","22","18:00","-31.6","","-35.8","","67","","0.0","","32","","24","","16.1","","102.83","","","","-46","","NA"
"-94.07","61.09","ARVIAT A","2300427","2022-02-22 19:00","2022","02","22","19:00","-31.0","","-35.1","","68","","0.0","","31","","18","","16.1","","102.86","","","","-44","","NA"
"-94.07","61.09","ARVIAT A","2300427","2022-02-22 20:00","2022","02","22","20:00","-32.5","","-36.6","","68","","0.0","","30","","15","","16.1","","102.86","","","","-44","","NA"
"-94.07","61.09","ARVIAT A","2300427","2022-02-22 21:00","2022","02","22","21:00","-33.3","","-37.2","","69","","0.0","","31","","17","","16.1","","102.86","","","","-46","","NA"
"-94.07","61.09","ARVIAT A","2300427","2022-02-22 22:00","2022","02","22","22:00","-31.3","","-35.3","","69","","0.0","","33","","15","","16.1","","102.82","","","","-43","","NA"
"-94.07","61.09","ARVIAT A","2300427","2022-02-22 23:00","2022","02","22","23:00","-31.8","","-35.7","","69","","0.0","","32","","15","","16.1","","102.82","","","","-44","","NA"
"-94.07","61.09","ARVIAT A","2300427","2022-02-23 00:00","2022","02","23","00:00","-32.9","","-37.0","","68","","0.0","","33","","18","","16.1","","102.80","","","","-46","","NA"
"-94.07","61.09","ARVIAT A","2300427","2022-02-23 01:00","2022","02","23","01:00","-32.4","","-36.5","","68","","0.0","","33","","18","","16.1","","102.79","","","","-45","","NA"
"-94.07","61.09","ARVIAT A","2300427","2022-02-23 02:00","2022","02","23","02:00","-33.7","","-37.7","","68","","0.0","","33","","17","","16.1","","102.79","","","","-47","","NA"
"-94.07","61.09","ARVIAT A","2300427","2022-02-23 03:00","2022","02","23","03:00","-34.0","","-38.0","","68","","0.0","","33","","22","","16.1","","102.79","","","","-49","","NA"
"-94.07","61.09","ARVIAT A","2300427","2022-02-23 04:00","2022","02","23","04:00","-33.2","","-37.1","","69","","0.0","","32","","15","","16.1","","102.80","","","","-45","","NA"
"-94.07","61.09","ARVIAT A","2300427","2022-02-23 05:00","2022","02","23","05:00","-33.9","","-37.9","","68","","0.0","","33","","21","","16.1","","102.74","","","","-48","","NA"
"-94.07","61.09","ARVIAT A","2300427","2022-02-23 06:00","2022","02","23","06:00","-34.2","","-38.2","","68","","0.0","","33","","22","","16.1","","102.72","","","","-49","","NA"
"-94.07","61.09","ARVIAT A","2300427","2022-02-23 07:00","2022","02","23","07:00","-34.9","","-38.9","","68","","0.0","","33","","21","","16.1","","102.73","","","","-50","","NA"
"-94.07","61.09","ARVIAT A","2300427","2022-02-23 08:00","2022","02","23","08:00","-33.9","","-37.9","","68","","0.0","","33","","17","","16.1","","102.75","","","","-47","","NA"
"-94.07","61.09","ARVIAT A","2300427","2022-02-23 09:00","2022","02","23","09:00","-34.1","","-38.3","","67","","0.0","","31","","17","","16.1","","102.74","","","","-47","","NA"
"-94.07","61.09","ARVIAT A","2300427","2022-02-23 10:00","2022","02","23","10:00","-34.6","","-38.7","","67","","0.0","","32","","21","","16.1","","102.72","","","","-49","","NA"
"-94.07","61.09","ARVIAT A","2300427","2022-02-23 11:00","2022","02","23","11:00","-33.4","","-37.6","","67","","0.0","","32","","21","","16.1","","102.72","","","","-48","","NA"
"-94.07","61.09","ARVIAT A","2300427","2022-02-23 12:00","2022","02","23","12:00","-31.8","","-36.0","","67","","0.0","","33","","21","","16.1","","102.71","","","","-46","","NA"
"-94.07","61.09","ARVIAT A","2300427","2022-02-23 13:00","2022","02","23","13:00","-31.8","","-36.0","","67","","0.0","","32","","21","","16.1","","102.71","","","","-46","","NA"
"-94.07","61.09","ARVIAT A","2300427","2022-02-23 14:00","2022","02","23","14:00","-30.3","","-34.6","","67","","0.0","","32","","22","","16.1","","102.69","","","","-44","","NA"
"-94.07","61.09","ARVIAT A","2300427","2022-02-23 15:00","2022","02","23","15:00","-29.4","","-33.6","","68","","0.0","","32","","21","","16.1","","102.68","","","","-43","","NA"
"-94.07","61.09","ARVIAT A","2300427","2022-02-23 16:00","2022","02","23","16:00","-29.2","","-33.4","","68","","0.0","","31","","21","","16.1","","102.70","","","","-42","","NA"
"-94.07","61.09","ARVIAT A","2300427","2022-02-23 17:00","2022","02","23","17:00","-29.4","","-33.6","","68","","0.0","","31","","18","","16.1","","102.71","","","","-42","","NA"
"-94.07","61.09","ARVIAT A","2300427","2022-02-23 18:00","2022","02","23","18:00","-30.7","","-34.7","","69","","0.0","","30","","13","","16.1","","102.73","","","","-41","","NA"
"-94.07","61.09","ARVIAT A","2300427","2022-02-23 19:00","2022","02","23","19:00","-31.3","","-35.3","","69","","0.0","","29","","9","","16.1","","102.69","","","","-40","","NA"
"-94.07","61.09","ARVIAT A","2300427","2022-02-23 20:00","2022","02","23","20:00","-31.3","","-35.0","","71","","0.0","","29","","15","","16.1","","102.70","","","","-43","","NA"
"-94.07","61.09","ARVIAT A","2300427","2022-02-23 21:00","2022","02","23","21:00","-33.7","","-37.6","","69","","0.0","","29","","11","","16.1","","102.69","","","","-44","","NA"
"-94.07","61.09","ARVIAT A","2300427","2022-02-23 22:00","2022","02","23","22:00","-33.4","","-37.3","","69","","0.0","","28","","17","","16.1","","102.67","","","","-46","","NA"
"-94.07","61.09","ARVIAT A","2300427","2022-02-23 23:00","2022","02","23","23:00","-33.6","","-37.5","","69","","0.0","","27","","11","","16.1","","102.63","","","","-44","","NA"
"-94.07","61.09","ARVIAT A","2300427","2022-02-24 00:00","2022","02","24","00:00","-34.2","","-38.1","","69","","0.0","","29","","18","","16.1","","102.63","","","","-48","","NA"
"-94.07","61.09","ARVIAT A","2300427","2022-02-24 01:00","2022","02","24","01:00","-35.2","","-39.0","","69","","0.0","","28","","13","","16.1","","102.58","","","","-47","","NA"
"-94.07","61.09","ARVIAT A","2300427","2022-02-24 02:00","2022","02","24","02:00","-33.7","","-37.7","","68","","0.0","","29","","17","","16.1","","102.57","","","","-47","","NA"
"-94.07","61.09","ARVIAT A","2300427","2022-02-24 03:00","2022","02","24","03:00","-33.9","","-37.8","","69","","0.0","","29","","18","","16.1","","102.57","","","","-47","","NA"
"-94.07","61.09","ARVIAT A","2300427","2022-02-24 04:00","2022","02","24","04:00","-34.4","","-38.4","","68","","0.0","","30","","18","","16.1","","102.54","","","","-48","","NA"
"-94.07","61.09","ARVIAT A","2300427","2022-02-24 05:00","2022","02","24","05:00","-34.6","","-38.4","","69","","0.0","","31","","18","","16.1","","102.53","","","","-48","","NA"
"-94.07","61.09","ARVIAT A","2300427","2022-02-24 06:00","2022","02","24","06:00","-34.5","","-38.5","","68","","0.0","","28","","11","","16.1","","102.50","","","","-45","","NA"
"-94.07","61.09","ARVIAT A","2300427","2022-02-24 07:00","2022","02","24","07:00","-34.1","","-38.0","","69","","0.0","","30","","18","","16.1","","102.46","","","","-48","","NA"
"-94.07","61.09","ARVIAT A","2300427","2022-02-24 08:00","2022","02","24","08:00","-34.6","","-38.4","","69","","0.0","","30","","18","","16.1","","102.42","","","","-48","","NA"
"-94.07","61.09","ARVIAT A","2300427","2022-02-24 09:00","2022","02","24","09:00","-34.4","","-38.1","","70","","0.0","","29","","11","","16.1","","102.41","","","","-45","","NA"
"-94.07","61.09","ARVIAT A","2300427","2022-02-24 10:00","2022","02","24","10:00","-34.4","","-38.3","","69","","0.0","","24","","13","","16.1","","102.36","","","","-46","","NA"
"-94.07","61.09","ARVIAT A","2300427","2022-02-24 11:00","2022","02","24","11:00","-34.1","","-37.8","","70","","0.0","","23","","5","","16.1","","102.31","","","","-40","","NA"
"-94.07","61.09","ARVIAT A","2300427","2022-02-24 12:00","2022","02","24","12:00","-31.6","","-35.4","","70","","0.0","","25","","8","","16.1","","102.27","","","","-40","","NA"
"-94.07","61.09","ARVIAT A","2300427","2022-02-24 13:00","2022","02","24","13:00","-29.4","","-33.0","","72","","0.0","","23","","13","","16.1","","102.22","","","","-40","","NA"
"-94.07","61.09","ARVIAT A","2300427","2022-02-24 14:00","2022","02","24","14:00","-28.0","","-31.3","","74","","0.0","","24","","15","","16.1","","102.13","","","","-39","","NA"
"-94.07","61.09","ARVIAT A","2300427","2022-02-24 15:00","2022","02","24","15:00","-26.5","","-29.3","","78","","0.0","","21","","15","","16.1","","102.05","","","","-37","","NA"
"-94.07","61.09","ARVIAT A","2300427","2022-02-24 16:00","2022","02","24","16:00","-26.9","","-30.2","","75","","0.0","","22","","17","","16.1","","101.98","","","","-38","","NA"
"-94.07","61.09","ARVIAT A","2300427","2022-02-24 17:00","2022","02","24","17:00","-26.6","","-30.1","","73","","0.0","","21","","17","","16.1","","101.89","","","","-38","","NA"
"-94.07","61.09","ARVIAT A","2300427","2022-02-24 18:00","2022","02","24","18:00","-26.3","","-29.7","","74","","0.0","","22","","18","","16.1","","101.80","","","","-38","","NA"
"-94.07","61.09","ARVIAT A","2300427","2022-02-24 19:00","2022","02","24","19:00","-25.7","","-29.1","","74","","0.0","","21","","15","","16.1","","101.68","","","","-36","","NA"
"-94.07","61.09","ARVIAT A","2300427","2022-02-24 20:00","2022","02","24","20:00","-24.7","","-27.9","","75","","0.0","","20","","22","","16.1","","101.56","","","","-37","","NA"
"-94.07","61.09","ARVIAT A","2300427","2022-02-24 21:00","2022","02","24","21:00","-24.5","","-27.8","","75","","0.0","","21","","26","","16.1","","101.43","","","","-38","","NA"
"-94.07","61.09","ARVIAT A","2300427","2022-02-24 22:00","2022","02","24","22:00","-24.9","","-28.1","","75","","0.0","","22","","21","","16.1","","101.33","","","","-37","","NA"
"-94.07","61.09","ARVIAT A","2300427","2022-02-24 23:00","2022","02","24","23:00","-25.3","","-28.4","","76","","0.0","","21","","22","","16.1","","101.19","","","","-38","","NA"
"-94.07","61.09","ARVIAT A","2300427","2022-02-25 00:00","2022","02","25","00:00","-25.6","","-28.7","","76","","0.0","","22","","21","","16.1","","101.08","","","","-38","","NA"
"-94.07","61.09","ARVIAT A","2300427","2022-02-25 01:00","2022","02","25","01:00","-25.8","","-28.9","","76","","0.0","","22","","17","","16.1","","100.96","","","","-37","","NA"
"-94.07","61.09","ARVIAT A","2300427","2022-02-25 02:00","2022","02","25","02:00","-26.1","","-29.3","","75","","0.0","","22","","18","","16.1","","100.80","","","","-38","","NA"
"-94.07","61.09","ARVIAT A","2300427","2022-02-25 03:00","2022","02","25","03:00","-26.4","","-29.5","","76","","0.0","","23","","18","","16.1","","100.71","","","","-38","","NA"
"-94.07","61.09","ARVIAT A","2300427","2022-02-25 04:00","2022","02","25","04:00","-25.3","","-28.4","","76","","0.0","","23","","18","","16.1","","100.61","","","","-37","","NA"
"-94.07","61.09","ARVIAT A","2300427","2022-02-25 05:00","2022","02","25","05:00","-25.8","","-28.9","","76","","0.0","","25","","15","","16.1","","100.52","","","","-36","","NA"
"-94.07","61.09","ARVIAT A","2300427","2022-02-25 06:00","2022","02","25","06:00","-24.3","","-27.4","","76","","0.0","","25","","18","","16.1","","100.42","","","","-35","","NA"
"-94.07","61.09","ARVIAT A","2300427","2022-02-25 07:00","2022","02","25","07:00","-23.3","","-26.0","","79","","0.0","","25","","15","","16.1","","100.35","","","","-33","","Snow"
"-94.07","61.09","ARVIAT A","2300427","2022-02-25 08:00","2022","02","25","08:00","-23.0","","-25.6","","80","","0.0","","26","","18","","16.1","","100.26","","","","-34","","Snow"
"-94.07","61.09","ARVIAT A","2300427","2022-02-25 09:00","2022","02","25","09:00","-22.3","","-24.8","","80","","0.0","","26","","17","","6.4","","100.21","","","","-33","","Snow"
"-94.07","61.09","ARVIAT A","2300427","2022-02-25 10:00","2022","02","25","10:00","-19.9","","-22.4","","81","","0.0","","27","","18","","16.1","","100.16","","","","-30","","Snow"
"-94.07","61.09","ARVIAT A","2300427","2022-02-25 11:00","2022","02","25","11:00","-19.0","","-21.5","","81","","0.0","","27","","15","","9.7","","100.13","","","","-28","","Snow"
"-94.07","61.09","ARVIAT A","2300427","2022-02-25 12:00","2022","02","25","12:00","-17.6","","-20.1","","81","","0.0","","30","","18","","9.7","","100.04","","","","-27","","Snow"
"-94.07","61.09","ARVIAT A","2300427","2022-02-25 13:00","2022","02","25","13:00","-17.8","","-20.3","","81","","0.0","","31","","24","","4.8","","100.03","","","","-29","","Fog"
"-94.07","61.09","ARVIAT A","2300427","2022-02-25 14:00","2022","02","25","14:00","-18.0","","-20.4","","82","","0.0","","30","","30","","4.8","","99.97","","","","-30","","Fog"
"-94.07","61.09","ARVIAT A","2300427","2022-02-25 15:00","2022","02","25","15:00","-18.2","","-20.6","","82","","0.0","","33","","22","","1.2","","99.99","","","","-29","","Snow"
"-94.07","61.09","ARVIAT A","2300427","2022-02-25 16:00","2022","02","25","16:00","-19.1","","-21.7","","80","","0.0","","34","","30","","2.4","","99.99","","","","-31","","Haze"
"-94.07","61.09","ARVIAT A","2300427","2022-02-25 17:00","2022","02","25","17:00","-19.8","","-22.4","","80","","0.0","","34","","28","","6.4","","100.01","","","","-32","","Snow"
"-94.07","61.09","ARVIAT A","2300427","2022-02-25 18:00","2022","02","25","18:00","-20.8","","-23.4","","80","","0.0","","33","","13","","16.1","","100.05","","","","-29","","NA"
"-94.07","61.09","ARVIAT A","2300427","2022-02-25 19:00","2022","02","25","19:00","-20.6","","-23.1","","81","","0.0","","32","","17","","16.1","","100.07","","","","-30","","NA"
"-94.07","61.09","ARVIAT A","2300427","2022-02-25 20:00","2022","02","25","20:00","-21.4","","-23.8","","81","","0.0","","33","","15","","16.1","","100.06","","","","-31","","NA"
"-94.07","61.09","ARVIAT A","2300427","2022-02-25 21:00","2022","02","25","21:00","-23.0","","-25.7","","79","","0.0","","32","","18","","16.1","","100.06","","","","-34","","NA"
"-94.07","61.09","ARVIAT A","2300427","2022-02-25 22:00","2022","02","25","22:00","-21.9","","-24.5","","80","","0.0","","32","","22","","11.3","","100.02","","","","-33","","Snow"
"-94.07","61.09","ARVIAT A","2300427","2022-02-25 23:00","2022","02","25","23:00","-21.2","","-23.8","","80","","0.0","","33","","21","","6.4","","100.02","","","","-32","","Snow"
"-94.07","61.09","ARVIAT A","2300427","2022-02-26 00:00","2022","02","26","00:00","-22.7","","-25.4","","79","","0.0","","35","","32","","1.2","","100.08","","","","-36","","Snow"
"-94.07","61.09","ARVIAT A","2300427","2022-02-26 01:00","2022","02","26","01:00","-24.4","","-27.4","","77","","0.0","","34","","32","","1.6","","100.14","","","","-39","","Snow"
"-94.07","61.09","ARVIAT A","2300427","2022-02-26 02:00","2022","02","26","02:00","-24.6","","-27.6","","77","","0.0","","33","","35","","1.6","","100.14","","","","-39","","Snow"
"-94.07","61.09","ARVIAT A","2300427","2022-02-26 03:00","2022","02","26","03:00","-25.5","","-28.7","","75","","0.0","","32","","32","","3.2","","100.19","","","","-40","","Haze"
"-94.07","61.09","ARVIAT A","2300427","2022-02-26 04:00","2022","02","26","04:00","-27.0","","-30.3","","74","","0.0","","32","","28","","6.4","","100.24","","","","-41","","Haze"
"-94.07","61.09","ARVIAT A","2300427","2022-02-26 05:00","2022","02","26","05:00","-28.0","","-31.3","","74","","0.0","","32","","34","","6.4","","100.26","","","","-44","","Haze"
"-94.07","61.09","ARVIAT A","2300427","2022-02-26 06:00","2022","02","26","06:00","-27.4","","-30.6","","75","","0.0","","32","","34","","2.8","","100.29","","","","-43","","Haze"
"-94.07","61.09","ARVIAT A","2300427","2022-02-26 07:00","2022","02","26","07:00","-28.6","","-31.9","","74","","0.0","","32","","32","","2.4","","100.33","","","","-44","","Haze"
"-94.07","61.09","ARVIAT A","2300427","2022-02-26 08:00","2022","02","26","08:00","-28.3","","-31.7","","73","","0.0","","32","","32","","3.2","","100.38","","","","-44","","Haze"
"-94.07","61.09","ARVIAT A","2300427","2022-02-26 09:00","2022","02","26","09:00","-29.3","","-32.7","","73","","0.0","","32","","34","","2.4","","100.41","","","","-46","","Haze"
"-94.07","61.09","ARVIAT A","2300427","2022-02-26 10:00","2022","02","26","10:00","-28.9","","-32.3","","73","","0.0","","33","","35","","0.8","","100.44","","","","-45","","Moderate Snow"
"-94.07","61.09","ARVIAT A","2300427","2022-02-26 11:00","2022","02","26","11:00","-28.6","","-32.0","","73","","0.0","","33","","39","","0.6","","100.51","","","","-45","","Moderate Snow"
"-94.07","61.09","ARVIAT A","2300427","2022-02-26 12:00","2022","02","26","12:00","-26.4","","-29.7","","74","","0.0","","33","","34","","1.2","","100.60","","","","-42","","Haze"
"-94.07","61.09","ARVIAT A","2300427","2022-02-26 13:00","2022","02","26","13:00","-24.5","","-27.8","","75","","0.0","","34","","30","","4.8","","100.73","","","","-38","","Haze"
"-94.07","61.09","ARVIAT A","2300427","2022-02-26 14:00","2022","02","26","14:00","-23.8","","-26.9","","76","","0.0","","34","","34","","2.4","","100.85","","","","-38","","Haze"
"-94.07","61.09","ARVIAT A","2300427","2022-02-26 15:00","2022","02","26","15:00","-24.2","","-27.3","","76","","0.0","","34","","41","","1.0","","100.94","","","","-40","","Blowing Snow"
"-94.07","61.09","ARVIAT A","2300427","2022-02-26 16:00","2022","02","26","16:00","-25.2","","-28.4","","75","","0.0","","34","","45","","0.6","","101.03","","","","-42","","Moderate Snow,Blowing Snow"
"-94.07","61.09","ARVIAT A","2300427","2022-02-26 17:00","2022","02","26","17:00","-25.7","","-28.9","","75","","0.0","","34","","43","","0.6","","101.15","","","","-42","","Moderate Snow,Blowing Snow"
"-94.07","61.09","ARVIAT A","2300427","2022-02-26 18:00","2022","02","26","18:00","-25.9","","-29.1","","75","","0.0","","34","","41","","1.2","","101.24","","","","-42","","Snow,Blowing Snow"
"-94.07","61.09","ARVIAT A","2300427","2022-02-26 19:00","2022","02","26","19:00","-26.5","","-29.7","","75","","0.0","","33","","35","","1.6","","101.32","","","","-42","","Snow"
"-94.07","61.09","ARVIAT A","2300427","2022-02-26 20:00","2022","02","26","20:00","-27.2","","-30.4","","75","","0.0","","33","","41","","1.2","","101.33","","","","-44","","Snow,Blowing Snow"
"-94.07","61.09","ARVIAT A","2300427","2022-02-26 21:00","2022","02","26","21:00","-26.6","","-29.8","","75","","0.0","","32","","30","","4.8","","101.40","","","","-41","","Haze"
"-94.07","61.09","ARVIAT A","2300427","2022-02-26 22:00","2022","02","26","22:00","-28.0","","-31.2","","75","","0.0","","33","","39","","1.0","","101.40","","","","-45","","Snow"
"-94.07","61.09","ARVIAT A","2300427","2022-02-26 23:00","2022","02","26","23:00","-27.1","","-30.3","","75","","0.0","","32","","35","","1.2","","101.47","","","","-43","","Snow"
"-94.07","61.09","ARVIAT A","2300427","2022-02-27 00:00","2022","02","27","00:00","-28.0","","-31.2","","75","","0.0","","32","","41","","1.0","","101.44","","","","-45","","Snow,Blowing Snow"
"-94.07","61.09","ARVIAT A","2300427","2022-02-27 01:00","2022","02","27","01:00","-27.3","","-30.4","","75","","0.0","","33","","43","","0.6","","101.46","","","","-44","","Moderate Snow,Blowing Snow"
"-94.07","61.09","ARVIAT A","2300427","2022-02-27 02:00","2022","02","27","02:00","-26.8","","-30.0","","75","","0.0","","33","","46","","0.6","","101.42","","","","-44","","Moderate Snow,Blowing Snow"
"-94.07","61.09","ARVIAT A","2300427","2022-02-27 03:00","2022","02","27","03:00","-27.5","","-30.7","","75","","0.1","","32","","39","","2.0","","101.53","","","","-44","","Snow"
"-94.07","61.09","ARVIAT A","2300427","2022-02-27 04:00","2022","02","27","04:00","-27.0","","-30.2","","75","","0.0","","32","","37","","1.0","","101.55","","","","-43","","Snow"
"-94.07","61.09","ARVIAT A","2300427","2022-02-27 05:00","2022","02","27","05:00","-28.1","","-31.3","","75","","0.0","","32","","48","","1.6","","101.52","","","","-46","","Snow,Blowing Snow"
"-94.07","61.09","ARVIAT A","2300427","2022-02-27 06:00","2022","02","27","06:00","-26.6","","-29.7","","76","","0.0","","33","","45","","1.2","","101.55","","","","-44","","Snow,Blowing Snow"
"-94.07","61.09","ARVIAT A","2300427","2022-02-27 07:00","2022","02","27","07:00","-27.4","","-30.6","","75","","0.0","","31","","46","","1.2","","101.61","","","","-45","","Snow,Blowing Snow"
"-94.07","61.09","ARVIAT A","2300427","2022-02-27 08:00","2022","02","27","08:00","-27.2","","-30.4","","75","","0.0","","32","","46","","1.2","","101.61","","","","-45","","Snow,Blowing Snow"
"-94.07","61.09","ARVIAT A","2300427","2022-02-27 09:00","2022","02","27","09:00","-26.8","","-30.0","","75","","0.0","","32","","48","","1.2","","101.65","","","","-44","","Snow,Blowing Snow"
"-94.07","61.09","ARVIAT A","2300427","2022-02-27 10:00","2022","02","27","10:00","-27.5","","-30.7","","75","","0.0","","32","","45","","0.8","","101.70","","","","-45","","Moderate Snow,Blowing Snow"
"-94.07","61.09","ARVIAT A","2300427","2022-02-27 11:00","2022","02","27","11:00","-26.3","","-29.7","","74","","0.0","","33","","39","","1.2","","101.74","","","","-42","","Haze"
"-94.07","61.09","ARVIAT A","2300427","2022-02-27 12:00","2022","02","27","12:00","-25.7","","-29.2","","73","","0.0","","32","","43","","3.2","","101.72","","","","-42","","Blowing Snow"
"-94.07","61.09","ARVIAT A","2300427","2022-02-27 13:00","2022","02","27","13:00","-25.3","","-28.8","","73","","0.0","","33","","41","","3.6","","101.76","","","","-41","","Blowing Snow"
"-94.07","61.09","ARVIAT A","2300427","2022-02-27 14:00","2022","02","27","14:00","-24.6","","-28.0","","74","","0.0","","33","","37","","4.8","","101.76","","","","-40","","Haze"
"-94.07","61.09","ARVIAT A","2300427","2022-02-27 15:00","2022","02","27","15:00","-24.1","","-27.5","","74","","0.0","","32","","34","","8.1","","101.79","","","","-39","","Haze"
"-94.07","61.09","ARVIAT A","2300427","2022-02-27 16:00","2022","02","27","16:00","-23.9","","-27.3","","74","","0.0","","31","","26","","16.1","","101.82","","","","-37","","NA"
"-94.07","61.09","ARVIAT A","2300427","2022-02-27 17:00","2022","02","27","17:00","-24.0","","-27.3","","75","","0.0","","31","","28","","6.4","","101.80","","","","-37","","Haze"
"-94.07","61.09","ARVIAT A","2300427","2022-02-27 18:00","2022","02","27","18:00","-24.4","","-27.7","","75","","0.0","","30","","34","","16.1","","101.77","","","","-39","","NA"
"-94.07","61.09","ARVIAT A","2300427","2022-02-27 19:00","2022","02","27","19:00","-24.2","","-27.5","","75","","0.0","","30","","17","","16.1","","101.78","","","","-35","","NA"
"-94.07","61.09","ARVIAT A","2300427","2022-02-27 20:00","2022","02","27","20:00","-23.8","","-27.4","","73","","0.0","","30","","26","","16.1","","101.75","","","","-37","","NA"
"-94.07","61.09","ARVIAT A","2300427","2022-02-27 21:00","2022","02","27","21:00","-23.6","","-27.3","","72","","0.0","","30","","28","","16.1","","101.67","","","","-37","","NA"
"-94.07","61.09","ARVIAT A","2300427","2022-02-27 22:00","2022","02","27","22:00","-23.1","","-26.0","","78","","0.0","","29","","21","","3.2","","101.57","","","","-35","","Snow"
"-94.07","61.09","ARVIAT A","2300427","2022-02-27 23:00","2022","02","27","23:00","-23.7","","-26.8","","76","","0.0","","30","","17","","9.7","","101.53","","","","-34","","Haze"
"-94.07","61.09","ARVIAT A","2300427","2022-02-28 00:00","2022","02","28","00:00","-24.8","","-27.7","","77","","0.0","","28","","15","","8.1","","101.46","","","","-35","","Haze"
"-94.07","61.09","ARVIAT A","2300427","2022-02-28 01:00","2022","02","28","01:00","-25.8","","-29.1","","74","","0.0","","29","","21","","16.1","","101.44","","","","-38","","NA"
"-94.07","61.09","ARVIAT A","2300427","2022-02-28 02:00","2022","02","28","02:00","-25.9","","-29.4","","73","","0.0","","30","","18","","16.1","","101.42","","","","-37","","NA"
"-94.07","61.09","ARVIAT A","2300427","2022-02-28 03:00","2022","02","28","03:00","-28.2","","-31.5","","74","","0.0","","26","","8","","16.1","","101.40","","","","-36","","NA"
"-94.07","61.09","ARVIAT A","2300427","2022-02-28 04:00","2022","02","28","04:00","-28.2","","-31.8","","72","","0.0","","28","","18","","16.1","","101.32","","","","-40","","NA"
"-94.07","61.09","ARVIAT A","2300427","2022-02-28 05:00","2022","02","28","05:00","-29.0","","-32.6","","72","","0.0","","29","","15","","16.1","","101.29","","","","-40","","NA"
"-94.07","61.09","ARVIAT A","2300427","2022-02-28 06:00","2022","02","28","06:00","-28.6","","-32.3","","71","","0.0","","29","","17","","16.1","","101.25","","","","-40","","NA"
"-94.07","61.09","ARVIAT A","2300427","2022-02-28 07:00","2022","02","28","07:00","-28.7","","-32.3","","72","","0.0","","30","","30","","16.1","","101.23","","","","-44","","NA"
"-94.07","61.09","ARVIAT A","2300427","2022-02-28 08:00","2022","02","28","08:00","-28.1","","-31.7","","72","","0.0","","28","","24","","16.1","","101.18","","","","-42","","NA"
"-94.07","61.09","ARVIAT A","2300427","2022-02-28 09:00","2022","02","28","09:00","-30.6","","-34.3","","71","","0.0","","27","","15","","16.1","","101.14","","","","-42","","NA"
"-94.07","61.09","ARVIAT A","2300427","2022-02-28 10:00","2022","02","28","10:00","-29.5","","-33.2","","71","","0.0","","27","","17","","16.1","","101.11","","","","-42","","NA"
"-94.07","61.09","ARVIAT A","2300427","2022-02-28 11:00","2022","02","28","11:00","-27.6","","-31.5","","70","","0.0","","30","","26","","16.1","","101.06","","","","-42","","NA"
"-94.07","61.09","ARVIAT A","2300427","2022-02-28 12:00","2022","02","28","12:00","-26.7","","-30.3","","72","","0.0","","31","","26","","4.0","","101.06","","","","-40","","Snow"
"-94.07","61.09","ARVIAT A","2300427","2022-02-28 13:00","2022","02","28","13:00","-26.0","","-29.8","","71","","0.0","","31","","26","","16.1","","101.06","","","","-40","","NA"
"-94.07","61.09","ARVIAT A","2300427","2022-02-28 14:00","2022","02","28","14:00","-25.8","","-29.7","","71","","0.0","","32","","26","","16.1","","101.06","","","","-39","","NA"
"-94.07","61.09","ARVIAT A","2300427","2022-02-28 15:00","2022","02","28","15:00","-25.8","","-29.6","","71","","0.0","","32","","30","","16.1","","101.10","","","","-40","","NA"
"-94.07","61.09","ARVIAT A","2300427","2022-02-28 16:00","2022","02","28","16:00","-25.9","","-29.7","","71","","0.0","","33","","34","","12.9","","101.13","","","","-41","","NA"
"-94.07","61.09","ARVIAT A","2300427","2022-02-28 17:00","2022","02","28","17:00","-26.1","","-29.8","","72","","0.0","","34","","32","","16.1","","101.16","","","","-41","","NA"
"-94.07","61.09","ARVIAT A","2300427","2022-02-28 18:00","2022","02","28","18:00","-26.6","","-30.2","","72","","0.0","","32","","21","","16.1","","101.23","","","","-39","","NA"
"-94.07","61.09","ARVIAT A","2300427","2022-02-28 19:00","2022","02","28","19:00","-27.9","","-31.4","","73","","0.0","","33","","18","","16.1","","101.24","","","","-40","","NA"
"-94.07","61.09","ARVIAT A","2300427","2022-02-28 20:00","2022","02","28","20:00","-29.4","","-32.8","","73","","0.0","","29","","13","","16.1","","101.27","","","","-40","","NA"
"-94.07","61.09","ARVIAT A","2300427","2022-02-28 21:00","2022","02","28","21:00","-30.4","","-33.7","","74","","0.0","","30","","11","","16.1","","101.29","","","","-40","","NA"
"-94.07","61.09","ARVIAT A","2300427","2022-02-28 22:00","2022","02","28","22:00","-31.2","","-34.7","","72","","0.0","","30","","17","","16.1","","101.28","","","","-44","","NA"
"-94.07","61.09","ARVIAT A","2300427","2022-02-28 23:00","2022","02","28","23:00","-32.4","","-35.9","","72","","0.0","","30","","18","","16.1","","101.29","","","","-45","","NA"
