"Longitude (x)","Latitude (y)","Station Name","Climate ID","Date/Time (LST)","Year","Month","Day","Time (LST)","Temp (°C)","Temp Flag","Dew Point Temp (°C)","Dew Point Temp Flag","Rel Hum (%)","Rel Hum Flag","Precip. Amount (mm)","Precip. Amount Flag","Wind Dir (10s deg)","Wind Dir Flag","Wind Spd (km/h)","Wind Spd Flag","Visibility (km)","Visibility Flag","Stn Press (kPa)","Stn Press Flag","Hmdx","Hmdx Flag","Wind Chill","Wind Chill Flag","Weather"
"-72.66","46.23","NICOLET","7025442","2018-11-01 00:00","2018","11","01","00:00","2.9","","2.0","","94","","0.0","","32","","4","","","","100.86","","","","","","NA"
"-72.66","46.23","NICOLET","7025442","2018-11-01 01:00","2018","11","01","01:00","2.8","","2.0","","95","","0.0","","32","","5","","","","100.95","","","","","","NA"
"-72.66","46.23","NICOLET","7025442","2018-11-01 02:00","2018","11","01","02:00","3.0","","2.3","","95","","0.0","","25","","3","","","","101.03","","","","","","NA"
"-72.66","46.23","NICOLET","7025442","2018-11-01 03:00","2018","11","01","03:00","3.0","","2.3","","95","","0.0","","20","","7","","","","101.02","","","","","","NA"
"-72.66","46.23","NICOLET","7025442","2018-11-01 04:00","2018","11","01","04:00","2.8","","2.0","","95","","0.0","","22","","8","","","","101.06","","","","","","NA"
"-72.66","46.23","NICOLET","7025442","2018-11-01 05:00","2018","11","01","05:00","3.0","","2.2","","95","","0.0","","22","","6","","","","101.08","","","","","","NA"
"-72.66","46.23","NICOLET","7025442","2018-11-01 06:00","2018","11","01","06:00","3.1","","2.3","","94","","0.0","","20","","8","","","","101.13","","","","","","NA"
"-72.66","46.23","NICOLET","7025442","2018-11-01 07:00","2018","11","01","07:00","3.1","","2.3","","94","","0.0","","19","","6","","","","101.16","","","","","","NA"
"-72.66","46.23","NICOLET","7025442","2018-11-01 08:00","2018","11","01","08:00","3.4","","2.6","","94","","0.0","","22","","5","","","","101.24","","","","","","NA"
"-72.66","46.23","NICOLET","7025442","2018-11-01 09:00","2018","11","01","09:00","3.7","","2.8","","94","","0.0","","21","","5","","","","101.24","","","","","","NA"
"-72.66","46.23","NICOLET","7025442","2018-11-01 10:00","2018","11","01","10:00","4.0","","3.1","","93","","0.0","","20","","7","","","","101.22","","","","","","NA"
"-72.66","46.23","NICOLET","7025442","2018-11-01 11:00","2018","11","01","11:00","4.5","","3.4","","93","","0.0","","28","","2","","","","101.22","","","","","","NA"
"-72.66","46.23","NICOLET","7025442","2018-11-01 12:00","2018","11","01","12:00","4.5","","3.2","","91","","0.0","","34","","2","","","","101.16","","","","","","NA"
"-72.66","46.23","NICOLET","7025442","2018-11-01 13:00","2018","11","01","13:00","4.5","","3.1","","91","","0.0","","36","","4","","","","101.13","","","","","","NA"
"-72.66","46.23","NICOLET","7025442","2018-11-01 14:00","2018","11","01","14:00","5.0","","3.3","","89","","0.0","","1","","5","","","","101.12","","","","","","NA"
"-72.66","46.23","NICOLET","7025442","2018-11-01 15:00","2018","11","01","15:00","5.3","","3.1","","86","","0.0","","6","","2","","","","101.16","","","","","","NA"
"-72.66","46.23","NICOLET","7025442","2018-11-01 16:00","2018","11","01","16:00","5.3","","2.8","","84","","0.0","","2","","1","","","","101.24","","","","","","NA"
"-72.66","46.23","NICOLET","7025442","2018-11-01 17:00","2018","11","01","17:00","4.3","","2.8","","91","","0.0","","17","","4","","","","101.24","","","","","","NA"
"-72.66","46.23","NICOLET","7025442","2018-11-01 18:00","2018","11","01","18:00","4.2","","3.1","","92","","0.0","","10","","2","","","","101.22","","","","","","NA"
"-72.66","46.23","NICOLET","7025442","2018-11-01 19:00","2018","11","01","19:00","3.7","","2.9","","94","","0.0","","","","0","","","","101.20","","","","","","NA"
"-72.66","46.23","NICOLET","7025442","2018-11-01 20:00","2018","11","01","20:00","3.5","","2.7","","94","","0.0","","3","","4","","","","101.16","","","","","","NA"
"-72.66","46.23","NICOLET","7025442","2018-11-01 21:00","2018","11","01","21:00","3.4","","2.6","","94","","0.0","","","","0","","","","101.26","","","","","","NA"
"-72.66","46.23","NICOLET","7025442","2018-11-01 22:00","2018","11","01","22:00","4.0","","3.1","","94","","0.0","","5","","5","","","","101.15","","","","","","NA"
"-72.66","46.23","NICOLET","7025442","2018-11-01 23:00","2018","11","01","23:00","4.1","","3.1","","93","","0.0","","6","","6","","","","101.04","","","","","","NA"
"-72.66","46.23","NICOLET","7025442","2018-11-02 00:00","2018","11","02","00:00","4.0","","3.1","","94","","0.0","","5","","8","","","","101.04","","","","","","NA"
"-72.66","46.23","NICOLET","7025442","2018-11-02 01:00","2018","11","02","01:00","4.0","","3.0","","94","","1.9","","5","","9","","","","101.02","","","","","","NA"
"-72.66","46.23","NICOLET","7025442","2018-11-02 02:00","2018","11","02","02:00","4.0","","3.1","","94","","1.8","","5","","12","","","","100.92","","","","","","NA"
"-72.66","46.23","NICOLET","7025442","2018-11-02 03:00","2018","11","02","03:00","3.9","","2.9","","93","","1.5","","4","","13","","","","100.83","","","","","","NA"
"-72.66","46.23","NICOLET","7025442","2018-11-02 04:00","2018","11","02","04:00","3.7","","2.5","","92","","1.2","","5","","17","","","","100.71","","","","","","NA"
"-72.66","46.23","NICOLET","7025442","2018-11-02 05:00","2018","11","02","05:00","3.3","","2.1","","91","","1.1","","5","","19","","","","100.62","","","","","","NA"
"-72.66","46.23","NICOLET","7025442","2018-11-02 06:00","2018","11","02","06:00","3.1","","2.0","","92","","0.0","","5","","17","","","","100.53","","","","","","NA"
"-72.66","46.23","NICOLET","7025442","2018-11-02 07:00","2018","11","02","07:00","3.1","","1.9","","92","","3.5","","3","","19","","","","100.68","","","","","","NA"
"-72.66","46.23","NICOLET","7025442","2018-11-02 08:00","2018","11","02","08:00","2.1","","0.9","","92","","0.0","","5","","21","","","","100.57","","","","","","NA"
"-72.66","46.23","NICOLET","7025442","2018-11-02 09:00","2018","11","02","09:00","2.5","","1.3","","91","","1.2","","5","","23","","","","100.48","","","","","","NA"
"-72.66","46.23","NICOLET","7025442","2018-11-02 10:00","2018","11","02","10:00","2.8","","1.6","","92","","0.0","","4","","22","","","","100.40","","","","","","NA"
"-72.66","46.23","NICOLET","7025442","2018-11-02 11:00","2018","11","02","11:00","3.2","","2.1","","93","","0.0","","5","","18","","","","100.43","","","","","","NA"
"-72.66","46.23","NICOLET","7025442","2018-11-02 12:00","2018","11","02","12:00","3.6","","2.6","","93","","0.0","","4","","17","","","","100.45","","","","","","NA"
"-72.66","46.23","NICOLET","7025442","2018-11-02 13:00","2018","11","02","13:00","4.1","","3.0","","93","","0.0","","4","","18","","","","100.47","","","","","","NA"
"-72.66","46.23","NICOLET","7025442","2018-11-02 14:00","2018","11","02","14:00","4.1","","3.0","","93","","0.0","","4","","18","","","","100.51","","","","","","NA"
"-72.66","46.23","NICOLET","7025442","2018-11-02 15:00","2018","11","02","15:00","4.1","","3.1","","93","","0.0","","4","","16","","","","100.50","","","","","","NA"
"-72.66","46.23","NICOLET","7025442","2018-11-02 16:00","2018","11","02","16:00","4.1","","2.9","","92","","0.0","","5","","18","","","","100.53","","","","","","NA"
"-72.66","46.23","NICOLET","7025442","2018-11-02 17:00","2018","11","02","17:00","4.0","","2.9","","92","","0.0","","5","","15","","","","100.58","","","","","","NA"
"-72.66","46.23","NICOLET","7025442","2018-11-02 18:00","2018","11","02","18:00","4.0","","2.9","","92","","0.0","","5","","13","","","","100.59","","","","","","NA"
"-72.66","46.23","NICOLET","7025442","2018-11-02 19:00","2018","11","02","19:00","4.0","","3.0","","93","","0.0","","6","","13","","","","100.65","","","","","","NA"
"-72.66","46.23","NICOLET","7025442","2018-11-02 20:00","2018","11","02","20:00","4.0","","2.8","","92","","0.0","","5","","13","","","","100.67","","","","","","NA"
"-72.66","46.23","NICOLET","7025442","2018-11-02 21:00","2018","11","02","21:00","3.9","","2.7","","92","","0.0","","5","","13","","","","100.69","","","","","","NA"
"-72.66","46.23","NICOLET","7025442","2018-11-02 22:00","2018","11","02","22:00","4.0","","2.7","","92","","0.0","","6","","10","","","","100.67","","","","","","NA"
"-72.66","46.23","NICOLET","7025442","2018-11-02 23:00","2018","11","02","23:00","4.0","","2.8","","92","","0.0","","5","","10","","","","100.57","","","","","","NA"
"-72.66","46.23","NICOLET","7025442","2018-11-03 00:00","2018","11","03","00:00","4.1","","2.9","","92","","0.0","","5","","12","","","","100.52","","","","","","NA"
"-72.66","46.23","NICOLET","7025442","2018-11-03 01:00","2018","11","03","01:00","4.1","","3.0","","92","","0.0","","4","","11","","","","100.46","","","","","","NA"
"-72.66","46.23","NICOLET","7025442","2018-11-03 02:00","2018","11","03","02:00","4.3","","3.1","","92","","0.0","","5","","13","","","","100.46","","","","","","NA"
"-72.66","46.23","NICOLET","7025442","2018-11-03 03:00","2018","11","03","03:00","4.4","","3.2","","92","","0.0","","4","","10","","","","100.45","","","","","","NA"
"-72.66","46.23","NICOLET","7025442","2018-11-03 04:00","2018","11","03","04:00","4.3","","3.2","","93","","0.0","","5","","13","","","","100.29","","","","","","NA"
"-72.66","46.23","NICOLET","7025442","2018-11-03 05:00","2018","11","03","05:00","4.1","","3.1","","93","","0.0","","6","","14","","","","100.21","","","","","","NA"
"-72.66","46.23","NICOLET","7025442","2018-11-03 06:00","2018","11","03","06:00","4.2","","3.2","","93","","0.0","","6","","11","","","","100.18","","","","","","NA"
"-72.66","46.23","NICOLET","7025442","2018-11-03 07:00","2018","11","03","07:00","4.3","","3.4","","94","","0.0","","5","","9","","","","100.21","","","","","","NA"
"-72.66","46.23","NICOLET","7025442","2018-11-03 08:00","2018","11","03","08:00","4.4","","3.5","","94","","0.0","","4","","6","","","","100.13","","","","","","NA"
"-72.66","46.23","NICOLET","7025442","2018-11-03 09:00","2018","11","03","09:00","4.8","","3.9","","94","","0.0","","4","","9","","","","100.06","","","","","","NA"
"-72.66","46.23","NICOLET","7025442","2018-11-03 10:00","2018","11","03","10:00","4.9","","3.9","","94","","0.0","","4","","11","","","","99.96","","","","","","NA"
"-72.66","46.23","NICOLET","7025442","2018-11-03 11:00","2018","11","03","11:00","5.0","","4.1","","94","","0.0","","1","","6","","","","99.90","","","","","","NA"
"-72.66","46.23","NICOLET","7025442","2018-11-03 12:00","2018","11","03","12:00","4.9","","4.0","","94","","1.5","","2","","8","","","","99.76","","","","","","NA"
"-72.66","46.23","NICOLET","7025442","2018-11-03 13:00","2018","11","03","13:00","4.9","","3.9","","93","","4.6","","34","","9","","","","99.75","","","","","","NA"
"-72.66","46.23","NICOLET","7025442","2018-11-03 14:00","2018","11","03","14:00","5.2","","4.0","","92","","4.0","","28","","11","","","","99.81","","","","","","NA"
"-72.66","46.23","NICOLET","7025442","2018-11-03 15:00","2018","11","03","15:00","4.3","","2.1","","86","","4.9","","26","","24","","","","99.87","","","","","","NA"
"-72.66","46.23","NICOLET","7025442","2018-11-03 16:00","2018","11","03","16:00","3.7","","2.1","","89","","2.9","","26","","27","","","","99.99","","","","","","NA"
"-72.66","46.23","NICOLET","7025442","2018-11-03 17:00","2018","11","03","17:00","4.2","","2.5","","89","","0.0","","25","","34","","","","100.10","","","","","","NA"
"-72.66","46.23","NICOLET","7025442","2018-11-03 18:00","2018","11","03","18:00","4.9","","2.0","","81","","1.2","","25","","36","","","","100.29","","","","","","NA"
"-72.66","46.23","NICOLET","7025442","2018-11-03 19:00","2018","11","03","19:00","4.8","","0.9","","76","","0.0","","25","","37","","","","100.50","","","","","","NA"
"-72.66","46.23","NICOLET","7025442","2018-11-03 20:00","2018","11","03","20:00","4.4","","-0.8","","69","","0.0","","25","","38","","","","100.77","","","","","","NA"
"-72.66","46.23","NICOLET","7025442","2018-11-03 21:00","2018","11","03","21:00","4.2","","-1.1","","68","","0.0","","26","","33","","","","101.03","","","","","","NA"
"-72.66","46.23","NICOLET","7025442","2018-11-03 22:00","2018","11","03","22:00","4.1","","-1.5","","67","","0.0","","27","","33","","","","101.25","","","","","","NA"
"-72.66","46.23","NICOLET","7025442","2018-11-03 23:00","2018","11","03","23:00","3.8","","-1.7","","68","","0.0","","27","","25","","","","101.47","","","","","","NA"
"-72.66","46.23","NICOLET","7025442","2018-11-04 00:00","2018","11","04","00:00","4.0","","-1.8","","66","","0.0","","26","","33","","","","101.67","","","","","","NA"
"-72.66","46.23","NICOLET","7025442","2018-11-04 01:00","2018","11","04","01:00","3.8","","-2.5","","63","","0.0","","26","","28","","","","101.88","","","","","","NA"
"-72.66","46.23","NICOLET","7025442","2018-11-04 02:00","2018","11","04","02:00","3.7","","-2.7","","63","","0.0","","26","","25","","","","102.09","","","","","","NA"
"-72.66","46.23","NICOLET","7025442","2018-11-04 03:00","2018","11","04","03:00","3.5","","-3.7","","59","","0.0","","27","","28","","","","102.24","","","","","","NA"
"-72.66","46.23","NICOLET","7025442","2018-11-04 04:00","2018","11","04","04:00","3.4","","-2.9","","63","","0.0","","28","","17","","","","102.32","","","","","","NA"
"-72.66","46.23","NICOLET","7025442","2018-11-04 05:00","2018","11","04","05:00","3.3","","-3.5","","61","","0.0","","28","","21","","","","102.45","","","","","","NA"
"-72.66","46.23","NICOLET","7025442","2018-11-04 06:00","2018","11","04","06:00","3.2","","-3.4","","62","","0.0","","28","","21","","","","102.59","","","","","","NA"
"-72.66","46.23","NICOLET","7025442","2018-11-04 07:00","2018","11","04","07:00","2.6","","-3.5","","64","","0.0","","27","","22","","","","102.77","","","","","","NA"
"-72.66","46.23","NICOLET","7025442","2018-11-04 08:00","2018","11","04","08:00","2.5","","-4.3","","61","","0.0","","30","","13","","","","102.92","","","","","","NA"
"-72.66","46.23","NICOLET","7025442","2018-11-04 09:00","2018","11","04","09:00","2.9","","-5.0","","56","","0.0","","28","","20","","","","103.02","","","","","","NA"
"-72.66","46.23","NICOLET","7025442","2018-11-04 10:00","2018","11","04","10:00","3.7","","-5.5","","51","","0.0","","28","","15","","","","103.10","","","","","","NA"
"-72.66","46.23","NICOLET","7025442","2018-11-04 11:00","2018","11","04","11:00","4.3","","-4.8","","51","","0.0","","26","","15","","","","103.15","","","","","","NA"
"-72.66","46.23","NICOLET","7025442","2018-11-04 12:00","2018","11","04","12:00","5.3","","-5.5","","45","","0.0","","27","","16","","","","103.14","","","","","","NA"
"-72.66","46.23","NICOLET","7025442","2018-11-04 13:00","2018","11","04","13:00","5.9","","-5.9","","42","","0.0","","27","","13","","","","103.11","","","","","","NA"
"-72.66","46.23","NICOLET","7025442","2018-11-04 14:00","2018","11","04","14:00","6.1","","-5.8","","42","","0.0","","28","","9","","","","103.14","","","","","","NA"
"-72.66","46.23","NICOLET","7025442","2018-11-04 15:00","2018","11","04","15:00","5.8","","-6.6","","40","","0.0","","29","","9","","","","103.19","","","","","","NA"
"-72.66","46.23","NICOLET","7025442","2018-11-04 16:00","2018","11","04","16:00","5.4","","-5.7","","44","","0.0","","25","","6","","","","103.24","","","","","","NA"
"-72.66","46.23","NICOLET","7025442","2018-11-04 17:00","2018","11","04","17:00","2.1","","-4.4","","62","","0.0","","36","","2","","","","103.26","","","","","","NA"
"-72.66","46.23","NICOLET","7025442","2018-11-04 18:00","2018","11","04","18:00","0.5","","-3.4","","75","","0.0","","6","","3","","","","103.33","","","","","","NA"
"-72.66","46.23","NICOLET","7025442","2018-11-04 19:00","2018","11","04","19:00","-0.4","","-4.0","","77","","0.0","","4","","3","","","","103.37","","","","-1","","NA"
"-72.66","46.23","NICOLET","7025442","2018-11-04 20:00","2018","11","04","20:00","-1.0","","-3.3","","85","","0.0","","6","","5","","","","103.35","","","","-3","","NA"
"-72.66","46.23","NICOLET","7025442","2018-11-04 21:00","2018","11","04","21:00","-1.3","","-3.5","","85","","0.0","","7","","5","","","","103.43","","","","-3","","NA"
"-72.66","46.23","NICOLET","7025442","2018-11-04 22:00","2018","11","04","22:00","0.4","","-4.1","","72","","0.0","","7","","6","","","","103.39","","","","","","NA"
"-72.66","46.23","NICOLET","7025442","2018-11-04 23:00","2018","11","04","23:00","0.5","","-4.4","","70","","0.0","","6","","7","","","","103.34","","","","","","NA"
"-72.66","46.23","NICOLET","7025442","2018-11-05 00:00","2018","11","05","00:00","-0.2","","-4.4","","73","","0.0","","6","","5","","","","103.37","","","","-2","","NA"
"-72.66","46.23","NICOLET","7025442","2018-11-05 01:00","2018","11","05","01:00","0.1","","-4.6","","71","","0.0","","5","","8","","","","103.34","","","","","","NA"
"-72.66","46.23","NICOLET","7025442","2018-11-05 02:00","2018","11","05","02:00","-0.6","","-4.7","","74","","0.0","","7","","5","","","","103.33","","","","-2","","NA"
"-72.66","46.23","NICOLET","7025442","2018-11-05 03:00","2018","11","05","03:00","-0.9","","-4.7","","76","","0.0","","6","","7","","","","103.26","","","","-3","","NA"
"-72.66","46.23","NICOLET","7025442","2018-11-05 04:00","2018","11","05","04:00","-0.7","","-4.3","","76","","0.0","","6","","8","","","","103.24","","","","-4","","NA"
"-72.66","46.23","NICOLET","7025442","2018-11-05 05:00","2018","11","05","05:00","-0.7","","-4.2","","77","","0.0","","5","","9","","","","103.18","","","","-4","","NA"
"-72.66","46.23","NICOLET","7025442","2018-11-05 06:00","2018","11","05","06:00","-0.4","","-4.1","","76","","0.0","","6","","9","","","","103.16","","","","-4","","NA"
"-72.66","46.23","NICOLET","7025442","2018-11-05 07:00","2018","11","05","07:00","-0.3","","-4.0","","76","","0.0","","5","","13","","","","103.13","","","","-4","","NA"
"-72.66","46.23","NICOLET","7025442","2018-11-05 08:00","2018","11","05","08:00","0.4","","-3.7","","74","","0.0","","5","","12","","","","103.02","","","","","","NA"
"-72.66","46.23","NICOLET","7025442","2018-11-05 09:00","2018","11","05","09:00","1.4","","-3.2","","71","","0.0","","8","","11","","","","102.91","","","","","","NA"
"-72.66","46.23","NICOLET","7025442","2018-11-05 10:00","2018","11","05","10:00","3.3","","-2.8","","65","","0.0","","8","","13","","","","102.83","","","","","","NA"
"-72.66","46.23","NICOLET","7025442","2018-11-05 11:00","2018","11","05","11:00","4.1","","-2.9","","60","","0.0","","12","","8","","","","102.89","","","","","","NA"
"-72.66","46.23","NICOLET","7025442","2018-11-05 12:00","2018","11","05","12:00","4.6","","-2.7","","59","","0.0","","13","","7","","","","102.83","","","","","","NA"
"-72.66","46.23","NICOLET","7025442","2018-11-05 13:00","2018","11","05","13:00","1.9","","-0.1","","87","","0.0","","11","","7","","","","102.78","","","","","","NA"
"-72.66","46.23","NICOLET","7025442","2018-11-05 14:00","2018","11","05","14:00","1.8","","0.4","","91","","1.9","","9","","9","","","","102.71","","","","","","NA"
"-72.66","46.23","NICOLET","7025442","2018-11-05 15:00","2018","11","05","15:00","2.0","","0.9","","92","","0.0","","8","","8","","","","102.60","","","","","","NA"
"-72.66","46.23","NICOLET","7025442","2018-11-05 16:00","2018","11","05","16:00","2.5","","1.3","","92","","0.0","","7","","8","","","","102.54","","","","","","NA"
"-72.66","46.23","NICOLET","7025442","2018-11-05 17:00","2018","11","05","17:00","2.2","","1.2","","93","","0.0","","6","","9","","","","102.48","","","","","","NA"
"-72.66","46.23","NICOLET","7025442","2018-11-05 18:00","2018","11","05","18:00","2.3","","1.2","","93","","0.0","","4","","12","","","","102.45","","","","","","NA"
"-72.66","46.23","NICOLET","7025442","2018-11-05 19:00","2018","11","05","19:00","2.4","","1.2","","91","","0.0","","6","","12","","","","102.41","","","","","","NA"
"-72.66","46.23","NICOLET","7025442","2018-11-05 20:00","2018","11","05","20:00","2.6","","1.3","","91","","0.0","","6","","11","","","","102.37","","","","","","NA"
"-72.66","46.23","NICOLET","7025442","2018-11-05 21:00","2018","11","05","21:00","2.8","","1.4","","91","","0.0","","6","","12","","","","102.27","","","","","","NA"
"-72.66","46.23","NICOLET","7025442","2018-11-05 22:00","2018","11","05","22:00","3.0","","1.6","","90","","0.0","","6","","10","","","","102.24","","","","","","NA"
"-72.66","46.23","NICOLET","7025442","2018-11-05 23:00","2018","11","05","23:00","2.9","","1.9","","93","","0.0","","5","","9","","","","102.24","","","","","","NA"
"-72.66","46.23","NICOLET","7025442","2018-11-06 00:00","2018","11","06","00:00","2.9","","2.0","","94","","1.8","","6","","11","","","","102.18","","","","","","NA"
"-72.66","46.23","NICOLET","7025442","2018-11-06 01:00","2018","11","06","01:00","3.0","","2.1","","94","","0.0","","6","","11","","","","102.13","","","","","","NA"
"-72.66","46.23","NICOLET","7025442","2018-11-06 02:00","2018","11","06","02:00","3.3","","2.5","","95","","0.0","","6","","11","","","","102.01","","","","","","NA"
"-72.66","46.23","NICOLET","7025442","2018-11-06 03:00","2018","11","06","03:00","3.5","","2.7","","95","","1.2","","5","","9","","","","101.84","","","","","","NA"
"-72.66","46.23","NICOLET","7025442","2018-11-06 04:00","2018","11","06","04:00","3.5","","2.7","","95","","0.0","","5","","11","","","","101.75","","","","","","NA"
"-72.66","46.23","NICOLET","7025442","2018-11-06 05:00","2018","11","06","05:00","3.6","","2.7","","94","","0.0","","5","","12","","","","101.70","","","","","","NA"
"-72.66","46.23","NICOLET","7025442","2018-11-06 06:00","2018","11","06","06:00","3.7","","2.9","","94","","0.0","","5","","10","","","","101.58","","","","","","NA"
"-72.66","46.23","NICOLET","7025442","2018-11-06 07:00","2018","11","06","07:00","3.8","","3.0","","95","","0.0","","5","","13","","","","101.54","","","","","","NA"
"-72.66","46.23","NICOLET","7025442","2018-11-06 08:00","2018","11","06","08:00","4.0","","3.2","","95","","0.0","","6","","14","","","","101.41","","","","","","NA"
"-72.66","46.23","NICOLET","7025442","2018-11-06 09:00","2018","11","06","09:00","4.6","","3.7","","94","","0.0","","6","","13","","","","101.24","","","","","","NA"
"-72.66","46.23","NICOLET","7025442","2018-11-06 10:00","2018","11","06","10:00","5.0","","4.2","","94","","0.0","","5","","12","","","","101.08","","","","","","NA"
"-72.66","46.23","NICOLET","7025442","2018-11-06 11:00","2018","11","06","11:00","5.6","","4.7","","94","","0.0","","5","","8","","","","100.93","","","","","","NA"
"-72.66","46.23","NICOLET","7025442","2018-11-06 12:00","2018","11","06","12:00","6.0","","5.2","","95","","1.2","","5","","13","","","","100.61","","","","","","NA"
"-72.66","46.23","NICOLET","7025442","2018-11-06 13:00","2018","11","06","13:00","6.5","","5.7","","94","","0.0","","5","","11","","","","100.40","","","","","","NA"
"-72.66","46.23","NICOLET","7025442","2018-11-06 14:00","2018","11","06","14:00","6.6","","5.8","","95","","1.4","","5","","9","","","","100.29","","","","","","NA"
"-72.66","46.23","NICOLET","7025442","2018-11-06 15:00","2018","11","06","15:00","7.3","","6.6","","95","","1.2","","6","","11","","","","100.08","","","","","","NA"
"-72.66","46.23","NICOLET","7025442","2018-11-06 16:00","2018","11","06","16:00","9.6","","8.6","","94","","0.0","","13","","8","","","","99.99","","","","","","NA"
"-72.66","46.23","NICOLET","7025442","2018-11-06 17:00","2018","11","06","17:00","10.2","","9.0","","92","","0.0","","15","","16","","","","99.90","","","","","","NA"
"-72.66","46.23","NICOLET","7025442","2018-11-06 18:00","2018","11","06","18:00","9.9","","8.8","","93","","0.0","","24","","4","","","","99.91","","","","","","NA"
"-72.66","46.23","NICOLET","7025442","2018-11-06 19:00","2018","11","06","19:00","10.1","","9.1","","94","","0.0","","17","","8","","","","99.87","","","","","","NA"
"-72.66","46.23","NICOLET","7025442","2018-11-06 20:00","2018","11","06","20:00","11.4","","9.7","","90","","1.6","","19","","18","","","","99.79","","","","","","NA"
"-72.66","46.23","NICOLET","7025442","2018-11-06 21:00","2018","11","06","21:00","10.9","","9.0","","88","","0.0","","20","","23","","","","99.78","","","","","","NA"
"-72.66","46.23","NICOLET","7025442","2018-11-06 22:00","2018","11","06","22:00","10.5","","8.2","","86","","0.0","","20","","21","","","","99.76","","","","","","NA"
"-72.66","46.23","NICOLET","7025442","2018-11-06 23:00","2018","11","06","23:00","10.0","","6.9","","81","","0.0","","20","","18","","","","99.73","","","","","","NA"
"-72.66","46.23","NICOLET","7025442","2018-11-07 00:00","2018","11","07","00:00","9.9","","5.9","","76","","0.0","","20","","26","","","","99.76","","","","","","NA"
"-72.66","46.23","NICOLET","7025442","2018-11-07 01:00","2018","11","07","01:00","10.2","","5.2","","71","","0.0","","21","","28","","","","99.77","","","","","","NA"
"-72.66","46.23","NICOLET","7025442","2018-11-07 02:00","2018","11","07","02:00","10.2","","5.1","","70","","0.0","","21","","25","","","","99.75","","","","","","NA"
"-72.66","46.23","NICOLET","7025442","2018-11-07 03:00","2018","11","07","03:00","10.7","","5.0","","68","","0.0","","21","","34","","","","99.73","","","","","","NA"
"-72.66","46.23","NICOLET","7025442","2018-11-07 04:00","2018","11","07","04:00","10.4","","4.7","","68","","0.0","","22","","32","","","","99.73","","","","","","NA"
"-72.66","46.23","NICOLET","7025442","2018-11-07 05:00","2018","11","07","05:00","10.0","","4.2","","67","","0.0","","23","","32","","","","99.84","","","","","","NA"
"-72.66","46.23","NICOLET","7025442","2018-11-07 06:00","2018","11","07","06:00","9.5","","4.0","","68","","0.0","","23","","41","","","","99.94","","","","","","NA"
"-72.66","46.23","NICOLET","7025442","2018-11-07 07:00","2018","11","07","07:00","9.0","","3.8","","70","","0.0","","23","","41","","","","100.06","","","","","","NA"
"-72.66","46.23","NICOLET","7025442","2018-11-07 08:00","2018","11","07","08:00","9.2","","3.2","","66","","0.0","","23","","30","","","","100.18","","","","","","NA"
"-72.66","46.23","NICOLET","7025442","2018-11-07 09:00","2018","11","07","09:00","9.3","","3.2","","66","","0.0","","23","","37","","","","100.26","","","","","","NA"
"-72.66","46.23","NICOLET","7025442","2018-11-07 10:00","2018","11","07","10:00","9.0","","3.1","","66","","0.0","","23","","31","","","","100.31","","","","","","NA"
"-72.66","46.23","NICOLET","7025442","2018-11-07 11:00","2018","11","07","11:00","9.0","","2.8","","65","","0.0","","23","","26","","","","100.32","","","","","","NA"
"-72.66","46.23","NICOLET","7025442","2018-11-07 12:00","2018","11","07","12:00","9.0","","3.6","","68","","0.0","","24","","27","","","","100.30","","","","","","NA"
"-72.66","46.23","NICOLET","7025442","2018-11-07 13:00","2018","11","07","13:00","9.1","","4.9","","75","","0.0","","24","","17","","","","100.30","","","","","","NA"
"-72.66","46.23","NICOLET","7025442","2018-11-07 14:00","2018","11","07","14:00","10.6","","3.6","","62","","0.0","","24","","35","","","","100.27","","","","","","NA"
"-72.66","46.23","NICOLET","7025442","2018-11-07 15:00","2018","11","07","15:00","10.2","","3.8","","65","","0.0","","24","","32","","","","100.34","","","","","","NA"
"-72.66","46.23","NICOLET","7025442","2018-11-07 16:00","2018","11","07","16:00","9.0","","3.6","","69","","0.0","","24","","27","","","","100.41","","","","","","NA"
"-72.66","46.23","NICOLET","7025442","2018-11-07 17:00","2018","11","07","17:00","8.5","","2.8","","67","","0.0","","23","","34","","","","100.47","","","","","","NA"
"-72.66","46.23","NICOLET","7025442","2018-11-07 18:00","2018","11","07","18:00","8.2","","2.9","","69","","0.0","","24","","31","","","","100.55","","","","","","NA"
"-72.66","46.23","NICOLET","7025442","2018-11-07 19:00","2018","11","07","19:00","8.2","","2.3","","66","","0.0","","24","","37","","","","100.61","","","","","","NA"
"-72.66","46.23","NICOLET","7025442","2018-11-07 20:00","2018","11","07","20:00","7.6","","2.2","","69","","0.0","","23","","30","","","","100.64","","","","","","NA"
"-72.66","46.23","NICOLET","7025442","2018-11-07 21:00","2018","11","07","21:00","7.2","","2.1","","70","","0.0","","24","","30","","","","100.74","","","","","","NA"
"-72.66","46.23","NICOLET","7025442","2018-11-07 22:00","2018","11","07","22:00","7.1","","1.1","","65","","0.0","","23","","26","","","","100.77","","","","","","NA"
"-72.66","46.23","NICOLET","7025442","2018-11-07 23:00","2018","11","07","23:00","6.9","","1.2","","67","","0.0","","24","","37","","","","100.81","","","","","","NA"
"-72.66","46.23","NICOLET","7025442","2018-11-08 00:00","2018","11","08","00:00","6.4","","1.4","","70","","0.0","","23","","35","","","","100.91","","","","","","NA"
"-72.66","46.23","NICOLET","7025442","2018-11-08 01:00","2018","11","08","01:00","6.2","","1.7","","73","","0.0","","23","","34","","","","101.00","","","","","","NA"
"-72.66","46.23","NICOLET","7025442","2018-11-08 02:00","2018","11","08","02:00","5.7","","1.2","","73","","0.0","","23","","25","","","","101.11","","","","","","NA"
"-72.66","46.23","NICOLET","7025442","2018-11-08 03:00","2018","11","08","03:00","5.7","","1.1","","72","","0.0","","23","","29","","","","101.17","","","","","","NA"
"-72.66","46.23","NICOLET","7025442","2018-11-08 04:00","2018","11","08","04:00","5.3","","1.0","","74","","0.0","","23","","23","","","","101.25","","","","","","NA"
"-72.66","46.23","NICOLET","7025442","2018-11-08 05:00","2018","11","08","05:00","5.0","","0.8","","74","","0.0","","23","","23","","","","101.33","","","","","","NA"
"-72.66","46.23","NICOLET","7025442","2018-11-08 06:00","2018","11","08","06:00","5.1","","0.6","","73","","0.0","","23","","24","","","","101.38","","","","","","NA"
"-72.66","46.23","NICOLET","7025442","2018-11-08 07:00","2018","11","08","07:00","4.9","","0.6","","74","","0.0","","22","","20","","","","101.47","","","","","","NA"
"-72.66","46.23","NICOLET","7025442","2018-11-08 08:00","2018","11","08","08:00","5.7","","0.7","","70","","0.0","","22","","23","","","","101.56","","","","","","NA"
"-72.66","46.23","NICOLET","7025442","2018-11-08 09:00","2018","11","08","09:00","5.8","","0.6","","70","","0.0","","23","","24","","","","101.63","","","","","","NA"
"-72.66","46.23","NICOLET","7025442","2018-11-08 10:00","2018","11","08","10:00","6.7","","0.7","","66","","0.0","","24","","30","","","","101.69","","","","","","NA"
"-72.66","46.23","NICOLET","7025442","2018-11-08 11:00","2018","11","08","11:00","6.5","","1.0","","68","","0.0","","24","","28","","","","101.76","","","","","","NA"
"-72.66","46.23","NICOLET","7025442","2018-11-08 12:00","2018","11","08","12:00","6.6","","1.9","","72","","0.0","","25","","23","","","","101.77","","","","","","NA"
"-72.66","46.23","NICOLET","7025442","2018-11-08 13:00","2018","11","08","13:00","6.0","","0.6","","68","","0.0","","27","","22","","","","101.78","","","","","","NA"
"-72.66","46.23","NICOLET","7025442","2018-11-08 14:00","2018","11","08","14:00","6.7","","1.4","","69","","0.0","","27","","14","","","","101.82","","","","","","NA"
"-72.66","46.23","NICOLET","7025442","2018-11-08 15:00","2018","11","08","15:00","6.8","","1.1","","67","","0.0","","25","","17","","","","101.87","","","","","","NA"
"-72.66","46.23","NICOLET","7025442","2018-11-08 16:00","2018","11","08","16:00","6.3","","0.9","","68","","0.0","","25","","17","","","","101.94","","","","","","NA"
"-72.66","46.23","NICOLET","7025442","2018-11-08 17:00","2018","11","08","17:00","6.3","","0.6","","67","","0.0","","25","","16","","","","102.01","","","","","","NA"
"-72.66","46.23","NICOLET","7025442","2018-11-08 18:00","2018","11","08","18:00","5.9","","0.5","","69","","0.0","","26","","21","","","","102.11","","","","","","NA"
"-72.66","46.23","NICOLET","7025442","2018-11-08 19:00","2018","11","08","19:00","5.8","","0.5","","69","","0.0","","27","","16","","","","102.18","","","","","","NA"
"-72.66","46.23","NICOLET","7025442","2018-11-08 20:00","2018","11","08","20:00","5.5","","0.5","","70","","0.0","","26","","17","","","","102.24","","","","","","NA"
"-72.66","46.23","NICOLET","7025442","2018-11-08 21:00","2018","11","08","21:00","5.2","","0.5","","71","","0.0","","26","","13","","","","102.32","","","","","","NA"
"-72.66","46.23","NICOLET","7025442","2018-11-08 22:00","2018","11","08","22:00","5.0","","-0.2","","69","","0.0","","28","","11","","","","102.38","","","","","","NA"
"-72.66","46.23","NICOLET","7025442","2018-11-08 23:00","2018","11","08","23:00","4.7","","-0.7","","68","","0.0","","28","","11","","","","102.44","","","","","","NA"
"-72.66","46.23","NICOLET","7025442","2018-11-09 00:00","2018","11","09","00:00","3.9","","-1.5","","68","","0.0","","31","","10","","","","102.51","","","","","","NA"
"-72.66","46.23","NICOLET","7025442","2018-11-09 01:00","2018","11","09","01:00","3.3","","-1.6","","70","","0.0","","33","","6","","","","102.55","","","","","","NA"
"-72.66","46.23","NICOLET","7025442","2018-11-09 02:00","2018","11","09","02:00","1.6","","-2.1","","76","","0.0","","32","","3","","","","102.60","","","","","","NA"
"-72.66","46.23","NICOLET","7025442","2018-11-09 03:00","2018","11","09","03:00","2.0","","-1.9","","76","","0.0","","31","","5","","","","102.68","","","","","","NA"
"-72.66","46.23","NICOLET","7025442","2018-11-09 04:00","2018","11","09","04:00","1.0","","-1.9","","80","","0.0","","33","","6","","","","102.71","","","","","","NA"
"-72.66","46.23","NICOLET","7025442","2018-11-09 05:00","2018","11","09","05:00","-0.8","","-2.5","","88","","0.0","","35","","2","","","","102.77","","","","-1","","NA"
"-72.66","46.23","NICOLET","7025442","2018-11-09 06:00","2018","11","09","06:00","0.4","","-2.9","","78","","0.0","","2","","5","","","","102.74","","","","","","NA"
"-72.66","46.23","NICOLET","7025442","2018-11-09 07:00","2018","11","09","07:00","-0.8","","-3.1","","84","","0.0","","3","","4","","","","102.77","","","","-2","","NA"
"-72.66","46.23","NICOLET","7025442","2018-11-09 08:00","2018","11","09","08:00","0.6","","-3.5","","74","","0.0","","5","","6","","","","102.75","","","","","","NA"
"-72.66","46.23","NICOLET","7025442","2018-11-09 09:00","2018","11","09","09:00","1.1","","-4.2","","68","","0.0","","3","","8","","","","102.72","","","","","","NA"
"-72.66","46.23","NICOLET","7025442","2018-11-09 10:00","2018","11","09","10:00","1.3","","-3.8","","69","","0.0","","4","","7","","","","102.79","","","","","","NA"
"-72.66","46.23","NICOLET","7025442","2018-11-09 11:00","2018","11","09","11:00","1.4","","-3.7","","69","","0.0","","7","","9","","","","102.72","","","","","","NA"
"-72.66","46.23","NICOLET","7025442","2018-11-09 12:00","2018","11","09","12:00","1.8","","-3.4","","68","","0.0","","7","","13","","","","102.61","","","","","","NA"
"-72.66","46.23","NICOLET","7025442","2018-11-09 13:00","2018","11","09","13:00","1.8","","-3.3","","68","","0.0","","6","","8","","","","102.60","","","","","","NA"
"-72.66","46.23","NICOLET","7025442","2018-11-09 14:00","2018","11","09","14:00","2.0","","-3.3","","68","","0.0","","5","","7","","","","102.54","","","","","","NA"
"-72.66","46.23","NICOLET","7025442","2018-11-09 15:00","2018","11","09","15:00","2.0","","-3.2","","68","","0.0","","6","","11","","","","102.44","","","","","","NA"
"-72.66","46.23","NICOLET","7025442","2018-11-09 16:00","2018","11","09","16:00","2.0","","-3.1","","69","","0.0","","5","","12","","","","102.34","","","","","","NA"
"-72.66","46.23","NICOLET","7025442","2018-11-09 17:00","2018","11","09","17:00","2.0","","-2.8","","71","","0.0","","5","","12","","","","102.27","","","","","","NA"
"-72.66","46.23","NICOLET","7025442","2018-11-09 18:00","2018","11","09","18:00","2.2","","-2.6","","71","","0.0","","6","","13","","","","102.14","","","","","","NA"
"-72.66","46.23","NICOLET","7025442","2018-11-09 19:00","2018","11","09","19:00","2.4","","-2.2","","72","","0.0","","6","","11","","","","102.00","","","","","","NA"
"-72.66","46.23","NICOLET","7025442","2018-11-09 20:00","2018","11","09","20:00","0.9","","-0.6","","90","","0.0","","7","","11","","","","101.85","","","","","","NA"
"-72.66","46.23","NICOLET","7025442","2018-11-09 21:00","2018","11","09","21:00","0.3","","-0.8","","93","","0.0","","6","","12","","","","101.71","","","","","","NA"
"-72.66","46.23","NICOLET","7025442","2018-11-09 22:00","2018","11","09","22:00","0.4","","-0.6","","93","","1.5","","6","","13","","","","101.48","","","","","","NA"
"-72.66","46.23","NICOLET","7025442","2018-11-09 23:00","2018","11","09","23:00","0.5","","-0.5","","93","","1.1","","6","","14","","","","101.28","","","","","","NA"
"-72.66","46.23","NICOLET","7025442","2018-11-10 00:00","2018","11","10","00:00","0.6","","-0.4","","93","","1.5","","6","","10","","","","101.14","","","","","","NA"
"-72.66","46.23","NICOLET","7025442","2018-11-10 01:00","2018","11","10","01:00","1.1","","-0.1","","92","","3.4","","8","","11","","","","101.03","","","","","","NA"
"-72.66","46.23","NICOLET","7025442","2018-11-10 02:00","2018","11","10","02:00","0.6","","-0.4","","93","","1.9","","6","","8","","","","100.88","","","","","","NA"
"-72.66","46.23","NICOLET","7025442","2018-11-10 03:00","2018","11","10","03:00","0.5","","-0.5","","93","","1.5","","6","","7","","","","100.72","","","","","","NA"
"-72.66","46.23","NICOLET","7025442","2018-11-10 04:00","2018","11","10","04:00","0.5","","-0.5","","93","","0.0","","4","","5","","","","100.62","","","","","","NA"
"-72.66","46.23","NICOLET","7025442","2018-11-10 05:00","2018","11","10","05:00","0.5","","-0.4","","94","","2.2","","7","","6","","","","100.56","","","","","","NA"
"-72.66","46.23","NICOLET","7025442","2018-11-10 06:00","2018","11","10","06:00","2.2","","1.1","","93","","2.1","","14","","12","","","","100.46","","","","","","NA"
"-72.66","46.23","NICOLET","7025442","2018-11-10 07:00","2018","11","10","07:00","2.3","","1.1","","92","","1.5","","14","","14","","","","100.37","","","","","","NA"
"-72.66","46.23","NICOLET","7025442","2018-11-10 08:00","2018","11","10","08:00","2.6","","1.5","","92","","0.0","","15","","14","","","","100.34","","","","","","NA"
"-72.66","46.23","NICOLET","7025442","2018-11-10 09:00","2018","11","10","09:00","3.4","","1.9","","90","","1.6","","20","","18","","","","100.28","","","","","","NA"
"-72.66","46.23","NICOLET","7025442","2018-11-10 10:00","2018","11","10","10:00","3.4","","-0.2","","77","","0.0","","23","","30","","","","100.26","","","","","","NA"
"-72.66","46.23","NICOLET","7025442","2018-11-10 11:00","2018","11","10","11:00","3.4","","-0.7","","74","","0.0","","23","","27","","","","100.21","","","","","","NA"
"-72.66","46.23","NICOLET","7025442","2018-11-10 12:00","2018","11","10","12:00","3.4","","-2.7","","64","","0.0","","23","","38","","","","100.16","","","","","","NA"
"-72.66","46.23","NICOLET","7025442","2018-11-10 13:00","2018","11","10","13:00","2.7","","-4.2","","60","","0.0","","23","","34","","","","100.15","","","","","","NA"
"-72.66","46.23","NICOLET","7025442","2018-11-10 14:00","2018","11","10","14:00","2.9","","-4.2","","60","","0.0","","23","","37","","","","100.16","","","","","","NA"
"-72.66","46.23","NICOLET","7025442","2018-11-10 15:00","2018","11","10","15:00","2.4","","-4.5","","61","","0.0","","24","","49","","","","100.17","","","","","","NA"
"-72.66","46.23","NICOLET","7025442","2018-11-10 16:00","2018","11","10","16:00","1.7","","-4.1","","65","","0.0","","24","","52","","","","100.22","","","","","","NA"
"-72.66","46.23","NICOLET","7025442","2018-11-10 17:00","2018","11","10","17:00","1.3","","-3.5","","71","","0.0","","23","","45","","","","100.23","","","","","","NA"
"-72.66","46.23","NICOLET","7025442","2018-11-10 18:00","2018","11","10","18:00","1.4","","-3.3","","71","","0.0","","25","","43","","","","100.33","","","","","","NA"
"-72.66","46.23","NICOLET","7025442","2018-11-10 19:00","2018","11","10","19:00","0.9","","-6.1","","59","","0.0","","27","","37","","","","100.46","","","","","","NA"
"-72.66","46.23","NICOLET","7025442","2018-11-10 20:00","2018","11","10","20:00","0.2","","-7.5","","56","","0.0","","26","","41","","","","100.62","","","","","","NA"
"-72.66","46.23","NICOLET","7025442","2018-11-10 21:00","2018","11","10","21:00","-0.9","","-8.3","","57","","0.0","","27","","40","","","","100.82","","","","-9","","NA"
"-72.66","46.23","NICOLET","7025442","2018-11-10 22:00","2018","11","10","22:00","-1.2","","-8.3","","58","","0.0","","26","","38","","","","100.99","","","","-9","","NA"
"-72.66","46.23","NICOLET","7025442","2018-11-10 23:00","2018","11","10","23:00","-1.3","","-7.9","","61","","0.0","","26","","40","","","","101.09","","","","-9","","NA"
"-72.66","46.23","NICOLET","7025442","2018-11-11 00:00","2018","11","11","00:00","-2.1","","-8.9","","60","","0.0","","26","","34","","","","101.22","","","","-10","","NA"
"-72.66","46.23","NICOLET","7025442","2018-11-11 01:00","2018","11","11","01:00","-2.5","","-10.1","","56","","0.0","","27","","41","","","","101.35","","","","-11","","NA"
"-72.66","46.23","NICOLET","7025442","2018-11-11 02:00","2018","11","11","02:00","-2.1","","-8.9","","60","","0.0","","26","","33","","","","101.47","","","","-10","","NA"
"-72.66","46.23","NICOLET","7025442","2018-11-11 03:00","2018","11","11","03:00","-2.4","","-8.9","","61","","0.0","","26","","33","","","","101.59","","","","-10","","NA"
"-72.66","46.23","NICOLET","7025442","2018-11-11 04:00","2018","11","11","04:00","-2.8","","-9.8","","58","","0.0","","26","","34","","","","101.74","","","","-11","","NA"
"-72.66","46.23","NICOLET","7025442","2018-11-11 05:00","2018","11","11","05:00","-3.0","","-10.0","","58","","0.0","","26","","31","","","","101.82","","","","-11","","NA"
"-72.66","46.23","NICOLET","7025442","2018-11-11 06:00","2018","11","11","06:00","-3.3","","-10.4","","58","","0.0","","26","","31","","","","101.91","","","","-11","","NA"
"-72.66","46.23","NICOLET","7025442","2018-11-11 07:00","2018","11","11","07:00","-3.6","","-10.7","","58","","0.0","","26","","29","","","","102.01","","","","-11","","NA"
"-72.66","46.23","NICOLET","7025442","2018-11-11 08:00","2018","11","11","08:00","-3.5","","-10.8","","57","","0.0","","26","","31","","","","102.10","","","","-11","","NA"
"-72.66","46.23","NICOLET","7025442","2018-11-11 09:00","2018","11","11","09:00","-3.3","","-10.9","","56","","0.0","","27","","28","","","","102.17","","","","-11","","NA"
"-72.66","46.23","NICOLET","7025442","2018-11-11 10:00","2018","11","11","10:00","-2.7","","-11.1","","52","","0.0","","27","","26","","","","102.20","","","","-10","","NA"
"-72.66","46.23","NICOLET","7025442","2018-11-11 11:00","2018","11","11","11:00","-1.7","","-10.1","","53","","0.0","","26","","25","","","","102.19","","","","-8","","NA"
"-72.66","46.23","NICOLET","7025442","2018-11-11 12:00","2018","11","11","12:00","-1.9","","-11.0","","50","","0.0","","26","","24","","","","102.18","","","","-8","","NA"
"-72.66","46.23","NICOLET","7025442","2018-11-11 13:00","2018","11","11","13:00","-1.2","","-10.6","","49","","0.0","","26","","23","","","","102.18","","","","-7","","NA"
"-72.66","46.23","NICOLET","7025442","2018-11-11 14:00","2018","11","11","14:00","-0.8","","-11.6","","44","","0.0","","27","","24","","","","102.18","","","","-7","","NA"
"-72.66","46.23","NICOLET","7025442","2018-11-11 15:00","2018","11","11","15:00","-1.2","","-11.3","","46","","0.0","","27","","20","","","","102.22","","","","-7","","NA"
"-72.66","46.23","NICOLET","7025442","2018-11-11 16:00","2018","11","11","16:00","-1.2","","-11.4","","46","","0.0","","27","","22","","","","102.24","","","","-7","","NA"
"-72.66","46.23","NICOLET","7025442","2018-11-11 17:00","2018","11","11","17:00","-1.4","","-11.3","","47","","0.0","","27","","20","","","","102.28","","","","-7","","NA"
"-72.66","46.23","NICOLET","7025442","2018-11-11 18:00","2018","11","11","18:00","-1.5","","-10.9","","49","","0.0","","26","","21","","","","102.33","","","","-7","","NA"
"-72.66","46.23","NICOLET","7025442","2018-11-11 19:00","2018","11","11","19:00","-1.4","","-10.4","","51","","0.0","","26","","19","","","","102.36","","","","-7","","NA"
"-72.66","46.23","NICOLET","7025442","2018-11-11 20:00","2018","11","11","20:00","-1.6","","-10.7","","50","","0.0","","27","","18","","","","102.39","","","","-7","","NA"
"-72.66","46.23","NICOLET","7025442","2018-11-11 21:00","2018","11","11","21:00","-1.8","","-10.7","","51","","0.0","","27","","17","","","","102.43","","","","-7","","NA"
"-72.66","46.23","NICOLET","7025442","2018-11-11 22:00","2018","11","11","22:00","-2.4","","-9.7","","57","","0.0","","27","","17","","","","102.46","","","","-8","","NA"
"-72.66","46.23","NICOLET","7025442","2018-11-11 23:00","2018","11","11","23:00","-2.8","","-10.0","","57","","0.0","","29","","14","","","","102.50","","","","-8","","NA"
"-72.66","46.23","NICOLET","7025442","2018-11-12 00:00","2018","11","12","00:00","-3.7","","-10.6","","59","","0.0","","30","","12","","","","102.55","","","","-8","","NA"
"-72.66","46.23","NICOLET","7025442","2018-11-12 01:00","2018","11","12","01:00","-4.3","","-11.2","","59","","0.0","","31","","11","","","","102.57","","","","-9","","NA"
"-72.66","46.23","NICOLET","7025442","2018-11-12 02:00","2018","11","12","02:00","-5.0","","-10.8","","64","","0.0","","2","","4","","","","102.61","","","","-7","","NA"
"-72.66","46.23","NICOLET","7025442","2018-11-12 03:00","2018","11","12","03:00","-7.0","","-11.1","","73","","0.0","","13","","2","","","","102.65","","","","-8","","NA"
"-72.66","46.23","NICOLET","7025442","2018-11-12 04:00","2018","11","12","04:00","-6.0","","-10.4","","71","","0.0","","4","","3","","","","102.66","","","","-7","","NA"
"-72.66","46.23","NICOLET","7025442","2018-11-12 05:00","2018","11","12","05:00","-5.1","","-12.1","","58","","0.0","","36","","3","","","","102.71","","","","-6","","NA"
"-72.66","46.23","NICOLET","7025442","2018-11-12 06:00","2018","11","12","06:00","-5.0","","-11.7","","59","","0.0","","8","","4","","","","102.69","","","","-7","","NA"
"-72.66","46.23","NICOLET","7025442","2018-11-12 07:00","2018","11","12","07:00","-5.1","","-11.0","","63","","0.0","","10","","4","","","","102.75","","","","-7","","NA"
"-72.66","46.23","NICOLET","7025442","2018-11-12 08:00","2018","11","12","08:00","-4.9","","-11.4","","60","","0.0","","6","","4","","","","102.78","","","","-7","","NA"
"-72.66","46.23","NICOLET","7025442","2018-11-12 09:00","2018","11","12","09:00","-4.5","","-11.6","","58","","0.0","","8","","7","","","","102.76","","","","-8","","NA"
"-72.66","46.23","NICOLET","7025442","2018-11-12 10:00","2018","11","12","10:00","-3.8","","-11.5","","55","","0.0","","6","","5","","","","102.78","","","","-6","","NA"
"-72.66","46.23","NICOLET","7025442","2018-11-12 11:00","2018","11","12","11:00","-3.0","","-11.3","","53","","0.0","","8","","6","","","","102.76","","","","-5","","NA"
"-72.66","46.23","NICOLET","7025442","2018-11-12 12:00","2018","11","12","12:00","-2.3","","-10.5","","53","","0.0","","7","","4","","","","102.70","","","","-4","","NA"
"-72.66","46.23","NICOLET","7025442","2018-11-12 13:00","2018","11","12","13:00","-1.6","","-9.9","","53","","0.0","","8","","7","","","","102.61","","","","-4","","NA"
"-72.66","46.23","NICOLET","7025442","2018-11-12 14:00","2018","11","12","14:00","-1.0","","-9.4","","53","","0.0","","9","","6","","","","102.64","","","","-3","","NA"
"-72.66","46.23","NICOLET","7025442","2018-11-12 15:00","2018","11","12","15:00","-1.0","","-9.1","","54","","0.0","","7","","4","","","","102.64","","","","-2","","NA"
"-72.66","46.23","NICOLET","7025442","2018-11-12 16:00","2018","11","12","16:00","-1.6","","-8.7","","58","","0.0","","3","","6","","","","102.67","","","","-4","","NA"
"-72.66","46.23","NICOLET","7025442","2018-11-12 17:00","2018","11","12","17:00","-2.3","","-8.6","","62","","0.0","","5","","6","","","","102.63","","","","-5","","NA"
"-72.66","46.23","NICOLET","7025442","2018-11-12 18:00","2018","11","12","18:00","-3.0","","-8.5","","66","","0.0","","5","","8","","","","102.63","","","","-6","","NA"
"-72.66","46.23","NICOLET","7025442","2018-11-12 19:00","2018","11","12","19:00","-2.4","","-7.8","","66","","0.0","","5","","7","","","","102.63","","","","-5","","NA"
"-72.66","46.23","NICOLET","7025442","2018-11-12 20:00","2018","11","12","20:00","-2.3","","-7.2","","69","","0.0","","4","","9","","","","102.55","","","","-6","","NA"
"-72.66","46.23","NICOLET","7025442","2018-11-12 21:00","2018","11","12","21:00","-2.4","","-7.2","","70","","0.0","","5","","12","","","","102.48","","","","-7","","NA"
"-72.66","46.23","NICOLET","7025442","2018-11-12 22:00","2018","11","12","22:00","-2.4","","-7.2","","70","","0.0","","5","","10","","","","102.47","","","","-6","","NA"
"-72.66","46.23","NICOLET","7025442","2018-11-12 23:00","2018","11","12","23:00","-2.3","","-7.0","","71","","0.0","","5","","10","","","","102.41","","","","-6","","NA"
"-72.66","46.23","NICOLET","7025442","2018-11-13 00:00","2018","11","13","00:00","-2.2","","-7.5","","67","","0.0","","5","","10","","","","102.37","","","","-6","","NA"
"-72.66","46.23","NICOLET","7025442","2018-11-13 01:00","2018","11","13","01:00","-2.1","","-6.8","","70","","0.0","","6","","8","","","","102.35","","","","-5","","NA"
"-72.66","46.23","NICOLET","7025442","2018-11-13 02:00","2018","11","13","02:00","-2.5","","-5.4","","81","","0.0","","6","","10","","","","102.27","","","","-6","","NA"
"-72.66","46.23","NICOLET","7025442","2018-11-13 03:00","2018","11","13","03:00","-2.6","","-4.3","","88","","0.0","","6","","7","","","","102.17","","","","-5","","NA"
"-72.66","46.23","NICOLET","7025442","2018-11-13 04:00","2018","11","13","04:00","-2.3","","-3.7","","90","","0.0","","4","","5","","","","102.06","","","","-4","","NA"
"-72.66","46.23","NICOLET","7025442","2018-11-13 05:00","2018","11","13","05:00","-2.1","","-3.3","","91","","0.0","","4","","5","","","","102.01","","","","-4","","NA"
"-72.66","46.23","NICOLET","7025442","2018-11-13 06:00","2018","11","13","06:00","-1.9","","-3.0","","92","","1.3","","4","","4","","","","101.96","","","","-3","","NA"
"-72.66","46.23","NICOLET","7025442","2018-11-13 07:00","2018","11","13","07:00","-1.5","","-2.6","","93","","0.0","","4","","3","","","","101.85","","","","-3","","NA"
"-72.66","46.23","NICOLET","7025442","2018-11-13 08:00","2018","11","13","08:00","-1.1","","-2.1","","93","","1.4","","5","","3","","","","101.84","","","","-2","","NA"
"-72.66","46.23","NICOLET","7025442","2018-11-13 09:00","2018","11","13","09:00","-0.6","","-1.0","","97","","1.2","","4","","3","","","","101.73","","","","-2","","NA"
"-72.66","46.23","NICOLET","7025442","2018-11-13 10:00","2018","11","13","10:00","0.1","","-0.3","","97","","0.0","","6","","2","","","","101.59","","","","","","NA"
"-72.66","46.23","NICOLET","7025442","2018-11-13 11:00","2018","11","13","11:00","0.6","","0.2","","97","","1.3","","6","","3","","","","101.44","","","","","","NA"
"-72.66","46.23","NICOLET","7025442","2018-11-13 12:00","2018","11","13","12:00","0.8","","0.4","","97","","0.0","","7","","1","","","","101.31","","","","","","NA"
"-72.66","46.23","NICOLET","7025442","2018-11-13 13:00","2018","11","13","13:00","1.2","","0.6","","96","","0.0","","7","","1","","","","101.18","","","","","","NA"
"-72.66","46.23","NICOLET","7025442","2018-11-13 14:00","2018","11","13","14:00","0.7","","0.1","","96","","0.0","","22","","5","","","","101.06","","","","","","NA"
"-72.66","46.23","NICOLET","7025442","2018-11-13 15:00","2018","11","13","15:00","0.6","","0.1","","97","","1.1","","22","","6","","","","100.96","","","","","","NA"
"-72.66","46.23","NICOLET","7025442","2018-11-13 16:00","2018","11","13","16:00","0.6","","-0.6","","92","","0.0","","21","","9","","","","100.92","","","","","","NA"
"-72.66","46.23","NICOLET","7025442","2018-11-13 17:00","2018","11","13","17:00","0.3","","-0.7","","93","","0.0","","21","","11","","","","100.89","","","","","","NA"
"-72.66","46.23","NICOLET","7025442","2018-11-13 18:00","2018","11","13","18:00","0.6","","-0.2","","94","","1.7","","25","","19","","","","100.90","","","","","","NA"
"-72.66","46.23","NICOLET","7025442","2018-11-13 19:00","2018","11","13","19:00","-0.7","","-5.7","","69","","0.0","","31","","25","","","","101.00","","","","-7","","NA"
"-72.66","46.23","NICOLET","7025442","2018-11-13 20:00","2018","11","13","20:00","-1.9","","-8.3","","62","","0.0","","30","","25","","","","101.08","","","","-8","","NA"
"-72.66","46.23","NICOLET","7025442","2018-11-13 21:00","2018","11","13","21:00","-3.9","","-11.0","","58","","0.0","","30","","24","","","","101.23","","","","-11","","NA"
"-72.66","46.23","NICOLET","7025442","2018-11-13 22:00","2018","11","13","22:00","-5.7","","-13.2","","55","","0.0","","29","","27","","","","101.37","","","","-14","","NA"
"-72.66","46.23","NICOLET","7025442","2018-11-13 23:00","2018","11","13","23:00","-7.4","","-13.9","","59","","0.0","","28","","29","","","","101.50","","","","-16","","NA"
"-72.66","46.23","NICOLET","7025442","2018-11-14 00:00","2018","11","14","00:00","-8.5","","-15.1","","59","","0.0","","29","","21","","","","101.63","","","","-16","","NA"
"-72.66","46.23","NICOLET","7025442","2018-11-14 01:00","2018","11","14","01:00","-9.4","","-16.3","","57","","0.0","","28","","23","","","","101.67","","","","-18","","NA"
"-72.66","46.23","NICOLET","7025442","2018-11-14 02:00","2018","11","14","02:00","-9.8","","-16.3","","59","","0.0","","28","","26","","","","101.78","","","","-19","","NA"
"-72.66","46.23","NICOLET","7025442","2018-11-14 03:00","2018","11","14","03:00","-10.6","","-16.7","","61","","0.0","","30","","19","","","","101.83","","","","-18","","NA"
"-72.66","46.23","NICOLET","7025442","2018-11-14 04:00","2018","11","14","04:00","-11.3","","-18.1","","57","","0.0","","30","","22","","","","101.89","","","","-20","","NA"
"-72.66","46.23","NICOLET","7025442","2018-11-14 05:00","2018","11","14","05:00","-11.6","","-18.3","","57","","0.0","","29","","19","","","","101.97","","","","-20","","NA"
"-72.66","46.23","NICOLET","7025442","2018-11-14 06:00","2018","11","14","06:00","-11.7","","-17.7","","61","","0.0","","28","","23","","","","102.08","","","","-21","","NA"
"-72.66","46.23","NICOLET","7025442","2018-11-14 07:00","2018","11","14","07:00","-11.9","","-18.5","","58","","0.0","","27","","23","","","","102.15","","","","-21","","NA"
"-72.66","46.23","NICOLET","7025442","2018-11-14 08:00","2018","11","14","08:00","-11.5","","-18.5","","56","","0.0","","28","","26","","","","102.29","","","","-21","","NA"
"-72.66","46.23","NICOLET","7025442","2018-11-14 09:00","2018","11","14","09:00","-10.8","","-17.7","","57","","0.0","","27","","25","","","","102.37","","","","-20","","NA"
"-72.66","46.23","NICOLET","7025442","2018-11-14 10:00","2018","11","14","10:00","-10.1","","-18.4","","51","","0.0","","27","","22","","","","102.47","","","","-18","","NA"
"-72.66","46.23","NICOLET","7025442","2018-11-14 11:00","2018","11","14","11:00","-9.3","","-19.0","","45","","0.0","","26","","27","","","","102.52","","","","-18","","NA"
"-72.66","46.23","NICOLET","7025442","2018-11-14 12:00","2018","11","14","12:00","-8.1","","-16.7","","50","","0.0","","27","","25","","","","102.54","","","","-16","","NA"
"-72.66","46.23","NICOLET","7025442","2018-11-14 13:00","2018","11","14","13:00","-7.6","","-16.4","","49","","0.0","","27","","24","","","","102.58","","","","-16","","NA"
"-72.66","46.23","NICOLET","7025442","2018-11-14 14:00","2018","11","14","14:00","-6.9","","-16.8","","45","","0.0","","27","","27","","","","102.64","","","","-15","","NA"
"-72.66","46.23","NICOLET","7025442","2018-11-14 15:00","2018","11","14","15:00","-6.6","","-15.9","","47","","0.0","","27","","21","","","","102.78","","","","-14","","NA"
"-72.66","46.23","NICOLET","7025442","2018-11-14 16:00","2018","11","14","16:00","-7.2","","-17.6","","43","","0.0","","27","","23","","","","102.91","","","","-15","","NA"
"-72.66","46.23","NICOLET","7025442","2018-11-14 17:00","2018","11","14","17:00","-7.6","","-17.3","","46","","0.0","","28","","23","","","","103.03","","","","-15","","NA"
"-72.66","46.23","NICOLET","7025442","2018-11-14 18:00","2018","11","14","18:00","-8.2","","-17.2","","48","","0.0","","28","","21","","","","103.16","","","","-16","","NA"
"-72.66","46.23","NICOLET","7025442","2018-11-14 19:00","2018","11","14","19:00","-8.5","","-17.6","","48","","0.0","","28","","23","","","","103.23","","","","-17","","NA"
"-72.66","46.23","NICOLET","7025442","2018-11-14 20:00","2018","11","14","20:00","-8.9","","-16.5","","54","","0.0","","28","","18","","","","103.23","","","","-16","","NA"
"-72.66","46.23","NICOLET","7025442","2018-11-14 21:00","2018","11","14","21:00","-9.0","","-16.4","","55","","0.0","","29","","16","","","","103.28","","","","-16","","NA"
"-72.66","46.23","NICOLET","7025442","2018-11-14 22:00","2018","11","14","22:00","-9.3","","-16.6","","55","","0.0","","27","","10","","","","103.37","","","","-14","","NA"
"-72.66","46.23","NICOLET","7025442","2018-11-14 23:00","2018","11","14","23:00","-9.2","","-17.1","","53","","0.0","","27","","11","","","","103.46","","","","-15","","NA"
"-72.66","46.23","NICOLET","7025442","2018-11-15 00:00","2018","11","15","00:00","-12.7","","-17.5","","68","","0.0","","14","","5","","","","103.49","","","","-16","","NA"
"-72.66","46.23","NICOLET","7025442","2018-11-15 01:00","2018","11","15","01:00","-12.6","","-16.8","","71","","0.0","","15","","8","","","","103.51","","","","-18","","NA"
"-72.66","46.23","NICOLET","7025442","2018-11-15 02:00","2018","11","15","02:00","-13.9","","-17.4","","75","","0.0","","10","","4","","","","103.56","","","","-17","","NA"
"-72.66","46.23","NICOLET","7025442","2018-11-15 03:00","2018","11","15","03:00","-14.5","","-17.5","","78","","0.0","","10","","4","","","","103.59","","","","-17","","NA"
"-72.66","46.23","NICOLET","7025442","2018-11-15 04:00","2018","11","15","04:00","-14.7","","-17.5","","79","","0.0","","11","","3","","","","103.56","","","","-17","","NA"
"-72.66","46.23","NICOLET","7025442","2018-11-15 05:00","2018","11","15","05:00","-13.0","","-15.5","","82","","0.0","","17","","5","","","","103.59","","","","-16","","NA"
"-72.66","46.23","NICOLET","7025442","2018-11-15 06:00","2018","11","15","06:00","-11.4","","-14.1","","80","","0.0","","34","","5","","","","103.61","","","","-15","","NA"
"-72.66","46.23","NICOLET","7025442","2018-11-15 07:00","2018","11","15","07:00","-14.1","","-16.8","","80","","0.0","","10","","4","","","","103.59","","","","-17","","NA"
"-72.66","46.23","NICOLET","7025442","2018-11-15 08:00","2018","11","15","08:00","-13.0","","-15.6","","81","","0.0","","9","","4","","","","103.60","","","","-16","","NA"
"-72.66","46.23","NICOLET","7025442","2018-11-15 09:00","2018","11","15","09:00","-10.9","","-14.5","","74","","0.0","","10","","4","","","","103.58","","","","-13","","NA"
"-72.66","46.23","NICOLET","7025442","2018-11-15 10:00","2018","11","15","10:00","-9.4","","-14.8","","65","","0.0","","8","","6","","","","103.52","","","","-13","","NA"
"-72.66","46.23","NICOLET","7025442","2018-11-15 11:00","2018","11","15","11:00","-8.5","","-15.4","","58","","0.0","","11","","5","","","","103.49","","","","-11","","NA"
"-72.66","46.23","NICOLET","7025442","2018-11-15 12:00","2018","11","15","12:00","-8.1","","-15.2","","56","","0.0","","13","","6","","","","103.38","","","","-11","","NA"
"-72.66","46.23","NICOLET","7025442","2018-11-15 13:00","2018","11","15","13:00","-7.4","","-16.3","","49","","0.0","","5","","3","","","","103.19","","","","-9","","NA"
"-72.66","46.23","NICOLET","7025442","2018-11-15 14:00","2018","11","15","14:00","-7.4","","-15.3","","53","","0.0","","10","","5","","","","103.14","","","","-10","","NA"
"-72.66","46.23","NICOLET","7025442","2018-11-15 15:00","2018","11","15","15:00","-7.3","","-14.8","","55","","0.0","","8","","7","","","","103.04","","","","-11","","NA"
"-72.66","46.23","NICOLET","7025442","2018-11-15 16:00","2018","11","15","16:00","-7.5","","-14.6","","56","","0.0","","8","","6","","","","103.00","","","","-11","","NA"
"-72.66","46.23","NICOLET","7025442","2018-11-15 17:00","2018","11","15","17:00","-8.1","","-14.6","","59","","0.0","","3","","4","","","","102.84","","","","-10","","NA"
"-72.66","46.23","NICOLET","7025442","2018-11-15 18:00","2018","11","15","18:00","-8.4","","-14.1","","64","","0.0","","4","","7","","","","102.76","","","","-12","","NA"
"-72.66","46.23","NICOLET","7025442","2018-11-15 19:00","2018","11","15","19:00","-8.2","","-13.7","","64","","0.0","","5","","9","","","","102.70","","","","-13","","NA"
"-72.66","46.23","NICOLET","7025442","2018-11-15 20:00","2018","11","15","20:00","-8.3","","-13.5","","66","","0.0","","5","","9","","","","102.61","","","","-13","","NA"
"-72.66","46.23","NICOLET","7025442","2018-11-15 21:00","2018","11","15","21:00","-8.2","","-13.3","","67","","0.0","","5","","11","","","","102.45","","","","-13","","NA"
"-72.66","46.23","NICOLET","7025442","2018-11-15 22:00","2018","11","15","22:00","-8.4","","-12.9","","70","","0.0","","5","","11","","","","102.31","","","","-14","","NA"
"-72.66","46.23","NICOLET","7025442","2018-11-15 23:00","2018","11","15","23:00","-8.2","","-12.8","","69","","0.0","","6","","14","","","","102.18","","","","-14","","NA"
"-72.66","46.23","NICOLET","7025442","2018-11-16 00:00","2018","11","16","00:00","-8.2","","-12.3","","73","","0.0","","5","","10","","","","102.06","","","","-13","","NA"
"-72.66","46.23","NICOLET","7025442","2018-11-16 01:00","2018","11","16","01:00","-7.9","","-11.9","","73","","0.0","","5","","11","","","","101.89","","","","-13","","NA"
"-72.66","46.23","NICOLET","7025442","2018-11-16 02:00","2018","11","16","02:00","-7.3","","-11.5","","72","","0.0","","5","","10","","","","101.78","","","","-12","","NA"
"-72.66","46.23","NICOLET","7025442","2018-11-16 03:00","2018","11","16","03:00","-6.9","","-11.4","","70","","0.0","","5","","13","","","","101.54","","","","-12","","NA"
"-72.66","46.23","NICOLET","7025442","2018-11-16 04:00","2018","11","16","04:00","-6.7","","-11.3","","70","","0.0","","6","","12","","","","101.43","","","","-12","","NA"
"-72.66","46.23","NICOLET","7025442","2018-11-16 05:00","2018","11","16","05:00","-6.5","","-10.3","","74","","0.0","","6","","7","","","","101.39","","","","-10","","NA"
"-72.66","46.23","NICOLET","7025442","2018-11-16 06:00","2018","11","16","06:00","-6.7","","-8.9","","84","","0.0","","4","","6","","","","101.29","","","","-10","","NA"
"-72.66","46.23","NICOLET","7025442","2018-11-16 07:00","2018","11","16","07:00","-6.1","","-8.1","","86","","1.5","","5","","10","","","","101.17","","","","-11","","NA"
"-72.66","46.23","NICOLET","7025442","2018-11-16 08:00","2018","11","16","08:00","-5.9","","-7.9","","86","","1.0","","4","","12","","","","101.03","","","","-11","","NA"
"-72.66","46.23","NICOLET","7025442","2018-11-16 09:00","2018","11","16","09:00","-5.6","","-7.8","","84","","1.1","","5","","14","","","","100.87","","","","-11","","NA"
"-72.66","46.23","NICOLET","7025442","2018-11-16 10:00","2018","11","16","10:00","-5.3","","-7.8","","83","","0.0","","5","","15","","","","100.75","","","","-11","","NA"
"-72.66","46.23","NICOLET","7025442","2018-11-16 11:00","2018","11","16","11:00","-5.2","","-7.8","","82","","0.0","","5","","17","","","","100.67","","","","-11","","NA"
"-72.66","46.23","NICOLET","7025442","2018-11-16 12:00","2018","11","16","12:00","-4.8","","-7.5","","81","","1.3","","4","","15","","","","100.56","","","","-10","","NA"
"-72.66","46.23","NICOLET","7025442","2018-11-16 13:00","2018","11","16","13:00","-4.3","","-7.3","","80","","0.0","","5","","14","","","","100.46","","","","-9","","NA"
"-72.66","46.23","NICOLET","7025442","2018-11-16 14:00","2018","11","16","14:00","-4.0","","-7.2","","79","","0.0","","5","","12","","","","100.37","","","","-9","","NA"
"-72.66","46.23","NICOLET","7025442","2018-11-16 15:00","2018","11","16","15:00","-4.4","","-7.0","","82","","0.0","","4","","11","","","","100.33","","","","-9","","NA"
"-72.66","46.23","NICOLET","7025442","2018-11-16 16:00","2018","11","16","16:00","-4.6","","-7.3","","82","","0.0","","5","","10","","","","100.29","","","","-9","","NA"
"-72.66","46.23","NICOLET","7025442","2018-11-16 17:00","2018","11","16","17:00","-4.7","","-7.2","","83","","0.0","","6","","10","","","","100.29","","","","-9","","NA"
"-72.66","46.23","NICOLET","7025442","2018-11-16 18:00","2018","11","16","18:00","-4.9","","-7.0","","85","","0.0","","6","","4","","","","100.30","","","","-7","","NA"
"-72.66","46.23","NICOLET","7025442","2018-11-16 19:00","2018","11","16","19:00","-5.1","","-6.7","","88","","0.0","","","","0","","","","100.31","","","","","","NA"
"-72.66","46.23","NICOLET","7025442","2018-11-16 20:00","2018","11","16","20:00","-5.1","","-6.6","","89","","1.0","","29","","2","","","","100.34","","","","-6","","NA"
"-72.66","46.23","NICOLET","7025442","2018-11-16 21:00","2018","11","16","21:00","-5.3","","-6.8","","89","","0.0","","23","","3","","","","100.36","","","","-7","","NA"
"-72.66","46.23","NICOLET","7025442","2018-11-16 22:00","2018","11","16","22:00","-5.0","","-6.7","","88","","0.0","","21","","6","","","","100.37","","","","-8","","NA"
"-72.66","46.23","NICOLET","7025442","2018-11-16 23:00","2018","11","16","23:00","-5.0","","-6.7","","87","","0.0","","21","","9","","","","100.42","","","","-9","","NA"
"-72.66","46.23","NICOLET","7025442","2018-11-17 00:00","2018","11","17","00:00","-4.7","","-6.6","","87","","1.1","","20","","10","","","","100.51","","","","-9","","NA"
"-72.66","46.23","NICOLET","7025442","2018-11-17 01:00","2018","11","17","01:00","-4.7","","-6.7","","86","","0.0","","20","","10","","","","100.58","","","","-9","","NA"
"-72.66","46.23","NICOLET","7025442","2018-11-17 02:00","2018","11","17","02:00","-5.3","","-7.2","","87","","0.0","","18","","7","","","","100.58","","","","-9","","NA"
"-72.66","46.23","NICOLET","7025442","2018-11-17 03:00","2018","11","17","03:00","-4.8","","-6.6","","87","","0.0","","21","","8","","","","100.68","","","","-8","","NA"
"-72.66","46.23","NICOLET","7025442","2018-11-17 04:00","2018","11","17","04:00","-3.6","","-5.6","","86","","0.0","","22","","12","","","","100.71","","","","-8","","NA"
"-72.66","46.23","NICOLET","7025442","2018-11-17 05:00","2018","11","17","05:00","-3.1","","-5.2","","85","","0.0","","22","","13","","","","100.83","","","","-8","","NA"
"-72.66","46.23","NICOLET","7025442","2018-11-17 06:00","2018","11","17","06:00","-3.2","","-5.6","","84","","0.0","","21","","11","","","","100.89","","","","-7","","NA"
"-72.66","46.23","NICOLET","7025442","2018-11-17 07:00","2018","11","17","07:00","-3.5","","-5.9","","83","","0.0","","22","","13","","","","101.04","","","","-8","","NA"
"-72.66","46.23","NICOLET","7025442","2018-11-17 08:00","2018","11","17","08:00","-3.1","","-5.4","","85","","1.1","","22","","17","","","","101.12","","","","-9","","NA"
"-72.66","46.23","NICOLET","7025442","2018-11-17 09:00","2018","11","17","09:00","-1.3","","-4.0","","82","","0.0","","23","","17","","","","101.20","","","","-6","","NA"
"-72.66","46.23","NICOLET","7025442","2018-11-17 10:00","2018","11","17","10:00","-0.5","","-3.6","","79","","0.0","","22","","16","","","","101.26","","","","-5","","NA"
"-72.66","46.23","NICOLET","7025442","2018-11-17 11:00","2018","11","17","11:00","0.1","","-3.3","","78","","0.0","","22","","13","","","","101.30","","","","","","NA"
"-72.66","46.23","NICOLET","7025442","2018-11-17 12:00","2018","11","17","12:00","0.5","","-3.1","","77","","0.0","","23","","19","","","","101.31","","","","","","NA"
"-72.66","46.23","NICOLET","7025442","2018-11-17 13:00","2018","11","17","13:00","1.2","","-3.1","","73","","0.0","","25","","14","","","","101.33","","","","","","NA"
"-72.66","46.23","NICOLET","7025442","2018-11-17 14:00","2018","11","17","14:00","1.5","","-3.6","","69","","0.0","","26","","15","","","","101.37","","","","","","NA"
"-72.66","46.23","NICOLET","7025442","2018-11-17 15:00","2018","11","17","15:00","1.3","","-4.3","","66","","0.0","","27","","12","","","","101.45","","","","","","NA"
"-72.66","46.23","NICOLET","7025442","2018-11-17 16:00","2018","11","17","16:00","0.8","","-6.8","","57","","0.0","","31","","14","","","","101.54","","","","","","NA"
"-72.66","46.23","NICOLET","7025442","2018-11-17 17:00","2018","11","17","17:00","-0.3","","-6.8","","62","","0.0","","31","","12","","","","101.67","","","","-4","","NA"
"-72.66","46.23","NICOLET","7025442","2018-11-17 18:00","2018","11","17","18:00","-1.3","","-7.7","","61","","0.0","","32","","10","","","","101.78","","","","-5","","NA"
"-72.66","46.23","NICOLET","7025442","2018-11-17 19:00","2018","11","17","19:00","-2.0","","-8.8","","60","","0.0","","31","","14","","","","101.90","","","","-7","","NA"
"-72.66","46.23","NICOLET","7025442","2018-11-17 20:00","2018","11","17","20:00","-3.0","","-8.8","","64","","0.0","","30","","11","","","","102.02","","","","-7","","NA"
"-72.66","46.23","NICOLET","7025442","2018-11-17 21:00","2018","11","17","21:00","-3.5","","-9.9","","61","","0.0","","29","","8","","","","102.10","","","","-7","","NA"
"-72.66","46.23","NICOLET","7025442","2018-11-17 22:00","2018","11","17","22:00","-4.1","","-10.8","","60","","0.0","","31","","5","","","","102.19","","","","-6","","NA"
"-72.66","46.23","NICOLET","7025442","2018-11-17 23:00","2018","11","17","23:00","-4.6","","-11.5","","58","","0.0","","28","","12","","","","102.23","","","","-9","","NA"
"-72.66","46.23","NICOLET","7025442","2018-11-18 00:00","2018","11","18","00:00","-4.5","","-11.1","","60","","0.0","","28","","16","","","","102.31","","","","-10","","NA"
"-72.66","46.23","NICOLET","7025442","2018-11-18 01:00","2018","11","18","01:00","-5.4","","-12.6","","57","","0.0","","30","","10","","","","102.36","","","","-10","","NA"
"-72.66","46.23","NICOLET","7025442","2018-11-18 02:00","2018","11","18","02:00","-6.2","","-12.8","","60","","0.0","","28","","9","","","","102.45","","","","-10","","NA"
"-72.66","46.23","NICOLET","7025442","2018-11-18 03:00","2018","11","18","03:00","-6.5","","-12.0","","65","","0.0","","27","","15","","","","102.49","","","","-12","","NA"
"-72.66","46.23","NICOLET","7025442","2018-11-18 04:00","2018","11","18","04:00","-7.1","","-13.4","","61","","0.0","","29","","16","","","","102.52","","","","-13","","NA"
"-72.66","46.23","NICOLET","7025442","2018-11-18 05:00","2018","11","18","05:00","-7.8","","-13.9","","61","","0.0","","29","","13","","","","102.59","","","","-14","","NA"
"-72.66","46.23","NICOLET","7025442","2018-11-18 06:00","2018","11","18","06:00","-8.1","","-13.8","","64","","0.0","","28","","13","","","","102.67","","","","-14","","NA"
"-72.66","46.23","NICOLET","7025442","2018-11-18 07:00","2018","11","18","07:00","-8.4","","-14.1","","63","","0.0","","31","","10","","","","102.71","","","","-13","","NA"
"-72.66","46.23","NICOLET","7025442","2018-11-18 08:00","2018","11","18","08:00","-8.4","","-13.9","","64","","0.0","","30","","10","","","","102.79","","","","-13","","NA"
"-72.66","46.23","NICOLET","7025442","2018-11-18 09:00","2018","11","18","09:00","-8.0","","-13.6","","64","","0.0","","29","","8","","","","102.83","","","","-12","","NA"
"-72.66","46.23","NICOLET","7025442","2018-11-18 10:00","2018","11","18","10:00","-7.3","","-15.1","","54","","0.0","","30","","7","","","","102.82","","","","-11","","NA"
"-72.66","46.23","NICOLET","7025442","2018-11-18 11:00","2018","11","18","11:00","-6.8","","-15.5","","50","","0.0","","30","","5","","","","102.76","","","","-9","","NA"
"-72.66","46.23","NICOLET","7025442","2018-11-18 12:00","2018","11","18","12:00","-6.1","","-14.9","","50","","0.0","","22","","6","","","","102.67","","","","-9","","NA"
"-72.66","46.23","NICOLET","7025442","2018-11-18 13:00","2018","11","18","13:00","-5.9","","-13.7","","54","","0.0","","22","","12","","","","102.62","","","","-11","","NA"
"-72.66","46.23","NICOLET","7025442","2018-11-18 14:00","2018","11","18","14:00","-5.5","","-13.5","","53","","0.0","","20","","11","","","","102.56","","","","-10","","NA"
"-72.66","46.23","NICOLET","7025442","2018-11-18 15:00","2018","11","18","15:00","-5.6","","-12.9","","56","","0.0","","21","","11","","","","102.50","","","","-10","","NA"
"-72.66","46.23","NICOLET","7025442","2018-11-18 16:00","2018","11","18","16:00","-6.7","","-13.1","","60","","0.0","","18","","7","","","","102.48","","","","-10","","NA"
"-72.66","46.23","NICOLET","7025442","2018-11-18 17:00","2018","11","18","17:00","-8.6","","-13.7","","66","","0.0","","15","","5","","","","102.46","","","","-11","","NA"
"-72.66","46.23","NICOLET","7025442","2018-11-18 18:00","2018","11","18","18:00","-10.6","","-14.3","","74","","0.0","","12","","4","","","","102.41","","","","-13","","NA"
"-72.66","46.23","NICOLET","7025442","2018-11-18 19:00","2018","11","18","19:00","-11.0","","-14.4","","76","","0.0","","13","","4","","","","102.37","","","","-13","","NA"
"-72.66","46.23","NICOLET","7025442","2018-11-18 20:00","2018","11","18","20:00","-9.3","","-13.0","","74","","0.0","","14","","6","","","","102.30","","","","-13","","NA"
"-72.66","46.23","NICOLET","7025442","2018-11-18 21:00","2018","11","18","21:00","-8.4","","-12.3","","73","","0.0","","11","","4","","","","102.26","","","","-11","","NA"
"-72.66","46.23","NICOLET","7025442","2018-11-18 22:00","2018","11","18","22:00","-7.2","","-11.4","","72","","0.0","","11","","4","","","","102.19","","","","-9","","NA"
"-72.66","46.23","NICOLET","7025442","2018-11-18 23:00","2018","11","18","23:00","-6.7","","-10.9","","72","","0.0","","13","","6","","","","102.12","","","","-10","","NA"
"-72.66","46.23","NICOLET","7025442","2018-11-19 00:00","2018","11","19","00:00","-5.6","","-10.6","","68","","0.0","","12","","7","","","","102.06","","","","-9","","NA"
"-72.66","46.23","NICOLET","7025442","2018-11-19 01:00","2018","11","19","01:00","-4.7","","-10.1","","66","","0.0","","12","","8","","","","101.98","","","","-8","","NA"
"-72.66","46.23","NICOLET","7025442","2018-11-19 02:00","2018","11","19","02:00","-5.0","","-10.2","","67","","0.0","","14","","6","","","","101.93","","","","-8","","NA"
"-72.66","46.23","NICOLET","7025442","2018-11-19 03:00","2018","11","19","03:00","-5.0","","-9.6","","70","","0.0","","13","","3","","","","101.88","","","","-6","","NA"
"-72.66","46.23","NICOLET","7025442","2018-11-19 04:00","2018","11","19","04:00","-5.1","","-9.1","","74","","0.0","","20","","2","","","","101.82","","","","-6","","NA"
"-72.66","46.23","NICOLET","7025442","2018-11-19 05:00","2018","11","19","05:00","-5.2","","-7.5","","84","","0.0","","5","","3","","","","101.80","","","","-7","","NA"
"-72.66","46.23","NICOLET","7025442","2018-11-19 06:00","2018","11","19","06:00","-4.9","","-7.2","","84","","0.0","","6","","6","","","","101.81","","","","-8","","NA"
"-72.66","46.23","NICOLET","7025442","2018-11-19 07:00","2018","11","19","07:00","-5.6","","-7.9","","84","","0.0","","6","","10","","","","101.75","","","","-10","","NA"
"-72.66","46.23","NICOLET","7025442","2018-11-19 08:00","2018","11","19","08:00","-5.5","","-7.8","","84","","0.0","","5","","6","","","","101.76","","","","-8","","NA"
"-72.66","46.23","NICOLET","7025442","2018-11-19 09:00","2018","11","19","09:00","-4.7","","-7.0","","84","","0.0","","5","","6","","","","101.73","","","","-7","","NA"
"-72.66","46.23","NICOLET","7025442","2018-11-19 10:00","2018","11","19","10:00","-3.7","","-6.4","","82","","0.0","","4","","3","","","","101.70","","","","-5","","NA"
"-72.66","46.23","NICOLET","7025442","2018-11-19 11:00","2018","11","19","11:00","-3.5","","-6.0","","83","","0.0","","3","","4","","","","101.65","","","","-5","","NA"
"-72.66","46.23","NICOLET","7025442","2018-11-19 12:00","2018","11","19","12:00","-2.7","","-5.6","","80","","0.0","","36","","3","","","","101.63","","","","-4","","NA"
"-72.66","46.23","NICOLET","7025442","2018-11-19 13:00","2018","11","19","13:00","-1.9","","-5.4","","77","","0.0","","22","","2","","","","101.61","","","","-3","","NA"
"-72.66","46.23","NICOLET","7025442","2018-11-19 14:00","2018","11","19","14:00","-2.1","","-4.7","","82","","0.0","","23","","3","","","","101.59","","","","-3","","NA"
"-72.66","46.23","NICOLET","7025442","2018-11-19 15:00","2018","11","19","15:00","-2.3","","-4.3","","86","","0.0","","22","","3","","","","101.59","","","","-3","","NA"
"-72.66","46.23","NICOLET","7025442","2018-11-19 16:00","2018","11","19","16:00","-1.9","","-4.2","","85","","0.0","","16","","4","","","","101.59","","","","-3","","NA"
"-72.66","46.23","NICOLET","7025442","2018-11-19 17:00","2018","11","19","17:00","-1.9","","-3.9","","86","","0.0","","1","","2","","","","101.64","","","","-3","","NA"
"-72.66","46.23","NICOLET","7025442","2018-11-19 18:00","2018","11","19","18:00","-3.2","","-5.5","","84","","1.4","","2","","10","","","","101.67","","","","-7","","NA"
"-72.66","46.23","NICOLET","7025442","2018-11-19 19:00","2018","11","19","19:00","-3.4","","-5.9","","83","","0.0","","35","","9","","","","101.71","","","","-7","","NA"
"-72.66","46.23","NICOLET","7025442","2018-11-19 20:00","2018","11","19","20:00","-3.8","","-6.7","","80","","0.0","","1","","9","","","","101.70","","","","-8","","NA"
"-72.66","46.23","NICOLET","7025442","2018-11-19 21:00","2018","11","19","21:00","-4.1","","-7.3","","78","","0.0","","36","","7","","","","101.73","","","","-7","","NA"
"-72.66","46.23","NICOLET","7025442","2018-11-19 22:00","2018","11","19","22:00","-4.5","","-7.8","","78","","0.0","","2","","8","","","","101.70","","","","-8","","NA"
"-72.66","46.23","NICOLET","7025442","2018-11-19 23:00","2018","11","19","23:00","-5.4","","-10.2","","69","","0.0","","1","","9","","","","101.70","","","","-9","","NA"
"-72.66","46.23","NICOLET","7025442","2018-11-20 00:00","2018","11","20","00:00","-6.1","","-10.8","","69","","0.0","","1","","7","","","","101.68","","","","-9","","NA"
"-72.66","46.23","NICOLET","7025442","2018-11-20 01:00","2018","11","20","01:00","-6.9","","-11.9","","67","","0.0","","3","","8","","","","101.68","","","","-11","","NA"
"-72.66","46.23","NICOLET","7025442","2018-11-20 02:00","2018","11","20","02:00","-7.5","","-12.5","","68","","0.0","","36","","9","","","","101.63","","","","-12","","NA"
"-72.66","46.23","NICOLET","7025442","2018-11-20 03:00","2018","11","20","03:00","-7.9","","-13.0","","67","","0.0","","2","","7","","","","101.63","","","","-12","","NA"
"-72.66","46.23","NICOLET","7025442","2018-11-20 04:00","2018","11","20","04:00","-8.1","","-13.0","","68","","0.0","","3","","6","","","","101.58","","","","-11","","NA"
"-72.66","46.23","NICOLET","7025442","2018-11-20 05:00","2018","11","20","05:00","-8.3","","-13.2","","67","","0.0","","3","","10","","","","101.57","","","","-13","","NA"
"-72.66","46.23","NICOLET","7025442","2018-11-20 06:00","2018","11","20","06:00","-8.5","","-12.9","","70","","0.0","","2","","6","","","","101.58","","","","-12","","NA"
"-72.66","46.23","NICOLET","7025442","2018-11-20 07:00","2018","11","20","07:00","-8.8","","-12.6","","74","","0.0","","2","","9","","","","101.60","","","","-13","","NA"
"-72.66","46.23","NICOLET","7025442","2018-11-20 08:00","2018","11","20","08:00","-9.0","","-11.8","","80","","0.0","","2","","10","","","","101.57","","","","-14","","NA"
"-72.66","46.23","NICOLET","7025442","2018-11-20 09:00","2018","11","20","09:00","-8.7","","-11.5","","80","","0.0","","2","","11","","","","101.51","","","","-14","","NA"
"-72.66","46.23","NICOLET","7025442","2018-11-20 10:00","2018","11","20","10:00","-8.4","","-11.2","","80","","1.5","","3","","9","","","","101.49","","","","-13","","NA"
"-72.66","46.23","NICOLET","7025442","2018-11-20 11:00","2018","11","20","11:00","-7.8","","-10.7","","80","","0.0","","2","","11","","","","101.43","","","","-13","","NA"
"-72.66","46.23","NICOLET","7025442","2018-11-20 12:00","2018","11","20","12:00","-7.1","","-10.0","","80","","1.0","","3","","11","","","","101.33","","","","-12","","NA"
"-72.66","46.23","NICOLET","7025442","2018-11-20 13:00","2018","11","20","13:00","-6.8","","-9.8","","79","","0.0","","3","","12","","","","101.26","","","","-12","","NA"
"-72.66","46.23","NICOLET","7025442","2018-11-20 14:00","2018","11","20","14:00","-6.8","","-9.5","","81","","0.0","","3","","11","","","","101.21","","","","-12","","NA"
"-72.66","46.23","NICOLET","7025442","2018-11-20 15:00","2018","11","20","15:00","-6.6","","-9.3","","82","","1.5","","2","","11","","","","101.21","","","","-12","","NA"
"-72.66","46.23","NICOLET","7025442","2018-11-20 16:00","2018","11","20","16:00","-6.9","","-9.4","","82","","0.0","","1","","9","","","","101.20","","","","-11","","NA"
"-72.66","46.23","NICOLET","7025442","2018-11-20 17:00","2018","11","20","17:00","-7.2","","-9.8","","82","","0.0","","1","","9","","","","101.18","","","","-12","","NA"
"-72.66","46.23","NICOLET","7025442","2018-11-20 18:00","2018","11","20","18:00","-7.5","","-10.2","","80","","0.0","","35","","7","","","","101.20","","","","-11","","NA"
"-72.66","46.23","NICOLET","7025442","2018-11-20 19:00","2018","11","20","19:00","-7.8","","-10.5","","81","","1.1","","34","","10","","","","101.23","","","","-13","","NA"
"-72.66","46.23","NICOLET","7025442","2018-11-20 20:00","2018","11","20","20:00","-8.1","","-10.9","","80","","0.0","","34","","8","","","","101.24","","","","-12","","NA"
"-72.66","46.23","NICOLET","7025442","2018-11-20 21:00","2018","11","20","21:00","-7.9","","-10.9","","79","","0.0","","31","","9","","","","101.27","","","","-12","","NA"
"-72.66","46.23","NICOLET","7025442","2018-11-20 22:00","2018","11","20","22:00","-8.0","","-11.4","","76","","0.0","","32","","7","","","","101.26","","","","-12","","NA"
"-72.66","46.23","NICOLET","7025442","2018-11-20 23:00","2018","11","20","23:00","-7.9","","-11.0","","78","","0.0","","29","","8","","","","101.27","","","","-12","","NA"
"-72.66","46.23","NICOLET","7025442","2018-11-21 00:00","2018","11","21","00:00","-8.1","","-11.0","","80","","0.0","","0","","1","","","","101.23","","","","-9","","NA"
"-72.66","46.23","NICOLET","7025442","2018-11-21 01:00","2018","11","21","01:00","-7.9","","-10.0","","84","","0.0","","16","","4","","","","101.20","","","","-10","","NA"
"-72.66","46.23","NICOLET","7025442","2018-11-21 02:00","2018","11","21","02:00","-8.1","","-10.4","","83","","0.0","","33","","9","","","","101.17","","","","-13","","NA"
"-72.66","46.23","NICOLET","7025442","2018-11-21 03:00","2018","11","21","03:00","-8.5","","-10.7","","84","","0.0","","","","0","","","","101.12","","","","","","NA"
"-72.66","46.23","NICOLET","7025442","2018-11-21 04:00","2018","11","21","04:00","-10.3","","-12.2","","86","","0.0","","8","","3","","","","101.08","","","","-12","","NA"
"-72.66","46.23","NICOLET","7025442","2018-11-21 05:00","2018","11","21","05:00","-8.6","","-11.3","","81","","0.0","","18","","10","","","","101.02","","","","-14","","NA"
"-72.66","46.23","NICOLET","7025442","2018-11-21 06:00","2018","11","21","06:00","-9.5","","-11.8","","83","","0.0","","19","","7","","","","101.01","","","","-13","","NA"
"-72.66","46.23","NICOLET","7025442","2018-11-21 07:00","2018","11","21","07:00","-10.1","","-12.3","","84","","0.0","","13","","3","","","","100.95","","","","-12","","NA"
"-72.66","46.23","NICOLET","7025442","2018-11-21 08:00","2018","11","21","08:00","-8.8","","-11.0","","84","","0.0","","12","","3","","","","100.86","","","","-10","","NA"
"-72.66","46.23","NICOLET","7025442","2018-11-21 09:00","2018","11","21","09:00","-8.1","","-10.3","","84","","1.1","","11","","5","","","","100.80","","","","-11","","NA"
"-72.66","46.23","NICOLET","7025442","2018-11-21 10:00","2018","11","21","10:00","-7.3","","-9.5","","84","","0.0","","6","","6","","","","100.73","","","","-10","","NA"
"-72.66","46.23","NICOLET","7025442","2018-11-21 11:00","2018","11","21","11:00","-7.0","","-9.3","","83","","1.6","","3","","7","","","","100.67","","","","-11","","NA"
"-72.66","46.23","NICOLET","7025442","2018-11-21 12:00","2018","11","21","12:00","-7.3","","-10.1","","81","","0.0","","1","","10","","","","100.63","","","","-12","","NA"
"-72.66","46.23","NICOLET","7025442","2018-11-21 13:00","2018","11","21","13:00","-7.4","","-10.8","","77","","0.0","","35","","11","","","","100.73","","","","-12","","NA"
"-72.66","46.23","NICOLET","7025442","2018-11-21 14:00","2018","11","21","14:00","-7.2","","-12.3","","67","","1.5","","34","","14","","","","100.86","","","","-13","","NA"
"-72.66","46.23","NICOLET","7025442","2018-11-21 15:00","2018","11","21","15:00","-7.3","","-13.9","","59","","0.0","","33","","16","","","","101.00","","","","-14","","NA"
"-72.66","46.23","NICOLET","7025442","2018-11-21 16:00","2018","11","21","16:00","-7.6","","-14.0","","60","","0.0","","31","","20","","","","101.15","","","","-15","","NA"
"-72.66","46.23","NICOLET","7025442","2018-11-21 17:00","2018","11","21","17:00","-8.7","","-15.7","","57","","0.0","","32","","18","","","","101.34","","","","-16","","NA"
"-72.66","46.23","NICOLET","7025442","2018-11-21 18:00","2018","11","21","18:00","-9.5","","-18.1","","50","","0.0","","32","","23","","","","101.52","","","","-18","","NA"
"-72.66","46.23","NICOLET","7025442","2018-11-21 19:00","2018","11","21","19:00","-10.6","","-18.5","","52","","0.0","","31","","20","","","","101.65","","","","-19","","NA"
"-72.66","46.23","NICOLET","7025442","2018-11-21 20:00","2018","11","21","20:00","-11.4","","-19.2","","52","","0.0","","30","","22","","","","101.78","","","","-20","","NA"
"-72.66","46.23","NICOLET","7025442","2018-11-21 21:00","2018","11","21","21:00","-12.3","","-19.9","","53","","0.0","","31","","18","","","","101.86","","","","-20","","NA"
"-72.66","46.23","NICOLET","7025442","2018-11-21 22:00","2018","11","21","22:00","-12.3","","-18.8","","58","","0.0","","32","","11","","","","101.93","","","","-18","","NA"
"-72.66","46.23","NICOLET","7025442","2018-11-21 23:00","2018","11","21","23:00","-13.7","","-20.8","","55","","0.0","","30","","20","","","","102.01","","","","-23","","NA"
"-72.66","46.23","NICOLET","7025442","2018-11-22 00:00","2018","11","22","00:00","-14.4","","-21.7","","54","","0.0","","30","","22","","","","102.09","","","","-24","","NA"
"-72.66","46.23","NICOLET","7025442","2018-11-22 01:00","2018","11","22","01:00","-15.0","","-21.8","","56","","0.0","","29","","21","","","","102.09","","","","-24","","NA"
"-72.66","46.23","NICOLET","7025442","2018-11-22 02:00","2018","11","22","02:00","-15.4","","-21.8","","58","","0.0","","28","","25","","","","102.15","","","","-26","","NA"
"-72.66","46.23","NICOLET","7025442","2018-11-22 03:00","2018","11","22","03:00","-15.6","","-21.7","","60","","0.0","","28","","28","","","","102.14","","","","-26","","NA"
"-72.66","46.23","NICOLET","7025442","2018-11-22 04:00","2018","11","22","04:00","-16.1","","-21.9","","61","","0.0","","28","","26","","","","102.19","","","","-27","","NA"
"-72.66","46.23","NICOLET","7025442","2018-11-22 05:00","2018","11","22","05:00","-16.7","","-22.3","","62","","0.0","","27","","25","","","","102.23","","","","-27","","NA"
"-72.66","46.23","NICOLET","7025442","2018-11-22 06:00","2018","11","22","06:00","-16.5","","-22.5","","60","","0.0","","28","","16","","","","102.32","","","","-25","","NA"
"-72.66","46.23","NICOLET","7025442","2018-11-22 07:00","2018","11","22","07:00","-16.4","","-22.4","","59","","0.0","","29","","20","","","","102.37","","","","-26","","NA"
"-72.66","46.23","NICOLET","7025442","2018-11-22 08:00","2018","11","22","08:00","-15.8","","-22.0","","59","","0.0","","29","","12","","","","102.48","","","","-23","","NA"
"-72.66","46.23","NICOLET","7025442","2018-11-22 09:00","2018","11","22","09:00","-15.0","","-21.3","","59","","0.0","","30","","19","","","","102.49","","","","-24","","NA"
"-72.66","46.23","NICOLET","7025442","2018-11-22 10:00","2018","11","22","10:00","-13.7","","-21.1","","54","","0.0","","31","","17","","","","102.57","","","","-22","","NA"
"-72.66","46.23","NICOLET","7025442","2018-11-22 11:00","2018","11","22","11:00","-12.2","","-21.1","","48","","0.0","","32","","16","","","","102.60","","","","-20","","NA"
"-72.66","46.23","NICOLET","7025442","2018-11-22 12:00","2018","11","22","12:00","-11.5","","-20.7","","46","","0.0","","29","","19","","","","102.62","","","","-20","","NA"
"-72.66","46.23","NICOLET","7025442","2018-11-22 13:00","2018","11","22","13:00","-9.9","","-19.0","","47","","0.0","","28","","17","","","","102.59","","","","-17","","NA"
"-72.66","46.23","NICOLET","7025442","2018-11-22 14:00","2018","11","22","14:00","-9.1","","-18.9","","45","","0.0","","30","","20","","","","102.60","","","","-17","","NA"
"-72.66","46.23","NICOLET","7025442","2018-11-22 15:00","2018","11","22","15:00","-8.7","","-19.2","","42","","0.0","","30","","17","","","","102.67","","","","-16","","NA"
"-72.66","46.23","NICOLET","7025442","2018-11-22 16:00","2018","11","22","16:00","-8.5","","-19.5","","41","","0.0","","32","","20","","","","102.75","","","","-16","","NA"
"-72.66","46.23","NICOLET","7025442","2018-11-22 17:00","2018","11","22","17:00","-9.0","","-17.6","","50","","0.0","","32","","22","","","","102.86","","","","-17","","NA"
"-72.66","46.23","NICOLET","7025442","2018-11-22 18:00","2018","11","22","18:00","-9.3","","-17.6","","51","","0.0","","31","","20","","","","102.95","","","","-17","","NA"
"-72.66","46.23","NICOLET","7025442","2018-11-22 19:00","2018","11","22","19:00","-9.1","","-17.2","","52","","0.0","","29","","16","","","","103.02","","","","-16","","NA"
"-72.66","46.23","NICOLET","7025442","2018-11-22 20:00","2018","11","22","20:00","-8.9","","-16.5","","54","","0.0","","28","","18","","","","103.07","","","","-16","","NA"
"-72.66","46.23","NICOLET","7025442","2018-11-22 21:00","2018","11","22","21:00","-9.1","","-15.9","","58","","0.0","","28","","19","","","","103.10","","","","-17","","NA"
"-72.66","46.23","NICOLET","7025442","2018-11-22 22:00","2018","11","22","22:00","-9.7","","-16.5","","57","","0.0","","27","","19","","","","103.13","","","","-17","","NA"
"-72.66","46.23","NICOLET","7025442","2018-11-22 23:00","2018","11","22","23:00","-10.1","","-16.2","","61","","0.0","","28","","16","","","","103.13","","","","-17","","NA"
"-72.66","46.23","NICOLET","7025442","2018-11-23 00:00","2018","11","23","00:00","-10.7","","-16.8","","61","","0.0","","29","","14","","","","103.18","","","","-17","","NA"
"-72.66","46.23","NICOLET","7025442","2018-11-23 01:00","2018","11","23","01:00","-11.6","","-16.7","","66","","0.0","","27","","15","","","","103.22","","","","-19","","NA"
"-72.66","46.23","NICOLET","7025442","2018-11-23 02:00","2018","11","23","02:00","-12.1","","-16.8","","68","","0.0","","27","","12","","","","103.24","","","","-18","","NA"
"-72.66","46.23","NICOLET","7025442","2018-11-23 03:00","2018","11","23","03:00","-12.4","","-16.9","","69","","0.0","","27","","14","","","","103.20","","","","-19","","NA"
"-72.66","46.23","NICOLET","7025442","2018-11-23 04:00","2018","11","23","04:00","-12.9","","-17.4","","69","","0.0","","28","","10","","","","103.19","","","","-19","","NA"
"-72.66","46.23","NICOLET","7025442","2018-11-23 05:00","2018","11","23","05:00","-16.7","","-19.8","","77","","0.0","","19","","6","","","","103.20","","","","-21","","NA"
"-72.66","46.23","NICOLET","7025442","2018-11-23 06:00","2018","11","23","06:00","-20.8","","-23.4","","80","","0.0","","13","","4","","","","103.21","","","","-24","","NA"
"-72.66","46.23","NICOLET","7025442","2018-11-23 07:00","2018","11","23","07:00","-20.1","","-22.8","","79","","0.0","","0","","1","","","","103.21","","","","-21","","NA"
"-72.66","46.23","NICOLET","7025442","2018-11-23 08:00","2018","11","23","08:00","-19.7","","-22.4","","79","","0.0","","13","","4","","","","103.22","","","","-23","","NA"
"-72.66","46.23","NICOLET","7025442","2018-11-23 09:00","2018","11","23","09:00","-15.7","","-18.7","","78","","0.0","","16","","8","","","","103.20","","","","-21","","NA"
"-72.66","46.23","NICOLET","7025442","2018-11-23 10:00","2018","11","23","10:00","-14.3","","-18.0","","74","","0.0","","19","","10","","","","103.15","","","","-20","","NA"
"-72.66","46.23","NICOLET","7025442","2018-11-23 11:00","2018","11","23","11:00","-12.6","","-17.3","","68","","0.0","","18","","8","","","","103.07","","","","-18","","NA"
"-72.66","46.23","NICOLET","7025442","2018-11-23 12:00","2018","11","23","12:00","-10.7","","-15.6","","67","","0.0","","22","","13","","","","102.93","","","","-17","","NA"
"-72.66","46.23","NICOLET","7025442","2018-11-23 13:00","2018","11","23","13:00","-9.8","","-15.7","","62","","0.0","","21","","15","","","","102.80","","","","-16","","NA"
"-72.66","46.23","NICOLET","7025442","2018-11-23 14:00","2018","11","23","14:00","-9.4","","-15.4","","61","","0.0","","20","","13","","","","102.68","","","","-15","","NA"
"-72.66","46.23","NICOLET","7025442","2018-11-23 15:00","2018","11","23","15:00","-8.9","","-16.0","","56","","0.0","","19","","13","","","","102.56","","","","-15","","NA"
"-72.66","46.23","NICOLET","7025442","2018-11-23 16:00","2018","11","23","16:00","-8.3","","-14.5","","61","","0.0","","20","","13","","","","102.49","","","","-14","","NA"
"-72.66","46.23","NICOLET","7025442","2018-11-23 17:00","2018","11","23","17:00","-8.0","","-14.5","","60","","0.0","","20","","9","","","","102.42","","","","-13","","NA"
"-72.66","46.23","NICOLET","7025442","2018-11-23 18:00","2018","11","23","18:00","-7.7","","-14.9","","57","","0.0","","20","","9","","","","102.30","","","","-12","","NA"
"-72.66","46.23","NICOLET","7025442","2018-11-23 19:00","2018","11","23","19:00","-7.7","","-13.6","","62","","0.0","","20","","3","","","","102.23","","","","-9","","NA"
"-72.66","46.23","NICOLET","7025442","2018-11-23 20:00","2018","11","23","20:00","-7.3","","-14.4","","57","","0.0","","20","","5","","","","102.13","","","","-10","","NA"
"-72.66","46.23","NICOLET","7025442","2018-11-23 21:00","2018","11","23","21:00","-7.1","","-12.9","","63","","0.0","","18","","4","","","","102.05","","","","-9","","NA"
"-72.66","46.23","NICOLET","7025442","2018-11-23 22:00","2018","11","23","22:00","-6.5","","-12.4","","63","","0.0","","21","","9","","","","101.97","","","","-11","","NA"
"-72.66","46.23","NICOLET","7025442","2018-11-23 23:00","2018","11","23","23:00","-5.5","","-10.9","","65","","0.0","","23","","10","","","","101.95","","","","-10","","NA"
"-72.66","46.23","NICOLET","7025442","2018-11-24 00:00","2018","11","24","00:00","-4.3","","-9.2","","68","","0.0","","21","","10","","","","101.92","","","","-8","","NA"
"-72.66","46.23","NICOLET","7025442","2018-11-24 01:00","2018","11","24","01:00","-3.1","","-10.1","","58","","0.0","","21","","15","","","","101.86","","","","-8","","NA"
"-72.66","46.23","NICOLET","7025442","2018-11-24 02:00","2018","11","24","02:00","-3.7","","-10.6","","59","","0.0","","20","","14","","","","101.88","","","","-9","","NA"
"-72.66","46.23","NICOLET","7025442","2018-11-24 03:00","2018","11","24","03:00","-5.3","","-10.6","","66","","0.0","","17","","9","","","","101.81","","","","-9","","NA"
"-72.66","46.23","NICOLET","7025442","2018-11-24 04:00","2018","11","24","04:00","-6.2","","-11.6","","65","","0.0","","18","","8","","","","101.75","","","","-10","","NA"
"-72.66","46.23","NICOLET","7025442","2018-11-24 05:00","2018","11","24","05:00","-6.4","","-12.4","","63","","0.0","","19","","9","","","","101.75","","","","-11","","NA"
"-72.66","46.23","NICOLET","7025442","2018-11-24 06:00","2018","11","24","06:00","-7.1","","-13.4","","61","","0.0","","16","","6","","","","101.77","","","","-10","","NA"
"-72.66","46.23","NICOLET","7025442","2018-11-24 07:00","2018","11","24","07:00","-7.4","","-13.5","","61","","0.0","","17","","6","","","","101.74","","","","-11","","NA"
"-72.66","46.23","NICOLET","7025442","2018-11-24 08:00","2018","11","24","08:00","-7.6","","-14.0","","60","","0.0","","14","","4","","","","101.71","","","","-10","","NA"
"-72.66","46.23","NICOLET","7025442","2018-11-24 09:00","2018","11","24","09:00","-6.2","","-13.9","","54","","0.0","","17","","6","","","","101.70","","","","-9","","NA"
"-72.66","46.23","NICOLET","7025442","2018-11-24 10:00","2018","11","24","10:00","-3.8","","-13.4","","48","","0.0","","18","","6","","","","101.66","","","","-6","","NA"
"-72.66","46.23","NICOLET","7025442","2018-11-24 11:00","2018","11","24","11:00","-2.3","","-13.2","","43","","0.0","","7","","2","","","","101.59","","","","-3","","NA"
"-72.66","46.23","NICOLET","7025442","2018-11-24 12:00","2018","11","24","12:00","-1.5","","-13.8","","38","","0.0","","10","","2","","","","101.47","","","","-2","","NA"
"-72.66","46.23","NICOLET","7025442","2018-11-24 13:00","2018","11","24","13:00","-0.8","","-13.2","","38","","0.0","","8","","2","","","","101.40","","","","-1","","NA"
"-72.66","46.23","NICOLET","7025442","2018-11-24 14:00","2018","11","24","14:00","-1.2","","-13.1","","40","","0.0","","3","","8","","","","101.33","","","","-4","","NA"
"-72.66","46.23","NICOLET","7025442","2018-11-24 15:00","2018","11","24","15:00","-1.2","","-10.9","","47","","0.0","","3","","6","","","","101.28","","","","-3","","NA"
"-72.66","46.23","NICOLET","7025442","2018-11-24 16:00","2018","11","24","16:00","-1.8","","-9.1","","58","","0.0","","4","","4","","","","101.31","","","","-3","","NA"
"-72.66","46.23","NICOLET","7025442","2018-11-24 17:00","2018","11","24","17:00","-2.6","","-10.3","","55","","0.0","","4","","5","","","","101.39","","","","-5","","NA"
"-72.66","46.23","NICOLET","7025442","2018-11-24 18:00","2018","11","24","18:00","-3.6","","-10.4","","59","","0.0","","5","","7","","","","101.28","","","","-7","","NA"
"-72.66","46.23","NICOLET","7025442","2018-11-24 19:00","2018","11","24","19:00","-4.1","","-10.1","","63","","0.0","","7","","6","","","","101.25","","","","-7","","NA"
"-72.66","46.23","NICOLET","7025442","2018-11-24 20:00","2018","11","24","20:00","-2.5","","-9.6","","58","","0.0","","5","","12","","","","101.19","","","","-7","","NA"
"-72.66","46.23","NICOLET","7025442","2018-11-24 21:00","2018","11","24","21:00","-2.3","","-8.6","","62","","0.0","","5","","11","","","","101.15","","","","-6","","NA"
"-72.66","46.23","NICOLET","7025442","2018-11-24 22:00","2018","11","24","22:00","-2.4","","-7.7","","67","","0.0","","5","","12","","","","101.04","","","","-7","","NA"
"-72.66","46.23","NICOLET","7025442","2018-11-24 23:00","2018","11","24","23:00","-2.4","","-6.9","","71","","0.0","","5","","12","","","","101.03","","","","-7","","NA"
"-72.66","46.23","NICOLET","7025442","2018-11-25 00:00","2018","11","25","00:00","-2.1","","-6.5","","72","","0.0","","5","","13","","","","100.97","","","","-7","","NA"
"-72.66","46.23","NICOLET","7025442","2018-11-25 01:00","2018","11","25","01:00","-1.8","","-5.5","","76","","0.0","","5","","13","","","","100.92","","","","-6","","NA"
"-72.66","46.23","NICOLET","7025442","2018-11-25 02:00","2018","11","25","02:00","-1.2","","-4.7","","77","","0.0","","5","","12","","","","100.91","","","","-5","","NA"
"-72.66","46.23","NICOLET","7025442","2018-11-25 03:00","2018","11","25","03:00","-0.7","","-3.2","","83","","0.0","","5","","9","","","","100.88","","","","-4","","NA"
"-72.66","46.23","NICOLET","7025442","2018-11-25 04:00","2018","11","25","04:00","-0.4","","-2.2","","87","","0.0","","5","","11","","","","100.82","","","","-4","","NA"
"-72.66","46.23","NICOLET","7025442","2018-11-25 05:00","2018","11","25","05:00","0.1","","-1.3","","91","","0.0","","5","","10","","","","100.84","","","","","","NA"
"-72.66","46.23","NICOLET","7025442","2018-11-25 06:00","2018","11","25","06:00","0.2","","-0.9","","92","","0.0","","5","","10","","","","100.84","","","","","","NA"
"-72.66","46.23","NICOLET","7025442","2018-11-25 07:00","2018","11","25","07:00","0.2","","-0.8","","93","","1.7","","5","","11","","","","100.84","","","","","","NA"
"-72.66","46.23","NICOLET","7025442","2018-11-25 08:00","2018","11","25","08:00","0.2","","-0.7","","94","","0.0","","5","","12","","","","100.85","","","","","","NA"
"-72.66","46.23","NICOLET","7025442","2018-11-25 09:00","2018","11","25","09:00","0.3","","-0.8","","93","","1.8","","5","","13","","","","100.85","","","","","","NA"
"-72.66","46.23","NICOLET","7025442","2018-11-25 10:00","2018","11","25","10:00","0.3","","-0.7","","93","","0.0","","6","","13","","","","100.88","","","","","","NA"
"-72.66","46.23","NICOLET","7025442","2018-11-25 11:00","2018","11","25","11:00","0.3","","-0.6","","93","","1.3","","5","","13","","","","100.84","","","","","","NA"
"-72.66","46.23","NICOLET","7025442","2018-11-25 12:00","2018","11","25","12:00","0.5","","-0.4","","94","","0.0","","5","","13","","","","100.82","","","","","","NA"
"-72.66","46.23","NICOLET","7025442","2018-11-25 13:00","2018","11","25","13:00","0.6","","-0.3","","94","","1.4","","5","","11","","","","100.82","","","","","","NA"
"-72.66","46.23","NICOLET","7025442","2018-11-25 14:00","2018","11","25","14:00","0.6","","-0.3","","94","","0.0","","5","","11","","","","100.84","","","","","","NA"
"-72.66","46.23","NICOLET","7025442","2018-11-25 15:00","2018","11","25","15:00","0.7","","-0.2","","94","","0.0","","5","","14","","","","100.88","","","","","","NA"
"-72.66","46.23","NICOLET","7025442","2018-11-25 16:00","2018","11","25","16:00","0.8","","-0.1","","93","","0.0","","6","","15","","","","100.95","","","","","","NA"
"-72.66","46.23","NICOLET","7025442","2018-11-25 17:00","2018","11","25","17:00","0.7","","-0.2","","94","","0.0","","5","","12","","","","101.03","","","","","","NA"
"-72.66","46.23","NICOLET","7025442","2018-11-25 18:00","2018","11","25","18:00","0.6","","-0.2","","94","","0.0","","6","","14","","","","101.07","","","","","","NA"
"-72.66","46.23","NICOLET","7025442","2018-11-25 19:00","2018","11","25","19:00","0.4","","-0.4","","94","","0.0","","6","","11","","","","101.11","","","","","","NA"
"-72.66","46.23","NICOLET","7025442","2018-11-25 20:00","2018","11","25","20:00","0.3","","-0.5","","94","","0.0","","5","","12","","","","101.15","","","","","","NA"
"-72.66","46.23","NICOLET","7025442","2018-11-25 21:00","2018","11","25","21:00","0.2","","-0.6","","95","","0.0","","5","","11","","","","101.16","","","","","","NA"
"-72.66","46.23","NICOLET","7025442","2018-11-25 22:00","2018","11","25","22:00","0.2","","-0.6","","95","","1.3","","6","","11","","","","101.13","","","","","","NA"
"-72.66","46.23","NICOLET","7025442","2018-11-25 23:00","2018","11","25","23:00","0.2","","-0.6","","94","","0.0","","5","","10","","","","101.16","","","","","","NA"
"-72.66","46.23","NICOLET","7025442","2018-11-26 00:00","2018","11","26","00:00","0.2","","-0.6","","94","","0.0","","4","","9","","","","101.17","","","","","","NA"
"-72.66","46.23","NICOLET","7025442","2018-11-26 01:00","2018","11","26","01:00","0.2","","-0.6","","95","","0.0","","4","","8","","","","101.20","","","","","","NA"
"-72.66","46.23","NICOLET","7025442","2018-11-26 02:00","2018","11","26","02:00","0.2","","-0.5","","95","","0.0","","5","","9","","","","101.25","","","","","","NA"
"-72.66","46.23","NICOLET","7025442","2018-11-26 03:00","2018","11","26","03:00","0.2","","-0.5","","95","","0.0","","4","","8","","","","101.27","","","","","","NA"
"-72.66","46.23","NICOLET","7025442","2018-11-26 04:00","2018","11","26","04:00","0.2","","-0.4","","95","","0.0","","3","","8","","","","101.27","","","","","","NA"
"-72.66","46.23","NICOLET","7025442","2018-11-26 05:00","2018","11","26","05:00","0.2","","-0.4","","95","","0.0","","7","","9","","","","101.29","","","","","","NA"
"-72.66","46.23","NICOLET","7025442","2018-11-26 06:00","2018","11","26","06:00","0.2","","-0.4","","96","","0.0","","4","","11","","","","101.29","","","","","","NA"
"-72.66","46.23","NICOLET","7025442","2018-11-26 07:00","2018","11","26","07:00","0.2","","-0.4","","96","","0.0","","7","","8","","","","101.30","","","","","","NA"
"-72.66","46.23","NICOLET","7025442","2018-11-26 08:00","2018","11","26","08:00","0.3","","-0.3","","96","","0.0","","5","","8","","","","101.29","","","","","","NA"
"-72.66","46.23","NICOLET","7025442","2018-11-26 09:00","2018","11","26","09:00","0.4","","-0.2","","96","","0.0","","4","","10","","","","101.24","","","","","","NA"
"-72.66","46.23","NICOLET","7025442","2018-11-26 10:00","2018","11","26","10:00","0.5","","0.0","","96","","0.0","","4","","10","","","","101.23","","","","","","NA"
"-72.66","46.23","NICOLET","7025442","2018-11-26 11:00","2018","11","26","11:00","0.7","","0.1","","96","","0.0","","5","","11","","","","101.19","","","","","","NA"
"-72.66","46.23","NICOLET","7025442","2018-11-26 12:00","2018","11","26","12:00","0.9","","0.3","","96","","0.0","","5","","14","","","","101.08","","","","","","NA"
"-72.66","46.23","NICOLET","7025442","2018-11-26 13:00","2018","11","26","13:00","1.4","","0.5","","93","","0.0","","5","","13","","","","101.01","","","","","","NA"
"-72.66","46.23","NICOLET","7025442","2018-11-26 14:00","2018","11","26","14:00","1.6","","0.3","","92","","0.0","","6","","17","","","","100.97","","","","","","NA"
"-72.66","46.23","NICOLET","7025442","2018-11-26 15:00","2018","11","26","15:00","1.7","","0.3","","91","","0.0","","6","","14","","","","100.96","","","","","","NA"
"-72.66","46.23","NICOLET","7025442","2018-11-26 16:00","2018","11","26","16:00","1.5","","0.3","","92","","0.0","","6","","15","","","","100.93","","","","","","NA"
"-72.66","46.23","NICOLET","7025442","2018-11-26 17:00","2018","11","26","17:00","1.2","","0.1","","93","","0.0","","5","","15","","","","100.83","","","","","","NA"
"-72.66","46.23","NICOLET","7025442","2018-11-26 18:00","2018","11","26","18:00","1.0","","-0.1","","93","","1.1","","5","","15","","","","100.84","","","","","","NA"
"-72.66","46.23","NICOLET","7025442","2018-11-26 19:00","2018","11","26","19:00","0.7","","-0.2","","94","","0.0","","6","","14","","","","100.86","","","","","","NA"
"-72.66","46.23","NICOLET","7025442","2018-11-26 20:00","2018","11","26","20:00","0.6","","-0.3","","94","","1.6","","6","","16","","","","100.78","","","","","","NA"
"-72.66","46.23","NICOLET","7025442","2018-11-26 21:00","2018","11","26","21:00","0.5","","-0.4","","94","","0.0","","6","","15","","","","100.73","","","","","","NA"
"-72.66","46.23","NICOLET","7025442","2018-11-26 22:00","2018","11","26","22:00","0.1","","-0.8","","93","","0.0","","6","","19","","","","100.68","","","","","","NA"
"-72.66","46.23","NICOLET","7025442","2018-11-26 23:00","2018","11","26","23:00","-0.2","","-1.0","","94","","1.3","","6","","17","","","","100.60","","","","-5","","NA"
"-72.66","46.23","NICOLET","7025442","2018-11-27 00:00","2018","11","27","00:00","-0.4","","-1.1","","95","","0.0","","6","","15","","","","100.53","","","","-5","","NA"
"-72.66","46.23","NICOLET","7025442","2018-11-27 01:00","2018","11","27","01:00","-0.5","","-1.3","","95","","0.0","","6","","16","","","","100.45","","","","-5","","NA"
"-72.66","46.23","NICOLET","7025442","2018-11-27 02:00","2018","11","27","02:00","-0.6","","-1.3","","95","","1.0","","5","","15","","","","100.38","","","","-5","","NA"
"-72.66","46.23","NICOLET","7025442","2018-11-27 03:00","2018","11","27","03:00","-0.6","","-1.3","","95","","0.0","","5","","18","","","","100.29","","","","-6","","NA"
"-72.66","46.23","NICOLET","7025442","2018-11-27 04:00","2018","11","27","04:00","-0.5","","-1.4","","93","","0.0","","5","","16","","","","100.18","","","","-5","","NA"
"-72.66","46.23","NICOLET","7025442","2018-11-27 05:00","2018","11","27","05:00","-0.4","","-1.5","","92","","0.0","","5","","15","","","","100.14","","","","-5","","NA"
"-72.66","46.23","NICOLET","7025442","2018-11-27 06:00","2018","11","27","06:00","-0.4","","-1.6","","91","","1.1","","5","","17","","","","100.09","","","","-5","","NA"
"-72.66","46.23","NICOLET","7025442","2018-11-27 07:00","2018","11","27","07:00","-0.2","","-1.6","","91","","0.0","","5","","16","","","","100.03","","","","-5","","NA"
"-72.66","46.23","NICOLET","7025442","2018-11-27 08:00","2018","11","27","08:00","-0.1","","-1.4","","90","","0.0","","5","","17","","","","99.96","","","","-5","","NA"
"-72.66","46.23","NICOLET","7025442","2018-11-27 09:00","2018","11","27","09:00","0.1","","-1.1","","92","","1.1","","5","","18","","","","99.92","","","","","","NA"
"-72.66","46.23","NICOLET","7025442","2018-11-27 10:00","2018","11","27","10:00","0.1","","-0.7","","95","","0.0","","4","","15","","","","99.87","","","","","","NA"
"-72.66","46.23","NICOLET","7025442","2018-11-27 11:00","2018","11","27","11:00","0.0","","-0.7","","95","","1.7","","4","","17","","","","99.78","","","","-5","","NA"
"-72.66","46.23","NICOLET","7025442","2018-11-27 12:00","2018","11","27","12:00","0.0","","-0.6","","95","","1.3","","3","","17","","","","99.63","","","","-5","","NA"
"-72.66","46.23","NICOLET","7025442","2018-11-27 13:00","2018","11","27","13:00","0.1","","-0.6","","96","","1.1","","4","","19","","","","99.52","","","","","","NA"
"-72.66","46.23","NICOLET","7025442","2018-11-27 14:00","2018","11","27","14:00","0.1","","-0.6","","96","","0.0","","4","","17","","","","99.42","","","","","","NA"
"-72.66","46.23","NICOLET","7025442","2018-11-27 15:00","2018","11","27","15:00","0.0","","-0.6","","96","","1.3","","4","","15","","","","99.38","","","","-4","","NA"
"-72.66","46.23","NICOLET","7025442","2018-11-27 16:00","2018","11","27","16:00","0.1","","-0.6","","95","","0.0","","4","","15","","","","99.32","","","","","","NA"
"-72.66","46.23","NICOLET","7025442","2018-11-27 17:00","2018","11","27","17:00","0.1","","-0.5","","96","","1.2","","4","","15","","","","99.22","","","","","","NA"
"-72.66","46.23","NICOLET","7025442","2018-11-27 18:00","2018","11","27","18:00","0.2","","-0.5","","95","","0.0","","4","","16","","","","99.19","","","","","","NA"
"-72.66","46.23","NICOLET","7025442","2018-11-27 19:00","2018","11","27","19:00","0.2","","-0.4","","96","","1.5","","4","","12","","","","99.16","","","","","","NA"
"-72.66","46.23","NICOLET","7025442","2018-11-27 20:00","2018","11","27","20:00","0.2","","-0.4","","96","","0.0","","3","","11","","","","99.13","","","","","","NA"
"-72.66","46.23","NICOLET","7025442","2018-11-27 21:00","2018","11","27","21:00","0.2","","-0.4","","96","","1.4","","4","","12","","","","99.10","","","","","","NA"
"-72.66","46.23","NICOLET","7025442","2018-11-27 22:00","2018","11","27","22:00","0.2","","-0.4","","96","","0.0","","3","","12","","","","99.06","","","","","","NA"
"-72.66","46.23","NICOLET","7025442","2018-11-27 23:00","2018","11","27","23:00","0.2","","-0.4","","96","","7.7","","3","","15","","","","99.05","","","","","","NA"
"-72.66","46.23","NICOLET","7025442","2018-11-28 00:00","2018","11","28","00:00","0.3","","-0.3","","96","","6.1","","3","","10","","","","99.01","","","","","","NA"
"-72.66","46.23","NICOLET","7025442","2018-11-28 01:00","2018","11","28","01:00","0.3","","-0.3","","96","","0.0","","3","","11","","","","98.99","","","","","","NA"
"-72.66","46.23","NICOLET","7025442","2018-11-28 02:00","2018","11","28","02:00","0.3","","-0.3","","95","","0.0","","2","","8","","","","99.01","","","","","","NA"
"-72.66","46.23","NICOLET","7025442","2018-11-28 03:00","2018","11","28","03:00","0.3","","-0.3","","95","","1.5","","2","","6","","","","99.00","","","","","","NA"
"-72.66","46.23","NICOLET","7025442","2018-11-28 04:00","2018","11","28","04:00","0.3","","-0.4","","95","","0.0","","1","","5","","","","99.00","","","","","","NA"
"-72.66","46.23","NICOLET","7025442","2018-11-28 05:00","2018","11","28","05:00","0.3","","-0.4","","95","","1.2","","36","","2","","","","99.00","","","","","","NA"
"-72.66","46.23","NICOLET","7025442","2018-11-28 06:00","2018","11","28","06:00","0.4","","-0.3","","95","","1.1","","36","","5","","","","99.01","","","","","","NA"
"-72.66","46.23","NICOLET","7025442","2018-11-28 07:00","2018","11","28","07:00","0.5","","-0.3","","94","","1.3","","36","","9","","","","99.04","","","","","","NA"
"-72.66","46.23","NICOLET","7025442","2018-11-28 08:00","2018","11","28","08:00","0.6","","-0.4","","94","","0.0","","36","","10","","","","99.10","","","","","","NA"
"-72.66","46.23","NICOLET","7025442","2018-11-28 09:00","2018","11","28","09:00","0.7","","-0.3","","93","","1.6","","36","","12","","","","99.14","","","","","","NA"
"-72.66","46.23","NICOLET","7025442","2018-11-28 10:00","2018","11","28","10:00","0.8","","-0.2","","93","","1.2","","36","","11","","","","99.19","","","","","","NA"
"-72.66","46.23","NICOLET","7025442","2018-11-28 11:00","2018","11","28","11:00","1.0","","-0.1","","93","","0.0","","1","","10","","","","99.20","","","","","","NA"
"-72.66","46.23","NICOLET","7025442","2018-11-28 12:00","2018","11","28","12:00","1.1","","0.0","","93","","0.0","","36","","11","","","","99.22","","","","","","NA"
"-72.66","46.23","NICOLET","7025442","2018-11-28 13:00","2018","11","28","13:00","1.3","","0.1","","92","","1.2","","35","","9","","","","99.27","","","","","","NA"
"-72.66","46.23","NICOLET","7025442","2018-11-28 14:00","2018","11","28","14:00","1.2","","0.1","","93","","0.0","","36","","9","","","","99.35","","","","","","NA"
"-72.66","46.23","NICOLET","7025442","2018-11-28 15:00","2018","11","28","15:00","1.3","","0.2","","93","","0.0","","35","","9","","","","99.44","","","","","","NA"
"-72.66","46.23","NICOLET","7025442","2018-11-28 16:00","2018","11","28","16:00","1.4","","0.3","","92","","0.0","","36","","6","","","","99.54","","","","","","NA"
"-72.66","46.23","NICOLET","7025442","2018-11-28 17:00","2018","11","28","17:00","1.5","","0.2","","91","","0.0","","1","","5","","","","99.64","","","","","","NA"
"-72.66","46.23","NICOLET","7025442","2018-11-28 18:00","2018","11","28","18:00","1.5","","0.1","","91","","","","","","","","","","99.76","","","","","","NA"
"-72.66","46.23","NICOLET","7025442","2018-11-28 19:00","2018","11","28","19:00","0.7","","-0.1","","94","","0.0","","9","","3","","","","99.89","","","","","","NA"
"-72.66","46.23","NICOLET","7025442","2018-11-28 20:00","2018","11","28","20:00","0.4","","-0.3","","95","","0.0","","","","0","","","","99.97","","","","","","NA"
"-72.66","46.23","NICOLET","7025442","2018-11-28 21:00","2018","11","28","21:00","0.1","","-0.7","","95","","0.0","","","","0","","","","100.00","","","","","","NA"
"-72.66","46.23","NICOLET","7025442","2018-11-28 22:00","2018","11","28","22:00","-0.1","","-0.8","","95","","0.0","","","","0","","","","100.07","","","","","","NA"
"-72.66","46.23","NICOLET","7025442","2018-11-28 23:00","2018","11","28","23:00","-0.1","","-0.8","","95","","0.0","","","","0","","","","100.14","","","","","","NA"
"-72.66","46.23","NICOLET","7025442","2018-11-29 00:00","2018","11","29","00:00","0.4","","-0.6","","93","","0.0","","35","","5","","","","100.19","","","","","","NA"
"-72.66","46.23","NICOLET","7025442","2018-11-29 01:00","2018","11","29","01:00","0.7","","-0.9","","89","","0.0","","31","","6","","","","100.25","","","","","","NA"
"-72.66","46.23","NICOLET","7025442","2018-11-29 02:00","2018","11","29","02:00","0.9","","-1.1","","86","","0.0","","33","","7","","","","100.34","","","","","","NA"
"-72.66","46.23","NICOLET","7025442","2018-11-29 03:00","2018","11","29","03:00","0.8","","-2.0","","81","","0.0","","34","","11","","","","100.35","","","","","","NA"
"-72.66","46.23","NICOLET","7025442","2018-11-29 04:00","2018","11","29","04:00","0.8","","-2.1","","81","","0.0","","33","","8","","","","100.41","","","","","","NA"
"-72.66","46.23","NICOLET","7025442","2018-11-29 05:00","2018","11","29","05:00","0.3","","-2.5","","82","","0.0","","33","","10","","","","100.48","","","","","","NA"
"-72.66","46.23","NICOLET","7025442","2018-11-29 06:00","2018","11","29","06:00","0.3","","-3.2","","77","","0.0","","34","","12","","","","100.59","","","","","","NA"
"-72.66","46.23","NICOLET","7025442","2018-11-29 07:00","2018","11","29","07:00","0.6","","-3.1","","76","","0.0","","34","","7","","","","100.65","","","","","","NA"
"-72.66","46.23","NICOLET","7025442","2018-11-29 08:00","2018","11","29","08:00","0.6","","-3.1","","76","","0.0","","32","","9","","","","100.72","","","","","","NA"
"-72.66","46.23","NICOLET","7025442","2018-11-29 09:00","2018","11","29","09:00","0.8","","-3.1","","75","","0.0","","31","","7","","","","100.75","","","","","","NA"
"-72.66","46.23","NICOLET","7025442","2018-11-29 10:00","2018","11","29","10:00","1.1","","-3.1","","74","","0.0","","30","","9","","","","100.80","","","","","","NA"
"-72.66","46.23","NICOLET","7025442","2018-11-29 11:00","2018","11","29","11:00","1.3","","-2.9","","74","","0.0","","28","","10","","","","100.81","","","","","","NA"
"-72.66","46.23","NICOLET","7025442","2018-11-29 12:00","2018","11","29","12:00","1.6","","-2.9","","72","","0.0","","31","","10","","","","100.84","","","","","","NA"
"-72.66","46.23","NICOLET","7025442","2018-11-29 13:00","2018","11","29","13:00","1.6","","-2.8","","73","","0.0","","30","","10","","","","100.88","","","","","","NA"
"-72.66","46.23","NICOLET","7025442","2018-11-29 14:00","2018","11","29","14:00","1.8","","-2.9","","71","","0.0","","30","","11","","","","100.91","","","","","","NA"
"-72.66","46.23","NICOLET","7025442","2018-11-29 15:00","2018","11","29","15:00","1.8","","-2.6","","73","","0.0","","30","","7","","","","100.96","","","","","","NA"
"-72.66","46.23","NICOLET","7025442","2018-11-29 16:00","2018","11","29","16:00","1.5","","-2.0","","78","","0.0","","28","","8","","","","101.02","","","","","","NA"
"-72.66","46.23","NICOLET","7025442","2018-11-29 17:00","2018","11","29","17:00","1.4","","-2.0","","78","","0.0","","26","","11","","","","101.07","","","","","","NA"
"-72.66","46.23","NICOLET","7025442","2018-11-29 18:00","2018","11","29","18:00","1.4","","-2.0","","78","","0.0","","26","","11","","","","101.09","","","","","","NA"
"-72.66","46.23","NICOLET","7025442","2018-11-29 19:00","2018","11","29","19:00","1.5","","-2.3","","76","","0.0","","26","","12","","","","101.12","","","","","","NA"
"-72.66","46.23","NICOLET","7025442","2018-11-29 20:00","2018","11","29","20:00","1.6","","-2.4","","74","","0.0","","27","","12","","","","101.13","","","","","","NA"
"-72.66","46.23","NICOLET","7025442","2018-11-29 21:00","2018","11","29","21:00","1.5","","-2.1","","77","","0.0","","27","","8","","","","101.15","","","","","","NA"
"-72.66","46.23","NICOLET","7025442","2018-11-29 22:00","2018","11","29","22:00","1.2","","-1.8","","80","","0.0","","27","","10","","","","101.19","","","","","","NA"
"-72.66","46.23","NICOLET","7025442","2018-11-29 23:00","2018","11","29","23:00","0.9","","-2.2","","80","","1.0","","27","","14","","","","101.23","","","","","","NA"
"-72.66","46.23","NICOLET","7025442","2018-11-30 00:00","2018","11","30","00:00","0.7","","-2.3","","80","","0.0","","26","","10","","","","101.29","","","","","","NA"
"-72.66","46.23","NICOLET","7025442","2018-11-30 01:00","2018","11","30","01:00","0.5","","-2.1","","83","","0.0","","29","","5","","","","101.32","","","","","","NA"
"-72.66","46.23","NICOLET","7025442","2018-11-30 02:00","2018","11","30","02:00","0.5","","-2.1","","83","","0.0","","31","","4","","","","101.36","","","","","","NA"
"-72.66","46.23","NICOLET","7025442","2018-11-30 03:00","2018","11","30","03:00","0.4","","-2.4","","81","","0.0","","30","","6","","","","101.35","","","","","","NA"
"-72.66","46.23","NICOLET","7025442","2018-11-30 04:00","2018","11","30","04:00","0.4","","-2.7","","80","","0.0","","30","","6","","","","101.37","","","","","","NA"
"-72.66","46.23","NICOLET","7025442","2018-11-30 05:00","2018","11","30","05:00","0.4","","-3.1","","77","","0.0","","32","","6","","","","101.37","","","","","","NA"
"-72.66","46.23","NICOLET","7025442","2018-11-30 06:00","2018","11","30","06:00","0.3","","-3.5","","76","","0.0","","31","","6","","","","101.41","","","","","","NA"
"-72.66","46.23","NICOLET","7025442","2018-11-30 07:00","2018","11","30","07:00","0.1","","-3.8","","75","","0.0","","31","","8","","","","101.48","","","","","","NA"
"-72.66","46.23","NICOLET","7025442","2018-11-30 08:00","2018","11","30","08:00","-0.1","","-4.0","","75","","0.0","","35","","5","","","","101.51","","","","-2","","NA"
"-72.66","46.23","NICOLET","7025442","2018-11-30 09:00","2018","11","30","09:00","-0.1","","-3.9","","76","","0.0","","33","","4","","","","101.56","","","","-1","","NA"
"-72.66","46.23","NICOLET","7025442","2018-11-30 10:00","2018","11","30","10:00","-0.1","","-4.0","","75","","0.0","","36","","6","","","","101.58","","","","-2","","NA"
"-72.66","46.23","NICOLET","7025442","2018-11-30 11:00","2018","11","30","11:00","-0.3","","-3.7","","78","","0.0","","35","","4","","","","101.55","","","","-2","","NA"
"-72.66","46.23","NICOLET","7025442","2018-11-30 12:00","2018","11","30","12:00","0.0","","-3.9","","75","","0.0","","33","","4","","","","101.52","","","","-1","","NA"
"-72.66","46.23","NICOLET","7025442","2018-11-30 13:00","2018","11","30","13:00","-0.2","","-3.8","","77","","0.0","","23","","5","","","","101.52","","","","-2","","NA"
"-72.66","46.23","NICOLET","7025442","2018-11-30 14:00","2018","11","30","14:00","-0.1","","-3.6","","77","","0.0","","25","","3","","","","101.53","","","","-1","","NA"
"-72.66","46.23","NICOLET","7025442","2018-11-30 15:00","2018","11","30","15:00","-0.2","","-3.8","","76","","0.0","","22","","5","","","","101.56","","","","-2","","NA"
"-72.66","46.23","NICOLET","7025442","2018-11-30 16:00","2018","11","30","16:00","-0.2","","-3.7","","77","","0.0","","22","","9","","","","101.60","","","","-3","","NA"
"-72.66","46.23","NICOLET","7025442","2018-11-30 17:00","2018","11","30","17:00","-0.2","","-3.9","","76","","0.0","","24","","9","","","","101.64","","","","-3","","NA"
"-72.66","46.23","NICOLET","7025442","2018-11-30 18:00","2018","11","30","18:00","-0.1","","-4.0","","75","","0.0","","28","","8","","","","101.65","","","","-3","","NA"
"-72.66","46.23","NICOLET","7025442","2018-11-30 19:00","2018","11","30","19:00","-0.3","","-4.4","","74","","0.0","","29","","7","","","","101.66","","","","-3","","NA"
"-72.66","46.23","NICOLET","7025442","2018-11-30 20:00","2018","11","30","20:00","-0.4","","-4.5","","74","","0.0","","29","","7","","","","101.69","","","","-3","","NA"
"-72.66","46.23","NICOLET","7025442","2018-11-30 21:00","2018","11","30","21:00","-0.5","","-4.6","","74","","0.0","","30","","5","","","","101.70","","","","-2","","NA"
"-72.66","46.23","NICOLET","7025442","2018-11-30 22:00","2018","11","30","22:00","-0.4","","-4.6","","74","","0.0","","27","","9","","","","101.73","","","","-4","","NA"
"-72.66","46.23","NICOLET","7025442","2018-11-30 23:00","2018","11","30","23:00","-0.3","","-4.6","","73","","0.0","","28","","7","","","","101.78","","","","-3","","NA"
