"Longitude (x)","Latitude (y)","Station Name","Climate ID","Date/Time (LST)","Year","Month","Day","Time (LST)","Temp (°C)","Temp Flag","Dew Point Temp (°C)","Dew Point Temp Flag","Rel Hum (%)","Rel Hum Flag","Precip. Amount (mm)","Precip. Amount Flag","Wind Dir (10s deg)","Wind Dir Flag","Wind Spd (km/h)","Wind Spd Flag","Visibility (km)","Visibility Flag","Stn Press (kPa)","Stn Press Flag","Hmdx","Hmdx Flag","Wind Chill","Wind Chill Flag","Weather"
"-102.43","65.10","ROBERTSON LAKE (AUT)","2303610","2020-04-01 00:00","2020","04","01","00:00","-30.7","","-33.4","","77","","","M","1","","4","","","","101.79","","","","-35","","NA"
"-102.43","65.10","ROBERTSON LAKE (AUT)","2303610","2020-04-01 01:00","2020","04","01","01:00","-32.0","","-34.8","","76","","","M","8","","6","","","","101.84","","","","-39","","NA"
"-102.43","65.10","ROBERTSON LAKE (AUT)","2303610","2020-04-01 02:00","2020","04","01","02:00","-32.5","","-35.4","","75","","","M","7","","7","","","","101.84","","","","-40","","NA"
"-102.43","65.10","ROBERTSON LAKE (AUT)","2303610","2020-04-01 03:00","2020","04","01","03:00","-33.4","","-36.4","","75","","","M","4","","9","","","","101.85","","","","-43","","NA"
"-102.43","65.10","ROBERTSON LAKE (AUT)","2303610","2020-04-01 04:00","2020","04","01","04:00","-34.0","","-37.1","","74","","","M","6","","8","","","","101.94","","","","-43","","NA"
"-102.43","65.10","ROBERTSON LAKE (AUT)","2303610","2020-04-01 05:00","2020","04","01","05:00","-34.6","","-37.8","","73","","","M","4","","8","","","","101.97","","","","-43","","NA"
"-102.43","65.10","ROBERTSON LAKE (AUT)","2303610","2020-04-01 06:00","2020","04","01","06:00","-34.8","","-38.1","","72","","","M","1","","13","","","","101.99","","","","-46","","NA"
"-102.43","65.10","ROBERTSON LAKE (AUT)","2303610","2020-04-01 07:00","2020","04","01","07:00","-35.2","","-38.5","","72","","","M","3","","8","","","","102.08","","","","-44","","NA"
"-102.43","65.10","ROBERTSON LAKE (AUT)","2303610","2020-04-01 08:00","2020","04","01","08:00","-35.4","","-38.7","","71","","","M","2","","9","","","","102.13","","","","-45","","NA"
"-102.43","65.10","ROBERTSON LAKE (AUT)","2303610","2020-04-01 09:00","2020","04","01","09:00","-34.5","","-37.9","","71","","","M","4","","12","","","","102.15","","","","-46","","NA"
"-102.43","65.10","ROBERTSON LAKE (AUT)","2303610","2020-04-01 10:00","2020","04","01","10:00","-32.9","","-36.2","","72","","","M","3","","13","","","","102.14","","","","-44","","NA"
"-102.43","65.10","ROBERTSON LAKE (AUT)","2303610","2020-04-01 11:00","2020","04","01","11:00","-30.9","","-34.1","","73","","","M","6","","20","","","","102.15","","","","-44","","NA"
"-102.43","65.10","ROBERTSON LAKE (AUT)","2303610","2020-04-01 12:00","2020","04","01","12:00","-29.4","","-32.4","","75","","","M","5","","25","","","","102.10","","","","-44","","NA"
"-102.43","65.10","ROBERTSON LAKE (AUT)","2303610","2020-04-01 13:00","2020","04","01","13:00","-28.6","","-31.4","","77","","","M","5","","23","","","","102.13","","","","-42","","NA"
"-102.43","65.10","ROBERTSON LAKE (AUT)","2303610","2020-04-01 14:00","2020","04","01","14:00","-27.9","","-30.6","","78","","","M","5","","27","","","","102.11","","","","-42","","NA"
"-102.43","65.10","ROBERTSON LAKE (AUT)","2303610","2020-04-01 15:00","2020","04","01","15:00","-27.7","","-30.3","","79","","","M","6","","29","","","","102.11","","","","-42","","NA"
"-102.43","65.10","ROBERTSON LAKE (AUT)","2303610","2020-04-01 16:00","2020","04","01","16:00","-27.7","","-30.3","","79","","","M","5","","30","","","","102.11","","","","-43","","NA"
"-102.43","65.10","ROBERTSON LAKE (AUT)","2303610","2020-04-01 17:00","2020","04","01","17:00","-27.7","","-30.2","","79","","","M","5","","32","","","","102.14","","","","-43","","NA"
"-102.43","65.10","ROBERTSON LAKE (AUT)","2303610","2020-04-01 18:00","2020","04","01","18:00","-27.9","","-30.5","","79","","","M","4","","25","","","","102.18","","","","-42","","NA"
"-102.43","65.10","ROBERTSON LAKE (AUT)","2303610","2020-04-01 19:00","2020","04","01","19:00","-28.3","","-30.9","","78","","","M","4","","28","","","","102.14","","","","-43","","NA"
"-102.43","65.10","ROBERTSON LAKE (AUT)","2303610","2020-04-01 20:00","2020","04","01","20:00","-28.5","","-31.1","","78","","","M","4","","25","","","","102.17","","","","-43","","NA"
"-102.43","65.10","ROBERTSON LAKE (AUT)","2303610","2020-04-01 21:00","2020","04","01","21:00","-28.5","","-31.1","","78","","","M","5","","31","","","","102.11","","","","-44","","NA"
"-102.43","65.10","ROBERTSON LAKE (AUT)","2303610","2020-04-01 22:00","2020","04","01","22:00","-28.4","","-31.1","","78","","","M","5","","38","","","","102.03","","","","-45","","NA"
"-102.43","65.10","ROBERTSON LAKE (AUT)","2303610","2020-04-01 23:00","2020","04","01","23:00","-28.3","","-31.0","","78","","","M","5","","31","","","","102.03","","","","-44","","NA"
"-102.43","65.10","ROBERTSON LAKE (AUT)","2303610","2020-04-02 00:00","2020","04","02","00:00","-27.8","","-30.5","","78","","","M","7","","21","","","","102.06","","","","-41","","NA"
"-102.43","65.10","ROBERTSON LAKE (AUT)","2303610","2020-04-02 01:00","2020","04","02","01:00","-27.1","","-29.7","","79","","","M","6","","35","","","","101.98","","","","-43","","NA"
"-102.43","65.10","ROBERTSON LAKE (AUT)","2303610","2020-04-02 02:00","2020","04","02","02:00","-26.4","","-28.9","","79","","","M","6","","29","","","","101.94","","","","-41","","NA"
"-102.43","65.10","ROBERTSON LAKE (AUT)","2303610","2020-04-02 03:00","2020","04","02","03:00","-25.5","","-27.9","","80","","","M","7","","37","","","","101.89","","","","-41","","NA"
"-102.43","65.10","ROBERTSON LAKE (AUT)","2303610","2020-04-02 04:00","2020","04","02","04:00","-24.4","","-26.7","","81","","","M","7","","36","","","","101.87","","","","-39","","NA"
"-102.43","65.10","ROBERTSON LAKE (AUT)","2303610","2020-04-02 05:00","2020","04","02","05:00","-23.7","","-25.9","","82","","","M","7","","38","","","","101.80","","","","-39","","NA"
"-102.43","65.10","ROBERTSON LAKE (AUT)","2303610","2020-04-02 06:00","2020","04","02","06:00","-22.8","","-25.0","","83","","","M","7","","41","","","","101.77","","","","-38","","NA"
"-102.43","65.10","ROBERTSON LAKE (AUT)","2303610","2020-04-02 07:00","2020","04","02","07:00","-21.9","","-23.9","","83","","","M","8","","45","","","","101.74","","","","-37","","NA"
"-102.43","65.10","ROBERTSON LAKE (AUT)","2303610","2020-04-02 08:00","2020","04","02","08:00","-21.2","","-23.1","","84","","","M","7","","33","","","","101.77","","","","-35","","NA"
"-102.43","65.10","ROBERTSON LAKE (AUT)","2303610","2020-04-02 09:00","2020","04","02","09:00","-20.3","","-22.2","","85","","","M","7","","38","","","","101.74","","","","-34","","NA"
"-102.43","65.10","ROBERTSON LAKE (AUT)","2303610","2020-04-02 10:00","2020","04","02","10:00","-19.5","","-21.3","","86","","","M","9","","42","","","","101.68","","","","-34","","NA"
"-102.43","65.10","ROBERTSON LAKE (AUT)","2303610","2020-04-02 11:00","2020","04","02","11:00","-18.8","","-20.5","","87","","","M","8","","43","","","","101.64","","","","-33","","NA"
"-102.43","65.10","ROBERTSON LAKE (AUT)","2303610","2020-04-02 12:00","2020","04","02","12:00","-17.9","","-19.5","","87","","","M","9","","50","","","","101.52","","","","-33","","NA"
"-102.43","65.10","ROBERTSON LAKE (AUT)","2303610","2020-04-02 13:00","2020","04","02","13:00","-17.1","","-18.6","","88","","","M","10","","50","","","","101.53","","","","-31","","NA"
"-102.43","65.10","ROBERTSON LAKE (AUT)","2303610","2020-04-02 14:00","2020","04","02","14:00","-16.3","","-17.8","","89","","","M","10","","52","","","","101.52","","","","-31","","NA"
"-102.43","65.10","ROBERTSON LAKE (AUT)","2303610","2020-04-02 15:00","2020","04","02","15:00","-16.1","","-17.5","","89","","","M","10","","46","","","","101.47","","","","-30","","NA"
"-102.43","65.10","ROBERTSON LAKE (AUT)","2303610","2020-04-02 16:00","2020","04","02","16:00","-15.9","","-17.2","","90","","","M","10","","38","","","","101.45","","","","-28","","NA"
"-102.43","65.10","ROBERTSON LAKE (AUT)","2303610","2020-04-02 17:00","2020","04","02","17:00","-16.1","","-17.4","","90","","","M","10","","48","","","","101.39","","","","-30","","NA"
"-102.43","65.10","ROBERTSON LAKE (AUT)","2303610","2020-04-02 18:00","2020","04","02","18:00","-16.4","","-17.7","","89","","","M","9","","53","","","","101.27","","","","-31","","NA"
"-102.43","65.10","ROBERTSON LAKE (AUT)","2303610","2020-04-02 19:00","2020","04","02","19:00","-16.4","","-17.8","","89","","","M","9","","39","","","","101.27","","","","-29","","NA"
"-102.43","65.10","ROBERTSON LAKE (AUT)","2303610","2020-04-02 20:00","2020","04","02","20:00","-16.6","","-17.9","","89","","","M","10","","60","","","","101.14","","","","-32","","NA"
"-102.43","65.10","ROBERTSON LAKE (AUT)","2303610","2020-04-02 21:00","2020","04","02","21:00","-16.7","","-18.0","","89","","","M","11","","37","","","","101.22","","","","-29","","NA"
"-102.43","65.10","ROBERTSON LAKE (AUT)","2303610","2020-04-02 22:00","2020","04","02","22:00","-16.5","","-17.8","","89","","","M","10","","39","","","","101.21","","","","-29","","NA"
"-102.43","65.10","ROBERTSON LAKE (AUT)","2303610","2020-04-02 23:00","2020","04","02","23:00","-16.1","","-17.5","","89","","","M","10","","51","","","","101.10","","","","-30","","NA"
"-102.43","65.10","ROBERTSON LAKE (AUT)","2303610","2020-04-03 00:00","2020","04","03","00:00","-16.1","","-17.4","","90","","","M","11","","38","","","","101.11","","","","-29","","NA"
"-102.43","65.10","ROBERTSON LAKE (AUT)","2303610","2020-04-03 01:00","2020","04","03","01:00","-16.0","","-17.4","","90","","","M","11","","42","","","","101.03","","","","-29","","NA"
"-102.43","65.10","ROBERTSON LAKE (AUT)","2303610","2020-04-03 02:00","2020","04","03","02:00","-15.8","","-17.1","","90","","","M","11","","40","","","","101.02","","","","-29","","NA"
"-102.43","65.10","ROBERTSON LAKE (AUT)","2303610","2020-04-03 03:00","2020","04","03","03:00","-15.6","","-16.8","","90","","","M","12","","50","","","","100.96","","","","-29","","NA"
"-102.43","65.10","ROBERTSON LAKE (AUT)","2303610","2020-04-03 04:00","2020","04","03","04:00","-15.7","","-17.0","","90","","","M","11","","52","","","","100.88","","","","-30","","NA"
"-102.43","65.10","ROBERTSON LAKE (AUT)","2303610","2020-04-03 05:00","2020","04","03","05:00","-15.9","","-17.1","","90","","","M","11","","50","","","","100.87","","","","-30","","NA"
"-102.43","65.10","ROBERTSON LAKE (AUT)","2303610","2020-04-03 06:00","2020","04","03","06:00"
"-102.43","65.10","ROBERTSON LAKE (AUT)","2303610","2020-04-03 07:00","2020","04","03","07:00","-16.5","","-17.8","","89","","","M","13","","55","","","","100.76","","","","-31","","NA"
"-102.43","65.10","ROBERTSON LAKE (AUT)","2303610","2020-04-03 08:00","2020","04","03","08:00","-16.4","","-17.7","","89","","","M","12","","51","","","","100.73","","","","-31","","NA"
"-102.43","65.10","ROBERTSON LAKE (AUT)","2303610","2020-04-03 09:00","2020","04","03","09:00","-16.1","","-17.4","","90","","","M","13","","43","","","","100.79","","","","-29","","NA"
"-102.43","65.10","ROBERTSON LAKE (AUT)","2303610","2020-04-03 10:00","2020","04","03","10:00","-15.8","","-17.1","","90","","","M","12","","46","","","","100.73","","","","-29","","NA"
"-102.43","65.10","ROBERTSON LAKE (AUT)","2303610","2020-04-03 11:00","2020","04","03","11:00","-15.4","","-16.6","","90","","","M","13","","48","","","","100.74","","","","-29","","NA"
"-102.43","65.10","ROBERTSON LAKE (AUT)","2303610","2020-04-03 12:00","2020","04","03","12:00","-15.0","","-16.2","","90","","","M","12","","47","","","","100.71","","","","-28","","NA"
"-102.43","65.10","ROBERTSON LAKE (AUT)","2303610","2020-04-03 13:00","2020","04","03","13:00","-14.5","","-15.7","","91","","","M","13","","47","","","","100.67","","","","-28","","NA"
"-102.43","65.10","ROBERTSON LAKE (AUT)","2303610","2020-04-03 14:00","2020","04","03","14:00","-13.8","","-15.0","","91","","","M","12","","56","","","","100.54","","","","-28","","NA"
"-102.43","65.10","ROBERTSON LAKE (AUT)","2303610","2020-04-03 15:00","2020","04","03","15:00","-13.7","","-14.8","","92","","","M","13","","54","","","","100.53","","","","-27","","NA"
"-102.43","65.10","ROBERTSON LAKE (AUT)","2303610","2020-04-03 16:00","2020","04","03","16:00","-13.7","","-14.7","","92","","","M","13","","50","","","","100.58","","","","-27","","NA"
"-102.43","65.10","ROBERTSON LAKE (AUT)","2303610","2020-04-03 17:00","2020","04","03","17:00","-13.8","","-14.9","","92","","","M","12","","48","","","","100.55","","","","-27","","NA"
"-102.43","65.10","ROBERTSON LAKE (AUT)","2303610","2020-04-03 18:00","2020","04","03","18:00","-14.2","","-15.2","","91","","","M","12","","50","","","","100.52","","","","-27","","NA"
"-102.43","65.10","ROBERTSON LAKE (AUT)","2303610","2020-04-03 19:00","2020","04","03","19:00","-14.5","","-15.6","","91","","","M","11","","48","","","","100.53","","","","-28","","NA"
"-102.43","65.10","ROBERTSON LAKE (AUT)","2303610","2020-04-03 20:00","2020","04","03","20:00","-14.7","","-15.9","","91","","","M","12","","51","","","","100.47","","","","-28","","NA"
"-102.43","65.10","ROBERTSON LAKE (AUT)","2303610","2020-04-03 21:00","2020","04","03","21:00","-15.2","","-16.4","","91","","","M","12","","61","","","","100.38","","","","-30","","NA"
"-102.43","65.10","ROBERTSON LAKE (AUT)","2303610","2020-04-03 22:00","2020","04","03","22:00","-15.7","","-16.9","","90","","","M","12","","56","","","","100.37","","","","-30","","NA"
"-102.43","65.10","ROBERTSON LAKE (AUT)","2303610","2020-04-03 23:00","2020","04","03","23:00","-16.1","","-17.4","","90","","","M","13","","53","","","","100.36","","","","-30","","NA"
"-102.43","65.10","ROBERTSON LAKE (AUT)","2303610","2020-04-04 00:00","2020","04","04","00:00","-16.6","","-17.9","","90","","","M","13","","55","","","","100.31","","","","-31","","NA"
"-102.43","65.10","ROBERTSON LAKE (AUT)","2303610","2020-04-04 01:00","2020","04","04","01:00","-16.9","","-18.2","","89","","","M","13","","53","","","","100.29","","","","-31","","NA"
"-102.43","65.10","ROBERTSON LAKE (AUT)","2303610","2020-04-04 02:00","2020","04","04","02:00","-17.1","","-18.5","","89","","","M","13","","54","","","","100.26","","","","-32","","NA"
"-102.43","65.10","ROBERTSON LAKE (AUT)","2303610","2020-04-04 03:00","2020","04","04","03:00","-17.2","","-18.6","","89","","","M","13","","48","","","","100.27","","","","-31","","NA"
"-102.43","65.10","ROBERTSON LAKE (AUT)","2303610","2020-04-04 04:00","2020","04","04","04:00","-17.4","","-18.8","","89","","","M","13","","52","","","","100.23","","","","-32","","NA"
"-102.43","65.10","ROBERTSON LAKE (AUT)","2303610","2020-04-04 05:00","2020","04","04","05:00","-17.6","","-19.0","","89","","","M","12","","45","","","","100.23","","","","-32","","NA"
"-102.43","65.10","ROBERTSON LAKE (AUT)","2303610","2020-04-04 06:00","2020","04","04","06:00","-17.9","","-19.4","","88","","","M","12","","43","","","","100.22","","","","-32","","NA"
"-102.43","65.10","ROBERTSON LAKE (AUT)","2303610","2020-04-04 07:00","2020","04","04","07:00","-18.3","","-19.8","","88","","","M","12","","36","","","","100.22","","","","-31","","NA"
"-102.43","65.10","ROBERTSON LAKE (AUT)","2303610","2020-04-04 08:00","2020","04","04","08:00","-18.6","","-20.1","","88","","","M","13","","35","","","","100.20","","","","-32","","NA"
"-102.43","65.10","ROBERTSON LAKE (AUT)","2303610","2020-04-04 09:00","2020","04","04","09:00","-18.1","","-19.6","","88","","","M","12","","39","","","","100.18","","","","-31","","NA"
"-102.43","65.10","ROBERTSON LAKE (AUT)","2303610","2020-04-04 10:00","2020","04","04","10:00","-17.1","","-18.6","","88","","","M","11","","43","","","","100.16","","","","-31","","NA"
"-102.43","65.10","ROBERTSON LAKE (AUT)","2303610","2020-04-04 11:00","2020","04","04","11:00","-16.5","","-17.8","","89","","","M","12","","45","","","","100.11","","","","-30","","NA"
"-102.43","65.10","ROBERTSON LAKE (AUT)","2303610","2020-04-04 12:00","2020","04","04","12:00","-16.1","","-17.4","","90","","","M","12","","42","","","","100.10","","","","-29","","NA"
"-102.43","65.10","ROBERTSON LAKE (AUT)","2303610","2020-04-04 13:00","2020","04","04","13:00","-15.8","","-17.0","","90","","","M","12","","46","","","","100.05","","","","-29","","NA"
"-102.43","65.10","ROBERTSON LAKE (AUT)","2303610","2020-04-04 14:00","2020","04","04","14:00","-15.3","","-16.6","","90","","","M","11","","31","","","","100.11","","","","-27","","NA"
"-102.43","65.10","ROBERTSON LAKE (AUT)","2303610","2020-04-04 15:00","2020","04","04","15:00","-15.2","","-16.4","","90","","","M","12","","39","","","","100.07","","","","-28","","NA"
"-102.43","65.10","ROBERTSON LAKE (AUT)","2303610","2020-04-04 16:00","2020","04","04","16:00","-15.3","","-16.5","","91","","","M","13","","39","","","","100.06","","","","-28","","NA"
"-102.43","65.10","ROBERTSON LAKE (AUT)","2303610","2020-04-04 17:00","2020","04","04","17:00","-15.5","","-16.7","","90","","","M","13","","32","","","","100.05","","","","-27","","NA"
"-102.43","65.10","ROBERTSON LAKE (AUT)","2303610","2020-04-04 18:00","2020","04","04","18:00","-16.0","","-17.3","","90","","","M","12","","41","","","","100.01","","","","-29","","NA"
"-102.43","65.10","ROBERTSON LAKE (AUT)","2303610","2020-04-04 19:00","2020","04","04","19:00","-16.8","","-18.1","","90","","","M","11","","33","","","","100.06","","","","-29","","NA"
"-102.43","65.10","ROBERTSON LAKE (AUT)","2303610","2020-04-04 20:00","2020","04","04","20:00","-17.7","","-19.1","","89","","","M","12","","23","","","","100.08","","","","-28","","NA"
"-102.43","65.10","ROBERTSON LAKE (AUT)","2303610","2020-04-04 21:00","2020","04","04","21:00","-18.6","","-20.0","","89","","","M","14","","26","","","","100.08","","","","-30","","NA"
"-102.43","65.10","ROBERTSON LAKE (AUT)","2303610","2020-04-04 22:00","2020","04","04","22:00","-19.0","","-20.5","","88","","","M","14","","22","","","","100.08","","","","-30","","NA"
"-102.43","65.10","ROBERTSON LAKE (AUT)","2303610","2020-04-04 23:00","2020","04","04","23:00","-19.7","","-21.3","","87","","","M","13","","18","","","","100.08","","","","-30","","NA"
"-102.43","65.10","ROBERTSON LAKE (AUT)","2303610","2020-04-05 00:00","2020","04","05","00:00","-20.5","","-22.2","","87","","","M","10","","15","","","","100.08","","","","-30","","NA"
"-102.43","65.10","ROBERTSON LAKE (AUT)","2303610","2020-04-05 01:00","2020","04","05","01:00","-21.2","","-22.9","","86","","","M","11","","12","","","","100.07","","","","-29","","NA"
"-102.43","65.10","ROBERTSON LAKE (AUT)","2303610","2020-04-05 02:00","2020","04","05","02:00","-21.8","","-23.6","","85","","","M","13","","9","","","","100.02","","","","-29","","NA"
"-102.43","65.10","ROBERTSON LAKE (AUT)","2303610","2020-04-05 03:00","2020","04","05","03:00","-22.3","","-24.2","","85","","","M","9","","8","","","","100.02","","","","-29","","NA"
"-102.43","65.10","ROBERTSON LAKE (AUT)","2303610","2020-04-05 04:00","2020","04","05","04:00","-22.8","","-24.7","","84","","","M","10","","20","","","","100.03","","","","-34","","NA"
"-102.43","65.10","ROBERTSON LAKE (AUT)","2303610","2020-04-05 05:00","2020","04","05","05:00","-22.4","","-24.4","","84","","","M","9","","14","","","","100.02","","","","-32","","NA"
"-102.43","65.10","ROBERTSON LAKE (AUT)","2303610","2020-04-05 06:00","2020","04","05","06:00","-21.4","","-23.4","","84","","","M","12","","17","","","","100.04","","","","-31","","NA"
"-102.43","65.10","ROBERTSON LAKE (AUT)","2303610","2020-04-05 07:00","2020","04","05","07:00","-20.4","","-22.3","","85","","","M","12","","22","","","","100.01","","","","-31","","NA"
"-102.43","65.10","ROBERTSON LAKE (AUT)","2303610","2020-04-05 08:00","2020","04","05","08:00","-19.3","","-21.1","","86","","","M","11","","25","","","","100.00","","","","-31","","NA"
"-102.43","65.10","ROBERTSON LAKE (AUT)","2303610","2020-04-05 09:00","2020","04","05","09:00","-18.3","","-20.0","","87","","","M","13","","17","","","","100.02","","","","-28","","NA"
"-102.43","65.10","ROBERTSON LAKE (AUT)","2303610","2020-04-05 10:00","2020","04","05","10:00","-17.8","","-19.3","","88","","","M","12","","18","","","","100.01","","","","-27","","NA"
"-102.43","65.10","ROBERTSON LAKE (AUT)","2303610","2020-04-05 11:00","2020","04","05","11:00","-17.3","","-18.8","","88","","","M","12","","20","","","","100.00","","","","-27","","NA"
"-102.43","65.10","ROBERTSON LAKE (AUT)","2303610","2020-04-05 12:00","2020","04","05","12:00","-16.7","","-18.2","","89","","","M","12","","14","","","","100.03","","","","-25","","NA"
"-102.43","65.10","ROBERTSON LAKE (AUT)","2303610","2020-04-05 13:00","2020","04","05","13:00","-16.2","","-17.6","","89","","","M","10","","21","","","","100.00","","","","-26","","NA"
"-102.43","65.10","ROBERTSON LAKE (AUT)","2303610","2020-04-05 14:00","2020","04","05","14:00","-15.7","","-17.0","","90","","","M","12","","26","","","","99.96","","","","-26","","NA"
"-102.43","65.10","ROBERTSON LAKE (AUT)","2303610","2020-04-05 15:00","2020","04","05","15:00","-15.3","","-16.6","","90","","","M","10","","12","","","","99.94","","","","-22","","NA"
"-102.43","65.10","ROBERTSON LAKE (AUT)","2303610","2020-04-05 16:00","2020","04","05","16:00","-15.0","","-16.2","","90","","","M","11","","18","","","","99.92","","","","-24","","NA"
"-102.43","65.10","ROBERTSON LAKE (AUT)","2303610","2020-04-05 17:00","2020","04","05","17:00","-15.1","","-16.3","","91","","","M","13","","13","","","","99.90","","","","-22","","NA"
"-102.43","65.10","ROBERTSON LAKE (AUT)","2303610","2020-04-05 18:00","2020","04","05","18:00","-15.7","","-16.9","","91","","","M","12","","16","","","","99.90","","","","-24","","NA"
"-102.43","65.10","ROBERTSON LAKE (AUT)","2303610","2020-04-05 19:00","2020","04","05","19:00","-16.7","","-17.9","","90","","","M","11","","12","","","","99.88","","","","-24","","NA"
"-102.43","65.10","ROBERTSON LAKE (AUT)","2303610","2020-04-05 20:00","2020","04","05","20:00","-18.0","","-19.3","","89","","","M","10","","10","","","","99.85","","","","-25","","NA"
"-102.43","65.10","ROBERTSON LAKE (AUT)","2303610","2020-04-05 21:00","2020","04","05","21:00","-18.9","","-20.3","","88","","","M","15","","8","","","","99.85","","","","-25","","NA"
"-102.43","65.10","ROBERTSON LAKE (AUT)","2303610","2020-04-05 22:00","2020","04","05","22:00","-20.0","","-21.5","","88","","","M","12","","19","","","","99.77","","","","-30","","NA"
"-102.43","65.10","ROBERTSON LAKE (AUT)","2303610","2020-04-05 23:00","2020","04","05","23:00","-20.5","","-22.1","","87","","","M","11","","11","","","","99.77","","","","-28","","NA"
"-102.43","65.10","ROBERTSON LAKE (AUT)","2303610","2020-04-06 00:00","2020","04","06","00:00","-21.0","","-22.7","","86","","","M","12","","22","","","","99.73","","","","-32","","NA"
"-102.43","65.10","ROBERTSON LAKE (AUT)","2303610","2020-04-06 01:00","2020","04","06","01:00","-21.3","","-23.1","","86","","","M","12","","9","","","","99.72","","","","-28","","NA"
"-102.43","65.10","ROBERTSON LAKE (AUT)","2303610","2020-04-06 02:00","2020","04","06","02:00","-22.0","","-23.8","","85","","","M","13","","13","","","","99.72","","","","-31","","NA"
"-102.43","65.10","ROBERTSON LAKE (AUT)","2303610","2020-04-06 03:00","2020","04","06","03:00","-22.7","","-24.6","","85","","","M","15","","15","","","","99.70","","","","-32","","NA"
"-102.43","65.10","ROBERTSON LAKE (AUT)","2303610","2020-04-06 04:00","2020","04","06","04:00","-22.6","","-24.5","","84","","","M","16","","19","","","","99.69","","","","-33","","NA"
"-102.43","65.10","ROBERTSON LAKE (AUT)","2303610","2020-04-06 05:00","2020","04","06","05:00","-22.7","","-24.7","","84","","","M","15","","18","","","","99.67","","","","-33","","NA"
"-102.43","65.10","ROBERTSON LAKE (AUT)","2303610","2020-04-06 06:00","2020","04","06","06:00","-23.0","","-24.9","","84","","","M","6","","2","","","","99.65","","","","-25","","NA"
"-102.43","65.10","ROBERTSON LAKE (AUT)","2303610","2020-04-06 07:00","2020","04","06","07:00","-23.4","","-25.4","","84","","","M","17","","12","","","","99.62","","","","-32","","NA"
"-102.43","65.10","ROBERTSON LAKE (AUT)","2303610","2020-04-06 08:00","2020","04","06","08:00","-24.1","","-26.1","","83","","","M","15","","14","","","","99.59","","","","-34","","NA"
"-102.43","65.10","ROBERTSON LAKE (AUT)","2303610","2020-04-06 09:00","2020","04","06","09:00","-23.6","","-25.7","","83","","","M","14","","19","","","","99.55","","","","-35","","NA"
"-102.43","65.10","ROBERTSON LAKE (AUT)","2303610","2020-04-06 10:00","2020","04","06","10:00","-22.6","","-24.7","","83","","","M","13","","15","","","","99.52","","","","-32","","NA"
"-102.43","65.10","ROBERTSON LAKE (AUT)","2303610","2020-04-06 11:00","2020","04","06","11:00","-21.3","","-23.3","","84","","","M","14","","24","","","","99.45","","","","-33","","NA"
"-102.43","65.10","ROBERTSON LAKE (AUT)","2303610","2020-04-06 12:00","2020","04","06","12:00","-19.5","","-21.4","","85","","","M","17","","15","","","","99.43","","","","-28","","NA"
"-102.43","65.10","ROBERTSON LAKE (AUT)","2303610","2020-04-06 13:00","2020","04","06","13:00","-18.6","","-20.3","","87","","","M","15","","25","","","","99.40","","","","-30","","NA"
"-102.43","65.10","ROBERTSON LAKE (AUT)","2303610","2020-04-06 14:00","2020","04","06","14:00","-18.1","","-19.6","","88","","","M","15","","27","","","","99.36","","","","-30","","NA"
"-102.43","65.10","ROBERTSON LAKE (AUT)","2303610","2020-04-06 15:00","2020","04","06","15:00","-17.6","","-19.2","","88","","","M","15","","20","","","","99.29","","","","-27","","NA"
"-102.43","65.10","ROBERTSON LAKE (AUT)","2303610","2020-04-06 16:00","2020","04","06","16:00","-17.3","","-18.8","","88","","","M","14","","20","","","","99.23","","","","-27","","NA"
"-102.43","65.10","ROBERTSON LAKE (AUT)","2303610","2020-04-06 17:00","2020","04","06","17:00","-17.3","","-18.7","","89","","","M","15","","15","","","","99.21","","","","-26","","NA"
"-102.43","65.10","ROBERTSON LAKE (AUT)","2303610","2020-04-06 18:00","2020","04","06","18:00","-17.4","","-18.9","","89","","","M","13","","15","","","","99.17","","","","-26","","NA"
"-102.43","65.10","ROBERTSON LAKE (AUT)","2303610","2020-04-06 19:00","2020","04","06","19:00","-18.2","","-19.6","","89","","","M","14","","21","","","","99.10","","","","-28","","NA"
"-102.43","65.10","ROBERTSON LAKE (AUT)","2303610","2020-04-06 20:00","2020","04","06","20:00","-19.4","","-20.9","","88","","","M","10","","11","","","","99.05","","","","-27","","NA"
"-102.43","65.10","ROBERTSON LAKE (AUT)","2303610","2020-04-06 21:00","2020","04","06","21:00","-20.1","","-21.7","","87","","","M","14","","16","","","","99.01","","","","-30","","NA"
"-102.43","65.10","ROBERTSON LAKE (AUT)","2303610","2020-04-06 22:00","2020","04","06","22:00","-20.8","","-22.4","","86","","","M","15","","18","","","","98.98","","","","-31","","NA"
"-102.43","65.10","ROBERTSON LAKE (AUT)","2303610","2020-04-06 23:00","2020","04","06","23:00","-21.5","","-23.2","","86","","","M","14","","13","","","","98.96","","","","-30","","NA"
"-102.43","65.10","ROBERTSON LAKE (AUT)","2303610","2020-04-07 00:00","2020","04","07","00:00","-22.1","","-23.9","","85","","","M","15","","23","","","","98.89","","","","-34","","NA"
"-102.43","65.10","ROBERTSON LAKE (AUT)","2303610","2020-04-07 01:00","2020","04","07","01:00","-22.5","","-24.4","","85","","","M","14","","16","","","","98.88","","","","-32","","NA"
"-102.43","65.10","ROBERTSON LAKE (AUT)","2303610","2020-04-07 02:00","2020","04","07","02:00","-22.6","","-24.5","","84","","","M","15","","14","","","","98.86","","","","-32","","NA"
"-102.43","65.10","ROBERTSON LAKE (AUT)","2303610","2020-04-07 03:00","2020","04","07","03:00","-22.9","","-24.9","","84","","","M","12","","13","","","","98.86","","","","-32","","NA"
"-102.43","65.10","ROBERTSON LAKE (AUT)","2303610","2020-04-07 04:00","2020","04","07","04:00","-23.3","","-25.3","","84","","","M","11","","17","","","","98.80","","","","-34","","NA"
"-102.43","65.10","ROBERTSON LAKE (AUT)","2303610","2020-04-07 05:00","2020","04","07","05:00","-23.7","","-25.8","","83","","","M","10","","14","","","","98.79","","","","-33","","NA"
"-102.43","65.10","ROBERTSON LAKE (AUT)","2303610","2020-04-07 06:00","2020","04","07","06:00","-23.8","","-25.9","","83","","","M","11","","18","","","","98.77","","","","-35","","NA"
"-102.43","65.10","ROBERTSON LAKE (AUT)","2303610","2020-04-07 07:00","2020","04","07","07:00","-23.7","","-25.8","","83","","","M","10","","18","","","","98.75","","","","-35","","NA"
"-102.43","65.10","ROBERTSON LAKE (AUT)","2303610","2020-04-07 08:00","2020","04","07","08:00","-23.0","","-25.1","","83","","","M","12","","14","","","","98.77","","","","-32","","NA"
"-102.43","65.10","ROBERTSON LAKE (AUT)","2303610","2020-04-07 09:00","2020","04","07","09:00","-22.4","","-24.4","","83","","","M","10","","15","","","","98.76","","","","-32","","NA"
"-102.43","65.10","ROBERTSON LAKE (AUT)","2303610","2020-04-07 10:00","2020","04","07","10:00","-21.5","","-23.5","","84","","","M","10","","15","","","","98.75","","","","-31","","NA"
"-102.43","65.10","ROBERTSON LAKE (AUT)","2303610","2020-04-07 11:00","2020","04","07","11:00","-20.3","","-22.2","","85","","","M","12","","17","","","","98.74","","","","-30","","NA"
"-102.43","65.10","ROBERTSON LAKE (AUT)","2303610","2020-04-07 12:00","2020","04","07","12:00","-18.9","","-20.7","","86","","","M","13","","16","","","","98.76","","","","-28","","NA"
"-102.43","65.10","ROBERTSON LAKE (AUT)","2303610","2020-04-07 13:00","2020","04","07","13:00","-17.8","","-19.5","","87","","","M","12","","12","","","","98.74","","","","-25","","NA"
"-102.43","65.10","ROBERTSON LAKE (AUT)","2303610","2020-04-07 14:00","2020","04","07","14:00","-16.9","","-18.4","","88","","","M","12","","13","","","","98.71","","","","-25","","NA"
"-102.43","65.10","ROBERTSON LAKE (AUT)","2303610","2020-04-07 15:00","2020","04","07","15:00","-16.3","","-17.7","","89","","","M","12","","11","","","","98.73","","","","-23","","NA"
"-102.43","65.10","ROBERTSON LAKE (AUT)","2303610","2020-04-07 16:00","2020","04","07","16:00","-16.0","","-17.3","","89","","","M","11","","13","","","","98.72","","","","-24","","NA"
"-102.43","65.10","ROBERTSON LAKE (AUT)","2303610","2020-04-07 17:00","2020","04","07","17:00","-15.9","","-17.2","","90","","","M","11","","17","","","","98.74","","","","-25","","NA"
"-102.43","65.10","ROBERTSON LAKE (AUT)","2303610","2020-04-07 18:00","2020","04","07","18:00","-16.3","","-17.5","","90","","","M","4","","8","","","","98.82","","","","-22","","NA"
"-102.43","65.10","ROBERTSON LAKE (AUT)","2303610","2020-04-07 19:00","2020","04","07","19:00","-16.8","","-18.1","","90","","","M","10","","7","","","","98.83","","","","-22","","NA"
"-102.43","65.10","ROBERTSON LAKE (AUT)","2303610","2020-04-07 20:00","2020","04","07","20:00","-18.2","","-19.6","","89","","","M","9","","12","","","","98.82","","","","-26","","NA"
"-102.43","65.10","ROBERTSON LAKE (AUT)","2303610","2020-04-07 21:00","2020","04","07","21:00","-19.6","","-21.0","","88","","","M","10","","19","","","","98.85","","","","-30","","NA"
"-102.43","65.10","ROBERTSON LAKE (AUT)","2303610","2020-04-07 22:00","2020","04","07","22:00","-20.3","","-21.9","","87","","","M","12","","9","","","","98.86","","","","-27","","NA"
"-102.43","65.10","ROBERTSON LAKE (AUT)","2303610","2020-04-07 23:00","2020","04","07","23:00","-21.1","","-22.8","","86","","","M","33","","6","","","","98.88","","","","-26","","NA"
"-102.43","65.10","ROBERTSON LAKE (AUT)","2303610","2020-04-08 00:00","2020","04","08","00:00","-21.8","","-23.5","","86","","","M","7","","10","","","","98.88","","","","-29","","NA"
"-102.43","65.10","ROBERTSON LAKE (AUT)","2303610","2020-04-08 01:00","2020","04","08","01:00","-22.6","","-24.4","","85","","","M","11","","14","","","","98.88","","","","-32","","NA"
"-102.43","65.10","ROBERTSON LAKE (AUT)","2303610","2020-04-08 02:00","2020","04","08","02:00","-23.7","","-25.6","","84","","","M","10","","8","","","","98.92","","","","-31","","NA"
"-102.43","65.10","ROBERTSON LAKE (AUT)","2303610","2020-04-08 03:00","2020","04","08","03:00","-24.3","","-26.3","","83","","","M","3","","6","","","","98.96","","","","-30","","NA"
"-102.43","65.10","ROBERTSON LAKE (AUT)","2303610","2020-04-08 04:00","2020","04","08","04:00","-24.2","","-26.3","","83","","","M","3","","4","","","","98.96","","","","-28","","NA"
"-102.43","65.10","ROBERTSON LAKE (AUT)","2303610","2020-04-08 05:00","2020","04","08","05:00","-23.5","","-25.7","","82","","","M","36","","3","","","","99.02","","","","-26","","NA"
"-102.43","65.10","ROBERTSON LAKE (AUT)","2303610","2020-04-08 06:00","2020","04","08","06:00","-24.2","","-26.3","","83","","","M","6","","2","","","","99.12","","","","-26","","NA"
"-102.43","65.10","ROBERTSON LAKE (AUT)","2303610","2020-04-08 07:00","2020","04","08","07:00","-24.2","","-26.3","","83","","","M","7","","7","","","","99.16","","","","-31","","NA"
"-102.43","65.10","ROBERTSON LAKE (AUT)","2303610","2020-04-08 08:00","2020","04","08","08:00","-24.2","","-26.3","","83","","","M","30","","9","","","","99.19","","","","-32","","NA"
"-102.43","65.10","ROBERTSON LAKE (AUT)","2303610","2020-04-08 09:00","2020","04","08","09:00","-24.6","","-26.7","","82","","","M","27","","4","","","","99.22","","","","-29","","NA"
"-102.43","65.10","ROBERTSON LAKE (AUT)","2303610","2020-04-08 10:00","2020","04","08","10:00","-23.3","","-25.5","","83","","","M","29","","5","","","","99.24","","","","-28","","NA"
"-102.43","65.10","ROBERTSON LAKE (AUT)","2303610","2020-04-08 11:00","2020","04","08","11:00","-21.9","","-24.0","","83","","","M","23","","5","","","","99.31","","","","-26","","NA"
"-102.43","65.10","ROBERTSON LAKE (AUT)","2303610","2020-04-08 12:00","2020","04","08","12:00","-20.8","","-22.7","","84","","","M","26","","7","","","","99.34","","","","-27","","NA"
"-102.43","65.10","ROBERTSON LAKE (AUT)","2303610","2020-04-08 13:00","2020","04","08","13:00","-20.1","","-21.9","","86","","","M","28","","12","","","","99.39","","","","-28","","NA"
"-102.43","65.10","ROBERTSON LAKE (AUT)","2303610","2020-04-08 14:00","2020","04","08","14:00","-19.4","","-21.1","","86","","","M","29","","17","","","","99.41","","","","-29","","NA"
"-102.43","65.10","ROBERTSON LAKE (AUT)","2303610","2020-04-08 15:00","2020","04","08","15:00","-18.5","","-20.1","","87","","","M","30","","8","","","","99.45","","","","-24","","NA"
"-102.43","65.10","ROBERTSON LAKE (AUT)","2303610","2020-04-08 16:00","2020","04","08","16:00","-17.6","","-19.2","","88","","","M","27","","5","","","","99.50","","","","-22","","NA"
"-102.43","65.10","ROBERTSON LAKE (AUT)","2303610","2020-04-08 17:00","2020","04","08","17:00","-17.3","","-18.7","","88","","","M","29","","10","","","","99.52","","","","-24","","NA"
"-102.43","65.10","ROBERTSON LAKE (AUT)","2303610","2020-04-08 18:00","2020","04","08","18:00","-17.3","","-18.7","","89","","","M","30","","8","","","","99.54","","","","-23","","NA"
"-102.43","65.10","ROBERTSON LAKE (AUT)","2303610","2020-04-08 19:00","2020","04","08","19:00","-18.1","","-19.5","","89","","","M","31","","9","","","","99.57","","","","-24","","NA"
"-102.43","65.10","ROBERTSON LAKE (AUT)","2303610","2020-04-08 20:00","2020","04","08","20:00","-19.1","","-20.6","","88","","","M","34","","19","","","","99.55","","","","-29","","NA"
"-102.43","65.10","ROBERTSON LAKE (AUT)","2303610","2020-04-08 21:00","2020","04","08","21:00","-18.7","","-20.3","","87","","","M","3","","13","","","","99.53","","","","-27","","NA"
"-102.43","65.10","ROBERTSON LAKE (AUT)","2303610","2020-04-08 22:00","2020","04","08","22:00","-17.3","","-18.9","","87","","","M","5","","8","","","","99.57","","","","-23","","NA"
"-102.43","65.10","ROBERTSON LAKE (AUT)","2303610","2020-04-08 23:00","2020","04","08","23:00","-16.6","","-18.1","","88","","","M","4","","5","","","","99.53","","","","-20","","NA"
"-102.43","65.10","ROBERTSON LAKE (AUT)","2303610","2020-04-09 00:00","2020","04","09","00:00","-16.1","","-17.5","","89","","","M","6","","4","","","","99.49","","","","-19","","NA"
"-102.43","65.10","ROBERTSON LAKE (AUT)","2303610","2020-04-09 01:00","2020","04","09","01:00","-15.3","","-16.7","","89","","","M","5","","16","","","","99.48","","","","-24","","NA"
"-102.43","65.10","ROBERTSON LAKE (AUT)","2303610","2020-04-09 02:00","2020","04","09","02:00","-14.7","","-16.0","","90","","","M","4","","11","","","","99.47","","","","-21","","NA"
"-102.43","65.10","ROBERTSON LAKE (AUT)","2303610","2020-04-09 03:00","2020","04","09","03:00","-14.4","","-15.6","","91","","","M","5","","14","","","","99.46","","","","-22","","NA"
"-102.43","65.10","ROBERTSON LAKE (AUT)","2303610","2020-04-09 04:00","2020","04","09","04:00","-14.4","","-15.6","","91","","","M","4","","13","","","","99.47","","","","-22","","NA"
"-102.43","65.10","ROBERTSON LAKE (AUT)","2303610","2020-04-09 05:00","2020","04","09","05:00","-14.6","","-15.8","","91","","","M","5","","17","","","","99.43","","","","-23","","NA"
"-102.43","65.10","ROBERTSON LAKE (AUT)","2303610","2020-04-09 06:00","2020","04","09","06:00","-14.8","","-16.0","","91","","","M","5","","17","","","","99.44","","","","-23","","NA"
"-102.43","65.10","ROBERTSON LAKE (AUT)","2303610","2020-04-09 07:00","2020","04","09","07:00","-15.0","","-16.2","","91","","","M","6","","18","","","","99.39","","","","-24","","NA"
"-102.43","65.10","ROBERTSON LAKE (AUT)","2303610","2020-04-09 08:00","2020","04","09","08:00","-15.1","","-16.3","","90","","","M","7","","16","","","","99.37","","","","-23","","NA"
"-102.43","65.10","ROBERTSON LAKE (AUT)","2303610","2020-04-09 09:00","2020","04","09","09:00","-15.0","","-16.2","","90","","","M","7","","14","","","","99.34","","","","-23","","NA"
"-102.43","65.10","ROBERTSON LAKE (AUT)","2303610","2020-04-09 10:00","2020","04","09","10:00","-15.0","","-16.2","","91","","","M","8","","18","","","","99.31","","","","-24","","NA"
"-102.43","65.10","ROBERTSON LAKE (AUT)","2303610","2020-04-09 11:00","2020","04","09","11:00","-14.9","","-16.1","","91","","","M","7","","19","","","","99.29","","","","-24","","NA"
"-102.43","65.10","ROBERTSON LAKE (AUT)","2303610","2020-04-09 12:00","2020","04","09","12:00","-14.9","","-16.1","","91","","","M","6","","19","","","","99.20","","","","-24","","NA"
"-102.43","65.10","ROBERTSON LAKE (AUT)","2303610","2020-04-09 13:00","2020","04","09","13:00","-14.9","","-16.1","","91","","","M","7","","20","","","","99.18","","","","-24","","NA"
"-102.43","65.10","ROBERTSON LAKE (AUT)","2303610","2020-04-09 14:00","2020","04","09","14:00","-14.8","","-16.0","","91","","","M","6","","19","","","","99.14","","","","-24","","NA"
"-102.43","65.10","ROBERTSON LAKE (AUT)","2303610","2020-04-09 15:00","2020","04","09","15:00","-14.8","","-16.0","","91","","","M","6","","14","","","","99.11","","","","-22","","NA"
"-102.43","65.10","ROBERTSON LAKE (AUT)","2303610","2020-04-09 16:00","2020","04","09","16:00","-15.0","","-16.1","","91","","","M","6","","16","","","","99.07","","","","-23","","NA"
"-102.43","65.10","ROBERTSON LAKE (AUT)","2303610","2020-04-09 17:00","2020","04","09","17:00","-15.3","","-16.5","","91","","","M","6","","15","","","","99.04","","","","-23","","NA"
"-102.43","65.10","ROBERTSON LAKE (AUT)","2303610","2020-04-09 18:00","2020","04","09","18:00","-16.0","","-17.2","","90","","","M","4","","14","","","","99.03","","","","-24","","NA"
"-102.43","65.10","ROBERTSON LAKE (AUT)","2303610","2020-04-09 19:00","2020","04","09","19:00","-17.4","","-18.6","","90","","","M","5","","18","","","","98.96","","","","-27","","NA"
"-102.43","65.10","ROBERTSON LAKE (AUT)","2303610","2020-04-09 20:00","2020","04","09","20:00","-18.7","","-20.1","","89","","","M","5","","18","","","","98.93","","","","-28","","NA"
"-102.43","65.10","ROBERTSON LAKE (AUT)","2303610","2020-04-09 21:00","2020","04","09","21:00","-19.6","","-21.1","","88","","","M","4","","10","","","","98.94","","","","-27","","NA"
"-102.43","65.10","ROBERTSON LAKE (AUT)","2303610","2020-04-09 22:00","2020","04","09","22:00","-19.2","","-20.8","","87","","","M","3","","16","","","","98.93","","","","-28","","NA"
"-102.43","65.10","ROBERTSON LAKE (AUT)","2303610","2020-04-09 23:00","2020","04","09","23:00","-18.7","","-20.3","","87","","","M","6","","16","","","","98.92","","","","-28","","NA"
"-102.43","65.10","ROBERTSON LAKE (AUT)","2303610","2020-04-10 00:00","2020","04","10","00:00","-18.6","","-20.2","","87","","","M","8","","17","","","","98.88","","","","-28","","NA"
"-102.43","65.10","ROBERTSON LAKE (AUT)","2303610","2020-04-10 01:00","2020","04","10","01:00","-18.9","","-20.5","","87","","","M","7","","21","","","","98.83","","","","-29","","NA"
"-102.43","65.10","ROBERTSON LAKE (AUT)","2303610","2020-04-10 02:00","2020","04","10","02:00","-19.3","","-20.8","","87","","","M","5","","16","","","","98.82","","","","-29","","NA"
"-102.43","65.10","ROBERTSON LAKE (AUT)","2303610","2020-04-10 03:00","2020","04","10","03:00","-19.5","","-21.1","","87","","","M","6","","17","","","","98.79","","","","-29","","NA"
"-102.43","65.10","ROBERTSON LAKE (AUT)","2303610","2020-04-10 04:00","2020","04","10","04:00","-19.8","","-21.5","","87","","","M","6","","20","","","","98.80","","","","-30","","NA"
"-102.43","65.10","ROBERTSON LAKE (AUT)","2303610","2020-04-10 05:00","2020","04","10","05:00","-20.3","","-21.9","","86","","","M","6","","14","","","","98.81","","","","-29","","NA"
"-102.43","65.10","ROBERTSON LAKE (AUT)","2303610","2020-04-10 06:00","2020","04","10","06:00","-20.5","","-22.2","","86","","","M","4","","14","","","","98.82","","","","-29","","NA"
"-102.43","65.10","ROBERTSON LAKE (AUT)","2303610","2020-04-10 07:00","2020","04","10","07:00","-20.7","","-22.5","","86","","","M","4","","13","","","","98.82","","","","-29","","NA"
"-102.43","65.10","ROBERTSON LAKE (AUT)","2303610","2020-04-10 08:00","2020","04","10","08:00","-20.9","","-22.6","","86","","","M","4","","11","","","","98.83","","","","-29","","NA"
"-102.43","65.10","ROBERTSON LAKE (AUT)","2303610","2020-04-10 09:00","2020","04","10","09:00","-20.8","","-22.6","","86","","","M","5","","9","","","","98.85","","","","-28","","NA"
"-102.43","65.10","ROBERTSON LAKE (AUT)","2303610","2020-04-10 10:00","2020","04","10","10:00","-20.7","","-22.5","","86","","","M","2","","7","","","","98.86","","","","-26","","NA"
"-102.43","65.10","ROBERTSON LAKE (AUT)","2303610","2020-04-10 11:00","2020","04","10","11:00","-20.4","","-22.2","","86","","","M","13","","3","","","","98.86","","","","-23","","NA"
"-102.43","65.10","ROBERTSON LAKE (AUT)","2303610","2020-04-10 12:00","2020","04","10","12:00","-20.1","","-21.8","","86","","","M","19","","6","","","","98.87","","","","-25","","NA"
"-102.43","65.10","ROBERTSON LAKE (AUT)","2303610","2020-04-10 13:00","2020","04","10","13:00","-19.2","","-20.9","","86","","","M","21","","4","","","","98.86","","","","-23","","NA"
"-102.43","65.10","ROBERTSON LAKE (AUT)","2303610","2020-04-10 14:00","2020","04","10","14:00","-19.0","","-20.7","","87","","","M","30","","6","","","","98.86","","","","-24","","NA"
"-102.43","65.10","ROBERTSON LAKE (AUT)","2303610","2020-04-10 15:00","2020","04","10","15:00","-19.2","","-20.8","","87","","","M","30","","10","","","","98.87","","","","-26","","NA"
"-102.43","65.10","ROBERTSON LAKE (AUT)","2303610","2020-04-10 16:00","2020","04","10","16:00","-19.2","","-20.8","","87","","","M","29","","7","","","","98.88","","","","-25","","NA"
"-102.43","65.10","ROBERTSON LAKE (AUT)","2303610","2020-04-10 17:00","2020","04","10","17:00","-19.2","","-20.8","","87","","","M","32","","7","","","","98.89","","","","-25","","NA"
"-102.43","65.10","ROBERTSON LAKE (AUT)","2303610","2020-04-10 18:00","2020","04","10","18:00","-19.2","","-20.8","","87","","","M","29","","7","","","","98.92","","","","-25","","NA"
"-102.43","65.10","ROBERTSON LAKE (AUT)","2303610","2020-04-10 19:00","2020","04","10","19:00","-19.4","","-21.0","","87","","","M","31","","5","","","","98.93","","","","-24","","NA"
"-102.43","65.10","ROBERTSON LAKE (AUT)","2303610","2020-04-10 20:00","2020","04","10","20:00","-19.6","","-21.2","","87","","","M","32","","4","","","","98.90","","","","-23","","NA"
"-102.43","65.10","ROBERTSON LAKE (AUT)","2303610","2020-04-10 21:00","2020","04","10","21:00","-19.8","","-21.4","","87","","","M","5","","1","","","","98.91","","","","-21","","NA"
"-102.43","65.10","ROBERTSON LAKE (AUT)","2303610","2020-04-10 22:00","2020","04","10","22:00","-19.8","","-21.5","","87","","","M","0","","1","","","","98.90","","","","-21","","NA"
"-102.43","65.10","ROBERTSON LAKE (AUT)","2303610","2020-04-10 23:00","2020","04","10","23:00","-19.8","","-21.4","","86","","","M","29","","6","","","","98.87","","","","-25","","NA"
"-102.43","65.10","ROBERTSON LAKE (AUT)","2303610","2020-04-11 00:00","2020","04","11","00:00","-19.6","","-21.3","","86","","","M","28","","6","","","","98.84","","","","-25","","NA"
"-102.43","65.10","ROBERTSON LAKE (AUT)","2303610","2020-04-11 01:00","2020","04","11","01:00","-19.5","","-21.2","","86","","","M","28","","8","","","","98.83","","","","-26","","NA"
"-102.43","65.10","ROBERTSON LAKE (AUT)","2303610","2020-04-11 02:00","2020","04","11","02:00","-19.5","","-21.2","","87","","","M","30","","8","","","","98.83","","","","-26","","NA"
"-102.43","65.10","ROBERTSON LAKE (AUT)","2303610","2020-04-11 03:00","2020","04","11","03:00","-19.8","","-21.4","","87","","","M","29","","8","","","","98.79","","","","-26","","NA"
"-102.43","65.10","ROBERTSON LAKE (AUT)","2303610","2020-04-11 04:00","2020","04","11","04:00","-20.4","","-22.0","","87","","","M","33","","13","","","","98.80","","","","-29","","NA"
"-102.43","65.10","ROBERTSON LAKE (AUT)","2303610","2020-04-11 05:00","2020","04","11","05:00","-20.9","","-22.6","","86","","","M","32","","10","","","","98.81","","","","-28","","NA"
"-102.43","65.10","ROBERTSON LAKE (AUT)","2303610","2020-04-11 06:00","2020","04","11","06:00","-21.4","","-23.2","","86","","","M","35","","13","","","","98.81","","","","-30","","NA"
"-102.43","65.10","ROBERTSON LAKE (AUT)","2303610","2020-04-11 07:00","2020","04","11","07:00","-21.7","","-23.5","","85","","","M","35","","14","","","","98.80","","","","-31","","NA"
"-102.43","65.10","ROBERTSON LAKE (AUT)","2303610","2020-04-11 08:00","2020","04","11","08:00","-21.8","","-23.6","","85","","","M","36","","14","","","","98.80","","","","-31","","NA"
"-102.43","65.10","ROBERTSON LAKE (AUT)","2303610","2020-04-11 09:00","2020","04","11","09:00","-21.8","","-23.7","","85","","","M","36","","19","","","","98.79","","","","-32","","NA"
"-102.43","65.10","ROBERTSON LAKE (AUT)","2303610","2020-04-11 10:00","2020","04","11","10:00","-21.9","","-23.8","","85","","","M","1","","18","","","","98.81","","","","-32","","NA"
"-102.43","65.10","ROBERTSON LAKE (AUT)","2303610","2020-04-11 11:00","2020","04","11","11:00","-21.5","","-23.4","","85","","","M","2","","19","","","","98.81","","","","-32","","NA"
"-102.43","65.10","ROBERTSON LAKE (AUT)","2303610","2020-04-11 12:00","2020","04","11","12:00","-21.2","","-23.1","","85","","","M","36","","20","","","","98.83","","","","-32","","NA"
"-102.43","65.10","ROBERTSON LAKE (AUT)","2303610","2020-04-11 13:00","2020","04","11","13:00","-21.1","","-23.0","","85","","","M","1","","24","","","","98.84","","","","-33","","NA"
"-102.43","65.10","ROBERTSON LAKE (AUT)","2303610","2020-04-11 14:00","2020","04","11","14:00","-20.3","","-22.1","","85","","","M","36","","26","","","","98.85","","","","-32","","NA"
"-102.43","65.10","ROBERTSON LAKE (AUT)","2303610","2020-04-11 15:00","2020","04","11","15:00","-19.3","","-21.1","","86","","","M","1","","29","","","","98.86","","","","-31","","NA"
"-102.43","65.10","ROBERTSON LAKE (AUT)","2303610","2020-04-11 16:00","2020","04","11","16:00","-18.7","","-20.4","","87","","","M","36","","31","","","","98.89","","","","-31","","NA"
"-102.43","65.10","ROBERTSON LAKE (AUT)","2303610","2020-04-11 17:00","2020","04","11","17:00","-18.6","","-20.2","","87","","","M","36","","34","","","","98.93","","","","-31","","NA"
"-102.43","65.10","ROBERTSON LAKE (AUT)","2303610","2020-04-11 18:00","2020","04","11","18:00","-18.7","","-20.2","","87","","","M","1","","33","","","","98.95","","","","-31","","NA"
"-102.43","65.10","ROBERTSON LAKE (AUT)","2303610","2020-04-11 19:00","2020","04","11","19:00","-19.1","","-20.7","","87","","","M","36","","36","","","","98.99","","","","-32","","NA"
"-102.43","65.10","ROBERTSON LAKE (AUT)","2303610","2020-04-11 20:00","2020","04","11","20:00","-19.4","","-21.0","","87","","","M","36","","34","","","","99.00","","","","-32","","NA"
"-102.43","65.10","ROBERTSON LAKE (AUT)","2303610","2020-04-11 21:00","2020","04","11","21:00","-20.1","","-21.7","","87","","","M","36","","25","","","","99.03","","","","-32","","NA"
"-102.43","65.10","ROBERTSON LAKE (AUT)","2303610","2020-04-11 22:00","2020","04","11","22:00","-20.6","","-22.3","","86","","","M","36","","32","","","","99.06","","","","-34","","NA"
"-102.43","65.10","ROBERTSON LAKE (AUT)","2303610","2020-04-11 23:00","2020","04","11","23:00","-20.3","","-22.1","","86","","","M","36","","39","","","","99.06","","","","-34","","NA"
"-102.43","65.10","ROBERTSON LAKE (AUT)","2303610","2020-04-12 00:00","2020","04","12","00:00","-20.1","","-21.8","","86","","","M","36","","40","","","","99.07","","","","-34","","NA"
"-102.43","65.10","ROBERTSON LAKE (AUT)","2303610","2020-04-12 01:00","2020","04","12","01:00","-20.4","","-22.1","","86","","","M","1","","40","","","","99.08","","","","-35","","NA"
"-102.43","65.10","ROBERTSON LAKE (AUT)","2303610","2020-04-12 02:00","2020","04","12","02:00","-20.6","","-22.4","","86","","","M","36","","42","","","","99.09","","","","-35","","NA"
"-102.43","65.10","ROBERTSON LAKE (AUT)","2303610","2020-04-12 03:00","2020","04","12","03:00","-21.1","","-22.9","","86","","","M","36","","39","","","","99.13","","","","-35","","NA"
"-102.43","65.10","ROBERTSON LAKE (AUT)","2303610","2020-04-12 04:00","2020","04","12","04:00","-21.9","","-23.7","","85","","","M","36","","34","","","","99.17","","","","-36","","NA"
"-102.43","65.10","ROBERTSON LAKE (AUT)","2303610","2020-04-12 05:00","2020","04","12","05:00","-22.7","","-24.6","","85","","","M","36","","41","","","","99.18","","","","-38","","NA"
"-102.43","65.10","ROBERTSON LAKE (AUT)","2303610","2020-04-12 06:00","2020","04","12","06:00","-23.3","","-25.3","","84","","","M","1","","37","","","","99.24","","","","-38","","NA"
"-102.43","65.10","ROBERTSON LAKE (AUT)","2303610","2020-04-12 07:00","2020","04","12","07:00","-23.7","","-25.8","","83","","","M","36","","37","","","","99.26","","","","-39","","NA"
"-102.43","65.10","ROBERTSON LAKE (AUT)","2303610","2020-04-12 08:00","2020","04","12","08:00","-23.4","","-25.5","","83","","","M","36","","38","","","","99.27","","","","-38","","NA"
"-102.43","65.10","ROBERTSON LAKE (AUT)","2303610","2020-04-12 09:00","2020","04","12","09:00","-22.3","","-24.4","","83","","","M","36","","41","","","","99.30","","","","-37","","NA"
"-102.43","65.10","ROBERTSON LAKE (AUT)","2303610","2020-04-12 10:00","2020","04","12","10:00","-21.4","","-23.4","","84","","","M","36","","44","","","","99.31","","","","-37","","NA"
"-102.43","65.10","ROBERTSON LAKE (AUT)","2303610","2020-04-12 11:00","2020","04","12","11:00","-20.4","","-22.3","","85","","","M","35","","41","","","","99.35","","","","-35","","NA"
"-102.43","65.10","ROBERTSON LAKE (AUT)","2303610","2020-04-12 12:00","2020","04","12","12:00","-19.0","","-20.8","","86","","","M","36","","44","","","","99.40","","","","-33","","NA"
"-102.43","65.10","ROBERTSON LAKE (AUT)","2303610","2020-04-12 13:00","2020","04","12","13:00","-18.7","","-20.3","","87","","","M","35","","44","","","","99.43","","","","-33","","NA"
"-102.43","65.10","ROBERTSON LAKE (AUT)","2303610","2020-04-12 14:00","2020","04","12","14:00","-18.7","","-20.3","","87","","","M","34","","42","","","","99.46","","","","-33","","NA"
"-102.43","65.10","ROBERTSON LAKE (AUT)","2303610","2020-04-12 15:00","2020","04","12","15:00","-18.3","","-19.9","","87","","","M","35","","43","","","","99.47","","","","-32","","NA"
"-102.43","65.10","ROBERTSON LAKE (AUT)","2303610","2020-04-12 16:00","2020","04","12","16:00","-18.0","","-19.6","","88","","","M","34","","42","","","","99.50","","","","-32","","NA"
"-102.43","65.10","ROBERTSON LAKE (AUT)","2303610","2020-04-12 17:00","2020","04","12","17:00","-18.1","","-19.6","","88","","","M","34","","33","","","","99.53","","","","-31","","NA"
"-102.43","65.10","ROBERTSON LAKE (AUT)","2303610","2020-04-12 18:00","2020","04","12","18:00","-18.2","","-19.7","","88","","","M","33","","29","","","","99.55","","","","-30","","NA"
"-102.43","65.10","ROBERTSON LAKE (AUT)","2303610","2020-04-12 19:00","2020","04","12","19:00","-18.5","","-20.0","","88","","","M","32","","27","","","","99.53","","","","-30","","NA"
"-102.43","65.10","ROBERTSON LAKE (AUT)","2303610","2020-04-12 20:00","2020","04","12","20:00","-19.3","","-20.8","","88","","","M","32","","27","","","","99.50","","","","-31","","NA"
"-102.43","65.10","ROBERTSON LAKE (AUT)","2303610","2020-04-12 21:00","2020","04","12","21:00","-20.5","","-22.0","","87","","","M","29","","21","","","","99.48","","","","-31","","NA"
"-102.43","65.10","ROBERTSON LAKE (AUT)","2303610","2020-04-12 22:00","2020","04","12","22:00","-21.5","","-23.2","","86","","","M","31","","23","","","","99.39","","","","-33","","NA"
"-102.43","65.10","ROBERTSON LAKE (AUT)","2303610","2020-04-12 23:00","2020","04","12","23:00","-22.5","","-24.3","","85","","","M","30","","21","","","","99.36","","","","-34","","NA"
"-102.43","65.10","ROBERTSON LAKE (AUT)","2303610","2020-04-13 00:00","2020","04","13","00:00","-23.1","","-25.0","","84","","","M","31","","21","","","","99.32","","","","-35","","NA"
"-102.43","65.10","ROBERTSON LAKE (AUT)","2303610","2020-04-13 01:00","2020","04","13","01:00","-23.8","","-25.8","","84","","","M","31","","24","","","","99.25","","","","-36","","NA"
"-102.43","65.10","ROBERTSON LAKE (AUT)","2303610","2020-04-13 02:00","2020","04","13","02:00","-24.3","","-26.4","","83","","","M","31","","22","","","","99.21","","","","-36","","NA"
"-102.43","65.10","ROBERTSON LAKE (AUT)","2303610","2020-04-13 03:00","2020","04","13","03:00","-24.7","","-26.8","","82","","","M","30","","19","","","","99.18","","","","-36","","NA"
"-102.43","65.10","ROBERTSON LAKE (AUT)","2303610","2020-04-13 04:00","2020","04","13","04:00","-24.8","","-27.0","","82","","","M","29","","17","","","","99.14","","","","-36","","NA"
"-102.43","65.10","ROBERTSON LAKE (AUT)","2303610","2020-04-13 05:00","2020","04","13","05:00","-25.1","","-27.3","","82","","","M","27","","19","","","","99.13","","","","-37","","NA"
"-102.43","65.10","ROBERTSON LAKE (AUT)","2303610","2020-04-13 06:00","2020","04","13","06:00","-25.5","","-27.8","","82","","","M","27","","21","","","","99.12","","","","-38","","NA"
"-102.43","65.10","ROBERTSON LAKE (AUT)","2303610","2020-04-13 07:00","2020","04","13","07:00","-25.9","","-28.2","","81","","","M","27","","17","","","","99.08","","","","-37","","NA"
"-102.43","65.10","ROBERTSON LAKE (AUT)","2303610","2020-04-13 08:00","2020","04","13","08:00","-25.7","","-28.0","","81","","","M","26","","17","","","","99.05","","","","-37","","NA"
"-102.43","65.10","ROBERTSON LAKE (AUT)","2303610","2020-04-13 09:00","2020","04","13","09:00","-25.0","","-27.3","","81","","","M","26","","18","","","","99.04","","","","-36","","NA"
"-102.43","65.10","ROBERTSON LAKE (AUT)","2303610","2020-04-13 10:00","2020","04","13","10:00","-24.0","","-26.2","","82","","","M","28","","21","","","","99.01","","","","-36","","NA"
"-102.43","65.10","ROBERTSON LAKE (AUT)","2303610","2020-04-13 11:00","2020","04","13","11:00","-22.8","","-24.9","","83","","","M","26","","21","","","","99.00","","","","-34","","NA"
"-102.43","65.10","ROBERTSON LAKE (AUT)","2303610","2020-04-13 12:00","2020","04","13","12:00","-21.3","","-23.3","","84","","","M","27","","24","","","","98.95","","","","-33","","NA"
"-102.43","65.10","ROBERTSON LAKE (AUT)","2303610","2020-04-13 13:00","2020","04","13","13:00","-20.1","","-21.9","","85","","","M","26","","19","","","","98.94","","","","-30","","NA"
"-102.43","65.10","ROBERTSON LAKE (AUT)","2303610","2020-04-13 14:00","2020","04","13","14:00","-18.7","","-20.4","","86","","","M","26","","13","","","","98.94","","","","-27","","NA"
"-102.43","65.10","ROBERTSON LAKE (AUT)","2303610","2020-04-13 15:00","2020","04","13","15:00","-17.4","","-19.0","","87","","","M","27","","14","","","","98.93","","","","-26","","NA"
"-102.43","65.10","ROBERTSON LAKE (AUT)","2303610","2020-04-13 16:00","2020","04","13","16:00","-16.4","","-17.9","","88","","","M","27","","17","","","","98.94","","","","-25","","NA"
"-102.43","65.10","ROBERTSON LAKE (AUT)","2303610","2020-04-13 17:00","2020","04","13","17:00","-15.9","","-17.3","","89","","","M","28","","14","","","","98.93","","","","-24","","NA"
"-102.43","65.10","ROBERTSON LAKE (AUT)","2303610","2020-04-13 18:00","2020","04","13","18:00","-15.7","","-17.1","","90","","","M","29","","14","","","","98.94","","","","-23","","NA"
"-102.43","65.10","ROBERTSON LAKE (AUT)","2303610","2020-04-13 19:00","2020","04","13","19:00","-16.3","","-17.6","","90","","","M","29","","22","","","","98.92","","","","-26","","NA"
"-102.43","65.10","ROBERTSON LAKE (AUT)","2303610","2020-04-13 20:00","2020","04","13","20:00","-17.3","","-18.6","","90","","","M","29","","22","","","","98.89","","","","-28","","NA"
"-102.43","65.10","ROBERTSON LAKE (AUT)","2303610","2020-04-13 21:00","2020","04","13","21:00","-18.3","","-19.7","","89","","","M","29","","15","","","","98.88","","","","-27","","NA"
"-102.43","65.10","ROBERTSON LAKE (AUT)","2303610","2020-04-13 22:00","2020","04","13","22:00","-19.3","","-20.8","","88","","","M","28","","12","","","","98.89","","","","-27","","NA"
"-102.43","65.10","ROBERTSON LAKE (AUT)","2303610","2020-04-13 23:00","2020","04","13","23:00","-20.2","","-21.8","","87","","","M","28","","9","","","","98.87","","","","-27","","NA"
"-102.43","65.10","ROBERTSON LAKE (AUT)","2303610","2020-04-14 00:00","2020","04","14","00:00","-20.8","","-22.5","","86","","","M","28","","14","","","","98.89","","","","-30","","NA"
"-102.43","65.10","ROBERTSON LAKE (AUT)","2303610","2020-04-14 01:00","2020","04","14","01:00","-21.3","","-23.1","","86","","","M","28","","11","","","","98.90","","","","-29","","NA"
"-102.43","65.10","ROBERTSON LAKE (AUT)","2303610","2020-04-14 02:00","2020","04","14","02:00","-22.2","","-24.0","","85","","","M","28","","14","","","","98.88","","","","-31","","NA"
"-102.43","65.10","ROBERTSON LAKE (AUT)","2303610","2020-04-14 03:00","2020","04","14","03:00","-22.9","","-24.8","","85","","","M","27","","15","","","","98.88","","","","-33","","NA"
"-102.43","65.10","ROBERTSON LAKE (AUT)","2303610","2020-04-14 04:00","2020","04","14","04:00","-23.2","","-25.2","","84","","","M","28","","13","","","","98.86","","","","-32","","NA"
"-102.43","65.10","ROBERTSON LAKE (AUT)","2303610","2020-04-14 05:00","2020","04","14","05:00","-23.6","","-25.6","","83","","","M","26","","15","","","","98.84","","","","-34","","NA"
"-102.43","65.10","ROBERTSON LAKE (AUT)","2303610","2020-04-14 06:00","2020","04","14","06:00","-24.1","","-26.1","","83","","","M","28","","15","","","","98.87","","","","-34","","NA"
"-102.43","65.10","ROBERTSON LAKE (AUT)","2303610","2020-04-14 07:00","2020","04","14","07:00","-24.6","","-26.7","","83","","","M","27","","16","","","","98.90","","","","-35","","NA"
"-102.43","65.10","ROBERTSON LAKE (AUT)","2303610","2020-04-14 08:00","2020","04","14","08:00","-24.4","","-26.6","","82","","","M","27","","13","","","","98.91","","","","-34","","NA"
"-102.43","65.10","ROBERTSON LAKE (AUT)","2303610","2020-04-14 09:00","2020","04","14","09:00","-23.4","","-25.5","","82","","","M","30","","19","","","","98.90","","","","-34","","NA"
"-102.43","65.10","ROBERTSON LAKE (AUT)","2303610","2020-04-14 10:00","2020","04","14","10:00","-21.5","","-23.6","","83","","","M","27","","17","","","","98.86","","","","-32","","NA"
"-102.43","65.10","ROBERTSON LAKE (AUT)","2303610","2020-04-14 11:00","2020","04","14","11:00","-20.6","","-22.5","","85","","","M","27","","17","","","","98.90","","","","-30","","NA"
"-102.43","65.10","ROBERTSON LAKE (AUT)","2303610","2020-04-14 12:00","2020","04","14","12:00","-19.0","","-20.8","","86","","","M","28","","21","","","","98.92","","","","-29","","NA"
"-102.43","65.10","ROBERTSON LAKE (AUT)","2303610","2020-04-14 13:00","2020","04","14","13:00","-17.6","","-19.2","","87","","","M","28","","20","","","","98.97","","","","-27","","NA"
"-102.43","65.10","ROBERTSON LAKE (AUT)","2303610","2020-04-14 14:00","2020","04","14","14:00","-16.1","","-17.6","","88","","","M","27","","26","","","","98.99","","","","-27","","NA"
"-102.43","65.10","ROBERTSON LAKE (AUT)","2303610","2020-04-14 15:00","2020","04","14","15:00","-15.1","","-16.4","","90","","","M","27","","25","","","","99.02","","","","-25","","NA"
"-102.43","65.10","ROBERTSON LAKE (AUT)","2303610","2020-04-14 16:00","2020","04","14","16:00","-14.1","","-15.3","","90","","","M","27","","19","","","","99.06","","","","-23","","NA"
"-102.43","65.10","ROBERTSON LAKE (AUT)","2303610","2020-04-14 17:00","2020","04","14","17:00","-13.2","","-14.4","","91","","","M","29","","20","","","","99.10","","","","-22","","NA"
"-102.43","65.10","ROBERTSON LAKE (AUT)","2303610","2020-04-14 18:00","2020","04","14","18:00","-12.8","","-13.9","","92","","","M","30","","17","","","","99.13","","","","-21","","NA"
"-102.43","65.10","ROBERTSON LAKE (AUT)","2303610","2020-04-14 19:00","2020","04","14","19:00","-12.6","","-13.6","","92","","","M","33","","23","","","","99.16","","","","-22","","NA"
"-102.43","65.10","ROBERTSON LAKE (AUT)","2303610","2020-04-14 20:00","2020","04","14","20:00","-13.2","","-14.1","","92","","","M","34","","26","","","","99.19","","","","-23","","NA"
"-102.43","65.10","ROBERTSON LAKE (AUT)","2303610","2020-04-14 21:00","2020","04","14","21:00","-13.4","","-14.4","","92","","","M","33","","24","","","","99.23","","","","-23","","NA"
"-102.43","65.10","ROBERTSON LAKE (AUT)","2303610","2020-04-14 22:00","2020","04","14","22:00","-14.4","","-15.4","","92","","","M","32","","23","","","","99.24","","","","-24","","NA"
"-102.43","65.10","ROBERTSON LAKE (AUT)","2303610","2020-04-14 23:00","2020","04","14","23:00","-16.0","","-17.1","","91","","","M","32","","24","","","","99.25","","","","-26","","NA"
"-102.43","65.10","ROBERTSON LAKE (AUT)","2303610","2020-04-15 00:00","2020","04","15","00:00","-17.0","","-18.3","","90","","","M","32","","25","","","","99.26","","","","-28","","NA"
"-102.43","65.10","ROBERTSON LAKE (AUT)","2303610","2020-04-15 01:00","2020","04","15","01:00","-16.8","","-18.2","","89","","","M","32","","20","","","","99.25","","","","-26","","NA"
"-102.43","65.10","ROBERTSON LAKE (AUT)","2303610","2020-04-15 02:00","2020","04","15","02:00","-15.9","","-17.3","","89","","","M","30","","19","","","","99.23","","","","-25","","NA"
"-102.43","65.10","ROBERTSON LAKE (AUT)","2303610","2020-04-15 03:00","2020","04","15","03:00","-14.9","","-16.2","","89","","","M","31","","23","","","","99.20","","","","-25","","NA"
"-102.43","65.10","ROBERTSON LAKE (AUT)","2303610","2020-04-15 04:00","2020","04","15","04:00","-13.2","","-14.5","","90","","","M","32","","24","","","","99.18","","","","-23","","NA"
"-102.43","65.10","ROBERTSON LAKE (AUT)","2303610","2020-04-15 05:00","2020","04","15","05:00","-12.3","","-13.4","","91","","","M","33","","33","","","","99.20","","","","-23","","NA"
"-102.43","65.10","ROBERTSON LAKE (AUT)","2303610","2020-04-15 06:00","2020","04","15","06:00","-11.8","","-12.8","","92","","","M","33","","16","","","","99.23","","","","-19","","NA"
"-102.43","65.10","ROBERTSON LAKE (AUT)","2303610","2020-04-15 07:00","2020","04","15","07:00","-11.4","","-12.3","","93","","","M","34","","27","","","","99.25","","","","-21","","NA"
"-102.43","65.10","ROBERTSON LAKE (AUT)","2303610","2020-04-15 08:00","2020","04","15","08:00","-11.4","","-12.3","","93","","","M","32","","16","","","","99.23","","","","-19","","NA"
"-102.43","65.10","ROBERTSON LAKE (AUT)","2303610","2020-04-15 09:00","2020","04","15","09:00","-10.8","","-11.7","","93","","","M","32","","28","","","","99.18","","","","-20","","NA"
"-102.43","65.10","ROBERTSON LAKE (AUT)","2303610","2020-04-15 10:00","2020","04","15","10:00","-10.7","","-11.5","","94","","","M","31","","29","","","","99.17","","","","-20","","NA"
"-102.43","65.10","ROBERTSON LAKE (AUT)","2303610","2020-04-15 11:00","2020","04","15","11:00","-10.0","","-10.8","","94","","","M","32","","26","","","","99.11","","","","-19","","NA"
"-102.43","65.10","ROBERTSON LAKE (AUT)","2303610","2020-04-15 12:00","2020","04","15","12:00","-8.9","","-9.7","","94","","","M","32","","36","","","","99.10","","","","-19","","NA"
"-102.43","65.10","ROBERTSON LAKE (AUT)","2303610","2020-04-15 13:00","2020","04","15","13:00","-8.3","","-9.0","","95","","","M","32","","36","","","","99.06","","","","-18","","NA"
"-102.43","65.10","ROBERTSON LAKE (AUT)","2303610","2020-04-15 14:00","2020","04","15","14:00","-8.0","","-8.6","","96","","","M","31","","41","","","","99.02","","","","-18","","NA"
"-102.43","65.10","ROBERTSON LAKE (AUT)","2303610","2020-04-15 15:00","2020","04","15","15:00","-9.7","","-10.2","","96","","","M","33","","41","","","","99.09","","","","-20","","NA"
"-102.43","65.10","ROBERTSON LAKE (AUT)","2303610","2020-04-15 16:00","2020","04","15","16:00","-11.2","","-11.9","","94","","","M","34","","47","","","","99.10","","","","-23","","NA"
"-102.43","65.10","ROBERTSON LAKE (AUT)","2303610","2020-04-15 17:00","2020","04","15","17:00","-12.4","","-13.2","","94","","","M","35","","39","","","","99.14","","","","-24","","NA"
"-102.43","65.10","ROBERTSON LAKE (AUT)","2303610","2020-04-15 18:00","2020","04","15","18:00","-13.2","","-14.1","","93","","","M","34","","32","","","","99.12","","","","-24","","NA"
"-102.43","65.10","ROBERTSON LAKE (AUT)","2303610","2020-04-15 19:00","2020","04","15","19:00","-13.9","","-14.8","","93","","","M","33","","30","","","","99.11","","","","-25","","NA"
"-102.43","65.10","ROBERTSON LAKE (AUT)","2303610","2020-04-15 20:00","2020","04","15","20:00","-14.8","","-15.8","","92","","","M","33","","24","","","","99.09","","","","-25","","NA"
"-102.43","65.10","ROBERTSON LAKE (AUT)","2303610","2020-04-15 21:00","2020","04","15","21:00","-15.9","","-17.0","","91","","","M","29","","13","","","","99.08","","","","-23","","NA"
"-102.43","65.10","ROBERTSON LAKE (AUT)","2303610","2020-04-15 22:00","2020","04","15","22:00","-17.3","","-18.5","","90","","","M","31","","15","","","","99.04","","","","-26","","NA"
"-102.43","65.10","ROBERTSON LAKE (AUT)","2303610","2020-04-15 23:00","2020","04","15","23:00","-18.7","","-20.0","","89","","","M","30","","24","","","","99.00","","","","-30","","NA"
"-102.43","65.10","ROBERTSON LAKE (AUT)","2303610","2020-04-16 00:00","2020","04","16","00:00","-19.2","","-20.6","","88","","","M","32","","22","","","","98.92","","","","-30","","NA"
"-102.43","65.10","ROBERTSON LAKE (AUT)","2303610","2020-04-16 01:00","2020","04","16","01:00","-20.1","","-21.6","","88","","","M","32","","18","","","","98.91","","","","-30","","NA"
"-102.43","65.10","ROBERTSON LAKE (AUT)","2303610","2020-04-16 02:00","2020","04","16","02:00","-20.9","","-22.5","","87","","","M","32","","20","","","","98.86","","","","-32","","NA"
"-102.43","65.10","ROBERTSON LAKE (AUT)","2303610","2020-04-16 03:00","2020","04","16","03:00","-21.4","","-23.1","","86","","","M","32","","19","","","","98.80","","","","-32","","NA"
"-102.43","65.10","ROBERTSON LAKE (AUT)","2303610","2020-04-16 04:00","2020","04","16","04:00","-22.3","","-24.1","","85","","","M","32","","23","","","","98.72","","","","-34","","NA"
"-102.43","65.10","ROBERTSON LAKE (AUT)","2303610","2020-04-16 05:00","2020","04","16","05:00","-22.4","","-24.3","","85","","","M","31","","20","","","","98.67","","","","-34","","NA"
"-102.43","65.10","ROBERTSON LAKE (AUT)","2303610","2020-04-16 06:00","2020","04","16","06:00","-22.5","","-24.4","","84","","","M","31","","18","","","","98.64","","","","-33","","NA"
"-102.43","65.10","ROBERTSON LAKE (AUT)","2303610","2020-04-16 07:00","2020","04","16","07:00","-22.3","","-24.2","","84","","","M","24","","6","","","","98.58","","","","-28","","NA"
"-102.43","65.10","ROBERTSON LAKE (AUT)","2303610","2020-04-16 08:00","2020","04","16","08:00","-20.9","","-22.8","","84","","","M","32","","12","","","","98.50","","","","-29","","NA"
"-102.43","65.10","ROBERTSON LAKE (AUT)","2303610","2020-04-16 09:00","2020","04","16","09:00","-18.9","","-20.8","","85","","","M","31","","21","","","","98.46","","","","-29","","NA"
"-102.43","65.10","ROBERTSON LAKE (AUT)","2303610","2020-04-16 10:00","2020","04","16","10:00","-18.1","","-19.7","","87","","","M","30","","26","","","","98.36","","","","-29","","NA"
"-102.43","65.10","ROBERTSON LAKE (AUT)","2303610","2020-04-16 11:00","2020","04","16","11:00","-17.0","","-18.5","","88","","","M","29","","23","","","","98.25","","","","-27","","NA"
"-102.43","65.10","ROBERTSON LAKE (AUT)","2303610","2020-04-16 12:00","2020","04","16","12:00","-15.9","","-17.3","","89","","","M","30","","21","","","","98.21","","","","-26","","NA"
"-102.43","65.10","ROBERTSON LAKE (AUT)","2303610","2020-04-16 13:00","2020","04","16","13:00","-15.2","","-16.5","","90","","","M","29","","12","","","","98.13","","","","-22","","NA"
"-102.43","65.10","ROBERTSON LAKE (AUT)","2303610","2020-04-16 14:00","2020","04","16","14:00","-14.5","","-15.7","","90","","","M","29","","13","","","","98.07","","","","-22","","NA"
"-102.43","65.10","ROBERTSON LAKE (AUT)","2303610","2020-04-16 15:00","2020","04","16","15:00","-13.7","","-14.9","","91","","","M","29","","12","","","","98.00","","","","-20","","NA"
"-102.43","65.10","ROBERTSON LAKE (AUT)","2303610","2020-04-16 16:00","2020","04","16","16:00","-13.3","","-14.3","","92","","","M","30","","8","","","","97.91","","","","-18","","NA"
"-102.43","65.10","ROBERTSON LAKE (AUT)","2303610","2020-04-16 17:00","2020","04","16","17:00","-13.0","","-14.0","","92","","","M","31","","9","","","","97.83","","","","-18","","NA"
"-102.43","65.10","ROBERTSON LAKE (AUT)","2303610","2020-04-16 18:00","2020","04","16","18:00","-13.1","","-14.1","","92","","","M","2","","11","","","","97.79","","","","-19","","NA"
"-102.43","65.10","ROBERTSON LAKE (AUT)","2303610","2020-04-16 19:00","2020","04","16","19:00","-13.5","","-14.5","","92","","","M","4","","10","","","","97.74","","","","-19","","NA"
"-102.43","65.10","ROBERTSON LAKE (AUT)","2303610","2020-04-16 20:00","2020","04","16","20:00","-14.5","","-15.5","","92","","","M","3","","11","","","","97.69","","","","-21","","NA"
"-102.43","65.10","ROBERTSON LAKE (AUT)","2303610","2020-04-16 21:00","2020","04","16","21:00","-16.0","","-17.1","","91","","","M","6","","7","","","","97.65","","","","-21","","NA"
"-102.43","65.10","ROBERTSON LAKE (AUT)","2303610","2020-04-16 22:00","2020","04","16","22:00","-16.9","","-18.1","","90","","","M","5","","13","","","","97.64","","","","-25","","NA"
"-102.43","65.10","ROBERTSON LAKE (AUT)","2303610","2020-04-16 23:00","2020","04","16","23:00","-18.3","","-19.6","","90","","","M","3","","15","","","","97.63","","","","-27","","NA"
"-102.43","65.10","ROBERTSON LAKE (AUT)","2303610","2020-04-17 00:00","2020","04","17","00:00","-19.8","","-21.2","","88","","","M","4","","21","","","","97.62","","","","-30","","NA"
"-102.43","65.10","ROBERTSON LAKE (AUT)","2303610","2020-04-17 01:00","2020","04","17","01:00","-21.6","","-23.2","","87","","","M","4","","19","","","","97.65","","","","-32","","NA"
"-102.43","65.10","ROBERTSON LAKE (AUT)","2303610","2020-04-17 02:00","2020","04","17","02:00","-23.1","","-24.8","","86","","","M","4","","15","","","","97.68","","","","-33","","NA"
"-102.43","65.10","ROBERTSON LAKE (AUT)","2303610","2020-04-17 03:00","2020","04","17","03:00","-24.5","","-26.4","","84","","","M","1","","14","","","","97.66","","","","-34","","NA"
"-102.43","65.10","ROBERTSON LAKE (AUT)","2303610","2020-04-17 04:00","2020","04","17","04:00","-25.8","","-27.8","","83","","","M","2","","24","","","","97.71","","","","-39","","NA"
"-102.43","65.10","ROBERTSON LAKE (AUT)","2303610","2020-04-17 05:00","2020","04","17","05:00","-26.7","","-28.9","","82","","","M","36","","19","","","","97.74","","","","-39","","NA"
"-102.43","65.10","ROBERTSON LAKE (AUT)","2303610","2020-04-17 06:00","2020","04","17","06:00","-27.5","","-29.8","","81","","","M","36","","21","","","","97.79","","","","-40","","NA"
"-102.43","65.10","ROBERTSON LAKE (AUT)","2303610","2020-04-17 07:00","2020","04","17","07:00","-27.4","","-29.8","","80","","","M","34","","21","","","","97.81","","","","-40","","NA"
"-102.43","65.10","ROBERTSON LAKE (AUT)","2303610","2020-04-17 08:00","2020","04","17","08:00","-27.0","","-29.4","","80","","","M","33","","28","","","","97.85","","","","-41","","NA"
"-102.43","65.10","ROBERTSON LAKE (AUT)","2303610","2020-04-17 09:00","2020","04","17","09:00","-26.2","","-28.6","","80","","","M","32","","26","","","","97.88","","","","-40","","NA"
"-102.43","65.10","ROBERTSON LAKE (AUT)","2303610","2020-04-17 10:00","2020","04","17","10:00","-25.1","","-27.5","","81","","","M","33","","34","","","","97.90","","","","-40","","NA"
"-102.43","65.10","ROBERTSON LAKE (AUT)","2303610","2020-04-17 11:00","2020","04","17","11:00"
"-102.43","65.10","ROBERTSON LAKE (AUT)","2303610","2020-04-17 12:00","2020","04","17","12:00","-22.5","","-24.6","","83","","","M","32","","29","","","","97.94","","","","-36","","NA"
"-102.43","65.10","ROBERTSON LAKE (AUT)","2303610","2020-04-17 13:00","2020","04","17","13:00","-21.2","","-23.1","","84","","","M","33","","34","","","","97.96","","","","-35","","NA"
"-102.43","65.10","ROBERTSON LAKE (AUT)","2303610","2020-04-17 14:00","2020","04","17","14:00","-20.3","","-22.1","","85","","","M","32","","25","","","","98.03","","","","-32","","NA"
"-102.43","65.10","ROBERTSON LAKE (AUT)","2303610","2020-04-17 15:00","2020","04","17","15:00","-19.5","","-21.2","","86","","","M","32","","42","","","","98.00","","","","-34","","NA"
"-102.43","65.10","ROBERTSON LAKE (AUT)","2303610","2020-04-17 16:00","2020","04","17","16:00","-19.6","","-21.3","","87","","","M","32","","41","","","","98.02","","","","-34","","NA"
"-102.43","65.10","ROBERTSON LAKE (AUT)","2303610","2020-04-17 17:00","2020","04","17","17:00","-19.5","","-21.2","","87","","","M","32","","44","","","","97.99","","","","-34","","NA"
"-102.43","65.10","ROBERTSON LAKE (AUT)","2303610","2020-04-17 18:00","2020","04","17","18:00","-19.9","","-21.5","","87","","","M","32","","46","","","","97.95","","","","-35","","NA"
"-102.43","65.10","ROBERTSON LAKE (AUT)","2303610","2020-04-17 19:00","2020","04","17","19:00","-20.4","","-22.1","","86","","","M","32","","38","","","","97.95","","","","-34","","NA"
"-102.43","65.10","ROBERTSON LAKE (AUT)","2303610","2020-04-17 20:00","2020","04","17","20:00","-21.0","","-22.8","","86","","","M","31","","38","","","","97.91","","","","-35","","NA"
"-102.43","65.10","ROBERTSON LAKE (AUT)","2303610","2020-04-17 21:00","2020","04","17","21:00","-21.8","","-23.6","","85","","","M","31","","34","","","","97.89","","","","-36","","NA"
"-102.43","65.10","ROBERTSON LAKE (AUT)","2303610","2020-04-17 22:00","2020","04","17","22:00","-22.3","","-24.2","","85","","","M","31","","26","","","","97.91","","","","-35","","NA"
"-102.43","65.10","ROBERTSON LAKE (AUT)","2303610","2020-04-17 23:00","2020","04","17","23:00","-22.7","","-24.6","","84","","","M","32","","26","","","","97.87","","","","-35","","NA"
"-102.43","65.10","ROBERTSON LAKE (AUT)","2303610","2020-04-18 00:00","2020","04","18","00:00","-23.4","","-25.3","","84","","","M","32","","25","","","","97.88","","","","-36","","NA"
"-102.43","65.10","ROBERTSON LAKE (AUT)","2303610","2020-04-18 01:00","2020","04","18","01:00","-24.0","","-26.0","","83","","","M","31","","22","","","","97.88","","","","-36","","NA"
"-102.43","65.10","ROBERTSON LAKE (AUT)","2303610","2020-04-18 02:00","2020","04","18","02:00","-24.8","","-26.9","","83","","","M","32","","31","","","","97.83","","","","-39","","NA"
"-102.43","65.10","ROBERTSON LAKE (AUT)","2303610","2020-04-18 03:00","2020","04","18","03:00","-25.2","","-27.4","","82","","","M","32","","32","","","","97.83","","","","-40","","NA"
"-102.43","65.10","ROBERTSON LAKE (AUT)","2303610","2020-04-18 04:00","2020","04","18","04:00","-25.6","","-27.8","","82","","","M","32","","34","","","","97.86","","","","-41","","NA"
"-102.43","65.10","ROBERTSON LAKE (AUT)","2303610","2020-04-18 05:00","2020","04","18","05:00","-25.9","","-28.2","","81","","","M","32","","40","","","","97.84","","","","-42","","NA"
"-102.43","65.10","ROBERTSON LAKE (AUT)","2303610","2020-04-18 06:00","2020","04","18","06:00","-26.0","","-28.3","","81","","","M","31","","38","","","","97.84","","","","-42","","NA"
"-102.43","65.10","ROBERTSON LAKE (AUT)","2303610","2020-04-18 07:00","2020","04","18","07:00","-25.5","","-27.8","","81","","","M","32","","31","","","","97.86","","","","-40","","NA"
"-102.43","65.10","ROBERTSON LAKE (AUT)","2303610","2020-04-18 08:00","2020","04","18","08:00","-24.6","","-26.9","","81","","","M","31","","24","","","","97.88","","","","-37","","NA"
"-102.43","65.10","ROBERTSON LAKE (AUT)","2303610","2020-04-18 09:00","2020","04","18","09:00","-23.8","","-26.0","","82","","","M","31","","30","","","","97.85","","","","-38","","NA"
"-102.43","65.10","ROBERTSON LAKE (AUT)","2303610","2020-04-18 10:00","2020","04","18","10:00","-22.7","","-24.8","","83","","","M","31","","27","","","","97.86","","","","-36","","NA"
"-102.43","65.10","ROBERTSON LAKE (AUT)","2303610","2020-04-18 11:00","2020","04","18","11:00","-21.6","","-23.6","","84","","","M","31","","39","","","","97.81","","","","-36","","NA"
"-102.43","65.10","ROBERTSON LAKE (AUT)","2303610","2020-04-18 12:00","2020","04","18","12:00","-20.5","","-22.3","","85","","","M","32","","39","","","","97.80","","","","-35","","NA"
"-102.43","65.10","ROBERTSON LAKE (AUT)","2303610","2020-04-18 13:00","2020","04","18","13:00","-19.6","","-21.3","","86","","","M","32","","35","","","","97.79","","","","-33","","NA"
"-102.43","65.10","ROBERTSON LAKE (AUT)","2303610","2020-04-18 14:00","2020","04","18","14:00","-18.7","","-20.4","","87","","","M","31","","31","","","","97.78","","","","-31","","NA"
"-102.43","65.10","ROBERTSON LAKE (AUT)","2303610","2020-04-18 15:00","2020","04","18","15:00","-18.2","","-19.8","","87","","","M","30","","25","","","","97.78","","","","-29","","NA"
"-102.43","65.10","ROBERTSON LAKE (AUT)","2303610","2020-04-18 16:00","2020","04","18","16:00","-17.7","","-19.2","","88","","","M","30","","22","","","","97.72","","","","-28","","NA"
"-102.43","65.10","ROBERTSON LAKE (AUT)","2303610","2020-04-18 17:00","2020","04","18","17:00","-17.4","","-18.9","","88","","","M","27","","19","","","","97.68","","","","-27","","NA"
"-102.43","65.10","ROBERTSON LAKE (AUT)","2303610","2020-04-18 18:00","2020","04","18","18:00","-17.4","","-18.8","","88","","","M","25","","11","","","","97.62","","","","-25","","NA"
"-102.43","65.10","ROBERTSON LAKE (AUT)","2303610","2020-04-18 19:00","2020","04","18","19:00","-18.0","","-19.4","","89","","","M","25","","17","","","","97.60","","","","-27","","NA"
"-102.43","65.10","ROBERTSON LAKE (AUT)","2303610","2020-04-18 20:00","2020","04","18","20:00","-19.0","","-20.5","","88","","","M","25","","17","","","","97.55","","","","-28","","NA"
"-102.43","65.10","ROBERTSON LAKE (AUT)","2303610","2020-04-18 21:00","2020","04","18","21:00","-20.7","","-22.3","","87","","","M","25","","23","","","","97.48","","","","-32","","NA"
"-102.43","65.10","ROBERTSON LAKE (AUT)","2303610","2020-04-18 22:00","2020","04","18","22:00","-22.2","","-23.9","","86","","","M","25","","19","","","","97.43","","","","-33","","NA"
"-102.43","65.10","ROBERTSON LAKE (AUT)","2303610","2020-04-18 23:00","2020","04","18","23:00","-23.1","","-25.0","","85","","","M","25","","24","","","","97.36","","","","-35","","NA"
"-102.43","65.10","ROBERTSON LAKE (AUT)","2303610","2020-04-19 00:00","2020","04","19","00:00","-24.0","","-26.0","","84","","","M","25","","18","","","","97.30","","","","-35","","NA"
"-102.43","65.10","ROBERTSON LAKE (AUT)","2303610","2020-04-19 01:00","2020","04","19","01:00","-24.8","","-26.9","","83","","","M","28","","13","","","","97.27","","","","-34","","NA"
"-102.43","65.10","ROBERTSON LAKE (AUT)","2303610","2020-04-19 02:00","2020","04","19","02:00","-25.4","","-27.5","","82","","","M","26","","15","","","","97.26","","","","-36","","NA"
"-102.43","65.10","ROBERTSON LAKE (AUT)","2303610","2020-04-19 03:00","2020","04","19","03:00","-25.7","","-27.9","","82","","","M","28","","13","","","","97.22","","","","-35","","NA"
"-102.43","65.10","ROBERTSON LAKE (AUT)","2303610","2020-04-19 04:00","2020","04","19","04:00","-26.2","","-28.5","","81","","","M","28","","13","","","","97.18","","","","-36","","NA"
"-102.43","65.10","ROBERTSON LAKE (AUT)","2303610","2020-04-19 05:00","2020","04","19","05:00","-26.6","","-28.9","","81","","","M","27","","11","","","","97.19","","","","-36","","NA"
"-102.43","65.10","ROBERTSON LAKE (AUT)","2303610","2020-04-19 06:00","2020","04","19","06:00","-26.8","","-29.2","","80","","","M","30","","13","","","","97.18","","","","-37","","NA"
"-102.43","65.10","ROBERTSON LAKE (AUT)","2303610","2020-04-19 07:00","2020","04","19","07:00","-26.8","","-29.2","","80","","","M","29","","14","","","","97.18","","","","-37","","NA"
"-102.43","65.10","ROBERTSON LAKE (AUT)","2303610","2020-04-19 08:00","2020","04","19","08:00","-26.2","","-28.6","","80","","","M","28","","14","","","","97.16","","","","-36","","NA"
"-102.43","65.10","ROBERTSON LAKE (AUT)","2303610","2020-04-19 09:00","2020","04","19","09:00","-25.6","","-28.0","","81","","","M","29","","15","","","","97.19","","","","-36","","NA"
"-102.43","65.10","ROBERTSON LAKE (AUT)","2303610","2020-04-19 10:00","2020","04","19","10:00","-24.6","","-26.9","","81","","","M","27","","15","","","","97.18","","","","-35","","NA"
"-102.43","65.10","ROBERTSON LAKE (AUT)","2303610","2020-04-19 11:00","2020","04","19","11:00","-23.1","","-25.3","","82","","","M","30","","21","","","","97.18","","","","-35","","NA"
"-102.43","65.10","ROBERTSON LAKE (AUT)","2303610","2020-04-19 12:00","2020","04","19","12:00","-21.6","","-23.7","","83","","","M","30","","16","","","","97.20","","","","-31","","NA"
"-102.43","65.10","ROBERTSON LAKE (AUT)","2303610","2020-04-19 13:00","2020","04","19","13:00","-19.8","","-21.8","","85","","","M","30","","18","","","","97.22","","","","-30","","NA"
"-102.43","65.10","ROBERTSON LAKE (AUT)","2303610","2020-04-19 14:00","2020","04","19","14:00","-18.5","","-20.2","","86","","","M","30","","20","","","","97.24","","","","-29","","NA"
"-102.43","65.10","ROBERTSON LAKE (AUT)","2303610","2020-04-19 15:00","2020","04","19","15:00","-17.8","","-19.4","","87","","","M","32","","23","","","","97.28","","","","-28","","NA"
"-102.43","65.10","ROBERTSON LAKE (AUT)","2303610","2020-04-19 16:00","2020","04","19","16:00","-17.0","","-18.6","","88","","","M","32","","24","","","","97.32","","","","-28","","NA"
"-102.43","65.10","ROBERTSON LAKE (AUT)","2303610","2020-04-19 17:00","2020","04","19","17:00","-16.6","","-18.1","","89","","","M","33","","23","","","","97.36","","","","-27","","NA"
"-102.43","65.10","ROBERTSON LAKE (AUT)","2303610","2020-04-19 18:00","2020","04","19","18:00","-16.4","","-17.8","","89","","","M","33","","20","","","","97.44","","","","-26","","NA"
"-102.43","65.10","ROBERTSON LAKE (AUT)","2303610","2020-04-19 19:00","2020","04","19","19:00","-16.6","","-18.0","","89","","","M","32","","13","","","","97.48","","","","-24","","NA"
"-102.43","65.10","ROBERTSON LAKE (AUT)","2303610","2020-04-19 20:00","2020","04","19","20:00","-17.6","","-19.0","","89","","","M","31","","15","","","","97.52","","","","-26","","NA"
"-102.43","65.10","ROBERTSON LAKE (AUT)","2303610","2020-04-19 21:00","2020","04","19","21:00","-19.1","","-20.5","","89","","","M","29","","15","","","","97.56","","","","-28","","NA"
"-102.43","65.10","ROBERTSON LAKE (AUT)","2303610","2020-04-19 22:00","2020","04","19","22:00","-20.2","","-21.8","","88","","","M","29","","17","","","","97.58","","","","-30","","NA"
"-102.43","65.10","ROBERTSON LAKE (AUT)","2303610","2020-04-19 23:00","2020","04","19","23:00","-21.2","","-22.8","","87","","","M","30","","18","","","","97.62","","","","-31","","NA"
"-102.43","65.10","ROBERTSON LAKE (AUT)","2303610","2020-04-20 00:00","2020","04","20","00:00","-21.7","","-23.5","","86","","","M","30","","20","","","","97.65","","","","-33","","NA"
"-102.43","65.10","ROBERTSON LAKE (AUT)","2303610","2020-04-20 01:00","2020","04","20","01:00","-20.9","","-22.7","","85","","","M","31","","20","","","","97.70","","","","-32","","NA"
"-102.43","65.10","ROBERTSON LAKE (AUT)","2303610","2020-04-20 02:00","2020","04","20","02:00","-20.0","","-21.8","","85","","","M","30","","18","","","","97.73","","","","-30","","NA"
"-102.43","65.10","ROBERTSON LAKE (AUT)","2303610","2020-04-20 03:00","2020","04","20","03:00","-19.8","","-21.6","","86","","","M","30","","22","","","","97.75","","","","-31","","NA"
"-102.43","65.10","ROBERTSON LAKE (AUT)","2303610","2020-04-20 04:00","2020","04","20","04:00","-20.1","","-21.8","","86","","","M","31","","21","","","","97.77","","","","-31","","NA"
"-102.43","65.10","ROBERTSON LAKE (AUT)","2303610","2020-04-20 05:00","2020","04","20","05:00","-19.8","","-21.5","","86","","","M","29","","17","","","","97.84","","","","-29","","NA"
"-102.43","65.10","ROBERTSON LAKE (AUT)","2303610","2020-04-20 06:00","2020","04","20","06:00","-19.9","","-21.6","","86","","","M","30","","20","","","","97.88","","","","-30","","NA"
"-102.43","65.10","ROBERTSON LAKE (AUT)","2303610","2020-04-20 07:00","2020","04","20","07:00","-20.3","","-22.0","","87","","","M","30","","20","","","","97.91","","","","-31","","NA"
"-102.43","65.10","ROBERTSON LAKE (AUT)","2303610","2020-04-20 08:00","2020","04","20","08:00","-20.9","","-22.6","","86","","","M","29","","14","","","","97.94","","","","-30","","NA"
"-102.43","65.10","ROBERTSON LAKE (AUT)","2303610","2020-04-20 09:00","2020","04","20","09:00","-20.1","","-21.8","","86","","","M","29","","15","","","","97.96","","","","-29","","NA"
"-102.43","65.10","ROBERTSON LAKE (AUT)","2303610","2020-04-20 10:00","2020","04","20","10:00","-18.9","","-20.6","","86","","","M","29","","20","","","","97.96","","","","-29","","NA"
"-102.43","65.10","ROBERTSON LAKE (AUT)","2303610","2020-04-20 11:00","2020","04","20","11:00","-17.5","","-19.1","","87","","","M","28","","18","","","","97.98","","","","-27","","NA"
"-102.43","65.10","ROBERTSON LAKE (AUT)","2303610","2020-04-20 12:00","2020","04","20","12:00","-15.6","","-17.1","","88","","","M","32","","22","","","","98.02","","","","-25","","NA"
"-102.43","65.10","ROBERTSON LAKE (AUT)","2303610","2020-04-20 13:00","2020","04","20","13:00","-14.3","","-15.6","","90","","","M","30","","22","","","","98.03","","","","-24","","NA"
"-102.43","65.10","ROBERTSON LAKE (AUT)","2303610","2020-04-20 14:00","2020","04","20","14:00","-13.4","","-14.6","","91","","","M","32","","26","","","","98.05","","","","-23","","NA"
"-102.43","65.10","ROBERTSON LAKE (AUT)","2303610","2020-04-20 15:00","2020","04","20","15:00","-12.9","","-14.0","","92","","","M","32","","29","","","","98.09","","","","-23","","NA"
"-102.43","65.10","ROBERTSON LAKE (AUT)","2303610","2020-04-20 16:00","2020","04","20","16:00","-12.7","","-13.7","","92","","","M","32","","30","","","","98.12","","","","-23","","NA"
"-102.43","65.10","ROBERTSON LAKE (AUT)","2303610","2020-04-20 17:00","2020","04","20","17:00","-12.9","","-13.9","","92","","","M","32","","30","","","","98.15","","","","-23","","NA"
"-102.43","65.10","ROBERTSON LAKE (AUT)","2303610","2020-04-20 18:00","2020","04","20","18:00","-13.1","","-14.1","","92","","","M","32","","25","","","","98.17","","","","-23","","NA"
"-102.43","65.10","ROBERTSON LAKE (AUT)","2303610","2020-04-20 19:00","2020","04","20","19:00","-13.3","","-14.3","","92","","","M","32","","19","","","","98.18","","","","-22","","NA"
"-102.43","65.10","ROBERTSON LAKE (AUT)","2303610","2020-04-20 20:00","2020","04","20","20:00","-13.7","","-14.7","","92","","","M","32","","17","","","","98.19","","","","-22","","NA"
"-102.43","65.10","ROBERTSON LAKE (AUT)","2303610","2020-04-20 21:00","2020","04","20","21:00","-14.1","","-15.2","","92","","","M","31","","12","","","","98.21","","","","-21","","NA"
"-102.43","65.10","ROBERTSON LAKE (AUT)","2303610","2020-04-20 22:00","2020","04","20","22:00","-14.9","","-16.0","","92","","","M","31","","11","","","","98.22","","","","-21","","NA"
"-102.43","65.10","ROBERTSON LAKE (AUT)","2303610","2020-04-20 23:00","2020","04","20","23:00","-16.1","","-17.2","","91","","","M","31","","11","","","","98.21","","","","-23","","NA"
"-102.43","65.10","ROBERTSON LAKE (AUT)","2303610","2020-04-21 00:00","2020","04","21","00:00","-16.8","","-18.1","","90","","","M","27","","11","","","","98.21","","","","-24","","NA"
"-102.43","65.10","ROBERTSON LAKE (AUT)","2303610","2020-04-21 01:00","2020","04","21","01:00","-17.0","","-18.4","","89","","","M","27","","13","","","","98.22","","","","-25","","NA"
"-102.43","65.10","ROBERTSON LAKE (AUT)","2303610","2020-04-21 02:00","2020","04","21","02:00","-16.6","","-18.0","","89","","","M","29","","14","","","","98.23","","","","-25","","NA"
"-102.43","65.10","ROBERTSON LAKE (AUT)","2303610","2020-04-21 03:00","2020","04","21","03:00","-16.2","","-17.5","","89","","","M","29","","12","","","","98.22","","","","-23","","NA"
"-102.43","65.10","ROBERTSON LAKE (AUT)","2303610","2020-04-21 04:00","2020","04","21","04:00","-15.9","","-17.3","","89","","","M","26","","11","","","","98.22","","","","-23","","NA"
"-102.43","65.10","ROBERTSON LAKE (AUT)","2303610","2020-04-21 05:00","2020","04","21","05:00","-15.9","","-17.2","","90","","","M","27","","12","","","","98.23","","","","-23","","NA"
"-102.43","65.10","ROBERTSON LAKE (AUT)","2303610","2020-04-21 06:00","2020","04","21","06:00","-15.6","","-16.9","","90","","","M","23","","12","","","","98.25","","","","-23","","NA"
"-102.43","65.10","ROBERTSON LAKE (AUT)","2303610","2020-04-21 07:00","2020","04","21","07:00","-15.3","","-16.6","","90","","","M","23","","12","","","","98.23","","","","-22","","NA"
"-102.43","65.10","ROBERTSON LAKE (AUT)","2303610","2020-04-21 08:00","2020","04","21","08:00","-14.8","","-16.0","","90","","","M","23","","19","","","","98.20","","","","-24","","NA"
"-102.43","65.10","ROBERTSON LAKE (AUT)","2303610","2020-04-21 09:00","2020","04","21","09:00","-14.2","","-15.4","","91","","","M","21","","18","","","","98.18","","","","-23","","NA"
"-102.43","65.10","ROBERTSON LAKE (AUT)","2303610","2020-04-21 10:00","2020","04","21","10:00","-13.6","","-14.8","","91","","","M","21","","29","","","","98.15","","","","-24","","NA"
"-102.43","65.10","ROBERTSON LAKE (AUT)","2303610","2020-04-21 11:00","2020","04","21","11:00","-13.0","","-14.1","","92","","","M","23","","30","","","","98.14","","","","-23","","NA"
"-102.43","65.10","ROBERTSON LAKE (AUT)","2303610","2020-04-21 12:00","2020","04","21","12:00","-12.8","","-13.8","","92","","","M","23","","35","","","","98.13","","","","-24","","NA"
"-102.43","65.10","ROBERTSON LAKE (AUT)","2303610","2020-04-21 13:00","2020","04","21","13:00","-12.5","","-13.5","","92","","","M","23","","35","","","","98.10","","","","-23","","NA"
"-102.43","65.10","ROBERTSON LAKE (AUT)","2303610","2020-04-21 14:00","2020","04","21","14:00","-11.9","","-12.9","","92","","","M","23","","42","","","","98.08","","","","-24","","NA"
"-102.43","65.10","ROBERTSON LAKE (AUT)","2303610","2020-04-21 15:00","2020","04","21","15:00","-11.7","","-12.6","","93","","","M","23","","44","","","","98.08","","","","-23","","NA"
"-102.43","65.10","ROBERTSON LAKE (AUT)","2303610","2020-04-21 16:00","2020","04","21","16:00","-12.0","","-12.9","","93","","","M","22","","41","","","","98.06","","","","-24","","NA"
"-102.43","65.10","ROBERTSON LAKE (AUT)","2303610","2020-04-21 17:00","2020","04","21","17:00","-12.3","","-13.2","","93","","","M","22","","37","","","","98.07","","","","-23","","NA"
"-102.43","65.10","ROBERTSON LAKE (AUT)","2303610","2020-04-21 18:00","2020","04","21","18:00","-12.9","","-13.9","","93","","","M","23","","35","","","","98.06","","","","-24","","NA"
"-102.43","65.10","ROBERTSON LAKE (AUT)","2303610","2020-04-21 19:00","2020","04","21","19:00","-13.7","","-14.7","","92","","","M","23","","31","","","","98.04","","","","-25","","NA"
"-102.43","65.10","ROBERTSON LAKE (AUT)","2303610","2020-04-21 20:00","2020","04","21","20:00","-14.4","","-15.4","","92","","","M","22","","31","","","","98.02","","","","-25","","NA"
"-102.43","65.10","ROBERTSON LAKE (AUT)","2303610","2020-04-21 21:00","2020","04","21","21:00","-15.0","","-16.2","","91","","","M","21","","27","","","","97.99","","","","-26","","NA"
"-102.43","65.10","ROBERTSON LAKE (AUT)","2303610","2020-04-21 22:00","2020","04","21","22:00","-15.1","","-16.2","","91","","","M","20","","25","","","","97.93","","","","-25","","NA"
"-102.43","65.10","ROBERTSON LAKE (AUT)","2303610","2020-04-21 23:00","2020","04","21","23:00","-14.9","","-16.1","","91","","","M","21","","34","","","","97.85","","","","-27","","NA"
"-102.43","65.10","ROBERTSON LAKE (AUT)","2303610","2020-04-22 00:00","2020","04","22","00:00","-14.7","","-15.9","","91","","","M","21","","33","","","","97.80","","","","-26","","NA"
"-102.43","65.10","ROBERTSON LAKE (AUT)","2303610","2020-04-22 01:00","2020","04","22","01:00","-14.7","","-15.8","","91","","","M","20","","24","","","","97.75","","","","-25","","NA"
"-102.43","65.10","ROBERTSON LAKE (AUT)","2303610","2020-04-22 02:00","2020","04","22","02:00","-15.0","","-16.2","","91","","","M","18","","24","","","","97.67","","","","-25","","NA"
"-102.43","65.10","ROBERTSON LAKE (AUT)","2303610","2020-04-22 03:00","2020","04","22","03:00","-15.2","","-16.4","","91","","","M","20","","27","","","","97.63","","","","-26","","NA"
"-102.43","65.10","ROBERTSON LAKE (AUT)","2303610","2020-04-22 04:00","2020","04","22","04:00","-15.4","","-16.6","","90","","","M","17","","23","","","","97.56","","","","-25","","NA"
"-102.43","65.10","ROBERTSON LAKE (AUT)","2303610","2020-04-22 05:00","2020","04","22","05:00","-15.5","","-16.7","","90","","","M","19","","28","","","","97.53","","","","-26","","NA"
"-102.43","65.10","ROBERTSON LAKE (AUT)","2303610","2020-04-22 06:00","2020","04","22","06:00","-15.4","","-16.6","","90","","","M","19","","17","","","","97.50","","","","-24","","NA"
"-102.43","65.10","ROBERTSON LAKE (AUT)","2303610","2020-04-22 07:00","2020","04","22","07:00","-15.1","","-16.4","","90","","","M","21","","19","","","","97.48","","","","-24","","NA"
"-102.43","65.10","ROBERTSON LAKE (AUT)","2303610","2020-04-22 08:00","2020","04","22","08:00","-14.9","","-16.1","","90","","","M","25","","18","","","","97.46","","","","-24","","NA"
"-102.43","65.10","ROBERTSON LAKE (AUT)","2303610","2020-04-22 09:00","2020","04","22","09:00","-14.6","","-15.8","","91","","","M","26","","15","","","","97.47","","","","-22","","NA"
"-102.43","65.10","ROBERTSON LAKE (AUT)","2303610","2020-04-22 10:00","2020","04","22","10:00","-14.3","","-15.4","","91","","","M","28","","16","","","","97.48","","","","-22","","NA"
"-102.43","65.10","ROBERTSON LAKE (AUT)","2303610","2020-04-22 11:00","2020","04","22","11:00","-13.9","","-15.0","","91","","","M","35","","21","","","","97.51","","","","-23","","NA"
"-102.43","65.10","ROBERTSON LAKE (AUT)","2303610","2020-04-22 12:00","2020","04","22","12:00","-13.8","","-14.9","","92","","","M","36","","30","","","","97.54","","","","-24","","NA"
"-102.43","65.10","ROBERTSON LAKE (AUT)","2303610","2020-04-22 13:00","2020","04","22","13:00","-13.8","","-14.8","","92","","","M","36","","32","","","","97.59","","","","-25","","NA"
"-102.43","65.10","ROBERTSON LAKE (AUT)","2303610","2020-04-22 14:00","2020","04","22","14:00","-14.0","","-15.0","","92","","","M","36","","27","","","","97.67","","","","-24","","NA"
"-102.43","65.10","ROBERTSON LAKE (AUT)","2303610","2020-04-22 15:00","2020","04","22","15:00","-14.1","","-15.2","","92","","","M","36","","27","","","","97.73","","","","-24","","NA"
"-102.43","65.10","ROBERTSON LAKE (AUT)","2303610","2020-04-22 16:00","2020","04","22","16:00","-14.3","","-15.4","","92","","","M","35","","26","","","","97.78","","","","-24","","NA"
"-102.43","65.10","ROBERTSON LAKE (AUT)","2303610","2020-04-22 17:00","2020","04","22","17:00","-14.5","","-15.6","","92","","","M","36","","21","","","","97.82","","","","-24","","NA"
"-102.43","65.10","ROBERTSON LAKE (AUT)","2303610","2020-04-22 18:00","2020","04","22","18:00","-14.9","","-16.0","","91","","","M","35","","17","","","","97.87","","","","-23","","NA"
"-102.43","65.10","ROBERTSON LAKE (AUT)","2303610","2020-04-22 19:00","2020","04","22","19:00","-15.6","","-16.7","","91","","","M","34","","15","","","","97.89","","","","-24","","NA"
"-102.43","65.10","ROBERTSON LAKE (AUT)","2303610","2020-04-22 20:00","2020","04","22","20:00","-16.4","","-17.6","","91","","","M","32","","11","","","","97.93","","","","-23","","NA"
"-102.43","65.10","ROBERTSON LAKE (AUT)","2303610","2020-04-22 21:00","2020","04","22","21:00","-17.2","","-18.5","","90","","","M","32","","12","","","","97.93","","","","-25","","NA"
"-102.43","65.10","ROBERTSON LAKE (AUT)","2303610","2020-04-22 22:00","2020","04","22","22:00","-18.1","","-19.4","","89","","","M","31","","10","","","","97.93","","","","-25","","NA"
"-102.43","65.10","ROBERTSON LAKE (AUT)","2303610","2020-04-22 23:00","2020","04","22","23:00","-18.8","","-20.2","","89","","","M","30","","10","","","","97.95","","","","-26","","NA"
"-102.43","65.10","ROBERTSON LAKE (AUT)","2303610","2020-04-23 00:00","2020","04","23","00:00","-19.5","","-21.0","","88","","","M","29","","10","","","","97.95","","","","-27","","NA"
"-102.43","65.10","ROBERTSON LAKE (AUT)","2303610","2020-04-23 01:00","2020","04","23","01:00","-20.5","","-22.0","","87","","","M","26","","6","","","","97.95","","","","-26","","NA"
"-102.43","65.10","ROBERTSON LAKE (AUT)","2303610","2020-04-23 02:00","2020","04","23","02:00","-21.6","","-23.2","","87","","","M","28","","11","","","","97.96","","","","-30","","NA"
"-102.43","65.10","ROBERTSON LAKE (AUT)","2303610","2020-04-23 03:00","2020","04","23","03:00","-22.1","","-23.9","","86","","","M","26","","13","","","","98.00","","","","-31","","NA"
"-102.43","65.10","ROBERTSON LAKE (AUT)","2303610","2020-04-23 04:00","2020","04","23","04:00","-22.6","","-24.5","","85","","","M","27","","9","","","","98.02","","","","-30","","NA"
"-102.43","65.10","ROBERTSON LAKE (AUT)","2303610","2020-04-23 05:00","2020","04","23","05:00","-23.0","","-24.9","","84","","","M","27","","9","","","","98.03","","","","-30","","NA"
"-102.43","65.10","ROBERTSON LAKE (AUT)","2303610","2020-04-23 06:00","2020","04","23","06:00","-23.3","","-25.3","","84","","","M","25","","11","","","","98.04","","","","-32","","NA"
"-102.43","65.10","ROBERTSON LAKE (AUT)","2303610","2020-04-23 07:00","2020","04","23","07:00","-23.0","","-25.1","","84","","","M","26","","10","","","","98.06","","","","-31","","NA"
"-102.43","65.10","ROBERTSON LAKE (AUT)","2303610","2020-04-23 08:00","2020","04","23","08:00","-22.5","","-24.5","","84","","","M","23","","5","","","","98.08","","","","-27","","NA"
"-102.43","65.10","ROBERTSON LAKE (AUT)","2303610","2020-04-23 09:00","2020","04","23","09:00","-21.4","","-23.4","","84","","","M","25","","18","","","","98.08","","","","-32","","NA"
"-102.43","65.10","ROBERTSON LAKE (AUT)","2303610","2020-04-23 10:00","2020","04","23","10:00","-20.1","","-21.9","","85","","","M","24","","20","","","","98.10","","","","-31","","NA"
"-102.43","65.10","ROBERTSON LAKE (AUT)","2303610","2020-04-23 11:00","2020","04","23","11:00","-18.6","","-20.3","","86","","","M","23","","15","","","","98.11","","","","-27","","NA"
"-102.43","65.10","ROBERTSON LAKE (AUT)","2303610","2020-04-23 12:00","2020","04","23","12:00","-16.8","","-18.4","","87","","","M","23","","19","","","","98.13","","","","-26","","NA"
"-102.43","65.10","ROBERTSON LAKE (AUT)","2303610","2020-04-23 13:00","2020","04","23","13:00","-15.3","","-16.7","","89","","","M","24","","21","","","","98.16","","","","-25","","NA"
"-102.43","65.10","ROBERTSON LAKE (AUT)","2303610","2020-04-23 14:00","2020","04","23","14:00","-14.4","","-15.6","","91","","","M","24","","21","","","","98.19","","","","-24","","NA"
"-102.43","65.10","ROBERTSON LAKE (AUT)","2303610","2020-04-23 15:00","2020","04","23","15:00","-13.8","","-14.9","","91","","","M","25","","27","","","","98.22","","","","-24","","NA"
"-102.43","65.10","ROBERTSON LAKE (AUT)","2303610","2020-04-23 16:00","2020","04","23","16:00","-13.5","","-14.6","","92","","","M","24","","29","","","","98.25","","","","-24","","NA"
"-102.43","65.10","ROBERTSON LAKE (AUT)","2303610","2020-04-23 17:00","2020","04","23","17:00","-13.3","","-14.4","","92","","","M","23","","23","","","","98.29","","","","-23","","NA"
"-102.43","65.10","ROBERTSON LAKE (AUT)","2303610","2020-04-23 18:00","2020","04","23","18:00","-13.3","","-14.3","","92","","","M","24","","31","","","","98.30","","","","-24","","NA"
"-102.43","65.10","ROBERTSON LAKE (AUT)","2303610","2020-04-23 19:00","2020","04","23","19:00","-13.8","","-14.9","","92","","","M","24","","29","","","","98.35","","","","-24","","NA"
"-102.43","65.10","ROBERTSON LAKE (AUT)","2303610","2020-04-23 20:00","2020","04","23","20:00","-14.7","","-15.8","","91","","","M","23","","30","","","","98.38","","","","-26","","NA"
"-102.43","65.10","ROBERTSON LAKE (AUT)","2303610","2020-04-23 21:00","2020","04","23","21:00","-15.1","","-16.3","","91","","","M","23","","22","","","","98.41","","","","-25","","NA"
"-102.43","65.10","ROBERTSON LAKE (AUT)","2303610","2020-04-23 22:00","2020","04","23","22:00","-15.3","","-16.5","","91","","","M","22","","20","","","","98.42","","","","-25","","NA"
"-102.43","65.10","ROBERTSON LAKE (AUT)","2303610","2020-04-23 23:00","2020","04","23","23:00","-15.8","","-17.0","","90","","","M","23","","21","","","","98.42","","","","-25","","NA"
"-102.43","65.10","ROBERTSON LAKE (AUT)","2303610","2020-04-24 00:00","2020","04","24","00:00","-15.8","","-17.0","","90","","","M","24","","21","","","","98.45","","","","-25","","NA"
"-102.43","65.10","ROBERTSON LAKE (AUT)","2303610","2020-04-24 01:00","2020","04","24","01:00","-16.6","","-17.9","","90","","","M","24","","21","","","","98.46","","","","-26","","NA"
"-102.43","65.10","ROBERTSON LAKE (AUT)","2303610","2020-04-24 02:00","2020","04","24","02:00","-17.8","","-19.2","","89","","","M","25","","27","","","","98.51","","","","-29","","NA"
"-102.43","65.10","ROBERTSON LAKE (AUT)","2303610","2020-04-24 03:00","2020","04","24","03:00","-17.5","","-18.9","","88","","","M","24","","28","","","","98.52","","","","-29","","NA"
"-102.43","65.10","ROBERTSON LAKE (AUT)","2303610","2020-04-24 04:00","2020","04","24","04:00","-17.6","","-19.0","","89","","","M","24","","30","","","","98.57","","","","-29","","NA"
"-102.43","65.10","ROBERTSON LAKE (AUT)","2303610","2020-04-24 05:00","2020","04","24","05:00","-17.9","","-19.4","","88","","","M","25","","26","","","","98.61","","","","-29","","NA"
"-102.43","65.10","ROBERTSON LAKE (AUT)","2303610","2020-04-24 06:00","2020","04","24","06:00","-18.8","","-20.3","","88","","","M","27","","26","","","","98.69","","","","-30","","NA"
"-102.43","65.10","ROBERTSON LAKE (AUT)","2303610","2020-04-24 07:00","2020","04","24","07:00","-19.7","","-21.2","","87","","","M","29","","17","","","","98.75","","","","-29","","NA"
"-102.43","65.10","ROBERTSON LAKE (AUT)","2303610","2020-04-24 08:00","2020","04","24","08:00","-19.1","","-20.8","","87","","","M","28","","13","","","","98.81","","","","-27","","NA"
"-102.43","65.10","ROBERTSON LAKE (AUT)","2303610","2020-04-24 09:00","2020","04","24","09:00","-19.2","","-20.8","","87","","","M","28","","15","","","","98.86","","","","-28","","NA"
"-102.43","65.10","ROBERTSON LAKE (AUT)","2303610","2020-04-24 10:00","2020","04","24","10:00","-18.6","","-20.2","","87","","","M","29","","14","","","","98.87","","","","-27","","NA"
"-102.43","65.10","ROBERTSON LAKE (AUT)","2303610","2020-04-24 11:00","2020","04","24","11:00","-17.8","","-19.3","","88","","","M","29","","16","","","","98.93","","","","-27","","NA"
"-102.43","65.10","ROBERTSON LAKE (AUT)","2303610","2020-04-24 12:00","2020","04","24","12:00","-17.0","","-18.5","","88","","","M","28","","13","","","","98.99","","","","-25","","NA"
"-102.43","65.10","ROBERTSON LAKE (AUT)","2303610","2020-04-24 13:00","2020","04","24","13:00","-16.1","","-17.5","","89","","","M","26","","12","","","","99.02","","","","-23","","NA"
"-102.43","65.10","ROBERTSON LAKE (AUT)","2303610","2020-04-24 14:00","2020","04","24","14:00","-15.3","","-16.6","","90","","","M","25","","15","","","","99.04","","","","-23","","NA"
"-102.43","65.10","ROBERTSON LAKE (AUT)","2303610","2020-04-24 15:00","2020","04","24","15:00","-14.6","","-15.8","","90","","","M","25","","16","","","","99.07","","","","-23","","NA"
"-102.43","65.10","ROBERTSON LAKE (AUT)","2303610","2020-04-24 16:00","2020","04","24","16:00","-14.0","","-15.2","","91","","","M","24","","15","","","","99.09","","","","-22","","NA"
"-102.43","65.10","ROBERTSON LAKE (AUT)","2303610","2020-04-24 17:00","2020","04","24","17:00","-13.6","","-14.8","","91","","","M","23","","8","","","","99.10","","","","-19","","NA"
"-102.43","65.10","ROBERTSON LAKE (AUT)","2303610","2020-04-24 18:00","2020","04","24","18:00","-13.4","","-14.5","","91","","","M","24","","13","","","","99.11","","","","-20","","NA"
"-102.43","65.10","ROBERTSON LAKE (AUT)","2303610","2020-04-24 19:00","2020","04","24","19:00","-13.9","","-15.0","","92","","","M","22","","15","","","","99.12","","","","-22","","NA"
"-102.43","65.10","ROBERTSON LAKE (AUT)","2303610","2020-04-24 20:00","2020","04","24","20:00","-14.6","","-15.6","","91","","","M","21","","15","","","","99.10","","","","-22","","NA"
"-102.43","65.10","ROBERTSON LAKE (AUT)","2303610","2020-04-24 21:00","2020","04","24","21:00","-15.0","","-16.1","","91","","","M","25","","11","","","","99.09","","","","-22","","NA"
"-102.43","65.10","ROBERTSON LAKE (AUT)","2303610","2020-04-24 22:00","2020","04","24","22:00","-15.2","","-16.3","","91","","","M","23","","23","","","","99.06","","","","-25","","NA"
"-102.43","65.10","ROBERTSON LAKE (AUT)","2303610","2020-04-24 23:00","2020","04","24","23:00","-15.7","","-16.9","","90","","","M","25","","25","","","","99.05","","","","-26","","NA"
"-102.43","65.10","ROBERTSON LAKE (AUT)","2303610","2020-04-25 00:00","2020","04","25","00:00","-18.3","","-19.5","","90","","","M","36","","23","","","","99.10","","","","-29","","NA"
"-102.43","65.10","ROBERTSON LAKE (AUT)","2303610","2020-04-25 01:00","2020","04","25","01:00","-19.0","","-20.4","","89","","","M","36","","18","","","","99.12","","","","-29","","NA"
"-102.43","65.10","ROBERTSON LAKE (AUT)","2303610","2020-04-25 02:00","2020","04","25","02:00","-20.3","","-21.8","","88","","","M","36","","19","","","","99.17","","","","-31","","NA"
"-102.43","65.10","ROBERTSON LAKE (AUT)","2303610","2020-04-25 03:00","2020","04","25","03:00","-21.2","","-22.8","","87","","","M","35","","17","","","","99.20","","","","-31","","NA"
"-102.43","65.10","ROBERTSON LAKE (AUT)","2303610","2020-04-25 04:00","2020","04","25","04:00","-22.0","","-23.7","","86","","","M","36","","12","","","","99.21","","","","-30","","NA"
"-102.43","65.10","ROBERTSON LAKE (AUT)","2303610","2020-04-25 05:00","2020","04","25","05:00","-22.4","","-24.2","","85","","","M","36","","6","","","","99.21","","","","-28","","NA"
"-102.43","65.10","ROBERTSON LAKE (AUT)","2303610","2020-04-25 06:00","2020","04","25","06:00","-23.2","","-25.0","","85","","","M","34","","11","","","","99.22","","","","-31","","NA"
"-102.43","65.10","ROBERTSON LAKE (AUT)","2303610","2020-04-25 07:00","2020","04","25","07:00","-23.0","","-24.9","","84","","","M","31","","10","","","","99.21","","","","-31","","NA"
"-102.43","65.10","ROBERTSON LAKE (AUT)","2303610","2020-04-25 08:00","2020","04","25","08:00","-22.8","","-24.8","","84","","","M","33","","6","","","","99.20","","","","-28","","NA"
"-102.43","65.10","ROBERTSON LAKE (AUT)","2303610","2020-04-25 09:00","2020","04","25","09:00","-22.3","","-24.3","","84","","","M","33","","2","","","","99.18","","","","-24","","NA"
"-102.43","65.10","ROBERTSON LAKE (AUT)","2303610","2020-04-25 10:00","2020","04","25","10:00","-21.7","","-23.6","","84","","","M","31","","6","","","","99.17","","","","-27","","NA"
"-102.43","65.10","ROBERTSON LAKE (AUT)","2303610","2020-04-25 11:00","2020","04","25","11:00","-20.9","","-22.8","","85","","","M","34","","7","","","","99.15","","","","-27","","NA"
"-102.43","65.10","ROBERTSON LAKE (AUT)","2303610","2020-04-25 12:00","2020","04","25","12:00","-20.0","","-21.8","","85","","","M","1","","7","","","","99.11","","","","-26","","NA"
"-102.43","65.10","ROBERTSON LAKE (AUT)","2303610","2020-04-25 13:00","2020","04","25","13:00","-19.2","","-20.9","","86","","","M","36","","10","","","","99.07","","","","-26","","NA"
"-102.43","65.10","ROBERTSON LAKE (AUT)","2303610","2020-04-25 14:00","2020","04","25","14:00","-18.7","","-20.3","","87","","","M","3","","8","","","","99.09","","","","-25","","NA"
"-102.43","65.10","ROBERTSON LAKE (AUT)","2303610","2020-04-25 15:00","2020","04","25","15:00","-18.4","","-20.0","","88","","","M","3","","10","","","","99.07","","","","-25","","NA"
"-102.43","65.10","ROBERTSON LAKE (AUT)","2303610","2020-04-25 16:00","2020","04","25","16:00","-18.4","","-19.9","","88","","","M","5","","13","","","","99.04","","","","-26","","NA"
"-102.43","65.10","ROBERTSON LAKE (AUT)","2303610","2020-04-25 17:00","2020","04","25","17:00","-18.5","","-20.0","","88","","","M","5","","16","","","","99.00","","","","-28","","NA"
"-102.43","65.10","ROBERTSON LAKE (AUT)","2303610","2020-04-25 18:00","2020","04","25","18:00","-18.8","","-20.3","","88","","","M","6","","16","","","","98.97","","","","-28","","NA"
"-102.43","65.10","ROBERTSON LAKE (AUT)","2303610","2020-04-25 19:00","2020","04","25","19:00","-19.4","","-20.9","","87","","","M","6","","13","","","","98.92","","","","-28","","NA"
"-102.43","65.10","ROBERTSON LAKE (AUT)","2303610","2020-04-25 20:00","2020","04","25","20:00","-20.3","","-21.9","","87","","","M","5","","14","","","","98.90","","","","-29","","NA"
"-102.43","65.10","ROBERTSON LAKE (AUT)","2303610","2020-04-25 21:00","2020","04","25","21:00","-21.8","","-23.5","","86","","","M","5","","13","","","","98.87","","","","-31","","NA"
"-102.43","65.10","ROBERTSON LAKE (AUT)","2303610","2020-04-25 22:00","2020","04","25","22:00","-23.0","","-24.8","","85","","","M","4","","13","","","","98.84","","","","-32","","NA"
"-102.43","65.10","ROBERTSON LAKE (AUT)","2303610","2020-04-25 23:00","2020","04","25","23:00","-24.1","","-26.0","","84","","","M","4","","11","","","","98.82","","","","-33","","NA"
"-102.43","65.10","ROBERTSON LAKE (AUT)","2303610","2020-04-26 00:00","2020","04","26","00:00","-25.0","","-27.0","","83","","","M","3","","11","","","","98.79","","","","-34","","NA"
"-102.43","65.10","ROBERTSON LAKE (AUT)","2303610","2020-04-26 01:00","2020","04","26","01:00","-25.9","","-28.0","","82","","","M","3","","14","","","","98.77","","","","-36","","NA"
"-102.43","65.10","ROBERTSON LAKE (AUT)","2303610","2020-04-26 02:00","2020","04","26","02:00","-26.5","","-28.7","","81","","","M","2","","12","","","","98.76","","","","-36","","NA"
"-102.43","65.10","ROBERTSON LAKE (AUT)","2303610","2020-04-26 03:00","2020","04","26","03:00","-27.2","","-29.5","","81","","","M","2","","14","","","","98.75","","","","-38","","NA"
"-102.43","65.10","ROBERTSON LAKE (AUT)","2303610","2020-04-26 04:00","2020","04","26","04:00","-27.7","","-30.1","","80","","","M","3","","11","","","","98.73","","","","-37","","NA"
"-102.43","65.10","ROBERTSON LAKE (AUT)","2303610","2020-04-26 05:00","2020","04","26","05:00","-28.2","","-30.7","","79","","","M","3","","10","","","","98.73","","","","-37","","NA"
"-102.43","65.10","ROBERTSON LAKE (AUT)","2303610","2020-04-26 06:00","2020","04","26","06:00","-28.2","","-30.7","","79","","","M","5","","8","","","","98.74","","","","-36","","NA"
"-102.43","65.10","ROBERTSON LAKE (AUT)","2303610","2020-04-26 07:00","2020","04","26","07:00","-27.9","","-30.5","","79","","","M","2","","6","","","","98.72","","","","-34","","NA"
"-102.43","65.10","ROBERTSON LAKE (AUT)","2303610","2020-04-26 08:00","2020","04","26","08:00","-27.1","","-29.7","","79","","","M","1","","10","","","","98.72","","","","-36","","NA"
"-102.43","65.10","ROBERTSON LAKE (AUT)","2303610","2020-04-26 09:00","2020","04","26","09:00","-26.0","","-28.5","","79","","","M","1","","10","","","","98.69","","","","-34","","NA"
"-102.43","65.10","ROBERTSON LAKE (AUT)","2303610","2020-04-26 10:00","2020","04","26","10:00","-24.6","","-27.1","","80","","","M","1","","11","","","","98.71","","","","-33","","NA"
"-102.43","65.10","ROBERTSON LAKE (AUT)","2303610","2020-04-26 11:00","2020","04","26","11:00","-23.3","","-25.6","","82","","","M","2","","8","","","","98.71","","","","-30","","NA"
"-102.43","65.10","ROBERTSON LAKE (AUT)","2303610","2020-04-26 12:00","2020","04","26","12:00","-22.1","","-24.2","","83","","","M","2","","7","","","","98.73","","","","-28","","NA"
"-102.43","65.10","ROBERTSON LAKE (AUT)","2303610","2020-04-26 13:00","2020","04","26","13:00","-21.0","","-23.0","","84","","","M","2","","10","","","","98.73","","","","-28","","NA"
"-102.43","65.10","ROBERTSON LAKE (AUT)","2303610","2020-04-26 14:00","2020","04","26","14:00","-20.3","","-22.1","","85","","","M","1","","11","","","","98.72","","","","-28","","NA"
"-102.43","65.10","ROBERTSON LAKE (AUT)","2303610","2020-04-26 15:00","2020","04","26","15:00","-19.9","","-21.6","","86","","","M","2","","13","","","","98.76","","","","-28","","NA"
"-102.43","65.10","ROBERTSON LAKE (AUT)","2303610","2020-04-26 16:00","2020","04","26","16:00","-19.7","","-21.4","","87","","","M","3","","10","","","","98.78","","","","-27","","NA"
"-102.43","65.10","ROBERTSON LAKE (AUT)","2303610","2020-04-26 17:00","2020","04","26","17:00","-19.6","","-21.3","","87","","","M","3","","9","","","","98.78","","","","-26","","NA"
"-102.43","65.10","ROBERTSON LAKE (AUT)","2303610","2020-04-26 18:00","2020","04","26","18:00","-19.8","","-21.4","","87","","","M","3","","9","","","","98.79","","","","-27","","NA"
"-102.43","65.10","ROBERTSON LAKE (AUT)","2303610","2020-04-26 19:00","2020","04","26","19:00","-20.2","","-21.9","","87","","","M","4","","5","","","","98.79","","","","-25","","NA"
"-102.43","65.10","ROBERTSON LAKE (AUT)","2303610","2020-04-26 20:00","2020","04","26","20:00","-20.7","","-22.4","","86","","","M","6","","5","","","","98.78","","","","-25","","NA"
"-102.43","65.10","ROBERTSON LAKE (AUT)","2303610","2020-04-26 21:00","2020","04","26","21:00","-21.2","","-22.9","","86","","","M","10","","4","","","","98.80","","","","-25","","NA"
"-102.43","65.10","ROBERTSON LAKE (AUT)","2303610","2020-04-26 22:00","2020","04","26","22:00","-22.0","","-23.8","","85","","","M","16","","9","","","","98.81","","","","-29","","NA"
"-102.43","65.10","ROBERTSON LAKE (AUT)","2303610","2020-04-26 23:00","2020","04","26","23:00","-24.0","","-25.9","","85","","","M","15","","7","","","","98.80","","","","-30","","NA"
"-102.43","65.10","ROBERTSON LAKE (AUT)","2303610","2020-04-27 00:00","2020","04","27","00:00","-25.6","","-27.6","","83","","","M","18","","7","","","","98.79","","","","-32","","NA"
"-102.43","65.10","ROBERTSON LAKE (AUT)","2303610","2020-04-27 01:00","2020","04","27","01:00","-26.4","","-28.6","","82","","","M","20","","2","","","","98.78","","","","-28","","NA"
"-102.43","65.10","ROBERTSON LAKE (AUT)","2303610","2020-04-27 02:00","2020","04","27","02:00","-27.1","","-29.4","","81","","","M","28","","7","","","","98.78","","","","-34","","NA"
"-102.43","65.10","ROBERTSON LAKE (AUT)","2303610","2020-04-27 03:00","2020","04","27","03:00","-27.3","","-29.7","","80","","","M","26","","5","","","","98.77","","","","-33","","NA"
"-102.43","65.10","ROBERTSON LAKE (AUT)","2303610","2020-04-27 04:00","2020","04","27","04:00","-27.8","","-30.3","","80","","","M","21","","6","","","","98.76","","","","-34","","NA"
"-102.43","65.10","ROBERTSON LAKE (AUT)","2303610","2020-04-27 05:00","2020","04","27","05:00","-28.5","","-31.0","","79","","","M","21","","8","","","","98.75","","","","-36","","NA"
"-102.43","65.10","ROBERTSON LAKE (AUT)","2303610","2020-04-27 06:00","2020","04","27","06:00","-28.3","","-30.9","","78","","","M","21","","6","","","","98.75","","","","-35","","NA"
"-102.43","65.10","ROBERTSON LAKE (AUT)","2303610","2020-04-27 07:00","2020","04","27","07:00","-27.2","","-29.9","","78","","","M","22","","6","","","","98.74","","","","-33","","NA"
"-102.43","65.10","ROBERTSON LAKE (AUT)","2303610","2020-04-27 08:00","2020","04","27","08:00","-26.1","","-28.6","","79","","","M","23","","9","","","","98.72","","","","-34","","NA"
"-102.43","65.10","ROBERTSON LAKE (AUT)","2303610","2020-04-27 09:00","2020","04","27","09:00","-24.7","","-27.1","","80","","","M","23","","19","","","","98.72","","","","-36","","NA"
"-102.43","65.10","ROBERTSON LAKE (AUT)","2303610","2020-04-27 10:00","2020","04","27","10:00","-22.8","","-25.1","","81","","","M","23","","14","","","","98.73","","","","-32","","NA"
"-102.43","65.10","ROBERTSON LAKE (AUT)","2303610","2020-04-27 11:00","2020","04","27","11:00","-20.8","","-23.0","","83","","","M","22","","26","","","","98.67","","","","-33","","NA"
"-102.43","65.10","ROBERTSON LAKE (AUT)","2303610","2020-04-27 12:00","2020","04","27","12:00","-19.6","","-21.5","","85","","","M","22","","27","","","","98.70","","","","-31","","NA"
"-102.43","65.10","ROBERTSON LAKE (AUT)","2303610","2020-04-27 13:00","2020","04","27","13:00","-18.8","","-20.5","","86","","","M","22","","29","","","","98.65","","","","-31","","NA"
"-102.43","65.10","ROBERTSON LAKE (AUT)","2303610","2020-04-27 14:00","2020","04","27","14:00","-18.2","","-19.9","","87","","","M","21","","26","","","","98.68","","","","-29","","NA"
"-102.43","65.10","ROBERTSON LAKE (AUT)","2303610","2020-04-27 15:00","2020","04","27","15:00","-17.6","","-19.2","","88","","","M","21","","28","","","","98.63","","","","-29","","NA"
"-102.43","65.10","ROBERTSON LAKE (AUT)","2303610","2020-04-27 16:00","2020","04","27","16:00","-17.5","","-18.9","","88","","","M","20","","28","","","","98.57","","","","-29","","NA"
"-102.43","65.10","ROBERTSON LAKE (AUT)","2303610","2020-04-27 17:00","2020","04","27","17:00","-17.5","","-19.0","","88","","","M","20","","30","","","","98.50","","","","-29","","NA"
"-102.43","65.10","ROBERTSON LAKE (AUT)","2303610","2020-04-27 18:00","2020","04","27","18:00","-17.7","","-19.1","","88","","","M","18","","36","","","","98.42","","","","-31","","NA"
"-102.43","65.10","ROBERTSON LAKE (AUT)","2303610","2020-04-27 19:00","2020","04","27","19:00","-17.8","","-19.3","","88","","","M","18","","19","","","","98.47","","","","-27","","NA"
"-102.43","65.10","ROBERTSON LAKE (AUT)","2303610","2020-04-27 20:00","2020","04","27","20:00","-18.2","","-19.7","","88","","","M","18","","41","","","","98.35","","","","-32","","NA"
"-102.43","65.10","ROBERTSON LAKE (AUT)","2303610","2020-04-27 21:00","2020","04","27","21:00","-18.6","","-20.2","","87","","","M","18","","42","","","","98.32","","","","-33","","NA"
"-102.43","65.10","ROBERTSON LAKE (AUT)","2303610","2020-04-27 22:00","2020","04","27","22:00","-19.1","","-20.8","","87","","","M","18","","40","","","","98.28","","","","-33","","NA"
"-102.43","65.10","ROBERTSON LAKE (AUT)","2303610","2020-04-27 23:00","2020","04","27","23:00","-18.9","","-20.5","","87","","","M","20","","43","","","","98.28","","","","-33","","NA"
"-102.43","65.10","ROBERTSON LAKE (AUT)","2303610","2020-04-28 00:00","2020","04","28","00:00","-19.1","","-20.7","","87","","","M","19","","48","","","","98.20","","","","-34","","NA"
"-102.43","65.10","ROBERTSON LAKE (AUT)","2303610","2020-04-28 01:00","2020","04","28","01:00","-19.0","","-20.6","","87","","","M","20","","50","","","","98.16","","","","-34","","NA"
"-102.43","65.10","ROBERTSON LAKE (AUT)","2303610","2020-04-28 02:00","2020","04","28","02:00","-18.7","","-20.3","","87","","","M","19","","43","","","","98.13","","","","-33","","NA"
"-102.43","65.10","ROBERTSON LAKE (AUT)","2303610","2020-04-28 03:00","2020","04","28","03:00","-18.4","","-19.9","","87","","","M","19","","42","","","","98.10","","","","-32","","NA"
"-102.43","65.10","ROBERTSON LAKE (AUT)","2303610","2020-04-28 04:00","2020","04","28","04:00","-17.8","","-19.3","","88","","","M","21","","47","","","","98.06","","","","-32","","NA"
"-102.43","65.10","ROBERTSON LAKE (AUT)","2303610","2020-04-28 05:00","2020","04","28","05:00","-17.0","","-18.5","","88","","","M","21","","41","","","","98.08","","","","-30","","NA"
"-102.43","65.10","ROBERTSON LAKE (AUT)","2303610","2020-04-28 06:00","2020","04","28","06:00","-16.6","","-18.1","","89","","","M","21","","35","","","","98.06","","","","-29","","NA"
"-102.43","65.10","ROBERTSON LAKE (AUT)","2303610","2020-04-28 07:00","2020","04","28","07:00","-16.0","","-17.4","","89","","","M","21","","37","","","","98.02","","","","-28","","NA"
"-102.43","65.10","ROBERTSON LAKE (AUT)","2303610","2020-04-28 08:00","2020","04","28","08:00","-15.1","","-16.4","","90","","","M","20","","36","","","","98.02","","","","-27","","NA"
"-102.43","65.10","ROBERTSON LAKE (AUT)","2303610","2020-04-28 09:00","2020","04","28","09:00","-14.0","","-15.2","","91","","","M","21","","34","","","","98.03","","","","-25","","NA"
"-102.43","65.10","ROBERTSON LAKE (AUT)","2303610","2020-04-28 10:00","2020","04","28","10:00","-13.1","","-14.3","","91","","","M","21","","37","","","","98.02","","","","-25","","NA"
"-102.43","65.10","ROBERTSON LAKE (AUT)","2303610","2020-04-28 11:00","2020","04","28","11:00","-12.2","","-13.2","","92","","","M","20","","31","","","","98.00","","","","-23","","NA"
"-102.43","65.10","ROBERTSON LAKE (AUT)","2303610","2020-04-28 12:00","2020","04","28","12:00","-11.4","","-12.3","","93","","","M","19","","32","","","","98.00","","","","-22","","NA"
"-102.43","65.10","ROBERTSON LAKE (AUT)","2303610","2020-04-28 13:00","2020","04","28","13:00","-10.6","","-11.4","","94","","","M","18","","27","","","","97.99","","","","-20","","NA"
"-102.43","65.10","ROBERTSON LAKE (AUT)","2303610","2020-04-28 14:00","2020","04","28","14:00","-9.6","","-10.4","","94","","","M","19","","24","","","","97.98","","","","-18","","NA"
"-102.43","65.10","ROBERTSON LAKE (AUT)","2303610","2020-04-28 15:00","2020","04","28","15:00","-9.0","","-9.7","","95","","","M","18","","25","","","","97.95","","","","-17","","NA"
"-102.43","65.10","ROBERTSON LAKE (AUT)","2303610","2020-04-28 16:00","2020","04","28","16:00","-8.2","","-8.9","","95","","","M","19","","29","","","","97.94","","","","-17","","NA"
"-102.43","65.10","ROBERTSON LAKE (AUT)","2303610","2020-04-28 17:00","2020","04","28","17:00","-7.6","","-8.2","","96","","","M","20","","30","","","","97.90","","","","-16","","NA"
"-102.43","65.10","ROBERTSON LAKE (AUT)","2303610","2020-04-28 18:00","2020","04","28","18:00","-7.0","","-7.6","","96","","","M","19","","25","","","","97.87","","","","-15","","NA"
"-102.43","65.10","ROBERTSON LAKE (AUT)","2303610","2020-04-28 19:00","2020","04","28","19:00","-6.5","","-7.0","","96","","","M","20","","25","","","","97.85","","","","-14","","NA"
"-102.43","65.10","ROBERTSON LAKE (AUT)","2303610","2020-04-28 20:00","2020","04","28","20:00","-6.0","","-6.4","","97","","","M","19","","26","","","","97.81","","","","-14","","NA"
"-102.43","65.10","ROBERTSON LAKE (AUT)","2303610","2020-04-28 21:00","2020","04","28","21:00","-5.4","","-5.8","","97","","","M","20","","24","","","","97.83","","","","-13","","NA"
"-102.43","65.10","ROBERTSON LAKE (AUT)","2303610","2020-04-28 22:00","2020","04","28","22:00","-4.9","","-5.2","","97","","","M","20","","25","","","","97.80","","","","-12","","NA"
"-102.43","65.10","ROBERTSON LAKE (AUT)","2303610","2020-04-28 23:00","2020","04","28","23:00","-4.3","","-4.6","","98","","","M","21","","28","","","","97.80","","","","-12","","NA"
"-102.43","65.10","ROBERTSON LAKE (AUT)","2303610","2020-04-29 00:00","2020","04","29","00:00","-3.8","","-4.1","","98","","","M","20","","22","","","","97.78","","","","-10","","NA"
"-102.43","65.10","ROBERTSON LAKE (AUT)","2303610","2020-04-29 01:00","2020","04","29","01:00","-3.5","","-3.7","","99","","","M","21","","20","","","","97.77","","","","-10","","NA"
"-102.43","65.10","ROBERTSON LAKE (AUT)","2303610","2020-04-29 02:00","2020","04","29","02:00","-3.2","","-3.4","","99","","","M","21","","16","","","","97.75","","","","-9","","NA"
"-102.43","65.10","ROBERTSON LAKE (AUT)","2303610","2020-04-29 03:00","2020","04","29","03:00","-3.1","","-3.2","","99","","","M","19","","17","","","","97.70","","","","-9","","NA"
"-102.43","65.10","ROBERTSON LAKE (AUT)","2303610","2020-04-29 04:00","2020","04","29","04:00","-3.1","","-3.2","","99","","","M","18","","11","","","","97.69","","","","-7","","NA"
"-102.43","65.10","ROBERTSON LAKE (AUT)","2303610","2020-04-29 05:00","2020","04","29","05:00","-4.4","","-4.5","","100","","","M","14","","17","","","","97.60","","","","-10","","NA"
"-102.43","65.10","ROBERTSON LAKE (AUT)","2303610","2020-04-29 06:00","2020","04","29","06:00","-5.6","","-5.8","","99","","","M","17","","5","","","","97.59","","","","-8","","NA"
"-102.43","65.10","ROBERTSON LAKE (AUT)","2303610","2020-04-29 07:00","2020","04","29","07:00","-5.4","","-5.7","","98","","","M","17","","11","","","","97.57","","","","-10","","NA"
"-102.43","65.10","ROBERTSON LAKE (AUT)","2303610","2020-04-29 08:00","2020","04","29","08:00","-5.3","","-5.6","","98","","","M","20","","17","","","","97.54","","","","-11","","NA"
"-102.43","65.10","ROBERTSON LAKE (AUT)","2303610","2020-04-29 09:00","2020","04","29","09:00","-4.4","","-4.7","","98","","","M","19","","10","","","","97.54","","","","-9","","NA"
"-102.43","65.10","ROBERTSON LAKE (AUT)","2303610","2020-04-29 10:00","2020","04","29","10:00","-3.3","","-3.5","","98","","","M","23","","13","","","","97.56","","","","-8","","NA"
"-102.43","65.10","ROBERTSON LAKE (AUT)","2303610","2020-04-29 11:00","2020","04","29","11:00","-2.5","","-2.7","","98","","","M","25","","10","","","","97.54","","","","-6","","NA"
"-102.43","65.10","ROBERTSON LAKE (AUT)","2303610","2020-04-29 12:00","2020","04","29","12:00","-2.1","","-2.2","","99","","","M","27","","13","","","","97.57","","","","-7","","NA"
"-102.43","65.10","ROBERTSON LAKE (AUT)","2303610","2020-04-29 13:00","2020","04","29","13:00","-2.1","","-2.2","","100","","","M","32","","13","","","","97.60","","","","-7","","NA"
"-102.43","65.10","ROBERTSON LAKE (AUT)","2303610","2020-04-29 14:00","2020","04","29","14:00","-2.5","","-2.5","","100","","","M","1","","17","","","","97.66","","","","-8","","NA"
"-102.43","65.10","ROBERTSON LAKE (AUT)","2303610","2020-04-29 15:00","2020","04","29","15:00","-2.7","","-2.7","","100","","","M","3","","19","","","","97.72","","","","-8","","NA"
"-102.43","65.10","ROBERTSON LAKE (AUT)","2303610","2020-04-29 16:00","2020","04","29","16:00","-2.7","","-2.7","","100","","","M","4","","25","","","","97.76","","","","-9","","NA"
"-102.43","65.10","ROBERTSON LAKE (AUT)","2303610","2020-04-29 17:00","2020","04","29","17:00","-1.6","","-1.7","","100","","","M","3","","32","","","","97.84","","","","-9","","NA"
"-102.43","65.10","ROBERTSON LAKE (AUT)","2303610","2020-04-29 18:00","2020","04","29","18:00","-1.4","","-1.4","","100","","","M","3","","34","","","","97.92","","","","-9","","NA"
"-102.43","65.10","ROBERTSON LAKE (AUT)","2303610","2020-04-29 19:00","2020","04","29","19:00","-2.2","","-2.2","","100","","","M","2","","43","","","","97.96","","","","-11","","NA"
"-102.43","65.10","ROBERTSON LAKE (AUT)","2303610","2020-04-29 20:00","2020","04","29","20:00","-4.6","","-4.6","","100","","","M","2","","44","","","","98.03","","","","-14","","NA"
"-102.43","65.10","ROBERTSON LAKE (AUT)","2303610","2020-04-29 21:00","2020","04","29","21:00","-6.5","","-6.7","","99","","","M","3","","44","","","","98.13","","","","-16","","NA"
"-102.43","65.10","ROBERTSON LAKE (AUT)","2303610","2020-04-29 22:00","2020","04","29","22:00","-8.4","","-8.8","","97","","","M","2","","38","","","","98.29","","","","-18","","NA"
"-102.43","65.10","ROBERTSON LAKE (AUT)","2303610","2020-04-29 23:00","2020","04","29","23:00","-10.1","","-10.6","","96","","","M","3","","42","","","","98.33","","","","-21","","NA"
"-102.43","65.10","ROBERTSON LAKE (AUT)","2303610","2020-04-30 00:00","2020","04","30","00:00","-10.3","","-11.0","","95","","","M","3","","37","","","","98.45","","","","-21","","NA"
"-102.43","65.10","ROBERTSON LAKE (AUT)","2303610","2020-04-30 01:00","2020","04","30","01:00","-10.1","","-10.7","","95","","","M","3","","36","","","","98.51","","","","-20","","NA"
"-102.43","65.10","ROBERTSON LAKE (AUT)","2303610","2020-04-30 02:00","2020","04","30","02:00","-10.0","","-10.7","","95","","","M","3","","38","","","","98.62","","","","-21","","NA"
"-102.43","65.10","ROBERTSON LAKE (AUT)","2303610","2020-04-30 03:00","2020","04","30","03:00","-10.4","","-11.0","","95","","","M","2","","40","","","","98.73","","","","-21","","NA"
"-102.43","65.10","ROBERTSON LAKE (AUT)","2303610","2020-04-30 04:00","2020","04","30","04:00","-11.2","","-11.9","","95","","","M","3","","42","","","","98.77","","","","-23","","NA"
"-102.43","65.10","ROBERTSON LAKE (AUT)","2303610","2020-04-30 05:00","2020","04","30","05:00","-12.1","","-12.9","","94","","","M","2","","42","","","","98.87","","","","-24","","NA"
"-102.43","65.10","ROBERTSON LAKE (AUT)","2303610","2020-04-30 06:00","2020","04","30","06:00","-13.3","","-14.1","","93","","","M","2","","36","","","","98.96","","","","-25","","NA"
"-102.43","65.10","ROBERTSON LAKE (AUT)","2303610","2020-04-30 07:00","2020","04","30","07:00","-14.2","","-15.2","","92","","","M","3","","33","","","","99.04","","","","-25","","NA"
"-102.43","65.10","ROBERTSON LAKE (AUT)","2303610","2020-04-30 08:00","2020","04","30","08:00","-14.2","","-15.3","","92","","","M","3","","29","","","","99.14","","","","-25","","NA"
"-102.43","65.10","ROBERTSON LAKE (AUT)","2303610","2020-04-30 09:00","2020","04","30","09:00","-14.4","","-15.4","","92","","","M","2","","31","","","","99.20","","","","-25","","NA"
"-102.43","65.10","ROBERTSON LAKE (AUT)","2303610","2020-04-30 10:00","2020","04","30","10:00","-14.0","","-15.1","","92","","","M","3","","33","","","","99.25","","","","-25","","NA"
"-102.43","65.10","ROBERTSON LAKE (AUT)","2303610","2020-04-30 11:00","2020","04","30","11:00"
"-102.43","65.10","ROBERTSON LAKE (AUT)","2303610","2020-04-30 12:00","2020","04","30","12:00"
"-102.43","65.10","ROBERTSON LAKE (AUT)","2303610","2020-04-30 13:00","2020","04","30","13:00","-12.1","","-13.0","","93","","","M","3","","29","","","","99.42","","","","-22","","NA"
"-102.43","65.10","ROBERTSON LAKE (AUT)","2303610","2020-04-30 14:00","2020","04","30","14:00","-11.7","","-12.5","","94","","","M","4","","26","","","","99.50","","","","-21","","NA"
"-102.43","65.10","ROBERTSON LAKE (AUT)","2303610","2020-04-30 15:00","2020","04","30","15:00","-11.6","","-12.4","","94","","","M","4","","26","","","","99.53","","","","-21","","NA"
"-102.43","65.10","ROBERTSON LAKE (AUT)","2303610","2020-04-30 16:00","2020","04","30","16:00","-11.5","","-12.3","","94","","","M","4","","24","","","","99.59","","","","-21","","NA"
"-102.43","65.10","ROBERTSON LAKE (AUT)","2303610","2020-04-30 17:00","2020","04","30","17:00","-11.6","","-12.4","","94","","","M","5","","21","","","","99.63","","","","-20","","NA"
"-102.43","65.10","ROBERTSON LAKE (AUT)","2303610","2020-04-30 18:00","2020","04","30","18:00","-11.9","","-12.7","","94","","","M","5","","22","","","","99.66","","","","-21","","NA"
"-102.43","65.10","ROBERTSON LAKE (AUT)","2303610","2020-04-30 19:00","2020","04","30","19:00","-12.4","","-13.2","","94","","","M","5","","19","","","","99.70","","","","-21","","NA"
"-102.43","65.10","ROBERTSON LAKE (AUT)","2303610","2020-04-30 20:00","2020","04","30","20:00","-13.3","","-14.1","","93","","","M","5","","17","","","","99.75","","","","-21","","NA"
"-102.43","65.10","ROBERTSON LAKE (AUT)","2303610","2020-04-30 21:00","2020","04","30","21:00","-13.7","","-14.7","","93","","","M","6","","15","","","","99.78","","","","-21","","NA"
"-102.43","65.10","ROBERTSON LAKE (AUT)","2303610","2020-04-30 22:00","2020","04","30","22:00","-14.6","","-15.6","","92","","","M","6","","10","","","","99.80","","","","-21","","NA"
"-102.43","65.10","ROBERTSON LAKE (AUT)","2303610","2020-04-30 23:00","2020","04","30","23:00","-15.5","","-16.6","","92","","","M","5","","13","","","","99.79","","","","-23","","NA"
