"Longitude (x)","Latitude (y)","Station Name","Climate ID","Date/Time (LST)","Year","Month","Day","Time (LST)","Temp (°C)","Temp Flag","Dew Point Temp (°C)","Dew Point Temp Flag","Rel Hum (%)","Rel Hum Flag","Precip. Amount (mm)","Precip. Amount Flag","Wind Dir (10s deg)","Wind Dir Flag","Wind Spd (km/h)","Wind Spd Flag","Visibility (km)","Visibility Flag","Stn Press (kPa)","Stn Press Flag","Hmdx","Hmdx Flag","Wind Chill","Wind Chill Flag","Weather"
"-128.58","54.47","TERRACE A","1068134","2020-01-01 00:00","2020","01","01","00:00","2.1","","1.1","","94","","","","35","","21","","8.1","","96.61","","","","","","Fog"
"-128.58","54.47","TERRACE A","1068134","2020-01-01 01:00","2020","01","01","01:00","2.4","","1.2","","92","","","","35","","29","","8.1","","96.63","","","","","","Snow,Fog"
"-128.58","54.47","TERRACE A","1068134","2020-01-01 02:00","2020","01","01","02:00","2.6","","1.3","","92","","","","1","","25","","6.4","","96.68","","","","","","Rain,Snow,Fog"
"-128.58","54.47","TERRACE A","1068134","2020-01-01 03:00","2020","01","01","03:00","1.6","","1.2","","97","","","","4","","8","","4.8","","96.76","","","","","","Rain,Snow,Fog"
"-128.58","54.47","TERRACE A","1068134","2020-01-01 04:00","2020","01","01","04:00","1.1","","1.0","","99","","","","10","","8","","1.2","","96.83","","","","","","Rain,Fog"
"-128.58","54.47","TERRACE A","1068134","2020-01-01 05:00","2020","01","01","05:00","1.5","","1.3","","99","","","","17","","16","","4.8","","96.88","","","","","","Rain,Fog"
"-128.58","54.47","TERRACE A","1068134","2020-01-01 06:00","2020","01","01","06:00","1.5","","1.3","","99","","","","16","","12","","4.8","","96.89","","","","","","Rain,Fog"
"-128.58","54.47","TERRACE A","1068134","2020-01-01 07:00","2020","01","01","07:00","2.0","","1.6","","97","","","","19","","21","","4.8","","96.91","","","","","","Rain,Fog"
"-128.58","54.47","TERRACE A","1068134","2020-01-01 08:00","2020","01","01","08:00","2.1","","1.9","","99","","","","19","","18","","2.4","","96.90","","","","","","Rain,Fog"
"-128.58","54.47","TERRACE A","1068134","2020-01-01 09:00","2020","01","01","09:00","2.0","","1.7","","98","","","","19","","15","","8.1","","96.97","","","","","","Rain,Fog"
"-128.58","54.47","TERRACE A","1068134","2020-01-01 10:00","2020","01","01","10:00","2.7","","1.8","","94","","","","18","","18","","8.1","","97.07","","","","","","Rain,Fog"
"-128.58","54.47","TERRACE A","1068134","2020-01-01 11:00","2020","01","01","11:00","2.7","","2.4","","98","","","","18","","17","","4.8","","97.13","","","","","","Rain,Fog"
"-128.58","54.47","TERRACE A","1068134","2020-01-01 12:00","2020","01","01","12:00","2.6","","1.0","","89","","","","21","","19","","8.1","","97.29","","","","","","Rain,Fog"
"-128.58","54.47","TERRACE A","1068134","2020-01-01 13:00","2020","01","01","13:00","1.8","","-0.3","","86","","","","27","","16","","16.1","","97.47","","","","","","Rain"
"-128.58","54.47","TERRACE A","1068134","2020-01-01 14:00","2020","01","01","14:00","1.5","","-1.3","","82","","","","24","","11","","16.1","","97.62","","","","","","Rain"
"-128.58","54.47","TERRACE A","1068134","2020-01-01 15:00","2020","01","01","15:00","1.8","","-1.2","","80","","","","22","","4","","24.1","","97.69","","","","","","NA"
"-128.58","54.47","TERRACE A","1068134","2020-01-01 16:00","2020","01","01","16:00","0.6","","-0.9","","90","","","","19","","21","","32.2","","97.77","","","","","","Mostly Cloudy"
"-128.58","54.47","TERRACE A","1068134","2020-01-01 17:00","2020","01","01","17:00","-0.1","","-1.5","","90","","","","19","","16","","24.1","","97.85","","","","-5","","Snow Showers"
"-128.58","54.47","TERRACE A","1068134","2020-01-01 18:00","2020","01","01","18:00","-0.3","","-1.1","","95","","","","19","","21","","24.1","","97.94","","","","-6","","Snow Showers"
"-128.58","54.47","TERRACE A","1068134","2020-01-01 19:00","2020","01","01","19:00","0.1","","-1.0","","93","","","","19","","12","","12.9","","98.04","","","","","","Snow"
"-128.58","54.47","TERRACE A","1068134","2020-01-01 20:00","2020","01","01","20:00","-0.2","","-1.1","","94","","","","20","","11","","9.7","","98.13","","","","-4","","Snow"
"-128.58","54.47","TERRACE A","1068134","2020-01-01 21:00","2020","01","01","21:00","-0.3","","-2.2","","87","","","","25","","17","","9.7","","98.22","","","","-5","","Snow"
"-128.58","54.47","TERRACE A","1068134","2020-01-01 22:00","2020","01","01","22:00","-0.6","","-1.9","","90","","","","18","","10","","9.7","","98.27","","","","-4","","Snow"
"-128.58","54.47","TERRACE A","1068134","2020-01-01 23:00","2020","01","01","23:00","-0.7","","-1.9","","92","","","","18","","11","","9.7","","98.36","","","","-4","","Snow"
"-128.58","54.47","TERRACE A","1068134","2020-01-02 00:00","2020","01","02","00:00","-0.7","","-1.9","","92","","","","22","","11","","9.7","","98.44","","","","-4","","Snow"
"-128.58","54.47","TERRACE A","1068134","2020-01-02 01:00","2020","01","02","01:00","-1.1","","-2.4","","91","","","","22","","8","","16.1","","98.55","","","","-4","","Snow Showers"
"-128.58","54.47","TERRACE A","1068134","2020-01-02 02:00","2020","01","02","02:00","-1.2","","-2.6","","91","","","","26","","13","","24.1","","98.58","","","","-5","","NA"
"-128.58","54.47","TERRACE A","1068134","2020-01-02 03:00","2020","01","02","03:00","-1.6","","-3.3","","88","","","","21","","14","","24.1","","98.65","","","","-6","","NA"
"-128.58","54.47","TERRACE A","1068134","2020-01-02 04:00","2020","01","02","04:00","-1.5","","-3.1","","89","","","","22","","9","","24.1","","98.73","","","","-5","","Mostly Cloudy"
"-128.58","54.47","TERRACE A","1068134","2020-01-02 05:00","2020","01","02","05:00","-1.7","","-3.8","","86","","","","18","","22","","24.1","","98.72","","","","-8","","NA"
"-128.58","54.47","TERRACE A","1068134","2020-01-02 06:00","2020","01","02","06:00","-1.5","","-3.5","","86","","","","22","","20","","24.1","","98.77","","","","-7","","NA"
"-128.58","54.47","TERRACE A","1068134","2020-01-02 07:00","2020","01","02","07:00","-2.8","","-4.5","","88","","","","18","","14","","24.1","","98.78","","","","-8","","Mostly Cloudy"
"-128.58","54.47","TERRACE A","1068134","2020-01-02 08:00","2020","01","02","08:00","-2.9","","-4.0","","92","","","","17","","13","","32.2","","98.81","","","","-8","","NA"
"-128.58","54.47","TERRACE A","1068134","2020-01-02 09:00","2020","01","02","09:00","-3.8","","-4.6","","94","","","","36","","2","","32.2","","98.83","","","","-5","","NA"
"-128.58","54.47","TERRACE A","1068134","2020-01-02 10:00","2020","01","02","10:00","-2.6","","-3.3","","95","","","","2","","6","","32.2","","98.89","","","","-5","","Cloudy"
"-128.58","54.47","TERRACE A","1068134","2020-01-02 11:00","2020","01","02","11:00","-2.3","","-3.4","","92","","","","36","","2","","32.2","","98.92","","","","-3","","NA"
"-128.58","54.47","TERRACE A","1068134","2020-01-02 12:00","2020","01","02","12:00","-2.8","","-4.1","","91","","","","33","","8","","24.1","","98.88","","","","-6","","NA"
"-128.58","54.47","TERRACE A","1068134","2020-01-02 13:00","2020","01","02","13:00","-2.7","","-4.1","","90","","","","35","","10","","24.1","","98.74","","","","-7","","Mostly Cloudy"
"-128.58","54.47","TERRACE A","1068134","2020-01-02 14:00","2020","01","02","14:00","-2.4","","-4.1","","88","","","","34","","22","","32.2","","98.69","","","","-9","","NA"
"-128.58","54.47","TERRACE A","1068134","2020-01-02 15:00","2020","01","02","15:00","-2.1","","-3.8","","89","","","","34","","19","","32.2","","98.62","","","","-8","","NA"
"-128.58","54.47","TERRACE A","1068134","2020-01-02 16:00","2020","01","02","16:00","-1.7","","-4.6","","80","","","","36","","23","","32.2","","98.47","","","","-8","","Cloudy"
"-128.58","54.47","TERRACE A","1068134","2020-01-02 17:00","2020","01","02","17:00","-1.8","","-4.8","","80","","","","36","","27","","32.2","","98.39","","","","-8","","NA"
"-128.58","54.47","TERRACE A","1068134","2020-01-02 18:00","2020","01","02","18:00","-1.7","","-5.6","","75","","","","1","","34","","24.1","","98.27","","","","-9","","NA"
"-128.58","54.47","TERRACE A","1068134","2020-01-02 19:00","2020","01","02","19:00","-2.0","","-5.4","","77","","","","36","","24","","24.1","","98.10","","","","-8","","Snow"
"-128.58","54.47","TERRACE A","1068134","2020-01-02 20:00","2020","01","02","20:00","-1.8","","-5.7","","75","","","","36","","26","","24.1","","97.99","","","","-8","","Snow Showers"
"-128.58","54.47","TERRACE A","1068134","2020-01-02 21:00","2020","01","02","21:00","-2.0","","-5.4","","77","","","","1","","30","","24.1","","97.92","","","","-9","","Snow Showers"
"-128.58","54.47","TERRACE A","1068134","2020-01-02 22:00","2020","01","02","22:00","-2.5","","-4.5","","86","","","","1","","27","","9.7","","97.77","","","","-9","","Snow,Blowing Snow"
"-128.58","54.47","TERRACE A","1068134","2020-01-02 23:00","2020","01","02","23:00","-3.1","","-3.7","","95","","","","36","","31","","1.6","","97.64","","","","-11","","Snow,Blowing Snow"
"-128.58","54.47","TERRACE A","1068134","2020-01-03 00:00","2020","01","03","00:00","-3.1","","-3.9","","95","","","","36","","34","","1.0","","97.43","","","","-11","","Snow,Blowing Snow"
"-128.58","54.47","TERRACE A","1068134","2020-01-03 01:00","2020","01","03","01:00","-3.1","","-3.8","","95","","","","36","","31","","0.8","","97.32","","","","-11","","Moderate Snow,Blowing Snow"
"-128.58","54.47","TERRACE A","1068134","2020-01-03 02:00","2020","01","03","02:00","-3.0","","-3.6","","96","","","","35","","26","","0.8","","97.30","","","","-10","","Moderate Snow,Blowing Snow"
"-128.58","54.47","TERRACE A","1068134","2020-01-03 03:00","2020","01","03","03:00","-3.0","","-3.6","","95","","","","36","","28","","0.8","","97.24","","","","-10","","Moderate Snow,Blowing Snow"
"-128.58","54.47","TERRACE A","1068134","2020-01-03 04:00","2020","01","03","04:00","-2.7","","-3.7","","93","","","","36","","34","","1.6","","97.12","","","","-10","","Snow,Blowing Snow"
"-128.58","54.47","TERRACE A","1068134","2020-01-03 05:00","2020","01","03","05:00","-2.6","","-3.9","","91","","","","36","","28","","9.7","","97.04","","","","-10","","Snow,Blowing Snow"
"-128.58","54.47","TERRACE A","1068134","2020-01-03 06:00","2020","01","03","06:00","-2.6","","-4.2","","89","","","","36","","32","","6.4","","96.91","","","","-10","","Snow,Blowing Snow"
"-128.58","54.47","TERRACE A","1068134","2020-01-03 07:00","2020","01","03","07:00","-2.9","","-3.6","","95","","","","36","","28","","1.6","","96.81","","","","-10","","Snow,Blowing Snow"
"-128.58","54.47","TERRACE A","1068134","2020-01-03 08:00","2020","01","03","08:00","-2.9","","-3.6","","95","","","","36","","26","","1.2","","96.68","","","","-10","","Snow,Blowing Snow"
"-128.58","54.47","TERRACE A","1068134","2020-01-03 09:00","2020","01","03","09:00","-2.9","","-3.6","","95","","","","1","","32","","1.6","","96.59","","","","-10","","Snow,Blowing Snow"
"-128.58","54.47","TERRACE A","1068134","2020-01-03 10:00","2020","01","03","10:00","-2.8","","-3.5","","95","","","","1","","35","","1.2","","96.54","","","","-11","","Snow,Blowing Snow"
"-128.58","54.47","TERRACE A","1068134","2020-01-03 11:00","2020","01","03","11:00","-2.8","","-3.4","","95","","","","36","","33","","1.2","","96.42","","","","-10","","Snow,Blowing Snow"
"-128.58","54.47","TERRACE A","1068134","2020-01-03 12:00","2020","01","03","12:00","-2.7","","-3.4","","95","","","","36","","28","","0.8","","96.27","","","","-10","","Snow,Blowing Snow"
"-128.58","54.47","TERRACE A","1068134","2020-01-03 13:00","2020","01","03","13:00","-2.6","","-3.3","","95","","","","36","","31","","0.8","","96.10","","","","-10","","Moderate Snow,Blowing Snow"
"-128.58","54.47","TERRACE A","1068134","2020-01-03 14:00","2020","01","03","14:00","-2.6","","-3.3","","95","","","","36","","34","","0.8","","95.98","","","","-10","","Moderate Snow,Blowing Snow"
"-128.58","54.47","TERRACE A","1068134","2020-01-03 15:00","2020","01","03","15:00","-2.5","","-3.2","","95","","","","36","","28","","0.6","","95.81","","","","-10","","Moderate Snow,Blowing Snow"
"-128.58","54.47","TERRACE A","1068134","2020-01-03 16:00","2020","01","03","16:00","-2.5","","-3.1","","96","","","","2","","18","","0.6","","95.69","","","","-8","","Moderate Snow,Blowing Snow"
"-128.58","54.47","TERRACE A","1068134","2020-01-03 17:00","2020","01","03","17:00","-2.5","","-3.0","","96","","","","6","","15","","1.2","","95.62","","","","-7","","Snow"
"-128.58","54.47","TERRACE A","1068134","2020-01-03 18:00","2020","01","03","18:00","-2.5","","-3.0","","97","","","","9","","8","","0.8","","95.69","","","","-6","","Moderate Snow"
"-128.58","54.47","TERRACE A","1068134","2020-01-03 19:00","2020","01","03","19:00","-2.2","","-2.8","","96","","","","14","","17","","1.6","","95.81","","","","-8","","Snow"
"-128.58","54.47","TERRACE A","1068134","2020-01-03 20:00","2020","01","03","20:00","-1.8","","-2.6","","95","","","","18","","30","","2.4","","95.94","","","","-9","","Snow"
"-128.58","54.47","TERRACE A","1068134","2020-01-03 21:00","2020","01","03","21:00","-0.1","","-1.5","","90","","","","19","","25","","6.4","","96.23","","","","-6","","Snow"
"-128.58","54.47","TERRACE A","1068134","2020-01-03 22:00","2020","01","03","22:00","0.5","","-0.2","","95","","","","20","","29","","8.1","","96.35","","","","","","Snow"
"-128.58","54.47","TERRACE A","1068134","2020-01-03 23:00","2020","01","03","23:00","0.8","","-0.1","","94","","","","18","","29","","6.4","","96.55","","","","","","Snow"
"-128.58","54.47","TERRACE A","1068134","2020-01-04 00:00","2020","01","04","00:00","0.6","","-0.2","","95","","","","19","","27","","8.1","","96.70","","","","","","Snow"
"-128.58","54.47","TERRACE A","1068134","2020-01-04 01:00","2020","01","04","01:00","0.6","","-0.4","","93","","","","25","","18","","8.1","","96.87","","","","","","Snow"
"-128.58","54.47","TERRACE A","1068134","2020-01-04 02:00","2020","01","04","02:00","0.5","","-1.0","","90","","","","17","","32","","16.1","","97.09","","","","","","Snow"
"-128.58","54.47","TERRACE A","1068134","2020-01-04 03:00","2020","01","04","03:00","0.3","","-1.2","","89","","","","18","","22","","16.1","","97.22","","","","","","Snow"
"-128.58","54.47","TERRACE A","1068134","2020-01-04 04:00","2020","01","04","04:00","0.2","","-1.4","","89","","","","18","","26","","32.2","","97.35","","","","","","Cloudy"
"-128.58","54.47","TERRACE A","1068134","2020-01-04 05:00","2020","01","04","05:00","0.0","","-1.8","","87","","","","19","","21","","32.2","","97.47","","","","-5","","NA"
"-128.58","54.47","TERRACE A","1068134","2020-01-04 06:00","2020","01","04","06:00","-0.5","","-1.8","","91","","","","20","","17","","16.1","","97.55","","","","-5","","NA"
"-128.58","54.47","TERRACE A","1068134","2020-01-04 07:00","2020","01","04","07:00","-0.6","","-2.1","","90","","","","15","","11","","24.1","","97.64","","","","-4","","Cloudy"
"-128.58","54.47","TERRACE A","1068134","2020-01-04 08:00","2020","01","04","08:00","-0.3","","-1.3","","93","","","","17","","18","","24.1","","97.75","","","","-5","","NA"
"-128.58","54.47","TERRACE A","1068134","2020-01-04 09:00","2020","01","04","09:00","-0.3","","-0.9","","96","","","","18","","12","","8.1","","97.84","","","","-4","","Snow"
"-128.58","54.47","TERRACE A","1068134","2020-01-04 10:00","2020","01","04","10:00","-1.1","","-1.6","","96","","","","16","","11","","16.1","","97.96","","","","-5","","Snow Showers"
"-128.58","54.47","TERRACE A","1068134","2020-01-04 11:00","2020","01","04","11:00","-0.3","","-0.9","","95","","","","18","","20","","4.8","","98.04","","","","-6","","Snow Showers"
"-128.58","54.47","TERRACE A","1068134","2020-01-04 12:00","2020","01","04","12:00","0.2","","-0.5","","95","","","","21","","9","","2.4","","98.10","","","","","","Snow Showers"
"-128.58","54.47","TERRACE A","1068134","2020-01-04 13:00","2020","01","04","13:00","0.8","","-0.4","","92","","","","19","","22","","16.1","","98.12","","","","","","Cloudy"
"-128.58","54.47","TERRACE A","1068134","2020-01-04 14:00","2020","01","04","14:00","0.4","","-0.2","","95","","","","18","","21","","8.1","","98.13","","","","","","Fog"
"-128.58","54.47","TERRACE A","1068134","2020-01-04 15:00","2020","01","04","15:00","0.4","","-0.2","","96","","","","18","","14","","2.4","","98.19","","","","","","Snow"
"-128.58","54.47","TERRACE A","1068134","2020-01-04 16:00","2020","01","04","16:00","0.2","","-0.3","","97","","","","19","","30","","3.2","","98.25","","","","","","Snow"
"-128.58","54.47","TERRACE A","1068134","2020-01-04 17:00","2020","01","04","17:00","0.1","","-0.5","","96","","","","18","","29","","12.9","","98.26","","","","","","Rain,Snow"
"-128.58","54.47","TERRACE A","1068134","2020-01-04 18:00","2020","01","04","18:00","0.3","","0.0","","98","","","","18","","30","","3.2","","98.23","","","","","","Rain,Snow,Fog"
"-128.58","54.47","TERRACE A","1068134","2020-01-04 19:00","2020","01","04","19:00","0.5","","0.0","","96","","","","17","","23","","3.2","","98.18","","","","","","Snow"
"-128.58","54.47","TERRACE A","1068134","2020-01-04 20:00","2020","01","04","20:00","0.3","","-0.2","","96","","","","17","","16","","3.2","","98.09","","","","","","Snow"
"-128.58","54.47","TERRACE A","1068134","2020-01-04 21:00","2020","01","04","21:00","0.2","","-0.2","","97","","","","13","","9","","3.2","","97.99","","","","","","Snow"
"-128.58","54.47","TERRACE A","1068134","2020-01-04 22:00","2020","01","04","22:00","0.2","","-0.1","","98","","","","9","","9","","1.2","","97.87","","","","","","Snow"
"-128.58","54.47","TERRACE A","1068134","2020-01-04 23:00","2020","01","04","23:00","0.1","","-0.1","","98","","","","11","","10","","1.2","","97.75","","","","","","Snow"
"-128.58","54.47","TERRACE A","1068134","2020-01-05 00:00","2020","01","05","00:00","0.1","","-0.1","","98","","","","13","","12","","0.8","","97.57","","","","","","Moderate Snow"
"-128.58","54.47","TERRACE A","1068134","2020-01-05 01:00","2020","01","05","01:00","0.1","","-0.2","","98","","","","15","","13","","0.8","","97.42","","","","","","Moderate Snow"
"-128.58","54.47","TERRACE A","1068134","2020-01-05 02:00","2020","01","05","02:00","0.1","","-0.2","","98","","","","25","","18","","1.2","","97.52","","","","","","Snow"
"-128.58","54.47","TERRACE A","1068134","2020-01-05 03:00","2020","01","05","03:00","0.3","","-0.2","","97","","","","19","","27","","1.2","","97.59","","","","","","Snow"
"-128.58","54.47","TERRACE A","1068134","2020-01-05 04:00","2020","01","05","04:00","0.2","","-0.3","","96","","","","15","","20","","6.4","","97.75","","","","","","Snow"
"-128.58","54.47","TERRACE A","1068134","2020-01-05 05:00","2020","01","05","05:00","0.2","","-0.3","","96","","","","18","","13","","4.8","","97.87","","","","","","Snow"
"-128.58","54.47","TERRACE A","1068134","2020-01-05 06:00","2020","01","05","06:00","0.3","","-0.6","","94","","","","18","","25","","8.1","","97.92","","","","","","Snow"
"-128.58","54.47","TERRACE A","1068134","2020-01-05 07:00","2020","01","05","07:00","0.1","","-1.1","","91","","","","18","","34","","6.4","","97.90","","","","","","Snow"
"-128.58","54.47","TERRACE A","1068134","2020-01-05 08:00","2020","01","05","08:00","-0.1","","-0.7","","96","","","","17","","40","","1.2","","97.94","","","","-8","","Snow"
"-128.58","54.47","TERRACE A","1068134","2020-01-05 09:00","2020","01","05","09:00","0.1","","-0.7","","94","","","","18","","27","","8.1","","98.07","","","","","","Snow,Fog"
"-128.58","54.47","TERRACE A","1068134","2020-01-05 10:00","2020","01","05","10:00","0.2","","-1.1","","92","","","","19","","26","","6.4","","98.16","","","","","","Snow"
"-128.58","54.47","TERRACE A","1068134","2020-01-05 11:00","2020","01","05","11:00","-0.1","","-0.8","","95","","","","24","","22","","3.2","","98.30","","","","-6","","Snow Showers"
"-128.58","54.47","TERRACE A","1068134","2020-01-05 12:00","2020","01","05","12:00","-0.1","","-1.0","","94","","","","20","","18","","8.1","","98.33","","","","-5","","Snow Showers"
"-128.58","54.47","TERRACE A","1068134","2020-01-05 13:00","2020","01","05","13:00","0.4","","-0.8","","92","","","","19","","27","","11.3","","98.39","","","","","","Mostly Cloudy"
"-128.58","54.47","TERRACE A","1068134","2020-01-05 14:00","2020","01","05","14:00","0.1","","-1.2","","91","","","","19","","27","","16.1","","98.44","","","","","","NA"
"-128.58","54.47","TERRACE A","1068134","2020-01-05 15:00","2020","01","05","15:00","-0.4","","-1.7","","91","","","","18","","20","","16.1","","98.52","","","","-6","","NA"
"-128.58","54.47","TERRACE A","1068134","2020-01-05 16:00","2020","01","05","16:00","-0.2","","-1.3","","92","","","","24","","13","","16.1","","98.56","","","","-4","","Mostly Cloudy"
"-128.58","54.47","TERRACE A","1068134","2020-01-05 17:00","2020","01","05","17:00","-0.3","","-1.2","","94","","","","20","","19","","6.4","","98.63","","","","-5","","Snow Showers"
"-128.58","54.47","TERRACE A","1068134","2020-01-05 18:00","2020","01","05","18:00","-0.4","","-0.8","","97","","","","22","","12","","1.6","","98.66","","","","-4","","Snow Showers"
"-128.58","54.47","TERRACE A","1068134","2020-01-05 19:00","2020","01","05","19:00","-1.5","","-2.0","","96","","","","16","","13","","4.8","","98.72","","","","-6","","Snow Showers"
"-128.58","54.47","TERRACE A","1068134","2020-01-05 20:00","2020","01","05","20:00","-0.4","","-0.9","","96","","","","18","","12","","4.8","","98.81","","","","-4","","Snow Showers"
"-128.58","54.47","TERRACE A","1068134","2020-01-05 21:00","2020","01","05","21:00","-0.8","","-1.7","","94","","","","18","","20","","8.1","","98.87","","","","-6","","Snow"
"-128.58","54.47","TERRACE A","1068134","2020-01-05 22:00","2020","01","05","22:00","-0.7","","-1.2","","96","","","","19","","10","","8.1","","98.95","","","","-4","","Snow"
"-128.58","54.47","TERRACE A","1068134","2020-01-05 23:00","2020","01","05","23:00","-0.4","","-1.6","","92","","","","18","","15","","8.1","","99.01","","","","-5","","Fog"
"-128.58","54.47","TERRACE A","1068134","2020-01-06 00:00","2020","01","06","00:00","-1.5","","-2.0","","96","","","","16","","9","","8.1","","99.02","","","","-5","","Snow"
"-128.58","54.47","TERRACE A","1068134","2020-01-06 01:00","2020","01","06","01:00","-0.9","","-1.4","","97","","","","20","","6","","8.1","","99.02","","","","-3","","Snow"
"-128.58","54.47","TERRACE A","1068134","2020-01-06 02:00","2020","01","06","02:00","-1.4","","-1.7","","98","","","","26","","4","","4.8","","99.03","","","","-3","","Snow"
"-128.58","54.47","TERRACE A","1068134","2020-01-06 03:00","2020","01","06","03:00","-1.6","","-1.9","","98","","","","36","","3","","4.8","","99.05","","","","-3","","Snow"
"-128.58","54.47","TERRACE A","1068134","2020-01-06 04:00","2020","01","06","04:00","-1.5","","-1.7","","99","","","","33","","5","","1.2","","99.04","","","","-3","","Snow"
"-128.58","54.47","TERRACE A","1068134","2020-01-06 05:00","2020","01","06","05:00","-1.6","","-2.1","","97","","","","30","","4","","3.2","","99.03","","","","-3","","Snow"
"-128.58","54.47","TERRACE A","1068134","2020-01-06 06:00","2020","01","06","06:00","-1.8","","-2.4","","95","","","","35","","7","","4.8","","99.03","","","","-4","","Snow"
"-128.58","54.47","TERRACE A","1068134","2020-01-06 07:00","2020","01","06","07:00","-2.0","","-2.2","","99","","","","32","","3","","0.8","","99.07","","","","-3","","Snow,Freezing Fog"
"-128.58","54.47","TERRACE A","1068134","2020-01-06 08:00","2020","01","06","08:00","-2.2","","-2.4","","99","","","","34","","5","","2.4","","99.06","","","","-4","","Snow,Fog"
"-128.58","54.47","TERRACE A","1068134","2020-01-06 09:00","2020","01","06","09:00","-2.4","","-3.0","","96","","","","35","","12","","4.8","","99.06","","","","-7","","Fog"
"-128.58","54.47","TERRACE A","1068134","2020-01-06 10:00","2020","01","06","10:00","-2.6","","-3.2","","96","","","","2","","11","","4.8","","99.08","","","","-7","","Fog"
"-128.58","54.47","TERRACE A","1068134","2020-01-06 11:00","2020","01","06","11:00","-2.3","","-3.4","","93","","","","36","","12","","4.8","","99.12","","","","-7","","Fog"
"-128.58","54.47","TERRACE A","1068134","2020-01-06 12:00","2020","01","06","12:00","-2.3","","-3.6","","90","","","","36","","15","","8.1","","99.15","","","","-7","","Fog"
"-128.58","54.47","TERRACE A","1068134","2020-01-06 13:00","2020","01","06","13:00","-1.9","","-3.2","","91","","","","2","","8","","8.1","","99.16","","","","-5","","Fog"
"-128.58","54.47","TERRACE A","1068134","2020-01-06 14:00","2020","01","06","14:00","-1.9","","-3.5","","89","","","","2","","12","","11.3","","99.15","","","","-6","","Snow Showers"
"-128.58","54.47","TERRACE A","1068134","2020-01-06 15:00","2020","01","06","15:00","-2.1","","-3.8","","88","","","","35","","9","","16.1","","99.16","","","","-6","","NA"
"-128.58","54.47","TERRACE A","1068134","2020-01-06 16:00","2020","01","06","16:00","-3.0","","-4.1","","92","","","","1","","8","","8.1","","99.18","","","","-6","","Fog"
"-128.58","54.47","TERRACE A","1068134","2020-01-06 17:00","2020","01","06","17:00","-2.7","","-4.0","","91","","","","2","","12","","6.4","","99.18","","","","-7","","Fog"
"-128.58","54.47","TERRACE A","1068134","2020-01-06 18:00","2020","01","06","18:00","-3.7","","-4.8","","92","","","","1","","9","","6.4","","99.21","","","","-7","","Snow Showers,Fog"
"-128.58","54.47","TERRACE A","1068134","2020-01-06 19:00","2020","01","06","19:00","-4.3","","-5.3","","93","","","","2","","9","","6.4","","99.20","","","","-8","","Fog"
"-128.58","54.47","TERRACE A","1068134","2020-01-06 20:00","2020","01","06","20:00","-4.5","","-5.3","","94","","","","1","","13","","6.4","","99.25","","","","-10","","Fog"
"-128.58","54.47","TERRACE A","1068134","2020-01-06 21:00","2020","01","06","21:00","-4.8","","-5.7","","93","","","","1","","21","","6.4","","99.18","","","","-11","","Snow"
"-128.58","54.47","TERRACE A","1068134","2020-01-06 22:00","2020","01","06","22:00","-4.8","","-6.0","","91","","","","36","","28","","12.9","","99.16","","","","-12","","Mostly Cloudy"
"-128.58","54.47","TERRACE A","1068134","2020-01-06 23:00","2020","01","06","23:00","-4.8","","-6.2","","90","","","","1","","34","","16.1","","99.11","","","","-13","","NA"
"-128.58","54.47","TERRACE A","1068134","2020-01-07 00:00","2020","01","07","00:00","-4.9","","-6.5","","89","","","","36","","33","","24.1","","99.08","","","","-13","","NA"
"-128.58","54.47","TERRACE A","1068134","2020-01-07 01:00","2020","01","07","01:00","-5.1","","-6.8","","88","","","","36","","26","","24.1","","99.01","","","","-13","","Mostly Cloudy"
"-128.58","54.47","TERRACE A","1068134","2020-01-07 02:00","2020","01","07","02:00","-5.0","","-6.8","","87","","","","36","","40","","24.1","","98.87","","","","-14","","NA"
"-128.58","54.47","TERRACE A","1068134","2020-01-07 03:00","2020","01","07","03:00","-5.0","","-6.9","","86","","","","36","","37","","24.1","","98.80","","","","-14","","NA"
"-128.58","54.47","TERRACE A","1068134","2020-01-07 04:00","2020","01","07","04:00","-5.2","","-7.3","","85","","","","1","","37","","24.1","","98.71","","","","-14","","Mostly Cloudy"
"-128.58","54.47","TERRACE A","1068134","2020-01-07 05:00","2020","01","07","05:00","-5.3","","-7.7","","83","","","","36","","42","","24.1","","98.63","","","","-15","","NA"
"-128.58","54.47","TERRACE A","1068134","2020-01-07 06:00","2020","01","07","06:00","-5.5","","-8.0","","83","","","","1","","45","","24.1","","98.54","","","","-15","","NA"
"-128.58","54.47","TERRACE A","1068134","2020-01-07 07:00","2020","01","07","07:00","-5.8","","-8.3","","83","","","","1","","42","","24.1","","98.43","","","","-15","","Mostly Cloudy"
"-128.58","54.47","TERRACE A","1068134","2020-01-07 08:00","2020","01","07","08:00","-5.8","","-8.3","","82","","","","1","","48","","32.2","","98.35","","","","-16","","NA"
"-128.58","54.47","TERRACE A","1068134","2020-01-07 09:00","2020","01","07","09:00","-5.5","","-8.6","","79","","","","1","","44","","32.2","","98.26","","","","-15","","NA"
"-128.58","54.47","TERRACE A","1068134","2020-01-07 10:00","2020","01","07","10:00","-5.5","","-8.5","","80","","","","1","","41","","32.2","","98.23","","","","-15","","Mostly Cloudy"
"-128.58","54.47","TERRACE A","1068134","2020-01-07 11:00","2020","01","07","11:00","-5.0","","-8.5","","76","","","","1","","39","","32.2","","98.15","","","","-14","","NA"
"-128.58","54.47","TERRACE A","1068134","2020-01-07 12:00","2020","01","07","12:00","-4.7","","-8.5","","75","","","","1","","34","","32.2","","98.02","","","","-13","","NA"
"-128.58","54.47","TERRACE A","1068134","2020-01-07 13:00","2020","01","07","13:00","-4.7","","-8.3","","76","","","","2","","36","","32.2","","97.92","","","","-13","","Mostly Cloudy"
"-128.58","54.47","TERRACE A","1068134","2020-01-07 14:00","2020","01","07","14:00","-4.5","","-8.2","","75","","","","2","","41","","32.2","","97.80","","","","-14","","NA"
"-128.58","54.47","TERRACE A","1068134","2020-01-07 15:00","2020","01","07","15:00","-4.4","","-8.2","","75","","","","2","","37","","32.2","","97.83","","","","-13","","NA"
"-128.58","54.47","TERRACE A","1068134","2020-01-07 16:00","2020","01","07","16:00","-4.4","","-8.1","","76","","","","1","","37","","32.2","","97.86","","","","-13","","Mostly Cloudy"
"-128.58","54.47","TERRACE A","1068134","2020-01-07 17:00","2020","01","07","17:00","-4.9","","-8.2","","78","","","","36","","32","","32.2","","97.84","","","","-13","","NA"
"-128.58","54.47","TERRACE A","1068134","2020-01-07 18:00","2020","01","07","18:00","-4.9","","-8.2","","78","","","","1","","33","","32.2","","97.87","","","","-13","","Snow"
"-128.58","54.47","TERRACE A","1068134","2020-01-07 19:00","2020","01","07","19:00","-4.9","","-8.4","","77","","","","1","","32","","32.2","","97.90","","","","-13","","Snow"
"-128.58","54.47","TERRACE A","1068134","2020-01-07 20:00","2020","01","07","20:00","-5.3","","-8.5","","79","","","","2","","25","","32.2","","97.92","","","","-13","","Snow"
"-128.58","54.47","TERRACE A","1068134","2020-01-07 21:00","2020","01","07","21:00","-5.3","","-8.4","","79","","","","2","","23","","32.2","","97.92","","","","-12","","NA"
"-128.58","54.47","TERRACE A","1068134","2020-01-07 22:00","2020","01","07","22:00","-6.6","","-8.9","","84","","","","35","","13","","32.2","","97.97","","","","-12","","Mostly Cloudy"
"-128.58","54.47","TERRACE A","1068134","2020-01-07 23:00","2020","01","07","23:00","-8.4","","-9.6","","91","","","","1","","4","","32.2","","98.07","","","","-11","","NA"
"-128.58","54.47","TERRACE A","1068134","2020-01-08 00:00","2020","01","08","00:00","-7.7","","-8.3","","95","","","","0","","1","","32.2","","98.12","","","","-8","","NA"
"-128.58","54.47","TERRACE A","1068134","2020-01-08 01:00","2020","01","08","01:00","-8.7","","-9.1","","97","","","","36","","2","","16.1","","98.15","","","","-10","","Mostly Cloudy"
"-128.58","54.47","TERRACE A","1068134","2020-01-08 02:00","2020","01","08","02:00","-8.2","","-8.9","","94","","","","25","","4","","16.1","","98.20","","","","-10","","NA"
"-128.58","54.47","TERRACE A","1068134","2020-01-08 03:00","2020","01","08","03:00","-7.4","","-8.1","","95","","","","10","","6","","16.1","","98.25","","","","-11","","NA"
"-128.58","54.47","TERRACE A","1068134","2020-01-08 04:00","2020","01","08","04:00","-7.7","","-8.5","","94","","","","16","","3","","24.1","","98.29","","","","-9","","Cloudy"
"-128.58","54.47","TERRACE A","1068134","2020-01-08 05:00","2020","01","08","05:00","-7.5","","-8.3","","94","","","","36","","2","","24.1","","98.32","","","","-9","","NA"
"-128.58","54.47","TERRACE A","1068134","2020-01-08 06:00","2020","01","08","06:00","-7.0","","-7.8","","94","","","","34","","6","","16.1","","98.29","","","","-10","","NA"
"-128.58","54.47","TERRACE A","1068134","2020-01-08 07:00","2020","01","08","07:00","-6.9","","-7.8","","93","","","","33","","9","","16.1","","98.27","","","","-11","","Cloudy"
"-128.58","54.47","TERRACE A","1068134","2020-01-08 08:00","2020","01","08","08:00","-6.9","","-7.9","","93","","","","35","","6","","16.1","","98.30","","","","-10","","NA"
"-128.58","54.47","TERRACE A","1068134","2020-01-08 09:00","2020","01","08","09:00","-7.0","","-7.9","","93","","","","35","","8","","12.9","","98.36","","","","-11","","Snow"
"-128.58","54.47","TERRACE A","1068134","2020-01-08 10:00","2020","01","08","10:00","-7.0","","-7.9","","93","","","","35","","6","","8.1","","98.44","","","","-10","","Snow"
"-128.58","54.47","TERRACE A","1068134","2020-01-08 11:00","2020","01","08","11:00","-7.0","","-7.9","","93","","","","33","","5","","6.4","","98.46","","","","-10","","Snow"
"-128.58","54.47","TERRACE A","1068134","2020-01-08 12:00","2020","01","08","12:00","-7.1","","-8.1","","93","","","","32","","9","","16.1","","98.46","","","","-11","","Snow"
"-128.58","54.47","TERRACE A","1068134","2020-01-08 13:00","2020","01","08","13:00","-6.2","","-7.4","","92","","","","33","","6","","16.1","","98.50","","","","-9","","Snow"
"-128.58","54.47","TERRACE A","1068134","2020-01-08 14:00","2020","01","08","14:00","-5.8","","-7.2","","89","","","","36","","3","","24.1","","98.52","","","","-7","","NA"
"-128.58","54.47","TERRACE A","1068134","2020-01-08 15:00","2020","01","08","15:00","-5.7","","-7.3","","88","","","","0","","1","","16.1","","98.53","","","","-6","","NA"
"-128.58","54.47","TERRACE A","1068134","2020-01-08 16:00","2020","01","08","16:00","-5.7","","-7.2","","89","","","","36","","2","","24.1","","98.56","","","","-7","","Mostly Cloudy"
"-128.58","54.47","TERRACE A","1068134","2020-01-08 17:00","2020","01","08","17:00","-5.8","","-6.6","","94","","","","27","","4","","1.6","","98.59","","","","-8","","Snow"
"-128.58","54.47","TERRACE A","1068134","2020-01-08 18:00","2020","01","08","18:00","-6.0","","-6.9","","94","","","","36","","1","","6.4","","98.64","","","","-6","","Snow"
"-128.58","54.47","TERRACE A","1068134","2020-01-08 19:00","2020","01","08","19:00","-5.8","","-6.5","","95","","","","28","","4","","6.4","","98.69","","","","-8","","Snow"
"-128.58","54.47","TERRACE A","1068134","2020-01-08 20:00","2020","01","08","20:00","-5.8","","-6.5","","95","","","","33","","3","","12.9","","98.77","","","","-7","","Snow"
"-128.58","54.47","TERRACE A","1068134","2020-01-08 21:00","2020","01","08","21:00","-5.8","","-6.6","","95","","","","31","","3","","16.1","","98.85","","","","-7","","Snow"
"-128.58","54.47","TERRACE A","1068134","2020-01-08 22:00","2020","01","08","22:00","-5.8","","-6.5","","95","","","","36","","1","","16.1","","98.89","","","","-6","","Snow"
"-128.58","54.47","TERRACE A","1068134","2020-01-08 23:00","2020","01","08","23:00","-5.8","","-6.5","","95","","","","27","","4","","16.1","","98.96","","","","-8","","Snow"
"-128.58","54.47","TERRACE A","1068134","2020-01-09 00:00","2020","01","09","00:00","-5.7","","-6.5","","94","","","","36","","3","","16.1","","99.00","","","","-7","","Snow"
"-128.58","54.47","TERRACE A","1068134","2020-01-09 01:00","2020","01","09","01:00","-5.8","","-6.5","","94","","","","0","","1","","16.1","","99.00","","","","-6","","Snow"
"-128.58","54.47","TERRACE A","1068134","2020-01-09 02:00","2020","01","09","02:00","-5.7","","-6.4","","95","","","","36","","2","","16.1","","99.02","","","","-7","","Snow"
"-128.58","54.47","TERRACE A","1068134","2020-01-09 03:00","2020","01","09","03:00","-5.9","","-6.8","","93","","","","3","","6","","4.8","","98.99","","","","-9","","Snow"
"-128.58","54.47","TERRACE A","1068134","2020-01-09 04:00","2020","01","09","04:00","-6.1","","-7.0","","93","","","","2","","3","","1.6","","99.00","","","","-8","","Snow"
"-128.58","54.47","TERRACE A","1068134","2020-01-09 05:00","2020","01","09","05:00","-6.4","","-7.3","","93","","","","2","","11","","1.6","","99.03","","","","-11","","Snow"
"-128.58","54.47","TERRACE A","1068134","2020-01-09 06:00","2020","01","09","06:00","-6.6","","-7.6","","93","","","","35","","8","","1.6","","98.99","","","","-10","","Snow"
"-128.58","54.47","TERRACE A","1068134","2020-01-09 07:00","2020","01","09","07:00","-6.6","","-7.5","","93","","","","6","","6","","3.2","","98.97","","","","-10","","Snow"
"-128.58","54.47","TERRACE A","1068134","2020-01-09 08:00","2020","01","09","08:00","-6.7","","-7.7","","93","","","","3","","10","","1.6","","98.96","","","","-11","","Snow"
"-128.58","54.47","TERRACE A","1068134","2020-01-09 09:00","2020","01","09","09:00","-6.6","","-7.8","","92","","","","3","","13","","2.4","","98.97","","","","-12","","Snow"
"-128.58","54.47","TERRACE A","1068134","2020-01-09 10:00","2020","01","09","10:00","-6.4","","-7.8","","90","","","","1","","9","","11.3","","98.94","","","","-11","","Snow"
"-128.58","54.47","TERRACE A","1068134","2020-01-09 11:00","2020","01","09","11:00","-6.5","","-7.8","","91","","","","2","","18","","2.4","","98.93","","","","-13","","Snow"
"-128.58","54.47","TERRACE A","1068134","2020-01-09 12:00","2020","01","09","12:00","-6.3","","-7.5","","91","","","","2","","9","","3.2","","98.89","","","","-11","","Snow"
"-128.58","54.47","TERRACE A","1068134","2020-01-09 13:00","2020","01","09","13:00","-5.9","","-7.1","","92","","","","2","","11","","6.4","","98.87","","","","-11","","Snow"
"-128.58","54.47","TERRACE A","1068134","2020-01-09 14:00","2020","01","09","14:00","-6.2","","-8.1","","86","","","","1","","27","","2.4","","98.85","","","","-14","","Snow"
"-128.58","54.47","TERRACE A","1068134","2020-01-09 15:00","2020","01","09","15:00","-6.3","","-7.6","","91","","","","2","","15","","2.4","","98.78","","","","-12","","Snow"
"-128.58","54.47","TERRACE A","1068134","2020-01-09 16:00","2020","01","09","16:00","-6.3","","-7.7","","90","","","","1","","18","","4.0","","98.76","","","","-13","","Snow"
"-128.58","54.47","TERRACE A","1068134","2020-01-09 17:00","2020","01","09","17:00","-6.1","","-7.4","","91","","","","1","","21","","3.2","","98.76","","","","-13","","Snow"
"-128.58","54.47","TERRACE A","1068134","2020-01-09 18:00","2020","01","09","18:00","-6.3","","-7.6","","91","","","","1","","22","","6.4","","98.66","","","","-14","","Snow"
"-128.58","54.47","TERRACE A","1068134","2020-01-09 19:00","2020","01","09","19:00","-6.2","","-7.4","","91","","","","36","","19","","6.4","","98.57","","","","-13","","Snow"
"-128.58","54.47","TERRACE A","1068134","2020-01-09 20:00","2020","01","09","20:00","-6.0","","-7.7","","88","","","","36","","18","","8.1","","98.47","","","","-12","","Snow"
"-128.58","54.47","TERRACE A","1068134","2020-01-09 21:00","2020","01","09","21:00","-6.1","","-7.7","","88","","","","1","","15","","4.8","","98.36","","","","-12","","Snow"
"-128.58","54.47","TERRACE A","1068134","2020-01-09 22:00","2020","01","09","22:00","-6.3","","-7.3","","92","","","","1","","11","","4.0","","98.20","","","","-11","","Snow"
"-128.58","54.47","TERRACE A","1068134","2020-01-09 23:00","2020","01","09","23:00","-6.4","","-7.5","","92","","","","1","","13","","3.2","","98.02","","","","-12","","Snow"
"-128.58","54.47","TERRACE A","1068134","2020-01-10 00:00","2020","01","10","00:00","-6.3","","-7.4","","92","","","","2","","15","","3.2","","97.84","","","","-12","","Snow"
"-128.58","54.47","TERRACE A","1068134","2020-01-10 01:00","2020","01","10","01:00","-6.4","","-7.6","","91","","","","1","","26","","1.6","","97.60","","","","-14","","Snow"
"-128.58","54.47","TERRACE A","1068134","2020-01-10 02:00","2020","01","10","02:00","-6.2","","-7.2","","92","","","","3","","12","","1.6","","97.42","","","","-11","","Snow"
"-128.58","54.47","TERRACE A","1068134","2020-01-10 03:00","2020","01","10","03:00","-6.2","","-7.3","","92","","","","1","","29","","1.6","","97.24","","","","-14","","Snow"
"-128.58","54.47","TERRACE A","1068134","2020-01-10 04:00","2020","01","10","04:00","-6.2","","-7.4","","91","","","","2","","34","","1.2","","97.10","","","","-15","","Snow,Blowing Snow"
"-128.58","54.47","TERRACE A","1068134","2020-01-10 05:00","2020","01","10","05:00","-6.2","","-7.3","","92","","","","36","","41","","0.6","","96.96","","","","-16","","Moderate Snow,Blowing Snow"
"-128.58","54.47","TERRACE A","1068134","2020-01-10 06:00","2020","01","10","06:00","-6.2","","-7.3","","92","","","","36","","45","","0.8","","96.86","","","","-16","","Moderate Snow,Blowing Snow"
"-128.58","54.47","TERRACE A","1068134","2020-01-10 07:00","2020","01","10","07:00","-6.2","","-7.3","","92","","","","36","","41","","0.8","","96.77","","","","-16","","Moderate Snow,Blowing Snow"
"-128.58","54.47","TERRACE A","1068134","2020-01-10 08:00","2020","01","10","08:00","-5.9","","-7.4","","89","","","","1","","44","","1.2","","96.72","","","","-16","","Snow,Blowing Snow"
"-128.58","54.47","TERRACE A","1068134","2020-01-10 09:00","2020","01","10","09:00","-5.6","","-7.3","","88","","","","36","","44","","2.4","","96.80","","","","-15","","Snow,Blowing Snow"
"-128.58","54.47","TERRACE A","1068134","2020-01-10 10:00","2020","01","10","10:00","-5.4","","-7.2","","87","","","","1","","40","","2.4","","96.84","","","","-15","","Snow,Blowing Snow"
"-128.58","54.47","TERRACE A","1068134","2020-01-10 11:00","2020","01","10","11:00","-5.3","","-6.5","","92","","","","36","","36","","1.6","","96.92","","","","-14","","Snow,Blowing Snow"
"-128.58","54.47","TERRACE A","1068134","2020-01-10 12:00","2020","01","10","12:00","-5.0","","-6.7","","88","","","","1","","38","","16.1","","96.94","","","","-14","","Snow,Blowing Snow"
"-128.58","54.47","TERRACE A","1068134","2020-01-10 13:00","2020","01","10","13:00","-4.3","","-6.7","","83","","","","36","","32","","12.9","","96.96","","","","-12","","Snow,Blowing Snow"
"-128.58","54.47","TERRACE A","1068134","2020-01-10 14:00","2020","01","10","14:00","-3.9","","-6.7","","81","","","","1","","35","","16.1","","96.96","","","","-12","","Snow"
"-128.58","54.47","TERRACE A","1068134","2020-01-10 15:00","2020","01","10","15:00","-3.8","","-6.3","","83","","","","36","","35","","16.1","","97.01","","","","-12","","Snow,Blowing Snow"
"-128.58","54.47","TERRACE A","1068134","2020-01-10 16:00","2020","01","10","16:00","-3.8","","-6.2","","83","","","","1","","26","","16.1","","97.06","","","","-11","","Snow Showers"
"-128.58","54.47","TERRACE A","1068134","2020-01-10 17:00","2020","01","10","17:00","-3.6","","-6.0","","84","","","","1","","26","","16.1","","97.11","","","","-11","","Snow Showers"
"-128.58","54.47","TERRACE A","1068134","2020-01-10 18:00","2020","01","10","18:00","-3.5","","-6.0","","83","","","","1","","36","","8.1","","97.16","","","","-12","","Snow"
"-128.58","54.47","TERRACE A","1068134","2020-01-10 19:00","2020","01","10","19:00","-3.7","","-5.6","","87","","","","1","","37","","4.8","","97.21","","","","-12","","Snow,Blowing Snow"
"-128.58","54.47","TERRACE A","1068134","2020-01-10 20:00","2020","01","10","20:00","-4.0","","-5.1","","93","","","","36","","35","","1.6","","97.27","","","","-12","","Snow,Blowing Snow"
"-128.58","54.47","TERRACE A","1068134","2020-01-10 21:00","2020","01","10","21:00","-4.0","","-5.2","","91","","","","36","","36","","2.4","","97.30","","","","-12","","Snow,Blowing Snow"
"-128.58","54.47","TERRACE A","1068134","2020-01-10 22:00","2020","01","10","22:00","-3.6","","-5.9","","84","","","","36","","32","","24.1","","97.34","","","","-11","","Snow,Blowing Snow"
"-128.58","54.47","TERRACE A","1068134","2020-01-10 23:00","2020","01","10","23:00","-3.4","","-6.0","","82","","","","36","","28","","24.1","","97.40","","","","-11","","Snow,Blowing Snow"
"-128.58","54.47","TERRACE A","1068134","2020-01-11 00:00","2020","01","11","00:00","-3.5","","-5.9","","83","","","","1","","26","","24.1","","97.45","","","","-11","","Snow,Blowing Snow"
"-128.58","54.47","TERRACE A","1068134","2020-01-11 01:00","2020","01","11","01:00","-3.9","","-5.5","","89","","","","2","","18","","24.1","","97.54","","","","-10","","Snow,Blowing Snow"
"-128.58","54.47","TERRACE A","1068134","2020-01-11 02:00","2020","01","11","02:00","-3.8","","-5.8","","86","","","","1","","20","","24.1","","97.64","","","","-10","","Snow"
"-128.58","54.47","TERRACE A","1068134","2020-01-11 03:00","2020","01","11","03:00","-3.6","","-5.6","","86","","","","1","","19","","24.1","","97.71","","","","-10","","Snow"
"-128.58","54.47","TERRACE A","1068134","2020-01-11 04:00","2020","01","11","04:00","-3.6","","-5.9","","85","","","","1","","7","","24.1","","97.84","","","","-7","","Snow"
"-128.58","54.47","TERRACE A","1068134","2020-01-11 05:00","2020","01","11","05:00","-4.3","","-5.4","","92","","","","15","","7","","16.1","","97.92","","","","-7","","Snow"
"-128.58","54.47","TERRACE A","1068134","2020-01-11 06:00","2020","01","11","06:00","-5.2","","-6.1","","93","","","","18","","9","","16.1","","98.01","","","","-9","","Snow"
"-128.58","54.47","TERRACE A","1068134","2020-01-11 07:00","2020","01","11","07:00","-4.8","","-6.0","","91","","","","18","","14","","24.1","","98.05","","","","-10","","Snow"
"-128.58","54.47","TERRACE A","1068134","2020-01-11 08:00","2020","01","11","08:00","-3.6","","-5.3","","87","","","","22","","15","","24.1","","98.10","","","","-9","","NA"
"-128.58","54.47","TERRACE A","1068134","2020-01-11 09:00","2020","01","11","09:00","-4.8","","-6.2","","90","","","","22","","14","","32.2","","98.14","","","","-10","","NA"
"-128.58","54.47","TERRACE A","1068134","2020-01-11 10:00","2020","01","11","10:00","-3.7","","-6.4","","81","","","","21","","21","","32.2","","98.20","","","","-10","","Mostly Cloudy"
"-128.58","54.47","TERRACE A","1068134","2020-01-11 11:00","2020","01","11","11:00","-4.3","","-6.5","","85","","","","20","","19","","32.2","","98.24","","","","-10","","NA"
"-128.58","54.47","TERRACE A","1068134","2020-01-11 12:00","2020","01","11","12:00","-3.7","","-6.8","","79","","","","19","","16","","32.2","","98.24","","","","-9","","NA"
"-128.58","54.47","TERRACE A","1068134","2020-01-11 13:00","2020","01","11","13:00","-4.4","","-6.3","","87","","","","19","","13","","32.2","","98.22","","","","-9","","Cloudy"
"-128.58","54.47","TERRACE A","1068134","2020-01-11 14:00","2020","01","11","14:00","-5.5","","-6.8","","91","","","","34","","11","","32.2","","98.22","","","","-10","","NA"
"-128.58","54.47","TERRACE A","1068134","2020-01-11 15:00","2020","01","11","15:00","-5.0","","-6.5","","89","","","","34","","14","","16.1","","98.20","","","","-10","","NA"
"-128.58","54.47","TERRACE A","1068134","2020-01-11 16:00","2020","01","11","16:00","-5.0","","-6.4","","89","","","","34","","11","","9.7","","98.22","","","","-10","","Snow"
"-128.58","54.47","TERRACE A","1068134","2020-01-11 17:00","2020","01","11","17:00","-4.8","","-6.2","","90","","","","36","","17","","6.4","","98.22","","","","-11","","Snow"
"-128.58","54.47","TERRACE A","1068134","2020-01-11 18:00","2020","01","11","18:00","-5.7","","-7.4","","88","","","","36","","24","","3.2","","98.22","","","","-13","","Snow"
"-128.58","54.47","TERRACE A","1068134","2020-01-11 19:00","2020","01","11","19:00","-6.8","","-8.5","","88","","","","36","","34","","1.6","","98.20","","","","-16","","Snow,Blowing Snow"
"-128.58","54.47","TERRACE A","1068134","2020-01-11 20:00","2020","01","11","20:00","-7.5","","-9.6","","85","","","","36","","35","","1.6","","98.26","","","","-17","","Snow,Blowing Snow"
"-128.58","54.47","TERRACE A","1068134","2020-01-11 21:00","2020","01","11","21:00","-7.8","","-9.8","","86","","","","36","","35","","1.6","","98.30","","","","-17","","Snow,Blowing Snow"
"-128.58","54.47","TERRACE A","1068134","2020-01-11 22:00","2020","01","11","22:00","-8.0","","-10.1","","85","","","","35","","34","","1.6","","98.35","","","","-17","","Snow,Blowing Snow"
"-128.58","54.47","TERRACE A","1068134","2020-01-11 23:00","2020","01","11","23:00","-8.4","","-10.5","","85","","","","34","","37","","1.6","","98.45","","","","-18","","Snow,Blowing Snow"
"-128.58","54.47","TERRACE A","1068134","2020-01-12 00:00","2020","01","12","00:00","-8.0","","-12.2","","72","","","","1","","26","","9.7","","98.57","","","","-16","","Snow,Blowing Snow"
"-128.58","54.47","TERRACE A","1068134","2020-01-12 01:00","2020","01","12","01:00","-8.3","","-14.7","","61","","","","3","","21","","24.1","","98.69","","","","-16","","Snow,Blowing Snow"
"-128.58","54.47","TERRACE A","1068134","2020-01-12 02:00","2020","01","12","02:00","-9.2","","-16.8","","54","","","","4","","34","","24.1","","98.86","","","","-19","","Snow,Blowing Snow"
"-128.58","54.47","TERRACE A","1068134","2020-01-12 03:00","2020","01","12","03:00","-10.3","","-17.6","","56","","","","2","","26","","24.1","","98.98","","","","-19","","Snow,Blowing Snow"
"-128.58","54.47","TERRACE A","1068134","2020-01-12 04:00","2020","01","12","04:00","-11.2","","-19.4","","51","","","","1","","20","","32.2","","99.07","","","","-19","","Blowing Snow"
"-128.58","54.47","TERRACE A","1068134","2020-01-12 05:00","2020","01","12","05:00","-11.8","","-20.5","","49","","","","2","","30","","32.2","","99.19","","","","-22","","Blowing Snow"
"-128.58","54.47","TERRACE A","1068134","2020-01-12 06:00","2020","01","12","06:00","-12.3","","-21.8","","46","","","","7","","26","","32.2","","99.30","","","","-22","","Blowing Snow"
"-128.58","54.47","TERRACE A","1068134","2020-01-12 07:00","2020","01","12","07:00","-13.1","","-21.8","","49","","","","5","","24","","32.2","","99.37","","","","-23","","Mainly Clear"
"-128.58","54.47","TERRACE A","1068134","2020-01-12 08:00","2020","01","12","08:00","-13.6","","-22.4","","48","","","","4","","27","","32.2","","99.47","","","","-24","","NA"
"-128.58","54.47","TERRACE A","1068134","2020-01-12 09:00","2020","01","12","09:00","-14.6","","-21.7","","55","","","","2","","27","","32.2","","99.61","","","","-25","","NA"
"-128.58","54.47","TERRACE A","1068134","2020-01-12 10:00","2020","01","12","10:00","-14.8","","-22.0","","55","","","","3","","27","","32.2","","99.72","","","","-25","","Mainly Clear"
"-128.58","54.47","TERRACE A","1068134","2020-01-12 11:00","2020","01","12","11:00","-14.7","","-22.6","","51","","","","3","","24","","32.2","","99.79","","","","-25","","NA"
"-128.58","54.47","TERRACE A","1068134","2020-01-12 12:00","2020","01","12","12:00","-14.5","","-22.3","","52","","","","2","","21","","32.2","","99.78","","","","-24","","NA"
"-128.58","54.47","TERRACE A","1068134","2020-01-12 13:00","2020","01","12","13:00","-13.8","","-22.5","","48","","","","2","","25","","32.2","","99.77","","","","-24","","Mainly Clear"
"-128.58","54.47","TERRACE A","1068134","2020-01-12 14:00","2020","01","12","14:00","-13.7","","-22.1","","50","","","","2","","30","","32.2","","99.77","","","","-24","","NA"
"-128.58","54.47","TERRACE A","1068134","2020-01-12 15:00","2020","01","12","15:00","-13.9","","-22.0","","51","","","","1","","19","","32.2","","99.76","","","","-23","","NA"
"-128.58","54.47","TERRACE A","1068134","2020-01-12 16:00","2020","01","12","16:00","-14.3","","-21.7","","54","","","","1","","20","","32.2","","99.81","","","","-23","","Mainly Clear"
"-128.58","54.47","TERRACE A","1068134","2020-01-12 17:00","2020","01","12","17:00","-15.2","","-21.3","","60","","","","1","","23","","32.2","","99.82","","","","-25","","NA"
"-128.58","54.47","TERRACE A","1068134","2020-01-12 18:00","2020","01","12","18:00","-15.3","","-21.4","","60","","","","1","","27","","32.2","","99.82","","","","-26","","NA"
"-128.58","54.47","TERRACE A","1068134","2020-01-12 19:00","2020","01","12","19:00","-15.8","","-21.1","","65","","","","36","","25","","24.1","","99.83","","","","-26","","Clear"
"-128.58","54.47","TERRACE A","1068134","2020-01-12 20:00","2020","01","12","20:00","-16.1","","-21.4","","64","","","","2","","26","","32.2","","99.78","","","","-27","","NA"
"-128.58","54.47","TERRACE A","1068134","2020-01-12 21:00","2020","01","12","21:00","-16.2","","-21.7","","63","","","","2","","30","","32.2","","99.75","","","","-28","","NA"
"-128.58","54.47","TERRACE A","1068134","2020-01-12 22:00","2020","01","12","22:00","-16.6","","-21.4","","67","","","","36","","35","","32.2","","99.70","","","","-29","","Clear"
"-128.58","54.47","TERRACE A","1068134","2020-01-12 23:00","2020","01","12","23:00","-16.6","","-21.8","","65","","","","2","","35","","32.2","","99.68","","","","-29","","NA"
"-128.58","54.47","TERRACE A","1068134","2020-01-13 00:00","2020","01","13","00:00","-17.2","","-22.1","","67","","","","2","","30","","32.2","","99.63","","","","-29","","NA"
"-128.58","54.47","TERRACE A","1068134","2020-01-13 01:00","2020","01","13","01:00","-17.1","","-22.2","","65","","","","2","","41","","32.2","","99.61","","","","-30","","Clear"
"-128.58","54.47","TERRACE A","1068134","2020-01-13 02:00","2020","01","13","02:00","-18.0","","-22.5","","68","","","","1","","37","","32.2","","99.57","","","","-31","","NA"
"-128.58","54.47","TERRACE A","1068134","2020-01-13 03:00","2020","01","13","03:00","-18.2","","-22.8","","68","","","","1","","38","","32.2","","99.57","","","","-31","","NA"
"-128.58","54.47","TERRACE A","1068134","2020-01-13 04:00","2020","01","13","04:00","-18.6","","-23.0","","68","","","","1","","44","","32.2","","99.56","","","","-33","","Clear"
"-128.58","54.47","TERRACE A","1068134","2020-01-13 05:00","2020","01","13","05:00","-18.4","","-23.4","","65","","","","2","","38","","32.2","","99.54","","","","-32","","NA"
"-128.58","54.47","TERRACE A","1068134","2020-01-13 06:00","2020","01","13","06:00","-18.8","","-23.7","","66","","","","2","","41","","32.2","","99.50","","","","-33","","NA"
"-128.58","54.47","TERRACE A","1068134","2020-01-13 07:00","2020","01","13","07:00","-18.9","","-23.9","","65","","","","2","","37","","32.2","","99.49","","","","-32","","Clear"
"-128.58","54.47","TERRACE A","1068134","2020-01-13 08:00","2020","01","13","08:00","-19.3","","-24.3","","65","","","","1","","37","","32.2","","99.48","","","","-33","","NA"
"-128.58","54.47","TERRACE A","1068134","2020-01-13 09:00","2020","01","13","09:00","-19.7","","-24.4","","66","","","","2","","42","","32.2","","99.55","","","","-34","","NA"
"-128.58","54.47","TERRACE A","1068134","2020-01-13 10:00","2020","01","13","10:00","-19.1","","-24.6","","63","","","","2","","44","","32.2","","99.60","","","","-33","","Clear"
"-128.58","54.47","TERRACE A","1068134","2020-01-13 11:00","2020","01","13","11:00","-19.0","","-24.6","","62","","","","2","","40","","32.2","","99.62","","","","-33","","NA"
"-128.58","54.47","TERRACE A","1068134","2020-01-13 12:00","2020","01","13","12:00","-18.7","","-24.5","","61","","","","2","","33","","32.2","","99.62","","","","-31","","NA"
"-128.58","54.47","TERRACE A","1068134","2020-01-13 13:00","2020","01","13","13:00","-18.3","","-24.0","","61","","","","2","","44","","32.2","","99.57","","","","-32","","Clear"
"-128.58","54.47","TERRACE A","1068134","2020-01-13 14:00","2020","01","13","14:00","-18.0","","-23.9","","61","","","","1","","38","","32.2","","99.56","","","","-31","","NA"
"-128.58","54.47","TERRACE A","1068134","2020-01-13 15:00","2020","01","13","15:00","-17.6","","-23.5","","60","","","","2","","36","","32.2","","99.57","","","","-30","","NA"
"-128.58","54.47","TERRACE A","1068134","2020-01-13 16:00","2020","01","13","16:00","-18.2","","-23.8","","63","","","","1","","32","","32.2","","99.60","","","","-31","","Clear"
"-128.58","54.47","TERRACE A","1068134","2020-01-13 17:00","2020","01","13","17:00","-18.4","","-23.7","","64","","","","2","","39","","32.2","","99.63","","","","-32","","NA"
"-128.58","54.47","TERRACE A","1068134","2020-01-13 18:00","2020","01","13","18:00","-18.6","","-23.5","","66","","","","1","","35","","32.2","","99.64","","","","-32","","NA"
"-128.58","54.47","TERRACE A","1068134","2020-01-13 19:00","2020","01","13","19:00","-18.9","","-23.7","","66","","","","2","","30","","32.2","","99.64","","","","-31","","Clear"
"-128.58","54.47","TERRACE A","1068134","2020-01-13 20:00","2020","01","13","20:00","-18.7","","-23.8","","65","","","","1","","36","","32.2","","99.64","","","","-32","","NA"
"-128.58","54.47","TERRACE A","1068134","2020-01-13 21:00","2020","01","13","21:00","-19.0","","-23.9","","66","","","","1","","30","","32.2","","99.67","","","","-31","","NA"
"-128.58","54.47","TERRACE A","1068134","2020-01-13 22:00","2020","01","13","22:00","-19.0","","-23.9","","66","","","","2","","30","","32.2","","99.70","","","","-31","","Clear"
"-128.58","54.47","TERRACE A","1068134","2020-01-13 23:00","2020","01","13","23:00","-19.4","","-24.3","","66","","","","1","","28","","32.2","","99.73","","","","-31","","NA"
"-128.58","54.47","TERRACE A","1068134","2020-01-14 00:00","2020","01","14","00:00","-18.9","","-24.0","","65","","","","3","","29","","32.2","","99.76","","","","-31","","NA"
"-128.58","54.47","TERRACE A","1068134","2020-01-14 01:00","2020","01","14","01:00","-18.9","","-24.2","","64","","","","2","","32","","32.2","","99.77","","","","-31","","Clear"
"-128.58","54.47","TERRACE A","1068134","2020-01-14 02:00","2020","01","14","02:00","-18.7","","-24.3","","62","","","","3","","30","","32.2","","99.79","","","","-31","","NA"
"-128.58","54.47","TERRACE A","1068134","2020-01-14 03:00","2020","01","14","03:00","-18.9","","-24.6","","62","","","","2","","29","","32.2","","99.81","","","","-31","","NA"
"-128.58","54.47","TERRACE A","1068134","2020-01-14 04:00","2020","01","14","04:00","-19.0","","-24.6","","62","","","","2","","34","","32.2","","99.80","","","","-32","","Clear"
"-128.58","54.47","TERRACE A","1068134","2020-01-14 05:00","2020","01","14","05:00","-19.6","","-24.9","","63","","","","1","","26","","32.2","","99.79","","","","-31","","NA"
"-128.58","54.47","TERRACE A","1068134","2020-01-14 06:00","2020","01","14","06:00","-19.8","","-25.1","","63","","","","1","","35","","32.2","","99.78","","","","-33","","NA"
"-128.58","54.47","TERRACE A","1068134","2020-01-14 07:00","2020","01","14","07:00","-20.4","","-25.4","","64","","","","1","","30","","32.2","","99.78","","","","-33","","Clear"
"-128.58","54.47","TERRACE A","1068134","2020-01-14 08:00","2020","01","14","08:00","-20.7","","-25.8","","64","","","","2","","39","","32.2","","99.78","","","","-35","","NA"
"-128.58","54.47","TERRACE A","1068134","2020-01-14 09:00","2020","01","14","09:00","-20.4","","-25.8","","63","","","","2","","37","","32.2","","99.85","","","","-34","","NA"
"-128.58","54.47","TERRACE A","1068134","2020-01-14 10:00","2020","01","14","10:00","-20.3","","-25.9","","62","","","","2","","31","","32.2","","99.87","","","","-33","","Clear"
"-128.58","54.47","TERRACE A","1068134","2020-01-14 11:00","2020","01","14","11:00","-20.1","","-26.1","","60","","","","2","","41","","32.2","","99.87","","","","-34","","NA"
"-128.58","54.47","TERRACE A","1068134","2020-01-14 12:00","2020","01","14","12:00","-20.2","","-26.0","","61","","","","2","","37","","32.2","","99.85","","","","-34","","NA"
"-128.58","54.47","TERRACE A","1068134","2020-01-14 13:00","2020","01","14","13:00","-19.5","","-25.7","","58","","","","2","","32","","32.2","","99.79","","","","-32","","Clear"
"-128.58","54.47","TERRACE A","1068134","2020-01-14 14:00","2020","01","14","14:00","-18.8","","-25.3","","58","","","","1","","29","","32.2","","99.76","","","","-31","","NA"
"-128.58","54.47","TERRACE A","1068134","2020-01-14 15:00","2020","01","14","15:00","-19.2","","-25.0","","61","","","","2","","34","","32.2","","99.73","","","","-32","","NA"
"-128.58","54.47","TERRACE A","1068134","2020-01-14 16:00","2020","01","14","16:00","-19.6","","-25.1","","62","","","","2","","40","","32.2","","99.76","","","","-34","","Clear"
"-128.58","54.47","TERRACE A","1068134","2020-01-14 17:00","2020","01","14","17:00","-19.8","","-25.2","","63","","","","1","","31","","32.2","","99.80","","","","-32","","NA"
"-128.58","54.47","TERRACE A","1068134","2020-01-14 18:00","2020","01","14","18:00","-20.1","","-25.4","","63","","","","2","","31","","32.2","","99.82","","","","-33","","NA"
"-128.58","54.47","TERRACE A","1068134","2020-01-14 19:00","2020","01","14","19:00","-19.6","","-25.6","","59","","","","3","","28","","32.2","","99.83","","","","-32","","Clear"
"-128.58","54.47","TERRACE A","1068134","2020-01-14 20:00","2020","01","14","20:00","-19.7","","-25.6","","60","","","","2","","34","","32.2","","99.84","","","","-33","","NA"
"-128.58","54.47","TERRACE A","1068134","2020-01-14 21:00","2020","01","14","21:00","-19.9","","-25.6","","61","","","","3","","34","","32.2","","99.83","","","","-33","","NA"
"-128.58","54.47","TERRACE A","1068134","2020-01-14 22:00","2020","01","14","22:00","-19.8","","-25.6","","61","","","","3","","34","","32.2","","99.80","","","","-33","","Clear"
"-128.58","54.47","TERRACE A","1068134","2020-01-14 23:00","2020","01","14","23:00","-20.1","","-25.9","","61","","","","3","","26","","32.2","","99.80","","","","-32","","NA"
"-128.58","54.47","TERRACE A","1068134","2020-01-15 00:00","2020","01","15","00:00","-20.0","","-25.9","","60","","","","3","","30","","32.2","","99.84","","","","-33","","NA"
"-128.58","54.47","TERRACE A","1068134","2020-01-15 01:00","2020","01","15","01:00","-20.3","","-26.0","","61","","","","2","","24","","32.2","","99.88","","","","-32","","Clear"
"-128.58","54.47","TERRACE A","1068134","2020-01-15 02:00","2020","01","15","02:00","-20.4","","-26.2","","60","","","","2","","26","","32.2","","99.88","","","","-32","","NA"
"-128.58","54.47","TERRACE A","1068134","2020-01-15 03:00","2020","01","15","03:00","-20.3","","-26.1","","60","","","","4","","27","","32.2","","99.92","","","","-32","","NA"
"-128.58","54.47","TERRACE A","1068134","2020-01-15 04:00","2020","01","15","04:00","-20.6","","-26.3","","61","","","","3","","22","","32.2","","99.93","","","","-32","","Clear"
"-128.58","54.47","TERRACE A","1068134","2020-01-15 05:00","2020","01","15","05:00","-20.6","","-26.3","","61","","","","2","","25","","32.2","","99.92","","","","-32","","NA"
"-128.58","54.47","TERRACE A","1068134","2020-01-15 06:00","2020","01","15","06:00","-20.9","","-26.4","","62","","","","2","","32","","32.2","","99.92","","","","-34","","NA"
"-128.58","54.47","TERRACE A","1068134","2020-01-15 07:00","2020","01","15","07:00","-20.7","","-26.5","","60","","","","2","","24","","32.2","","99.90","","","","-32","","Clear"
"-128.58","54.47","TERRACE A","1068134","2020-01-15 08:00","2020","01","15","08:00","-21.3","","-26.8","","62","","","","35","","21","","32.2","","99.87","","","","-32","","NA"
"-128.58","54.47","TERRACE A","1068134","2020-01-15 09:00","2020","01","15","09:00","-20.7","","-27.0","","58","","","","36","","1","","32.2","","99.88","","","","-22","","NA"
"-128.58","54.47","TERRACE A","1068134","2020-01-15 10:00","2020","01","15","10:00","-19.4","","-26.5","","54","","","","2","","18","","32.2","","99.87","","","","-29","","Clear"
"-128.58","54.47","TERRACE A","1068134","2020-01-15 11:00","2020","01","15","11:00","-18.4","","-25.8","","53","","","","1","","12","","32.2","","99.82","","","","-26","","NA"
"-128.58","54.47","TERRACE A","1068134","2020-01-15 12:00","2020","01","15","12:00","-16.8","","-26.3","","44","","","","6","","14","","32.2","","99.75","","","","-25","","NA"
"-128.58","54.47","TERRACE A","1068134","2020-01-15 13:00","2020","01","15","13:00","-16.3","","-26.7","","41","","","","6","","20","","32.2","","99.63","","","","-26","","Mainly Clear"
"-128.58","54.47","TERRACE A","1068134","2020-01-15 14:00","2020","01","15","14:00","-16.4","","-25.7","","45","","","","7","","19","","32.2","","99.51","","","","-26","","NA"
"-128.58","54.47","TERRACE A","1068134","2020-01-15 15:00","2020","01","15","15:00","-16.1","","-26.2","","42","","","","6","","30","","32.2","","99.38","","","","-27","","NA"
"-128.58","54.47","TERRACE A","1068134","2020-01-15 16:00","2020","01","15","16:00","-16.7","","-26.5","","43","","","","5","","33","","32.2","","99.29","","","","-29","","Mainly Clear"
"-128.58","54.47","TERRACE A","1068134","2020-01-15 17:00","2020","01","15","17:00","-17.1","","-27.4","","41","","","","8","","22","","32.2","","99.25","","","","-27","","NA"
"-128.58","54.47","TERRACE A","1068134","2020-01-15 18:00","2020","01","15","18:00","-17.3","","-26.7","","45","","","","7","","30","","32.2","","99.13","","","","-29","","NA"
"-128.58","54.47","TERRACE A","1068134","2020-01-15 19:00","2020","01","15","19:00","-17.5","","-26.4","","47","","","","6","","32","","32.2","","99.10","","","","-30","","Clear"
"-128.58","54.47","TERRACE A","1068134","2020-01-15 20:00","2020","01","15","20:00","-17.4","","-26.5","","46","","","","6","","27","","32.2","","99.01","","","","-29","","NA"
"-128.58","54.47","TERRACE A","1068134","2020-01-15 21:00","2020","01","15","21:00","-16.7","","-25.6","","47","","","","6","","24","","32.2","","98.93","","","","-27","","NA"
"-128.58","54.47","TERRACE A","1068134","2020-01-15 22:00","2020","01","15","22:00","-16.6","","-24.1","","53","","","","4","","25","","24.1","","98.81","","","","-27","","Snow"
"-128.58","54.47","TERRACE A","1068134","2020-01-15 23:00","2020","01","15","23:00","-15.9","","-24.5","","49","","","","4","","26","","24.1","","98.65","","","","-27","","NA"
"-128.58","54.47","TERRACE A","1068134","2020-01-16 00:00","2020","01","16","00:00","-15.7","","-23.9","","50","","","","4","","27","","24.1","","98.59","","","","-26","","NA"
"-128.58","54.47","TERRACE A","1068134","2020-01-16 01:00","2020","01","16","01:00","-16.8","","-23.4","","57","","","","1","","26","","24.1","","98.48","","","","-28","","Mostly Cloudy"
"-128.58","54.47","TERRACE A","1068134","2020-01-16 02:00","2020","01","16","02:00","-16.5","","-23.5","","55","","","","1","","23","","24.1","","98.37","","","","-27","","NA"
"-128.58","54.47","TERRACE A","1068134","2020-01-16 03:00","2020","01","16","03:00","-15.8","","-22.7","","56","","","","1","","23","","24.1","","98.24","","","","-26","","NA"
"-128.58","54.47","TERRACE A","1068134","2020-01-16 04:00","2020","01","16","04:00","-15.2","","-21.6","","59","","","","1","","28","","24.1","","98.15","","","","-26","","Cloudy"
"-128.58","54.47","TERRACE A","1068134","2020-01-16 05:00","2020","01","16","05:00","-14.9","","-21.1","","59","","","","1","","27","","24.1","","98.09","","","","-25","","Snow"
"-128.58","54.47","TERRACE A","1068134","2020-01-16 06:00","2020","01","16","06:00","-13.6","","-21.9","","50","","","","3","","25","","24.1","","98.04","","","","-23","","Snow"
"-128.58","54.47","TERRACE A","1068134","2020-01-16 07:00","2020","01","16","07:00","-13.6","","-22.3","","48","","","","5","","33","","24.1","","97.97","","","","-25","","Snow"
"-128.58","54.47","TERRACE A","1068134","2020-01-16 08:00","2020","01","16","08:00","-13.2","","-22.7","","45","","","","3","","23","","32.2","","98.01","","","","-23","","Snow"
"-128.58","54.47","TERRACE A","1068134","2020-01-16 09:00","2020","01","16","09:00","-13.1","","-22.4","","46","","","","34","","21","","32.2","","97.98","","","","-22","","Snow"
"-128.58","54.47","TERRACE A","1068134","2020-01-16 10:00","2020","01","16","10:00","-13.1","","-21.0","","52","","","","36","","16","","32.2","","98.10","","","","-21","","Snow"
"-128.58","54.47","TERRACE A","1068134","2020-01-16 11:00","2020","01","16","11:00","-12.7","","-21.0","","51","","","","35","","8","","24.1","","98.21","","","","-18","","NA"
"-128.58","54.47","TERRACE A","1068134","2020-01-16 12:00","2020","01","16","12:00","-12.2","","-20.5","","50","","","","1","","10","","24.1","","98.22","","","","-18","","NA"
"-128.58","54.47","TERRACE A","1068134","2020-01-16 13:00","2020","01","16","13:00","-12.5","","-19.9","","55","","","","35","","9","","16.1","","98.27","","","","-18","","Mostly Cloudy"
"-128.58","54.47","TERRACE A","1068134","2020-01-16 14:00","2020","01","16","14:00","-12.4","","-18.4","","61","","","","8","","15","","6.4","","98.31","","","","-20","","Snow"
"-128.58","54.47","TERRACE A","1068134","2020-01-16 15:00","2020","01","16","15:00","-12.3","","-19.8","","54","","","","7","","13","","32.2","","98.37","","","","-19","","Snow"
"-128.58","54.47","TERRACE A","1068134","2020-01-16 16:00","2020","01","16","16:00","-12.2","","-21.2","","48","","","","3","","13","","32.2","","98.42","","","","-19","","Snow"
"-128.58","54.47","TERRACE A","1068134","2020-01-16 17:00","2020","01","16","17:00","-12.8","","-20.2","","54","","","","36","","8","","32.2","","98.50","","","","-18","","Snow"
"-128.58","54.47","TERRACE A","1068134","2020-01-16 18:00","2020","01","16","18:00","-12.8","","-19.4","","58","","","","35","","3","","24.1","","98.60","","","","-15","","Snow"
"-128.58","54.47","TERRACE A","1068134","2020-01-16 19:00","2020","01","16","19:00","-12.9","","-20.0","","56","","","","2","","9","","24.1","","98.64","","","","-18","","Snow"
"-128.58","54.47","TERRACE A","1068134","2020-01-16 20:00","2020","01","16","20:00","-12.9","","-21.0","","51","","","","3","","6","","24.1","","98.72","","","","-17","","NA"
"-128.58","54.47","TERRACE A","1068134","2020-01-16 21:00","2020","01","16","21:00","-13.2","","-21.3","","51","","","","1","","14","","24.1","","98.78","","","","-20","","NA"
"-128.58","54.47","TERRACE A","1068134","2020-01-16 22:00","2020","01","16","22:00","-13.0","","-22.3","","46","","","","3","","13","","24.1","","98.84","","","","-20","","Snow"
"-128.58","54.47","TERRACE A","1068134","2020-01-16 23:00","2020","01","16","23:00","-13.4","","-21.5","","51","","","","2","","18","","24.1","","98.96","","","","-22","","NA"
"-128.58","54.47","TERRACE A","1068134","2020-01-17 00:00","2020","01","17","00:00","-13.7","","-21.4","","53","","","","2","","14","","24.1","","99.06","","","","-21","","NA"
"-128.58","54.47","TERRACE A","1068134","2020-01-17 01:00","2020","01","17","01:00","-13.7","","-21.1","","54","","","","2","","17","","24.1","","99.10","","","","-22","","Cloudy"
"-128.58","54.47","TERRACE A","1068134","2020-01-17 02:00","2020","01","17","02:00","-13.7","","-21.4","","53","","","","36","","21","","24.1","","99.17","","","","-23","","NA"
"-128.58","54.47","TERRACE A","1068134","2020-01-17 03:00","2020","01","17","03:00","-13.9","","-21.0","","55","","","","36","","24","","24.1","","99.22","","","","-24","","NA"
"-128.58","54.47","TERRACE A","1068134","2020-01-17 04:00","2020","01","17","04:00","-13.9","","-20.7","","57","","","","1","","27","","24.1","","99.23","","","","-24","","Cloudy"
"-128.58","54.47","TERRACE A","1068134","2020-01-17 05:00","2020","01","17","05:00","-14.1","","-20.2","","60","","","","1","","31","","24.1","","99.30","","","","-25","","NA"
"-128.58","54.47","TERRACE A","1068134","2020-01-17 06:00","2020","01","17","06:00","-14.0","","-20.4","","59","","","","2","","20","","32.2","","99.36","","","","-23","","Snow"
"-128.58","54.47","TERRACE A","1068134","2020-01-17 07:00","2020","01","17","07:00","-14.1","","-19.9","","62","","","","2","","36","","32.2","","99.46","","","","-26","","Snow"
"-128.58","54.47","TERRACE A","1068134","2020-01-17 08:00","2020","01","17","08:00","-14.2","","-19.7","","63","","","","2","","30","","32.2","","99.51","","","","-25","","Snow"
"-128.58","54.47","TERRACE A","1068134","2020-01-17 09:00","2020","01","17","09:00","-14.3","","-19.6","","65","","","","36","","28","","24.1","","99.62","","","","-25","","Snow"
"-128.58","54.47","TERRACE A","1068134","2020-01-17 10:00","2020","01","17","10:00","-14.0","","-19.5","","64","","","","1","","27","","32.2","","99.74","","","","-24","","Snow,Blowing Snow"
"-128.58","54.47","TERRACE A","1068134","2020-01-17 11:00","2020","01","17","11:00","-13.6","","-19.5","","62","","","","2","","31","","32.2","","99.76","","","","-24","","Blowing Snow"
"-128.58","54.47","TERRACE A","1068134","2020-01-17 12:00","2020","01","17","12:00","-13.5","","-19.6","","60","","","","2","","26","","32.2","","99.80","","","","-23","","Blowing Snow"
"-128.58","54.47","TERRACE A","1068134","2020-01-17 13:00","2020","01","17","13:00","-12.9","","-19.3","","59","","","","3","","28","","32.2","","99.77","","","","-23","","Blowing Snow"
"-128.58","54.47","TERRACE A","1068134","2020-01-17 14:00","2020","01","17","14:00","-12.5","","-19.8","","55","","","","2","","25","","32.2","","99.82","","","","-22","","Blowing Snow"
"-128.58","54.47","TERRACE A","1068134","2020-01-17 15:00","2020","01","17","15:00","-12.7","","-19.4","","57","","","","1","","37","","32.2","","99.78","","","","-24","","Blowing Snow"
"-128.58","54.47","TERRACE A","1068134","2020-01-17 16:00","2020","01","17","16:00","-12.6","","-19.7","","56","","","","1","","26","","32.2","","99.77","","","","-22","","Blowing Snow"
"-128.58","54.47","TERRACE A","1068134","2020-01-17 17:00","2020","01","17","17:00","-12.4","","-19.6","","55","","","","1","","32","","32.2","","99.74","","","","-23","","Blowing Snow"
"-128.58","54.47","TERRACE A","1068134","2020-01-17 18:00","2020","01","17","18:00","-13.0","","-20.3","","55","","","","2","","35","","24.1","","99.69","","","","-24","","Blowing Snow"
"-128.58","54.47","TERRACE A","1068134","2020-01-17 19:00","2020","01","17","19:00","-13.0","","-20.2","","56","","","","1","","33","","24.1","","99.65","","","","-24","","Blowing Snow"
"-128.58","54.47","TERRACE A","1068134","2020-01-17 20:00","2020","01","17","20:00","-13.2","","-20.2","","56","","","","1","","30","","24.1","","99.60","","","","-24","","Blowing Snow"
"-128.58","54.47","TERRACE A","1068134","2020-01-17 21:00","2020","01","17","21:00","-13.7","","-19.8","","61","","","","1","","41","","24.1","","99.46","","","","-26","","Blowing Snow"
"-128.58","54.47","TERRACE A","1068134","2020-01-17 22:00","2020","01","17","22:00","-13.6","","-19.8","","60","","","","1","","40","","24.1","","99.40","","","","-26","","Blowing Snow"
"-128.58","54.47","TERRACE A","1068134","2020-01-17 23:00","2020","01","17","23:00","-13.4","","-19.5","","61","","","","1","","39","","24.1","","99.32","","","","-25","","Blowing Snow"
"-128.58","54.47","TERRACE A","1068134","2020-01-18 00:00","2020","01","18","00:00","-13.9","","-18.8","","67","","","","1","","41","","24.1","","99.20","","","","-26","","Blowing Snow"
"-128.58","54.47","TERRACE A","1068134","2020-01-18 01:00","2020","01","18","01:00","-13.3","","-18.6","","65","","","","1","","39","","24.1","","99.07","","","","-25","","Blowing Snow"
"-128.58","54.47","TERRACE A","1068134","2020-01-18 02:00","2020","01","18","02:00","-13.1","","-18.2","","66","","","","1","","51","","12.9","","98.91","","","","-26","","Snow,Blowing Snow"
"-128.58","54.47","TERRACE A","1068134","2020-01-18 03:00","2020","01","18","03:00","-12.8","","-17.6","","68","","","","1","","52","","8.1","","98.81","","","","-26","","Snow,Blowing Snow"
"-128.58","54.47","TERRACE A","1068134","2020-01-18 04:00","2020","01","18","04:00","-13.1","","-15.9","","79","","","","1","","55","","1.2","","98.75","","","","-26","","Snow,Blowing Snow"
"-128.58","54.47","TERRACE A","1068134","2020-01-18 05:00","2020","01","18","05:00","-12.5","","-14.7","","84","","","","1","","50","","0.8","","98.67","","","","-25","","Snow,Blowing Snow"
"-128.58","54.47","TERRACE A","1068134","2020-01-18 06:00","2020","01","18","06:00","-12.1","","-14.8","","81","","","","1","","47","","1.2","","98.57","","","","-24","","Snow,Blowing Snow"
"-128.58","54.47","TERRACE A","1068134","2020-01-18 07:00","2020","01","18","07:00","-12.3","","-14.5","","84","","","","36","","49","","1.6","","98.46","","","","-25","","Snow,Blowing Snow"
"-128.58","54.47","TERRACE A","1068134","2020-01-18 08:00","2020","01","18","08:00","-12.2","","-14.1","","86","","","","36","","44","","2.4","","98.48","","","","-24","","Snow,Blowing Snow"
"-128.58","54.47","TERRACE A","1068134","2020-01-18 09:00","2020","01","18","09:00","-11.7","","-14.2","","82","","","","1","","40","","1.6","","98.47","","","","-23","","Snow,Blowing Snow"
"-128.58","54.47","TERRACE A","1068134","2020-01-18 10:00","2020","01","18","10:00","-10.6","","-14.5","","73","","","","2","","32","","16.1","","98.47","","","","-21","","Snow,Blowing Snow"
"-128.58","54.47","TERRACE A","1068134","2020-01-18 11:00","2020","01","18","11:00","-10.1","","-14.4","","71","","","","36","","26","","24.1","","98.49","","","","-19","","Snow,Blowing Snow"
"-128.58","54.47","TERRACE A","1068134","2020-01-18 12:00","2020","01","18","12:00","-9.8","","-13.1","","77","","","","2","","29","","2.4","","98.50","","","","-19","","Snow,Blowing Snow"
"-128.58","54.47","TERRACE A","1068134","2020-01-18 13:00","2020","01","18","13:00","-9.2","","-12.1","","80","","","","2","","26","","2.4","","98.50","","","","-18","","Snow,Blowing Snow"
"-128.58","54.47","TERRACE A","1068134","2020-01-18 14:00","2020","01","18","14:00","-9.0","","-11.3","","84","","","","2","","25","","1.2","","98.51","","","","-17","","Snow,Blowing Snow"
"-128.58","54.47","TERRACE A","1068134","2020-01-18 15:00","2020","01","18","15:00","-8.8","","-11.1","","83","","","","1","","20","","1.6","","98.56","","","","-16","","Snow,Blowing Snow"
"-128.58","54.47","TERRACE A","1068134","2020-01-18 16:00","2020","01","18","16:00","-8.6","","-10.9","","84","","","","2","","22","","1.2","","98.56","","","","-16","","Snow,Blowing Snow"
"-128.58","54.47","TERRACE A","1068134","2020-01-18 17:00","2020","01","18","17:00","-8.3","","-11.4","","78","","","","2","","28","","2.4","","98.54","","","","-17","","Snow,Blowing Snow"
"-128.58","54.47","TERRACE A","1068134","2020-01-18 18:00","2020","01","18","18:00","-8.3","","-11.3","","79","","","","2","","22","","2.4","","98.54","","","","-16","","Snow,Blowing Snow"
"-128.58","54.47","TERRACE A","1068134","2020-01-18 19:00","2020","01","18","19:00","-8.2","","-11.0","","80","","","","3","","17","","1.6","","98.57","","","","-15","","Snow,Blowing Snow"
"-128.58","54.47","TERRACE A","1068134","2020-01-18 20:00","2020","01","18","20:00","-8.0","","-11.7","","75","","","","2","","23","","8.1","","98.57","","","","-16","","Snow,Blowing Snow"
"-128.58","54.47","TERRACE A","1068134","2020-01-18 21:00","2020","01","18","21:00","-8.3","","-11.0","","81","","","","2","","35","","8.1","","98.54","","","","-18","","Snow,Blowing Snow"
"-128.58","54.47","TERRACE A","1068134","2020-01-18 22:00","2020","01","18","22:00","-8.5","","-10.5","","86","","","","1","","26","","8.1","","98.51","","","","-17","","Snow,Blowing Snow"
"-128.58","54.47","TERRACE A","1068134","2020-01-18 23:00","2020","01","18","23:00","-8.5","","-10.3","","87","","","","1","","28","","1.6","","98.55","","","","-17","","Snow,Blowing Snow"
"-128.58","54.47","TERRACE A","1068134","2020-01-19 00:00","2020","01","19","00:00","-8.4","","-10.2","","87","","","","1","","28","","1.6","","98.54","","","","-17","","Snow,Blowing Snow"
"-128.58","54.47","TERRACE A","1068134","2020-01-19 01:00","2020","01","19","01:00","-8.3","","-10.6","","84","","","","1","","30","","4.0","","98.56","","","","-17","","Snow,Blowing Snow"
"-128.58","54.47","TERRACE A","1068134","2020-01-19 02:00","2020","01","19","02:00","-7.8","","-10.5","","81","","","","2","","31","","3.2","","98.55","","","","-17","","Snow,Blowing Snow"
"-128.58","54.47","TERRACE A","1068134","2020-01-19 03:00","2020","01","19","03:00","-8.3","","-10.0","","88","","","","1","","34","","2.4","","98.57","","","","-18","","Snow,Blowing Snow"
"-128.58","54.47","TERRACE A","1068134","2020-01-19 04:00","2020","01","19","04:00","-8.1","","-9.9","","87","","","","4","","19","","2.4","","98.63","","","","-15","","Snow,Blowing Snow"
"-128.58","54.47","TERRACE A","1068134","2020-01-19 05:00","2020","01","19","05:00","-8.0","","-9.8","","87","","","","3","","23","","4.0","","98.64","","","","-16","","Snow,Blowing Snow"
"-128.58","54.47","TERRACE A","1068134","2020-01-19 06:00","2020","01","19","06:00","-7.9","","-10.0","","85","","","","1","","34","","2.4","","98.60","","","","-17","","Snow,Blowing Snow"
"-128.58","54.47","TERRACE A","1068134","2020-01-19 07:00","2020","01","19","07:00","-8.5","","-9.7","","91","","","","5","","7","","1.6","","98.62","","","","-12","","Snow,Blowing Snow"
"-128.58","54.47","TERRACE A","1068134","2020-01-19 08:00","2020","01","19","08:00","-8.2","","-9.7","","90","","","","8","","7","","4.0","","98.67","","","","-12","","Snow"
"-128.58","54.47","TERRACE A","1068134","2020-01-19 09:00","2020","01","19","09:00","-8.1","","-9.3","","91","","","","2","","3","","2.4","","98.74","","","","-10","","Snow"
"-128.58","54.47","TERRACE A","1068134","2020-01-19 10:00","2020","01","19","10:00","-8.2","","-9.4","","91","","","","15","","3","","1.6","","98.79","","","","-10","","Snow"
"-128.58","54.47","TERRACE A","1068134","2020-01-19 11:00","2020","01","19","11:00","-7.6","","-8.9","","90","","","","2","","3","","2.4","","98.81","","","","-9","","Snow"
"-128.58","54.47","TERRACE A","1068134","2020-01-19 12:00","2020","01","19","12:00","-7.4","","-8.7","","91","","","","36","","2","","1.6","","98.82","","","","-8","","Snow"
"-128.58","54.47","TERRACE A","1068134","2020-01-19 13:00","2020","01","19","13:00","-6.9","","-8.1","","91","","","","3","","10","","1.2","","98.78","","","","-12","","Snow"
"-128.58","54.47","TERRACE A","1068134","2020-01-19 14:00","2020","01","19","14:00","-6.7","","-7.9","","91","","","","1","","17","","1.2","","98.73","","","","-13","","Snow"
"-128.58","54.47","TERRACE A","1068134","2020-01-19 15:00","2020","01","19","15:00","-6.6","","-7.7","","92","","","","1","","17","","1.2","","98.64","","","","-13","","Snow"
"-128.58","54.47","TERRACE A","1068134","2020-01-19 16:00","2020","01","19","16:00","-6.3","","-7.7","","90","","","","1","","33","","1.6","","98.58","","","","-15","","Snow"
"-128.58","54.47","TERRACE A","1068134","2020-01-19 17:00","2020","01","19","17:00","-6.1","","-7.3","","91","","","","36","","35","","1.2","","98.48","","","","-15","","Snow"
"-128.58","54.47","TERRACE A","1068134","2020-01-19 18:00","2020","01","19","18:00","-5.9","","-6.9","","93","","","","1","","35","","1.0","","98.37","","","","-15","","Snow"
"-128.58","54.47","TERRACE A","1068134","2020-01-19 19:00","2020","01","19","19:00","-5.8","","-6.8","","93","","","","36","","39","","0.8","","98.27","","","","-15","","Moderate Snow"
"-128.58","54.47","TERRACE A","1068134","2020-01-19 20:00","2020","01","19","20:00","-5.8","","-6.8","","93","","","","36","","35","","0.8","","98.21","","","","-15","","Moderate Snow"
"-128.58","54.47","TERRACE A","1068134","2020-01-19 21:00","2020","01","19","21:00","-5.8","","-6.7","","93","","","","2","","21","","0.8","","98.15","","","","-13","","Moderate Snow"
"-128.58","54.47","TERRACE A","1068134","2020-01-19 22:00","2020","01","19","22:00","-5.8","","-6.7","","94","","","","2","","14","","1.2","","98.10","","","","-11","","Snow"
"-128.58","54.47","TERRACE A","1068134","2020-01-19 23:00","2020","01","19","23:00","-6.1","","-7.0","","94","","","","5","","5","","1.2","","98.04","","","","-9","","Snow"
"-128.58","54.47","TERRACE A","1068134","2020-01-20 00:00","2020","01","20","00:00","-5.5","","-6.4","","94","","","","1","","20","","1.2","","97.97","","","","-12","","Snow"
"-128.58","54.47","TERRACE A","1068134","2020-01-20 01:00","2020","01","20","01:00","-5.5","","-6.3","","94","","","","1","","16","","1.2","","97.89","","","","-11","","Snow"
"-128.58","54.47","TERRACE A","1068134","2020-01-20 02:00","2020","01","20","02:00","-5.3","","-6.1","","94","","","","1","","15","","2.4","","97.83","","","","-11","","Snow"
"-128.58","54.47","TERRACE A","1068134","2020-01-20 03:00","2020","01","20","03:00","-5.2","","-6.0","","94","","","","36","","13","","2.4","","97.78","","","","-10","","Snow"
"-128.58","54.47","TERRACE A","1068134","2020-01-20 04:00","2020","01","20","04:00","-4.7","","-5.6","","93","","","","36","","19","","2.4","","97.68","","","","-11","","Snow"
"-128.58","54.47","TERRACE A","1068134","2020-01-20 05:00","2020","01","20","05:00","-4.5","","-5.5","","93","","","","36","","17","","2.4","","97.61","","","","-10","","Snow"
"-128.58","54.47","TERRACE A","1068134","2020-01-20 06:00","2020","01","20","06:00","-4.6","","-5.4","","94","","","","35","","10","","2.4","","97.55","","","","-9","","Snow"
"-128.58","54.47","TERRACE A","1068134","2020-01-20 07:00","2020","01","20","07:00","-4.6","","-5.5","","94","","","","1","","11","","1.6","","97.57","","","","-9","","Snow"
"-128.58","54.47","TERRACE A","1068134","2020-01-20 08:00","2020","01","20","08:00","-5.3","","-6.2","","94","","","","10","","7","","1.6","","97.62","","","","-9","","Snow"
"-128.58","54.47","TERRACE A","1068134","2020-01-20 09:00","2020","01","20","09:00","-5.0","","-5.8","","95","","","","22","","5","","1.2","","97.75","","","","-7","","Snow"
"-128.58","54.47","TERRACE A","1068134","2020-01-20 10:00","2020","01","20","10:00","-5.0","","-5.8","","94","","","","13","","7","","1.2","","97.95","","","","-8","","Snow"
"-128.58","54.47","TERRACE A","1068134","2020-01-20 11:00","2020","01","20","11:00","-4.2","","-5.2","","93","","","","36","","1","","8.1","","98.04","","","","-5","","Snow"
"-128.58","54.47","TERRACE A","1068134","2020-01-20 12:00","2020","01","20","12:00","-4.2","","-5.1","","93","","","","35","","11","","8.1","","98.14","","","","-9","","Snow"
"-128.58","54.47","TERRACE A","1068134","2020-01-20 13:00","2020","01","20","13:00","-3.0","","-4.0","","93","","","","20","","7","","8.1","","98.19","","","","-6","","Snow"
"-128.58","54.47","TERRACE A","1068134","2020-01-20 14:00","2020","01","20","14:00","-2.7","","-3.6","","94","","","","31","","5","","8.1","","98.25","","","","-5","","Snow"
"-128.58","54.47","TERRACE A","1068134","2020-01-20 15:00","2020","01","20","15:00","-2.5","","-3.4","","94","","","","1","","4","","8.1","","98.26","","","","-4","","Snow"
"-128.58","54.47","TERRACE A","1068134","2020-01-20 16:00","2020","01","20","16:00","-2.5","","-3.2","","95","","","","36","","3","","8.1","","98.28","","","","-4","","Snow"
"-128.58","54.47","TERRACE A","1068134","2020-01-20 17:00","2020","01","20","17:00","-2.3","","-3.0","","95","","","","36","","2","","11.3","","98.26","","","","-3","","NA"
"-128.58","54.47","TERRACE A","1068134","2020-01-20 18:00","2020","01","20","18:00","-2.6","","-3.2","","96","","","","36","","7","","6.4","","98.20","","","","-5","","Fog"
"-128.58","54.47","TERRACE A","1068134","2020-01-20 19:00","2020","01","20","19:00","-2.9","","-3.4","","96","","","","34","","7","","9.7","","98.15","","","","-6","","Fog"
"-128.58","54.47","TERRACE A","1068134","2020-01-20 20:00","2020","01","20","20:00","-1.6","","-2.2","","96","","","","36","","19","","9.7","","98.07","","","","-7","","Fog"
"-128.58","54.47","TERRACE A","1068134","2020-01-20 21:00","2020","01","20","21:00","-1.2","","-2.2","","93","","","","1","","28","","9.7","","98.04","","","","-8","","Fog"
"-128.58","54.47","TERRACE A","1068134","2020-01-20 22:00","2020","01","20","22:00","-1.2","","-2.2","","93","","","","1","","32","","12.9","","97.98","","","","-8","","Cloudy"
"-128.58","54.47","TERRACE A","1068134","2020-01-20 23:00","2020","01","20","23:00","-1.4","","-2.5","","93","","","","1","","27","","12.9","","97.92","","","","-8","","NA"
"-128.58","54.47","TERRACE A","1068134","2020-01-21 00:00","2020","01","21","00:00","-0.9","","-2.2","","91","","","","36","","45","","16.1","","97.82","","","","-9","","NA"
"-128.58","54.47","TERRACE A","1068134","2020-01-21 01:00","2020","01","21","01:00","-1.2","","-2.5","","90","","","","35","","36","","16.1","","97.74","","","","-9","","Mostly Cloudy"
"-128.58","54.47","TERRACE A","1068134","2020-01-21 02:00","2020","01","21","02:00","-1.2","","-2.6","","90","","","","1","","35","","16.1","","97.59","","","","-9","","NA"
"-128.58","54.47","TERRACE A","1068134","2020-01-21 03:00","2020","01","21","03:00","-0.5","","-2.5","","87","","","","2","","40","","16.1","","97.47","","","","-8","","NA"
"-128.58","54.47","TERRACE A","1068134","2020-01-21 04:00","2020","01","21","04:00","-0.5","","-2.7","","86","","","","1","","39","","32.2","","97.34","","","","-8","","Cloudy"
"-128.58","54.47","TERRACE A","1068134","2020-01-21 05:00","2020","01","21","05:00","-1.0","","-2.8","","87","","","","1","","43","","32.2","","97.25","","","","-9","","NA"
"-128.58","54.47","TERRACE A","1068134","2020-01-21 06:00","2020","01","21","06:00","-0.9","","-3.0","","86","","","","1","","37","","16.1","","97.16","","","","-8","","Snow"
"-128.58","54.47","TERRACE A","1068134","2020-01-21 07:00","2020","01","21","07:00","-0.5","","-3.0","","83","","","","36","","38","","24.1","","97.14","","","","-8","","Snow,Blowing Snow"
"-128.58","54.47","TERRACE A","1068134","2020-01-21 08:00","2020","01","21","08:00","-0.8","","-3.2","","84","","","","2","","32","","24.1","","97.08","","","","-8","","Snow,Blowing Snow"
"-128.58","54.47","TERRACE A","1068134","2020-01-21 09:00","2020","01","21","09:00","-0.6","","-3.1","","83","","","","2","","34","","32.2","","97.14","","","","-8","","NA"
"-128.58","54.47","TERRACE A","1068134","2020-01-21 10:00","2020","01","21","10:00","-1.3","","-2.5","","91","","","","1","","34","","8.1","","97.14","","","","-9","","Snow,Blowing Snow"
"-128.58","54.47","TERRACE A","1068134","2020-01-21 11:00","2020","01","21","11:00","-1.5","","-2.1","","96","","","","1","","32","","1.2","","97.15","","","","-9","","Snow,Blowing Snow"
"-128.58","54.47","TERRACE A","1068134","2020-01-21 12:00","2020","01","21","12:00","-0.8","","-2.1","","91","","","","36","","34","","8.1","","97.11","","","","-8","","Snow,Blowing Snow"
"-128.58","54.47","TERRACE A","1068134","2020-01-21 13:00","2020","01","21","13:00","-1.1","","-2.0","","94","","","","36","","28","","4.8","","97.14","","","","-8","","Snow,Blowing Snow"
"-128.58","54.47","TERRACE A","1068134","2020-01-21 14:00","2020","01","21","14:00","-0.7","","-1.4","","95","","","","3","","21","","2.4","","97.20","","","","-6","","Snow"
"-128.58","54.47","TERRACE A","1068134","2020-01-21 15:00","2020","01","21","15:00","-0.8","","-1.7","","94","","","","3","","14","","6.4","","97.23","","","","-5","","Snow"
"-128.58","54.47","TERRACE A","1068134","2020-01-21 16:00","2020","01","21","16:00","-0.9","","-2.1","","92","","","","1","","14","","9.7","","97.29","","","","-5","","Snow"
"-128.58","54.47","TERRACE A","1068134","2020-01-21 17:00","2020","01","21","17:00","-1.1","","-1.8","","95","","","","3","","9","","9.7","","97.36","","","","-4","","Snow"
"-128.58","54.47","TERRACE A","1068134","2020-01-21 18:00","2020","01","21","18:00","-1.0","","-2.0","","94","","","","1","","13","","8.1","","97.37","","","","-5","","Snow"
"-128.58","54.47","TERRACE A","1068134","2020-01-21 19:00","2020","01","21","19:00","-1.1","","-1.6","","96","","","","4","","8","","6.4","","97.44","","","","-4","","Snow"
"-128.58","54.47","TERRACE A","1068134","2020-01-21 20:00","2020","01","21","20:00","-1.4","","-1.9","","96","","","","36","","12","","6.4","","97.51","","","","-5","","Snow"
"-128.58","54.47","TERRACE A","1068134","2020-01-21 21:00","2020","01","21","21:00","-1.8","","-2.2","","97","","","","36","","2","","8.1","","97.58","","","","-3","","Snow"
"-128.58","54.47","TERRACE A","1068134","2020-01-21 22:00","2020","01","21","22:00","-2.8","","-3.1","","98","","","","11","","7","","0.8","","97.63","","","","-6","","Freezing Fog"
"-128.58","54.47","TERRACE A","1068134","2020-01-21 23:00","2020","01","21","23:00","-2.7","","-2.9","","99","","","","33","","9","","0.8","","97.71","","","","-6","","Freezing Fog"
"-128.58","54.47","TERRACE A","1068134","2020-01-22 00:00","2020","01","22","00:00","-4.8","","-5.0","","99","","","","10","","3","","1.2","","97.77","","","","-6","","Fog"
"-128.58","54.47","TERRACE A","1068134","2020-01-22 01:00","2020","01","22","01:00","-3.2","","-3.5","","98","","","","16","","4","","6.4","","97.84","","","","-5","","Fog"
"-128.58","54.47","TERRACE A","1068134","2020-01-22 02:00","2020","01","22","02:00","-2.4","","-2.7","","98","","","","4","","4","","6.4","","97.91","","","","-4","","Snow"
"-128.58","54.47","TERRACE A","1068134","2020-01-22 03:00","2020","01","22","03:00","-2.4","","-2.7","","98","","","","7","","5","","6.4","","97.96","","","","-4","","Snow"
"-128.58","54.47","TERRACE A","1068134","2020-01-22 04:00","2020","01","22","04:00","-2.2","","-2.6","","97","","","","36","","2","","6.4","","97.99","","","","-3","","Snow"
"-128.58","54.47","TERRACE A","1068134","2020-01-22 05:00","2020","01","22","05:00","-2.6","","-2.9","","98","","","","36","","1","","8.1","","98.03","","","","-3","","Snow"
"-128.58","54.47","TERRACE A","1068134","2020-01-22 06:00","2020","01","22","06:00","-1.9","","-2.3","","97","","","","34","","4","","12.9","","98.04","","","","-3","","Snow"
"-128.58","54.47","TERRACE A","1068134","2020-01-22 07:00","2020","01","22","07:00","-1.4","","-1.9","","96","","","","36","","2","","16.1","","98.06","","","","-2","","Snow"
"-128.58","54.47","TERRACE A","1068134","2020-01-22 08:00","2020","01","22","08:00","-2.1","","-2.5","","97","","","","9","","5","","12.9","","98.09","","","","-4","","Snow"
"-128.58","54.47","TERRACE A","1068134","2020-01-22 09:00","2020","01","22","09:00","-1.2","","-1.6","","97","","","","2","","14","","12.9","","98.06","","","","-6","","Snow"
"-128.58","54.47","TERRACE A","1068134","2020-01-22 10:00","2020","01","22","10:00","-1.7","","-2.1","","97","","","","11","","8","","16.1","","98.08","","","","-5","","Snow"
"-128.58","54.47","TERRACE A","1068134","2020-01-22 11:00","2020","01","22","11:00","-0.9","","-1.5","","96","","","","7","","3","","16.1","","98.09","","","","-2","","Snow"
"-128.58","54.47","TERRACE A","1068134","2020-01-22 12:00","2020","01","22","12:00","-0.3","","-1.0","","95","","","","24","","7","","16.1","","98.06","","","","-3","","NA"
"-128.58","54.47","TERRACE A","1068134","2020-01-22 13:00","2020","01","22","13:00","0.4","","-0.5","","94","","","","1","","9","","16.1","","97.98","","","","","","Cloudy"
"-128.58","54.47","TERRACE A","1068134","2020-01-22 14:00","2020","01","22","14:00","-0.2","","-0.8","","95","","","","9","","7","","24.1","","97.94","","","","-3","","NA"
"-128.58","54.47","TERRACE A","1068134","2020-01-22 15:00","2020","01","22","15:00","-0.1","","-0.6","","96","","","","20","","7","","24.1","","97.90","","","","-3","","NA"
"-128.58","54.47","TERRACE A","1068134","2020-01-22 16:00","2020","01","22","16:00","0.2","","-0.3","","97","","","","36","","2","","12.9","","97.85","","","","","","Rain"
"-128.58","54.47","TERRACE A","1068134","2020-01-22 17:00","2020","01","22","17:00","1.2","","-0.2","","90","","","","1","","21","","12.9","","97.73","","","","","","Rain"
"-128.58","54.47","TERRACE A","1068134","2020-01-22 18:00","2020","01","22","18:00","1.2","","0.0","","91","","","","3","","9","","12.9","","97.66","","","","","","Rain"
"-128.58","54.47","TERRACE A","1068134","2020-01-22 19:00","2020","01","22","19:00","0.5","","-0.2","","95","","","","10","","4","","12.9","","97.57","","","","","","Rain"
"-128.58","54.47","TERRACE A","1068134","2020-01-22 20:00","2020","01","22","20:00","1.0","","-0.1","","92","","","","2","","11","","12.9","","97.49","","","","","","Rain"
"-128.58","54.47","TERRACE A","1068134","2020-01-22 21:00","2020","01","22","21:00","1.0","","0.1","","94","","","","2","","16","","12.9","","97.41","","","","","","Rain"
"-128.58","54.47","TERRACE A","1068134","2020-01-22 22:00","2020","01","22","22:00","0.7","","0.2","","97","","","","36","","2","","12.9","","97.45","","","","","","Rain"
"-128.58","54.47","TERRACE A","1068134","2020-01-22 23:00","2020","01","22","23:00","0.4","","0.1","","98","","","","36","","1","","1.6","","97.43","","","","","","Rain,Snow"
"-128.58","54.47","TERRACE A","1068134","2020-01-23 00:00","2020","01","23","00:00","0.0","","-0.1","","99","","","","14","","5","","1.6","","97.42","","","","-2","","Snow"
"-128.58","54.47","TERRACE A","1068134","2020-01-23 01:00","2020","01","23","01:00","0.0","","-0.1","","99","","","","16","","6","","2.4","","97.39","","","","-2","","Rain,Snow"
"-128.58","54.47","TERRACE A","1068134","2020-01-23 02:00","2020","01","23","02:00","0.1","","-0.1","","99","","","","36","","3","","2.4","","97.33","","","","","","Rain,Snow"
"-128.58","54.47","TERRACE A","1068134","2020-01-23 03:00","2020","01","23","03:00","0.2","","0.0","","99","","","","36","","1","","8.1","","97.35","","","","","","Rain,Fog"
"-128.58","54.47","TERRACE A","1068134","2020-01-23 04:00","2020","01","23","04:00","0.1","","0.0","","99","","","","22","","3","","8.1","","97.33","","","","","","Rain,Fog"
"-128.58","54.47","TERRACE A","1068134","2020-01-23 05:00","2020","01","23","05:00","0.2","","0.0","","99","","","","9","","5","","8.1","","97.36","","","","","","Rain,Fog"
"-128.58","54.47","TERRACE A","1068134","2020-01-23 06:00","2020","01","23","06:00","0.4","","0.2","","99","","","","16","","4","","6.4","","97.37","","","","","","Rain,Fog"
"-128.58","54.47","TERRACE A","1068134","2020-01-23 07:00","2020","01","23","07:00","0.2","","0.0","","99","","","","16","","5","","6.4","","97.38","","","","","","Rain,Fog"
"-128.58","54.47","TERRACE A","1068134","2020-01-23 08:00","2020","01","23","08:00","0.6","","0.3","","98","","","","16","","11","","6.4","","97.41","","","","","","Rain,Fog"
"-128.58","54.47","TERRACE A","1068134","2020-01-23 09:00","2020","01","23","09:00","0.7","","0.3","","97","","","","15","","10","","6.4","","97.49","","","","","","Rain,Fog"
"-128.58","54.47","TERRACE A","1068134","2020-01-23 10:00","2020","01","23","10:00","0.6","","0.3","","98","","","","17","","5","","6.4","","97.56","","","","","","Rain,Fog"
"-128.58","54.47","TERRACE A","1068134","2020-01-23 11:00","2020","01","23","11:00","0.6","","0.3","","98","","","","17","","8","","4.0","","97.64","","","","","","Rain,Fog"
"-128.58","54.47","TERRACE A","1068134","2020-01-23 12:00","2020","01","23","12:00","0.7","","0.4","","98","","","","9","","5","","4.8","","97.69","","","","","","Rain,Fog"
"-128.58","54.47","TERRACE A","1068134","2020-01-23 13:00","2020","01","23","13:00","1.0","","0.6","","98","","","","12","","7","","4.8","","97.73","","","","","","Rain,Fog"
"-128.58","54.47","TERRACE A","1068134","2020-01-23 14:00","2020","01","23","14:00","1.0","","0.6","","97","","","","11","","7","","6.4","","97.73","","","","","","Rain,Fog"
"-128.58","54.47","TERRACE A","1068134","2020-01-23 15:00","2020","01","23","15:00","1.1","","0.8","","98","","","","17","","10","","6.4","","97.76","","","","","","Rain,Fog"
"-128.58","54.47","TERRACE A","1068134","2020-01-23 16:00","2020","01","23","16:00","1.2","","1.0","","99","","","","12","","8","","4.8","","97.78","","","","","","Rain,Fog"
"-128.58","54.47","TERRACE A","1068134","2020-01-23 17:00","2020","01","23","17:00","1.2","","1.0","","98","","","","7","","8","","4.8","","97.77","","","","","","Rain,Fog"
"-128.58","54.47","TERRACE A","1068134","2020-01-23 18:00","2020","01","23","18:00","1.3","","1.1","","98","","","","8","","4","","3.2","","97.79","","","","","","Rain,Fog"
"-128.58","54.47","TERRACE A","1068134","2020-01-23 19:00","2020","01","23","19:00","1.8","","1.6","","98","","","","10","","3","","3.2","","97.77","","","","","","Rain,Fog"
"-128.58","54.47","TERRACE A","1068134","2020-01-23 20:00","2020","01","23","20:00","1.3","","1.2","","99","","","","33","","5","","3.2","","97.73","","","","","","Rain,Fog"
"-128.58","54.47","TERRACE A","1068134","2020-01-23 21:00","2020","01","23","21:00","0.9","","0.7","","99","","","","36","","2","","3.2","","97.71","","","","","","Rain,Fog"
"-128.58","54.47","TERRACE A","1068134","2020-01-23 22:00","2020","01","23","22:00","0.8","","0.7","","99","","","","36","","2","","3.2","","97.68","","","","","","Rain,Fog"
"-128.58","54.47","TERRACE A","1068134","2020-01-23 23:00","2020","01","23","23:00","0.6","","0.5","","99","","","","5","","5","","1.6","","97.65","","","","","","Rain,Fog"
"-128.58","54.47","TERRACE A","1068134","2020-01-24 00:00","2020","01","24","00:00","0.3","","0.2","","99","","","","27","","5","","1.6","","97.64","","","","","","Rain,Fog"
"-128.58","54.47","TERRACE A","1068134","2020-01-24 01:00","2020","01","24","01:00","0.6","","0.5","","99","","","","5","","4","","1.2","","97.60","","","","","","Rain,Fog"
"-128.58","54.47","TERRACE A","1068134","2020-01-24 02:00","2020","01","24","02:00","0.4","","0.4","","99","","","","18","","3","","1.6","","97.57","","","","","","Rain,Fog"
"-128.58","54.47","TERRACE A","1068134","2020-01-24 03:00","2020","01","24","03:00","0.8","","0.7","","99","","","","36","","1","","1.6","","97.54","","","","","","Rain,Fog"
"-128.58","54.47","TERRACE A","1068134","2020-01-24 04:00","2020","01","24","04:00","0.2","","0.2","","99","","","","36","","2","","1.6","","97.46","","","","","","Rain,Fog"
"-128.58","54.47","TERRACE A","1068134","2020-01-24 05:00","2020","01","24","05:00","0.2","","0.1","","99","","","","13","","7","","0.6","","97.45","","","","","","Fog"
"-128.58","54.47","TERRACE A","1068134","2020-01-24 06:00","2020","01","24","06:00","0.3","","0.2","","99","","","","8","","3","","1.6","","97.39","","","","","","Rain,Fog"
"-128.58","54.47","TERRACE A","1068134","2020-01-24 07:00","2020","01","24","07:00","0.4","","0.3","","99","","","","36","","1","","2.4","","97.35","","","","","","Rain,Fog"
"-128.58","54.47","TERRACE A","1068134","2020-01-24 08:00","2020","01","24","08:00","0.3","","0.3","","99","","","","8","","4","","3.2","","97.36","","","","","","Rain,Fog"
"-128.58","54.47","TERRACE A","1068134","2020-01-24 09:00","2020","01","24","09:00","1.0","","0.9","","100","","","","9","","11","","6.4","","97.38","","","","","","Rain,Fog"
"-128.58","54.47","TERRACE A","1068134","2020-01-24 10:00","2020","01","24","10:00","1.4","","1.3","","99","","","","12","","8","","8.1","","97.42","","","","","","Rain,Fog"
"-128.58","54.47","TERRACE A","1068134","2020-01-24 11:00","2020","01","24","11:00","1.7","","1.5","","99","","","","19","","5","","8.1","","97.45","","","","","","Rain,Fog"
"-128.58","54.47","TERRACE A","1068134","2020-01-24 12:00","2020","01","24","12:00","1.7","","1.5","","98","","","","15","","7","","1.6","","97.44","","","","","","Rain,Fog"
"-128.58","54.47","TERRACE A","1068134","2020-01-24 13:00","2020","01","24","13:00","2.0","","1.7","","98","","","","14","","8","","3.2","","97.46","","","","","","Rain,Fog"
"-128.58","54.47","TERRACE A","1068134","2020-01-24 14:00","2020","01","24","14:00","2.1","","1.9","","98","","","","17","","5","","3.2","","97.44","","","","","","Rain,Fog"
"-128.58","54.47","TERRACE A","1068134","2020-01-24 15:00","2020","01","24","15:00","2.4","","2.1","","97","","","","13","","14","","4.8","","97.43","","","","","","Rain,Fog"
"-128.58","54.47","TERRACE A","1068134","2020-01-24 16:00","2020","01","24","16:00","2.5","","2.3","","99","","","","35","","5","","2.4","","97.47","","","","","","Rain,Fog"
"-128.58","54.47","TERRACE A","1068134","2020-01-24 17:00","2020","01","24","17:00","3.0","","2.8","","99","","","","18","","14","","8.1","","97.54","","","","","","Rain,Fog"
"-128.58","54.47","TERRACE A","1068134","2020-01-24 18:00","2020","01","24","18:00","3.0","","2.6","","98","","","","23","","10","","6.4","","97.61","","","","","","Rain,Fog"
"-128.58","54.47","TERRACE A","1068134","2020-01-24 19:00","2020","01","24","19:00","3.3","","3.0","","98","","","","20","","17","","6.4","","97.66","","","","","","Rain,Fog"
"-128.58","54.47","TERRACE A","1068134","2020-01-24 20:00","2020","01","24","20:00","2.9","","2.6","","98","","","","24","","8","","6.4","","97.72","","","","","","Rain,Fog"
"-128.58","54.47","TERRACE A","1068134","2020-01-24 21:00","2020","01","24","21:00","2.6","","2.4","","99","","","","36","","1","","1.6","","97.75","","","","","","Rain,Fog"
"-128.58","54.47","TERRACE A","1068134","2020-01-24 22:00","2020","01","24","22:00","2.4","","2.2","","99","","","","28","","5","","0.8","","97.79","","","","","","Rain,Fog"
"-128.58","54.47","TERRACE A","1068134","2020-01-24 23:00","2020","01","24","23:00","3.3","","3.2","","99","","","","17","","24","","6.4","","97.81","","","","","","Rain,Fog"
"-128.58","54.47","TERRACE A","1068134","2020-01-25 00:00","2020","01","25","00:00","3.0","","2.5","","97","","","","16","","19","","8.1","","97.81","","","","","","Rain,Fog"
"-128.58","54.47","TERRACE A","1068134","2020-01-25 01:00","2020","01","25","01:00","3.1","","2.6","","96","","","","16","","8","","8.1","","97.81","","","","","","Rain,Fog"
"-128.58","54.47","TERRACE A","1068134","2020-01-25 02:00","2020","01","25","02:00","3.6","","3.2","","97","","","","14","","21","","6.4","","97.82","","","","","","Rain,Fog"
"-128.58","54.47","TERRACE A","1068134","2020-01-25 03:00","2020","01","25","03:00","3.6","","2.7","","94","","","","16","","19","","8.1","","97.82","","","","","","Rain,Fog"
"-128.58","54.47","TERRACE A","1068134","2020-01-25 04:00","2020","01","25","04:00","2.7","","2.0","","95","","","","11","","8","","12.9","","97.75","","","","","","Rain"
"-128.58","54.47","TERRACE A","1068134","2020-01-25 05:00","2020","01","25","05:00","2.4","","2.2","","99","","","","3","","7","","12.9","","97.71","","","","","","Rain"
"-128.58","54.47","TERRACE A","1068134","2020-01-25 06:00","2020","01","25","06:00","1.9","","1.8","","99","","","","36","","7","","16.1","","97.59","","","","","","Rain"
"-128.58","54.47","TERRACE A","1068134","2020-01-25 07:00","2020","01","25","07:00","1.2","","1.0","","99","","","","12","","6","","9.7","","97.61","","","","","","Rain,Fog"
"-128.58","54.47","TERRACE A","1068134","2020-01-25 08:00","2020","01","25","08:00","2.1","","1.9","","99","","","","12","","7","","3.2","","97.71","","","","","","Rain,Fog"
"-128.58","54.47","TERRACE A","1068134","2020-01-25 09:00","2020","01","25","09:00","2.1","","1.9","","99","","","","13","","18","","8.1","","97.82","","","","","","Rain,Fog"
"-128.58","54.47","TERRACE A","1068134","2020-01-25 10:00","2020","01","25","10:00","3.4","","2.4","","93","","","","17","","26","","24.1","","97.87","","","","","","Rain Showers"
"-128.58","54.47","TERRACE A","1068134","2020-01-25 11:00","2020","01","25","11:00","3.4","","2.4","","93","","","","15","","18","","24.1","","97.94","","","","","","NA"
"-128.58","54.47","TERRACE A","1068134","2020-01-25 12:00","2020","01","25","12:00","3.7","","2.8","","94","","","","16","","23","","12.9","","98.05","","","","","","Rain Showers"
"-128.58","54.47","TERRACE A","1068134","2020-01-25 13:00","2020","01","25","13:00","3.6","","2.7","","94","","","","16","","32","","9.7","","98.13","","","","","","Rain,Fog"
"-128.58","54.47","TERRACE A","1068134","2020-01-25 14:00","2020","01","25","14:00","3.1","","2.2","","94","","","","16","","27","","24.1","","98.18","","","","","","Rain Showers"
"-128.58","54.47","TERRACE A","1068134","2020-01-25 15:00","2020","01","25","15:00","2.7","","1.8","","93","","","","17","","22","","9.7","","98.23","","","","","","Rain Showers,Fog"
"-128.58","54.47","TERRACE A","1068134","2020-01-25 16:00","2020","01","25","16:00","2.6","","1.5","","93","","","","17","","25","","12.9","","98.30","","","","","","Rain Showers"
"-128.58","54.47","TERRACE A","1068134","2020-01-25 17:00","2020","01","25","17:00","3.1","","2.2","","94","","","","14","","18","","24.1","","98.31","","","","","","Rain Showers"
"-128.58","54.47","TERRACE A","1068134","2020-01-25 18:00","2020","01","25","18:00","2.0","","1.1","","94","","","","32","","5","","24.1","","98.28","","","","","","Rain Showers"
"-128.58","54.47","TERRACE A","1068134","2020-01-25 19:00","2020","01","25","19:00","1.8","","1.4","","97","","","","5","","3","","24.1","","98.30","","","","","","Cloudy"
"-128.58","54.47","TERRACE A","1068134","2020-01-25 20:00","2020","01","25","20:00","2.4","","2.1","","98","","","","36","","2","","24.1","","98.28","","","","","","NA"
"-128.58","54.47","TERRACE A","1068134","2020-01-25 21:00","2020","01","25","21:00","1.2","","1.0","","99","","","","13","","8","","8.1","","98.28","","","","","","Fog"
"-128.58","54.47","TERRACE A","1068134","2020-01-25 22:00","2020","01","25","22:00","1.2","","1.1","","99","","","","36","","2","","0.6","","98.24","","","","","","Fog"
"-128.58","54.47","TERRACE A","1068134","2020-01-25 23:00","2020","01","25","23:00","-1.8","","-1.9","","99","","","","12","","5","","0.6","","98.20","","","","-4","","Freezing Fog"
"-128.58","54.47","TERRACE A","1068134","2020-01-26 00:00","2020","01","26","00:00","0.0","","-0.1","","99","","","","0","","1","","0.6","","98.16","","","","0","","Fog"
"-128.58","54.47","TERRACE A","1068134","2020-01-26 01:00","2020","01","26","01:00","-0.2","","-0.3","","99","","","","14","","5","","0.4","","98.08","","","","-2","","Freezing Fog"
"-128.58","54.47","TERRACE A","1068134","2020-01-26 02:00","2020","01","26","02:00","-0.8","","-0.9","","99","","","","29","","3","","0.4","","98.01","","","","-2","","Freezing Fog"
"-128.58","54.47","TERRACE A","1068134","2020-01-26 03:00","2020","01","26","03:00","-0.9","","-1.0","","99","","","","19","","6","","0.8","","97.97","","","","-3","","Freezing Fog"
"-128.58","54.47","TERRACE A","1068134","2020-01-26 04:00","2020","01","26","04:00","-0.2","","-0.3","","100","","","","28","","6","","9.7","","97.82","","","","-2","","Fog"
"-128.58","54.47","TERRACE A","1068134","2020-01-26 05:00","2020","01","26","05:00","0.8","","0.7","","99","","","","1","","20","","6.4","","97.65","","","","","","Fog"
"-128.58","54.47","TERRACE A","1068134","2020-01-26 06:00","2020","01","26","06:00","1.4","","0.6","","95","","","","36","","27","","12.9","","97.55","","","","","","NA"
"-128.58","54.47","TERRACE A","1068134","2020-01-26 07:00","2020","01","26","07:00","2.0","","0.2","","88","","","","1","","23","","16.1","","97.50","","","","","","Cloudy"
"-128.58","54.47","TERRACE A","1068134","2020-01-26 08:00","2020","01","26","08:00","1.8","","-0.1","","87","","","","2","","26","","32.2","","97.42","","","","","","NA"
"-128.58","54.47","TERRACE A","1068134","2020-01-26 09:00","2020","01","26","09:00","2.1","","-0.3","","84","","","","1","","18","","32.2","","97.34","","","","","","NA"
"-128.58","54.47","TERRACE A","1068134","2020-01-26 10:00","2020","01","26","10:00","2.2","","-0.3","","84","","","","35","","15","","32.2","","97.30","","","","","","Cloudy"
"-128.58","54.47","TERRACE A","1068134","2020-01-26 11:00","2020","01","26","11:00","2.4","","-0.3","","82","","","","36","","24","","32.2","","97.33","","","","","","NA"
"-128.58","54.47","TERRACE A","1068134","2020-01-26 12:00","2020","01","26","12:00","1.9","","0.0","","87","","","","31","","4","","32.2","","97.41","","","","","","NA"
"-128.58","54.47","TERRACE A","1068134","2020-01-26 13:00","2020","01","26","13:00","1.6","","1.2","","97","","","","15","","5","","24.1","","97.48","","","","","","Rain"
"-128.58","54.47","TERRACE A","1068134","2020-01-26 14:00","2020","01","26","14:00","1.5","","0.8","","95","","","","10","","10","","24.1","","97.54","","","","","","Rain Showers"
"-128.58","54.47","TERRACE A","1068134","2020-01-26 15:00","2020","01","26","15:00","1.6","","1.0","","96","","","","14","","11","","9.7","","97.62","","","","","","Rain Showers,Fog"
"-128.58","54.47","TERRACE A","1068134","2020-01-26 16:00","2020","01","26","16:00","1.1","","0.6","","97","","","","15","","8","","9.7","","97.65","","","","","","Rain Showers"
"-128.58","54.47","TERRACE A","1068134","2020-01-26 17:00","2020","01","26","17:00","0.9","","0.6","","98","","","","24","","3","","9.7","","97.63","","","","","","Rain Showers,Fog"
"-128.58","54.47","TERRACE A","1068134","2020-01-26 18:00","2020","01","26","18:00","0.9","","0.7","","99","","","","8","","3","","9.7","","97.66","","","","","","Rain,Fog"
"-128.58","54.47","TERRACE A","1068134","2020-01-26 19:00","2020","01","26","19:00","0.6","","0.5","","99","","","","10","","4","","4.8","","97.66","","","","","","Rain,Fog"
"-128.58","54.47","TERRACE A","1068134","2020-01-26 20:00","2020","01","26","20:00","0.8","","0.6","","99","","","","11","","5","","6.4","","97.66","","","","","","Rain"
"-128.58","54.47","TERRACE A","1068134","2020-01-26 21:00","2020","01","26","21:00","1.1","","0.9","","99","","","","8","","9","","6.4","","97.72","","","","","","Rain,Fog"
"-128.58","54.47","TERRACE A","1068134","2020-01-26 22:00","2020","01","26","22:00","1.3","","1.0","","98","","","","13","","14","","6.4","","97.77","","","","","","Rain,Fog"
"-128.58","54.47","TERRACE A","1068134","2020-01-26 23:00","2020","01","26","23:00","1.1","","0.8","","98","","","","12","","15","","4.8","","97.81","","","","","","Rain,Fog"
"-128.58","54.47","TERRACE A","1068134","2020-01-27 00:00","2020","01","27","00:00","1.8","","1.2","","96","","","","17","","29","","6.4","","97.85","","","","","","Rain,Fog"
"-128.58","54.47","TERRACE A","1068134","2020-01-27 01:00","2020","01","27","01:00","2.4","","1.3","","93","","","","18","","32","","6.4","","97.89","","","","","","Rain,Fog"
"-128.58","54.47","TERRACE A","1068134","2020-01-27 02:00","2020","01","27","02:00","2.4","","1.1","","91","","","","17","","34","","3.2","","97.96","","","","","","Rain,Fog"
"-128.58","54.47","TERRACE A","1068134","2020-01-27 03:00","2020","01","27","03:00","2.0","","1.1","","93","","","","17","","30","","9.7","","98.06","","","","","","Rain,Fog"
"-128.58","54.47","TERRACE A","1068134","2020-01-27 04:00","2020","01","27","04:00","1.7","","1.2","","96","","","","20","","21","","8.1","","98.18","","","","","","Rain,Fog"
"-128.58","54.47","TERRACE A","1068134","2020-01-27 05:00","2020","01","27","05:00","1.7","","0.6","","92","","","","17","","41","","6.4","","98.26","","","","","","Rain,Fog"
"-128.58","54.47","TERRACE A","1068134","2020-01-27 06:00","2020","01","27","06:00","1.8","","0.5","","91","","","","19","","26","","16.1","","98.34","","","","","","Rain"
"-128.58","54.47","TERRACE A","1068134","2020-01-27 07:00","2020","01","27","07:00","1.3","","0.5","","94","","","","19","","21","","16.1","","98.42","","","","","","Rain"
"-128.58","54.47","TERRACE A","1068134","2020-01-27 08:00","2020","01","27","08:00","1.4","","0.5","","94","","","","20","","22","","24.1","","98.48","","","","","","Rain Showers"
"-128.58","54.47","TERRACE A","1068134","2020-01-27 09:00","2020","01","27","09:00","1.0","","0.4","","96","","","","17","","18","","24.1","","98.54","","","","","","NA"
"-128.58","54.47","TERRACE A","1068134","2020-01-27 10:00","2020","01","27","10:00","1.5","","0.4","","93","","","","15","","18","","24.1","","98.57","","","","","","Mostly Cloudy"
"-128.58","54.47","TERRACE A","1068134","2020-01-27 11:00","2020","01","27","11:00","1.6","","0.4","","91","","","","16","","11","","24.1","","98.57","","","","","","NA"
"-128.58","54.47","TERRACE A","1068134","2020-01-27 12:00","2020","01","27","12:00","1.8","","0.3","","90","","","","8","","3","","24.1","","98.53","","","","","","NA"
"-128.58","54.47","TERRACE A","1068134","2020-01-27 13:00","2020","01","27","13:00","1.7","","0.6","","92","","","","33","","7","","24.1","","98.49","","","","","","Mostly Cloudy"
"-128.58","54.47","TERRACE A","1068134","2020-01-27 14:00","2020","01","27","14:00","2.1","","0.8","","91","","","","36","","1","","24.1","","98.44","","","","","","NA"
"-128.58","54.47","TERRACE A","1068134","2020-01-27 15:00","2020","01","27","15:00","2.1","","1.0","","92","","","","36","","3","","24.1","","98.42","","","","","","NA"
"-128.58","54.47","TERRACE A","1068134","2020-01-27 16:00","2020","01","27","16:00","1.9","","0.7","","92","","","","36","","3","","16.1","","98.40","","","","","","Rain"
"-128.58","54.47","TERRACE A","1068134","2020-01-27 17:00","2020","01","27","17:00","1.4","","0.8","","96","","","","34","","4","","16.1","","98.36","","","","","","Rain"
"-128.58","54.47","TERRACE A","1068134","2020-01-27 18:00","2020","01","27","18:00","0.9","","0.7","","98","","","","32","","9","","16.1","","98.30","","","","","","Rain"
"-128.58","54.47","TERRACE A","1068134","2020-01-27 19:00","2020","01","27","19:00","0.9","","0.6","","98","","","","3","","4","","4.8","","98.27","","","","","","Rain,Fog"
"-128.58","54.47","TERRACE A","1068134","2020-01-27 20:00","2020","01","27","20:00","0.9","","0.7","","98","","","","6","","7","","2.4","","98.24","","","","","","Rain,Fog"
"-128.58","54.47","TERRACE A","1068134","2020-01-27 21:00","2020","01","27","21:00","1.0","","0.8","","98","","","","36","","9","","4.8","","98.22","","","","","","Rain,Fog"
"-128.58","54.47","TERRACE A","1068134","2020-01-27 22:00","2020","01","27","22:00","0.6","","0.3","","98","","","","4","","4","","6.4","","98.25","","","","","","Rain,Snow,Fog"
"-128.58","54.47","TERRACE A","1068134","2020-01-27 23:00","2020","01","27","23:00","0.8","","0.4","","97","","","","36","","16","","4.8","","98.21","","","","","","Rain,Snow,Fog"
"-128.58","54.47","TERRACE A","1068134","2020-01-28 00:00","2020","01","28","00:00","0.6","","0.2","","98","","","","2","","10","","4.8","","98.24","","","","","","Fog"
"-128.58","54.47","TERRACE A","1068134","2020-01-28 01:00","2020","01","28","01:00","0.7","","0.2","","97","","","","1","","11","","4.8","","98.23","","","","","","Fog"
"-128.58","54.47","TERRACE A","1068134","2020-01-28 02:00","2020","01","28","02:00","0.8","","0.2","","96","","","","36","","10","","8.1","","98.25","","","","","","Snow,Fog"
"-128.58","54.47","TERRACE A","1068134","2020-01-28 03:00","2020","01","28","03:00","0.4","","0.2","","98","","","","7","","3","","1.2","","98.33","","","","","","Fog"
"-128.58","54.47","TERRACE A","1068134","2020-01-28 04:00","2020","01","28","04:00","0.4","","0.2","","99","","","","3","","7","","3.2","","98.38","","","","","","Fog"
"-128.58","54.47","TERRACE A","1068134","2020-01-28 05:00","2020","01","28","05:00","0.3","","0.0","","98","","","","2","","7","","3.2","","98.39","","","","","","Snow,Fog"
"-128.58","54.47","TERRACE A","1068134","2020-01-28 06:00","2020","01","28","06:00","0.1","","-0.1","","99","","","","3","","6","","0.8","","98.41","","","","","","Fog"
"-128.58","54.47","TERRACE A","1068134","2020-01-28 07:00","2020","01","28","07:00","-0.4","","-0.5","","99","","","","36","","1","","0.6","","98.43","","","","-1","","Freezing Fog"
"-128.58","54.47","TERRACE A","1068134","2020-01-28 08:00","2020","01","28","08:00","0.2","","0.0","","99","","","","35","","7","","1.2","","98.49","","","","","","Snow,Fog"
"-128.58","54.47","TERRACE A","1068134","2020-01-28 09:00","2020","01","28","09:00","-0.1","","-0.2","","99","","","","34","","5","","0.8","","98.57","","","","-2","","Snow,Freezing Fog"
"-128.58","54.47","TERRACE A","1068134","2020-01-28 10:00","2020","01","28","10:00","-0.1","","-0.2","","99","","","","36","","1","","1.2","","98.59","","","","0","","Snow,Fog"
"-128.58","54.47","TERRACE A","1068134","2020-01-28 11:00","2020","01","28","11:00","0.1","","0.0","","99","","","","9","","4","","1.2","","98.66","","","","","","Snow,Fog"
"-128.58","54.47","TERRACE A","1068134","2020-01-28 12:00","2020","01","28","12:00","0.4","","0.3","","99","","","","23","","3","","2.4","","98.67","","","","","","Rain,Fog"
"-128.58","54.47","TERRACE A","1068134","2020-01-28 13:00","2020","01","28","13:00","0.6","","0.4","","98","","","","36","","2","","2.4","","98.63","","","","","","Rain,Fog"
"-128.58","54.47","TERRACE A","1068134","2020-01-28 14:00","2020","01","28","14:00","0.5","","0.2","","98","","","","12","","3","","4.0","","98.58","","","","","","Rain,Fog"
"-128.58","54.47","TERRACE A","1068134","2020-01-28 15:00","2020","01","28","15:00","0.6","","0.3","","98","","","","8","","5","","4.8","","98.50","","","","","","Rain,Fog"
"-128.58","54.47","TERRACE A","1068134","2020-01-28 16:00","2020","01","28","16:00","0.9","","0.7","","99","","","","31","","3","","8.1","","98.42","","","","","","Rain,Fog"
"-128.58","54.47","TERRACE A","1068134","2020-01-28 17:00","2020","01","28","17:00","0.9","","0.7","","98","","","","8","","10","","1.6","","98.35","","","","","","Rain,Fog"
"-128.58","54.47","TERRACE A","1068134","2020-01-28 18:00","2020","01","28","18:00","0.7","","0.6","","99","","","","35","","4","","8.1","","98.26","","","","","","Rain,Fog"
"-128.58","54.47","TERRACE A","1068134","2020-01-28 19:00","2020","01","28","19:00","0.6","","0.4","","98","","","","6","","7","","8.1","","98.09","","","","","","Fog"
"-128.58","54.47","TERRACE A","1068134","2020-01-28 20:00","2020","01","28","20:00","0.5","","0.3","","98","","","","8","","3","","16.1","","97.98","","","","","","NA"
"-128.58","54.47","TERRACE A","1068134","2020-01-28 21:00","2020","01","28","21:00","0.9","","0.6","","98","","","","10","","5","","16.1","","97.82","","","","","","NA"
"-128.58","54.47","TERRACE A","1068134","2020-01-28 22:00","2020","01","28","22:00","1.0","","0.5","","96","","","","8","","7","","11.3","","97.65","","","","","","Cloudy"
"-128.58","54.47","TERRACE A","1068134","2020-01-28 23:00","2020","01","28","23:00","0.6","","0.3","","98","","","","12","","10","","11.3","","97.51","","","","","","Rain"
"-128.58","54.47","TERRACE A","1068134","2020-01-29 00:00","2020","01","29","00:00","1.8","","1.5","","98","","","","17","","9","","8.1","","97.38","","","","","","Rain,Fog"
"-128.58","54.47","TERRACE A","1068134","2020-01-29 01:00","2020","01","29","01:00","1.9","","1.1","","94","","","","15","","14","","8.1","","97.21","","","","","","Rain,Fog"
"-128.58","54.47","TERRACE A","1068134","2020-01-29 02:00","2020","01","29","02:00","1.1","","0.6","","96","","","","12","","15","","8.1","","97.10","","","","","","Rain,Fog"
"-128.58","54.47","TERRACE A","1068134","2020-01-29 03:00","2020","01","29","03:00","1.2","","0.6","","96","","","","10","","19","","4.8","","97.04","","","","","","Rain,Fog"
"-128.58","54.47","TERRACE A","1068134","2020-01-29 04:00","2020","01","29","04:00","1.7","","0.7","","93","","","","13","","25","","4.8","","96.97","","","","","","Rain,Fog"
"-128.58","54.47","TERRACE A","1068134","2020-01-29 05:00","2020","01","29","05:00","1.5","","0.9","","96","","","","14","","18","","8.1","","96.94","","","","","","Moderate Rain,Fog"
"-128.58","54.47","TERRACE A","1068134","2020-01-29 06:00","2020","01","29","06:00","1.1","","0.5","","96","","","","15","","30","","8.1","","96.99","","","","","","Rain,Fog"
"-128.58","54.47","TERRACE A","1068134","2020-01-29 07:00","2020","01","29","07:00","1.0","","0.3","","95","","","","16","","36","","8.1","","97.09","","","","","","Rain,Fog"
"-128.58","54.47","TERRACE A","1068134","2020-01-29 08:00","2020","01","29","08:00","0.8","","0.3","","97","","","","18","","16","","9.7","","97.23","","","","","","Rain,Fog"
"-128.58","54.47","TERRACE A","1068134","2020-01-29 09:00","2020","01","29","09:00","1.2","","0.5","","95","","","","18","","30","","8.1","","97.35","","","","","","Rain,Fog"
"-128.58","54.47","TERRACE A","1068134","2020-01-29 10:00","2020","01","29","10:00","2.1","","1.1","","93","","","","17","","37","","9.7","","97.39","","","","","","Rain,Fog"
"-128.58","54.47","TERRACE A","1068134","2020-01-29 11:00","2020","01","29","11:00","2.5","","1.4","","93","","","","17","","43","","8.1","","97.51","","","","","","Rain,Fog"
"-128.58","54.47","TERRACE A","1068134","2020-01-29 12:00","2020","01","29","12:00","2.6","","1.6","","93","","","","18","","33","","8.1","","97.63","","","","","","Rain,Fog"
"-128.58","54.47","TERRACE A","1068134","2020-01-29 13:00","2020","01","29","13:00","2.8","","1.4","","91","","","","18","","34","","11.3","","97.74","","","","","","Rain"
"-128.58","54.47","TERRACE A","1068134","2020-01-29 14:00","2020","01","29","14:00","2.5","","1.4","","93","","","","19","","34","","12.9","","97.92","","","","","","Rain"
"-128.58","54.47","TERRACE A","1068134","2020-01-29 15:00","2020","01","29","15:00","2.9","","1.4","","90","","","","18","","41","","12.9","","98.03","","","","","","Rain"
"-128.58","54.47","TERRACE A","1068134","2020-01-29 16:00","2020","01","29","16:00","2.6","","1.4","","92","","","","19","","32","","16.1","","98.19","","","","","","Rain Showers"
"-128.58","54.47","TERRACE A","1068134","2020-01-29 17:00","2020","01","29","17:00","2.4","","1.2","","92","","","","19","","30","","8.1","","98.34","","","","","","Rain,Fog"
"-128.58","54.47","TERRACE A","1068134","2020-01-29 18:00","2020","01","29","18:00","2.3","","1.0","","91","","","","18","","26","","8.1","","98.47","","","","","","Rain,Fog"
"-128.58","54.47","TERRACE A","1068134","2020-01-29 19:00","2020","01","29","19:00","1.9","","1.2","","95","","","","20","","22","","8.1","","98.54","","","","","","Rain,Fog"
"-128.58","54.47","TERRACE A","1068134","2020-01-29 20:00","2020","01","29","20:00","1.9","","1.1","","94","","","","19","","25","","16.1","","98.63","","","","","","Rain"
"-128.58","54.47","TERRACE A","1068134","2020-01-29 21:00","2020","01","29","21:00","1.9","","1.0","","94","","","","18","","33","","11.3","","98.63","","","","","","Rain Showers"
"-128.58","54.47","TERRACE A","1068134","2020-01-29 22:00","2020","01","29","22:00","1.8","","0.8","","93","","","","17","","24","","16.1","","98.65","","","","","","Rain Showers"
"-128.58","54.47","TERRACE A","1068134","2020-01-29 23:00","2020","01","29","23:00","1.1","","0.4","","96","","","","17","","15","","11.3","","98.61","","","","","","Rain Showers"
"-128.58","54.47","TERRACE A","1068134","2020-01-30 00:00","2020","01","30","00:00","0.2","","-0.1","","98","","","","12","","10","","2.4","","98.55","","","","","","Snow Showers,Fog"
"-128.58","54.47","TERRACE A","1068134","2020-01-30 01:00","2020","01","30","01:00","0.1","","-0.1","","98","","","","15","","17","","1.2","","98.48","","","","","","Snow"
"-128.58","54.47","TERRACE A","1068134","2020-01-30 02:00","2020","01","30","02:00","0.2","","-0.1","","98","","","","14","","22","","1.2","","98.43","","","","","","Snow"
"-128.58","54.47","TERRACE A","1068134","2020-01-30 03:00","2020","01","30","03:00","0.8","","0.2","","96","","","","16","","35","","4.8","","98.37","","","","","","Rain"
"-128.58","54.47","TERRACE A","1068134","2020-01-30 04:00","2020","01","30","04:00","1.2","","0.5","","95","","","","16","","29","","3.2","","98.23","","","","","","Moderate Rain,Fog"
"-128.58","54.47","TERRACE A","1068134","2020-01-30 05:00","2020","01","30","05:00","1.3","","0.7","","95","","","","16","","26","","3.2","","98.12","","","","","","Moderate Rain,Fog"
"-128.58","54.47","TERRACE A","1068134","2020-01-30 06:00","2020","01","30","06:00","1.8","","1.2","","96","","","","15","","21","","6.4","","97.98","","","","","","Moderate Rain,Fog"
"-128.58","54.47","TERRACE A","1068134","2020-01-30 07:00","2020","01","30","07:00","1.9","","1.0","","94","","","","17","","21","","8.1","","97.82","","","","","","Rain,Fog"
"-128.58","54.47","TERRACE A","1068134","2020-01-30 08:00","2020","01","30","08:00","2.0","","0.8","","91","","","","17","","45","","8.1","","97.68","","","","","","Rain,Fog"
"-128.58","54.47","TERRACE A","1068134","2020-01-30 09:00","2020","01","30","09:00","1.4","","0.8","","95","","","","16","","13","","6.4","","97.53","","","","","","Rain,Snow"
"-128.58","54.47","TERRACE A","1068134","2020-01-30 10:00","2020","01","30","10:00","0.6","","0.2","","97","","","","12","","12","","1.6","","97.38","","","","","","Snow,Fog"
"-128.58","54.47","TERRACE A","1068134","2020-01-30 11:00","2020","01","30","11:00","0.4","","0.1","","98","","","","14","","21","","1.2","","97.31","","","","","","Snow"
"-128.58","54.47","TERRACE A","1068134","2020-01-30 12:00","2020","01","30","12:00","0.7","","0.2","","96","","","","15","","28","","2.4","","97.26","","","","","","Snow,Fog"
"-128.58","54.47","TERRACE A","1068134","2020-01-30 13:00","2020","01","30","13:00","0.5","","0.0","","97","","","","15","","35","","2.4","","97.10","","","","","","Rain,Snow,Fog"
"-128.58","54.47","TERRACE A","1068134","2020-01-30 14:00","2020","01","30","14:00","0.7","","0.1","","96","","","","16","","37","","2.4","","97.05","","","","","","Rain,Snow,Fog"
"-128.58","54.47","TERRACE A","1068134","2020-01-30 15:00","2020","01","30","15:00","0.6","","0.0","","96","","","","17","","38","","2.4","","97.13","","","","","","Rain,Snow,Fog"
"-128.58","54.47","TERRACE A","1068134","2020-01-30 16:00","2020","01","30","16:00","0.5","","0.0","","97","","","","20","","21","","8.1","","97.32","","","","","","Rain,Fog"
"-128.58","54.47","TERRACE A","1068134","2020-01-30 17:00","2020","01","30","17:00","1.3","","0.4","","94","","","","19","","24","","12.9","","97.52","","","","","","Rain"
"-128.58","54.47","TERRACE A","1068134","2020-01-30 18:00","2020","01","30","18:00","1.3","","0.8","","97","","","","20","","19","","6.4","","97.69","","","","","","Fog"
"-128.58","54.47","TERRACE A","1068134","2020-01-30 19:00","2020","01","30","19:00","1.7","","1.0","","95","","","","19","","17","","6.4","","97.79","","","","","","Fog"
"-128.58","54.47","TERRACE A","1068134","2020-01-30 20:00","2020","01","30","20:00","1.8","","1.2","","96","","","","18","","24","","8.1","","97.84","","","","","","Rain,Snow,Fog"
"-128.58","54.47","TERRACE A","1068134","2020-01-30 21:00","2020","01","30","21:00","1.5","","0.7","","94","","","","18","","23","","11.3","","97.94","","","","","","NA"
"-128.58","54.47","TERRACE A","1068134","2020-01-30 22:00","2020","01","30","22:00","1.6","","0.5","","92","","","","19","","28","","16.1","","97.98","","","","","","Mostly Cloudy"
"-128.58","54.47","TERRACE A","1068134","2020-01-30 23:00","2020","01","30","23:00","1.4","","0.7","","95","","","","20","","18","","16.1","","97.99","","","","","","NA"
"-128.58","54.47","TERRACE A","1068134","2020-01-31 00:00","2020","01","31","00:00","1.8","","1.1","","95","","","","17","","44","","11.3","","97.96","","","","","","NA"
"-128.58","54.47","TERRACE A","1068134","2020-01-31 01:00","2020","01","31","01:00","1.8","","1.1","","95","","","","18","","39","","8.1","","98.03","","","","","","Rain"
"-128.58","54.47","TERRACE A","1068134","2020-01-31 02:00","2020","01","31","02:00","1.7","","1.1","","96","","","","18","","24","","8.1","","98.06","","","","","","Rain"
"-128.58","54.47","TERRACE A","1068134","2020-01-31 03:00","2020","01","31","03:00","1.5","","0.9","","96","","","","19","","21","","8.1","","98.12","","","","","","Rain"
"-128.58","54.47","TERRACE A","1068134","2020-01-31 04:00","2020","01","31","04:00","1.7","","1.1","","96","","","","18","","26","","8.1","","98.12","","","","","","Rain"
"-128.58","54.47","TERRACE A","1068134","2020-01-31 05:00","2020","01","31","05:00","1.6","","0.8","","94","","","","19","","39","","11.3","","98.14","","","","","","Rain"
"-128.58","54.47","TERRACE A","1068134","2020-01-31 06:00","2020","01","31","06:00","1.7","","1.1","","96","","","","19","","27","","11.3","","98.14","","","","","","Rain"
"-128.58","54.47","TERRACE A","1068134","2020-01-31 07:00","2020","01","31","07:00","1.9","","1.0","","94","","","","17","","21","","12.9","","98.17","","","","","","Rain"
"-128.58","54.47","TERRACE A","1068134","2020-01-31 08:00","2020","01","31","08:00","1.1","","0.3","","94","","","","17","","39","","11.3","","98.14","","","","","","Rain"
"-128.58","54.47","TERRACE A","1068134","2020-01-31 09:00","2020","01","31","09:00","0.9","","0.3","","96","","","","16","","25","","8.1","","98.05","","","","","","Rain,Fog"
"-128.58","54.47","TERRACE A","1068134","2020-01-31 10:00","2020","01","31","10:00","0.8","","0.3","","96","","","","16","","10","","6.4","","98.02","","","","","","Rain,Fog"
"-128.58","54.47","TERRACE A","1068134","2020-01-31 11:00","2020","01","31","11:00","0.2","","0.0","","98","","","","7","","8","","2.0","","97.84","","","","","","Snow,Fog"
"-128.58","54.47","TERRACE A","1068134","2020-01-31 12:00","2020","01","31","12:00","0.2","","0.0","","98","","","","2","","8","","2.4","","97.63","","","","","","Rain,Snow,Fog"
"-128.58","54.47","TERRACE A","1068134","2020-01-31 13:00","2020","01","31","13:00","0.1","","-0.1","","99","","","","33","","9","","0.8","","97.40","","","","","","Rain,Snow,Fog"
"-128.58","54.47","TERRACE A","1068134","2020-01-31 14:00","2020","01","31","14:00","0.4","","0.2","","99","","","","1","","13","","2.4","","97.02","","","","","","Snow,Fog"
"-128.58","54.47","TERRACE A","1068134","2020-01-31 15:00","2020","01","31","15:00","0.6","","0.4","","98","","","","36","","20","","1.6","","96.82","","","","","","Snow,Fog"
"-128.58","54.47","TERRACE A","1068134","2020-01-31 16:00","2020","01","31","16:00","0.2","","-0.1","","98","","","","36","","22","","1.2","","96.61","","","","","","Snow,Fog"
"-128.58","54.47","TERRACE A","1068134","2020-01-31 17:00","2020","01","31","17:00","0.2","","0.0","","98","","","","36","","26","","1.0","","96.47","","","","","","Snow,Fog"
"-128.58","54.47","TERRACE A","1068134","2020-01-31 18:00","2020","01","31","18:00","0.3","","0.0","","98","","","","35","","25","","1.2","","96.27","","","","","","Snow,Fog"
"-128.58","54.47","TERRACE A","1068134","2020-01-31 19:00","2020","01","31","19:00","0.2","","-0.2","","98","","","","36","","32","","1.2","","96.02","","","","","","Snow,Fog"
"-128.58","54.47","TERRACE A","1068134","2020-01-31 20:00","2020","01","31","20:00","0.2","","-0.1","","98","","","","35","","28","","1.2","","95.81","","","","","","Snow"
"-128.58","54.47","TERRACE A","1068134","2020-01-31 21:00","2020","01","31","21:00","0.2","","-0.1","","98","","","","3","","16","","1.2","","95.81","","","","","","Snow"
"-128.58","54.47","TERRACE A","1068134","2020-01-31 22:00","2020","01","31","22:00","0.3","","0.0","","98","","","","35","","17","","1.6","","95.88","","","","","","Snow"
"-128.58","54.47","TERRACE A","1068134","2020-01-31 23:00","2020","01","31","23:00","-0.1","","-0.3","","99","","","","23","","5","","0.8","","96.10","","","","-2","","Moderate Snow"
