"Longitude (x)","Latitude (y)","Station Name","Climate ID","Date/Time (LST)","Year","Month","Day","Time (LST)","Temp (°C)","Temp Flag","Dew Point Temp (°C)","Dew Point Temp Flag","Rel Hum (%)","Rel Hum Flag","Precip. Amount (mm)","Precip. Amount Flag","Wind Dir (10s deg)","Wind Dir Flag","Wind Spd (km/h)","Wind Spd Flag","Visibility (km)","Visibility Flag","Stn Press (kPa)","Stn Press Flag","Hmdx","Hmdx Flag","Wind Chill","Wind Chill Flag","Weather"
"-76.60","44.23","KINGSTON A","6104149","2022-11-01 00:00","2022","11","01","00:00"
"-76.60","44.23","KINGSTON A","6104149","2022-11-01 01:00","2022","11","01","01:00"
"-76.60","44.23","KINGSTON A","6104149","2022-11-01 02:00","2022","11","01","02:00"
"-76.60","44.23","KINGSTON A","6104149","2022-11-01 03:00","2022","11","01","03:00"
"-76.60","44.23","KINGSTON A","6104149","2022-11-01 04:00","2022","11","01","04:00"
"-76.60","44.23","KINGSTON A","6104149","2022-11-01 05:00","2022","11","01","05:00","13.2","","12.6","","96","","","","21","","8","","16.1","","100.24","","","","","","Rain Showers"
"-76.60","44.23","KINGSTON A","6104149","2022-11-01 06:00","2022","11","01","06:00","13.0","","12.5","","96","","","","19","","9","","12.9","","100.27","","","","","","Rain Showers"
"-76.60","44.23","KINGSTON A","6104149","2022-11-01 07:00","2022","11","01","07:00","13.2","","12.7","","97","","","","29","","5","","8.1","","100.32","","","","","","Fog"
"-76.60","44.23","KINGSTON A","6104149","2022-11-01 08:00","2022","11","01","08:00","13.2","","12.8","","98","","","","31","","5","","4.8","","100.39","","","","","","Fog"
"-76.60","44.23","KINGSTON A","6104149","2022-11-01 09:00","2022","11","01","09:00","13.2","","12.9","","98","","","","28","","5","","2.4","","100.43","","","","","","Fog"
"-76.60","44.23","KINGSTON A","6104149","2022-11-01 10:00","2022","11","01","10:00","13.2","","12.7","","97","","","","32","","10","","2.4","","100.48","","","","","","Fog"
"-76.60","44.23","KINGSTON A","6104149","2022-11-01 11:00","2022","11","01","11:00","13.6","","12.7","","94","","","","33","","6","","9.7","","100.51","","","","","","Fog"
"-76.60","44.23","KINGSTON A","6104149","2022-11-01 12:00","2022","11","01","12:00","14.0","","12.7","","92","","","","25","","5","","16.1","","100.49","","","","","","NA"
"-76.60","44.23","KINGSTON A","6104149","2022-11-01 13:00","2022","11","01","13:00","14.7","","13.1","","90","","","","23","","9","","24.1","","100.47","","","","","","Mostly Cloudy"
"-76.60","44.23","KINGSTON A","6104149","2022-11-01 14:00","2022","11","01","14:00","15.4","","13.6","","89","","","","23","","9","","24.1","","100.48","","","","","","NA"
"-76.60","44.23","KINGSTON A","6104149","2022-11-01 15:00","2022","11","01","15:00","15.9","","13.0","","83","","","","23","","13","","24.1","","100.53","","","","","","NA"
"-76.60","44.23","KINGSTON A","6104149","2022-11-01 16:00","2022","11","01","16:00","15.3","","12.6","","84","","","","23","","9","","24.1","","100.60","","","","","","Mainly Clear"
"-76.60","44.23","KINGSTON A","6104149","2022-11-01 17:00","2022","11","01","17:00","12.9","","12.2","","95","","","","20","","14","","24.1","","100.67","","","","","","NA"
"-76.60","44.23","KINGSTON A","6104149","2022-11-01 18:00","2022","11","01","18:00","13.5","","11.9","","90","","","","24","","13","","24.1","","100.77","","","","","","NA"
"-76.60","44.23","KINGSTON A","6104149","2022-11-01 19:00","2022","11","01","19:00","12.4","","10.4","","88","","","","25","","7","","24.1","","100.88","","","","","","Clear"
"-76.60","44.23","KINGSTON A","6104149","2022-11-01 20:00","2022","11","01","20:00","11.6","","9.8","","89","","","","26","","6","","24.1","","100.93","","","","","","NA"
"-76.60","44.23","KINGSTON A","6104149","2022-11-01 21:00","2022","11","01","21:00","10.5","","9.0","","90","","","","27","","7","","24.1","","101.00","","","","","","NA"
"-76.60","44.23","KINGSTON A","6104149","2022-11-01 22:00","2022","11","01","22:00","9.6","","8.6","","93","","","","28","","8","","24.1","","101.08","","","","","","Clear"
"-76.60","44.23","KINGSTON A","6104149","2022-11-01 23:00","2022","11","01","23:00"
"-76.60","44.23","KINGSTON A","6104149","2022-11-02 00:00","2022","11","02","00:00"
"-76.60","44.23","KINGSTON A","6104149","2022-11-02 01:00","2022","11","02","01:00"
"-76.60","44.23","KINGSTON A","6104149","2022-11-02 02:00","2022","11","02","02:00"
"-76.60","44.23","KINGSTON A","6104149","2022-11-02 03:00","2022","11","02","03:00"
"-76.60","44.23","KINGSTON A","6104149","2022-11-02 04:00","2022","11","02","04:00"
"-76.60","44.23","KINGSTON A","6104149","2022-11-02 05:00","2022","11","02","05:00","4.8","","4.4","","97","","","","30","","5","","24.1","","101.53","","","","","","NA"
"-76.60","44.23","KINGSTON A","6104149","2022-11-02 06:00","2022","11","02","06:00","4.7","","4.3","","98","","","","30","","4","","24.1","","101.59","","","","","","NA"
"-76.60","44.23","KINGSTON A","6104149","2022-11-02 07:00","2022","11","02","07:00","3.8","","3.5","","98","","","","34","","7","","24.1","","101.64","","","","","","Mainly Clear"
"-76.60","44.23","KINGSTON A","6104149","2022-11-02 08:00","2022","11","02","08:00","5.7","","5.4","","98","","","","35","","10","","24.1","","101.75","","","","","","NA"
"-76.60","44.23","KINGSTON A","6104149","2022-11-02 09:00","2022","11","02","09:00","10.0","","9.2","","95","","","","5","","6","","24.1","","101.80","","","","","","NA"
"-76.60","44.23","KINGSTON A","6104149","2022-11-02 10:00","2022","11","02","10:00","12.2","","7.3","","72","","","","7","","12","","24.1","","101.81","","","","","","Mostly Cloudy"
"-76.60","44.23","KINGSTON A","6104149","2022-11-02 11:00","2022","11","02","11:00","14.0","","7.5","","65","","","","6","","12","","24.1","","101.83","","","","","","NA"
"-76.60","44.23","KINGSTON A","6104149","2022-11-02 12:00","2022","11","02","12:00","14.0","","8.1","","67","","","","14","","11","","24.1","","101.80","","","","","","NA"
"-76.60","44.23","KINGSTON A","6104149","2022-11-02 13:00","2022","11","02","13:00","15.0","","7.0","","59","","","","12","","10","","24.1","","101.77","","","","","","Mostly Cloudy"
"-76.60","44.23","KINGSTON A","6104149","2022-11-02 14:00","2022","11","02","14:00","15.2","","6.6","","56","","","","14","","8","","24.1","","101.73","","","","","","NA"
"-76.60","44.23","KINGSTON A","6104149","2022-11-02 15:00","2022","11","02","15:00","14.4","","7.2","","62","","","","16","","10","","24.1","","101.72","","","","","","NA"
"-76.60","44.23","KINGSTON A","6104149","2022-11-02 16:00","2022","11","02","16:00","13.2","","9.7","","80","","","","19","","7","","24.1","","101.71","","","","","","Mainly Clear"
"-76.60","44.23","KINGSTON A","6104149","2022-11-02 17:00","2022","11","02","17:00","10.6","","9.2","","91","","","","23","","6","","24.1","","101.70","","","","","","NA"
"-76.60","44.23","KINGSTON A","6104149","2022-11-02 18:00","2022","11","02","18:00","8.7","","8.1","","96","","","","2","","4","","24.1","","101.69","","","","","","NA"
"-76.60","44.23","KINGSTON A","6104149","2022-11-02 19:00","2022","11","02","19:00","8.5","","8.1","","97","","","","3","","3","","24.1","","101.68","","","","","","Mainly Clear"
"-76.60","44.23","KINGSTON A","6104149","2022-11-02 20:00","2022","11","02","20:00","7.2","","6.8","","97","","","","2","","3","","24.1","","101.66","","","","","","NA"
"-76.60","44.23","KINGSTON A","6104149","2022-11-02 21:00","2022","11","02","21:00","6.0","","5.3","","95","","","","35","","8","","24.1","","101.66","","","","","","NA"
"-76.60","44.23","KINGSTON A","6104149","2022-11-02 22:00","2022","11","02","22:00","5.3","","4.6","","95","","","","36","","3","","24.1","","101.66","","","","","","Mainly Clear"
"-76.60","44.23","KINGSTON A","6104149","2022-11-02 23:00","2022","11","02","23:00"
"-76.60","44.23","KINGSTON A","6104149","2022-11-03 00:00","2022","11","03","00:00"
"-76.60","44.23","KINGSTON A","6104149","2022-11-03 01:00","2022","11","03","01:00"
"-76.60","44.23","KINGSTON A","6104149","2022-11-03 02:00","2022","11","03","02:00"
"-76.60","44.23","KINGSTON A","6104149","2022-11-03 03:00","2022","11","03","03:00"
"-76.60","44.23","KINGSTON A","6104149","2022-11-03 04:00","2022","11","03","04:00"
"-76.60","44.23","KINGSTON A","6104149","2022-11-03 05:00","2022","11","03","05:00","5.7","","4.9","","94","","","","34","","6","","12.9","","101.56","","","","","","NA"
"-76.60","44.23","KINGSTON A","6104149","2022-11-03 06:00","2022","11","03","06:00","5.2","","4.7","","97","","","","36","","3","","16.1","","101.55","","","","","","NA"
"-76.60","44.23","KINGSTON A","6104149","2022-11-03 07:00","2022","11","03","07:00","10.5","","10.1","","97","","","","16","","16","","12.9","","101.56","","","","","","Mainly Clear"
"-76.60","44.23","KINGSTON A","6104149","2022-11-03 08:00","2022","11","03","08:00","11.7","","10.0","","89","","","","17","","19","","24.1","","101.58","","","","","","NA"
"-76.60","44.23","KINGSTON A","6104149","2022-11-03 09:00","2022","11","03","09:00","12.4","","10.0","","85","","","","20","","23","","19.3","","101.61","","","","","","NA"
"-76.60","44.23","KINGSTON A","6104149","2022-11-03 10:00","2022","11","03","10:00","13.5","","10.3","","81","","","","19","","22","","19.3","","101.57","","","","","","Mainly Clear"
"-76.60","44.23","KINGSTON A","6104149","2022-11-03 11:00","2022","11","03","11:00","13.7","","10.6","","81","","","","19","","21","","9.7","","101.54","","","","","","Fog"
"-76.60","44.23","KINGSTON A","6104149","2022-11-03 12:00","2022","11","03","12:00","12.7","","10.4","","86","","","","22","","12","","8.1","","101.49","","","","","","Fog"
"-76.60","44.23","KINGSTON A","6104149","2022-11-03 13:00","2022","11","03","13:00","12.8","","10.4","","85","","","","19","","21","","8.1","","101.44","","","","","","Fog"
"-76.60","44.23","KINGSTON A","6104149","2022-11-03 14:00","2022","11","03","14:00","12.3","","10.3","","87","","","","18","","16","","8.1","","101.41","","","","","","Fog"
"-76.60","44.23","KINGSTON A","6104149","2022-11-03 15:00","2022","11","03","15:00","12.1","","10.4","","89","","","","18","","16","","6.4","","101.39","","","","","","Fog"
"-76.60","44.23","KINGSTON A","6104149","2022-11-03 16:00","2022","11","03","16:00","10.7","","10.2","","97","","","","18","","13","","0.4","","101.38","","","","","","Fog"
"-76.60","44.23","KINGSTON A","6104149","2022-11-03 17:00","2022","11","03","17:00","10.2","","9.8","","98","","","","22","","6","","0.2","","101.32","","","","","","Fog"
"-76.60","44.23","KINGSTON A","6104149","2022-11-03 18:00","2022","11","03","18:00","9.8","","9.6","","98","","","","36","","3","","0.2","","101.32","","","","","","Fog"
"-76.60","44.23","KINGSTON A","6104149","2022-11-03 19:00","2022","11","03","19:00","9.0","","8.7","","98","","","","1","","4","","0.2","","101.31","","","","","","Fog"
"-76.60","44.23","KINGSTON A","6104149","2022-11-03 20:00","2022","11","03","20:00","7.3","","7.1","","98","","","","12","","3","","0.2","","101.28","","","","","","Fog"
"-76.60","44.23","KINGSTON A","6104149","2022-11-03 21:00","2022","11","03","21:00","7.0","","6.7","","98","","","","14","","8","","0.2","","101.25","","","","","","Fog"
"-76.60","44.23","KINGSTON A","6104149","2022-11-03 22:00","2022","11","03","22:00","9.8","","9.6","","99","","","","18","","13","","0.4","","101.28","","","","","","Fog"
"-76.60","44.23","KINGSTON A","6104149","2022-11-03 23:00","2022","11","03","23:00"
"-76.60","44.23","KINGSTON A","6104149","2022-11-04 00:00","2022","11","04","00:00"
"-76.60","44.23","KINGSTON A","6104149","2022-11-04 01:00","2022","11","04","01:00"
"-76.60","44.23","KINGSTON A","6104149","2022-11-04 02:00","2022","11","04","02:00"
"-76.60","44.23","KINGSTON A","6104149","2022-11-04 03:00","2022","11","04","03:00"
"-76.60","44.23","KINGSTON A","6104149","2022-11-04 04:00","2022","11","04","04:00"
"-76.60","44.23","KINGSTON A","6104149","2022-11-04 05:00","2022","11","04","05:00","6.8","","6.6","","99","","","","36","","3","","0.2","","101.14","","","","","","Fog"
"-76.60","44.23","KINGSTON A","6104149","2022-11-04 06:00","2022","11","04","06:00","10.6","","10.4","","99","","","","18","","17","","24.1","","101.15","","","","","","NA"
"-76.60","44.23","KINGSTON A","6104149","2022-11-04 07:00","2022","11","04","07:00","12.3","","9.6","","83","","","","18","","17","","24.1","","101.14","","","","","","Mostly Cloudy"
"-76.60","44.23","KINGSTON A","6104149","2022-11-04 08:00","2022","11","04","08:00","13.2","","9.7","","79","","","","18","","18","","24.1","","101.17","","","","","","NA"
"-76.60","44.23","KINGSTON A","6104149","2022-11-04 09:00","2022","11","04","09:00","14.2","","10.2","","77","","","","18","","12","","24.1","","101.21","","","","","","NA"
"-76.60","44.23","KINGSTON A","6104149","2022-11-04 10:00","2022","11","04","10:00","14.8","","10.0","","73","","","","19","","12","","24.1","","101.21","","","","","","Mainly Clear"
"-76.60","44.23","KINGSTON A","6104149","2022-11-04 11:00","2022","11","04","11:00","14.6","","10.6","","77","","","","17","","10","","24.1","","101.16","","","","","","NA"
"-76.60","44.23","KINGSTON A","6104149","2022-11-04 12:00","2022","11","04","12:00","15.3","","10.5","","73","","","","18","","13","","24.1","","101.09","","","","","","NA"
"-76.60","44.23","KINGSTON A","6104149","2022-11-04 13:00","2022","11","04","13:00","16.6","","10.7","","68","","","","19","","7","","24.1","","101.03","","","","","","Mostly Cloudy"
"-76.60","44.23","KINGSTON A","6104149","2022-11-04 14:00","2022","11","04","14:00","16.9","","10.7","","67","","","","18","","12","","24.1","","100.94","","","","","","NA"
"-76.60","44.23","KINGSTON A","6104149","2022-11-04 15:00","2022","11","04","15:00","17.1","","11.1","","67","","","","19","","15","","24.1","","100.87","","","","","","NA"
"-76.60","44.23","KINGSTON A","6104149","2022-11-04 16:00","2022","11","04","16:00","15.8","","11.3","","75","","","","18","","16","","24.1","","100.83","","","","","","Mostly Cloudy"
"-76.60","44.23","KINGSTON A","6104149","2022-11-04 17:00","2022","11","04","17:00","15.0","","11.2","","78","","","","19","","18","","24.1","","100.79","","","","","","NA"
"-76.60","44.23","KINGSTON A","6104149","2022-11-04 18:00","2022","11","04","18:00","14.5","","10.9","","79","","","","18","","14","","24.1","","100.77","","","","","","NA"
"-76.60","44.23","KINGSTON A","6104149","2022-11-04 19:00","2022","11","04","19:00","15.3","","10.7","","74","","","","18","","19","","24.1","","100.72","","","","","","Mainly Clear"
"-76.60","44.23","KINGSTON A","6104149","2022-11-04 20:00","2022","11","04","20:00","16.0","","10.8","","71","","","","18","","29","","24.1","","100.72","","","","","","NA"
"-76.60","44.23","KINGSTON A","6104149","2022-11-04 21:00","2022","11","04","21:00","15.6","","11.1","","74","","","","18","","31","","24.1","","100.71","","","","","","NA"
"-76.60","44.23","KINGSTON A","6104149","2022-11-04 22:00","2022","11","04","22:00","15.4","","11.6","","78","","","","18","","33","","24.1","","100.68","","","","","","Mostly Cloudy"
"-76.60","44.23","KINGSTON A","6104149","2022-11-04 23:00","2022","11","04","23:00"
"-76.60","44.23","KINGSTON A","6104149","2022-11-05 00:00","2022","11","05","00:00"
"-76.60","44.23","KINGSTON A","6104149","2022-11-05 01:00","2022","11","05","01:00"
"-76.60","44.23","KINGSTON A","6104149","2022-11-05 02:00","2022","11","05","02:00"
"-76.60","44.23","KINGSTON A","6104149","2022-11-05 03:00","2022","11","05","03:00"
"-76.60","44.23","KINGSTON A","6104149","2022-11-05 04:00","2022","11","05","04:00"
"-76.60","44.23","KINGSTON A","6104149","2022-11-05 05:00","2022","11","05","05:00","14.2","","11.9","","86","","","","18","","20","","24.1","","100.59","","","","","","NA"
"-76.60","44.23","KINGSTON A","6104149","2022-11-05 06:00","2022","11","05","06:00","14.0","","12.1","","88","","","","18","","18","","24.1","","100.54","","","","","","NA"
"-76.60","44.23","KINGSTON A","6104149","2022-11-05 07:00","2022","11","05","07:00","14.6","","12.3","","86","","","","18","","22","","24.1","","100.53","","","","","","Mostly Cloudy"
"-76.60","44.23","KINGSTON A","6104149","2022-11-05 08:00","2022","11","05","08:00","15.5","","12.8","","84","","","","19","","18","","24.1","","100.58","","","","","","NA"
"-76.60","44.23","KINGSTON A","6104149","2022-11-05 09:00","2022","11","05","09:00","15.9","","13.0","","83","","","","19","","31","","24.1","","100.56","","","","","","NA"
"-76.60","44.23","KINGSTON A","6104149","2022-11-05 10:00","2022","11","05","10:00","16.3","","13.4","","83","","","","19","","31","","24.1","","100.53","","","","","","Mostly Cloudy"
"-76.60","44.23","KINGSTON A","6104149","2022-11-05 11:00","2022","11","05","11:00","17.6","","14.0","","79","","","","19","","27","","24.1","","100.48","","","","","","NA"
"-76.60","44.23","KINGSTON A","6104149","2022-11-05 12:00","2022","11","05","12:00","17.0","","13.8","","81","","","","19","","27","","24.1","","100.40","","","","","","NA"
"-76.60","44.23","KINGSTON A","6104149","2022-11-05 13:00","2022","11","05","13:00","17.4","","13.9","","79","","","","18","","21","","24.1","","100.31","","","","","","Mostly Cloudy"
"-76.60","44.23","KINGSTON A","6104149","2022-11-05 14:00","2022","11","05","14:00","17.1","","13.8","","81","","","","17","","23","","24.1","","100.24","","","","","","NA"
"-76.60","44.23","KINGSTON A","6104149","2022-11-05 15:00","2022","11","05","15:00","17.5","","13.7","","78","","","","17","","24","","24.1","","100.20","","","","","","NA"
"-76.60","44.23","KINGSTON A","6104149","2022-11-05 16:00","2022","11","05","16:00","18.3","","13.8","","75","","","","17","","32","","24.1","","100.15","","","","","","Cloudy"
"-76.60","44.23","KINGSTON A","6104149","2022-11-05 17:00","2022","11","05","17:00","16.4","","13.6","","83","","","","16","","23","","24.1","","100.11","","","","","","NA"
"-76.60","44.23","KINGSTON A","6104149","2022-11-05 18:00","2022","11","05","18:00","17.3","","13.9","","80","","","","17","","31","","24.1","","100.09","","","","","","NA"
"-76.60","44.23","KINGSTON A","6104149","2022-11-05 19:00","2022","11","05","19:00","16.8","","13.7","","81","","","","17","","32","","24.1","","100.07","","","","","","Mostly Cloudy"
"-76.60","44.23","KINGSTON A","6104149","2022-11-05 20:00","2022","11","05","20:00","17.0","","14.0","","82","","","","15","","32","","24.1","","100.00","","","","","","NA"
"-76.60","44.23","KINGSTON A","6104149","2022-11-05 21:00","2022","11","05","21:00","16.9","","13.7","","81","","","","16","","33","","24.1","","99.96","","","","","","NA"
"-76.60","44.23","KINGSTON A","6104149","2022-11-05 22:00","2022","11","05","22:00","16.8","","13.4","","80","","","","16","","31","","24.1","","99.94","","","","","","Mostly Cloudy"
"-76.60","44.23","KINGSTON A","6104149","2022-11-05 23:00","2022","11","05","23:00"
"-76.60","44.23","KINGSTON A","6104149","2022-11-06 00:00","2022","11","06","00:00"
"-76.60","44.23","KINGSTON A","6104149","2022-11-06 01:00","2022","11","06","01:00"
"-76.60","44.23","KINGSTON A","6104149","2022-11-06 02:00","2022","11","06","02:00"
"-76.60","44.23","KINGSTON A","6104149","2022-11-06 03:00","2022","11","06","03:00"
"-76.60","44.23","KINGSTON A","6104149","2022-11-06 04:00","2022","11","06","04:00"
"-76.60","44.23","KINGSTON A","6104149","2022-11-06 05:00","2022","11","06","05:00"
"-76.60","44.23","KINGSTON A","6104149","2022-11-06 06:00","2022","11","06","06:00","15.3","","13.4","","88","","","","24","","21","","12.9","","100.38","","","","","","Rain"
"-76.60","44.23","KINGSTON A","6104149","2022-11-06 07:00","2022","11","06","07:00","15.0","","13.6","","91","","","","22","","22","","24.1","","100.39","","","","","","Rain"
"-76.60","44.23","KINGSTON A","6104149","2022-11-06 08:00","2022","11","06","08:00","14.9","","13.5","","92","","","","20","","17","","24.1","","100.43","","","","","","NA"
"-76.60","44.23","KINGSTON A","6104149","2022-11-06 09:00","2022","11","06","09:00","15.1","","14.0","","93","","","","21","","21","","24.1","","100.48","","","","","","NA"
"-76.60","44.23","KINGSTON A","6104149","2022-11-06 10:00","2022","11","06","10:00","17.1","","14.3","","83","","","","22","","21","","24.1","","100.51","","","","","","Mostly Cloudy"
"-76.60","44.23","KINGSTON A","6104149","2022-11-06 11:00","2022","11","06","11:00","17.2","","11.5","","69","","","","23","","24","","24.1","","100.56","","","","","","NA"
"-76.60","44.23","KINGSTON A","6104149","2022-11-06 12:00","2022","11","06","12:00","17.0","","9.5","","61","","","","23","","25","","24.1","","100.53","","","","","","NA"
"-76.60","44.23","KINGSTON A","6104149","2022-11-06 13:00","2022","11","06","13:00","17.0","","9.2","","60","","","","23","","23","","24.1","","100.51","","","","","","Mostly Cloudy"
"-76.60","44.23","KINGSTON A","6104149","2022-11-06 14:00","2022","11","06","14:00","16.8","","9.5","","62","","","","23","","16","","24.1","","100.46","","","","","","NA"
"-76.60","44.23","KINGSTON A","6104149","2022-11-06 15:00","2022","11","06","15:00","15.7","","9.5","","66","","","","23","","15","","24.1","","100.49","","","","","","NA"
"-76.60","44.23","KINGSTON A","6104149","2022-11-06 16:00","2022","11","06","16:00","16.0","","8.9","","63","","","","25","","7","","24.1","","100.51","","","","","","Mostly Cloudy"
"-76.60","44.23","KINGSTON A","6104149","2022-11-06 17:00","2022","11","06","17:00","13.7","","11.2","","85","","","","16","","12","","24.1","","100.52","","","","","","NA"
"-76.60","44.23","KINGSTON A","6104149","2022-11-06 18:00","2022","11","06","18:00","13.4","","11.0","","85","","","","18","","14","","24.1","","100.51","","","","","","NA"
"-76.60","44.23","KINGSTON A","6104149","2022-11-06 19:00","2022","11","06","19:00","13.9","","10.5","","80","","","","20","","15","","24.1","","100.51","","","","","","Cloudy"
"-76.60","44.23","KINGSTON A","6104149","2022-11-06 20:00","2022","11","06","20:00","13.4","","10.3","","81","","","","20","","9","","24.1","","100.49","","","","","","NA"
"-76.60","44.23","KINGSTON A","6104149","2022-11-06 21:00","2022","11","06","21:00","12.7","","10.7","","88","","","","22","","13","","24.1","","100.57","","","","","","NA"
"-76.60","44.23","KINGSTON A","6104149","2022-11-06 22:00","2022","11","06","22:00","12.7","","11.4","","91","","","","20","","14","","24.1","","100.58","","","","","","Mainly Clear"
"-76.60","44.23","KINGSTON A","6104149","2022-11-06 23:00","2022","11","06","23:00","12.8","","10.3","","85","","","","21","","16","","24.1","","100.57","","","","","","NA"
"-76.60","44.23","KINGSTON A","6104149","2022-11-07 00:00","2022","11","07","00:00"
"-76.60","44.23","KINGSTON A","6104149","2022-11-07 01:00","2022","11","07","01:00"
"-76.60","44.23","KINGSTON A","6104149","2022-11-07 02:00","2022","11","07","02:00"
"-76.60","44.23","KINGSTON A","6104149","2022-11-07 03:00","2022","11","07","03:00"
"-76.60","44.23","KINGSTON A","6104149","2022-11-07 04:00","2022","11","07","04:00"
"-76.60","44.23","KINGSTON A","6104149","2022-11-07 05:00","2022","11","07","05:00"
"-76.60","44.23","KINGSTON A","6104149","2022-11-07 06:00","2022","11","07","06:00","12.2","","8.4","","77","","","","23","","19","","24.1","","100.75","","","","","","NA"
"-76.60","44.23","KINGSTON A","6104149","2022-11-07 07:00","2022","11","07","07:00","11.7","","7.1","","74","","","","25","","18","","24.1","","100.81","","","","","","Clear"
"-76.60","44.23","KINGSTON A","6104149","2022-11-07 08:00","2022","11","07","08:00","12.3","","6.5","","68","","","","25","","20","","24.1","","100.93","","","","","","NA"
"-76.60","44.23","KINGSTON A","6104149","2022-11-07 09:00","2022","11","07","09:00","12.9","","3.4","","52","","","","25","","30","","24.1","","101.02","","","","","","NA"
"-76.60","44.23","KINGSTON A","6104149","2022-11-07 10:00","2022","11","07","10:00","12.8","","1.4","","46","","","","25","","33","","24.1","","101.06","","","","","","Mainly Clear"
"-76.60","44.23","KINGSTON A","6104149","2022-11-07 11:00","2022","11","07","11:00","13.3","","0.8","","42","","","","25","","32","","24.1","","101.13","","","","","","NA"
"-76.60","44.23","KINGSTON A","6104149","2022-11-07 12:00","2022","11","07","12:00","14.0","","0.0","","38","","","","27","","27","","24.1","","101.16","","","","","","NA"
"-76.60","44.23","KINGSTON A","6104149","2022-11-07 13:00","2022","11","07","13:00","13.6","","-2.3","","33","","","","27","","34","","24.1","","101.20","","","","","","Mainly Clear"
"-76.60","44.23","KINGSTON A","6104149","2022-11-07 14:00","2022","11","07","14:00","13.5","","-1.7","","35","","","","26","","29","","24.1","","101.28","","","","","","NA"
"-76.60","44.23","KINGSTON A","6104149","2022-11-07 15:00","2022","11","07","15:00","12.7","","-1.1","","38","","","","25","","27","","24.1","","101.41","","","","","","NA"
"-76.60","44.23","KINGSTON A","6104149","2022-11-07 16:00","2022","11","07","16:00","11.3","","-1.2","","42","","","","29","","29","","24.1","","101.52","","","","","","Mainly Clear"
"-76.60","44.23","KINGSTON A","6104149","2022-11-07 17:00","2022","11","07","17:00","9.5","","-0.9","","48","","","","28","","19","","24.1","","101.62","","","","","","NA"
"-76.60","44.23","KINGSTON A","6104149","2022-11-07 18:00","2022","11","07","18:00","8.6","","-0.3","","54","","","","27","","21","","24.1","","101.75","","","","","","NA"
"-76.60","44.23","KINGSTON A","6104149","2022-11-07 19:00","2022","11","07","19:00","7.5","","-0.1","","58","","","","26","","17","","24.1","","101.84","","","","","","Mainly Clear"
"-76.60","44.23","KINGSTON A","6104149","2022-11-07 20:00","2022","11","07","20:00","6.7","","-0.3","","61","","","","27","","16","","24.1","","101.92","","","","","","NA"
"-76.60","44.23","KINGSTON A","6104149","2022-11-07 21:00","2022","11","07","21:00","5.8","","-0.6","","63","","","","28","","15","","24.1","","101.99","","","","","","NA"
"-76.60","44.23","KINGSTON A","6104149","2022-11-07 22:00","2022","11","07","22:00","5.1","","-0.8","","66","","","","28","","16","","24.1","","102.06","","","","","","Clear"
"-76.60","44.23","KINGSTON A","6104149","2022-11-07 23:00","2022","11","07","23:00","4.2","","-0.9","","69","","","","30","","13","","24.1","","102.14","","","","","","NA"
"-76.60","44.23","KINGSTON A","6104149","2022-11-08 00:00","2022","11","08","00:00"
"-76.60","44.23","KINGSTON A","6104149","2022-11-08 01:00","2022","11","08","01:00"
"-76.60","44.23","KINGSTON A","6104149","2022-11-08 02:00","2022","11","08","02:00"
"-76.60","44.23","KINGSTON A","6104149","2022-11-08 03:00","2022","11","08","03:00"
"-76.60","44.23","KINGSTON A","6104149","2022-11-08 04:00","2022","11","08","04:00"
"-76.60","44.23","KINGSTON A","6104149","2022-11-08 05:00","2022","11","08","05:00"
"-76.60","44.23","KINGSTON A","6104149","2022-11-08 06:00","2022","11","08","06:00","0.1","","-1.6","","88","","","","35","","15","","24.1","","102.62","","","","","","NA"
"-76.60","44.23","KINGSTON A","6104149","2022-11-08 07:00","2022","11","08","07:00","-0.2","","-1.9","","88","","","","35","","15","","24.1","","102.73","","","","-5","","Clear"
"-76.60","44.23","KINGSTON A","6104149","2022-11-08 08:00","2022","11","08","08:00","2.2","","-3.0","","69","","","","1","","17","","24.1","","102.88","","","","","","NA"
"-76.60","44.23","KINGSTON A","6104149","2022-11-08 09:00","2022","11","08","09:00","3.4","","-4.4","","57","","","","1","","18","","24.1","","102.93","","","","","","NA"
"-76.60","44.23","KINGSTON A","6104149","2022-11-08 10:00","2022","11","08","10:00","3.8","","-5.5","","51","","","","2","","22","","24.1","","102.99","","","","","","Clear"
"-76.60","44.23","KINGSTON A","6104149","2022-11-08 11:00","2022","11","08","11:00","4.8","","-4.5","","51","","","","2","","15","","24.1","","103.00","","","","","","NA"
"-76.60","44.23","KINGSTON A","6104149","2022-11-08 12:00","2022","11","08","12:00","5.6","","-4.6","","48","","","","3","","13","","24.1","","102.97","","","","","","NA"
"-76.60","44.23","KINGSTON A","6104149","2022-11-08 13:00","2022","11","08","13:00","5.5","","-5.3","","46","","","","36","","13","","24.1","","102.94","","","","","","Clear"
"-76.60","44.23","KINGSTON A","6104149","2022-11-08 14:00","2022","11","08","14:00","6.1","","-5.7","","42","","","","1","","19","","24.1","","102.93","","","","","","NA"
"-76.60","44.23","KINGSTON A","6104149","2022-11-08 15:00","2022","11","08","15:00","6.2","","-5.7","","42","","","","36","","11","","24.1","","102.95","","","","","","NA"
"-76.60","44.23","KINGSTON A","6104149","2022-11-08 16:00","2022","11","08","16:00","5.2","","-5.0","","48","","","","35","","13","","24.1","","102.94","","","","","","Clear"
"-76.60","44.23","KINGSTON A","6104149","2022-11-08 17:00","2022","11","08","17:00","3.3","","-5.8","","51","","","","36","","11","","24.1","","102.95","","","","","","NA"
"-76.60","44.23","KINGSTON A","6104149","2022-11-08 18:00","2022","11","08","18:00","2.0","","-5.7","","57","","","","35","","5","","24.1","","102.97","","","","","","NA"
"-76.60","44.23","KINGSTON A","6104149","2022-11-08 19:00","2022","11","08","19:00","2.4","","-6.1","","54","","","","2","","8","","24.1","","102.98","","","","","","Clear"
"-76.60","44.23","KINGSTON A","6104149","2022-11-08 20:00","2022","11","08","20:00","1.7","","-5.8","","57","","","","2","","11","","24.1","","102.97","","","","","","NA"
"-76.60","44.23","KINGSTON A","6104149","2022-11-08 21:00","2022","11","08","21:00","1.3","","-5.9","","59","","","","2","","7","","24.1","","102.97","","","","","","NA"
"-76.60","44.23","KINGSTON A","6104149","2022-11-08 22:00","2022","11","08","22:00","-1.7","","-4.7","","80","","","","35","","9","","24.1","","102.97","","","","-5","","Clear"
"-76.60","44.23","KINGSTON A","6104149","2022-11-08 23:00","2022","11","08","23:00","-1.0","","-5.1","","74","","","","3","","8","","24.1","","102.93","","","","-4","","NA"
"-76.60","44.23","KINGSTON A","6104149","2022-11-09 00:00","2022","11","09","00:00"
"-76.60","44.23","KINGSTON A","6104149","2022-11-09 01:00","2022","11","09","01:00"
"-76.60","44.23","KINGSTON A","6104149","2022-11-09 02:00","2022","11","09","02:00"
"-76.60","44.23","KINGSTON A","6104149","2022-11-09 03:00","2022","11","09","03:00"
"-76.60","44.23","KINGSTON A","6104149","2022-11-09 04:00","2022","11","09","04:00"
"-76.60","44.23","KINGSTON A","6104149","2022-11-09 05:00","2022","11","09","05:00"
"-76.60","44.23","KINGSTON A","6104149","2022-11-09 06:00","2022","11","09","06:00","-1.6","","-4.9","","79","","","","5","","9","","24.1","","102.64","","","","-5","","NA"
"-76.60","44.23","KINGSTON A","6104149","2022-11-09 07:00","2022","11","09","07:00","-1.9","","-4.5","","83","","","","5","","12","","24.1","","102.56","","","","-6","","Mainly Clear"
"-76.60","44.23","KINGSTON A","6104149","2022-11-09 08:00","2022","11","09","08:00","0.4","","-2.6","","81","","","","6","","8","","24.1","","102.60","","","","","","NA"
"-76.60","44.23","KINGSTON A","6104149","2022-11-09 09:00","2022","11","09","09:00","5.8","","0.3","","68","","","","16","","20","","24.1","","102.51","","","","","","NA"
"-76.60","44.23","KINGSTON A","6104149","2022-11-09 10:00","2022","11","09","10:00","7.2","","0.4","","62","","","","17","","23","","24.1","","102.43","","","","","","Mainly Clear"
"-76.60","44.23","KINGSTON A","6104149","2022-11-09 11:00","2022","11","09","11:00","7.7","","0.3","","59","","","","17","","20","","24.1","","102.38","","","","","","NA"
"-76.60","44.23","KINGSTON A","6104149","2022-11-09 12:00","2022","11","09","12:00","8.7","","0.3","","55","","","","16","","19","","24.1","","102.19","","","","","","NA"
"-76.60","44.23","KINGSTON A","6104149","2022-11-09 13:00","2022","11","09","13:00","9.5","","0.6","","54","","","","15","","14","","24.1","","102.08","","","","","","Clear"
"-76.60","44.23","KINGSTON A","6104149","2022-11-09 14:00","2022","11","09","14:00","9.9","","-0.3","","49","","","","17","","17","","24.1","","101.95","","","","","","NA"
"-76.60","44.23","KINGSTON A","6104149","2022-11-09 15:00","2022","11","09","15:00","11.6","","0.0","","45","","","","17","","23","","24.1","","101.83","","","","","","NA"
"-76.60","44.23","KINGSTON A","6104149","2022-11-09 16:00","2022","11","09","16:00","11.6","","1.3","","49","","","","17","","21","","24.1","","101.73","","","","","","Mainly Clear"
"-76.60","44.23","KINGSTON A","6104149","2022-11-09 17:00","2022","11","09","17:00","11.6","","3.5","","57","","","","18","","21","","24.1","","101.62","","","","","","NA"
"-76.60","44.23","KINGSTON A","6104149","2022-11-09 18:00","2022","11","09","18:00","12.0","","4.7","","61","","","","18","","18","","24.1","","101.58","","","","","","NA"
"-76.60","44.23","KINGSTON A","6104149","2022-11-09 19:00","2022","11","09","19:00","12.3","","4.9","","61","","","","18","","23","","24.1","","101.53","","","","","","Mainly Clear"
"-76.60","44.23","KINGSTON A","6104149","2022-11-09 20:00","2022","11","09","20:00","12.3","","3.8","","56","","","","18","","28","","24.1","","101.47","","","","","","NA"
"-76.60","44.23","KINGSTON A","6104149","2022-11-09 21:00","2022","11","09","21:00","12.1","","3.1","","54","","","","18","","33","","24.1","","101.40","","","","","","NA"
"-76.60","44.23","KINGSTON A","6104149","2022-11-09 22:00","2022","11","09","22:00","12.1","","2.1","","50","","","","18","","36","","24.1","","101.39","","","","","","Clear"
"-76.60","44.23","KINGSTON A","6104149","2022-11-09 23:00","2022","11","09","23:00","11.7","","3.0","","55","","","","19","","37","","24.1","","101.36","","","","","","NA"
"-76.60","44.23","KINGSTON A","6104149","2022-11-10 00:00","2022","11","10","00:00"
"-76.60","44.23","KINGSTON A","6104149","2022-11-10 01:00","2022","11","10","01:00"
"-76.60","44.23","KINGSTON A","6104149","2022-11-10 02:00","2022","11","10","02:00"
"-76.60","44.23","KINGSTON A","6104149","2022-11-10 03:00","2022","11","10","03:00"
"-76.60","44.23","KINGSTON A","6104149","2022-11-10 04:00","2022","11","10","04:00"
"-76.60","44.23","KINGSTON A","6104149","2022-11-10 05:00","2022","11","10","05:00"
"-76.60","44.23","KINGSTON A","6104149","2022-11-10 06:00","2022","11","10","06:00","11.1","","5.1","","67","","","","19","","29","","24.1","","101.21","","","","","","NA"
"-76.60","44.23","KINGSTON A","6104149","2022-11-10 07:00","2022","11","10","07:00","11.2","","5.3","","67","","","","19","","27","","24.1","","101.19","","","","","","Mostly Cloudy"
"-76.60","44.23","KINGSTON A","6104149","2022-11-10 08:00","2022","11","10","08:00","11.4","","5.2","","66","","","","19","","31","","24.1","","101.21","","","","","","NA"
"-76.60","44.23","KINGSTON A","6104149","2022-11-10 09:00","2022","11","10","09:00","11.7","","5.6","","66","","","","19","","33","","24.1","","101.20","","","","","","NA"
"-76.60","44.23","KINGSTON A","6104149","2022-11-10 10:00","2022","11","10","10:00","12.0","","5.5","","64","","","","19","","30","","24.1","","101.16","","","","","","Mostly Cloudy"
"-76.60","44.23","KINGSTON A","6104149","2022-11-10 11:00","2022","11","10","11:00","13.2","","6.2","","62","","","","19","","32","","24.1","","101.07","","","","","","NA"
"-76.60","44.23","KINGSTON A","6104149","2022-11-10 12:00","2022","11","10","12:00","14.5","","7.1","","61","","","","19","","24","","24.1","","101.00","","","","","","NA"
"-76.60","44.23","KINGSTON A","6104149","2022-11-10 13:00","2022","11","10","13:00","14.8","","6.8","","58","","","","19","","26","","24.1","","100.91","","","","","","Mainly Clear"
"-76.60","44.23","KINGSTON A","6104149","2022-11-10 14:00","2022","11","10","14:00","14.5","","6.8","","59","","","","20","","23","","24.1","","100.87","","","","","","NA"
"-76.60","44.23","KINGSTON A","6104149","2022-11-10 15:00","2022","11","10","15:00","15.9","","5.4","","49","","","","21","","19","","24.1","","100.83","","","","","","NA"
"-76.60","44.23","KINGSTON A","6104149","2022-11-10 16:00","2022","11","10","16:00","15.5","","5.8","","52","","","","21","","16","","24.1","","100.80","","","","","","Mostly Cloudy"
"-76.60","44.23","KINGSTON A","6104149","2022-11-10 17:00","2022","11","10","17:00","13.7","","7.2","","65","","","","21","","13","","24.1","","100.77","","","","","","NA"
"-76.60","44.23","KINGSTON A","6104149","2022-11-10 18:00","2022","11","10","18:00","13.3","","6.8","","65","","","","22","","7","","24.1","","100.77","","","","","","NA"
"-76.60","44.23","KINGSTON A","6104149","2022-11-10 19:00","2022","11","10","19:00","13.7","","7.0","","64","","","","22","","13","","24.1","","100.73","","","","","","Mostly Cloudy"
"-76.60","44.23","KINGSTON A","6104149","2022-11-10 20:00","2022","11","10","20:00","14.6","","7.5","","62","","","","20","","22","","24.1","","100.70","","","","","","NA"
"-76.60","44.23","KINGSTON A","6104149","2022-11-10 21:00","2022","11","10","21:00","13.7","","8.7","","72","","","","19","","17","","24.1","","100.70","","","","","","NA"
"-76.60","44.23","KINGSTON A","6104149","2022-11-10 22:00","2022","11","10","22:00","13.4","","9.6","","77","","","","18","","25","","24.1","","100.66","","","","","","Mainly Clear"
"-76.60","44.23","KINGSTON A","6104149","2022-11-10 23:00","2022","11","10","23:00","12.8","","9.9","","83","","","","18","","18","","24.1","","100.64","","","","","","NA"
"-76.60","44.23","KINGSTON A","6104149","2022-11-11 00:00","2022","11","11","00:00"
"-76.60","44.23","KINGSTON A","6104149","2022-11-11 01:00","2022","11","11","01:00"
"-76.60","44.23","KINGSTON A","6104149","2022-11-11 02:00","2022","11","11","02:00"
"-76.60","44.23","KINGSTON A","6104149","2022-11-11 03:00","2022","11","11","03:00"
"-76.60","44.23","KINGSTON A","6104149","2022-11-11 04:00","2022","11","11","04:00"
"-76.60","44.23","KINGSTON A","6104149","2022-11-11 05:00","2022","11","11","05:00"
"-76.60","44.23","KINGSTON A","6104149","2022-11-11 06:00","2022","11","11","06:00","12.0","","10.9","","93","","","","17","","12","","24.1","","100.42","","","","","","NA"
"-76.60","44.23","KINGSTON A","6104149","2022-11-11 07:00","2022","11","11","07:00","12.2","","10.9","","92","","","","17","","15","","24.1","","100.40","","","","","","Mostly Cloudy"
"-76.60","44.23","KINGSTON A","6104149","2022-11-11 08:00","2022","11","11","08:00","12.9","","11.1","","89","","","","17","","11","","24.1","","100.37","","","","","","NA"
"-76.60","44.23","KINGSTON A","6104149","2022-11-11 09:00","2022","11","11","09:00","13.3","","11.4","","88","","","","16","","19","","24.1","","100.31","","","","","","NA"
"-76.60","44.23","KINGSTON A","6104149","2022-11-11 10:00","2022","11","11","10:00","13.6","","11.7","","88","","","","16","","15","","24.1","","100.21","","","","","","Cloudy"
"-76.60","44.23","KINGSTON A","6104149","2022-11-11 11:00","2022","11","11","11:00","14.0","","11.9","","87","","","","16","","18","","24.1","","100.15","","","","","","NA"
"-76.60","44.23","KINGSTON A","6104149","2022-11-11 12:00","2022","11","11","12:00","14.2","","12.2","","87","","","","16","","8","","24.1","","100.04","","","","","","NA"
"-76.60","44.23","KINGSTON A","6104149","2022-11-11 13:00","2022","11","11","13:00","14.2","","12.1","","87","","","","16","","10","","24.1","","99.92","","","","","","Cloudy"
"-76.60","44.23","KINGSTON A","6104149","2022-11-11 14:00","2022","11","11","14:00","13.8","","13.1","","95","","","","16","","9","","6.4","","99.80","","","","","","Rain,Fog"
"-76.60","44.23","KINGSTON A","6104149","2022-11-11 15:00","2022","11","11","15:00","14.8","","13.8","","94","","","","13","","21","","6.4","","99.67","","","","","","Rain,Fog"
"-76.60","44.23","KINGSTON A","6104149","2022-11-11 16:00","2022","11","11","16:00","15.1","","14.6","","96","","","","11","","9","","8.1","","99.50","","","","","","Rain,Fog"
"-76.60","44.23","KINGSTON A","6104149","2022-11-11 17:00","2022","11","11","17:00","15.0","","14.6","","98","","","","6","","13","","4.8","","99.32","","","","","","Rain,Fog"
"-76.60","44.23","KINGSTON A","6104149","2022-11-11 18:00","2022","11","11","18:00","15.1","","14.8","","98","","","","4","","5","","6.4","","99.17","","","","","","Rain,Fog"
"-76.60","44.23","KINGSTON A","6104149","2022-11-11 19:00","2022","11","11","19:00","15.2","","14.9","","98","","","","33","","12","","8.1","","99.08","","","","","","Rain,Fog"
"-76.60","44.23","KINGSTON A","6104149","2022-11-11 20:00","2022","11","11","20:00","14.9","","14.5","","98","","","","1","","6","","8.1","","98.94","","","","","","Rain,Fog"
"-76.60","44.23","KINGSTON A","6104149","2022-11-11 21:00","2022","11","11","21:00","14.9","","14.7","","98","","","","10","","6","","9.7","","98.82","","","","","","Rain,Fog"
"-76.60","44.23","KINGSTON A","6104149","2022-11-11 22:00","2022","11","11","22:00","14.9","","14.7","","99","","","","13","","3","","16.1","","98.76","","","","","","Rain"
"-76.60","44.23","KINGSTON A","6104149","2022-11-11 23:00","2022","11","11","23:00","14.8","","14.7","","99","","","","0","","1","","4.8","","98.66","","","","","","Rain,Fog"
"-76.60","44.23","KINGSTON A","6104149","2022-11-12 00:00","2022","11","12","00:00"
"-76.60","44.23","KINGSTON A","6104149","2022-11-12 01:00","2022","11","12","01:00"
"-76.60","44.23","KINGSTON A","6104149","2022-11-12 02:00","2022","11","12","02:00"
"-76.60","44.23","KINGSTON A","6104149","2022-11-12 03:00","2022","11","12","03:00"
"-76.60","44.23","KINGSTON A","6104149","2022-11-12 04:00","2022","11","12","04:00"
"-76.60","44.23","KINGSTON A","6104149","2022-11-12 05:00","2022","11","12","05:00"
"-76.60","44.23","KINGSTON A","6104149","2022-11-12 06:00","2022","11","12","06:00","12.7","","11.9","","95","","","","27","","14","","4.8","","98.95","","","","","","Rain,Fog"
"-76.60","44.23","KINGSTON A","6104149","2022-11-12 07:00","2022","11","12","07:00","12.5","","11.8","","95","","","","25","","12","","4.8","","99.02","","","","","","Rain,Fog"
"-76.60","44.23","KINGSTON A","6104149","2022-11-12 08:00","2022","11","12","08:00","11.7","","10.2","","91","","","","27","","23","","8.1","","99.13","","","","","","Rain,Fog"
"-76.60","44.23","KINGSTON A","6104149","2022-11-12 09:00","2022","11","12","09:00","10.3","","8.9","","91","","","","26","","20","","24.1","","99.26","","","","","","NA"
"-76.60","44.23","KINGSTON A","6104149","2022-11-12 10:00","2022","11","12","10:00","9.5","","7.0","","84","","","","27","","25","","24.1","","99.35","","","","","","Mostly Cloudy"
"-76.60","44.23","KINGSTON A","6104149","2022-11-12 11:00","2022","11","12","11:00","11.3","","5.2","","66","","","","26","","27","","24.1","","99.40","","","","","","NA"
"-76.60","44.23","KINGSTON A","6104149","2022-11-12 12:00","2022","11","12","12:00","10.9","","3.6","","61","","","","28","","25","","24.1","","99.38","","","","","","NA"
"-76.60","44.23","KINGSTON A","6104149","2022-11-12 13:00","2022","11","12","13:00","11.6","","3.7","","58","","","","25","","19","","24.1","","99.39","","","","","","Mostly Cloudy"
"-76.60","44.23","KINGSTON A","6104149","2022-11-12 14:00","2022","11","12","14:00","10.2","","2.6","","59","","","","28","","19","","24.1","","99.46","","","","","","NA"
"-76.60","44.23","KINGSTON A","6104149","2022-11-12 15:00","2022","11","12","15:00","10.0","","3.2","","63","","","","26","","13","","24.1","","99.45","","","","","","NA"
"-76.60","44.23","KINGSTON A","6104149","2022-11-12 16:00","2022","11","12","16:00","9.5","","4.9","","73","","","","25","","26","","24.1","","99.58","","","","","","Mostly Cloudy"
"-76.60","44.23","KINGSTON A","6104149","2022-11-12 17:00","2022","11","12","17:00","8.9","","4.7","","75","","","","25","","25","","24.1","","99.72","","","","","","NA"
"-76.60","44.23","KINGSTON A","6104149","2022-11-12 18:00","2022","11","12","18:00","8.7","","4.2","","73","","","","24","","20","","24.1","","99.75","","","","","","NA"
"-76.60","44.23","KINGSTON A","6104149","2022-11-12 19:00","2022","11","12","19:00","8.0","","4.6","","79","","","","26","","14","","19.3","","99.74","","","","","","Rain Showers"
"-76.60","44.23","KINGSTON A","6104149","2022-11-12 20:00","2022","11","12","20:00","7.3","","4.9","","85","","","","29","","9","","24.1","","99.74","","","","","","Rain"
"-76.60","44.23","KINGSTON A","6104149","2022-11-12 21:00","2022","11","12","21:00","6.5","","3.8","","83","","","","28","","8","","24.1","","99.75","","","","","","Rain"
"-76.60","44.23","KINGSTON A","6104149","2022-11-12 22:00","2022","11","12","22:00","6.2","","3.2","","81","","","","27","","10","","24.1","","99.82","","","","","","Rain"
"-76.60","44.23","KINGSTON A","6104149","2022-11-12 23:00","2022","11","12","23:00","5.9","","3.1","","82","","","","27","","13","","24.1","","99.85","","","","","","Rain"
"-76.60","44.23","KINGSTON A","6104149","2022-11-13 00:00","2022","11","13","00:00"
"-76.60","44.23","KINGSTON A","6104149","2022-11-13 01:00","2022","11","13","01:00"
"-76.60","44.23","KINGSTON A","6104149","2022-11-13 02:00","2022","11","13","02:00"
"-76.60","44.23","KINGSTON A","6104149","2022-11-13 03:00","2022","11","13","03:00"
"-76.60","44.23","KINGSTON A","6104149","2022-11-13 04:00","2022","11","13","04:00"
"-76.60","44.23","KINGSTON A","6104149","2022-11-13 05:00","2022","11","13","05:00"
"-76.60","44.23","KINGSTON A","6104149","2022-11-13 06:00","2022","11","13","06:00","2.9","","1.4","","90","","","","34","","11","","24.1","","100.11","","","","","","NA"
"-76.60","44.23","KINGSTON A","6104149","2022-11-13 07:00","2022","11","13","07:00","1.7","","0.6","","92","","","","32","","7","","24.1","","100.18","","","","","","Cloudy"
"-76.60","44.23","KINGSTON A","6104149","2022-11-13 08:00","2022","11","13","08:00","2.2","","0.8","","90","","","","4","","11","","24.1","","100.27","","","","","","NA"
"-76.60","44.23","KINGSTON A","6104149","2022-11-13 09:00","2022","11","13","09:00","1.2","","0.3","","94","","","","1","","13","","8.1","","100.34","","","","","","Rain Showers,Fog"
"-76.60","44.23","KINGSTON A","6104149","2022-11-13 10:00","2022","11","13","10:00","1.7","","-0.2","","87","","","","36","","11","","24.1","","100.36","","","","","","Cloudy"
"-76.60","44.23","KINGSTON A","6104149","2022-11-13 11:00","2022","11","13","11:00","1.8","","-0.2","","86","","","","33","","10","","24.1","","100.38","","","","","","Snow Showers"
"-76.60","44.23","KINGSTON A","6104149","2022-11-13 12:00","2022","11","13","12:00","1.8","","-1.2","","81","","","","34","","5","","24.1","","100.36","","","","","","NA"
"-76.60","44.23","KINGSTON A","6104149","2022-11-13 13:00","2022","11","13","13:00","1.5","","-0.8","","85","","","","36","","17","","24.1","","100.38","","","","","","Cloudy"
"-76.60","44.23","KINGSTON A","6104149","2022-11-13 14:00","2022","11","13","14:00","1.8","","-1.9","","76","","","","34","","18","","24.1","","100.43","","","","","","NA"
"-76.60","44.23","KINGSTON A","6104149","2022-11-13 15:00","2022","11","13","15:00","1.9","","-3.0","","70","","","","33","","10","","24.1","","100.47","","","","","","NA"
"-76.60","44.23","KINGSTON A","6104149","2022-11-13 16:00","2022","11","13","16:00","2.0","","-4.3","","63","","","","27","","11","","24.1","","100.54","","","","","","Mostly Cloudy"
"-76.60","44.23","KINGSTON A","6104149","2022-11-13 17:00","2022","11","13","17:00","1.6","","-4.3","","65","","","","30","","9","","24.1","","100.62","","","","","","NA"
"-76.60","44.23","KINGSTON A","6104149","2022-11-13 18:00","2022","11","13","18:00","1.7","","-4.5","","63","","","","27","","15","","24.1","","100.69","","","","","","NA"
"-76.60","44.23","KINGSTON A","6104149","2022-11-13 19:00","2022","11","13","19:00","1.2","","-5.5","","61","","","","28","","18","","24.1","","100.74","","","","","","Mostly Cloudy"
"-76.60","44.23","KINGSTON A","6104149","2022-11-13 20:00","2022","11","13","20:00","0.6","","-6.0","","61","","","","31","","18","","24.1","","100.79","","","","","","Snow Showers"
"-76.60","44.23","KINGSTON A","6104149","2022-11-13 21:00","2022","11","13","21:00","-0.5","","-6.8","","62","","","","30","","16","","24.1","","100.89","","","","-5","","NA"
"-76.60","44.23","KINGSTON A","6104149","2022-11-13 22:00","2022","11","13","22:00","-0.6","","-6.8","","63","","","","29","","16","","24.1","","100.95","","","","-5","","Cloudy"
"-76.60","44.23","KINGSTON A","6104149","2022-11-13 23:00","2022","11","13","23:00","-1.5","","-8.6","","59","","","","31","","16","","24.1","","101.01","","","","-6","","NA"
"-76.60","44.23","KINGSTON A","6104149","2022-11-14 00:00","2022","11","14","00:00"
"-76.60","44.23","KINGSTON A","6104149","2022-11-14 01:00","2022","11","14","01:00"
"-76.60","44.23","KINGSTON A","6104149","2022-11-14 02:00","2022","11","14","02:00"
"-76.60","44.23","KINGSTON A","6104149","2022-11-14 03:00","2022","11","14","03:00"
"-76.60","44.23","KINGSTON A","6104149","2022-11-14 04:00","2022","11","14","04:00"
"-76.60","44.23","KINGSTON A","6104149","2022-11-14 05:00","2022","11","14","05:00"
"-76.60","44.23","KINGSTON A","6104149","2022-11-14 06:00","2022","11","14","06:00","-4.1","","-8.1","","74","","","","28","","15","","24.1","","101.49","","","","-9","","NA"
"-76.60","44.23","KINGSTON A","6104149","2022-11-14 07:00","2022","11","14","07:00","-4.2","","-8.2","","74","","","","28","","12","","24.1","","101.58","","","","-9","","Clear"
"-76.60","44.23","KINGSTON A","6104149","2022-11-14 08:00","2022","11","14","08:00","-2.7","","-7.9","","68","","","","28","","17","","24.1","","101.69","","","","-8","","NA"
"-76.60","44.23","KINGSTON A","6104149","2022-11-14 09:00","2022","11","14","09:00","-1.0","","-7.8","","60","","","","29","","16","","24.1","","101.72","","","","-6","","NA"
"-76.60","44.23","KINGSTON A","6104149","2022-11-14 10:00","2022","11","14","10:00","0.1","","-7.7","","56","","","","28","","17","","24.1","","101.73","","","","","","Clear"
"-76.60","44.23","KINGSTON A","6104149","2022-11-14 11:00","2022","11","14","11:00","1.3","","-8.3","","49","","","","30","","16","","24.1","","101.71","","","","","","NA"
"-76.60","44.23","KINGSTON A","6104149","2022-11-14 12:00","2022","11","14","12:00","2.0","","-7.9","","48","","","","29","","12","","24.1","","101.69","","","","","","NA"
"-76.60","44.23","KINGSTON A","6104149","2022-11-14 13:00","2022","11","14","13:00","2.1","","-8.6","","45","","","","27","","17","","24.1","","101.66","","","","","","Mainly Clear"
"-76.60","44.23","KINGSTON A","6104149","2022-11-14 14:00","2022","11","14","14:00","3.0","","-7.9","","45","","","","26","","14","","24.1","","101.66","","","","","","NA"
"-76.60","44.23","KINGSTON A","6104149","2022-11-14 15:00","2022","11","14","15:00","3.1","","-8.2","","43","","","","25","","11","","24.1","","101.69","","","","","","NA"
"-76.60","44.23","KINGSTON A","6104149","2022-11-14 16:00","2022","11","14","16:00","2.6","","-8.1","","45","","","","30","","10","","24.1","","101.74","","","","","","Mostly Cloudy"
"-76.60","44.23","KINGSTON A","6104149","2022-11-14 17:00","2022","11","14","17:00","1.5","","-8.2","","49","","","","29","","5","","24.1","","101.78","","","","","","NA"
"-76.60","44.23","KINGSTON A","6104149","2022-11-14 18:00","2022","11","14","18:00","-0.3","","-7.1","","60","","","","30","","4","","24.1","","101.82","","","","-2","","NA"
"-76.60","44.23","KINGSTON A","6104149","2022-11-14 19:00","2022","11","14","19:00","-0.6","","-6.4","","65","","","","31","","7","","24.1","","101.85","","","","-3","","Mostly Cloudy"
"-76.60","44.23","KINGSTON A","6104149","2022-11-14 20:00","2022","11","14","20:00","-1.6","","-5.7","","74","","","","32","","5","","24.1","","101.87","","","","-3","","NA"
"-76.60","44.23","KINGSTON A","6104149","2022-11-14 21:00","2022","11","14","21:00","-3.6","","-6.2","","82","","","","35","","11","","24.1","","101.90","","","","-8","","NA"
"-76.60","44.23","KINGSTON A","6104149","2022-11-14 22:00","2022","11","14","22:00","-2.7","","-6.3","","76","","","","2","","7","","24.1","","101.95","","","","-6","","Mainly Clear"
"-76.60","44.23","KINGSTON A","6104149","2022-11-14 23:00","2022","11","14","23:00","-3.6","","-6.0","","83","","","","2","","10","","24.1","","101.99","","","","-8","","NA"
"-76.60","44.23","KINGSTON A","6104149","2022-11-15 00:00","2022","11","15","00:00"
"-76.60","44.23","KINGSTON A","6104149","2022-11-15 01:00","2022","11","15","01:00"
"-76.60","44.23","KINGSTON A","6104149","2022-11-15 02:00","2022","11","15","02:00"
"-76.60","44.23","KINGSTON A","6104149","2022-11-15 03:00","2022","11","15","03:00"
"-76.60","44.23","KINGSTON A","6104149","2022-11-15 04:00","2022","11","15","04:00"
"-76.60","44.23","KINGSTON A","6104149","2022-11-15 05:00","2022","11","15","05:00"
"-76.60","44.23","KINGSTON A","6104149","2022-11-15 06:00","2022","11","15","06:00","-3.9","","-7.7","","75","","","","3","","10","","24.1","","102.18","","","","-8","","NA"
"-76.60","44.23","KINGSTON A","6104149","2022-11-15 07:00","2022","11","15","07:00","-4.1","","-7.5","","77","","","","3","","10","","24.1","","102.21","","","","-8","","Mainly Clear"
"-76.60","44.23","KINGSTON A","6104149","2022-11-15 08:00","2022","11","15","08:00","-3.0","","-6.8","","75","","","","4","","7","","24.1","","102.27","","","","-6","","NA"
"-76.60","44.23","KINGSTON A","6104149","2022-11-15 09:00","2022","11","15","09:00","-1.2","","-6.1","","69","","","","6","","16","","24.1","","102.21","","","","-6","","NA"
"-76.60","44.23","KINGSTON A","6104149","2022-11-15 10:00","2022","11","15","10:00","-0.7","","-6.6","","65","","","","6","","17","","24.1","","102.18","","","","-6","","Cloudy"
"-76.60","44.23","KINGSTON A","6104149","2022-11-15 11:00","2022","11","15","11:00","-0.2","","-6.0","","65","","","","6","","18","","24.1","","102.11","","","","-5","","NA"
"-76.60","44.23","KINGSTON A","6104149","2022-11-15 12:00","2022","11","15","12:00","-0.1","","-6.3","","63","","","","4","","22","","24.1","","101.91","","","","-6","","NA"
"-76.60","44.23","KINGSTON A","6104149","2022-11-15 13:00","2022","11","15","13:00","0.1","","-6.0","","63","","","","7","","13","","24.1","","102.00","","","","","","Cloudy"
"-76.60","44.23","KINGSTON A","6104149","2022-11-15 14:00","2022","11","15","14:00","0.3","","-7.1","","58","","","","5","","18","","24.1","","101.85","","","","","","NA"
"-76.60","44.23","KINGSTON A","6104149","2022-11-15 15:00","2022","11","15","15:00","0.2","","-6.9","","59","","","","4","","22","","24.1","","101.72","","","","","","NA"
"-76.60","44.23","KINGSTON A","6104149","2022-11-15 16:00","2022","11","15","16:00","0.0","","-7.0","","59","","","","5","","22","","24.1","","101.68","","","","-6","","Cloudy"
"-76.60","44.23","KINGSTON A","6104149","2022-11-15 17:00","2022","11","15","17:00","-0.2","","-7.3","","59","","","","5","","24","","24.1","","101.60","","","","-6","","NA"
"-76.60","44.23","KINGSTON A","6104149","2022-11-15 18:00","2022","11","15","18:00","-0.2","","-7.0","","60","","","","6","","25","","24.1","","101.56","","","","-6","","NA"
"-76.60","44.23","KINGSTON A","6104149","2022-11-15 19:00","2022","11","15","19:00","-0.2","","-6.5","","62","","","","5","","22","","24.1","","101.57","","","","-6","","Cloudy"
"-76.60","44.23","KINGSTON A","6104149","2022-11-15 20:00","2022","11","15","20:00","-0.4","","-6.1","","65","","","","5","","15","","24.1","","101.54","","","","-5","","NA"
"-76.60","44.23","KINGSTON A","6104149","2022-11-15 21:00","2022","11","15","21:00","-0.4","","-6.0","","66","","","","5","","16","","12.9","","101.42","","","","-5","","Snow"
"-76.60","44.23","KINGSTON A","6104149","2022-11-15 22:00","2022","11","15","22:00","-0.6","","-5.9","","67","","","","6","","20","","24.1","","101.33","","","","-6","","Cloudy"
"-76.60","44.23","KINGSTON A","6104149","2022-11-15 23:00","2022","11","15","23:00","-0.8","","-5.4","","71","","","","6","","20","","24.1","","101.22","","","","-6","","NA"
"-76.60","44.23","KINGSTON A","6104149","2022-11-16 00:00","2022","11","16","00:00"
"-76.60","44.23","KINGSTON A","6104149","2022-11-16 01:00","2022","11","16","01:00"
"-76.60","44.23","KINGSTON A","6104149","2022-11-16 02:00","2022","11","16","02:00"
"-76.60","44.23","KINGSTON A","6104149","2022-11-16 03:00","2022","11","16","03:00"
"-76.60","44.23","KINGSTON A","6104149","2022-11-16 04:00","2022","11","16","04:00"
"-76.60","44.23","KINGSTON A","6104149","2022-11-16 05:00","2022","11","16","05:00"
"-76.60","44.23","KINGSTON A","6104149","2022-11-16 06:00","2022","11","16","06:00","-0.9","","-2.0","","93","","","","3","","14","","6.4","","100.37","","","","-5","","Snow"
"-76.60","44.23","KINGSTON A","6104149","2022-11-16 07:00","2022","11","16","07:00","-1.0","","-2.0","","93","","","","2","","16","","1.2","","100.34","","","","-6","","Snow"
"-76.60","44.23","KINGSTON A","6104149","2022-11-16 08:00","2022","11","16","08:00","-1.1","","-2.0","","94","","","","2","","17","","0.8","","100.30","","","","-6","","Moderate Snow"
"-76.60","44.23","KINGSTON A","6104149","2022-11-16 09:00","2022","11","16","09:00","-0.9","","-2.0","","92","","","","1","","14","","2.4","","100.25","","","","-5","","Snow"
"-76.60","44.23","KINGSTON A","6104149","2022-11-16 10:00","2022","11","16","10:00","-0.4","","-1.7","","90","","","","3","","13","","11.3","","100.18","","","","-5","","Cloudy"
"-76.60","44.23","KINGSTON A","6104149","2022-11-16 11:00","2022","11","16","11:00","0.0","","-1.6","","89","","","","3","","14","","12.9","","100.13","","","","-4","","NA"
"-76.60","44.23","KINGSTON A","6104149","2022-11-16 12:00","2022","11","16","12:00","0.1","","-1.3","","90","","","","1","","14","","2.4","","100.06","","","","","","Snow"
"-76.60","44.23","KINGSTON A","6104149","2022-11-16 13:00","2022","11","16","13:00","0.3","","-0.9","","92","","","","35","","12","","2.4","","100.02","","","","","","Snow"
"-76.60","44.23","KINGSTON A","6104149","2022-11-16 14:00","2022","11","16","14:00","0.8","","-1.0","","88","","","","34","","13","","24.1","","100.03","","","","","","NA"
"-76.60","44.23","KINGSTON A","6104149","2022-11-16 15:00","2022","11","16","15:00","0.7","","-1.6","","85","","","","34","","13","","24.1","","100.05","","","","","","NA"
"-76.60","44.23","KINGSTON A","6104149","2022-11-16 16:00","2022","11","16","16:00","0.6","","-1.5","","86","","","","33","","8","","24.1","","100.10","","","","","","Cloudy"
"-76.60","44.23","KINGSTON A","6104149","2022-11-16 17:00","2022","11","16","17:00","0.4","","-1.7","","86","","","","32","","8","","8.1","","100.13","","","","","","Snow Showers"
"-76.60","44.23","KINGSTON A","6104149","2022-11-16 18:00","2022","11","16","18:00","0.1","","-1.4","","89","","","","33","","6","","9.7","","100.15","","","","","","Snow"
"-76.60","44.23","KINGSTON A","6104149","2022-11-16 19:00","2022","11","16","19:00","-0.1","","-1.9","","88","","","","34","","8","","16.1","","100.14","","","","-3","","Snow"
"-76.60","44.23","KINGSTON A","6104149","2022-11-16 20:00","2022","11","16","20:00","-0.2","","-1.7","","89","","","","32","","7","","16.1","","100.13","","","","-3","","Snow"
"-76.60","44.23","KINGSTON A","6104149","2022-11-16 21:00","2022","11","16","21:00","-0.3","","-1.6","","91","","","","34","","10","","19.3","","100.12","","","","-4","","Snow"
"-76.60","44.23","KINGSTON A","6104149","2022-11-16 22:00","2022","11","16","22:00","-0.5","","-2.3","","87","","","","32","","10","","24.1","","100.13","","","","-4","","Snow"
"-76.60","44.23","KINGSTON A","6104149","2022-11-16 23:00","2022","11","16","23:00","-0.8","","-2.6","","88","","","","36","","3","","24.1","","100.06","","","","-2","","NA"
"-76.60","44.23","KINGSTON A","6104149","2022-11-17 00:00","2022","11","17","00:00"
"-76.60","44.23","KINGSTON A","6104149","2022-11-17 01:00","2022","11","17","01:00"
"-76.60","44.23","KINGSTON A","6104149","2022-11-17 02:00","2022","11","17","02:00"
"-76.60","44.23","KINGSTON A","6104149","2022-11-17 03:00","2022","11","17","03:00"
"-76.60","44.23","KINGSTON A","6104149","2022-11-17 04:00","2022","11","17","04:00"
"-76.60","44.23","KINGSTON A","6104149","2022-11-17 05:00","2022","11","17","05:00"
"-76.60","44.23","KINGSTON A","6104149","2022-11-17 06:00","2022","11","17","06:00","-2.0","","-3.5","","89","","","","31","","7","","24.1","","99.87","","","","-5","","NA"
"-76.60","44.23","KINGSTON A","6104149","2022-11-17 07:00","2022","11","17","07:00","-2.2","","-3.9","","88","","","","29","","7","","24.1","","99.91","","","","-5","","Mostly Cloudy"
"-76.60","44.23","KINGSTON A","6104149","2022-11-17 08:00","2022","11","17","08:00","-1.8","","-4.0","","85","","","","29","","11","","24.1","","99.96","","","","-6","","NA"
"-76.60","44.23","KINGSTON A","6104149","2022-11-17 09:00","2022","11","17","09:00","-1.0","","-4.9","","75","","","","29","","19","","24.1","","99.95","","","","-6","","NA"
"-76.60","44.23","KINGSTON A","6104149","2022-11-17 10:00","2022","11","17","10:00","-0.2","","-6.3","","64","","","","28","","22","","24.1","","99.96","","","","-6","","Mostly Cloudy"
"-76.60","44.23","KINGSTON A","6104149","2022-11-17 11:00","2022","11","17","11:00","-0.2","","-6.8","","61","","","","29","","23","","24.1","","100.01","","","","-6","","NA"
"-76.60","44.23","KINGSTON A","6104149","2022-11-17 12:00","2022","11","17","12:00","-0.4","","-7.8","","58","","","","27","","32","","24.1","","100.02","","","","-7","","NA"
"-76.60","44.23","KINGSTON A","6104149","2022-11-17 13:00","2022","11","17","13:00","0.2","","-7.7","","56","","","","26","","34","","24.1","","100.05","","","","","","Mostly Cloudy"
"-76.60","44.23","KINGSTON A","6104149","2022-11-17 14:00","2022","11","17","14:00","-0.7","","-8.7","","55","","","","27","","25","","24.1","","100.13","","","","-7","","NA"
"-76.60","44.23","KINGSTON A","6104149","2022-11-17 15:00","2022","11","17","15:00","0.1","","-8.9","","51","","","","27","","29","","24.1","","100.16","","","","","","NA"
"-76.60","44.23","KINGSTON A","6104149","2022-11-17 16:00","2022","11","17","16:00","-0.8","","-9.2","","53","","","","29","","16","","24.1","","100.24","","","","-6","","Mainly Clear"
"-76.60","44.23","KINGSTON A","6104149","2022-11-17 17:00","2022","11","17","17:00","-1.9","","-9.3","","57","","","","28","","9","","24.1","","100.31","","","","-5","","NA"
"-76.60","44.23","KINGSTON A","6104149","2022-11-17 18:00","2022","11","17","18:00","-2.6","","-9.5","","59","","","","30","","12","","24.1","","100.36","","","","-7","","NA"
"-76.60","44.23","KINGSTON A","6104149","2022-11-17 19:00","2022","11","17","19:00","-3.3","","-9.5","","62","","","","29","","6","","24.1","","100.39","","","","-6","","Mainly Clear"
"-76.60","44.23","KINGSTON A","6104149","2022-11-17 20:00","2022","11","17","20:00","-3.3","","-9.5","","63","","","","27","","9","","24.1","","100.45","","","","-7","","NA"
"-76.60","44.23","KINGSTON A","6104149","2022-11-17 21:00","2022","11","17","21:00","-4.6","","-9.8","","67","","","","31","","4","","24.1","","100.47","","","","-6","","NA"
"-76.60","44.23","KINGSTON A","6104149","2022-11-17 22:00","2022","11","17","22:00","-4.5","","-9.9","","66","","","","1","","6","","24.1","","100.39","","","","-7","","Mainly Clear"
"-76.60","44.23","KINGSTON A","6104149","2022-11-17 23:00","2022","11","17","23:00","-5.8","","-9.8","","74","","","","3","","7","","24.1","","100.31","","","","-9","","NA"
"-76.60","44.23","KINGSTON A","6104149","2022-11-18 00:00","2022","11","18","00:00"
"-76.60","44.23","KINGSTON A","6104149","2022-11-18 01:00","2022","11","18","01:00"
"-76.60","44.23","KINGSTON A","6104149","2022-11-18 02:00","2022","11","18","02:00"
"-76.60","44.23","KINGSTON A","6104149","2022-11-18 03:00","2022","11","18","03:00"
"-76.60","44.23","KINGSTON A","6104149","2022-11-18 04:00","2022","11","18","04:00"
"-76.60","44.23","KINGSTON A","6104149","2022-11-18 05:00","2022","11","18","05:00"
"-76.60","44.23","KINGSTON A","6104149","2022-11-18 06:00","2022","11","18","06:00","0.0","","-2.9","","81","","","","26","","23","","24.1","","100.09","","","","-6","","NA"
"-76.60","44.23","KINGSTON A","6104149","2022-11-18 07:00","2022","11","18","07:00","-0.4","","-4.2","","75","","","","26","","16","","24.1","","100.11","","","","-5","","Mostly Cloudy"
"-76.60","44.23","KINGSTON A","6104149","2022-11-18 08:00","2022","11","18","08:00","-0.7","","-5.3","","71","","","","26","","21","","24.1","","100.12","","","","-6","","NA"
"-76.60","44.23","KINGSTON A","6104149","2022-11-18 09:00","2022","11","18","09:00","-0.3","","-5.8","","66","","","","27","","19","","24.1","","100.14","","","","-5","","NA"
"-76.60","44.23","KINGSTON A","6104149","2022-11-18 10:00","2022","11","18","10:00","0.1","","-5.1","","68","","","","27","","21","","19.3","","100.13","","","","","","Mostly Cloudy"
"-76.60","44.23","KINGSTON A","6104149","2022-11-18 11:00","2022","11","18","11:00","0.3","","-5.2","","67","","","","27","","14","","24.1","","100.18","","","","","","NA"
"-76.60","44.23","KINGSTON A","6104149","2022-11-18 12:00","2022","11","18","12:00","1.1","","-5.1","","64","","","","25","","18","","24.1","","100.13","","","","","","NA"
"-76.60","44.23","KINGSTON A","6104149","2022-11-18 13:00","2022","11","18","13:00","1.2","","-5.3","","62","","","","26","","12","","24.1","","100.11","","","","","","Mostly Cloudy"
"-76.60","44.23","KINGSTON A","6104149","2022-11-18 14:00","2022","11","18","14:00","1.7","","-3.2","","70","","","","21","","18","","24.1","","100.10","","","","","","NA"
"-76.60","44.23","KINGSTON A","6104149","2022-11-18 15:00","2022","11","18","15:00","1.7","","-4.5","","64","","","","22","","13","","24.1","","100.11","","","","","","NA"
"-76.60","44.23","KINGSTON A","6104149","2022-11-18 16:00","2022","11","18","16:00","2.0","","-6.4","","54","","","","23","","10","","24.1","","100.12","","","","","","Mostly Cloudy"
"-76.60","44.23","KINGSTON A","6104149","2022-11-18 17:00","2022","11","18","17:00","1.2","","-6.5","","57","","","","26","","14","","24.1","","100.15","","","","","","NA"
"-76.60","44.23","KINGSTON A","6104149","2022-11-18 18:00","2022","11","18","18:00","1.2","","-7.6","","52","","","","27","","21","","24.1","","100.20","","","","","","NA"
"-76.60","44.23","KINGSTON A","6104149","2022-11-18 19:00","2022","11","18","19:00","0.6","","-5.5","","63","","","","26","","17","","24.1","","100.26","","","","","","Mostly Cloudy"
"-76.60","44.23","KINGSTON A","6104149","2022-11-18 20:00","2022","11","18","20:00","-0.1","","-5.9","","65","","","","27","","18","","24.1","","100.33","","","","-5","","NA"
"-76.60","44.23","KINGSTON A","6104149","2022-11-18 21:00","2022","11","18","21:00","-1.0","","-7.0","","64","","","","28","","16","","24.1","","100.39","","","","-6","","NA"
"-76.60","44.23","KINGSTON A","6104149","2022-11-18 22:00","2022","11","18","22:00","-1.4","","-7.1","","65","","","","27","","12","","24.1","","100.41","","","","-5","","Mostly Cloudy"
"-76.60","44.23","KINGSTON A","6104149","2022-11-18 23:00","2022","11","18","23:00","-1.4","","-7.0","","66","","","","27","","14","","24.1","","100.44","","","","-6","","NA"
"-76.60","44.23","KINGSTON A","6104149","2022-11-19 00:00","2022","11","19","00:00"
"-76.60","44.23","KINGSTON A","6104149","2022-11-19 01:00","2022","11","19","01:00"
"-76.60","44.23","KINGSTON A","6104149","2022-11-19 02:00","2022","11","19","02:00"
"-76.60","44.23","KINGSTON A","6104149","2022-11-19 03:00","2022","11","19","03:00"
"-76.60","44.23","KINGSTON A","6104149","2022-11-19 04:00","2022","11","19","04:00"
"-76.60","44.23","KINGSTON A","6104149","2022-11-19 05:00","2022","11","19","05:00"
"-76.60","44.23","KINGSTON A","6104149","2022-11-19 06:00","2022","11","19","06:00","-1.8","","-2.8","","93","","","","26","","18","","1.6","","100.62","","","","-7","","Snow"
"-76.60","44.23","KINGSTON A","6104149","2022-11-19 07:00","2022","11","19","07:00","-1.9","","-3.2","","91","","","","27","","19","","3.2","","100.61","","","","-7","","Snow"
"-76.60","44.23","KINGSTON A","6104149","2022-11-19 08:00","2022","11","19","08:00","-2.2","","-3.7","","89","","","","28","","18","","4.8","","100.66","","","","-8","","Snow"
"-76.60","44.23","KINGSTON A","6104149","2022-11-19 09:00","2022","11","19","09:00","-2.6","","-4.3","","88","","","","27","","17","","12.9","","100.68","","","","-8","","Snow"
"-76.60","44.23","KINGSTON A","6104149","2022-11-19 10:00","2022","11","19","10:00","-1.6","","-3.9","","85","","","","27","","10","","24.1","","100.65","","","","-5","","Mostly Cloudy"
"-76.60","44.23","KINGSTON A","6104149","2022-11-19 11:00","2022","11","19","11:00","-0.2","","-5.0","","70","","","","22","","37","","24.1","","100.60","","","","-7","","NA"
"-76.60","44.23","KINGSTON A","6104149","2022-11-19 12:00","2022","11","19","12:00","-0.2","","-5.5","","67","","","","22","","34","","24.1","","100.52","","","","-7","","NA"
"-76.60","44.23","KINGSTON A","6104149","2022-11-19 13:00","2022","11","19","13:00","-0.2","","-6.6","","62","","","","22","","35","","24.1","","100.46","","","","-7","","Cloudy"
"-76.60","44.23","KINGSTON A","6104149","2022-11-19 14:00","2022","11","19","14:00","0.0","","-6.3","","62","","","","22","","33","","24.1","","100.41","","","","-7","","NA"
"-76.60","44.23","KINGSTON A","6104149","2022-11-19 15:00","2022","11","19","15:00","-0.4","","-5.8","","67","","","","23","","32","","19.3","","100.38","","","","-7","","Snow Showers"
"-76.60","44.23","KINGSTON A","6104149","2022-11-19 16:00","2022","11","19","16:00","-0.2","","-5.8","","66","","","","22","","32","","6.4","","100.33","","","","-7","","Snow Showers"
"-76.60","44.23","KINGSTON A","6104149","2022-11-19 17:00","2022","11","19","17:00","-0.5","","-4.8","","73","","","","23","","35","","8.1","","100.30","","","","-8","","Snow Showers"
"-76.60","44.23","KINGSTON A","6104149","2022-11-19 18:00","2022","11","19","18:00","-0.2","","-6.2","","64","","","","22","","32","","16.1","","100.29","","","","-7","","Snow Showers"
"-76.60","44.23","KINGSTON A","6104149","2022-11-19 19:00","2022","11","19","19:00","0.0","","-6.5","","62","","","","22","","31","","24.1","","100.27","","","","-7","","Snow Showers"
"-76.60","44.23","KINGSTON A","6104149","2022-11-19 20:00","2022","11","19","20:00","0.3","","-7.2","","57","","","","22","","40","","24.1","","100.23","","","","","","Snow Showers"
"-76.60","44.23","KINGSTON A","6104149","2022-11-19 21:00","2022","11","19","21:00","0.4","","-7.3","","57","","","","22","","36","","24.1","","100.15","","","","","","Snow Showers"
"-76.60","44.23","KINGSTON A","6104149","2022-11-19 22:00","2022","11","19","22:00","0.3","","-6.3","","61","","","","22","","30","","24.1","","100.05","","","","","","Snow Showers"
"-76.60","44.23","KINGSTON A","6104149","2022-11-19 23:00","2022","11","19","23:00","0.6","","-6.3","","60","","","","23","","42","","24.1","","99.93","","","","","","Snow Showers"
"-76.60","44.23","KINGSTON A","6104149","2022-11-20 00:00","2022","11","20","00:00"
"-76.60","44.23","KINGSTON A","6104149","2022-11-20 01:00","2022","11","20","01:00"
"-76.60","44.23","KINGSTON A","6104149","2022-11-20 02:00","2022","11","20","02:00"
"-76.60","44.23","KINGSTON A","6104149","2022-11-20 03:00","2022","11","20","03:00"
"-76.60","44.23","KINGSTON A","6104149","2022-11-20 04:00","2022","11","20","04:00"
"-76.60","44.23","KINGSTON A","6104149","2022-11-20 05:00","2022","11","20","05:00"
"-76.60","44.23","KINGSTON A","6104149","2022-11-20 06:00","2022","11","20","06:00","-4.3","","-9.3","","68","","","","27","","39","","24.1","","100.00","","","","-13","","NA"
"-76.60","44.23","KINGSTON A","6104149","2022-11-20 07:00","2022","11","20","07:00","-4.7","","-10.0","","66","","","","27","","21","","24.1","","100.09","","","","-11","","Mainly Clear"
"-76.60","44.23","KINGSTON A","6104149","2022-11-20 08:00","2022","11","20","08:00","-4.4","","-11.0","","60","","","","27","","28","","24.1","","100.22","","","","-12","","Blowing Snow"
"-76.60","44.23","KINGSTON A","6104149","2022-11-20 09:00","2022","11","20","09:00","-4.6","","-9.7","","68","","","","27","","29","","24.1","","100.34","","","","-12","","Blowing Snow"
"-76.60","44.23","KINGSTON A","6104149","2022-11-20 10:00","2022","11","20","10:00","-3.8","","-11.6","","55","","","","27","","23","","24.1","","100.49","","","","-11","","Mainly Clear"
"-76.60","44.23","KINGSTON A","6104149","2022-11-20 11:00","2022","11","20","11:00","-3.2","","-12.9","","47","","","","26","","28","","24.1","","100.58","","","","-10","","NA"
"-76.60","44.23","KINGSTON A","6104149","2022-11-20 12:00","2022","11","20","12:00","-4.3","","-12.4","","53","","","","27","","27","","24.1","","100.67","","","","-12","","Blowing Snow"
"-76.60","44.23","KINGSTON A","6104149","2022-11-20 13:00","2022","11","20","13:00","-3.9","","-13.5","","48","","","","28","","26","","24.1","","100.65","","","","-11","","Mostly Cloudy"
"-76.60","44.23","KINGSTON A","6104149","2022-11-20 14:00","2022","11","20","14:00","-3.9","","-12.9","","50","","","","26","","25","","24.1","","100.72","","","","-11","","NA"
"-76.60","44.23","KINGSTON A","6104149","2022-11-20 15:00","2022","11","20","15:00","-3.9","","-15.1","","42","","","","27","","32","","24.1","","100.79","","","","-12","","NA"
"-76.60","44.23","KINGSTON A","6104149","2022-11-20 16:00","2022","11","20","16:00","-4.6","","-16.5","","39","","","","28","","21","","24.1","","100.89","","","","-11","","Mainly Clear"
"-76.60","44.23","KINGSTON A","6104149","2022-11-20 17:00","2022","11","20","17:00","-5.6","","-16.1","","44","","","","26","","17","","24.1","","101.05","","","","-12","","NA"
"-76.60","44.23","KINGSTON A","6104149","2022-11-20 18:00","2022","11","20","18:00","-6.3","","-15.6","","48","","","","27","","13","","24.1","","101.17","","","","-12","","NA"
"-76.60","44.23","KINGSTON A","6104149","2022-11-20 19:00","2022","11","20","19:00","-6.7","","-16.3","","47","","","","27","","15","","24.1","","101.26","","","","-13","","Mostly Cloudy"
"-76.60","44.23","KINGSTON A","6104149","2022-11-20 20:00","2022","11","20","20:00","-6.8","","-15.2","","51","","","","27","","15","","24.1","","101.34","","","","-13","","NA"
"-76.60","44.23","KINGSTON A","6104149","2022-11-20 21:00","2022","11","20","21:00","-6.2","","-14.9","","51","","","","26","","12","","24.1","","101.38","","","","-11","","NA"
"-76.60","44.23","KINGSTON A","6104149","2022-11-20 22:00","2022","11","20","22:00","-6.1","","-13.8","","55","","","","28","","12","","24.1","","101.44","","","","-11","","Mostly Cloudy"
"-76.60","44.23","KINGSTON A","6104149","2022-11-20 23:00","2022","11","20","23:00","-5.9","","-13.6","","55","","","","28","","10","","24.1","","101.47","","","","-10","","NA"
"-76.60","44.23","KINGSTON A","6104149","2022-11-21 00:00","2022","11","21","00:00"
"-76.60","44.23","KINGSTON A","6104149","2022-11-21 01:00","2022","11","21","01:00"
"-76.60","44.23","KINGSTON A","6104149","2022-11-21 02:00","2022","11","21","02:00"
"-76.60","44.23","KINGSTON A","6104149","2022-11-21 03:00","2022","11","21","03:00"
"-76.60","44.23","KINGSTON A","6104149","2022-11-21 04:00","2022","11","21","04:00"
"-76.60","44.23","KINGSTON A","6104149","2022-11-21 05:00","2022","11","21","05:00"
"-76.60","44.23","KINGSTON A","6104149","2022-11-21 06:00","2022","11","21","06:00","-3.6","","-7.9","","72","","","","24","","7","","24.1","","101.28","","","","-7","","NA"
"-76.60","44.23","KINGSTON A","6104149","2022-11-21 07:00","2022","11","21","07:00","-1.0","","-5.5","","72","","","","21","","19","","24.1","","101.21","","","","-6","","Cloudy"
"-76.60","44.23","KINGSTON A","6104149","2022-11-21 08:00","2022","11","21","08:00","0.0","","-4.7","","70","","","","21","","33","","24.1","","101.14","","","","-7","","NA"
"-76.60","44.23","KINGSTON A","6104149","2022-11-21 09:00","2022","11","21","09:00","0.7","","-4.0","","71","","","","20","","39","","24.1","","101.02","","","","","","NA"
"-76.60","44.23","KINGSTON A","6104149","2022-11-21 10:00","2022","11","21","10:00","1.1","","-4.7","","65","","","","19","","51","","24.1","","100.90","","","","","","Cloudy"
"-76.60","44.23","KINGSTON A","6104149","2022-11-21 11:00","2022","11","21","11:00","1.5","","-6.9","","54","","","","21","","45","","24.1","","100.79","","","","","","Blowing Snow"
"-76.60","44.23","KINGSTON A","6104149","2022-11-21 12:00","2022","11","21","12:00","2.9","","-5.3","","55","","","","21","","40","","24.1","","100.62","","","","","","NA"
"-76.60","44.23","KINGSTON A","6104149","2022-11-21 13:00","2022","11","21","13:00","3.8","","-6.2","","48","","","","21","","36","","24.1","","100.47","","","","","","Mainly Clear"
"-76.60","44.23","KINGSTON A","6104149","2022-11-21 14:00","2022","11","21","14:00","4.4","","-6.2","","46","","","","21","","45","","24.1","","100.31","","","","","","NA"
"-76.60","44.23","KINGSTON A","6104149","2022-11-21 15:00","2022","11","21","15:00","4.7","","-4.8","","50","","","","21","","42","","24.1","","100.23","","","","","","NA"
"-76.60","44.23","KINGSTON A","6104149","2022-11-21 16:00","2022","11","21","16:00","5.8","","-4.7","","47","","","","22","","43","","24.1","","100.19","","","","","","Mostly Cloudy"
"-76.60","44.23","KINGSTON A","6104149","2022-11-21 17:00","2022","11","21","17:00","5.8","","-3.1","","53","","","","23","","38","","24.1","","100.27","","","","","","NA"
"-76.60","44.23","KINGSTON A","6104149","2022-11-21 18:00","2022","11","21","18:00","5.8","","-2.3","","56","","","","25","","46","","24.1","","100.34","","","","","","NA"
"-76.60","44.23","KINGSTON A","6104149","2022-11-21 19:00","2022","11","21","19:00","3.6","","-4.9","","54","","","","26","","23","","24.1","","100.54","","","","","","Cloudy"
"-76.60","44.23","KINGSTON A","6104149","2022-11-21 20:00","2022","11","21","20:00","4.3","","-2.8","","60","","","","25","","29","","24.1","","100.60","","","","","","NA"
"-76.60","44.23","KINGSTON A","6104149","2022-11-21 21:00","2022","11","21","21:00","3.9","","-2.9","","61","","","","25","","27","","24.1","","100.69","","","","","","NA"
"-76.60","44.23","KINGSTON A","6104149","2022-11-21 22:00","2022","11","21","22:00","3.8","","-2.9","","61","","","","26","","28","","24.1","","100.83","","","","","","Cloudy"
"-76.60","44.23","KINGSTON A","6104149","2022-11-21 23:00","2022","11","21","23:00","3.3","","-2.5","","66","","","","26","","18","","24.1","","100.96","","","","","","NA"
"-76.60","44.23","KINGSTON A","6104149","2022-11-22 00:00","2022","11","22","00:00"
"-76.60","44.23","KINGSTON A","6104149","2022-11-22 01:00","2022","11","22","01:00"
"-76.60","44.23","KINGSTON A","6104149","2022-11-22 02:00","2022","11","22","02:00"
"-76.60","44.23","KINGSTON A","6104149","2022-11-22 03:00","2022","11","22","03:00"
"-76.60","44.23","KINGSTON A","6104149","2022-11-22 04:00","2022","11","22","04:00"
"-76.60","44.23","KINGSTON A","6104149","2022-11-22 05:00","2022","11","22","05:00"
"-76.60","44.23","KINGSTON A","6104149","2022-11-22 06:00","2022","11","22","06:00","-4.4","","-7.6","","78","","","","4","","5","","24.1","","101.55","","","","-7","","NA"
"-76.60","44.23","KINGSTON A","6104149","2022-11-22 07:00","2022","11","22","07:00","-3.7","","-8.0","","72","","","","5","","9","","24.1","","101.56","","","","-7","","Mainly Clear"
"-76.60","44.23","KINGSTON A","6104149","2022-11-22 08:00","2022","11","22","08:00","-3.4","","-7.7","","72","","","","5","","13","","24.1","","101.61","","","","-8","","NA"
"-76.60","44.23","KINGSTON A","6104149","2022-11-22 09:00","2022","11","22","09:00","-2.3","","-7.8","","66","","","","6","","11","","24.1","","101.64","","","","-6","","NA"
"-76.60","44.23","KINGSTON A","6104149","2022-11-22 10:00","2022","11","22","10:00","-1.0","","-7.0","","64","","","","9","","13","","24.1","","101.60","","","","-5","","Mostly Cloudy"
"-76.60","44.23","KINGSTON A","6104149","2022-11-22 11:00","2022","11","22","11:00","-0.6","","-6.8","","63","","","","8","","10","","24.1","","101.53","","","","-4","","NA"
"-76.60","44.23","KINGSTON A","6104149","2022-11-22 12:00","2022","11","22","12:00","0.1","","-6.3","","62","","","","9","","10","","24.1","","101.42","","","","","","NA"
"-76.60","44.23","KINGSTON A","6104149","2022-11-22 13:00","2022","11","22","13:00","0.4","","-5.8","","63","","","","11","","8","","24.1","","101.33","","","","","","Cloudy"
"-76.60","44.23","KINGSTON A","6104149","2022-11-22 14:00","2022","11","22","14:00","1.2","","-4.7","","65","","","","9","","8","","24.1","","101.23","","","","","","NA"
"-76.60","44.23","KINGSTON A","6104149","2022-11-22 15:00","2022","11","22","15:00","1.4","","-4.1","","67","","","","7","","8","","24.1","","101.11","","","","","","NA"
"-76.60","44.23","KINGSTON A","6104149","2022-11-22 16:00","2022","11","22","16:00","1.8","","-2.5","","73","","","","7","","5","","24.1","","101.04","","","","","","Cloudy"
"-76.60","44.23","KINGSTON A","6104149","2022-11-22 17:00","2022","11","22","17:00","1.7","","-2.4","","74","","","","4","","5","","24.1","","101.02","","","","","","NA"
"-76.60","44.23","KINGSTON A","6104149","2022-11-22 18:00","2022","11","22","18:00","-0.2","","-3.6","","78","","","","34","","9","","24.1","","100.97","","","","-3","","NA"
"-76.60","44.23","KINGSTON A","6104149","2022-11-22 19:00","2022","11","22","19:00","-1.3","","-4.7","","78","","","","1","","7","","24.1","","100.91","","","","-4","","Mostly Cloudy"
"-76.60","44.23","KINGSTON A","6104149","2022-11-22 20:00","2022","11","22","20:00","-1.8","","-4.6","","81","","","","1","","8","","24.1","","100.89","","","","-5","","NA"
"-76.60","44.23","KINGSTON A","6104149","2022-11-22 21:00","2022","11","22","21:00","-0.3","","-3.7","","78","","","","5","","8","","24.1","","100.82","","","","-3","","NA"
"-76.60","44.23","KINGSTON A","6104149","2022-11-22 22:00","2022","11","22","22:00","-0.2","","-3.1","","81","","","","35","","3","","24.1","","100.78","","","","-1","","Cloudy"
"-76.60","44.23","KINGSTON A","6104149","2022-11-22 23:00","2022","11","22","23:00","-0.9","","-3.3","","84","","","","35","","7","","24.1","","100.76","","","","-3","","NA"
"-76.60","44.23","KINGSTON A","6104149","2022-11-23 00:00","2022","11","23","00:00"
"-76.60","44.23","KINGSTON A","6104149","2022-11-23 01:00","2022","11","23","01:00"
"-76.60","44.23","KINGSTON A","6104149","2022-11-23 02:00","2022","11","23","02:00"
"-76.60","44.23","KINGSTON A","6104149","2022-11-23 03:00","2022","11","23","03:00"
"-76.60","44.23","KINGSTON A","6104149","2022-11-23 04:00","2022","11","23","04:00"
"-76.60","44.23","KINGSTON A","6104149","2022-11-23 05:00","2022","11","23","05:00"
"-76.60","44.23","KINGSTON A","6104149","2022-11-23 06:00","2022","11","23","06:00","0.7","","-2.1","","82","","","","25","","11","","24.1","","101.01","","","","","","NA"
"-76.60","44.23","KINGSTON A","6104149","2022-11-23 07:00","2022","11","23","07:00","0.4","","-2.2","","83","","","","27","","8","","24.1","","101.13","","","","","","Cloudy"
"-76.60","44.23","KINGSTON A","6104149","2022-11-23 08:00","2022","11","23","08:00","0.9","","-1.7","","83","","","","31","","4","","19.3","","101.19","","","","","","NA"
"-76.60","44.23","KINGSTON A","6104149","2022-11-23 09:00","2022","11","23","09:00","1.5","","-1.2","","82","","","","33","","3","","19.3","","101.24","","","","","","NA"
"-76.60","44.23","KINGSTON A","6104149","2022-11-23 10:00","2022","11","23","10:00","2.5","","-0.8","","79","","","","28","","7","","24.1","","101.29","","","","","","Cloudy"
"-76.60","44.23","KINGSTON A","6104149","2022-11-23 11:00","2022","11","23","11:00","3.1","","-0.5","","77","","","","31","","9","","24.1","","101.34","","","","","","NA"
"-76.60","44.23","KINGSTON A","6104149","2022-11-23 12:00","2022","11","23","12:00","3.9","","-0.3","","74","","","","34","","8","","24.1","","101.33","","","","","","NA"
"-76.60","44.23","KINGSTON A","6104149","2022-11-23 13:00","2022","11","23","13:00","4.1","","-0.5","","72","","","","36","","3","","24.1","","101.31","","","","","","Cloudy"
"-76.60","44.23","KINGSTON A","6104149","2022-11-23 14:00","2022","11","23","14:00","4.4","","-0.5","","70","","","","4","","5","","24.1","","101.32","","","","","","NA"
"-76.60","44.23","KINGSTON A","6104149","2022-11-23 15:00","2022","11","23","15:00","4.3","","-0.7","","70","","","","34","","5","","24.1","","101.35","","","","","","NA"
"-76.60","44.23","KINGSTON A","6104149","2022-11-23 16:00","2022","11","23","16:00","3.7","","-0.2","","76","","","","5","","8","","24.1","","101.38","","","","","","Cloudy"
"-76.60","44.23","KINGSTON A","6104149","2022-11-23 17:00","2022","11","23","17:00","3.1","","-0.4","","77","","","","5","","7","","24.1","","101.45","","","","","","NA"
"-76.60","44.23","KINGSTON A","6104149","2022-11-23 18:00","2022","11","23","18:00","3.0","","-0.3","","79","","","","5","","9","","24.1","","101.52","","","","","","NA"
"-76.60","44.23","KINGSTON A","6104149","2022-11-23 19:00","2022","11","23","19:00","2.6","","-0.1","","82","","","","6","","7","","24.1","","101.59","","","","","","Cloudy"
"-76.60","44.23","KINGSTON A","6104149","2022-11-23 20:00","2022","11","23","20:00","2.6","","0.0","","83","","","","6","","9","","24.1","","101.57","","","","","","NA"
"-76.60","44.23","KINGSTON A","6104149","2022-11-23 21:00","2022","11","23","21:00","1.8","","-0.3","","86","","","","7","","7","","24.1","","101.63","","","","","","NA"
"-76.60","44.23","KINGSTON A","6104149","2022-11-23 22:00","2022","11","23","22:00","2.0","","0.2","","88","","","","12","","10","","24.1","","101.62","","","","","","Mostly Cloudy"
"-76.60","44.23","KINGSTON A","6104149","2022-11-23 23:00","2022","11","23","23:00","0.9","","-0.3","","92","","","","8","","5","","24.1","","101.63","","","","","","NA"
"-76.60","44.23","KINGSTON A","6104149","2022-11-24 00:00","2022","11","24","00:00"
"-76.60","44.23","KINGSTON A","6104149","2022-11-24 01:00","2022","11","24","01:00"
"-76.60","44.23","KINGSTON A","6104149","2022-11-24 02:00","2022","11","24","02:00"
"-76.60","44.23","KINGSTON A","6104149","2022-11-24 03:00","2022","11","24","03:00"
"-76.60","44.23","KINGSTON A","6104149","2022-11-24 04:00","2022","11","24","04:00"
"-76.60","44.23","KINGSTON A","6104149","2022-11-24 05:00","2022","11","24","05:00"
"-76.60","44.23","KINGSTON A","6104149","2022-11-24 06:00","2022","11","24","06:00","-1.4","","-2.2","","95","","","","5","","10","","24.1","","101.58","","","","-5","","NA"
"-76.60","44.23","KINGSTON A","6104149","2022-11-24 07:00","2022","11","24","07:00","-1.6","","-2.4","","95","","","","5","","9","","12.9","","101.57","","","","-5","","Mainly Clear"
"-76.60","44.23","KINGSTON A","6104149","2022-11-24 08:00","2022","11","24","08:00","-1.1","","-1.8","","95","","","","5","","8","","8.1","","101.58","","","","-4","","Fog"
"-76.60","44.23","KINGSTON A","6104149","2022-11-24 09:00","2022","11","24","09:00","0.7","","-0.1","","94","","","","6","","8","","8.1","","101.53","","","","","","Fog"
"-76.60","44.23","KINGSTON A","6104149","2022-11-24 10:00","2022","11","24","10:00","3.7","","1.1","","83","","","","10","","10","","12.9","","101.44","","","","","","Mostly Cloudy"
"-76.60","44.23","KINGSTON A","6104149","2022-11-24 11:00","2022","11","24","11:00","4.9","","1.8","","80","","","","15","","14","","16.1","","101.38","","","","","","NA"
"-76.60","44.23","KINGSTON A","6104149","2022-11-24 12:00","2022","11","24","12:00","6.5","","3.0","","78","","","","18","","16","","16.1","","101.31","","","","","","NA"
"-76.60","44.23","KINGSTON A","6104149","2022-11-24 13:00","2022","11","24","13:00","7.5","","3.7","","77","","","","19","","13","","19.3","","101.19","","","","","","Mostly Cloudy"
"-76.60","44.23","KINGSTON A","6104149","2022-11-24 14:00","2022","11","24","14:00","7.7","","3.2","","73","","","","17","","15","","19.3","","101.12","","","","","","NA"
"-76.60","44.23","KINGSTON A","6104149","2022-11-24 15:00","2022","11","24","15:00","7.4","","3.5","","76","","","","18","","15","","24.1","","101.04","","","","","","NA"
"-76.60","44.23","KINGSTON A","6104149","2022-11-24 16:00","2022","11","24","16:00","6.9","","3.8","","80","","","","19","","17","","24.1","","100.97","","","","","","Mostly Cloudy"
"-76.60","44.23","KINGSTON A","6104149","2022-11-24 17:00","2022","11","24","17:00","6.1","","3.4","","83","","","","20","","11","","24.1","","100.95","","","","","","NA"
"-76.60","44.23","KINGSTON A","6104149","2022-11-24 18:00","2022","11","24","18:00","5.9","","3.4","","84","","","","20","","8","","24.1","","100.90","","","","","","NA"
"-76.60","44.23","KINGSTON A","6104149","2022-11-24 19:00","2022","11","24","19:00","4.7","","3.6","","93","","","","36","","1","","24.1","","100.82","","","","","","Mostly Cloudy"
"-76.60","44.23","KINGSTON A","6104149","2022-11-24 20:00","2022","11","24","20:00","1.4","","0.5","","94","","","","36","","3","","24.1","","100.74","","","","","","NA"
"-76.60","44.23","KINGSTON A","6104149","2022-11-24 21:00","2022","11","24","21:00","7.4","","5.3","","87","","","","18","","14","","24.1","","100.63","","","","","","NA"
"-76.60","44.23","KINGSTON A","6104149","2022-11-24 22:00","2022","11","24","22:00","7.5","","4.7","","82","","","","18","","13","","24.1","","100.51","","","","","","Mostly Cloudy"
"-76.60","44.23","KINGSTON A","6104149","2022-11-24 23:00","2022","11","24","23:00","8.4","","4.2","","75","","","","18","","20","","24.1","","100.41","","","","","","NA"
"-76.60","44.23","KINGSTON A","6104149","2022-11-25 00:00","2022","11","25","00:00"
"-76.60","44.23","KINGSTON A","6104149","2022-11-25 01:00","2022","11","25","01:00"
"-76.60","44.23","KINGSTON A","6104149","2022-11-25 02:00","2022","11","25","02:00"
"-76.60","44.23","KINGSTON A","6104149","2022-11-25 03:00","2022","11","25","03:00"
"-76.60","44.23","KINGSTON A","6104149","2022-11-25 04:00","2022","11","25","04:00"
"-76.60","44.23","KINGSTON A","6104149","2022-11-25 05:00","2022","11","25","05:00"
"-76.60","44.23","KINGSTON A","6104149","2022-11-25 06:00","2022","11","25","06:00","7.1","","6.0","","92","","","","21","","24","","6.4","","99.67","","","","","","Rain,Fog"
"-76.60","44.23","KINGSTON A","6104149","2022-11-25 07:00","2022","11","25","07:00","7.2","","6.3","","94","","","","22","","34","","4.0","","99.64","","","","","","Rain,Fog"
"-76.60","44.23","KINGSTON A","6104149","2022-11-25 08:00","2022","11","25","08:00","7.2","","6.4","","95","","","","24","","23","","6.4","","99.60","","","","","","Rain,Fog"
"-76.60","44.23","KINGSTON A","6104149","2022-11-25 09:00","2022","11","25","09:00","7.0","","5.6","","90","","","","25","","22","","12.9","","99.58","","","","","","NA"
"-76.60","44.23","KINGSTON A","6104149","2022-11-25 10:00","2022","11","25","10:00","6.4","","4.9","","90","","","","26","","23","","16.1","","99.61","","","","","","Cloudy"
"-76.60","44.23","KINGSTON A","6104149","2022-11-25 11:00","2022","11","25","11:00","6.6","","4.9","","89","","","","27","","18","","19.3","","99.65","","","","","","NA"
"-76.60","44.23","KINGSTON A","6104149","2022-11-25 12:00","2022","11","25","12:00","6.9","","4.0","","82","","","","28","","24","","24.1","","99.66","","","","","","NA"
"-76.60","44.23","KINGSTON A","6104149","2022-11-25 13:00","2022","11","25","13:00","7.2","","2.3","","71","","","","30","","23","","24.1","","99.75","","","","","","Mostly Cloudy"
"-76.60","44.23","KINGSTON A","6104149","2022-11-25 14:00","2022","11","25","14:00","6.8","","1.6","","69","","","","29","","22","","24.1","","99.82","","","","","","NA"
"-76.60","44.23","KINGSTON A","6104149","2022-11-25 15:00","2022","11","25","15:00","6.5","","0.0","","63","","","","33","","23","","24.1","","99.90","","","","","","NA"
"-76.60","44.23","KINGSTON A","6104149","2022-11-25 16:00","2022","11","25","16:00","5.4","","-2.0","","59","","","","29","","30","","24.1","","100.01","","","","","","Mostly Cloudy"
"-76.60","44.23","KINGSTON A","6104149","2022-11-25 17:00","2022","11","25","17:00","4.7","","-2.4","","60","","","","29","","14","","24.1","","100.14","","","","","","NA"
"-76.60","44.23","KINGSTON A","6104149","2022-11-25 18:00","2022","11","25","18:00","4.5","","-2.2","","62","","","","28","","17","","24.1","","100.23","","","","","","NA"
"-76.60","44.23","KINGSTON A","6104149","2022-11-25 19:00","2022","11","25","19:00","4.0","","-2.5","","63","","","","29","","18","","24.1","","100.29","","","","","","Mostly Cloudy"
"-76.60","44.23","KINGSTON A","6104149","2022-11-25 20:00","2022","11","25","20:00","3.2","","-2.3","","67","","","","29","","17","","24.1","","100.32","","","","","","NA"
"-76.60","44.23","KINGSTON A","6104149","2022-11-25 21:00","2022","11","25","21:00","3.8","","-2.5","","63","","","","28","","17","","24.1","","100.39","","","","","","NA"
"-76.60","44.23","KINGSTON A","6104149","2022-11-25 22:00","2022","11","25","22:00","3.8","","-2.5","","63","","","","27","","12","","24.1","","100.39","","","","","","Cloudy"
"-76.60","44.23","KINGSTON A","6104149","2022-11-25 23:00","2022","11","25","23:00","3.5","","-2.4","","66","","","","28","","10","","24.1","","100.43","","","","","","NA"
"-76.60","44.23","KINGSTON A","6104149","2022-11-26 00:00","2022","11","26","00:00"
"-76.60","44.23","KINGSTON A","6104149","2022-11-26 01:00","2022","11","26","01:00"
"-76.60","44.23","KINGSTON A","6104149","2022-11-26 02:00","2022","11","26","02:00"
"-76.60","44.23","KINGSTON A","6104149","2022-11-26 03:00","2022","11","26","03:00"
"-76.60","44.23","KINGSTON A","6104149","2022-11-26 04:00","2022","11","26","04:00"
"-76.60","44.23","KINGSTON A","6104149","2022-11-26 05:00","2022","11","26","05:00"
"-76.60","44.23","KINGSTON A","6104149","2022-11-26 06:00","2022","11","26","06:00","2.0","","-0.4","","84","","","","26","","11","","24.1","","100.52","","","","","","NA"
"-76.60","44.23","KINGSTON A","6104149","2022-11-26 07:00","2022","11","26","07:00","1.2","","-1.1","","85","","","","27","","10","","24.1","","100.53","","","","","","Mainly Clear"
"-76.60","44.23","KINGSTON A","6104149","2022-11-26 08:00","2022","11","26","08:00","3.1","","-0.8","","75","","","","24","","21","","24.1","","100.55","","","","","","NA"
"-76.60","44.23","KINGSTON A","6104149","2022-11-26 09:00","2022","11","26","09:00","4.7","","1.1","","77","","","","22","","18","","24.1","","100.51","","","","","","NA"
"-76.60","44.23","KINGSTON A","6104149","2022-11-26 10:00","2022","11","26","10:00","6.3","","1.8","","73","","","","23","","24","","24.1","","100.41","","","","","","Mainly Clear"
"-76.60","44.23","KINGSTON A","6104149","2022-11-26 11:00","2022","11","26","11:00","8.0","","2.6","","68","","","","23","","30","","24.1","","100.33","","","","","","NA"
"-76.60","44.23","KINGSTON A","6104149","2022-11-26 12:00","2022","11","26","12:00","8.3","","2.6","","67","","","","22","","25","","24.1","","100.22","","","","","","NA"
"-76.60","44.23","KINGSTON A","6104149","2022-11-26 13:00","2022","11","26","13:00","8.6","","1.6","","61","","","","23","","28","","24.1","","100.09","","","","","","Mainly Clear"
"-76.60","44.23","KINGSTON A","6104149","2022-11-26 14:00","2022","11","26","14:00","9.1","","1.7","","60","","","","24","","30","","24.1","","100.06","","","","","","NA"
"-76.60","44.23","KINGSTON A","6104149","2022-11-26 15:00","2022","11","26","15:00","9.5","","4.0","","68","","","","22","","24","","24.1","","100.02","","","","","","NA"
"-76.60","44.23","KINGSTON A","6104149","2022-11-26 16:00","2022","11","26","16:00","9.2","","3.4","","67","","","","22","","24","","24.1","","100.00","","","","","","Mainly Clear"
"-76.60","44.23","KINGSTON A","6104149","2022-11-26 17:00","2022","11","26","17:00","8.6","","2.5","","66","","","","22","","21","","24.1","","100.01","","","","","","NA"
"-76.60","44.23","KINGSTON A","6104149","2022-11-26 18:00","2022","11","26","18:00","7.8","","2.2","","67","","","","23","","17","","24.1","","100.01","","","","","","NA"
"-76.60","44.23","KINGSTON A","6104149","2022-11-26 19:00","2022","11","26","19:00","8.1","","2.5","","68","","","","23","","26","","24.1","","100.00","","","","","","Clear"
"-76.60","44.23","KINGSTON A","6104149","2022-11-26 20:00","2022","11","26","20:00","7.9","","2.1","","67","","","","23","","21","","24.1","","100.01","","","","","","NA"
"-76.60","44.23","KINGSTON A","6104149","2022-11-26 21:00","2022","11","26","21:00","7.8","","1.1","","62","","","","24","","22","","24.1","","99.97","","","","","","NA"
"-76.60","44.23","KINGSTON A","6104149","2022-11-26 22:00","2022","11","26","22:00","7.4","","0.6","","62","","","","23","","27","","24.1","","99.98","","","","","","Clear"
"-76.60","44.23","KINGSTON A","6104149","2022-11-26 23:00","2022","11","26","23:00","7.5","","0.9","","63","","","","24","","12","","24.1","","99.91","","","","","","NA"
"-76.60","44.23","KINGSTON A","6104149","2022-11-27 00:00","2022","11","27","00:00"
"-76.60","44.23","KINGSTON A","6104149","2022-11-27 01:00","2022","11","27","01:00"
"-76.60","44.23","KINGSTON A","6104149","2022-11-27 02:00","2022","11","27","02:00"
"-76.60","44.23","KINGSTON A","6104149","2022-11-27 03:00","2022","11","27","03:00"
"-76.60","44.23","KINGSTON A","6104149","2022-11-27 04:00","2022","11","27","04:00"
"-76.60","44.23","KINGSTON A","6104149","2022-11-27 05:00","2022","11","27","05:00"
"-76.60","44.23","KINGSTON A","6104149","2022-11-27 06:00","2022","11","27","06:00","6.7","","1.5","","70","","","","21","","11","","24.1","","99.71","","","","","","NA"
"-76.60","44.23","KINGSTON A","6104149","2022-11-27 07:00","2022","11","27","07:00","6.8","","2.0","","71","","","","21","","11","","24.1","","99.62","","","","","","Cloudy"
"-76.60","44.23","KINGSTON A","6104149","2022-11-27 08:00","2022","11","27","08:00","6.8","","2.6","","74","","","","20","","10","","24.1","","99.57","","","","","","NA"
"-76.60","44.23","KINGSTON A","6104149","2022-11-27 09:00","2022","11","27","09:00","8.0","","3.9","","75","","","","19","","9","","24.1","","99.52","","","","","","NA"
"-76.60","44.23","KINGSTON A","6104149","2022-11-27 10:00","2022","11","27","10:00","8.5","","4.8","","77","","","","18","","13","","24.1","","99.46","","","","","","Mostly Cloudy"
"-76.60","44.23","KINGSTON A","6104149","2022-11-27 11:00","2022","11","27","11:00","8.3","","3.4","","71","","","","16","","18","","24.1","","99.31","","","","","","NA"
"-76.60","44.23","KINGSTON A","6104149","2022-11-27 12:00","2022","11","27","12:00","8.4","","2.2","","65","","","","17","","18","","24.1","","99.19","","","","","","NA"
"-76.60","44.23","KINGSTON A","6104149","2022-11-27 13:00","2022","11","27","13:00","8.4","","2.9","","68","","","","36","","1","","24.1","","98.97","","","","","","Cloudy"
"-76.60","44.23","KINGSTON A","6104149","2022-11-27 14:00","2022","11","27","14:00","8.5","","2.4","","65","","","","11","","10","","24.1","","98.83","","","","","","NA"
"-76.60","44.23","KINGSTON A","6104149","2022-11-27 15:00","2022","11","27","15:00","8.0","","0.8","","60","","","","14","","20","","16.1","","98.65","","","","","","Rain"
"-76.60","44.23","KINGSTON A","6104149","2022-11-27 16:00","2022","11","27","16:00","6.0","","3.9","","87","","","","12","","10","","9.7","","98.52","","","","","","Rain,Fog"
"-76.60","44.23","KINGSTON A","6104149","2022-11-27 17:00","2022","11","27","17:00","5.3","","3.9","","91","","","","4","","8","","8.1","","98.43","","","","","","Rain,Fog"
"-76.60","44.23","KINGSTON A","6104149","2022-11-27 18:00","2022","11","27","18:00","4.6","","3.7","","94","","","","4","","18","","8.1","","98.33","","","","","","Rain,Fog"
"-76.60","44.23","KINGSTON A","6104149","2022-11-27 19:00","2022","11","27","19:00","4.4","","3.7","","95","","","","5","","13","","8.1","","98.26","","","","","","Rain,Fog"
"-76.60","44.23","KINGSTON A","6104149","2022-11-27 20:00","2022","11","27","20:00","4.6","","4.0","","96","","","","4","","16","","6.4","","98.20","","","","","","Rain,Fog"
"-76.60","44.23","KINGSTON A","6104149","2022-11-27 21:00","2022","11","27","21:00","4.5","","3.9","","96","","","","3","","19","","4.8","","98.18","","","","","","Rain,Fog"
"-76.60","44.23","KINGSTON A","6104149","2022-11-27 22:00","2022","11","27","22:00","4.3","","3.6","","95","","","","1","","19","","6.4","","98.21","","","","","","Rain,Fog"
"-76.60","44.23","KINGSTON A","6104149","2022-11-27 23:00","2022","11","27","23:00","4.3","","3.6","","95","","","","36","","20","","4.8","","98.30","","","","","","Rain,Fog"
"-76.60","44.23","KINGSTON A","6104149","2022-11-28 00:00","2022","11","28","00:00"
"-76.60","44.23","KINGSTON A","6104149","2022-11-28 01:00","2022","11","28","01:00"
"-76.60","44.23","KINGSTON A","6104149","2022-11-28 02:00","2022","11","28","02:00"
"-76.60","44.23","KINGSTON A","6104149","2022-11-28 03:00","2022","11","28","03:00"
"-76.60","44.23","KINGSTON A","6104149","2022-11-28 04:00","2022","11","28","04:00"
"-76.60","44.23","KINGSTON A","6104149","2022-11-28 05:00","2022","11","28","05:00"
"-76.60","44.23","KINGSTON A","6104149","2022-11-28 06:00","2022","11","28","06:00","2.9","","0.4","","84","","","","33","","21","","24.1","","99.31","","","","","","NA"
"-76.60","44.23","KINGSTON A","6104149","2022-11-28 07:00","2022","11","28","07:00","2.2","","-0.3","","84","","","","33","","21","","24.1","","99.49","","","","","","Cloudy"
"-76.60","44.23","KINGSTON A","6104149","2022-11-28 08:00","2022","11","28","08:00","1.2","","-1.3","","84","","","","33","","23","","24.1","","99.64","","","","","","NA"
"-76.60","44.23","KINGSTON A","6104149","2022-11-28 09:00","2022","11","28","09:00","2.2","","-1.2","","78","","","","36","","24","","24.1","","99.77","","","","","","NA"
"-76.60","44.23","KINGSTON A","6104149","2022-11-28 10:00","2022","11","28","10:00","1.8","","-1.3","","80","","","","33","","20","","24.1","","99.87","","","","","","Mostly Cloudy"
"-76.60","44.23","KINGSTON A","6104149","2022-11-28 11:00","2022","11","28","11:00","2.1","","-2.1","","74","","","","36","","14","","24.1","","100.00","","","","","","NA"
"-76.60","44.23","KINGSTON A","6104149","2022-11-28 12:00","2022","11","28","12:00","2.1","","-2.4","","72","","","","30","","19","","24.1","","100.03","","","","","","NA"
"-76.60","44.23","KINGSTON A","6104149","2022-11-28 13:00","2022","11","28","13:00","1.8","","-2.6","","72","","","","33","","17","","24.1","","100.07","","","","","","Cloudy"
"-76.60","44.23","KINGSTON A","6104149","2022-11-28 14:00","2022","11","28","14:00","1.1","","-3.4","","72","","","","36","","20","","24.1","","100.17","","","","","","NA"
"-76.60","44.23","KINGSTON A","6104149","2022-11-28 15:00","2022","11","28","15:00","0.5","","-4.0","","72","","","","35","","21","","24.1","","100.27","","","","","","NA"
"-76.60","44.23","KINGSTON A","6104149","2022-11-28 16:00","2022","11","28","16:00","0.0","","-4.2","","74","","","","34","","14","","24.1","","100.40","","","","-4","","Cloudy"
"-76.60","44.23","KINGSTON A","6104149","2022-11-28 17:00","2022","11","28","17:00","-0.4","","-5.2","","70","","","","33","","13","","24.1","","100.52","","","","-5","","NA"
"-76.60","44.23","KINGSTON A","6104149","2022-11-28 18:00","2022","11","28","18:00","-0.5","","-5.0","","72","","","","34","","10","","24.1","","100.64","","","","-4","","NA"
"-76.60","44.23","KINGSTON A","6104149","2022-11-28 19:00","2022","11","28","19:00","-0.7","","-5.4","","70","","","","32","","7","","24.1","","100.68","","","","-3","","Cloudy"
"-76.60","44.23","KINGSTON A","6104149","2022-11-28 20:00","2022","11","28","20:00","-0.6","","-5.5","","69","","","","33","","4","","24.1","","100.78","","","","-2","","NA"
"-76.60","44.23","KINGSTON A","6104149","2022-11-28 21:00","2022","11","28","21:00","-0.4","","-6.1","","65","","","","8","","4","","24.1","","100.81","","","","-2","","NA"
"-76.60","44.23","KINGSTON A","6104149","2022-11-28 22:00","2022","11","28","22:00","-0.7","","-5.5","","70","","","","36","","2","","24.1","","100.85","","","","-1","","Cloudy"
"-76.60","44.23","KINGSTON A","6104149","2022-11-28 23:00","2022","11","28","23:00","-0.8","","-5.7","","69","","","","1","","6","","24.1","","100.84","","","","-3","","NA"
"-76.60","44.23","KINGSTON A","6104149","2022-11-29 00:00","2022","11","29","00:00"
"-76.60","44.23","KINGSTON A","6104149","2022-11-29 01:00","2022","11","29","01:00"
"-76.60","44.23","KINGSTON A","6104149","2022-11-29 02:00","2022","11","29","02:00"
"-76.60","44.23","KINGSTON A","6104149","2022-11-29 03:00","2022","11","29","03:00"
"-76.60","44.23","KINGSTON A","6104149","2022-11-29 04:00","2022","11","29","04:00"
"-76.60","44.23","KINGSTON A","6104149","2022-11-29 05:00","2022","11","29","05:00"
"-76.60","44.23","KINGSTON A","6104149","2022-11-29 06:00","2022","11","29","06:00","-0.6","","-5.0","","72","","","","7","","5","","24.1","","101.20","","","","-2","","NA"
"-76.60","44.23","KINGSTON A","6104149","2022-11-29 07:00","2022","11","29","07:00","-0.7","","-4.7","","74","","","","9","","13","","24.1","","101.18","","","","-5","","Mostly Cloudy"
"-76.60","44.23","KINGSTON A","6104149","2022-11-29 08:00","2022","11","29","08:00","0.4","","-4.2","","72","","","","13","","8","","24.1","","101.28","","","","","","NA"
"-76.60","44.23","KINGSTON A","6104149","2022-11-29 09:00","2022","11","29","09:00","1.2","","-3.5","","71","","","","12","","15","","24.1","","101.31","","","","","","NA"
"-76.60","44.23","KINGSTON A","6104149","2022-11-29 10:00","2022","11","29","10:00","2.0","","-2.3","","73","","","","11","","12","","24.1","","101.31","","","","","","Cloudy"
"-76.60","44.23","KINGSTON A","6104149","2022-11-29 11:00","2022","11","29","11:00","3.0","","-1.4","","73","","","","12","","8","","24.1","","101.27","","","","","","NA"
"-76.60","44.23","KINGSTON A","6104149","2022-11-29 12:00","2022","11","29","12:00","3.8","","-0.6","","73","","","","14","","7","","24.1","","101.21","","","","","","NA"
"-76.60","44.23","KINGSTON A","6104149","2022-11-29 13:00","2022","11","29","13:00","4.1","","-0.7","","71","","","","17","","11","","24.1","","101.18","","","","","","Cloudy"
"-76.60","44.23","KINGSTON A","6104149","2022-11-29 14:00","2022","11","29","14:00","4.1","","-0.6","","72","","","","15","","19","","24.1","","101.16","","","","","","NA"
"-76.60","44.23","KINGSTON A","6104149","2022-11-29 15:00","2022","11","29","15:00","4.3","","-0.9","","69","","","","15","","22","","24.1","","101.12","","","","","","NA"
"-76.60","44.23","KINGSTON A","6104149","2022-11-29 16:00","2022","11","29","16:00","4.0","","-1.8","","66","","","","12","","19","","24.1","","101.11","","","","","","Cloudy"
"-76.60","44.23","KINGSTON A","6104149","2022-11-29 17:00","2022","11","29","17:00","3.6","","-1.9","","67","","","","12","","20","","24.1","","101.08","","","","","","NA"
"-76.60","44.23","KINGSTON A","6104149","2022-11-29 18:00","2022","11","29","18:00","3.3","","-2.2","","67","","","","11","","21","","24.1","","101.03","","","","","","NA"
"-76.60","44.23","KINGSTON A","6104149","2022-11-29 19:00","2022","11","29","19:00","2.9","","-1.7","","72","","","","10","","16","","24.1","","100.99","","","","","","Mostly Cloudy"
"-76.60","44.23","KINGSTON A","6104149","2022-11-29 20:00","2022","11","29","20:00","2.9","","-1.4","","73","","","","10","","14","","24.1","","100.95","","","","","","NA"
"-76.60","44.23","KINGSTON A","6104149","2022-11-29 21:00","2022","11","29","21:00","2.1","","-1.6","","77","","","","9","","15","","24.1","","100.81","","","","","","NA"
"-76.60","44.23","KINGSTON A","6104149","2022-11-29 22:00","2022","11","29","22:00","2.2","","-1.6","","76","","","","10","","14","","24.1","","100.73","","","","","","Mostly Cloudy"
"-76.60","44.23","KINGSTON A","6104149","2022-11-29 23:00","2022","11","29","23:00","3.0","","-1.0","","75","","","","11","","14","","24.1","","100.66","","","","","","NA"
"-76.60","44.23","KINGSTON A","6104149","2022-11-30 00:00","2022","11","30","00:00"
"-76.60","44.23","KINGSTON A","6104149","2022-11-30 01:00","2022","11","30","01:00"
"-76.60","44.23","KINGSTON A","6104149","2022-11-30 02:00","2022","11","30","02:00"
"-76.60","44.23","KINGSTON A","6104149","2022-11-30 03:00","2022","11","30","03:00"
"-76.60","44.23","KINGSTON A","6104149","2022-11-30 04:00","2022","11","30","04:00"
"-76.60","44.23","KINGSTON A","6104149","2022-11-30 05:00","2022","11","30","05:00"
"-76.60","44.23","KINGSTON A","6104149","2022-11-30 06:00","2022","11","30","06:00","5.7","","1.8","","76","","","","17","","37","","24.1","","99.88","","","","","","Rain"
"-76.60","44.23","KINGSTON A","6104149","2022-11-30 07:00","2022","11","30","07:00","5.8","","2.6","","80","","","","17","","34","","24.1","","99.59","","","","","","Rain"
"-76.60","44.23","KINGSTON A","6104149","2022-11-30 08:00","2022","11","30","08:00","5.5","","3.4","","86","","","","15","","44","","8.1","","99.43","","","","","","Rain,Fog"
"-76.60","44.23","KINGSTON A","6104149","2022-11-30 09:00","2022","11","30","09:00","5.9","","4.3","","90","","","","16","","46","","4.8","","99.23","","","","","","Rain,Fog"
"-76.60","44.23","KINGSTON A","6104149","2022-11-30 10:00","2022","11","30","10:00","6.2","","4.8","","91","","","","15","","43","","4.8","","98.97","","","","","","Rain,Fog"
"-76.60","44.23","KINGSTON A","6104149","2022-11-30 11:00","2022","11","30","11:00","6.2","","5.2","","93","","","","16","","46","","8.1","","98.81","","","","","","Rain,Fog"
"-76.60","44.23","KINGSTON A","6104149","2022-11-30 12:00","2022","11","30","12:00","6.8","","5.7","","93","","","","17","","41","","6.4","","98.57","","","","","","Rain,Fog"
"-76.60","44.23","KINGSTON A","6104149","2022-11-30 13:00","2022","11","30","13:00","7.4","","6.8","","96","","","","17","","45","","4.8","","98.47","","","","","","Rain,Fog"
"-76.60","44.23","KINGSTON A","6104149","2022-11-30 14:00","2022","11","30","14:00","7.7","","6.0","","89","","","","22","","36","","19.3","","98.56","","","","","","Rain"
"-76.60","44.23","KINGSTON A","6104149","2022-11-30 15:00","2022","11","30","15:00","5.2","","3.4","","88","","","","26","","37","","12.9","","98.81","","","","","","Rain"
"-76.60","44.23","KINGSTON A","6104149","2022-11-30 16:00","2022","11","30","16:00","4.8","","2.8","","87","","","","25","","33","","16.1","","99.14","","","","","","Rain"
"-76.60","44.23","KINGSTON A","6104149","2022-11-30 17:00","2022","11","30","17:00","3.7","","0.5","","80","","","","25","","48","","16.1","","99.32","","","","","","Rain"
"-76.60","44.23","KINGSTON A","6104149","2022-11-30 18:00","2022","11","30","18:00","2.9","","-2.6","","67","","","","25","","39","","24.1","","99.47","","","","","","NA"
"-76.60","44.23","KINGSTON A","6104149","2022-11-30 19:00","2022","11","30","19:00","1.8","","-4.4","","64","","","","26","","42","","24.1","","99.64","","","","","","Cloudy"
"-76.60","44.23","KINGSTON A","6104149","2022-11-30 20:00","2022","11","30","20:00","1.7","","-5.7","","58","","","","25","","37","","24.1","","99.69","","","","","","NA"
"-76.60","44.23","KINGSTON A","6104149","2022-11-30 21:00","2022","11","30","21:00","1.3","","-6.2","","57","","","","26","","32","","24.1","","99.72","","","","","","NA"
"-76.60","44.23","KINGSTON A","6104149","2022-11-30 22:00","2022","11","30","22:00","0.7","","-6.8","","57","","","","26","","35","","24.1","","99.77","","","","","","Mainly Clear"
"-76.60","44.23","KINGSTON A","6104149","2022-11-30 23:00","2022","11","30","23:00","0.3","","-7.2","","57","","","","26","","36","","24.1","","99.77","","","","","","NA"
