"Longitude (x)","Latitude (y)","Station Name","Climate ID","Date/Time (LST)","Year","Month","Day","Time (LST)","Temp (°C)","Temp Flag","Dew Point Temp (°C)","Dew Point Temp Flag","Rel Hum (%)","Rel Hum Flag","Precip. Amount (mm)","Precip. Amount Flag","Wind Dir (10s deg)","Wind Dir Flag","Wind Spd (km/h)","Wind Spd Flag","Visibility (km)","Visibility Flag","Stn Press (kPa)","Stn Press Flag","Hmdx","Hmdx Flag","Wind Chill","Wind Chill Flag","Weather"
"-76.60","44.23","KINGSTON A","6104149","2022-08-01 00:00","2022","08","01","00:00"
"-76.60","44.23","KINGSTON A","6104149","2022-08-01 01:00","2022","08","01","01:00"
"-76.60","44.23","KINGSTON A","6104149","2022-08-01 02:00","2022","08","01","02:00"
"-76.60","44.23","KINGSTON A","6104149","2022-08-01 03:00","2022","08","01","03:00"
"-76.60","44.23","KINGSTON A","6104149","2022-08-01 04:00","2022","08","01","04:00"
"-76.60","44.23","KINGSTON A","6104149","2022-08-01 05:00","2022","08","01","05:00","19.9","","18.9","","94","","","","20","","9","","24.1","","100.34","","","","","","NA"
"-76.60","44.23","KINGSTON A","6104149","2022-08-01 06:00","2022","08","01","06:00","21.4","","20.2","","93","","","","20","","9","","24.1","","100.31","","29","","","","NA"
"-76.60","44.23","KINGSTON A","6104149","2022-08-01 07:00","2022","08","01","07:00","22.7","","20.2","","86","","","","19","","17","","24.1","","100.29","","30","","","","Mainly Clear"
"-76.60","44.23","KINGSTON A","6104149","2022-08-01 08:00","2022","08","01","08:00","23.8","","20.1","","80","","","","19","","20","","24.1","","100.28","","31","","","","NA"
"-76.60","44.23","KINGSTON A","6104149","2022-08-01 09:00","2022","08","01","09:00","23.8","","20.1","","80","","","","19","","22","","24.1","","100.25","","31","","","","NA"
"-76.60","44.23","KINGSTON A","6104149","2022-08-01 10:00","2022","08","01","10:00","24.1","","20.6","","81","","","","19","","24","","24.1","","100.21","","32","","","","Mainly Clear"
"-76.60","44.23","KINGSTON A","6104149","2022-08-01 11:00","2022","08","01","11:00","24.0","","20.4","","80","","","","19","","24","","24.1","","100.18","","32","","","","NA"
"-76.60","44.23","KINGSTON A","6104149","2022-08-01 12:00","2022","08","01","12:00","24.2","","19.9","","77","","","","18","","23","","24.1","","100.13","","32","","","","NA"
"-76.60","44.23","KINGSTON A","6104149","2022-08-01 13:00","2022","08","01","13:00","25.0","","19.4","","71","","","","18","","27","","24.1","","100.07","","32","","","","Mainly Clear"
"-76.60","44.23","KINGSTON A","6104149","2022-08-01 14:00","2022","08","01","14:00","25.8","","19.6","","68","","","","18","","20","","24.1","","99.98","","33","","","","NA"
"-76.60","44.23","KINGSTON A","6104149","2022-08-01 15:00","2022","08","01","15:00","25.6","","19.9","","70","","","","17","","21","","24.1","","99.89","","33","","","","NA"
"-76.60","44.23","KINGSTON A","6104149","2022-08-01 16:00","2022","08","01","16:00","25.6","","19.2","","67","","","","19","","17","","24.1","","99.85","","33","","","","Mostly Cloudy"
"-76.60","44.23","KINGSTON A","6104149","2022-08-01 17:00","2022","08","01","17:00","25.1","","20.4","","75","","","","17","","15","","24.1","","99.77","","33","","","","NA"
"-76.60","44.23","KINGSTON A","6104149","2022-08-01 18:00","2022","08","01","18:00","24.8","","20.9","","78","","","","17","","9","","24.1","","99.72","","33","","","","NA"
"-76.60","44.23","KINGSTON A","6104149","2022-08-01 19:00","2022","08","01","19:00","23.8","","21.0","","84","","","","18","","12","","24.1","","99.66","","32","","","","Mostly Cloudy"
"-76.60","44.23","KINGSTON A","6104149","2022-08-01 20:00","2022","08","01","20:00","23.8","","20.7","","82","","","","18","","12","","24.1","","99.63","","32","","","","NA"
"-76.60","44.23","KINGSTON A","6104149","2022-08-01 21:00","2022","08","01","21:00","24.1","","19.5","","75","","","","20","","10","","24.1","","99.65","","31","","","","NA"
"-76.60","44.23","KINGSTON A","6104149","2022-08-01 22:00","2022","08","01","22:00","24.1","","19.3","","74","","","","20","","15","","24.1","","99.60","","31","","","","Mostly Cloudy"
"-76.60","44.23","KINGSTON A","6104149","2022-08-01 23:00","2022","08","01","23:00"
"-76.60","44.23","KINGSTON A","6104149","2022-08-02 00:00","2022","08","02","00:00"
"-76.60","44.23","KINGSTON A","6104149","2022-08-02 01:00","2022","08","02","01:00"
"-76.60","44.23","KINGSTON A","6104149","2022-08-02 02:00","2022","08","02","02:00"
"-76.60","44.23","KINGSTON A","6104149","2022-08-02 03:00","2022","08","02","03:00"
"-76.60","44.23","KINGSTON A","6104149","2022-08-02 04:00","2022","08","02","04:00"
"-76.60","44.23","KINGSTON A","6104149","2022-08-02 05:00","2022","08","02","05:00","20.9","","19.7","","93","","","","28","","12","","24.1","","99.52","","28","","","","NA"
"-76.60","44.23","KINGSTON A","6104149","2022-08-02 06:00","2022","08","02","06:00","20.6","","19.6","","94","","","","26","","10","","24.1","","99.62","","28","","","","NA"
"-76.60","44.23","KINGSTON A","6104149","2022-08-02 07:00","2022","08","02","07:00","21.5","","20.0","","91","","","","26","","11","","24.1","","99.70","","29","","","","Cloudy"
"-76.60","44.23","KINGSTON A","6104149","2022-08-02 08:00","2022","08","02","08:00","22.5","","20.7","","90","","","","27","","10","","24.1","","99.79","","31","","","","NA"
"-76.60","44.23","KINGSTON A","6104149","2022-08-02 09:00","2022","08","02","09:00","23.7","","20.3","","81","","","","27","","14","","24.1","","99.82","","32","","","","NA"
"-76.60","44.23","KINGSTON A","6104149","2022-08-02 10:00","2022","08","02","10:00","25.2","","20.4","","74","","","","27","","14","","24.1","","99.83","","33","","","","Cloudy"
"-76.60","44.23","KINGSTON A","6104149","2022-08-02 11:00","2022","08","02","11:00","24.0","","20.0","","78","","","","23","","20","","24.1","","99.85","","32","","","","NA"
"-76.60","44.23","KINGSTON A","6104149","2022-08-02 12:00","2022","08","02","12:00","23.4","","19.7","","80","","","","24","","23","","24.1","","99.86","","31","","","","Rain Showers"
"-76.60","44.23","KINGSTON A","6104149","2022-08-02 13:00","2022","08","02","13:00","22.4","","20.4","","88","","","","26","","5","","19.3","","99.94","","30","","","","Rain Showers"
"-76.60","44.23","KINGSTON A","6104149","2022-08-02 14:00","2022","08","02","14:00","22.8","","20.1","","85","","","","21","","10","","24.1","","99.97","","30","","","","Rain Showers"
"-76.60","44.23","KINGSTON A","6104149","2022-08-02 15:00","2022","08","02","15:00","23.0","","20.3","","84","","","","23","","12","","24.1","","100.00","","31","","","","NA"
"-76.60","44.23","KINGSTON A","6104149","2022-08-02 16:00","2022","08","02","16:00","23.9","","21.0","","84","","","","21","","11","","24.1","","100.05","","32","","","","Mostly Cloudy"
"-76.60","44.23","KINGSTON A","6104149","2022-08-02 17:00","2022","08","02","17:00","25.6","","17.0","","59","","","","31","","13","","24.1","","100.08","","31","","","","NA"
"-76.60","44.23","KINGSTON A","6104149","2022-08-02 18:00","2022","08","02","18:00","25.1","","16.5","","58","","","","32","","8","","24.1","","100.12","","30","","","","NA"
"-76.60","44.23","KINGSTON A","6104149","2022-08-02 19:00","2022","08","02","19:00","23.1","","15.6","","62","","","","1","","13","","24.1","","100.16","","27","","","","Mainly Clear"
"-76.60","44.23","KINGSTON A","6104149","2022-08-02 20:00","2022","08","02","20:00","22.0","","15.1","","64","","","","5","","16","","24.1","","100.23","","26","","","","NA"
"-76.60","44.23","KINGSTON A","6104149","2022-08-02 21:00","2022","08","02","21:00","20.2","","13.7","","66","","","","3","","12","","24.1","","100.30","","","","","","NA"
"-76.60","44.23","KINGSTON A","6104149","2022-08-02 22:00","2022","08","02","22:00","18.1","","13.6","","75","","","","6","","5","","24.1","","100.28","","","","","","Mainly Clear"
"-76.60","44.23","KINGSTON A","6104149","2022-08-02 23:00","2022","08","02","23:00"
"-76.60","44.23","KINGSTON A","6104149","2022-08-03 00:00","2022","08","03","00:00"
"-76.60","44.23","KINGSTON A","6104149","2022-08-03 01:00","2022","08","03","01:00"
"-76.60","44.23","KINGSTON A","6104149","2022-08-03 02:00","2022","08","03","02:00"
"-76.60","44.23","KINGSTON A","6104149","2022-08-03 03:00","2022","08","03","03:00"
"-76.60","44.23","KINGSTON A","6104149","2022-08-03 04:00","2022","08","03","04:00"
"-76.60","44.23","KINGSTON A","6104149","2022-08-03 05:00","2022","08","03","05:00","13.2","","11.5","","89","","","","1","","9","","24.1","","100.44","","","","","","NA"
"-76.60","44.23","KINGSTON A","6104149","2022-08-03 06:00","2022","08","03","06:00","15.7","","13.0","","84","","","","6","","7","","24.1","","100.41","","","","","","NA"
"-76.60","44.23","KINGSTON A","6104149","2022-08-03 07:00","2022","08","03","07:00","19.1","","14.9","","76","","","","11","","13","","24.1","","100.41","","","","","","Mostly Cloudy"
"-76.60","44.23","KINGSTON A","6104149","2022-08-03 08:00","2022","08","03","08:00","20.3","","17.6","","85","","","","14","","9","","24.1","","100.44","","26","","","","NA"
"-76.60","44.23","KINGSTON A","6104149","2022-08-03 09:00","2022","08","03","09:00","21.9","","19.2","","84","","","","19","","15","","24.1","","100.49","","29","","","","NA"
"-76.60","44.23","KINGSTON A","6104149","2022-08-03 10:00","2022","08","03","10:00","23.5","","19.3","","77","","","","19","","24","","24.1","","100.47","","31","","","","Mostly Cloudy"
"-76.60","44.23","KINGSTON A","6104149","2022-08-03 11:00","2022","08","03","11:00","24.1","","18.4","","70","","","","21","","21","","24.1","","100.49","","30","","","","NA"
"-76.60","44.23","KINGSTON A","6104149","2022-08-03 12:00","2022","08","03","12:00","24.3","","19.6","","75","","","","18","","22","","24.1","","100.38","","32","","","","NA"
"-76.60","44.23","KINGSTON A","6104149","2022-08-03 13:00","2022","08","03","13:00","24.9","","19.5","","72","","","","19","","27","","24.1","","100.28","","32","","","","Mostly Cloudy"
"-76.60","44.23","KINGSTON A","6104149","2022-08-03 14:00","2022","08","03","14:00","24.4","","19.3","","73","","","","19","","21","","24.1","","100.17","","31","","","","NA"
"-76.60","44.23","KINGSTON A","6104149","2022-08-03 15:00","2022","08","03","15:00","24.4","","19.0","","72","","","","19","","17","","24.1","","100.16","","31","","","","NA"
"-76.60","44.23","KINGSTON A","6104149","2022-08-03 16:00","2022","08","03","16:00","24.1","","19.8","","77","","","","19","","11","","24.1","","100.18","","32","","","","Cloudy"
"-76.60","44.23","KINGSTON A","6104149","2022-08-03 17:00","2022","08","03","17:00","24.9","","19.7","","72","","","","22","","7","","24.1","","100.16","","32","","","","NA"
"-76.60","44.23","KINGSTON A","6104149","2022-08-03 18:00","2022","08","03","18:00","24.6","","20.0","","75","","","","17","","3","","24.1","","100.14","","32","","","","NA"
"-76.60","44.23","KINGSTON A","6104149","2022-08-03 19:00","2022","08","03","19:00","23.3","","19.4","","78","","","","15","","8","","24.1","","100.10","","30","","","","Mostly Cloudy"
"-76.60","44.23","KINGSTON A","6104149","2022-08-03 20:00","2022","08","03","20:00","21.7","","19.2","","85","","","","","","0","","24.1","","100.10","","29","","","","NA"
"-76.60","44.23","KINGSTON A","6104149","2022-08-03 21:00","2022","08","03","21:00","21.5","","19.5","","88","","","","25","","3","","24.1","","100.16","","29","","","","NA"
"-76.60","44.23","KINGSTON A","6104149","2022-08-03 22:00","2022","08","03","22:00","22.7","","20.4","","87","","","","16","","8","","24.1","","100.09","","31","","","","Mostly Cloudy"
"-76.60","44.23","KINGSTON A","6104149","2022-08-03 23:00","2022","08","03","23:00"
"-76.60","44.23","KINGSTON A","6104149","2022-08-04 00:00","2022","08","04","00:00"
"-76.60","44.23","KINGSTON A","6104149","2022-08-04 01:00","2022","08","04","01:00"
"-76.60","44.23","KINGSTON A","6104149","2022-08-04 02:00","2022","08","04","02:00"
"-76.60","44.23","KINGSTON A","6104149","2022-08-04 03:00","2022","08","04","03:00"
"-76.60","44.23","KINGSTON A","6104149","2022-08-04 04:00","2022","08","04","04:00"
"-76.60","44.23","KINGSTON A","6104149","2022-08-04 05:00","2022","08","04","05:00","23.1","","20.4","","85","","","","22","","10","","24.1","","100.26","","31","","","","NA"
"-76.60","44.23","KINGSTON A","6104149","2022-08-04 06:00","2022","08","04","06:00","23.2","","20.1","","82","","","","22","","9","","24.1","","100.30","","31","","","","NA"
"-76.60","44.23","KINGSTON A","6104149","2022-08-04 07:00","2022","08","04","07:00","23.2","","20.7","","86","","","","20","","15","","24.1","","100.36","","31","","","","Cloudy"
"-76.60","44.23","KINGSTON A","6104149","2022-08-04 08:00","2022","08","04","08:00","23.4","","21.0","","86","","","","21","","18","","24.1","","100.38","","32","","","","NA"
"-76.60","44.23","KINGSTON A","6104149","2022-08-04 09:00","2022","08","04","09:00","23.8","","21.2","","85","","","","22","","18","","24.1","","100.38","","32","","","","NA"
"-76.60","44.23","KINGSTON A","6104149","2022-08-04 10:00","2022","08","04","10:00","24.0","","21.7","","87","","","","22","","15","","24.1","","100.42","","33","","","","Cloudy"
"-76.60","44.23","KINGSTON A","6104149","2022-08-04 11:00","2022","08","04","11:00","25.6","","21.9","","80","","","","21","","20","","24.1","","100.44","","35","","","","NA"
"-76.60","44.23","KINGSTON A","6104149","2022-08-04 12:00","2022","08","04","12:00","24.9","","22.1","","84","","","","18","","19","","24.1","","100.46","","34","","","","NA"
"-76.60","44.23","KINGSTON A","6104149","2022-08-04 13:00","2022","08","04","13:00","25.4","","22.2","","82","","","","19","","20","","24.1","","100.46","","35","","","","Cloudy"
"-76.60","44.23","KINGSTON A","6104149","2022-08-04 14:00","2022","08","04","14:00","27.8","","22.5","","73","","","","23","","13","","24.1","","100.42","","38","","","","NA"
"-76.60","44.23","KINGSTON A","6104149","2022-08-04 15:00","2022","08","04","15:00","26.3","","22.5","","79","","","","19","","23","","24.1","","100.45","","36","","","","NA"
"-76.60","44.23","KINGSTON A","6104149","2022-08-04 16:00","2022","08","04","16:00","25.7","","23.1","","85","","","","18","","23","","24.1","","100.47","","36","","","","Cloudy"
"-76.60","44.23","KINGSTON A","6104149","2022-08-04 17:00","2022","08","04","17:00","24.9","","23.0","","89","","","","18","","18","","24.1","","100.46","","35","","","","NA"
"-76.60","44.23","KINGSTON A","6104149","2022-08-04 18:00","2022","08","04","18:00","24.2","","22.5","","90","","","","19","","20","","24.1","","100.45","","34","","","","NA"
"-76.60","44.23","KINGSTON A","6104149","2022-08-04 19:00","2022","08","04","19:00","24.0","","22.3","","90","","","","20","","18","","24.1","","100.51","","34","","","","Rain Showers"
"-76.60","44.23","KINGSTON A","6104149","2022-08-04 20:00","2022","08","04","20:00","24.1","","22.2","","89","","","","22","","13","","24.1","","100.54","","34","","","","NA"
"-76.60","44.23","KINGSTON A","6104149","2022-08-04 21:00","2022","08","04","21:00","23.7","","22.3","","92","","","","20","","10","","24.1","","100.55","","33","","","","NA"
"-76.60","44.23","KINGSTON A","6104149","2022-08-04 22:00","2022","08","04","22:00","23.5","","22.3","","93","","","","23","","6","","24.1","","100.56","","33","","","","Cloudy"
"-76.60","44.23","KINGSTON A","6104149","2022-08-04 23:00","2022","08","04","23:00"
"-76.60","44.23","KINGSTON A","6104149","2022-08-05 00:00","2022","08","05","00:00"
"-76.60","44.23","KINGSTON A","6104149","2022-08-05 01:00","2022","08","05","01:00"
"-76.60","44.23","KINGSTON A","6104149","2022-08-05 02:00","2022","08","05","02:00"
"-76.60","44.23","KINGSTON A","6104149","2022-08-05 03:00","2022","08","05","03:00"
"-76.60","44.23","KINGSTON A","6104149","2022-08-05 04:00","2022","08","05","04:00"
"-76.60","44.23","KINGSTON A","6104149","2022-08-05 05:00","2022","08","05","05:00","21.4","","19.1","","86","","","","3","","9","","24.1","","100.79","","28","","","","NA"
"-76.60","44.23","KINGSTON A","6104149","2022-08-05 06:00","2022","08","05","06:00","21.3","","18.9","","86","","","","2","","11","","24.1","","100.85","","28","","","","NA"
"-76.60","44.23","KINGSTON A","6104149","2022-08-05 07:00","2022","08","05","07:00","22.3","","18.1","","77","","","","2","","14","","24.1","","100.88","","28","","","","Mostly Cloudy"
"-76.60","44.23","KINGSTON A","6104149","2022-08-05 08:00","2022","08","05","08:00","24.1","","18.7","","71","","","","4","","11","","24.1","","100.94","","31","","","","NA"
"-76.60","44.23","KINGSTON A","6104149","2022-08-05 09:00","2022","08","05","09:00","25.4","","19.6","","70","","","","6","","10","","24.1","","100.98","","33","","","","NA"
"-76.60","44.23","KINGSTON A","6104149","2022-08-05 10:00","2022","08","05","10:00","24.9","","19.6","","72","","","","16","","11","","24.1","","101.02","","32","","","","Mainly Clear"
"-76.60","44.23","KINGSTON A","6104149","2022-08-05 11:00","2022","08","05","11:00","26.1","","20.1","","69","","","","16","","14","","24.1","","101.01","","34","","","","NA"
"-76.60","44.23","KINGSTON A","6104149","2022-08-05 12:00","2022","08","05","12:00","27.8","","20.3","","63","","","","16","","17","","24.1","","101.01","","36","","","","NA"
"-76.60","44.23","KINGSTON A","6104149","2022-08-05 13:00","2022","08","05","13:00","26.7","","21.4","","72","","","","17","","17","","24.1","","101.00","","35","","","","Mostly Cloudy"
"-76.60","44.23","KINGSTON A","6104149","2022-08-05 14:00","2022","08","05","14:00","26.7","","21.1","","71","","","","19","","15","","24.1","","100.97","","35","","","","NA"
"-76.60","44.23","KINGSTON A","6104149","2022-08-05 15:00","2022","08","05","15:00","27.3","","21.0","","68","","","","17","","12","","24.1","","100.97","","36","","","","NA"
"-76.60","44.23","KINGSTON A","6104149","2022-08-05 16:00","2022","08","05","16:00","27.1","","20.9","","68","","","","17","","12","","24.1","","100.97","","35","","","","Mostly Cloudy"
"-76.60","44.23","KINGSTON A","6104149","2022-08-05 17:00","2022","08","05","17:00","27.5","","19.5","","61","","","","17","","9","","24.1","","100.93","","35","","","","NA"
"-76.60","44.23","KINGSTON A","6104149","2022-08-05 18:00","2022","08","05","18:00","27.0","","19.7","","64","","","","19","","9","","24.1","","100.93","","34","","","","NA"
"-76.60","44.23","KINGSTON A","6104149","2022-08-05 19:00","2022","08","05","19:00","25.8","","19.7","","69","","","","21","","4","","24.1","","100.96","","33","","","","Mainly Clear"
"-76.60","44.23","KINGSTON A","6104149","2022-08-05 20:00","2022","08","05","20:00","23.2","","18.5","","75","","","","3","","4","","24.1","","100.97","","30","","","","NA"
"-76.60","44.23","KINGSTON A","6104149","2022-08-05 21:00","2022","08","05","21:00","22.9","","18.5","","76","","","","36","","1","","24.1","","100.96","","29","","","","NA"
"-76.60","44.23","KINGSTON A","6104149","2022-08-05 22:00","2022","08","05","22:00","21.2","","19.6","","90","","","","34","","8","","24.1","","101.01","","28","","","","Mainly Clear"
"-76.60","44.23","KINGSTON A","6104149","2022-08-05 23:00","2022","08","05","23:00"
"-76.60","44.23","KINGSTON A","6104149","2022-08-06 00:00","2022","08","06","00:00"
"-76.60","44.23","KINGSTON A","6104149","2022-08-06 01:00","2022","08","06","01:00"
"-76.60","44.23","KINGSTON A","6104149","2022-08-06 02:00","2022","08","06","02:00"
"-76.60","44.23","KINGSTON A","6104149","2022-08-06 03:00","2022","08","06","03:00"
"-76.60","44.23","KINGSTON A","6104149","2022-08-06 04:00","2022","08","06","04:00"
"-76.60","44.23","KINGSTON A","6104149","2022-08-06 05:00","2022","08","06","05:00","18.7","","17.9","","95","","","","36","","7","","24.1","","100.99","","","","","","NA"
"-76.60","44.23","KINGSTON A","6104149","2022-08-06 06:00","2022","08","06","06:00","20.8","","19.8","","94","","","","36","","2","","24.1","","101.01","","28","","","","NA"
"-76.60","44.23","KINGSTON A","6104149","2022-08-06 07:00","2022","08","06","07:00","23.6","","22.0","","91","","","","14","","10","","19.3","","101.04","","33","","","","Mostly Cloudy"
"-76.60","44.23","KINGSTON A","6104149","2022-08-06 08:00","2022","08","06","08:00","25.0","","23.2","","89","","","","21","","12","","24.1","","101.08","","35","","","","NA"
"-76.60","44.23","KINGSTON A","6104149","2022-08-06 09:00","2022","08","06","09:00","25.4","","22.4","","83","","","","18","","18","","24.1","","101.07","","35","","","","NA"
"-76.60","44.23","KINGSTON A","6104149","2022-08-06 10:00","2022","08","06","10:00","25.7","","22.7","","83","","","","17","","16","","24.1","","101.05","","36","","","","Mainly Clear"
"-76.60","44.23","KINGSTON A","6104149","2022-08-06 11:00","2022","08","06","11:00","25.8","","22.9","","84","","","","15","","15","","19.3","","101.02","","36","","","","NA"
"-76.60","44.23","KINGSTON A","6104149","2022-08-06 12:00","2022","08","06","12:00","25.9","","23.1","","84","","","","16","","21","","19.3","","100.95","","36","","","","NA"
"-76.60","44.23","KINGSTON A","6104149","2022-08-06 13:00","2022","08","06","13:00","26.9","","22.9","","79","","","","17","","19","","19.3","","100.88","","37","","","","Mainly Clear"
"-76.60","44.23","KINGSTON A","6104149","2022-08-06 14:00","2022","08","06","14:00","26.5","","23.1","","81","","","","19","","20","","24.1","","100.86","","37","","","","NA"
"-76.60","44.23","KINGSTON A","6104149","2022-08-06 15:00","2022","08","06","15:00","26.6","","23.0","","80","","","","18","","21","","24.1","","100.87","","37","","","","NA"
"-76.60","44.23","KINGSTON A","6104149","2022-08-06 16:00","2022","08","06","16:00","26.6","","23.2","","82","","","","18","","18","","24.1","","100.79","","37","","","","Mainly Clear"
"-76.60","44.23","KINGSTON A","6104149","2022-08-06 17:00","2022","08","06","17:00","27.1","","23.2","","79","","","","18","","19","","24.1","","100.76","","38","","","","NA"
"-76.60","44.23","KINGSTON A","6104149","2022-08-06 18:00","2022","08","06","18:00","26.8","","22.4","","77","","","","20","","15","","24.1","","100.72","","36","","","","NA"
"-76.60","44.23","KINGSTON A","6104149","2022-08-06 19:00","2022","08","06","19:00","27.1","","22.0","","73","","","","21","","12","","24.1","","100.73","","36","","","","Mostly Cloudy"
"-76.60","44.23","KINGSTON A","6104149","2022-08-06 20:00","2022","08","06","20:00","26.5","","21.6","","74","","","","21","","13","","24.1","","100.75","","35","","","","NA"
"-76.60","44.23","KINGSTON A","6104149","2022-08-06 21:00","2022","08","06","21:00","25.9","","22.0","","79","","","","24","","13","","24.1","","100.79","","35","","","","NA"
"-76.60","44.23","KINGSTON A","6104149","2022-08-06 22:00","2022","08","06","22:00","25.2","","21.9","","81","","","","23","","9","","24.1","","100.78","","34","","","","Mainly Clear"
"-76.60","44.23","KINGSTON A","6104149","2022-08-06 23:00","2022","08","06","23:00"
"-76.60","44.23","KINGSTON A","6104149","2022-08-07 00:00","2022","08","07","00:00"
"-76.60","44.23","KINGSTON A","6104149","2022-08-07 01:00","2022","08","07","01:00"
"-76.60","44.23","KINGSTON A","6104149","2022-08-07 02:00","2022","08","07","02:00"
"-76.60","44.23","KINGSTON A","6104149","2022-08-07 03:00","2022","08","07","03:00"
"-76.60","44.23","KINGSTON A","6104149","2022-08-07 04:00","2022","08","07","04:00"
"-76.60","44.23","KINGSTON A","6104149","2022-08-07 05:00","2022","08","07","05:00","23.8","","22.8","","94","","","","23","","8","","24.1","","100.73","","34","","","","NA"
"-76.60","44.23","KINGSTON A","6104149","2022-08-07 06:00","2022","08","07","06:00","24.4","","22.7","","90","","","","23","","11","","24.1","","100.78","","34","","","","NA"
"-76.60","44.23","KINGSTON A","6104149","2022-08-07 07:00","2022","08","07","07:00","25.5","","22.8","","85","","","","21","","17","","24.1","","100.75","","36","","","","Mostly Cloudy"
"-76.60","44.23","KINGSTON A","6104149","2022-08-07 08:00","2022","08","07","08:00","26.6","","22.9","","80","","","","22","","16","","24.1","","100.72","","37","","","","NA"
"-76.60","44.23","KINGSTON A","6104149","2022-08-07 09:00","2022","08","07","09:00","26.1","","23.4","","85","","","","18","","25","","24.1","","100.68","","37","","","","NA"
"-76.60","44.23","KINGSTON A","6104149","2022-08-07 10:00","2022","08","07","10:00","26.2","","23.3","","84","","","","18","","26","","24.1","","100.72","","37","","","","Mostly Cloudy"
"-76.60","44.23","KINGSTON A","6104149","2022-08-07 11:00","2022","08","07","11:00","27.8","","23.9","","79","","","","19","","26","","24.1","","100.65","","39","","","","NA"
"-76.60","44.23","KINGSTON A","6104149","2022-08-07 12:00","2022","08","07","12:00","26.6","","23.7","","84","","","","19","","28","","24.1","","100.64","","38","","","","NA"
"-76.60","44.23","KINGSTON A","6104149","2022-08-07 13:00","2022","08","07","13:00","28.1","","24.5","","80","","","","19","","28","","24.1","","100.59","","40","","","","Mainly Clear"
"-76.60","44.23","KINGSTON A","6104149","2022-08-07 14:00","2022","08","07","14:00","29.7","","24.3","","72","","","","19","","26","","24.1","","100.54","","41","","","","NA"
"-76.60","44.23","KINGSTON A","6104149","2022-08-07 15:00","2022","08","07","15:00","28.5","","24.3","","78","","","","18","","24","","24.1","","100.43","","40","","","","NA"
"-76.60","44.23","KINGSTON A","6104149","2022-08-07 16:00","2022","08","07","16:00","29.6","","24.1","","72","","","","20","","16","","24.1","","100.38","","41","","","","Mainly Clear"
"-76.60","44.23","KINGSTON A","6104149","2022-08-07 17:00","2022","08","07","17:00","29.1","","24.0","","74","","","","21","","15","","24.1","","100.37","","40","","","","NA"
"-76.60","44.23","KINGSTON A","6104149","2022-08-07 18:00","2022","08","07","18:00","28.5","","22.6","","70","","","","23","","20","","24.1","","100.40","","38","","","","NA"
"-76.60","44.23","KINGSTON A","6104149","2022-08-07 19:00","2022","08","07","19:00","25.7","","24.1","","91","","","","19","","17","","24.1","","100.41","","37","","","","Mostly Cloudy"
"-76.60","44.23","KINGSTON A","6104149","2022-08-07 20:00","2022","08","07","20:00","25.5","","23.8","","90","","","","18","","8","","24.1","","100.42","","37","","","","NA"
"-76.60","44.23","KINGSTON A","6104149","2022-08-07 21:00","2022","08","07","21:00","25.6","","24.0","","91","","","","20","","6","","24.1","","100.43","","37","","","","NA"
"-76.60","44.23","KINGSTON A","6104149","2022-08-07 22:00","2022","08","07","22:00","25.2","","23.6","","90","","","","36","","2","","24.1","","100.41","","36","","","","Mostly Cloudy"
"-76.60","44.23","KINGSTON A","6104149","2022-08-07 23:00","2022","08","07","23:00"
"-76.60","44.23","KINGSTON A","6104149","2022-08-08 00:00","2022","08","08","00:00"
"-76.60","44.23","KINGSTON A","6104149","2022-08-08 01:00","2022","08","08","01:00"
"-76.60","44.23","KINGSTON A","6104149","2022-08-08 02:00","2022","08","08","02:00"
"-76.60","44.23","KINGSTON A","6104149","2022-08-08 03:00","2022","08","08","03:00"
"-76.60","44.23","KINGSTON A","6104149","2022-08-08 04:00","2022","08","08","04:00"
"-76.60","44.23","KINGSTON A","6104149","2022-08-08 05:00","2022","08","08","05:00","24.8","","23.2","","91","","","","21","","13","","24.1","","100.21","","35","","","","NA"
"-76.60","44.23","KINGSTON A","6104149","2022-08-08 06:00","2022","08","08","06:00","25.1","","23.0","","88","","","","22","","17","","24.1","","100.22","","35","","","","NA"
"-76.60","44.23","KINGSTON A","6104149","2022-08-08 07:00","2022","08","08","07:00","25.3","","23.0","","87","","","","22","","17","","24.1","","100.24","","36","","","","Cloudy"
"-76.60","44.23","KINGSTON A","6104149","2022-08-08 08:00","2022","08","08","08:00","25.9","","23.1","","85","","","","22","","17","","24.1","","100.21","","36","","","","NA"
"-76.60","44.23","KINGSTON A","6104149","2022-08-08 09:00","2022","08","08","09:00","26.6","","23.4","","82","","","","24","","17","","24.1","","100.18","","37","","","","NA"
"-76.60","44.23","KINGSTON A","6104149","2022-08-08 10:00","2022","08","08","10:00","27.8","","23.7","","78","","","","21","","16","","24.1","","100.15","","39","","","","Mostly Cloudy"
"-76.60","44.23","KINGSTON A","6104149","2022-08-08 11:00","2022","08","08","11:00","28.3","","23.5","","75","","","","20","","26","","24.1","","100.11","","39","","","","NA"
"-76.60","44.23","KINGSTON A","6104149","2022-08-08 12:00","2022","08","08","12:00","28.8","","23.7","","73","","","","21","","25","","24.1","","100.06","","40","","","","NA"
"-76.60","44.23","KINGSTON A","6104149","2022-08-08 13:00","2022","08","08","13:00","29.0","","23.3","","71","","","","21","","29","","24.1","","99.98","","40","","","","Mostly Cloudy"
"-76.60","44.23","KINGSTON A","6104149","2022-08-08 14:00","2022","08","08","14:00","27.2","","22.9","","77","","","","23","","23","","24.1","","99.92","","37","","","","NA"
"-76.60","44.23","KINGSTON A","6104149","2022-08-08 15:00","2022","08","08","15:00","28.2","","22.5","","71","","","","23","","22","","24.1","","99.84","","38","","","","NA"
"-76.60","44.23","KINGSTON A","6104149","2022-08-08 16:00","2022","08","08","16:00","24.1","","23.2","","95","","","","23","","23","","8.1","","99.81","","35","","","","Rain Showers,Fog"
"-76.60","44.23","KINGSTON A","6104149","2022-08-08 17:00","2022","08","08","17:00","25.2","","23.5","","90","","","","22","","22","","24.1","","99.78","","36","","","","NA"
"-76.60","44.23","KINGSTON A","6104149","2022-08-08 18:00","2022","08","08","18:00","25.7","","23.4","","87","","","","22","","20","","24.1","","99.76","","36","","","","NA"
"-76.60","44.23","KINGSTON A","6104149","2022-08-08 19:00","2022","08","08","19:00","26.0","","23.3","","85","","","","23","","22","","24.1","","99.72","","37","","","","Mostly Cloudy"
"-76.60","44.23","KINGSTON A","6104149","2022-08-08 20:00","2022","08","08","20:00","25.9","","23.2","","85","","","","22","","15","","24.1","","99.65","","36","","","","NA"
"-76.60","44.23","KINGSTON A","6104149","2022-08-08 21:00","2022","08","08","21:00","24.9","","23.4","","91","","","","20","","14","","24.1","","99.68","","36","","","","NA"
"-76.60","44.23","KINGSTON A","6104149","2022-08-08 22:00","2022","08","08","22:00","25.9","","23.2","","85","","","","22","","23","","24.1","","99.64","","36","","","","Mostly Cloudy"
"-76.60","44.23","KINGSTON A","6104149","2022-08-08 23:00","2022","08","08","23:00"
"-76.60","44.23","KINGSTON A","6104149","2022-08-09 00:00","2022","08","09","00:00"
"-76.60","44.23","KINGSTON A","6104149","2022-08-09 01:00","2022","08","09","01:00"
"-76.60","44.23","KINGSTON A","6104149","2022-08-09 02:00","2022","08","09","02:00"
"-76.60","44.23","KINGSTON A","6104149","2022-08-09 03:00","2022","08","09","03:00"
"-76.60","44.23","KINGSTON A","6104149","2022-08-09 04:00","2022","08","09","04:00"
"-76.60","44.23","KINGSTON A","6104149","2022-08-09 05:00","2022","08","09","05:00","17.7","","16.3","","92","","","","36","","17","","24.1","","100.03","","","","","","NA"
"-76.60","44.23","KINGSTON A","6104149","2022-08-09 06:00","2022","08","09","06:00","18.1","","16.4","","90","","","","35","","13","","24.1","","100.14","","","","","","NA"
"-76.60","44.23","KINGSTON A","6104149","2022-08-09 07:00","2022","08","09","07:00","18.6","","15.4","","81","","","","35","","20","","24.1","","100.21","","","","","","Cloudy"
"-76.60","44.23","KINGSTON A","6104149","2022-08-09 08:00","2022","08","09","08:00","18.4","","15.3","","82","","","","33","","16","","24.1","","100.32","","","","","","NA"
"-76.60","44.23","KINGSTON A","6104149","2022-08-09 09:00","2022","08","09","09:00","19.5","","15.5","","77","","","","33","","13","","24.1","","100.40","","","","","","NA"
"-76.60","44.23","KINGSTON A","6104149","2022-08-09 10:00","2022","08","09","10:00","18.4","","15.2","","82","","","","34","","15","","24.1","","100.46","","","","","","Cloudy"
"-76.60","44.23","KINGSTON A","6104149","2022-08-09 11:00","2022","08","09","11:00","19.8","","15.0","","73","","","","32","","17","","24.1","","100.50","","","","","","NA"
"-76.60","44.23","KINGSTON A","6104149","2022-08-09 12:00","2022","08","09","12:00","20.4","","15.1","","71","","","","35","","20","","24.1","","100.52","","","","","","NA"
"-76.60","44.23","KINGSTON A","6104149","2022-08-09 13:00","2022","08","09","13:00","21.5","","15.2","","67","","","","33","","10","","24.1","","100.52","","26","","","","Mostly Cloudy"
"-76.60","44.23","KINGSTON A","6104149","2022-08-09 14:00","2022","08","09","14:00","21.0","","14.9","","68","","","","34","","19","","24.1","","100.53","","25","","","","NA"
"-76.60","44.23","KINGSTON A","6104149","2022-08-09 15:00","2022","08","09","15:00","21.1","","14.8","","67","","","","35","","17","","24.1","","100.55","","25","","","","NA"
"-76.60","44.23","KINGSTON A","6104149","2022-08-09 16:00","2022","08","09","16:00","20.4","","14.9","","70","","","","36","","16","","24.1","","100.55","","","","","","Mostly Cloudy"
"-76.60","44.23","KINGSTON A","6104149","2022-08-09 17:00","2022","08","09","17:00","19.8","","14.6","","72","","","","34","","17","","24.1","","100.60","","","","","","NA"
"-76.60","44.23","KINGSTON A","6104149","2022-08-09 18:00","2022","08","09","18:00","19.4","","14.2","","72","","","","34","","16","","24.1","","100.62","","","","","","NA"
"-76.60","44.23","KINGSTON A","6104149","2022-08-09 19:00","2022","08","09","19:00","18.7","","14.4","","76","","","","35","","14","","22.5","","100.66","","","","","","Mostly Cloudy"
"-76.60","44.23","KINGSTON A","6104149","2022-08-09 20:00","2022","08","09","20:00","17.9","","14.7","","82","","","","36","","10","","24.1","","100.69","","","","","","NA"
"-76.60","44.23","KINGSTON A","6104149","2022-08-09 21:00","2022","08","09","21:00","17.4","","14.6","","83","","","","1","","7","","24.1","","100.72","","","","","","NA"
"-76.60","44.23","KINGSTON A","6104149","2022-08-09 22:00","2022","08","09","22:00","17.1","","15.0","","87","","","","33","","4","","24.1","","100.73","","","","","","Mostly Cloudy"
"-76.60","44.23","KINGSTON A","6104149","2022-08-09 23:00","2022","08","09","23:00"
"-76.60","44.23","KINGSTON A","6104149","2022-08-10 00:00","2022","08","10","00:00"
"-76.60","44.23","KINGSTON A","6104149","2022-08-10 01:00","2022","08","10","01:00"
"-76.60","44.23","KINGSTON A","6104149","2022-08-10 02:00","2022","08","10","02:00"
"-76.60","44.23","KINGSTON A","6104149","2022-08-10 03:00","2022","08","10","03:00"
"-76.60","44.23","KINGSTON A","6104149","2022-08-10 04:00","2022","08","10","04:00"
"-76.60","44.23","KINGSTON A","6104149","2022-08-10 05:00","2022","08","10","05:00","16.7","","15.0","","89","","","","31","","5","","24.1","","100.82","","","","","","NA"
"-76.60","44.23","KINGSTON A","6104149","2022-08-10 06:00","2022","08","10","06:00","17.0","","15.3","","90","","","","33","","7","","24.1","","100.85","","","","","","NA"
"-76.60","44.23","KINGSTON A","6104149","2022-08-10 07:00","2022","08","10","07:00","18.2","","15.0","","81","","","","33","","7","","24.1","","100.89","","","","","","Mostly Cloudy"
"-76.60","44.23","KINGSTON A","6104149","2022-08-10 08:00","2022","08","10","08:00","20.1","","13.4","","65","","","","35","","9","","24.1","","100.91","","","","","","NA"
"-76.60","44.23","KINGSTON A","6104149","2022-08-10 09:00","2022","08","10","09:00","20.5","","13.7","","65","","","","31","","7","","24.1","","100.89","","","","","","NA"
"-76.60","44.23","KINGSTON A","6104149","2022-08-10 10:00","2022","08","10","10:00","20.4","","13.6","","65","","","","17","","9","","24.1","","100.89","","","","","","Mostly Cloudy"
"-76.60","44.23","KINGSTON A","6104149","2022-08-10 11:00","2022","08","10","11:00","22.0","","13.9","","60","","","","18","","14","","24.1","","100.88","","25","","","","NA"
"-76.60","44.23","KINGSTON A","6104149","2022-08-10 12:00","2022","08","10","12:00","22.6","","14.6","","60","","","","18","","18","","24.1","","100.85","","26","","","","NA"
"-76.60","44.23","KINGSTON A","6104149","2022-08-10 13:00","2022","08","10","13:00","23.5","","14.6","","57","","","","19","","18","","24.1","","100.79","","27","","","","Mainly Clear"
"-76.60","44.23","KINGSTON A","6104149","2022-08-10 14:00","2022","08","10","14:00","23.4","","14.5","","57","","","","19","","21","","24.1","","100.75","","27","","","","NA"
"-76.60","44.23","KINGSTON A","6104149","2022-08-10 15:00","2022","08","10","15:00","23.2","","14.8","","59","","","","19","","21","","24.1","","100.67","","27","","","","NA"
"-76.60","44.23","KINGSTON A","6104149","2022-08-10 16:00","2022","08","10","16:00","23.1","","15.4","","62","","","","19","","18","","24.1","","100.61","","27","","","","Mainly Clear"
"-76.60","44.23","KINGSTON A","6104149","2022-08-10 17:00","2022","08","10","17:00","22.9","","15.8","","64","","","","19","","22","","24.1","","100.55","","27","","","","NA"
"-76.60","44.23","KINGSTON A","6104149","2022-08-10 18:00","2022","08","10","18:00","23.0","","15.3","","61","","","","19","","18","","24.1","","100.48","","27","","","","NA"
"-76.60","44.23","KINGSTON A","6104149","2022-08-10 19:00","2022","08","10","19:00","21.8","","14.5","","63","","","","22","","17","","24.1","","100.47","","25","","","","Mainly Clear"
"-76.60","44.23","KINGSTON A","6104149","2022-08-10 20:00","2022","08","10","20:00","20.9","","14.3","","66","","","","21","","14","","24.1","","100.46","","","","","","NA"
"-76.60","44.23","KINGSTON A","6104149","2022-08-10 21:00","2022","08","10","21:00","20.2","","14.9","","71","","","","22","","11","","24.1","","100.50","","","","","","NA"
"-76.60","44.23","KINGSTON A","6104149","2022-08-10 22:00","2022","08","10","22:00","20.8","","15.7","","72","","","","22","","15","","24.1","","100.48","","25","","","","Mainly Clear"
"-76.60","44.23","KINGSTON A","6104149","2022-08-10 23:00","2022","08","10","23:00"
"-76.60","44.23","KINGSTON A","6104149","2022-08-11 00:00","2022","08","11","00:00"
"-76.60","44.23","KINGSTON A","6104149","2022-08-11 01:00","2022","08","11","01:00"
"-76.60","44.23","KINGSTON A","6104149","2022-08-11 02:00","2022","08","11","02:00"
"-76.60","44.23","KINGSTON A","6104149","2022-08-11 03:00","2022","08","11","03:00"
"-76.60","44.23","KINGSTON A","6104149","2022-08-11 04:00","2022","08","11","04:00"
"-76.60","44.23","KINGSTON A","6104149","2022-08-11 05:00","2022","08","11","05:00","15.9","","15.3","","96","","","","33","","7","","24.1","","100.20","","","","","","NA"
"-76.60","44.23","KINGSTON A","6104149","2022-08-11 06:00","2022","08","11","06:00","17.0","","16.2","","95","","","","31","","4","","24.1","","100.22","","","","","","NA"
"-76.60","44.23","KINGSTON A","6104149","2022-08-11 07:00","2022","08","11","07:00","19.5","","17.9","","91","","","","28","","8","","24.1","","100.21","","","","","","Mostly Cloudy"
"-76.60","44.23","KINGSTON A","6104149","2022-08-11 08:00","2022","08","11","08:00","20.3","","16.9","","80","","","","34","","6","","24.1","","100.23","","26","","","","NA"
"-76.60","44.23","KINGSTON A","6104149","2022-08-11 09:00","2022","08","11","09:00","21.0","","16.9","","77","","","","36","","12","","24.1","","100.23","","26","","","","NA"
"-76.60","44.23","KINGSTON A","6104149","2022-08-11 10:00","2022","08","11","10:00","23.6","","17.3","","67","","","","36","","9","","24.1","","100.24","","29","","","","Mainly Clear"
"-76.60","44.23","KINGSTON A","6104149","2022-08-11 11:00","2022","08","11","11:00","24.9","","16.6","","60","","","","2","","10","","24.1","","100.25","","30","","","","NA"
"-76.60","44.23","KINGSTON A","6104149","2022-08-11 12:00","2022","08","11","12:00","24.6","","16.0","","58","","","","33","","25","","24.1","","100.22","","29","","","","NA"
"-76.60","44.23","KINGSTON A","6104149","2022-08-11 13:00","2022","08","11","13:00","25.2","","13.4","","47","","","","35","","22","","24.1","","100.22","","28","","","","Mostly Cloudy"
"-76.60","44.23","KINGSTON A","6104149","2022-08-11 14:00","2022","08","11","14:00","26.3","","11.8","","40","","","","33","","25","","24.1","","100.24","","28","","","","NA"
"-76.60","44.23","KINGSTON A","6104149","2022-08-11 15:00","2022","08","11","15:00","27.0","","11.7","","38","","","","34","","23","","24.1","","100.24","","29","","","","NA"
"-76.60","44.23","KINGSTON A","6104149","2022-08-11 16:00","2022","08","11","16:00","26.1","","11.6","","40","","","","32","","17","","24.1","","100.24","","28","","","","Mainly Clear"
"-76.60","44.23","KINGSTON A","6104149","2022-08-11 17:00","2022","08","11","17:00","25.7","","10.1","","37","","","","31","","21","","24.1","","100.28","","27","","","","NA"
"-76.60","44.23","KINGSTON A","6104149","2022-08-11 18:00","2022","08","11","18:00","24.2","","9.5","","39","","","","36","","19","","24.1","","100.33","","25","","","","NA"
"-76.60","44.23","KINGSTON A","6104149","2022-08-11 19:00","2022","08","11","19:00","21.5","","8.0","","41","","","","36","","16","","24.1","","100.42","","","","","","Mainly Clear"
"-76.60","44.23","KINGSTON A","6104149","2022-08-11 20:00","2022","08","11","20:00","19.3","","8.4","","49","","","","36","","16","","24.1","","100.50","","","","","","NA"
"-76.60","44.23","KINGSTON A","6104149","2022-08-11 21:00","2022","08","11","21:00","17.3","","8.9","","57","","","","34","","13","","24.1","","100.58","","","","","","NA"
"-76.60","44.23","KINGSTON A","6104149","2022-08-11 22:00","2022","08","11","22:00","15.6","","9.1","","65","","","","34","","12","","24.1","","100.64","","","","","","Clear"
"-76.60","44.23","KINGSTON A","6104149","2022-08-11 23:00","2022","08","11","23:00"
"-76.60","44.23","KINGSTON A","6104149","2022-08-12 00:00","2022","08","12","00:00"
"-76.60","44.23","KINGSTON A","6104149","2022-08-12 01:00","2022","08","12","01:00"
"-76.60","44.23","KINGSTON A","6104149","2022-08-12 02:00","2022","08","12","02:00"
"-76.60","44.23","KINGSTON A","6104149","2022-08-12 03:00","2022","08","12","03:00"
"-76.60","44.23","KINGSTON A","6104149","2022-08-12 04:00","2022","08","12","04:00"
"-76.60","44.23","KINGSTON A","6104149","2022-08-12 05:00","2022","08","12","05:00","11.5","","9.1","","85","","","","33","","10","","24.1","","100.87","","","","","","NA"
"-76.60","44.23","KINGSTON A","6104149","2022-08-12 06:00","2022","08","12","06:00","12.4","","10.0","","85","","","","34","","10","","24.1","","100.93","","","","","","NA"
"-76.60","44.23","KINGSTON A","6104149","2022-08-12 07:00","2022","08","12","07:00","15.7","","10.6","","71","","","","34","","10","","24.1","","100.94","","","","","","Clear"
"-76.60","44.23","KINGSTON A","6104149","2022-08-12 08:00","2022","08","12","08:00","18.7","","10.5","","59","","","","32","","9","","24.1","","100.99","","","","","","NA"
"-76.60","44.23","KINGSTON A","6104149","2022-08-12 09:00","2022","08","12","09:00","20.1","","10.0","","52","","","","34","","16","","24.1","","100.99","","","","","","NA"
"-76.60","44.23","KINGSTON A","6104149","2022-08-12 10:00","2022","08","12","10:00","21.5","","8.6","","43","","","","28","","14","","24.1","","100.97","","","","","","Mainly Clear"
"-76.60","44.23","KINGSTON A","6104149","2022-08-12 11:00","2022","08","12","11:00","22.9","","6.8","","35","","","","28","","13","","24.1","","100.94","","","","","","NA"
"-76.60","44.23","KINGSTON A","6104149","2022-08-12 12:00","2022","08","12","12:00","23.6","","6.1","","32","","","","33","","15","","24.1","","100.91","","","","","","NA"
"-76.60","44.23","KINGSTON A","6104149","2022-08-12 13:00","2022","08","12","13:00","24.6","","5.0","","28","","","","32","","23","","24.1","","100.85","","","","","","Clear"
"-76.60","44.23","KINGSTON A","6104149","2022-08-12 14:00","2022","08","12","14:00","24.7","","4.6","","27","","","","30","","20","","24.1","","100.82","","","","","","NA"
"-76.60","44.23","KINGSTON A","6104149","2022-08-12 15:00","2022","08","12","15:00","24.8","","4.5","","27","","","","36","","22","","24.1","","100.80","","","","","","NA"
"-76.60","44.23","KINGSTON A","6104149","2022-08-12 16:00","2022","08","12","16:00","24.7","","3.6","","25","","","","33","","22","","24.1","","100.80","","","","","","Clear"
"-76.60","44.23","KINGSTON A","6104149","2022-08-12 17:00","2022","08","12","17:00","24.3","","3.7","","26","","","","36","","17","","24.1","","100.80","","","","","","NA"
"-76.60","44.23","KINGSTON A","6104149","2022-08-12 18:00","2022","08","12","18:00","23.0","","4.7","","30","","","","36","","19","","24.1","","100.83","","","","","","NA"
"-76.60","44.23","KINGSTON A","6104149","2022-08-12 19:00","2022","08","12","19:00","21.1","","6.5","","38","","","","5","","13","","24.1","","100.89","","","","","","Clear"
"-76.60","44.23","KINGSTON A","6104149","2022-08-12 20:00","2022","08","12","20:00","19.5","","6.9","","43","","","","4","","8","","24.1","","100.92","","","","","","NA"
"-76.60","44.23","KINGSTON A","6104149","2022-08-12 21:00","2022","08","12","21:00","15.8","","7.8","","59","","","","2","","7","","24.1","","100.95","","","","","","NA"
"-76.60","44.23","KINGSTON A","6104149","2022-08-12 22:00","2022","08","12","22:00","15.6","","9.3","","66","","","","1","","5","","24.1","","100.92","","","","","","Clear"
"-76.60","44.23","KINGSTON A","6104149","2022-08-12 23:00","2022","08","12","23:00"
"-76.60","44.23","KINGSTON A","6104149","2022-08-13 00:00","2022","08","13","00:00"
"-76.60","44.23","KINGSTON A","6104149","2022-08-13 01:00","2022","08","13","01:00"
"-76.60","44.23","KINGSTON A","6104149","2022-08-13 02:00","2022","08","13","02:00"
"-76.60","44.23","KINGSTON A","6104149","2022-08-13 03:00","2022","08","13","03:00"
"-76.60","44.23","KINGSTON A","6104149","2022-08-13 04:00","2022","08","13","04:00"
"-76.60","44.23","KINGSTON A","6104149","2022-08-13 05:00","2022","08","13","05:00","10.6","","8.2","","85","","","","34","","9","","24.1","","101.03","","","","","","NA"
"-76.60","44.23","KINGSTON A","6104149","2022-08-13 06:00","2022","08","13","06:00","12.0","","9.4","","84","","","","34","","12","","24.1","","101.04","","","","","","NA"
"-76.60","44.23","KINGSTON A","6104149","2022-08-13 07:00","2022","08","13","07:00","16.1","","10.3","","68","","","","34","","10","","24.1","","101.05","","","","","","Clear"
"-76.60","44.23","KINGSTON A","6104149","2022-08-13 08:00","2022","08","13","08:00","20.6","","11.0","","53","","","","34","","7","","24.1","","101.08","","","","","","NA"
"-76.60","44.23","KINGSTON A","6104149","2022-08-13 09:00","2022","08","13","09:00","23.3","","8.5","","38","","","","2","","5","","24.1","","101.07","","","","","","NA"
"-76.60","44.23","KINGSTON A","6104149","2022-08-13 10:00","2022","08","13","10:00","24.1","","7.2","","34","","","","6","","8","","24.1","","101.06","","","","","","Mainly Clear"
"-76.60","44.23","KINGSTON A","6104149","2022-08-13 11:00","2022","08","13","11:00","23.2","","10.6","","44","","","","15","","19","","24.1","","101.02","","25","","","","NA"
"-76.60","44.23","KINGSTON A","6104149","2022-08-13 12:00","2022","08","13","12:00","24.3","","10.5","","41","","","","17","","19","","24.1","","101.00","","26","","","","NA"
"-76.60","44.23","KINGSTON A","6104149","2022-08-13 13:00","2022","08","13","13:00","24.1","","10.6","","42","","","","18","","17","","24.1","","100.96","","26","","","","Mainly Clear"
"-76.60","44.23","KINGSTON A","6104149","2022-08-13 14:00","2022","08","13","14:00","24.2","","11.2","","43","","","","19","","22","","24.1","","100.93","","26","","","","NA"
"-76.60","44.23","KINGSTON A","6104149","2022-08-13 15:00","2022","08","13","15:00","23.9","","11.1","","44","","","","19","","21","","24.1","","100.86","","26","","","","NA"
"-76.60","44.23","KINGSTON A","6104149","2022-08-13 16:00","2022","08","13","16:00","23.7","","11.8","","47","","","","19","","19","","24.1","","100.82","","26","","","","Mainly Clear"
"-76.60","44.23","KINGSTON A","6104149","2022-08-13 17:00","2022","08","13","17:00","23.1","","11.1","","46","","","","19","","18","","24.1","","100.79","","25","","","","NA"
"-76.60","44.23","KINGSTON A","6104149","2022-08-13 18:00","2022","08","13","18:00","22.5","","12.6","","53","","","","23","","13","","24.1","","100.78","","25","","","","NA"
"-76.60","44.23","KINGSTON A","6104149","2022-08-13 19:00","2022","08","13","19:00","21.0","","12.2","","57","","","","23","","13","","24.1","","100.78","","","","","","Mainly Clear"
"-76.60","44.23","KINGSTON A","6104149","2022-08-13 20:00","2022","08","13","20:00","20.3","","12.1","","59","","","","23","","10","","24.1","","100.79","","","","","","NA"
"-76.60","44.23","KINGSTON A","6104149","2022-08-13 21:00","2022","08","13","21:00","19.3","","10.9","","58","","","","29","","9","","24.1","","100.82","","","","","","NA"
"-76.60","44.23","KINGSTON A","6104149","2022-08-13 22:00","2022","08","13","22:00","17.9","","10.9","","63","","","","30","","12","","24.1","","100.80","","","","","","Clear"
"-76.60","44.23","KINGSTON A","6104149","2022-08-13 23:00","2022","08","13","23:00"
"-76.60","44.23","KINGSTON A","6104149","2022-08-14 00:00","2022","08","14","00:00"
"-76.60","44.23","KINGSTON A","6104149","2022-08-14 01:00","2022","08","14","01:00"
"-76.60","44.23","KINGSTON A","6104149","2022-08-14 02:00","2022","08","14","02:00"
"-76.60","44.23","KINGSTON A","6104149","2022-08-14 03:00","2022","08","14","03:00"
"-76.60","44.23","KINGSTON A","6104149","2022-08-14 04:00","2022","08","14","04:00"
"-76.60","44.23","KINGSTON A","6104149","2022-08-14 05:00","2022","08","14","05:00","11.5","","9.9","","90","","","","36","","9","","24.1","","100.75","","","","","","NA"
"-76.60","44.23","KINGSTON A","6104149","2022-08-14 06:00","2022","08","14","06:00","12.7","","11.2","","90","","","","36","","6","","24.1","","100.75","","","","","","NA"
"-76.60","44.23","KINGSTON A","6104149","2022-08-14 07:00","2022","08","14","07:00","18.3","","14.5","","78","","","","4","","4","","24.1","","100.75","","","","","","Mostly Cloudy"
"-76.60","44.23","KINGSTON A","6104149","2022-08-14 08:00","2022","08","14","08:00","21.3","","16.2","","72","","","","11","","6","","24.1","","100.76","","26","","","","NA"
"-76.60","44.23","KINGSTON A","6104149","2022-08-14 09:00","2022","08","14","09:00","23.1","","17.2","","69","","","","18","","10","","24.1","","100.76","","29","","","","NA"
"-76.60","44.23","KINGSTON A","6104149","2022-08-14 10:00","2022","08","14","10:00","22.0","","15.9","","68","","","","18","","13","","24.1","","100.75","","27","","","","Mostly Cloudy"
"-76.60","44.23","KINGSTON A","6104149","2022-08-14 11:00","2022","08","14","11:00","22.1","","14.9","","63","","","","17","","13","","24.1","","100.73","","26","","","","NA"
"-76.60","44.23","KINGSTON A","6104149","2022-08-14 12:00","2022","08","14","12:00","23.7","","15.1","","58","","","","17","","14","","24.1","","100.70","","28","","","","NA"
"-76.60","44.23","KINGSTON A","6104149","2022-08-14 13:00","2022","08","14","13:00","23.1","","14.1","","56","","","","17","","14","","24.1","","100.67","","27","","","","Mostly Cloudy"
"-76.60","44.23","KINGSTON A","6104149","2022-08-14 14:00","2022","08","14","14:00","24.9","","10.3","","39","","","","19","","12","","24.1","","100.64","","26","","","","NA"
"-76.60","44.23","KINGSTON A","6104149","2022-08-14 15:00","2022","08","14","15:00","24.8","","9.6","","38","","","","18","","9","","24.1","","100.61","","26","","","","NA"
"-76.60","44.23","KINGSTON A","6104149","2022-08-14 16:00","2022","08","14","16:00","24.8","","10.4","","40","","","","19","","13","","24.1","","100.60","","26","","","","Mostly Cloudy"
"-76.60","44.23","KINGSTON A","6104149","2022-08-14 17:00","2022","08","14","17:00","24.4","","11.2","","43","","","","20","","12","","24.1","","100.60","","26","","","","NA"
"-76.60","44.23","KINGSTON A","6104149","2022-08-14 18:00","2022","08","14","18:00","24.1","","12.2","","47","","","","19","","8","","24.1","","100.57","","26","","","","NA"
"-76.60","44.23","KINGSTON A","6104149","2022-08-14 19:00","2022","08","14","19:00","21.2","","13.4","","61","","","","36","","2","","24.1","","100.56","","","","","","Mainly Clear"
"-76.60","44.23","KINGSTON A","6104149","2022-08-14 20:00","2022","08","14","20:00","18.8","","12.5","","67","","","","35","","10","","24.1","","100.56","","","","","","NA"
"-76.60","44.23","KINGSTON A","6104149","2022-08-14 21:00","2022","08","14","21:00","18.1","","12.6","","70","","","","36","","9","","24.1","","100.56","","","","","","NA"
"-76.60","44.23","KINGSTON A","6104149","2022-08-14 22:00","2022","08","14","22:00","15.7","","11.4","","76","","","","34","","11","","24.1","","100.56","","","","","","Mainly Clear"
"-76.60","44.23","KINGSTON A","6104149","2022-08-14 23:00","2022","08","14","23:00"
"-76.60","44.23","KINGSTON A","6104149","2022-08-15 00:00","2022","08","15","00:00"
"-76.60","44.23","KINGSTON A","6104149","2022-08-15 01:00","2022","08","15","01:00"
"-76.60","44.23","KINGSTON A","6104149","2022-08-15 02:00","2022","08","15","02:00"
"-76.60","44.23","KINGSTON A","6104149","2022-08-15 03:00","2022","08","15","03:00"
"-76.60","44.23","KINGSTON A","6104149","2022-08-15 04:00","2022","08","15","04:00"
"-76.60","44.23","KINGSTON A","6104149","2022-08-15 05:00","2022","08","15","05:00","11.2","","10.2","","93","","","","1","","9","","24.1","","100.52","","","","","","NA"
"-76.60","44.23","KINGSTON A","6104149","2022-08-15 06:00","2022","08","15","06:00","13.6","","12.1","","91","","","","4","","8","","24.1","","100.55","","","","","","NA"
"-76.60","44.23","KINGSTON A","6104149","2022-08-15 07:00","2022","08","15","07:00","19.2","","12.8","","66","","","","3","","13","","24.1","","100.55","","","","","","Mainly Clear"
"-76.60","44.23","KINGSTON A","6104149","2022-08-15 08:00","2022","08","15","08:00","21.3","","13.1","","59","","","","4","","13","","24.1","","100.58","","","","","","NA"
"-76.60","44.23","KINGSTON A","6104149","2022-08-15 09:00","2022","08","15","09:00","24.2","","11.2","","43","","","","3","","19","","24.1","","100.57","","26","","","","NA"
"-76.60","44.23","KINGSTON A","6104149","2022-08-15 10:00","2022","08","15","10:00","25.7","","10.2","","37","","","","4","","19","","24.1","","100.59","","27","","","","Mainly Clear"
"-76.60","44.23","KINGSTON A","6104149","2022-08-15 11:00","2022","08","15","11:00","26.4","","11.2","","38","","","","6","","18","","24.1","","100.59","","28","","","","NA"
"-76.60","44.23","KINGSTON A","6104149","2022-08-15 12:00","2022","08","15","12:00","26.8","","9.5","","33","","","","2","","19","","24.1","","100.57","","28","","","","NA"
"-76.60","44.23","KINGSTON A","6104149","2022-08-15 13:00","2022","08","15","13:00","27.6","","10.9","","35","","","","8","","15","","24.1","","100.54","","29","","","","Mostly Cloudy"
"-76.60","44.23","KINGSTON A","6104149","2022-08-15 14:00","2022","08","15","14:00","27.3","","9.9","","33","","","","8","","6","","24.1","","100.49","","29","","","","NA"
"-76.60","44.23","KINGSTON A","6104149","2022-08-15 15:00","2022","08","15","15:00","28.7","","10.4","","31","","","","7","","18","","24.1","","100.45","","30","","","","NA"
"-76.60","44.23","KINGSTON A","6104149","2022-08-15 16:00","2022","08","15","16:00","27.6","","9.2","","31","","","","2","","14","","24.1","","100.44","","29","","","","Mostly Cloudy"
"-76.60","44.23","KINGSTON A","6104149","2022-08-15 17:00","2022","08","15","17:00","26.9","","8.2","","30","","","","4","","17","","24.1","","100.44","","27","","","","NA"
"-76.60","44.23","KINGSTON A","6104149","2022-08-15 18:00","2022","08","15","18:00","25.8","","7.9","","32","","","","3","","20","","24.1","","100.46","","26","","","","NA"
"-76.60","44.23","KINGSTON A","6104149","2022-08-15 19:00","2022","08","15","19:00","24.3","","8.3","","36","","","","4","","10","","24.1","","100.51","","25","","","","Mostly Cloudy"
"-76.60","44.23","KINGSTON A","6104149","2022-08-15 20:00","2022","08","15","20:00","22.6","","9.7","","43","","","","2","","10","","24.1","","100.58","","","","","","NA"
"-76.60","44.23","KINGSTON A","6104149","2022-08-15 21:00","2022","08","15","21:00","20.9","","10.9","","52","","","","1","","10","","24.1","","100.63","","","","","","NA"
"-76.60","44.23","KINGSTON A","6104149","2022-08-15 22:00","2022","08","15","22:00","20.1","","12.5","","61","","","","2","","12","","24.1","","100.64","","","","","","Mostly Cloudy"
"-76.60","44.23","KINGSTON A","6104149","2022-08-15 23:00","2022","08","15","23:00"
"-76.60","44.23","KINGSTON A","6104149","2022-08-16 00:00","2022","08","16","00:00"
"-76.60","44.23","KINGSTON A","6104149","2022-08-16 01:00","2022","08","16","01:00"
"-76.60","44.23","KINGSTON A","6104149","2022-08-16 02:00","2022","08","16","02:00"
"-76.60","44.23","KINGSTON A","6104149","2022-08-16 03:00","2022","08","16","03:00"
"-76.60","44.23","KINGSTON A","6104149","2022-08-16 04:00","2022","08","16","04:00"
"-76.60","44.23","KINGSTON A","6104149","2022-08-16 05:00","2022","08","16","05:00","17.3","","13.9","","80","","","","2","","16","","24.1","","100.69","","","","","","NA"
"-76.60","44.23","KINGSTON A","6104149","2022-08-16 06:00","2022","08","16","06:00","17.7","","14.4","","81","","","","3","","13","","24.1","","100.73","","","","","","NA"
"-76.60","44.23","KINGSTON A","6104149","2022-08-16 07:00","2022","08","16","07:00","19.4","","14.9","","75","","","","2","","16","","24.1","","100.74","","","","","","Mostly Cloudy"
"-76.60","44.23","KINGSTON A","6104149","2022-08-16 08:00","2022","08","16","08:00","20.3","","14.3","","68","","","","4","","16","","24.1","","100.76","","","","","","NA"
"-76.60","44.23","KINGSTON A","6104149","2022-08-16 09:00","2022","08","16","09:00","22.9","","14.1","","57","","","","5","","16","","24.1","","100.77","","26","","","","NA"
"-76.60","44.23","KINGSTON A","6104149","2022-08-16 10:00","2022","08","16","10:00","25.8","","13.6","","46","","","","7","","19","","24.1","","100.80","","29","","","","Mostly Cloudy"
"-76.60","44.23","KINGSTON A","6104149","2022-08-16 11:00","2022","08","16","11:00","26.8","","13.9","","44","","","","5","","21","","24.1","","100.79","","30","","","","NA"
"-76.60","44.23","KINGSTON A","6104149","2022-08-16 12:00","2022","08","16","12:00","26.7","","12.0","","39","","","","6","","16","","24.1","","100.78","","29","","","","NA"
"-76.60","44.23","KINGSTON A","6104149","2022-08-16 13:00","2022","08","16","13:00","27.1","","11.0","","36","","","","5","","17","","24.1","","100.73","","29","","","","Mostly Cloudy"
"-76.60","44.23","KINGSTON A","6104149","2022-08-16 14:00","2022","08","16","14:00","28.2","","11.1","","34","","","","6","","17","","24.1","","100.72","","30","","","","NA"
"-76.60","44.23","KINGSTON A","6104149","2022-08-16 15:00","2022","08","16","15:00","27.9","","10.5","","33","","","","7","","17","","24.1","","100.71","","29","","","","NA"
"-76.60","44.23","KINGSTON A","6104149","2022-08-16 16:00","2022","08","16","16:00","27.9","","11.2","","35","","","","6","","17","","24.1","","100.69","","30","","","","Mostly Cloudy"
"-76.60","44.23","KINGSTON A","6104149","2022-08-16 17:00","2022","08","16","17:00","26.6","","11.2","","38","","","","5","","14","","24.1","","100.69","","28","","","","NA"
"-76.60","44.23","KINGSTON A","6104149","2022-08-16 18:00","2022","08","16","18:00","26.4","","12.3","","41","","","","4","","14","","24.1","","100.70","","29","","","","NA"
"-76.60","44.23","KINGSTON A","6104149","2022-08-16 19:00","2022","08","16","19:00","24.8","","12.6","","46","","","","3","","9","","24.1","","100.71","","27","","","","Mostly Cloudy"
"-76.60","44.23","KINGSTON A","6104149","2022-08-16 20:00","2022","08","16","20:00","23.5","","13.9","","54","","","","3","","8","","24.1","","100.75","","27","","","","NA"
"-76.60","44.23","KINGSTON A","6104149","2022-08-16 21:00","2022","08","16","21:00","23.0","","13.9","","56","","","","5","","12","","24.1","","100.78","","26","","","","NA"
"-76.60","44.23","KINGSTON A","6104149","2022-08-16 22:00","2022","08","16","22:00","21.6","","14.4","","63","","","","36","","8","","24.1","","100.74","","25","","","","Mostly Cloudy"
"-76.60","44.23","KINGSTON A","6104149","2022-08-16 23:00","2022","08","16","23:00"
"-76.60","44.23","KINGSTON A","6104149","2022-08-17 00:00","2022","08","17","00:00"
"-76.60","44.23","KINGSTON A","6104149","2022-08-17 01:00","2022","08","17","01:00"
"-76.60","44.23","KINGSTON A","6104149","2022-08-17 02:00","2022","08","17","02:00"
"-76.60","44.23","KINGSTON A","6104149","2022-08-17 03:00","2022","08","17","03:00"
"-76.60","44.23","KINGSTON A","6104149","2022-08-17 04:00","2022","08","17","04:00"
"-76.60","44.23","KINGSTON A","6104149","2022-08-17 05:00","2022","08","17","05:00","18.1","","15.5","","84","","","","3","","14","","24.1","","100.76","","","","","","NA"
"-76.60","44.23","KINGSTON A","6104149","2022-08-17 06:00","2022","08","17","06:00","17.8","","14.9","","83","","","","2","","12","","24.1","","100.79","","","","","","NA"
"-76.60","44.23","KINGSTON A","6104149","2022-08-17 07:00","2022","08","17","07:00","18.4","","15.2","","81","","","","3","","13","","24.1","","100.80","","","","","","Cloudy"
"-76.60","44.23","KINGSTON A","6104149","2022-08-17 08:00","2022","08","17","08:00","20.8","","15.8","","72","","","","4","","15","","24.1","","100.80","","25","","","","NA"
"-76.60","44.23","KINGSTON A","6104149","2022-08-17 09:00","2022","08","17","09:00","21.5","","15.9","","70","","","","2","","16","","24.1","","100.79","","26","","","","NA"
"-76.60","44.23","KINGSTON A","6104149","2022-08-17 10:00","2022","08","17","10:00","24.1","","16.0","","60","","","","4","","16","","24.1","","100.76","","29","","","","Mostly Cloudy"
"-76.60","44.23","KINGSTON A","6104149","2022-08-17 11:00","2022","08","17","11:00","26.1","","14.9","","49","","","","5","","14","","24.1","","100.72","","30","","","","NA"
"-76.60","44.23","KINGSTON A","6104149","2022-08-17 12:00","2022","08","17","12:00","26.7","","14.0","","45","","","","4","","16","","24.1","","100.67","","30","","","","NA"
"-76.60","44.23","KINGSTON A","6104149","2022-08-17 13:00","2022","08","17","13:00","27.4","","13.7","","42","","","","5","","22","","24.1","","100.64","","31","","","","Mostly Cloudy"
"-76.60","44.23","KINGSTON A","6104149","2022-08-17 14:00","2022","08","17","14:00","28.3","","14.1","","41","","","","5","","19","","24.1","","100.54","","32","","","","NA"
"-76.60","44.23","KINGSTON A","6104149","2022-08-17 15:00","2022","08","17","15:00","27.9","","11.3","","35","","","","5","","16","","24.1","","100.50","","30","","","","NA"
"-76.60","44.23","KINGSTON A","6104149","2022-08-17 16:00","2022","08","17","16:00","27.2","","13.2","","41","","","","5","","19","","24.1","","100.48","","30","","","","Mostly Cloudy"
"-76.60","44.23","KINGSTON A","6104149","2022-08-17 17:00","2022","08","17","17:00","27.3","","13.4","","42","","","","5","","17","","24.1","","100.49","","30","","","","NA"
"-76.60","44.23","KINGSTON A","6104149","2022-08-17 18:00","2022","08","17","18:00","24.7","","17.1","","62","","","","15","","22","","24.1","","100.52","","30","","","","NA"
"-76.60","44.23","KINGSTON A","6104149","2022-08-17 19:00","2022","08","17","19:00","22.4","","15.9","","66","","","","21","","11","","24.1","","100.55","","27","","","","Mostly Cloudy"
"-76.60","44.23","KINGSTON A","6104149","2022-08-17 20:00","2022","08","17","20:00","21.6","","16.0","","70","","","","26","","4","","24.1","","100.53","","26","","","","NA"
"-76.60","44.23","KINGSTON A","6104149","2022-08-17 21:00","2022","08","17","21:00","20.7","","16.0","","74","","","","31","","6","","24.1","","100.50","","25","","","","NA"
"-76.60","44.23","KINGSTON A","6104149","2022-08-17 22:00","2022","08","17","22:00","19.8","","15.9","","78","","","","31","","8","","24.1","","100.43","","","","","","Mostly Cloudy"
"-76.60","44.23","KINGSTON A","6104149","2022-08-17 23:00","2022","08","17","23:00"
"-76.60","44.23","KINGSTON A","6104149","2022-08-18 00:00","2022","08","18","00:00"
"-76.60","44.23","KINGSTON A","6104149","2022-08-18 01:00","2022","08","18","01:00"
"-76.60","44.23","KINGSTON A","6104149","2022-08-18 02:00","2022","08","18","02:00"
"-76.60","44.23","KINGSTON A","6104149","2022-08-18 03:00","2022","08","18","03:00"
"-76.60","44.23","KINGSTON A","6104149","2022-08-18 04:00","2022","08","18","04:00"
"-76.60","44.23","KINGSTON A","6104149","2022-08-18 05:00","2022","08","18","05:00","15.5","","13.9","","90","","","","29","","5","","24.1","","100.25","","","","","","NA"
"-76.60","44.23","KINGSTON A","6104149","2022-08-18 06:00","2022","08","18","06:00","16.0","","14.8","","93","","","","33","","11","","24.1","","100.26","","","","","","NA"
"-76.60","44.23","KINGSTON A","6104149","2022-08-18 07:00","2022","08","18","07:00","19.4","","15.5","","78","","","","28","","10","","24.1","","100.25","","","","","","Mostly Cloudy"
"-76.60","44.23","KINGSTON A","6104149","2022-08-18 08:00","2022","08","18","08:00","21.6","","15.3","","67","","","","25","","14","","24.1","","100.21","","26","","","","NA"
"-76.60","44.23","KINGSTON A","6104149","2022-08-18 09:00","2022","08","18","09:00","24.3","","15.7","","58","","","","28","","13","","24.1","","100.17","","29","","","","NA"
"-76.60","44.23","KINGSTON A","6104149","2022-08-18 10:00","2022","08","18","10:00","25.9","","14.6","","49","","","","28","","15","","24.1","","100.12","","30","","","","Mostly Cloudy"
"-76.60","44.23","KINGSTON A","6104149","2022-08-18 11:00","2022","08","18","11:00","26.9","","14.0","","44","","","","34","","18","","24.1","","100.11","","30","","","","NA"
"-76.60","44.23","KINGSTON A","6104149","2022-08-18 12:00","2022","08","18","12:00","27.2","","12.8","","40","","","","36","","14","","24.1","","100.07","","30","","","","NA"
"-76.60","44.23","KINGSTON A","6104149","2022-08-18 13:00","2022","08","18","13:00","28.2","","10.7","","33","","","","34","","12","","24.1","","100.04","","30","","","","Mostly Cloudy"
"-76.60","44.23","KINGSTON A","6104149","2022-08-18 14:00","2022","08","18","14:00","27.8","","10.6","","34","","","","33","","12","","24.1","","100.03","","29","","","","NA"
"-76.60","44.23","KINGSTON A","6104149","2022-08-18 15:00","2022","08","18","15:00","29.9","","11.6","","32","","","","34","","16","","24.1","","99.97","","32","","","","NA"
"-76.60","44.23","KINGSTON A","6104149","2022-08-18 16:00","2022","08","18","16:00","27.6","","10.2","","33","","","","34","","10","","24.1","","100.02","","29","","","","Mostly Cloudy"
"-76.60","44.23","KINGSTON A","6104149","2022-08-18 17:00","2022","08","18","17:00","24.3","","15.7","","58","","","","26","","18","","24.1","","100.11","","29","","","","NA"
"-76.60","44.23","KINGSTON A","6104149","2022-08-18 18:00","2022","08","18","18:00","22.7","","15.6","","64","","","","26","","17","","24.1","","100.12","","27","","","","NA"
"-76.60","44.23","KINGSTON A","6104149","2022-08-18 19:00","2022","08","18","19:00","21.4","","15.3","","68","","","","26","","10","","24.1","","100.14","","26","","","","Mostly Cloudy"
"-76.60","44.23","KINGSTON A","6104149","2022-08-18 20:00","2022","08","18","20:00","20.1","","15.6","","75","","","","27","","7","","24.1","","100.18","","","","","","NA"
"-76.60","44.23","KINGSTON A","6104149","2022-08-18 21:00","2022","08","18","21:00","19.5","","15.7","","79","","","","27","","7","","24.1","","100.21","","","","","","NA"
"-76.60","44.23","KINGSTON A","6104149","2022-08-18 22:00","2022","08","18","22:00","19.2","","16.3","","83","","","","28","","9","","24.1","","100.22","","","","","","Mostly Cloudy"
"-76.60","44.23","KINGSTON A","6104149","2022-08-18 23:00","2022","08","18","23:00"
"-76.60","44.23","KINGSTON A","6104149","2022-08-19 00:00","2022","08","19","00:00"
"-76.60","44.23","KINGSTON A","6104149","2022-08-19 01:00","2022","08","19","01:00"
"-76.60","44.23","KINGSTON A","6104149","2022-08-19 02:00","2022","08","19","02:00"
"-76.60","44.23","KINGSTON A","6104149","2022-08-19 03:00","2022","08","19","03:00"
"-76.60","44.23","KINGSTON A","6104149","2022-08-19 04:00","2022","08","19","04:00"
"-76.60","44.23","KINGSTON A","6104149","2022-08-19 05:00","2022","08","19","05:00","17.8","","15.1","","84","","","","26","","13","","24.1","","100.43","","","","","","NA"
"-76.60","44.23","KINGSTON A","6104149","2022-08-19 06:00","2022","08","19","06:00","18.1","","15.3","","84","","","","27","","9","","24.1","","100.50","","","","","","NA"
"-76.60","44.23","KINGSTON A","6104149","2022-08-19 07:00","2022","08","19","07:00","19.6","","15.9","","79","","","","30","","10","","24.1","","100.56","","","","","","Mostly Cloudy"
"-76.60","44.23","KINGSTON A","6104149","2022-08-19 08:00","2022","08","19","08:00","22.3","","16.3","","69","","","","26","","3","","24.1","","100.59","","27","","","","NA"
"-76.60","44.23","KINGSTON A","6104149","2022-08-19 09:00","2022","08","19","09:00","23.4","","17.1","","67","","","","19","","9","","24.1","","100.62","","29","","","","NA"
"-76.60","44.23","KINGSTON A","6104149","2022-08-19 10:00","2022","08","19","10:00","24.8","","18.0","","66","","","","17","","17","","24.1","","100.64","","31","","","","Mostly Cloudy"
"-76.60","44.23","KINGSTON A","6104149","2022-08-19 11:00","2022","08","19","11:00","25.3","","17.5","","62","","","","19","","21","","24.1","","100.64","","31","","","","NA"
"-76.60","44.23","KINGSTON A","6104149","2022-08-19 12:00","2022","08","19","12:00","25.7","","17.1","","58","","","","19","","28","","24.1","","100.63","","31","","","","NA"
"-76.60","44.23","KINGSTON A","6104149","2022-08-19 13:00","2022","08","19","13:00","25.7","","20.5","","72","","","","19","","27","","24.1","","100.62","","34","","","","Mainly Clear"
"-76.60","44.23","KINGSTON A","6104149","2022-08-19 14:00","2022","08","19","14:00","26.1","","20.6","","71","","","","19","","26","","24.1","","100.62","","34","","","","NA"
"-76.60","44.23","KINGSTON A","6104149","2022-08-19 15:00","2022","08","19","15:00","25.9","","19.9","","69","","","","19","","23","","24.1","","100.59","","33","","","","NA"
"-76.60","44.23","KINGSTON A","6104149","2022-08-19 16:00","2022","08","19","16:00","25.6","","19.8","","70","","","","19","","22","","24.1","","100.58","","33","","","","Mainly Clear"
"-76.60","44.23","KINGSTON A","6104149","2022-08-19 17:00","2022","08","19","17:00","24.4","","18.6","","70","","","","19","","18","","24.1","","100.60","","31","","","","NA"
"-76.60","44.23","KINGSTON A","6104149","2022-08-19 18:00","2022","08","19","18:00","24.0","","19.1","","74","","","","19","","14","","24.1","","100.61","","31","","","","NA"
"-76.60","44.23","KINGSTON A","6104149","2022-08-19 19:00","2022","08","19","19:00","23.0","","19.1","","78","","","","18","","13","","24.1","","100.62","","30","","","","Mainly Clear"
"-76.60","44.23","KINGSTON A","6104149","2022-08-19 20:00","2022","08","19","20:00","23.1","","20.0","","83","","","","18","","10","","24.1","","100.66","","31","","","","NA"
"-76.60","44.23","KINGSTON A","6104149","2022-08-19 21:00","2022","08","19","21:00","22.5","","20.2","","87","","","","20","","14","","24.1","","100.72","","30","","","","NA"
"-76.60","44.23","KINGSTON A","6104149","2022-08-19 22:00","2022","08","19","22:00","21.1","","19.6","","91","","","","20","","3","","24.1","","100.73","","28","","","","Clear"
"-76.60","44.23","KINGSTON A","6104149","2022-08-19 23:00","2022","08","19","23:00"
"-76.60","44.23","KINGSTON A","6104149","2022-08-20 00:00","2022","08","20","00:00"
"-76.60","44.23","KINGSTON A","6104149","2022-08-20 01:00","2022","08","20","01:00"
"-76.60","44.23","KINGSTON A","6104149","2022-08-20 02:00","2022","08","20","02:00"
"-76.60","44.23","KINGSTON A","6104149","2022-08-20 03:00","2022","08","20","03:00"
"-76.60","44.23","KINGSTON A","6104149","2022-08-20 04:00","2022","08","20","04:00"
"-76.60","44.23","KINGSTON A","6104149","2022-08-20 05:00","2022","08","20","05:00","17.0","","16.7","","98","","","","36","","1","","24.1","","100.85","","","","","","NA"
"-76.60","44.23","KINGSTON A","6104149","2022-08-20 06:00","2022","08","20","06:00","16.7","","16.3","","98","","","","6","","6","","24.1","","100.89","","","","","","NA"
"-76.60","44.23","KINGSTON A","6104149","2022-08-20 07:00","2022","08","20","07:00","21.6","","19.8","","89","","","","7","","5","","24.1","","100.91","","29","","","","Mainly Clear"
"-76.60","44.23","KINGSTON A","6104149","2022-08-20 08:00","2022","08","20","08:00","23.7","","18.4","","72","","","","16","","7","","24.1","","100.95","","30","","","","NA"
"-76.60","44.23","KINGSTON A","6104149","2022-08-20 09:00","2022","08","20","09:00","24.1","","18.9","","72","","","","16","","9","","24.1","","100.95","","31","","","","NA"
"-76.60","44.23","KINGSTON A","6104149","2022-08-20 10:00","2022","08","20","10:00","25.6","","17.9","","62","","","","15","","6","","24.1","","100.93","","32","","","","Mainly Clear"
"-76.60","44.23","KINGSTON A","6104149","2022-08-20 11:00","2022","08","20","11:00","26.2","","17.7","","59","","","","16","","12","","24.1","","100.93","","32","","","","NA"
"-76.60","44.23","KINGSTON A","6104149","2022-08-20 12:00","2022","08","20","12:00","25.8","","19.2","","67","","","","20","","16","","24.1","","100.89","","33","","","","NA"
"-76.60","44.23","KINGSTON A","6104149","2022-08-20 13:00","2022","08","20","13:00","26.6","","16.3","","53","","","","19","","11","","24.1","","100.86","","31","","","","Mainly Clear"
"-76.60","44.23","KINGSTON A","6104149","2022-08-20 14:00","2022","08","20","14:00","27.9","","17.2","","52","","","","18","","12","","24.1","","100.81","","33","","","","NA"
"-76.60","44.23","KINGSTON A","6104149","2022-08-20 15:00","2022","08","20","15:00","28.0","","18.2","","55","","","","17","","7","","24.1","","100.75","","34","","","","NA"
"-76.60","44.23","KINGSTON A","6104149","2022-08-20 16:00","2022","08","20","16:00","27.4","","18.2","","57","","","","17","","9","","24.1","","100.68","","34","","","","Mostly Cloudy"
"-76.60","44.23","KINGSTON A","6104149","2022-08-20 17:00","2022","08","20","17:00","28.3","","16.5","","48","","","","19","","8","","24.1","","100.66","","33","","","","NA"
"-76.60","44.23","KINGSTON A","6104149","2022-08-20 18:00","2022","08","20","18:00","27.9","","16.9","","50","","","","36","","3","","24.1","","100.66","","33","","","","NA"
"-76.60","44.23","KINGSTON A","6104149","2022-08-20 19:00","2022","08","20","19:00","24.9","","17.9","","64","","","","15","","7","","24.1","","100.68","","31","","","","Mostly Cloudy"
"-76.60","44.23","KINGSTON A","6104149","2022-08-20 20:00","2022","08","20","20:00","24.2","","18.0","","68","","","","16","","4","","24.1","","100.68","","30","","","","NA"
"-76.60","44.23","KINGSTON A","6104149","2022-08-20 21:00","2022","08","20","21:00","21.5","","17.3","","77","","","","8","","3","","24.1","","100.67","","27","","","","NA"
"-76.60","44.23","KINGSTON A","6104149","2022-08-20 22:00","2022","08","20","22:00","24.3","","20.1","","77","","","","17","","15","","24.1","","100.67","","32","","","","Mainly Clear"
"-76.60","44.23","KINGSTON A","6104149","2022-08-20 23:00","2022","08","20","23:00"
"-76.60","44.23","KINGSTON A","6104149","2022-08-21 00:00","2022","08","21","00:00"
"-76.60","44.23","KINGSTON A","6104149","2022-08-21 01:00","2022","08","21","01:00"
"-76.60","44.23","KINGSTON A","6104149","2022-08-21 02:00","2022","08","21","02:00"
"-76.60","44.23","KINGSTON A","6104149","2022-08-21 03:00","2022","08","21","03:00"
"-76.60","44.23","KINGSTON A","6104149","2022-08-21 04:00","2022","08","21","04:00"
"-76.60","44.23","KINGSTON A","6104149","2022-08-21 05:00","2022","08","21","05:00","22.9","","19.9","","83","","","","16","","24","","24.1","","100.57","","30","","","","NA"
"-76.60","44.23","KINGSTON A","6104149","2022-08-21 06:00","2022","08","21","06:00","23.0","","20.3","","84","","","","16","","23","","24.1","","100.58","","31","","","","NA"
"-76.60","44.23","KINGSTON A","6104149","2022-08-21 07:00","2022","08","21","07:00","23.6","","20.2","","81","","","","17","","20","","24.1","","100.57","","31","","","","Mostly Cloudy"
"-76.60","44.23","KINGSTON A","6104149","2022-08-21 08:00","2022","08","21","08:00","23.6","","20.2","","81","","","","17","","22","","24.1","","100.57","","31","","","","NA"
"-76.60","44.23","KINGSTON A","6104149","2022-08-21 09:00","2022","08","21","09:00","24.1","","20.3","","79","","","","18","","17","","24.1","","100.57","","32","","","","NA"
"-76.60","44.23","KINGSTON A","6104149","2022-08-21 10:00","2022","08","21","10:00","21.3","","20.4","","95","","","","17","","36","","2.0","","100.56","","29","","","","Moderate Rain Showers,Fog"
"-76.60","44.23","KINGSTON A","6104149","2022-08-21 11:00","2022","08","21","11:00","21.7","","20.7","","94","","","","16","","31","","24.1","","100.56","","30","","","","NA"
"-76.60","44.23","KINGSTON A","6104149","2022-08-21 12:00","2022","08","21","12:00","22.6","","20.3","","87","","","","15","","36","","24.1","","100.54","","30","","","","NA"
"-76.60","44.23","KINGSTON A","6104149","2022-08-21 13:00","2022","08","21","13:00","23.9","","20.4","","81","","","","17","","31","","24.1","","100.50","","32","","","","Mostly Cloudy"
"-76.60","44.23","KINGSTON A","6104149","2022-08-21 14:00","2022","08","21","14:00","24.0","","20.4","","80","","","","18","","24","","24.1","","100.47","","32","","","","NA"
"-76.60","44.23","KINGSTON A","6104149","2022-08-21 15:00","2022","08","21","15:00","24.0","","20.9","","83","","","","18","","21","","24.1","","100.44","","32","","","","NA"
"-76.60","44.23","KINGSTON A","6104149","2022-08-21 16:00","2022","08","21","16:00","24.3","","21.0","","82","","","","18","","16","","24.1","","100.39","","33","","","","Mostly Cloudy"
"-76.60","44.23","KINGSTON A","6104149","2022-08-21 17:00","2022","08","21","17:00","23.9","","20.8","","83","","","","17","","15","","24.1","","100.39","","32","","","","NA"
"-76.60","44.23","KINGSTON A","6104149","2022-08-21 18:00","2022","08","21","18:00","23.6","","20.8","","84","","","","18","","27","","24.1","","100.38","","32","","","","NA"
"-76.60","44.23","KINGSTON A","6104149","2022-08-21 19:00","2022","08","21","19:00","22.6","","18.9","","79","","","","18","","11","","24.1","","100.34","","29","","","","Mostly Cloudy"
"-76.60","44.23","KINGSTON A","6104149","2022-08-21 20:00","2022","08","21","20:00","22.3","","20.2","","88","","","","17","","17","","24.1","","100.37","","30","","","","NA"
"-76.60","44.23","KINGSTON A","6104149","2022-08-21 21:00","2022","08","21","21:00","22.8","","20.4","","86","","","","18","","16","","24.1","","100.38","","31","","","","NA"
"-76.60","44.23","KINGSTON A","6104149","2022-08-21 22:00","2022","08","21","22:00","22.4","","20.0","","86","","","","17","","16","","24.1","","100.34","","30","","","","Mostly Cloudy"
"-76.60","44.23","KINGSTON A","6104149","2022-08-21 23:00","2022","08","21","23:00"
"-76.60","44.23","KINGSTON A","6104149","2022-08-22 00:00","2022","08","22","00:00"
"-76.60","44.23","KINGSTON A","6104149","2022-08-22 01:00","2022","08","22","01:00"
"-76.60","44.23","KINGSTON A","6104149","2022-08-22 02:00","2022","08","22","02:00"
"-76.60","44.23","KINGSTON A","6104149","2022-08-22 03:00","2022","08","22","03:00"
"-76.60","44.23","KINGSTON A","6104149","2022-08-22 04:00","2022","08","22","04:00"
"-76.60","44.23","KINGSTON A","6104149","2022-08-22 05:00","2022","08","22","05:00","22.1","","20.4","","90","","","","17","","17","","24.1","","100.22","","30","","","","NA"
"-76.60","44.23","KINGSTON A","6104149","2022-08-22 06:00","2022","08","22","06:00","22.2","","20.0","","87","","","","15","","18","","24.1","","100.23","","30","","","","NA"
"-76.60","44.23","KINGSTON A","6104149","2022-08-22 07:00","2022","08","22","07:00","22.7","","19.9","","84","","","","16","","18","","24.1","","100.25","","30","","","","Mostly Cloudy"
"-76.60","44.23","KINGSTON A","6104149","2022-08-22 08:00","2022","08","22","08:00","23.7","","20.8","","84","","","","15","","15","","24.1","","100.25","","32","","","","NA"
"-76.60","44.23","KINGSTON A","6104149","2022-08-22 09:00","2022","08","22","09:00","22.8","","20.1","","84","","","","17","","13","","24.1","","100.23","","30","","","","NA"
"-76.60","44.23","KINGSTON A","6104149","2022-08-22 10:00","2022","08","22","10:00","22.2","","20.7","","91","","","","16","","10","","19.3","","100.22","","30","","","","Rain Showers"
"-76.60","44.23","KINGSTON A","6104149","2022-08-22 11:00","2022","08","22","11:00","21.6","","20.4","","93","","","","16","","21","","8.1","","100.20","","30","","","","Rain Showers,Fog"
"-76.60","44.23","KINGSTON A","6104149","2022-08-22 12:00","2022","08","22","12:00","21.3","","20.4","","94","","","","17","","18","","8.1","","100.18","","29","","","","Rain Showers,Fog"
"-76.60","44.23","KINGSTON A","6104149","2022-08-22 13:00","2022","08","22","13:00","21.2","","20.4","","95","","","","15","","13","","9.7","","100.16","","29","","","","Rain Showers,Fog"
"-76.60","44.23","KINGSTON A","6104149","2022-08-22 14:00","2022","08","22","14:00","21.8","","20.3","","91","","","","14","","9","","16.1","","100.09","","30","","","","Rain Showers"
"-76.60","44.23","KINGSTON A","6104149","2022-08-22 15:00","2022","08","22","15:00","23.1","","20.6","","86","","","","15","","9","","24.1","","100.02","","31","","","","NA"
"-76.60","44.23","KINGSTON A","6104149","2022-08-22 16:00","2022","08","22","16:00","22.9","","19.7","","82","","","","18","","9","","24.1","","100.00","","30","","","","Mostly Cloudy"
"-76.60","44.23","KINGSTON A","6104149","2022-08-22 17:00","2022","08","22","17:00","22.9","","20.1","","84","","","","19","","11","","24.1","","99.98","","31","","","","NA"
"-76.60","44.23","KINGSTON A","6104149","2022-08-22 18:00","2022","08","22","18:00","20.4","","19.7","","96","","","","4","","7","","16.1","","99.96","","28","","","","Rain Showers"
"-76.60","44.23","KINGSTON A","6104149","2022-08-22 19:00","2022","08","22","19:00","20.5","","19.9","","96","","","","1","","9","","24.1","","99.95","","28","","","","Mostly Cloudy"
"-76.60","44.23","KINGSTON A","6104149","2022-08-22 20:00","2022","08","22","20:00","20.3","","19.6","","96","","","","4","","4","","24.1","","99.99","","28","","","","NA"
"-76.60","44.23","KINGSTON A","6104149","2022-08-22 21:00","2022","08","22","21:00","20.2","","19.7","","97","","","","34","","7","","24.1","","99.96","","28","","","","NA"
"-76.60","44.23","KINGSTON A","6104149","2022-08-22 22:00","2022","08","22","22:00","19.7","","19.4","","98","","","","33","","5","","24.1","","99.93","","","","","","Cloudy"
"-76.60","44.23","KINGSTON A","6104149","2022-08-22 23:00","2022","08","22","23:00"
"-76.60","44.23","KINGSTON A","6104149","2022-08-23 00:00","2022","08","23","00:00"
"-76.60","44.23","KINGSTON A","6104149","2022-08-23 01:00","2022","08","23","01:00"
"-76.60","44.23","KINGSTON A","6104149","2022-08-23 02:00","2022","08","23","02:00"
"-76.60","44.23","KINGSTON A","6104149","2022-08-23 03:00","2022","08","23","03:00"
"-76.60","44.23","KINGSTON A","6104149","2022-08-23 04:00","2022","08","23","04:00"
"-76.60","44.23","KINGSTON A","6104149","2022-08-23 05:00","2022","08","23","05:00","19.9","","19.8","","99","","","","5","","8","","24.1","","99.77","","","","","","Rain"
"-76.60","44.23","KINGSTON A","6104149","2022-08-23 06:00","2022","08","23","06:00","20.0","","19.8","","99","","","","3","","9","","24.1","","99.79","","27","","","","NA"
"-76.60","44.23","KINGSTON A","6104149","2022-08-23 07:00","2022","08","23","07:00","20.3","","20.0","","99","","","","5","","9","","24.1","","99.80","","28","","","","Mostly Cloudy"
"-76.60","44.23","KINGSTON A","6104149","2022-08-23 08:00","2022","08","23","08:00","20.7","","20.0","","96","","","","5","","11","","24.1","","99.80","","28","","","","NA"
"-76.60","44.23","KINGSTON A","6104149","2022-08-23 09:00","2022","08","23","09:00","20.3","","19.7","","96","","","","11","","7","","6.4","","99.81","","28","","","","Rain Showers,Fog"
"-76.60","44.23","KINGSTON A","6104149","2022-08-23 10:00","2022","08","23","10:00","20.7","","19.9","","96","","","","34","","15","","8.1","","99.84","","28","","","","Rain Showers,Fog"
"-76.60","44.23","KINGSTON A","6104149","2022-08-23 11:00","2022","08","23","11:00","20.0","","19.5","","97","","","","35","","15","","8.1","","99.83","","27","","","","Rain Showers,Fog"
"-76.60","44.23","KINGSTON A","6104149","2022-08-23 12:00","2022","08","23","12:00","20.3","","19.6","","96","","","","35","","18","","9.7","","99.84","","28","","","","Rain Showers,Fog"
"-76.60","44.23","KINGSTON A","6104149","2022-08-23 13:00","2022","08","23","13:00","20.8","","19.6","","93","","","","34","","21","","12.9","","99.86","","28","","","","Cloudy"
"-76.60","44.23","KINGSTON A","6104149","2022-08-23 14:00","2022","08","23","14:00","21.5","","20.0","","91","","","","35","","14","","16.1","","99.86","","29","","","","Rain Showers"
"-76.60","44.23","KINGSTON A","6104149","2022-08-23 15:00","2022","08","23","15:00","21.7","","20.0","","90","","","","35","","13","","16.1","","99.85","","29","","","","Rain Showers"
"-76.60","44.23","KINGSTON A","6104149","2022-08-23 16:00","2022","08","23","16:00","23.1","","19.7","","81","","","","35","","14","","24.1","","99.86","","30","","","","Mostly Cloudy"
"-76.60","44.23","KINGSTON A","6104149","2022-08-23 17:00","2022","08","23","17:00","23.0","","19.7","","82","","","","30","","8","","24.1","","99.90","","30","","","","NA"
"-76.60","44.23","KINGSTON A","6104149","2022-08-23 18:00","2022","08","23","18:00","21.8","","18.9","","83","","","","28","","9","","24.1","","99.92","","28","","","","NA"
"-76.60","44.23","KINGSTON A","6104149","2022-08-23 19:00","2022","08","23","19:00","21.0","","18.9","","88","","","","32","","7","","24.1","","99.97","","28","","","","Mostly Cloudy"
"-76.60","44.23","KINGSTON A","6104149","2022-08-23 20:00","2022","08","23","20:00","20.4","","19.1","","92","","","","35","","6","","24.1","","100.05","","27","","","","NA"
"-76.60","44.23","KINGSTON A","6104149","2022-08-23 21:00","2022","08","23","21:00","19.8","","19.0","","95","","","","35","","7","","24.1","","100.10","","","","","","NA"
"-76.60","44.23","KINGSTON A","6104149","2022-08-23 22:00","2022","08","23","22:00","19.6","","18.6","","94","","","","31","","7","","24.1","","100.13","","","","","","Mostly Cloudy"
"-76.60","44.23","KINGSTON A","6104149","2022-08-23 23:00","2022","08","23","23:00"
"-76.60","44.23","KINGSTON A","6104149","2022-08-24 00:00","2022","08","24","00:00"
"-76.60","44.23","KINGSTON A","6104149","2022-08-24 01:00","2022","08","24","01:00"
"-76.60","44.23","KINGSTON A","6104149","2022-08-24 02:00","2022","08","24","02:00"
"-76.60","44.23","KINGSTON A","6104149","2022-08-24 03:00","2022","08","24","03:00"
"-76.60","44.23","KINGSTON A","6104149","2022-08-24 04:00","2022","08","24","04:00"
"-76.60","44.23","KINGSTON A","6104149","2022-08-24 05:00","2022","08","24","05:00","17.9","","17.7","","99","","","","27","","10","","24.1","","100.22","","","","","","NA"
"-76.60","44.23","KINGSTON A","6104149","2022-08-24 06:00","2022","08","24","06:00","18.0","","17.8","","99","","","","24","","8","","24.1","","100.29","","","","","","NA"
"-76.60","44.23","KINGSTON A","6104149","2022-08-24 07:00","2022","08","24","07:00","18.9","","18.1","","95","","","","27","","5","","24.1","","100.35","","","","","","Mainly Clear"
"-76.60","44.23","KINGSTON A","6104149","2022-08-24 08:00","2022","08","24","08:00","20.8","","17.9","","84","","","","27","","9","","24.1","","100.40","","27","","","","NA"
"-76.60","44.23","KINGSTON A","6104149","2022-08-24 09:00","2022","08","24","09:00","22.7","","18.6","","77","","","","24","","7","","24.1","","100.39","","29","","","","NA"
"-76.60","44.23","KINGSTON A","6104149","2022-08-24 10:00","2022","08","24","10:00","23.2","","18.5","","74","","","","21","","14","","24.1","","100.43","","30","","","","Clear"
"-76.60","44.23","KINGSTON A","6104149","2022-08-24 11:00","2022","08","24","11:00","25.3","","18.1","","64","","","","23","","13","","24.1","","100.43","","31","","","","NA"
"-76.60","44.23","KINGSTON A","6104149","2022-08-24 12:00","2022","08","24","12:00","26.3","","19.2","","65","","","","19","","17","","24.1","","100.43","","33","","","","NA"
"-76.60","44.23","KINGSTON A","6104149","2022-08-24 13:00","2022","08","24","13:00","25.4","","19.3","","68","","","","18","","22","","24.1","","100.40","","32","","","","Mainly Clear"
"-76.60","44.23","KINGSTON A","6104149","2022-08-24 14:00","2022","08","24","14:00","27.8","","19.1","","59","","","","19","","20","","24.1","","100.37","","35","","","","NA"
"-76.60","44.23","KINGSTON A","6104149","2022-08-24 15:00","2022","08","24","15:00","27.7","","18.2","","56","","","","23","","26","","24.1","","100.36","","34","","","","NA"
"-76.60","44.23","KINGSTON A","6104149","2022-08-24 16:00","2022","08","24","16:00","27.8","","18.5","","56","","","","23","","16","","24.1","","100.35","","34","","","","Mainly Clear"
"-76.60","44.23","KINGSTON A","6104149","2022-08-24 17:00","2022","08","24","17:00","26.8","","17.4","","56","","","","23","","16","","24.1","","100.35","","32","","","","NA"
"-76.60","44.23","KINGSTON A","6104149","2022-08-24 18:00","2022","08","24","18:00","25.6","","17.4","","60","","","","24","","18","","24.1","","100.36","","31","","","","NA"
"-76.60","44.23","KINGSTON A","6104149","2022-08-24 19:00","2022","08","24","19:00","24.4","","17.3","","64","","","","23","","16","","24.1","","100.39","","30","","","","Mainly Clear"
"-76.60","44.23","KINGSTON A","6104149","2022-08-24 20:00","2022","08","24","20:00","23.4","","17.9","","71","","","","25","","11","","24.1","","100.45","","29","","","","NA"
"-76.60","44.23","KINGSTON A","6104149","2022-08-24 21:00","2022","08","24","21:00","22.6","","17.3","","72","","","","25","","10","","24.1","","100.47","","28","","","","NA"
"-76.60","44.23","KINGSTON A","6104149","2022-08-24 22:00","2022","08","24","22:00","20.9","","17.4","","80","","","","33","","9","","24.1","","100.52","","26","","","","Mainly Clear"
"-76.60","44.23","KINGSTON A","6104149","2022-08-24 23:00","2022","08","24","23:00"
"-76.60","44.23","KINGSTON A","6104149","2022-08-25 00:00","2022","08","25","00:00"
"-76.60","44.23","KINGSTON A","6104149","2022-08-25 01:00","2022","08","25","01:00"
"-76.60","44.23","KINGSTON A","6104149","2022-08-25 02:00","2022","08","25","02:00"
"-76.60","44.23","KINGSTON A","6104149","2022-08-25 03:00","2022","08","25","03:00"
"-76.60","44.23","KINGSTON A","6104149","2022-08-25 04:00","2022","08","25","04:00"
"-76.60","44.23","KINGSTON A","6104149","2022-08-25 05:00","2022","08","25","05:00","17.1","","14.8","","86","","","","36","","10","","24.1","","100.65","","","","","","NA"
"-76.60","44.23","KINGSTON A","6104149","2022-08-25 06:00","2022","08","25","06:00","17.3","","14.8","","86","","","","1","","10","","24.1","","100.69","","","","","","NA"
"-76.60","44.23","KINGSTON A","6104149","2022-08-25 07:00","2022","08","25","07:00","19.0","","15.0","","77","","","","3","","14","","24.1","","100.74","","","","","","Mainly Clear"
"-76.60","44.23","KINGSTON A","6104149","2022-08-25 08:00","2022","08","25","08:00","20.0","","14.9","","72","","","","5","","18","","24.1","","100.77","","","","","","NA"
"-76.60","44.23","KINGSTON A","6104149","2022-08-25 09:00","2022","08","25","09:00","21.5","","15.8","","70","","","","4","","13","","24.1","","100.81","","26","","","","NA"
"-76.60","44.23","KINGSTON A","6104149","2022-08-25 10:00","2022","08","25","10:00","23.1","","16.6","","66","","","","10","","10","","24.1","","100.81","","28","","","","Mostly Cloudy"
"-76.60","44.23","KINGSTON A","6104149","2022-08-25 11:00","2022","08","25","11:00","23.7","","16.8","","65","","","","10","","9","","24.1","","100.82","","29","","","","NA"
"-76.60","44.23","KINGSTON A","6104149","2022-08-25 12:00","2022","08","25","12:00","22.9","","16.9","","69","","","","14","","10","","24.1","","100.79","","28","","","","NA"
"-76.60","44.23","KINGSTON A","6104149","2022-08-25 13:00","2022","08","25","13:00","25.3","","17.3","","61","","","","14","","12","","24.1","","100.77","","31","","","","Mostly Cloudy"
"-76.60","44.23","KINGSTON A","6104149","2022-08-25 14:00","2022","08","25","14:00","24.7","","16.8","","61","","","","15","","14","","24.1","","100.70","","30","","","","NA"
"-76.60","44.23","KINGSTON A","6104149","2022-08-25 15:00","2022","08","25","15:00","25.4","","16.1","","56","","","","8","","10","","24.1","","100.61","","30","","","","NA"
"-76.60","44.23","KINGSTON A","6104149","2022-08-25 16:00","2022","08","25","16:00","24.9","","16.3","","58","","","","13","","13","","24.1","","100.59","","30","","","","Mostly Cloudy"
"-76.60","44.23","KINGSTON A","6104149","2022-08-25 17:00","2022","08","25","17:00","24.9","","15.9","","57","","","","7","","11","","24.1","","100.55","","29","","","","NA"
"-76.60","44.23","KINGSTON A","6104149","2022-08-25 18:00","2022","08","25","18:00","23.1","","15.5","","62","","","","3","","11","","24.1","","100.58","","27","","","","NA"
"-76.60","44.23","KINGSTON A","6104149","2022-08-25 19:00","2022","08","25","19:00","21.9","","15.5","","66","","","","5","","13","","24.1","","100.58","","26","","","","Mostly Cloudy"
"-76.60","44.23","KINGSTON A","6104149","2022-08-25 20:00","2022","08","25","20:00","21.1","","15.3","","69","","","","5","","15","","24.1","","100.59","","25","","","","NA"
"-76.60","44.23","KINGSTON A","6104149","2022-08-25 21:00","2022","08","25","21:00","20.6","","15.3","","71","","","","4","","16","","24.1","","100.59","","25","","","","NA"
"-76.60","44.23","KINGSTON A","6104149","2022-08-25 22:00","2022","08","25","22:00","20.1","","14.4","","69","","","","3","","14","","24.1","","100.61","","","","","","Mostly Cloudy"
"-76.60","44.23","KINGSTON A","6104149","2022-08-25 23:00","2022","08","25","23:00"
"-76.60","44.23","KINGSTON A","6104149","2022-08-26 00:00","2022","08","26","00:00"
"-76.60","44.23","KINGSTON A","6104149","2022-08-26 01:00","2022","08","26","01:00"
"-76.60","44.23","KINGSTON A","6104149","2022-08-26 02:00","2022","08","26","02:00"
"-76.60","44.23","KINGSTON A","6104149","2022-08-26 03:00","2022","08","26","03:00"
"-76.60","44.23","KINGSTON A","6104149","2022-08-26 04:00","2022","08","26","04:00"
"-76.60","44.23","KINGSTON A","6104149","2022-08-26 05:00","2022","08","26","05:00","18.0","","17.2","","95","","","","4","","4","","24.1","","100.14","","","","","","NA"
"-76.60","44.23","KINGSTON A","6104149","2022-08-26 06:00","2022","08","26","06:00","19.1","","18.7","","98","","","","19","","11","","24.1","","100.11","","","","","","NA"
"-76.60","44.23","KINGSTON A","6104149","2022-08-26 07:00","2022","08","26","07:00","21.9","","19.3","","85","","","","18","","18","","24.1","","100.11","","29","","","","Mostly Cloudy"
"-76.60","44.23","KINGSTON A","6104149","2022-08-26 08:00","2022","08","26","08:00","21.7","","19.6","","87","","","","19","","17","","24.1","","100.14","","29","","","","NA"
"-76.60","44.23","KINGSTON A","6104149","2022-08-26 09:00","2022","08","26","09:00","22.8","","19.8","","83","","","","19","","16","","24.1","","100.10","","30","","","","NA"
"-76.60","44.23","KINGSTON A","6104149","2022-08-26 10:00","2022","08","26","10:00","23.6","","20.6","","83","","","","19","","15","","24.1","","100.07","","32","","","","Mostly Cloudy"
"-76.60","44.23","KINGSTON A","6104149","2022-08-26 11:00","2022","08","26","11:00","25.7","","20.4","","72","","","","24","","15","","24.1","","100.03","","34","","","","NA"
"-76.60","44.23","KINGSTON A","6104149","2022-08-26 12:00","2022","08","26","12:00","25.7","","19.8","","70","","","","28","","16","","24.1","","100.03","","33","","","","NA"
"-76.60","44.23","KINGSTON A","6104149","2022-08-26 13:00","2022","08","26","13:00","24.9","","19.1","","70","","","","21","","16","","24.1","","99.98","","32","","","","Mostly Cloudy"
"-76.60","44.23","KINGSTON A","6104149","2022-08-26 14:00","2022","08","26","14:00","21.4","","19.7","","90","","","","14","","10","","24.1","","100.01","","29","","","","Thunderstorms,Rain Showers"
"-76.60","44.23","KINGSTON A","6104149","2022-08-26 15:00","2022","08","26","15:00","23.0","","19.7","","81","","","","17","","7","","24.1","","100.00","","30","","","","NA"
"-76.60","44.23","KINGSTON A","6104149","2022-08-26 16:00","2022","08","26","16:00","22.9","","19.9","","83","","","","16","","9","","24.1","","100.03","","30","","","","Mostly Cloudy"
"-76.60","44.23","KINGSTON A","6104149","2022-08-26 17:00","2022","08","26","17:00","22.6","","19.9","","84","","","","15","","6","","24.1","","100.08","","30","","","","NA"
"-76.60","44.23","KINGSTON A","6104149","2022-08-26 18:00","2022","08","26","18:00","22.6","","18.6","","78","","","","3","","12","","24.1","","100.13","","29","","","","NA"
"-76.60","44.23","KINGSTON A","6104149","2022-08-26 19:00","2022","08","26","19:00","21.3","","17.1","","77","","","","2","","12","","24.1","","100.22","","27","","","","Mostly Cloudy"
"-76.60","44.23","KINGSTON A","6104149","2022-08-26 20:00","2022","08","26","20:00","21.1","","16.9","","77","","","","4","","8","","24.1","","100.34","","26","","","","NA"
"-76.60","44.23","KINGSTON A","6104149","2022-08-26 21:00","2022","08","26","21:00","20.5","","15.9","","75","","","","2","","12","","24.1","","100.40","","25","","","","NA"
"-76.60","44.23","KINGSTON A","6104149","2022-08-26 22:00","2022","08","26","22:00","19.5","","15.5","","77","","","","36","","17","","24.1","","100.46","","","","","","Mostly Cloudy"
"-76.60","44.23","KINGSTON A","6104149","2022-08-26 23:00","2022","08","26","23:00"
"-76.60","44.23","KINGSTON A","6104149","2022-08-27 00:00","2022","08","27","00:00"
"-76.60","44.23","KINGSTON A","6104149","2022-08-27 01:00","2022","08","27","01:00"
"-76.60","44.23","KINGSTON A","6104149","2022-08-27 02:00","2022","08","27","02:00"
"-76.60","44.23","KINGSTON A","6104149","2022-08-27 03:00","2022","08","27","03:00"
"-76.60","44.23","KINGSTON A","6104149","2022-08-27 04:00","2022","08","27","04:00"
"-76.60","44.23","KINGSTON A","6104149","2022-08-27 05:00","2022","08","27","05:00","12.8","","12.1","","95","","","","35","","7","","24.1","","100.72","","","","","","NA"
"-76.60","44.23","KINGSTON A","6104149","2022-08-27 06:00","2022","08","27","06:00","12.6","","11.9","","96","","","","35","","12","","24.1","","100.77","","","","","","NA"
"-76.60","44.23","KINGSTON A","6104149","2022-08-27 07:00","2022","08","27","07:00","14.3","","12.8","","90","","","","1","","17","","24.1","","100.87","","","","","","Mostly Cloudy"
"-76.60","44.23","KINGSTON A","6104149","2022-08-27 08:00","2022","08","27","08:00","16.1","","13.5","","84","","","","4","","12","","24.1","","100.91","","","","","","NA"
"-76.60","44.23","KINGSTON A","6104149","2022-08-27 09:00","2022","08","27","09:00","17.8","","13.3","","74","","","","4","","11","","24.1","","100.94","","","","","","NA"
"-76.60","44.23","KINGSTON A","6104149","2022-08-27 10:00","2022","08","27","10:00","18.0","","13.9","","77","","","","6","","8","","24.1","","100.96","","","","","","Mainly Clear"
"-76.60","44.23","KINGSTON A","6104149","2022-08-27 11:00","2022","08","27","11:00","19.6","","14.2","","71","","","","9","","14","","24.1","","100.97","","","","","","NA"
"-76.60","44.23","KINGSTON A","6104149","2022-08-27 12:00","2022","08","27","12:00","19.4","","15.3","","77","","","","14","","20","","24.1","","100.93","","","","","","NA"
"-76.60","44.23","KINGSTON A","6104149","2022-08-27 13:00","2022","08","27","13:00","20.3","","15.3","","73","","","","14","","16","","24.1","","100.92","","","","","","Mainly Clear"
"-76.60","44.23","KINGSTON A","6104149","2022-08-27 14:00","2022","08","27","14:00","21.0","","14.9","","68","","","","16","","16","","24.1","","100.90","","25","","","","NA"
"-76.60","44.23","KINGSTON A","6104149","2022-08-27 15:00","2022","08","27","15:00","21.5","","14.4","","64","","","","16","","10","","24.1","","100.90","","25","","","","NA"
"-76.60","44.23","KINGSTON A","6104149","2022-08-27 16:00","2022","08","27","16:00","22.1","","13.2","","57","","","","15","","11","","24.1","","100.87","","25","","","","Clear"
"-76.60","44.23","KINGSTON A","6104149","2022-08-27 17:00","2022","08","27","17:00","21.4","","14.1","","62","","","","21","","9","","24.1","","100.87","","25","","","","NA"
"-76.60","44.23","KINGSTON A","6104149","2022-08-27 18:00","2022","08","27","18:00","21.0","","14.7","","67","","","","21","","7","","24.1","","100.85","","25","","","","NA"
"-76.60","44.23","KINGSTON A","6104149","2022-08-27 19:00","2022","08","27","19:00","18.2","","14.2","","77","","","","34","","4","","24.1","","100.86","","","","","","Clear"
"-76.60","44.23","KINGSTON A","6104149","2022-08-27 20:00","2022","08","27","20:00","17.5","","14.2","","81","","","","35","","4","","24.1","","100.91","","","","","","NA"
"-76.60","44.23","KINGSTON A","6104149","2022-08-27 21:00","2022","08","27","21:00","16.2","","14.5","","90","","","","34","","8","","24.1","","100.95","","","","","","NA"
"-76.60","44.23","KINGSTON A","6104149","2022-08-27 22:00","2022","08","27","22:00","15.4","","13.8","","90","","","","1","","4","","24.1","","100.95","","","","","","Clear"
"-76.60","44.23","KINGSTON A","6104149","2022-08-27 23:00","2022","08","27","23:00"
"-76.60","44.23","KINGSTON A","6104149","2022-08-28 00:00","2022","08","28","00:00"
"-76.60","44.23","KINGSTON A","6104149","2022-08-28 01:00","2022","08","28","01:00"
"-76.60","44.23","KINGSTON A","6104149","2022-08-28 02:00","2022","08","28","02:00"
"-76.60","44.23","KINGSTON A","6104149","2022-08-28 03:00","2022","08","28","03:00"
"-76.60","44.23","KINGSTON A","6104149","2022-08-28 04:00","2022","08","28","04:00"
"-76.60","44.23","KINGSTON A","6104149","2022-08-28 05:00","2022","08","28","05:00","12.1","","11.8","","98","","","","36","","8","","24.1","","100.97","","","","","","NA"
"-76.60","44.23","KINGSTON A","6104149","2022-08-28 06:00","2022","08","28","06:00","12.8","","12.4","","98","","","","2","","7","","24.1","","101.01","","","","","","NA"
"-76.60","44.23","KINGSTON A","6104149","2022-08-28 07:00","2022","08","28","07:00","16.6","","14.7","","88","","","","4","","7","","24.1","","101.03","","","","","","Mainly Clear"
"-76.60","44.23","KINGSTON A","6104149","2022-08-28 08:00","2022","08","28","08:00","19.4","","16.3","","82","","","","9","","6","","24.1","","100.99","","","","","","NA"
"-76.60","44.23","KINGSTON A","6104149","2022-08-28 09:00","2022","08","28","09:00","21.1","","17.7","","81","","","","14","","12","","24.1","","100.98","","27","","","","NA"
"-76.60","44.23","KINGSTON A","6104149","2022-08-28 10:00","2022","08","28","10:00","21.8","","17.3","","76","","","","18","","8","","24.1","","100.97","","27","","","","Mainly Clear"
"-76.60","44.23","KINGSTON A","6104149","2022-08-28 11:00","2022","08","28","11:00","22.7","","17.5","","72","","","","14","","12","","24.1","","100.94","","28","","","","NA"
"-76.60","44.23","KINGSTON A","6104149","2022-08-28 12:00","2022","08","28","12:00","22.8","","18.1","","74","","","","18","","9","","24.1","","100.90","","29","","","","NA"
"-76.60","44.23","KINGSTON A","6104149","2022-08-28 13:00","2022","08","28","13:00","23.8","","18.5","","72","","","","15","","10","","24.1","","100.86","","30","","","","Mostly Cloudy"
"-76.60","44.23","KINGSTON A","6104149","2022-08-28 14:00","2022","08","28","14:00","24.0","","18.6","","71","","","","16","","8","","24.1","","100.82","","30","","","","NA"
"-76.60","44.23","KINGSTON A","6104149","2022-08-28 15:00","2022","08","28","15:00","24.8","","18.0","","65","","","","16","","8","","24.1","","100.74","","31","","","","NA"
"-76.60","44.23","KINGSTON A","6104149","2022-08-28 16:00","2022","08","28","16:00","25.9","","18.1","","62","","","","14","","9","","24.1","","100.69","","32","","","","Mostly Cloudy"
"-76.60","44.23","KINGSTON A","6104149","2022-08-28 17:00","2022","08","28","17:00","26.1","","17.3","","58","","","","14","","10","","24.1","","100.62","","32","","","","NA"
"-76.60","44.23","KINGSTON A","6104149","2022-08-28 18:00","2022","08","28","18:00","25.2","","17.5","","62","","","","12","","4","","24.1","","100.56","","31","","","","NA"
"-76.60","44.23","KINGSTON A","6104149","2022-08-28 19:00","2022","08","28","19:00","23.5","","16.8","","66","","","","5","","4","","24.1","","100.51","","29","","","","Mostly Cloudy"
"-76.60","44.23","KINGSTON A","6104149","2022-08-28 20:00","2022","08","28","20:00","22.6","","17.9","","74","","","","3","","4","","24.1","","100.51","","29","","","","NA"
"-76.60","44.23","KINGSTON A","6104149","2022-08-28 21:00","2022","08","28","21:00","20.8","","18.1","","84","","","","36","","6","","24.1","","100.53","","27","","","","NA"
"-76.60","44.23","KINGSTON A","6104149","2022-08-28 22:00","2022","08","28","22:00","21.1","","18.0","","82","","","","2","","4","","24.1","","100.50","","27","","","","Mainly Clear"
"-76.60","44.23","KINGSTON A","6104149","2022-08-28 23:00","2022","08","28","23:00"
"-76.60","44.23","KINGSTON A","6104149","2022-08-29 00:00","2022","08","29","00:00"
"-76.60","44.23","KINGSTON A","6104149","2022-08-29 01:00","2022","08","29","01:00"
"-76.60","44.23","KINGSTON A","6104149","2022-08-29 02:00","2022","08","29","02:00"
"-76.60","44.23","KINGSTON A","6104149","2022-08-29 03:00","2022","08","29","03:00"
"-76.60","44.23","KINGSTON A","6104149","2022-08-29 04:00","2022","08","29","04:00"
"-76.60","44.23","KINGSTON A","6104149","2022-08-29 05:00","2022","08","29","05:00","23.1","","21.4","","90","","","","19","","16","","24.1","","100.46","","32","","","","NA"
"-76.60","44.23","KINGSTON A","6104149","2022-08-29 06:00","2022","08","29","06:00","23.5","","21.6","","89","","","","19","","18","","19.3","","100.50","","32","","","","NA"
"-76.60","44.23","KINGSTON A","6104149","2022-08-29 07:00","2022","08","29","07:00","24.2","","21.8","","86","","","","19","","25","","19.3","","100.51","","33","","","","Mostly Cloudy"
"-76.60","44.23","KINGSTON A","6104149","2022-08-29 08:00","2022","08","29","08:00","24.6","","21.9","","85","","","","18","","25","","19.3","","100.49","","34","","","","NA"
"-76.60","44.23","KINGSTON A","6104149","2022-08-29 09:00","2022","08","29","09:00","25.4","","22.2","","82","","","","17","","22","","24.1","","100.44","","35","","","","NA"
"-76.60","44.23","KINGSTON A","6104149","2022-08-29 10:00","2022","08","29","10:00","24.0","","22.2","","90","","","","16","","19","","16.1","","100.41","","34","","","","Rain Showers"
"-76.60","44.23","KINGSTON A","6104149","2022-08-29 11:00","2022","08","29","11:00","25.5","","22.4","","82","","","","18","","15","","24.1","","100.36","","35","","","","NA"
"-76.60","44.23","KINGSTON A","6104149","2022-08-29 12:00","2022","08","29","12:00","27.0","","22.7","","77","","","","19","","22","","24.1","","100.31","","37","","","","NA"
"-76.60","44.23","KINGSTON A","6104149","2022-08-29 13:00","2022","08","29","13:00","27.5","","23.5","","78","","","","19","","19","","24.1","","100.23","","38","","","","Mostly Cloudy"
"-76.60","44.23","KINGSTON A","6104149","2022-08-29 14:00","2022","08","29","14:00","27.8","","23.6","","78","","","","17","","19","","24.1","","100.11","","39","","","","NA"
"-76.60","44.23","KINGSTON A","6104149","2022-08-29 15:00","2022","08","29","15:00","27.4","","23.4","","78","","","","18","","17","","24.1","","100.01","","38","","","","NA"
"-76.60","44.23","KINGSTON A","6104149","2022-08-29 16:00","2022","08","29","16:00","26.7","","24.0","","85","","","","25","","10","","24.1","","99.91","","38","","","","Thunderstorms"
"-76.60","44.23","KINGSTON A","6104149","2022-08-29 17:00","2022","08","29","17:00","22.9","","21.3","","91","","","","28","","26","","3.2","","99.97","","32","","","","Thunderstorms,Moderate Rain Showers,Fog"
"-76.60","44.23","KINGSTON A","6104149","2022-08-29 18:00","2022","08","29","18:00","23.8","","22.7","","93","","","","21","","13","","16.1","","99.98","","34","","","","Rain Showers"
"-76.60","44.23","KINGSTON A","6104149","2022-08-29 19:00","2022","08","29","19:00","23.9","","22.4","","92","","","","22","","15","","24.1","","99.95","","34","","","","Mostly Cloudy"
"-76.60","44.23","KINGSTON A","6104149","2022-08-29 20:00","2022","08","29","20:00","24.3","","22.1","","88","","","","23","","18","","24.1","","99.98","","34","","","","NA"
"-76.60","44.23","KINGSTON A","6104149","2022-08-29 21:00","2022","08","29","21:00","24.0","","21.5","","86","","","","23","","23","","24.1","","99.97","","33","","","","NA"
"-76.60","44.23","KINGSTON A","6104149","2022-08-29 22:00","2022","08","29","22:00","23.8","","21.5","","87","","","","21","","15","","24.1","","100.01","","33","","","","Mainly Clear"
"-76.60","44.23","KINGSTON A","6104149","2022-08-29 23:00","2022","08","29","23:00"
"-76.60","44.23","KINGSTON A","6104149","2022-08-30 00:00","2022","08","30","00:00"
"-76.60","44.23","KINGSTON A","6104149","2022-08-30 01:00","2022","08","30","01:00"
"-76.60","44.23","KINGSTON A","6104149","2022-08-30 02:00","2022","08","30","02:00"
"-76.60","44.23","KINGSTON A","6104149","2022-08-30 03:00","2022","08","30","03:00"
"-76.60","44.23","KINGSTON A","6104149","2022-08-30 04:00","2022","08","30","04:00"
"-76.60","44.23","KINGSTON A","6104149","2022-08-30 05:00","2022","08","30","05:00","23.5","","21.2","","87","","","","23","","21","","24.1","","99.81","","32","","","","NA"
"-76.60","44.23","KINGSTON A","6104149","2022-08-30 06:00","2022","08","30","06:00","23.3","","21.2","","88","","","","23","","19","","24.1","","99.81","","32","","","","NA"
"-76.60","44.23","KINGSTON A","6104149","2022-08-30 07:00","2022","08","30","07:00","23.9","","21.4","","86","","","","24","","20","","24.1","","99.82","","33","","","","Mostly Cloudy"
"-76.60","44.23","KINGSTON A","6104149","2022-08-30 08:00","2022","08","30","08:00","24.1","","21.2","","84","","","","21","","17","","24.1","","99.80","","33","","","","NA"
"-76.60","44.23","KINGSTON A","6104149","2022-08-30 09:00","2022","08","30","09:00","24.2","","20.9","","81","","","","22","","24","","24.1","","99.82","","33","","","","NA"
"-76.60","44.23","KINGSTON A","6104149","2022-08-30 10:00","2022","08","30","10:00","23.9","","20.6","","82","","","","22","","24","","24.1","","99.81","","32","","","","Rain Showers"
"-76.60","44.23","KINGSTON A","6104149","2022-08-30 11:00","2022","08","30","11:00","24.1","","21.0","","83","","","","22","","20","","24.1","","99.77","","33","","","","Rain Showers"
"-76.60","44.23","KINGSTON A","6104149","2022-08-30 12:00","2022","08","30","12:00","23.7","","21.0","","85","","","","22","","20","","24.1","","99.72","","32","","","","Rain Showers"
"-76.60","44.23","KINGSTON A","6104149","2022-08-30 13:00","2022","08","30","13:00","22.6","","20.6","","88","","","","24","","22","","12.9","","99.68","","31","","","","Rain Showers"
"-76.60","44.23","KINGSTON A","6104149","2022-08-30 14:00","2022","08","30","14:00","20.0","","18.4","","90","","","","27","","16","","8.1","","99.70","","26","","","","Rain Showers,Fog"
"-76.60","44.23","KINGSTON A","6104149","2022-08-30 15:00","2022","08","30","15:00","19.2","","18.2","","94","","","","30","","8","","6.4","","99.65","","","","","","Rain Showers,Fog"
"-76.60","44.23","KINGSTON A","6104149","2022-08-30 16:00","2022","08","30","16:00","20.0","","19.4","","96","","","","27","","6","","9.7","","99.56","","27","","","","Rain Showers,Fog"
"-76.60","44.23","KINGSTON A","6104149","2022-08-30 17:00","2022","08","30","17:00","20.3","","19.6","","96","","","","21","","14","","12.9","","99.52","","28","","","","Rain Showers"
"-76.60","44.23","KINGSTON A","6104149","2022-08-30 18:00","2022","08","30","18:00","20.7","","19.7","","94","","","","23","","16","","16.1","","99.51","","28","","","","Rain Showers"
"-76.60","44.23","KINGSTON A","6104149","2022-08-30 19:00","2022","08","30","19:00","20.6","","19.2","","92","","","","20","","11","","24.1","","99.47","","28","","","","Mostly Cloudy"
"-76.60","44.23","KINGSTON A","6104149","2022-08-30 20:00","2022","08","30","20:00","21.1","","19.7","","92","","","","22","","10","","24.1","","99.57","","28","","","","NA"
"-76.60","44.23","KINGSTON A","6104149","2022-08-30 21:00","2022","08","30","21:00","21.2","","19.9","","92","","","","22","","13","","24.1","","99.54","","29","","","","NA"
"-76.60","44.23","KINGSTON A","6104149","2022-08-30 22:00","2022","08","30","22:00","19.4","","17.7","","90","","","","24","","25","","12.9","","99.55","","","","","","Thunderstorms,Rain Showers"
"-76.60","44.23","KINGSTON A","6104149","2022-08-30 23:00","2022","08","30","23:00"
"-76.60","44.23","KINGSTON A","6104149","2022-08-31 00:00","2022","08","31","00:00"
"-76.60","44.23","KINGSTON A","6104149","2022-08-31 01:00","2022","08","31","01:00"
"-76.60","44.23","KINGSTON A","6104149","2022-08-31 02:00","2022","08","31","02:00"
"-76.60","44.23","KINGSTON A","6104149","2022-08-31 03:00","2022","08","31","03:00"
"-76.60","44.23","KINGSTON A","6104149","2022-08-31 04:00","2022","08","31","04:00"
"-76.60","44.23","KINGSTON A","6104149","2022-08-31 05:00","2022","08","31","05:00","16.5","","12.9","","79","","","","27","","17","","24.1","","99.66","","","","","","NA"
"-76.60","44.23","KINGSTON A","6104149","2022-08-31 06:00","2022","08","31","06:00","15.7","","12.6","","82","","","","26","","16","","24.1","","99.73","","","","","","NA"
"-76.60","44.23","KINGSTON A","6104149","2022-08-31 07:00","2022","08","31","07:00","15.7","","12.4","","81","","","","28","","18","","24.1","","99.79","","","","","","Mainly Clear"
"-76.60","44.23","KINGSTON A","6104149","2022-08-31 08:00","2022","08","31","08:00","16.8","","12.8","","77","","","","30","","15","","24.1","","99.80","","","","","","NA"
"-76.60","44.23","KINGSTON A","6104149","2022-08-31 09:00","2022","08","31","09:00","19.0","","13.5","","70","","","","25","","13","","24.1","","99.80","","","","","","NA"
"-76.60","44.23","KINGSTON A","6104149","2022-08-31 10:00","2022","08","31","10:00","20.7","","12.7","","60","","","","23","","18","","24.1","","99.79","","","","","","Mainly Clear"
"-76.60","44.23","KINGSTON A","6104149","2022-08-31 11:00","2022","08","31","11:00","22.1","","15.2","","64","","","","23","","18","","24.1","","99.73","","26","","","","NA"
"-76.60","44.23","KINGSTON A","6104149","2022-08-31 12:00","2022","08","31","12:00","23.9","","15.7","","60","","","","23","","25","","24.1","","99.61","","28","","","","NA"
"-76.60","44.23","KINGSTON A","6104149","2022-08-31 13:00","2022","08","31","13:00","24.3","","15.9","","59","","","","22","","30","","24.1","","99.53","","29","","","","Mostly Cloudy"
"-76.60","44.23","KINGSTON A","6104149","2022-08-31 14:00","2022","08","31","14:00","19.6","","16.4","","81","","","","24","","35","","6.4","","99.51","","","","","","Thunderstorms,Rain Showers,Fog"
"-76.60","44.23","KINGSTON A","6104149","2022-08-31 15:00","2022","08","31","15:00","22.4","","14.7","","61","","","","24","","36","","24.1","","99.49","","26","","","","NA"
"-76.60","44.23","KINGSTON A","6104149","2022-08-31 16:00","2022","08","31","16:00","22.4","","14.8","","62","","","","23","","23","","24.1","","99.49","","26","","","","Mainly Clear"
"-76.60","44.23","KINGSTON A","6104149","2022-08-31 17:00","2022","08","31","17:00","23.3","","16.3","","65","","","","23","","28","","24.1","","99.45","","28","","","","NA"
"-76.60","44.23","KINGSTON A","6104149","2022-08-31 18:00","2022","08","31","18:00","22.5","","14.8","","61","","","","24","","24","","24.1","","99.48","","26","","","","NA"
"-76.60","44.23","KINGSTON A","6104149","2022-08-31 19:00","2022","08","31","19:00","20.5","","15.9","","75","","","","24","","28","","24.1","","99.57","","25","","","","Rain Showers"
"-76.60","44.23","KINGSTON A","6104149","2022-08-31 20:00","2022","08","31","20:00","19.2","","14.4","","73","","","","26","","9","","24.1","","99.57","","","","","","NA"
"-76.60","44.23","KINGSTON A","6104149","2022-08-31 21:00","2022","08","31","21:00","18.3","","14.7","","80","","","","29","","10","","24.1","","99.59","","","","","","NA"
"-76.60","44.23","KINGSTON A","6104149","2022-08-31 22:00","2022","08","31","22:00","18.1","","11.9","","67","","","","28","","16","","24.1","","99.59","","","","","","Mainly Clear"
"-76.60","44.23","KINGSTON A","6104149","2022-08-31 23:00","2022","08","31","23:00"
