"Longitude (x)","Latitude (y)","Station Name","Climate ID","Date/Time (LST)","Year","Month","Day","Time (LST)","Temp (°C)","Temp Flag","Dew Point Temp (°C)","Dew Point Temp Flag","Rel Hum (%)","Rel Hum Flag","Precip. Amount (mm)","Precip. Amount Flag","Wind Dir (10s deg)","Wind Dir Flag","Wind Spd (km/h)","Wind Spd Flag","Visibility (km)","Visibility Flag","Stn Press (kPa)","Stn Press Flag","Hmdx","Hmdx Flag","Wind Chill","Wind Chill Flag","Weather"
"-63.51","44.88","HALIFAX STANFIELD INT'L A","8202251","2020-03-01 00:00","2020","03","01","00:00","-2.0","","-2.0","","100","","","","1","","4","","4.8","","98.75","","","","-3","","Snow"
"-63.51","44.88","HALIFAX STANFIELD INT'L A","8202251","2020-03-01 01:00","2020","03","01","01:00","-2.2","","-2.2","","100","","","","35","","9","","9.7","","98.70","","","","-6","","Snow"
"-63.51","44.88","HALIFAX STANFIELD INT'L A","8202251","2020-03-01 02:00","2020","03","01","02:00","-3.8","","-3.8","","100","","","","32","","9","","0.8","","98.65","","","","-8","","Snow,Freezing Fog"
"-63.51","44.88","HALIFAX STANFIELD INT'L A","8202251","2020-03-01 03:00","2020","03","01","03:00","-2.5","","-2.5","","100","","","","32","","12","","9.7","","98.59","","","","-7","","Fog"
"-63.51","44.88","HALIFAX STANFIELD INT'L A","8202251","2020-03-01 04:00","2020","03","01","04:00","-2.6","","-2.6","","100","","","","33","","10","","19.3","","98.58","","","","-6","","NA"
"-63.51","44.88","HALIFAX STANFIELD INT'L A","8202251","2020-03-01 05:00","2020","03","01","05:00","-2.5","","-2.5","","100","","","","31","","11","","19.3","","98.56","","","","-7","","Cloudy"
"-63.51","44.88","HALIFAX STANFIELD INT'L A","8202251","2020-03-01 06:00","2020","03","01","06:00","-3.1","","-3.1","","100","","","","28","","16","","24.1","","98.59","","","","-8","","NA"
"-63.51","44.88","HALIFAX STANFIELD INT'L A","8202251","2020-03-01 07:00","2020","03","01","07:00","-2.9","","-2.9","","100","","","","31","","16","","24.1","","98.60","","","","-8","","NA"
"-63.51","44.88","HALIFAX STANFIELD INT'L A","8202251","2020-03-01 08:00","2020","03","01","08:00","-2.9","","-3.2","","98","","","","32","","21","","24.1","","98.64","","","","-9","","Cloudy"
"-63.51","44.88","HALIFAX STANFIELD INT'L A","8202251","2020-03-01 09:00","2020","03","01","09:00","-2.7","","-3.4","","95","","","","31","","22","","24.1","","98.65","","","","-9","","NA"
"-63.51","44.88","HALIFAX STANFIELD INT'L A","8202251","2020-03-01 10:00","2020","03","01","10:00","-2.4","","-3.4","","93","","","","33","","22","","24.1","","98.66","","","","-9","","NA"
"-63.51","44.88","HALIFAX STANFIELD INT'L A","8202251","2020-03-01 11:00","2020","03","01","11:00","-1.9","","-3.4","","90","","","","31","","27","","24.1","","98.67","","","","-9","","Mostly Cloudy"
"-63.51","44.88","HALIFAX STANFIELD INT'L A","8202251","2020-03-01 12:00","2020","03","01","12:00","-1.7","","-3.3","","89","","","","32","","26","","19.3","","98.65","","","","-8","","Snow"
"-63.51","44.88","HALIFAX STANFIELD INT'L A","8202251","2020-03-01 13:00","2020","03","01","13:00","-1.6","","-3.4","","87","","","","32","","24","","19.3","","98.61","","","","-8","","Snow"
"-63.51","44.88","HALIFAX STANFIELD INT'L A","8202251","2020-03-01 14:00","2020","03","01","14:00","-1.6","","-4.3","","82","","","","32","","27","","24.1","","98.57","","","","-8","","Cloudy"
"-63.51","44.88","HALIFAX STANFIELD INT'L A","8202251","2020-03-01 15:00","2020","03","01","15:00","-1.4","","-4.2","","81","","","","31","","28","","24.1","","98.60","","","","-8","","NA"
"-63.51","44.88","HALIFAX STANFIELD INT'L A","8202251","2020-03-01 16:00","2020","03","01","16:00","-1.8","","-3.8","","86","","","","31","","31","","19.3","","98.65","","","","-9","","Snow"
"-63.51","44.88","HALIFAX STANFIELD INT'L A","8202251","2020-03-01 17:00","2020","03","01","17:00","-2.1","","-3.8","","88","","","","30","","26","","6.4","","98.69","","","","-9","","Snow"
"-63.51","44.88","HALIFAX STANFIELD INT'L A","8202251","2020-03-01 18:00","2020","03","01","18:00","-2.3","","-3.4","","92","","","","31","","24","","19.3","","98.76","","","","-9","","Snow"
"-63.51","44.88","HALIFAX STANFIELD INT'L A","8202251","2020-03-01 19:00","2020","03","01","19:00","-2.4","","-3.4","","93","","","","32","","19","","16.1","","98.85","","","","-8","","Snow"
"-63.51","44.88","HALIFAX STANFIELD INT'L A","8202251","2020-03-01 20:00","2020","03","01","20:00","-2.9","","-4.0","","92","","","","31","","22","","19.3","","98.94","","","","-9","","Snow"
"-63.51","44.88","HALIFAX STANFIELD INT'L A","8202251","2020-03-01 21:00","2020","03","01","21:00","-3.3","","-3.7","","97","","","","32","","20","","6.4","","99.01","","","","-9","","Snow"
"-63.51","44.88","HALIFAX STANFIELD INT'L A","8202251","2020-03-01 22:00","2020","03","01","22:00","-3.5","","-3.6","","99","","","","32","","18","","6.4","","99.12","","","","-9","","Snow"
"-63.51","44.88","HALIFAX STANFIELD INT'L A","8202251","2020-03-01 23:00","2020","03","01","23:00","-3.5","","-3.5","","100","","","","35","","14","","6.4","","99.19","","","","-9","","Snow"
"-63.51","44.88","HALIFAX STANFIELD INT'L A","8202251","2020-03-02 00:00","2020","03","02","00:00","-3.2","","-3.2","","100","","","","36","","13","","12.9","","99.29","","","","-8","","Snow"
"-63.51","44.88","HALIFAX STANFIELD INT'L A","8202251","2020-03-02 01:00","2020","03","02","01:00","-3.1","","-3.1","","100","","","","1","","15","","6.4","","99.41","","","","-8","","Snow"
"-63.51","44.88","HALIFAX STANFIELD INT'L A","8202251","2020-03-02 02:00","2020","03","02","02:00","-3.5","","-3.5","","100","","","","1","","14","","19.3","","99.49","","","","-9","","Snow"
"-63.51","44.88","HALIFAX STANFIELD INT'L A","8202251","2020-03-02 03:00","2020","03","02","03:00","-3.3","","-4.1","","94","","","","35","","16","","24.1","","99.58","","","","-9","","NA"
"-63.51","44.88","HALIFAX STANFIELD INT'L A","8202251","2020-03-02 04:00","2020","03","02","04:00","-3.3","","-4.1","","94","","","","35","","17","","24.1","","99.65","","","","-9","","NA"
"-63.51","44.88","HALIFAX STANFIELD INT'L A","8202251","2020-03-02 05:00","2020","03","02","05:00","-3.2","","-4.5","","91","","","","35","","22","","19.3","","99.76","","","","-10","","Snow"
"-63.51","44.88","HALIFAX STANFIELD INT'L A","8202251","2020-03-02 06:00","2020","03","02","06:00","-3.5","","-5.1","","89","","","","35","","22","","24.1","","99.88","","","","-10","","Snow"
"-63.51","44.88","HALIFAX STANFIELD INT'L A","8202251","2020-03-02 07:00","2020","03","02","07:00","-3.8","","-5.3","","89","","","","34","","22","","24.1","","99.95","","","","-10","","NA"
"-63.51","44.88","HALIFAX STANFIELD INT'L A","8202251","2020-03-02 08:00","2020","03","02","08:00","-4.4","","-6.4","","86","","","","35","","19","","24.1","","100.04","","","","-11","","Mainly Clear"
"-63.51","44.88","HALIFAX STANFIELD INT'L A","8202251","2020-03-02 09:00","2020","03","02","09:00","-3.7","","-6.3","","82","","","","32","","26","","24.1","","100.11","","","","-11","","NA"
"-63.51","44.88","HALIFAX STANFIELD INT'L A","8202251","2020-03-02 10:00","2020","03","02","10:00","-2.7","","-6.8","","73","","","","32","","17","","24.1","","100.17","","","","-8","","NA"
"-63.51","44.88","HALIFAX STANFIELD INT'L A","8202251","2020-03-02 11:00","2020","03","02","11:00","-1.7","","-7.1","","67","","","","32","","12","","24.1","","100.17","","","","-6","","Mainly Clear"
"-63.51","44.88","HALIFAX STANFIELD INT'L A","8202251","2020-03-02 12:00","2020","03","02","12:00","-0.6","","-7.3","","60","","","","30","","4","","24.1","","100.16","","","","-2","","NA"
"-63.51","44.88","HALIFAX STANFIELD INT'L A","8202251","2020-03-02 13:00","2020","03","02","13:00","0.3","","-7.9","","54","","","","10","","3","","24.1","","100.12","","","","","","NA"
"-63.51","44.88","HALIFAX STANFIELD INT'L A","8202251","2020-03-02 14:00","2020","03","02","14:00","2.0","","-7.8","","48","","","","22","","21","","24.1","","100.06","","","","","","Mainly Clear"
"-63.51","44.88","HALIFAX STANFIELD INT'L A","8202251","2020-03-02 15:00","2020","03","02","15:00","2.2","","-6.8","","52","","","","21","","17","","24.1","","100.04","","","","","","NA"
"-63.51","44.88","HALIFAX STANFIELD INT'L A","8202251","2020-03-02 16:00","2020","03","02","16:00","2.0","","-7.9","","48","","","","22","","23","","24.1","","100.03","","","","","","NA"
"-63.51","44.88","HALIFAX STANFIELD INT'L A","8202251","2020-03-02 17:00","2020","03","02","17:00","0.6","","-5.7","","63","","","","20","","21","","24.1","","100.06","","","","","","Mostly Cloudy"
"-63.51","44.88","HALIFAX STANFIELD INT'L A","8202251","2020-03-02 18:00","2020","03","02","18:00","-1.1","","-4.0","","81","","","","19","","17","","24.1","","100.06","","","","-6","","NA"
"-63.51","44.88","HALIFAX STANFIELD INT'L A","8202251","2020-03-02 19:00","2020","03","02","19:00","-1.2","","-3.8","","83","","","","18","","23","","24.1","","100.01","","","","-7","","NA"
"-63.51","44.88","HALIFAX STANFIELD INT'L A","8202251","2020-03-02 20:00","2020","03","02","20:00","-1.2","","-3.4","","85","","","","19","","21","","24.1","","100.00","","","","-7","","Cloudy"
"-63.51","44.88","HALIFAX STANFIELD INT'L A","8202251","2020-03-02 21:00","2020","03","02","21:00","-1.1","","-3.6","","83","","","","19","","20","","24.1","","100.01","","","","-7","","Snow"
"-63.51","44.88","HALIFAX STANFIELD INT'L A","8202251","2020-03-02 22:00","2020","03","02","22:00","-1.0","","-3.5","","83","","","","18","","23","","24.1","","99.93","","","","-7","","NA"
"-63.51","44.88","HALIFAX STANFIELD INT'L A","8202251","2020-03-02 23:00","2020","03","02","23:00","-0.9","","-3.2","","84","","","","17","","21","","24.1","","99.82","","","","-7","","Cloudy"
"-63.51","44.88","HALIFAX STANFIELD INT'L A","8202251","2020-03-03 00:00","2020","03","03","00:00","-0.6","","-2.6","","86","","","","18","","26","","24.1","","99.74","","","","-7","","NA"
"-63.51","44.88","HALIFAX STANFIELD INT'L A","8202251","2020-03-03 01:00","2020","03","03","01:00","0.2","","-1.7","","87","","","","18","","31","","24.1","","99.67","","","","","","NA"
"-63.51","44.88","HALIFAX STANFIELD INT'L A","8202251","2020-03-03 02:00","2020","03","03","02:00","0.5","","-1.2","","88","","","","18","","29","","24.1","","99.61","","","","","","Cloudy"
"-63.51","44.88","HALIFAX STANFIELD INT'L A","8202251","2020-03-03 03:00","2020","03","03","03:00","0.8","","-0.4","","92","","","","18","","26","","24.1","","99.44","","","","","","NA"
"-63.51","44.88","HALIFAX STANFIELD INT'L A","8202251","2020-03-03 04:00","2020","03","03","04:00","1.6","","0.4","","92","","","","18","","26","","24.1","","99.33","","","","","","NA"
"-63.51","44.88","HALIFAX STANFIELD INT'L A","8202251","2020-03-03 05:00","2020","03","03","05:00","2.1","","1.4","","95","","","","18","","25","","19.3","","99.23","","","","","","Cloudy"
"-63.51","44.88","HALIFAX STANFIELD INT'L A","8202251","2020-03-03 06:00","2020","03","03","06:00","3.1","","2.8","","98","","","","20","","27","","16.1","","99.14","","","","","","NA"
"-63.51","44.88","HALIFAX STANFIELD INT'L A","8202251","2020-03-03 07:00","2020","03","03","07:00","3.4","","3.4","","100","","","","20","","25","","3.2","","99.05","","","","","","Fog"
"-63.51","44.88","HALIFAX STANFIELD INT'L A","8202251","2020-03-03 08:00","2020","03","03","08:00","3.5","","3.5","","100","","","","21","","25","","0.8","","99.08","","","","","","Fog"
"-63.51","44.88","HALIFAX STANFIELD INT'L A","8202251","2020-03-03 09:00","2020","03","03","09:00","3.8","","3.8","","100","","","","21","","18","","0.6","","99.10","","","","","","Fog"
"-63.51","44.88","HALIFAX STANFIELD INT'L A","8202251","2020-03-03 10:00","2020","03","03","10:00","3.8","","3.8","","100","","","","20","","21","","0.6","","99.12","","","","","","Rain Showers,Fog"
"-63.51","44.88","HALIFAX STANFIELD INT'L A","8202251","2020-03-03 11:00","2020","03","03","11:00","5.0","","5.0","","100","","","","21","","19","","12.9","","99.08","","","","","","Rain Showers"
"-63.51","44.88","HALIFAX STANFIELD INT'L A","8202251","2020-03-03 12:00","2020","03","03","12:00","5.2","","4.8","","97","","","","21","","21","","16.1","","99.03","","","","","","NA"
"-63.51","44.88","HALIFAX STANFIELD INT'L A","8202251","2020-03-03 13:00","2020","03","03","13:00","5.5","","4.9","","96","","","","22","","18","","16.1","","99.01","","","","","","NA"
"-63.51","44.88","HALIFAX STANFIELD INT'L A","8202251","2020-03-03 14:00","2020","03","03","14:00","6.0","","5.8","","99","","","","22","","16","","12.9","","98.98","","","","","","Cloudy"
"-63.51","44.88","HALIFAX STANFIELD INT'L A","8202251","2020-03-03 15:00","2020","03","03","15:00","8.5","","5.4","","80","","","","20","","9","","12.9","","","M","","","","","NA"
"-63.51","44.88","HALIFAX STANFIELD INT'L A","8202251","2020-03-03 16:00","2020","03","03","16:00","8.5","","6.3","","86","","","","23","","22","","16.1","","98.93","","","","","","NA"
"-63.51","44.88","HALIFAX STANFIELD INT'L A","8202251","2020-03-03 17:00","2020","03","03","17:00","7.5","","6.0","","90","","","","20","","16","","19.3","","98.96","","","","","","Mostly Cloudy"
"-63.51","44.88","HALIFAX STANFIELD INT'L A","8202251","2020-03-03 18:00","2020","03","03","18:00","5.6","","5.6","","100","","","","20","","18","","4.8","","98.99","","","","","","Fog"
"-63.51","44.88","HALIFAX STANFIELD INT'L A","8202251","2020-03-03 19:00","2020","03","03","19:00","4.4","","4.4","","100","","","","17","","15","","0.8","","99.01","","","","","","Fog"
"-63.51","44.88","HALIFAX STANFIELD INT'L A","8202251","2020-03-03 20:00","2020","03","03","20:00","3.6","","3.6","","100","","","","16","","11","","0.2","","98.99","","","","","","Fog"
"-63.51","44.88","HALIFAX STANFIELD INT'L A","8202251","2020-03-03 21:00","2020","03","03","21:00","2.7","","2.7","","100","","","","14","","15","","0.2","","98.95","","","","","","Fog"
"-63.51","44.88","HALIFAX STANFIELD INT'L A","8202251","2020-03-03 22:00","2020","03","03","22:00","2.3","","2.3","","100","","","","16","","15","","0.4","","98.95","","","","","","Fog"
"-63.51","44.88","HALIFAX STANFIELD INT'L A","8202251","2020-03-03 23:00","2020","03","03","23:00","1.8","","1.8","","100","","","","14","","16","","0.4","","98.86","","","","","","Fog"
"-63.51","44.88","HALIFAX STANFIELD INT'L A","8202251","2020-03-04 00:00","2020","03","04","00:00","1.3","","1.3","","100","","","","15","","21","","0.4","","98.82","","","","","","Fog"
"-63.51","44.88","HALIFAX STANFIELD INT'L A","8202251","2020-03-04 01:00","2020","03","04","01:00","1.4","","1.4","","100","","","","12","","16","","0.4","","98.55","","","","","","Fog"
"-63.51","44.88","HALIFAX STANFIELD INT'L A","8202251","2020-03-04 02:00","2020","03","04","02:00","1.6","","1.6","","100","","","","13","","19","","0.4","","98.44","","","","","","Fog"
"-63.51","44.88","HALIFAX STANFIELD INT'L A","8202251","2020-03-04 03:00","2020","03","04","03:00","2.1","","2.1","","100","","","","12","","24","","0.4","","98.22","","","","","","Fog"
"-63.51","44.88","HALIFAX STANFIELD INT'L A","8202251","2020-03-04 04:00","2020","03","04","04:00","2.5","","2.5","","100","","","","11","","21","","1.6","","98.01","","","","","","Rain,Fog"
"-63.51","44.88","HALIFAX STANFIELD INT'L A","8202251","2020-03-04 05:00","2020","03","04","05:00","3.2","","3.2","","100","","","","11","","22","","0.4","","97.73","","","","","","Rain,Fog"
"-63.51","44.88","HALIFAX STANFIELD INT'L A","8202251","2020-03-04 06:00","2020","03","04","06:00","3.4","","3.4","","100","","","","11","","19","","0.6","","97.45","","","","","","Rain,Fog"
"-63.51","44.88","HALIFAX STANFIELD INT'L A","8202251","2020-03-04 07:00","2020","03","04","07:00","5.3","","5.3","","100","","","","16","","18","","0.4","","97.23","","","","","","Rain,Fog"
"-63.51","44.88","HALIFAX STANFIELD INT'L A","8202251","2020-03-04 08:00","2020","03","04","08:00","4.9","","4.9","","100","","","","18","","24","","0.6","","97.13","","","","","","Rain,Fog"
"-63.51","44.88","HALIFAX STANFIELD INT'L A","8202251","2020-03-04 09:00","2020","03","04","09:00","5.3","","5.3","","100","","","","20","","23","","1.2","","96.96","","","","","","Moderate Rain Showers,Drizzle,Fog"
"-63.51","44.88","HALIFAX STANFIELD INT'L A","8202251","2020-03-04 10:00","2020","03","04","10:00","5.3","","5.3","","100","","","","20","","18","","0.2","","96.75","","","","","","Rain Showers,Fog"
"-63.51","44.88","HALIFAX STANFIELD INT'L A","8202251","2020-03-04 11:00","2020","03","04","11:00","4.8","","4.8","","100","","","","21","","30","","0.4","","96.75","","","","","","Rain Showers,Fog"
"-63.51","44.88","HALIFAX STANFIELD INT'L A","8202251","2020-03-04 12:00","2020","03","04","12:00","6.0","","6.0","","100","","","","22","","30","","12.9","","96.65","","","","","","NA"
"-63.51","44.88","HALIFAX STANFIELD INT'L A","8202251","2020-03-04 13:00","2020","03","04","13:00","6.3","","6.0","","98","","","","22","","39","","24.1","","96.62","","","","","","Rain Showers"
"-63.51","44.88","HALIFAX STANFIELD INT'L A","8202251","2020-03-04 14:00","2020","03","04","14:00","5.2","","4.2","","93","","","","24","","46","","12.9","","96.73","","","","","","Rain"
"-63.51","44.88","HALIFAX STANFIELD INT'L A","8202251","2020-03-04 15:00","2020","03","04","15:00","4.7","","3.4","","91","","","","25","","39","","16.1","","96.89","","","","","","Rain"
"-63.51","44.88","HALIFAX STANFIELD INT'L A","8202251","2020-03-04 16:00","2020","03","04","16:00","3.9","","3.0","","94","","","","25","","36","","19.3","","97.02","","","","","","Rain"
"-63.51","44.88","HALIFAX STANFIELD INT'L A","8202251","2020-03-04 17:00","2020","03","04","17:00","3.9","","1.9","","87","","","","24","","40","","24.1","","97.14","","","","","","Cloudy"
"-63.51","44.88","HALIFAX STANFIELD INT'L A","8202251","2020-03-04 18:00","2020","03","04","18:00","4.1","","0.5","","77","","","","25","","44","","24.1","","97.23","","","","","","NA"
"-63.51","44.88","HALIFAX STANFIELD INT'L A","8202251","2020-03-04 19:00","2020","03","04","19:00","4.1","","-0.6","","71","","","","25","","39","","24.1","","97.39","","","","","","NA"
"-63.51","44.88","HALIFAX STANFIELD INT'L A","8202251","2020-03-04 20:00","2020","03","04","20:00","4.0","","-2.6","","62","","","","26","","50","","24.1","","97.45","","","","","","Cloudy"
"-63.51","44.88","HALIFAX STANFIELD INT'L A","8202251","2020-03-04 21:00","2020","03","04","21:00","3.7","","-3.9","","58","","","","26","","47","","24.1","","97.52","","","","","","NA"
"-63.51","44.88","HALIFAX STANFIELD INT'L A","8202251","2020-03-04 22:00","2020","03","04","22:00","3.2","","-3.9","","60","","","","26","","37","","24.1","","97.61","","","","","","NA"
"-63.51","44.88","HALIFAX STANFIELD INT'L A","8202251","2020-03-04 23:00","2020","03","04","23:00","2.9","","-4.6","","58","","","","26","","37","","24.1","","97.63","","","","","","Cloudy"
"-63.51","44.88","HALIFAX STANFIELD INT'L A","8202251","2020-03-05 00:00","2020","03","05","00:00","2.7","","-4.4","","60","","","","27","","40","","24.1","","97.67","","","","","","NA"
"-63.51","44.88","HALIFAX STANFIELD INT'L A","8202251","2020-03-05 01:00","2020","03","05","01:00","2.5","","-5.1","","57","","","","26","","40","","24.1","","97.72","","","","","","NA"
"-63.51","44.88","HALIFAX STANFIELD INT'L A","8202251","2020-03-05 02:00","2020","03","05","02:00","2.2","","-4.5","","61","","","","27","","34","","24.1","","97.79","","","","","","Cloudy"
"-63.51","44.88","HALIFAX STANFIELD INT'L A","8202251","2020-03-05 03:00","2020","03","05","03:00","1.7","","-4.3","","64","","","","27","","35","","24.1","","97.81","","","","","","Snow Showers"
"-63.51","44.88","HALIFAX STANFIELD INT'L A","8202251","2020-03-05 04:00","2020","03","05","04:00","1.2","","-5.3","","62","","","","27","","43","","24.1","","97.85","","","","","","NA"
"-63.51","44.88","HALIFAX STANFIELD INT'L A","8202251","2020-03-05 05:00","2020","03","05","05:00","0.6","","-5.0","","66","","","","28","","40","","24.1","","97.92","","","","","","Mainly Clear"
"-63.51","44.88","HALIFAX STANFIELD INT'L A","8202251","2020-03-05 06:00","2020","03","05","06:00","0.1","","-4.8","","70","","","","27","","32","","24.1","","98.02","","","","","","NA"
"-63.51","44.88","HALIFAX STANFIELD INT'L A","8202251","2020-03-05 07:00","2020","03","05","07:00","-0.4","","-4.7","","73","","","","26","","30","","24.1","","98.08","","","","-7","","NA"
"-63.51","44.88","HALIFAX STANFIELD INT'L A","8202251","2020-03-05 08:00","2020","03","05","08:00","0.3","","-4.5","","70","","","","27","","35","","24.1","","98.16","","","","","","Mostly Cloudy"
"-63.51","44.88","HALIFAX STANFIELD INT'L A","8202251","2020-03-05 09:00","2020","03","05","09:00","0.6","","-4.5","","69","","","","29","","36","","24.1","","98.23","","","","","","NA"
"-63.51","44.88","HALIFAX STANFIELD INT'L A","8202251","2020-03-05 10:00","2020","03","05","10:00","0.7","","-5.2","","65","","","","29","","40","","24.1","","98.30","","","","","","NA"
"-63.51","44.88","HALIFAX STANFIELD INT'L A","8202251","2020-03-05 11:00","2020","03","05","11:00","0.9","","-5.1","","64","","","","29","","42","","24.1","","98.35","","","","","","Clear"
"-63.51","44.88","HALIFAX STANFIELD INT'L A","8202251","2020-03-05 12:00","2020","03","05","12:00","1.4","","-5.3","","61","","","","29","","39","","24.1","","98.41","","","","","","NA"
"-63.51","44.88","HALIFAX STANFIELD INT'L A","8202251","2020-03-05 13:00","2020","03","05","13:00","1.0","","-4.8","","65","","","","29","","37","","24.1","","98.46","","","","","","NA"
"-63.51","44.88","HALIFAX STANFIELD INT'L A","8202251","2020-03-05 14:00","2020","03","05","14:00","1.4","","-4.8","","63","","","","30","","41","","24.1","","98.51","","","","","","Mostly Cloudy"
"-63.51","44.88","HALIFAX STANFIELD INT'L A","8202251","2020-03-05 15:00","2020","03","05","15:00","1.6","","-5.5","","60","","","","31","","40","","24.1","","98.61","","","","","","NA"
"-63.51","44.88","HALIFAX STANFIELD INT'L A","8202251","2020-03-05 16:00","2020","03","05","16:00","1.4","","-5.3","","61","","","","31","","32","","24.1","","98.71","","","","","","NA"
"-63.51","44.88","HALIFAX STANFIELD INT'L A","8202251","2020-03-05 17:00","2020","03","05","17:00","1.4","","-5.5","","60","","","","30","","32","","24.1","","98.84","","","","","","Mostly Cloudy"
"-63.51","44.88","HALIFAX STANFIELD INT'L A","8202251","2020-03-05 18:00","2020","03","05","18:00","1.1","","-6.4","","57","","","","31","","37","","24.1","","99.00","","","","","","NA"
"-63.51","44.88","HALIFAX STANFIELD INT'L A","8202251","2020-03-05 19:00","2020","03","05","19:00","0.5","","-5.8","","63","","","","30","","25","","24.1","","99.15","","","","","","NA"
"-63.51","44.88","HALIFAX STANFIELD INT'L A","8202251","2020-03-05 20:00","2020","03","05","20:00","0.0","","-6.1","","63","","","","30","","29","","24.1","","99.28","","","","-6","","Mainly Clear"
"-63.51","44.88","HALIFAX STANFIELD INT'L A","8202251","2020-03-05 21:00","2020","03","05","21:00","-0.5","","-6.3","","65","","","","30","","23","","24.1","","99.41","","","","-6","","NA"
"-63.51","44.88","HALIFAX STANFIELD INT'L A","8202251","2020-03-05 22:00","2020","03","05","22:00","-0.9","","-5.7","","70","","","","32","","26","","24.1","","99.56","","","","-7","","NA"
"-63.51","44.88","HALIFAX STANFIELD INT'L A","8202251","2020-03-05 23:00","2020","03","05","23:00","-1.4","","-7.2","","65","","","","32","","25","","24.1","","99.58","","","","-8","","Clear"
"-63.51","44.88","HALIFAX STANFIELD INT'L A","8202251","2020-03-06 00:00","2020","03","06","00:00","-2.2","","-7.8","","66","","","","32","","25","","24.1","","99.69","","","","-9","","NA"
"-63.51","44.88","HALIFAX STANFIELD INT'L A","8202251","2020-03-06 01:00","2020","03","06","01:00","-2.2","","-8.1","","64","","","","32","","23","","24.1","","99.77","","","","-8","","NA"
"-63.51","44.88","HALIFAX STANFIELD INT'L A","8202251","2020-03-06 02:00","2020","03","06","02:00","-2.7","","-8.7","","63","","","","33","","30","","24.1","","99.80","","","","-10","","Clear"
"-63.51","44.88","HALIFAX STANFIELD INT'L A","8202251","2020-03-06 03:00","2020","03","06","03:00","-3.2","","-9.1","","64","","","","32","","20","","24.1","","99.87","","","","-9","","NA"
"-63.51","44.88","HALIFAX STANFIELD INT'L A","8202251","2020-03-06 04:00","2020","03","06","04:00","-3.2","","-9.3","","63","","","","31","","19","","24.1","","99.90","","","","-9","","NA"
"-63.51","44.88","HALIFAX STANFIELD INT'L A","8202251","2020-03-06 05:00","2020","03","06","05:00","-3.8","","-9.2","","66","","","","31","","21","","24.1","","99.95","","","","-10","","Clear"
"-63.51","44.88","HALIFAX STANFIELD INT'L A","8202251","2020-03-06 06:00","2020","03","06","06:00","-4.5","","-9.4","","69","","","","31","","10","","24.1","","100.02","","","","-9","","NA"
"-63.51","44.88","HALIFAX STANFIELD INT'L A","8202251","2020-03-06 07:00","2020","03","06","07:00","-4.5","","-9.4","","69","","","","31","","14","","24.1","","100.09","","","","-10","","NA"
"-63.51","44.88","HALIFAX STANFIELD INT'L A","8202251","2020-03-06 08:00","2020","03","06","08:00","-3.5","","-9.3","","64","","","","32","","17","","24.1","","100.14","","","","-9","","Clear"
"-63.51","44.88","HALIFAX STANFIELD INT'L A","8202251","2020-03-06 09:00","2020","03","06","09:00","-2.2","","-9.8","","56","","","","33","","19","","24.1","","100.15","","","","-8","","NA"
"-63.51","44.88","HALIFAX STANFIELD INT'L A","8202251","2020-03-06 10:00","2020","03","06","10:00","-1.3","","-10.6","","50","","","","35","","20","","24.1","","100.15","","","","-7","","NA"
"-63.51","44.88","HALIFAX STANFIELD INT'L A","8202251","2020-03-06 11:00","2020","03","06","11:00","-0.1","","-10.4","","46","","","","33","","15","","24.1","","100.14","","","","-5","","Mainly Clear"
"-63.51","44.88","HALIFAX STANFIELD INT'L A","8202251","2020-03-06 12:00","2020","03","06","12:00","0.9","","-11.0","","41","","","","36","","11","","24.1","","100.15","","","","","","NA"
"-63.51","44.88","HALIFAX STANFIELD INT'L A","8202251","2020-03-06 13:00","2020","03","06","13:00","2.1","","-11.9","","35","","","","32","","10","","24.1","","100.12","","","","","","NA"
"-63.51","44.88","HALIFAX STANFIELD INT'L A","8202251","2020-03-06 14:00","2020","03","06","14:00","2.0","","-11.2","","37","","","","1","","9","","24.1","","100.07","","","","","","Mostly Cloudy"
"-63.51","44.88","HALIFAX STANFIELD INT'L A","8202251","2020-03-06 15:00","2020","03","06","15:00","2.2","","-11.8","","35","","","","1","","11","","24.1","","100.06","","","","","","NA"
"-63.51","44.88","HALIFAX STANFIELD INT'L A","8202251","2020-03-06 16:00","2020","03","06","16:00","2.4","","-12.0","","34","","","","3","","14","","24.1","","100.02","","","","","","NA"
"-63.51","44.88","HALIFAX STANFIELD INT'L A","8202251","2020-03-06 17:00","2020","03","06","17:00","1.5","","-12.4","","35","","","","4","","12","","24.1","","100.09","","","","","","Mostly Cloudy"
"-63.51","44.88","HALIFAX STANFIELD INT'L A","8202251","2020-03-06 18:00","2020","03","06","18:00","0.1","","-11.0","","43","","","","2","","14","","24.1","","100.03","","","","","","NA"
"-63.51","44.88","HALIFAX STANFIELD INT'L A","8202251","2020-03-06 19:00","2020","03","06","19:00","-0.8","","-10.5","","48","","","","3","","24","","24.1","","100.03","","","","-7","","NA"
"-63.51","44.88","HALIFAX STANFIELD INT'L A","8202251","2020-03-06 20:00","2020","03","06","20:00","-2.1","","-13.3","","42","","","","3","","20","","24.1","","100.02","","","","-8","","Mostly Cloudy"
"-63.51","44.88","HALIFAX STANFIELD INT'L A","8202251","2020-03-06 21:00","2020","03","06","21:00","-2.6","","-11.4","","51","","","","5","","16","","24.1","","100.11","","","","-8","","NA"
"-63.51","44.88","HALIFAX STANFIELD INT'L A","8202251","2020-03-06 22:00","2020","03","06","22:00","-3.2","","-10.5","","57","","","","4","","24","","24.1","","100.03","","","","-10","","NA"
"-63.51","44.88","HALIFAX STANFIELD INT'L A","8202251","2020-03-06 23:00","2020","03","06","23:00","-3.9","","-11.7","","55","","","","3","","21","","24.1","","99.93","","","","-10","","Cloudy"
"-63.51","44.88","HALIFAX STANFIELD INT'L A","8202251","2020-03-07 00:00","2020","03","07","00:00","-4.4","","-9.1","","70","","","","3","","30","","24.1","","99.94","","","","-12","","NA"
"-63.51","44.88","HALIFAX STANFIELD INT'L A","8202251","2020-03-07 01:00","2020","03","07","01:00","-4.8","","-10.0","","67","","","","4","","25","","24.1","","99.92","","","","-12","","NA"
"-63.51","44.88","HALIFAX STANFIELD INT'L A","8202251","2020-03-07 02:00","2020","03","07","02:00","-5.3","","-9.1","","75","","","","4","","27","","24.1","","99.68","","","","-13","","Cloudy"
"-63.51","44.88","HALIFAX STANFIELD INT'L A","8202251","2020-03-07 03:00","2020","03","07","03:00","-5.4","","-8.5","","79","","","","4","","36","","24.1","","99.52","","","","-14","","NA"
"-63.51","44.88","HALIFAX STANFIELD INT'L A","8202251","2020-03-07 04:00","2020","03","07","04:00","-5.9","","-10.1","","73","","","","3","","38","","24.1","","99.38","","","","-15","","NA"
"-63.51","44.88","HALIFAX STANFIELD INT'L A","8202251","2020-03-07 05:00","2020","03","07","05:00","-6.1","","-10.0","","74","","","","2","","45","","24.1","","99.27","","","","-16","","Cloudy"
"-63.51","44.88","HALIFAX STANFIELD INT'L A","8202251","2020-03-07 06:00","2020","03","07","06:00","-5.9","","-10.2","","72","","","","3","","45","","24.1","","99.19","","","","-16","","NA"
"-63.51","44.88","HALIFAX STANFIELD INT'L A","8202251","2020-03-07 07:00","2020","03","07","07:00","-5.9","","-11.1","","67","","","","2","","56","","24.1","","98.96","","","","-17","","NA"
"-63.51","44.88","HALIFAX STANFIELD INT'L A","8202251","2020-03-07 08:00","2020","03","07","08:00","-6.0","","-10.4","","71","","","","2","","43","","24.1","","98.96","","","","-16","","Cloudy"
"-63.51","44.88","HALIFAX STANFIELD INT'L A","8202251","2020-03-07 09:00","2020","03","07","09:00","-6.0","","-10.6","","70","","","","3","","42","","24.1","","99.03","","","","-16","","NA"
"-63.51","44.88","HALIFAX STANFIELD INT'L A","8202251","2020-03-07 10:00","2020","03","07","10:00","-6.4","","-10.8","","71","","","","1","","42","","24.1","","99.03","","","","-16","","Snow"
"-63.51","44.88","HALIFAX STANFIELD INT'L A","8202251","2020-03-07 11:00","2020","03","07","11:00","-6.5","","-10.4","","74","","","","1","","49","","24.1","","98.93","","","","-17","","Snow"
"-63.51","44.88","HALIFAX STANFIELD INT'L A","8202251","2020-03-07 12:00","2020","03","07","12:00","-6.8","","-9.7","","80","","","","1","","52","","12.9","","98.80","","","","-18","","Snow,Blowing Snow"
"-63.51","44.88","HALIFAX STANFIELD INT'L A","8202251","2020-03-07 13:00","2020","03","07","13:00","-6.4","","-9.3","","80","","","","1","","54","","6.4","","98.71","","","","-17","","Snow,Blowing Snow"
"-63.51","44.88","HALIFAX STANFIELD INT'L A","8202251","2020-03-07 14:00","2020","03","07","14:00","-6.3","","-8.7","","83","","","","1","","52","","6.4","","98.68","","","","-17","","Snow,Blowing Snow"
"-63.51","44.88","HALIFAX STANFIELD INT'L A","8202251","2020-03-07 15:00","2020","03","07","15:00","-5.9","","-8.2","","84","","","","36","","46","","9.7","","98.72","","","","-16","","Snow"
"-63.51","44.88","HALIFAX STANFIELD INT'L A","8202251","2020-03-07 16:00","2020","03","07","16:00","-5.9","","-8.0","","85","","","","36","","46","","16.1","","98.76","","","","-16","","Snow"
"-63.51","44.88","HALIFAX STANFIELD INT'L A","8202251","2020-03-07 17:00","2020","03","07","17:00","-5.6","","-8.0","","84","","","","36","","40","","24.1","","98.82","","","","-15","","Cloudy"
"-63.51","44.88","HALIFAX STANFIELD INT'L A","8202251","2020-03-07 18:00","2020","03","07","18:00","-5.5","","-7.5","","86","","","","36","","51","","24.1","","98.94","","","","-16","","NA"
"-63.51","44.88","HALIFAX STANFIELD INT'L A","8202251","2020-03-07 19:00","2020","03","07","19:00","-5.5","","-6.9","","90","","","","35","","42","","16.1","","99.04","","","","-15","","Snow"
"-63.51","44.88","HALIFAX STANFIELD INT'L A","8202251","2020-03-07 20:00","2020","03","07","20:00","-5.7","","-6.8","","92","","","","35","","41","","9.7","","99.18","","","","-15","","Snow"
"-63.51","44.88","HALIFAX STANFIELD INT'L A","8202251","2020-03-07 21:00","2020","03","07","21:00","-5.3","","-7.4","","85","","","","35","","41","","12.9","","99.28","","","","-15","","Snow"
"-63.51","44.88","HALIFAX STANFIELD INT'L A","8202251","2020-03-07 22:00","2020","03","07","22:00","-5.2","","-7.5","","84","","","","33","","34","","19.3","","99.38","","","","-14","","Snow"
"-63.51","44.88","HALIFAX STANFIELD INT'L A","8202251","2020-03-07 23:00","2020","03","07","23:00","-5.5","","-7.9","","83","","","","34","","36","","24.1","","99.44","","","","-14","","Cloudy"
"-63.51","44.88","HALIFAX STANFIELD INT'L A","8202251","2020-03-08 00:00","2020","03","08","00:00","-5.9","","-8.3","","83","","","","34","","34","","24.1","","99.48","","","","-15","","NA"
"-63.51","44.88","HALIFAX STANFIELD INT'L A","8202251","2020-03-08 01:00","2020","03","08","01:00","-6.3","","-9.0","","81","","","","34","","33","","24.1","","99.57","","","","-15","","NA"
"-63.51","44.88","HALIFAX STANFIELD INT'L A","8202251","2020-03-08 02:00","2020","03","08","02:00","-7.2","","-9.9","","81","","","","34","","31","","24.1","","99.67","","","","-16","","Clear"
"-63.51","44.88","HALIFAX STANFIELD INT'L A","8202251","2020-03-08 03:00","2020","03","08","03:00","-7.4","","-10.4","","79","","","","33","","26","","24.1","","99.75","","","","-16","","NA"
"-63.51","44.88","HALIFAX STANFIELD INT'L A","8202251","2020-03-08 04:00","2020","03","08","04:00","-7.4","","-10.0","","82","","","","33","","22","","24.1","","99.76","","","","-15","","NA"
"-63.51","44.88","HALIFAX STANFIELD INT'L A","8202251","2020-03-08 05:00","2020","03","08","05:00","-7.7","","-9.8","","85","","","","31","","19","","24.1","","99.84","","","","-15","","Clear"
"-63.51","44.88","HALIFAX STANFIELD INT'L A","8202251","2020-03-08 06:00","2020","03","08","06:00","-8.3","","-10.4","","85","","","","30","","22","","24.1","","99.90","","","","-16","","NA"
"-63.51","44.88","HALIFAX STANFIELD INT'L A","8202251","2020-03-08 07:00","2020","03","08","07:00","-8.5","","-10.9","","83","","","","30","","13","","24.1","","99.97","","","","-14","","NA"
"-63.51","44.88","HALIFAX STANFIELD INT'L A","8202251","2020-03-08 08:00","2020","03","08","08:00","-7.0","","-10.3","","78","","","","28","","12","","24.1","","100.01","","","","-12","","Mostly Cloudy"
"-63.51","44.88","HALIFAX STANFIELD INT'L A","8202251","2020-03-08 09:00","2020","03","08","09:00","-4.8","","-11.9","","58","","","","31","","17","","24.1","","100.02","","","","-11","","NA"
"-63.51","44.88","HALIFAX STANFIELD INT'L A","8202251","2020-03-08 10:00","2020","03","08","10:00","-3.8","","-11.9","","54","","","","29","","21","","24.1","","100.03","","","","-10","","NA"
"-63.51","44.88","HALIFAX STANFIELD INT'L A","8202251","2020-03-08 11:00","2020","03","08","11:00","-2.2","","-11.4","","50","","","","29","","32","","24.1","","99.99","","","","-10","","Mostly Cloudy"
"-63.51","44.88","HALIFAX STANFIELD INT'L A","8202251","2020-03-08 12:00","2020","03","08","12:00","-0.1","","-10.8","","45","","","","31","","31","","24.1","","99.98","","","","-7","","NA"
"-63.51","44.88","HALIFAX STANFIELD INT'L A","8202251","2020-03-08 13:00","2020","03","08","13:00","0.5","","-6.8","","58","","","","30","","30","","24.1","","99.94","","","","","","NA"
"-63.51","44.88","HALIFAX STANFIELD INT'L A","8202251","2020-03-08 14:00","2020","03","08","14:00","1.3","","-5.5","","61","","","","30","","22","","24.1","","99.93","","","","","","Mainly Clear"
"-63.51","44.88","HALIFAX STANFIELD INT'L A","8202251","2020-03-08 15:00","2020","03","08","15:00","0.9","","-6.5","","58","","","","32","","35","","24.1","","99.97","","","","","","NA"
"-63.51","44.88","HALIFAX STANFIELD INT'L A","8202251","2020-03-08 16:00","2020","03","08","16:00","1.3","","-6.8","","55","","","","32","","34","","24.1","","100.04","","","","","","NA"
"-63.51","44.88","HALIFAX STANFIELD INT'L A","8202251","2020-03-08 17:00","2020","03","08","17:00","1.3","","-7.5","","52","","","","32","","26","","24.1","","100.08","","","","","","Mainly Clear"
"-63.51","44.88","HALIFAX STANFIELD INT'L A","8202251","2020-03-08 18:00","2020","03","08","18:00","0.7","","-7.5","","54","","","","29","","16","","24.1","","100.16","","","","","","NA"
"-63.51","44.88","HALIFAX STANFIELD INT'L A","8202251","2020-03-08 19:00","2020","03","08","19:00","-0.3","","-7.8","","57","","","","27","","15","","24.1","","100.24","","","","-5","","NA"
"-63.51","44.88","HALIFAX STANFIELD INT'L A","8202251","2020-03-08 20:00","2020","03","08","20:00","-0.6","","-8.1","","57","","","","25","","18","","24.1","","100.31","","","","-6","","Mainly Clear"
"-63.51","44.88","HALIFAX STANFIELD INT'L A","8202251","2020-03-08 21:00","2020","03","08","21:00","-0.5","","-7.8","","58","","","","25","","20","","24.1","","100.40","","","","-6","","NA"
"-63.51","44.88","HALIFAX STANFIELD INT'L A","8202251","2020-03-08 22:00","2020","03","08","22:00","-0.1","","-7.8","","56","","","","25","","24","","24.1","","100.45","","","","-6","","NA"
"-63.51","44.88","HALIFAX STANFIELD INT'L A","8202251","2020-03-08 23:00","2020","03","08","23:00","-0.3","","-7.8","","57","","","","25","","22","","24.1","","100.44","","","","-6","","Mostly Cloudy"
"-63.51","44.88","HALIFAX STANFIELD INT'L A","8202251","2020-03-09 00:00","2020","03","09","00:00","-0.8","","-6.8","","64","","","","26","","19","","24.1","","100.47","","","","-6","","NA"
"-63.51","44.88","HALIFAX STANFIELD INT'L A","8202251","2020-03-09 01:00","2020","03","09","01:00","-1.1","","-6.1","","69","","","","26","","18","","24.1","","100.49","","","","-6","","NA"
"-63.51","44.88","HALIFAX STANFIELD INT'L A","8202251","2020-03-09 02:00","2020","03","09","02:00","-0.8","","-4.9","","74","","","","26","","14","","24.1","","100.53","","","","-5","","Cloudy"
"-63.51","44.88","HALIFAX STANFIELD INT'L A","8202251","2020-03-09 03:00","2020","03","09","03:00","-0.8","","-4.7","","75","","","","27","","9","","24.1","","100.51","","","","-4","","NA"
"-63.51","44.88","HALIFAX STANFIELD INT'L A","8202251","2020-03-09 04:00","2020","03","09","04:00","-2.0","","-4.9","","81","","","","23","","9","","24.1","","100.52","","","","-5","","NA"
"-63.51","44.88","HALIFAX STANFIELD INT'L A","8202251","2020-03-09 05:00","2020","03","09","05:00","-3.0","","-5.2","","85","","","","21","","14","","24.1","","100.54","","","","-8","","Mainly Clear"
"-63.51","44.88","HALIFAX STANFIELD INT'L A","8202251","2020-03-09 06:00","2020","03","09","06:00","-2.2","","-4.7","","83","","","","22","","9","","24.1","","100.58","","","","-6","","NA"
"-63.51","44.88","HALIFAX STANFIELD INT'L A","8202251","2020-03-09 07:00","2020","03","09","07:00","-1.9","","-4.6","","82","","","","36","","3","","24.1","","100.63","","","","-3","","NA"
"-63.51","44.88","HALIFAX STANFIELD INT'L A","8202251","2020-03-09 08:00","2020","03","09","08:00","-0.5","","-3.2","","82","","","","11","","4","","24.1","","100.67","","","","-2","","Cloudy"
"-63.51","44.88","HALIFAX STANFIELD INT'L A","8202251","2020-03-09 09:00","2020","03","09","09:00","-0.2","","-5.3","","69","","","","10","","10","","24.1","","100.66","","","","-4","","NA"
"-63.51","44.88","HALIFAX STANFIELD INT'L A","8202251","2020-03-09 10:00","2020","03","09","10:00","2.1","","-5.1","","59","","","","7","","9","","24.1","","100.67","","","","","","NA"
"-63.51","44.88","HALIFAX STANFIELD INT'L A","8202251","2020-03-09 11:00","2020","03","09","11:00","2.9","","-5.0","","56","","","","11","","14","","24.1","","100.60","","","","","","Cloudy"
"-63.51","44.88","HALIFAX STANFIELD INT'L A","8202251","2020-03-09 12:00","2020","03","09","12:00","3.4","","-3.1","","63","","","","13","","17","","24.1","","100.52","","","","","","NA"
"-63.51","44.88","HALIFAX STANFIELD INT'L A","8202251","2020-03-09 13:00","2020","03","09","13:00","3.3","","-1.8","","69","","","","13","","16","","24.1","","100.50","","","","","","NA"
"-63.51","44.88","HALIFAX STANFIELD INT'L A","8202251","2020-03-09 14:00","2020","03","09","14:00","3.1","","-2.1","","69","","","","10","","13","","24.1","","100.47","","","","","","Cloudy"
"-63.51","44.88","HALIFAX STANFIELD INT'L A","8202251","2020-03-09 15:00","2020","03","09","15:00","3.3","","-2.6","","65","","","","7","","11","","24.1","","100.50","","","","","","NA"
"-63.51","44.88","HALIFAX STANFIELD INT'L A","8202251","2020-03-09 16:00","2020","03","09","16:00","2.9","","-3.7","","62","","","","11","","17","","24.1","","100.50","","","","","","NA"
"-63.51","44.88","HALIFAX STANFIELD INT'L A","8202251","2020-03-09 17:00","2020","03","09","17:00","2.1","","-5.0","","59","","","","9","","14","","24.1","","100.51","","","","","","Cloudy"
"-63.51","44.88","HALIFAX STANFIELD INT'L A","8202251","2020-03-09 18:00","2020","03","09","18:00","0.9","","-5.9","","61","","","","9","","13","","24.1","","100.61","","","","","","NA"
"-63.51","44.88","HALIFAX STANFIELD INT'L A","8202251","2020-03-09 19:00","2020","03","09","19:00","-1.0","","-4.8","","76","","","","3","","21","","24.1","","100.70","","","","-7","","NA"
"-63.51","44.88","HALIFAX STANFIELD INT'L A","8202251","2020-03-09 20:00","2020","03","09","20:00","-2.2","","-5.1","","81","","","","4","","13","","24.1","","100.81","","","","-7","","Cloudy"
"-63.51","44.88","HALIFAX STANFIELD INT'L A","8202251","2020-03-09 21:00","2020","03","09","21:00","-3.2","","-5.5","","84","","","","5","","13","","24.1","","100.87","","","","-8","","NA"
"-63.51","44.88","HALIFAX STANFIELD INT'L A","8202251","2020-03-09 22:00","2020","03","09","22:00","-3.4","","-5.8","","84","","","","5","","15","","2.4","","100.93","","","","-9","","Snow"
"-63.51","44.88","HALIFAX STANFIELD INT'L A","8202251","2020-03-09 23:00","2020","03","09","23:00","-3.8","","-5.6","","87","","","","6","","15","","3.2","","100.88","","","","-9","","Snow"
"-63.51","44.88","HALIFAX STANFIELD INT'L A","8202251","2020-03-10 00:00","2020","03","10","00:00","-4.1","","-6.1","","86","","","","6","","11","","24.1","","100.93","","","","-9","","NA"
"-63.51","44.88","HALIFAX STANFIELD INT'L A","8202251","2020-03-10 01:00","2020","03","10","01:00","-4.4","","-6.1","","88","","","","8","","11","","24.1","","100.89","","","","-9","","NA"
"-63.51","44.88","HALIFAX STANFIELD INT'L A","8202251","2020-03-10 02:00","2020","03","10","02:00","-4.6","","-5.8","","91","","","","6","","12","","24.1","","100.91","","","","-9","","Cloudy"
"-63.51","44.88","HALIFAX STANFIELD INT'L A","8202251","2020-03-10 03:00","2020","03","10","03:00","-4.5","","-5.8","","91","","","","8","","14","","24.1","","100.84","","","","-10","","NA"
"-63.51","44.88","HALIFAX STANFIELD INT'L A","8202251","2020-03-10 04:00","2020","03","10","04:00","-4.3","","-5.5","","92","","","","8","","9","","24.1","","100.83","","","","-8","","NA"
"-63.51","44.88","HALIFAX STANFIELD INT'L A","8202251","2020-03-10 05:00","2020","03","10","05:00","-4.2","","-5.2","","93","","","","10","","17","","24.1","","100.80","","","","-10","","Cloudy"
"-63.51","44.88","HALIFAX STANFIELD INT'L A","8202251","2020-03-10 06:00","2020","03","10","06:00","-4.2","","-4.7","","96","","","","12","","21","","24.1","","100.70","","","","-11","","NA"
"-63.51","44.88","HALIFAX STANFIELD INT'L A","8202251","2020-03-10 07:00","2020","03","10","07:00","-4.1","","-4.4","","98","","","","12","","20","","16.1","","100.62","","","","-10","","NA"
"-63.51","44.88","HALIFAX STANFIELD INT'L A","8202251","2020-03-10 08:00","2020","03","10","08:00","-3.5","","-3.5","","100","","","","13","","20","","9.7","","100.62","","","","-10","","Fog"
"-63.51","44.88","HALIFAX STANFIELD INT'L A","8202251","2020-03-10 09:00","2020","03","10","09:00","-2.1","","-2.1","","100","","","","13","","22","","8.1","","100.58","","","","-8","","Fog"
"-63.51","44.88","HALIFAX STANFIELD INT'L A","8202251","2020-03-10 10:00","2020","03","10","10:00","-1.3","","-1.3","","100","","","","14","","35","","4.0","","100.43","","","","-9","","Fog"
"-63.51","44.88","HALIFAX STANFIELD INT'L A","8202251","2020-03-10 11:00","2020","03","10","11:00","-0.7","","-0.7","","100","","","","14","","31","","0.8","","100.46","","","","-7","","Freezing Fog"
"-63.51","44.88","HALIFAX STANFIELD INT'L A","8202251","2020-03-10 12:00","2020","03","10","12:00","-0.2","","-0.2","","100","","","","13","","27","","0.4","","100.27","","","","-6","","Freezing Drizzle,Freezing Fog"
"-63.51","44.88","HALIFAX STANFIELD INT'L A","8202251","2020-03-10 13:00","2020","03","10","13:00","0.3","","0.3","","100","","","","14","","23","","0.4","","100.16","","","","","","Drizzle,Fog"
"-63.51","44.88","HALIFAX STANFIELD INT'L A","8202251","2020-03-10 14:00","2020","03","10","14:00","0.8","","0.8","","100","","","","14","","24","","0.4","","100.01","","","","","","Drizzle,Fog"
"-63.51","44.88","HALIFAX STANFIELD INT'L A","8202251","2020-03-10 15:00","2020","03","10","15:00","1.2","","1.2","","100","","","","14","","17","","0.4","","99.91","","","","","","Drizzle,Fog"
"-63.51","44.88","HALIFAX STANFIELD INT'L A","8202251","2020-03-10 16:00","2020","03","10","16:00","1.4","","1.4","","100","","","","13","","19","","0.4","","99.76","","","","","","Drizzle,Fog"
"-63.51","44.88","HALIFAX STANFIELD INT'L A","8202251","2020-03-10 17:00","2020","03","10","17:00","1.4","","1.4","","100","","","","14","","18","","0.4","","99.66","","","","","","Drizzle,Fog"
"-63.51","44.88","HALIFAX STANFIELD INT'L A","8202251","2020-03-10 18:00","2020","03","10","18:00","1.7","","1.7","","100","","","","15","","21","","0.2","","99.55","","","","","","Drizzle,Fog"
"-63.51","44.88","HALIFAX STANFIELD INT'L A","8202251","2020-03-10 19:00","2020","03","10","19:00","1.4","","1.4","","100","","","","15","","20","","0.2","","99.45","","","","","","Drizzle,Fog"
"-63.51","44.88","HALIFAX STANFIELD INT'L A","8202251","2020-03-10 20:00","2020","03","10","20:00","1.3","","1.3","","100","","","","16","","22","","0.4","","99.37","","","","","","Drizzle,Fog"
"-63.51","44.88","HALIFAX STANFIELD INT'L A","8202251","2020-03-10 21:00","2020","03","10","21:00","1.7","","1.7","","100","","","","17","","18","","0.4","","99.29","","","","","","Drizzle,Fog"
"-63.51","44.88","HALIFAX STANFIELD INT'L A","8202251","2020-03-10 22:00","2020","03","10","22:00","3.3","","3.3","","100","","","","21","","19","","0.4","","99.25","","","","","","Fog"
"-63.51","44.88","HALIFAX STANFIELD INT'L A","8202251","2020-03-10 23:00","2020","03","10","23:00","3.6","","3.6","","100","","","","22","","14","","0.4","","99.18","","","","","","Fog"
"-63.51","44.88","HALIFAX STANFIELD INT'L A","8202251","2020-03-11 00:00","2020","03","11","00:00","4.0","","4.0","","100","","","","20","","17","","0.8","","99.11","","","","","","Fog"
"-63.51","44.88","HALIFAX STANFIELD INT'L A","8202251","2020-03-11 01:00","2020","03","11","01:00","4.2","","4.2","","100","","","","21","","22","","2.4","","99.08","","","","","","Fog"
"-63.51","44.88","HALIFAX STANFIELD INT'L A","8202251","2020-03-11 02:00","2020","03","11","02:00","4.1","","4.1","","100","","","","21","","15","","1.6","","99.05","","","","","","Fog"
"-63.51","44.88","HALIFAX STANFIELD INT'L A","8202251","2020-03-11 03:00","2020","03","11","03:00","4.1","","4.1","","100","","","","22","","16","","2.4","","99.01","","","","","","Rain,Fog"
"-63.51","44.88","HALIFAX STANFIELD INT'L A","8202251","2020-03-11 04:00","2020","03","11","04:00","4.1","","4.1","","100","","","","22","","14","","1.6","","98.98","","","","","","Rain,Fog"
"-63.51","44.88","HALIFAX STANFIELD INT'L A","8202251","2020-03-11 05:00","2020","03","11","05:00","4.0","","4.0","","100","","","","22","","13","","1.2","","99.05","","","","","","Drizzle,Fog"
"-63.51","44.88","HALIFAX STANFIELD INT'L A","8202251","2020-03-11 06:00","2020","03","11","06:00","4.3","","4.3","","100","","","","24","","9","","0.8","","99.10","","","","","","Fog"
"-63.51","44.88","HALIFAX STANFIELD INT'L A","8202251","2020-03-11 07:00","2020","03","11","07:00","5.0","","5.0","","100","","","","29","","17","","3.2","","99.13","","","","","","Rain,Fog"
"-63.51","44.88","HALIFAX STANFIELD INT'L A","8202251","2020-03-11 08:00","2020","03","11","08:00","4.3","","4.3","","100","","","","32","","25","","8.1","","99.20","","","","","","Drizzle,Fog"
"-63.51","44.88","HALIFAX STANFIELD INT'L A","8202251","2020-03-11 09:00","2020","03","11","09:00","3.2","","3.2","","100","","","","33","","27","","16.1","","99.30","","","","","","Drizzle"
"-63.51","44.88","HALIFAX STANFIELD INT'L A","8202251","2020-03-11 10:00","2020","03","11","10:00","2.4","","2.4","","100","","","","33","","29","","24.1","","99.44","","","","","","NA"
"-63.51","44.88","HALIFAX STANFIELD INT'L A","8202251","2020-03-11 11:00","2020","03","11","11:00","0.8","","0.8","","100","","","","32","","31","","24.1","","99.56","","","","","","Cloudy"
"-63.51","44.88","HALIFAX STANFIELD INT'L A","8202251","2020-03-11 12:00","2020","03","11","12:00","-0.5","","-0.5","","100","","","","34","","25","","24.1","","99.65","","","","-7","","NA"
"-63.51","44.88","HALIFAX STANFIELD INT'L A","8202251","2020-03-11 13:00","2020","03","11","13:00","-0.9","","-1.2","","98","","","","35","","24","","24.1","","99.67","","","","-7","","NA"
"-63.51","44.88","HALIFAX STANFIELD INT'L A","8202251","2020-03-11 14:00","2020","03","11","14:00","-0.8","","-2.0","","92","","","","33","","28","","24.1","","99.75","","","","-7","","Cloudy"
"-63.51","44.88","HALIFAX STANFIELD INT'L A","8202251","2020-03-11 15:00","2020","03","11","15:00","-0.9","","-2.4","","90","","","","34","","22","","24.1","","99.80","","","","-7","","NA"
"-63.51","44.88","HALIFAX STANFIELD INT'L A","8202251","2020-03-11 16:00","2020","03","11","16:00","-0.7","","-3.4","","82","","","","33","","24","","24.1","","99.92","","","","-7","","NA"
"-63.51","44.88","HALIFAX STANFIELD INT'L A","8202251","2020-03-11 17:00","2020","03","11","17:00","-1.3","","-3.8","","83","","","","34","","21","","24.1","","99.97","","","","-7","","Cloudy"
"-63.51","44.88","HALIFAX STANFIELD INT'L A","8202251","2020-03-11 18:00","2020","03","11","18:00","-1.8","","-3.8","","86","","","","36","","19","","24.1","","100.09","","","","-7","","NA"
"-63.51","44.88","HALIFAX STANFIELD INT'L A","8202251","2020-03-11 19:00","2020","03","11","19:00","-2.3","","-4.3","","86","","","","1","","20","","24.1","","100.14","","","","-8","","NA"
"-63.51","44.88","HALIFAX STANFIELD INT'L A","8202251","2020-03-11 20:00","2020","03","11","20:00","-3.0","","-5.1","","86","","","","3","","13","","24.1","","100.14","","","","-8","","Cloudy"
"-63.51","44.88","HALIFAX STANFIELD INT'L A","8202251","2020-03-11 21:00","2020","03","11","21:00","-3.4","","-5.5","","85","","","","5","","12","","24.1","","100.20","","","","-8","","NA"
"-63.51","44.88","HALIFAX STANFIELD INT'L A","8202251","2020-03-11 22:00","2020","03","11","22:00","-3.3","","-5.6","","84","","","","6","","9","","24.1","","100.26","","","","-7","","NA"
"-63.51","44.88","HALIFAX STANFIELD INT'L A","8202251","2020-03-11 23:00","2020","03","11","23:00","-3.5","","-5.8","","84","","","","6","","12","","24.1","","100.22","","","","-8","","Cloudy"
"-63.51","44.88","HALIFAX STANFIELD INT'L A","8202251","2020-03-12 00:00","2020","03","12","00:00","-3.6","","-5.6","","86","","","","6","","12","","24.1","","100.16","","","","-8","","NA"
"-63.51","44.88","HALIFAX STANFIELD INT'L A","8202251","2020-03-12 01:00","2020","03","12","01:00","-3.7","","-6.0","","84","","","","7","","6","","24.1","","100.27","","","","-6","","NA"
"-63.51","44.88","HALIFAX STANFIELD INT'L A","8202251","2020-03-12 02:00","2020","03","12","02:00","-3.7","","-5.6","","87","","","","14","","8","","24.1","","100.31","","","","-7","","Cloudy"
"-63.51","44.88","HALIFAX STANFIELD INT'L A","8202251","2020-03-12 03:00","2020","03","12","03:00","-4.0","","-5.5","","89","","","","11","","9","","24.1","","100.26","","","","-8","","NA"
"-63.51","44.88","HALIFAX STANFIELD INT'L A","8202251","2020-03-12 04:00","2020","03","12","04:00","-4.2","","-5.6","","90","","","","36","","2","","24.1","","100.27","","","","-5","","NA"
"-63.51","44.88","HALIFAX STANFIELD INT'L A","8202251","2020-03-12 05:00","2020","03","12","05:00","-4.5","","-5.3","","94","","","","36","","2","","24.1","","100.29","","","","-5","","Cloudy"
"-63.51","44.88","HALIFAX STANFIELD INT'L A","8202251","2020-03-12 06:00","2020","03","12","06:00","-4.7","","-5.3","","96","","","","18","","6","","24.1","","100.35","","","","-7","","NA"
"-63.51","44.88","HALIFAX STANFIELD INT'L A","8202251","2020-03-12 07:00","2020","03","12","07:00","-4.5","","-5.9","","90","","","","36","","3","","24.1","","100.37","","","","-6","","NA"
"-63.51","44.88","HALIFAX STANFIELD INT'L A","8202251","2020-03-12 08:00","2020","03","12","08:00","-3.0","","-5.6","","83","","","","25","","7","","24.1","","100.48","","","","-6","","Mainly Clear"
"-63.51","44.88","HALIFAX STANFIELD INT'L A","8202251","2020-03-12 09:00","2020","03","12","09:00","-2.0","","-5.4","","78","","","","30","","6","","24.1","","100.51","","","","-4","","NA"
"-63.51","44.88","HALIFAX STANFIELD INT'L A","8202251","2020-03-12 10:00","2020","03","12","10:00","-1.3","","-5.4","","74","","","","30","","9","","24.1","","100.56","","","","-5","","NA"
"-63.51","44.88","HALIFAX STANFIELD INT'L A","8202251","2020-03-12 11:00","2020","03","12","11:00","-0.8","","-4.8","","74","","","","33","","5","","24.1","","100.56","","","","-2","","Mostly Cloudy"
"-63.51","44.88","HALIFAX STANFIELD INT'L A","8202251","2020-03-12 12:00","2020","03","12","12:00","0.0","","-4.2","","74","","","","35","","5","","24.1","","100.55","","","","-2","","NA"
"-63.51","44.88","HALIFAX STANFIELD INT'L A","8202251","2020-03-12 13:00","2020","03","12","13:00","1.6","","-3.5","","69","","","","31","","14","","24.1","","100.53","","","","","","NA"
"-63.51","44.88","HALIFAX STANFIELD INT'L A","8202251","2020-03-12 14:00","2020","03","12","14:00","2.2","","-4.0","","64","","","","30","","21","","24.1","","100.51","","","","","","Mostly Cloudy"
"-63.51","44.88","HALIFAX STANFIELD INT'L A","8202251","2020-03-12 15:00","2020","03","12","15:00","3.3","","-4.4","","57","","","","31","","12","","24.1","","100.56","","","","","","NA"
"-63.51","44.88","HALIFAX STANFIELD INT'L A","8202251","2020-03-12 16:00","2020","03","12","16:00","3.7","","-4.8","","54","","","","33","","17","","24.1","","100.58","","","","","","NA"
"-63.51","44.88","HALIFAX STANFIELD INT'L A","8202251","2020-03-12 17:00","2020","03","12","17:00","3.2","","-4.3","","58","","","","35","","13","","24.1","","100.66","","","","","","Mostly Cloudy"
"-63.51","44.88","HALIFAX STANFIELD INT'L A","8202251","2020-03-12 18:00","2020","03","12","18:00","1.6","","-4.2","","65","","","","33","","13","","24.1","","100.76","","","","","","NA"
"-63.51","44.88","HALIFAX STANFIELD INT'L A","8202251","2020-03-12 19:00","2020","03","12","19:00","0.3","","-4.5","","71","","","","27","","6","","24.1","","100.85","","","","","","NA"
"-63.51","44.88","HALIFAX STANFIELD INT'L A","8202251","2020-03-12 20:00","2020","03","12","20:00","-1.0","","-3.4","","84","","","","23","","15","","24.1","","100.93","","","","-6","","Mostly Cloudy"
"-63.51","44.88","HALIFAX STANFIELD INT'L A","8202251","2020-03-12 21:00","2020","03","12","21:00","-1.7","","-3.1","","90","","","","22","","12","","24.1","","100.97","","","","-6","","NA"
"-63.51","44.88","HALIFAX STANFIELD INT'L A","8202251","2020-03-12 22:00","2020","03","12","22:00","-2.3","","-3.1","","94","","","","22","","10","","24.1","","101.02","","","","-6","","NA"
"-63.51","44.88","HALIFAX STANFIELD INT'L A","8202251","2020-03-12 23:00","2020","03","12","23:00","-2.3","","-3.0","","95","","","","22","","11","","24.1","","101.06","","","","-6","","Mainly Clear"
"-63.51","44.88","HALIFAX STANFIELD INT'L A","8202251","2020-03-13 00:00","2020","03","13","00:00","-3.1","","-3.4","","98","","","","22","","6","","24.1","","101.05","","","","-6","","NA"
"-63.51","44.88","HALIFAX STANFIELD INT'L A","8202251","2020-03-13 01:00","2020","03","13","01:00","-3.1","","-3.2","","99","","","","14","","5","","24.1","","101.07","","","","-5","","NA"
"-63.51","44.88","HALIFAX STANFIELD INT'L A","8202251","2020-03-13 02:00","2020","03","13","02:00","-3.5","","-3.5","","100","","","","15","","8","","24.1","","101.14","","","","-7","","Clear"
"-63.51","44.88","HALIFAX STANFIELD INT'L A","8202251","2020-03-13 03:00","2020","03","13","03:00","-3.3","","-3.3","","100","","","","16","","10","","24.1","","101.15","","","","-7","","NA"
"-63.51","44.88","HALIFAX STANFIELD INT'L A","8202251","2020-03-13 04:00","2020","03","13","04:00","-3.2","","-3.2","","100","","","","21","","9","","24.1","","101.16","","","","-7","","NA"
"-63.51","44.88","HALIFAX STANFIELD INT'L A","8202251","2020-03-13 05:00","2020","03","13","05:00","-3.3","","-3.3","","100","","","","15","","12","","24.1","","101.17","","","","-8","","Mainly Clear"
"-63.51","44.88","HALIFAX STANFIELD INT'L A","8202251","2020-03-13 06:00","2020","03","13","06:00","-3.1","","-3.1","","100","","","","15","","13","","24.1","","101.21","","","","-8","","NA"
"-63.51","44.88","HALIFAX STANFIELD INT'L A","8202251","2020-03-13 07:00","2020","03","13","07:00","-4.1","","-4.1","","100","","","","13","","13","","2.4","","101.12","","","","-9","","Fog"
"-63.51","44.88","HALIFAX STANFIELD INT'L A","8202251","2020-03-13 08:00","2020","03","13","08:00","-2.1","","-2.1","","100","","","","13","","15","","24.1","","101.12","","","","-7","","Mostly Cloudy"
"-63.51","44.88","HALIFAX STANFIELD INT'L A","8202251","2020-03-13 09:00","2020","03","13","09:00","-0.8","","-0.9","","99","","","","14","","19","","24.1","","101.17","","","","-6","","NA"
"-63.51","44.88","HALIFAX STANFIELD INT'L A","8202251","2020-03-13 10:00","2020","03","13","10:00","1.1","","-0.6","","88","","","","15","","22","","24.1","","101.17","","","","","","NA"
"-63.51","44.88","HALIFAX STANFIELD INT'L A","8202251","2020-03-13 11:00","2020","03","13","11:00","1.8","","-1.6","","78","","","","15","","22","","24.1","","101.13","","","","","","Cloudy"
"-63.51","44.88","HALIFAX STANFIELD INT'L A","8202251","2020-03-13 12:00","2020","03","13","12:00","1.9","","-1.6","","78","","","","13","","34","","24.1","","100.97","","","","","","NA"
"-63.51","44.88","HALIFAX STANFIELD INT'L A","8202251","2020-03-13 13:00","2020","03","13","13:00","1.8","","-1.4","","79","","","","14","","37","","24.1","","100.76","","","","","","NA"
"-63.51","44.88","HALIFAX STANFIELD INT'L A","8202251","2020-03-13 14:00","2020","03","13","14:00","1.6","","-1.1","","82","","","","14","","39","","24.1","","100.61","","","","","","Cloudy"
"-63.51","44.88","HALIFAX STANFIELD INT'L A","8202251","2020-03-13 15:00","2020","03","13","15:00","1.2","","-0.3","","90","","","","13","","44","","24.1","","100.39","","","","","","NA"
"-63.51","44.88","HALIFAX STANFIELD INT'L A","8202251","2020-03-13 16:00","2020","03","13","16:00","1.2","","0.0","","92","","","","14","","49","","24.1","","100.16","","","","","","NA"
"-63.51","44.88","HALIFAX STANFIELD INT'L A","8202251","2020-03-13 17:00","2020","03","13","17:00","0.9","","0.9","","100","","","","14","","49","","3.2","","99.89","","","","","","Rain,Fog"
"-63.51","44.88","HALIFAX STANFIELD INT'L A","8202251","2020-03-13 18:00","2020","03","13","18:00","1.2","","1.2","","100","","","","13","","48","","4.0","","99.60","","","","","","Rain,Fog"
"-63.51","44.88","HALIFAX STANFIELD INT'L A","8202251","2020-03-13 19:00","2020","03","13","19:00","1.8","","1.8","","100","","","","13","","45","","4.0","","99.29","","","","","","Rain,Fog"
"-63.51","44.88","HALIFAX STANFIELD INT'L A","8202251","2020-03-13 20:00","2020","03","13","20:00","2.8","","2.8","","100","","","","15","","43","","4.0","","99.09","","","","","","Rain,Fog"
"-63.51","44.88","HALIFAX STANFIELD INT'L A","8202251","2020-03-13 21:00","2020","03","13","21:00","4.9","","4.9","","100","","","","15","","39","","3.2","","98.72","","","","","","Rain,Fog"
"-63.51","44.88","HALIFAX STANFIELD INT'L A","8202251","2020-03-13 22:00","2020","03","13","22:00","7.4","","7.4","","100","","","","19","","26","","3.2","","98.63","","","","","","Rain,Fog"
"-63.51","44.88","HALIFAX STANFIELD INT'L A","8202251","2020-03-13 23:00","2020","03","13","23:00","8.3","","8.3","","100","","","","21","","27","","24.1","","98.62","","","","","","Drizzle,Fog"
"-63.51","44.88","HALIFAX STANFIELD INT'L A","8202251","2020-03-14 00:00","2020","03","14","00:00","7.2","","5.5","","89","","","","29","","36","","24.1","","98.72","","","","","","NA"
"-63.51","44.88","HALIFAX STANFIELD INT'L A","8202251","2020-03-14 01:00","2020","03","14","01:00","4.9","","2.9","","87","","","","28","","26","","24.1","","98.83","","","","","","NA"
"-63.51","44.88","HALIFAX STANFIELD INT'L A","8202251","2020-03-14 02:00","2020","03","14","02:00","3.9","","1.3","","83","","","","28","","27","","24.1","","98.93","","","","","","Mainly Clear"
"-63.51","44.88","HALIFAX STANFIELD INT'L A","8202251","2020-03-14 03:00","2020","03","14","03:00","3.3","","-0.5","","76","","","","28","","27","","24.1","","98.92","","","","","","NA"
"-63.51","44.88","HALIFAX STANFIELD INT'L A","8202251","2020-03-14 04:00","2020","03","14","04:00","2.4","","0.2","","85","","","","24","","20","","24.1","","98.99","","","","","","NA"
"-63.51","44.88","HALIFAX STANFIELD INT'L A","8202251","2020-03-14 05:00","2020","03","14","05:00","2.1","","0.0","","86","","","","24","","19","","24.1","","99.06","","","","","","Clear"
"-63.51","44.88","HALIFAX STANFIELD INT'L A","8202251","2020-03-14 06:00","2020","03","14","06:00","0.6","","0.1","","96","","","","22","","20","","24.1","","99.08","","","","","","NA"
"-63.51","44.88","HALIFAX STANFIELD INT'L A","8202251","2020-03-14 07:00","2020","03","14","07:00","1.0","","0.1","","94","","","","23","","22","","24.1","","99.11","","","","","","NA"
"-63.51","44.88","HALIFAX STANFIELD INT'L A","8202251","2020-03-14 08:00","2020","03","14","08:00","2.7","","0.0","","82","","","","24","","26","","24.1","","99.13","","","","","","Mainly Clear"
"-63.51","44.88","HALIFAX STANFIELD INT'L A","8202251","2020-03-14 09:00","2020","03","14","09:00","3.9","","0.4","","78","","","","24","","29","","24.1","","99.13","","","","","","NA"
"-63.51","44.88","HALIFAX STANFIELD INT'L A","8202251","2020-03-14 10:00","2020","03","14","10:00","5.0","","-1.6","","63","","","","27","","26","","24.1","","99.13","","","","","","NA"
"-63.51","44.88","HALIFAX STANFIELD INT'L A","8202251","2020-03-14 11:00","2020","03","14","11:00","5.0","","-3.6","","54","","","","26","","27","","24.1","","99.12","","","","","","Mostly Cloudy"
"-63.51","44.88","HALIFAX STANFIELD INT'L A","8202251","2020-03-14 12:00","2020","03","14","12:00","4.8","","-3.4","","55","","","","27","","30","","24.1","","99.12","","","","","","NA"
"-63.51","44.88","HALIFAX STANFIELD INT'L A","8202251","2020-03-14 13:00","2020","03","14","13:00","5.8","","-3.5","","51","","","","26","","40","","24.1","","99.05","","","","","","NA"
"-63.51","44.88","HALIFAX STANFIELD INT'L A","8202251","2020-03-14 14:00","2020","03","14","14:00","5.5","","-3.8","","51","","","","28","","25","","24.1","","99.06","","","","","","Mostly Cloudy"
"-63.51","44.88","HALIFAX STANFIELD INT'L A","8202251","2020-03-14 15:00","2020","03","14","15:00","4.8","","-4.5","","51","","","","28","","43","","24.1","","99.12","","","","","","NA"
"-63.51","44.88","HALIFAX STANFIELD INT'L A","8202251","2020-03-14 16:00","2020","03","14","16:00","4.6","","-4.8","","51","","","","28","","41","","24.1","","99.13","","","","","","NA"
"-63.51","44.88","HALIFAX STANFIELD INT'L A","8202251","2020-03-14 17:00","2020","03","14","17:00","4.8","","-4.8","","50","","","","29","","37","","24.1","","99.25","","","","","","Mostly Cloudy"
"-63.51","44.88","HALIFAX STANFIELD INT'L A","8202251","2020-03-14 18:00","2020","03","14","18:00","3.8","","-4.8","","53","","","","29","","27","","24.1","","99.33","","","","","","NA"
"-63.51","44.88","HALIFAX STANFIELD INT'L A","8202251","2020-03-14 19:00","2020","03","14","19:00","2.7","","-5.0","","57","","","","30","","36","","24.1","","99.46","","","","","","NA"
"-63.51","44.88","HALIFAX STANFIELD INT'L A","8202251","2020-03-14 20:00","2020","03","14","20:00","1.0","","-6.3","","58","","","","31","","21","","24.1","","99.64","","","","","","Mainly Clear"
"-63.51","44.88","HALIFAX STANFIELD INT'L A","8202251","2020-03-14 21:00","2020","03","14","21:00","0.5","","-7.7","","54","","","","30","","31","","24.1","","99.72","","","","","","NA"
"-63.51","44.88","HALIFAX STANFIELD INT'L A","8202251","2020-03-14 22:00","2020","03","14","22:00","0.0","","-8.1","","55","","","","30","","31","","24.1","","99.81","","","","-7","","NA"
"-63.51","44.88","HALIFAX STANFIELD INT'L A","8202251","2020-03-14 23:00","2020","03","14","23:00","-0.2","","-7.3","","59","","","","30","","27","","24.1","","99.87","","","","-6","","Mostly Cloudy"
"-63.51","44.88","HALIFAX STANFIELD INT'L A","8202251","2020-03-15 00:00","2020","03","15","00:00","-0.8","","-8.5","","56","","","","31","","33","","24.1","","99.96","","","","-8","","NA"
"-63.51","44.88","HALIFAX STANFIELD INT'L A","8202251","2020-03-15 01:00","2020","03","15","01:00","-2.6","","-8.3","","65","","","","32","","30","","24.1","","100.04","","","","-10","","NA"
"-63.51","44.88","HALIFAX STANFIELD INT'L A","8202251","2020-03-15 02:00","2020","03","15","02:00","-3.0","","-10.6","","56","","","","32","","39","","24.1","","100.13","","","","-11","","Mainly Clear"
"-63.51","44.88","HALIFAX STANFIELD INT'L A","8202251","2020-03-15 03:00","2020","03","15","03:00","-3.8","","-10.4","","60","","","","32","","24","","24.1","","100.12","","","","-11","","NA"
"-63.51","44.88","HALIFAX STANFIELD INT'L A","8202251","2020-03-15 04:00","2020","03","15","04:00","-4.3","","-10.5","","62","","","","32","","31","","24.1","","100.19","","","","-12","","NA"
"-63.51","44.88","HALIFAX STANFIELD INT'L A","8202251","2020-03-15 05:00","2020","03","15","05:00","-4.9","","-10.3","","66","","","","32","","31","","24.1","","100.25","","","","-13","","Mainly Clear"
"-63.51","44.88","HALIFAX STANFIELD INT'L A","8202251","2020-03-15 06:00","2020","03","15","06:00","-5.4","","-10.4","","68","","","","32","","30","","24.1","","100.34","","","","-14","","NA"
"-63.51","44.88","HALIFAX STANFIELD INT'L A","8202251","2020-03-15 07:00","2020","03","15","07:00","-5.4","","-10.2","","69","","","","32","","31","","24.1","","100.41","","","","-14","","NA"
"-63.51","44.88","HALIFAX STANFIELD INT'L A","8202251","2020-03-15 08:00","2020","03","15","08:00","-4.8","","-10.5","","65","","","","32","","39","","24.1","","100.50","","","","-14","","Mainly Clear"
"-63.51","44.88","HALIFAX STANFIELD INT'L A","8202251","2020-03-15 09:00","2020","03","15","09:00","-3.5","","-10.1","","61","","","","33","","27","","24.1","","100.59","","","","-11","","NA"
"-63.51","44.88","HALIFAX STANFIELD INT'L A","8202251","2020-03-15 10:00","2020","03","15","10:00","-2.7","","-10.1","","57","","","","33","","33","","24.1","","100.60","","","","-10","","NA"
"-63.51","44.88","HALIFAX STANFIELD INT'L A","8202251","2020-03-15 11:00","2020","03","15","11:00","-1.9","","-9.5","","56","","","","33","","26","","24.1","","100.60","","","","-8","","Clear"
"-63.51","44.88","HALIFAX STANFIELD INT'L A","8202251","2020-03-15 12:00","2020","03","15","12:00","-0.7","","-9.3","","53","","","","32","","23","","24.1","","100.63","","","","-7","","NA"
"-63.51","44.88","HALIFAX STANFIELD INT'L A","8202251","2020-03-15 13:00","2020","03","15","13:00","-0.1","","-9.3","","50","","","","29","","17","","24.1","","100.67","","","","-5","","NA"
"-63.51","44.88","HALIFAX STANFIELD INT'L A","8202251","2020-03-15 14:00","2020","03","15","14:00","0.3","","-9.6","","48","","","","31","","13","","24.1","","100.64","","","","","","Mainly Clear"
"-63.51","44.88","HALIFAX STANFIELD INT'L A","8202251","2020-03-15 15:00","2020","03","15","15:00","0.9","","-10.7","","42","","","","31","","14","","24.1","","100.65","","","","","","NA"
"-63.51","44.88","HALIFAX STANFIELD INT'L A","8202251","2020-03-15 16:00","2020","03","15","16:00","1.5","","-9.7","","43","","","","31","","20","","24.1","","100.67","","","","","","NA"
"-63.51","44.88","HALIFAX STANFIELD INT'L A","8202251","2020-03-15 17:00","2020","03","15","17:00","0.9","","-10.8","","41","","","","30","","17","","24.1","","100.70","","","","","","Mostly Cloudy"
"-63.51","44.88","HALIFAX STANFIELD INT'L A","8202251","2020-03-15 18:00","2020","03","15","18:00","-0.1","","-10.2","","47","","","","32","","18","","24.1","","100.77","","","","-5","","NA"
"-63.51","44.88","HALIFAX STANFIELD INT'L A","8202251","2020-03-15 19:00","2020","03","15","19:00","-1.5","","-10.0","","52","","","","31","","10","","24.1","","100.87","","","","-5","","NA"
"-63.51","44.88","HALIFAX STANFIELD INT'L A","8202251","2020-03-15 20:00","2020","03","15","20:00","-2.2","","-9.5","","58","","","","36","","9","","24.1","","100.93","","","","-6","","Mainly Clear"
"-63.51","44.88","HALIFAX STANFIELD INT'L A","8202251","2020-03-15 21:00","2020","03","15","21:00","-2.2","","-9.3","","58","","","","36","","4","","24.1","","100.95","","","","-4","","NA"
"-63.51","44.88","HALIFAX STANFIELD INT'L A","8202251","2020-03-15 22:00","2020","03","15","22:00","-2.1","","-9.2","","58","","","","22","","4","","24.1","","100.96","","","","-4","","NA"
"-63.51","44.88","HALIFAX STANFIELD INT'L A","8202251","2020-03-15 23:00","2020","03","15","23:00","-2.9","","-7.9","","69","","","","12","","6","","24.1","","100.99","","","","-5","","Cloudy"
"-63.51","44.88","HALIFAX STANFIELD INT'L A","8202251","2020-03-16 00:00","2020","03","16","00:00","-3.2","","-7.3","","73","","","","1","","18","","24.1","","101.02","","","","-9","","NA"
"-63.51","44.88","HALIFAX STANFIELD INT'L A","8202251","2020-03-16 01:00","2020","03","16","01:00","-3.4","","-8.6","","67","","","","36","","11","","24.1","","101.09","","","","-8","","NA"
"-63.51","44.88","HALIFAX STANFIELD INT'L A","8202251","2020-03-16 02:00","2020","03","16","02:00","-4.0","","-8.1","","73","","","","36","","15","","24.1","","101.11","","","","-9","","Cloudy"
"-63.51","44.88","HALIFAX STANFIELD INT'L A","8202251","2020-03-16 03:00","2020","03","16","03:00","-5.5","","-7.9","","83","","","","36","","22","","16.1","","101.13","","","","-13","","Snow"
"-63.51","44.88","HALIFAX STANFIELD INT'L A","8202251","2020-03-16 04:00","2020","03","16","04:00","-6.3","","-11.1","","69","","","","35","","22","","24.1","","101.15","","","","-14","","NA"
"-63.51","44.88","HALIFAX STANFIELD INT'L A","8202251","2020-03-16 05:00","2020","03","16","05:00","-6.8","","-12.2","","66","","","","34","","20","","24.1","","101.24","","","","-14","","Cloudy"
"-63.51","44.88","HALIFAX STANFIELD INT'L A","8202251","2020-03-16 06:00","2020","03","16","06:00","-7.4","","-12.9","","65","","","","33","","21","","24.1","","101.29","","","","-15","","NA"
"-63.51","44.88","HALIFAX STANFIELD INT'L A","8202251","2020-03-16 07:00","2020","03","16","07:00","-7.8","","-12.4","","70","","","","33","","18","","24.1","","101.40","","","","-15","","NA"
"-63.51","44.88","HALIFAX STANFIELD INT'L A","8202251","2020-03-16 08:00","2020","03","16","08:00","-7.7","","-13.0","","66","","","","33","","20","","24.1","","101.47","","","","-15","","Mostly Cloudy"
"-63.51","44.88","HALIFAX STANFIELD INT'L A","8202251","2020-03-16 09:00","2020","03","16","09:00","-6.2","","-13.6","","56","","","","33","","18","","24.1","","101.49","","","","-13","","NA"
"-63.51","44.88","HALIFAX STANFIELD INT'L A","8202251","2020-03-16 10:00","2020","03","16","10:00","-6.3","","-14.3","","54","","","","32","","28","","24.1","","101.51","","","","-14","","NA"
"-63.51","44.88","HALIFAX STANFIELD INT'L A","8202251","2020-03-16 11:00","2020","03","16","11:00","-5.3","","-13.5","","53","","","","34","","21","","24.1","","101.51","","","","-12","","Mainly Clear"
"-63.51","44.88","HALIFAX STANFIELD INT'L A","8202251","2020-03-16 12:00","2020","03","16","12:00","-4.0","","-14.0","","46","","","","32","","28","","24.1","","101.48","","","","-11","","NA"
"-63.51","44.88","HALIFAX STANFIELD INT'L A","8202251","2020-03-16 13:00","2020","03","16","13:00","-3.0","","-11.7","","51","","","","33","","31","","24.1","","101.48","","","","-11","","NA"
"-63.51","44.88","HALIFAX STANFIELD INT'L A","8202251","2020-03-16 14:00","2020","03","16","14:00","-2.8","","-9.8","","59","","","","34","","26","","24.1","","101.50","","","","-10","","Mostly Cloudy"
"-63.51","44.88","HALIFAX STANFIELD INT'L A","8202251","2020-03-16 15:00","2020","03","16","15:00","-2.8","","-8.4","","66","","","","34","","30","","24.1","","101.53","","","","-10","","Snow Showers"
"-63.51","44.88","HALIFAX STANFIELD INT'L A","8202251","2020-03-16 16:00","2020","03","16","16:00","-3.2","","-7.6","","72","","","","35","","23","","24.1","","101.54","","","","-10","","Snow Showers"
"-63.51","44.88","HALIFAX STANFIELD INT'L A","8202251","2020-03-16 17:00","2020","03","16","17:00","-3.7","","-7.9","","73","","","","36","","22","","24.1","","101.60","","","","-10","","Snow Showers"
"-63.51","44.88","HALIFAX STANFIELD INT'L A","8202251","2020-03-16 18:00","2020","03","16","18:00","-4.3","","-7.9","","76","","","","36","","20","","24.1","","101.66","","","","-11","","Snow Showers"
"-63.51","44.88","HALIFAX STANFIELD INT'L A","8202251","2020-03-16 19:00","2020","03","16","19:00","-4.5","","-7.5","","80","","","","36","","21","","24.1","","101.68","","","","-11","","Snow Showers"
"-63.51","44.88","HALIFAX STANFIELD INT'L A","8202251","2020-03-16 20:00","2020","03","16","20:00","-5.3","","-7.9","","82","","","","3","","17","","24.1","","101.73","","","","-11","","Mostly Cloudy"
"-63.51","44.88","HALIFAX STANFIELD INT'L A","8202251","2020-03-16 21:00","2020","03","16","21:00","-5.9","","-7.9","","86","","","","1","","14","","24.1","","101.72","","","","-11","","NA"
"-63.51","44.88","HALIFAX STANFIELD INT'L A","8202251","2020-03-16 22:00","2020","03","16","22:00","-6.1","","-7.8","","88","","","","36","","10","","24.1","","101.75","","","","-11","","NA"
"-63.51","44.88","HALIFAX STANFIELD INT'L A","8202251","2020-03-16 23:00","2020","03","16","23:00","-7.1","","-8.1","","93","","","","36","","7","","24.1","","101.73","","","","-11","","Mainly Clear"
"-63.51","44.88","HALIFAX STANFIELD INT'L A","8202251","2020-03-17 00:00","2020","03","17","00:00","-7.6","","-8.3","","95","","","","2","","7","","24.1","","101.70","","","","-11","","NA"
"-63.51","44.88","HALIFAX STANFIELD INT'L A","8202251","2020-03-17 01:00","2020","03","17","01:00","-7.6","","-8.4","","94","","","","1","","8","","24.1","","101.68","","","","-12","","NA"
"-63.51","44.88","HALIFAX STANFIELD INT'L A","8202251","2020-03-17 02:00","2020","03","17","02:00","-7.3","","-8.1","","94","","","","5","","7","","24.1","","101.66","","","","-11","","Clear"
"-63.51","44.88","HALIFAX STANFIELD INT'L A","8202251","2020-03-17 03:00","2020","03","17","03:00","-7.8","","-8.7","","93","","","","10","","8","","24.1","","101.56","","","","-12","","NA"
"-63.51","44.88","HALIFAX STANFIELD INT'L A","8202251","2020-03-17 04:00","2020","03","17","04:00","-7.9","","-8.2","","98","","","","13","","12","","24.1","","101.50","","","","-13","","NA"
"-63.51","44.88","HALIFAX STANFIELD INT'L A","8202251","2020-03-17 05:00","2020","03","17","05:00","-8.1","","-8.4","","98","","","","17","","8","","24.1","","101.51","","","","-12","","Mostly Cloudy"
"-63.51","44.88","HALIFAX STANFIELD INT'L A","8202251","2020-03-17 06:00","2020","03","17","06:00","-7.4","","-7.7","","98","","","","16","","7","","24.1","","101.51","","","","-11","","NA"
"-63.51","44.88","HALIFAX STANFIELD INT'L A","8202251","2020-03-17 07:00","2020","03","17","07:00","-7.2","","-7.3","","99","","","","13","","10","","24.1","","101.50","","","","-12","","NA"
"-63.51","44.88","HALIFAX STANFIELD INT'L A","8202251","2020-03-17 08:00","2020","03","17","08:00","-4.6","","-5.7","","92","","","","14","","9","","24.1","","101.45","","","","-8","","Mainly Clear"
"-63.51","44.88","HALIFAX STANFIELD INT'L A","8202251","2020-03-17 09:00","2020","03","17","09:00","-2.5","","-5.5","","80","","","","16","","16","","24.1","","101.37","","","","-8","","NA"
"-63.51","44.88","HALIFAX STANFIELD INT'L A","8202251","2020-03-17 10:00","2020","03","17","10:00","-1.0","","-6.7","","65","","","","17","","27","","24.1","","101.28","","","","-7","","NA"
"-63.51","44.88","HALIFAX STANFIELD INT'L A","8202251","2020-03-17 11:00","2020","03","17","11:00","-0.3","","-7.3","","59","","","","17","","28","","24.1","","101.17","","","","-7","","Mostly Cloudy"
"-63.51","44.88","HALIFAX STANFIELD INT'L A","8202251","2020-03-17 12:00","2020","03","17","12:00","0.8","","-6.5","","58","","","","17","","37","","24.1","","101.08","","","","","","NA"
"-63.51","44.88","HALIFAX STANFIELD INT'L A","8202251","2020-03-17 13:00","2020","03","17","13:00","0.9","","-7.0","","56","","","","19","","36","","24.1","","100.93","","","","","","NA"
"-63.51","44.88","HALIFAX STANFIELD INT'L A","8202251","2020-03-17 14:00","2020","03","17","14:00","0.5","","-5.6","","64","","","","18","","28","","24.1","","100.82","","","","","","Cloudy"
"-63.51","44.88","HALIFAX STANFIELD INT'L A","8202251","2020-03-17 15:00","2020","03","17","15:00","0.3","","-4.2","","72","","","","17","","18","","24.1","","100.68","","","","","","NA"
"-63.51","44.88","HALIFAX STANFIELD INT'L A","8202251","2020-03-17 16:00","2020","03","17","16:00","0.4","","-3.3","","76","","","","17","","25","","24.1","","100.57","","","","","","Snow Showers"
"-63.51","44.88","HALIFAX STANFIELD INT'L A","8202251","2020-03-17 17:00","2020","03","17","17:00","0.1","","-1.8","","87","","","","17","","26","","9.7","","100.44","","","","","","Snow,Snow Showers"
"-63.51","44.88","HALIFAX STANFIELD INT'L A","8202251","2020-03-17 18:00","2020","03","17","18:00","0.6","","-0.6","","92","","","","16","","19","","19.3","","100.34","","","","","","Snow Showers"
"-63.51","44.88","HALIFAX STANFIELD INT'L A","8202251","2020-03-17 19:00","2020","03","17","19:00","0.4","","0.4","","100","","","","17","","29","","2.4","","100.23","","","","","","Snow"
"-63.51","44.88","HALIFAX STANFIELD INT'L A","8202251","2020-03-17 20:00","2020","03","17","20:00","0.2","","0.2","","100","","","","17","","27","","2.4","","100.11","","","","","","Snow"
"-63.51","44.88","HALIFAX STANFIELD INT'L A","8202251","2020-03-17 21:00","2020","03","17","21:00","0.2","","0.2","","100","","","","19","","18","","2.4","","100.11","","","","","","Snow"
"-63.51","44.88","HALIFAX STANFIELD INT'L A","8202251","2020-03-17 22:00","2020","03","17","22:00","0.0","","0.0","","100","","","","13","","18","","4.8","","99.89","","","","-5","","Rain,Snow,Fog"
"-63.51","44.88","HALIFAX STANFIELD INT'L A","8202251","2020-03-17 23:00","2020","03","17","23:00","0.3","","0.3","","100","","","","13","","13","","3.2","","99.69","","","","","","Drizzle,Fog"
"-63.51","44.88","HALIFAX STANFIELD INT'L A","8202251","2020-03-18 00:00","2020","03","18","00:00","0.6","","0.6","","100","","","","14","","10","","3.2","","99.57","","","","","","Drizzle,Fog"
"-63.51","44.88","HALIFAX STANFIELD INT'L A","8202251","2020-03-18 01:00","2020","03","18","01:00","-0.2","","-0.2","","100","","","","34","","19","","0.4","","99.60","","","","-5","","Freezing Drizzle,Freezing Fog"
"-63.51","44.88","HALIFAX STANFIELD INT'L A","8202251","2020-03-18 02:00","2020","03","18","02:00","0.0","","0.0","","100","","","","34","","19","","1.6","","99.65","","","","-5","","Fog"
"-63.51","44.88","HALIFAX STANFIELD INT'L A","8202251","2020-03-18 03:00","2020","03","18","03:00","0.0","","0.0","","100","","","","33","","17","","3.2","","99.71","","","","-5","","Fog"
"-63.51","44.88","HALIFAX STANFIELD INT'L A","8202251","2020-03-18 04:00","2020","03","18","04:00","0.7","","0.7","","100","","","","30","","31","","24.1","","99.82","","","","","","NA"
"-63.51","44.88","HALIFAX STANFIELD INT'L A","8202251","2020-03-18 05:00","2020","03","18","05:00","0.4","","0.4","","100","","","","30","","22","","24.1","","99.94","","","","","","Mainly Clear"
"-63.51","44.88","HALIFAX STANFIELD INT'L A","8202251","2020-03-18 06:00","2020","03","18","06:00","0.3","","0.3","","100","","","","30","","29","","24.1","","100.04","","","","","","NA"
"-63.51","44.88","HALIFAX STANFIELD INT'L A","8202251","2020-03-18 07:00","2020","03","18","07:00","0.4","","0.0","","97","","","","31","","32","","24.1","","100.18","","","","","","NA"
"-63.51","44.88","HALIFAX STANFIELD INT'L A","8202251","2020-03-18 08:00","2020","03","18","08:00","0.5","","-1.1","","89","","","","31","","32","","24.1","","100.32","","","","","","Mainly Clear"
"-63.51","44.88","HALIFAX STANFIELD INT'L A","8202251","2020-03-18 09:00","2020","03","18","09:00","0.9","","-2.8","","77","","","","32","","35","","24.1","","100.43","","","","","","NA"
"-63.51","44.88","HALIFAX STANFIELD INT'L A","8202251","2020-03-18 10:00","2020","03","18","10:00","1.5","","-4.0","","67","","","","30","","36","","24.1","","100.54","","","","","","NA"
"-63.51","44.88","HALIFAX STANFIELD INT'L A","8202251","2020-03-18 11:00","2020","03","18","11:00","2.2","","-3.8","","65","","","","32","","35","","24.1","","100.63","","","","","","Mostly Cloudy"
"-63.51","44.88","HALIFAX STANFIELD INT'L A","8202251","2020-03-18 12:00","2020","03","18","12:00","3.0","","-4.2","","59","","","","30","","28","","24.1","","100.70","","","","","","NA"
"-63.51","44.88","HALIFAX STANFIELD INT'L A","8202251","2020-03-18 13:00","2020","03","18","13:00","3.5","","-4.6","","56","","","","28","","29","","24.1","","100.76","","","","","","NA"
"-63.51","44.88","HALIFAX STANFIELD INT'L A","8202251","2020-03-18 14:00","2020","03","18","14:00","3.7","","-7.3","","44","","","","31","","35","","24.1","","100.83","","","","","","Mainly Clear"
"-63.51","44.88","HALIFAX STANFIELD INT'L A","8202251","2020-03-18 15:00","2020","03","18","15:00","3.3","","-7.6","","45","","","","31","","34","","24.1","","100.90","","","","","","NA"
"-63.51","44.88","HALIFAX STANFIELD INT'L A","8202251","2020-03-18 16:00","2020","03","18","16:00","2.8","","-9.4","","40","","","","29","","27","","24.1","","100.95","","","","","","NA"
"-63.51","44.88","HALIFAX STANFIELD INT'L A","8202251","2020-03-18 17:00","2020","03","18","17:00","2.2","","-8.8","","44","","","","30","","26","","24.1","","101.03","","","","","","Mainly Clear"
"-63.51","44.88","HALIFAX STANFIELD INT'L A","8202251","2020-03-18 18:00","2020","03","18","18:00","1.3","","-9.0","","46","","","","29","","20","","24.1","","101.14","","","","","","NA"
"-63.51","44.88","HALIFAX STANFIELD INT'L A","8202251","2020-03-18 19:00","2020","03","18","19:00","-0.1","","-9.5","","49","","","","30","","12","","24.1","","101.26","","","","-4","","NA"
"-63.51","44.88","HALIFAX STANFIELD INT'L A","8202251","2020-03-18 20:00","2020","03","18","20:00","-0.9","","-9.0","","54","","","","26","","13","","24.1","","101.39","","","","-5","","Mainly Clear"
"-63.51","44.88","HALIFAX STANFIELD INT'L A","8202251","2020-03-18 21:00","2020","03","18","21:00","-1.0","","-8.4","","58","","","","25","","14","","24.1","","101.46","","","","-5","","NA"
"-63.51","44.88","HALIFAX STANFIELD INT'L A","8202251","2020-03-18 22:00","2020","03","18","22:00","-1.3","","-7.7","","62","","","","26","","10","","24.1","","101.53","","","","-5","","NA"
"-63.51","44.88","HALIFAX STANFIELD INT'L A","8202251","2020-03-18 23:00","2020","03","18","23:00","-1.8","","-7.5","","65","","","","28","","8","","24.1","","101.57","","","","-5","","Mostly Cloudy"
"-63.51","44.88","HALIFAX STANFIELD INT'L A","8202251","2020-03-19 00:00","2020","03","19","00:00","-2.5","","-7.1","","71","","","","25","","7","","24.1","","101.57","","","","-5","","NA"
"-63.51","44.88","HALIFAX STANFIELD INT'L A","8202251","2020-03-19 01:00","2020","03","19","01:00","-1.7","","-7.2","","66","","","","26","","5","","24.1","","101.66","","","","-4","","NA"
"-63.51","44.88","HALIFAX STANFIELD INT'L A","8202251","2020-03-19 02:00","2020","03","19","02:00","-1.9","","-7.7","","65","","","","28","","3","","24.1","","101.68","","","","-3","","Mostly Cloudy"
"-63.51","44.88","HALIFAX STANFIELD INT'L A","8202251","2020-03-19 03:00","2020","03","19","03:00","-1.7","","-7.6","","64","","","","20","","4","","24.1","","101.67","","","","-3","","NA"
"-63.51","44.88","HALIFAX STANFIELD INT'L A","8202251","2020-03-19 04:00","2020","03","19","04:00","-2.4","","-6.8","","72","","","","21","","8","","24.1","","101.70","","","","-6","","NA"
"-63.51","44.88","HALIFAX STANFIELD INT'L A","8202251","2020-03-19 05:00","2020","03","19","05:00","-1.8","","-6.8","","69","","","","23","","6","","24.1","","101.78","","","","-4","","Mostly Cloudy"
"-63.51","44.88","HALIFAX STANFIELD INT'L A","8202251","2020-03-19 06:00","2020","03","19","06:00","-2.6","","-6.4","","75","","","","19","","7","","24.1","","101.83","","","","-5","","NA"
"-63.51","44.88","HALIFAX STANFIELD INT'L A","8202251","2020-03-19 07:00","2020","03","19","07:00","-1.0","","-9.7","","52","","","","14","","4","","24.1","","101.87","","","","-2","","NA"
"-63.51","44.88","HALIFAX STANFIELD INT'L A","8202251","2020-03-19 08:00","2020","03","19","08:00","-0.9","","-7.1","","63","","","","13","","6","","24.1","","101.95","","","","-3","","Mostly Cloudy"
"-63.51","44.88","HALIFAX STANFIELD INT'L A","8202251","2020-03-19 09:00","2020","03","19","09:00","1.0","","-8.3","","50","","","","15","","11","","24.1","","102.00","","","","","","NA"
"-63.51","44.88","HALIFAX STANFIELD INT'L A","8202251","2020-03-19 10:00","2020","03","19","10:00","2.6","","-10.5","","38","","","","14","","18","","24.1","","102.01","","","","","","NA"
"-63.51","44.88","HALIFAX STANFIELD INT'L A","8202251","2020-03-19 11:00","2020","03","19","11:00"
"-63.51","44.88","HALIFAX STANFIELD INT'L A","8202251","2020-03-19 12:00","2020","03","19","12:00","3.7","","-8.6","","40","","","","15","","15","","24.1","","101.93","","","","","","NA"
"-63.51","44.88","HALIFAX STANFIELD INT'L A","8202251","2020-03-19 13:00","2020","03","19","13:00","4.4","","-9.1","","37","","","","16","","17","","24.1","","101.89","","","","","","NA"
"-63.51","44.88","HALIFAX STANFIELD INT'L A","8202251","2020-03-19 14:00","2020","03","19","14:00","4.5","","-7.7","","41","","","","18","","18","","24.1","","101.87","","","","","","Mostly Cloudy"
"-63.51","44.88","HALIFAX STANFIELD INT'L A","8202251","2020-03-19 15:00","2020","03","19","15:00","3.5","","-9.0","","40","","","","16","","19","","24.1","","101.82","","","","","","NA"
"-63.51","44.88","HALIFAX STANFIELD INT'L A","8202251","2020-03-19 16:00","2020","03","19","16:00","2.8","","-9.4","","40","","","","18","","17","","24.1","","101.70","","","","","","NA"
"-63.51","44.88","HALIFAX STANFIELD INT'L A","8202251","2020-03-19 17:00","2020","03","19","17:00","2.8","","-8.9","","42","","","","17","","16","","24.1","","101.72","","","","","","Mostly Cloudy"
"-63.51","44.88","HALIFAX STANFIELD INT'L A","8202251","2020-03-19 18:00","2020","03","19","18:00","1.5","","-4.4","","65","","","","15","","21","","24.1","","101.64","","","","","","NA"
"-63.51","44.88","HALIFAX STANFIELD INT'L A","8202251","2020-03-19 19:00","2020","03","19","19:00","1.1","","-2.1","","79","","","","14","","18","","24.1","","101.71","","","","","","NA"
"-63.51","44.88","HALIFAX STANFIELD INT'L A","8202251","2020-03-19 20:00","2020","03","19","20:00","0.9","","-2.5","","78","","","","13","","16","","24.1","","101.75","","","","","","Cloudy"
"-63.51","44.88","HALIFAX STANFIELD INT'L A","8202251","2020-03-19 21:00","2020","03","19","21:00","1.0","","-1.3","","85","","","","12","","17","","24.1","","101.70","","","","","","NA"
"-63.51","44.88","HALIFAX STANFIELD INT'L A","8202251","2020-03-19 22:00","2020","03","19","22:00","1.2","","-0.9","","86","","","","12","","14","","24.1","","101.64","","","","","","NA"
"-63.51","44.88","HALIFAX STANFIELD INT'L A","8202251","2020-03-19 23:00","2020","03","19","23:00","1.6","","1.5","","99","","","","13","","20","","16.1","","101.53","","","","","","Rain"
"-63.51","44.88","HALIFAX STANFIELD INT'L A","8202251","2020-03-20 00:00","2020","03","20","00:00","2.6","","2.6","","100","","","","14","","19","","9.7","","101.42","","","","","","Rain"
"-63.51","44.88","HALIFAX STANFIELD INT'L A","8202251","2020-03-20 01:00","2020","03","20","01:00","2.9","","2.9","","100","","","","14","","25","","9.7","","101.29","","","","","","Rain"
"-63.51","44.88","HALIFAX STANFIELD INT'L A","8202251","2020-03-20 02:00","2020","03","20","02:00","3.2","","3.2","","100","","","","14","","27","","4.8","","101.17","","","","","","Rain,Fog"
"-63.51","44.88","HALIFAX STANFIELD INT'L A","8202251","2020-03-20 03:00","2020","03","20","03:00","3.4","","3.4","","100","","","","14","","31","","4.8","","100.95","","","","","","Rain,Fog"
"-63.51","44.88","HALIFAX STANFIELD INT'L A","8202251","2020-03-20 04:00","2020","03","20","04:00","4.0","","4.0","","100","","","","14","","30","","3.2","","100.78","","","","","","Rain,Fog"
"-63.51","44.88","HALIFAX STANFIELD INT'L A","8202251","2020-03-20 05:00","2020","03","20","05:00","4.2","","4.2","","100","","","","14","","27","","3.2","","100.63","","","","","","Rain,Fog"
"-63.51","44.88","HALIFAX STANFIELD INT'L A","8202251","2020-03-20 06:00","2020","03","20","06:00","5.3","","5.3","","100","","","","14","","33","","3.2","","100.46","","","","","","Rain,Fog"
"-63.51","44.88","HALIFAX STANFIELD INT'L A","8202251","2020-03-20 07:00","2020","03","20","07:00","5.3","","5.3","","100","","","","13","","40","","2.4","","100.25","","","","","","Rain,Fog"
"-63.51","44.88","HALIFAX STANFIELD INT'L A","8202251","2020-03-20 08:00","2020","03","20","08:00","5.4","","5.4","","100","","","","14","","32","","2.4","","100.06","","","","","","Rain,Fog"
"-63.51","44.88","HALIFAX STANFIELD INT'L A","8202251","2020-03-20 09:00","2020","03","20","09:00","6.2","","6.2","","100","","","","16","","34","","2.4","","99.84","","","","","","Rain,Fog"
"-63.51","44.88","HALIFAX STANFIELD INT'L A","8202251","2020-03-20 10:00","2020","03","20","10:00","7.0","","7.0","","100","","","","17","","28","","2.4","","99.68","","","","","","Rain,Fog"
"-63.51","44.88","HALIFAX STANFIELD INT'L A","8202251","2020-03-20 11:00","2020","03","20","11:00","7.6","","7.6","","100","","","","18","","28","","0.4","","99.50","","","","","","Drizzle,Fog"
"-63.51","44.88","HALIFAX STANFIELD INT'L A","8202251","2020-03-20 12:00","2020","03","20","12:00","7.3","","7.3","","100","","","","19","","32","","9.7","","99.38","","","","","","Fog"
"-63.51","44.88","HALIFAX STANFIELD INT'L A","8202251","2020-03-20 13:00","2020","03","20","13:00","7.3","","7.3","","100","","","","21","","29","","16.1","","99.29","","","","","","NA"
"-63.51","44.88","HALIFAX STANFIELD INT'L A","8202251","2020-03-20 14:00","2020","03","20","14:00","7.4","","7.4","","100","","","","19","","26","","4.8","","99.17","","","","","","Fog"
"-63.51","44.88","HALIFAX STANFIELD INT'L A","8202251","2020-03-20 15:00","2020","03","20","15:00","6.5","","6.5","","100","","","","19","","34","","1.2","","99.04","","","","","","Fog"
"-63.51","44.88","HALIFAX STANFIELD INT'L A","8202251","2020-03-20 16:00","2020","03","20","16:00","8.1","","8.1","","100","","","","20","","27","","4.8","","98.87","","","","","","Fog"
"-63.51","44.88","HALIFAX STANFIELD INT'L A","8202251","2020-03-20 17:00","2020","03","20","17:00","6.7","","6.7","","100","","","","20","","29","","0.8","","98.80","","","","","","Rain,Fog"
"-63.51","44.88","HALIFAX STANFIELD INT'L A","8202251","2020-03-20 18:00","2020","03","20","18:00","6.4","","6.4","","100","","","","21","","28","","1.2","","98.70","","","","","","Rain,Fog"
"-63.51","44.88","HALIFAX STANFIELD INT'L A","8202251","2020-03-20 19:00","2020","03","20","19:00","6.0","","6.0","","100","","","","20","","28","","4.8","","98.55","","","","","","Rain,Fog"
"-63.51","44.88","HALIFAX STANFIELD INT'L A","8202251","2020-03-20 20:00","2020","03","20","20:00","7.0","","7.0","","100","","","","20","","35","","0.6","","98.38","","","","","","Fog"
"-63.51","44.88","HALIFAX STANFIELD INT'L A","8202251","2020-03-20 21:00","2020","03","20","21:00","6.5","","6.5","","100","","","","21","","35","","0.4","","98.39","","","","","","Fog"
"-63.51","44.88","HALIFAX STANFIELD INT'L A","8202251","2020-03-20 22:00","2020","03","20","22:00","6.8","","6.8","","100","","","","21","","38","","0.4","","98.34","","","","","","Rain,Fog"
"-63.51","44.88","HALIFAX STANFIELD INT'L A","8202251","2020-03-20 23:00","2020","03","20","23:00","7.4","","7.4","","100","","","","22","","35","","0.4","","98.29","","","","","","Rain,Fog"
"-63.51","44.88","HALIFAX STANFIELD INT'L A","8202251","2020-03-21 00:00","2020","03","21","00:00","8.6","","8.6","","100","","","","22","","35","","1.6","","98.30","","","","","","Fog"
"-63.51","44.88","HALIFAX STANFIELD INT'L A","8202251","2020-03-21 01:00","2020","03","21","01:00","10.1","","10.1","","100","","","","23","","32","","12.9","","98.30","","","","","","NA"
"-63.51","44.88","HALIFAX STANFIELD INT'L A","8202251","2020-03-21 02:00","2020","03","21","02:00","10.3","","10.3","","100","","","","23","","27","","8.1","","98.37","","","","","","Fog"
"-63.51","44.88","HALIFAX STANFIELD INT'L A","8202251","2020-03-21 03:00","2020","03","21","03:00","10.6","","9.4","","92","","","","28","","29","","16.1","","98.49","","","","","","NA"
"-63.51","44.88","HALIFAX STANFIELD INT'L A","8202251","2020-03-21 04:00","2020","03","21","04:00","8.7","","6.5","","86","","","","28","","26","","24.1","","98.56","","","","","","NA"
"-63.51","44.88","HALIFAX STANFIELD INT'L A","8202251","2020-03-21 05:00","2020","03","21","05:00","7.4","","4.2","","80","","","","30","","31","","24.1","","98.68","","","","","","Mainly Clear"
"-63.51","44.88","HALIFAX STANFIELD INT'L A","8202251","2020-03-21 06:00","2020","03","21","06:00","5.7","","2.5","","80","","","","30","","28","","24.1","","98.87","","","","","","NA"
"-63.51","44.88","HALIFAX STANFIELD INT'L A","8202251","2020-03-21 07:00","2020","03","21","07:00","4.4","","1.1","","79","","","","30","","39","","24.1","","99.06","","","","","","NA"
"-63.51","44.88","HALIFAX STANFIELD INT'L A","8202251","2020-03-21 08:00","2020","03","21","08:00","4.0","","-1.1","","69","","","","31","","42","","24.1","","99.21","","","","","","Mainly Clear"
"-63.51","44.88","HALIFAX STANFIELD INT'L A","8202251","2020-03-21 09:00","2020","03","21","09:00","3.7","","-3.7","","59","","","","30","","48","","24.1","","99.39","","","","","","NA"
"-63.51","44.88","HALIFAX STANFIELD INT'L A","8202251","2020-03-21 10:00","2020","03","21","10:00","3.9","","-3.5","","59","","","","30","","50","","24.1","","99.55","","","","","","NA"
"-63.51","44.88","HALIFAX STANFIELD INT'L A","8202251","2020-03-21 11:00","2020","03","21","11:00","3.9","","-4.6","","54","","","","32","","44","","24.1","","99.65","","","","","","Mainly Clear"
"-63.51","44.88","HALIFAX STANFIELD INT'L A","8202251","2020-03-21 12:00","2020","03","21","12:00","3.9","","-7.0","","45","","","","31","","44","","24.1","","99.80","","","","","","NA"
"-63.51","44.88","HALIFAX STANFIELD INT'L A","8202251","2020-03-21 13:00","2020","03","21","13:00","4.3","","-5.6","","49","","","","31","","28","","24.1","","99.93","","","","","","NA"
"-63.51","44.88","HALIFAX STANFIELD INT'L A","8202251","2020-03-21 14:00","2020","03","21","14:00","4.1","","-8.1","","41","","","","29","","26","","24.1","","99.97","","","","","","Mostly Cloudy"
"-63.51","44.88","HALIFAX STANFIELD INT'L A","8202251","2020-03-21 15:00","2020","03","21","15:00","3.9","","-8.4","","40","","","","33","","28","","24.1","","100.06","","","","","","NA"
"-63.51","44.88","HALIFAX STANFIELD INT'L A","8202251","2020-03-21 16:00","2020","03","21","16:00","3.3","","-10.6","","36","","","","31","","36","","24.1","","100.08","","","","","","NA"
"-63.51","44.88","HALIFAX STANFIELD INT'L A","8202251","2020-03-21 17:00","2020","03","21","17:00","2.5","","-12.8","","32","","","","33","","29","","24.1","","100.17","","","","","","Mainly Clear"
"-63.51","44.88","HALIFAX STANFIELD INT'L A","8202251","2020-03-21 18:00","2020","03","21","18:00","1.5","","-13.9","","31","","","","31","","27","","24.1","","100.28","","","","","","NA"
"-63.51","44.88","HALIFAX STANFIELD INT'L A","8202251","2020-03-21 19:00","2020","03","21","19:00","-0.2","","-13.4","","37","","","","31","","14","","24.1","","100.41","","","","-4","","NA"
"-63.51","44.88","HALIFAX STANFIELD INT'L A","8202251","2020-03-21 20:00","2020","03","21","20:00","-1.3","","-12.6","","42","","","","30","","17","","24.1","","100.54","","","","-6","","Mainly Clear"
"-63.51","44.88","HALIFAX STANFIELD INT'L A","8202251","2020-03-21 21:00","2020","03","21","21:00","-2.1","","-13.2","","43","","","","33","","16","","24.1","","100.63","","","","-7","","NA"
"-63.51","44.88","HALIFAX STANFIELD INT'L A","8202251","2020-03-21 22:00","2020","03","21","22:00","-2.4","","-13.3","","43","","","","33","","22","","24.1","","100.71","","","","-9","","NA"
"-63.51","44.88","HALIFAX STANFIELD INT'L A","8202251","2020-03-21 23:00","2020","03","21","23:00","-3.4","","-13.8","","45","","","","34","","17","","24.1","","100.81","","","","-9","","Clear"
"-63.51","44.88","HALIFAX STANFIELD INT'L A","8202251","2020-03-22 00:00","2020","03","22","00:00","-4.3","","-14.7","","45","","","","34","","17","","24.1","","100.84","","","","-10","","NA"
"-63.51","44.88","HALIFAX STANFIELD INT'L A","8202251","2020-03-22 01:00","2020","03","22","01:00","-5.2","","-15.3","","45","","","","33","","25","","24.1","","100.91","","","","-13","","NA"
"-63.51","44.88","HALIFAX STANFIELD INT'L A","8202251","2020-03-22 02:00","2020","03","22","02:00","-6.1","","-16.1","","46","","","","34","","26","","24.1","","100.98","","","","-14","","Clear"
"-63.51","44.88","HALIFAX STANFIELD INT'L A","8202251","2020-03-22 03:00","2020","03","22","03:00","-6.9","","-15.4","","51","","","","33","","23","","24.1","","101.01","","","","-14","","NA"
"-63.51","44.88","HALIFAX STANFIELD INT'L A","8202251","2020-03-22 04:00","2020","03","22","04:00","-8.0","","-16.2","","52","","","","34","","22","","24.1","","101.11","","","","-16","","NA"
"-63.51","44.88","HALIFAX STANFIELD INT'L A","8202251","2020-03-22 05:00","2020","03","22","05:00","-8.6","","-15.8","","56","","","","34","","22","","24.1","","101.19","","","","-16","","Clear"
"-63.51","44.88","HALIFAX STANFIELD INT'L A","8202251","2020-03-22 06:00","2020","03","22","06:00","-9.4","","-15.9","","60","","","","34","","22","","24.1","","101.28","","","","-17","","NA"
"-63.51","44.88","HALIFAX STANFIELD INT'L A","8202251","2020-03-22 07:00","2020","03","22","07:00","-9.6","","-15.7","","61","","","","34","","26","","24.1","","101.38","","","","-18","","NA"
"-63.51","44.88","HALIFAX STANFIELD INT'L A","8202251","2020-03-22 08:00","2020","03","22","08:00","-9.0","","-16.2","","56","","","","34","","23","","24.1","","101.45","","","","-17","","Mainly Clear"
"-63.51","44.88","HALIFAX STANFIELD INT'L A","8202251","2020-03-22 09:00","2020","03","22","09:00","-8.0","","-16.2","","52","","","","34","","25","","24.1","","101.50","","","","-16","","NA"
"-63.51","44.88","HALIFAX STANFIELD INT'L A","8202251","2020-03-22 10:00","2020","03","22","10:00","-7.3","","-15.8","","51","","","","31","","24","","24.1","","101.51","","","","-15","","NA"
"-63.51","44.88","HALIFAX STANFIELD INT'L A","8202251","2020-03-22 11:00","2020","03","22","11:00","-6.3","","-16.9","","43","","","","33","","34","","24.1","","101.50","","","","-15","","Mainly Clear"
"-63.51","44.88","HALIFAX STANFIELD INT'L A","8202251","2020-03-22 12:00","2020","03","22","12:00","-5.7","","-16.5","","43","","","","32","","27","","24.1","","101.51","","","","-14","","NA"
"-63.51","44.88","HALIFAX STANFIELD INT'L A","8202251","2020-03-22 13:00","2020","03","22","13:00","-4.7","","-15.6","","43","","","","31","","31","","24.1","","101.52","","","","-13","","NA"
"-63.51","44.88","HALIFAX STANFIELD INT'L A","8202251","2020-03-22 14:00","2020","03","22","14:00","-4.3","","-17.0","","37","","","","31","","21","","24.1","","101.56","","","","-11","","Clear"
"-63.51","44.88","HALIFAX STANFIELD INT'L A","8202251","2020-03-22 15:00","2020","03","22","15:00","-4.1","","-17.0","","36","","","","32","","31","","24.1","","101.60","","","","-12","","NA"
"-63.51","44.88","HALIFAX STANFIELD INT'L A","8202251","2020-03-22 16:00","2020","03","22","16:00","-3.7","","-17.8","","33","","","","32","","28","","24.1","","101.65","","","","-11","","NA"
"-63.51","44.88","HALIFAX STANFIELD INT'L A","8202251","2020-03-22 17:00","2020","03","22","17:00","-3.8","","-18.3","","32","","","","32","","32","","24.1","","101.71","","","","-12","","Clear"
"-63.51","44.88","HALIFAX STANFIELD INT'L A","8202251","2020-03-22 18:00","2020","03","22","18:00","-4.3","","-18.7","","32","","","","32","","24","","24.1","","101.79","","","","-11","","NA"
"-63.51","44.88","HALIFAX STANFIELD INT'L A","8202251","2020-03-22 19:00","2020","03","22","19:00","-5.4","","-16.8","","41","","","","33","","16","","24.1","","101.87","","","","-11","","NA"
"-63.51","44.88","HALIFAX STANFIELD INT'L A","8202251","2020-03-22 20:00","2020","03","22","20:00","-5.9","","-15.9","","46","","","","31","","10","","24.1","","101.95","","","","-10","","Clear"
"-63.51","44.88","HALIFAX STANFIELD INT'L A","8202251","2020-03-22 21:00","2020","03","22","21:00","-6.4","","-16.0","","47","","","","26","","12","","24.1","","102.03","","","","-12","","NA"
"-63.51","44.88","HALIFAX STANFIELD INT'L A","8202251","2020-03-22 22:00","2020","03","22","22:00","-7.5","","-15.1","","55","","","","1","","5","","24.1","","102.13","","","","-10","","NA"
"-63.51","44.88","HALIFAX STANFIELD INT'L A","8202251","2020-03-22 23:00","2020","03","22","23:00","-7.3","","-15.0","","54","","","","7","","4","","24.1","","102.18","","","","-9","","Clear"
"-63.51","44.88","HALIFAX STANFIELD INT'L A","8202251","2020-03-23 00:00","2020","03","23","00:00","-9.3","","-15.1","","63","","","","22","","7","","24.1","","102.20","","","","-13","","NA"
"-63.51","44.88","HALIFAX STANFIELD INT'L A","8202251","2020-03-23 01:00","2020","03","23","01:00","-9.5","","-14.9","","65","","","","23","","7","","24.1","","102.22","","","","-13","","NA"
"-63.51","44.88","HALIFAX STANFIELD INT'L A","8202251","2020-03-23 02:00","2020","03","23","02:00","-8.4","","-15.6","","56","","","","19","","5","","24.1","","102.26","","","","-11","","Clear"
"-63.51","44.88","HALIFAX STANFIELD INT'L A","8202251","2020-03-23 03:00","2020","03","23","03:00","-9.4","","-15.5","","61","","","","21","","6","","24.1","","102.26","","","","-13","","NA"
"-63.51","44.88","HALIFAX STANFIELD INT'L A","8202251","2020-03-23 04:00","2020","03","23","04:00","-8.9","","-15.6","","59","","","","28","","3","","24.1","","102.28","","","","-11","","NA"
"-63.51","44.88","HALIFAX STANFIELD INT'L A","8202251","2020-03-23 05:00","2020","03","23","05:00","-8.9","","-15.3","","60","","","","35","","7","","24.1","","102.28","","","","-13","","Clear"
"-63.51","44.88","HALIFAX STANFIELD INT'L A","8202251","2020-03-23 06:00","2020","03","23","06:00","-8.8","","-14.9","","62","","","","28","","5","","24.1","","102.33","","","","-12","","NA"
"-63.51","44.88","HALIFAX STANFIELD INT'L A","8202251","2020-03-23 07:00","2020","03","23","07:00","-8.3","","-14.4","","62","","","","36","","2","","24.1","","102.39","","","","-9","","NA"
"-63.51","44.88","HALIFAX STANFIELD INT'L A","8202251","2020-03-23 08:00","2020","03","23","08:00","-5.8","","-14.6","","50","","","","12","","9","","24.1","","102.41","","","","-10","","Mostly Cloudy"
"-63.51","44.88","HALIFAX STANFIELD INT'L A","8202251","2020-03-23 09:00","2020","03","23","09:00","-4.2","","-14.6","","45","","","","15","","12","","24.1","","102.34","","","","-9","","NA"
"-63.51","44.88","HALIFAX STANFIELD INT'L A","8202251","2020-03-23 10:00","2020","03","23","10:00","-2.5","","-16.7","","33","","","","22","","10","","24.1","","102.35","","","","-6","","NA"
"-63.51","44.88","HALIFAX STANFIELD INT'L A","8202251","2020-03-23 11:00","2020","03","23","11:00","-1.0","","-14.6","","35","","","","24","","23","","24.1","","102.32","","","","-7","","Cloudy"
"-63.51","44.88","HALIFAX STANFIELD INT'L A","8202251","2020-03-23 12:00","2020","03","23","12:00","-0.5","","-14.4","","34","","","","16","","12","","24.1","","102.19","","","","-4","","NA"
"-63.51","44.88","HALIFAX STANFIELD INT'L A","8202251","2020-03-23 13:00","2020","03","23","13:00","0.2","","-13.5","","35","","","","18","","17","","24.1","","102.10","","","","","","NA"
"-63.51","44.88","HALIFAX STANFIELD INT'L A","8202251","2020-03-23 14:00","2020","03","23","14:00","0.0","","-12.7","","38","","","","18","","17","","24.1","","102.05","","","","-5","","Cloudy"
"-63.51","44.88","HALIFAX STANFIELD INT'L A","8202251","2020-03-23 15:00","2020","03","23","15:00","-0.2","","-12.0","","41","","","","20","","17","","24.1","","102.00","","","","-5","","NA"
"-63.51","44.88","HALIFAX STANFIELD INT'L A","8202251","2020-03-23 16:00","2020","03","23","16:00","-0.2","","-10.6","","46","","","","18","","20","","24.1","","101.91","","","","-5","","NA"
"-63.51","44.88","HALIFAX STANFIELD INT'L A","8202251","2020-03-23 17:00","2020","03","23","17:00","-1.6","","-10.1","","53","","","","18","","21","","24.1","","101.78","","","","-7","","Mostly Cloudy"
"-63.51","44.88","HALIFAX STANFIELD INT'L A","8202251","2020-03-23 18:00","2020","03","23","18:00","-2.4","","-8.5","","63","","","","17","","17","","24.1","","101.72","","","","-8","","NA"
"-63.51","44.88","HALIFAX STANFIELD INT'L A","8202251","2020-03-23 19:00","2020","03","23","19:00","-3.0","","-7.8","","70","","","","16","","18","","24.1","","101.67","","","","-9","","NA"
"-63.51","44.88","HALIFAX STANFIELD INT'L A","8202251","2020-03-23 20:00","2020","03","23","20:00","-3.0","","-7.5","","71","","","","15","","17","","24.1","","101.58","","","","-9","","Cloudy"
"-63.51","44.88","HALIFAX STANFIELD INT'L A","8202251","2020-03-23 21:00","2020","03","23","21:00","-3.2","","-6.6","","78","","","","14","","18","","24.1","","101.45","","","","-9","","NA"
"-63.51","44.88","HALIFAX STANFIELD INT'L A","8202251","2020-03-23 22:00","2020","03","23","22:00","-2.5","","-5.2","","82","","","","14","","19","","24.1","","101.35","","","","-8","","NA"
"-63.51","44.88","HALIFAX STANFIELD INT'L A","8202251","2020-03-23 23:00","2020","03","23","23:00","-1.8","","-4.2","","84","","","","13","","17","","24.1","","101.20","","","","-7","","Cloudy"
"-63.51","44.88","HALIFAX STANFIELD INT'L A","8202251","2020-03-24 00:00","2020","03","24","00:00","-1.3","","-2.4","","92","","","","13","","25","","24.1","","100.98","","","","-8","","NA"
"-63.51","44.88","HALIFAX STANFIELD INT'L A","8202251","2020-03-24 01:00","2020","03","24","01:00","-1.0","","-1.8","","94","","","","13","","26","","24.1","","100.87","","","","-7","","NA"
"-63.51","44.88","HALIFAX STANFIELD INT'L A","8202251","2020-03-24 02:00","2020","03","24","02:00","-0.5","","-1.3","","94","","","","12","","28","","24.1","","100.67","","","","-7","","Cloudy"
"-63.51","44.88","HALIFAX STANFIELD INT'L A","8202251","2020-03-24 03:00","2020","03","24","03:00","-0.2","","-0.6","","98","","","","12","","30","","12.9","","100.48","","","","-7","","Snow"
"-63.51","44.88","HALIFAX STANFIELD INT'L A","8202251","2020-03-24 04:00","2020","03","24","04:00","-0.1","","-0.1","","100","","","","12","","24","","3.2","","100.29","","","","-6","","Snow"
"-63.51","44.88","HALIFAX STANFIELD INT'L A","8202251","2020-03-24 05:00","2020","03","24","05:00","0.1","","0.1","","100","","","","11","","25","","3.2","","100.11","","","","","","Snow"
"-63.51","44.88","HALIFAX STANFIELD INT'L A","8202251","2020-03-24 06:00","2020","03","24","06:00","0.3","","0.3","","100","","","","10","","18","","3.2","","99.98","","","","","","Snow"
"-63.51","44.88","HALIFAX STANFIELD INT'L A","8202251","2020-03-24 07:00","2020","03","24","07:00","0.2","","0.2","","100","","","","8","","17","","1.2","","99.83","","","","","","Snow"
"-63.51","44.88","HALIFAX STANFIELD INT'L A","8202251","2020-03-24 08:00","2020","03","24","08:00","0.1","","0.1","","100","","","","6","","17","","1.2","","99.69","","","","","","Snow"
"-63.51","44.88","HALIFAX STANFIELD INT'L A","8202251","2020-03-24 09:00","2020","03","24","09:00","0.2","","0.2","","100","","","","5","","23","","0.6","","99.46","","","","","","Moderate Snow"
"-63.51","44.88","HALIFAX STANFIELD INT'L A","8202251","2020-03-24 10:00","2020","03","24","10:00","0.3","","0.3","","100","","","","4","","28","","3.2","","99.17","","","","","","Rain,Snow,Fog"
"-63.51","44.88","HALIFAX STANFIELD INT'L A","8202251","2020-03-24 11:00","2020","03","24","11:00","0.1","","0.1","","100","","","","2","","28","","4.8","","98.97","","","","","","Rain,Snow,Fog"
"-63.51","44.88","HALIFAX STANFIELD INT'L A","8202251","2020-03-24 12:00","2020","03","24","12:00","0.3","","0.3","","100","","","","2","","33","","4.8","","98.86","","","","","","Rain,Snow,Fog"
"-63.51","44.88","HALIFAX STANFIELD INT'L A","8202251","2020-03-24 13:00","2020","03","24","13:00","0.3","","0.3","","100","","","","36","","35","","1.2","","98.78","","","","","","Snow"
"-63.51","44.88","HALIFAX STANFIELD INT'L A","8202251","2020-03-24 14:00","2020","03","24","14:00","0.4","","0.4","","100","","","","36","","40","","2.0","","98.75","","","","","","Snow"
"-63.51","44.88","HALIFAX STANFIELD INT'L A","8202251","2020-03-24 15:00","2020","03","24","15:00","0.9","","0.9","","100","","","","36","","35","","24.1","","98.82","","","","","","NA"
"-63.51","44.88","HALIFAX STANFIELD INT'L A","8202251","2020-03-24 16:00","2020","03","24","16:00","1.0","","1.0","","100","","","","35","","41","","24.1","","98.88","","","","","","NA"
"-63.51","44.88","HALIFAX STANFIELD INT'L A","8202251","2020-03-24 17:00","2020","03","24","17:00","0.7","","0.6","","99","","","","35","","43","","24.1","","99.02","","","","","","Cloudy"
"-63.51","44.88","HALIFAX STANFIELD INT'L A","8202251","2020-03-24 18:00","2020","03","24","18:00","0.2","","0.1","","99","","","","34","","39","","24.1","","99.21","","","","","","NA"
"-63.51","44.88","HALIFAX STANFIELD INT'L A","8202251","2020-03-24 19:00","2020","03","24","19:00","-0.1","","-0.4","","98","","","","34","","39","","24.1","","99.31","","","","-7","","NA"
"-63.51","44.88","HALIFAX STANFIELD INT'L A","8202251","2020-03-24 20:00","2020","03","24","20:00","-0.3","","-0.7","","97","","","","34","","35","","24.1","","99.45","","","","-7","","Cloudy"
"-63.51","44.88","HALIFAX STANFIELD INT'L A","8202251","2020-03-24 21:00","2020","03","24","21:00","-1.0","","-1.3","","98","","","","33","","37","","24.1","","99.61","","","","-8","","Snow"
"-63.51","44.88","HALIFAX STANFIELD INT'L A","8202251","2020-03-24 22:00","2020","03","24","22:00","-0.9","","-1.9","","93","","","","34","","35","","24.1","","99.71","","","","-8","","NA"
"-63.51","44.88","HALIFAX STANFIELD INT'L A","8202251","2020-03-24 23:00","2020","03","24","23:00","-1.2","","-2.8","","89","","","","34","","32","","24.1","","99.82","","","","-8","","Mostly Cloudy"
"-63.51","44.88","HALIFAX STANFIELD INT'L A","8202251","2020-03-25 00:00","2020","03","25","00:00","-1.9","","-3.5","","89","","","","33","","37","","24.1","","99.90","","","","-10","","NA"
"-63.51","44.88","HALIFAX STANFIELD INT'L A","8202251","2020-03-25 01:00","2020","03","25","01:00","-2.4","","-4.0","","89","","","","34","","33","","24.1","","100.01","","","","-10","","NA"
"-63.51","44.88","HALIFAX STANFIELD INT'L A","8202251","2020-03-25 02:00","2020","03","25","02:00","-3.1","","-4.2","","92","","","","33","","17","","24.1","","100.11","","","","-9","","Mainly Clear"
"-63.51","44.88","HALIFAX STANFIELD INT'L A","8202251","2020-03-25 03:00","2020","03","25","03:00","-3.7","","-4.2","","96","","","","33","","21","","24.1","","100.14","","","","-10","","NA"
"-63.51","44.88","HALIFAX STANFIELD INT'L A","8202251","2020-03-25 04:00","2020","03","25","04:00","-4.2","","-4.5","","98","","","","33","","16","","24.1","","100.15","","","","-10","","NA"
"-63.51","44.88","HALIFAX STANFIELD INT'L A","8202251","2020-03-25 05:00","2020","03","25","05:00","-4.8","","-4.8","","100","","","","33","","10","","24.1","","100.17","","","","-9","","Mainly Clear"
"-63.51","44.88","HALIFAX STANFIELD INT'L A","8202251","2020-03-25 06:00","2020","03","25","06:00","-5.3","","-5.3","","100","","","","32","","12","","24.1","","100.27","","","","-10","","NA"
"-63.51","44.88","HALIFAX STANFIELD INT'L A","8202251","2020-03-25 07:00","2020","03","25","07:00","-5.0","","-5.0","","100","","","","32","","18","","24.1","","100.39","","","","-11","","NA"
"-63.51","44.88","HALIFAX STANFIELD INT'L A","8202251","2020-03-25 08:00","2020","03","25","08:00","-3.0","","-3.8","","94","","","","33","","12","","24.1","","100.50","","","","-7","","Mainly Clear"
"-63.51","44.88","HALIFAX STANFIELD INT'L A","8202251","2020-03-25 09:00","2020","03","25","09:00","-0.8","","-3.8","","80","","","","35","","20","","24.1","","100.50","","","","-6","","NA"
"-63.51","44.88","HALIFAX STANFIELD INT'L A","8202251","2020-03-25 10:00","2020","03","25","10:00","0.8","","-3.4","","73","","","","2","","16","","24.1","","100.59","","","","","","NA"
"-63.51","44.88","HALIFAX STANFIELD INT'L A","8202251","2020-03-25 11:00","2020","03","25","11:00","2.1","","-3.7","","65","","","","1","","18","","24.1","","100.63","","","","","","Mainly Clear"
"-63.51","44.88","HALIFAX STANFIELD INT'L A","8202251","2020-03-25 12:00","2020","03","25","12:00","3.5","","-5.2","","53","","","","2","","26","","24.1","","100.67","","","","","","NA"
"-63.51","44.88","HALIFAX STANFIELD INT'L A","8202251","2020-03-25 13:00","2020","03","25","13:00","4.1","","-5.9","","48","","","","2","","27","","24.1","","100.61","","","","","","NA"
"-63.51","44.88","HALIFAX STANFIELD INT'L A","8202251","2020-03-25 14:00","2020","03","25","14:00","4.8","","-6.1","","45","","","","4","","22","","24.1","","100.57","","","","","","Mainly Clear"
"-63.51","44.88","HALIFAX STANFIELD INT'L A","8202251","2020-03-25 15:00","2020","03","25","15:00","4.8","","-6.0","","46","","","","4","","13","","24.1","","100.55","","","","","","NA"
"-63.51","44.88","HALIFAX STANFIELD INT'L A","8202251","2020-03-25 16:00","2020","03","25","16:00","5.0","","-6.3","","44","","","","3","","18","","24.1","","100.56","","","","","","NA"
"-63.51","44.88","HALIFAX STANFIELD INT'L A","8202251","2020-03-25 17:00","2020","03","25","17:00","4.3","","-6.0","","47","","","","7","","16","","24.1","","100.64","","","","","","Mostly Cloudy"
"-63.51","44.88","HALIFAX STANFIELD INT'L A","8202251","2020-03-25 18:00","2020","03","25","18:00","3.1","","-5.8","","52","","","","7","","13","","24.1","","100.63","","","","","","NA"
"-63.51","44.88","HALIFAX STANFIELD INT'L A","8202251","2020-03-25 19:00","2020","03","25","19:00","1.0","","-3.1","","74","","","","13","","7","","24.1","","100.62","","","","","","NA"
"-63.51","44.88","HALIFAX STANFIELD INT'L A","8202251","2020-03-25 20:00","2020","03","25","20:00","0.2","","-3.0","","79","","","","12","","7","","24.1","","100.62","","","","","","Mostly Cloudy"
"-63.51","44.88","HALIFAX STANFIELD INT'L A","8202251","2020-03-25 21:00","2020","03","25","21:00","-0.2","","-3.4","","79","","","","9","","8","","24.1","","100.60","","","","-3","","NA"
"-63.51","44.88","HALIFAX STANFIELD INT'L A","8202251","2020-03-25 22:00","2020","03","25","22:00","-0.7","","-3.7","","80","","","","9","","5","","24.1","","100.61","","","","-2","","NA"
"-63.51","44.88","HALIFAX STANFIELD INT'L A","8202251","2020-03-25 23:00","2020","03","25","23:00","-1.0","","-4.9","","75","","","","9","","12","","24.1","","100.57","","","","-5","","Mostly Cloudy"
"-63.51","44.88","HALIFAX STANFIELD INT'L A","8202251","2020-03-26 00:00","2020","03","26","00:00","-1.0","","-5.2","","73","","","","9","","16","","24.1","","100.50","","","","-6","","NA"
"-63.51","44.88","HALIFAX STANFIELD INT'L A","8202251","2020-03-26 01:00","2020","03","26","01:00","-1.1","","-4.8","","76","","","","10","","14","","24.1","","100.45","","","","-6","","NA"
"-63.51","44.88","HALIFAX STANFIELD INT'L A","8202251","2020-03-26 02:00","2020","03","26","02:00","-1.2","","-4.8","","76","","","","7","","14","","24.1","","100.31","","","","-6","","Cloudy"
"-63.51","44.88","HALIFAX STANFIELD INT'L A","8202251","2020-03-26 03:00","2020","03","26","03:00","-1.7","","-4.4","","82","","","","9","","16","","24.1","","100.22","","","","-7","","NA"
"-63.51","44.88","HALIFAX STANFIELD INT'L A","8202251","2020-03-26 04:00","2020","03","26","04:00","-1.8","","-4.1","","85","","","","10","","13","","24.1","","100.21","","","","-6","","NA"
"-63.51","44.88","HALIFAX STANFIELD INT'L A","8202251","2020-03-26 05:00","2020","03","26","05:00","-1.6","","-3.3","","88","","","","9","","13","","24.1","","100.19","","","","-6","","Cloudy"
"-63.51","44.88","HALIFAX STANFIELD INT'L A","8202251","2020-03-26 06:00","2020","03","26","06:00","-1.3","","-2.6","","91","","","","8","","15","","24.1","","100.15","","","","-6","","NA"
"-63.51","44.88","HALIFAX STANFIELD INT'L A","8202251","2020-03-26 07:00","2020","03","26","07:00","-0.8","","-2.1","","91","","","","8","","18","","24.1","","100.10","","","","-6","","NA"
"-63.51","44.88","HALIFAX STANFIELD INT'L A","8202251","2020-03-26 08:00","2020","03","26","08:00","-0.5","","-1.8","","91","","","","10","","22","","24.1","","100.09","","","","-6","","Cloudy"
"-63.51","44.88","HALIFAX STANFIELD INT'L A","8202251","2020-03-26 09:00","2020","03","26","09:00","-0.4","","-0.5","","99","","","","8","","17","","2.4","","99.99","","","","-5","","Snow"
"-63.51","44.88","HALIFAX STANFIELD INT'L A","8202251","2020-03-26 10:00","2020","03","26","10:00","0.1","","0.1","","100","","","","7","","20","","2.0","","99.93","","","","","","Snow"
"-63.51","44.88","HALIFAX STANFIELD INT'L A","8202251","2020-03-26 11:00","2020","03","26","11:00","0.5","","0.4","","99","","","","6","","22","","3.2","","99.79","","","","","","Snow"
"-63.51","44.88","HALIFAX STANFIELD INT'L A","8202251","2020-03-26 12:00","2020","03","26","12:00","0.5","","0.5","","100","","","","5","","21","","4.8","","99.66","","","","","","Snow"
"-63.51","44.88","HALIFAX STANFIELD INT'L A","8202251","2020-03-26 13:00","2020","03","26","13:00","0.4","","0.3","","99","","","","4","","31","","3.2","","99.47","","","","","","Snow,Fog"
"-63.51","44.88","HALIFAX STANFIELD INT'L A","8202251","2020-03-26 14:00","2020","03","26","14:00","0.2","","0.2","","100","","","","4","","28","","2.4","","99.32","","","","","","Snow"
"-63.51","44.88","HALIFAX STANFIELD INT'L A","8202251","2020-03-26 15:00","2020","03","26","15:00","-0.1","","-0.1","","100","","","","3","","29","","2.0","","99.12","","","","-6","","Snow"
"-63.51","44.88","HALIFAX STANFIELD INT'L A","8202251","2020-03-26 16:00","2020","03","26","16:00","-0.4","","-0.4","","100","","","","3","","30","","0.8","","99.00","","","","-7","","Moderate Snow"
"-63.51","44.88","HALIFAX STANFIELD INT'L A","8202251","2020-03-26 17:00","2020","03","26","17:00","-0.4","","-0.4","","100","","","","2","","31","","1.6","","98.93","","","","-7","","Snow,Fog"
"-63.51","44.88","HALIFAX STANFIELD INT'L A","8202251","2020-03-26 18:00","2020","03","26","18:00","-0.6","","-0.6","","100","","","","2","","34","","0.8","","98.85","","","","-8","","Moderate Snow"
"-63.51","44.88","HALIFAX STANFIELD INT'L A","8202251","2020-03-26 19:00","2020","03","26","19:00","-0.3","","-0.3","","100","","","","3","","28","","3.2","","98.79","","","","-7","","Snow,Ice Pellets,Fog"
"-63.51","44.88","HALIFAX STANFIELD INT'L A","8202251","2020-03-26 20:00","2020","03","26","20:00","0.3","","0.3","","100","","","","2","","34","","8.1","","98.69","","","","","","Snow"
"-63.51","44.88","HALIFAX STANFIELD INT'L A","8202251","2020-03-26 21:00","2020","03","26","21:00","0.3","","0.3","","100","","","","2","","40","","12.9","","98.55","","","","","","Snow"
"-63.51","44.88","HALIFAX STANFIELD INT'L A","8202251","2020-03-26 22:00","2020","03","26","22:00","-0.2","","-0.2","","100","","","","36","","25","","11.3","","98.46","","","","-6","","Snow"
"-63.51","44.88","HALIFAX STANFIELD INT'L A","8202251","2020-03-26 23:00","2020","03","26","23:00","-1.0","","-1.0","","100","","","","36","","28","","24.1","","98.36","","","","-8","","Cloudy"
"-63.51","44.88","HALIFAX STANFIELD INT'L A","8202251","2020-03-27 00:00","2020","03","27","00:00","-1.1","","-1.1","","100","","","","35","","30","","24.1","","98.29","","","","-8","","NA"
"-63.51","44.88","HALIFAX STANFIELD INT'L A","8202251","2020-03-27 01:00","2020","03","27","01:00","-1.4","","-1.4","","100","","","","34","","30","","24.1","","98.26","","","","-8","","Snow"
"-63.51","44.88","HALIFAX STANFIELD INT'L A","8202251","2020-03-27 02:00","2020","03","27","02:00","-1.8","","-1.8","","100","","","","34","","32","","24.1","","98.17","","","","-9","","Snow"
"-63.51","44.88","HALIFAX STANFIELD INT'L A","8202251","2020-03-27 03:00","2020","03","27","03:00","-1.9","","-1.9","","100","","","","34","","32","","24.1","","98.09","","","","-9","","NA"
"-63.51","44.88","HALIFAX STANFIELD INT'L A","8202251","2020-03-27 04:00","2020","03","27","04:00","-2.0","","-2.0","","100","","","","33","","33","","24.1","","98.18","","","","-9","","NA"
"-63.51","44.88","HALIFAX STANFIELD INT'L A","8202251","2020-03-27 05:00","2020","03","27","05:00","-1.9","","-1.9","","100","","","","32","","37","","24.1","","98.19","","","","-10","","Cloudy"
"-63.51","44.88","HALIFAX STANFIELD INT'L A","8202251","2020-03-27 06:00","2020","03","27","06:00","-2.1","","-2.1","","100","","","","32","","37","","19.3","","98.17","","","","-10","","Snow"
"-63.51","44.88","HALIFAX STANFIELD INT'L A","8202251","2020-03-27 07:00","2020","03","27","07:00","-2.0","","-2.0","","100","","","","32","","37","","24.1","","98.21","","","","-10","","NA"
"-63.51","44.88","HALIFAX STANFIELD INT'L A","8202251","2020-03-27 08:00","2020","03","27","08:00","-1.5","","-1.5","","100","","","","32","","36","","24.1","","98.25","","","","-9","","Cloudy"
"-63.51","44.88","HALIFAX STANFIELD INT'L A","8202251","2020-03-27 09:00","2020","03","27","09:00","-0.9","","-1.2","","98","","","","33","","28","","24.1","","98.27","","","","-7","","NA"
"-63.51","44.88","HALIFAX STANFIELD INT'L A","8202251","2020-03-27 10:00","2020","03","27","10:00","-0.4","","-1.0","","95","","","","32","","34","","24.1","","98.25","","","","-7","","NA"
"-63.51","44.88","HALIFAX STANFIELD INT'L A","8202251","2020-03-27 11:00","2020","03","27","11:00","0.4","","-0.9","","91","","","","31","","28","","24.1","","98.25","","","","","","Cloudy"
"-63.51","44.88","HALIFAX STANFIELD INT'L A","8202251","2020-03-27 12:00","2020","03","27","12:00","0.7","","-1.1","","88","","","","30","","23","","24.1","","98.28","","","","","","NA"
"-63.51","44.88","HALIFAX STANFIELD INT'L A","8202251","2020-03-27 13:00","2020","03","27","13:00","0.6","","-0.6","","92","","","","29","","19","","24.1","","98.33","","","","","","NA"
"-63.51","44.88","HALIFAX STANFIELD INT'L A","8202251","2020-03-27 14:00","2020","03","27","14:00","0.8","","0.1","","95","","","","30","","22","","2.4","","98.35","","","","","","Snow"
"-63.51","44.88","HALIFAX STANFIELD INT'L A","8202251","2020-03-27 15:00","2020","03","27","15:00","0.4","","0.4","","100","","","","32","","22","","4.8","","98.36","","","","","","Snow"
"-63.51","44.88","HALIFAX STANFIELD INT'L A","8202251","2020-03-27 16:00","2020","03","27","16:00","0.0","","0.0","","100","","","","33","","22","","4.8","","98.44","","","","-6","","Snow"
"-63.51","44.88","HALIFAX STANFIELD INT'L A","8202251","2020-03-27 17:00","2020","03","27","17:00","0.0","","-0.7","","95","","","","33","","18","","24.1","","98.54","","","","-5","","Cloudy"
"-63.51","44.88","HALIFAX STANFIELD INT'L A","8202251","2020-03-27 18:00","2020","03","27","18:00","-0.2","","-0.3","","99","","","","32","","18","","24.1","","98.60","","","","-5","","NA"
"-63.51","44.88","HALIFAX STANFIELD INT'L A","8202251","2020-03-27 19:00","2020","03","27","19:00","-0.4","","-0.4","","100","","","","30","","18","","24.1","","98.71","","","","-5","","NA"
"-63.51","44.88","HALIFAX STANFIELD INT'L A","8202251","2020-03-27 20:00","2020","03","27","20:00","-0.4","","-0.4","","100","","","","30","","15","","24.1","","98.81","","","","-5","","Mostly Cloudy"
"-63.51","44.88","HALIFAX STANFIELD INT'L A","8202251","2020-03-27 21:00","2020","03","27","21:00","-0.1","","-0.1","","100","","","","28","","12","","24.1","","98.86","","","","-4","","NA"
"-63.51","44.88","HALIFAX STANFIELD INT'L A","8202251","2020-03-27 22:00","2020","03","27","22:00","0.1","","0.1","","100","","","","29","","14","","24.1","","98.91","","","","","","Snow"
"-63.51","44.88","HALIFAX STANFIELD INT'L A","8202251","2020-03-27 23:00","2020","03","27","23:00","0.2","","0.1","","99","","","","28","","20","","24.1","","98.98","","","","","","Mainly Clear"
"-63.51","44.88","HALIFAX STANFIELD INT'L A","8202251","2020-03-28 00:00","2020","03","28","00:00","-0.1","","-0.4","","98","","","","28","","19","","24.1","","99.05","","","","-5","","NA"
"-63.51","44.88","HALIFAX STANFIELD INT'L A","8202251","2020-03-28 01:00","2020","03","28","01:00","-0.3","","-1.0","","95","","","","28","","20","","24.1","","99.10","","","","-6","","NA"
"-63.51","44.88","HALIFAX STANFIELD INT'L A","8202251","2020-03-28 02:00","2020","03","28","02:00","-0.6","","-1.4","","94","","","","28","","14","","24.1","","99.18","","","","-5","","Clear"
"-63.51","44.88","HALIFAX STANFIELD INT'L A","8202251","2020-03-28 03:00","2020","03","28","03:00","-0.9","","-1.7","","94","","","","28","","18","","24.1","","99.26","","","","-6","","NA"
"-63.51","44.88","HALIFAX STANFIELD INT'L A","8202251","2020-03-28 04:00","2020","03","28","04:00","-1.1","","-1.9","","94","","","","28","","16","","24.1","","99.32","","","","-6","","NA"
"-63.51","44.88","HALIFAX STANFIELD INT'L A","8202251","2020-03-28 05:00","2020","03","28","05:00","-1.2","","-2.0","","94","","","","29","","18","","24.1","","99.40","","","","-6","","Mainly Clear"
"-63.51","44.88","HALIFAX STANFIELD INT'L A","8202251","2020-03-28 06:00","2020","03","28","06:00","-0.8","","-1.9","","92","","","","30","","28","","24.1","","99.51","","","","-7","","NA"
"-63.51","44.88","HALIFAX STANFIELD INT'L A","8202251","2020-03-28 07:00","2020","03","28","07:00","-0.4","","-2.2","","87","","","","31","","21","","24.1","","99.63","","","","-6","","NA"
"-63.51","44.88","HALIFAX STANFIELD INT'L A","8202251","2020-03-28 08:00","2020","03","28","08:00","0.7","","-2.7","","78","","","","31","","26","","24.1","","99.71","","","","","","Clear"
"-63.51","44.88","HALIFAX STANFIELD INT'L A","8202251","2020-03-28 09:00","2020","03","28","09:00","1.6","","-2.8","","73","","","","31","","31","","24.1","","99.75","","","","","","NA"
"-63.51","44.88","HALIFAX STANFIELD INT'L A","8202251","2020-03-28 10:00","2020","03","28","10:00","2.5","","-4.2","","61","","","","32","","34","","24.1","","99.80","","","","","","NA"
"-63.51","44.88","HALIFAX STANFIELD INT'L A","8202251","2020-03-28 11:00","2020","03","28","11:00","3.5","","-5.4","","52","","","","30","","25","","24.1","","99.83","","","","","","Clear"
"-63.51","44.88","HALIFAX STANFIELD INT'L A","8202251","2020-03-28 12:00","2020","03","28","12:00","4.5","","-5.3","","49","","","","31","","23","","24.1","","99.85","","","","","","NA"
"-63.51","44.88","HALIFAX STANFIELD INT'L A","8202251","2020-03-28 13:00","2020","03","28","13:00","5.6","","-6.8","","41","","","","31","","24","","24.1","","99.91","","","","","","NA"
"-63.51","44.88","HALIFAX STANFIELD INT'L A","8202251","2020-03-28 14:00","2020","03","28","14:00","5.9","","-7.4","","38","","","","33","","26","","24.1","","99.90","","","","","","Clear"
"-63.51","44.88","HALIFAX STANFIELD INT'L A","8202251","2020-03-28 15:00","2020","03","28","15:00","6.8","","-8.1","","34","","","","31","","22","","24.1","","99.98","","","","","","NA"
"-63.51","44.88","HALIFAX STANFIELD INT'L A","8202251","2020-03-28 16:00","2020","03","28","16:00","7.1","","-8.9","","31","","","","30","","23","","24.1","","100.03","","","","","","NA"
"-63.51","44.88","HALIFAX STANFIELD INT'L A","8202251","2020-03-28 17:00","2020","03","28","17:00","7.0","","-8.3","","33","","","","32","","23","","24.1","","100.09","","","","","","Mainly Clear"
"-63.51","44.88","HALIFAX STANFIELD INT'L A","8202251","2020-03-28 18:00","2020","03","28","18:00","6.3","","-6.3","","40","","","","29","","14","","24.1","","100.15","","","","","","NA"
"-63.51","44.88","HALIFAX STANFIELD INT'L A","8202251","2020-03-28 19:00","2020","03","28","19:00","5.4","","-7.4","","39","","","","28","","10","","24.1","","100.21","","","","","","NA"
"-63.51","44.88","HALIFAX STANFIELD INT'L A","8202251","2020-03-28 20:00","2020","03","28","20:00","4.6","","-7.4","","42","","","","29","","10","","24.1","","100.28","","","","","","Clear"
"-63.51","44.88","HALIFAX STANFIELD INT'L A","8202251","2020-03-28 21:00","2020","03","28","21:00","2.8","","-7.9","","45","","","","32","","4","","24.1","","100.35","","","","","","NA"
"-63.51","44.88","HALIFAX STANFIELD INT'L A","8202251","2020-03-28 22:00","2020","03","28","22:00","0.8","","-5.5","","63","","","","35","","14","","24.1","","100.40","","","","","","NA"
"-63.51","44.88","HALIFAX STANFIELD INT'L A","8202251","2020-03-28 23:00","2020","03","28","23:00","0.6","","-4.9","","67","","","","35","","11","","24.1","","100.49","","","","","","Clear"
"-63.51","44.88","HALIFAX STANFIELD INT'L A","8202251","2020-03-29 00:00","2020","03","29","00:00","0.8","","-5.1","","65","","","","35","","10","","24.1","","100.49","","","","","","NA"
"-63.51","44.88","HALIFAX STANFIELD INT'L A","8202251","2020-03-29 01:00","2020","03","29","01:00","-0.4","","-4.8","","73","","","","34","","11","","24.1","","100.50","","","","-4","","NA"
"-63.51","44.88","HALIFAX STANFIELD INT'L A","8202251","2020-03-29 02:00","2020","03","29","02:00","-0.1","","-4.0","","75","","","","36","","8","","24.1","","100.52","","","","-3","","Clear"
"-63.51","44.88","HALIFAX STANFIELD INT'L A","8202251","2020-03-29 03:00","2020","03","29","03:00","-0.4","","-3.7","","78","","","","1","","10","","24.1","","100.54","","","","-4","","NA"
"-63.51","44.88","HALIFAX STANFIELD INT'L A","8202251","2020-03-29 04:00","2020","03","29","04:00","-1.2","","-3.6","","84","","","","34","","9","","24.1","","100.60","","","","-4","","NA"
"-63.51","44.88","HALIFAX STANFIELD INT'L A","8202251","2020-03-29 05:00","2020","03","29","05:00","-1.3","","-3.1","","88","","","","35","","6","","24.1","","100.60","","","","-4","","Clear"
"-63.51","44.88","HALIFAX STANFIELD INT'L A","8202251","2020-03-29 06:00","2020","03","29","06:00","-2.1","","-2.7","","96","","","","32","","7","","24.1","","100.70","","","","-5","","NA"
"-63.51","44.88","HALIFAX STANFIELD INT'L A","8202251","2020-03-29 07:00","2020","03","29","07:00","-2.1","","-2.2","","99","","","","33","","4","","24.1","","100.71","","","","-4","","NA"
"-63.51","44.88","HALIFAX STANFIELD INT'L A","8202251","2020-03-29 08:00","2020","03","29","08:00","-0.1","","-2.0","","87","","","","35","","10","","24.1","","100.79","","","","-3","","Mainly Clear"
"-63.51","44.88","HALIFAX STANFIELD INT'L A","8202251","2020-03-29 09:00","2020","03","29","09:00","1.7","","-2.4","","74","","","","2","","6","","24.1","","100.85","","","","","","NA"
"-63.51","44.88","HALIFAX STANFIELD INT'L A","8202251","2020-03-29 10:00","2020","03","29","10:00","4.3","","-6.0","","47","","","","2","","13","","24.1","","100.89","","","","","","NA"
"-63.51","44.88","HALIFAX STANFIELD INT'L A","8202251","2020-03-29 11:00","2020","03","29","11:00","5.2","","-9.0","","35","","","","2","","16","","24.1","","100.86","","","","","","Clear"
"-63.51","44.88","HALIFAX STANFIELD INT'L A","8202251","2020-03-29 12:00","2020","03","29","12:00","6.1","","-10.2","","30","","","","1","","20","","24.1","","100.83","","","","","","NA"
"-63.51","44.88","HALIFAX STANFIELD INT'L A","8202251","2020-03-29 13:00","2020","03","29","13:00","7.0","","-10.8","","27","","","","1","","18","","24.1","","100.80","","","","","","NA"
"-63.51","44.88","HALIFAX STANFIELD INT'L A","8202251","2020-03-29 14:00","2020","03","29","14:00","7.8","","-11.2","","25","","","","3","","12","","24.1","","100.75","","","","","","Mostly Cloudy"
"-63.51","44.88","HALIFAX STANFIELD INT'L A","8202251","2020-03-29 15:00","2020","03","29","15:00","8.1","","-9.5","","28","","","","1","","11","","24.1","","100.71","","","","","","NA"
"-63.51","44.88","HALIFAX STANFIELD INT'L A","8202251","2020-03-29 16:00","2020","03","29","16:00","8.4","","-10.8","","24","","","","36","","9","","24.1","","100.72","","","","","","NA"
"-63.51","44.88","HALIFAX STANFIELD INT'L A","8202251","2020-03-29 17:00","2020","03","29","17:00","7.3","","-4.9","","42","","","","14","","12","","24.1","","100.74","","","","","","Mostly Cloudy"
"-63.51","44.88","HALIFAX STANFIELD INT'L A","8202251","2020-03-29 18:00","2020","03","29","18:00","4.8","","-5.8","","46","","","","16","","10","","24.1","","100.74","","","","","","NA"
"-63.51","44.88","HALIFAX STANFIELD INT'L A","8202251","2020-03-29 19:00","2020","03","29","19:00","3.4","","-6.1","","50","","","","10","","8","","24.1","","100.80","","","","","","NA"
"-63.51","44.88","HALIFAX STANFIELD INT'L A","8202251","2020-03-29 20:00","2020","03","29","20:00","2.7","","-8.3","","44","","","","9","","10","","24.1","","100.78","","","","","","Cloudy"
"-63.51","44.88","HALIFAX STANFIELD INT'L A","8202251","2020-03-29 21:00","2020","03","29","21:00","2.3","","-10.6","","38","","","","7","","9","","24.1","","100.78","","","","","","NA"
"-63.51","44.88","HALIFAX STANFIELD INT'L A","8202251","2020-03-29 22:00","2020","03","29","22:00","1.5","","-9.2","","45","","","","7","","8","","24.1","","100.72","","","","","","NA"
"-63.51","44.88","HALIFAX STANFIELD INT'L A","8202251","2020-03-29 23:00","2020","03","29","23:00","0.8","","-8.1","","52","","","","6","","10","","24.1","","100.70","","","","","","Cloudy"
"-63.51","44.88","HALIFAX STANFIELD INT'L A","8202251","2020-03-30 00:00","2020","03","30","00:00","0.4","","-8.0","","53","","","","3","","17","","24.1","","100.61","","","","","","NA"
"-63.51","44.88","HALIFAX STANFIELD INT'L A","8202251","2020-03-30 01:00","2020","03","30","01:00","-0.4","","-7.3","","60","","","","3","","17","","24.1","","100.54","","","","-5","","NA"
"-63.51","44.88","HALIFAX STANFIELD INT'L A","8202251","2020-03-30 02:00","2020","03","30","02:00","-0.5","","-9.0","","53","","","","6","","9","","24.1","","100.44","","","","-4","","Cloudy"
"-63.51","44.88","HALIFAX STANFIELD INT'L A","8202251","2020-03-30 03:00","2020","03","30","03:00","-0.4","","-9.7","","50","","","","9","","5","","24.1","","100.48","","","","-2","","NA"
"-63.51","44.88","HALIFAX STANFIELD INT'L A","8202251","2020-03-30 04:00","2020","03","30","04:00","-0.5","","-8.8","","54","","","","3","","5","","24.1","","100.46","","","","-2","","NA"
"-63.51","44.88","HALIFAX STANFIELD INT'L A","8202251","2020-03-30 05:00","2020","03","30","05:00","-0.9","","-7.5","","61","","","","33","","8","","24.1","","100.53","","","","-4","","Cloudy"
"-63.51","44.88","HALIFAX STANFIELD INT'L A","8202251","2020-03-30 06:00","2020","03","30","06:00","-1.1","","-7.8","","61","","","","6","","13","","24.1","","100.39","","","","-5","","NA"
"-63.51","44.88","HALIFAX STANFIELD INT'L A","8202251","2020-03-30 07:00","2020","03","30","07:00","-1.0","","-7.9","","60","","","","3","","9","","24.1","","100.43","","","","-4","","NA"
"-63.51","44.88","HALIFAX STANFIELD INT'L A","8202251","2020-03-30 08:00","2020","03","30","08:00","-0.7","","-7.2","","62","","","","5","","8","","24.1","","100.40","","","","-4","","Cloudy"
"-63.51","44.88","HALIFAX STANFIELD INT'L A","8202251","2020-03-30 09:00","2020","03","30","09:00","-0.4","","-6.4","","64","","","","5","","11","","24.1","","100.34","","","","-4","","NA"
"-63.51","44.88","HALIFAX STANFIELD INT'L A","8202251","2020-03-30 10:00","2020","03","30","10:00","0.9","","-5.9","","61","","","","2","","8","","24.1","","100.31","","","","","","NA"
"-63.51","44.88","HALIFAX STANFIELD INT'L A","8202251","2020-03-30 11:00","2020","03","30","11:00","1.7","","-6.1","","56","","","","5","","12","","24.1","","100.27","","","","","","Cloudy"
"-63.51","44.88","HALIFAX STANFIELD INT'L A","8202251","2020-03-30 12:00","2020","03","30","12:00","2.4","","-4.5","","60","","","","3","","17","","24.1","","100.22","","","","","","NA"
"-63.51","44.88","HALIFAX STANFIELD INT'L A","8202251","2020-03-30 13:00","2020","03","30","13:00","3.4","","-4.4","","57","","","","2","","16","","24.1","","100.16","","","","","","NA"
"-63.51","44.88","HALIFAX STANFIELD INT'L A","8202251","2020-03-30 14:00","2020","03","30","14:00","4.7","","-5.0","","49","","","","4","","17","","24.1","","100.08","","","","","","Mostly Cloudy"
"-63.51","44.88","HALIFAX STANFIELD INT'L A","8202251","2020-03-30 15:00","2020","03","30","15:00","5.4","","-3.5","","53","","","","1","","14","","24.1","","100.01","","","","","","NA"
"-63.51","44.88","HALIFAX STANFIELD INT'L A","8202251","2020-03-30 16:00","2020","03","30","16:00","4.0","","-4.7","","53","","","","6","","17","","24.1","","99.94","","","","","","NA"
"-63.51","44.88","HALIFAX STANFIELD INT'L A","8202251","2020-03-30 17:00","2020","03","30","17:00","3.2","","-4.7","","56","","","","3","","20","","24.1","","99.91","","","","","","Mostly Cloudy"
"-63.51","44.88","HALIFAX STANFIELD INT'L A","8202251","2020-03-30 18:00","2020","03","30","18:00","1.4","","-4.2","","67","","","","2","","24","","24.1","","99.89","","","","","","NA"
"-63.51","44.88","HALIFAX STANFIELD INT'L A","8202251","2020-03-30 19:00","2020","03","30","19:00","0.2","","-4.5","","71","","","","4","","16","","24.1","","99.94","","","","","","NA"
"-63.51","44.88","HALIFAX STANFIELD INT'L A","8202251","2020-03-30 20:00","2020","03","30","20:00","-1.2","","-4.1","","81","","","","3","","29","","24.1","","99.98","","","","-8","","Mostly Cloudy"
"-63.51","44.88","HALIFAX STANFIELD INT'L A","8202251","2020-03-30 21:00","2020","03","30","21:00","-2.3","","-4.0","","88","","","","2","","26","","24.1","","99.95","","","","-9","","NA"
"-63.51","44.88","HALIFAX STANFIELD INT'L A","8202251","2020-03-30 22:00","2020","03","30","22:00","-2.5","","-4.3","","88","","","","2","","22","","24.1","","99.96","","","","-9","","NA"
"-63.51","44.88","HALIFAX STANFIELD INT'L A","8202251","2020-03-30 23:00","2020","03","30","23:00","-2.4","","-4.1","","88","","","","3","","23","","24.1","","99.95","","","","-9","","Cloudy"
"-63.51","44.88","HALIFAX STANFIELD INT'L A","8202251","2020-03-31 00:00","2020","03","31","00:00","-2.3","","-3.6","","91","","","","2","","21","","24.1","","99.87","","","","-8","","NA"
"-63.51","44.88","HALIFAX STANFIELD INT'L A","8202251","2020-03-31 01:00","2020","03","31","01:00","-2.3","","-3.4","","92","","","","1","","21","","24.1","","99.82","","","","-8","","NA"
"-63.51","44.88","HALIFAX STANFIELD INT'L A","8202251","2020-03-31 02:00","2020","03","31","02:00","-2.5","","-3.6","","92","","","","36","","28","","24.1","","99.75","","","","-10","","Snow Showers"
"-63.51","44.88","HALIFAX STANFIELD INT'L A","8202251","2020-03-31 03:00","2020","03","31","03:00","-2.7","","-3.8","","92","","","","1","","26","","24.1","","99.67","","","","-10","","Snow Showers"
"-63.51","44.88","HALIFAX STANFIELD INT'L A","8202251","2020-03-31 04:00","2020","03","31","04:00","-2.5","","-3.3","","94","","","","36","","18","","24.1","","99.65","","","","-8","","Snow Showers"
"-63.51","44.88","HALIFAX STANFIELD INT'L A","8202251","2020-03-31 05:00","2020","03","31","05:00","-2.3","","-2.6","","98","","","","35","","19","","24.1","","99.61","","","","-8","","Snow Showers"
"-63.51","44.88","HALIFAX STANFIELD INT'L A","8202251","2020-03-31 06:00","2020","03","31","06:00","-1.9","","-2.5","","96","","","","36","","21","","24.1","","99.60","","","","-8","","NA"
"-63.51","44.88","HALIFAX STANFIELD INT'L A","8202251","2020-03-31 07:00","2020","03","31","07:00","-1.6","","-2.2","","96","","","","1","","25","","24.1","","99.59","","","","-8","","Snow"
"-63.51","44.88","HALIFAX STANFIELD INT'L A","8202251","2020-03-31 08:00","2020","03","31","08:00","-1.4","","-2.1","","95","","","","1","","30","","24.1","","99.55","","","","-8","","Cloudy"
"-63.51","44.88","HALIFAX STANFIELD INT'L A","8202251","2020-03-31 09:00","2020","03","31","09:00","-1.0","","-2.0","","93","","","","1","","28","","24.1","","99.53","","","","-8","","NA"
"-63.51","44.88","HALIFAX STANFIELD INT'L A","8202251","2020-03-31 10:00","2020","03","31","10:00","-0.6","","-2.1","","89","","","","1","","31","","24.1","","99.53","","","","-7","","NA"
"-63.51","44.88","HALIFAX STANFIELD INT'L A","8202251","2020-03-31 11:00","2020","03","31","11:00","-0.2","","-1.8","","89","","","","1","","31","","24.1","","99.51","","","","-7","","Snow"
"-63.51","44.88","HALIFAX STANFIELD INT'L A","8202251","2020-03-31 12:00","2020","03","31","12:00","0.2","","-1.8","","87","","","","35","","28","","19.3","","99.44","","","","","","Snow"
"-63.51","44.88","HALIFAX STANFIELD INT'L A","8202251","2020-03-31 13:00","2020","03","31","13:00","0.4","","-1.4","","88","","","","36","","26","","9.7","","99.44","","","","","","Snow"
"-63.51","44.88","HALIFAX STANFIELD INT'L A","8202251","2020-03-31 14:00","2020","03","31","14:00","0.6","","-1.7","","85","","","","35","","27","","16.1","","99.41","","","","","","Snow"
"-63.51","44.88","HALIFAX STANFIELD INT'L A","8202251","2020-03-31 15:00","2020","03","31","15:00","0.9","","-1.7","","83","","","","35","","28","","24.1","","99.41","","","","","","Snow"
"-63.51","44.88","HALIFAX STANFIELD INT'L A","8202251","2020-03-31 16:00","2020","03","31","16:00","0.7","","-1.7","","84","","","","36","","24","","24.1","","99.41","","","","","","Snow"
"-63.51","44.88","HALIFAX STANFIELD INT'L A","8202251","2020-03-31 17:00","2020","03","31","17:00","0.3","","-1.6","","87","","","","1","","27","","12.9","","99.45","","","","","","Snow"
"-63.51","44.88","HALIFAX STANFIELD INT'L A","8202251","2020-03-31 18:00","2020","03","31","18:00","-0.9","","-0.9","","100","","","","35","","20","","2.4","","99.50","","","","-6","","Snow"
"-63.51","44.88","HALIFAX STANFIELD INT'L A","8202251","2020-03-31 19:00","2020","03","31","19:00","-1.1","","-1.1","","100","","","","35","","17","","2.4","","99.55","","","","-6","","Snow"
"-63.51","44.88","HALIFAX STANFIELD INT'L A","8202251","2020-03-31 20:00","2020","03","31","20:00","-1.3","","-1.3","","100","","","","35","","21","","4.8","","99.55","","","","-7","","Snow"
"-63.51","44.88","HALIFAX STANFIELD INT'L A","8202251","2020-03-31 21:00","2020","03","31","21:00","-1.2","","-1.2","","100","","","","35","","16","","6.4","","99.54","","","","-6","","Snow"
"-63.51","44.88","HALIFAX STANFIELD INT'L A","8202251","2020-03-31 22:00","2020","03","31","22:00","-1.2","","-1.2","","100","","","","35","","17","","4.8","","99.53","","","","-6","","Freezing Drizzle,Snow"
"-63.51","44.88","HALIFAX STANFIELD INT'L A","8202251","2020-03-31 23:00","2020","03","31","23:00","-1.3","","-1.3","","100","","","","36","","14","","19.3","","99.49","","","","-6","","Cloudy"
