"Longitude (x)","Latitude (y)","Station Name","Climate ID","Date/Time (LST)","Year","Month","Day","Time (LST)","Temp (°C)","Temp Flag","Dew Point Temp (°C)","Dew Point Temp Flag","Rel Hum (%)","Rel Hum Flag","Precip. Amount (mm)","Precip. Amount Flag","Wind Dir (10s deg)","Wind Dir Flag","Wind Spd (km/h)","Wind Spd Flag","Visibility (km)","Visibility Flag","Stn Press (kPa)","Stn Press Flag","Hmdx","Hmdx Flag","Wind Chill","Wind Chill Flag","Weather"
"-52.94","48.17","GRATES COVE","840B053","2021-07-01 00:30","2021","07","01","00:30","8.7","","","M","","M","","","4","","22","","","","100.88","","","","","","NA"
"-52.94","48.17","GRATES COVE","840B053","2021-07-01 01:30","2021","07","01","01:30","8.3","","","M","","M","","","7","","15","","","","100.87","","","","","","NA"
"-52.94","48.17","GRATES COVE","840B053","2021-07-01 02:30","2021","07","01","02:30","7.6","","","M","","M","","","5","","22","","","","100.87","","","","","","NA"
"-52.94","48.17","GRATES COVE","840B053","2021-07-01 03:30","2021","07","01","03:30","7.3","","","M","","M","","","5","","24","","","","100.85","","","","","","NA"
"-52.94","48.17","GRATES COVE","840B053","2021-07-01 04:30","2021","07","01","04:30","7.2","","","M","","M","","","7","","17","","","","100.86","","","","","","NA"
"-52.94","48.17","GRATES COVE","840B053","2021-07-01 05:30","2021","07","01","05:30","7.5","","","M","","M","","","6","","17","","","","100.87","","","","","","NA"
"-52.94","48.17","GRATES COVE","840B053","2021-07-01 06:30","2021","07","01","06:30","7.3","","","M","","M","","","6","","18","","","","100.85","","","","","","NA"
"-52.94","48.17","GRATES COVE","840B053","2021-07-01 07:30","2021","07","01","07:30","7.7","","","M","","M","","","7","","24","","","","100.81","","","","","","NA"
"-52.94","48.17","GRATES COVE","840B053","2021-07-01 08:30","2021","07","01","08:30","7.4","","","M","","M","","","7","","22","","","","100.86","","","","","","NA"
"-52.94","48.17","GRATES COVE","840B053","2021-07-01 09:30","2021","07","01","09:30","7.4","","","M","","M","","","7","","22","","","","100.87","","","","","","NA"
"-52.94","48.17","GRATES COVE","840B053","2021-07-01 10:30","2021","07","01","10:30","7.6","","","M","","M","","","7","","26","","","","100.90","","","","","","NA"
"-52.94","48.17","GRATES COVE","840B053","2021-07-01 11:30","2021","07","01","11:30","7.5","","","M","","M","","","7","","26","","","","100.86","","","","","","NA"
"-52.94","48.17","GRATES COVE","840B053","2021-07-01 12:30","2021","07","01","12:30","7.5","","","M","","M","","","6","","32","","","","100.86","","","","","","NA"
"-52.94","48.17","GRATES COVE","840B053","2021-07-01 13:30","2021","07","01","13:30","7.8","","","M","","M","","","8","","28","","","","101.01","","","","","","NA"
"-52.94","48.17","GRATES COVE","840B053","2021-07-01 14:30","2021","07","01","14:30","8.2","","","M","","M","","","7","","25","","","","101.14","","","","","","NA"
"-52.94","48.17","GRATES COVE","840B053","2021-07-01 15:30","2021","07","01","15:30","7.9","","","M","","M","","","7","","24","","","","100.97","","","","","","NA"
"-52.94","48.17","GRATES COVE","840B053","2021-07-01 16:30","2021","07","01","16:30","7.8","","","M","","M","","","7","","23","","","","100.87","","","","","","NA"
"-52.94","48.17","GRATES COVE","840B053","2021-07-01 17:30","2021","07","01","17:30","7.7","","","M","","M","","","7","","24","","","","100.77","","","","","","NA"
"-52.94","48.17","GRATES COVE","840B053","2021-07-01 18:30","2021","07","01","18:30","7.7","","","M","","M","","","7","","21","","","","100.76","","","","","","NA"
"-52.94","48.17","GRATES COVE","840B053","2021-07-01 19:30","2021","07","01","19:30","7.7","","","M","","M","","","6","","29","","","","100.73","","","","","","NA"
"-52.94","48.17","GRATES COVE","840B053","2021-07-01 20:30","2021","07","01","20:30","7.6","","","M","","M","","","7","","25","","","","100.76","","","","","","NA"
"-52.94","48.17","GRATES COVE","840B053","2021-07-01 21:30","2021","07","01","21:30","7.5","","","M","","M","","","6","","27","","","","100.76","","","","","","NA"
"-52.94","48.17","GRATES COVE","840B053","2021-07-01 22:30","2021","07","01","22:30","7.8","","","M","","M","","","6","","31","","","","100.84","","","","","","NA"
"-52.94","48.17","GRATES COVE","840B053","2021-07-01 23:30","2021","07","01","23:30","7.9","","","M","","M","","","6","","35","","","","100.86","","","","","","NA"
"-52.94","48.17","GRATES COVE","840B053","2021-07-02 00:30","2021","07","02","00:30","7.5","","","M","","M","","","6","","37","","","","100.79","","","","","","NA"
"-52.94","48.17","GRATES COVE","840B053","2021-07-02 01:30","2021","07","02","01:30","7.6","","","M","","M","","","6","","36","","","","100.78","","","","","","NA"
"-52.94","48.17","GRATES COVE","840B053","2021-07-02 02:30","2021","07","02","02:30","7.5","","","M","","M","","","6","","33","","","","100.77","","","","","","NA"
"-52.94","48.17","GRATES COVE","840B053","2021-07-02 03:30","2021","07","02","03:30","7.4","","","M","","M","","","7","","32","","","","100.84","","","","","","NA"
"-52.94","48.17","GRATES COVE","840B053","2021-07-02 04:30","2021","07","02","04:30","7.6","","","M","","M","","","7","","31","","","","100.90","","","","","","NA"
"-52.94","48.17","GRATES COVE","840B053","2021-07-02 05:30","2021","07","02","05:30","7.9","","","M","","M","","","6","","31","","","","101.00","","","","","","NA"
"-52.94","48.17","GRATES COVE","840B053","2021-07-02 06:30","2021","07","02","06:30","7.9","","","M","","M","","","6","","36","","","","101.08","","","","","","NA"
"-52.94","48.17","GRATES COVE","840B053","2021-07-02 07:30","2021","07","02","07:30","8.2","","","M","","M","","","6","","28","","","","101.21","","","","","","NA"
"-52.94","48.17","GRATES COVE","840B053","2021-07-02 08:30","2021","07","02","08:30","8.1","","","M","","M","","","5","","32","","","","101.22","","","","","","NA"
"-52.94","48.17","GRATES COVE","840B053","2021-07-02 09:30","2021","07","02","09:30","8.2","","","M","","M","","","6","","31","","","","101.33","","","","","","NA"
"-52.94","48.17","GRATES COVE","840B053","2021-07-02 10:30","2021","07","02","10:30","8.7","","","M","","M","","","7","","26","","","","101.47","","","","","","NA"
"-52.94","48.17","GRATES COVE","840B053","2021-07-02 11:30","2021","07","02","11:30","7.8","","","M","","M","","","7","","24","","","","101.12","","","","","","NA"
"-52.94","48.17","GRATES COVE","840B053","2021-07-02 12:30","2021","07","02","12:30","8.2","","","M","","M","","","6","","30","","","","101.36","","","","","","NA"
"-52.94","48.17","GRATES COVE","840B053","2021-07-02 13:30","2021","07","02","13:30","8.2","","","M","","M","","","6","","29","","","","101.36","","","","","","NA"
"-52.94","48.17","GRATES COVE","840B053","2021-07-02 14:30","2021","07","02","14:30","8.4","","","M","","M","","","6","","25","","","","101.24","","","","","","NA"
"-52.94","48.17","GRATES COVE","840B053","2021-07-02 15:30","2021","07","02","15:30","8.8","","","M","","M","","","7","","21","","","","101.43","","","","","","NA"
"-52.94","48.17","GRATES COVE","840B053","2021-07-02 16:30","2021","07","02","16:30","8.1","","","M","","M","","","7","","19","","","","101.16","","","","","","NA"
"-52.94","48.17","GRATES COVE","840B053","2021-07-02 17:30","2021","07","02","17:30","8.1","","","M","","M","","","8","","18","","","","101.11","","","","","","NA"
"-52.94","48.17","GRATES COVE","840B053","2021-07-02 18:30","2021","07","02","18:30","7.7","","","M","","M","","","8","","20","","","","101.09","","","","","","NA"
"-52.94","48.17","GRATES COVE","840B053","2021-07-02 19:30","2021","07","02","19:30","7.5","","","M","","M","","","8","","19","","","","101.14","","","","","","NA"
"-52.94","48.17","GRATES COVE","840B053","2021-07-02 20:30","2021","07","02","20:30","7.4","","","M","","M","","","8","","19","","","","101.21","","","","","","NA"
"-52.94","48.17","GRATES COVE","840B053","2021-07-02 21:30","2021","07","02","21:30","7.3","","","M","","M","","","8","","14","","","","101.21","","","","","","NA"
"-52.94","48.17","GRATES COVE","840B053","2021-07-02 22:30","2021","07","02","22:30","7.4","","","M","","M","","","8","","13","","","","101.20","","","","","","NA"
"-52.94","48.17","GRATES COVE","840B053","2021-07-02 23:30","2021","07","02","23:30","7.4","","","M","","M","","","9","","8","","","","101.16","","","","","","NA"
"-52.94","48.17","GRATES COVE","840B053","2021-07-03 00:30","2021","07","03","00:30","7.3","","","M","","M","","","10","","11","","","","101.13","","","","","","NA"
"-52.94","48.17","GRATES COVE","840B053","2021-07-03 01:30","2021","07","03","01:30","7.3","","","M","","M","","","8","","12","","","","101.09","","","","","","NA"
"-52.94","48.17","GRATES COVE","840B053","2021-07-03 02:30","2021","07","03","02:30","7.3","","","M","","M","","","9","","8","","","","101.08","","","","","","NA"
"-52.94","48.17","GRATES COVE","840B053","2021-07-03 03:30","2021","07","03","03:30","7.2","","","M","","M","","","8","","11","","","","101.06","","","","","","NA"
"-52.94","48.17","GRATES COVE","840B053","2021-07-03 04:30","2021","07","03","04:30","7.4","","","M","","M","","","5","","13","","","","101.11","","","","","","NA"
"-52.94","48.17","GRATES COVE","840B053","2021-07-03 05:30","2021","07","03","05:30","7.6","","","M","","M","","","9","","7","","","","101.15","","","","","","NA"
"-52.94","48.17","GRATES COVE","840B053","2021-07-03 06:30","2021","07","03","06:30","8.2","","","M","","M","","","8","","6","","","","101.20","","","","","","NA"
"-52.94","48.17","GRATES COVE","840B053","2021-07-03 07:30","2021","07","03","07:30","8.8","","","M","","M","","","9","","5","","","","101.22","","","","","","NA"
"-52.94","48.17","GRATES COVE","840B053","2021-07-03 08:30","2021","07","03","08:30","8.8","","","M","","M","","","8","","5","","","","101.22","","","","","","NA"
"-52.94","48.17","GRATES COVE","840B053","2021-07-03 09:30","2021","07","03","09:30","9.1","","","M","","M","","","8","","6","","","","101.21","","","","","","NA"
"-52.94","48.17","GRATES COVE","840B053","2021-07-03 10:30","2021","07","03","10:30","9.3","","","M","","M","","","9","","5","","","","101.26","","","","","","NA"
"-52.94","48.17","GRATES COVE","840B053","2021-07-03 11:30","2021","07","03","11:30","9.8","","","M","","M","","","8","","5","","","","101.28","","","","","","NA"
"-52.94","48.17","GRATES COVE","840B053","2021-07-03 12:30","2021","07","03","12:30","10.1","","","M","","M","","","8","","8","","","","101.24","","","","","","NA"
"-52.94","48.17","GRATES COVE","840B053","2021-07-03 13:30","2021","07","03","13:30","11.4","","","M","","M","","","8","","7","","","","101.27","","","","","","NA"
"-52.94","48.17","GRATES COVE","840B053","2021-07-03 14:30","2021","07","03","14:30","11.6","","","M","","M","","","9","","5","","","","101.23","","","","","","NA"
"-52.94","48.17","GRATES COVE","840B053","2021-07-03 15:30","2021","07","03","15:30","11.5","","","M","","M","","","5","","5","","","","101.20","","","","","","NA"
"-52.94","48.17","GRATES COVE","840B053","2021-07-03 16:30","2021","07","03","16:30","12.8","","","M","","M","","","2","","4","","","","101.20","","","","","","NA"
"-52.94","48.17","GRATES COVE","840B053","2021-07-03 17:30","2021","07","03","17:30","13.8","","","M","","M","","","17","","2","","","","101.16","","","","","","NA"
"-52.94","48.17","GRATES COVE","840B053","2021-07-03 18:30","2021","07","03","18:30","14.9","","","M","","M","","","","","0","","","","101.18","","","","","","NA"
"-52.94","48.17","GRATES COVE","840B053","2021-07-03 19:30","2021","07","03","19:30","13.0","","","M","","M","","","22","","6","","","","101.17","","","","","","NA"
"-52.94","48.17","GRATES COVE","840B053","2021-07-03 20:30","2021","07","03","20:30","11.3","","","M","","M","","","2","","5","","","","101.26","","","","","","NA"
"-52.94","48.17","GRATES COVE","840B053","2021-07-03 21:30","2021","07","03","21:30","11.6","","","M","","M","","","35","","3","","","","101.32","","","","","","NA"
"-52.94","48.17","GRATES COVE","840B053","2021-07-03 22:30","2021","07","03","22:30","10.9","","","M","","M","","","8","","2","","","","101.32","","","","","","NA"
"-52.94","48.17","GRATES COVE","840B053","2021-07-03 23:30","2021","07","03","23:30","10.7","","","M","","M","","","11","","3","","","","101.32","","","","","","NA"
"-52.94","48.17","GRATES COVE","840B053","2021-07-04 00:30","2021","07","04","00:30","9.6","","","M","","M","","","14","","6","","","","101.30","","","","","","NA"
"-52.94","48.17","GRATES COVE","840B053","2021-07-04 01:30","2021","07","04","01:30","10.2","","","M","","M","","","15","","6","","","","101.26","","","","","","NA"
"-52.94","48.17","GRATES COVE","840B053","2021-07-04 02:30","2021","07","04","02:30","9.9","","","M","","M","","","11","","9","","","","101.26","","","","","","NA"
"-52.94","48.17","GRATES COVE","840B053","2021-07-04 03:30","2021","07","04","03:30","9.1","","","M","","M","","","11","","9","","","","101.25","","","","","","NA"
"-52.94","48.17","GRATES COVE","840B053","2021-07-04 04:30","2021","07","04","04:30","9.0","","","M","","M","","","11","","12","","","","101.22","","","","","","NA"
"-52.94","48.17","GRATES COVE","840B053","2021-07-04 05:30","2021","07","04","05:30","8.7","","","M","","M","","","10","","18","","","","101.20","","","","","","NA"
"-52.94","48.17","GRATES COVE","840B053","2021-07-04 06:30","2021","07","04","06:30","8.3","","","M","","M","","","9","","21","","","","101.20","","","","","","NA"
"-52.94","48.17","GRATES COVE","840B053","2021-07-04 07:30","2021","07","04","07:30","9.2","","","M","","M","","","10","","18","","","","101.24","","","","","","NA"
"-52.94","48.17","GRATES COVE","840B053","2021-07-04 08:30","2021","07","04","08:30","9.1","","","M","","M","","","10","","19","","","","101.18","","","","","","NA"
"-52.94","48.17","GRATES COVE","840B053","2021-07-04 09:30","2021","07","04","09:30","9.0","","","M","","M","","","10","","18","","","","101.24","","","","","","NA"
"-52.94","48.17","GRATES COVE","840B053","2021-07-04 10:30","2021","07","04","10:30","8.3","","","M","","M","","","10","","23","","","","101.16","","","","","","NA"
"-52.94","48.17","GRATES COVE","840B053","2021-07-04 11:30","2021","07","04","11:30","8.5","","","M","","M","","","10","","23","","","","101.18","","","","","","NA"
"-52.94","48.17","GRATES COVE","840B053","2021-07-04 12:30","2021","07","04","12:30","8.3","","","M","","M","","","10","","28","","","","101.11","","","","","","NA"
"-52.94","48.17","GRATES COVE","840B053","2021-07-04 13:30","2021","07","04","13:30","8.0","","","M","","M","","","10","","32","","","","101.02","","","","","","NA"
"-52.94","48.17","GRATES COVE","840B053","2021-07-04 14:30","2021","07","04","14:30","7.9","","","M","","M","","","10","","33","","","","100.94","","","","","","NA"
"-52.94","48.17","GRATES COVE","840B053","2021-07-04 15:30","2021","07","04","15:30","8.2","","","M","","M","","","10","","32","","","","100.87","","","","","","NA"
"-52.94","48.17","GRATES COVE","840B053","2021-07-04 16:30","2021","07","04","16:30","8.3","","","M","","M","","","10","","31","","","","100.86","","","","","","NA"
"-52.94","48.17","GRATES COVE","840B053","2021-07-04 17:30","2021","07","04","17:30","8.3","","","M","","M","","","10","","25","","","","100.86","","","","","","NA"
"-52.94","48.17","GRATES COVE","840B053","2021-07-04 18:30","2021","07","04","18:30","8.3","","","M","","M","","","10","","22","","","","100.95","","","","","","NA"
"-52.94","48.17","GRATES COVE","840B053","2021-07-04 19:30","2021","07","04","19:30","8.0","","","M","","M","","","10","","25","","","","100.95","","","","","","NA"
"-52.94","48.17","GRATES COVE","840B053","2021-07-04 20:30","2021","07","04","20:30","8.0","","","M","","M","","","11","","24","","","","100.88","","","","","","NA"
"-52.94","48.17","GRATES COVE","840B053","2021-07-04 21:30","2021","07","04","21:30","8.0","","","M","","M","","","10","","22","","","","100.87","","","","","","NA"
"-52.94","48.17","GRATES COVE","840B053","2021-07-04 22:30","2021","07","04","22:30","8.0","","","M","","M","","","11","","23","","","","100.79","","","","","","NA"
"-52.94","48.17","GRATES COVE","840B053","2021-07-04 23:30","2021","07","04","23:30","7.8","","","M","","M","","","10","","20","","","","100.77","","","","","","NA"
"-52.94","48.17","GRATES COVE","840B053","2021-07-05 00:30","2021","07","05","00:30","7.8","","","M","","M","","","11","","19","","","","100.73","","","","","","NA"
"-52.94","48.17","GRATES COVE","840B053","2021-07-05 01:30","2021","07","05","01:30","7.8","","","M","","M","","","10","","18","","","","100.63","","","","","","NA"
"-52.94","48.17","GRATES COVE","840B053","2021-07-05 02:30","2021","07","05","02:30","8.1","","","M","","M","","","11","","16","","","","100.64","","","","","","NA"
"-52.94","48.17","GRATES COVE","840B053","2021-07-05 03:30","2021","07","05","03:30","8.2","","","M","","M","","","12","","19","","","","100.62","","","","","","NA"
"-52.94","48.17","GRATES COVE","840B053","2021-07-05 04:30","2021","07","05","04:30","8.3","","","M","","M","","","12","","21","","","","100.58","","","","","","NA"
"-52.94","48.17","GRATES COVE","840B053","2021-07-05 05:30","2021","07","05","05:30","8.4","","","M","","M","","","15","","28","","","","100.55","","","","","","NA"
"-52.94","48.17","GRATES COVE","840B053","2021-07-05 06:30","2021","07","05","06:30","8.9","","","M","","M","","","16","","26","","","","100.54","","","","","","NA"
"-52.94","48.17","GRATES COVE","840B053","2021-07-05 07:30","2021","07","05","07:30","9.4","","","M","","M","","","14","","17","","","","100.51","","","","","","NA"
"-52.94","48.17","GRATES COVE","840B053","2021-07-05 08:30","2021","07","05","08:30","10.3","","","M","","M","","","17","","22","","","","100.48","","","","","","NA"
"-52.94","48.17","GRATES COVE","840B053","2021-07-05 09:30","2021","07","05","09:30","10.7","","","M","","M","","","19","","24","","","","100.46","","","","","","NA"
"-52.94","48.17","GRATES COVE","840B053","2021-07-05 10:30","2021","07","05","10:30","11.9","","","M","","M","","","19","","30","","","","100.38","","","","","","NA"
"-52.94","48.17","GRATES COVE","840B053","2021-07-05 11:30","2021","07","05","11:30","11.5","","","M","","M","","","20","","20","","","","100.44","","","","","","NA"
"-52.94","48.17","GRATES COVE","840B053","2021-07-05 12:30","2021","07","05","12:30","14.6","","","M","","M","","","21","","27","","","","100.35","","","","","","NA"
"-52.94","48.17","GRATES COVE","840B053","2021-07-05 13:30","2021","07","05","13:30","14.9","","","M","","M","","","23","","6","","","","100.39","","","","","","NA"
"-52.94","48.17","GRATES COVE","840B053","2021-07-05 14:30","2021","07","05","14:30","13.0","","","M","","M","","","27","","23","","","","100.33","","","","","","NA"
"-52.94","48.17","GRATES COVE","840B053","2021-07-05 15:30","2021","07","05","15:30","12.8","","","M","","M","","","27","","32","","","","100.27","","","","","","NA"
"-52.94","48.17","GRATES COVE","840B053","2021-07-05 16:30","2021","07","05","16:30","13.4","","","M","","M","","","25","","34","","","","100.27","","","","","","NA"
"-52.94","48.17","GRATES COVE","840B053","2021-07-05 17:30","2021","07","05","17:30","12.9","","","M","","M","","","27","","27","","","","100.31","","","","","","NA"
"-52.94","48.17","GRATES COVE","840B053","2021-07-05 18:30","2021","07","05","18:30","12.1","","","M","","M","","","25","","24","","","","100.26","","","","","","NA"
"-52.94","48.17","GRATES COVE","840B053","2021-07-05 19:30","2021","07","05","19:30","11.7","","","M","","M","","","26","","15","","","","100.27","","","","","","NA"
"-52.94","48.17","GRATES COVE","840B053","2021-07-05 20:30","2021","07","05","20:30","11.1","","","M","","M","","","24","","11","","","","100.25","","","","","","NA"
"-52.94","48.17","GRATES COVE","840B053","2021-07-05 21:30","2021","07","05","21:30","11.3","","","M","","M","","","21","","11","","","","100.19","","","","","","NA"
"-52.94","48.17","GRATES COVE","840B053","2021-07-05 22:30","2021","07","05","22:30","11.5","","","M","","M","","","22","","23","","","","100.14","","","","","","NA"
"-52.94","48.17","GRATES COVE","840B053","2021-07-05 23:30","2021","07","05","23:30","11.5","","","M","","M","","","24","","18","","","","100.10","","","","","","NA"
"-52.94","48.17","GRATES COVE","840B053","2021-07-06 00:30","2021","07","06","00:30","10.9","","","M","","M","","","25","","24","","","","100.03","","","","","","NA"
"-52.94","48.17","GRATES COVE","840B053","2021-07-06 01:30","2021","07","06","01:30","10.6","","","M","","M","","","25","","30","","","","100.00","","","","","","NA"
"-52.94","48.17","GRATES COVE","840B053","2021-07-06 02:30","2021","07","06","02:30","10.3","","","M","","M","","","26","","34","","","","99.97","","","","","","NA"
"-52.94","48.17","GRATES COVE","840B053","2021-07-06 03:30","2021","07","06","03:30","10.2","","","M","","M","","","26","","28","","","","100.00","","","","","","NA"
"-52.94","48.17","GRATES COVE","840B053","2021-07-06 04:30","2021","07","06","04:30","10.5","","","M","","M","","","26","","27","","","","100.00","","","","","","NA"
"-52.94","48.17","GRATES COVE","840B053","2021-07-06 05:30","2021","07","06","05:30","11.2","","","M","","M","","","26","","33","","","","100.01","","","","","","NA"
"-52.94","48.17","GRATES COVE","840B053","2021-07-06 06:30","2021","07","06","06:30","10.8","","","M","","M","","","26","","34","","","","100.03","","","","","","NA"
"-52.94","48.17","GRATES COVE","840B053","2021-07-06 07:30","2021","07","06","07:30","11.2","","","M","","M","","","26","","35","","","","100.09","","","","","","NA"
"-52.94","48.17","GRATES COVE","840B053","2021-07-06 08:30","2021","07","06","08:30","12.1","","","M","","M","","","26","","33","","","","100.10","","","","","","NA"
"-52.94","48.17","GRATES COVE","840B053","2021-07-06 09:30","2021","07","06","09:30","13.3","","","M","","M","","","26","","34","","","","100.08","","","","","","NA"
"-52.94","48.17","GRATES COVE","840B053","2021-07-06 10:30","2021","07","06","10:30","15.1","","","M","","M","","","26","","35","","","","100.09","","","","","","NA"
"-52.94","48.17","GRATES COVE","840B053","2021-07-06 11:30","2021","07","06","11:30","15.9","","","M","","M","","","26","","35","","","","100.06","","","","","","NA"
"-52.94","48.17","GRATES COVE","840B053","2021-07-06 12:30","2021","07","06","12:30","16.6","","","M","","M","","","25","","35","","","","100.00","","","","","","NA"
"-52.94","48.17","GRATES COVE","840B053","2021-07-06 13:30","2021","07","06","13:30","18.1","","","M","","M","","","25","","43","","","","99.95","","","","","","NA"
"-52.94","48.17","GRATES COVE","840B053","2021-07-06 14:30","2021","07","06","14:30","18.1","","","M","","M","","","25","","47","","","","99.88","","","","","","NA"
"-52.94","48.17","GRATES COVE","840B053","2021-07-06 15:30","2021","07","06","15:30","18.3","","","M","","M","","","25","","44","","","","99.91","","","","","","NA"
"-52.94","48.17","GRATES COVE","840B053","2021-07-06 16:30","2021","07","06","16:30","19.3","","","M","","M","","","25","","52","","","","99.84","","","","","","NA"
"-52.94","48.17","GRATES COVE","840B053","2021-07-06 17:30","2021","07","06","17:30","18.8","","","M","","M","","","25","","45","","","","99.87","","","","","","NA"
"-52.94","48.17","GRATES COVE","840B053","2021-07-06 18:30","2021","07","06","18:30","18.8","","","M","","M","","","25","","53","","","","99.93","","","","","","NA"
"-52.94","48.17","GRATES COVE","840B053","2021-07-06 19:30","2021","07","06","19:30","18.2","","","M","","M","","","24","","53","","","","99.95","","","","","","NA"
"-52.94","48.17","GRATES COVE","840B053","2021-07-06 20:30","2021","07","06","20:30","18.8","","","M","","M","","","25","","47","","","","100.06","","","","","","NA"
"-52.94","48.17","GRATES COVE","840B053","2021-07-06 21:30","2021","07","06","21:30","16.8","","","M","","M","","","25","","40","","","","100.16","","","","","","NA"
"-52.94","48.17","GRATES COVE","840B053","2021-07-06 22:30","2021","07","06","22:30","16.0","","","M","","M","","","25","","50","","","","100.13","","","","","","NA"
"-52.94","48.17","GRATES COVE","840B053","2021-07-06 23:30","2021","07","06","23:30","14.8","","","M","","M","","","24","","35","","","","100.16","","","","","","NA"
"-52.94","48.17","GRATES COVE","840B053","2021-07-07 00:30","2021","07","07","00:30","14.1","","","M","","M","","","24","","43","","","","100.15","","","","","","NA"
"-52.94","48.17","GRATES COVE","840B053","2021-07-07 01:30","2021","07","07","01:30","13.8","","","M","","M","","","25","","49","","","","100.12","","","","","","NA"
"-52.94","48.17","GRATES COVE","840B053","2021-07-07 02:30","2021","07","07","02:30","13.8","","","M","","M","","","25","","44","","","","100.12","","","","","","NA"
"-52.94","48.17","GRATES COVE","840B053","2021-07-07 03:30","2021","07","07","03:30","13.6","","","M","","M","","","25","","42","","","","100.09","","","","","","NA"
"-52.94","48.17","GRATES COVE","840B053","2021-07-07 04:30","2021","07","07","04:30","13.7","","","M","","M","","","25","","39","","","","100.10","","","","","","NA"
"-52.94","48.17","GRATES COVE","840B053","2021-07-07 05:30","2021","07","07","05:30","13.6","","","M","","M","","","25","","39","","","","100.11","","","","","","NA"
"-52.94","48.17","GRATES COVE","840B053","2021-07-07 06:30","2021","07","07","06:30","14.2","","","M","","M","","","25","","43","","","","100.04","","","","","","NA"
"-52.94","48.17","GRATES COVE","840B053","2021-07-07 07:30","2021","07","07","07:30","15.0","","","M","","M","","","25","","38","","","","100.05","","","","","","NA"
"-52.94","48.17","GRATES COVE","840B053","2021-07-07 08:30","2021","07","07","08:30","16.8","","","M","","M","","","26","","32","","","","100.04","","","","","","NA"
"-52.94","48.17","GRATES COVE","840B053","2021-07-07 09:30","2021","07","07","09:30","18.0","","","M","","M","","","26","","38","","","","100.02","","","","","","NA"
"-52.94","48.17","GRATES COVE","840B053","2021-07-07 10:30","2021","07","07","10:30","18.2","","","M","","M","","","25","","38","","","","99.96","","","","","","NA"
"-52.94","48.17","GRATES COVE","840B053","2021-07-07 11:30","2021","07","07","11:30","17.6","","","M","","M","","","25","","25","","","","99.94","","","","","","NA"
"-52.94","48.17","GRATES COVE","840B053","2021-07-07 12:30","2021","07","07","12:30","15.9","","","M","","M","","","25","","46","","","","99.88","","","","","","NA"
"-52.94","48.17","GRATES COVE","840B053","2021-07-07 13:30","2021","07","07","13:30","17.1","","","M","","M","","","25","","38","","","","99.82","","","","","","NA"
"-52.94","48.17","GRATES COVE","840B053","2021-07-07 14:30","2021","07","07","14:30","16.4","","","M","","M","","","25","","41","","","","99.80","","","","","","NA"
"-52.94","48.17","GRATES COVE","840B053","2021-07-07 15:30","2021","07","07","15:30","17.0","","","M","","M","","","25","","44","","","","99.77","","","","","","NA"
"-52.94","48.17","GRATES COVE","840B053","2021-07-07 16:30","2021","07","07","16:30","16.5","","","M","","M","","","25","","49","","","","99.74","","","","","","NA"
"-52.94","48.17","GRATES COVE","840B053","2021-07-07 17:30","2021","07","07","17:30","14.9","","","M","","M","","","26","","29","","","","99.85","","","","","","NA"
"-52.94","48.17","GRATES COVE","840B053","2021-07-07 18:30","2021","07","07","18:30","16.2","","","M","","M","","","25","","36","","","","99.83","","","","","","NA"
"-52.94","48.17","GRATES COVE","840B053","2021-07-07 19:30","2021","07","07","19:30","15.2","","","M","","M","","","25","","31","","","","99.88","","","","","","NA"
"-52.94","48.17","GRATES COVE","840B053","2021-07-07 20:30","2021","07","07","20:30","15.5","","","M","","M","","","25","","17","","","","99.99","","","","","","NA"
"-52.94","48.17","GRATES COVE","840B053","2021-07-07 21:30","2021","07","07","21:30","15.1","","","M","","M","","","24","","24","","","","99.99","","","","","","NA"
"-52.94","48.17","GRATES COVE","840B053","2021-07-07 22:30","2021","07","07","22:30","14.9","","","M","","M","","","25","","23","","","","99.97","","","","","","NA"
"-52.94","48.17","GRATES COVE","840B053","2021-07-07 23:30","2021","07","07","23:30","15.1","","","M","","M","","","24","","31","","","","99.95","","","","","","NA"
"-52.94","48.17","GRATES COVE","840B053","2021-07-08 00:30","2021","07","08","00:30","13.5","","","M","","M","","","26","","25","","","","100.00","","","","","","NA"
"-52.94","48.17","GRATES COVE","840B053","2021-07-08 01:30","2021","07","08","01:30","13.3","","","M","","M","","","25","","41","","","","99.95","","","","","","NA"
"-52.94","48.17","GRATES COVE","840B053","2021-07-08 02:30","2021","07","08","02:30","12.9","","","M","","M","","","26","","41","","","","100.02","","","","","","NA"
"-52.94","48.17","GRATES COVE","840B053","2021-07-08 03:30","2021","07","08","03:30","12.8","","","M","","M","","","25","","44","","","","100.03","","","","","","NA"
"-52.94","48.17","GRATES COVE","840B053","2021-07-08 04:30","2021","07","08","04:30","12.3","","","M","","M","","","25","","45","","","","100.10","","","","","","NA"
"-52.94","48.17","GRATES COVE","840B053","2021-07-08 05:30","2021","07","08","05:30","12.7","","","M","","M","","","26","","48","","","","100.17","","","","","","NA"
"-52.94","48.17","GRATES COVE","840B053","2021-07-08 06:30","2021","07","08","06:30","12.8","","","M","","M","","","26","","41","","","","100.31","","","","","","NA"
"-52.94","48.17","GRATES COVE","840B053","2021-07-08 07:30","2021","07","08","07:30","13.2","","","M","","M","","","27","","42","","","","100.44","","","","","","NA"
"-52.94","48.17","GRATES COVE","840B053","2021-07-08 08:30","2021","07","08","08:30","13.9","","","M","","M","","","27","","34","","","","100.51","","","","","","NA"
"-52.94","48.17","GRATES COVE","840B053","2021-07-08 09:30","2021","07","08","09:30","15.7","","","M","","M","","","27","","30","","","","100.63","","","","","","NA"
"-52.94","48.17","GRATES COVE","840B053","2021-07-08 10:30","2021","07","08","10:30","15.1","","","M","","M","","","27","","30","","","","100.72","","","","","","NA"
"-52.94","48.17","GRATES COVE","840B053","2021-07-08 11:30","2021","07","08","11:30","9.5","","","M","","M","","","5","","23","","","","100.94","","","","","","NA"
"-52.94","48.17","GRATES COVE","840B053","2021-07-08 12:30","2021","07","08","12:30","9.5","","","M","","M","","","5","","27","","","","101.09","","","","","","NA"
"-52.94","48.17","GRATES COVE","840B053","2021-07-08 13:30","2021","07","08","13:30","10.8","","","M","","M","","","7","","22","","","","101.17","","","","","","NA"
"-52.94","48.17","GRATES COVE","840B053","2021-07-08 14:30","2021","07","08","14:30","10.2","","","M","","M","","","6","","26","","","","101.28","","","","","","NA"
"-52.94","48.17","GRATES COVE","840B053","2021-07-08 15:30","2021","07","08","15:30","11.3","","","M","","M","","","8","","21","","","","101.40","","","","","","NA"
"-52.94","48.17","GRATES COVE","840B053","2021-07-08 16:30","2021","07","08","16:30","11.3","","","M","","M","","","7","","17","","","","101.51","","","","","","NA"
"-52.94","48.17","GRATES COVE","840B053","2021-07-08 17:30","2021","07","08","17:30","10.4","","","M","","M","","","7","","19","","","","101.60","","","","","","NA"
"-52.94","48.17","GRATES COVE","840B053","2021-07-08 18:30","2021","07","08","18:30","9.9","","","M","","M","","","8","","13","","","","101.71","","","","","","NA"
"-52.94","48.17","GRATES COVE","840B053","2021-07-08 19:30","2021","07","08","19:30","9.4","","","M","","M","","","7","","16","","","","101.81","","","","","","NA"
"-52.94","48.17","GRATES COVE","840B053","2021-07-08 20:30","2021","07","08","20:30","8.7","","","M","","M","","","8","","13","","","","101.92","","","","","","NA"
"-52.94","48.17","GRATES COVE","840B053","2021-07-08 21:30","2021","07","08","21:30","7.8","","","M","","M","","","19","","3","","","","102.00","","","","","","NA"
"-52.94","48.17","GRATES COVE","840B053","2021-07-08 22:30","2021","07","08","22:30","7.7","","","M","","M","","","20","","7","","","","102.03","","","","","","NA"
"-52.94","48.17","GRATES COVE","840B053","2021-07-08 23:30","2021","07","08","23:30","7.4","","","M","","M","","","22","","13","","","","102.08","","","","","","NA"
"-52.94","48.17","GRATES COVE","840B053","2021-07-09 00:30","2021","07","09","00:30","7.4","","","M","","M","","","23","","17","","","","102.09","","","","","","NA"
"-52.94","48.17","GRATES COVE","840B053","2021-07-09 01:30","2021","07","09","01:30","7.4","","","M","","M","","","23","","21","","","","102.13","","","","","","NA"
"-52.94","48.17","GRATES COVE","840B053","2021-07-09 02:30","2021","07","09","02:30","7.5","","","M","","M","","","25","","16","","","","102.17","","","","","","NA"
"-52.94","48.17","GRATES COVE","840B053","2021-07-09 03:30","2021","07","09","03:30","7.9","","","M","","M","","","26","","15","","","","102.21","","","","","","NA"
"-52.94","48.17","GRATES COVE","840B053","2021-07-09 04:30","2021","07","09","04:30","8.1","","","M","","M","","","26","","13","","","","102.25","","","","","","NA"
"-52.94","48.17","GRATES COVE","840B053","2021-07-09 05:30","2021","07","09","05:30","9.5","","","M","","M","","","24","","11","","","","102.29","","","","","","NA"
"-52.94","48.17","GRATES COVE","840B053","2021-07-09 06:30","2021","07","09","06:30","11.7","","","M","","M","","","23","","16","","","","102.31","","","","","","NA"
"-52.94","48.17","GRATES COVE","840B053","2021-07-09 07:30","2021","07","09","07:30","12.0","","","M","","M","","","1","","5","","","","102.36","","","","","","NA"
"-52.94","48.17","GRATES COVE","840B053","2021-07-09 08:30","2021","07","09","08:30","11.0","","","M","","M","","","4","","6","","","","102.35","","","","","","NA"
"-52.94","48.17","GRATES COVE","840B053","2021-07-09 09:30","2021","07","09","09:30","11.8","","","M","","M","","","3","","6","","","","102.35","","","","","","NA"
"-52.94","48.17","GRATES COVE","840B053","2021-07-09 10:30","2021","07","09","10:30","12.8","","","M","","M","","","3","","6","","","","102.30","","","","","","NA"
"-52.94","48.17","GRATES COVE","840B053","2021-07-09 11:30","2021","07","09","11:30","15.9","","","M","","M","","","19","","20","","","","102.25","","","","","","NA"
"-52.94","48.17","GRATES COVE","840B053","2021-07-09 12:30","2021","07","09","12:30","16.4","","","M","","M","","","16","","21","","","","102.16","","","","","","NA"
"-52.94","48.17","GRATES COVE","840B053","2021-07-09 13:30","2021","07","09","13:30","16.9","","","M","","M","","","17","","22","","","","102.13","","","","","","NA"
"-52.94","48.17","GRATES COVE","840B053","2021-07-09 14:30","2021","07","09","14:30","16.6","","","M","","M","","","21","","23","","","","102.10","","","","","","NA"
"-52.94","48.17","GRATES COVE","840B053","2021-07-09 15:30","2021","07","09","15:30","16.5","","","M","","M","","","22","","18","","","","102.07","","","","","","NA"
"-52.94","48.17","GRATES COVE","840B053","2021-07-09 16:30","2021","07","09","16:30","14.0","","","M","","M","","","19","","34","","","","101.95","","","","","","NA"
"-52.94","48.17","GRATES COVE","840B053","2021-07-09 17:30","2021","07","09","17:30","13.7","","","M","","M","","","19","","34","","","","101.92","","","","","","NA"
"-52.94","48.17","GRATES COVE","840B053","2021-07-09 18:30","2021","07","09","18:30","13.8","","","M","","M","","","20","","34","","","","101.90","","","","","","NA"
"-52.94","48.17","GRATES COVE","840B053","2021-07-09 19:30","2021","07","09","19:30","13.0","","","M","","M","","","21","","34","","","","101.89","","","","","","NA"
"-52.94","48.17","GRATES COVE","840B053","2021-07-09 20:30","2021","07","09","20:30","13.5","","","M","","M","","","22","","23","","","","101.89","","","","","","NA"
"-52.94","48.17","GRATES COVE","840B053","2021-07-09 21:30","2021","07","09","21:30","12.9","","","M","","M","","","22","","23","","","","101.84","","","","","","NA"
"-52.94","48.17","GRATES COVE","840B053","2021-07-09 22:30","2021","07","09","22:30","13.0","","","M","","M","","","22","","27","","","","101.72","","","","","","NA"
"-52.94","48.17","GRATES COVE","840B053","2021-07-09 23:30","2021","07","09","23:30","12.5","","","M","","M","","","22","","37","","","","101.58","","","","","","NA"
"-52.94","48.17","GRATES COVE","840B053","2021-07-10 00:30","2021","07","10","00:30","13.6","","","M","","M","","","22","","37","","","","101.55","","","","","","NA"
"-52.94","48.17","GRATES COVE","840B053","2021-07-10 01:30","2021","07","10","01:30","14.1","","","M","","M","","","22","","29","","","","101.50","","","","","","NA"
"-52.94","48.17","GRATES COVE","840B053","2021-07-10 02:30","2021","07","10","02:30","14.2","","","M","","M","","","22","","30","","","","101.46","","","","","","NA"
"-52.94","48.17","GRATES COVE","840B053","2021-07-10 03:30","2021","07","10","03:30","14.5","","","M","","M","","","22","","35","","","","101.36","","","","","","NA"
"-52.94","48.17","GRATES COVE","840B053","2021-07-10 04:30","2021","07","10","04:30","15.4","","","M","","M","","","22","","34","","","","101.33","","","","","","NA"
"-52.94","48.17","GRATES COVE","840B053","2021-07-10 05:30","2021","07","10","05:30","14.8","","","M","","M","","","22","","29","","","","101.26","","","","","","NA"
"-52.94","48.17","GRATES COVE","840B053","2021-07-10 06:30","2021","07","10","06:30","15.8","","","M","","M","","","21","","38","","","","101.13","","","","","","NA"
"-52.94","48.17","GRATES COVE","840B053","2021-07-10 07:30","2021","07","10","07:30","17.0","","","M","","M","","","21","","41","","","","101.03","","","","","","NA"
"-52.94","48.17","GRATES COVE","840B053","2021-07-10 08:30","2021","07","10","08:30","18.9","","","M","","M","","","21","","33","","","","101.01","","","","","","NA"
"-52.94","48.17","GRATES COVE","840B053","2021-07-10 09:30","2021","07","10","09:30","19.8","","","M","","M","","","20","","25","","","","100.94","","","","","","NA"
"-52.94","48.17","GRATES COVE","840B053","2021-07-10 10:30","2021","07","10","10:30","21.7","","","M","","M","","","22","","31","","","","100.78","","","","","","NA"
"-52.94","48.17","GRATES COVE","840B053","2021-07-10 11:30","2021","07","10","11:30","22.0","","","M","","M","","","21","","43","","","","100.63","","","","","","NA"
"-52.94","48.17","GRATES COVE","840B053","2021-07-10 12:30","2021","07","10","12:30","21.4","","","M","","M","","","21","","43","","","","100.50","","","","","","NA"
"-52.94","48.17","GRATES COVE","840B053","2021-07-10 13:30","2021","07","10","13:30","22.4","","","M","","M","","","21","","43","","","","100.39","","","","","","NA"
"-52.94","48.17","GRATES COVE","840B053","2021-07-10 14:30","2021","07","10","14:30","21.0","","","M","","M","","","20","","39","","","","100.26","","","","","","NA"
"-52.94","48.17","GRATES COVE","840B053","2021-07-10 15:30","2021","07","10","15:30","21.2","","","M","","M","","","26","","32","","","","100.22","","","","","","NA"
"-52.94","48.17","GRATES COVE","840B053","2021-07-10 16:30","2021","07","10","16:30","17.1","","","M","","M","","","25","","56","","","","100.19","","","","","","NA"
"-52.94","48.17","GRATES COVE","840B053","2021-07-10 17:30","2021","07","10","17:30","15.5","","","M","","M","","","25","","54","","","","100.14","","","","","","NA"
"-52.94","48.17","GRATES COVE","840B053","2021-07-10 18:30","2021","07","10","18:30","14.6","","","M","","M","","","25","","48","","","","100.25","","","","","","NA"
"-52.94","48.17","GRATES COVE","840B053","2021-07-10 19:30","2021","07","10","19:30","14.4","","","M","","M","","","25","","43","","","","100.40","","","","","","NA"
"-52.94","48.17","GRATES COVE","840B053","2021-07-10 20:30","2021","07","10","20:30","14.3","","","M","","M","","","25","","55","","","","100.43","","","","","","NA"
"-52.94","48.17","GRATES COVE","840B053","2021-07-10 21:30","2021","07","10","21:30","13.9","","","M","","M","","","26","","47","","","","100.62","","","","","","NA"
"-52.94","48.17","GRATES COVE","840B053","2021-07-10 22:30","2021","07","10","22:30","13.8","","","M","","M","","","26","","34","","","","100.84","","","","","","NA"
"-52.94","48.17","GRATES COVE","840B053","2021-07-10 23:30","2021","07","10","23:30","14.8","","","M","","M","","","27","","28","","","","101.00","","","","","","NA"
"-52.94","48.17","GRATES COVE","840B053","2021-07-11 00:30","2021","07","11","00:30","14.2","","","M","","M","","","27","","26","","","","101.09","","","","","","NA"
"-52.94","48.17","GRATES COVE","840B053","2021-07-11 01:30","2021","07","11","01:30","14.4","","","M","","M","","","25","","19","","","","101.15","","","","","","NA"
"-52.94","48.17","GRATES COVE","840B053","2021-07-11 02:30","2021","07","11","02:30","14.2","","","M","","M","","","25","","16","","","","101.19","","","","","","NA"
"-52.94","48.17","GRATES COVE","840B053","2021-07-11 03:30","2021","07","11","03:30","13.7","","","M","","M","","","22","","4","","","","101.21","","","","","","NA"
"-52.94","48.17","GRATES COVE","840B053","2021-07-11 04:30","2021","07","11","04:30","13.6","","","M","","M","","","13","","3","","","","101.26","","","","","","NA"
"-52.94","48.17","GRATES COVE","840B053","2021-07-11 05:30","2021","07","11","05:30","13.7","","","M","","M","","","18","","1","","","","101.28","","","","","","NA"
"-52.94","48.17","GRATES COVE","840B053","2021-07-11 06:30","2021","07","11","06:30","12.1","","","M","","M","","","8","","4","","","","101.27","","","","","","NA"
"-52.94","48.17","GRATES COVE","840B053","2021-07-11 07:30","2021","07","11","07:30","14.5","","","M","","M","","","18","","24","","","","101.28","","","","","","NA"
"-52.94","48.17","GRATES COVE","840B053","2021-07-11 08:30","2021","07","11","08:30","15.1","","","M","","M","","","15","","15","","","","101.24","","","","","","NA"
"-52.94","48.17","GRATES COVE","840B053","2021-07-11 09:30","2021","07","11","09:30","15.2","","","M","","M","","","16","","30","","","","101.20","","","","","","NA"
"-52.94","48.17","GRATES COVE","840B053","2021-07-11 10:30","2021","07","11","10:30","14.0","","","M","","M","","","15","","31","","","","101.18","","","","","","NA"
"-52.94","48.17","GRATES COVE","840B053","2021-07-11 11:30","2021","07","11","11:30","15.2","","","M","","M","","","16","","31","","","","101.17","","","","","","NA"
"-52.94","48.17","GRATES COVE","840B053","2021-07-11 12:30","2021","07","11","12:30","14.6","","","M","","M","","","15","","24","","","","101.14","","","","","","NA"
"-52.94","48.17","GRATES COVE","840B053","2021-07-11 13:30","2021","07","11","13:30","13.6","","","M","","M","","","13","","19","","","","101.12","","","","","","NA"
"-52.94","48.17","GRATES COVE","840B053","2021-07-11 14:30","2021","07","11","14:30","14.1","","","M","","M","","","14","","16","","","","101.12","","","","","","NA"
"-52.94","48.17","GRATES COVE","840B053","2021-07-11 15:30","2021","07","11","15:30","15.0","","","M","","M","","","12","","7","","","","101.13","","","","","","NA"
"-52.94","48.17","GRATES COVE","840B053","2021-07-11 16:30","2021","07","11","16:30","14.0","","","M","","M","","","16","","12","","","","101.11","","","","","","NA"
"-52.94","48.17","GRATES COVE","840B053","2021-07-11 17:30","2021","07","11","17:30","13.9","","","M","","M","","","10","","6","","","","101.14","","","","","","NA"
"-52.94","48.17","GRATES COVE","840B053","2021-07-11 18:30","2021","07","11","18:30","13.8","","","M","","M","","","12","","6","","","","101.21","","","","","","NA"
"-52.94","48.17","GRATES COVE","840B053","2021-07-11 19:30","2021","07","11","19:30","12.3","","","M","","M","","","13","","9","","","","101.20","","","","","","NA"
"-52.94","48.17","GRATES COVE","840B053","2021-07-11 20:30","2021","07","11","20:30","10.8","","","M","","M","","","16","","10","","","","101.26","","","","","","NA"
"-52.94","48.17","GRATES COVE","840B053","2021-07-11 21:30","2021","07","11","21:30","11.2","","","M","","M","","","19","","11","","","","101.26","","","","","","NA"
"-52.94","48.17","GRATES COVE","840B053","2021-07-11 22:30","2021","07","11","22:30","11.3","","","M","","M","","","21","","18","","","","101.23","","","","","","NA"
"-52.94","48.17","GRATES COVE","840B053","2021-07-11 23:30","2021","07","11","23:30","11.9","","","M","","M","","","20","","16","","","","101.21","","","","","","NA"
"-52.94","48.17","GRATES COVE","840B053","2021-07-12 00:30","2021","07","12","00:30","12.1","","","M","","M","","","20","","16","","","","101.15","","","","","","NA"
"-52.94","48.17","GRATES COVE","840B053","2021-07-12 01:30","2021","07","12","01:30","12.9","","","M","","M","","","21","","18","","","","101.16","","","","","","NA"
"-52.94","48.17","GRATES COVE","840B053","2021-07-12 02:30","2021","07","12","02:30","12.6","","","M","","M","","","22","","18","","","","101.12","","","","","","NA"
"-52.94","48.17","GRATES COVE","840B053","2021-07-12 03:30","2021","07","12","03:30","11.8","","","M","","M","","","22","","19","","","","101.09","","","","","","NA"
"-52.94","48.17","GRATES COVE","840B053","2021-07-12 04:30","2021","07","12","04:30","11.3","","","M","","M","","","11","","6","","","","101.06","","","","","","NA"
"-52.94","48.17","GRATES COVE","840B053","2021-07-12 05:30","2021","07","12","05:30","11.4","","","M","","M","","","20","","10","","","","101.08","","","","","","NA"
"-52.94","48.17","GRATES COVE","840B053","2021-07-12 06:30","2021","07","12","06:30","12.5","","","M","","M","","","13","","7","","","","101.04","","","","","","NA"
"-52.94","48.17","GRATES COVE","840B053","2021-07-12 07:30","2021","07","12","07:30","13.8","","","M","","M","","","24","","4","","","","101.04","","","","","","NA"
"-52.94","48.17","GRATES COVE","840B053","2021-07-12 08:30","2021","07","12","08:30","12.8","","","M","","M","","","6","","4","","","","100.97","","","","","","NA"
"-52.94","48.17","GRATES COVE","840B053","2021-07-12 09:30","2021","07","12","09:30","17.5","","","M","","M","","","24","","10","","","","100.94","","","","","","NA"
"-52.94","48.17","GRATES COVE","840B053","2021-07-12 10:30","2021","07","12","10:30","17.8","","","M","","M","","","27","","23","","","","100.80","","","","","","NA"
"-52.94","48.17","GRATES COVE","840B053","2021-07-12 11:30","2021","07","12","11:30","20.1","","","M","","M","","","26","","25","","","","100.71","","","","","","NA"
"-52.94","48.17","GRATES COVE","840B053","2021-07-12 12:30","2021","07","12","12:30","21.2","","","M","","M","","","25","","14","","","","100.66","","","","","","NA"
"-52.94","48.17","GRATES COVE","840B053","2021-07-12 13:30","2021","07","12","13:30","20.5","","","M","","M","","","20","","14","","","","100.59","","","","","","NA"
"-52.94","48.17","GRATES COVE","840B053","2021-07-12 14:30","2021","07","12","14:30","21.7","","","M","","M","","","20","","13","","","","100.51","","","","","","NA"
"-52.94","48.17","GRATES COVE","840B053","2021-07-12 15:30","2021","07","12","15:30","22.4","","","M","","M","","","26","","16","","","","100.47","","","","","","NA"
"-52.94","48.17","GRATES COVE","840B053","2021-07-12 16:30","2021","07","12","16:30","18.1","","","M","","M","","","26","","33","","","","100.43","","","","","","NA"
"-52.94","48.17","GRATES COVE","840B053","2021-07-12 17:30","2021","07","12","17:30","15.1","","","M","","M","","","27","","26","","","","100.47","","","","","","NA"
"-52.94","48.17","GRATES COVE","840B053","2021-07-12 18:30","2021","07","12","18:30","14.4","","","M","","M","","","27","","30","","","","100.48","","","","","","NA"
"-52.94","48.17","GRATES COVE","840B053","2021-07-12 19:30","2021","07","12","19:30","11.9","","","M","","M","","","33","","34","","","","100.64","","","","","","NA"
"-52.94","48.17","GRATES COVE","840B053","2021-07-12 20:30","2021","07","12","20:30","10.5","","","M","","M","","","35","","37","","","","100.78","","","","","","NA"
"-52.94","48.17","GRATES COVE","840B053","2021-07-12 21:30","2021","07","12","21:30","9.9","","","M","","M","","","1","","30","","","","100.87","","","","","","NA"
"-52.94","48.17","GRATES COVE","840B053","2021-07-12 22:30","2021","07","12","22:30","9.9","","","M","","M","","","1","","35","","","","100.89","","","","","","NA"
"-52.94","48.17","GRATES COVE","840B053","2021-07-12 23:30","2021","07","12","23:30","9.4","","","M","","M","","","35","","34","","","","100.97","","","","","","NA"
"-52.94","48.17","GRATES COVE","840B053","2021-07-13 00:30","2021","07","13","00:30","9.1","","","M","","M","","","35","","25","","","","101.02","","","","","","NA"
"-52.94","48.17","GRATES COVE","840B053","2021-07-13 01:30","2021","07","13","01:30","8.9","","","M","","M","","","35","","30","","","","101.04","","","","","","NA"
"-52.94","48.17","GRATES COVE","840B053","2021-07-13 02:30","2021","07","13","02:30","8.9","","","M","","M","","","34","","32","","","","101.10","","","","","","NA"
"-52.94","48.17","GRATES COVE","840B053","2021-07-13 03:30","2021","07","13","03:30","8.9","","","M","","M","","","33","","37","","","","101.16","","","","","","NA"
"-52.94","48.17","GRATES COVE","840B053","2021-07-13 04:30","2021","07","13","04:30","9.2","","","M","","M","","","33","","38","","","","101.21","","","","","","NA"
"-52.94","48.17","GRATES COVE","840B053","2021-07-13 05:30","2021","07","13","05:30","10.0","","","M","","M","","","32","","38","","","","101.24","","","","","","NA"
"-52.94","48.17","GRATES COVE","840B053","2021-07-13 06:30","2021","07","13","06:30","10.3","","","M","","M","","","33","","38","","","","101.33","","","","","","NA"
"-52.94","48.17","GRATES COVE","840B053","2021-07-13 07:30","2021","07","13","07:30","10.7","","","M","","M","","","33","","40","","","","101.34","","","","","","NA"
"-52.94","48.17","GRATES COVE","840B053","2021-07-13 08:30","2021","07","13","08:30","11.3","","","M","","M","","","35","","37","","","","101.39","","","","","","NA"
"-52.94","48.17","GRATES COVE","840B053","2021-07-13 09:30","2021","07","13","09:30","11.2","","","M","","M","","","1","","36","","","","101.49","","","","","","NA"
"-52.94","48.17","GRATES COVE","840B053","2021-07-13 10:30","2021","07","13","10:30","10.9","","","M","","M","","","1","","20","","","","101.61","","","","","","NA"
"-52.94","48.17","GRATES COVE","840B053","2021-07-13 11:30","2021","07","13","11:30","11.1","","","M","","M","","","2","","16","","","","101.71","","","","","","NA"
"-52.94","48.17","GRATES COVE","840B053","2021-07-13 12:30","2021","07","13","12:30","11.1","","","M","","M","","","1","","14","","","","101.77","","","","","","NA"
"-52.94","48.17","GRATES COVE","840B053","2021-07-13 13:30","2021","07","13","13:30","10.3","","","M","","M","","","2","","25","","","","101.82","","","","","","NA"
"-52.94","48.17","GRATES COVE","840B053","2021-07-13 14:30","2021","07","13","14:30","10.2","","","M","","M","","","3","","24","","","","101.87","","","","","","NA"
"-52.94","48.17","GRATES COVE","840B053","2021-07-13 15:30","2021","07","13","15:30","10.2","","","M","","M","","","4","","18","","","","101.92","","","","","","NA"
"-52.94","48.17","GRATES COVE","840B053","2021-07-13 16:30","2021","07","13","16:30","10.2","","","M","","M","","","4","","18","","","","101.93","","","","","","NA"
"-52.94","48.17","GRATES COVE","840B053","2021-07-13 17:30","2021","07","13","17:30","11.0","","","M","","M","","","7","","10","","","","101.97","","","","","","NA"
"-52.94","48.17","GRATES COVE","840B053","2021-07-13 18:30","2021","07","13","18:30","10.1","","","M","","M","","","11","","7","","","","101.93","","","","","","NA"
"-52.94","48.17","GRATES COVE","840B053","2021-07-13 19:30","2021","07","13","19:30","9.6","","","M","","M","","","13","","5","","","","102.00","","","","","","NA"
"-52.94","48.17","GRATES COVE","840B053","2021-07-13 20:30","2021","07","13","20:30","9.4","","","M","","M","","","17","","7","","","","102.03","","","","","","NA"
"-52.94","48.17","GRATES COVE","840B053","2021-07-13 21:30","2021","07","13","21:30","8.2","","","M","","M","","","23","","5","","","","102.06","","","","","","NA"
"-52.94","48.17","GRATES COVE","840B053","2021-07-13 22:30","2021","07","13","22:30","9.8","","","M","","M","","","24","","18","","","","102.05","","","","","","NA"
"-52.94","48.17","GRATES COVE","840B053","2021-07-13 23:30","2021","07","13","23:30","11.3","","","M","","M","","","25","","19","","","","102.01","","","","","","NA"
"-52.94","48.17","GRATES COVE","840B053","2021-07-14 00:30","2021","07","14","00:30","12.0","","","M","","M","","","26","","23","","","","102.00","","","","","","NA"
"-52.94","48.17","GRATES COVE","840B053","2021-07-14 01:30","2021","07","14","01:30","12.2","","","M","","M","","","27","","21","","","","101.99","","","","","","NA"
"-52.94","48.17","GRATES COVE","840B053","2021-07-14 02:30","2021","07","14","02:30","10.6","","","M","","M","","","27","","21","","","","101.97","","","","","","NA"
"-52.94","48.17","GRATES COVE","840B053","2021-07-14 03:30","2021","07","14","03:30","11.9","","","M","","M","","","27","","23","","","","101.97","","","","","","NA"
"-52.94","48.17","GRATES COVE","840B053","2021-07-14 04:30","2021","07","14","04:30","13.1","","","M","","M","","","26","","25","","","","101.98","","","","","","NA"
"-52.94","48.17","GRATES COVE","840B053","2021-07-14 05:30","2021","07","14","05:30","13.4","","","M","","M","","","26","","24","","","","101.96","","","","","","NA"
"-52.94","48.17","GRATES COVE","840B053","2021-07-14 06:30","2021","07","14","06:30","13.5","","","M","","M","","","27","","32","","","","101.95","","","","","","NA"
"-52.94","48.17","GRATES COVE","840B053","2021-07-14 07:30","2021","07","14","07:30","13.9","","","M","","M","","","27","","29","","","","101.98","","","","","","NA"
"-52.94","48.17","GRATES COVE","840B053","2021-07-14 08:30","2021","07","14","08:30","15.7","","","M","","M","","","28","","23","","","","102.00","","","","","","NA"
"-52.94","48.17","GRATES COVE","840B053","2021-07-14 09:30","2021","07","14","09:30","16.9","","","M","","M","","","27","","23","","","","102.00","","","","","","NA"
"-52.94","48.17","GRATES COVE","840B053","2021-07-14 10:30","2021","07","14","10:30","14.3","","","M","","M","","","7","","7","","","","101.94","","","","","","NA"
"-52.94","48.17","GRATES COVE","840B053","2021-07-14 11:30","2021","07","14","11:30","21.4","","","M","","M","","","26","","12","","","","101.92","","","","","","NA"
"-52.94","48.17","GRATES COVE","840B053","2021-07-14 12:30","2021","07","14","12:30","22.0","","","M","","M","","","24","","14","","","","101.85","","","","","","NA"
"-52.94","48.17","GRATES COVE","840B053","2021-07-14 13:30","2021","07","14","13:30","22.9","","","M","","M","","","25","","19","","","","101.79","","","","","","NA"
"-52.94","48.17","GRATES COVE","840B053","2021-07-14 14:30","2021","07","14","14:30","23.9","","","M","","M","","","24","","16","","","","101.78","","","","","","NA"
"-52.94","48.17","GRATES COVE","840B053","2021-07-14 15:30","2021","07","14","15:30","23.8","","","M","","M","","","25","","22","","","","101.73","","","","","","NA"
"-52.94","48.17","GRATES COVE","840B053","2021-07-14 16:30","2021","07","14","16:30","22.2","","","M","","M","","","25","","35","","","","101.67","","","","","","NA"
"-52.94","48.17","GRATES COVE","840B053","2021-07-14 17:30","2021","07","14","17:30","22.1","","","M","","M","","","25","","42","","","","101.63","","","","","","NA"
"-52.94","48.17","GRATES COVE","840B053","2021-07-14 18:30","2021","07","14","18:30","21.3","","","M","","M","","","25","","42","","","","101.64","","","","","","NA"
"-52.94","48.17","GRATES COVE","840B053","2021-07-14 19:30","2021","07","14","19:30","19.7","","","M","","M","","","25","","41","","","","101.65","","","","","","NA"
"-52.94","48.17","GRATES COVE","840B053","2021-07-14 20:30","2021","07","14","20:30","18.5","","","M","","M","","","25","","43","","","","101.68","","","","","","NA"
"-52.94","48.17","GRATES COVE","840B053","2021-07-14 21:30","2021","07","14","21:30","17.6","","","M","","M","","","25","","43","","","","101.68","","","","","","NA"
"-52.94","48.17","GRATES COVE","840B053","2021-07-14 22:30","2021","07","14","22:30","16.8","","","M","","M","","","25","","41","","","","101.66","","","","","","NA"
"-52.94","48.17","GRATES COVE","840B053","2021-07-14 23:30","2021","07","14","23:30","16.4","","","M","","M","","","26","","40","","","","101.66","","","","","","NA"
"-52.94","48.17","GRATES COVE","840B053","2021-07-15 00:30","2021","07","15","00:30","15.6","","","M","","M","","","26","","40","","","","101.66","","","","","","NA"
"-52.94","48.17","GRATES COVE","840B053","2021-07-15 01:30","2021","07","15","01:30","14.9","","","M","","M","","","26","","43","","","","101.67","","","","","","NA"
"-52.94","48.17","GRATES COVE","840B053","2021-07-15 02:30","2021","07","15","02:30","14.1","","","M","","M","","","26","","41","","","","101.70","","","","","","NA"
"-52.94","48.17","GRATES COVE","840B053","2021-07-15 03:30","2021","07","15","03:30","13.7","","","M","","M","","","26","","40","","","","101.71","","","","","","NA"
"-52.94","48.17","GRATES COVE","840B053","2021-07-15 04:30","2021","07","15","04:30","13.6","","","M","","M","","","26","","37","","","","101.77","","","","","","NA"
"-52.94","48.17","GRATES COVE","840B053","2021-07-15 05:30","2021","07","15","05:30","13.8","","","M","","M","","","26","","35","","","","101.78","","","","","","NA"
"-52.94","48.17","GRATES COVE","840B053","2021-07-15 06:30","2021","07","15","06:30","15.0","","","M","","M","","","26","","33","","","","101.81","","","","","","NA"
"-52.94","48.17","GRATES COVE","840B053","2021-07-15 07:30","2021","07","15","07:30","16.1","","","M","","M","","","25","","33","","","","101.79","","","","","","NA"
"-52.94","48.17","GRATES COVE","840B053","2021-07-15 08:30","2021","07","15","08:30","17.3","","","M","","M","","","25","","32","","","","101.81","","","","","","NA"
"-52.94","48.17","GRATES COVE","840B053","2021-07-15 09:30","2021","07","15","09:30","18.1","","","M","","M","","","26","","36","","","","101.78","","","","","","NA"
"-52.94","48.17","GRATES COVE","840B053","2021-07-15 10:30","2021","07","15","10:30","19.6","","","M","","M","","","26","","37","","","","101.78","","","","","","NA"
"-52.94","48.17","GRATES COVE","840B053","2021-07-15 11:30","2021","07","15","11:30","20.3","","","M","","M","","","25","","40","","","","101.74","","","","","","NA"
"-52.94","48.17","GRATES COVE","840B053","2021-07-15 12:30","2021","07","15","12:30","20.8","","","M","","M","","","26","","37","","","","101.70","","","","","","NA"
"-52.94","48.17","GRATES COVE","840B053","2021-07-15 13:30","2021","07","15","13:30","21.2","","","M","","M","","","26","","41","","","","101.63","","","","","","NA"
"-52.94","48.17","GRATES COVE","840B053","2021-07-15 14:30","2021","07","15","14:30","21.3","","","M","","M","","","26","","40","","","","101.61","","","","","","NA"
"-52.94","48.17","GRATES COVE","840B053","2021-07-15 15:30","2021","07","15","15:30","21.0","","","M","","M","","","26","","39","","","","101.59","","","","","","NA"
"-52.94","48.17","GRATES COVE","840B053","2021-07-15 16:30","2021","07","15","16:30","19.4","","","M","","M","","","26","","43","","","","101.52","","","","","","NA"
"-52.94","48.17","GRATES COVE","840B053","2021-07-15 17:30","2021","07","15","17:30","18.7","","","M","","M","","","26","","44","","","","101.50","","","","","","NA"
"-52.94","48.17","GRATES COVE","840B053","2021-07-15 18:30","2021","07","15","18:30","18.3","","","M","","M","","","26","","45","","","","101.51","","","","","","NA"
"-52.94","48.17","GRATES COVE","840B053","2021-07-15 19:30","2021","07","15","19:30","17.2","","","M","","M","","","25","","50","","","","101.49","","","","","","NA"
"-52.94","48.17","GRATES COVE","840B053","2021-07-15 20:30","2021","07","15","20:30","16.6","","","M","","M","","","25","","49","","","","101.53","","","","","","NA"
"-52.94","48.17","GRATES COVE","840B053","2021-07-15 21:30","2021","07","15","21:30","16.2","","","M","","M","","","25","","43","","","","101.58","","","","","","NA"
"-52.94","48.17","GRATES COVE","840B053","2021-07-15 22:30","2021","07","15","22:30","16.0","","","M","","M","","","25","","39","","","","101.55","","","","","","NA"
"-52.94","48.17","GRATES COVE","840B053","2021-07-15 23:30","2021","07","15","23:30","15.8","","","M","","M","","","26","","43","","","","101.55","","","","","","NA"
"-52.94","48.17","GRATES COVE","840B053","2021-07-16 00:30","2021","07","16","00:30","15.4","","","M","","M","","","25","","40","","","","101.51","","","","","","NA"
"-52.94","48.17","GRATES COVE","840B053","2021-07-16 01:30","2021","07","16","01:30","14.7","","","M","","M","","","25","","34","","","","101.53","","","","","","NA"
"-52.94","48.17","GRATES COVE","840B053","2021-07-16 02:30","2021","07","16","02:30","13.5","","","M","","M","","","25","","27","","","","101.54","","","","","","NA"
"-52.94","48.17","GRATES COVE","840B053","2021-07-16 03:30","2021","07","16","03:30","13.6","","","M","","M","","","25","","26","","","","101.56","","","","","","NA"
"-52.94","48.17","GRATES COVE","840B053","2021-07-16 04:30","2021","07","16","04:30","14.3","","","M","","M","","","25","","31","","","","101.54","","","","","","NA"
"-52.94","48.17","GRATES COVE","840B053","2021-07-16 05:30","2021","07","16","05:30","15.2","","","M","","M","","","25","","38","","","","101.51","","","","","","NA"
"-52.94","48.17","GRATES COVE","840B053","2021-07-16 06:30","2021","07","16","06:30","16.2","","","M","","M","","","25","","27","","","","101.54","","","","","","NA"
"-52.94","48.17","GRATES COVE","840B053","2021-07-16 07:30","2021","07","16","07:30","17.2","","","M","","M","","","25","","30","","","","101.56","","","","","","NA"
"-52.94","48.17","GRATES COVE","840B053","2021-07-16 08:30","2021","07","16","08:30","18.7","","","M","","M","","","26","","33","","","","101.53","","","","","","NA"
"-52.94","48.17","GRATES COVE","840B053","2021-07-16 09:30","2021","07","16","09:30","16.0","","","M","","M","","","26","","33","","","","101.53","","","","","","NA"
"-52.94","48.17","GRATES COVE","840B053","2021-07-16 10:30","2021","07","16","10:30","18.7","","","M","","M","","","27","","40","","","","101.49","","","","","","NA"
"-52.94","48.17","GRATES COVE","840B053","2021-07-16 11:30","2021","07","16","11:30","18.8","","","M","","M","","","27","","38","","","","101.48","","","","","","NA"
"-52.94","48.17","GRATES COVE","840B053","2021-07-16 12:30","2021","07","16","12:30","19.4","","","M","","M","","","26","","35","","","","101.44","","","","","","NA"
"-52.94","48.17","GRATES COVE","840B053","2021-07-16 13:30","2021","07","16","13:30","21.0","","","M","","M","","","27","","27","","","","101.46","","","","","","NA"
"-52.94","48.17","GRATES COVE","840B053","2021-07-16 14:30","2021","07","16","14:30","22.1","","","M","","M","","","25","","31","","","","101.39","","","","","","NA"
"-52.94","48.17","GRATES COVE","840B053","2021-07-16 15:30","2021","07","16","15:30","20.5","","","M","","M","","","25","","28","","","","101.38","","","","","","NA"
"-52.94","48.17","GRATES COVE","840B053","2021-07-16 16:30","2021","07","16","16:30","20.9","","","M","","M","","","25","","32","","","","101.31","","","","","","NA"
"-52.94","48.17","GRATES COVE","840B053","2021-07-16 17:30","2021","07","16","17:30","19.5","","","M","","M","","","26","","23","","","","101.34","","","","","","NA"
"-52.94","48.17","GRATES COVE","840B053","2021-07-16 18:30","2021","07","16","18:30","19.2","","","M","","M","","","25","","33","","","","101.28","","","","","","NA"
"-52.94","48.17","GRATES COVE","840B053","2021-07-16 19:30","2021","07","16","19:30","19.2","","","M","","M","","","26","","29","","","","101.33","","","","","","NA"
"-52.94","48.17","GRATES COVE","840B053","2021-07-16 20:30","2021","07","16","20:30","18.3","","","M","","M","","","24","","21","","","","101.32","","","","","","NA"
"-52.94","48.17","GRATES COVE","840B053","2021-07-16 21:30","2021","07","16","21:30","16.9","","","M","","M","","","24","","20","","","","101.33","","","","","","NA"
"-52.94","48.17","GRATES COVE","840B053","2021-07-16 22:30","2021","07","16","22:30","13.8","","","M","","M","","","28","","15","","","","101.31","","","","","","NA"
"-52.94","48.17","GRATES COVE","840B053","2021-07-16 23:30","2021","07","16","23:30","15.8","","","M","","M","","","22","","7","","","","101.26","","","","","","NA"
"-52.94","48.17","GRATES COVE","840B053","2021-07-17 00:30","2021","07","17","00:30","13.0","","","M","","M","","","30","","2","","","","101.22","","","","","","NA"
"-52.94","48.17","GRATES COVE","840B053","2021-07-17 01:30","2021","07","17","01:30","13.8","","","M","","M","","","22","","5","","","","101.17","","","","","","NA"
"-52.94","48.17","GRATES COVE","840B053","2021-07-17 02:30","2021","07","17","02:30","14.0","","","M","","M","","","24","","6","","","","101.17","","","","","","NA"
"-52.94","48.17","GRATES COVE","840B053","2021-07-17 03:30","2021","07","17","03:30","15.7","","","M","","M","","","24","","15","","","","101.13","","","","","","NA"
"-52.94","48.17","GRATES COVE","840B053","2021-07-17 04:30","2021","07","17","04:30","16.4","","","M","","M","","","25","","17","","","","101.15","","","","","","NA"
"-52.94","48.17","GRATES COVE","840B053","2021-07-17 05:30","2021","07","17","05:30","15.2","","","M","","M","","","17","","4","","","","101.13","","","","","","NA"
"-52.94","48.17","GRATES COVE","840B053","2021-07-17 06:30","2021","07","17","06:30","17.6","","","M","","M","","","23","","16","","","","101.08","","","","","","NA"
"-52.94","48.17","GRATES COVE","840B053","2021-07-17 07:30","2021","07","17","07:30","19.7","","","M","","M","","","23","","20","","","","101.04","","","","","","NA"
"-52.94","48.17","GRATES COVE","840B053","2021-07-17 08:30","2021","07","17","08:30","20.3","","","M","","M","","","23","","24","","","","101.00","","","","","","NA"
"-52.94","48.17","GRATES COVE","840B053","2021-07-17 09:30","2021","07","17","09:30","22.6","","","M","","M","","","21","","13","","","","101.00","","","","","","NA"
"-52.94","48.17","GRATES COVE","840B053","2021-07-17 10:30","2021","07","17","10:30","24.3","","","M","","M","","","25","","27","","","","100.96","","","","","","NA"
"-52.94","48.17","GRATES COVE","840B053","2021-07-17 11:30","2021","07","17","11:30","23.1","","","M","","M","","","26","","32","","","","100.89","","","","","","NA"
"-52.94","48.17","GRATES COVE","840B053","2021-07-17 12:30","2021","07","17","12:30","24.1","","","M","","M","","","25","","28","","","","100.84","","","","","","NA"
"-52.94","48.17","GRATES COVE","840B053","2021-07-17 13:30","2021","07","17","13:30","23.5","","","M","","M","","","26","","41","","","","100.75","","","","","","NA"
"-52.94","48.17","GRATES COVE","840B053","2021-07-17 14:30","2021","07","17","14:30","17.8","","","M","","M","","","27","","26","","","","100.79","","","","","","NA"
"-52.94","48.17","GRATES COVE","840B053","2021-07-17 15:30","2021","07","17","15:30","15.4","","","M","","M","","","27","","27","","","","100.81","","","","","","NA"
"-52.94","48.17","GRATES COVE","840B053","2021-07-17 16:30","2021","07","17","16:30","16.9","","","M","","M","","","26","","31","","","","100.80","","","","","","NA"
"-52.94","48.17","GRATES COVE","840B053","2021-07-17 17:30","2021","07","17","17:30","18.1","","","M","","M","","","26","","32","","","","100.74","","","","","","NA"
"-52.94","48.17","GRATES COVE","840B053","2021-07-17 18:30","2021","07","17","18:30","17.6","","","M","","M","","","26","","36","","","","100.75","","","","","","NA"
"-52.94","48.17","GRATES COVE","840B053","2021-07-17 19:30","2021","07","17","19:30","18.1","","","M","","M","","","25","","33","","","","100.78","","","","","","NA"
"-52.94","48.17","GRATES COVE","840B053","2021-07-17 20:30","2021","07","17","20:30","17.9","","","M","","M","","","25","","34","","","","100.81","","","","","","NA"
"-52.94","48.17","GRATES COVE","840B053","2021-07-17 21:30","2021","07","17","21:30","17.8","","","M","","M","","","25","","29","","","","100.84","","","","","","NA"
"-52.94","48.17","GRATES COVE","840B053","2021-07-17 22:30","2021","07","17","22:30","17.5","","","M","","M","","","26","","30","","","","100.84","","","","","","NA"
"-52.94","48.17","GRATES COVE","840B053","2021-07-17 23:30","2021","07","17","23:30","16.5","","","M","","M","","","27","","23","","","","100.87","","","","","","NA"
"-52.94","48.17","GRATES COVE","840B053","2021-07-18 00:30","2021","07","18","00:30","15.7","","","M","","M","","","27","","27","","","","100.86","","","","","","NA"
"-52.94","48.17","GRATES COVE","840B053","2021-07-18 01:30","2021","07","18","01:30","16.5","","","M","","M","","","26","","26","","","","100.87","","","","","","NA"
"-52.94","48.17","GRATES COVE","840B053","2021-07-18 02:30","2021","07","18","02:30","15.2","","","M","","M","","","27","","21","","","","100.89","","","","","","NA"
"-52.94","48.17","GRATES COVE","840B053","2021-07-18 03:30","2021","07","18","03:30","16.4","","","M","","M","","","26","","25","","","","100.89","","","","","","NA"
"-52.94","48.17","GRATES COVE","840B053","2021-07-18 04:30","2021","07","18","04:30","16.4","","","M","","M","","","26","","21","","","","100.92","","","","","","NA"
"-52.94","48.17","GRATES COVE","840B053","2021-07-18 05:30","2021","07","18","05:30","17.5","","","M","","M","","","26","","24","","","","100.91","","","","","","NA"
"-52.94","48.17","GRATES COVE","840B053","2021-07-18 06:30","2021","07","18","06:30","18.8","","","M","","M","","","26","","25","","","","100.91","","","","","","NA"
"-52.94","48.17","GRATES COVE","840B053","2021-07-18 07:30","2021","07","18","07:30","19.5","","","M","","M","","","26","","26","","","","100.92","","","","","","NA"
"-52.94","48.17","GRATES COVE","840B053","2021-07-18 08:30","2021","07","18","08:30","19.9","","","M","","M","","","26","","25","","","","100.94","","","","","","NA"
"-52.94","48.17","GRATES COVE","840B053","2021-07-18 09:30","2021","07","18","09:30","20.8","","","M","","M","","","26","","28","","","","100.94","","","","","","NA"
"-52.94","48.17","GRATES COVE","840B053","2021-07-18 10:30","2021","07","18","10:30","21.4","","","M","","M","","","26","","24","","","","100.93","","","","","","NA"
"-52.94","48.17","GRATES COVE","840B053","2021-07-18 11:30","2021","07","18","11:30","22.1","","","M","","M","","","25","","22","","","","100.90","","","","","","NA"
"-52.94","48.17","GRATES COVE","840B053","2021-07-18 12:30","2021","07","18","12:30","23.8","","","M","","M","","","26","","24","","","","100.85","","","","","","NA"
"-52.94","48.17","GRATES COVE","840B053","2021-07-18 13:30","2021","07","18","13:30","24.0","","","M","","M","","","26","","23","","","","100.79","","","","","","NA"
"-52.94","48.17","GRATES COVE","840B053","2021-07-18 14:30","2021","07","18","14:30","24.8","","","M","","M","","","25","","27","","","","100.80","","","","","","NA"
"-52.94","48.17","GRATES COVE","840B053","2021-07-18 15:30","2021","07","18","15:30","18.5","","","M","","M","","","7","","8","","","","100.82","","","","","","NA"
"-52.94","48.17","GRATES COVE","840B053","2021-07-18 16:30","2021","07","18","16:30","19.2","","","M","","M","","","13","","4","","","","100.79","","","","","","NA"
"-52.94","48.17","GRATES COVE","840B053","2021-07-18 17:30","2021","07","18","17:30","16.5","","","M","","M","","","4","","7","","","","100.84","","","","","","NA"
"-52.94","48.17","GRATES COVE","840B053","2021-07-18 18:30","2021","07","18","18:30","15.8","","","M","","M","","","18","","4","","","","100.91","","","","","","NA"
"-52.94","48.17","GRATES COVE","840B053","2021-07-18 19:30","2021","07","18","19:30","19.9","","","M","","M","","","0","","1","","","","100.93","","","","","","NA"
"-52.94","48.17","GRATES COVE","840B053","2021-07-18 20:30","2021","07","18","20:30","18.6","","","M","","M","","","28","","9","","","","100.97","","","","","","NA"
"-52.94","48.17","GRATES COVE","840B053","2021-07-18 21:30","2021","07","18","21:30","14.1","","","M","","M","","","3","","4","","","","101.07","","","","","","NA"
"-52.94","48.17","GRATES COVE","840B053","2021-07-18 22:30","2021","07","18","22:30","13.9","","","M","","M","","","19","","3","","","","101.08","","","","","","NA"
"-52.94","48.17","GRATES COVE","840B053","2021-07-18 23:30","2021","07","18","23:30","14.6","","","M","","M","","","26","","1","","","","101.10","","","","","","NA"
"-52.94","48.17","GRATES COVE","840B053","2021-07-19 00:30","2021","07","19","00:30","14.6","","","M","","M","","","1","","2","","","","101.11","","","","","","NA"
"-52.94","48.17","GRATES COVE","840B053","2021-07-19 01:30","2021","07","19","01:30","15.8","","","M","","M","","","23","","2","","","","101.09","","","","","","NA"
"-52.94","48.17","GRATES COVE","840B053","2021-07-19 02:30","2021","07","19","02:30","15.6","","","M","","M","","","23","","4","","","","101.12","","","","","","NA"
"-52.94","48.17","GRATES COVE","840B053","2021-07-19 03:30","2021","07","19","03:30","14.8","","","M","","M","","","28","","12","","","","101.13","","","","","","NA"
"-52.94","48.17","GRATES COVE","840B053","2021-07-19 04:30","2021","07","19","04:30","14.2","","","M","","M","","","27","","19","","","","101.17","","","","","","NA"
"-52.94","48.17","GRATES COVE","840B053","2021-07-19 05:30","2021","07","19","05:30","14.8","","","M","","M","","","28","","16","","","","101.24","","","","","","NA"
"-52.94","48.17","GRATES COVE","840B053","2021-07-19 06:30","2021","07","19","06:30","17.0","","","M","","M","","","29","","8","","","","101.29","","","","","","NA"
"-52.94","48.17","GRATES COVE","840B053","2021-07-19 07:30","2021","07","19","07:30","18.3","","","M","","M","","","0","","1","","","","101.32","","","","","","NA"
"-52.94","48.17","GRATES COVE","840B053","2021-07-19 08:30","2021","07","19","08:30","18.3","","","M","","M","","","8","","3","","","","101.36","","","","","","NA"
"-52.94","48.17","GRATES COVE","840B053","2021-07-19 09:30","2021","07","19","09:30","18.0","","","M","","M","","","8","","3","","","","101.38","","","","","","NA"
"-52.94","48.17","GRATES COVE","840B053","2021-07-19 10:30","2021","07","19","10:30","16.4","","","M","","M","","","7","","5","","","","101.37","","","","","","NA"
"-52.94","48.17","GRATES COVE","840B053","2021-07-19 11:30","2021","07","19","11:30","21.5","","","M","","M","","","10","","10","","","","101.36","","","","","","NA"
"-52.94","48.17","GRATES COVE","840B053","2021-07-19 12:30","2021","07","19","12:30","21.0","","","M","","M","","","13","","17","","","","101.30","","","","","","NA"
"-52.94","48.17","GRATES COVE","840B053","2021-07-19 13:30","2021","07","19","13:30","20.4","","","M","","M","","","17","","33","","","","101.25","","","","","","NA"
"-52.94","48.17","GRATES COVE","840B053","2021-07-19 14:30","2021","07","19","14:30","20.2","","","M","","M","","","18","","34","","","","101.23","","","","","","NA"
"-52.94","48.17","GRATES COVE","840B053","2021-07-19 15:30","2021","07","19","15:30","18.5","","","M","","M","","","19","","40","","","","101.19","","","","","","NA"
"-52.94","48.17","GRATES COVE","840B053","2021-07-19 16:30","2021","07","19","16:30","17.8","","","M","","M","","","19","","39","","","","101.19","","","","","","NA"
"-52.94","48.17","GRATES COVE","840B053","2021-07-19 17:30","2021","07","19","17:30","18.8","","","M","","M","","","19","","40","","","","101.19","","","","","","NA"
"-52.94","48.17","GRATES COVE","840B053","2021-07-19 18:30","2021","07","19","18:30","17.3","","","M","","M","","","19","","39","","","","101.15","","","","","","NA"
"-52.94","48.17","GRATES COVE","840B053","2021-07-19 19:30","2021","07","19","19:30","16.2","","","M","","M","","","19","","32","","","","101.17","","","","","","NA"
"-52.94","48.17","GRATES COVE","840B053","2021-07-19 20:30","2021","07","19","20:30","16.2","","","M","","M","","","19","","27","","","","101.18","","","","","","NA"
"-52.94","48.17","GRATES COVE","840B053","2021-07-19 21:30","2021","07","19","21:30","16.6","","","M","","M","","","21","","24","","","","101.21","","","","","","NA"
"-52.94","48.17","GRATES COVE","840B053","2021-07-19 22:30","2021","07","19","22:30","15.8","","","M","","M","","","21","","20","","","","101.19","","","","","","NA"
"-52.94","48.17","GRATES COVE","840B053","2021-07-19 23:30","2021","07","19","23:30","15.2","","","M","","M","","","22","","18","","","","101.15","","","","","","NA"
"-52.94","48.17","GRATES COVE","840B053","2021-07-20 00:30","2021","07","20","00:30","15.7","","","M","","M","","","22","","16","","","","101.10","","","","","","NA"
"-52.94","48.17","GRATES COVE","840B053","2021-07-20 01:30","2021","07","20","01:30","16.2","","","M","","M","","","21","","22","","","","101.02","","","","","","NA"
"-52.94","48.17","GRATES COVE","840B053","2021-07-20 02:30","2021","07","20","02:30","16.1","","","M","","M","","","20","","22","","","","100.98","","","","","","NA"
"-52.94","48.17","GRATES COVE","840B053","2021-07-20 03:30","2021","07","20","03:30","13.4","","","M","","M","","","9","","7","","","","100.89","","","","","","NA"
"-52.94","48.17","GRATES COVE","840B053","2021-07-20 04:30","2021","07","20","04:30","15.6","","","M","","M","","","22","","8","","","","100.88","","","","","","NA"
"-52.94","48.17","GRATES COVE","840B053","2021-07-20 05:30","2021","07","20","05:30","15.4","","","M","","M","","","21","","21","","","","100.81","","","","","","NA"
"-52.94","48.17","GRATES COVE","840B053","2021-07-20 06:30","2021","07","20","06:30","15.1","","","M","","M","","","20","","50","","","","100.67","","","","","","NA"
"-52.94","48.17","GRATES COVE","840B053","2021-07-20 07:30","2021","07","20","07:30","16.8","","","M","","M","","","21","","40","","","","101.15","","","","","","NA"
"-52.94","48.17","GRATES COVE","840B053","2021-07-20 08:30","2021","07","20","08:30","17.1","","","M","","M","","","21","","32","","","","101.32","","","","","","NA"
"-52.94","48.17","GRATES COVE","840B053","2021-07-20 09:30","2021","07","20","09:30","17.4","","","M","","M","","","19","","5","","","","101.28","","","","","","NA"
"-52.94","48.17","GRATES COVE","840B053","2021-07-20 10:30","2021","07","20","10:30","18.8","","","M","","M","","","23","","6","","","","100.63","","","","","","NA"
"-52.94","48.17","GRATES COVE","840B053","2021-07-20 11:30","2021","07","20","11:30","17.4","","","M","","M","","","5","","3","","","","100.59","","","","","","NA"
"-52.94","48.17","GRATES COVE","840B053","2021-07-20 12:30","2021","07","20","12:30","16.6","","","M","","M","","","29","","17","","","","100.59","","","","","","NA"
"-52.94","48.17","GRATES COVE","840B053","2021-07-20 13:30","2021","07","20","13:30","21.0","","","M","","M","","","22","","17","","","","100.66","","","","","","NA"
"-52.94","48.17","GRATES COVE","840B053","2021-07-20 14:30","2021","07","20","14:30","21.3","","","M","","M","","","24","","24","","","","100.57","","","","","","NA"
"-52.94","48.17","GRATES COVE","840B053","2021-07-20 15:30","2021","07","20","15:30","21.3","","","M","","M","","","21","","28","","","","100.50","","","","","","NA"
"-52.94","48.17","GRATES COVE","840B053","2021-07-20 16:30","2021","07","20","16:30","20.6","","","M","","M","","","22","","33","","","","100.47","","","","","","NA"
"-52.94","48.17","GRATES COVE","840B053","2021-07-20 17:30","2021","07","20","17:30","19.8","","","M","","M","","","24","","29","","","","100.35","","","","","","NA"
"-52.94","48.17","GRATES COVE","840B053","2021-07-20 18:30","2021","07","20","18:30","20.9","","","M","","M","","","22","","23","","","","100.66","","","","","","NA"
"-52.94","48.17","GRATES COVE","840B053","2021-07-20 19:30","2021","07","20","19:30","20.7","","","M","","M","","","23","","20","","","","100.53","","","","","","NA"
"-52.94","48.17","GRATES COVE","840B053","2021-07-20 20:30","2021","07","20","20:30","19.7","","","M","","M","","","23","","16","","","","100.40","","","","","","NA"
"-52.94","48.17","GRATES COVE","840B053","2021-07-20 21:30","2021","07","20","21:30","19.7","","","M","","M","","","25","","29","","","","100.37","","","","","","NA"
"-52.94","48.17","GRATES COVE","840B053","2021-07-20 22:30","2021","07","20","22:30","19.3","","","M","","M","","","25","","32","","","","100.30","","","","","","NA"
"-52.94","48.17","GRATES COVE","840B053","2021-07-20 23:30","2021","07","20","23:30","19.3","","","M","","M","","","25","","22","","","","100.33","","","","","","NA"
"-52.94","48.17","GRATES COVE","840B053","2021-07-21 00:30","2021","07","21","00:30","18.5","","","M","","M","","","24","","17","","","","100.21","","","","","","NA"
"-52.94","48.17","GRATES COVE","840B053","2021-07-21 01:30","2021","07","21","01:30","19.6","","","M","","M","","","25","","22","","","","100.52","","","","","","NA"
"-52.94","48.17","GRATES COVE","840B053","2021-07-21 02:30","2021","07","21","02:30","19.0","","","M","","M","","","25","","36","","","","100.37","","","","","","NA"
"-52.94","48.17","GRATES COVE","840B053","2021-07-21 03:30","2021","07","21","03:30","18.9","","","M","","M","","","25","","31","","","","100.30","","","","","","NA"
"-52.94","48.17","GRATES COVE","840B053","2021-07-21 04:30","2021","07","21","04:30","18.7","","","M","","M","","","25","","20","","","","100.33","","","","","","NA"
"-52.94","48.17","GRATES COVE","840B053","2021-07-21 05:30","2021","07","21","05:30","18.0","","","M","","M","","","26","","19","","","","100.16","","","","","","NA"
"-52.94","48.17","GRATES COVE","840B053","2021-07-21 06:30","2021","07","21","06:30","18.1","","","M","","M","","","27","","21","","","","100.57","","","","","","NA"
"-52.94","48.17","GRATES COVE","840B053","2021-07-21 07:30","2021","07","21","07:30","17.8","","","M","","M","","","27","","18","","","","100.55","","","","","","NA"
"-52.94","48.17","GRATES COVE","840B053","2021-07-21 08:30","2021","07","21","08:30","17.3","","","M","","M","","","27","","18","","","","100.47","","","","","","NA"
"-52.94","48.17","GRATES COVE","840B053","2021-07-21 09:30","2021","07","21","09:30","18.7","","","M","","M","","","28","","14","","","","100.65","","","","","","NA"
"-52.94","48.17","GRATES COVE","840B053","2021-07-21 10:30","2021","07","21","10:30","13.0","","","M","","M","","","5","","16","","","","100.63","","","","","","NA"
"-52.94","48.17","GRATES COVE","840B053","2021-07-21 11:30","2021","07","21","11:30","13.0","","","M","","M","","","6","","15","","","","100.69","","","","","","NA"
"-52.94","48.17","GRATES COVE","840B053","2021-07-21 12:30","2021","07","21","12:30","12.2","","","M","","M","","","4","","22","","","","100.71","","","","","","NA"
"-52.94","48.17","GRATES COVE","840B053","2021-07-21 13:30","2021","07","21","13:30","11.8","","","M","","M","","","4","","30","","","","100.74","","","","","","NA"
"-52.94","48.17","GRATES COVE","840B053","2021-07-21 14:30","2021","07","21","14:30","11.8","","","M","","M","","","4","","30","","","","100.79","","","","","","NA"
"-52.94","48.17","GRATES COVE","840B053","2021-07-21 15:30","2021","07","21","15:30","11.4","","","M","","M","","","4","","33","","","","100.80","","","","","","NA"
"-52.94","48.17","GRATES COVE","840B053","2021-07-21 16:30","2021","07","21","16:30","11.0","","","M","","M","","","4","","34","","","","100.84","","","","","","NA"
"-52.94","48.17","GRATES COVE","840B053","2021-07-21 17:30","2021","07","21","17:30","10.8","","","M","","M","","","5","","33","","","","100.88","","","","","","NA"
"-52.94","48.17","GRATES COVE","840B053","2021-07-21 18:30","2021","07","21","18:30","10.4","","","M","","M","","","5","","35","","","","100.92","","","","","","NA"
"-52.94","48.17","GRATES COVE","840B053","2021-07-21 19:30","2021","07","21","19:30","10.3","","","M","","M","","","6","","32","","","","100.93","","","","","","NA"
"-52.94","48.17","GRATES COVE","840B053","2021-07-21 20:30","2021","07","21","20:30","10.0","","","M","","M","","","6","","29","","","","101.05","","","","","","NA"
"-52.94","48.17","GRATES COVE","840B053","2021-07-21 21:30","2021","07","21","21:30","9.7","","","M","","M","","","6","","26","","","","101.08","","","","","","NA"
"-52.94","48.17","GRATES COVE","840B053","2021-07-21 22:30","2021","07","21","22:30","9.6","","","M","","M","","","6","","20","","","","101.10","","","","","","NA"
"-52.94","48.17","GRATES COVE","840B053","2021-07-21 23:30","2021","07","21","23:30","9.3","","","M","","M","","","7","","20","","","","101.08","","","","","","NA"
"-52.94","48.17","GRATES COVE","840B053","2021-07-22 00:30","2021","07","22","00:30","9.3","","","M","","M","","","7","","18","","","","101.09","","","","","","NA"
"-52.94","48.17","GRATES COVE","840B053","2021-07-22 01:30","2021","07","22","01:30","9.1","","","M","","M","","","6","","19","","","","101.04","","","","","","NA"
"-52.94","48.17","GRATES COVE","840B053","2021-07-22 02:30","2021","07","22","02:30","9.0","","","M","","M","","","7","","18","","","","101.03","","","","","","NA"
"-52.94","48.17","GRATES COVE","840B053","2021-07-22 03:30","2021","07","22","03:30","8.9","","","M","","M","","","7","","18","","","","101.02","","","","","","NA"
"-52.94","48.17","GRATES COVE","840B053","2021-07-22 04:30","2021","07","22","04:30","9.0","","","M","","M","","","8","","14","","","","101.09","","","","","","NA"
"-52.94","48.17","GRATES COVE","840B053","2021-07-22 05:30","2021","07","22","05:30","9.0","","","M","","M","","","9","","16","","","","101.07","","","","","","NA"
"-52.94","48.17","GRATES COVE","840B053","2021-07-22 06:30","2021","07","22","06:30","9.1","","","M","","M","","","9","","18","","","","101.06","","","","","","NA"
"-52.94","48.17","GRATES COVE","840B053","2021-07-22 07:30","2021","07","22","07:30","9.3","","","M","","M","","","10","","13","","","","101.08","","","","","","NA"
"-52.94","48.17","GRATES COVE","840B053","2021-07-22 08:30","2021","07","22","08:30","9.7","","","M","","M","","","10","","13","","","","101.05","","","","","","NA"
"-52.94","48.17","GRATES COVE","840B053","2021-07-22 09:30","2021","07","22","09:30","10.3","","","M","","M","","","10","","13","","","","101.02","","","","","","NA"
"-52.94","48.17","GRATES COVE","840B053","2021-07-22 10:30","2021","07","22","10:30","11.0","","","M","","M","","","9","","15","","","","101.01","","","","","","NA"
"-52.94","48.17","GRATES COVE","840B053","2021-07-22 11:30","2021","07","22","11:30","11.2","","","M","","M","","","10","","14","","","","100.97","","","","","","NA"
"-52.94","48.17","GRATES COVE","840B053","2021-07-22 12:30","2021","07","22","12:30","11.2","","","M","","M","","","10","","17","","","","100.90","","","","","","NA"
"-52.94","48.17","GRATES COVE","840B053","2021-07-22 13:30","2021","07","22","13:30","11.3","","","M","","M","","","9","","17","","","","100.88","","","","","","NA"
"-52.94","48.17","GRATES COVE","840B053","2021-07-22 14:30","2021","07","22","14:30","11.6","","","M","","M","","","9","","21","","","","100.83","","","","","","NA"
"-52.94","48.17","GRATES COVE","840B053","2021-07-22 15:30","2021","07","22","15:30","11.6","","","M","","M","","","9","","27","","","","100.75","","","","","","NA"
"-52.94","48.17","GRATES COVE","840B053","2021-07-22 16:30","2021","07","22","16:30","10.8","","","M","","M","","","9","","29","","","","100.67","","","","","","NA"
"-52.94","48.17","GRATES COVE","840B053","2021-07-22 17:30","2021","07","22","17:30","10.4","","","M","","M","","","9","","25","","","","100.64","","","","","","NA"
"-52.94","48.17","GRATES COVE","840B053","2021-07-22 18:30","2021","07","22","18:30","10.4","","","M","","M","","","9","","23","","","","100.64","","","","","","NA"
"-52.94","48.17","GRATES COVE","840B053","2021-07-22 19:30","2021","07","22","19:30","10.0","","","M","","M","","","9","","26","","","","100.65","","","","","","NA"
"-52.94","48.17","GRATES COVE","840B053","2021-07-22 20:30","2021","07","22","20:30","10.0","","","M","","M","","","10","","19","","","","100.65","","","","","","NA"
"-52.94","48.17","GRATES COVE","840B053","2021-07-22 21:30","2021","07","22","21:30","10.0","","","M","","M","","","10","","21","","","","100.59","","","","","","NA"
"-52.94","48.17","GRATES COVE","840B053","2021-07-22 22:30","2021","07","22","22:30","10.1","","","M","","M","","","9","","22","","","","100.56","","","","","","NA"
"-52.94","48.17","GRATES COVE","840B053","2021-07-22 23:30","2021","07","22","23:30","10.1","","","M","","M","","","10","","16","","","","100.61","","","","","","NA"
"-52.94","48.17","GRATES COVE","840B053","2021-07-23 00:30","2021","07","23","00:30","10.2","","","M","","M","","","9","","12","","","","100.62","","","","","","NA"
"-52.94","48.17","GRATES COVE","840B053","2021-07-23 01:30","2021","07","23","01:30","10.2","","","M","","M","","","9","","20","","","","100.53","","","","","","NA"
"-52.94","48.17","GRATES COVE","840B053","2021-07-23 02:30","2021","07","23","02:30","10.0","","","M","","M","","","8","","19","","","","100.52","","","","","","NA"
"-52.94","48.17","GRATES COVE","840B053","2021-07-23 03:30","2021","07","23","03:30","10.1","","","M","","M","","","9","","16","","","","100.52","","","","","","NA"
"-52.94","48.17","GRATES COVE","840B053","2021-07-23 04:30","2021","07","23","04:30","10.1","","","M","","M","","","9","","15","","","","100.54","","","","","","NA"
"-52.94","48.17","GRATES COVE","840B053","2021-07-23 05:30","2021","07","23","05:30","10.1","","","M","","M","","","9","","18","","","","100.55","","","","","","NA"
"-52.94","48.17","GRATES COVE","840B053","2021-07-23 06:30","2021","07","23","06:30","10.4","","","M","","M","","","11","","11","","","","100.61","","","","","","NA"
"-52.94","48.17","GRATES COVE","840B053","2021-07-23 07:30","2021","07","23","07:30","10.6","","","M","","M","","","11","","10","","","","100.65","","","","","","NA"
"-52.94","48.17","GRATES COVE","840B053","2021-07-23 08:30","2021","07","23","08:30","11.0","","","M","","M","","","11","","11","","","","100.65","","","","","","NA"
"-52.94","48.17","GRATES COVE","840B053","2021-07-23 09:30","2021","07","23","09:30","11.5","","","M","","M","","","10","","8","","","","100.68","","","","","","NA"
"-52.94","48.17","GRATES COVE","840B053","2021-07-23 10:30","2021","07","23","10:30","12.5","","","M","","M","","","9","","8","","","","100.71","","","","","","NA"
"-52.94","48.17","GRATES COVE","840B053","2021-07-23 11:30","2021","07","23","11:30","12.8","","","M","","M","","","10","","11","","","","100.70","","","","","","NA"
"-52.94","48.17","GRATES COVE","840B053","2021-07-23 12:30","2021","07","23","12:30","14.0","","","M","","M","","","9","","9","","","","100.70","","","","","","NA"
"-52.94","48.17","GRATES COVE","840B053","2021-07-23 13:30","2021","07","23","13:30","14.5","","","M","","M","","","9","","8","","","","100.69","","","","","","NA"
"-52.94","48.17","GRATES COVE","840B053","2021-07-23 14:30","2021","07","23","14:30","13.8","","","M","","M","","","9","","7","","","","100.71","","","","","","NA"
"-52.94","48.17","GRATES COVE","840B053","2021-07-23 15:30","2021","07","23","15:30","14.3","","","M","","M","","","9","","8","","","","100.71","","","","","","NA"
"-52.94","48.17","GRATES COVE","840B053","2021-07-23 16:30","2021","07","23","16:30","14.1","","","M","","M","","","9","","9","","","","100.73","","","","","","NA"
"-52.94","48.17","GRATES COVE","840B053","2021-07-23 17:30","2021","07","23","17:30","14.1","","","M","","M","","","10","","10","","","","100.74","","","","","","NA"
"-52.94","48.17","GRATES COVE","840B053","2021-07-23 18:30","2021","07","23","18:30","12.8","","","M","","M","","","13","","12","","","","100.73","","","","","","NA"
"-52.94","48.17","GRATES COVE","840B053","2021-07-23 19:30","2021","07","23","19:30","12.5","","","M","","M","","","13","","10","","","","100.76","","","","","","NA"
"-52.94","48.17","GRATES COVE","840B053","2021-07-23 20:30","2021","07","23","20:30","12.3","","","M","","M","","","11","","9","","","","100.80","","","","","","NA"
"-52.94","48.17","GRATES COVE","840B053","2021-07-23 21:30","2021","07","23","21:30","12.2","","","M","","M","","","14","","9","","","","100.81","","","","","","NA"
"-52.94","48.17","GRATES COVE","840B053","2021-07-23 22:30","2021","07","23","22:30","12.1","","","M","","M","","","14","","11","","","","100.79","","","","","","NA"
"-52.94","48.17","GRATES COVE","840B053","2021-07-23 23:30","2021","07","23","23:30","12.7","","","M","","M","","","18","","12","","","","100.78","","","","","","NA"
"-52.94","48.17","GRATES COVE","840B053","2021-07-24 00:30","2021","07","24","00:30","12.8","","","M","","M","","","23","","10","","","","100.76","","","","","","NA"
"-52.94","48.17","GRATES COVE","840B053","2021-07-24 01:30","2021","07","24","01:30","12.7","","","M","","M","","","13","","3","","","","100.76","","","","","","NA"
"-52.94","48.17","GRATES COVE","840B053","2021-07-24 02:30","2021","07","24","02:30","13.0","","","M","","M","","","27","","3","","","","100.75","","","","","","NA"
"-52.94","48.17","GRATES COVE","840B053","2021-07-24 03:30","2021","07","24","03:30","13.7","","","M","","M","","","26","","16","","","","100.77","","","","","","NA"
"-52.94","48.17","GRATES COVE","840B053","2021-07-24 04:30","2021","07","24","04:30","12.9","","","M","","M","","","25","","19","","","","100.77","","","","","","NA"
"-52.94","48.17","GRATES COVE","840B053","2021-07-24 05:30","2021","07","24","05:30","12.9","","","M","","M","","","26","","21","","","","100.80","","","","","","NA"
"-52.94","48.17","GRATES COVE","840B053","2021-07-24 06:30","2021","07","24","06:30","13.4","","","M","","M","","","26","","21","","","","100.82","","","","","","NA"
"-52.94","48.17","GRATES COVE","840B053","2021-07-24 07:30","2021","07","24","07:30","13.1","","","M","","M","","","27","","19","","","","100.86","","","","","","NA"
"-52.94","48.17","GRATES COVE","840B053","2021-07-24 08:30","2021","07","24","08:30","14.1","","","M","","M","","","27","","18","","","","100.88","","","","","","NA"
"-52.94","48.17","GRATES COVE","840B053","2021-07-24 09:30","2021","07","24","09:30","14.5","","","M","","M","","","29","","13","","","","100.89","","","","","","NA"
"-52.94","48.17","GRATES COVE","840B053","2021-07-24 10:30","2021","07","24","10:30","16.5","","","M","","M","","","26","","26","","","","100.88","","","","","","NA"
"-52.94","48.17","GRATES COVE","840B053","2021-07-24 11:30","2021","07","24","11:30","17.7","","","M","","M","","","26","","21","","","","100.90","","","","","","NA"
"-52.94","48.17","GRATES COVE","840B053","2021-07-24 12:30","2021","07","24","12:30","17.6","","","M","","M","","","25","","24","","","","100.84","","","","","","NA"
"-52.94","48.17","GRATES COVE","840B053","2021-07-24 13:30","2021","07","24","13:30","17.5","","","M","","M","","","25","","22","","","","100.84","","","","","","NA"
"-52.94","48.17","GRATES COVE","840B053","2021-07-24 14:30","2021","07","24","14:30","18.3","","","M","","M","","","26","","24","","","","100.84","","","","","","NA"
"-52.94","48.17","GRATES COVE","840B053","2021-07-24 15:30","2021","07","24","15:30","17.8","","","M","","M","","","28","","15","","","","100.82","","","","","","NA"
"-52.94","48.17","GRATES COVE","840B053","2021-07-24 16:30","2021","07","24","16:30","17.4","","","M","","M","","","27","","24","","","","100.77","","","","","","NA"
"-52.94","48.17","GRATES COVE","840B053","2021-07-24 17:30","2021","07","24","17:30","17.0","","","M","","M","","","26","","21","","","","100.75","","","","","","NA"
"-52.94","48.17","GRATES COVE","840B053","2021-07-24 18:30","2021","07","24","18:30","15.7","","","M","","M","","","26","","12","","","","100.80","","","","","","NA"
"-52.94","48.17","GRATES COVE","840B053","2021-07-24 19:30","2021","07","24","19:30","14.7","","","M","","M","","","24","","8","","","","100.77","","","","","","NA"
"-52.94","48.17","GRATES COVE","840B053","2021-07-24 20:30","2021","07","24","20:30","14.3","","","M","","M","","","26","","19","","","","100.81","","","","","","NA"
"-52.94","48.17","GRATES COVE","840B053","2021-07-24 21:30","2021","07","24","21:30","13.4","","","M","","M","","","24","","18","","","","100.81","","","","","","NA"
"-52.94","48.17","GRATES COVE","840B053","2021-07-24 22:30","2021","07","24","22:30","13.2","","","M","","M","","","24","","19","","","","100.82","","","","","","NA"
"-52.94","48.17","GRATES COVE","840B053","2021-07-24 23:30","2021","07","24","23:30","13.7","","","M","","M","","","25","","21","","","","100.79","","","","","","NA"
"-52.94","48.17","GRATES COVE","840B053","2021-07-25 00:30","2021","07","25","00:30","13.7","","","M","","M","","","25","","27","","","","100.77","","","","","","NA"
"-52.94","48.17","GRATES COVE","840B053","2021-07-25 01:30","2021","07","25","01:30","13.5","","","M","","M","","","27","","28","","","","100.78","","","","","","NA"
"-52.94","48.17","GRATES COVE","840B053","2021-07-25 02:30","2021","07","25","02:30","12.4","","","M","","M","","","31","","19","","","","100.87","","","","","","NA"
"-52.94","48.17","GRATES COVE","840B053","2021-07-25 03:30","2021","07","25","03:30","12.3","","","M","","M","","","34","","11","","","","100.94","","","","","","NA"
"-52.94","48.17","GRATES COVE","840B053","2021-07-25 04:30","2021","07","25","04:30","12.5","","","M","","M","","","36","","9","","","","101.02","","","","","","NA"
"-52.94","48.17","GRATES COVE","840B053","2021-07-25 05:30","2021","07","25","05:30","12.3","","","M","","M","","","34","","13","","","","101.08","","","","","","NA"
"-52.94","48.17","GRATES COVE","840B053","2021-07-25 06:30","2021","07","25","06:30","12.5","","","M","","M","","","34","","8","","","","101.15","","","","","","NA"
"-52.94","48.17","GRATES COVE","840B053","2021-07-25 07:30","2021","07","25","07:30","12.6","","","M","","M","","","34","","5","","","","101.22","","","","","","NA"
"-52.94","48.17","GRATES COVE","840B053","2021-07-25 08:30","2021","07","25","08:30","13.1","","","M","","M","","","2","","5","","","","101.22","","","","","","NA"
"-52.94","48.17","GRATES COVE","840B053","2021-07-25 09:30","2021","07","25","09:30","13.9","","","M","","M","","","31","","7","","","","101.23","","","","","","NA"
"-52.94","48.17","GRATES COVE","840B053","2021-07-25 10:30","2021","07","25","10:30","14.1","","","M","","M","","","3","","8","","","","101.23","","","","","","NA"
"-52.94","48.17","GRATES COVE","840B053","2021-07-25 11:30","2021","07","25","11:30","15.9","","","M","","M","","","9","","15","","","","101.25","","","","","","NA"
"-52.94","48.17","GRATES COVE","840B053","2021-07-25 12:30","2021","07","25","12:30","14.3","","","M","","M","","","8","","12","","","","101.21","","","","","","NA"
"-52.94","48.17","GRATES COVE","840B053","2021-07-25 13:30","2021","07","25","13:30","14.5","","","M","","M","","","9","","13","","","","101.20","","","","","","NA"
"-52.94","48.17","GRATES COVE","840B053","2021-07-25 14:30","2021","07","25","14:30","13.8","","","M","","M","","","9","","11","","","","101.21","","","","","","NA"
"-52.94","48.17","GRATES COVE","840B053","2021-07-25 15:30","2021","07","25","15:30","15.4","","","M","","M","","","10","","10","","","","101.19","","","","","","NA"
"-52.94","48.17","GRATES COVE","840B053","2021-07-25 16:30","2021","07","25","16:30","15.2","","","M","","M","","","17","","16","","","","101.19","","","","","","NA"
"-52.94","48.17","GRATES COVE","840B053","2021-07-25 17:30","2021","07","25","17:30","14.0","","","M","","M","","","19","","24","","","","101.16","","","","","","NA"
"-52.94","48.17","GRATES COVE","840B053","2021-07-25 18:30","2021","07","25","18:30","13.1","","","M","","M","","","19","","27","","","","101.14","","","","","","NA"
"-52.94","48.17","GRATES COVE","840B053","2021-07-25 19:30","2021","07","25","19:30","12.5","","","M","","M","","","19","","24","","","","101.13","","","","","","NA"
"-52.94","48.17","GRATES COVE","840B053","2021-07-25 20:30","2021","07","25","20:30","12.5","","","M","","M","","","19","","25","","","","101.12","","","","","","NA"
"-52.94","48.17","GRATES COVE","840B053","2021-07-25 21:30","2021","07","25","21:30","12.6","","","M","","M","","","20","","31","","","","101.12","","","","","","NA"
"-52.94","48.17","GRATES COVE","840B053","2021-07-25 22:30","2021","07","25","22:30","12.4","","","M","","M","","","20","","29","","","","101.14","","","","","","NA"
"-52.94","48.17","GRATES COVE","840B053","2021-07-25 23:30","2021","07","25","23:30","12.4","","","M","","M","","","21","","22","","","","101.14","","","","","","NA"
"-52.94","48.17","GRATES COVE","840B053","2021-07-26 00:30","2021","07","26","00:30","12.3","","","M","","M","","","22","","18","","","","101.11","","","","","","NA"
"-52.94","48.17","GRATES COVE","840B053","2021-07-26 01:30","2021","07","26","01:30","12.3","","","M","","M","","","22","","17","","","","101.10","","","","","","NA"
"-52.94","48.17","GRATES COVE","840B053","2021-07-26 02:30","2021","07","26","02:30","12.3","","","M","","M","","","18","","5","","","","101.11","","","","","","NA"
"-52.94","48.17","GRATES COVE","840B053","2021-07-26 03:30","2021","07","26","03:30","12.4","","","M","","M","","","23","","10","","","","101.12","","","","","","NA"
"-52.94","48.17","GRATES COVE","840B053","2021-07-26 04:30","2021","07","26","04:30","12.5","","","M","","M","","","22","","4","","","","101.15","","","","","","NA"
"-52.94","48.17","GRATES COVE","840B053","2021-07-26 05:30","2021","07","26","05:30","12.4","","","M","","M","","","","","0","","","","101.18","","","","","","NA"
"-52.94","48.17","GRATES COVE","840B053","2021-07-26 06:30","2021","07","26","06:30","12.6","","","M","","M","","","19","","10","","","","101.17","","","","","","NA"
"-52.94","48.17","GRATES COVE","840B053","2021-07-26 07:30","2021","07","26","07:30","12.6","","","M","","M","","","17","","12","","","","101.17","","","","","","NA"
"-52.94","48.17","GRATES COVE","840B053","2021-07-26 08:30","2021","07","26","08:30","13.1","","","M","","M","","","16","","12","","","","101.17","","","","","","NA"
"-52.94","48.17","GRATES COVE","840B053","2021-07-26 09:30","2021","07","26","09:30","14.1","","","M","","M","","","18","","14","","","","101.16","","","","","","NA"
"-52.94","48.17","GRATES COVE","840B053","2021-07-26 10:30","2021","07","26","10:30","14.5","","","M","","M","","","18","","17","","","","101.16","","","","","","NA"
"-52.94","48.17","GRATES COVE","840B053","2021-07-26 11:30","2021","07","26","11:30","15.1","","","M","","M","","","19","","16","","","","101.12","","","","","","NA"
"-52.94","48.17","GRATES COVE","840B053","2021-07-26 12:30","2021","07","26","12:30","15.6","","","M","","M","","","28","","14","","","","101.13","","","","","","NA"
"-52.94","48.17","GRATES COVE","840B053","2021-07-26 13:30","2021","07","26","13:30","15.3","","","M","","M","","","8","","7","","","","101.12","","","","","","NA"
"-52.94","48.17","GRATES COVE","840B053","2021-07-26 14:30","2021","07","26","14:30","15.7","","","M","","M","","","8","","6","","","","101.13","","","","","","NA"
"-52.94","48.17","GRATES COVE","840B053","2021-07-26 15:30","2021","07","26","15:30","17.5","","","M","","M","","","27","","18","","","","101.12","","","","","","NA"
"-52.94","48.17","GRATES COVE","840B053","2021-07-26 16:30","2021","07","26","16:30","17.1","","","M","","M","","","26","","18","","","","101.11","","","","","","NA"
"-52.94","48.17","GRATES COVE","840B053","2021-07-26 17:30","2021","07","26","17:30","16.9","","","M","","M","","","25","","14","","","","101.10","","","","","","NA"
"-52.94","48.17","GRATES COVE","840B053","2021-07-26 18:30","2021","07","26","18:30","16.7","","","M","","M","","","26","","21","","","","101.09","","","","","","NA"
"-52.94","48.17","GRATES COVE","840B053","2021-07-26 19:30","2021","07","26","19:30","15.2","","","M","","M","","","25","","25","","","","101.11","","","","","","NA"
"-52.94","48.17","GRATES COVE","840B053","2021-07-26 20:30","2021","07","26","20:30","14.7","","","M","","M","","","26","","26","","","","101.15","","","","","","NA"
"-52.94","48.17","GRATES COVE","840B053","2021-07-26 21:30","2021","07","26","21:30","14.8","","","M","","M","","","25","","28","","","","101.17","","","","","","NA"
"-52.94","48.17","GRATES COVE","840B053","2021-07-26 22:30","2021","07","26","22:30","13.1","","","M","","M","","","22","","9","","","","101.19","","","","","","NA"
"-52.94","48.17","GRATES COVE","840B053","2021-07-26 23:30","2021","07","26","23:30","13.6","","","M","","M","","","24","","13","","","","101.17","","","","","","NA"
"-52.94","48.17","GRATES COVE","840B053","2021-07-27 00:30","2021","07","27","00:30","13.1","","","M","","M","","","23","","14","","","","101.16","","","","","","NA"
"-52.94","48.17","GRATES COVE","840B053","2021-07-27 01:30","2021","07","27","01:30","13.2","","","M","","M","","","23","","19","","","","101.12","","","","","","NA"
"-52.94","48.17","GRATES COVE","840B053","2021-07-27 02:30","2021","07","27","02:30","13.9","","","M","","M","","","22","","26","","","","101.07","","","","","","NA"
"-52.94","48.17","GRATES COVE","840B053","2021-07-27 03:30","2021","07","27","03:30","13.8","","","M","","M","","","22","","27","","","","101.09","","","","","","NA"
"-52.94","48.17","GRATES COVE","840B053","2021-07-27 04:30","2021","07","27","04:30","14.2","","","M","","M","","","21","","42","","","","101.00","","","","","","NA"
"-52.94","48.17","GRATES COVE","840B053","2021-07-27 05:30","2021","07","27","05:30","14.5","","","M","","M","","","20","","36","","","","101.05","","","","","","NA"
"-52.94","48.17","GRATES COVE","840B053","2021-07-27 06:30","2021","07","27","06:30","15.3","","","M","","M","","","20","","31","","","","101.02","","","","","","NA"
"-52.94","48.17","GRATES COVE","840B053","2021-07-27 07:30","2021","07","27","07:30","15.3","","","M","","M","","","19","","37","","","","100.91","","","","","","NA"
"-52.94","48.17","GRATES COVE","840B053","2021-07-27 08:30","2021","07","27","08:30","15.9","","","M","","M","","","20","","39","","","","100.90","","","","","","NA"
"-52.94","48.17","GRATES COVE","840B053","2021-07-27 09:30","2021","07","27","09:30","17.5","","","M","","M","","","20","","44","","","","100.86","","","","","","NA"
"-52.94","48.17","GRATES COVE","840B053","2021-07-27 10:30","2021","07","27","10:30","17.4","","","M","","M","","","21","","33","","","","100.88","","","","","","NA"
"-52.94","48.17","GRATES COVE","840B053","2021-07-27 11:30","2021","07","27","11:30","17.7","","","M","","M","","","20","","28","","","","100.88","","","","","","NA"
"-52.94","48.17","GRATES COVE","840B053","2021-07-27 12:30","2021","07","27","12:30","20.6","","","M","","M","","","21","","24","","","","100.81","","","","","","NA"
"-52.94","48.17","GRATES COVE","840B053","2021-07-27 13:30","2021","07","27","13:30","21.1","","","M","","M","","","22","","30","","","","100.78","","","","","","NA"
"-52.94","48.17","GRATES COVE","840B053","2021-07-27 14:30","2021","07","27","14:30","21.0","","","M","","M","","","21","","32","","","","100.73","","","","","","NA"
"-52.94","48.17","GRATES COVE","840B053","2021-07-27 15:30","2021","07","27","15:30","20.0","","","M","","M","","","21","","31","","","","100.75","","","","","","NA"
"-52.94","48.17","GRATES COVE","840B053","2021-07-27 16:30","2021","07","27","16:30","18.6","","","M","","M","","","21","","33","","","","100.75","","","","","","NA"
"-52.94","48.17","GRATES COVE","840B053","2021-07-27 17:30","2021","07","27","17:30","19.5","","","M","","M","","","21","","17","","","","100.74","","","","","","NA"
"-52.94","48.17","GRATES COVE","840B053","2021-07-27 18:30","2021","07","27","18:30","18.2","","","M","","M","","","21","","30","","","","100.69","","","","","","NA"
"-52.94","48.17","GRATES COVE","840B053","2021-07-27 19:30","2021","07","27","19:30","19.0","","","M","","M","","","22","","41","","","","100.65","","","","","","NA"
"-52.94","48.17","GRATES COVE","840B053","2021-07-27 20:30","2021","07","27","20:30","18.3","","","M","","M","","","22","","29","","","","100.77","","","","","","NA"
"-52.94","48.17","GRATES COVE","840B053","2021-07-27 21:30","2021","07","27","21:30","18.4","","","M","","M","","","23","","26","","","","100.78","","","","","","NA"
"-52.94","48.17","GRATES COVE","840B053","2021-07-27 22:30","2021","07","27","22:30","18.6","","","M","","M","","","23","","35","","","","100.71","","","","","","NA"
"-52.94","48.17","GRATES COVE","840B053","2021-07-27 23:30","2021","07","27","23:30","17.7","","","M","","M","","","23","","32","","","","100.69","","","","","","NA"
"-52.94","48.17","GRATES COVE","840B053","2021-07-28 00:30","2021","07","28","00:30","18.7","","","M","","M","","","25","","30","","","","100.69","","","","","","NA"
"-52.94","48.17","GRATES COVE","840B053","2021-07-28 01:30","2021","07","28","01:30","18.5","","","M","","M","","","25","","24","","","","100.69","","","","","","NA"
"-52.94","48.17","GRATES COVE","840B053","2021-07-28 02:30","2021","07","28","02:30","18.6","","","M","","M","","","23","","21","","","","100.66","","","","","","NA"
"-52.94","48.17","GRATES COVE","840B053","2021-07-28 03:30","2021","07","28","03:30","17.5","","","M","","M","","","21","","7","","","","100.72","","","","","","NA"
"-52.94","48.17","GRATES COVE","840B053","2021-07-28 04:30","2021","07","28","04:30","18.6","","","M","","M","","","24","","23","","","","100.72","","","","","","NA"
"-52.94","48.17","GRATES COVE","840B053","2021-07-28 05:30","2021","07","28","05:30","18.6","","","M","","M","","","24","","21","","","","100.78","","","","","","NA"
"-52.94","48.17","GRATES COVE","840B053","2021-07-28 06:30","2021","07","28","06:30","19.2","","","M","","M","","","25","","24","","","","100.77","","","","","","NA"
"-52.94","48.17","GRATES COVE","840B053","2021-07-28 07:30","2021","07","28","07:30","20.2","","","M","","M","","","25","","17","","","","100.80","","","","","","NA"
"-52.94","48.17","GRATES COVE","840B053","2021-07-28 08:30","2021","07","28","08:30","17.8","","","M","","M","","","31","","6","","","","100.81","","","","","","NA"
"-52.94","48.17","GRATES COVE","840B053","2021-07-28 09:30","2021","07","28","09:30","20.9","","","M","","M","","","21","","21","","","","100.78","","","","","","NA"
"-52.94","48.17","GRATES COVE","840B053","2021-07-28 10:30","2021","07","28","10:30","20.9","","","M","","M","","","21","","30","","","","100.74","","","","","","NA"
"-52.94","48.17","GRATES COVE","840B053","2021-07-28 11:30","2021","07","28","11:30","20.1","","","M","","M","","","28","","11","","","","100.78","","","","","","NA"
"-52.94","48.17","GRATES COVE","840B053","2021-07-28 12:30","2021","07","28","12:30","22.0","","","M","","M","","","26","","16","","","","100.72","","","","","","NA"
"-52.94","48.17","GRATES COVE","840B053","2021-07-28 13:30","2021","07","28","13:30","21.4","","","M","","M","","","27","","17","","","","100.71","","","","","","NA"
"-52.94","48.17","GRATES COVE","840B053","2021-07-28 14:30","2021","07","28","14:30","21.1","","","M","","M","","","15","","5","","","","100.69","","","","","","NA"
"-52.94","48.17","GRATES COVE","840B053","2021-07-28 15:30","2021","07","28","15:30","21.5","","","M","","M","","","22","","22","","","","100.64","","","","","","NA"
"-52.94","48.17","GRATES COVE","840B053","2021-07-28 16:30","2021","07","28","16:30","20.9","","","M","","M","","","28","","10","","","","100.66","","","","","","NA"
"-52.94","48.17","GRATES COVE","840B053","2021-07-28 17:30","2021","07","28","17:30","21.1","","","M","","M","","","29","","5","","","","100.58","","","","","","NA"
"-52.94","48.17","GRATES COVE","840B053","2021-07-28 18:30","2021","07","28","18:30","21.0","","","M","","M","","","19","","15","","","","100.51","","","","","","NA"
"-52.94","48.17","GRATES COVE","840B053","2021-07-28 19:30","2021","07","28","19:30","20.2","","","M","","M","","","23","","22","","","","100.53","","","","","","NA"
"-52.94","48.17","GRATES COVE","840B053","2021-07-28 20:30","2021","07","28","20:30","18.7","","","M","","M","","","22","","15","","","","100.56","","","","","","NA"
"-52.94","48.17","GRATES COVE","840B053","2021-07-28 21:30","2021","07","28","21:30","19.2","","","M","","M","","","22","","15","","","","100.58","","","","","","NA"
"-52.94","48.17","GRATES COVE","840B053","2021-07-28 22:30","2021","07","28","22:30","18.8","","","M","","M","","","22","","19","","","","100.54","","","","","","NA"
"-52.94","48.17","GRATES COVE","840B053","2021-07-28 23:30","2021","07","28","23:30","18.3","","","M","","M","","","23","","15","","","","100.49","","","","","","NA"
"-52.94","48.17","GRATES COVE","840B053","2021-07-29 00:30","2021","07","29","00:30","17.5","","","M","","M","","","21","","17","","","","100.45","","","","","","NA"
"-52.94","48.17","GRATES COVE","840B053","2021-07-29 01:30","2021","07","29","01:30","17.9","","","M","","M","","","23","","17","","","","100.44","","","","","","NA"
"-52.94","48.17","GRATES COVE","840B053","2021-07-29 02:30","2021","07","29","02:30","16.9","","","M","","M","","","27","","22","","","","100.42","","","","","","NA"
"-52.94","48.17","GRATES COVE","840B053","2021-07-29 03:30","2021","07","29","03:30","16.7","","","M","","M","","","26","","22","","","","100.37","","","","","","NA"
"-52.94","48.17","GRATES COVE","840B053","2021-07-29 04:30","2021","07","29","04:30","16.8","","","M","","M","","","25","","20","","","","100.38","","","","","","NA"
"-52.94","48.17","GRATES COVE","840B053","2021-07-29 05:30","2021","07","29","05:30","15.9","","","M","","M","","","27","","22","","","","100.38","","","","","","NA"
"-52.94","48.17","GRATES COVE","840B053","2021-07-29 06:30","2021","07","29","06:30","16.4","","","M","","M","","","25","","18","","","","100.36","","","","","","NA"
"-52.94","48.17","GRATES COVE","840B053","2021-07-29 07:30","2021","07","29","07:30","16.4","","","M","","M","","","24","","19","","","","100.33","","","","","","NA"
"-52.94","48.17","GRATES COVE","840B053","2021-07-29 08:30","2021","07","29","08:30","16.5","","","M","","M","","","32","","8","","","","100.38","","","","","","NA"
"-52.94","48.17","GRATES COVE","840B053","2021-07-29 09:30","2021","07","29","09:30","16.4","","","M","","M","","","26","","11","","","","100.40","","","","","","NA"
"-52.94","48.17","GRATES COVE","840B053","2021-07-29 10:30","2021","07","29","10:30","16.9","","","M","","M","","","26","","16","","","","100.36","","","","","","NA"
"-52.94","48.17","GRATES COVE","840B053","2021-07-29 11:30","2021","07","29","11:30","15.6","","","M","","M","","","27","","21","","","","100.31","","","","","","NA"
"-52.94","48.17","GRATES COVE","840B053","2021-07-29 12:30","2021","07","29","12:30","17.1","","","M","","M","","","26","","27","","","","100.27","","","","","","NA"
"-52.94","48.17","GRATES COVE","840B053","2021-07-29 13:30","2021","07","29","13:30","18.5","","","M","","M","","","27","","22","","","","100.25","","","","","","NA"
"-52.94","48.17","GRATES COVE","840B053","2021-07-29 14:30","2021","07","29","14:30","20.6","","","M","","M","","","26","","19","","","","100.25","","","","","","NA"
"-52.94","48.17","GRATES COVE","840B053","2021-07-29 15:30","2021","07","29","15:30","21.3","","","M","","M","","","26","","28","","","","100.20","","","","","","NA"
"-52.94","48.17","GRATES COVE","840B053","2021-07-29 16:30","2021","07","29","16:30","21.0","","","M","","M","","","26","","33","","","","100.18","","","","","","NA"
"-52.94","48.17","GRATES COVE","840B053","2021-07-29 17:30","2021","07","29","17:30","20.2","","","M","","M","","","25","","38","","","","100.17","","","","","","NA"
"-52.94","48.17","GRATES COVE","840B053","2021-07-29 18:30","2021","07","29","18:30","18.6","","","M","","M","","","25","","42","","","","100.21","","","","","","NA"
"-52.94","48.17","GRATES COVE","840B053","2021-07-29 19:30","2021","07","29","19:30","17.2","","","M","","M","","","25","","43","","","","100.26","","","","","","NA"
"-52.94","48.17","GRATES COVE","840B053","2021-07-29 20:30","2021","07","29","20:30","16.5","","","M","","M","","","25","","45","","","","100.35","","","","","","NA"
"-52.94","48.17","GRATES COVE","840B053","2021-07-29 21:30","2021","07","29","21:30","15.8","","","M","","M","","","24","","38","","","","100.43","","","","","","NA"
"-52.94","48.17","GRATES COVE","840B053","2021-07-29 22:30","2021","07","29","22:30","15.2","","","M","","M","","","25","","35","","","","100.52","","","","","","NA"
"-52.94","48.17","GRATES COVE","840B053","2021-07-29 23:30","2021","07","29","23:30","14.7","","","M","","M","","","26","","30","","","","100.61","","","","","","NA"
"-52.94","48.17","GRATES COVE","840B053","2021-07-30 00:30","2021","07","30","00:30","14.2","","","M","","M","","","24","","26","","","","100.62","","","","","","NA"
"-52.94","48.17","GRATES COVE","840B053","2021-07-30 01:30","2021","07","30","01:30","14.5","","","M","","M","","","26","","31","","","","100.67","","","","","","NA"
"-52.94","48.17","GRATES COVE","840B053","2021-07-30 02:30","2021","07","30","02:30","14.1","","","M","","M","","","25","","28","","","","100.71","","","","","","NA"
"-52.94","48.17","GRATES COVE","840B053","2021-07-30 03:30","2021","07","30","03:30","13.9","","","M","","M","","","25","","27","","","","100.74","","","","","","NA"
"-52.94","48.17","GRATES COVE","840B053","2021-07-30 04:30","2021","07","30","04:30","13.4","","","M","","M","","","24","","25","","","","100.81","","","","","","NA"
"-52.94","48.17","GRATES COVE","840B053","2021-07-30 05:30","2021","07","30","05:30","14.4","","","M","","M","","","25","","24","","","","100.85","","","","","","NA"
"-52.94","48.17","GRATES COVE","840B053","2021-07-30 06:30","2021","07","30","06:30","15.1","","","M","","M","","","25","","25","","","","100.86","","","","","","NA"
"-52.94","48.17","GRATES COVE","840B053","2021-07-30 07:30","2021","07","30","07:30","15.8","","","M","","M","","","25","","25","","","","100.88","","","","","","NA"
"-52.94","48.17","GRATES COVE","840B053","2021-07-30 08:30","2021","07","30","08:30","18.2","","","M","","M","","","25","","25","","","","100.93","","","","","","NA"
"-52.94","48.17","GRATES COVE","840B053","2021-07-30 09:30","2021","07","30","09:30","18.5","","","M","","M","","","25","","22","","","","100.94","","","","","","NA"
"-52.94","48.17","GRATES COVE","840B053","2021-07-30 10:30","2021","07","30","10:30","20.0","","","M","","M","","","26","","19","","","","100.95","","","","","","NA"
"-52.94","48.17","GRATES COVE","840B053","2021-07-30 11:30","2021","07","30","11:30","19.7","","","M","","M","","","26","","21","","","","100.98","","","","","","NA"
"-52.94","48.17","GRATES COVE","840B053","2021-07-30 12:30","2021","07","30","12:30","19.9","","","M","","M","","","24","","18","","","","100.96","","","","","","NA"
"-52.94","48.17","GRATES COVE","840B053","2021-07-30 13:30","2021","07","30","13:30","19.1","","","M","","M","","","25","","15","","","","100.97","","","","","","NA"
"-52.94","48.17","GRATES COVE","840B053","2021-07-30 14:30","2021","07","30","14:30","19.2","","","M","","M","","","26","","23","","","","100.92","","","","","","NA"
"-52.94","48.17","GRATES COVE","840B053","2021-07-30 15:30","2021","07","30","15:30","19.6","","","M","","M","","","26","","15","","","","100.90","","","","","","NA"
"-52.94","48.17","GRATES COVE","840B053","2021-07-30 16:30","2021","07","30","16:30","18.6","","","M","","M","","","26","","28","","","","100.86","","","","","","NA"
"-52.94","48.17","GRATES COVE","840B053","2021-07-30 17:30","2021","07","30","17:30","18.7","","","M","","M","","","26","","16","","","","100.84","","","","","","NA"
"-52.94","48.17","GRATES COVE","840B053","2021-07-30 18:30","2021","07","30","18:30","18.5","","","M","","M","","","20","","19","","","","100.80","","","","","","NA"
"-52.94","48.17","GRATES COVE","840B053","2021-07-30 19:30","2021","07","30","19:30","16.5","","","M","","M","","","19","","26","","","","100.71","","","","","","NA"
"-52.94","48.17","GRATES COVE","840B053","2021-07-30 20:30","2021","07","30","20:30","14.9","","","M","","M","","","17","","39","","","","100.55","","","","","","NA"
"-52.94","48.17","GRATES COVE","840B053","2021-07-30 21:30","2021","07","30","21:30","13.8","","","M","","M","","","18","","44","","","","100.43","","","","","","NA"
"-52.94","48.17","GRATES COVE","840B053","2021-07-30 22:30","2021","07","30","22:30","14.0","","","M","","M","","","17","","49","","","","100.36","","","","","","NA"
"-52.94","48.17","GRATES COVE","840B053","2021-07-30 23:30","2021","07","30","23:30","14.3","","","M","","M","","","17","","48","","","","100.37","","","","","","NA"
"-52.94","48.17","GRATES COVE","840B053","2021-07-31 00:30","2021","07","31","00:30","15.6","","","M","","M","","","18","","46","","","","100.49","","","","","","NA"
"-52.94","48.17","GRATES COVE","840B053","2021-07-31 01:30","2021","07","31","01:30","16.6","","","M","","M","","","19","","48","","","","100.51","","","","","","NA"
"-52.94","48.17","GRATES COVE","840B053","2021-07-31 02:30","2021","07","31","02:30","16.6","","","M","","M","","","18","","43","","","","100.42","","","","","","NA"
"-52.94","48.17","GRATES COVE","840B053","2021-07-31 03:30","2021","07","31","03:30","16.8","","","M","","M","","","20","","37","","","","100.24","","","","","","NA"
"-52.94","48.17","GRATES COVE","840B053","2021-07-31 04:30","2021","07","31","04:30","17.2","","","M","","M","","","20","","31","","","","100.27","","","","","","NA"
"-52.94","48.17","GRATES COVE","840B053","2021-07-31 05:30","2021","07","31","05:30","17.1","","","M","","M","","","19","","33","","","","100.05","","","","","","NA"
"-52.94","48.17","GRATES COVE","840B053","2021-07-31 06:30","2021","07","31","06:30","17.0","","","M","","M","","","20","","35","","","","99.89","","","","","","NA"
"-52.94","48.17","GRATES COVE","840B053","2021-07-31 07:30","2021","07","31","07:30","17.6","","","M","","M","","","20","","36","","","","99.82","","","","","","NA"
"-52.94","48.17","GRATES COVE","840B053","2021-07-31 08:30","2021","07","31","08:30","17.8","","","M","","M","","","20","","42","","","","99.78","","","","","","NA"
"-52.94","48.17","GRATES COVE","840B053","2021-07-31 09:30","2021","07","31","09:30","18.6","","","M","","M","","","20","","35","","","","100.02","","","","","","NA"
"-52.94","48.17","GRATES COVE","840B053","2021-07-31 10:30","2021","07","31","10:30","19.6","","","M","","M","","","20","","41","","","","99.96","","","","","","NA"
"-52.94","48.17","GRATES COVE","840B053","2021-07-31 11:30","2021","07","31","11:30","20.2","","","M","","M","","","25","","32","","","","99.79","","","","","","NA"
"-52.94","48.17","GRATES COVE","840B053","2021-07-31 12:30","2021","07","31","12:30","20.1","","","M","","M","","","25","","49","","","","99.51","","","","","","NA"
"-52.94","48.17","GRATES COVE","840B053","2021-07-31 13:30","2021","07","31","13:30","20.0","","","M","","M","","","24","","40","","","","99.48","","","","","","NA"
"-52.94","48.17","GRATES COVE","840B053","2021-07-31 14:30","2021","07","31","14:30","19.6","","","M","","M","","","25","","42","","","","99.51","","","","","","NA"
"-52.94","48.17","GRATES COVE","840B053","2021-07-31 15:30","2021","07","31","15:30","19.4","","","M","","M","","","25","","48","","","","99.52","","","","","","NA"
"-52.94","48.17","GRATES COVE","840B053","2021-07-31 16:30","2021","07","31","16:30","19.5","","","M","","M","","","25","","48","","","","99.58","","","","","","NA"
"-52.94","48.17","GRATES COVE","840B053","2021-07-31 17:30","2021","07","31","17:30","18.7","","","M","","M","","","26","","43","","","","99.68","","","","","","NA"
"-52.94","48.17","GRATES COVE","840B053","2021-07-31 18:30","2021","07","31","18:30","17.8","","","M","","M","","","25","","45","","","","99.73","","","","","","NA"
"-52.94","48.17","GRATES COVE","840B053","2021-07-31 19:30","2021","07","31","19:30","16.5","","","M","","M","","","25","","37","","","","99.81","","","","","","NA"
"-52.94","48.17","GRATES COVE","840B053","2021-07-31 20:30","2021","07","31","20:30","16.0","","","M","","M","","","25","","39","","","","99.91","","","","","","NA"
"-52.94","48.17","GRATES COVE","840B053","2021-07-31 21:30","2021","07","31","21:30","15.9","","","M","","M","","","25","","44","","","","99.91","","","","","","NA"
"-52.94","48.17","GRATES COVE","840B053","2021-07-31 22:30","2021","07","31","22:30","15.8","","","M","","M","","","25","","46","","","","99.96","","","","","","NA"
"-52.94","48.17","GRATES COVE","840B053","2021-07-31 23:30","2021","07","31","23:30","15.6","","","M","","M","","","25","","42","","","","99.98","","","","","","NA"
