"Longitude (x)","Latitude (y)","Station Name","Climate ID","Date/Time (LST)","Year","Month","Day","Time (LST)","Temp (°C)","Temp Flag","Dew Point Temp (°C)","Dew Point Temp Flag","Rel Hum (%)","Rel Hum Flag","Precip. Amount (mm)","Precip. Amount Flag","Wind Dir (10s deg)","Wind Dir Flag","Wind Spd (km/h)","Wind Spd Flag","Visibility (km)","Visibility Flag","Stn Press (kPa)","Stn Press Flag","Hmdx","Hmdx Flag","Wind Chill","Wind Chill Flag","Weather"
"-52.94","48.17","GRATES COVE","840B053","2021-08-01 00:30","2021","08","01","00:30","15.3","","","M","","M","","","25","","45","","","","99.99","","","","","","NA"
"-52.94","48.17","GRATES COVE","840B053","2021-08-01 01:30","2021","08","01","01:30","15.2","","","M","","M","","","25","","48","","","","99.96","","","","","","NA"
"-52.94","48.17","GRATES COVE","840B053","2021-08-01 02:30","2021","08","01","02:30","15.0","","","M","","M","","","25","","40","","","","100.03","","","","","","NA"
"-52.94","48.17","GRATES COVE","840B053","2021-08-01 03:30","2021","08","01","03:30","15.1","","","M","","M","","","25","","41","","","","100.08","","","","","","NA"
"-52.94","48.17","GRATES COVE","840B053","2021-08-01 04:30","2021","08","01","04:30","15.1","","","M","","M","","","25","","36","","","","100.21","","","","","","NA"
"-52.94","48.17","GRATES COVE","840B053","2021-08-01 05:30","2021","08","01","05:30","15.4","","","M","","M","","","25","","40","","","","100.27","","","","","","NA"
"-52.94","48.17","GRATES COVE","840B053","2021-08-01 06:30","2021","08","01","06:30","16.0","","","M","","M","","","25","","37","","","","100.38","","","","","","NA"
"-52.94","48.17","GRATES COVE","840B053","2021-08-01 07:30","2021","08","01","07:30","17.0","","","M","","M","","","25","","40","","","","100.42","","","","","","NA"
"-52.94","48.17","GRATES COVE","840B053","2021-08-01 08:30","2021","08","01","08:30","17.4","","","M","","M","","","25","","40","","","","100.49","","","","","","NA"
"-52.94","48.17","GRATES COVE","840B053","2021-08-01 09:30","2021","08","01","09:30","18.1","","","M","","M","","","25","","36","","","","100.53","","","","","","NA"
"-52.94","48.17","GRATES COVE","840B053","2021-08-01 10:30","2021","08","01","10:30","19.2","","","M","","M","","","25","","33","","","","100.58","","","","","","NA"
"-52.94","48.17","GRATES COVE","840B053","2021-08-01 11:30","2021","08","01","11:30","20.0","","","M","","M","","","26","","39","","","","100.56","","","","","","NA"
"-52.94","48.17","GRATES COVE","840B053","2021-08-01 12:30","2021","08","01","12:30","20.3","","","M","","M","","","25","","42","","","","100.57","","","","","","NA"
"-52.94","48.17","GRATES COVE","840B053","2021-08-01 13:30","2021","08","01","13:30","20.8","","","M","","M","","","26","","41","","","","100.58","","","","","","NA"
"-52.94","48.17","GRATES COVE","840B053","2021-08-01 14:30","2021","08","01","14:30","20.9","","","M","","M","","","26","","40","","","","100.58","","","","","","NA"
"-52.94","48.17","GRATES COVE","840B053","2021-08-01 15:30","2021","08","01","15:30","20.0","","","M","","M","","","25","","39","","","","100.60","","","","","","NA"
"-52.94","48.17","GRATES COVE","840B053","2021-08-01 16:30","2021","08","01","16:30","19.9","","","M","","M","","","26","","39","","","","100.62","","","","","","NA"
"-52.94","48.17","GRATES COVE","840B053","2021-08-01 17:30","2021","08","01","17:30","19.4","","","M","","M","","","25","","32","","","","100.65","","","","","","NA"
"-52.94","48.17","GRATES COVE","840B053","2021-08-01 18:30","2021","08","01","18:30","18.5","","","M","","M","","","25","","26","","","","100.68","","","","","","NA"
"-52.94","48.17","GRATES COVE","840B053","2021-08-01 19:30","2021","08","01","19:30","17.4","","","M","","M","","","24","","23","","","","100.72","","","","","","NA"
"-52.94","48.17","GRATES COVE","840B053","2021-08-01 20:30","2021","08","01","20:30","16.6","","","M","","M","","","24","","29","","","","100.76","","","","","","NA"
"-52.94","48.17","GRATES COVE","840B053","2021-08-01 21:30","2021","08","01","21:30","15.8","","","M","","M","","","24","","34","","","","100.79","","","","","","NA"
"-52.94","48.17","GRATES COVE","840B053","2021-08-01 22:30","2021","08","01","22:30","15.4","","","M","","M","","","25","","37","","","","100.85","","","","","","NA"
"-52.94","48.17","GRATES COVE","840B053","2021-08-01 23:30","2021","08","01","23:30","14.9","","","M","","M","","","24","","34","","","","100.87","","","","","","NA"
"-52.94","48.17","GRATES COVE","840B053","2021-08-02 00:30","2021","08","02","00:30","14.6","","","M","","M","","","24","","38","","","","100.82","","","","","","NA"
"-52.94","48.17","GRATES COVE","840B053","2021-08-02 01:30","2021","08","02","01:30","14.3","","","M","","M","","","25","","30","","","","100.85","","","","","","NA"
"-52.94","48.17","GRATES COVE","840B053","2021-08-02 02:30","2021","08","02","02:30","14.2","","","M","","M","","","24","","31","","","","100.84","","","","","","NA"
"-52.94","48.17","GRATES COVE","840B053","2021-08-02 03:30","2021","08","02","03:30","14.0","","","M","","M","","","25","","26","","","","100.87","","","","","","NA"
"-52.94","48.17","GRATES COVE","840B053","2021-08-02 04:30","2021","08","02","04:30","13.9","","","M","","M","","","25","","30","","","","100.88","","","","","","NA"
"-52.94","48.17","GRATES COVE","840B053","2021-08-02 05:30","2021","08","02","05:30","14.4","","","M","","M","","","25","","31","","","","100.92","","","","","","NA"
"-52.94","48.17","GRATES COVE","840B053","2021-08-02 06:30","2021","08","02","06:30","15.2","","","M","","M","","","24","","28","","","","100.95","","","","","","NA"
"-52.94","48.17","GRATES COVE","840B053","2021-08-02 07:30","2021","08","02","07:30","16.6","","","M","","M","","","25","","22","","","","101.00","","","","","","NA"
"-52.94","48.17","GRATES COVE","840B053","2021-08-02 08:30","2021","08","02","08:30","16.4","","","M","","M","","","28","","22","","","","100.99","","","","","","NA"
"-52.94","48.17","GRATES COVE","840B053","2021-08-02 09:30","2021","08","02","09:30","17.8","","","M","","M","","","27","","25","","","","100.98","","","","","","NA"
"-52.94","48.17","GRATES COVE","840B053","2021-08-02 10:30","2021","08","02","10:30","19.3","","","M","","M","","","27","","20","","","","100.98","","","","","","NA"
"-52.94","48.17","GRATES COVE","840B053","2021-08-02 11:30","2021","08","02","11:30","20.8","","","M","","M","","","27","","20","","","","100.95","","","","","","NA"
"-52.94","48.17","GRATES COVE","840B053","2021-08-02 12:30","2021","08","02","12:30","21.2","","","M","","M","","","27","","17","","","","100.95","","","","","","NA"
"-52.94","48.17","GRATES COVE","840B053","2021-08-02 13:30","2021","08","02","13:30","21.2","","","M","","M","","","27","","26","","","","100.89","","","","","","NA"
"-52.94","48.17","GRATES COVE","840B053","2021-08-02 14:30","2021","08","02","14:30","21.5","","","M","","M","","","24","","19","","","","100.86","","","","","","NA"
"-52.94","48.17","GRATES COVE","840B053","2021-08-02 15:30","2021","08","02","15:30","20.5","","","M","","M","","","20","","16","","","","100.80","","","","","","NA"
"-52.94","48.17","GRATES COVE","840B053","2021-08-02 16:30","2021","08","02","16:30","20.5","","","M","","M","","","27","","14","","","","100.82","","","","","","NA"
"-52.94","48.17","GRATES COVE","840B053","2021-08-02 17:30","2021","08","02","17:30","18.4","","","M","","M","","","5","","3","","","","100.78","","","","","","NA"
"-52.94","48.17","GRATES COVE","840B053","2021-08-02 18:30","2021","08","02","18:30","18.5","","","M","","M","","","26","","9","","","","100.73","","","","","","NA"
"-52.94","48.17","GRATES COVE","840B053","2021-08-02 19:30","2021","08","02","19:30","18.0","","","M","","M","","","27","","13","","","","100.68","","","","","","NA"
"-52.94","48.17","GRATES COVE","840B053","2021-08-02 20:30","2021","08","02","20:30","16.9","","","M","","M","","","23","","5","","","","100.63","","","","","","NA"
"-52.94","48.17","GRATES COVE","840B053","2021-08-02 21:30","2021","08","02","21:30","16.4","","","M","","M","","","17","","7","","","","100.46","","","","","","NA"
"-52.94","48.17","GRATES COVE","840B053","2021-08-02 22:30","2021","08","02","22:30","15.9","","","M","","M","","","19","","22","","","","100.28","","","","","","NA"
"-52.94","48.17","GRATES COVE","840B053","2021-08-02 23:30","2021","08","02","23:30","15.1","","","M","","M","","","18","","25","","","","100.11","","","","","","NA"
"-52.94","48.17","GRATES COVE","840B053","2021-08-03 00:30","2021","08","03","00:30","14.4","","","M","","M","","","18","","33","","","","99.93","","","","","","NA"
"-52.94","48.17","GRATES COVE","840B053","2021-08-03 01:30","2021","08","03","01:30","13.7","","","M","","M","","","18","","47","","","","99.58","","","","","","NA"
"-52.94","48.17","GRATES COVE","840B053","2021-08-03 02:30","2021","08","03","02:30","13.6","","","M","","M","","","18","","60","","","","99.42","","","","","","NA"
"-52.94","48.17","GRATES COVE","840B053","2021-08-03 03:30","2021","08","03","03:30","13.7","","","M","","M","","","18","","45","","","","99.38","","","","","","NA"
"-52.94","48.17","GRATES COVE","840B053","2021-08-03 04:30","2021","08","03","04:30","14.6","","","M","","M","","","20","","42","","","","99.29","","","","","","NA"
"-52.94","48.17","GRATES COVE","840B053","2021-08-03 05:30","2021","08","03","05:30","16.1","","","M","","M","","","23","","30","","","","99.30","","","","","","NA"
"-52.94","48.17","GRATES COVE","840B053","2021-08-03 06:30","2021","08","03","06:30","14.9","","","M","","M","","","27","","41","","","","99.20","","","","","","NA"
"-52.94","48.17","GRATES COVE","840B053","2021-08-03 07:30","2021","08","03","07:30","13.9","","","M","","M","","","30","","34","","","","99.38","","","","","","NA"
"-52.94","48.17","GRATES COVE","840B053","2021-08-03 08:30","2021","08","03","08:30","14.8","","","M","","M","","","31","","33","","","","99.94","","","","","","NA"
"-52.94","48.17","GRATES COVE","840B053","2021-08-03 09:30","2021","08","03","09:30","15.4","","","M","","M","","","30","","41","","","","100.10","","","","","","NA"
"-52.94","48.17","GRATES COVE","840B053","2021-08-03 10:30","2021","08","03","10:30","15.8","","","M","","M","","","30","","28","","","","100.27","","","","","","NA"
"-52.94","48.17","GRATES COVE","840B053","2021-08-03 11:30","2021","08","03","11:30","17.0","","","M","","M","","","29","","22","","","","100.42","","","","","","NA"
"-52.94","48.17","GRATES COVE","840B053","2021-08-03 12:30","2021","08","03","12:30","17.7","","","M","","M","","","29","","24","","","","100.50","","","","","","NA"
"-52.94","48.17","GRATES COVE","840B053","2021-08-03 13:30","2021","08","03","13:30","19.4","","","M","","M","","","28","","24","","","","100.59","","","","","","NA"
"-52.94","48.17","GRATES COVE","840B053","2021-08-03 14:30","2021","08","03","14:30","20.0","","","M","","M","","","27","","26","","","","100.70","","","","","","NA"
"-52.94","48.17","GRATES COVE","840B053","2021-08-03 15:30","2021","08","03","15:30","20.9","","","M","","M","","","26","","26","","","","100.72","","","","","","NA"
"-52.94","48.17","GRATES COVE","840B053","2021-08-03 16:30","2021","08","03","16:30","20.6","","","M","","M","","","26","","32","","","","100.73","","","","","","NA"
"-52.94","48.17","GRATES COVE","840B053","2021-08-03 17:30","2021","08","03","17:30","21.0","","","M","","M","","","25","","35","","","","100.80","","","","","","NA"
"-52.94","48.17","GRATES COVE","840B053","2021-08-03 18:30","2021","08","03","18:30","19.4","","","M","","M","","","24","","38","","","","100.85","","","","","","NA"
"-52.94","48.17","GRATES COVE","840B053","2021-08-03 19:30","2021","08","03","19:30","18.5","","","M","","M","","","25","","36","","","","100.94","","","","","","NA"
"-52.94","48.17","GRATES COVE","840B053","2021-08-03 20:30","2021","08","03","20:30","17.5","","","M","","M","","","24","","30","","","","100.99","","","","","","NA"
"-52.94","48.17","GRATES COVE","840B053","2021-08-03 21:30","2021","08","03","21:30","16.2","","","M","","M","","","24","","31","","","","101.07","","","","","","NA"
"-52.94","48.17","GRATES COVE","840B053","2021-08-03 22:30","2021","08","03","22:30","16.1","","","M","","M","","","25","","41","","","","101.03","","","","","","NA"
"-52.94","48.17","GRATES COVE","840B053","2021-08-03 23:30","2021","08","03","23:30","15.7","","","M","","M","","","25","","41","","","","101.11","","","","","","NA"
"-52.94","48.17","GRATES COVE","840B053","2021-08-04 00:30","2021","08","04","00:30","15.2","","","M","","M","","","25","","35","","","","101.10","","","","","","NA"
"-52.94","48.17","GRATES COVE","840B053","2021-08-04 01:30","2021","08","04","01:30","15.4","","","M","","M","","","24","","35","","","","101.06","","","","","","NA"
"-52.94","48.17","GRATES COVE","840B053","2021-08-04 02:30","2021","08","04","02:30","14.9","","","M","","M","","","25","","36","","","","101.05","","","","","","NA"
"-52.94","48.17","GRATES COVE","840B053","2021-08-04 03:30","2021","08","04","03:30","14.6","","","M","","M","","","25","","39","","","","101.01","","","","","","NA"
"-52.94","48.17","GRATES COVE","840B053","2021-08-04 04:30","2021","08","04","04:30","14.5","","","M","","M","","","25","","35","","","","101.04","","","","","","NA"
"-52.94","48.17","GRATES COVE","840B053","2021-08-04 05:30","2021","08","04","05:30","14.9","","","M","","M","","","24","","35","","","","101.05","","","","","","NA"
"-52.94","48.17","GRATES COVE","840B053","2021-08-04 06:30","2021","08","04","06:30","15.4","","","M","","M","","","25","","30","","","","101.07","","","","","","NA"
"-52.94","48.17","GRATES COVE","840B053","2021-08-04 07:30","2021","08","04","07:30","16.4","","","M","","M","","","25","","37","","","","100.98","","","","","","NA"
"-52.94","48.17","GRATES COVE","840B053","2021-08-04 08:30","2021","08","04","08:30","18.0","","","M","","M","","","24","","42","","","","101.00","","","","","","NA"
"-52.94","48.17","GRATES COVE","840B053","2021-08-04 09:30","2021","08","04","09:30","19.7","","","M","","M","","","25","","43","","","","100.99","","","","","","NA"
"-52.94","48.17","GRATES COVE","840B053","2021-08-04 10:30","2021","08","04","10:30","20.3","","","M","","M","","","25","","41","","","","100.99","","","","","","NA"
"-52.94","48.17","GRATES COVE","840B053","2021-08-04 11:30","2021","08","04","11:30","20.1","","","M","","M","","","26","","41","","","","101.05","","","","","","NA"
"-52.94","48.17","GRATES COVE","840B053","2021-08-04 12:30","2021","08","04","12:30","19.9","","","M","","M","","","25","","44","","","","101.06","","","","","","NA"
"-52.94","48.17","GRATES COVE","840B053","2021-08-04 13:30","2021","08","04","13:30","20.0","","","M","","M","","","25","","46","","","","101.07","","","","","","NA"
"-52.94","48.17","GRATES COVE","840B053","2021-08-04 14:30","2021","08","04","14:30","20.6","","","M","","M","","","25","","47","","","","101.07","","","","","","NA"
"-52.94","48.17","GRATES COVE","840B053","2021-08-04 15:30","2021","08","04","15:30","20.9","","","M","","M","","","26","","44","","","","101.14","","","","","","NA"
"-52.94","48.17","GRATES COVE","840B053","2021-08-04 16:30","2021","08","04","16:30","21.3","","","M","","M","","","25","","42","","","","101.19","","","","","","NA"
"-52.94","48.17","GRATES COVE","840B053","2021-08-04 17:30","2021","08","04","17:30","20.9","","","M","","M","","","25","","38","","","","101.25","","","","","","NA"
"-52.94","48.17","GRATES COVE","840B053","2021-08-04 18:30","2021","08","04","18:30","20.6","","","M","","M","","","25","","39","","","","101.30","","","","","","NA"
"-52.94","48.17","GRATES COVE","840B053","2021-08-04 19:30","2021","08","04","19:30","19.5","","","M","","M","","","25","","39","","","","101.35","","","","","","NA"
"-52.94","48.17","GRATES COVE","840B053","2021-08-04 20:30","2021","08","04","20:30","18.6","","","M","","M","","","25","","33","","","","101.47","","","","","","NA"
"-52.94","48.17","GRATES COVE","840B053","2021-08-04 21:30","2021","08","04","21:30","17.5","","","M","","M","","","25","","31","","","","101.55","","","","","","NA"
"-52.94","48.17","GRATES COVE","840B053","2021-08-04 22:30","2021","08","04","22:30","16.4","","","M","","M","","","24","","28","","","","101.60","","","","","","NA"
"-52.94","48.17","GRATES COVE","840B053","2021-08-04 23:30","2021","08","04","23:30","16.1","","","M","","M","","","25","","28","","","","101.65","","","","","","NA"
"-52.94","48.17","GRATES COVE","840B053","2021-08-05 00:30","2021","08","05","00:30","15.9","","","M","","M","","","25","","27","","","","101.68","","","","","","NA"
"-52.94","48.17","GRATES COVE","840B053","2021-08-05 01:30","2021","08","05","01:30","15.8","","","M","","M","","","26","","27","","","","101.71","","","","","","NA"
"-52.94","48.17","GRATES COVE","840B053","2021-08-05 02:30","2021","08","05","02:30","15.7","","","M","","M","","","26","","27","","","","101.75","","","","","","NA"
"-52.94","48.17","GRATES COVE","840B053","2021-08-05 03:30","2021","08","05","03:30","15.4","","","M","","M","","","26","","25","","","","101.79","","","","","","NA"
"-52.94","48.17","GRATES COVE","840B053","2021-08-05 04:30","2021","08","05","04:30","15.1","","","M","","M","","","26","","26","","","","101.87","","","","","","NA"
"-52.94","48.17","GRATES COVE","840B053","2021-08-05 05:30","2021","08","05","05:30","15.1","","","M","","M","","","26","","23","","","","101.91","","","","","","NA"
"-52.94","48.17","GRATES COVE","840B053","2021-08-05 06:30","2021","08","05","06:30","15.5","","","M","","M","","","26","","21","","","","101.96","","","","","","NA"
"-52.94","48.17","GRATES COVE","840B053","2021-08-05 07:30","2021","08","05","07:30","16.6","","","M","","M","","","26","","22","","","","102.02","","","","","","NA"
"-52.94","48.17","GRATES COVE","840B053","2021-08-05 08:30","2021","08","05","08:30","17.2","","","M","","M","","","26","","19","","","","102.04","","","","","","NA"
"-52.94","48.17","GRATES COVE","840B053","2021-08-05 09:30","2021","08","05","09:30","17.8","","","M","","M","","","26","","17","","","","102.05","","","","","","NA"
"-52.94","48.17","GRATES COVE","840B053","2021-08-05 10:30","2021","08","05","10:30","19.1","","","M","","M","","","28","","16","","","","102.09","","","","","","NA"
"-52.94","48.17","GRATES COVE","840B053","2021-08-05 11:30","2021","08","05","11:30","20.6","","","M","","M","","","26","","22","","","","102.06","","","","","","NA"
"-52.94","48.17","GRATES COVE","840B053","2021-08-05 12:30","2021","08","05","12:30","21.1","","","M","","M","","","25","","21","","","","102.03","","","","","","NA"
"-52.94","48.17","GRATES COVE","840B053","2021-08-05 13:30","2021","08","05","13:30","23.2","","","M","","M","","","26","","21","","","","102.01","","","","","","NA"
"-52.94","48.17","GRATES COVE","840B053","2021-08-05 14:30","2021","08","05","14:30","23.7","","","M","","M","","","26","","22","","","","102.00","","","","","","NA"
"-52.94","48.17","GRATES COVE","840B053","2021-08-05 15:30","2021","08","05","15:30","24.0","","","M","","M","","","25","","23","","","","101.96","","","","","","NA"
"-52.94","48.17","GRATES COVE","840B053","2021-08-05 16:30","2021","08","05","16:30","23.5","","","M","","M","","","25","","31","","","","101.93","","","","","","NA"
"-52.94","48.17","GRATES COVE","840B053","2021-08-05 17:30","2021","08","05","17:30","23.3","","","M","","M","","","25","","31","","","","101.92","","","","","","NA"
"-52.94","48.17","GRATES COVE","840B053","2021-08-05 18:30","2021","08","05","18:30","22.1","","","M","","M","","","25","","39","","","","101.92","","","","","","NA"
"-52.94","48.17","GRATES COVE","840B053","2021-08-05 19:30","2021","08","05","19:30","21.0","","","M","","M","","","24","","34","","","","101.96","","","","","","NA"
"-52.94","48.17","GRATES COVE","840B053","2021-08-05 20:30","2021","08","05","20:30","20.4","","","M","","M","","","25","","33","","","","101.98","","","","","","NA"
"-52.94","48.17","GRATES COVE","840B053","2021-08-05 21:30","2021","08","05","21:30","19.8","","","M","","M","","","24","","31","","","","101.95","","","","","","NA"
"-52.94","48.17","GRATES COVE","840B053","2021-08-05 22:30","2021","08","05","22:30","19.5","","","M","","M","","","25","","36","","","","101.92","","","","","","NA"
"-52.94","48.17","GRATES COVE","840B053","2021-08-05 23:30","2021","08","05","23:30","19.1","","","M","","M","","","25","","30","","","","101.94","","","","","","NA"
"-52.94","48.17","GRATES COVE","840B053","2021-08-06 00:30","2021","08","06","00:30","18.8","","","M","","M","","","25","","31","","","","101.87","","","","","","NA"
"-52.94","48.17","GRATES COVE","840B053","2021-08-06 01:30","2021","08","06","01:30","18.7","","","M","","M","","","25","","32","","","","101.86","","","","","","NA"
"-52.94","48.17","GRATES COVE","840B053","2021-08-06 02:30","2021","08","06","02:30","18.9","","","M","","M","","","25","","34","","","","101.81","","","","","","NA"
"-52.94","48.17","GRATES COVE","840B053","2021-08-06 03:30","2021","08","06","03:30","18.8","","","M","","M","","","25","","36","","","","101.77","","","","","","NA"
"-52.94","48.17","GRATES COVE","840B053","2021-08-06 04:30","2021","08","06","04:30","18.7","","","M","","M","","","26","","28","","","","101.77","","","","","","NA"
"-52.94","48.17","GRATES COVE","840B053","2021-08-06 05:30","2021","08","06","05:30","18.3","","","M","","M","","","26","","24","","","","101.80","","","","","","NA"
"-52.94","48.17","GRATES COVE","840B053","2021-08-06 06:30","2021","08","06","06:30","19.7","","","M","","M","","","26","","31","","","","101.73","","","","","","NA"
"-52.94","48.17","GRATES COVE","840B053","2021-08-06 07:30","2021","08","06","07:30","20.7","","","M","","M","","","25","","42","","","","101.71","","","","","","NA"
"-52.94","48.17","GRATES COVE","840B053","2021-08-06 08:30","2021","08","06","08:30","22.1","","","M","","M","","","25","","44","","","","101.66","","","","","","NA"
"-52.94","48.17","GRATES COVE","840B053","2021-08-06 09:30","2021","08","06","09:30","22.2","","","M","","M","","","26","","42","","","","101.65","","","","","","NA"
"-52.94","48.17","GRATES COVE","840B053","2021-08-06 10:30","2021","08","06","10:30","23.2","","","M","","M","","","26","","47","","","","101.62","","","","","","NA"
"-52.94","48.17","GRATES COVE","840B053","2021-08-06 11:30","2021","08","06","11:30","23.7","","","M","","M","","","26","","47","","","","101.60","","","","","","NA"
"-52.94","48.17","GRATES COVE","840B053","2021-08-06 12:30","2021","08","06","12:30","24.2","","","M","","M","","","25","","53","","","","101.49","","","","","","NA"
"-52.94","48.17","GRATES COVE","840B053","2021-08-06 13:30","2021","08","06","13:30","24.7","","","M","","M","","","25","","53","","","","101.45","","","","","","NA"
"-52.94","48.17","GRATES COVE","840B053","2021-08-06 14:30","2021","08","06","14:30","24.8","","","M","","M","","","25","","51","","","","101.45","","","","","","NA"
"-52.94","48.17","GRATES COVE","840B053","2021-08-06 15:30","2021","08","06","15:30","24.9","","","M","","M","","","26","","48","","","","101.42","","","","","","NA"
"-52.94","48.17","GRATES COVE","840B053","2021-08-06 16:30","2021","08","06","16:30","25.0","","","M","","M","","","26","","42","","","","101.42","","","","","","NA"
"-52.94","48.17","GRATES COVE","840B053","2021-08-06 17:30","2021","08","06","17:30","23.7","","","M","","M","","","26","","38","","","","101.41","","","","","","NA"
"-52.94","48.17","GRATES COVE","840B053","2021-08-06 18:30","2021","08","06","18:30","21.7","","","M","","M","","","25","","38","","","","101.37","","","","","","NA"
"-52.94","48.17","GRATES COVE","840B053","2021-08-06 19:30","2021","08","06","19:30","20.3","","","M","","M","","","25","","37","","","","101.40","","","","","","NA"
"-52.94","48.17","GRATES COVE","840B053","2021-08-06 20:30","2021","08","06","20:30","20.2","","","M","","M","","","25","","34","","","","101.39","","","","","","NA"
"-52.94","48.17","GRATES COVE","840B053","2021-08-06 21:30","2021","08","06","21:30","19.5","","","M","","M","","","25","","46","","","","101.32","","","","","","NA"
"-52.94","48.17","GRATES COVE","840B053","2021-08-06 22:30","2021","08","06","22:30","19.8","","","M","","M","","","25","","47","","","","101.27","","","","","","NA"
"-52.94","48.17","GRATES COVE","840B053","2021-08-06 23:30","2021","08","06","23:30","19.1","","","M","","M","","","25","","46","","","","101.25","","","","","","NA"
"-52.94","48.17","GRATES COVE","840B053","2021-08-07 00:30","2021","08","07","00:30","19.1","","","M","","M","","","25","","43","","","","101.24","","","","","","NA"
"-52.94","48.17","GRATES COVE","840B053","2021-08-07 01:30","2021","08","07","01:30","18.7","","","M","","M","","","25","","41","","","","101.22","","","","","","NA"
"-52.94","48.17","GRATES COVE","840B053","2021-08-07 02:30","2021","08","07","02:30","18.8","","","M","","M","","","24","","52","","","","101.15","","","","","","NA"
"-52.94","48.17","GRATES COVE","840B053","2021-08-07 03:30","2021","08","07","03:30","18.7","","","M","","M","","","24","","50","","","","101.11","","","","","","NA"
"-52.94","48.17","GRATES COVE","840B053","2021-08-07 04:30","2021","08","07","04:30","18.8","","","M","","M","","","24","","45","","","","101.11","","","","","","NA"
"-52.94","48.17","GRATES COVE","840B053","2021-08-07 05:30","2021","08","07","05:30","18.8","","","M","","M","","","25","","36","","","","101.14","","","","","","NA"
"-52.94","48.17","GRATES COVE","840B053","2021-08-07 06:30","2021","08","07","06:30","19.3","","","M","","M","","","24","","44","","","","101.10","","","","","","NA"
"-52.94","48.17","GRATES COVE","840B053","2021-08-07 07:30","2021","08","07","07:30","19.9","","","M","","M","","","24","","45","","","","101.07","","","","","","NA"
"-52.94","48.17","GRATES COVE","840B053","2021-08-07 08:30","2021","08","07","08:30","19.2","","","M","","M","","","26","","35","","","","101.11","","","","","","NA"
"-52.94","48.17","GRATES COVE","840B053","2021-08-07 09:30","2021","08","07","09:30","20.1","","","M","","M","","","26","","41","","","","101.07","","","","","","NA"
"-52.94","48.17","GRATES COVE","840B053","2021-08-07 10:30","2021","08","07","10:30","21.2","","","M","","M","","","26","","35","","","","101.06","","","","","","NA"
"-52.94","48.17","GRATES COVE","840B053","2021-08-07 11:30","2021","08","07","11:30","21.0","","","M","","M","","","26","","39","","","","101.01","","","","","","NA"
"-52.94","48.17","GRATES COVE","840B053","2021-08-07 12:30","2021","08","07","12:30","22.9","","","M","","M","","","25","","38","","","","100.91","","","","","","NA"
"-52.94","48.17","GRATES COVE","840B053","2021-08-07 13:30","2021","08","07","13:30","22.5","","","M","","M","","","26","","44","","","","100.91","","","","","","NA"
"-52.94","48.17","GRATES COVE","840B053","2021-08-07 14:30","2021","08","07","14:30","20.8","","","M","","M","","","25","","38","","","","100.92","","","","","","NA"
"-52.94","48.17","GRATES COVE","840B053","2021-08-07 15:30","2021","08","07","15:30","22.0","","","M","","M","","","26","","32","","","","100.97","","","","","","NA"
"-52.94","48.17","GRATES COVE","840B053","2021-08-07 16:30","2021","08","07","16:30","20.1","","","M","","M","","","26","","50","","","","100.93","","","","","","NA"
"-52.94","48.17","GRATES COVE","840B053","2021-08-07 17:30","2021","08","07","17:30","19.6","","","M","","M","","","25","","46","","","","100.91","","","","","","NA"
"-52.94","48.17","GRATES COVE","840B053","2021-08-07 18:30","2021","08","07","18:30","19.3","","","M","","M","","","25","","40","","","","100.92","","","","","","NA"
"-52.94","48.17","GRATES COVE","840B053","2021-08-07 19:30","2021","08","07","19:30","18.2","","","M","","M","","","24","","33","","","","100.98","","","","","","NA"
"-52.94","48.17","GRATES COVE","840B053","2021-08-07 20:30","2021","08","07","20:30","17.9","","","M","","M","","","25","","26","","","","101.06","","","","","","NA"
"-52.94","48.17","GRATES COVE","840B053","2021-08-07 21:30","2021","08","07","21:30","17.7","","","M","","M","","","25","","33","","","","101.02","","","","","","NA"
"-52.94","48.17","GRATES COVE","840B053","2021-08-07 22:30","2021","08","07","22:30","18.1","","","M","","M","","","24","","31","","","","100.99","","","","","","NA"
"-52.94","48.17","GRATES COVE","840B053","2021-08-07 23:30","2021","08","07","23:30","17.7","","","M","","M","","","23","","26","","","","100.98","","","","","","NA"
"-52.94","48.17","GRATES COVE","840B053","2021-08-08 00:30","2021","08","08","00:30","17.6","","","M","","M","","","24","","25","","","","100.96","","","","","","NA"
"-52.94","48.17","GRATES COVE","840B053","2021-08-08 01:30","2021","08","08","01:30","18.1","","","M","","M","","","25","","20","","","","100.91","","","","","","NA"
"-52.94","48.17","GRATES COVE","840B053","2021-08-08 02:30","2021","08","08","02:30","18.6","","","M","","M","","","24","","29","","","","100.87","","","","","","NA"
"-52.94","48.17","GRATES COVE","840B053","2021-08-08 03:30","2021","08","08","03:30","18.3","","","M","","M","","","25","","27","","","","100.80","","","","","","NA"
"-52.94","48.17","GRATES COVE","840B053","2021-08-08 04:30","2021","08","08","04:30","17.7","","","M","","M","","","25","","29","","","","100.76","","","","","","NA"
"-52.94","48.17","GRATES COVE","840B053","2021-08-08 05:30","2021","08","08","05:30","17.8","","","M","","M","","","25","","23","","","","100.77","","","","","","NA"
"-52.94","48.17","GRATES COVE","840B053","2021-08-08 06:30","2021","08","08","06:30","18.2","","","M","","M","","","25","","30","","","","100.73","","","","","","NA"
"-52.94","48.17","GRATES COVE","840B053","2021-08-08 07:30","2021","08","08","07:30","18.5","","","M","","M","","","25","","31","","","","100.72","","","","","","NA"
"-52.94","48.17","GRATES COVE","840B053","2021-08-08 08:30","2021","08","08","08:30","19.6","","","M","","M","","","25","","36","","","","100.73","","","","","","NA"
"-52.94","48.17","GRATES COVE","840B053","2021-08-08 09:30","2021","08","08","09:30","19.0","","","M","","M","","","25","","34","","","","100.72","","","","","","NA"
"-52.94","48.17","GRATES COVE","840B053","2021-08-08 10:30","2021","08","08","10:30","19.7","","","M","","M","","","26","","34","","","","100.77","","","","","","NA"
"-52.94","48.17","GRATES COVE","840B053","2021-08-08 11:30","2021","08","08","11:30","21.2","","","M","","M","","","25","","34","","","","100.81","","","","","","NA"
"-52.94","48.17","GRATES COVE","840B053","2021-08-08 12:30","2021","08","08","12:30","19.3","","","M","","M","","","26","","31","","","","100.82","","","","","","NA"
"-52.94","48.17","GRATES COVE","840B053","2021-08-08 13:30","2021","08","08","13:30","19.6","","","M","","M","","","27","","29","","","","100.85","","","","","","NA"
"-52.94","48.17","GRATES COVE","840B053","2021-08-08 14:30","2021","08","08","14:30","14.1","","","M","","M","","","3","","20","","","","101.05","","","","","","NA"
"-52.94","48.17","GRATES COVE","840B053","2021-08-08 15:30","2021","08","08","15:30","13.6","","","M","","M","","","4","","19","","","","101.18","","","","","","NA"
"-52.94","48.17","GRATES COVE","840B053","2021-08-08 16:30","2021","08","08","16:30","13.1","","","M","","M","","","4","","31","","","","101.26","","","","","","NA"
"-52.94","48.17","GRATES COVE","840B053","2021-08-08 17:30","2021","08","08","17:30","13.0","","","M","","M","","","4","","39","","","","101.30","","","","","","NA"
"-52.94","48.17","GRATES COVE","840B053","2021-08-08 18:30","2021","08","08","18:30","12.8","","","M","","M","","","5","","36","","","","101.42","","","","","","NA"
"-52.94","48.17","GRATES COVE","840B053","2021-08-08 19:30","2021","08","08","19:30","12.9","","","M","","M","","","5","","35","","","","101.50","","","","","","NA"
"-52.94","48.17","GRATES COVE","840B053","2021-08-08 20:30","2021","08","08","20:30","12.8","","","M","","M","","","6","","33","","","","101.64","","","","","","NA"
"-52.94","48.17","GRATES COVE","840B053","2021-08-08 21:30","2021","08","08","21:30","12.7","","","M","","M","","","6","","29","","","","101.69","","","","","","NA"
"-52.94","48.17","GRATES COVE","840B053","2021-08-08 22:30","2021","08","08","22:30","12.5","","","M","","M","","","6","","26","","","","101.73","","","","","","NA"
"-52.94","48.17","GRATES COVE","840B053","2021-08-08 23:30","2021","08","08","23:30","12.1","","","M","","M","","","7","","22","","","","101.77","","","","","","NA"
"-52.94","48.17","GRATES COVE","840B053","2021-08-09 00:30","2021","08","09","00:30","12.1","","","M","","M","","","7","","20","","","","101.79","","","","","","NA"
"-52.94","48.17","GRATES COVE","840B053","2021-08-09 01:30","2021","08","09","01:30","12.0","","","M","","M","","","7","","20","","","","101.81","","","","","","NA"
"-52.94","48.17","GRATES COVE","840B053","2021-08-09 02:30","2021","08","09","02:30","11.8","","","M","","M","","","7","","16","","","","101.86","","","","","","NA"
"-52.94","48.17","GRATES COVE","840B053","2021-08-09 03:30","2021","08","09","03:30","11.6","","","M","","M","","","7","","12","","","","101.89","","","","","","NA"
"-52.94","48.17","GRATES COVE","840B053","2021-08-09 04:30","2021","08","09","04:30","12.3","","","M","","M","","","6","","17","","","","101.94","","","","","","NA"
"-52.94","48.17","GRATES COVE","840B053","2021-08-09 05:30","2021","08","09","05:30","12.5","","","M","","M","","","6","","19","","","","101.99","","","","","","NA"
"-52.94","48.17","GRATES COVE","840B053","2021-08-09 06:30","2021","08","09","06:30","12.9","","","M","","M","","","5","","16","","","","102.07","","","","","","NA"
"-52.94","48.17","GRATES COVE","840B053","2021-08-09 07:30","2021","08","09","07:30","14.1","","","M","","M","","","7","","11","","","","102.09","","","","","","NA"
"-52.94","48.17","GRATES COVE","840B053","2021-08-09 08:30","2021","08","09","08:30","14.3","","","M","","M","","","6","","10","","","","102.15","","","","","","NA"
"-52.94","48.17","GRATES COVE","840B053","2021-08-09 09:30","2021","08","09","09:30","14.7","","","M","","M","","","6","","9","","","","102.23","","","","","","NA"
"-52.94","48.17","GRATES COVE","840B053","2021-08-09 10:30","2021","08","09","10:30","15.6","","","M","","M","","","7","","7","","","","102.28","","","","","","NA"
"-52.94","48.17","GRATES COVE","840B053","2021-08-09 11:30","2021","08","09","11:30","16.3","","","M","","M","","","9","","9","","","","102.31","","","","","","NA"
"-52.94","48.17","GRATES COVE","840B053","2021-08-09 12:30","2021","08","09","12:30","16.4","","","M","","M","","","8","","8","","","","102.25","","","","","","NA"
"-52.94","48.17","GRATES COVE","840B053","2021-08-09 13:30","2021","08","09","13:30","16.4","","","M","","M","","","8","","11","","","","102.19","","","","","","NA"
"-52.94","48.17","GRATES COVE","840B053","2021-08-09 14:30","2021","08","09","14:30","18.1","","","M","","M","","","9","","9","","","","102.14","","","","","","NA"
"-52.94","48.17","GRATES COVE","840B053","2021-08-09 15:30","2021","08","09","15:30","16.6","","","M","","M","","","4","","7","","","","102.15","","","","","","NA"
"-52.94","48.17","GRATES COVE","840B053","2021-08-09 16:30","2021","08","09","16:30","18.4","","","M","","M","","","20","","10","","","","102.11","","","","","","NA"
"-52.94","48.17","GRATES COVE","840B053","2021-08-09 17:30","2021","08","09","17:30","16.5","","","M","","M","","","20","","18","","","","102.08","","","","","","NA"
"-52.94","48.17","GRATES COVE","840B053","2021-08-09 18:30","2021","08","09","18:30","14.9","","","M","","M","","","19","","20","","","","102.06","","","","","","NA"
"-52.94","48.17","GRATES COVE","840B053","2021-08-09 19:30","2021","08","09","19:30","14.0","","","M","","M","","","20","","22","","","","102.07","","","","","","NA"
"-52.94","48.17","GRATES COVE","840B053","2021-08-09 20:30","2021","08","09","20:30","14.2","","","M","","M","","","20","","30","","","","102.09","","","","","","NA"
"-52.94","48.17","GRATES COVE","840B053","2021-08-09 21:30","2021","08","09","21:30","13.6","","","M","","M","","","22","","27","","","","102.08","","","","","","NA"
"-52.94","48.17","GRATES COVE","840B053","2021-08-09 22:30","2021","08","09","22:30","12.5","","","M","","M","","","23","","30","","","","102.07","","","","","","NA"
"-52.94","48.17","GRATES COVE","840B053","2021-08-09 23:30","2021","08","09","23:30","13.0","","","M","","M","","","25","","28","","","","102.07","","","","","","NA"
"-52.94","48.17","GRATES COVE","840B053","2021-08-10 00:30","2021","08","10","00:30","13.1","","","M","","M","","","25","","33","","","","102.01","","","","","","NA"
"-52.94","48.17","GRATES COVE","840B053","2021-08-10 01:30","2021","08","10","01:30","12.5","","","M","","M","","","25","","30","","","","102.00","","","","","","NA"
"-52.94","48.17","GRATES COVE","840B053","2021-08-10 02:30","2021","08","10","02:30","12.3","","","M","","M","","","26","","22","","","","102.00","","","","","","NA"
"-52.94","48.17","GRATES COVE","840B053","2021-08-10 03:30","2021","08","10","03:30","12.0","","","M","","M","","","26","","23","","","","101.95","","","","","","NA"
"-52.94","48.17","GRATES COVE","840B053","2021-08-10 04:30","2021","08","10","04:30","11.7","","","M","","M","","","26","","22","","","","101.94","","","","","","NA"
"-52.94","48.17","GRATES COVE","840B053","2021-08-10 05:30","2021","08","10","05:30","12.0","","","M","","M","","","26","","20","","","","101.95","","","","","","NA"
"-52.94","48.17","GRATES COVE","840B053","2021-08-10 06:30","2021","08","10","06:30","12.8","","","M","","M","","","25","","21","","","","101.93","","","","","","NA"
"-52.94","48.17","GRATES COVE","840B053","2021-08-10 07:30","2021","08","10","07:30","13.8","","","M","","M","","","26","","26","","","","101.93","","","","","","NA"
"-52.94","48.17","GRATES COVE","840B053","2021-08-10 08:30","2021","08","10","08:30","14.2","","","M","","M","","","27","","26","","","","101.88","","","","","","NA"
"-52.94","48.17","GRATES COVE","840B053","2021-08-10 09:30","2021","08","10","09:30","15.5","","","M","","M","","","27","","25","","","","101.84","","","","","","NA"
"-52.94","48.17","GRATES COVE","840B053","2021-08-10 10:30","2021","08","10","10:30","15.9","","","M","","M","","","27","","31","","","","101.78","","","","","","NA"
"-52.94","48.17","GRATES COVE","840B053","2021-08-10 11:30","2021","08","10","11:30","17.0","","","M","","M","","","27","","25","","","","101.74","","","","","","NA"
"-52.94","48.17","GRATES COVE","840B053","2021-08-10 12:30","2021","08","10","12:30","17.9","","","M","","M","","","26","","27","","","","101.62","","","","","","NA"
"-52.94","48.17","GRATES COVE","840B053","2021-08-10 13:30","2021","08","10","13:30","19.3","","","M","","M","","","26","","25","","","","101.56","","","","","","NA"
"-52.94","48.17","GRATES COVE","840B053","2021-08-10 14:30","2021","08","10","14:30","19.3","","","M","","M","","","26","","23","","","","101.52","","","","","","NA"
"-52.94","48.17","GRATES COVE","840B053","2021-08-10 15:30","2021","08","10","15:30","19.5","","","M","","M","","","25","","29","","","","101.48","","","","","","NA"
"-52.94","48.17","GRATES COVE","840B053","2021-08-10 16:30","2021","08","10","16:30","19.5","","","M","","M","","","25","","28","","","","101.43","","","","","","NA"
"-52.94","48.17","GRATES COVE","840B053","2021-08-10 17:30","2021","08","10","17:30","17.9","","","M","","M","","","25","","31","","","","101.38","","","","","","NA"
"-52.94","48.17","GRATES COVE","840B053","2021-08-10 18:30","2021","08","10","18:30","17.1","","","M","","M","","","25","","34","","","","101.38","","","","","","NA"
"-52.94","48.17","GRATES COVE","840B053","2021-08-10 19:30","2021","08","10","19:30","16.1","","","M","","M","","","25","","36","","","","101.38","","","","","","NA"
"-52.94","48.17","GRATES COVE","840B053","2021-08-10 20:30","2021","08","10","20:30","15.5","","","M","","M","","","25","","34","","","","101.38","","","","","","NA"
"-52.94","48.17","GRATES COVE","840B053","2021-08-10 21:30","2021","08","10","21:30","15.6","","","M","","M","","","25","","40","","","","101.36","","","","","","NA"
"-52.94","48.17","GRATES COVE","840B053","2021-08-10 22:30","2021","08","10","22:30","15.3","","","M","","M","","","26","","41","","","","101.33","","","","","","NA"
"-52.94","48.17","GRATES COVE","840B053","2021-08-10 23:30","2021","08","10","23:30","15.5","","","M","","M","","","26","","39","","","","101.31","","","","","","NA"
"-52.94","48.17","GRATES COVE","840B053","2021-08-11 00:30","2021","08","11","00:30","15.5","","","M","","M","","","26","","39","","","","101.32","","","","","","NA"
"-52.94","48.17","GRATES COVE","840B053","2021-08-11 01:30","2021","08","11","01:30","15.8","","","M","","M","","","26","","34","","","","101.26","","","","","","NA"
"-52.94","48.17","GRATES COVE","840B053","2021-08-11 02:30","2021","08","11","02:30","16.0","","","M","","M","","","26","","35","","","","101.25","","","","","","NA"
"-52.94","48.17","GRATES COVE","840B053","2021-08-11 03:30","2021","08","11","03:30","16.0","","","M","","M","","","26","","40","","","","101.20","","","","","","NA"
"-52.94","48.17","GRATES COVE","840B053","2021-08-11 04:30","2021","08","11","04:30","15.9","","","M","","M","","","26","","39","","","","101.18","","","","","","NA"
"-52.94","48.17","GRATES COVE","840B053","2021-08-11 05:30","2021","08","11","05:30","16.0","","","M","","M","","","26","","36","","","","101.25","","","","","","NA"
"-52.94","48.17","GRATES COVE","840B053","2021-08-11 06:30","2021","08","11","06:30","16.5","","","M","","M","","","26","","31","","","","101.32","","","","","","NA"
"-52.94","48.17","GRATES COVE","840B053","2021-08-11 07:30","2021","08","11","07:30","17.5","","","M","","M","","","26","","28","","","","101.32","","","","","","NA"
"-52.94","48.17","GRATES COVE","840B053","2021-08-11 08:30","2021","08","11","08:30","17.9","","","M","","M","","","26","","28","","","","101.32","","","","","","NA"
"-52.94","48.17","GRATES COVE","840B053","2021-08-11 09:30","2021","08","11","09:30","18.6","","","M","","M","","","26","","26","","","","101.32","","","","","","NA"
"-52.94","48.17","GRATES COVE","840B053","2021-08-11 10:30","2021","08","11","10:30","18.3","","","M","","M","","","27","","23","","","","101.36","","","","","","NA"
"-52.94","48.17","GRATES COVE","840B053","2021-08-11 11:30","2021","08","11","11:30","18.1","","","M","","M","","","27","","20","","","","101.38","","","","","","NA"
"-52.94","48.17","GRATES COVE","840B053","2021-08-11 12:30","2021","08","11","12:30","18.9","","","M","","M","","","27","","18","","","","101.35","","","","","","NA"
"-52.94","48.17","GRATES COVE","840B053","2021-08-11 13:30","2021","08","11","13:30","20.2","","","M","","M","","","27","","15","","","","101.33","","","","","","NA"
"-52.94","48.17","GRATES COVE","840B053","2021-08-11 14:30","2021","08","11","14:30","20.1","","","M","","M","","","28","","13","","","","101.33","","","","","","NA"
"-52.94","48.17","GRATES COVE","840B053","2021-08-11 15:30","2021","08","11","15:30","20.4","","","M","","M","","","27","","9","","","","101.33","","","","","","NA"
"-52.94","48.17","GRATES COVE","840B053","2021-08-11 16:30","2021","08","11","16:30","16.6","","","M","","M","","","3","","7","","","","101.38","","","","","","NA"
"-52.94","48.17","GRATES COVE","840B053","2021-08-11 17:30","2021","08","11","17:30","15.2","","","M","","M","","","8","","8","","","","101.41","","","","","","NA"
"-52.94","48.17","GRATES COVE","840B053","2021-08-11 18:30","2021","08","11","18:30","14.6","","","M","","M","","","6","","8","","","","101.42","","","","","","NA"
"-52.94","48.17","GRATES COVE","840B053","2021-08-11 19:30","2021","08","11","19:30","14.4","","","M","","M","","","6","","9","","","","101.45","","","","","","NA"
"-52.94","48.17","GRATES COVE","840B053","2021-08-11 20:30","2021","08","11","20:30","14.2","","","M","","M","","","7","","13","","","","101.46","","","","","","NA"
"-52.94","48.17","GRATES COVE","840B053","2021-08-11 21:30","2021","08","11","21:30","13.8","","","M","","M","","","7","","20","","","","101.47","","","","","","NA"
"-52.94","48.17","GRATES COVE","840B053","2021-08-11 22:30","2021","08","11","22:30","13.8","","","M","","M","","","8","","14","","","","101.47","","","","","","NA"
"-52.94","48.17","GRATES COVE","840B053","2021-08-11 23:30","2021","08","11","23:30","13.8","","","M","","M","","","6","","13","","","","101.49","","","","","","NA"
"-52.94","48.17","GRATES COVE","840B053","2021-08-12 00:30","2021","08","12","00:30","13.6","","","M","","M","","","8","","11","","","","101.44","","","","","","NA"
"-52.94","48.17","GRATES COVE","840B053","2021-08-12 01:30","2021","08","12","01:30","13.6","","","M","","M","","","7","","13","","","","101.44","","","","","","NA"
"-52.94","48.17","GRATES COVE","840B053","2021-08-12 02:30","2021","08","12","02:30","13.6","","","M","","M","","","8","","13","","","","101.44","","","","","","NA"
"-52.94","48.17","GRATES COVE","840B053","2021-08-12 03:30","2021","08","12","03:30","13.4","","","M","","M","","","9","","14","","","","101.43","","","","","","NA"
"-52.94","48.17","GRATES COVE","840B053","2021-08-12 04:30","2021","08","12","04:30","13.4","","","M","","M","","","8","","17","","","","101.46","","","","","","NA"
"-52.94","48.17","GRATES COVE","840B053","2021-08-12 05:30","2021","08","12","05:30","13.2","","","M","","M","","","9","","17","","","","101.51","","","","","","NA"
"-52.94","48.17","GRATES COVE","840B053","2021-08-12 06:30","2021","08","12","06:30","13.1","","","M","","M","","","9","","15","","","","101.52","","","","","","NA"
"-52.94","48.17","GRATES COVE","840B053","2021-08-12 07:30","2021","08","12","07:30","13.2","","","M","","M","","","9","","14","","","","101.56","","","","","","NA"
"-52.94","48.17","GRATES COVE","840B053","2021-08-12 08:30","2021","08","12","08:30","14.1","","","M","","M","","","10","","11","","","","101.56","","","","","","NA"
"-52.94","48.17","GRATES COVE","840B053","2021-08-12 09:30","2021","08","12","09:30","14.2","","","M","","M","","","10","","13","","","","101.56","","","","","","NA"
"-52.94","48.17","GRATES COVE","840B053","2021-08-12 10:30","2021","08","12","10:30","15.2","","","M","","M","","","10","","13","","","","101.53","","","","","","NA"
"-52.94","48.17","GRATES COVE","840B053","2021-08-12 11:30","2021","08","12","11:30","16.1","","","M","","M","","","10","","12","","","","101.55","","","","","","NA"
"-52.94","48.17","GRATES COVE","840B053","2021-08-12 12:30","2021","08","12","12:30","15.9","","","M","","M","","","9","","13","","","","101.52","","","","","","NA"
"-52.94","48.17","GRATES COVE","840B053","2021-08-12 13:30","2021","08","12","13:30","16.6","","","M","","M","","","9","","10","","","","101.51","","","","","","NA"
"-52.94","48.17","GRATES COVE","840B053","2021-08-12 14:30","2021","08","12","14:30","16.5","","","M","","M","","","9","","11","","","","101.48","","","","","","NA"
"-52.94","48.17","GRATES COVE","840B053","2021-08-12 15:30","2021","08","12","15:30","16.5","","","M","","M","","","9","","8","","","","101.52","","","","","","NA"
"-52.94","48.17","GRATES COVE","840B053","2021-08-12 16:30","2021","08","12","16:30","16.2","","","M","","M","","","9","","12","","","","101.53","","","","","","NA"
"-52.94","48.17","GRATES COVE","840B053","2021-08-12 17:30","2021","08","12","17:30","15.1","","","M","","M","","","14","","9","","","","101.52","","","","","","NA"
"-52.94","48.17","GRATES COVE","840B053","2021-08-12 18:30","2021","08","12","18:30","14.2","","","M","","M","","","18","","18","","","","101.50","","","","","","NA"
"-52.94","48.17","GRATES COVE","840B053","2021-08-12 19:30","2021","08","12","19:30","14.1","","","M","","M","","","18","","17","","","","101.48","","","","","","NA"
"-52.94","48.17","GRATES COVE","840B053","2021-08-12 20:30","2021","08","12","20:30","14.4","","","M","","M","","","20","","16","","","","101.49","","","","","","NA"
"-52.94","48.17","GRATES COVE","840B053","2021-08-12 21:30","2021","08","12","21:30","14.5","","","M","","M","","","20","","19","","","","101.48","","","","","","NA"
"-52.94","48.17","GRATES COVE","840B053","2021-08-12 22:30","2021","08","12","22:30","14.6","","","M","","M","","","11","","8","","","","101.46","","","","","","NA"
"-52.94","48.17","GRATES COVE","840B053","2021-08-12 23:30","2021","08","12","23:30","15.3","","","M","","M","","","22","","23","","","","101.39","","","","","","NA"
"-52.94","48.17","GRATES COVE","840B053","2021-08-13 00:30","2021","08","13","00:30","15.2","","","M","","M","","","22","","22","","","","101.41","","","","","","NA"
"-52.94","48.17","GRATES COVE","840B053","2021-08-13 01:30","2021","08","13","01:30","15.0","","","M","","M","","","22","","16","","","","101.42","","","","","","NA"
"-52.94","48.17","GRATES COVE","840B053","2021-08-13 02:30","2021","08","13","02:30","15.1","","","M","","M","","","21","","18","","","","101.46","","","","","","NA"
"-52.94","48.17","GRATES COVE","840B053","2021-08-13 03:30","2021","08","13","03:30","15.1","","","M","","M","","","22","","21","","","","101.42","","","","","","NA"
"-52.94","48.17","GRATES COVE","840B053","2021-08-13 04:30","2021","08","13","04:30","15.0","","","M","","M","","","22","","17","","","","101.44","","","","","","NA"
"-52.94","48.17","GRATES COVE","840B053","2021-08-13 05:30","2021","08","13","05:30","15.0","","","M","","M","","","21","","16","","","","101.47","","","","","","NA"
"-52.94","48.17","GRATES COVE","840B053","2021-08-13 06:30","2021","08","13","06:30","15.6","","","M","","M","","","22","","19","","","","101.49","","","","","","NA"
"-52.94","48.17","GRATES COVE","840B053","2021-08-13 07:30","2021","08","13","07:30","15.7","","","M","","M","","","20","","19","","","","101.48","","","","","","NA"
"-52.94","48.17","GRATES COVE","840B053","2021-08-13 08:30","2021","08","13","08:30","16.2","","","M","","M","","","21","","26","","","","101.46","","","","","","NA"
"-52.94","48.17","GRATES COVE","840B053","2021-08-13 09:30","2021","08","13","09:30","16.9","","","M","","M","","","21","","33","","","","101.45","","","","","","NA"
"-52.94","48.17","GRATES COVE","840B053","2021-08-13 10:30","2021","08","13","10:30","17.8","","","M","","M","","","21","","34","","","","101.43","","","","","","NA"
"-52.94","48.17","GRATES COVE","840B053","2021-08-13 11:30","2021","08","13","11:30","19.4","","","M","","M","","","20","","30","","","","101.44","","","","","","NA"
"-52.94","48.17","GRATES COVE","840B053","2021-08-13 12:30","2021","08","13","12:30","19.3","","","M","","M","","","20","","28","","","","101.42","","","","","","NA"
"-52.94","48.17","GRATES COVE","840B053","2021-08-13 13:30","2021","08","13","13:30","19.9","","","M","","M","","","19","","26","","","","101.35","","","","","","NA"
"-52.94","48.17","GRATES COVE","840B053","2021-08-13 14:30","2021","08","13","14:30","19.7","","","M","","M","","","19","","27","","","","101.33","","","","","","NA"
"-52.94","48.17","GRATES COVE","840B053","2021-08-13 15:30","2021","08","13","15:30","19.8","","","M","","M","","","19","","23","","","","101.32","","","","","","NA"
"-52.94","48.17","GRATES COVE","840B053","2021-08-13 16:30","2021","08","13","16:30","19.4","","","M","","M","","","20","","25","","","","101.32","","","","","","NA"
"-52.94","48.17","GRATES COVE","840B053","2021-08-13 17:30","2021","08","13","17:30","19.0","","","M","","M","","","20","","27","","","","101.30","","","","","","NA"
"-52.94","48.17","GRATES COVE","840B053","2021-08-13 18:30","2021","08","13","18:30","18.6","","","M","","M","","","20","","26","","","","101.29","","","","","","NA"
"-52.94","48.17","GRATES COVE","840B053","2021-08-13 19:30","2021","08","13","19:30","17.7","","","M","","M","","","20","","19","","","","101.31","","","","","","NA"
"-52.94","48.17","GRATES COVE","840B053","2021-08-13 20:30","2021","08","13","20:30","17.0","","","M","","M","","","20","","21","","","","101.31","","","","","","NA"
"-52.94","48.17","GRATES COVE","840B053","2021-08-13 21:30","2021","08","13","21:30","17.9","","","M","","M","","","21","","27","","","","101.23","","","","","","NA"
"-52.94","48.17","GRATES COVE","840B053","2021-08-13 22:30","2021","08","13","22:30","17.8","","","M","","M","","","21","","20","","","","101.25","","","","","","NA"
"-52.94","48.17","GRATES COVE","840B053","2021-08-13 23:30","2021","08","13","23:30","17.9","","","M","","M","","","22","","17","","","","101.23","","","","","","NA"
"-52.94","48.17","GRATES COVE","840B053","2021-08-14 00:30","2021","08","14","00:30","17.9","","","M","","M","","","22","","23","","","","101.19","","","","","","NA"
"-52.94","48.17","GRATES COVE","840B053","2021-08-14 01:30","2021","08","14","01:30","18.0","","","M","","M","","","22","","20","","","","101.16","","","","","","NA"
"-52.94","48.17","GRATES COVE","840B053","2021-08-14 02:30","2021","08","14","02:30","18.3","","","M","","M","","","22","","21","","","","101.15","","","","","","NA"
"-52.94","48.17","GRATES COVE","840B053","2021-08-14 03:30","2021","08","14","03:30","18.3","","","M","","M","","","22","","17","","","","101.14","","","","","","NA"
"-52.94","48.17","GRATES COVE","840B053","2021-08-14 04:30","2021","08","14","04:30","18.8","","","M","","M","","","23","","11","","","","101.18","","","","","","NA"
"-52.94","48.17","GRATES COVE","840B053","2021-08-14 05:30","2021","08","14","05:30","18.7","","","M","","M","","","23","","7","","","","101.22","","","","","","NA"
"-52.94","48.17","GRATES COVE","840B053","2021-08-14 06:30","2021","08","14","06:30","19.0","","","M","","M","","","23","","10","","","","101.24","","","","","","NA"
"-52.94","48.17","GRATES COVE","840B053","2021-08-14 07:30","2021","08","14","07:30","20.0","","","M","","M","","","24","","10","","","","101.24","","","","","","NA"
"-52.94","48.17","GRATES COVE","840B053","2021-08-14 08:30","2021","08","14","08:30","19.0","","","M","","M","","","4","","4","","","","101.24","","","","","","NA"
"-52.94","48.17","GRATES COVE","840B053","2021-08-14 09:30","2021","08","14","09:30","21.3","","","M","","M","","","30","","10","","","","101.25","","","","","","NA"
"-52.94","48.17","GRATES COVE","840B053","2021-08-14 10:30","2021","08","14","10:30","19.2","","","M","","M","","","4","","3","","","","101.28","","","","","","NA"
"-52.94","48.17","GRATES COVE","840B053","2021-08-14 11:30","2021","08","14","11:30","21.9","","","M","","M","","","2","","3","","","","101.23","","","","","","NA"
"-52.94","48.17","GRATES COVE","840B053","2021-08-14 12:30","2021","08","14","12:30","23.5","","","M","","M","","","20","","13","","","","101.18","","","","","","NA"
"-52.94","48.17","GRATES COVE","840B053","2021-08-14 13:30","2021","08","14","13:30","23.6","","","M","","M","","","20","","13","","","","101.18","","","","","","NA"
"-52.94","48.17","GRATES COVE","840B053","2021-08-14 14:30","2021","08","14","14:30","22.2","","","M","","M","","","30","","12","","","","101.19","","","","","","NA"
"-52.94","48.17","GRATES COVE","840B053","2021-08-14 15:30","2021","08","14","15:30","20.4","","","M","","M","","","11","","2","","","","101.17","","","","","","NA"
"-52.94","48.17","GRATES COVE","840B053","2021-08-14 16:30","2021","08","14","16:30","21.0","","","M","","M","","","","","0","","","","101.18","","","","","","NA"
"-52.94","48.17","GRATES COVE","840B053","2021-08-14 17:30","2021","08","14","17:30","21.1","","","M","","M","","","12","","6","","","","101.13","","","","","","NA"
"-52.94","48.17","GRATES COVE","840B053","2021-08-14 18:30","2021","08","14","18:30","21.5","","","M","","M","","","31","","8","","","","101.13","","","","","","NA"
"-52.94","48.17","GRATES COVE","840B053","2021-08-14 19:30","2021","08","14","19:30","20.3","","","M","","M","","","34","","4","","","","101.16","","","","","","NA"
"-52.94","48.17","GRATES COVE","840B053","2021-08-14 20:30","2021","08","14","20:30","19.7","","","M","","M","","","0","","1","","","","101.17","","","","","","NA"
"-52.94","48.17","GRATES COVE","840B053","2021-08-14 21:30","2021","08","14","21:30","19.8","","","M","","M","","","28","","8","","","","101.15","","","","","","NA"
"-52.94","48.17","GRATES COVE","840B053","2021-08-14 22:30","2021","08","14","22:30","18.0","","","M","","M","","","","","0","","","","101.13","","","","","","NA"
"-52.94","48.17","GRATES COVE","840B053","2021-08-14 23:30","2021","08","14","23:30","18.3","","","M","","M","","","7","","3","","","","101.10","","","","","","NA"
"-52.94","48.17","GRATES COVE","840B053","2021-08-15 00:30","2021","08","15","00:30","18.3","","","M","","M","","","31","","2","","","","101.07","","","","","","NA"
"-52.94","48.17","GRATES COVE","840B053","2021-08-15 01:30","2021","08","15","01:30","17.3","","","M","","M","","","","","0","","","","101.03","","","","","","NA"
"-52.94","48.17","GRATES COVE","840B053","2021-08-15 02:30","2021","08","15","02:30","18.5","","","M","","M","","","25","","6","","","","101.00","","","","","","NA"
"-52.94","48.17","GRATES COVE","840B053","2021-08-15 03:30","2021","08","15","03:30","18.5","","","M","","M","","","31","","3","","","","100.99","","","","","","NA"
"-52.94","48.17","GRATES COVE","840B053","2021-08-15 04:30","2021","08","15","04:30","18.6","","","M","","M","","","28","","5","","","","100.98","","","","","","NA"
"-52.94","48.17","GRATES COVE","840B053","2021-08-15 05:30","2021","08","15","05:30","17.2","","","M","","M","","","6","","2","","","","100.98","","","","","","NA"
"-52.94","48.17","GRATES COVE","840B053","2021-08-15 06:30","2021","08","15","06:30","19.3","","","M","","M","","","23","","6","","","","101.00","","","","","","NA"
"-52.94","48.17","GRATES COVE","840B053","2021-08-15 07:30","2021","08","15","07:30","18.6","","","M","","M","","","28","","8","","","","100.99","","","","","","NA"
"-52.94","48.17","GRATES COVE","840B053","2021-08-15 08:30","2021","08","15","08:30","19.7","","","M","","M","","","26","","11","","","","100.97","","","","","","NA"
"-52.94","48.17","GRATES COVE","840B053","2021-08-15 09:30","2021","08","15","09:30","22.5","","","M","","M","","","25","","18","","","","100.90","","","","","","NA"
"-52.94","48.17","GRATES COVE","840B053","2021-08-15 10:30","2021","08","15","10:30","22.3","","","M","","M","","","20","","15","","","","100.87","","","","","","NA"
"-52.94","48.17","GRATES COVE","840B053","2021-08-15 11:30","2021","08","15","11:30","22.4","","","M","","M","","","19","","20","","","","100.85","","","","","","NA"
"-52.94","48.17","GRATES COVE","840B053","2021-08-15 12:30","2021","08","15","12:30","21.9","","","M","","M","","","28","","9","","","","100.83","","","","","","NA"
"-52.94","48.17","GRATES COVE","840B053","2021-08-15 13:30","2021","08","15","13:30","23.9","","","M","","M","","","20","","16","","","","100.76","","","","","","NA"
"-52.94","48.17","GRATES COVE","840B053","2021-08-15 14:30","2021","08","15","14:30","23.4","","","M","","M","","","28","","17","","","","100.73","","","","","","NA"
"-52.94","48.17","GRATES COVE","840B053","2021-08-15 15:30","2021","08","15","15:30","22.3","","","M","","M","","","27","","18","","","","100.69","","","","","","NA"
"-52.94","48.17","GRATES COVE","840B053","2021-08-15 16:30","2021","08","15","16:30","20.2","","","M","","M","","","9","","4","","","","100.67","","","","","","NA"
"-52.94","48.17","GRATES COVE","840B053","2021-08-15 17:30","2021","08","15","17:30","23.2","","","M","","M","","","25","","20","","","","100.64","","","","","","NA"
"-52.94","48.17","GRATES COVE","840B053","2021-08-15 18:30","2021","08","15","18:30","22.1","","","M","","M","","","25","","15","","","","100.65","","","","","","NA"
"-52.94","48.17","GRATES COVE","840B053","2021-08-15 19:30","2021","08","15","19:30","21.5","","","M","","M","","","25","","18","","","","100.65","","","","","","NA"
"-52.94","48.17","GRATES COVE","840B053","2021-08-15 20:30","2021","08","15","20:30","21.7","","","M","","M","","","25","","19","","","","100.64","","","","","","NA"
"-52.94","48.17","GRATES COVE","840B053","2021-08-15 21:30","2021","08","15","21:30","21.2","","","M","","M","","","26","","21","","","","100.61","","","","","","NA"
"-52.94","48.17","GRATES COVE","840B053","2021-08-15 22:30","2021","08","15","22:30","20.9","","","M","","M","","","25","","17","","","","100.57","","","","","","NA"
"-52.94","48.17","GRATES COVE","840B053","2021-08-15 23:30","2021","08","15","23:30","19.7","","","M","","M","","","10","","3","","","","100.54","","","","","","NA"
"-52.94","48.17","GRATES COVE","840B053","2021-08-16 00:30","2021","08","16","00:30","20.3","","","M","","M","","","26","","16","","","","100.52","","","","","","NA"
"-52.94","48.17","GRATES COVE","840B053","2021-08-16 01:30","2021","08","16","01:30","19.5","","","M","","M","","","26","","27","","","","100.46","","","","","","NA"
"-52.94","48.17","GRATES COVE","840B053","2021-08-16 02:30","2021","08","16","02:30","19.2","","","M","","M","","","24","","29","","","","100.34","","","","","","NA"
"-52.94","48.17","GRATES COVE","840B053","2021-08-16 03:30","2021","08","16","03:30","18.3","","","M","","M","","","26","","35","","","","100.25","","","","","","NA"
"-52.94","48.17","GRATES COVE","840B053","2021-08-16 04:30","2021","08","16","04:30","18.3","","","M","","M","","","26","","29","","","","100.36","","","","","","NA"
"-52.94","48.17","GRATES COVE","840B053","2021-08-16 05:30","2021","08","16","05:30","18.4","","","M","","M","","","26","","25","","","","100.42","","","","","","NA"
"-52.94","48.17","GRATES COVE","840B053","2021-08-16 06:30","2021","08","16","06:30","18.5","","","M","","M","","","27","","20","","","","100.51","","","","","","NA"
"-52.94","48.17","GRATES COVE","840B053","2021-08-16 07:30","2021","08","16","07:30","17.9","","","M","","M","","","27","","20","","","","100.53","","","","","","NA"
"-52.94","48.17","GRATES COVE","840B053","2021-08-16 08:30","2021","08","16","08:30","18.3","","","M","","M","","","28","","11","","","","100.58","","","","","","NA"
"-52.94","48.17","GRATES COVE","840B053","2021-08-16 09:30","2021","08","16","09:30","19.1","","","M","","M","","","30","","13","","","","100.63","","","","","","NA"
"-52.94","48.17","GRATES COVE","840B053","2021-08-16 10:30","2021","08","16","10:30","20.5","","","M","","M","","","27","","14","","","","100.60","","","","","","NA"
"-52.94","48.17","GRATES COVE","840B053","2021-08-16 11:30","2021","08","16","11:30","21.5","","","M","","M","","","26","","18","","","","100.57","","","","","","NA"
"-52.94","48.17","GRATES COVE","840B053","2021-08-16 12:30","2021","08","16","12:30","21.9","","","M","","M","","","27","","23","","","","100.55","","","","","","NA"
"-52.94","48.17","GRATES COVE","840B053","2021-08-16 13:30","2021","08","16","13:30","22.7","","","M","","M","","","26","","20","","","","100.53","","","","","","NA"
"-52.94","48.17","GRATES COVE","840B053","2021-08-16 14:30","2021","08","16","14:30","23.1","","","M","","M","","","27","","21","","","","100.52","","","","","","NA"
"-52.94","48.17","GRATES COVE","840B053","2021-08-16 15:30","2021","08","16","15:30","17.2","","","M","","M","","","5","","32","","","","100.56","","","","","","NA"
"-52.94","48.17","GRATES COVE","840B053","2021-08-16 16:30","2021","08","16","16:30","15.6","","","M","","M","","","5","","32","","","","100.68","","","","","","NA"
"-52.94","48.17","GRATES COVE","840B053","2021-08-16 17:30","2021","08","16","17:30","15.5","","","M","","M","","","5","","25","","","","100.74","","","","","","NA"
"-52.94","48.17","GRATES COVE","840B053","2021-08-16 18:30","2021","08","16","18:30","15.4","","","M","","M","","","6","","16","","","","100.85","","","","","","NA"
"-52.94","48.17","GRATES COVE","840B053","2021-08-16 19:30","2021","08","16","19:30","15.7","","","M","","M","","","2","","12","","","","100.91","","","","","","NA"
"-52.94","48.17","GRATES COVE","840B053","2021-08-16 20:30","2021","08","16","20:30","15.3","","","M","","M","","","33","","15","","","","100.94","","","","","","NA"
"-52.94","48.17","GRATES COVE","840B053","2021-08-16 21:30","2021","08","16","21:30","15.0","","","M","","M","","","32","","10","","","","100.95","","","","","","NA"
"-52.94","48.17","GRATES COVE","840B053","2021-08-16 22:30","2021","08","16","22:30","14.9","","","M","","M","","","33","","9","","","","100.96","","","","","","NA"
"-52.94","48.17","GRATES COVE","840B053","2021-08-16 23:30","2021","08","16","23:30","14.9","","","M","","M","","","28","","18","","","","100.96","","","","","","NA"
"-52.94","48.17","GRATES COVE","840B053","2021-08-17 00:30","2021","08","17","00:30","14.8","","","M","","M","","","27","","15","","","","100.96","","","","","","NA"
"-52.94","48.17","GRATES COVE","840B053","2021-08-17 01:30","2021","08","17","01:30","14.9","","","M","","M","","","27","","20","","","","100.98","","","","","","NA"
"-52.94","48.17","GRATES COVE","840B053","2021-08-17 02:30","2021","08","17","02:30","14.7","","","M","","M","","","28","","22","","","","101.04","","","","","","NA"
"-52.94","48.17","GRATES COVE","840B053","2021-08-17 03:30","2021","08","17","03:30","14.5","","","M","","M","","","26","","22","","","","101.05","","","","","","NA"
"-52.94","48.17","GRATES COVE","840B053","2021-08-17 04:30","2021","08","17","04:30","14.5","","","M","","M","","","26","","26","","","","101.06","","","","","","NA"
"-52.94","48.17","GRATES COVE","840B053","2021-08-17 05:30","2021","08","17","05:30","15.3","","","M","","M","","","25","","26","","","","101.09","","","","","","NA"
"-52.94","48.17","GRATES COVE","840B053","2021-08-17 06:30","2021","08","17","06:30","15.9","","","M","","M","","","26","","27","","","","101.10","","","","","","NA"
"-52.94","48.17","GRATES COVE","840B053","2021-08-17 07:30","2021","08","17","07:30","16.4","","","M","","M","","","25","","29","","","","101.10","","","","","","NA"
"-52.94","48.17","GRATES COVE","840B053","2021-08-17 08:30","2021","08","17","08:30","17.3","","","M","","M","","","25","","23","","","","101.13","","","","","","NA"
"-52.94","48.17","GRATES COVE","840B053","2021-08-17 09:30","2021","08","17","09:30","17.6","","","M","","M","","","25","","32","","","","101.02","","","","","","NA"
"-52.94","48.17","GRATES COVE","840B053","2021-08-17 10:30","2021","08","17","10:30","17.6","","","M","","M","","","27","","29","","","","101.14","","","","","","NA"
"-52.94","48.17","GRATES COVE","840B053","2021-08-17 11:30","2021","08","17","11:30","19.1","","","M","","M","","","25","","36","","","","101.04","","","","","","NA"
"-52.94","48.17","GRATES COVE","840B053","2021-08-17 12:30","2021","08","17","12:30","20.6","","","M","","M","","","25","","32","","","","100.96","","","","","","NA"
"-52.94","48.17","GRATES COVE","840B053","2021-08-17 13:30","2021","08","17","13:30","20.5","","","M","","M","","","25","","31","","","","100.93","","","","","","NA"
"-52.94","48.17","GRATES COVE","840B053","2021-08-17 14:30","2021","08","17","14:30","20.7","","","M","","M","","","25","","34","","","","100.90","","","","","","NA"
"-52.94","48.17","GRATES COVE","840B053","2021-08-17 15:30","2021","08","17","15:30","20.8","","","M","","M","","","25","","33","","","","100.90","","","","","","NA"
"-52.94","48.17","GRATES COVE","840B053","2021-08-17 16:30","2021","08","17","16:30","21.2","","","M","","M","","","25","","35","","","","100.87","","","","","","NA"
"-52.94","48.17","GRATES COVE","840B053","2021-08-17 17:30","2021","08","17","17:30","20.8","","","M","","M","","","25","","40","","","","100.89","","","","","","NA"
"-52.94","48.17","GRATES COVE","840B053","2021-08-17 18:30","2021","08","17","18:30","20.2","","","M","","M","","","25","","41","","","","100.93","","","","","","NA"
"-52.94","48.17","GRATES COVE","840B053","2021-08-17 19:30","2021","08","17","19:30","19.7","","","M","","M","","","25","","42","","","","100.95","","","","","","NA"
"-52.94","48.17","GRATES COVE","840B053","2021-08-17 20:30","2021","08","17","20:30","19.2","","","M","","M","","","25","","40","","","","101.00","","","","","","NA"
"-52.94","48.17","GRATES COVE","840B053","2021-08-17 21:30","2021","08","17","21:30","19.3","","","M","","M","","","25","","40","","","","101.01","","","","","","NA"
"-52.94","48.17","GRATES COVE","840B053","2021-08-17 22:30","2021","08","17","22:30","19.1","","","M","","M","","","25","","39","","","","101.00","","","","","","NA"
"-52.94","48.17","GRATES COVE","840B053","2021-08-17 23:30","2021","08","17","23:30","18.8","","","M","","M","","","25","","39","","","","100.98","","","","","","NA"
"-52.94","48.17","GRATES COVE","840B053","2021-08-18 00:30","2021","08","18","00:30","18.5","","","M","","M","","","25","","40","","","","100.97","","","","","","NA"
"-52.94","48.17","GRATES COVE","840B053","2021-08-18 01:30","2021","08","18","01:30","18.4","","","M","","M","","","25","","41","","","","100.98","","","","","","NA"
"-52.94","48.17","GRATES COVE","840B053","2021-08-18 02:30","2021","08","18","02:30","18.5","","","M","","M","","","26","","36","","","","101.05","","","","","","NA"
"-52.94","48.17","GRATES COVE","840B053","2021-08-18 03:30","2021","08","18","03:30","18.2","","","M","","M","","","26","","33","","","","101.09","","","","","","NA"
"-52.94","48.17","GRATES COVE","840B053","2021-08-18 04:30","2021","08","18","04:30","18.0","","","M","","M","","","26","","31","","","","101.15","","","","","","NA"
"-52.94","48.17","GRATES COVE","840B053","2021-08-18 05:30","2021","08","18","05:30","18.6","","","M","","M","","","27","","29","","","","101.19","","","","","","NA"
"-52.94","48.17","GRATES COVE","840B053","2021-08-18 06:30","2021","08","18","06:30","18.2","","","M","","M","","","26","","26","","","","101.25","","","","","","NA"
"-52.94","48.17","GRATES COVE","840B053","2021-08-18 07:30","2021","08","18","07:30","19.4","","","M","","M","","","26","","26","","","","101.24","","","","","","NA"
"-52.94","48.17","GRATES COVE","840B053","2021-08-18 08:30","2021","08","18","08:30","20.7","","","M","","M","","","26","","28","","","","101.27","","","","","","NA"
"-52.94","48.17","GRATES COVE","840B053","2021-08-18 09:30","2021","08","18","09:30","21.4","","","M","","M","","","26","","24","","","","101.29","","","","","","NA"
"-52.94","48.17","GRATES COVE","840B053","2021-08-18 10:30","2021","08","18","10:30","23.7","","","M","","M","","","25","","23","","","","101.24","","","","","","NA"
"-52.94","48.17","GRATES COVE","840B053","2021-08-18 11:30","2021","08","18","11:30","24.9","","","M","","M","","","26","","20","","","","101.22","","","","","","NA"
"-52.94","48.17","GRATES COVE","840B053","2021-08-18 12:30","2021","08","18","12:30","25.1","","","M","","M","","","27","","21","","","","101.16","","","","","","NA"
"-52.94","48.17","GRATES COVE","840B053","2021-08-18 13:30","2021","08","18","13:30","25.6","","","M","","M","","","25","","35","","","","101.10","","","","","","NA"
"-52.94","48.17","GRATES COVE","840B053","2021-08-18 14:30","2021","08","18","14:30","25.7","","","M","","M","","","26","","35","","","","101.05","","","","","","NA"
"-52.94","48.17","GRATES COVE","840B053","2021-08-18 15:30","2021","08","18","15:30","26.1","","","M","","M","","","25","","36","","","","100.99","","","","","","NA"
"-52.94","48.17","GRATES COVE","840B053","2021-08-18 16:30","2021","08","18","16:30","26.1","","","M","","M","","","25","","35","","","","101.00","","","","","","NA"
"-52.94","48.17","GRATES COVE","840B053","2021-08-18 17:30","2021","08","18","17:30","25.8","","","M","","M","","","25","","33","","","","100.99","","","","","","NA"
"-52.94","48.17","GRATES COVE","840B053","2021-08-18 18:30","2021","08","18","18:30","24.7","","","M","","M","","","26","","38","","","","100.99","","","","","","NA"
"-52.94","48.17","GRATES COVE","840B053","2021-08-18 19:30","2021","08","18","19:30","23.5","","","M","","M","","","24","","37","","","","101.01","","","","","","NA"
"-52.94","48.17","GRATES COVE","840B053","2021-08-18 20:30","2021","08","18","20:30","22.7","","","M","","M","","","25","","33","","","","101.04","","","","","","NA"
"-52.94","48.17","GRATES COVE","840B053","2021-08-18 21:30","2021","08","18","21:30","22.0","","","M","","M","","","25","","38","","","","101.02","","","","","","NA"
"-52.94","48.17","GRATES COVE","840B053","2021-08-18 22:30","2021","08","18","22:30","21.4","","","M","","M","","","25","","38","","","","100.99","","","","","","NA"
"-52.94","48.17","GRATES COVE","840B053","2021-08-18 23:30","2021","08","18","23:30","21.2","","","M","","M","","","26","","37","","","","100.99","","","","","","NA"
"-52.94","48.17","GRATES COVE","840B053","2021-08-19 00:30","2021","08","19","00:30","21.0","","","M","","M","","","25","","33","","","","100.95","","","","","","NA"
"-52.94","48.17","GRATES COVE","840B053","2021-08-19 01:30","2021","08","19","01:30","20.9","","","M","","M","","","25","","36","","","","100.93","","","","","","NA"
"-52.94","48.17","GRATES COVE","840B053","2021-08-19 02:30","2021","08","19","02:30","20.2","","","M","","M","","","25","","32","","","","100.88","","","","","","NA"
"-52.94","48.17","GRATES COVE","840B053","2021-08-19 03:30","2021","08","19","03:30","19.8","","","M","","M","","","25","","33","","","","100.82","","","","","","NA"
"-52.94","48.17","GRATES COVE","840B053","2021-08-19 04:30","2021","08","19","04:30","19.0","","","M","","M","","","25","","40","","","","100.78","","","","","","NA"
"-52.94","48.17","GRATES COVE","840B053","2021-08-19 05:30","2021","08","19","05:30","19.1","","","M","","M","","","25","","38","","","","100.80","","","","","","NA"
"-52.94","48.17","GRATES COVE","840B053","2021-08-19 06:30","2021","08","19","06:30","18.8","","","M","","M","","","26","","37","","","","100.79","","","","","","NA"
"-52.94","48.17","GRATES COVE","840B053","2021-08-19 07:30","2021","08","19","07:30","19.4","","","M","","M","","","26","","37","","","","100.74","","","","","","NA"
"-52.94","48.17","GRATES COVE","840B053","2021-08-19 08:30","2021","08","19","08:30","20.8","","","M","","M","","","26","","33","","","","100.72","","","","","","NA"
"-52.94","48.17","GRATES COVE","840B053","2021-08-19 09:30","2021","08","19","09:30","19.5","","","M","","M","","","25","","45","","","","100.65","","","","","","NA"
"-52.94","48.17","GRATES COVE","840B053","2021-08-19 10:30","2021","08","19","10:30","21.5","","","M","","M","","","26","","38","","","","100.64","","","","","","NA"
"-52.94","48.17","GRATES COVE","840B053","2021-08-19 11:30","2021","08","19","11:30","21.7","","","M","","M","","","25","","38","","","","100.58","","","","","","NA"
"-52.94","48.17","GRATES COVE","840B053","2021-08-19 12:30","2021","08","19","12:30","24.1","","","M","","M","","","25","","43","","","","100.51","","","","","","NA"
"-52.94","48.17","GRATES COVE","840B053","2021-08-19 13:30","2021","08","19","13:30","24.8","","","M","","M","","","26","","46","","","","100.42","","","","","","NA"
"-52.94","48.17","GRATES COVE","840B053","2021-08-19 14:30","2021","08","19","14:30","25.2","","","M","","M","","","26","","45","","","","100.37","","","","","","NA"
"-52.94","48.17","GRATES COVE","840B053","2021-08-19 15:30","2021","08","19","15:30","25.5","","","M","","M","","","25","","42","","","","100.34","","","","","","NA"
"-52.94","48.17","GRATES COVE","840B053","2021-08-19 16:30","2021","08","19","16:30","24.5","","","M","","M","","","25","","49","","","","100.31","","","","","","NA"
"-52.94","48.17","GRATES COVE","840B053","2021-08-19 17:30","2021","08","19","17:30","23.7","","","M","","M","","","25","","47","","","","100.31","","","","","","NA"
"-52.94","48.17","GRATES COVE","840B053","2021-08-19 18:30","2021","08","19","18:30","21.9","","","M","","M","","","25","","53","","","","100.30","","","","","","NA"
"-52.94","48.17","GRATES COVE","840B053","2021-08-19 19:30","2021","08","19","19:30","20.7","","","M","","M","","","25","","49","","","","100.30","","","","","","NA"
"-52.94","48.17","GRATES COVE","840B053","2021-08-19 20:30","2021","08","19","20:30","19.7","","","M","","M","","","25","","42","","","","100.35","","","","","","NA"
"-52.94","48.17","GRATES COVE","840B053","2021-08-19 21:30","2021","08","19","21:30","19.1","","","M","","M","","","25","","45","","","","100.28","","","","","","NA"
"-52.94","48.17","GRATES COVE","840B053","2021-08-19 22:30","2021","08","19","22:30","17.9","","","M","","M","","","26","","46","","","","100.28","","","","","","NA"
"-52.94","48.17","GRATES COVE","840B053","2021-08-19 23:30","2021","08","19","23:30","17.6","","","M","","M","","","26","","47","","","","100.21","","","","","","NA"
"-52.94","48.17","GRATES COVE","840B053","2021-08-20 00:30","2021","08","20","00:30","17.7","","","M","","M","","","26","","46","","","","100.16","","","","","","NA"
"-52.94","48.17","GRATES COVE","840B053","2021-08-20 01:30","2021","08","20","01:30","17.7","","","M","","M","","","26","","45","","","","100.07","","","","","","NA"
"-52.94","48.17","GRATES COVE","840B053","2021-08-20 02:30","2021","08","20","02:30","17.8","","","M","","M","","","26","","40","","","","100.07","","","","","","NA"
"-52.94","48.17","GRATES COVE","840B053","2021-08-20 03:30","2021","08","20","03:30","17.7","","","M","","M","","","27","","33","","","","100.18","","","","","","NA"
"-52.94","48.17","GRATES COVE","840B053","2021-08-20 04:30","2021","08","20","04:30","18.1","","","M","","M","","","27","","31","","","","100.19","","","","","","NA"
"-52.94","48.17","GRATES COVE","840B053","2021-08-20 05:30","2021","08","20","05:30","18.4","","","M","","M","","","27","","23","","","","100.22","","","","","","NA"
"-52.94","48.17","GRATES COVE","840B053","2021-08-20 06:30","2021","08","20","06:30","15.8","","","M","","M","","","3","","15","","","","100.25","","","","","","NA"
"-52.94","48.17","GRATES COVE","840B053","2021-08-20 07:30","2021","08","20","07:30","15.1","","","M","","M","","","4","","15","","","","100.32","","","","","","NA"
"-52.94","48.17","GRATES COVE","840B053","2021-08-20 08:30","2021","08","20","08:30","14.9","","","M","","M","","","4","","12","","","","100.38","","","","","","NA"
"-52.94","48.17","GRATES COVE","840B053","2021-08-20 09:30","2021","08","20","09:30","14.9","","","M","","M","","","5","","16","","","","100.41","","","","","","NA"
"-52.94","48.17","GRATES COVE","840B053","2021-08-20 10:30","2021","08","20","10:30","16.2","","","M","","M","","","8","","11","","","","100.42","","","","","","NA"
"-52.94","48.17","GRATES COVE","840B053","2021-08-20 11:30","2021","08","20","11:30","15.6","","","M","","M","","","6","","20","","","","100.44","","","","","","NA"
"-52.94","48.17","GRATES COVE","840B053","2021-08-20 12:30","2021","08","20","12:30","16.6","","","M","","M","","","8","","18","","","","100.38","","","","","","NA"
"-52.94","48.17","GRATES COVE","840B053","2021-08-20 13:30","2021","08","20","13:30","16.4","","","M","","M","","","10","","18","","","","100.31","","","","","","NA"
"-52.94","48.17","GRATES COVE","840B053","2021-08-20 14:30","2021","08","20","14:30","15.9","","","M","","M","","","12","","10","","","","100.27","","","","","","NA"
"-52.94","48.17","GRATES COVE","840B053","2021-08-20 15:30","2021","08","20","15:30","15.6","","","M","","M","","","10","","17","","","","100.31","","","","","","NA"
"-52.94","48.17","GRATES COVE","840B053","2021-08-20 16:30","2021","08","20","16:30","15.5","","","M","","M","","","10","","18","","","","100.30","","","","","","NA"
"-52.94","48.17","GRATES COVE","840B053","2021-08-20 17:30","2021","08","20","17:30","15.1","","","M","","M","","","9","","20","","","","100.36","","","","","","NA"
"-52.94","48.17","GRATES COVE","840B053","2021-08-20 18:30","2021","08","20","18:30","14.2","","","M","","M","","","9","","42","","","","100.28","","","","","","NA"
"-52.94","48.17","GRATES COVE","840B053","2021-08-20 19:30","2021","08","20","19:30","13.5","","","M","","M","","","9","","41","","","","100.31","","","","","","NA"
"-52.94","48.17","GRATES COVE","840B053","2021-08-20 20:30","2021","08","20","20:30","12.9","","","M","","M","","","8","","41","","","","100.37","","","","","","NA"
"-52.94","48.17","GRATES COVE","840B053","2021-08-20 21:30","2021","08","20","21:30","12.6","","","M","","M","","","10","","28","","","","100.36","","","","","","NA"
"-52.94","48.17","GRATES COVE","840B053","2021-08-20 22:30","2021","08","20","22:30","12.5","","","M","","M","","","9","","35","","","","100.38","","","","","","NA"
"-52.94","48.17","GRATES COVE","840B053","2021-08-20 23:30","2021","08","20","23:30","12.9","","","M","","M","","","9","","26","","","","100.46","","","","","","NA"
"-52.94","48.17","GRATES COVE","840B053","2021-08-21 00:30","2021","08","21","00:30","13.1","","","M","","M","","","11","","15","","","","100.49","","","","","","NA"
"-52.94","48.17","GRATES COVE","840B053","2021-08-21 01:30","2021","08","21","01:30","13.3","","","M","","M","","","10","","17","","","","100.49","","","","","","NA"
"-52.94","48.17","GRATES COVE","840B053","2021-08-21 02:30","2021","08","21","02:30","13.5","","","M","","M","","","8","","27","","","","100.42","","","","","","NA"
"-52.94","48.17","GRATES COVE","840B053","2021-08-21 03:30","2021","08","21","03:30","13.4","","","M","","M","","","7","","26","","","","100.45","","","","","","NA"
"-52.94","48.17","GRATES COVE","840B053","2021-08-21 04:30","2021","08","21","04:30","13.6","","","M","","M","","","6","","29","","","","100.53","","","","","","NA"
"-52.94","48.17","GRATES COVE","840B053","2021-08-21 05:30","2021","08","21","05:30","13.5","","","M","","M","","","7","","31","","","","100.58","","","","","","NA"
"-52.94","48.17","GRATES COVE","840B053","2021-08-21 06:30","2021","08","21","06:30","13.5","","","M","","M","","","8","","22","","","","100.64","","","","","","NA"
"-52.94","48.17","GRATES COVE","840B053","2021-08-21 07:30","2021","08","21","07:30","13.8","","","M","","M","","","6","","23","","","","100.69","","","","","","NA"
"-52.94","48.17","GRATES COVE","840B053","2021-08-21 08:30","2021","08","21","08:30","13.9","","","M","","M","","","4","","20","","","","100.71","","","","","","NA"
"-52.94","48.17","GRATES COVE","840B053","2021-08-21 09:30","2021","08","21","09:30","14.4","","","M","","M","","","4","","22","","","","100.72","","","","","","NA"
"-52.94","48.17","GRATES COVE","840B053","2021-08-21 10:30","2021","08","21","10:30","14.7","","","M","","M","","","3","","17","","","","100.75","","","","","","NA"
"-52.94","48.17","GRATES COVE","840B053","2021-08-21 11:30","2021","08","21","11:30","14.6","","","M","","M","","","4","","17","","","","100.74","","","","","","NA"
"-52.94","48.17","GRATES COVE","840B053","2021-08-21 12:30","2021","08","21","12:30","14.7","","","M","","M","","","5","","15","","","","100.73","","","","","","NA"
"-52.94","48.17","GRATES COVE","840B053","2021-08-21 13:30","2021","08","21","13:30","14.1","","","M","","M","","","6","","16","","","","100.73","","","","","","NA"
"-52.94","48.17","GRATES COVE","840B053","2021-08-21 14:30","2021","08","21","14:30","13.8","","","M","","M","","","6","","13","","","","100.77","","","","","","NA"
"-52.94","48.17","GRATES COVE","840B053","2021-08-21 15:30","2021","08","21","15:30","13.7","","","M","","M","","","5","","22","","","","100.81","","","","","","NA"
"-52.94","48.17","GRATES COVE","840B053","2021-08-21 16:30","2021","08","21","16:30","13.6","","","M","","M","","","5","","10","","","","100.82","","","","","","NA"
"-52.94","48.17","GRATES COVE","840B053","2021-08-21 17:30","2021","08","21","17:30","13.9","","","M","","M","","","6","","11","","","","100.84","","","","","","NA"
"-52.94","48.17","GRATES COVE","840B053","2021-08-21 18:30","2021","08","21","18:30","13.8","","","M","","M","","","4","","14","","","","100.86","","","","","","NA"
"-52.94","48.17","GRATES COVE","840B053","2021-08-21 19:30","2021","08","21","19:30","14.0","","","M","","M","","","3","","17","","","","100.90","","","","","","NA"
"-52.94","48.17","GRATES COVE","840B053","2021-08-21 20:30","2021","08","21","20:30","13.8","","","M","","M","","","2","","16","","","","100.94","","","","","","NA"
"-52.94","48.17","GRATES COVE","840B053","2021-08-21 21:30","2021","08","21","21:30","13.0","","","M","","M","","","2","","18","","","","100.97","","","","","","NA"
"-52.94","48.17","GRATES COVE","840B053","2021-08-21 22:30","2021","08","21","22:30","13.2","","","M","","M","","","3","","35","","","","100.96","","","","","","NA"
"-52.94","48.17","GRATES COVE","840B053","2021-08-21 23:30","2021","08","21","23:30","12.9","","","M","","M","","","2","","29","","","","101.00","","","","","","NA"
"-52.94","48.17","GRATES COVE","840B053","2021-08-22 00:30","2021","08","22","00:30","12.7","","","M","","M","","","2","","19","","","","101.01","","","","","","NA"
"-52.94","48.17","GRATES COVE","840B053","2021-08-22 01:30","2021","08","22","01:30","12.6","","","M","","M","","","2","","20","","","","101.01","","","","","","NA"
"-52.94","48.17","GRATES COVE","840B053","2021-08-22 02:30","2021","08","22","02:30","12.2","","","M","","M","","","1","","19","","","","101.02","","","","","","NA"
"-52.94","48.17","GRATES COVE","840B053","2021-08-22 03:30","2021","08","22","03:30","12.4","","","M","","M","","","2","","16","","","","101.04","","","","","","NA"
"-52.94","48.17","GRATES COVE","840B053","2021-08-22 04:30","2021","08","22","04:30","12.2","","","M","","M","","","35","","22","","","","101.06","","","","","","NA"
"-52.94","48.17","GRATES COVE","840B053","2021-08-22 05:30","2021","08","22","05:30","12.0","","","M","","M","","","35","","21","","","","101.06","","","","","","NA"
"-52.94","48.17","GRATES COVE","840B053","2021-08-22 06:30","2021","08","22","06:30","12.3","","","M","","M","","","35","","26","","","","101.13","","","","","","NA"
"-52.94","48.17","GRATES COVE","840B053","2021-08-22 07:30","2021","08","22","07:30","13.1","","","M","","M","","","36","","20","","","","101.12","","","","","","NA"
"-52.94","48.17","GRATES COVE","840B053","2021-08-22 08:30","2021","08","22","08:30","11.6","","","M","","M","","","32","","21","","","","101.13","","","","","","NA"
"-52.94","48.17","GRATES COVE","840B053","2021-08-22 09:30","2021","08","22","09:30","12.8","","","M","","M","","","34","","17","","","","101.14","","","","","","NA"
"-52.94","48.17","GRATES COVE","840B053","2021-08-22 10:30","2021","08","22","10:30","13.5","","","M","","M","","","1","","16","","","","101.11","","","","","","NA"
"-52.94","48.17","GRATES COVE","840B053","2021-08-22 11:30","2021","08","22","11:30","12.1","","","M","","M","","","2","","26","","","","101.09","","","","","","NA"
"-52.94","48.17","GRATES COVE","840B053","2021-08-22 12:30","2021","08","22","12:30","12.4","","","M","","M","","","1","","20","","","","101.14","","","","","","NA"
"-52.94","48.17","GRATES COVE","840B053","2021-08-22 13:30","2021","08","22","13:30","12.1","","","M","","M","","","3","","36","","","","101.10","","","","","","NA"
"-52.94","48.17","GRATES COVE","840B053","2021-08-22 14:30","2021","08","22","14:30","13.3","","","M","","M","","","2","","17","","","","101.14","","","","","","NA"
"-52.94","48.17","GRATES COVE","840B053","2021-08-22 15:30","2021","08","22","15:30","13.6","","","M","","M","","","1","","16","","","","101.15","","","","","","NA"
"-52.94","48.17","GRATES COVE","840B053","2021-08-22 16:30","2021","08","22","16:30","13.3","","","M","","M","","","2","","29","","","","101.16","","","","","","NA"
"-52.94","48.17","GRATES COVE","840B053","2021-08-22 17:30","2021","08","22","17:30","13.0","","","M","","M","","","3","","28","","","","101.23","","","","","","NA"
"-52.94","48.17","GRATES COVE","840B053","2021-08-22 18:30","2021","08","22","18:30","13.0","","","M","","M","","","2","","22","","","","101.23","","","","","","NA"
"-52.94","48.17","GRATES COVE","840B053","2021-08-22 19:30","2021","08","22","19:30","12.8","","","M","","M","","","1","","14","","","","101.27","","","","","","NA"
"-52.94","48.17","GRATES COVE","840B053","2021-08-22 20:30","2021","08","22","20:30","12.5","","","M","","M","","","1","","12","","","","101.30","","","","","","NA"
"-52.94","48.17","GRATES COVE","840B053","2021-08-22 21:30","2021","08","22","21:30","12.5","","","M","","M","","","36","","14","","","","101.32","","","","","","NA"
"-52.94","48.17","GRATES COVE","840B053","2021-08-22 22:30","2021","08","22","22:30","12.6","","","M","","M","","","2","","13","","","","101.32","","","","","","NA"
"-52.94","48.17","GRATES COVE","840B053","2021-08-22 23:30","2021","08","22","23:30","12.4","","","M","","M","","","3","","9","","","","101.32","","","","","","NA"
"-52.94","48.17","GRATES COVE","840B053","2021-08-23 00:30","2021","08","23","00:30","12.1","","","M","","M","","","1","","6","","","","101.30","","","","","","NA"
"-52.94","48.17","GRATES COVE","840B053","2021-08-23 01:30","2021","08","23","01:30","12.1","","","M","","M","","","36","","12","","","","101.30","","","","","","NA"
"-52.94","48.17","GRATES COVE","840B053","2021-08-23 02:30","2021","08","23","02:30","11.8","","","M","","M","","","33","","15","","","","101.31","","","","","","NA"
"-52.94","48.17","GRATES COVE","840B053","2021-08-23 03:30","2021","08","23","03:30","12.1","","","M","","M","","","35","","14","","","","101.31","","","","","","NA"
"-52.94","48.17","GRATES COVE","840B053","2021-08-23 04:30","2021","08","23","04:30","12.0","","","M","","M","","","34","","12","","","","101.33","","","","","","NA"
"-52.94","48.17","GRATES COVE","840B053","2021-08-23 05:30","2021","08","23","05:30","12.2","","","M","","M","","","33","","9","","","","101.35","","","","","","NA"
"-52.94","48.17","GRATES COVE","840B053","2021-08-23 06:30","2021","08","23","06:30","13.0","","","M","","M","","","31","","11","","","","101.38","","","","","","NA"
"-52.94","48.17","GRATES COVE","840B053","2021-08-23 07:30","2021","08","23","07:30","13.8","","","M","","M","","","25","","14","","","","101.39","","","","","","NA"
"-52.94","48.17","GRATES COVE","840B053","2021-08-23 08:30","2021","08","23","08:30","14.8","","","M","","M","","","27","","19","","","","101.40","","","","","","NA"
"-52.94","48.17","GRATES COVE","840B053","2021-08-23 09:30","2021","08","23","09:30","16.2","","","M","","M","","","26","","17","","","","101.40","","","","","","NA"
"-52.94","48.17","GRATES COVE","840B053","2021-08-23 10:30","2021","08","23","10:30","17.3","","","M","","M","","","26","","20","","","","101.35","","","","","","NA"
"-52.94","48.17","GRATES COVE","840B053","2021-08-23 11:30","2021","08","23","11:30","18.9","","","M","","M","","","27","","16","","","","101.31","","","","","","NA"
"-52.94","48.17","GRATES COVE","840B053","2021-08-23 12:30","2021","08","23","12:30","17.7","","","M","","M","","","26","","21","","","","101.25","","","","","","NA"
"-52.94","48.17","GRATES COVE","840B053","2021-08-23 13:30","2021","08","23","13:30","17.7","","","M","","M","","","25","","21","","","","101.21","","","","","","NA"
"-52.94","48.17","GRATES COVE","840B053","2021-08-23 14:30","2021","08","23","14:30","18.3","","","M","","M","","","26","","24","","","","101.14","","","","","","NA"
"-52.94","48.17","GRATES COVE","840B053","2021-08-23 15:30","2021","08","23","15:30","18.5","","","M","","M","","","25","","29","","","","101.09","","","","","","NA"
"-52.94","48.17","GRATES COVE","840B053","2021-08-23 16:30","2021","08","23","16:30","17.8","","","M","","M","","","25","","30","","","","101.07","","","","","","NA"
"-52.94","48.17","GRATES COVE","840B053","2021-08-23 17:30","2021","08","23","17:30","17.3","","","M","","M","","","25","","35","","","","101.05","","","","","","NA"
"-52.94","48.17","GRATES COVE","840B053","2021-08-23 18:30","2021","08","23","18:30","18.2","","","M","","M","","","24","","38","","","","101.02","","","","","","NA"
"-52.94","48.17","GRATES COVE","840B053","2021-08-23 19:30","2021","08","23","19:30","18.7","","","M","","M","","","24","","39","","","","100.99","","","","","","NA"
"-52.94","48.17","GRATES COVE","840B053","2021-08-23 20:30","2021","08","23","20:30","18.6","","","M","","M","","","25","","39","","","","101.02","","","","","","NA"
"-52.94","48.17","GRATES COVE","840B053","2021-08-23 21:30","2021","08","23","21:30","18.5","","","M","","M","","","25","","43","","","","100.99","","","","","","NA"
"-52.94","48.17","GRATES COVE","840B053","2021-08-23 22:30","2021","08","23","22:30","18.5","","","M","","M","","","25","","47","","","","101.00","","","","","","NA"
"-52.94","48.17","GRATES COVE","840B053","2021-08-23 23:30","2021","08","23","23:30","18.3","","","M","","M","","","25","","43","","","","101.02","","","","","","NA"
"-52.94","48.17","GRATES COVE","840B053","2021-08-24 00:30","2021","08","24","00:30","18.3","","","M","","M","","","26","","45","","","","100.98","","","","","","NA"
"-52.94","48.17","GRATES COVE","840B053","2021-08-24 01:30","2021","08","24","01:30","18.0","","","M","","M","","","26","","41","","","","101.03","","","","","","NA"
"-52.94","48.17","GRATES COVE","840B053","2021-08-24 02:30","2021","08","24","02:30","18.0","","","M","","M","","","26","","40","","","","101.04","","","","","","NA"
"-52.94","48.17","GRATES COVE","840B053","2021-08-24 03:30","2021","08","24","03:30","17.4","","","M","","M","","","26","","41","","","","101.06","","","","","","NA"
"-52.94","48.17","GRATES COVE","840B053","2021-08-24 04:30","2021","08","24","04:30","16.9","","","M","","M","","","26","","38","","","","101.10","","","","","","NA"
"-52.94","48.17","GRATES COVE","840B053","2021-08-24 05:30","2021","08","24","05:30","16.4","","","M","","M","","","26","","38","","","","101.14","","","","","","NA"
"-52.94","48.17","GRATES COVE","840B053","2021-08-24 06:30","2021","08","24","06:30","16.9","","","M","","M","","","25","","35","","","","101.18","","","","","","NA"
"-52.94","48.17","GRATES COVE","840B053","2021-08-24 07:30","2021","08","24","07:30","17.3","","","M","","M","","","26","","36","","","","101.16","","","","","","NA"
"-52.94","48.17","GRATES COVE","840B053","2021-08-24 08:30","2021","08","24","08:30","18.3","","","M","","M","","","25","","34","","","","101.22","","","","","","NA"
"-52.94","48.17","GRATES COVE","840B053","2021-08-24 09:30","2021","08","24","09:30","18.8","","","M","","M","","","25","","37","","","","101.18","","","","","","NA"
"-52.94","48.17","GRATES COVE","840B053","2021-08-24 10:30","2021","08","24","10:30","20.2","","","M","","M","","","26","","41","","","","101.13","","","","","","NA"
"-52.94","48.17","GRATES COVE","840B053","2021-08-24 11:30","2021","08","24","11:30","20.8","","","M","","M","","","26","","39","","","","101.09","","","","","","NA"
"-52.94","48.17","GRATES COVE","840B053","2021-08-24 12:30","2021","08","24","12:30","20.4","","","M","","M","","","26","","38","","","","101.07","","","","","","NA"
"-52.94","48.17","GRATES COVE","840B053","2021-08-24 13:30","2021","08","24","13:30","21.6","","","M","","M","","","26","","32","","","","101.04","","","","","","NA"
"-52.94","48.17","GRATES COVE","840B053","2021-08-24 14:30","2021","08","24","14:30","20.7","","","M","","M","","","26","","32","","","","100.95","","","","","","NA"
"-52.94","48.17","GRATES COVE","840B053","2021-08-24 15:30","2021","08","24","15:30","21.0","","","M","","M","","","25","","30","","","","100.91","","","","","","NA"
"-52.94","48.17","GRATES COVE","840B053","2021-08-24 16:30","2021","08","24","16:30","21.5","","","M","","M","","","23","","16","","","","100.87","","","","","","NA"
"-52.94","48.17","GRATES COVE","840B053","2021-08-24 17:30","2021","08","24","17:30","19.8","","","M","","M","","","22","","24","","","","100.75","","","","","","NA"
"-52.94","48.17","GRATES COVE","840B053","2021-08-24 18:30","2021","08","24","18:30","18.8","","","M","","M","","","21","","31","","","","100.69","","","","","","NA"
"-52.94","48.17","GRATES COVE","840B053","2021-08-24 19:30","2021","08","24","19:30","19.7","","","M","","M","","","22","","27","","","","100.64","","","","","","NA"
"-52.94","48.17","GRATES COVE","840B053","2021-08-24 20:30","2021","08","24","20:30","19.9","","","M","","M","","","22","","25","","","","100.59","","","","","","NA"
"-52.94","48.17","GRATES COVE","840B053","2021-08-24 21:30","2021","08","24","21:30","20.7","","","M","","M","","","22","","29","","","","100.49","","","","","","NA"
"-52.94","48.17","GRATES COVE","840B053","2021-08-24 22:30","2021","08","24","22:30","21.4","","","M","","M","","","22","","28","","","","100.40","","","","","","NA"
"-52.94","48.17","GRATES COVE","840B053","2021-08-24 23:30","2021","08","24","23:30","21.4","","","M","","M","","","21","","28","","","","100.30","","","","","","NA"
"-52.94","48.17","GRATES COVE","840B053","2021-08-25 00:30","2021","08","25","00:30","22.1","","","M","","M","","","25","","43","","","","100.20","","","","","","NA"
"-52.94","48.17","GRATES COVE","840B053","2021-08-25 01:30","2021","08","25","01:30","21.8","","","M","","M","","","24","","34","","","","100.07","","","","","","NA"
"-52.94","48.17","GRATES COVE","840B053","2021-08-25 02:30","2021","08","25","02:30","21.3","","","M","","M","","","25","","40","","","","100.05","","","","","","NA"
"-52.94","48.17","GRATES COVE","840B053","2021-08-25 03:30","2021","08","25","03:30","20.4","","","M","","M","","","25","","37","","","","99.80","","","","","","NA"
"-52.94","48.17","GRATES COVE","840B053","2021-08-25 04:30","2021","08","25","04:30","20.1","","","M","","M","","","25","","36","","","","99.94","","","","","","NA"
"-52.94","48.17","GRATES COVE","840B053","2021-08-25 05:30","2021","08","25","05:30","19.7","","","M","","M","","","25","","44","","","","99.96","","","","","","NA"
"-52.94","48.17","GRATES COVE","840B053","2021-08-25 06:30","2021","08","25","06:30","18.8","","","M","","M","","","26","","42","","","","99.91","","","","","","NA"
"-52.94","48.17","GRATES COVE","840B053","2021-08-25 07:30","2021","08","25","07:30","18.8","","","M","","M","","","25","","47","","","","100.09","","","","","","NA"
"-52.94","48.17","GRATES COVE","840B053","2021-08-25 08:30","2021","08","25","08:30","19.1","","","M","","M","","","26","","40","","","","100.30","","","","","","NA"
"-52.94","48.17","GRATES COVE","840B053","2021-08-25 09:30","2021","08","25","09:30","19.8","","","M","","M","","","27","","33","","","","100.65","","","","","","NA"
"-52.94","48.17","GRATES COVE","840B053","2021-08-25 10:30","2021","08","25","10:30","20.6","","","M","","M","","","28","","28","","","","100.78","","","","","","NA"
"-52.94","48.17","GRATES COVE","840B053","2021-08-25 11:30","2021","08","25","11:30","20.0","","","M","","M","","","30","","17","","","","100.96","","","","","","NA"
"-52.94","48.17","GRATES COVE","840B053","2021-08-25 12:30","2021","08","25","12:30","21.6","","","M","","M","","","33","","6","","","","101.23","","","","","","NA"
"-52.94","48.17","GRATES COVE","840B053","2021-08-25 13:30","2021","08","25","13:30","20.8","","","M","","M","","","11","","9","","","","100.69","","","","","","NA"
"-52.94","48.17","GRATES COVE","840B053","2021-08-25 14:30","2021","08","25","14:30","19.7","","","M","","M","","","9","","13","","","","100.71","","","","","","NA"
"-52.94","48.17","GRATES COVE","840B053","2021-08-25 15:30","2021","08","25","15:30","16.1","","","M","","M","","","5","","26","","","","100.65","","","","","","NA"
"-52.94","48.17","GRATES COVE","840B053","2021-08-25 16:30","2021","08","25","16:30","14.7","","","M","","M","","","5","","25","","","","100.88","","","","","","NA"
"-52.94","48.17","GRATES COVE","840B053","2021-08-25 17:30","2021","08","25","17:30","14.3","","","M","","M","","","4","","27","","","","101.01","","","","","","NA"
"-52.94","48.17","GRATES COVE","840B053","2021-08-25 18:30","2021","08","25","18:30","13.4","","","M","","M","","","4","","30","","","","101.03","","","","","","NA"
"-52.94","48.17","GRATES COVE","840B053","2021-08-25 19:30","2021","08","25","19:30","13.8","","","M","","M","","","3","","28","","","","101.17","","","","","","NA"
"-52.94","48.17","GRATES COVE","840B053","2021-08-25 20:30","2021","08","25","20:30","13.7","","","M","","M","","","3","","29","","","","101.24","","","","","","NA"
"-52.94","48.17","GRATES COVE","840B053","2021-08-25 21:30","2021","08","25","21:30","13.4","","","M","","M","","","4","","29","","","","101.24","","","","","","NA"
"-52.94","48.17","GRATES COVE","840B053","2021-08-25 22:30","2021","08","25","22:30","13.3","","","M","","M","","","5","","24","","","","101.25","","","","","","NA"
"-52.94","48.17","GRATES COVE","840B053","2021-08-25 23:30","2021","08","25","23:30","13.3","","","M","","M","","","6","","18","","","","101.29","","","","","","NA"
"-52.94","48.17","GRATES COVE","840B053","2021-08-26 00:30","2021","08","26","00:30","13.3","","","M","","M","","","5","","18","","","","101.32","","","","","","NA"
"-52.94","48.17","GRATES COVE","840B053","2021-08-26 01:30","2021","08","26","01:30","13.4","","","M","","M","","","5","","17","","","","101.37","","","","","","NA"
"-52.94","48.17","GRATES COVE","840B053","2021-08-26 02:30","2021","08","26","02:30","13.4","","","M","","M","","","6","","14","","","","101.38","","","","","","NA"
"-52.94","48.17","GRATES COVE","840B053","2021-08-26 03:30","2021","08","26","03:30","13.4","","","M","","M","","","6","","12","","","","101.40","","","","","","NA"
"-52.94","48.17","GRATES COVE","840B053","2021-08-26 04:30","2021","08","26","04:30","13.6","","","M","","M","","","5","","14","","","","101.44","","","","","","NA"
"-52.94","48.17","GRATES COVE","840B053","2021-08-26 05:30","2021","08","26","05:30","13.6","","","M","","M","","","4","","15","","","","101.53","","","","","","NA"
"-52.94","48.17","GRATES COVE","840B053","2021-08-26 06:30","2021","08","26","06:30","14.1","","","M","","M","","","5","","16","","","","101.57","","","","","","NA"
"-52.94","48.17","GRATES COVE","840B053","2021-08-26 07:30","2021","08","26","07:30","14.5","","","M","","M","","","5","","17","","","","101.61","","","","","","NA"
"-52.94","48.17","GRATES COVE","840B053","2021-08-26 08:30","2021","08","26","08:30","14.4","","","M","","M","","","5","","18","","","","101.64","","","","","","NA"
"-52.94","48.17","GRATES COVE","840B053","2021-08-26 09:30","2021","08","26","09:30","14.5","","","M","","M","","","5","","20","","","","101.68","","","","","","NA"
"-52.94","48.17","GRATES COVE","840B053","2021-08-26 10:30","2021","08","26","10:30","14.6","","","M","","M","","","6","","19","","","","101.66","","","","","","NA"
"-52.94","48.17","GRATES COVE","840B053","2021-08-26 11:30","2021","08","26","11:30","15.0","","","M","","M","","","6","","17","","","","101.67","","","","","","NA"
"-52.94","48.17","GRATES COVE","840B053","2021-08-26 12:30","2021","08","26","12:30","16.2","","","M","","M","","","8","","14","","","","101.70","","","","","","NA"
"-52.94","48.17","GRATES COVE","840B053","2021-08-26 13:30","2021","08","26","13:30","15.8","","","M","","M","","","8","","13","","","","101.66","","","","","","NA"
"-52.94","48.17","GRATES COVE","840B053","2021-08-26 14:30","2021","08","26","14:30","15.8","","","M","","M","","","9","","11","","","","101.66","","","","","","NA"
"-52.94","48.17","GRATES COVE","840B053","2021-08-26 15:30","2021","08","26","15:30","15.6","","","M","","M","","","9","","13","","","","101.65","","","","","","NA"
"-52.94","48.17","GRATES COVE","840B053","2021-08-26 16:30","2021","08","26","16:30","15.5","","","M","","M","","","10","","11","","","","101.65","","","","","","NA"
"-52.94","48.17","GRATES COVE","840B053","2021-08-26 17:30","2021","08","26","17:30","14.8","","","M","","M","","","10","","12","","","","101.62","","","","","","NA"
"-52.94","48.17","GRATES COVE","840B053","2021-08-26 18:30","2021","08","26","18:30","13.4","","","M","","M","","","14","","12","","","","101.60","","","","","","NA"
"-52.94","48.17","GRATES COVE","840B053","2021-08-26 19:30","2021","08","26","19:30","12.6","","","M","","M","","","16","","13","","","","101.59","","","","","","NA"
"-52.94","48.17","GRATES COVE","840B053","2021-08-26 20:30","2021","08","26","20:30","12.3","","","M","","M","","","15","","15","","","","101.60","","","","","","NA"
"-52.94","48.17","GRATES COVE","840B053","2021-08-26 21:30","2021","08","26","21:30","12.2","","","M","","M","","","16","","13","","","","101.58","","","","","","NA"
"-52.94","48.17","GRATES COVE","840B053","2021-08-26 22:30","2021","08","26","22:30","12.7","","","M","","M","","","19","","27","","","","101.48","","","","","","NA"
"-52.94","48.17","GRATES COVE","840B053","2021-08-26 23:30","2021","08","26","23:30","12.9","","","M","","M","","","20","","26","","","","101.46","","","","","","NA"
"-52.94","48.17","GRATES COVE","840B053","2021-08-27 00:30","2021","08","27","00:30","12.8","","","M","","M","","","20","","29","","","","101.41","","","","","","NA"
"-52.94","48.17","GRATES COVE","840B053","2021-08-27 01:30","2021","08","27","01:30","12.8","","","M","","M","","","20","","32","","","","101.38","","","","","","NA"
"-52.94","48.17","GRATES COVE","840B053","2021-08-27 02:30","2021","08","27","02:30","12.7","","","M","","M","","","19","","32","","","","101.31","","","","","","NA"
"-52.94","48.17","GRATES COVE","840B053","2021-08-27 03:30","2021","08","27","03:30","12.7","","","M","","M","","","20","","30","","","","101.26","","","","","","NA"
"-52.94","48.17","GRATES COVE","840B053","2021-08-27 04:30","2021","08","27","04:30","13.0","","","M","","M","","","21","","35","","","","101.12","","","","","","NA"
"-52.94","48.17","GRATES COVE","840B053","2021-08-27 05:30","2021","08","27","05:30","12.9","","","M","","M","","","19","","38","","","","101.06","","","","","","NA"
"-52.94","48.17","GRATES COVE","840B053","2021-08-27 06:30","2021","08","27","06:30","13.7","","","M","","M","","","20","","20","","","","101.16","","","","","","NA"
"-52.94","48.17","GRATES COVE","840B053","2021-08-27 07:30","2021","08","27","07:30","14.0","","","M","","M","","","20","","35","","","","101.02","","","","","","NA"
"-52.94","48.17","GRATES COVE","840B053","2021-08-27 08:30","2021","08","27","08:30","14.6","","","M","","M","","","19","","35","","","","101.03","","","","","","NA"
"-52.94","48.17","GRATES COVE","840B053","2021-08-27 09:30","2021","08","27","09:30","16.1","","","M","","M","","","20","","37","","","","100.99","","","","","","NA"
"-52.94","48.17","GRATES COVE","840B053","2021-08-27 10:30","2021","08","27","10:30","16.7","","","M","","M","","","19","","43","","","","100.87","","","","","","NA"
"-52.94","48.17","GRATES COVE","840B053","2021-08-27 11:30","2021","08","27","11:30","17.4","","","M","","M","","","19","","43","","","","100.76","","","","","","NA"
"-52.94","48.17","GRATES COVE","840B053","2021-08-27 12:30","2021","08","27","12:30","18.9","","","M","","M","","","20","","47","","","","100.65","","","","","","NA"
"-52.94","48.17","GRATES COVE","840B053","2021-08-27 13:30","2021","08","27","13:30","18.8","","","M","","M","","","20","","54","","","","100.56","","","","","","NA"
"-52.94","48.17","GRATES COVE","840B053","2021-08-27 14:30","2021","08","27","14:30","17.9","","","M","","M","","","20","","41","","","","100.57","","","","","","NA"
"-52.94","48.17","GRATES COVE","840B053","2021-08-27 15:30","2021","08","27","15:30","17.6","","","M","","M","","","20","","50","","","","100.43","","","","","","NA"
"-52.94","48.17","GRATES COVE","840B053","2021-08-27 16:30","2021","08","27","16:30","17.7","","","M","","M","","","21","","47","","","","100.40","","","","","","NA"
"-52.94","48.17","GRATES COVE","840B053","2021-08-27 17:30","2021","08","27","17:30","17.1","","","M","","M","","","20","","40","","","","100.43","","","","","","NA"
"-52.94","48.17","GRATES COVE","840B053","2021-08-27 18:30","2021","08","27","18:30","18.0","","","M","","M","","","22","","27","","","","100.43","","","","","","NA"
"-52.94","48.17","GRATES COVE","840B053","2021-08-27 19:30","2021","08","27","19:30","18.3","","","M","","M","","","23","","19","","","","100.46","","","","","","NA"
"-52.94","48.17","GRATES COVE","840B053","2021-08-27 20:30","2021","08","27","20:30","18.5","","","M","","M","","","23","","29","","","","100.35","","","","","","NA"
"-52.94","48.17","GRATES COVE","840B053","2021-08-27 21:30","2021","08","27","21:30","17.9","","","M","","M","","","22","","14","","","","100.32","","","","","","NA"
"-52.94","48.17","GRATES COVE","840B053","2021-08-27 22:30","2021","08","27","22:30","18.4","","","M","","M","","","25","","24","","","","100.28","","","","","","NA"
"-52.94","48.17","GRATES COVE","840B053","2021-08-27 23:30","2021","08","27","23:30","18.1","","","M","","M","","","25","","29","","","","100.21","","","","","","NA"
"-52.94","48.17","GRATES COVE","840B053","2021-08-28 00:30","2021","08","28","00:30","17.5","","","M","","M","","","25","","28","","","","100.14","","","","","","NA"
"-52.94","48.17","GRATES COVE","840B053","2021-08-28 01:30","2021","08","28","01:30","16.3","","","M","","M","","","28","","24","","","","100.17","","","","","","NA"
"-52.94","48.17","GRATES COVE","840B053","2021-08-28 02:30","2021","08","28","02:30","15.6","","","M","","M","","","28","","18","","","","100.16","","","","","","NA"
"-52.94","48.17","GRATES COVE","840B053","2021-08-28 03:30","2021","08","28","03:30","15.0","","","M","","M","","","27","","24","","","","100.14","","","","","","NA"
"-52.94","48.17","GRATES COVE","840B053","2021-08-28 04:30","2021","08","28","04:30","14.6","","","M","","M","","","28","","23","","","","100.16","","","","","","NA"
"-52.94","48.17","GRATES COVE","840B053","2021-08-28 05:30","2021","08","28","05:30","13.9","","","M","","M","","","29","","23","","","","100.20","","","","","","NA"
"-52.94","48.17","GRATES COVE","840B053","2021-08-28 06:30","2021","08","28","06:30","14.0","","","M","","M","","","30","","27","","","","100.24","","","","","","NA"
"-52.94","48.17","GRATES COVE","840B053","2021-08-28 07:30","2021","08","28","07:30","14.0","","","M","","M","","","31","","22","","","","100.25","","","","","","NA"
"-52.94","48.17","GRATES COVE","840B053","2021-08-28 08:30","2021","08","28","08:30","15.0","","","M","","M","","","32","","15","","","","100.24","","","","","","NA"
"-52.94","48.17","GRATES COVE","840B053","2021-08-28 09:30","2021","08","28","09:30","15.2","","","M","","M","","","34","","24","","","","100.26","","","","","","NA"
"-52.94","48.17","GRATES COVE","840B053","2021-08-28 10:30","2021","08","28","10:30","15.0","","","M","","M","","","36","","20","","","","100.27","","","","","","NA"
"-52.94","48.17","GRATES COVE","840B053","2021-08-28 11:30","2021","08","28","11:30","14.5","","","M","","M","","","35","","17","","","","100.28","","","","","","NA"
"-52.94","48.17","GRATES COVE","840B053","2021-08-28 12:30","2021","08","28","12:30","15.3","","","M","","M","","","34","","20","","","","100.28","","","","","","NA"
"-52.94","48.17","GRATES COVE","840B053","2021-08-28 13:30","2021","08","28","13:30","13.7","","","M","","M","","","1","","18","","","","100.33","","","","","","NA"
"-52.94","48.17","GRATES COVE","840B053","2021-08-28 14:30","2021","08","28","14:30","13.1","","","M","","M","","","1","","16","","","","100.33","","","","","","NA"
"-52.94","48.17","GRATES COVE","840B053","2021-08-28 15:30","2021","08","28","15:30","12.9","","","M","","M","","","36","","28","","","","100.39","","","","","","NA"
"-52.94","48.17","GRATES COVE","840B053","2021-08-28 16:30","2021","08","28","16:30","12.7","","","M","","M","","","36","","31","","","","100.45","","","","","","NA"
"-52.94","48.17","GRATES COVE","840B053","2021-08-28 17:30","2021","08","28","17:30","12.6","","","M","","M","","","1","","32","","","","100.46","","","","","","NA"
"-52.94","48.17","GRATES COVE","840B053","2021-08-28 18:30","2021","08","28","18:30","12.8","","","M","","M","","","1","","23","","","","100.50","","","","","","NA"
"-52.94","48.17","GRATES COVE","840B053","2021-08-28 19:30","2021","08","28","19:30","12.4","","","M","","M","","","1","","23","","","","100.58","","","","","","NA"
"-52.94","48.17","GRATES COVE","840B053","2021-08-28 20:30","2021","08","28","20:30","12.3","","","M","","M","","","2","","29","","","","100.61","","","","","","NA"
"-52.94","48.17","GRATES COVE","840B053","2021-08-28 21:30","2021","08","28","21:30","12.1","","","M","","M","","","2","","28","","","","100.59","","","","","","NA"
"-52.94","48.17","GRATES COVE","840B053","2021-08-28 22:30","2021","08","28","22:30","11.8","","","M","","M","","","2","","30","","","","100.67","","","","","","NA"
"-52.94","48.17","GRATES COVE","840B053","2021-08-28 23:30","2021","08","28","23:30","11.7","","","M","","M","","","2","","36","","","","100.69","","","","","","NA"
"-52.94","48.17","GRATES COVE","840B053","2021-08-29 00:30","2021","08","29","00:30","11.4","","","M","","M","","","2","","36","","","","100.68","","","","","","NA"
"-52.94","48.17","GRATES COVE","840B053","2021-08-29 01:30","2021","08","29","01:30","11.2","","","M","","M","","","2","","29","","","","100.69","","","","","","NA"
"-52.94","48.17","GRATES COVE","840B053","2021-08-29 02:30","2021","08","29","02:30","11.5","","","M","","M","","","2","","34","","","","100.69","","","","","","NA"
"-52.94","48.17","GRATES COVE","840B053","2021-08-29 03:30","2021","08","29","03:30","11.4","","","M","","M","","","2","","35","","","","100.69","","","","","","NA"
"-52.94","48.17","GRATES COVE","840B053","2021-08-29 04:30","2021","08","29","04:30","11.1","","","M","","M","","","1","","23","","","","100.72","","","","","","NA"
"-52.94","48.17","GRATES COVE","840B053","2021-08-29 05:30","2021","08","29","05:30","11.2","","","M","","M","","","2","","22","","","","100.75","","","","","","NA"
"-52.94","48.17","GRATES COVE","840B053","2021-08-29 06:30","2021","08","29","06:30","11.4","","","M","","M","","","1","","24","","","","100.78","","","","","","NA"
"-52.94","48.17","GRATES COVE","840B053","2021-08-29 07:30","2021","08","29","07:30","11.3","","","M","","M","","","1","","24","","","","100.78","","","","","","NA"
"-52.94","48.17","GRATES COVE","840B053","2021-08-29 08:30","2021","08","29","08:30","11.6","","","M","","M","","","1","","28","","","","100.78","","","","","","NA"
"-52.94","48.17","GRATES COVE","840B053","2021-08-29 09:30","2021","08","29","09:30","11.8","","","M","","M","","","2","","27","","","","100.78","","","","","","NA"
"-52.94","48.17","GRATES COVE","840B053","2021-08-29 10:30","2021","08","29","10:30","12.7","","","M","","M","","","1","","26","","","","100.75","","","","","","NA"
"-52.94","48.17","GRATES COVE","840B053","2021-08-29 11:30","2021","08","29","11:30","12.9","","","M","","M","","","1","","29","","","","100.75","","","","","","NA"
"-52.94","48.17","GRATES COVE","840B053","2021-08-29 12:30","2021","08","29","12:30","12.9","","","M","","M","","","2","","24","","","","100.70","","","","","","NA"
"-52.94","48.17","GRATES COVE","840B053","2021-08-29 13:30","2021","08","29","13:30","13.0","","","M","","M","","","2","","24","","","","100.65","","","","","","NA"
"-52.94","48.17","GRATES COVE","840B053","2021-08-29 14:30","2021","08","29","14:30","13.3","","","M","","M","","","1","","25","","","","100.62","","","","","","NA"
"-52.94","48.17","GRATES COVE","840B053","2021-08-29 15:30","2021","08","29","15:30","13.1","","","M","","M","","","1","","24","","","","100.61","","","","","","NA"
"-52.94","48.17","GRATES COVE","840B053","2021-08-29 16:30","2021","08","29","16:30","12.7","","","M","","M","","","2","","24","","","","100.61","","","","","","NA"
"-52.94","48.17","GRATES COVE","840B053","2021-08-29 17:30","2021","08","29","17:30","12.2","","","M","","M","","","36","","40","","","","100.55","","","","","","NA"
"-52.94","48.17","GRATES COVE","840B053","2021-08-29 18:30","2021","08","29","18:30","11.6","","","M","","M","","","36","","39","","","","100.52","","","","","","NA"
"-52.94","48.17","GRATES COVE","840B053","2021-08-29 19:30","2021","08","29","19:30","11.7","","","M","","M","","","1","","37","","","","100.55","","","","","","NA"
"-52.94","48.17","GRATES COVE","840B053","2021-08-29 20:30","2021","08","29","20:30","11.1","","","M","","M","","","1","","36","","","","100.55","","","","","","NA"
"-52.94","48.17","GRATES COVE","840B053","2021-08-29 21:30","2021","08","29","21:30","10.9","","","M","","M","","","36","","37","","","","100.53","","","","","","NA"
"-52.94","48.17","GRATES COVE","840B053","2021-08-29 22:30","2021","08","29","22:30","11.0","","","M","","M","","","36","","39","","","","100.48","","","","","","NA"
"-52.94","48.17","GRATES COVE","840B053","2021-08-29 23:30","2021","08","29","23:30","11.5","","","M","","M","","","1","","34","","","","100.48","","","","","","NA"
"-52.94","48.17","GRATES COVE","840B053","2021-08-30 00:30","2021","08","30","00:30","11.6","","","M","","M","","","2","","21","","","","100.48","","","","","","NA"
"-52.94","48.17","GRATES COVE","840B053","2021-08-30 01:30","2021","08","30","01:30","11.6","","","M","","M","","","1","","24","","","","100.50","","","","","","NA"
"-52.94","48.17","GRATES COVE","840B053","2021-08-30 02:30","2021","08","30","02:30","11.4","","","M","","M","","","1","","25","","","","100.51","","","","","","NA"
"-52.94","48.17","GRATES COVE","840B053","2021-08-30 03:30","2021","08","30","03:30","11.4","","","M","","M","","","1","","28","","","","100.53","","","","","","NA"
"-52.94","48.17","GRATES COVE","840B053","2021-08-30 04:30","2021","08","30","04:30","11.3","","","M","","M","","","1","","28","","","","100.55","","","","","","NA"
"-52.94","48.17","GRATES COVE","840B053","2021-08-30 05:30","2021","08","30","05:30","11.0","","","M","","M","","","36","","27","","","","100.59","","","","","","NA"
"-52.94","48.17","GRATES COVE","840B053","2021-08-30 06:30","2021","08","30","06:30","10.9","","","M","","M","","","36","","29","","","","100.59","","","","","","NA"
"-52.94","48.17","GRATES COVE","840B053","2021-08-30 07:30","2021","08","30","07:30","10.9","","","M","","M","","","36","","27","","","","100.59","","","","","","NA"
"-52.94","48.17","GRATES COVE","840B053","2021-08-30 08:30","2021","08","30","08:30","11.4","","","M","","M","","","36","","27","","","","100.60","","","","","","NA"
"-52.94","48.17","GRATES COVE","840B053","2021-08-30 09:30","2021","08","30","09:30","11.6","","","M","","M","","","1","","21","","","","100.59","","","","","","NA"
"-52.94","48.17","GRATES COVE","840B053","2021-08-30 10:30","2021","08","30","10:30","12.0","","","M","","M","","","1","","28","","","","100.59","","","","","","NA"
"-52.94","48.17","GRATES COVE","840B053","2021-08-30 11:30","2021","08","30","11:30","12.5","","","M","","M","","","36","","24","","","","100.58","","","","","","NA"
"-52.94","48.17","GRATES COVE","840B053","2021-08-30 12:30","2021","08","30","12:30","13.0","","","M","","M","","","1","","13","","","","100.57","","","","","","NA"
"-52.94","48.17","GRATES COVE","840B053","2021-08-30 13:30","2021","08","30","13:30","13.3","","","M","","M","","","1","","13","","","","100.54","","","","","","NA"
"-52.94","48.17","GRATES COVE","840B053","2021-08-30 14:30","2021","08","30","14:30","13.7","","","M","","M","","","36","","16","","","","100.51","","","","","","NA"
"-52.94","48.17","GRATES COVE","840B053","2021-08-30 15:30","2021","08","30","15:30","14.1","","","M","","M","","","36","","16","","","","100.47","","","","","","NA"
"-52.94","48.17","GRATES COVE","840B053","2021-08-30 16:30","2021","08","30","16:30","12.9","","","M","","M","","","2","","17","","","","100.48","","","","","","NA"
"-52.94","48.17","GRATES COVE","840B053","2021-08-30 17:30","2021","08","30","17:30","12.8","","","M","","M","","","3","","21","","","","100.46","","","","","","NA"
"-52.94","48.17","GRATES COVE","840B053","2021-08-30 18:30","2021","08","30","18:30","12.3","","","M","","M","","","2","","17","","","","100.48","","","","","","NA"
"-52.94","48.17","GRATES COVE","840B053","2021-08-30 19:30","2021","08","30","19:30","11.8","","","M","","M","","","2","","14","","","","100.51","","","","","","NA"
"-52.94","48.17","GRATES COVE","840B053","2021-08-30 20:30","2021","08","30","20:30","11.4","","","M","","M","","","3","","10","","","","100.53","","","","","","NA"
"-52.94","48.17","GRATES COVE","840B053","2021-08-30 21:30","2021","08","30","21:30","10.9","","","M","","M","","","2","","8","","","","100.52","","","","","","NA"
"-52.94","48.17","GRATES COVE","840B053","2021-08-30 22:30","2021","08","30","22:30","10.8","","","M","","M","","","3","","5","","","","100.50","","","","","","NA"
"-52.94","48.17","GRATES COVE","840B053","2021-08-30 23:30","2021","08","30","23:30","10.4","","","M","","M","","","1","","5","","","","100.48","","","","","","NA"
"-52.94","48.17","GRATES COVE","840B053","2021-08-31 00:30","2021","08","31","00:30","10.6","","","M","","M","","","2","","5","","","","100.47","","","","","","NA"
"-52.94","48.17","GRATES COVE","840B053","2021-08-31 01:30","2021","08","31","01:30","10.0","","","M","","M","","","4","","13","","","","100.43","","","","","","NA"
"-52.94","48.17","GRATES COVE","840B053","2021-08-31 02:30","2021","08","31","02:30","9.8","","","M","","M","","","4","","12","","","","100.43","","","","","","NA"
"-52.94","48.17","GRATES COVE","840B053","2021-08-31 03:30","2021","08","31","03:30","9.3","","","M","","M","","","8","","8","","","","100.38","","","","","","NA"
"-52.94","48.17","GRATES COVE","840B053","2021-08-31 04:30","2021","08","31","04:30","9.3","","","M","","M","","","10","","7","","","","100.38","","","","","","NA"
"-52.94","48.17","GRATES COVE","840B053","2021-08-31 05:30","2021","08","31","05:30","8.7","","","M","","M","","","15","","2","","","","100.42","","","","","","NA"
"-52.94","48.17","GRATES COVE","840B053","2021-08-31 06:30","2021","08","31","06:30","11.1","","","M","","M","","","11","","8","","","","100.39","","","","","","NA"
"-52.94","48.17","GRATES COVE","840B053","2021-08-31 07:30","2021","08","31","07:30","10.7","","","M","","M","","","14","","12","","","","100.32","","","","","","NA"
"-52.94","48.17","GRATES COVE","840B053","2021-08-31 08:30","2021","08","31","08:30","11.3","","","M","","M","","","13","","10","","","","100.32","","","","","","NA"
"-52.94","48.17","GRATES COVE","840B053","2021-08-31 09:30","2021","08","31","09:30","11.6","","","M","","M","","","15","","13","","","","100.29","","","","","","NA"
"-52.94","48.17","GRATES COVE","840B053","2021-08-31 10:30","2021","08","31","10:30","11.4","","","M","","M","","","13","","10","","","","100.25","","","","","","NA"
"-52.94","48.17","GRATES COVE","840B053","2021-08-31 11:30","2021","08","31","11:30","11.3","","","M","","M","","","11","","14","","","","100.18","","","","","","NA"
"-52.94","48.17","GRATES COVE","840B053","2021-08-31 12:30","2021","08","31","12:30","11.6","","","M","","M","","","11","","11","","","","100.12","","","","","","NA"
"-52.94","48.17","GRATES COVE","840B053","2021-08-31 13:30","2021","08","31","13:30","12.0","","","M","","M","","","14","","23","","","","100.02","","","","","","NA"
"-52.94","48.17","GRATES COVE","840B053","2021-08-31 14:30","2021","08","31","14:30","12.6","","","M","","M","","","12","","17","","","","99.95","","","","","","NA"
"-52.94","48.17","GRATES COVE","840B053","2021-08-31 15:30","2021","08","31","15:30","12.8","","","M","","M","","","13","","22","","","","99.92","","","","","","NA"
"-52.94","48.17","GRATES COVE","840B053","2021-08-31 16:30","2021","08","31","16:30","13.1","","","M","","M","","","13","","15","","","","99.93","","","","","","NA"
"-52.94","48.17","GRATES COVE","840B053","2021-08-31 17:30","2021","08","31","17:30","13.0","","","M","","M","","","13","","16","","","","99.92","","","","","","NA"
"-52.94","48.17","GRATES COVE","840B053","2021-08-31 18:30","2021","08","31","18:30","13.0","","","M","","M","","","13","","19","","","","99.94","","","","","","NA"
"-52.94","48.17","GRATES COVE","840B053","2021-08-31 19:30","2021","08","31","19:30","12.9","","","M","","M","","","16","","21","","","","99.94","","","","","","NA"
"-52.94","48.17","GRATES COVE","840B053","2021-08-31 20:30","2021","08","31","20:30","13.0","","","M","","M","","","17","","21","","","","99.98","","","","","","NA"
"-52.94","48.17","GRATES COVE","840B053","2021-08-31 21:30","2021","08","31","21:30","13.1","","","M","","M","","","16","","21","","","","99.94","","","","","","NA"
"-52.94","48.17","GRATES COVE","840B053","2021-08-31 22:30","2021","08","31","22:30","13.2","","","M","","M","","","15","","20","","","","99.91","","","","","","NA"
"-52.94","48.17","GRATES COVE","840B053","2021-08-31 23:30","2021","08","31","23:30","13.0","","","M","","M","","","13","","7","","","","99.97","","","","","","NA"
