"Longitude (x)","Latitude (y)","Station Name","Climate ID","Date/Time (LST)","Year","Month","Day","Time (LST)","Temp (°C)","Temp Flag","Dew Point Temp (°C)","Dew Point Temp Flag","Rel Hum (%)","Rel Hum Flag","Precip. Amount (mm)","Precip. Amount Flag","Wind Dir (10s deg)","Wind Dir Flag","Wind Spd (km/h)","Wind Spd Flag","Visibility (km)","Visibility Flag","Stn Press (kPa)","Stn Press Flag","Hmdx","Hmdx Flag","Wind Chill","Wind Chill Flag","Weather"
"-61.70","49.09","HEATH POINT","7053038","2020-03-01 00:00","2020","03","01","00:00","-6.2","","","M","","M","","M","28","","10","","","","100.98","","","","-11","","NA"
"-61.70","49.09","HEATH POINT","7053038","2020-03-01 01:00","2020","03","01","01:00","-4.2","","","M","","M","","M","12","","11","","","","100.99","","","","-9","","NA"
"-61.70","49.09","HEATH POINT","7053038","2020-03-01 02:00","2020","03","01","02:00","-5.4","","","M","","M","","M","3","","5","","","","100.99","","","","-8","","NA"
"-61.70","49.09","HEATH POINT","7053038","2020-03-01 03:00","2020","03","01","03:00","-5.9","","","M","","M","","M","2","","10","","","","101.00","","","","-10","","NA"
"-61.70","49.09","HEATH POINT","7053038","2020-03-01 04:00","2020","03","01","04:00","-6.8","","","M","","M","","M","1","","14","","","","101.00","","","","-13","","NA"
"-61.70","49.09","HEATH POINT","7053038","2020-03-01 05:00","2020","03","01","05:00","-6.0","","","M","","M","","M","1","","17","","","","100.99","","","","-12","","NA"
"-61.70","49.09","HEATH POINT","7053038","2020-03-01 06:00","2020","03","01","06:00","-4.2","","","M","","M","","M","4","","22","","","","101.00","","","","-11","","NA"
"-61.70","49.09","HEATH POINT","7053038","2020-03-01 07:00","2020","03","01","07:00","-4.1","","","M","","M","","M","3","","23","","","","101.00","","","","-11","","NA"
"-61.70","49.09","HEATH POINT","7053038","2020-03-01 08:00","2020","03","01","08:00","-3.9","","","M","","M","","M","4","","25","","","","101.03","","","","-11","","NA"
"-61.70","49.09","HEATH POINT","7053038","2020-03-01 09:00","2020","03","01","09:00","-3.6","","","M","","M","","M","4","","28","","","","101.04","","","","-11","","NA"
"-61.70","49.09","HEATH POINT","7053038","2020-03-01 10:00","2020","03","01","10:00","-3.6","","","M","","M","","M","4","","31","","","","101.02","","","","-11","","NA"
"-61.70","49.09","HEATH POINT","7053038","2020-03-01 11:00","2020","03","01","11:00","-3.6","","","M","","M","","M","4","","31","","","","101.00","","","","-11","","NA"
"-61.70","49.09","HEATH POINT","7053038","2020-03-01 12:00","2020","03","01","12:00","-3.9","","","M","","M","","M","4","","32","","","","100.98","","","","-12","","NA"
"-61.70","49.09","HEATH POINT","7053038","2020-03-01 13:00","2020","03","01","13:00","-3.8","","","M","","M","","M","4","","31","","","","100.98","","","","-12","","NA"
"-61.70","49.09","HEATH POINT","7053038","2020-03-01 14:00","2020","03","01","14:00","-3.5","","","M","","M","","M","4","","31","","","","100.98","","","","-11","","NA"
"-61.70","49.09","HEATH POINT","7053038","2020-03-01 15:00","2020","03","01","15:00","-4.2","","","M","","M","","M","4","","34","","","","100.99","","","","-12","","NA"
"-61.70","49.09","HEATH POINT","7053038","2020-03-01 16:00","2020","03","01","16:00","-4.5","","","M","","M","","M","4","","31","","","","101.03","","","","-12","","NA"
"-61.70","49.09","HEATH POINT","7053038","2020-03-01 17:00","2020","03","01","17:00","-4.6","","","M","","M","","M","3","","31","","","","101.09","","","","-13","","NA"
"-61.70","49.09","HEATH POINT","7053038","2020-03-01 18:00","2020","03","01","18:00","-5.0","","","M","","M","","M","3","","32","","","","101.16","","","","-13","","NA"
"-61.70","49.09","HEATH POINT","7053038","2020-03-01 19:00","2020","03","01","19:00","-5.2","","","M","","M","","M","3","","32","","","","101.25","","","","-13","","NA"
"-61.70","49.09","HEATH POINT","7053038","2020-03-01 20:00","2020","03","01","20:00","-5.1","","","M","","M","","M","4","","29","","","","101.28","","","","-13","","NA"
"-61.70","49.09","HEATH POINT","7053038","2020-03-01 21:00","2020","03","01","21:00","-5.4","","","M","","M","","M","3","","18","","","","101.35","","","","-12","","NA"
"-61.70","49.09","HEATH POINT","7053038","2020-03-01 22:00","2020","03","01","22:00","-5.3","","","M","","M","","M","3","","20","","","","101.34","","","","-12","","NA"
"-61.70","49.09","HEATH POINT","7053038","2020-03-01 23:00","2020","03","01","23:00","-5.8","","","M","","M","","M","2","","18","","","","101.35","","","","-12","","NA"
"-61.70","49.09","HEATH POINT","7053038","2020-03-02 00:00","2020","03","02","00:00","-6.2","","","M","","M","","M","36","","13","","","","101.37","","","","-12","","NA"
"-61.70","49.09","HEATH POINT","7053038","2020-03-02 01:00","2020","03","02","01:00","-6.4","","","M","","M","","M","35","","14","","","","101.42","","","","-12","","NA"
"-61.70","49.09","HEATH POINT","7053038","2020-03-02 02:00","2020","03","02","02:00","-7.6","","","M","","M","","M","34","","13","","","","101.43","","","","-13","","NA"
"-61.70","49.09","HEATH POINT","7053038","2020-03-02 03:00","2020","03","02","03:00","-8.7","","","M","","M","","M","32","","16","","","","101.49","","","","-15","","NA"
"-61.70","49.09","HEATH POINT","7053038","2020-03-02 04:00","2020","03","02","04:00","-8.3","","","M","","M","","M","32","","18","","","","101.54","","","","-15","","NA"
"-61.70","49.09","HEATH POINT","7053038","2020-03-02 05:00","2020","03","02","05:00","-8.2","","","M","","M","","M","33","","15","","","","101.55","","","","-15","","NA"
"-61.70","49.09","HEATH POINT","7053038","2020-03-02 06:00","2020","03","02","06:00","-8.1","","","M","","M","","M","35","","11","","","","101.59","","","","-13","","NA"
"-61.70","49.09","HEATH POINT","7053038","2020-03-02 07:00","2020","03","02","07:00","-8.3","","","M","","M","","M","33","","12","","","","101.65","","","","-14","","NA"
"-61.70","49.09","HEATH POINT","7053038","2020-03-02 08:00","2020","03","02","08:00","-6.7","","","M","","M","","M","31","","3","","","","101.68","","","","-8","","NA"
"-61.70","49.09","HEATH POINT","7053038","2020-03-02 09:00","2020","03","02","09:00","-3.7","","","M","","M","","M","26","","2","","","","101.70","","","","-5","","NA"
"-61.70","49.09","HEATH POINT","7053038","2020-03-02 10:00","2020","03","02","10:00","-3.9","","","M","","M","","M","21","","8","","","","101.71","","","","-7","","NA"
"-61.70","49.09","HEATH POINT","7053038","2020-03-02 11:00","2020","03","02","11:00","-3.7","","","M","","M","","M","20","","13","","","","101.69","","","","-9","","NA"
"-61.70","49.09","HEATH POINT","7053038","2020-03-02 12:00","2020","03","02","12:00","-3.8","","","M","","M","","M","22","","18","","","","101.63","","","","-10","","NA"
"-61.70","49.09","HEATH POINT","7053038","2020-03-02 13:00","2020","03","02","13:00","-3.6","","","M","","M","","M","21","","21","","","","101.61","","","","-10","","NA"
"-61.70","49.09","HEATH POINT","7053038","2020-03-02 14:00","2020","03","02","14:00","-3.5","","","M","","M","","M","21","","24","","","","101.58","","","","-10","","NA"
"-61.70","49.09","HEATH POINT","7053038","2020-03-02 15:00","2020","03","02","15:00","-3.5","","","M","","M","","M","21","","24","","","","101.57","","","","-10","","NA"
"-61.70","49.09","HEATH POINT","7053038","2020-03-02 16:00","2020","03","02","16:00","-3.6","","","M","","M","","M","21","","26","","","","101.57","","","","-11","","NA"
"-61.70","49.09","HEATH POINT","7053038","2020-03-02 17:00","2020","03","02","17:00","-3.6","","","M","","M","","M","19","","26","","","","101.54","","","","-11","","NA"
"-61.70","49.09","HEATH POINT","7053038","2020-03-02 18:00","2020","03","02","18:00","-3.6","","","M","","M","","M","18","","31","","","","101.46","","","","-11","","NA"
"-61.70","49.09","HEATH POINT","7053038","2020-03-02 19:00","2020","03","02","19:00","-3.7","","","M","","M","","M","18","","36","","","","101.44","","","","-12","","NA"
"-61.70","49.09","HEATH POINT","7053038","2020-03-02 20:00","2020","03","02","20:00","-3.8","","","M","","M","","M","18","","39","","","","101.39","","","","-12","","NA"
"-61.70","49.09","HEATH POINT","7053038","2020-03-02 21:00","2020","03","02","21:00","-3.4","","","M","","M","","M","17","","45","","","","101.23","","","","-12","","NA"
"-61.70","49.09","HEATH POINT","7053038","2020-03-02 22:00","2020","03","02","22:00","-3.1","","","M","","M","","M","18","","44","","","","101.15","","","","-12","","NA"
"-61.70","49.09","HEATH POINT","7053038","2020-03-02 23:00","2020","03","02","23:00","-3.0","","","M","","M","","M","17","","45","","","","101.04","","","","-12","","NA"
"-61.70","49.09","HEATH POINT","7053038","2020-03-03 00:00","2020","03","03","00:00","-2.9","","","M","","M","","M","18","","51","","","","100.93","","","","-12","","NA"
"-61.70","49.09","HEATH POINT","7053038","2020-03-03 01:00","2020","03","03","01:00","-2.9","","","M","","M","","M","18","","46","","","","100.76","","","","-12","","NA"
"-61.70","49.09","HEATH POINT","7053038","2020-03-03 02:00","2020","03","03","02:00","-2.7","","","M","","M","","M","18","","47","","","","100.63","","","","-12","","NA"
"-61.70","49.09","HEATH POINT","7053038","2020-03-03 03:00","2020","03","03","03:00","-2.4","","","M","","M","","M","19","","45","","","","100.53","","","","-11","","NA"
"-61.70","49.09","HEATH POINT","7053038","2020-03-03 04:00","2020","03","03","04:00","-2.3","","","M","","M","","M","19","","46","","","","100.44","","","","-11","","NA"
"-61.70","49.09","HEATH POINT","7053038","2020-03-03 05:00","2020","03","03","05:00","-2.2","","","M","","M","","M","19","","42","","","","100.36","","","","-11","","NA"
"-61.70","49.09","HEATH POINT","7053038","2020-03-03 06:00","2020","03","03","06:00","-1.9","","","M","","M","","M","20","","39","","","","100.27","","","","-10","","NA"
"-61.70","49.09","HEATH POINT","7053038","2020-03-03 07:00","2020","03","03","07:00","-1.7","","","M","","M","","M","21","","36","","","","100.27","","","","-9","","NA"
"-61.70","49.09","HEATH POINT","7053038","2020-03-03 08:00","2020","03","03","08:00","-1.5","","","M","","M","","M","23","","30","","","","100.27","","","","-8","","NA"
"-61.70","49.09","HEATH POINT","7053038","2020-03-03 09:00","2020","03","03","09:00","-1.4","","","M","","M","","M","26","","33","","","","100.30","","","","-9","","NA"
"-61.70","49.09","HEATH POINT","7053038","2020-03-03 10:00","2020","03","03","10:00","-1.4","","","M","","M","","M","25","","22","","","","100.30","","","","-7","","NA"
"-61.70","49.09","HEATH POINT","7053038","2020-03-03 11:00","2020","03","03","11:00","-1.6","","","M","","M","","M","23","","21","","","","100.30","","","","-7","","NA"
"-61.70","49.09","HEATH POINT","7053038","2020-03-03 12:00","2020","03","03","12:00","-1.5","","","M","","M","","M","24","","20","","","","100.30","","","","-7","","NA"
"-61.70","49.09","HEATH POINT","7053038","2020-03-03 13:00","2020","03","03","13:00","-1.5","","","M","","M","","M","23","","20","","","","100.33","","","","-7","","NA"
"-61.70","49.09","HEATH POINT","7053038","2020-03-03 14:00","2020","03","03","14:00","-1.3","","","M","","M","","M","24","","21","","","","100.37","","","","-7","","NA"
"-61.70","49.09","HEATH POINT","7053038","2020-03-03 15:00","2020","03","03","15:00","-1.2","","","M","","M","","M","25","","20","","","","100.40","","","","-7","","NA"
"-61.70","49.09","HEATH POINT","7053038","2020-03-03 16:00","2020","03","03","16:00","-1.6","","","M","","M","","M","25","","16","","","","100.41","","","","-7","","NA"
"-61.70","49.09","HEATH POINT","7053038","2020-03-03 17:00","2020","03","03","17:00","-2.0","","","M","","M","","M","23","","10","","","","100.52","","","","-6","","NA"
"-61.70","49.09","HEATH POINT","7053038","2020-03-03 18:00","2020","03","03","18:00","-2.4","","","M","","M","","M","23","","11","","","","100.57","","","","-6","","NA"
"-61.70","49.09","HEATH POINT","7053038","2020-03-03 19:00","2020","03","03","19:00","-3.3","","","M","","M","","M","24","","10","","","","100.63","","","","-7","","NA"
"-61.70","49.09","HEATH POINT","7053038","2020-03-03 20:00","2020","03","03","20:00","-3.2","","","M","","M","","M","23","","13","","","","100.66","","","","-8","","NA"
"-61.70","49.09","HEATH POINT","7053038","2020-03-03 21:00","2020","03","03","21:00","-4.2","","","M","","M","","M","24","","9","","","","100.67","","","","-8","","NA"
"-61.70","49.09","HEATH POINT","7053038","2020-03-03 22:00","2020","03","03","22:00","-3.2","","","M","","M","","M","21","","13","","","","100.69","","","","-8","","NA"
"-61.70","49.09","HEATH POINT","7053038","2020-03-03 23:00","2020","03","03","23:00","-4.0","","","M","","M","","M","22","","14","","","","100.72","","","","-9","","NA"
"-61.70","49.09","HEATH POINT","7053038","2020-03-04 00:00","2020","03","04","00:00","-4.4","","","M","","M","","M","23","","7","","","","100.61","","","","-8","","NA"
"-61.70","49.09","HEATH POINT","7053038","2020-03-04 01:00","2020","03","04","01:00","-4.3","","","M","","M","","M","19","","6","","","","100.60","","","","-7","","NA"
"-61.70","49.09","HEATH POINT","7053038","2020-03-04 02:00","2020","03","04","02:00","-4.5","","","M","","M","","M","14","","7","","","","100.52","","","","-8","","NA"
"-61.70","49.09","HEATH POINT","7053038","2020-03-04 03:00","2020","03","04","03:00","-5.0","","","M","","M","","M","9","","11","","","","100.40","","","","-10","","NA"
"-61.70","49.09","HEATH POINT","7053038","2020-03-04 04:00","2020","03","04","04:00","-4.6","","","M","","M","","M","10","","16","","","","100.32","","","","-10","","NA"
"-61.70","49.09","HEATH POINT","7053038","2020-03-04 05:00","2020","03","04","05:00","-3.9","","","M","","M","","M","11","","17","","","","100.30","","","","-10","","NA"
"-61.70","49.09","HEATH POINT","7053038","2020-03-04 06:00","2020","03","04","06:00","-3.5","","","M","","M","","M","8","","26","","","","100.05","","","","-11","","NA"
"-61.70","49.09","HEATH POINT","7053038","2020-03-04 07:00","2020","03","04","07:00","-2.9","","","M","","M","","M","8","","27","","","","99.94","","","","-10","","NA"
"-61.70","49.09","HEATH POINT","7053038","2020-03-04 08:00","2020","03","04","08:00","-2.4","","","M","","M","","M","8","","32","","","","99.76","","","","-10","","NA"
"-61.70","49.09","HEATH POINT","7053038","2020-03-04 09:00","2020","03","04","09:00","-2.0","","","M","","M","","M","6","","36","","","","99.49","","","","-10","","NA"
"-61.70","49.09","HEATH POINT","7053038","2020-03-04 10:00","2020","03","04","10:00","-2.2","","","M","","M","","M","6","","48","","","","99.11","","","","-11","","NA"
"-61.70","49.09","HEATH POINT","7053038","2020-03-04 11:00","2020","03","04","11:00","-2.0","","","M","","M","","M","6","","47","","","","98.74","","","","-11","","NA"
"-61.70","49.09","HEATH POINT","7053038","2020-03-04 12:00","2020","03","04","12:00","-1.9","","","M","","M","","M","5","","57","","","","98.30","","","","-11","","NA"
"-61.70","49.09","HEATH POINT","7053038","2020-03-04 13:00","2020","03","04","13:00","-1.7","","","M","","M","","M","6","","33","","","","98.04","","","","-9","","NA"
"-61.70","49.09","HEATH POINT","7053038","2020-03-04 14:00","2020","03","04","14:00","-1.5","","","M","","M","","M","5","","9","","","","97.79","","","","-5","","NA"
"-61.70","49.09","HEATH POINT","7053038","2020-03-04 15:00","2020","03","04","15:00","-1.3","","","M","","M","","M","5","","3","","","","97.59","","","","-2","","NA"
"-61.70","49.09","HEATH POINT","7053038","2020-03-04 16:00","2020","03","04","16:00","-1.2","","","M","","M","","M","5","","2","","","","97.47","","","","-2","","NA"
"-61.70","49.09","HEATH POINT","7053038","2020-03-04 17:00","2020","03","04","17:00","-1.2","","","M","","M","","M","4","","1","","","","97.36","","","","-2","","NA"
"-61.70","49.09","HEATH POINT","7053038","2020-03-04 18:00","2020","03","04","18:00","-1.4","","","M","","M","","M","4","","1","","","","97.25","","","","-2","","NA"
"-61.70","49.09","HEATH POINT","7053038","2020-03-04 19:00","2020","03","04","19:00","-1.6","","","M","","M","","M","3","","1","","","","97.18","","","","-2","","NA"
"-61.70","49.09","HEATH POINT","7053038","2020-03-04 20:00","2020","03","04","20:00","-1.9","","","M","","M","","M","3","","1","","","","97.17","","","","-2","","NA"
"-61.70","49.09","HEATH POINT","7053038","2020-03-04 21:00","2020","03","04","21:00","-2.1","","","M","","M","","M","1","","2","","","","97.17","","","","-3","","NA"
"-61.70","49.09","HEATH POINT","7053038","2020-03-04 22:00","2020","03","04","22:00","-2.5","","","M","","M","","M","36","","2","","","","97.22","","","","-3","","NA"
"-61.70","49.09","HEATH POINT","7053038","2020-03-04 23:00","2020","03","04","23:00","-2.3","","","M","","M","","M","","","0","","","","97.42","","","","","","NA"
"-61.70","49.09","HEATH POINT","7053038","2020-03-05 00:00","2020","03","05","00:00","-2.2","","","M","","M","","M","","","0","","","","97.60","","","","","","NA"
"-61.70","49.09","HEATH POINT","7053038","2020-03-05 01:00","2020","03","05","01:00","-2.0","","","M","","M","","M","","","0","","","","97.71","","","","","","NA"
"-61.70","49.09","HEATH POINT","7053038","2020-03-05 02:00","2020","03","05","02:00","-2.3","","","M","","M","","M","","","0","","","","97.83","","","","","","NA"
"-61.70","49.09","HEATH POINT","7053038","2020-03-05 03:00","2020","03","05","03:00","-2.5","","","M","","M","","M","","","0","","","","97.96","","","","","","NA"
"-61.70","49.09","HEATH POINT","7053038","2020-03-05 04:00","2020","03","05","04:00","-2.7","","","M","","M","","M","","","0","","","","98.10","","","","","","NA"
"-61.70","49.09","HEATH POINT","7053038","2020-03-05 05:00","2020","03","05","05:00","-3.0","","","M","","M","","M","0","","1","","","","98.23","","","","-3","","NA"
"-61.70","49.09","HEATH POINT","7053038","2020-03-05 06:00","2020","03","05","06:00","-3.2","","","M","","M","","M","31","","1","","","","98.37","","","","-4","","NA"
"-61.70","49.09","HEATH POINT","7053038","2020-03-05 07:00","2020","03","05","07:00","-3.0","","","M","","M","","M","0","","1","","","","98.52","","","","-3","","NA"
"-61.70","49.09","HEATH POINT","7053038","2020-03-05 08:00","2020","03","05","08:00","-2.8","","","M","","M","","M","31","","2","","","","98.65","","","","-4","","NA"
"-61.70","49.09","HEATH POINT","7053038","2020-03-05 09:00","2020","03","05","09:00","-3.0","","","M","","M","","M","32","","2","","","","98.79","","","","-4","","NA"
"-61.70","49.09","HEATH POINT","7053038","2020-03-05 10:00","2020","03","05","10:00","-2.8","","","M","","M","","M","32","","2","","","","98.90","","","","-4","","NA"
"-61.70","49.09","HEATH POINT","7053038","2020-03-05 11:00","2020","03","05","11:00","-2.5","","","M","","M","","M","32","","2","","","","98.99","","","","-3","","NA"
"-61.70","49.09","HEATH POINT","7053038","2020-03-05 12:00","2020","03","05","12:00","-2.0","","","M","","M","","M","32","","20","","","","99.03","","","","-8","","NA"
"-61.70","49.09","HEATH POINT","7053038","2020-03-05 13:00","2020","03","05","13:00","-2.2","","","M","","M","","M","31","","49","","","","99.16","","","","-11","","NA"
"-61.70","49.09","HEATH POINT","7053038","2020-03-05 14:00","2020","03","05","14:00","-1.6","","","M","","M","","M","31","","45","","","","99.29","","","","-10","","NA"
"-61.70","49.09","HEATH POINT","7053038","2020-03-05 15:00","2020","03","05","15:00","-1.3","","","M","","M","","M","30","","38","","","","99.45","","","","-9","","NA"
"-61.70","49.09","HEATH POINT","7053038","2020-03-05 16:00","2020","03","05","16:00","-1.7","","","M","","M","","M","30","","41","","","","99.58","","","","-10","","NA"
"-61.70","49.09","HEATH POINT","7053038","2020-03-05 17:00","2020","03","05","17:00","-1.9","","","M","","M","","M","30","","36","","","","99.76","","","","-10","","NA"
"-61.70","49.09","HEATH POINT","7053038","2020-03-05 18:00","2020","03","05","18:00","-2.3","","","M","","M","","M","30","","35","","","","99.89","","","","-10","","NA"
"-61.70","49.09","HEATH POINT","7053038","2020-03-05 19:00","2020","03","05","19:00","-2.6","","","M","","M","","M","31","","33","","","","100.03","","","","-10","","NA"
"-61.70","49.09","HEATH POINT","7053038","2020-03-05 20:00","2020","03","05","20:00","-2.9","","","M","","M","","M","31","","44","","","","100.13","","","","-12","","NA"
"-61.70","49.09","HEATH POINT","7053038","2020-03-05 21:00","2020","03","05","21:00","-3.6","","","M","","M","","M","31","","44","","","","100.23","","","","-13","","NA"
"-61.70","49.09","HEATH POINT","7053038","2020-03-05 22:00","2020","03","05","22:00","-4.5","","","M","","M","","M","32","","44","","","","100.33","","","","-14","","NA"
"-61.70","49.09","HEATH POINT","7053038","2020-03-05 23:00","2020","03","05","23:00","-5.1","","","M","","M","","M","31","","35","","","","100.45","","","","-14","","NA"
"-61.70","49.09","HEATH POINT","7053038","2020-03-06 00:00","2020","03","06","00:00","-5.5","","","M","","M","","M","32","","33","","","","100.54","","","","-14","","NA"
"-61.70","49.09","HEATH POINT","7053038","2020-03-06 01:00","2020","03","06","01:00","-6.3","","","M","","M","","M","32","","34","","","","100.59","","","","-15","","NA"
"-61.70","49.09","HEATH POINT","7053038","2020-03-06 02:00","2020","03","06","02:00","-7.2","","","M","","M","","M","30","","26","","","","100.76","","","","-15","","NA"
"-61.70","49.09","HEATH POINT","7053038","2020-03-06 03:00","2020","03","06","03:00","-8.6","","","M","","M","","M","27","","16","","","","100.85","","","","-15","","NA"
"-61.70","49.09","HEATH POINT","7053038","2020-03-06 04:00","2020","03","06","04:00","-10.1","","","M","","M","","M","29","","18","","","","100.92","","","","-18","","NA"
"-61.70","49.09","HEATH POINT","7053038","2020-03-06 05:00","2020","03","06","05:00","-9.7","","","M","","M","","M","27","","23","","","","101.04","","","","-18","","NA"
"-61.70","49.09","HEATH POINT","7053038","2020-03-06 06:00","2020","03","06","06:00","-10.7","","","M","","M","","M","28","","21","","","","101.16","","","","-19","","NA"
"-61.70","49.09","HEATH POINT","7053038","2020-03-06 07:00","2020","03","06","07:00","-9.7","","","M","","M","","M","30","","23","","","","101.19","","","","-18","","NA"
"-61.70","49.09","HEATH POINT","7053038","2020-03-06 08:00","2020","03","06","08:00","-8.4","","","M","","M","","M","31","","32","","","","101.26","","","","-18","","NA"
"-61.70","49.09","HEATH POINT","7053038","2020-03-06 09:00","2020","03","06","09:00","-7.1","","","M","","M","","M","31","","36","","","","101.28","","","","-16","","NA"
"-61.70","49.09","HEATH POINT","7053038","2020-03-06 10:00","2020","03","06","10:00","-6.1","","","M","","M","","M","31","","25","","","","101.31","","","","-14","","NA"
"-61.70","49.09","HEATH POINT","7053038","2020-03-06 11:00","2020","03","06","11:00","-5.8","","","M","","M","","M","31","","34","","","","101.34","","","","-15","","NA"
"-61.70","49.09","HEATH POINT","7053038","2020-03-06 12:00","2020","03","06","12:00","-5.4","","","M","","M","","M","28","","32","","","","101.36","","","","-14","","NA"
"-61.70","49.09","HEATH POINT","7053038","2020-03-06 13:00","2020","03","06","13:00","-5.3","","","M","","M","","M","30","","33","","","","101.36","","","","-14","","NA"
"-61.70","49.09","HEATH POINT","7053038","2020-03-06 14:00","2020","03","06","14:00","-5.5","","","M","","M","","M","29","","34","","","","101.40","","","","-14","","NA"
"-61.70","49.09","HEATH POINT","7053038","2020-03-06 15:00","2020","03","06","15:00","-6.0","","","M","","M","","M","32","","26","","","","101.49","","","","-14","","NA"
"-61.70","49.09","HEATH POINT","7053038","2020-03-06 16:00","2020","03","06","16:00","-6.1","","","M","","M","","M","30","","27","","","","101.57","","","","-14","","NA"
"-61.70","49.09","HEATH POINT","7053038","2020-03-06 17:00","2020","03","06","17:00","-7.1","","","M","","M","","M","28","","20","","","","101.66","","","","-14","","NA"
"-61.70","49.09","HEATH POINT","7053038","2020-03-06 18:00","2020","03","06","18:00","-8.1","","","M","","M","","M","28","","23","","","","101.72","","","","-16","","NA"
"-61.70","49.09","HEATH POINT","7053038","2020-03-06 19:00","2020","03","06","19:00","-9.7","","","M","","M","","M","29","","21","","","","101.79","","","","-18","","NA"
"-61.70","49.09","HEATH POINT","7053038","2020-03-06 20:00","2020","03","06","20:00","-11.0","","","M","","M","","M","29","","14","","","","101.81","","","","-18","","NA"
"-61.70","49.09","HEATH POINT","7053038","2020-03-06 21:00","2020","03","06","21:00","-10.6","","","M","","M","","M","28","","14","","","","101.95","","","","-17","","NA"
"-61.70","49.09","HEATH POINT","7053038","2020-03-06 22:00","2020","03","06","22:00","-8.8","","","M","","M","","M","33","","23","","","","101.91","","","","-17","","NA"
"-61.70","49.09","HEATH POINT","7053038","2020-03-06 23:00","2020","03","06","23:00","-8.7","","","M","","M","","M","34","","19","","","","101.94","","","","-16","","NA"
"-61.70","49.09","HEATH POINT","7053038","2020-03-07 00:00","2020","03","07","00:00","-9.0","","","M","","M","","M","34","","22","","","","101.87","","","","-17","","NA"
"-61.70","49.09","HEATH POINT","7053038","2020-03-07 01:00","2020","03","07","01:00","-8.8","","","M","","M","","M","35","","27","","","","101.87","","","","-18","","NA"
"-61.70","49.09","HEATH POINT","7053038","2020-03-07 02:00","2020","03","07","02:00","-9.3","","","M","","M","","M","35","","31","","","","101.96","","","","-19","","NA"
"-61.70","49.09","HEATH POINT","7053038","2020-03-07 03:00","2020","03","07","03:00","-9.0","","","M","","M","","M","36","","31","","","","101.87","","","","-18","","NA"
"-61.70","49.09","HEATH POINT","7053038","2020-03-07 04:00","2020","03","07","04:00","-8.7","","","M","","M","","M","1","","39","","","","101.85","","","","-19","","NA"
"-61.70","49.09","HEATH POINT","7053038","2020-03-07 05:00","2020","03","07","05:00","-8.5","","","M","","M","","M","1","","39","","","","101.80","","","","-19","","NA"
"-61.70","49.09","HEATH POINT","7053038","2020-03-07 06:00","2020","03","07","06:00","-8.1","","","M","","M","","M","2","","43","","","","101.87","","","","-19","","NA"
"-61.70","49.09","HEATH POINT","7053038","2020-03-07 07:00","2020","03","07","07:00","-8.1","","","M","","M","","M","2","","41","","","","101.91","","","","-18","","NA"
"-61.70","49.09","HEATH POINT","7053038","2020-03-07 08:00","2020","03","07","08:00","-7.8","","","M","","M","","M","2","","42","","","","101.91","","","","-18","","NA"
"-61.70","49.09","HEATH POINT","7053038","2020-03-07 09:00","2020","03","07","09:00","-7.4","","","M","","M","","M","2","","39","","","","101.87","","","","-17","","NA"
"-61.70","49.09","HEATH POINT","7053038","2020-03-07 10:00","2020","03","07","10:00","-7.7","","","M","","M","","M","1","","46","","","","101.86","","","","-18","","NA"
"-61.70","49.09","HEATH POINT","7053038","2020-03-07 11:00","2020","03","07","11:00","-7.8","","","M","","M","","M","1","","45","","","","101.84","","","","-18","","NA"
"-61.70","49.09","HEATH POINT","7053038","2020-03-07 12:00","2020","03","07","12:00","-7.5","","","M","","M","","M","36","","49","","","","101.71","","","","-18","","NA"
"-61.70","49.09","HEATH POINT","7053038","2020-03-07 13:00","2020","03","07","13:00","-6.8","","","M","","M","","M","1","","47","","","","101.68","","","","-17","","NA"
"-61.70","49.09","HEATH POINT","7053038","2020-03-07 14:00","2020","03","07","14:00","-5.8","","","M","","M","","M","1","","41","","","","101.59","","","","-15","","NA"
"-61.70","49.09","HEATH POINT","7053038","2020-03-07 15:00","2020","03","07","15:00","-5.4","","","M","","M","","M","36","","40","","","","101.51","","","","-15","","NA"
"-61.70","49.09","HEATH POINT","7053038","2020-03-07 16:00","2020","03","07","16:00","-5.0","","","M","","M","","M","36","","36","","","","101.48","","","","-14","","NA"
"-61.70","49.09","HEATH POINT","7053038","2020-03-07 17:00","2020","03","07","17:00","-5.1","","","M","","M","","M","35","","28","","","","101.48","","","","-13","","NA"
"-61.70","49.09","HEATH POINT","7053038","2020-03-07 18:00","2020","03","07","18:00","-5.8","","","M","","M","","M","34","","27","","","","101.48","","","","-14","","NA"
"-61.70","49.09","HEATH POINT","7053038","2020-03-07 19:00","2020","03","07","19:00","-5.8","","","M","","M","","M","34","","26","","","","101.48","","","","-14","","NA"
"-61.70","49.09","HEATH POINT","7053038","2020-03-07 20:00","2020","03","07","20:00","-5.6","","","M","","M","","M","34","","27","","","","101.45","","","","-13","","NA"
"-61.70","49.09","HEATH POINT","7053038","2020-03-07 21:00","2020","03","07","21:00","-5.7","","","M","","M","","M","35","","27","","","","101.42","","","","-14","","NA"
"-61.70","49.09","HEATH POINT","7053038","2020-03-07 22:00","2020","03","07","22:00","-6.6","","","M","","M","","M","34","","18","","","","101.38","","","","-13","","NA"
"-61.70","49.09","HEATH POINT","7053038","2020-03-07 23:00","2020","03","07","23:00","-9.3","","","M","","M","","M","33","","16","","","","101.34","","","","-16","","NA"
"-61.70","49.09","HEATH POINT","7053038","2020-03-08 00:00","2020","03","08","00:00","-7.6","","","M","","M","","M","36","","20","","","","101.29","","","","-15","","NA"
"-61.70","49.09","HEATH POINT","7053038","2020-03-08 01:00","2020","03","08","01:00","-9.9","","","M","","M","","M","34","","14","","","","101.26","","","","-16","","NA"
"-61.70","49.09","HEATH POINT","7053038","2020-03-08 02:00","2020","03","08","02:00","-12.8","","","M","","M","","M","32","","14","","","","101.21","","","","-20","","NA"
"-61.70","49.09","HEATH POINT","7053038","2020-03-08 03:00","2020","03","08","03:00","-14.3","","","M","","M","","M","30","","19","","","","101.15","","","","-23","","NA"
"-61.70","49.09","HEATH POINT","7053038","2020-03-08 04:00","2020","03","08","04:00","-15.1","","","M","","M","","M","30","","19","","","","101.11","","","","-24","","NA"
"-61.70","49.09","HEATH POINT","7053038","2020-03-08 05:00","2020","03","08","05:00","-14.8","","","M","","M","","M","30","","21","","","","101.14","","","","-24","","NA"
"-61.70","49.09","HEATH POINT","7053038","2020-03-08 06:00","2020","03","08","06:00","-14.7","","","M","","M","","M","31","","18","","","","101.14","","","","-23","","NA"
"-61.70","49.09","HEATH POINT","7053038","2020-03-08 07:00","2020","03","08","07:00","-12.4","","","M","","M","","M","30","","14","","","","101.17","","","","-19","","NA"
"-61.70","49.09","HEATH POINT","7053038","2020-03-08 08:00","2020","03","08","08:00","-8.6","","","M","","M","","M","28","","8","","","","101.18","","","","-13","","NA"
"-61.70","49.09","HEATH POINT","7053038","2020-03-08 09:00","2020","03","08","09:00","-6.3","","","M","","M","","M","27","","14","","","","101.16","","","","-12","","NA"
"-61.70","49.09","HEATH POINT","7053038","2020-03-08 10:00","2020","03","08","10:00","-5.0","","","M","","M","","M","25","","21","","","","101.13","","","","-12","","NA"
"-61.70","49.09","HEATH POINT","7053038","2020-03-08 11:00","2020","03","08","11:00","-3.5","","","M","","M","","M","25","","31","","","","101.07","","","","-11","","NA"
"-61.70","49.09","HEATH POINT","7053038","2020-03-08 12:00","2020","03","08","12:00","-3.3","","","M","","M","","M","25","","36","","","","100.99","","","","-11","","NA"
"-61.70","49.09","HEATH POINT","7053038","2020-03-08 13:00","2020","03","08","13:00","-3.6","","","M","","M","","M","26","","46","","","","100.97","","","","-13","","NA"
"-61.70","49.09","HEATH POINT","7053038","2020-03-08 14:00","2020","03","08","14:00","-3.0","","","M","","M","","M","26","","38","","","","100.98","","","","-11","","NA"
"-61.70","49.09","HEATH POINT","7053038","2020-03-08 15:00","2020","03","08","15:00","-2.7","","","M","","M","","M","26","","43","","","","101.00","","","","-11","","NA"
"-61.70","49.09","HEATH POINT","7053038","2020-03-08 16:00","2020","03","08","16:00","-2.8","","","M","","M","","M","27","","39","","","","101.07","","","","-11","","NA"
"-61.70","49.09","HEATH POINT","7053038","2020-03-08 17:00","2020","03","08","17:00","-2.8","","","M","","M","","M","29","","23","","","","101.16","","","","-9","","NA"
"-61.70","49.09","HEATH POINT","7053038","2020-03-08 18:00","2020","03","08","18:00","-3.9","","","M","","M","","M","27","","21","","","","101.26","","","","-10","","NA"
"-61.70","49.09","HEATH POINT","7053038","2020-03-08 19:00","2020","03","08","19:00","-4.1","","","M","","M","","M","27","","19","","","","101.29","","","","-10","","NA"
"-61.70","49.09","HEATH POINT","7053038","2020-03-08 20:00","2020","03","08","20:00","-5.2","","","M","","M","","M","29","","24","","","","101.39","","","","-12","","NA"
"-61.70","49.09","HEATH POINT","7053038","2020-03-08 21:00","2020","03","08","21:00","-6.1","","","M","","M","","M","35","","37","","","","101.56","","","","-15","","NA"
"-61.70","49.09","HEATH POINT","7053038","2020-03-08 22:00","2020","03","08","22:00","-8.4","","","M","","M","","M","34","","38","","","","101.70","","","","-18","","NA"
"-61.70","49.09","HEATH POINT","7053038","2020-03-08 23:00","2020","03","08","23:00","-10.0","","","M","","M","","M","35","","38","","","","101.81","","","","-21","","NA"
"-61.70","49.09","HEATH POINT","7053038","2020-03-09 00:00","2020","03","09","00:00","-11.7","","","M","","M","","M","35","","35","","","","101.93","","","","-22","","NA"
"-61.70","49.09","HEATH POINT","7053038","2020-03-09 01:00","2020","03","09","01:00","-13.2","","","M","","M","","M","34","","24","","","","102.06","","","","-23","","NA"
"-61.70","49.09","HEATH POINT","7053038","2020-03-09 02:00","2020","03","09","02:00","-15.3","","","M","","M","","M","31","","15","","","","102.13","","","","-23","","NA"
"-61.70","49.09","HEATH POINT","7053038","2020-03-09 03:00","2020","03","09","03:00","-15.5","","","M","","M","","M","32","","16","","","","102.22","","","","-24","","NA"
"-61.70","49.09","HEATH POINT","7053038","2020-03-09 04:00","2020","03","09","04:00","-17.1","","","M","","M","","M","29","","11","","","","102.30","","","","-24","","NA"
"-61.70","49.09","HEATH POINT","7053038","2020-03-09 05:00","2020","03","09","05:00","-17.7","","","M","","M","","M","30","","14","","","","102.36","","","","-26","","NA"
"-61.70","49.09","HEATH POINT","7053038","2020-03-09 06:00","2020","03","09","06:00","-18.8","","","M","","M","","M","28","","17","","","","102.47","","","","-28","","NA"
"-61.70","49.09","HEATH POINT","7053038","2020-03-09 07:00","2020","03","09","07:00","-17.8","","","M","","M","","M","30","","14","","","","102.54","","","","-26","","NA"
"-61.70","49.09","HEATH POINT","7053038","2020-03-09 08:00","2020","03","09","08:00","-15.0","","","M","","M","","M","32","","19","","","","102.57","","","","-24","","NA"
"-61.70","49.09","HEATH POINT","7053038","2020-03-09 09:00","2020","03","09","09:00","-14.6","","","M","","M","","M","32","","26","","","","102.60","","","","-25","","NA"
"-61.70","49.09","HEATH POINT","7053038","2020-03-09 10:00","2020","03","09","10:00"
"-61.70","49.09","HEATH POINT","7053038","2020-03-09 11:00","2020","03","09","11:00"
"-61.70","49.09","HEATH POINT","7053038","2020-03-09 12:00","2020","03","09","12:00"
"-61.70","49.09","HEATH POINT","7053038","2020-03-09 13:00","2020","03","09","13:00"
"-61.70","49.09","HEATH POINT","7053038","2020-03-09 14:00","2020","03","09","14:00","-10.6","","","M","","M","","M","32","","19","","","","102.52","","","","-18","","NA"
"-61.70","49.09","HEATH POINT","7053038","2020-03-09 15:00","2020","03","09","15:00","-11.2","","","M","","M","","M","33","","22","","","","102.53","","","","-20","","NA"
"-61.70","49.09","HEATH POINT","7053038","2020-03-09 16:00","2020","03","09","16:00","-11.8","","","M","","M","","M","33","","22","","","","102.58","","","","-21","","NA"
"-61.70","49.09","HEATH POINT","7053038","2020-03-09 17:00","2020","03","09","17:00","-12.5","","","M","","M","","M","33","","23","","","","102.65","","","","-22","","NA"
"-61.70","49.09","HEATH POINT","7053038","2020-03-09 18:00","2020","03","09","18:00","-14.3","","","M","","M","","M","32","","20","","","","102.72","","","","-23","","NA"
"-61.70","49.09","HEATH POINT","7053038","2020-03-09 19:00","2020","03","09","19:00","-15.5","","","M","","M","","M","32","","19","","","","102.79","","","","-25","","NA"
"-61.70","49.09","HEATH POINT","7053038","2020-03-09 20:00","2020","03","09","20:00","-15.9","","","M","","M","","M","31","","19","","","","102.82","","","","-25","","NA"
"-61.70","49.09","HEATH POINT","7053038","2020-03-09 21:00","2020","03","09","21:00","-15.7","","","M","","M","","M","30","","20","","","","102.84","","","","-25","","NA"
"-61.70","49.09","HEATH POINT","7053038","2020-03-09 22:00","2020","03","09","22:00","-15.7","","","M","","M","","M","30","","18","","","","102.85","","","","-25","","NA"
"-61.70","49.09","HEATH POINT","7053038","2020-03-09 23:00","2020","03","09","23:00","-15.6","","","M","","M","","M","31","","19","","","","102.84","","","","-25","","NA"
"-61.70","49.09","HEATH POINT","7053038","2020-03-10 00:00","2020","03","10","00:00","-15.4","","","M","","M","","M","31","","19","","","","102.90","","","","-24","","NA"
"-61.70","49.09","HEATH POINT","7053038","2020-03-10 01:00","2020","03","10","01:00","-13.0","","","M","","M","","M","34","","18","","","","102.81","","","","-21","","NA"
"-61.70","49.09","HEATH POINT","7053038","2020-03-10 02:00","2020","03","10","02:00","-13.3","","","M","","M","","M","34","","17","","","","102.81","","","","-21","","NA"
"-61.70","49.09","HEATH POINT","7053038","2020-03-10 03:00","2020","03","10","03:00","-13.0","","","M","","M","","M","35","","15","","","","102.82","","","","-20","","NA"
"-61.70","49.09","HEATH POINT","7053038","2020-03-10 04:00","2020","03","10","04:00","-15.1","","","M","","M","","M","33","","15","","","","102.81","","","","-23","","NA"
"-61.70","49.09","HEATH POINT","7053038","2020-03-10 05:00","2020","03","10","05:00","-11.8","","","M","","M","","M","36","","14","","","","102.80","","","","-19","","NA"
"-61.70","49.09","HEATH POINT","7053038","2020-03-10 06:00","2020","03","10","06:00","-12.2","","","M","","M","","M","36","","15","","","","102.81","","","","-19","","NA"
"-61.70","49.09","HEATH POINT","7053038","2020-03-10 07:00","2020","03","10","07:00","-10.9","","","M","","M","","M","6","","17","","","","102.76","","","","-18","","NA"
"-61.70","49.09","HEATH POINT","7053038","2020-03-10 08:00","2020","03","10","08:00","-11.2","","","M","","M","","M","4","","22","","","","102.75","","","","-20","","NA"
"-61.70","49.09","HEATH POINT","7053038","2020-03-10 09:00","2020","03","10","09:00","-11.3","","","M","","M","","M","6","","16","","","","102.79","","","","-19","","NA"
"-61.70","49.09","HEATH POINT","7053038","2020-03-10 10:00","2020","03","10","10:00","-11.0","","","M","","M","","M","9","","20","","","","102.67","","","","-19","","NA"
"-61.70","49.09","HEATH POINT","7053038","2020-03-10 11:00","2020","03","10","11:00","-10.8","","","M","","M","","M","11","","21","","","","102.54","","","","-19","","NA"
"-61.70","49.09","HEATH POINT","7053038","2020-03-10 12:00","2020","03","10","12:00","-10.6","","","M","","M","","M","10","","23","","","","102.38","","","","-19","","NA"
"-61.70","49.09","HEATH POINT","7053038","2020-03-10 13:00","2020","03","10","13:00","-10.3","","","M","","M","","M","11","","23","","","","102.28","","","","-19","","NA"
"-61.70","49.09","HEATH POINT","7053038","2020-03-10 14:00","2020","03","10","14:00","-10.1","","","M","","M","","M","10","","25","","","","102.20","","","","-19","","NA"
"-61.70","49.09","HEATH POINT","7053038","2020-03-10 15:00","2020","03","10","15:00","-9.9","","","M","","M","","M","9","","29","","","","102.08","","","","-19","","NA"
"-61.70","49.09","HEATH POINT","7053038","2020-03-10 16:00","2020","03","10","16:00","-9.8","","","M","","M","","M","8","","32","","","","101.95","","","","-20","","NA"
"-61.70","49.09","HEATH POINT","7053038","2020-03-10 17:00","2020","03","10","17:00","-9.7","","","M","","M","","M","8","","33","","","","101.86","","","","-20","","NA"
"-61.70","49.09","HEATH POINT","7053038","2020-03-10 18:00","2020","03","10","18:00","-9.6","","","M","","M","","M","8","","35","","","","101.74","","","","-20","","NA"
"-61.70","49.09","HEATH POINT","7053038","2020-03-10 19:00","2020","03","10","19:00","-9.2","","","M","","M","","M","8","","38","","","","101.64","","","","-19","","NA"
"-61.70","49.09","HEATH POINT","7053038","2020-03-10 20:00","2020","03","10","20:00","-8.7","","","M","","M","","M","8","","36","","","","101.50","","","","-19","","NA"
"-61.70","49.09","HEATH POINT","7053038","2020-03-10 21:00","2020","03","10","21:00","-8.1","","","M","","M","","M","8","","32","","","","101.43","","","","-17","","NA"
"-61.70","49.09","HEATH POINT","7053038","2020-03-10 22:00","2020","03","10","22:00","-7.5","","","M","","M","","M","8","","32","","","","101.26","","","","-17","","NA"
"-61.70","49.09","HEATH POINT","7053038","2020-03-10 23:00","2020","03","10","23:00","-7.5","","","M","","M","","M","8","","42","","","","101.14","","","","-18","","NA"
"-61.70","49.09","HEATH POINT","7053038","2020-03-11 00:00","2020","03","11","00:00","-7.9","","","M","","M","","M","7","","41","","","","101.03","","","","-18","","NA"
"-61.70","49.09","HEATH POINT","7053038","2020-03-11 01:00","2020","03","11","01:00","-7.9","","","M","","M","","M","7","","43","","","","101.01","","","","-18","","NA"
"-61.70","49.09","HEATH POINT","7053038","2020-03-11 02:00","2020","03","11","02:00","-7.9","","","M","","M","","M","6","","42","","","","100.94","","","","-18","","NA"
"-61.70","49.09","HEATH POINT","7053038","2020-03-11 03:00","2020","03","11","03:00","-7.9","","","M","","M","","M","5","","44","","","","100.92","","","","-18","","NA"
"-61.70","49.09","HEATH POINT","7053038","2020-03-11 04:00","2020","03","11","04:00","-8.4","","","M","","M","","M","5","","43","","","","100.92","","","","-19","","NA"
"-61.70","49.09","HEATH POINT","7053038","2020-03-11 05:00","2020","03","11","05:00","-8.4","","","M","","M","","M","5","","38","","","","100.93","","","","-18","","NA"
"-61.70","49.09","HEATH POINT","7053038","2020-03-11 06:00","2020","03","11","06:00","-8.4","","","M","","M","","M","4","","32","","","","100.99","","","","-18","","NA"
"-61.70","49.09","HEATH POINT","7053038","2020-03-11 07:00","2020","03","11","07:00","-8.2","","","M","","M","","M","3","","32","","","","101.03","","","","-17","","NA"
"-61.70","49.09","HEATH POINT","7053038","2020-03-11 08:00","2020","03","11","08:00","-8.5","","","M","","M","","M","2","","35","","","","101.09","","","","-18","","NA"
"-61.70","49.09","HEATH POINT","7053038","2020-03-11 09:00","2020","03","11","09:00","-8.6","","","M","","M","","M","2","","33","","","","101.16","","","","-18","","NA"
"-61.70","49.09","HEATH POINT","7053038","2020-03-11 10:00","2020","03","11","10:00","-8.6","","","M","","M","","M","1","","30","","","","101.23","","","","-18","","NA"
"-61.70","49.09","HEATH POINT","7053038","2020-03-11 11:00","2020","03","11","11:00","-8.7","","","M","","M","","M","36","","31","","","","101.28","","","","-18","","NA"
"-61.70","49.09","HEATH POINT","7053038","2020-03-11 12:00","2020","03","11","12:00","-8.7","","","M","","M","","M","36","","28","","","","101.33","","","","-18","","NA"
"-61.70","49.09","HEATH POINT","7053038","2020-03-11 13:00","2020","03","11","13:00","-8.5","","","M","","M","","M","36","","21","","","","101.36","","","","-16","","NA"
"-61.70","49.09","HEATH POINT","7053038","2020-03-11 14:00","2020","03","11","14:00","-8.5","","","M","","M","","M","1","","20","","","","101.40","","","","-16","","NA"
"-61.70","49.09","HEATH POINT","7053038","2020-03-11 15:00","2020","03","11","15:00","-8.5","","","M","","M","","M","1","","16","","","","101.52","","","","-15","","NA"
"-61.70","49.09","HEATH POINT","7053038","2020-03-11 16:00","2020","03","11","16:00","-8.4","","","M","","M","","M","33","","11","","","","101.64","","","","-14","","NA"
"-61.70","49.09","HEATH POINT","7053038","2020-03-11 17:00","2020","03","11","17:00","-9.0","","","M","","M","","M","2","","17","","","","101.69","","","","-16","","NA"
"-61.70","49.09","HEATH POINT","7053038","2020-03-11 18:00","2020","03","11","18:00","-9.8","","","M","","M","","M","1","","15","","","","101.73","","","","-16","","NA"
"-61.70","49.09","HEATH POINT","7053038","2020-03-11 19:00","2020","03","11","19:00","-10.3","","","M","","M","","M","1","","10","","","","101.74","","","","-16","","NA"
"-61.70","49.09","HEATH POINT","7053038","2020-03-11 20:00","2020","03","11","20:00","-10.8","","","M","","M","","M","30","","4","","","","101.80","","","","-13","","NA"
"-61.70","49.09","HEATH POINT","7053038","2020-03-11 21:00","2020","03","11","21:00","-11.3","","","M","","M","","M","24","","5","","","","101.86","","","","-14","","NA"
"-61.70","49.09","HEATH POINT","7053038","2020-03-11 22:00","2020","03","11","22:00","-12.0","","","M","","M","","M","29","","9","","","","101.86","","","","-17","","NA"
"-61.70","49.09","HEATH POINT","7053038","2020-03-11 23:00","2020","03","11","23:00","-11.6","","","M","","M","","M","27","","7","","","","101.85","","","","-16","","NA"
"-61.70","49.09","HEATH POINT","7053038","2020-03-12 00:00","2020","03","12","00:00","-8.9","","","M","","M","","M","26","","5","","","","101.86","","","","-12","","NA"
"-61.70","49.09","HEATH POINT","7053038","2020-03-12 01:00","2020","03","12","01:00","-6.8","","","M","","M","","M","21","","16","","","","101.87","","","","-13","","NA"
"-61.70","49.09","HEATH POINT","7053038","2020-03-12 02:00","2020","03","12","02:00","-6.6","","","M","","M","","M","22","","11","","","","101.80","","","","-12","","NA"
"-61.70","49.09","HEATH POINT","7053038","2020-03-12 03:00","2020","03","12","03:00","-6.3","","","M","","M","","M","22","","11","","","","101.86","","","","-11","","NA"
"-61.70","49.09","HEATH POINT","7053038","2020-03-12 04:00","2020","03","12","04:00","-6.0","","","M","","M","","M","24","","12","","","","101.93","","","","-11","","NA"
"-61.70","49.09","HEATH POINT","7053038","2020-03-12 05:00","2020","03","12","05:00","-6.6","","","M","","M","","M","27","","18","","","","101.98","","","","-13","","NA"
"-61.70","49.09","HEATH POINT","7053038","2020-03-12 06:00","2020","03","12","06:00","-7.3","","","M","","M","","M","29","","11","","","","101.99","","","","-12","","NA"
"-61.70","49.09","HEATH POINT","7053038","2020-03-12 07:00","2020","03","12","07:00","-7.4","","","M","","M","","M","30","","8","","","","102.02","","","","-11","","NA"
"-61.70","49.09","HEATH POINT","7053038","2020-03-12 08:00","2020","03","12","08:00","-6.5","","","M","","M","","M","30","","8","","","","102.02","","","","-10","","NA"
"-61.70","49.09","HEATH POINT","7053038","2020-03-12 09:00","2020","03","12","09:00","-5.9","","","M","","M","","M","25","","12","","","","102.01","","","","-11","","NA"
"-61.70","49.09","HEATH POINT","7053038","2020-03-12 10:00","2020","03","12","10:00","-5.7","","","M","","M","","M","23","","14","","","","102.00","","","","-11","","NA"
"-61.70","49.09","HEATH POINT","7053038","2020-03-12 11:00","2020","03","12","11:00","-5.5","","","M","","M","","M","22","","18","","","","102.02","","","","-12","","NA"
"-61.70","49.09","HEATH POINT","7053038","2020-03-12 12:00","2020","03","12","12:00","-4.6","","","M","","M","","M","22","","20","","","","101.97","","","","-11","","NA"
"-61.70","49.09","HEATH POINT","7053038","2020-03-12 13:00","2020","03","12","13:00","-5.8","","","M","","M","","M","3","","17","","","","102.01","","","","-12","","NA"
"-61.70","49.09","HEATH POINT","7053038","2020-03-12 14:00","2020","03","12","14:00","-5.2","","","M","","M","","M","36","","18","","","","102.08","","","","-11","","NA"
"-61.70","49.09","HEATH POINT","7053038","2020-03-12 15:00","2020","03","12","15:00","-5.6","","","M","","M","","M","32","","17","","","","102.15","","","","-12","","NA"
"-61.70","49.09","HEATH POINT","7053038","2020-03-12 16:00","2020","03","12","16:00","-5.9","","","M","","M","","M","33","","20","","","","102.22","","","","-13","","NA"
"-61.70","49.09","HEATH POINT","7053038","2020-03-12 17:00","2020","03","12","17:00","-6.6","","","M","","M","","M","32","","15","","","","102.31","","","","-13","","NA"
"-61.70","49.09","HEATH POINT","7053038","2020-03-12 18:00","2020","03","12","18:00","-8.3","","","M","","M","","M","30","","13","","","","102.42","","","","-14","","NA"
"-61.70","49.09","HEATH POINT","7053038","2020-03-12 19:00","2020","03","12","19:00","-9.4","","","M","","M","","M","32","","13","","","","102.49","","","","-15","","NA"
"-61.70","49.09","HEATH POINT","7053038","2020-03-12 20:00","2020","03","12","20:00","-11.1","","","M","","M","","M","30","","17","","","","102.56","","","","-19","","NA"
"-61.70","49.09","HEATH POINT","7053038","2020-03-12 21:00","2020","03","12","21:00","-11.9","","","M","","M","","M","31","","22","","","","102.63","","","","-21","","NA"
"-61.70","49.09","HEATH POINT","7053038","2020-03-12 22:00","2020","03","12","22:00","-11.4","","","M","","M","","M","31","","20","","","","102.69","","","","-20","","NA"
"-61.70","49.09","HEATH POINT","7053038","2020-03-12 23:00","2020","03","12","23:00","-11.3","","","M","","M","","M","31","","19","","","","102.71","","","","-19","","NA"
"-61.70","49.09","HEATH POINT","7053038","2020-03-13 00:00","2020","03","13","00:00","-12.6","","","M","","M","","M","31","","16","","","","102.77","","","","-20","","NA"
"-61.70","49.09","HEATH POINT","7053038","2020-03-13 01:00","2020","03","13","01:00","-12.2","","","M","","M","","M","32","","18","","","","102.81","","","","-20","","NA"
"-61.70","49.09","HEATH POINT","7053038","2020-03-13 02:00","2020","03","13","02:00","-12.2","","","M","","M","","M","33","","20","","","","102.85","","","","-21","","NA"
"-61.70","49.09","HEATH POINT","7053038","2020-03-13 03:00","2020","03","13","03:00","-12.6","","","M","","M","","M","31","","11","","","","102.95","","","","-19","","NA"
"-61.70","49.09","HEATH POINT","7053038","2020-03-13 04:00","2020","03","13","04:00","-13.0","","","M","","M","","M","34","","13","","","","103.04","","","","-20","","NA"
"-61.70","49.09","HEATH POINT","7053038","2020-03-13 05:00","2020","03","13","05:00","-12.1","","","M","","M","","M","35","","13","","","","103.10","","","","-19","","NA"
"-61.70","49.09","HEATH POINT","7053038","2020-03-13 06:00","2020","03","13","06:00","-10.8","","","M","","M","","M","1","","12","","","","103.12","","","","-17","","NA"
"-61.70","49.09","HEATH POINT","7053038","2020-03-13 07:00","2020","03","13","07:00","-9.1","","","M","","M","","M","1","","13","","","","103.19","","","","-15","","NA"
"-61.70","49.09","HEATH POINT","7053038","2020-03-13 08:00","2020","03","13","08:00","-8.2","","","M","","M","","M","3","","17","","","","103.18","","","","-15","","NA"
"-61.70","49.09","HEATH POINT","7053038","2020-03-13 09:00","2020","03","13","09:00","-8.0","","","M","","M","","M","4","","16","","","","103.18","","","","-15","","NA"
"-61.70","49.09","HEATH POINT","7053038","2020-03-13 10:00","2020","03","13","10:00","-7.3","","","M","","M","","M","7","","12","","","","103.18","","","","-13","","NA"
"-61.70","49.09","HEATH POINT","7053038","2020-03-13 11:00","2020","03","13","11:00","-7.0","","","M","","M","","M","8","","16","","","","103.12","","","","-13","","NA"
"-61.70","49.09","HEATH POINT","7053038","2020-03-13 12:00","2020","03","13","12:00","-7.0","","","M","","M","","M","11","","21","","","","102.99","","","","-14","","NA"
"-61.70","49.09","HEATH POINT","7053038","2020-03-13 13:00","2020","03","13","13:00","-6.5","","","M","","M","","M","11","","22","","","","102.88","","","","-14","","NA"
"-61.70","49.09","HEATH POINT","7053038","2020-03-13 14:00","2020","03","13","14:00","-6.0","","","M","","M","","M","12","","25","","","","102.76","","","","-14","","NA"
"-61.70","49.09","HEATH POINT","7053038","2020-03-13 15:00","2020","03","13","15:00","-5.8","","","M","","M","","M","11","","32","","","","102.59","","","","-14","","NA"
"-61.70","49.09","HEATH POINT","7053038","2020-03-13 16:00","2020","03","13","16:00","-5.5","","","M","","M","","M","11","","36","","","","102.42","","","","-14","","NA"
"-61.70","49.09","HEATH POINT","7053038","2020-03-13 17:00","2020","03","13","17:00","-5.1","","","M","","M","","M","12","","43","","","","102.26","","","","-14","","NA"
"-61.70","49.09","HEATH POINT","7053038","2020-03-13 18:00","2020","03","13","18:00","-5.0","","","M","","M","","M","11","","44","","","","101.97","","","","-14","","NA"
"-61.70","49.09","HEATH POINT","7053038","2020-03-13 19:00","2020","03","13","19:00","-4.7","","","M","","M","","M","11","","50","","","","101.60","","","","-15","","NA"
"-61.70","49.09","HEATH POINT","7053038","2020-03-13 20:00","2020","03","13","20:00","-4.4","","","M","","M","","M","11","","59","","","","101.05","","","","-15","","NA"
"-61.70","49.09","HEATH POINT","7053038","2020-03-13 21:00","2020","03","13","21:00","-4.1","","","M","","M","","M","12","","67","","","","100.67","","","","-15","","NA"
"-61.70","49.09","HEATH POINT","7053038","2020-03-13 22:00","2020","03","13","22:00","-3.8","","","M","","M","","M","11","","45","","","","100.67","","","","-13","","NA"
"-61.70","49.09","HEATH POINT","7053038","2020-03-13 23:00","2020","03","13","23:00","-3.4","","","M","","M","","M","11","","42","","","","100.36","","","","-12","","NA"
"-61.70","49.09","HEATH POINT","7053038","2020-03-14 00:00","2020","03","14","00:00","-2.5","","","M","","M","","M","13","","45","","","","99.95","","","","-11","","NA"
"-61.70","49.09","HEATH POINT","7053038","2020-03-14 01:00","2020","03","14","01:00","-1.4","","","M","","M","","M","16","","64","","","","99.50","","","","-11","","NA"
"-61.70","49.09","HEATH POINT","7053038","2020-03-14 02:00","2020","03","14","02:00","-0.8","","","M","","M","","M","18","","55","","","","99.37","","","","-10","","NA"
"-61.70","49.09","HEATH POINT","7053038","2020-03-14 03:00","2020","03","14","03:00","-0.8","","","M","","M","","M","23","","40","","","","99.36","","","","-8","","NA"
"-61.70","49.09","HEATH POINT","7053038","2020-03-14 04:00","2020","03","14","04:00","-1.9","","","M","","M","","M","25","","46","","","","99.40","","","","-10","","NA"
"-61.70","49.09","HEATH POINT","7053038","2020-03-14 05:00","2020","03","14","05:00","-2.3","","","M","","M","","M","25","","39","","","","99.48","","","","-10","","NA"
"-61.70","49.09","HEATH POINT","7053038","2020-03-14 06:00","2020","03","14","06:00","-2.1","","","M","","M","","M","24","","37","","","","99.55","","","","-10","","NA"
"-61.70","49.09","HEATH POINT","7053038","2020-03-14 07:00","2020","03","14","07:00","-1.8","","","M","","M","","M","24","","36","","","","99.57","","","","-9","","NA"
"-61.70","49.09","HEATH POINT","7053038","2020-03-14 08:00","2020","03","14","08:00","-1.6","","","M","","M","","M","24","","31","","","","99.62","","","","-9","","NA"
"-61.70","49.09","HEATH POINT","7053038","2020-03-14 09:00","2020","03","14","09:00","-1.0","","","M","","M","","M","24","","30","","","","99.61","","","","-8","","NA"
"-61.70","49.09","HEATH POINT","7053038","2020-03-14 10:00","2020","03","14","10:00","-1.0","","","M","","M","","M","25","","26","","","","99.61","","","","-7","","NA"
"-61.70","49.09","HEATH POINT","7053038","2020-03-14 11:00","2020","03","14","11:00","-1.0","","","M","","M","","M","25","","35","","","","99.62","","","","-8","","NA"
"-61.70","49.09","HEATH POINT","7053038","2020-03-14 12:00","2020","03","14","12:00","-0.6","","","M","","M","","M","25","","34","","","","99.59","","","","-8","","NA"
"-61.70","49.09","HEATH POINT","7053038","2020-03-14 13:00","2020","03","14","13:00","-0.9","","","M","","M","","M","25","","35","","","","99.61","","","","-8","","NA"
"-61.70","49.09","HEATH POINT","7053038","2020-03-14 14:00","2020","03","14","14:00","-0.2","","","M","","M","","M","28","","35","","","","99.66","","","","-7","","NA"
"-61.70","49.09","HEATH POINT","7053038","2020-03-14 15:00","2020","03","14","15:00","-0.8","","","M","","M","","M","28","","36","","","","99.75","","","","-8","","NA"
"-61.70","49.09","HEATH POINT","7053038","2020-03-14 16:00","2020","03","14","16:00","-1.5","","","M","","M","","M","27","","37","","","","99.82","","","","-9","","NA"
"-61.70","49.09","HEATH POINT","7053038","2020-03-14 17:00","2020","03","14","17:00","-1.9","","","M","","M","","M","28","","39","","","","99.93","","","","-10","","NA"
"-61.70","49.09","HEATH POINT","7053038","2020-03-14 18:00","2020","03","14","18:00","-2.3","","","M","","M","","M","28","","46","","","","100.04","","","","-11","","NA"
"-61.70","49.09","HEATH POINT","7053038","2020-03-14 19:00","2020","03","14","19:00","-2.8","","","M","","M","","M","28","","38","","","","100.10","","","","-11","","NA"
"-61.70","49.09","HEATH POINT","7053038","2020-03-14 20:00","2020","03","14","20:00","-2.7","","","M","","M","","M","27","","30","","","","100.15","","","","-10","","NA"
"-61.70","49.09","HEATH POINT","7053038","2020-03-14 21:00","2020","03","14","21:00","-3.0","","","M","","M","","M","29","","27","","","","100.21","","","","-10","","NA"
"-61.70","49.09","HEATH POINT","7053038","2020-03-14 22:00","2020","03","14","22:00","-4.0","","","M","","M","","M","29","","29","","","","100.31","","","","-12","","NA"
"-61.70","49.09","HEATH POINT","7053038","2020-03-14 23:00","2020","03","14","23:00","-4.5","","","M","","M","","M","29","","34","","","","100.38","","","","-13","","NA"
"-61.70","49.09","HEATH POINT","7053038","2020-03-15 00:00","2020","03","15","00:00","-4.7","","","M","","M","","M","29","","39","","","","100.43","","","","-14","","NA"
"-61.70","49.09","HEATH POINT","7053038","2020-03-15 01:00","2020","03","15","01:00","-4.9","","","M","","M","","M","28","","31","","","","100.53","","","","-13","","NA"
"-61.70","49.09","HEATH POINT","7053038","2020-03-15 02:00","2020","03","15","02:00","-4.4","","","M","","M","","M","29","","35","","","","100.59","","","","-13","","NA"
"-61.70","49.09","HEATH POINT","7053038","2020-03-15 03:00","2020","03","15","03:00","-3.4","","","M","","M","","M","30","","38","","","","100.71","","","","-12","","NA"
"-61.70","49.09","HEATH POINT","7053038","2020-03-15 04:00","2020","03","15","04:00","-3.3","","","M","","M","","M","31","","39","","","","100.94","","","","-12","","NA"
"-61.70","49.09","HEATH POINT","7053038","2020-03-15 05:00","2020","03","15","05:00","-3.5","","","M","","M","","M","31","","34","","","","101.11","","","","-11","","NA"
"-61.70","49.09","HEATH POINT","7053038","2020-03-15 06:00","2020","03","15","06:00","-3.0","","","M","","M","","M","32","","39","","","","101.31","","","","-11","","NA"
"-61.70","49.09","HEATH POINT","7053038","2020-03-15 07:00","2020","03","15","07:00","-2.8","","","M","","M","","M","33","","36","","","","101.47","","","","-11","","NA"
"-61.70","49.09","HEATH POINT","7053038","2020-03-15 08:00","2020","03","15","08:00","-2.1","","","M","","M","","M","33","","38","","","","101.67","","","","-10","","NA"
"-61.70","49.09","HEATH POINT","7053038","2020-03-15 09:00","2020","03","15","09:00","-2.2","","","M","","M","","M","34","","33","","","","101.81","","","","-10","","NA"
"-61.70","49.09","HEATH POINT","7053038","2020-03-15 10:00","2020","03","15","10:00","-2.6","","","M","","M","","M","34","","42","","","","101.89","","","","-11","","NA"
"-61.70","49.09","HEATH POINT","7053038","2020-03-15 11:00","2020","03","15","11:00","-2.7","","","M","","M","","M","35","","36","","","","102.01","","","","-11","","NA"
"-61.70","49.09","HEATH POINT","7053038","2020-03-15 12:00","2020","03","15","12:00","-2.4","","","M","","M","","M","35","","28","","","","102.07","","","","-9","","NA"
"-61.70","49.09","HEATH POINT","7053038","2020-03-15 13:00","2020","03","15","13:00","-2.4","","","M","","M","","M","35","","29","","","","102.08","","","","-9","","NA"
"-61.70","49.09","HEATH POINT","7053038","2020-03-15 14:00","2020","03","15","14:00","-2.4","","","M","","M","","M","34","","23","","","","102.15","","","","-9","","NA"
"-61.70","49.09","HEATH POINT","7053038","2020-03-15 15:00","2020","03","15","15:00","-2.4","","","M","","M","","M","35","","22","","","","102.20","","","","-9","","NA"
"-61.70","49.09","HEATH POINT","7053038","2020-03-15 16:00","2020","03","15","16:00","-2.9","","","M","","M","","M","33","","23","","","","102.27","","","","-9","","NA"
"-61.70","49.09","HEATH POINT","7053038","2020-03-15 17:00","2020","03","15","17:00","-4.2","","","M","","M","","M","33","","21","","","","102.33","","","","-11","","NA"
"-61.70","49.09","HEATH POINT","7053038","2020-03-15 18:00","2020","03","15","18:00","-5.8","","","M","","M","","M","31","","14","","","","102.42","","","","-11","","NA"
"-61.70","49.09","HEATH POINT","7053038","2020-03-15 19:00","2020","03","15","19:00","-5.9","","","M","","M","","M","32","","18","","","","102.45","","","","-12","","NA"
"-61.70","49.09","HEATH POINT","7053038","2020-03-15 20:00","2020","03","15","20:00","-5.2","","","M","","M","","M","32","","19","","","","102.50","","","","-12","","NA"
"-61.70","49.09","HEATH POINT","7053038","2020-03-15 21:00","2020","03","15","21:00","-4.7","","","M","","M","","M","33","","23","","","","102.54","","","","-12","","NA"
"-61.70","49.09","HEATH POINT","7053038","2020-03-15 22:00","2020","03","15","22:00","-4.7","","","M","","M","","M","33","","20","","","","102.60","","","","-11","","NA"
"-61.70","49.09","HEATH POINT","7053038","2020-03-15 23:00","2020","03","15","23:00","-4.4","","","M","","M","","M","3","","40","","","","102.64","","","","-13","","NA"
"-61.70","49.09","HEATH POINT","7053038","2020-03-16 00:00","2020","03","16","00:00","-5.5","","","M","","M","","M","3","","44","","","","102.75","","","","-15","","NA"
"-61.70","49.09","HEATH POINT","7053038","2020-03-16 01:00","2020","03","16","01:00","-6.6","","","M","","M","","M","4","","44","","","","102.83","","","","-17","","NA"
"-61.70","49.09","HEATH POINT","7053038","2020-03-16 02:00","2020","03","16","02:00","-7.1","","","M","","M","","M","3","","43","","","","102.89","","","","-17","","NA"
"-61.70","49.09","HEATH POINT","7053038","2020-03-16 03:00","2020","03","16","03:00","-7.8","","","M","","M","","M","4","","36","","","","102.97","","","","-17","","NA"
"-61.70","49.09","HEATH POINT","7053038","2020-03-16 04:00","2020","03","16","04:00","-8.1","","","M","","M","","M","3","","34","","","","103.04","","","","-18","","NA"
"-61.70","49.09","HEATH POINT","7053038","2020-03-16 05:00","2020","03","16","05:00","-8.8","","","M","","M","","M","3","","33","","","","103.12","","","","-18","","NA"
"-61.70","49.09","HEATH POINT","7053038","2020-03-16 06:00","2020","03","16","06:00","-8.9","","","M","","M","","M","3","","34","","","","103.22","","","","-19","","NA"
"-61.70","49.09","HEATH POINT","7053038","2020-03-16 07:00","2020","03","16","07:00","-9.0","","","M","","M","","M","3","","32","","","","103.32","","","","-18","","NA"
"-61.70","49.09","HEATH POINT","7053038","2020-03-16 08:00","2020","03","16","08:00","-9.0","","","M","","M","","M","2","","30","","","","103.41","","","","-18","","NA"
"-61.70","49.09","HEATH POINT","7053038","2020-03-16 09:00","2020","03","16","09:00","-8.8","","","M","","M","","M","2","","24","","","","103.44","","","","-17","","NA"
"-61.70","49.09","HEATH POINT","7053038","2020-03-16 10:00","2020","03","16","10:00","-8.6","","","M","","M","","M","2","","24","","","","103.46","","","","-17","","NA"
"-61.70","49.09","HEATH POINT","7053038","2020-03-16 11:00","2020","03","16","11:00","-8.4","","","M","","M","","M","2","","21","","","","103.46","","","","-16","","NA"
"-61.70","49.09","HEATH POINT","7053038","2020-03-16 12:00","2020","03","16","12:00","-8.1","","","M","","M","","M","36","","21","","","","103.45","","","","-16","","NA"
"-61.70","49.09","HEATH POINT","7053038","2020-03-16 13:00","2020","03","16","13:00","-8.1","","","M","","M","","M","2","","21","","","","103.45","","","","-16","","NA"
"-61.70","49.09","HEATH POINT","7053038","2020-03-16 14:00","2020","03","16","14:00","-8.0","","","M","","M","","M","2","","22","","","","103.46","","","","-16","","NA"
"-61.70","49.09","HEATH POINT","7053038","2020-03-16 15:00","2020","03","16","15:00","-8.2","","","M","","M","","M","4","","21","","","","103.41","","","","-16","","NA"
"-61.70","49.09","HEATH POINT","7053038","2020-03-16 16:00","2020","03","16","16:00","-8.0","","","M","","M","","M","4","","20","","","","103.44","","","","-15","","NA"
"-61.70","49.09","HEATH POINT","7053038","2020-03-16 17:00","2020","03","16","17:00","-8.3","","","M","","M","","M","28","","56","","","","103.45","","","","-20","","NA"
"-61.70","49.09","HEATH POINT","7053038","2020-03-16 18:00","2020","03","16","18:00","-7.7","","","M","","M","","M","17","","16","","","","103.45","","","","-14","","NA"
"-61.70","49.09","HEATH POINT","7053038","2020-03-16 19:00","2020","03","16","19:00","-7.3","","","M","","M","","M","18","","17","","","","103.43","","","","-14","","NA"
"-61.70","49.09","HEATH POINT","7053038","2020-03-16 20:00","2020","03","16","20:00","-7.2","","","M","","M","","M","21","","17","","","","103.38","","","","-14","","NA"
"-61.70","49.09","HEATH POINT","7053038","2020-03-16 21:00","2020","03","16","21:00","-7.2","","","M","","M","","M","21","","20","","","","103.40","","","","-14","","NA"
"-61.70","49.09","HEATH POINT","7053038","2020-03-16 22:00","2020","03","16","22:00","-7.4","","","M","","M","","M","21","","18","","","","103.35","","","","-14","","NA"
"-61.70","49.09","HEATH POINT","7053038","2020-03-16 23:00","2020","03","16","23:00","-7.0","","","M","","M","","M","21","","26","","","","103.34","","","","-15","","NA"
"-61.70","49.09","HEATH POINT","7053038","2020-03-17 00:00","2020","03","17","00:00","-7.1","","","M","","M","","M","20","","23","","","","103.31","","","","-15","","NA"
"-61.70","49.09","HEATH POINT","7053038","2020-03-17 01:00","2020","03","17","01:00","-6.7","","","M","","M","","M","20","","26","","","","103.25","","","","-15","","NA"
"-61.70","49.09","HEATH POINT","7053038","2020-03-17 02:00","2020","03","17","02:00","-6.6","","","M","","M","","M","20","","27","","","","103.20","","","","-15","","NA"
"-61.70","49.09","HEATH POINT","7053038","2020-03-17 03:00","2020","03","17","03:00","-6.5","","","M","","M","","M","21","","24","","","","103.15","","","","-14","","NA"
"-61.70","49.09","HEATH POINT","7053038","2020-03-17 04:00","2020","03","17","04:00","-6.0","","","M","","M","","M","19","","26","","","","103.09","","","","-14","","NA"
"-61.70","49.09","HEATH POINT","7053038","2020-03-17 05:00","2020","03","17","05:00","-5.9","","","M","","M","","M","20","","27","","","","103.08","","","","-14","","NA"
"-61.70","49.09","HEATH POINT","7053038","2020-03-17 06:00","2020","03","17","06:00","-5.6","","","M","","M","","M","19","","32","","","","103.01","","","","-14","","NA"
"-61.70","49.09","HEATH POINT","7053038","2020-03-17 07:00","2020","03","17","07:00","-5.5","","","M","","M","","M","20","","41","","","","102.95","","","","-15","","NA"
"-61.70","49.09","HEATH POINT","7053038","2020-03-17 08:00","2020","03","17","08:00","-5.1","","","M","","M","","M","19","","44","","","","102.87","","","","-15","","NA"
"-61.70","49.09","HEATH POINT","7053038","2020-03-17 09:00","2020","03","17","09:00","-4.8","","","M","","M","","M","20","","44","","","","102.81","","","","-14","","NA"
"-61.70","49.09","HEATH POINT","7053038","2020-03-17 10:00","2020","03","17","10:00","-4.6","","","M","","M","","M","19","","38","","","","102.74","","","","-13","","NA"
"-61.70","49.09","HEATH POINT","7053038","2020-03-17 11:00","2020","03","17","11:00","-4.1","","","M","","M","","M","19","","36","","","","102.68","","","","-12","","NA"
"-61.70","49.09","HEATH POINT","7053038","2020-03-17 12:00","2020","03","17","12:00","-3.7","","","M","","M","","M","18","","40","","","","102.54","","","","-12","","NA"
"-61.70","49.09","HEATH POINT","7053038","2020-03-17 13:00","2020","03","17","13:00","-3.5","","","M","","M","","M","18","","41","","","","102.37","","","","-12","","NA"
"-61.70","49.09","HEATH POINT","7053038","2020-03-17 14:00","2020","03","17","14:00","-3.4","","","M","","M","","M","18","","41","","","","102.24","","","","-12","","NA"
"-61.70","49.09","HEATH POINT","7053038","2020-03-17 15:00","2020","03","17","15:00","-3.2","","","M","","M","","M","18","","41","","","","102.09","","","","-12","","NA"
"-61.70","49.09","HEATH POINT","7053038","2020-03-17 16:00","2020","03","17","16:00","-3.0","","","M","","M","","M","18","","36","","","","101.95","","","","-11","","NA"
"-61.70","49.09","HEATH POINT","7053038","2020-03-17 17:00","2020","03","17","17:00","-2.8","","","M","","M","","M","17","","39","","","","101.77","","","","-11","","NA"
"-61.70","49.09","HEATH POINT","7053038","2020-03-17 18:00","2020","03","17","18:00","-2.6","","","M","","M","","M","17","","41","","","","101.70","","","","-11","","NA"
"-61.70","49.09","HEATH POINT","7053038","2020-03-17 19:00","2020","03","17","19:00","-2.9","","","M","","M","","M","18","","47","","","","101.55","","","","-12","","NA"
"-61.70","49.09","HEATH POINT","7053038","2020-03-17 20:00","2020","03","17","20:00","-2.7","","","M","","M","","M","18","","49","","","","101.41","","","","-12","","NA"
"-61.70","49.09","HEATH POINT","7053038","2020-03-17 21:00","2020","03","17","21:00","-2.6","","","M","","M","","M","19","","45","","","","101.25","","","","-11","","NA"
"-61.70","49.09","HEATH POINT","7053038","2020-03-17 22:00","2020","03","17","22:00","-2.5","","","M","","M","","M","19","","50","","","","101.10","","","","-12","","NA"
"-61.70","49.09","HEATH POINT","7053038","2020-03-17 23:00","2020","03","17","23:00","-2.0","","","M","","M","","M","19","","49","","","","100.95","","","","-11","","NA"
"-61.70","49.09","HEATH POINT","7053038","2020-03-18 00:00","2020","03","18","00:00","-1.4","","","M","","M","","M","20","","47","","","","100.90","","","","-10","","NA"
"-61.70","49.09","HEATH POINT","7053038","2020-03-18 01:00","2020","03","18","01:00","-1.2","","","M","","M","","M","21","","42","","","","100.87","","","","-9","","NA"
"-61.70","49.09","HEATH POINT","7053038","2020-03-18 02:00","2020","03","18","02:00","-1.6","","","M","","M","","M","23","","31","","","","100.84","","","","-9","","NA"
"-61.70","49.09","HEATH POINT","7053038","2020-03-18 03:00","2020","03","18","03:00","-1.5","","","M","","M","","M","22","","34","","","","100.81","","","","-9","","NA"
"-61.70","49.09","HEATH POINT","7053038","2020-03-18 04:00","2020","03","18","04:00","-1.8","","","M","","M","","M","24","","24","","","","100.82","","","","-8","","NA"
"-61.70","49.09","HEATH POINT","7053038","2020-03-18 05:00","2020","03","18","05:00","-1.4","","","M","","M","","M","27","","41","","","","100.88","","","","-9","","NA"
"-61.70","49.09","HEATH POINT","7053038","2020-03-18 06:00","2020","03","18","06:00","-2.6","","","M","","M","","M","27","","43","","","","100.98","","","","-11","","NA"
"-61.70","49.09","HEATH POINT","7053038","2020-03-18 07:00","2020","03","18","07:00","-2.8","","","M","","M","","M","27","","46","","","","101.02","","","","-12","","NA"
"-61.70","49.09","HEATH POINT","7053038","2020-03-18 08:00","2020","03","18","08:00","-2.2","","","M","","M","","M","27","","41","","","","101.11","","","","-10","","NA"
"-61.70","49.09","HEATH POINT","7053038","2020-03-18 09:00","2020","03","18","09:00","-1.8","","","M","","M","","M","27","","47","","","","101.18","","","","-10","","NA"
"-61.70","49.09","HEATH POINT","7053038","2020-03-18 10:00","2020","03","18","10:00","-1.7","","","M","","M","","M","28","","47","","","","101.32","","","","-10","","NA"
"-61.70","49.09","HEATH POINT","7053038","2020-03-18 11:00","2020","03","18","11:00","-1.7","","","M","","M","","M","29","","46","","","","101.46","","","","-10","","NA"
"-61.70","49.09","HEATH POINT","7053038","2020-03-18 12:00","2020","03","18","12:00","-1.7","","","M","","M","","M","30","","45","","","","101.62","","","","-10","","NA"
"-61.70","49.09","HEATH POINT","7053038","2020-03-18 13:00","2020","03","18","13:00","-1.5","","","M","","M","","M","29","","40","","","","101.75","","","","-9","","NA"
"-61.70","49.09","HEATH POINT","7053038","2020-03-18 14:00","2020","03","18","14:00"
"-61.70","49.09","HEATH POINT","7053038","2020-03-18 15:00","2020","03","18","15:00","-2.9","","","M","","M","","M","29","","38","","","","102.02","","","","-11","","NA"
"-61.70","49.09","HEATH POINT","7053038","2020-03-18 16:00","2020","03","18","16:00","-3.4","","","M","","M","","M","28","","32","","","","102.15","","","","-11","","NA"
"-61.70","49.09","HEATH POINT","7053038","2020-03-18 17:00","2020","03","18","17:00","-4.8","","","M","","M","","M","28","","33","","","","102.29","","","","-13","","NA"
"-61.70","49.09","HEATH POINT","7053038","2020-03-18 18:00","2020","03","18","18:00","-5.6","","","M","","M","","M","28","","26","","","","102.44","","","","-13","","NA"
"-61.70","49.09","HEATH POINT","7053038","2020-03-18 19:00","2020","03","18","19:00","-6.4","","","M","","M","","M","28","","26","","","","102.57","","","","-14","","NA"
"-61.70","49.09","HEATH POINT","7053038","2020-03-18 20:00","2020","03","18","20:00","-6.5","","","M","","M","","M","28","","29","","","","102.62","","","","-15","","NA"
"-61.70","49.09","HEATH POINT","7053038","2020-03-18 21:00","2020","03","18","21:00","-6.6","","","M","","M","","M","28","","31","","","","102.76","","","","-15","","NA"
"-61.70","49.09","HEATH POINT","7053038","2020-03-18 22:00","2020","03","18","22:00","-7.6","","","M","","M","","M","28","","27","","","","102.83","","","","-16","","NA"
"-61.70","49.09","HEATH POINT","7053038","2020-03-18 23:00","2020","03","18","23:00","-7.9","","","M","","M","","M","30","","26","","","","102.94","","","","-16","","NA"
"-61.70","49.09","HEATH POINT","7053038","2020-03-19 00:00","2020","03","19","00:00","-9.4","","","M","","M","","M","29","","18","","","","103.04","","","","-17","","NA"
"-61.70","49.09","HEATH POINT","7053038","2020-03-19 01:00","2020","03","19","01:00","-10.4","","","M","","M","","M","28","","18","","","","103.12","","","","-18","","NA"
"-61.70","49.09","HEATH POINT","7053038","2020-03-19 02:00","2020","03","19","02:00","-10.4","","","M","","M","","M","28","","15","","","","103.16","","","","-17","","NA"
"-61.70","49.09","HEATH POINT","7053038","2020-03-19 03:00","2020","03","19","03:00","-9.9","","","M","","M","","M","27","","14","","","","103.21","","","","-16","","NA"
"-61.70","49.09","HEATH POINT","7053038","2020-03-19 04:00","2020","03","19","04:00","-11.4","","","M","","M","","M","27","","13","","","","103.26","","","","-18","","NA"
"-61.70","49.09","HEATH POINT","7053038","2020-03-19 05:00","2020","03","19","05:00","-11.1","","","M","","M","","M","26","","14","","","","103.28","","","","-18","","NA"
"-61.70","49.09","HEATH POINT","7053038","2020-03-19 06:00","2020","03","19","06:00"
"-61.70","49.09","HEATH POINT","7053038","2020-03-19 07:00","2020","03","19","07:00","-9.0","","","M","","M","","M","26","","16","","","","103.43","","","","-16","","NA"
"-61.70","49.09","HEATH POINT","7053038","2020-03-19 08:00","2020","03","19","08:00","-4.5","","","M","","M","","M","25","","32","","","","103.48","","","","-13","","NA"
"-61.70","49.09","HEATH POINT","7053038","2020-03-19 09:00","2020","03","19","09:00","-4.1","","","M","","M","","M","24","","32","","","","103.48","","","","-12","","NA"
"-61.70","49.09","HEATH POINT","7053038","2020-03-19 10:00","2020","03","19","10:00","-3.7","","","M","","M","","M","24","","35","","","","103.48","","","","-12","","NA"
"-61.70","49.09","HEATH POINT","7053038","2020-03-19 11:00","2020","03","19","11:00","-3.5","","","M","","M","","M","24","","35","","","","103.48","","","","-12","","NA"
"-61.70","49.09","HEATH POINT","7053038","2020-03-19 12:00","2020","03","19","12:00","-3.4","","","M","","M","","M","23","","35","","","","103.45","","","","-11","","NA"
"-61.70","49.09","HEATH POINT","7053038","2020-03-19 13:00","2020","03","19","13:00","-3.4","","","M","","M","","M","24","","35","","","","103.43","","","","-11","","NA"
"-61.70","49.09","HEATH POINT","7053038","2020-03-19 14:00","2020","03","19","14:00","-3.1","","","M","","M","","M","24","","33","","","","103.43","","","","-11","","NA"
"-61.70","49.09","HEATH POINT","7053038","2020-03-19 15:00","2020","03","19","15:00","-3.1","","","M","","M","","M","23","","30","","","","103.37","","","","-11","","NA"
"-61.70","49.09","HEATH POINT","7053038","2020-03-19 16:00","2020","03","19","16:00","-3.1","","","M","","M","","M","22","","27","","","","103.35","","","","-10","","NA"
"-61.70","49.09","HEATH POINT","7053038","2020-03-19 17:00","2020","03","19","17:00","-3.0","","","M","","M","","M","22","","28","","","","103.35","","","","-10","","NA"
"-61.70","49.09","HEATH POINT","7053038","2020-03-19 18:00","2020","03","19","18:00","-2.9","","","M","","M","","M","21","","26","","","","103.39","","","","-10","","NA"
"-61.70","49.09","HEATH POINT","7053038","2020-03-19 19:00","2020","03","19","19:00","-2.7","","","M","","M","","M","21","","24","","","","103.47","","","","-9","","NA"
"-61.70","49.09","HEATH POINT","7053038","2020-03-19 20:00","2020","03","19","20:00","-2.6","","","M","","M","","M","19","","17","","","","103.46","","","","-8","","NA"
"-61.70","49.09","HEATH POINT","7053038","2020-03-19 21:00","2020","03","19","21:00","-2.4","","","M","","M","","M","18","","21","","","","103.38","","","","-8","","NA"
"-61.70","49.09","HEATH POINT","7053038","2020-03-19 22:00","2020","03","19","22:00","-2.5","","","M","","M","","M","17","","21","","","","103.31","","","","-9","","NA"
"-61.70","49.09","HEATH POINT","7053038","2020-03-19 23:00","2020","03","19","23:00","-2.4","","","M","","M","","M","16","","27","","","","103.20","","","","-9","","NA"
"-61.70","49.09","HEATH POINT","7053038","2020-03-20 00:00","2020","03","20","00:00","-2.3","","","M","","M","","M","15","","28","","","","103.07","","","","-9","","NA"
"-61.70","49.09","HEATH POINT","7053038","2020-03-20 01:00","2020","03","20","01:00","-2.2","","","M","","M","","M","15","","32","","","","102.95","","","","-10","","NA"
"-61.70","49.09","HEATH POINT","7053038","2020-03-20 02:00","2020","03","20","02:00","-1.7","","","M","","M","","M","17","","24","","","","102.86","","","","-8","","NA"
"-61.70","49.09","HEATH POINT","7053038","2020-03-20 03:00","2020","03","20","03:00","-1.5","","","M","","M","","M","18","","25","","","","102.78","","","","-8","","NA"
"-61.70","49.09","HEATH POINT","7053038","2020-03-20 04:00","2020","03","20","04:00","-1.6","","","M","","M","","M","16","","28","","","","102.68","","","","-8","","NA"
"-61.70","49.09","HEATH POINT","7053038","2020-03-20 05:00","2020","03","20","05:00","-1.7","","","M","","M","","M","16","","29","","","","102.59","","","","-9","","NA"
"-61.70","49.09","HEATH POINT","7053038","2020-03-20 06:00","2020","03","20","06:00","-1.9","","","M","","M","","M","15","","29","","","","102.44","","","","-9","","NA"
"-61.70","49.09","HEATH POINT","7053038","2020-03-20 07:00","2020","03","20","07:00","-2.0","","","M","","M","","M","15","","29","","","","102.27","","","","-9","","NA"
"-61.70","49.09","HEATH POINT","7053038","2020-03-20 08:00","2020","03","20","08:00","-1.6","","","M","","M","","M","14","","26","","","","101.99","","","","-8","","NA"
"-61.70","49.09","HEATH POINT","7053038","2020-03-20 09:00","2020","03","20","09:00","-1.3","","","M","","M","","M","14","","10","","","","101.73","","","","-5","","NA"
"-61.70","49.09","HEATH POINT","7053038","2020-03-20 10:00","2020","03","20","10:00","-1.2","","","M","","M","","M","14","","8","","","","101.39","","","","-4","","NA"
"-61.70","49.09","HEATH POINT","7053038","2020-03-20 11:00","2020","03","20","11:00","-0.9","","","M","","M","","M","13","","6","","","","100.95","","","","-3","","NA"
"-61.70","49.09","HEATH POINT","7053038","2020-03-20 12:00","2020","03","20","12:00","-0.5","","","M","","M","","M","14","","55","","","","100.72","","","","-9","","NA"
"-61.70","49.09","HEATH POINT","7053038","2020-03-20 13:00","2020","03","20","13:00","-0.6","","","M","","M","","M","14","","42","","","","100.35","","","","-8","","NA"
"-61.70","49.09","HEATH POINT","7053038","2020-03-20 14:00","2020","03","20","14:00"
"-61.70","49.09","HEATH POINT","7053038","2020-03-20 15:00","2020","03","20","15:00","-0.4","","","M","","M","","M","16","","12","","","","99.83","","","","-4","","NA"
"-61.70","49.09","HEATH POINT","7053038","2020-03-20 16:00","2020","03","20","16:00","-0.1","","","M","","M","","M","17","","25","","","","99.60","","","","-6","","NA"
"-61.70","49.09","HEATH POINT","7053038","2020-03-20 17:00","2020","03","20","17:00","-0.3","","","M","","M","","M","17","","30","","","","99.49","","","","-7","","NA"
"-61.70","49.09","HEATH POINT","7053038","2020-03-20 18:00","2020","03","20","18:00","0.2","","","M","","M","","M","19","","21","","","","99.30","","","","","","NA"
"-61.70","49.09","HEATH POINT","7053038","2020-03-20 19:00","2020","03","20","19:00","0.3","","","M","","M","","M","20","","38","","","","98.95","","","","","","NA"
"-61.70","49.09","HEATH POINT","7053038","2020-03-20 20:00","2020","03","20","20:00","0.7","","","M","","M","","M","21","","39","","","","98.77","","","","","","NA"
"-61.70","49.09","HEATH POINT","7053038","2020-03-20 21:00","2020","03","20","21:00","0.8","","","M","","M","","M","22","","38","","","","98.54","","","","","","NA"
"-61.70","49.09","HEATH POINT","7053038","2020-03-20 22:00","2020","03","20","22:00","1.0","","","M","","M","","M","23","","40","","","","98.45","","","","","","NA"
"-61.70","49.09","HEATH POINT","7053038","2020-03-20 23:00","2020","03","20","23:00","0.8","","","M","","M","","M","24","","43","","","","98.45","","","","","","NA"
"-61.70","49.09","HEATH POINT","7053038","2020-03-21 00:00","2020","03","21","00:00","0.7","","","M","","M","","M","25","","42","","","","98.47","","","","","","NA"
"-61.70","49.09","HEATH POINT","7053038","2020-03-21 01:00","2020","03","21","01:00","1.4","","","M","","M","","M","27","","42","","","","98.51","","","","","","NA"
"-61.70","49.09","HEATH POINT","7053038","2020-03-21 02:00","2020","03","21","02:00","0.8","","","M","","M","","M","27","","39","","","","98.61","","","","","","NA"
"-61.70","49.09","HEATH POINT","7053038","2020-03-21 03:00","2020","03","21","03:00","0.0","","","M","","M","","M","28","","46","","","","98.72","","","","-8","","NA"
"-61.70","49.09","HEATH POINT","7053038","2020-03-21 04:00","2020","03","21","04:00","-0.4","","","M","","M","","M","28","","45","","","","98.88","","","","-8","","NA"
"-61.70","49.09","HEATH POINT","7053038","2020-03-21 05:00","2020","03","21","05:00","-0.7","","","M","","M","","M","27","","52","","","","99.01","","","","-9","","NA"
"-61.70","49.09","HEATH POINT","7053038","2020-03-21 06:00","2020","03","21","06:00","-2.2","","","M","","M","","M","26","","49","","","","99.27","","","","-11","","NA"
"-61.70","49.09","HEATH POINT","7053038","2020-03-21 07:00","2020","03","21","07:00","-4.1","","","M","","M","","M","29","","57","","","","99.59","","","","-14","","NA"
"-61.70","49.09","HEATH POINT","7053038","2020-03-21 08:00","2020","03","21","08:00","-5.0","","","M","","M","","M","29","","54","","","","99.83","","","","-15","","NA"
"-61.70","49.09","HEATH POINT","7053038","2020-03-21 09:00","2020","03","21","09:00","-4.9","","","M","","M","","M","29","","57","","","","99.98","","","","-15","","NA"
"-61.70","49.09","HEATH POINT","7053038","2020-03-21 10:00","2020","03","21","10:00","-4.4","","","M","","M","","M","29","","57","","","","100.15","","","","-15","","NA"
"-61.70","49.09","HEATH POINT","7053038","2020-03-21 11:00","2020","03","21","11:00","-4.2","","","M","","M","","M","28","","57","","","","100.36","","","","-14","","NA"
"-61.70","49.09","HEATH POINT","7053038","2020-03-21 12:00","2020","03","21","12:00","-4.3","","","M","","M","","M","29","","50","","","","100.52","","","","-14","","NA"
"-61.70","49.09","HEATH POINT","7053038","2020-03-21 13:00","2020","03","21","13:00","-4.5","","","M","","M","","M","29","","49","","","","100.64","","","","-14","","NA"
"-61.70","49.09","HEATH POINT","7053038","2020-03-21 14:00","2020","03","21","14:00","-4.7","","","M","","M","","M","28","","55","","","","100.79","","","","-15","","NA"
"-61.70","49.09","HEATH POINT","7053038","2020-03-21 15:00","2020","03","21","15:00","-5.4","","","M","","M","","M","29","","44","","","","101.01","","","","-15","","NA"
"-61.70","49.09","HEATH POINT","7053038","2020-03-21 16:00","2020","03","21","16:00","-6.3","","","M","","M","","M","30","","48","","","","101.14","","","","-17","","NA"
"-61.70","49.09","HEATH POINT","7053038","2020-03-21 17:00","2020","03","21","17:00","-7.2","","","M","","M","","M","29","","51","","","","101.27","","","","-18","","NA"
"-61.70","49.09","HEATH POINT","7053038","2020-03-21 18:00","2020","03","21","18:00","-8.1","","","M","","M","","M","29","","42","","","","101.43","","","","-18","","NA"
"-61.70","49.09","HEATH POINT","7053038","2020-03-21 19:00","2020","03","21","19:00","-8.7","","","M","","M","","M","29","","37","","","","101.59","","","","-19","","NA"
"-61.70","49.09","HEATH POINT","7053038","2020-03-21 20:00","2020","03","21","20:00","-9.2","","","M","","M","","M","29","","35","","","","101.75","","","","-19","","NA"
"-61.70","49.09","HEATH POINT","7053038","2020-03-21 21:00","2020","03","21","21:00","-9.7","","","M","","M","","M","29","","37","","","","101.83","","","","-20","","NA"
"-61.70","49.09","HEATH POINT","7053038","2020-03-21 22:00","2020","03","21","22:00","-10.5","","","M","","M","","M","30","","34","","","","101.93","","","","-21","","NA"
"-61.70","49.09","HEATH POINT","7053038","2020-03-21 23:00","2020","03","21","23:00","-11.3","","","M","","M","","M","30","","33","","","","102.03","","","","-22","","NA"
"-61.70","49.09","HEATH POINT","7053038","2020-03-22 00:00","2020","03","22","00:00","-12.3","","","M","","M","","M","29","","26","","","","102.14","","","","-22","","NA"
"-61.70","49.09","HEATH POINT","7053038","2020-03-22 01:00","2020","03","22","01:00","-13.4","","","M","","M","","M","29","","31","","","","102.19","","","","-24","","NA"
"-61.70","49.09","HEATH POINT","7053038","2020-03-22 02:00","2020","03","22","02:00","-13.9","","","M","","M","","M","28","","29","","","","102.26","","","","-24","","NA"
"-61.70","49.09","HEATH POINT","7053038","2020-03-22 03:00","2020","03","22","03:00","-14.5","","","M","","M","","M","29","","32","","","","102.30","","","","-26","","NA"
"-61.70","49.09","HEATH POINT","7053038","2020-03-22 04:00","2020","03","22","04:00","-15.2","","","M","","M","","M","28","","24","","","","102.39","","","","-25","","NA"
"-61.70","49.09","HEATH POINT","7053038","2020-03-22 05:00","2020","03","22","05:00","-15.5","","","M","","M","","M","29","","30","","","","102.45","","","","-27","","NA"
"-61.70","49.09","HEATH POINT","7053038","2020-03-22 06:00","2020","03","22","06:00","-15.5","","","M","","M","","M","29","","30","","","","102.52","","","","-27","","NA"
"-61.70","49.09","HEATH POINT","7053038","2020-03-22 07:00","2020","03","22","07:00","-14.8","","","M","","M","","M","30","","31","","","","102.57","","","","-26","","NA"
"-61.70","49.09","HEATH POINT","7053038","2020-03-22 08:00","2020","03","22","08:00","-13.5","","","M","","M","","M","30","","34","","","","102.62","","","","-25","","NA"
"-61.70","49.09","HEATH POINT","7053038","2020-03-22 09:00","2020","03","22","09:00","-11.7","","","M","","M","","M","31","","41","","","","102.62","","","","-23","","NA"
"-61.70","49.09","HEATH POINT","7053038","2020-03-22 10:00","2020","03","22","10:00","-10.7","","","M","","M","","M","32","","35","","","","102.67","","","","-21","","NA"
"-61.70","49.09","HEATH POINT","7053038","2020-03-22 11:00","2020","03","22","11:00","-10.1","","","M","","M","","M","33","","33","","","","102.69","","","","-20","","NA"
"-61.70","49.09","HEATH POINT","7053038","2020-03-22 12:00","2020","03","22","12:00","-9.5","","","M","","M","","M","33","","34","","","","102.73","","","","-19","","NA"
"-61.70","49.09","HEATH POINT","7053038","2020-03-22 13:00","2020","03","22","13:00","-9.3","","","M","","M","","M","32","","34","","","","102.76","","","","-19","","NA"
"-61.70","49.09","HEATH POINT","7053038","2020-03-22 14:00","2020","03","22","14:00","-8.6","","","M","","M","","M","32","","30","","","","102.82","","","","-18","","NA"
"-61.70","49.09","HEATH POINT","7053038","2020-03-22 15:00","2020","03","22","15:00","-7.9","","","M","","M","","M","33","","36","","","","102.90","","","","-18","","NA"
"-61.70","49.09","HEATH POINT","7053038","2020-03-22 16:00","2020","03","22","16:00","-7.6","","","M","","M","","M","32","","35","","","","103.01","","","","-17","","NA"
"-61.70","49.09","HEATH POINT","7053038","2020-03-22 17:00","2020","03","22","17:00","-7.7","","","M","","M","","M","31","","27","","","","103.11","","","","-16","","NA"
"-61.70","49.09","HEATH POINT","7053038","2020-03-22 18:00","2020","03","22","18:00","-8.1","","","M","","M","","M","30","","25","","","","103.19","","","","-16","","NA"
"-61.70","49.09","HEATH POINT","7053038","2020-03-22 19:00","2020","03","22","19:00","-9.3","","","M","","M","","M","29","","18","","","","103.30","","","","-17","","NA"
"-61.70","49.09","HEATH POINT","7053038","2020-03-22 20:00","2020","03","22","20:00","-9.6","","","M","","M","","M","27","","18","","","","103.38","","","","-17","","NA"
"-61.70","49.09","HEATH POINT","7053038","2020-03-22 21:00","2020","03","22","21:00","-10.5","","","M","","M","","M","29","","14","","","","103.46","","","","-17","","NA"
"-61.70","49.09","HEATH POINT","7053038","2020-03-22 22:00","2020","03","22","22:00","-11.1","","","M","","M","","M","31","","18","","","","103.53","","","","-19","","NA"
"-61.70","49.09","HEATH POINT","7053038","2020-03-22 23:00","2020","03","22","23:00","-9.7","","","M","","M","","M","33","","18","","","","103.56","","","","-17","","NA"
"-61.70","49.09","HEATH POINT","7053038","2020-03-23 00:00","2020","03","23","00:00","-11.0","","","M","","M","","M","31","","15","","","","103.62","","","","-18","","NA"
"-61.70","49.09","HEATH POINT","7053038","2020-03-23 01:00","2020","03","23","01:00","-11.8","","","M","","M","","M","31","","20","","","","103.66","","","","-20","","NA"
"-61.70","49.09","HEATH POINT","7053038","2020-03-23 02:00","2020","03","23","02:00","-9.5","","","M","","M","","M","32","","22","","","","103.68","","","","-18","","NA"
"-61.70","49.09","HEATH POINT","7053038","2020-03-23 03:00","2020","03","23","03:00","-9.9","","","M","","M","","M","32","","23","","","","103.69","","","","-18","","NA"
"-61.70","49.09","HEATH POINT","7053038","2020-03-23 04:00","2020","03","23","04:00","-11.3","","","M","","M","","M","31","","20","","","","103.75","","","","-20","","NA"
"-61.70","49.09","HEATH POINT","7053038","2020-03-23 05:00","2020","03","23","05:00","-10.1","","","M","","M","","M","25","","21","","","","103.82","","","","-18","","NA"
"-61.70","49.09","HEATH POINT","7053038","2020-03-23 06:00","2020","03","23","06:00","-9.9","","","M","","M","","M","26","","19","","","","103.83","","","","-18","","NA"
"-61.70","49.09","HEATH POINT","7053038","2020-03-23 07:00","2020","03","23","07:00","-7.4","","","M","","M","","M","25","","18","","","","103.85","","","","-14","","NA"
"-61.70","49.09","HEATH POINT","7053038","2020-03-23 08:00","2020","03","23","08:00","-6.0","","","M","","M","","M","25","","21","","","","103.83","","","","-13","","NA"
"-61.70","49.09","HEATH POINT","7053038","2020-03-23 09:00","2020","03","23","09:00","-4.5","","","M","","M","","M","25","","24","","","","103.83","","","","-12","","NA"
"-61.70","49.09","HEATH POINT","7053038","2020-03-23 10:00","2020","03","23","10:00","-3.7","","","M","","M","","M","25","","25","","","","103.71","","","","-11","","NA"
"-61.70","49.09","HEATH POINT","7053038","2020-03-23 11:00","2020","03","23","11:00","-3.7","","","M","","M","","M","24","","29","","","","103.63","","","","-11","","NA"
"-61.70","49.09","HEATH POINT","7053038","2020-03-23 12:00","2020","03","23","12:00","-3.8","","","M","","M","","M","23","","34","","","","103.56","","","","-12","","NA"
"-61.70","49.09","HEATH POINT","7053038","2020-03-23 13:00","2020","03","23","13:00","-3.7","","","M","","M","","M","23","","39","","","","103.53","","","","-12","","NA"
"-61.70","49.09","HEATH POINT","7053038","2020-03-23 14:00","2020","03","23","14:00","-3.6","","","M","","M","","M","23","","37","","","","103.46","","","","-12","","NA"
"-61.70","49.09","HEATH POINT","7053038","2020-03-23 15:00","2020","03","23","15:00","-3.7","","","M","","M","","M","23","","35","","","","103.42","","","","-12","","NA"
"-61.70","49.09","HEATH POINT","7053038","2020-03-23 16:00","2020","03","23","16:00","-3.7","","","M","","M","","M","22","","38","","","","103.35","","","","-12","","NA"
"-61.70","49.09","HEATH POINT","7053038","2020-03-23 17:00","2020","03","23","17:00","-3.7","","","M","","M","","M","20","","38","","","","103.23","","","","-12","","NA"
"-61.70","49.09","HEATH POINT","7053038","2020-03-23 18:00","2020","03","23","18:00","-3.5","","","M","","M","","M","20","","37","","","","103.11","","","","-12","","NA"
"-61.70","49.09","HEATH POINT","7053038","2020-03-23 19:00","2020","03","23","19:00","-3.4","","","M","","M","","M","20","","41","","","","103.04","","","","-12","","NA"
"-61.70","49.09","HEATH POINT","7053038","2020-03-23 20:00","2020","03","23","20:00","-3.3","","","M","","M","","M","20","","36","","","","103.01","","","","-11","","NA"
"-61.70","49.09","HEATH POINT","7053038","2020-03-23 21:00","2020","03","23","21:00","-3.0","","","M","","M","","M","21","","38","","","","102.96","","","","-11","","NA"
"-61.70","49.09","HEATH POINT","7053038","2020-03-23 22:00","2020","03","23","22:00","-2.7","","","M","","M","","M","20","","33","","","","102.77","","","","-10","","NA"
"-61.70","49.09","HEATH POINT","7053038","2020-03-23 23:00","2020","03","23","23:00","-2.6","","","M","","M","","M","20","","36","","","","102.68","","","","-10","","NA"
"-61.70","49.09","HEATH POINT","7053038","2020-03-24 00:00","2020","03","24","00:00","-2.4","","","M","","M","","M","20","","45","","","","102.57","","","","-11","","NA"
"-61.70","49.09","HEATH POINT","7053038","2020-03-24 01:00","2020","03","24","01:00","-2.3","","","M","","M","","M","20","","34","","","","102.52","","","","-10","","NA"
"-61.70","49.09","HEATH POINT","7053038","2020-03-24 02:00","2020","03","24","02:00","-2.2","","","M","","M","","M","20","","34","","","","102.40","","","","-10","","NA"
"-61.70","49.09","HEATH POINT","7053038","2020-03-24 03:00","2020","03","24","03:00","-2.5","","","M","","M","","M","20","","31","","","","102.33","","","","-10","","NA"
"-61.70","49.09","HEATH POINT","7053038","2020-03-24 04:00","2020","03","24","04:00","-2.4","","","M","","M","","M","21","","28","","","","102.25","","","","-9","","NA"
"-61.70","49.09","HEATH POINT","7053038","2020-03-24 05:00","2020","03","24","05:00","-2.5","","","M","","M","","M","22","","21","","","","102.24","","","","-9","","NA"
"-61.70","49.09","HEATH POINT","7053038","2020-03-24 06:00","2020","03","24","06:00","-2.4","","","M","","M","","M","22","","23","","","","102.21","","","","-9","","NA"
"-61.70","49.09","HEATH POINT","7053038","2020-03-24 07:00","2020","03","24","07:00","-2.5","","","M","","M","","M","21","","25","","","","102.17","","","","-9","","NA"
"-61.70","49.09","HEATH POINT","7053038","2020-03-24 08:00","2020","03","24","08:00","-2.8","","","M","","M","","M","22","","24","","","","102.13","","","","-9","","NA"
"-61.70","49.09","HEATH POINT","7053038","2020-03-24 09:00","2020","03","24","09:00","-2.8","","","M","","M","","M","22","","17","","","","102.08","","","","-8","","NA"
"-61.70","49.09","HEATH POINT","7053038","2020-03-24 10:00","2020","03","24","10:00","-3.0","","","M","","M","","M","20","","15","","","","102.01","","","","-8","","NA"
"-61.70","49.09","HEATH POINT","7053038","2020-03-24 11:00","2020","03","24","11:00","-2.9","","","M","","M","","M","18","","11","","","","101.91","","","","-7","","NA"
"-61.70","49.09","HEATH POINT","7053038","2020-03-24 12:00","2020","03","24","12:00","-3.0","","","M","","M","","M","18","","9","","","","101.81","","","","-7","","NA"
"-61.70","49.09","HEATH POINT","7053038","2020-03-24 13:00","2020","03","24","13:00","-2.8","","","M","","M","","M","14","","8","","","","101.73","","","","-6","","NA"
"-61.70","49.09","HEATH POINT","7053038","2020-03-24 14:00","2020","03","24","14:00","-2.7","","","M","","M","","M","3","","5","","","","101.64","","","","-5","","NA"
"-61.70","49.09","HEATH POINT","7053038","2020-03-24 15:00","2020","03","24","15:00","-2.8","","","M","","M","","M","5","","9","","","","101.58","","","","-6","","NA"
"-61.70","49.09","HEATH POINT","7053038","2020-03-24 16:00","2020","03","24","16:00","-2.8","","","M","","M","","M","7","","12","","","","101.53","","","","-7","","NA"
"-61.70","49.09","HEATH POINT","7053038","2020-03-24 17:00","2020","03","24","17:00","-3.0","","","M","","M","","M","3","","13","","","","101.52","","","","-8","","NA"
"-61.70","49.09","HEATH POINT","7053038","2020-03-24 18:00","2020","03","24","18:00","-3.1","","","M","","M","","M","1","","15","","","","101.54","","","","-8","","NA"
"-61.70","49.09","HEATH POINT","7053038","2020-03-24 19:00","2020","03","24","19:00","-3.4","","","M","","M","","M","36","","20","","","","101.55","","","","-10","","NA"
"-61.70","49.09","HEATH POINT","7053038","2020-03-24 20:00","2020","03","24","20:00","-3.3","","","M","","M","","M","1","","18","","","","101.56","","","","-9","","NA"
"-61.70","49.09","HEATH POINT","7053038","2020-03-24 21:00","2020","03","24","21:00","-3.3","","","M","","M","","M","36","","18","","","","101.58","","","","-9","","NA"
"-61.70","49.09","HEATH POINT","7053038","2020-03-24 22:00","2020","03","24","22:00","-3.6","","","M","","M","","M","35","","20","","","","101.58","","","","-10","","NA"
"-61.70","49.09","HEATH POINT","7053038","2020-03-24 23:00","2020","03","24","23:00","-4.1","","","M","","M","","M","34","","26","","","","101.57","","","","-11","","NA"
"-61.70","49.09","HEATH POINT","7053038","2020-03-25 00:00","2020","03","25","00:00","-3.9","","","M","","M","","M","34","","29","","","","101.59","","","","-11","","NA"
"-61.70","49.09","HEATH POINT","7053038","2020-03-25 01:00","2020","03","25","01:00","-4.1","","","M","","M","","M","33","","31","","","","101.60","","","","-12","","NA"
"-61.70","49.09","HEATH POINT","7053038","2020-03-25 02:00","2020","03","25","02:00","-4.2","","","M","","M","","M","32","","28","","","","101.63","","","","-12","","NA"
"-61.70","49.09","HEATH POINT","7053038","2020-03-25 03:00","2020","03","25","03:00","-4.1","","","M","","M","","M","32","","27","","","","101.68","","","","-11","","NA"
"-61.70","49.09","HEATH POINT","7053038","2020-03-25 04:00","2020","03","25","04:00","-4.0","","","M","","M","","M","32","","28","","","","101.75","","","","-11","","NA"
"-61.70","49.09","HEATH POINT","7053038","2020-03-25 05:00","2020","03","25","05:00","-4.6","","","M","","M","","M","32","","24","","","","101.87","","","","-12","","NA"
"-61.70","49.09","HEATH POINT","7053038","2020-03-25 06:00","2020","03","25","06:00","-4.0","","","M","","M","","M","32","","25","","","","101.98","","","","-11","","NA"
"-61.70","49.09","HEATH POINT","7053038","2020-03-25 07:00","2020","03","25","07:00","-2.3","","","M","","M","","M","34","","21","","","","102.03","","","","-8","","NA"
"-61.70","49.09","HEATH POINT","7053038","2020-03-25 08:00","2020","03","25","08:00","-0.6","","","M","","M","","M","36","","17","","","","102.11","","","","-6","","NA"
"-61.70","49.09","HEATH POINT","7053038","2020-03-25 09:00","2020","03","25","09:00","-0.8","","","M","","M","","M","1","","22","","","","102.16","","","","-7","","NA"
"-61.70","49.09","HEATH POINT","7053038","2020-03-25 10:00","2020","03","25","10:00","-0.3","","","M","","M","","M","1","","20","","","","102.24","","","","-6","","NA"
"-61.70","49.09","HEATH POINT","7053038","2020-03-25 11:00","2020","03","25","11:00","-0.4","","","M","","M","","M","1","","19","","","","102.28","","","","-6","","NA"
"-61.70","49.09","HEATH POINT","7053038","2020-03-25 12:00","2020","03","25","12:00","0.0","","","M","","M","","M","3","","13","","","","102.35","","","","-4","","NA"
"-61.70","49.09","HEATH POINT","7053038","2020-03-25 13:00","2020","03","25","13:00","-1.3","","","M","","M","","M","4","","18","","","","102.35","","","","-7","","NA"
"-61.70","49.09","HEATH POINT","7053038","2020-03-25 14:00","2020","03","25","14:00","-1.1","","","M","","M","","M","8","","11","","","","102.38","","","","-5","","NA"
"-61.70","49.09","HEATH POINT","7053038","2020-03-25 15:00","2020","03","25","15:00","-0.7","","","M","","M","","M","10","","20","","","","102.35","","","","-6","","NA"
"-61.70","49.09","HEATH POINT","7053038","2020-03-25 16:00","2020","03","25","16:00","-1.4","","","M","","M","","M","23","","13","","","","102.40","","","","-6","","NA"
"-61.70","49.09","HEATH POINT","7053038","2020-03-25 17:00","2020","03","25","17:00","-1.7","","","M","","M","","M","22","","10","","","","102.37","","","","-5","","NA"
"-61.70","49.09","HEATH POINT","7053038","2020-03-25 18:00","2020","03","25","18:00","-2.3","","","M","","M","","M","21","","12","","","","102.46","","","","-7","","NA"
"-61.70","49.09","HEATH POINT","7053038","2020-03-25 19:00","2020","03","25","19:00","-2.2","","","M","","M","","M","21","","13","","","","102.51","","","","-7","","NA"
"-61.70","49.09","HEATH POINT","7053038","2020-03-25 20:00","2020","03","25","20:00","-2.2","","","M","","M","","M","20","","11","","","","102.51","","","","-6","","NA"
"-61.70","49.09","HEATH POINT","7053038","2020-03-25 21:00","2020","03","25","21:00","-2.4","","","M","","M","","M","20","","10","","","","102.50","","","","-6","","NA"
"-61.70","49.09","HEATH POINT","7053038","2020-03-25 22:00","2020","03","25","22:00","-2.3","","","M","","M","","M","19","","11","","","","102.48","","","","-6","","NA"
"-61.70","49.09","HEATH POINT","7053038","2020-03-25 23:00","2020","03","25","23:00","-2.6","","","M","","M","","M","21","","10","","","","102.49","","","","-6","","NA"
"-61.70","49.09","HEATH POINT","7053038","2020-03-26 00:00","2020","03","26","00:00","-2.2","","","M","","M","","M","17","","17","","","","102.47","","","","-8","","NA"
"-61.70","49.09","HEATH POINT","7053038","2020-03-26 01:00","2020","03","26","01:00","-2.2","","","M","","M","","M","18","","16","","","","102.44","","","","-7","","NA"
"-61.70","49.09","HEATH POINT","7053038","2020-03-26 02:00","2020","03","26","02:00","-2.1","","","M","","M","","M","18","","16","","","","102.46","","","","-7","","NA"
"-61.70","49.09","HEATH POINT","7053038","2020-03-26 03:00","2020","03","26","03:00","-2.2","","","M","","M","","M","18","","12","","","","102.42","","","","-6","","NA"
"-61.70","49.09","HEATH POINT","7053038","2020-03-26 04:00","2020","03","26","04:00","-2.2","","","M","","M","","M","17","","10","","","","102.40","","","","-6","","NA"
"-61.70","49.09","HEATH POINT","7053038","2020-03-26 05:00","2020","03","26","05:00","-2.2","","","M","","M","","M","14","","11","","","","102.41","","","","-6","","NA"
"-61.70","49.09","HEATH POINT","7053038","2020-03-26 06:00","2020","03","26","06:00","-2.1","","","M","","M","","M","13","","11","","","","102.39","","","","-6","","NA"
"-61.70","49.09","HEATH POINT","7053038","2020-03-26 07:00","2020","03","26","07:00","-2.0","","","M","","M","","M","12","","19","","","","102.35","","","","-8","","NA"
"-61.70","49.09","HEATH POINT","7053038","2020-03-26 08:00","2020","03","26","08:00","-1.9","","","M","","M","","M","13","","20","","","","102.40","","","","-8","","NA"
"-61.70","49.09","HEATH POINT","7053038","2020-03-26 09:00","2020","03","26","09:00","-1.5","","","M","","M","","M","15","","21","","","","102.36","","","","-7","","NA"
"-61.70","49.09","HEATH POINT","7053038","2020-03-26 10:00","2020","03","26","10:00","-1.4","","","M","","M","","M","16","","23","","","","102.30","","","","-7","","NA"
"-61.70","49.09","HEATH POINT","7053038","2020-03-26 11:00","2020","03","26","11:00","-1.2","","","M","","M","","M","16","","20","","","","102.27","","","","-7","","NA"
"-61.70","49.09","HEATH POINT","7053038","2020-03-26 12:00","2020","03","26","12:00","-1.3","","","M","","M","","M","16","","17","","","","102.22","","","","-6","","NA"
"-61.70","49.09","HEATH POINT","7053038","2020-03-26 13:00","2020","03","26","13:00","-1.3","","","M","","M","","M","15","","16","","","","102.13","","","","-6","","NA"
"-61.70","49.09","HEATH POINT","7053038","2020-03-26 14:00","2020","03","26","14:00","-1.3","","","M","","M","","M","14","","18","","","","102.05","","","","-7","","NA"
"-61.70","49.09","HEATH POINT","7053038","2020-03-26 15:00","2020","03","26","15:00","-1.4","","","M","","M","","M","11","","16","","","","101.97","","","","-6","","NA"
"-61.70","49.09","HEATH POINT","7053038","2020-03-26 16:00","2020","03","26","16:00","-1.4","","","M","","M","","M","14","","17","","","","101.89","","","","-7","","NA"
"-61.70","49.09","HEATH POINT","7053038","2020-03-26 17:00","2020","03","26","17:00","-1.6","","","M","","M","","M","8","","16","","","","101.80","","","","-7","","NA"
"-61.70","49.09","HEATH POINT","7053038","2020-03-26 18:00","2020","03","26","18:00","-1.8","","","M","","M","","M","7","","20","","","","101.72","","","","-8","","NA"
"-61.70","49.09","HEATH POINT","7053038","2020-03-26 19:00","2020","03","26","19:00","-1.7","","","M","","M","","M","9","","22","","","","101.64","","","","-8","","NA"
"-61.70","49.09","HEATH POINT","7053038","2020-03-26 20:00","2020","03","26","20:00","-1.5","","","M","","M","","M","8","","29","","","","101.53","","","","-8","","NA"
"-61.70","49.09","HEATH POINT","7053038","2020-03-26 21:00","2020","03","26","21:00","-1.7","","","M","","M","","M","9","","23","","","","101.40","","","","-8","","NA"
"-61.70","49.09","HEATH POINT","7053038","2020-03-26 22:00","2020","03","26","22:00","-2.1","","","M","","M","","M","8","","36","","","","101.26","","","","-10","","NA"
"-61.70","49.09","HEATH POINT","7053038","2020-03-26 23:00","2020","03","26","23:00","-2.1","","","M","","M","","M","6","","33","","","","101.12","","","","-10","","NA"
"-61.70","49.09","HEATH POINT","7053038","2020-03-27 00:00","2020","03","27","00:00","-2.0","","","M","","M","","M","5","","38","","","","101.00","","","","-10","","NA"
"-61.70","49.09","HEATH POINT","7053038","2020-03-27 01:00","2020","03","27","01:00","-2.2","","","M","","M","","M","5","","39","","","","100.85","","","","-10","","NA"
"-61.70","49.09","HEATH POINT","7053038","2020-03-27 02:00","2020","03","27","02:00","-2.0","","","M","","M","","M","5","","41","","","","100.66","","","","-10","","NA"
"-61.70","49.09","HEATH POINT","7053038","2020-03-27 03:00","2020","03","27","03:00","-1.9","","","M","","M","","M","5","","42","","","","100.52","","","","-10","","NA"
"-61.70","49.09","HEATH POINT","7053038","2020-03-27 04:00","2020","03","27","04:00","-1.8","","","M","","M","","M","4","","40","","","","100.35","","","","-10","","NA"
"-61.70","49.09","HEATH POINT","7053038","2020-03-27 05:00","2020","03","27","05:00","-1.8","","","M","","M","","M","5","","35","","","","100.23","","","","-9","","NA"
"-61.70","49.09","HEATH POINT","7053038","2020-03-27 06:00","2020","03","27","06:00","-1.8","","","M","","M","","M","4","","27","","","","100.08","","","","-8","","NA"
"-61.70","49.09","HEATH POINT","7053038","2020-03-27 07:00","2020","03","27","07:00","-1.9","","","M","","M","","M","4","","29","","","","99.91","","","","-9","","NA"
"-61.70","49.09","HEATH POINT","7053038","2020-03-27 08:00","2020","03","27","08:00","-1.9","","","M","","M","","M","3","","27","","","","99.84","","","","-9","","NA"
"-61.70","49.09","HEATH POINT","7053038","2020-03-27 09:00","2020","03","27","09:00","-2.1","","","M","","M","","M","2","","40","","","","99.70","","","","-10","","NA"
"-61.70","49.09","HEATH POINT","7053038","2020-03-27 10:00","2020","03","27","10:00","-2.0","","","M","","M","","M","1","","42","","","","99.57","","","","-10","","NA"
"-61.70","49.09","HEATH POINT","7053038","2020-03-27 11:00","2020","03","27","11:00","-1.9","","","M","","M","","M","1","","36","","","","99.47","","","","-10","","NA"
"-61.70","49.09","HEATH POINT","7053038","2020-03-27 12:00","2020","03","27","12:00","-1.7","","","M","","M","","M","36","","37","","","","99.32","","","","-9","","NA"
"-61.70","49.09","HEATH POINT","7053038","2020-03-27 13:00","2020","03","27","13:00","-1.4","","","M","","M","","M","35","","40","","","","99.25","","","","-9","","NA"
"-61.70","49.09","HEATH POINT","7053038","2020-03-27 14:00","2020","03","27","14:00","-1.2","","","M","","M","","M","34","","40","","","","99.23","","","","-9","","NA"
"-61.70","49.09","HEATH POINT","7053038","2020-03-27 15:00","2020","03","27","15:00","-1.0","","","M","","M","","M","34","","45","","","","99.20","","","","-9","","NA"
"-61.70","49.09","HEATH POINT","7053038","2020-03-27 16:00","2020","03","27","16:00","-0.7","","","M","","M","","M","33","","44","","","","99.20","","","","-9","","NA"
"-61.70","49.09","HEATH POINT","7053038","2020-03-27 17:00","2020","03","27","17:00","-0.5","","","M","","M","","M","33","","48","","","","99.20","","","","-9","","NA"
"-61.70","49.09","HEATH POINT","7053038","2020-03-27 18:00","2020","03","27","18:00","-0.8","","","M","","M","","M","33","","45","","","","99.25","","","","-9","","NA"
"-61.70","49.09","HEATH POINT","7053038","2020-03-27 19:00","2020","03","27","19:00","-1.1","","","M","","M","","M","32","","44","","","","99.26","","","","-9","","NA"
"-61.70","49.09","HEATH POINT","7053038","2020-03-27 20:00","2020","03","27","20:00","-1.1","","","M","","M","","M","32","","54","","","","99.25","","","","-10","","NA"
"-61.70","49.09","HEATH POINT","7053038","2020-03-27 21:00","2020","03","27","21:00","-1.4","","","M","","M","","M","32","","54","","","","99.28","","","","-10","","NA"
"-61.70","49.09","HEATH POINT","7053038","2020-03-27 22:00","2020","03","27","22:00","-1.9","","","M","","M","","M","32","","55","","","","99.36","","","","-11","","NA"
"-61.70","49.09","HEATH POINT","7053038","2020-03-27 23:00","2020","03","27","23:00","-2.3","","","M","","M","","M","32","","53","","","","99.40","","","","-11","","NA"
"-61.70","49.09","HEATH POINT","7053038","2020-03-28 00:00","2020","03","28","00:00","-2.7","","","M","","M","","M","32","","54","","","","99.52","","","","-12","","NA"
"-61.70","49.09","HEATH POINT","7053038","2020-03-28 01:00","2020","03","28","01:00","-3.1","","","M","","M","","M","31","","47","","","","99.63","","","","-12","","NA"
"-61.70","49.09","HEATH POINT","7053038","2020-03-28 02:00","2020","03","28","02:00","-3.5","","","M","","M","","M","31","","46","","","","99.73","","","","-13","","NA"
"-61.70","49.09","HEATH POINT","7053038","2020-03-28 03:00","2020","03","28","03:00","-3.8","","","M","","M","","M","30","","39","","","","99.87","","","","-12","","NA"
"-61.70","49.09","HEATH POINT","7053038","2020-03-28 04:00","2020","03","28","04:00","-4.2","","","M","","M","","M","29","","34","","","","100.07","","","","-12","","NA"
"-61.70","49.09","HEATH POINT","7053038","2020-03-28 05:00","2020","03","28","05:00","-4.0","","","M","","M","","M","29","","35","","","","100.22","","","","-12","","NA"
"-61.70","49.09","HEATH POINT","7053038","2020-03-28 06:00","2020","03","28","06:00","-4.1","","","M","","M","","M","29","","32","","","","100.34","","","","-12","","NA"
"-61.70","49.09","HEATH POINT","7053038","2020-03-28 07:00","2020","03","28","07:00","-3.6","","","M","","M","","M","30","","35","","","","100.49","","","","-12","","NA"
"-61.70","49.09","HEATH POINT","7053038","2020-03-28 08:00","2020","03","28","08:00","-2.7","","","M","","M","","M","31","","37","","","","100.60","","","","-11","","NA"
"-61.70","49.09","HEATH POINT","7053038","2020-03-28 09:00","2020","03","28","09:00","-1.7","","","M","","M","","M","32","","39","","","","100.70","","","","-10","","NA"
"-61.70","49.09","HEATH POINT","7053038","2020-03-28 10:00","2020","03","28","10:00","-1.7","","","M","","M","","M","32","","41","","","","100.79","","","","-10","","NA"
"-61.70","49.09","HEATH POINT","7053038","2020-03-28 11:00","2020","03","28","11:00","-0.7","","","M","","M","","M","32","","34","","","","100.85","","","","-8","","NA"
"-61.70","49.09","HEATH POINT","7053038","2020-03-28 12:00","2020","03","28","12:00","0.3","","","M","","M","","M","32","","35","","","","100.94","","","","","","NA"
"-61.70","49.09","HEATH POINT","7053038","2020-03-28 13:00","2020","03","28","13:00","1.8","","","M","","M","","M","32","","31","","","","101.04","","","","","","NA"
"-61.70","49.09","HEATH POINT","7053038","2020-03-28 14:00","2020","03","28","14:00","2.5","","","M","","M","","M","32","","34","","","","101.18","","","","","","NA"
"-61.70","49.09","HEATH POINT","7053038","2020-03-28 15:00","2020","03","28","15:00","2.8","","","M","","M","","M","31","","33","","","","101.27","","","","","","NA"
"-61.70","49.09","HEATH POINT","7053038","2020-03-28 16:00","2020","03","28","16:00","2.3","","","M","","M","","M","29","","26","","","","101.39","","","","","","NA"
"-61.70","49.09","HEATH POINT","7053038","2020-03-28 17:00","2020","03","28","17:00","0.8","","","M","","M","","M","29","","20","","","","101.54","","","","","","NA"
"-61.70","49.09","HEATH POINT","7053038","2020-03-28 18:00","2020","03","28","18:00","-0.8","","","M","","M","","M","27","","18","","","","101.66","","","","-6","","NA"
"-61.70","49.09","HEATH POINT","7053038","2020-03-28 19:00","2020","03","28","19:00","-2.4","","","M","","M","","M","28","","17","","","","101.74","","","","-8","","NA"
"-61.70","49.09","HEATH POINT","7053038","2020-03-28 20:00","2020","03","28","20:00","-3.3","","","M","","M","","M","27","","19","","","","101.80","","","","-9","","NA"
"-61.70","49.09","HEATH POINT","7053038","2020-03-28 21:00","2020","03","28","21:00","-2.5","","","M","","M","","M","31","","24","","","","101.83","","","","-9","","NA"
"-61.70","49.09","HEATH POINT","7053038","2020-03-28 22:00","2020","03","28","22:00","-2.9","","","M","","M","","M","30","","10","","","","101.93","","","","-7","","NA"
"-61.70","49.09","HEATH POINT","7053038","2020-03-28 23:00","2020","03","28","23:00","-2.7","","","M","","M","","M","33","","31","","","","101.95","","","","-10","","NA"
"-61.70","49.09","HEATH POINT","7053038","2020-03-29 00:00","2020","03","29","00:00","-2.2","","","M","","M","","M","34","","26","","","","102.01","","","","-9","","NA"
"-61.70","49.09","HEATH POINT","7053038","2020-03-29 01:00","2020","03","29","01:00","-1.7","","","M","","M","","M","35","","26","","","","102.13","","","","-8","","NA"
"-61.70","49.09","HEATH POINT","7053038","2020-03-29 02:00","2020","03","29","02:00","-2.1","","","M","","M","","M","35","","27","","","","102.20","","","","-9","","NA"
"-61.70","49.09","HEATH POINT","7053038","2020-03-29 03:00","2020","03","29","03:00","-2.8","","","M","","M","","M","35","","22","","","","102.29","","","","-9","","NA"
"-61.70","49.09","HEATH POINT","7053038","2020-03-29 04:00","2020","03","29","04:00","-2.9","","","M","","M","","M","36","","21","","","","102.36","","","","-9","","NA"
"-61.70","49.09","HEATH POINT","7053038","2020-03-29 05:00","2020","03","29","05:00","-3.0","","","M","","M","","M","36","","21","","","","102.45","","","","-9","","NA"
"-61.70","49.09","HEATH POINT","7053038","2020-03-29 06:00","2020","03","29","06:00","-2.4","","","M","","M","","M","1","","20","","","","102.53","","","","-8","","NA"
"-61.70","49.09","HEATH POINT","7053038","2020-03-29 07:00","2020","03","29","07:00","-2.0","","","M","","M","","M","2","","22","","","","102.60","","","","-8","","NA"
"-61.70","49.09","HEATH POINT","7053038","2020-03-29 08:00","2020","03","29","08:00","-2.0","","","M","","M","","M","2","","22","","","","102.69","","","","-8","","NA"
"-61.70","49.09","HEATH POINT","7053038","2020-03-29 09:00","2020","03","29","09:00","-2.1","","","M","","M","","M","3","","20","","","","102.71","","","","-8","","NA"
"-61.70","49.09","HEATH POINT","7053038","2020-03-29 10:00","2020","03","29","10:00","-2.1","","","M","","M","","M","3","","21","","","","102.72","","","","-8","","NA"
"-61.70","49.09","HEATH POINT","7053038","2020-03-29 11:00","2020","03","29","11:00","-1.8","","","M","","M","","M","1","","19","","","","102.73","","","","-7","","NA"
"-61.70","49.09","HEATH POINT","7053038","2020-03-29 12:00","2020","03","29","12:00","-1.4","","","M","","M","","M","2","","20","","","","102.76","","","","-7","","NA"
"-61.70","49.09","HEATH POINT","7053038","2020-03-29 13:00","2020","03","29","13:00","-1.5","","","M","","M","","M","2","","23","","","","102.78","","","","-8","","NA"
"-61.70","49.09","HEATH POINT","7053038","2020-03-29 14:00","2020","03","29","14:00","-1.8","","","M","","M","","M","1","","24","","","","102.75","","","","-8","","NA"
"-61.70","49.09","HEATH POINT","7053038","2020-03-29 15:00","2020","03","29","15:00","-1.5","","","M","","M","","M","1","","23","","","","102.73","","","","-8","","NA"
"-61.70","49.09","HEATH POINT","7053038","2020-03-29 16:00","2020","03","29","16:00","-1.7","","","M","","M","","M","1","","21","","","","102.76","","","","-8","","NA"
"-61.70","49.09","HEATH POINT","7053038","2020-03-29 17:00","2020","03","29","17:00","-1.8","","","M","","M","","M","36","","19","","","","102.73","","","","-7","","NA"
"-61.70","49.09","HEATH POINT","7053038","2020-03-29 18:00","2020","03","29","18:00","-3.3","","","M","","M","","M","34","","14","","","","102.77","","","","-8","","NA"
"-61.70","49.09","HEATH POINT","7053038","2020-03-29 19:00","2020","03","29","19:00","-2.9","","","M","","M","","M","36","","18","","","","102.77","","","","-9","","NA"
"-61.70","49.09","HEATH POINT","7053038","2020-03-29 20:00","2020","03","29","20:00","-4.5","","","M","","M","","M","31","","8","","","","102.83","","","","-8","","NA"
"-61.70","49.09","HEATH POINT","7053038","2020-03-29 21:00","2020","03","29","21:00","-4.2","","","M","","M","","M","27","","8","","","","102.87","","","","-8","","NA"
"-61.70","49.09","HEATH POINT","7053038","2020-03-29 22:00","2020","03","29","22:00","-4.4","","","M","","M","","M","32","","7","","","","102.88","","","","-8","","NA"
"-61.70","49.09","HEATH POINT","7053038","2020-03-29 23:00","2020","03","29","23:00","-3.6","","","M","","M","","M","1","","13","","","","102.84","","","","-8","","NA"
"-61.70","49.09","HEATH POINT","7053038","2020-03-30 00:00","2020","03","30","00:00","-3.4","","","M","","M","","M","1","","17","","","","102.80","","","","-9","","NA"
"-61.70","49.09","HEATH POINT","7053038","2020-03-30 01:00","2020","03","30","01:00","-3.6","","","M","","M","","M","36","","13","","","","102.72","","","","-8","","NA"
"-61.70","49.09","HEATH POINT","7053038","2020-03-30 02:00","2020","03","30","02:00","-1.9","","","M","","M","","M","2","","22","","","","102.62","","","","-8","","NA"
"-61.70","49.09","HEATH POINT","7053038","2020-03-30 03:00","2020","03","30","03:00","-1.7","","","M","","M","","M","5","","30","","","","102.55","","","","-9","","NA"
"-61.70","49.09","HEATH POINT","7053038","2020-03-30 04:00","2020","03","30","04:00","-1.5","","","M","","M","","M","6","","27","","","","102.67","","","","-8","","NA"
"-61.70","49.09","HEATH POINT","7053038","2020-03-30 05:00","2020","03","30","05:00","-2.0","","","M","","M","","M","6","","28","","","","102.76","","","","-9","","NA"
"-61.70","49.09","HEATH POINT","7053038","2020-03-30 06:00","2020","03","30","06:00","-2.5","","","M","","M","","M","6","","31","","","","102.80","","","","-10","","NA"
"-61.70","49.09","HEATH POINT","7053038","2020-03-30 07:00","2020","03","30","07:00","-2.6","","","M","","M","","M","7","","33","","","","102.81","","","","-10","","NA"
"-61.70","49.09","HEATH POINT","7053038","2020-03-30 08:00","2020","03","30","08:00","-2.9","","","M","","M","","M","5","","38","","","","102.79","","","","-11","","NA"
"-61.70","49.09","HEATH POINT","7053038","2020-03-30 09:00","2020","03","30","09:00","-2.8","","","M","","M","","M","4","","37","","","","102.73","","","","-11","","NA"
"-61.70","49.09","HEATH POINT","7053038","2020-03-30 10:00","2020","03","30","10:00","-2.8","","","M","","M","","M","5","","37","","","","102.70","","","","-11","","NA"
"-61.70","49.09","HEATH POINT","7053038","2020-03-30 11:00","2020","03","30","11:00","-3.0","","","M","","M","","M","4","","36","","","","102.64","","","","-11","","NA"
"-61.70","49.09","HEATH POINT","7053038","2020-03-30 12:00","2020","03","30","12:00","-3.1","","","M","","M","","M","4","","39","","","","102.59","","","","-11","","NA"
"-61.70","49.09","HEATH POINT","7053038","2020-03-30 13:00","2020","03","30","13:00","-3.2","","","M","","M","","M","3","","36","","","","102.55","","","","-11","","NA"
"-61.70","49.09","HEATH POINT","7053038","2020-03-30 14:00","2020","03","30","14:00","-2.8","","","M","","M","","M","2","","37","","","","102.50","","","","-11","","NA"
"-61.70","49.09","HEATH POINT","7053038","2020-03-30 15:00","2020","03","30","15:00","-2.4","","","M","","M","","M","2","","33","","","","102.49","","","","-10","","NA"
"-61.70","49.09","HEATH POINT","7053038","2020-03-30 16:00","2020","03","30","16:00","-2.0","","","M","","M","","M","3","","33","","","","102.46","","","","-9","","NA"
"-61.70","49.09","HEATH POINT","7053038","2020-03-30 17:00","2020","03","30","17:00","-1.5","","","M","","M","","M","4","","38","","","","102.41","","","","-9","","NA"
"-61.70","49.09","HEATH POINT","7053038","2020-03-30 18:00","2020","03","30","18:00","-1.4","","","M","","M","","M","5","","33","","","","102.37","","","","-9","","NA"
"-61.70","49.09","HEATH POINT","7053038","2020-03-30 19:00","2020","03","30","19:00","-1.4","","","M","","M","","M","4","","33","","","","102.36","","","","-9","","NA"
"-61.70","49.09","HEATH POINT","7053038","2020-03-30 20:00","2020","03","30","20:00","-1.4","","","M","","M","","M","3","","31","","","","102.35","","","","-8","","NA"
"-61.70","49.09","HEATH POINT","7053038","2020-03-30 21:00","2020","03","30","21:00","-1.4","","","M","","M","","M","2","","35","","","","102.31","","","","-9","","NA"
"-61.70","49.09","HEATH POINT","7053038","2020-03-30 22:00","2020","03","30","22:00","-1.4","","","M","","M","","M","3","","37","","","","102.27","","","","-9","","NA"
"-61.70","49.09","HEATH POINT","7053038","2020-03-30 23:00","2020","03","30","23:00","-1.7","","","M","","M","","M","2","","35","","","","102.22","","","","-9","","NA"
"-61.70","49.09","HEATH POINT","7053038","2020-03-31 00:00","2020","03","31","00:00","-1.8","","","M","","M","","M","1","","37","","","","102.16","","","","-10","","NA"
"-61.70","49.09","HEATH POINT","7053038","2020-03-31 01:00","2020","03","31","01:00","-2.0","","","M","","M","","M","1","","38","","","","102.13","","","","-10","","NA"
"-61.70","49.09","HEATH POINT","7053038","2020-03-31 02:00","2020","03","31","02:00","-1.4","","","M","","M","","M","3","","45","","","","102.06","","","","-10","","NA"
"-61.70","49.09","HEATH POINT","7053038","2020-03-31 03:00","2020","03","31","03:00","-1.7","","","M","","M","","M","3","","49","","","","102.01","","","","-10","","NA"
"-61.70","49.09","HEATH POINT","7053038","2020-03-31 04:00","2020","03","31","04:00","-1.7","","","M","","M","","M","4","","52","","","","102.00","","","","-11","","NA"
"-61.70","49.09","HEATH POINT","7053038","2020-03-31 05:00","2020","03","31","05:00","-2.1","","","M","","M","","M","4","","52","","","","101.96","","","","-11","","NA"
"-61.70","49.09","HEATH POINT","7053038","2020-03-31 06:00","2020","03","31","06:00","-2.9","","","M","","M","","M","4","","53","","","","101.92","","","","-12","","NA"
"-61.70","49.09","HEATH POINT","7053038","2020-03-31 07:00","2020","03","31","07:00","-2.8","","","M","","M","","M","4","","56","","","","101.91","","","","-12","","NA"
"-61.70","49.09","HEATH POINT","7053038","2020-03-31 08:00","2020","03","31","08:00","-2.4","","","M","","M","","M","4","","55","","","","101.90","","","","-12","","NA"
"-61.70","49.09","HEATH POINT","7053038","2020-03-31 09:00","2020","03","31","09:00","-2.0","","","M","","M","","M","4","","38","","","","101.89","","","","-10","","NA"
"-61.70","49.09","HEATH POINT","7053038","2020-03-31 10:00","2020","03","31","10:00","-1.8","","","M","","M","","M","4","","46","","","","101.87","","","","-10","","NA"
"-61.70","49.09","HEATH POINT","7053038","2020-03-31 11:00","2020","03","31","11:00","-1.6","","","M","","M","","M","4","","53","","","","101.79","","","","-11","","NA"
"-61.70","49.09","HEATH POINT","7053038","2020-03-31 12:00","2020","03","31","12:00","-1.3","","","M","","M","","M","4","","54","","","","101.80","","","","-10","","NA"
"-61.70","49.09","HEATH POINT","7053038","2020-03-31 13:00","2020","03","31","13:00","-1.1","","","M","","M","","M","4","","55","","","","101.77","","","","-10","","NA"
"-61.70","49.09","HEATH POINT","7053038","2020-03-31 14:00","2020","03","31","14:00","-0.8","","","M","","M","","M","4","","60","","","","101.75","","","","-10","","NA"
"-61.70","49.09","HEATH POINT","7053038","2020-03-31 15:00","2020","03","31","15:00","-0.7","","","M","","M","","M","4","","53","","","","101.80","","","","-9","","NA"
"-61.70","49.09","HEATH POINT","7053038","2020-03-31 16:00","2020","03","31","16:00","-0.5","","","M","","M","","M","4","","51","","","","101.79","","","","-9","","NA"
"-61.70","49.09","HEATH POINT","7053038","2020-03-31 17:00","2020","03","31","17:00","-0.4","","","M","","M","","M","4","","46","","","","101.84","","","","-8","","NA"
"-61.70","49.09","HEATH POINT","7053038","2020-03-31 18:00","2020","03","31","18:00","-0.3","","","M","","M","","M","4","","46","","","","101.87","","","","-8","","NA"
"-61.70","49.09","HEATH POINT","7053038","2020-03-31 19:00","2020","03","31","19:00","-0.3","","","M","","M","","M","4","","45","","","","101.87","","","","-8","","NA"
"-61.70","49.09","HEATH POINT","7053038","2020-03-31 20:00","2020","03","31","20:00","-0.4","","","M","","M","","M","4","","44","","","","101.88","","","","-8","","NA"
"-61.70","49.09","HEATH POINT","7053038","2020-03-31 21:00","2020","03","31","21:00","-0.6","","","M","","M","","M","4","","43","","","","101.87","","","","-8","","NA"
"-61.70","49.09","HEATH POINT","7053038","2020-03-31 22:00","2020","03","31","22:00","-0.8","","","M","","M","","M","4","","42","","","","101.85","","","","-9","","NA"
"-61.70","49.09","HEATH POINT","7053038","2020-03-31 23:00","2020","03","31","23:00","-0.7","","","M","","M","","M","4","","40","","","","101.80","","","","-8","","NA"
