"Longitude (x)","Latitude (y)","Station Name","Climate ID","Date/Time (LST)","Year","Month","Day","Time (LST)","Temp (°C)","Temp Flag","Dew Point Temp (°C)","Dew Point Temp Flag","Rel Hum (%)","Rel Hum Flag","Precip. Amount (mm)","Precip. Amount Flag","Wind Dir (10s deg)","Wind Dir Flag","Wind Spd (km/h)","Wind Spd Flag","Visibility (km)","Visibility Flag","Stn Press (kPa)","Stn Press Flag","Hmdx","Hmdx Flag","Wind Chill","Wind Chill Flag","Weather"
"-72.73","46.56","SHAWINIGAN","7018001","2020-12-01 00:00","2020","12","01","00:00","6.3","","6.0","","98","","0.0","","5","","10","","","","98.34","","","","","","NA"
"-72.73","46.56","SHAWINIGAN","7018001","2020-12-01 01:00","2020","12","01","01:00","6.6","","6.3","","98","","0.0","","5","","8","","","","98.32","","","","","","NA"
"-72.73","46.56","SHAWINIGAN","7018001","2020-12-01 02:00","2020","12","01","02:00","7.1","","6.9","","98","","4.2","","6","","6","","","","98.32","","","","","","NA"
"-72.73","46.56","SHAWINIGAN","7018001","2020-12-01 03:00","2020","12","01","03:00","7.7","","7.5","","99","","3.2","","6","","8","","","","98.32","","","","","","NA"
"-72.73","46.56","SHAWINIGAN","7018001","2020-12-01 04:00","2020","12","01","04:00","7.9","","7.7","","99","","0.6","","6","","8","","","","98.28","","","","","","NA"
"-72.73","46.56","SHAWINIGAN","7018001","2020-12-01 05:00","2020","12","01","05:00","8.4","","8.2","","99","","0.8","","5","","7","","","","98.31","","","","","","NA"
"-72.73","46.56","SHAWINIGAN","7018001","2020-12-01 06:00","2020","12","01","06:00","8.7","","8.5","","99","","2.6","","36","","5","","","","98.37","","","","","","NA"
"-72.73","46.56","SHAWINIGAN","7018001","2020-12-01 07:00","2020","12","01","07:00","7.7","","7.6","","99","","2.0","","32","","7","","","","98.44","","","","","","NA"
"-72.73","46.56","SHAWINIGAN","7018001","2020-12-01 08:00","2020","12","01","08:00","6.5","","6.3","","99","","0.0","","35","","7","","","","98.51","","","","","","NA"
"-72.73","46.56","SHAWINIGAN","7018001","2020-12-01 09:00","2020","12","01","09:00","6.0","","5.6","","98","","0.0","","35","","7","","","","98.55","","","","","","NA"
"-72.73","46.56","SHAWINIGAN","7018001","2020-12-01 10:00","2020","12","01","10:00","6.2","","5.7","","97","","0.0","","36","","7","","","","98.56","","","","","","NA"
"-72.73","46.56","SHAWINIGAN","7018001","2020-12-01 11:00","2020","12","01","11:00","7.4","","7.0","","97","","0.0","","35","","8","","","","98.45","","","","","","NA"
"-72.73","46.56","SHAWINIGAN","7018001","2020-12-01 12:00","2020","12","01","12:00","9.0","","7.7","","92","","0.0","","34","","8","","","","98.35","","","","","","NA"
"-72.73","46.56","SHAWINIGAN","7018001","2020-12-01 13:00","2020","12","01","13:00","9.8","","8.3","","90","","0.0","","33","","6","","","","98.24","","","","","","NA"
"-72.73","46.56","SHAWINIGAN","7018001","2020-12-01 14:00","2020","12","01","14:00","9.1","","8.1","","94","","0.0","","34","","6","","","","98.16","","","","","","NA"
"-72.73","46.56","SHAWINIGAN","7018001","2020-12-01 15:00","2020","12","01","15:00","10.4","","9.3","","93","","0.0","","4","","9","","","","98.05","","","","","","NA"
"-72.73","46.56","SHAWINIGAN","7018001","2020-12-01 16:00","2020","12","01","16:00","11.0","","10.4","","96","","0.0","","4","","11","","","","97.91","","","","","","NA"
"-72.73","46.56","SHAWINIGAN","7018001","2020-12-01 17:00","2020","12","01","17:00","11.0","","10.5","","97","","6.6","","21","","12","","","","97.99","","","","","","NA"
"-72.73","46.56","SHAWINIGAN","7018001","2020-12-01 18:00","2020","12","01","18:00","9.1","","8.7","","97","","1.6","","19","","12","","","","98.18","","","","","","NA"
"-72.73","46.56","SHAWINIGAN","7018001","2020-12-01 19:00","2020","12","01","19:00","8.1","","7.6","","97","","1.0","","27","","6","","","","98.13","","","","","","NA"
"-72.73","46.56","SHAWINIGAN","7018001","2020-12-01 20:00","2020","12","01","20:00","7.1","","6.8","","98","","0.0","","16","","5","","","","98.25","","","","","","NA"
"-72.73","46.56","SHAWINIGAN","7018001","2020-12-01 21:00","2020","12","01","21:00","6.2","","5.3","","94","","0.4","","19","","10","","","","98.31","","","","","","NA"
"-72.73","46.56","SHAWINIGAN","7018001","2020-12-01 22:00","2020","12","01","22:00","5.2","","4.5","","96","","0.0","","18","","7","","","","98.34","","","","","","NA"
"-72.73","46.56","SHAWINIGAN","7018001","2020-12-01 23:00","2020","12","01","23:00","5.3","","4.7","","96","","0.0","","19","","13","","","","98.48","","","","","","NA"
"-72.73","46.56","SHAWINIGAN","7018001","2020-12-02 00:00","2020","12","02","00:00","5.3","","4.6","","95","","0.0","","20","","16","","","","98.56","","","","","","NA"
"-72.73","46.56","SHAWINIGAN","7018001","2020-12-02 01:00","2020","12","02","01:00","3.5","","2.2","","91","","0.0","","21","","21","","","","98.66","","","","","","NA"
"-72.73","46.56","SHAWINIGAN","7018001","2020-12-02 02:00","2020","12","02","02:00","3.3","","2.1","","92","","0.0","","21","","15","","","","98.75","","","","","","NA"
"-72.73","46.56","SHAWINIGAN","7018001","2020-12-02 03:00","2020","12","02","03:00","3.2","","2.4","","95","","0.0","","21","","11","","","","98.77","","","","","","NA"
"-72.73","46.56","SHAWINIGAN","7018001","2020-12-02 04:00","2020","12","02","04:00","2.7","","1.2","","90","","0.0","","20","","14","","","","98.88","","","","","","NA"
"-72.73","46.56","SHAWINIGAN","7018001","2020-12-02 05:00","2020","12","02","05:00","2.3","","0.7","","89","","0.0","","21","","10","","","","98.97","","","","","","NA"
"-72.73","46.56","SHAWINIGAN","7018001","2020-12-02 06:00","2020","12","02","06:00","2.0","","0.4","","89","","0.0","","20","","7","","","","99.01","","","","","","NA"
"-72.73","46.56","SHAWINIGAN","7018001","2020-12-02 07:00","2020","12","02","07:00","1.3","","0.3","","93","","0.0","","19","","9","","","","99.05","","","","","","NA"
"-72.73","46.56","SHAWINIGAN","7018001","2020-12-02 08:00","2020","12","02","08:00","1.1","","0.5","","96","","0.0","","15","","3","","","","99.09","","","","","","NA"
"-72.73","46.56","SHAWINIGAN","7018001","2020-12-02 09:00","2020","12","02","09:00","1.6","","1.1","","97","","0.0","","16","","4","","","","99.12","","","","","","NA"
"-72.73","46.56","SHAWINIGAN","7018001","2020-12-02 10:00","2020","12","02","10:00","2.4","","1.3","","92","","0.0","","18","","13","","","","99.17","","","","","","NA"
"-72.73","46.56","SHAWINIGAN","7018001","2020-12-02 11:00","2020","12","02","11:00","2.4","","0.3","","86","","0.0","","18","","14","","","","99.17","","","","","","NA"
"-72.73","46.56","SHAWINIGAN","7018001","2020-12-02 12:00","2020","12","02","12:00","1.6","","0.6","","93","","0.2","","18","","15","","","","99.19","","","","","","NA"
"-72.73","46.56","SHAWINIGAN","7018001","2020-12-02 13:00","2020","12","02","13:00","1.3","","0.6","","96","","0.2","","19","","11","","","","99.20","","","","","","NA"
"-72.73","46.56","SHAWINIGAN","7018001","2020-12-02 14:00","2020","12","02","14:00","0.5","","0.0","","96","","","","22","","13","","","","99.23","","","","","","NA"
"-72.73","46.56","SHAWINIGAN","7018001","2020-12-02 15:00","2020","12","02","15:00","0.6","","0.1","","97","","0.6","","20","","10","","","","99.25","","","","","","NA"
"-72.73","46.56","SHAWINIGAN","7018001","2020-12-02 16:00","2020","12","02","16:00","0.6","","0.2","","97","","0.4","","18","","8","","","","99.26","","","","","","NA"
"-72.73","46.56","SHAWINIGAN","7018001","2020-12-02 17:00","2020","12","02","17:00","0.6","","-0.6","","92","","0.0","","21","","11","","","","99.29","","","","","","NA"
"-72.73","46.56","SHAWINIGAN","7018001","2020-12-02 18:00","2020","12","02","18:00","0.0","","-2.2","","85","","","","21","","16","","","","99.32","","","","-5","","NA"
"-72.73","46.56","SHAWINIGAN","7018001","2020-12-02 19:00","2020","12","02","19:00","-0.6","","-2.6","","86","","","","21","","13","","","","99.32","","","","-5","","NA"
"-72.73","46.56","SHAWINIGAN","7018001","2020-12-02 20:00","2020","12","02","20:00","-0.7","","-2.3","","89","","","","21","","13","","","","99.37","","","","-5","","NA"
"-72.73","46.56","SHAWINIGAN","7018001","2020-12-02 21:00","2020","12","02","21:00","-1.2","","-4.6","","77","","","","26","","16","","","","99.44","","","","-6","","NA"
"-72.73","46.56","SHAWINIGAN","7018001","2020-12-02 22:00","2020","12","02","22:00","-1.8","","-5.9","","74","","","","26","","13","","","","99.49","","","","-6","","NA"
"-72.73","46.56","SHAWINIGAN","7018001","2020-12-02 23:00","2020","12","02","23:00","-1.6","","-5.1","","77","","","","22","","10","","","","99.53","","","","-5","","NA"
"-72.73","46.56","SHAWINIGAN","7018001","2020-12-03 00:00","2020","12","03","00:00","-1.6","","-4.7","","79","","","","21","","11","","","","99.53","","","","-5","","NA"
"-72.73","46.56","SHAWINIGAN","7018001","2020-12-03 01:00","2020","12","03","01:00","-1.5","","-4.9","","78","","","","22","","16","","","","99.58","","","","-6","","NA"
"-72.73","46.56","SHAWINIGAN","7018001","2020-12-03 02:00","2020","12","03","02:00","-1.9","","-5.3","","77","","","","22","","19","","","","99.65","","","","-7","","NA"
"-72.73","46.56","SHAWINIGAN","7018001","2020-12-03 03:00","2020","12","03","03:00","-2.1","","-4.9","","81","","","","22","","14","","","","99.66","","","","-7","","NA"
"-72.73","46.56","SHAWINIGAN","7018001","2020-12-03 04:00","2020","12","03","04:00","-2.8","","-4.9","","85","","","","22","","12","","","","99.73","","","","-7","","NA"
"-72.73","46.56","SHAWINIGAN","7018001","2020-12-03 05:00","2020","12","03","05:00","-3.0","","-5.9","","81","","","","22","","14","","","","99.78","","","","-8","","NA"
"-72.73","46.56","SHAWINIGAN","7018001","2020-12-03 06:00","2020","12","03","06:00","-3.3","","-5.8","","82","","","","22","","15","","","","99.85","","","","-8","","NA"
"-72.73","46.56","SHAWINIGAN","7018001","2020-12-03 07:00","2020","12","03","07:00","-3.2","","-5.9","","82","","","","22","","13","","","","99.89","","","","-8","","NA"
"-72.73","46.56","SHAWINIGAN","7018001","2020-12-03 08:00","2020","12","03","08:00","-3.4","","-6.1","","82","","","","23","","9","","","","99.91","","","","-7","","NA"
"-72.73","46.56","SHAWINIGAN","7018001","2020-12-03 09:00","2020","12","03","09:00","-3.0","","-5.3","","84","","","","22","","13","","","","99.95","","","","-8","","NA"
"-72.73","46.56","SHAWINIGAN","7018001","2020-12-03 10:00","2020","12","03","10:00","-2.4","","-4.6","","85","","","","21","","11","","","","99.93","","","","-6","","NA"
"-72.73","46.56","SHAWINIGAN","7018001","2020-12-03 11:00","2020","12","03","11:00","-1.8","","-3.5","","88","","","","22","","9","","","","99.88","","","","-5","","NA"
"-72.73","46.56","SHAWINIGAN","7018001","2020-12-03 12:00","2020","12","03","12:00","-1.3","","-2.8","","89","","","","19","","8","","","","99.83","","","","-4","","NA"
"-72.73","46.56","SHAWINIGAN","7018001","2020-12-03 13:00","2020","12","03","13:00","-1.1","","-2.1","","93","","","","19","","9","","","","99.79","","","","-4","","NA"
"-72.73","46.56","SHAWINIGAN","7018001","2020-12-03 14:00","2020","12","03","14:00","-0.9","","-1.6","","95","","","","19","","7","","","","99.72","","","","-3","","NA"
"-72.73","46.56","SHAWINIGAN","7018001","2020-12-03 15:00","2020","12","03","15:00","-0.6","","-1.2","","96","","","","17","","4","","","","99.75","","","","-2","","NA"
"-72.73","46.56","SHAWINIGAN","7018001","2020-12-03 16:00","2020","12","03","16:00","-0.5","","-1.1","","96","","","","18","","4","","","","99.74","","","","-2","","NA"
"-72.73","46.56","SHAWINIGAN","7018001","2020-12-03 17:00","2020","12","03","17:00","0.3","","-0.6","","93","","","","21","","9","","","","99.74","","","","","","NA"
"-72.73","46.56","SHAWINIGAN","7018001","2020-12-03 18:00","2020","12","03","18:00","0.9","","-0.5","","90","","0.0","","22","","4","","","","99.75","","","","","","NA"
"-72.73","46.56","SHAWINIGAN","7018001","2020-12-03 19:00","2020","12","03","19:00","1.7","","-0.2","","87","","0.0","","22","","10","","","","99.76","","","","","","NA"
"-72.73","46.56","SHAWINIGAN","7018001","2020-12-03 20:00","2020","12","03","20:00","1.7","","-0.8","","83","","0.0","","22","","11","","","","99.79","","","","","","NA"
"-72.73","46.56","SHAWINIGAN","7018001","2020-12-03 21:00","2020","12","03","21:00","1.6","","-1.4","","81","","0.0","","22","","14","","","","99.83","","","","","","NA"
"-72.73","46.56","SHAWINIGAN","7018001","2020-12-03 22:00","2020","12","03","22:00","1.5","","-1.6","","80","","0.0","","23","","10","","","","99.82","","","","","","NA"
"-72.73","46.56","SHAWINIGAN","7018001","2020-12-03 23:00","2020","12","03","23:00","1.1","","-0.8","","87","","0.0","","21","","9","","","","99.82","","","","","","NA"
"-72.73","46.56","SHAWINIGAN","7018001","2020-12-04 00:00","2020","12","04","00:00","1.1","","-0.5","","89","","0.0","","24","","7","","","","99.84","","","","","","NA"
"-72.73","46.56","SHAWINIGAN","7018001","2020-12-04 01:00","2020","12","04","01:00","0.9","","-0.5","","90","","0.0","","21","","6","","","","99.77","","","","","","NA"
"-72.73","46.56","SHAWINIGAN","7018001","2020-12-04 02:00","2020","12","04","02:00","1.3","","-0.3","","89","","0.0","","21","","8","","","","99.75","","","","","","NA"
"-72.73","46.56","SHAWINIGAN","7018001","2020-12-04 03:00","2020","12","04","03:00","1.1","","0.1","","93","","0.0","","21","","8","","","","99.72","","","","","","NA"
"-72.73","46.56","SHAWINIGAN","7018001","2020-12-04 04:00","2020","12","04","04:00","1.1","","0.3","","95","","0.0","","20","","7","","","","99.70","","","","","","NA"
"-72.73","46.56","SHAWINIGAN","7018001","2020-12-04 05:00","2020","12","04","05:00","1.2","","0.2","","93","","0.0","","21","","10","","","","99.66","","","","","","NA"
"-72.73","46.56","SHAWINIGAN","7018001","2020-12-04 06:00","2020","12","04","06:00","1.0","","0.1","","94","","0.0","","21","","6","","","","99.68","","","","","","NA"
"-72.73","46.56","SHAWINIGAN","7018001","2020-12-04 07:00","2020","12","04","07:00","1.1","","0.5","","95","","0.2","","20","","12","","","","99.70","","","","","","NA"
"-72.73","46.56","SHAWINIGAN","7018001","2020-12-04 08:00","2020","12","04","08:00","0.7","","0.3","","97","","0.4","","20","","8","","","","99.73","","","","","","NA"
"-72.73","46.56","SHAWINIGAN","7018001","2020-12-04 09:00","2020","12","04","09:00","0.9","","0.5","","97","","0.2","","20","","7","","","","99.72","","","","","","NA"
"-72.73","46.56","SHAWINIGAN","7018001","2020-12-04 10:00","2020","12","04","10:00","1.1","","0.7","","97","","0.0","","20","","10","","","","99.72","","","","","","NA"
"-72.73","46.56","SHAWINIGAN","7018001","2020-12-04 11:00","2020","12","04","11:00","1.3","","0.9","","97","","0.0","","21","","10","","","","99.69","","","","","","NA"
"-72.73","46.56","SHAWINIGAN","7018001","2020-12-04 12:00","2020","12","04","12:00","1.4","","1.1","","97","","0.0","","22","","12","","","","99.65","","","","","","NA"
"-72.73","46.56","SHAWINIGAN","7018001","2020-12-04 13:00","2020","12","04","13:00","1.7","","1.2","","97","","0.0","","21","","14","","","","99.65","","","","","","NA"
"-72.73","46.56","SHAWINIGAN","7018001","2020-12-04 14:00","2020","12","04","14:00","1.9","","1.3","","96","","0.0","","22","","7","","","","99.67","","","","","","NA"
"-72.73","46.56","SHAWINIGAN","7018001","2020-12-04 15:00","2020","12","04","15:00","1.8","","1.3","","97","","0.0","","19","","8","","","","99.68","","","","","","NA"
"-72.73","46.56","SHAWINIGAN","7018001","2020-12-04 16:00","2020","12","04","16:00","1.7","","1.3","","97","","0.0","","20","","8","","","","99.69","","","","","","NA"
"-72.73","46.56","SHAWINIGAN","7018001","2020-12-04 17:00","2020","12","04","17:00","1.2","","0.8","","97","","0.4","","19","","9","","","","99.71","","","","","","NA"
"-72.73","46.56","SHAWINIGAN","7018001","2020-12-04 18:00","2020","12","04","18:00","0.5","","0.2","","98","","0.4","","19","","5","","","","99.72","","","","","","NA"
"-72.73","46.56","SHAWINIGAN","7018001","2020-12-04 19:00","2020","12","04","19:00","0.3","","0.1","","98","","","","18","","4","","","","99.73","","","","","","NA"
"-72.73","46.56","SHAWINIGAN","7018001","2020-12-04 20:00","2020","12","04","20:00","0.2","","0.0","","98","","","","","","0","","","","99.72","","","","","","NA"
"-72.73","46.56","SHAWINIGAN","7018001","2020-12-04 21:00","2020","12","04","21:00","0.2","","0.0","","98","","","","","","0","","","","99.74","","","","","","NA"
"-72.73","46.56","SHAWINIGAN","7018001","2020-12-04 22:00","2020","12","04","22:00","0.2","","0.0","","99","","","","","","0","","","","99.72","","","","","","NA"
"-72.73","46.56","SHAWINIGAN","7018001","2020-12-04 23:00","2020","12","04","23:00","0.2","","0.0","","99","","","","","","0","","","","99.75","","","","","","NA"
"-72.73","46.56","SHAWINIGAN","7018001","2020-12-05 00:00","2020","12","05","00:00","0.0","","-0.2","","99","","","","","","0","","","","99.77","","","","","","NA"
"-72.73","46.56","SHAWINIGAN","7018001","2020-12-05 01:00","2020","12","05","01:00","0.0","","-0.2","","99","","","","","","0","","","","99.83","","","","","","NA"
"-72.73","46.56","SHAWINIGAN","7018001","2020-12-05 02:00","2020","12","05","02:00","0.1","","0.0","","99","","","","","","0","","","","99.88","","","","","","NA"
"-72.73","46.56","SHAWINIGAN","7018001","2020-12-05 03:00","2020","12","05","03:00","0.2","","0.1","","99","","","","","","0","","","","99.89","","","","","","NA"
"-72.73","46.56","SHAWINIGAN","7018001","2020-12-05 04:00","2020","12","05","04:00","0.3","","0.1","","98","","","","","","0","","","","99.92","","","","","","NA"
"-72.73","46.56","SHAWINIGAN","7018001","2020-12-05 05:00","2020","12","05","05:00","-0.4","","-0.7","","98","","","","","","0","","","","99.89","","","","","","NA"
"-72.73","46.56","SHAWINIGAN","7018001","2020-12-05 06:00","2020","12","05","06:00","-0.2","","-0.5","","98","","","","","","0","","","","99.97","","","","","","NA"
"-72.73","46.56","SHAWINIGAN","7018001","2020-12-05 07:00","2020","12","05","07:00","0.0","","-0.3","","98","","","","","","0","","","","100.02","","","","","","NA"
"-72.73","46.56","SHAWINIGAN","7018001","2020-12-05 08:00","2020","12","05","08:00","0.1","","-0.1","","98","","","","","","0","","","","100.09","","","","","","NA"
"-72.73","46.56","SHAWINIGAN","7018001","2020-12-05 09:00","2020","12","05","09:00","0.6","","0.2","","98","","0.0","","","","0","","","","100.10","","","","","","NA"
"-72.73","46.56","SHAWINIGAN","7018001","2020-12-05 10:00","2020","12","05","10:00","1.4","","0.5","","94","","0.4","","35","","11","","","","100.11","","","","","","NA"
"-72.73","46.56","SHAWINIGAN","7018001","2020-12-05 11:00","2020","12","05","11:00","1.3","","-0.2","","89","","2.8","","34","","14","","","","100.00","","","","","","NA"
"-72.73","46.56","SHAWINIGAN","7018001","2020-12-05 12:00","2020","12","05","12:00","1.2","","-1.0","","85","","0.0","","1","","14","","","","99.96","","","","","","NA"
"-72.73","46.56","SHAWINIGAN","7018001","2020-12-05 13:00","2020","12","05","13:00","0.8","","-1.9","","82","","0.0","","36","","17","","","","99.92","","","","","","NA"
"-72.73","46.56","SHAWINIGAN","7018001","2020-12-05 14:00","2020","12","05","14:00","0.1","","-2.6","","82","","","","36","","16","","","","99.90","","","","","","NA"
"-72.73","46.56","SHAWINIGAN","7018001","2020-12-05 15:00","2020","12","05","15:00","-1.1","","-3.9","","82","","","","36","","18","","","","99.94","","","","-6","","NA"
"-72.73","46.56","SHAWINIGAN","7018001","2020-12-05 16:00","2020","12","05","16:00","-1.7","","-5.1","","78","","","","1","","15","","","","99.91","","","","-7","","NA"
"-72.73","46.56","SHAWINIGAN","7018001","2020-12-05 17:00","2020","12","05","17:00","-1.9","","-5.5","","76","","","","36","","19","","","","99.87","","","","-7","","NA"
"-72.73","46.56","SHAWINIGAN","7018001","2020-12-05 18:00","2020","12","05","18:00","-2.3","","-6.2","","75","","","","35","","22","","","","99.82","","","","-8","","NA"
"-72.73","46.56","SHAWINIGAN","7018001","2020-12-05 19:00","2020","12","05","19:00","-2.8","","-7.0","","73","","","","35","","24","","","","99.80","","","","-9","","NA"
"-72.73","46.56","SHAWINIGAN","7018001","2020-12-05 20:00","2020","12","05","20:00","-3.3","","-7.5","","73","","","","35","","24","","","","99.75","","","","-10","","NA"
"-72.73","46.56","SHAWINIGAN","7018001","2020-12-05 21:00","2020","12","05","21:00","-4.2","","-8.1","","74","","","","35","","29","","","","99.71","","","","-12","","NA"
"-72.73","46.56","SHAWINIGAN","7018001","2020-12-05 22:00","2020","12","05","22:00","-4.1","","-7.7","","76","","","","36","","18","","","","99.65","","","","-10","","NA"
"-72.73","46.56","SHAWINIGAN","7018001","2020-12-05 23:00","2020","12","05","23:00","-4.1","","-7.8","","76","","","","35","","25","","","","99.53","","","","-11","","NA"
"-72.73","46.56","SHAWINIGAN","7018001","2020-12-06 00:00","2020","12","06","00:00","-4.3","","-7.8","","76","","","","35","","23","","","","99.50","","","","-11","","NA"
"-72.73","46.56","SHAWINIGAN","7018001","2020-12-06 01:00","2020","12","06","01:00","-4.7","","-8.6","","74","","","","35","","25","","","","99.44","","","","-12","","NA"
"-72.73","46.56","SHAWINIGAN","7018001","2020-12-06 02:00","2020","12","06","02:00","-4.9","","-8.5","","76","","","","34","","25","","","","99.40","","","","-12","","NA"
"-72.73","46.56","SHAWINIGAN","7018001","2020-12-06 03:00","2020","12","06","03:00","-5.2","","-8.8","","75","","","","34","","32","","","","99.36","","","","-13","","NA"
"-72.73","46.56","SHAWINIGAN","7018001","2020-12-06 04:00","2020","12","06","04:00","-4.7","","-8.3","","76","","","","33","","26","","","","99.35","","","","-12","","NA"
"-72.73","46.56","SHAWINIGAN","7018001","2020-12-06 05:00","2020","12","06","05:00","-4.8","","-8.3","","77","","","","35","","19","","","","99.36","","","","-11","","NA"
"-72.73","46.56","SHAWINIGAN","7018001","2020-12-06 06:00","2020","12","06","06:00","-4.6","","-8.5","","75","","","","35","","21","","","","99.35","","","","-11","","NA"
"-72.73","46.56","SHAWINIGAN","7018001","2020-12-06 07:00","2020","12","06","07:00","-4.6","","-8.8","","73","","","","34","","24","","","","99.34","","","","-12","","NA"
"-72.73","46.56","SHAWINIGAN","7018001","2020-12-06 08:00","2020","12","06","08:00","-5.0","","-8.0","","80","","","","34","","20","","","","99.30","","","","-12","","NA"
"-72.73","46.56","SHAWINIGAN","7018001","2020-12-06 09:00","2020","12","06","09:00","-4.9","","-9.3","","71","","","","33","","23","","","","99.28","","","","-12","","NA"
"-72.73","46.56","SHAWINIGAN","7018001","2020-12-06 10:00","2020","12","06","10:00","-5.0","","-9.1","","73","","","","32","","27","","","","99.22","","","","-13","","NA"
"-72.73","46.56","SHAWINIGAN","7018001","2020-12-06 11:00","2020","12","06","11:00","-4.7","","-8.9","","72","","","","34","","23","","","","99.13","","","","-12","","NA"
"-72.73","46.56","SHAWINIGAN","7018001","2020-12-06 12:00","2020","12","06","12:00","-4.3","","-9.4","","68","","","","34","","23","","","","99.06","","","","-11","","NA"
"-72.73","46.56","SHAWINIGAN","7018001","2020-12-06 13:00","2020","12","06","13:00","-3.1","","-9.3","","62","","","","33","","18","","","","99.03","","","","-9","","NA"
"-72.73","46.56","SHAWINIGAN","7018001","2020-12-06 14:00","2020","12","06","14:00","-2.8","","-9.3","","61","","","","34","","19","","","","99.03","","","","-9","","NA"
"-72.73","46.56","SHAWINIGAN","7018001","2020-12-06 15:00","2020","12","06","15:00","-2.6","","-9.2","","61","","","","33","","17","","","","99.03","","","","-8","","NA"
"-72.73","46.56","SHAWINIGAN","7018001","2020-12-06 16:00","2020","12","06","16:00","-2.5","","-8.7","","62","","","","32","","13","","","","99.08","","","","-7","","NA"
"-72.73","46.56","SHAWINIGAN","7018001","2020-12-06 17:00","2020","12","06","17:00","-2.8","","-8.8","","63","","","","34","","17","","","","99.17","","","","-8","","NA"
"-72.73","46.56","SHAWINIGAN","7018001","2020-12-06 18:00","2020","12","06","18:00","-3.1","","-8.7","","65","","","","34","","14","","","","99.22","","","","-8","","NA"
"-72.73","46.56","SHAWINIGAN","7018001","2020-12-06 19:00","2020","12","06","19:00","-3.8","","-9.1","","67","","","","34","","21","","","","99.25","","","","-10","","NA"
"-72.73","46.56","SHAWINIGAN","7018001","2020-12-06 20:00","2020","12","06","20:00","-4.2","","-9.1","","69","","","","33","","17","","","","99.25","","","","-10","","NA"
"-72.73","46.56","SHAWINIGAN","7018001","2020-12-06 21:00","2020","12","06","21:00","-4.3","","-9.0","","70","","","","32","","15","","","","99.25","","","","-10","","NA"
"-72.73","46.56","SHAWINIGAN","7018001","2020-12-06 22:00","2020","12","06","22:00","-4.4","","-8.9","","71","","","","32","","13","","","","99.24","","","","-9","","NA"
"-72.73","46.56","SHAWINIGAN","7018001","2020-12-06 23:00","2020","12","06","23:00","-4.5","","-9.0","","71","","","","31","","12","","","","99.21","","","","-9","","NA"
"-72.73","46.56","SHAWINIGAN","7018001","2020-12-07 00:00","2020","12","07","00:00","-4.6","","-9.4","","69","","","","31","","14","","","","99.19","","","","-10","","NA"
"-72.73","46.56","SHAWINIGAN","7018001","2020-12-07 01:00","2020","12","07","01:00","-4.5","","-9.0","","71","","","","30","","11","","","","99.22","","","","-9","","NA"
"-72.73","46.56","SHAWINIGAN","7018001","2020-12-07 02:00","2020","12","07","02:00","-4.4","","-8.9","","71","","","","30","","9","","","","99.24","","","","-8","","NA"
"-72.73","46.56","SHAWINIGAN","7018001","2020-12-07 03:00","2020","12","07","03:00","-4.3","","-8.8","","71","","","","31","","9","","","","99.27","","","","-8","","NA"
"-72.73","46.56","SHAWINIGAN","7018001","2020-12-07 04:00","2020","12","07","04:00","-4.3","","-8.8","","71","","","","31","","12","","","","99.29","","","","-9","","NA"
"-72.73","46.56","SHAWINIGAN","7018001","2020-12-07 05:00","2020","12","07","05:00","-4.3","","-8.6","","72","","","","31","","10","","","","99.31","","","","-8","","NA"
"-72.73","46.56","SHAWINIGAN","7018001","2020-12-07 06:00","2020","12","07","06:00","-4.2","","-8.7","","71","","","","33","","12","","","","99.33","","","","-9","","NA"
"-72.73","46.56","SHAWINIGAN","7018001","2020-12-07 07:00","2020","12","07","07:00","-4.3","","-8.6","","72","","","","34","","12","","","","99.36","","","","-9","","NA"
"-72.73","46.56","SHAWINIGAN","7018001","2020-12-07 08:00","2020","12","07","08:00","-4.2","","-8.8","","71","","","","34","","9","","","","99.38","","","","-8","","NA"
"-72.73","46.56","SHAWINIGAN","7018001","2020-12-07 09:00","2020","12","07","09:00","-4.2","","-9.2","","68","","","","35","","13","","","","99.42","","","","-9","","NA"
"-72.73","46.56","SHAWINIGAN","7018001","2020-12-07 10:00","2020","12","07","10:00","-4.1","","-9.3","","67","","","","34","","15","","","","99.44","","","","-9","","NA"
"-72.73","46.56","SHAWINIGAN","7018001","2020-12-07 11:00","2020","12","07","11:00","-3.7","","-9.4","","64","","","","35","","13","","","","99.37","","","","-9","","NA"
"-72.73","46.56","SHAWINIGAN","7018001","2020-12-07 12:00","2020","12","07","12:00","-3.5","","-9.9","","61","","","","34","","15","","","","99.34","","","","-9","","NA"
"-72.73","46.56","SHAWINIGAN","7018001","2020-12-07 13:00","2020","12","07","13:00","-3.3","","-9.6","","62","","","","34","","12","","","","99.34","","","","-8","","NA"
"-72.73","46.56","SHAWINIGAN","7018001","2020-12-07 14:00","2020","12","07","14:00","-2.8","","-9.9","","58","","","","34","","5","","","","99.32","","","","-5","","NA"
"-72.73","46.56","SHAWINIGAN","7018001","2020-12-07 15:00","2020","12","07","15:00","-2.0","","-10.0","","54","","","","35","","7","","","","99.35","","","","-5","","NA"
"-72.73","46.56","SHAWINIGAN","7018001","2020-12-07 16:00","2020","12","07","16:00","-2.7","","-9.8","","58","","","","32","","5","","","","99.40","","","","-5","","NA"
"-72.73","46.56","SHAWINIGAN","7018001","2020-12-07 17:00","2020","12","07","17:00","-4.0","","-9.7","","64","","","","32","","5","","","","99.45","","","","-6","","NA"
"-72.73","46.56","SHAWINIGAN","7018001","2020-12-07 18:00","2020","12","07","18:00","-5.2","","-9.5","","72","","","","33","","5","","","","99.48","","","","-7","","NA"
"-72.73","46.56","SHAWINIGAN","7018001","2020-12-07 19:00","2020","12","07","19:00","-4.2","","-9.7","","66","","","","33","","12","","","","99.50","","","","-9","","NA"
"-72.73","46.56","SHAWINIGAN","7018001","2020-12-07 20:00","2020","12","07","20:00","-4.9","","-9.6","","69","","","","34","","10","","","","99.57","","","","-9","","NA"
"-72.73","46.56","SHAWINIGAN","7018001","2020-12-07 21:00","2020","12","07","21:00","-5.3","","-9.5","","73","","","","34","","7","","","","99.61","","","","-9","","NA"
"-72.73","46.56","SHAWINIGAN","7018001","2020-12-07 22:00","2020","12","07","22:00","-5.1","","-8.9","","75","","","","35","","9","","","","99.63","","","","-9","","NA"
"-72.73","46.56","SHAWINIGAN","7018001","2020-12-07 23:00","2020","12","07","23:00","-4.9","","-8.9","","73","","","","35","","12","","","","99.61","","","","-10","","NA"
"-72.73","46.56","SHAWINIGAN","7018001","2020-12-08 00:00","2020","12","08","00:00","-4.9","","-9.0","","73","","","","34","","12","","","","99.60","","","","-10","","NA"
"-72.73","46.56","SHAWINIGAN","7018001","2020-12-08 01:00","2020","12","08","01:00","-4.9","","-9.1","","72","","","","35","","13","","","","99.57","","","","-10","","NA"
"-72.73","46.56","SHAWINIGAN","7018001","2020-12-08 02:00","2020","12","08","02:00","-5.1","","-9.1","","73","","","","35","","11","","","","99.58","","","","-10","","NA"
"-72.73","46.56","SHAWINIGAN","7018001","2020-12-08 03:00","2020","12","08","03:00","-5.5","","-9.7","","72","","","","34","","15","","","","99.57","","","","-11","","NA"
"-72.73","46.56","SHAWINIGAN","7018001","2020-12-08 04:00","2020","12","08","04:00","-5.8","","-10.0","","72","","","","34","","17","","","","99.54","","","","-12","","NA"
"-72.73","46.56","SHAWINIGAN","7018001","2020-12-08 05:00","2020","12","08","05:00","-6.0","","-10.1","","73","","","","33","","16","","","","99.54","","","","-12","","NA"
"-72.73","46.56","SHAWINIGAN","7018001","2020-12-08 06:00","2020","12","08","06:00","-6.2","","-9.8","","75","","","","34","","13","","","","99.59","","","","-12","","NA"
"-72.73","46.56","SHAWINIGAN","7018001","2020-12-08 07:00","2020","12","08","07:00","-6.5","","-10.0","","76","","","","34","","14","","","","99.59","","","","-12","","NA"
"-72.73","46.56","SHAWINIGAN","7018001","2020-12-08 08:00","2020","12","08","08:00","-6.9","","-10.2","","77","","","","36","","13","","","","99.64","","","","-12","","NA"
"-72.73","46.56","SHAWINIGAN","7018001","2020-12-08 09:00","2020","12","08","09:00","-6.7","","-10.2","","76","","","","35","","13","","","","99.66","","","","-12","","NA"
"-72.73","46.56","SHAWINIGAN","7018001","2020-12-08 10:00","2020","12","08","10:00","-6.6","","-10.8","","72","","","","35","","15","","","","99.66","","","","-13","","NA"
"-72.73","46.56","SHAWINIGAN","7018001","2020-12-08 11:00","2020","12","08","11:00","-6.6","","-11.0","","71","","","","34","","15","","","","99.59","","","","-13","","NA"
"-72.73","46.56","SHAWINIGAN","7018001","2020-12-08 12:00","2020","12","08","12:00","-6.2","","-11.0","","69","","","","34","","14","","","","99.50","","","","-12","","NA"
"-72.73","46.56","SHAWINIGAN","7018001","2020-12-08 13:00","2020","12","08","13:00","-5.6","","-10.7","","67","","","","1","","10","","","","99.42","","","","-10","","NA"
"-72.73","46.56","SHAWINIGAN","7018001","2020-12-08 14:00","2020","12","08","14:00","-5.0","","-10.9","","63","","","","3","","8","","","","99.38","","","","-9","","NA"
"-72.73","46.56","SHAWINIGAN","7018001","2020-12-08 15:00","2020","12","08","15:00","-4.5","","-10.8","","61","","","","35","","6","","","","99.40","","","","-7","","NA"
"-72.73","46.56","SHAWINIGAN","7018001","2020-12-08 16:00","2020","12","08","16:00","-5.3","","-10.9","","65","","","","3","","7","","","","99.38","","","","-9","","NA"
"-72.73","46.56","SHAWINIGAN","7018001","2020-12-08 17:00","2020","12","08","17:00","-6.8","","-10.7","","74","","","","15","","5","","","","99.47","","","","-9","","NA"
"-72.73","46.56","SHAWINIGAN","7018001","2020-12-08 18:00","2020","12","08","18:00","-7.6","","-10.7","","79","","","","10","","1","","","","99.47","","","","-8","","NA"
"-72.73","46.56","SHAWINIGAN","7018001","2020-12-08 19:00","2020","12","08","19:00","-8.9","","-11.2","","84","","","","32","","4","","","","99.47","","","","-11","","NA"
"-72.73","46.56","SHAWINIGAN","7018001","2020-12-08 20:00","2020","12","08","20:00","-9.4","","-11.4","","86","","","","32","","4","","","","99.47","","","","-12","","NA"
"-72.73","46.56","SHAWINIGAN","7018001","2020-12-08 21:00","2020","12","08","21:00","-9.6","","-11.5","","87","","","","29","","4","","","","99.41","","","","-12","","NA"
"-72.73","46.56","SHAWINIGAN","7018001","2020-12-08 22:00","2020","12","08","22:00","-10.2","","-11.9","","87","","","","30","","3","","","","99.31","","","","-12","","NA"
"-72.73","46.56","SHAWINIGAN","7018001","2020-12-08 23:00","2020","12","08","23:00","-10.9","","-12.5","","88","","","","32","","4","","","","99.31","","","","-13","","NA"
"-72.73","46.56","SHAWINIGAN","7018001","2020-12-09 00:00","2020","12","09","00:00","-10.4","","-12.2","","87","","","","31","","5","","","","99.36","","","","-13","","NA"
"-72.73","46.56","SHAWINIGAN","7018001","2020-12-09 01:00","2020","12","09","01:00","-9.7","","-11.5","","87","","","","34","","3","","","","99.31","","","","-11","","NA"
"-72.73","46.56","SHAWINIGAN","7018001","2020-12-09 02:00","2020","12","09","02:00","-9.8","","-11.4","","88","","","","0","","1","","","","99.29","","","","-10","","NA"
"-72.73","46.56","SHAWINIGAN","7018001","2020-12-09 03:00","2020","12","09","03:00","-10.6","","-12.1","","89","","","","33","","3","","","","99.22","","","","-12","","NA"
"-72.73","46.56","SHAWINIGAN","7018001","2020-12-09 04:00","2020","12","09","04:00","-8.8","","-9.9","","92","","","","20","","4","","","","99.18","","","","-11","","NA"
"-72.73","46.56","SHAWINIGAN","7018001","2020-12-09 05:00","2020","12","09","05:00","-8.0","","-9.5","","89","","","","21","","8","","","","99.17","","","","-12","","NA"
"-72.73","46.56","SHAWINIGAN","7018001","2020-12-09 06:00","2020","12","09","06:00","-7.7","","-9.3","","88","","","","18","","5","","","","99.16","","","","-10","","NA"
"-72.73","46.56","SHAWINIGAN","7018001","2020-12-09 07:00","2020","12","09","07:00","-7.2","","-9.1","","86","","","","20","","7","","","","99.16","","","","-11","","NA"
"-72.73","46.56","SHAWINIGAN","7018001","2020-12-09 08:00","2020","12","09","08:00","-7.0","","-8.6","","88","","","","18","","5","","","","99.10","","","","-10","","NA"
"-72.73","46.56","SHAWINIGAN","7018001","2020-12-09 09:00","2020","12","09","09:00","-6.5","","-8.1","","89","","","","10","","3","","","","99.08","","","","-8","","NA"
"-72.73","46.56","SHAWINIGAN","7018001","2020-12-09 10:00","2020","12","09","10:00","-5.7","","-7.4","","88","","","","11","","3","","","","99.05","","","","-7","","NA"
"-72.73","46.56","SHAWINIGAN","7018001","2020-12-09 11:00","2020","12","09","11:00","-5.1","","-6.8","","88","","","","13","","4","","","","98.97","","","","-7","","NA"
"-72.73","46.56","SHAWINIGAN","7018001","2020-12-09 12:00","2020","12","09","12:00","-4.9","","-6.5","","88","","","","9","","5","","","","98.89","","","","-7","","NA"
"-72.73","46.56","SHAWINIGAN","7018001","2020-12-09 13:00","2020","12","09","13:00","-4.8","","-6.3","","89","","","","12","","6","","","","98.85","","","","-8","","NA"
"-72.73","46.56","SHAWINIGAN","7018001","2020-12-09 14:00","2020","12","09","14:00","-4.5","","-6.0","","89","","","","9","","5","","","","98.84","","","","-7","","NA"
"-72.73","46.56","SHAWINIGAN","7018001","2020-12-09 15:00","2020","12","09","15:00","-4.4","","-6.0","","89","","","","9","","7","","","","98.86","","","","-8","","NA"
"-72.73","46.56","SHAWINIGAN","7018001","2020-12-09 16:00","2020","12","09","16:00","-4.5","","-5.8","","91","","","","8","","5","","","","98.89","","","","-7","","NA"
"-72.73","46.56","SHAWINIGAN","7018001","2020-12-09 17:00","2020","12","09","17:00","-4.6","","-5.8","","91","","","","4","","5","","","","98.95","","","","-7","","NA"
"-72.73","46.56","SHAWINIGAN","7018001","2020-12-09 18:00","2020","12","09","18:00","-4.6","","-6.0","","90","","","","5","","5","","","","98.98","","","","-7","","NA"
"-72.73","46.56","SHAWINIGAN","7018001","2020-12-09 19:00","2020","12","09","19:00","-4.5","","-5.8","","91","","","","4","","5","","","","99.01","","","","-7","","NA"
"-72.73","46.56","SHAWINIGAN","7018001","2020-12-09 20:00","2020","12","09","20:00","-4.4","","-5.6","","91","","","","3","","5","","","","99.02","","","","-7","","NA"
"-72.73","46.56","SHAWINIGAN","7018001","2020-12-09 21:00","2020","12","09","21:00","-4.5","","-5.6","","92","","","","4","","3","","","","99.02","","","","-6","","NA"
"-72.73","46.56","SHAWINIGAN","7018001","2020-12-09 22:00","2020","12","09","22:00","-4.4","","-5.7","","91","","","","36","","3","","","","99.05","","","","-6","","NA"
"-72.73","46.56","SHAWINIGAN","7018001","2020-12-09 23:00","2020","12","09","23:00","-4.5","","-5.6","","91","","","","34","","2","","","","99.07","","","","-5","","NA"
"-72.73","46.56","SHAWINIGAN","7018001","2020-12-10 00:00","2020","12","10","00:00","-4.5","","-5.6","","92","","","","34","","3","","","","99.09","","","","-6","","NA"
"-72.73","46.56","SHAWINIGAN","7018001","2020-12-10 01:00","2020","12","10","01:00","-4.3","","-5.3","","92","","","","32","","3","","","","99.12","","","","-6","","NA"
"-72.73","46.56","SHAWINIGAN","7018001","2020-12-10 02:00","2020","12","10","02:00","-4.1","","-5.1","","93","","","","31","","1","","","","99.20","","","","-5","","NA"
"-72.73","46.56","SHAWINIGAN","7018001","2020-12-10 03:00","2020","12","10","03:00","-4.0","","-5.0","","93","","","","30","","2","","","","99.25","","","","-5","","NA"
"-72.73","46.56","SHAWINIGAN","7018001","2020-12-10 04:00","2020","12","10","04:00","-4.9","","-5.8","","93","","","","23","","2","","","","99.32","","","","-6","","NA"
"-72.73","46.56","SHAWINIGAN","7018001","2020-12-10 05:00","2020","12","10","05:00","-6.3","","-7.1","","93","","","","","","0","","","","99.39","","","","","","NA"
"-72.73","46.56","SHAWINIGAN","7018001","2020-12-10 06:00","2020","12","10","06:00","-5.6","","-6.4","","94","","","","29","","2","","","","99.49","","","","-7","","NA"
"-72.73","46.56","SHAWINIGAN","7018001","2020-12-10 07:00","2020","12","10","07:00","-4.8","","-5.7","","93","","","","29","","2","","","","99.62","","","","-6","","NA"
"-72.73","46.56","SHAWINIGAN","7018001","2020-12-10 08:00","2020","12","10","08:00","-3.5","","-4.6","","92","","","","24","","3","","","","99.73","","","","-5","","NA"
"-72.73","46.56","SHAWINIGAN","7018001","2020-12-10 09:00","2020","12","10","09:00","-2.9","","-4.1","","92","","","","22","","3","","","","99.84","","","","-4","","NA"
"-72.73","46.56","SHAWINIGAN","7018001","2020-12-10 10:00","2020","12","10","10:00","-1.8","","-3.0","","92","","","","16","","3","","","","99.95","","","","-3","","NA"
"-72.73","46.56","SHAWINIGAN","7018001","2020-12-10 11:00","2020","12","10","11:00","0.6","","-3.1","","76","","1.8","","31","","13","","","","100.00","","","","","","NA"
"-72.73","46.56","SHAWINIGAN","7018001","2020-12-10 12:00","2020","12","10","12:00","0.9","","-3.9","","70","","1.2","","30","","11","","","","100.07","","","","","","NA"
"-72.73","46.56","SHAWINIGAN","7018001","2020-12-10 13:00","2020","12","10","13:00","1.4","","-3.6","","69","","0.0","","30","","12","","","","100.11","","","","","","NA"
"-72.73","46.56","SHAWINIGAN","7018001","2020-12-10 14:00","2020","12","10","14:00","1.1","","-3.2","","73","","0.0","","29","","8","","","","100.17","","","","","","NA"
"-72.73","46.56","SHAWINIGAN","7018001","2020-12-10 15:00","2020","12","10","15:00","1.0","","-3.1","","74","","0.0","","32","","3","","","","100.23","","","","","","NA"
"-72.73","46.56","SHAWINIGAN","7018001","2020-12-10 16:00","2020","12","10","16:00","0.7","","-3.0","","76","","0.0","","28","","4","","","","100.31","","","","","","NA"
"-72.73","46.56","SHAWINIGAN","7018001","2020-12-10 17:00","2020","12","10","17:00","0.4","","-3.7","","74","","","","27","","6","","","","100.40","","","","","","NA"
"-72.73","46.56","SHAWINIGAN","7018001","2020-12-10 18:00","2020","12","10","18:00","0.4","","-3.9","","73","","","","28","","7","","","","100.48","","","","","","NA"
"-72.73","46.56","SHAWINIGAN","7018001","2020-12-10 19:00","2020","12","10","19:00","0.2","","-3.8","","74","","","","28","","5","","","","100.54","","","","","","NA"
"-72.73","46.56","SHAWINIGAN","7018001","2020-12-10 20:00","2020","12","10","20:00","-0.1","","-4.1","","74","","","","26","","9","","","","100.56","","","","-3","","NA"
"-72.73","46.56","SHAWINIGAN","7018001","2020-12-10 21:00","2020","12","10","21:00","-0.7","","-4.6","","75","","","","31","","7","","","","100.56","","","","-3","","NA"
"-72.73","46.56","SHAWINIGAN","7018001","2020-12-10 22:00","2020","12","10","22:00","-1.5","","-4.7","","79","","","","29","","4","","","","100.57","","","","-3","","NA"
"-72.73","46.56","SHAWINIGAN","7018001","2020-12-10 23:00","2020","12","10","23:00","-2.1","","-4.5","","83","","","","26","","2","","","","100.62","","","","-3","","NA"
"-72.73","46.56","SHAWINIGAN","7018001","2020-12-11 00:00","2020","12","11","00:00","-2.1","","-4.3","","85","","","","","","0","","","","100.62","","","","","","NA"
"-72.73","46.56","SHAWINIGAN","7018001","2020-12-11 01:00","2020","12","11","01:00","-2.3","","-4.2","","87","","","","15","","2","","","","100.58","","","","-3","","NA"
"-72.73","46.56","SHAWINIGAN","7018001","2020-12-11 02:00","2020","12","11","02:00","-2.4","","-4.3","","87","","","","18","","3","","","","100.59","","","","-4","","NA"
"-72.73","46.56","SHAWINIGAN","7018001","2020-12-11 03:00","2020","12","11","03:00","-2.7","","-4.6","","87","","","","20","","7","","","","100.60","","","","-6","","NA"
"-72.73","46.56","SHAWINIGAN","7018001","2020-12-11 04:00","2020","12","11","04:00","-2.8","","-4.5","","88","","","","20","","6","","","","100.56","","","","-5","","NA"
"-72.73","46.56","SHAWINIGAN","7018001","2020-12-11 05:00","2020","12","11","05:00","-2.9","","-4.5","","89","","","","17","","6","","","","100.48","","","","-5","","NA"
"-72.73","46.56","SHAWINIGAN","7018001","2020-12-11 06:00","2020","12","11","06:00","-2.7","","-3.9","","91","","","","12","","4","","","","100.47","","","","-4","","NA"
"-72.73","46.56","SHAWINIGAN","7018001","2020-12-11 07:00","2020","12","11","07:00","-2.5","","-3.8","","91","","","","0","","1","","","","100.46","","","","-3","","NA"
"-72.73","46.56","SHAWINIGAN","7018001","2020-12-11 08:00","2020","12","11","08:00","-2.5","","-3.7","","92","","","","6","","3","","","","100.47","","","","-4","","NA"
"-72.73","46.56","SHAWINIGAN","7018001","2020-12-11 09:00","2020","12","11","09:00","-2.4","","-3.8","","90","","","","4","","5","","","","100.44","","","","-4","","NA"
"-72.73","46.56","SHAWINIGAN","7018001","2020-12-11 10:00","2020","12","11","10:00","-2.0","","-3.6","","89","","","","5","","5","","","","100.38","","","","-4","","NA"
"-72.73","46.56","SHAWINIGAN","7018001","2020-12-11 11:00","2020","12","11","11:00","-1.5","","-3.2","","88","","","","5","","6","","","","100.33","","","","-4","","NA"
"-72.73","46.56","SHAWINIGAN","7018001","2020-12-11 12:00","2020","12","11","12:00","-0.8","","-2.9","","86","","","","11","","4","","","","100.24","","","","-2","","NA"
"-72.73","46.56","SHAWINIGAN","7018001","2020-12-11 13:00","2020","12","11","13:00","-0.5","","-2.5","","87","","","","5","","5","","","","100.21","","","","-2","","NA"
"-72.73","46.56","SHAWINIGAN","7018001","2020-12-11 14:00","2020","12","11","14:00","-0.3","","-2.3","","86","","","","5","","4","","","","100.23","","","","-2","","NA"
"-72.73","46.56","SHAWINIGAN","7018001","2020-12-11 15:00","2020","12","11","15:00","-0.3","","-2.2","","87","","","","7","","3","","","","100.25","","","","-1","","NA"
"-72.73","46.56","SHAWINIGAN","7018001","2020-12-11 16:00","2020","12","11","16:00","-0.3","","-2.2","","87","","","","5","","5","","","","100.30","","","","-2","","NA"
"-72.73","46.56","SHAWINIGAN","7018001","2020-12-11 17:00","2020","12","11","17:00","-0.3","","-2.2","","87","","","","2","","3","","","","100.36","","","","-1","","NA"
"-72.73","46.56","SHAWINIGAN","7018001","2020-12-11 18:00","2020","12","11","18:00","-0.4","","-2.3","","87","","","","34","","3","","","","100.42","","","","-1","","NA"
"-72.73","46.56","SHAWINIGAN","7018001","2020-12-11 19:00","2020","12","11","19:00","-0.5","","-2.2","","88","","","","34","","3","","","","100.49","","","","-1","","NA"
"-72.73","46.56","SHAWINIGAN","7018001","2020-12-11 20:00","2020","12","11","20:00","-0.7","","-2.3","","89","","","","32","","2","","","","100.54","","","","-1","","NA"
"-72.73","46.56","SHAWINIGAN","7018001","2020-12-11 21:00","2020","12","11","21:00","-0.6","","-2.2","","89","","","","36","","3","","","","100.59","","","","-2","","NA"
"-72.73","46.56","SHAWINIGAN","7018001","2020-12-11 22:00","2020","12","11","22:00","-1.2","","-2.6","","91","","","","0","","1","","","","100.62","","","","-2","","NA"
"-72.73","46.56","SHAWINIGAN","7018001","2020-12-11 23:00","2020","12","11","23:00","-2.4","","-3.2","","95","","","","32","","10","","","","100.68","","","","-6","","NA"
"-72.73","46.56","SHAWINIGAN","7018001","2020-12-12 00:00","2020","12","12","00:00","-0.5","","-2.2","","89","","","","1","","11","","","","100.76","","","","-4","","NA"
"-72.73","46.56","SHAWINIGAN","7018001","2020-12-12 01:00","2020","12","12","01:00","-0.7","","-2.6","","87","","","","34","","11","","","","100.85","","","","-4","","NA"
"-72.73","46.56","SHAWINIGAN","7018001","2020-12-12 02:00","2020","12","12","02:00","-1.0","","-3.0","","87","","","","35","","10","","","","100.92","","","","-5","","NA"
"-72.73","46.56","SHAWINIGAN","7018001","2020-12-12 03:00","2020","12","12","03:00","-1.7","","-3.2","","89","","","","33","","3","","","","100.99","","","","-3","","NA"
"-72.73","46.56","SHAWINIGAN","7018001","2020-12-12 04:00","2020","12","12","04:00","-1.9","","-3.6","","89","","","","36","","6","","","","101.01","","","","-4","","NA"
"-72.73","46.56","SHAWINIGAN","7018001","2020-12-12 05:00","2020","12","12","05:00","-2.0","","-3.6","","88","","","","34","","11","","","","101.04","","","","-6","","NA"
"-72.73","46.56","SHAWINIGAN","7018001","2020-12-12 06:00","2020","12","12","06:00","-1.8","","-3.7","","87","","","","35","","13","","","","101.10","","","","-6","","NA"
"-72.73","46.56","SHAWINIGAN","7018001","2020-12-12 07:00","2020","12","12","07:00","-1.7","","-3.9","","85","","","","35","","13","","","","101.15","","","","-6","","NA"
"-72.73","46.56","SHAWINIGAN","7018001","2020-12-12 08:00","2020","12","12","08:00","-1.9","","-4.2","","84","","","","35","","11","","","","101.19","","","","-6","","NA"
"-72.73","46.56","SHAWINIGAN","7018001","2020-12-12 09:00","2020","12","12","09:00","-1.6","","-4.4","","81","","","","1","","9","","","","101.16","","","","-5","","NA"
"-72.73","46.56","SHAWINIGAN","7018001","2020-12-12 10:00","2020","12","12","10:00","-1.1","","-4.4","","78","","","","3","","9","","","","101.16","","","","-4","","NA"
"-72.73","46.56","SHAWINIGAN","7018001","2020-12-12 11:00","2020","12","12","11:00","-0.7","","-4.1","","77","","","","3","","11","","","","101.08","","","","-4","","NA"
"-72.73","46.56","SHAWINIGAN","7018001","2020-12-12 12:00","2020","12","12","12:00","-0.1","","-4.0","","75","","","","4","","11","","","","100.98","","","","-4","","NA"
"-72.73","46.56","SHAWINIGAN","7018001","2020-12-12 13:00","2020","12","12","13:00","0.3","","-3.0","","78","","","","6","","15","","","","100.91","","","","","","NA"
"-72.73","46.56","SHAWINIGAN","7018001","2020-12-12 14:00","2020","12","12","14:00","0.2","","-2.2","","84","","","","4","","18","","","","100.74","","","","","","NA"
"-72.73","46.56","SHAWINIGAN","7018001","2020-12-12 15:00","2020","12","12","15:00","0.1","","-2.4","","83","","","","5","","18","","","","100.66","","","","","","NA"
"-72.73","46.56","SHAWINIGAN","7018001","2020-12-12 16:00","2020","12","12","16:00","-0.3","","-2.5","","85","","","","7","","16","","","","100.56","","","","-5","","NA"
"-72.73","46.56","SHAWINIGAN","7018001","2020-12-12 17:00","2020","12","12","17:00","-0.9","","-1.8","","94","","","","7","","17","","","","100.50","","","","-6","","NA"
"-72.73","46.56","SHAWINIGAN","7018001","2020-12-12 18:00","2020","12","12","18:00","-0.9","","-1.9","","93","","","","7","","23","","","","100.39","","","","-7","","NA"
"-72.73","46.56","SHAWINIGAN","7018001","2020-12-12 19:00","2020","12","12","19:00","-0.9","","-2.0","","92","","","","7","","24","","","","100.32","","","","-7","","NA"
"-72.73","46.56","SHAWINIGAN","7018001","2020-12-12 20:00","2020","12","12","20:00","-1.0","","-1.8","","94","","","","7","","21","","","","100.17","","","","-7","","NA"
"-72.73","46.56","SHAWINIGAN","7018001","2020-12-12 21:00","2020","12","12","21:00","-1.1","","-1.6","","97","","","","7","","18","","","","100.09","","","","-6","","NA"
"-72.73","46.56","SHAWINIGAN","7018001","2020-12-12 22:00","2020","12","12","22:00","-1.0","","-1.6","","95","","","","8","","16","","","","100.01","","","","-6","","NA"
"-72.73","46.56","SHAWINIGAN","7018001","2020-12-12 23:00","2020","12","12","23:00","-1.0","","-1.5","","97","","","","7","","21","","","","99.86","","","","-7","","NA"
"-72.73","46.56","SHAWINIGAN","7018001","2020-12-13 00:00","2020","12","13","00:00","-1.0","","-1.7","","95","","","","8","","15","","","","99.77","","","","-6","","NA"
"-72.73","46.56","SHAWINIGAN","7018001","2020-12-13 01:00","2020","12","13","01:00","-0.8","","-1.3","","96","","","","7","","16","","","","99.68","","","","-6","","NA"
"-72.73","46.56","SHAWINIGAN","7018001","2020-12-13 02:00","2020","12","13","02:00","-0.5","","-1.0","","97","","","","7","","15","","","","99.63","","","","-5","","NA"
"-72.73","46.56","SHAWINIGAN","7018001","2020-12-13 03:00","2020","12","13","03:00","-0.5","","-1.0","","97","","","","8","","13","","","","99.55","","","","-5","","NA"
"-72.73","46.56","SHAWINIGAN","7018001","2020-12-13 04:00","2020","12","13","04:00","-0.3","","-0.8","","97","","","","8","","12","","","","99.45","","","","-4","","NA"
"-72.73","46.56","SHAWINIGAN","7018001","2020-12-13 05:00","2020","12","13","05:00","-0.3","","-0.7","","97","","","","7","","10","","","","99.39","","","","-4","","NA"
"-72.73","46.56","SHAWINIGAN","7018001","2020-12-13 06:00","2020","12","13","06:00","-0.1","","-0.5","","97","","","","8","","6","","","","99.35","","","","-2","","NA"
"-72.73","46.56","SHAWINIGAN","7018001","2020-12-13 07:00","2020","12","13","07:00","0.0","","-0.4","","97","","","","7","","7","","","","99.29","","","","-2","","NA"
"-72.73","46.56","SHAWINIGAN","7018001","2020-12-13 08:00","2020","12","13","08:00","-0.1","","-0.4","","97","","","","7","","5","","","","99.29","","","","-2","","NA"
"-72.73","46.56","SHAWINIGAN","7018001","2020-12-13 09:00","2020","12","13","09:00","0.2","","-0.1","","98","","","","7","","4","","","","99.33","","","","","","NA"
"-72.73","46.56","SHAWINIGAN","7018001","2020-12-13 10:00","2020","12","13","10:00","0.3","","0.0","","98","","","","7","","4","","","","99.26","","","","","","NA"
"-72.73","46.56","SHAWINIGAN","7018001","2020-12-13 11:00","2020","12","13","11:00","0.5","","0.3","","98","","0.4","","0","","1","","","","99.24","","","","","","NA"
"-72.73","46.56","SHAWINIGAN","7018001","2020-12-13 12:00","2020","12","13","12:00","1.3","","1.0","","98","","2.0","","0","","1","","","","99.19","","","","","","NA"
"-72.73","46.56","SHAWINIGAN","7018001","2020-12-13 13:00","2020","12","13","13:00","2.7","","2.3","","97","","4.2","","21","","14","","","","99.19","","","","","","NA"
"-72.73","46.56","SHAWINIGAN","7018001","2020-12-13 14:00","2020","12","13","14:00","2.4","","1.0","","91","","2.4","","22","","18","","","","99.25","","","","","","NA"
"-72.73","46.56","SHAWINIGAN","7018001","2020-12-13 15:00","2020","12","13","15:00","2.5","","0.8","","89","","0.4","","22","","19","","","","99.39","","","","","","NA"
"-72.73","46.56","SHAWINIGAN","7018001","2020-12-13 16:00","2020","12","13","16:00","1.9","","0.1","","88","","0.0","","24","","17","","","","99.57","","","","","","NA"
"-72.73","46.56","SHAWINIGAN","7018001","2020-12-13 17:00","2020","12","13","17:00","1.2","","-1.7","","81","","0.0","","25","","15","","","","99.70","","","","","","NA"
"-72.73","46.56","SHAWINIGAN","7018001","2020-12-13 18:00","2020","12","13","18:00","-0.3","","-4.0","","77","","","","28","","14","","","","99.81","","","","-5","","NA"
"-72.73","46.56","SHAWINIGAN","7018001","2020-12-13 19:00","2020","12","13","19:00","-1.3","","-5.1","","75","","","","27","","14","","","","99.91","","","","-6","","NA"
"-72.73","46.56","SHAWINIGAN","7018001","2020-12-13 20:00","2020","12","13","20:00","-2.1","","-6.1","","74","","","","26","","20","","","","100.04","","","","-8","","NA"
"-72.73","46.56","SHAWINIGAN","7018001","2020-12-13 21:00","2020","12","13","21:00","-2.9","","-7.1","","73","","","","26","","14","","","","100.08","","","","-8","","NA"
"-72.73","46.56","SHAWINIGAN","7018001","2020-12-13 22:00","2020","12","13","22:00","-3.1","","-8.3","","67","","","","25","","16","","","","100.16","","","","-8","","NA"
"-72.73","46.56","SHAWINIGAN","7018001","2020-12-13 23:00","2020","12","13","23:00","-3.8","","-8.5","","70","","","","26","","10","","","","100.17","","","","-8","","NA"
"-72.73","46.56","SHAWINIGAN","7018001","2020-12-14 00:00","2020","12","14","00:00","-4.5","","-8.6","","73","","","","24","","9","","","","100.18","","","","-8","","NA"
"-72.73","46.56","SHAWINIGAN","7018001","2020-12-14 01:00","2020","12","14","01:00","-4.4","","-8.4","","74","","","","27","","5","","","","100.16","","","","-7","","NA"
"-72.73","46.56","SHAWINIGAN","7018001","2020-12-14 02:00","2020","12","14","02:00","-4.3","","-8.7","","71","","","","27","","11","","","","100.27","","","","-9","","NA"
"-72.73","46.56","SHAWINIGAN","7018001","2020-12-14 03:00","2020","12","14","03:00","-4.9","","-8.9","","73","","","","32","","10","","","","100.24","","","","-9","","NA"
"-72.73","46.56","SHAWINIGAN","7018001","2020-12-14 04:00","2020","12","14","04:00","-5.4","","-9.0","","76","","","","33","","5","","","","100.25","","","","-8","","NA"
"-72.73","46.56","SHAWINIGAN","7018001","2020-12-14 05:00","2020","12","14","05:00","-5.8","","-9.2","","77","","","","35","","7","","","","100.24","","","","-9","","NA"
"-72.73","46.56","SHAWINIGAN","7018001","2020-12-14 06:00","2020","12","14","06:00","-6.0","","-9.5","","76","","","","34","","4","","","","100.27","","","","-8","","NA"
"-72.73","46.56","SHAWINIGAN","7018001","2020-12-14 07:00","2020","12","14","07:00","-6.9","","-9.7","","80","","","","4","","7","","","","100.24","","","","-10","","NA"
"-72.73","46.56","SHAWINIGAN","7018001","2020-12-14 08:00","2020","12","14","08:00","-7.8","","-10.5","","81","","","","1","","5","","","","100.20","","","","-10","","NA"
"-72.73","46.56","SHAWINIGAN","7018001","2020-12-14 09:00","2020","12","14","09:00","-8.0","","-10.7","","81","","","","34","","4","","","","100.17","","","","-10","","NA"
"-72.73","46.56","SHAWINIGAN","7018001","2020-12-14 10:00","2020","12","14","10:00","-6.2","","-10.4","","72","","","","2","","4","","","","100.08","","","","-8","","NA"
"-72.73","46.56","SHAWINIGAN","7018001","2020-12-14 11:00","2020","12","14","11:00","-5.8","","-9.8","","74","","","","13","","3","","","","99.97","","","","-7","","NA"
"-72.73","46.56","SHAWINIGAN","7018001","2020-12-14 12:00","2020","12","14","12:00","-5.5","","-9.5","","74","","","","6","","2","","","","99.86","","","","-6","","NA"
"-72.73","46.56","SHAWINIGAN","7018001","2020-12-14 13:00","2020","12","14","13:00","-4.7","","-8.3","","76","","","","22","","4","","","","99.77","","","","-6","","NA"
"-72.73","46.56","SHAWINIGAN","7018001","2020-12-14 14:00","2020","12","14","14:00","-4.4","","-7.5","","79","","","","22","","8","","","","99.71","","","","-8","","NA"
"-72.73","46.56","SHAWINIGAN","7018001","2020-12-14 15:00","2020","12","14","15:00","-4.7","","-7.5","","80","","","","19","","8","","","","99.62","","","","-8","","NA"
"-72.73","46.56","SHAWINIGAN","7018001","2020-12-14 16:00","2020","12","14","16:00","-4.7","","-7.2","","82","","","","21","","6","","","","99.59","","","","-7","","NA"
"-72.73","46.56","SHAWINIGAN","7018001","2020-12-14 17:00","2020","12","14","17:00","-4.9","","-6.7","","87","","","","19","","7","","","","99.51","","","","-8","","NA"
"-72.73","46.56","SHAWINIGAN","7018001","2020-12-14 18:00","2020","12","14","18:00","-5.4","","-7.4","","86","","","","17","","5","","","","99.48","","","","-8","","NA"
"-72.73","46.56","SHAWINIGAN","7018001","2020-12-14 19:00","2020","12","14","19:00","-5.3","","-7.0","","88","","","","21","","5","","","","99.46","","","","-8","","NA"
"-72.73","46.56","SHAWINIGAN","7018001","2020-12-14 20:00","2020","12","14","20:00","-5.5","","-7.3","","87","","","","25","","8","","","","99.40","","","","-9","","NA"
"-72.73","46.56","SHAWINIGAN","7018001","2020-12-14 21:00","2020","12","14","21:00","-5.6","","-6.9","","90","","","","25","","6","","","","99.36","","","","-8","","NA"
"-72.73","46.56","SHAWINIGAN","7018001","2020-12-14 22:00","2020","12","14","22:00","-5.4","","-6.7","","90","","","","22","","11","","","","99.33","","","","-10","","NA"
"-72.73","46.56","SHAWINIGAN","7018001","2020-12-14 23:00","2020","12","14","23:00","-5.4","","-6.7","","91","","","","24","","12","","","","99.39","","","","-10","","NA"
"-72.73","46.56","SHAWINIGAN","7018001","2020-12-15 00:00","2020","12","15","00:00","-5.1","","-7.6","","83","","","","26","","8","","","","99.44","","","","-9","","NA"
"-72.73","46.56","SHAWINIGAN","7018001","2020-12-15 01:00","2020","12","15","01:00","-5.0","","-9.9","","68","","","","30","","16","","","","99.55","","","","-11","","NA"
"-72.73","46.56","SHAWINIGAN","7018001","2020-12-15 02:00","2020","12","15","02:00","-6.1","","-12.7","","60","","","","31","","21","","","","99.73","","","","-13","","NA"
"-72.73","46.56","SHAWINIGAN","7018001","2020-12-15 03:00","2020","12","15","03:00","-7.2","","-14.0","","59","","","","30","","15","","","","99.92","","","","-13","","NA"
"-72.73","46.56","SHAWINIGAN","7018001","2020-12-15 04:00","2020","12","15","04:00","-9.1","","-15.4","","60","","","","32","","15","","","","100.11","","","","-16","","NA"
"-72.73","46.56","SHAWINIGAN","7018001","2020-12-15 05:00","2020","12","15","05:00","-10.2","","-15.7","","64","","","","30","","7","","","","100.23","","","","-14","","NA"
"-72.73","46.56","SHAWINIGAN","7018001","2020-12-15 06:00","2020","12","15","06:00","-11.3","","-18.5","","55","","","","31","","15","","","","100.41","","","","-18","","NA"
"-72.73","46.56","SHAWINIGAN","7018001","2020-12-15 07:00","2020","12","15","07:00","-11.9","","-18.4","","58","","","","31","","13","","","","100.53","","","","-19","","NA"
"-72.73","46.56","SHAWINIGAN","7018001","2020-12-15 08:00","2020","12","15","08:00","-12.2","","-17.3","","65","","","","31","","10","","","","100.68","","","","-18","","NA"
"-72.73","46.56","SHAWINIGAN","7018001","2020-12-15 09:00","2020","12","15","09:00","-12.9","","-19.3","","59","","","","29","","16","","","","100.80","","","","-21","","NA"
"-72.73","46.56","SHAWINIGAN","7018001","2020-12-15 10:00","2020","12","15","10:00","-13.0","","-20.5","","53","","","","29","","16","","","","100.95","","","","-21","","NA"
"-72.73","46.56","SHAWINIGAN","7018001","2020-12-15 11:00","2020","12","15","11:00","-12.9","","-20.5","","53","","","","31","","16","","","","101.00","","","","-21","","NA"
"-72.73","46.56","SHAWINIGAN","7018001","2020-12-15 12:00","2020","12","15","12:00","-13.1","","-21.0","","51","","","","30","","16","","","","101.00","","","","-21","","NA"
"-72.73","46.56","SHAWINIGAN","7018001","2020-12-15 13:00","2020","12","15","13:00","-13.1","","-21.8","","48","","","","30","","16","","","","101.09","","","","-21","","NA"
"-72.73","46.56","SHAWINIGAN","7018001","2020-12-15 14:00","2020","12","15","14:00","-13.3","","-21.8","","49","","","","30","","14","","","","101.18","","","","-21","","NA"
"-72.73","46.56","SHAWINIGAN","7018001","2020-12-15 15:00","2020","12","15","15:00","-13.8","","-21.8","","51","","","","31","","16","","","","101.24","","","","-22","","NA"
"-72.73","46.56","SHAWINIGAN","7018001","2020-12-15 16:00","2020","12","15","16:00","-14.7","","-22.3","","52","","","","31","","11","","","","101.34","","","","-21","","NA"
"-72.73","46.56","SHAWINIGAN","7018001","2020-12-15 17:00","2020","12","15","17:00","-15.4","","-22.5","","55","","","","31","","12","","","","101.45","","","","-22","","NA"
"-72.73","46.56","SHAWINIGAN","7018001","2020-12-15 18:00","2020","12","15","18:00","-16.2","","-22.5","","58","","","","31","","10","","","","101.56","","","","-23","","NA"
"-72.73","46.56","SHAWINIGAN","7018001","2020-12-15 19:00","2020","12","15","19:00","-17.0","","-23.0","","59","","","","33","","8","","","","101.65","","","","-23","","NA"
"-72.73","46.56","SHAWINIGAN","7018001","2020-12-15 20:00","2020","12","15","20:00","-17.7","","-24.0","","58","","","","32","","12","","","","101.76","","","","-25","","NA"
"-72.73","46.56","SHAWINIGAN","7018001","2020-12-15 21:00","2020","12","15","21:00","-18.2","","-24.5","","58","","","","33","","15","","","","101.71","","","","-27","","NA"
"-72.73","46.56","SHAWINIGAN","7018001","2020-12-15 22:00","2020","12","15","22:00","-18.8","","-24.7","","60","","","","35","","7","","","","101.81","","","","-24","","NA"
"-72.73","46.56","SHAWINIGAN","7018001","2020-12-15 23:00","2020","12","15","23:00","-19.4","","-24.9","","62","","","","1","","3","","","","101.86","","","","-22","","NA"
"-72.73","46.56","SHAWINIGAN","7018001","2020-12-16 00:00","2020","12","16","00:00","-19.9","","-25.5","","61","","","","34","","4","","","","101.90","","","","-23","","NA"
"-72.73","46.56","SHAWINIGAN","7018001","2020-12-16 01:00","2020","12","16","01:00","-20.5","","-25.9","","62","","","","31","","8","","","","101.95","","","","-27","","NA"
"-72.73","46.56","SHAWINIGAN","7018001","2020-12-16 02:00","2020","12","16","02:00","-20.9","","-26.3","","62","","","","32","","6","","","","102.02","","","","-26","","NA"
"-72.73","46.56","SHAWINIGAN","7018001","2020-12-16 03:00","2020","12","16","03:00","-21.3","","-26.6","","62","","","","34","","4","","","","102.07","","","","-25","","NA"
"-72.73","46.56","SHAWINIGAN","7018001","2020-12-16 04:00","2020","12","16","04:00","-21.9","","-26.9","","64","","","","30","","7","","","","102.12","","","","-28","","NA"
"-72.73","46.56","SHAWINIGAN","7018001","2020-12-16 05:00","2020","12","16","05:00","-22.2","","-27.0","","65","","","","29","","2","","","","102.13","","","","-24","","NA"
"-72.73","46.56","SHAWINIGAN","7018001","2020-12-16 06:00","2020","12","16","06:00","-22.3","","-26.8","","67","","","","34","","7","","","","102.19","","","","-28","","NA"
"-72.73","46.56","SHAWINIGAN","7018001","2020-12-16 07:00","2020","12","16","07:00","-22.2","","-27.3","","63","","","","35","","5","","","","102.22","","","","-27","","NA"
"-72.73","46.56","SHAWINIGAN","7018001","2020-12-16 08:00","2020","12","16","08:00","-22.0","","-27.2","","62","","","","1","","6","","","","102.20","","","","-27","","NA"
"-72.73","46.56","SHAWINIGAN","7018001","2020-12-16 09:00","2020","12","16","09:00","-21.2","","-26.9","","60","","","","35","","9","","","","102.24","","","","-28","","NA"
"-72.73","46.56","SHAWINIGAN","7018001","2020-12-16 10:00","2020","12","16","10:00","-19.8","","-25.9","","58","","","","35","","7","","","","102.27","","","","-25","","NA"
"-72.73","46.56","SHAWINIGAN","7018001","2020-12-16 11:00","2020","12","16","11:00","-18.3","","-25.3","","54","","","","36","","10","","","","102.21","","","","-25","","NA"
"-72.73","46.56","SHAWINIGAN","7018001","2020-12-16 12:00","2020","12","16","12:00","-17.3","","-25.2","","50","","","","34","","9","","","","102.11","","","","-24","","NA"
"-72.73","46.56","SHAWINIGAN","7018001","2020-12-16 13:00","2020","12","16","13:00","-16.5","","-24.6","","50","","","","34","","5","","","","102.07","","","","-20","","NA"
"-72.73","46.56","SHAWINIGAN","7018001","2020-12-16 14:00","2020","12","16","14:00","-15.3","","-24.1","","47","","","","34","","9","","","","101.96","","","","-21","","NA"
"-72.73","46.56","SHAWINIGAN","7018001","2020-12-16 15:00","2020","12","16","15:00","-14.7","","-23.3","","48","","","","35","","7","","","","101.96","","","","-19","","NA"
"-72.73","46.56","SHAWINIGAN","7018001","2020-12-16 16:00","2020","12","16","16:00","-15.5","","-23.0","","53","","","","35","","7","","","","101.96","","","","-20","","NA"
"-72.73","46.56","SHAWINIGAN","7018001","2020-12-16 17:00","2020","12","16","17:00","-16.1","","-22.5","","58","","","","36","","7","","","","101.89","","","","-21","","NA"
"-72.73","46.56","SHAWINIGAN","7018001","2020-12-16 18:00","2020","12","16","18:00","-16.8","","-22.6","","61","","","","34","","7","","","","101.91","","","","-22","","NA"
"-72.73","46.56","SHAWINIGAN","7018001","2020-12-16 19:00","2020","12","16","19:00","-17.2","","-22.6","","63","","","","36","","6","","","","101.92","","","","-22","","NA"
"-72.73","46.56","SHAWINIGAN","7018001","2020-12-16 20:00","2020","12","16","20:00","-17.4","","-22.3","","66","","","","1","","7","","","","101.86","","","","-23","","NA"
"-72.73","46.56","SHAWINIGAN","7018001","2020-12-16 21:00","2020","12","16","21:00","-17.7","","-22.1","","69","","","","35","","8","","","","101.79","","","","-24","","NA"
"-72.73","46.56","SHAWINIGAN","7018001","2020-12-16 22:00","2020","12","16","22:00","-17.9","","-22.1","","70","","","","36","","9","","","","101.71","","","","-24","","NA"
"-72.73","46.56","SHAWINIGAN","7018001","2020-12-16 23:00","2020","12","16","23:00","-17.7","","-21.6","","72","","","","35","","5","","","","101.60","","","","-22","","NA"
"-72.73","46.56","SHAWINIGAN","7018001","2020-12-17 00:00","2020","12","17","00:00","-16.6","","-20.9","","69","","","","2","","10","","","","101.43","","","","-23","","NA"
"-72.73","46.56","SHAWINIGAN","7018001","2020-12-17 01:00","2020","12","17","01:00","-15.9","","-21.2","","63","","","","4","","8","","","","101.36","","","","-21","","NA"
"-72.73","46.56","SHAWINIGAN","7018001","2020-12-17 02:00","2020","12","17","02:00","-16.2","","-21.5","","64","","","","35","","7","","","","101.27","","","","-21","","NA"
"-72.73","46.56","SHAWINIGAN","7018001","2020-12-17 03:00","2020","12","17","03:00","-16.2","","-21.5","","64","","","","35","","7","","","","101.35","","","","-21","","NA"
"-72.73","46.56","SHAWINIGAN","7018001","2020-12-17 04:00","2020","12","17","04:00","-16.3","","-21.0","","67","","","","35","","8","","","","101.37","","","","-22","","NA"
"-72.73","46.56","SHAWINIGAN","7018001","2020-12-17 05:00","2020","12","17","05:00","-16.5","","-20.6","","70","","","","34","","13","","","","101.20","","","","-24","","NA"
"-72.73","46.56","SHAWINIGAN","7018001","2020-12-17 06:00","2020","12","17","06:00","-17.0","","-21.1","","70","","","","36","","7","","","","101.21","","","","-22","","NA"
"-72.73","46.56","SHAWINIGAN","7018001","2020-12-17 07:00","2020","12","17","07:00","-17.0","","-21.2","","69","","","","34","","9","","","","101.27","","","","-23","","NA"
"-72.73","46.56","SHAWINIGAN","7018001","2020-12-17 08:00","2020","12","17","08:00","-16.7","","-21.0","","69","","","","35","","12","","","","101.17","","","","-24","","NA"
"-72.73","46.56","SHAWINIGAN","7018001","2020-12-17 09:00","2020","12","17","09:00","-18.0","","-22.8","","66","","","","34","","19","","","","101.13","","","","-28","","NA"
"-72.73","46.56","SHAWINIGAN","7018001","2020-12-17 10:00","2020","12","17","10:00","-17.0","","-22.9","","60","","","","36","","9","","","","101.10","","","","-23","","NA"
"-72.73","46.56","SHAWINIGAN","7018001","2020-12-17 11:00","2020","12","17","11:00","-15.4","","-22.6","","54","","","","36","","13","","","","101.06","","","","-23","","NA"
"-72.73","46.56","SHAWINIGAN","7018001","2020-12-17 12:00","2020","12","17","12:00","-13.9","","-22.4","","49","","","","36","","14","","","","101.03","","","","-21","","NA"
"-72.73","46.56","SHAWINIGAN","7018001","2020-12-17 13:00","2020","12","17","13:00","-13.1","","-21.8","","48","","","","34","","10","","","","101.04","","","","-19","","NA"
"-72.73","46.56","SHAWINIGAN","7018001","2020-12-17 14:00","2020","12","17","14:00","-12.5","","-21.4","","47","","","","2","","10","","","","101.06","","","","-18","","NA"
"-72.73","46.56","SHAWINIGAN","7018001","2020-12-17 15:00","2020","12","17","15:00","-12.4","","-20.8","","49","","","","35","","9","","","","101.07","","","","-18","","NA"
"-72.73","46.56","SHAWINIGAN","7018001","2020-12-17 16:00","2020","12","17","16:00","-13.3","","-21.1","","52","","","","34","","10","","","","101.10","","","","-19","","NA"
"-72.73","46.56","SHAWINIGAN","7018001","2020-12-17 17:00","2020","12","17","17:00","-14.1","","-20.9","","56","","","","36","","12","","","","101.10","","","","-21","","NA"
"-72.73","46.56","SHAWINIGAN","7018001","2020-12-17 18:00","2020","12","17","18:00","-14.7","","-20.9","","59","","","","35","","14","","","","101.11","","","","-22","","NA"
"-72.73","46.56","SHAWINIGAN","7018001","2020-12-17 19:00","2020","12","17","19:00","-15.2","","-21.0","","61","","","","1","","8","","","","101.14","","","","-21","","NA"
"-72.73","46.56","SHAWINIGAN","7018001","2020-12-17 20:00","2020","12","17","20:00","-15.1","","-21.1","","60","","","","36","","8","","","","101.20","","","","-20","","NA"
"-72.73","46.56","SHAWINIGAN","7018001","2020-12-17 21:00","2020","12","17","21:00","-15.0","","-21.2","","59","","","","35","","11","","","","101.18","","","","-22","","NA"
"-72.73","46.56","SHAWINIGAN","7018001","2020-12-17 22:00","2020","12","17","22:00","-15.4","","-21.4","","60","","","","1","","5","","","","101.20","","","","-19","","NA"
"-72.73","46.56","SHAWINIGAN","7018001","2020-12-17 23:00","2020","12","17","23:00","-15.5","","-21.5","","60","","","","36","","5","","","","101.27","","","","-19","","NA"
"-72.73","46.56","SHAWINIGAN","7018001","2020-12-18 00:00","2020","12","18","00:00","-15.7","","-22.0","","59","","","","3","","4","","","","101.32","","","","-19","","NA"
"-72.73","46.56","SHAWINIGAN","7018001","2020-12-18 01:00","2020","12","18","01:00","-16.1","","-22.0","","61","","","","34","","3","","","","101.31","","","","-18","","NA"
"-72.73","46.56","SHAWINIGAN","7018001","2020-12-18 02:00","2020","12","18","02:00","-16.3","","-22.4","","60","","","","3","","4","","","","101.36","","","","-19","","NA"
"-72.73","46.56","SHAWINIGAN","7018001","2020-12-18 03:00","2020","12","18","03:00","-16.5","","-22.4","","60","","","","36","","6","","","","101.34","","","","-21","","NA"
"-72.73","46.56","SHAWINIGAN","7018001","2020-12-18 04:00","2020","12","18","04:00","-16.5","","-22.1","","62","","","","1","","8","","","","101.31","","","","-22","","NA"
"-72.73","46.56","SHAWINIGAN","7018001","2020-12-18 05:00","2020","12","18","05:00","-16.6","","-22.0","","63","","","","1","","8","","","","101.33","","","","-22","","NA"
"-72.73","46.56","SHAWINIGAN","7018001","2020-12-18 06:00","2020","12","18","06:00","-16.5","","-21.8","","64","","","","1","","7","","","","101.36","","","","-22","","NA"
"-72.73","46.56","SHAWINIGAN","7018001","2020-12-18 07:00","2020","12","18","07:00","-16.6","","-21.5","","66","","","","1","","6","","","","101.41","","","","-21","","NA"
"-72.73","46.56","SHAWINIGAN","7018001","2020-12-18 08:00","2020","12","18","08:00","-16.2","","-21.3","","65","","","","1","","6","","","","101.46","","","","-21","","NA"
"-72.73","46.56","SHAWINIGAN","7018001","2020-12-18 09:00","2020","12","18","09:00","-14.3","","-20.9","","58","","","","36","","7","","","","101.52","","","","-19","","NA"
"-72.73","46.56","SHAWINIGAN","7018001","2020-12-18 10:00","2020","12","18","10:00","-12.6","","-20.9","","50","","","","35","","7","","","","101.58","","","","-17","","NA"
"-72.73","46.56","SHAWINIGAN","7018001","2020-12-18 11:00","2020","12","18","11:00","-10.5","","-20.3","","44","","","","35","","7","","","","101.55","","","","-15","","NA"
"-72.73","46.56","SHAWINIGAN","7018001","2020-12-18 12:00","2020","12","18","12:00","-8.7","","-20.0","","40","","","","34","","10","","","","101.49","","","","-14","","NA"
"-72.73","46.56","SHAWINIGAN","7018001","2020-12-18 13:00","2020","12","18","13:00","-7.3","","-19.5","","37","","","","34","","10","","","","101.46","","","","-12","","NA"
"-72.73","46.56","SHAWINIGAN","7018001","2020-12-18 14:00","2020","12","18","14:00","-6.3","","-19.2","","35","","","","34","","9","","","","101.44","","","","-11","","NA"
"-72.73","46.56","SHAWINIGAN","7018001","2020-12-18 15:00","2020","12","18","15:00","-6.1","","-18.7","","36","","","","35","","10","","","","101.45","","","","-11","","NA"
"-72.73","46.56","SHAWINIGAN","7018001","2020-12-18 16:00","2020","12","18","16:00","-6.9","","-18.4","","39","","","","33","","10","","","","101.47","","","","-12","","NA"
"-72.73","46.56","SHAWINIGAN","7018001","2020-12-18 17:00","2020","12","18","17:00","-8.6","","-17.9","","47","","","","32","","5","","","","101.52","","","","-11","","NA"
"-72.73","46.56","SHAWINIGAN","7018001","2020-12-18 18:00","2020","12","18","18:00","-8.3","","-18.0","","46","","","","34","","7","","","","101.52","","","","-12","","NA"
"-72.73","46.56","SHAWINIGAN","7018001","2020-12-18 19:00","2020","12","18","19:00","-9.9","","-18.0","","51","","","","34","","6","","","","101.54","","","","-13","","NA"
"-72.73","46.56","SHAWINIGAN","7018001","2020-12-18 20:00","2020","12","18","20:00","-10.6","","-17.9","","55","","","","35","","2","","","","101.54","","","","-12","","NA"
"-72.73","46.56","SHAWINIGAN","7018001","2020-12-18 21:00","2020","12","18","21:00","-11.5","","-17.9","","59","","","","33","","3","","","","101.51","","","","-13","","NA"
"-72.73","46.56","SHAWINIGAN","7018001","2020-12-18 22:00","2020","12","18","22:00","-12.6","","-18.1","","63","","","","32","","5","","","","101.47","","","","-16","","NA"
"-72.73","46.56","SHAWINIGAN","7018001","2020-12-18 23:00","2020","12","18","23:00","-13.2","","-18.1","","66","","","","31","","3","","","","101.50","","","","-15","","NA"
"-72.73","46.56","SHAWINIGAN","7018001","2020-12-19 00:00","2020","12","19","00:00","-13.7","","-18.0","","70","","","","35","","3","","","","101.48","","","","-16","","NA"
"-72.73","46.56","SHAWINIGAN","7018001","2020-12-19 01:00","2020","12","19","01:00","-14.2","","-17.9","","74","","","","1","","6","","","","101.48","","","","-18","","NA"
"-72.73","46.56","SHAWINIGAN","7018001","2020-12-19 02:00","2020","12","19","02:00","-14.9","","-18.2","","76","","","","34","","4","","","","101.49","","","","-18","","NA"
"-72.73","46.56","SHAWINIGAN","7018001","2020-12-19 03:00","2020","12","19","03:00","-15.6","","-18.5","","78","","","","34","","5","","","","101.49","","","","-19","","NA"
"-72.73","46.56","SHAWINIGAN","7018001","2020-12-19 04:00","2020","12","19","04:00","-16.1","","-18.9","","79","","","","31","","4","","","","101.45","","","","-19","","NA"
"-72.73","46.56","SHAWINIGAN","7018001","2020-12-19 05:00","2020","12","19","05:00","-16.8","","-19.3","","81","","","","34","","5","","","","101.46","","","","-21","","NA"
"-72.73","46.56","SHAWINIGAN","7018001","2020-12-19 06:00","2020","12","19","06:00","-17.1","","-19.7","","81","","","","34","","4","","","","101.45","","","","-20","","NA"
"-72.73","46.56","SHAWINIGAN","7018001","2020-12-19 07:00","2020","12","19","07:00","-17.2","","-19.9","","79","","","","33","","4","","","","101.43","","","","-20","","NA"
"-72.73","46.56","SHAWINIGAN","7018001","2020-12-19 08:00","2020","12","19","08:00","-17.0","","-19.6","","80","","","","32","","2","","","","101.46","","","","-19","","NA"
"-72.73","46.56","SHAWINIGAN","7018001","2020-12-19 09:00","2020","12","19","09:00","-15.4","","-18.5","","77","","","","32","","1","","","","101.46","","","","-16","","NA"
"-72.73","46.56","SHAWINIGAN","7018001","2020-12-19 10:00","2020","12","19","10:00","-13.1","","-16.2","","78","","","","0","","1","","","","101.44","","","","-14","","NA"
"-72.73","46.56","SHAWINIGAN","7018001","2020-12-19 11:00","2020","12","19","11:00","-12.2","","-13.8","","88","","","","19","","4","","","","101.37","","","","-15","","NA"
"-72.73","46.56","SHAWINIGAN","7018001","2020-12-19 12:00","2020","12","19","12:00","-9.7","","-12.7","","79","","","","19","","4","","","","101.30","","","","-12","","NA"
"-72.73","46.56","SHAWINIGAN","7018001","2020-12-19 13:00","2020","12","19","13:00","-8.3","","-13.0","","69","","","","19","","8","","","","101.19","","","","-12","","NA"
"-72.73","46.56","SHAWINIGAN","7018001","2020-12-19 14:00","2020","12","19","14:00","-6.8","","-13.2","","60","","","","20","","13","","","","101.14","","","","-12","","NA"
"-72.73","46.56","SHAWINIGAN","7018001","2020-12-19 15:00","2020","12","19","15:00","-6.5","","-12.7","","61","","","","20","","7","","","","101.14","","","","-10","","NA"
"-72.73","46.56","SHAWINIGAN","7018001","2020-12-19 16:00","2020","12","19","16:00","-6.4","","-11.8","","65","","","","21","","7","","","","101.12","","","","-10","","NA"
"-72.73","46.56","SHAWINIGAN","7018001","2020-12-19 17:00","2020","12","19","17:00","-6.4","","-11.1","","69","","","","22","","5","","","","101.14","","","","-9","","NA"
"-72.73","46.56","SHAWINIGAN","7018001","2020-12-19 18:00","2020","12","19","18:00","-6.4","","-10.5","","73","","","","19","","4","","","","101.12","","","","-8","","NA"
"-72.73","46.56","SHAWINIGAN","7018001","2020-12-19 19:00","2020","12","19","19:00","-6.3","","-10.6","","72","","","","16","","2","","","","101.08","","","","-7","","NA"
"-72.73","46.56","SHAWINIGAN","7018001","2020-12-19 20:00","2020","12","19","20:00","-6.4","","-10.5","","73","","","","9","","2","","","","101.08","","","","-7","","NA"
"-72.73","46.56","SHAWINIGAN","7018001","2020-12-19 21:00","2020","12","19","21:00","-7.0","","-10.5","","76","","","","9","","4","","","","101.04","","","","-9","","NA"
"-72.73","46.56","SHAWINIGAN","7018001","2020-12-19 22:00","2020","12","19","22:00","-7.1","","-10.3","","78","","","","8","","4","","","","100.99","","","","-9","","NA"
"-72.73","46.56","SHAWINIGAN","7018001","2020-12-19 23:00","2020","12","19","23:00","-7.1","","-10.2","","79","","","","7","","3","","","","100.96","","","","-9","","NA"
"-72.73","46.56","SHAWINIGAN","7018001","2020-12-20 00:00","2020","12","20","00:00","-7.2","","-10.5","","78","","","","4","","5","","","","100.95","","","","-10","","NA"
"-72.73","46.56","SHAWINIGAN","7018001","2020-12-20 01:00","2020","12","20","01:00","-7.3","","-10.7","","77","","","","4","","8","","","","100.84","","","","-11","","NA"
"-72.73","46.56","SHAWINIGAN","7018001","2020-12-20 02:00","2020","12","20","02:00","-7.2","","-10.5","","78","","","","4","","2","","","","100.83","","","","-8","","NA"
"-72.73","46.56","SHAWINIGAN","7018001","2020-12-20 03:00","2020","12","20","03:00","-7.2","","-10.6","","77","","","","5","","4","","","","100.76","","","","-9","","NA"
"-72.73","46.56","SHAWINIGAN","7018001","2020-12-20 04:00","2020","12","20","04:00","-7.2","","-10.4","","78","","","","4","","5","","","","100.71","","","","-10","","NA"
"-72.73","46.56","SHAWINIGAN","7018001","2020-12-20 05:00","2020","12","20","05:00","-6.9","","-10.3","","77","","","","3","","6","","","","100.67","","","","-10","","NA"
"-72.73","46.56","SHAWINIGAN","7018001","2020-12-20 06:00","2020","12","20","06:00","-6.7","","-10.2","","76","","","","5","","6","","","","100.64","","","","-10","","NA"
"-72.73","46.56","SHAWINIGAN","7018001","2020-12-20 07:00","2020","12","20","07:00","-6.3","","-9.9","","76","","","","4","","7","","","","100.60","","","","-10","","NA"
"-72.73","46.56","SHAWINIGAN","7018001","2020-12-20 08:00","2020","12","20","08:00","-6.1","","-9.1","","79","","","","5","","7","","","","100.50","","","","-9","","NA"
"-72.73","46.56","SHAWINIGAN","7018001","2020-12-20 09:00","2020","12","20","09:00","-5.4","","-8.3","","80","","","","5","","4","","","","100.49","","","","-7","","NA"
"-72.73","46.56","SHAWINIGAN","7018001","2020-12-20 10:00","2020","12","20","10:00","-4.0","","-8.1","","73","","","","10","","3","","","","100.46","","","","-5","","NA"
"-72.73","46.56","SHAWINIGAN","7018001","2020-12-20 11:00","2020","12","20","11:00","-3.4","","-7.8","","72","","","","5","","5","","","","100.33","","","","-5","","NA"
"-72.73","46.56","SHAWINIGAN","7018001","2020-12-20 12:00","2020","12","20","12:00","-2.4","","-8.1","","65","","","","7","","5","","","","100.22","","","","-4","","NA"
"-72.73","46.56","SHAWINIGAN","7018001","2020-12-20 13:00","2020","12","20","13:00","-2.7","","-6.3","","76","","","","7","","6","","","","100.10","","","","-5","","NA"
"-72.73","46.56","SHAWINIGAN","7018001","2020-12-20 14:00","2020","12","20","14:00","-2.3","","-5.0","","82","","","","9","","6","","","","100.03","","","","-5","","NA"
"-72.73","46.56","SHAWINIGAN","7018001","2020-12-20 15:00","2020","12","20","15:00","-2.7","","-4.8","","86","","","","11","","4","","","","99.99","","","","-4","","NA"
"-72.73","46.56","SHAWINIGAN","7018001","2020-12-20 16:00","2020","12","20","16:00","-3.0","","-4.2","","92","","","","7","","5","","","","99.95","","","","-5","","NA"
"-72.73","46.56","SHAWINIGAN","7018001","2020-12-20 17:00","2020","12","20","17:00","-3.0","","-4.1","","93","","","","9","","4","","","","99.93","","","","-5","","NA"
"-72.73","46.56","SHAWINIGAN","7018001","2020-12-20 18:00","2020","12","20","18:00","-3.0","","-3.8","","94","","","","7","","4","","","","99.88","","","","-5","","NA"
"-72.73","46.56","SHAWINIGAN","7018001","2020-12-20 19:00","2020","12","20","19:00","-2.6","","-3.2","","95","","","","8","","3","","","","99.86","","","","-4","","NA"
"-72.73","46.56","SHAWINIGAN","7018001","2020-12-20 20:00","2020","12","20","20:00","-2.2","","-2.7","","96","","","","10","","3","","","","99.77","","","","-3","","NA"
"-72.73","46.56","SHAWINIGAN","7018001","2020-12-20 21:00","2020","12","20","21:00","-1.7","","-2.4","","95","","","","16","","7","","","","99.73","","","","-4","","NA"
"-72.73","46.56","SHAWINIGAN","7018001","2020-12-20 22:00","2020","12","20","22:00","-1.7","","-2.3","","96","","","","16","","5","","","","99.72","","","","-4","","NA"
"-72.73","46.56","SHAWINIGAN","7018001","2020-12-20 23:00","2020","12","20","23:00","-1.5","","-2.0","","96","","","","16","","7","","","","99.68","","","","-4","","NA"
"-72.73","46.56","SHAWINIGAN","7018001","2020-12-21 00:00","2020","12","21","00:00","-1.0","","-1.5","","96","","","","20","","8","","","","99.68","","","","-4","","NA"
"-72.73","46.56","SHAWINIGAN","7018001","2020-12-21 01:00","2020","12","21","01:00","-0.8","","-1.2","","97","","","","20","","10","","","","99.64","","","","-4","","NA"
"-72.73","46.56","SHAWINIGAN","7018001","2020-12-21 02:00","2020","12","21","02:00","-0.6","","-1.0","","97","","","","19","","11","","","","99.64","","","","-4","","NA"
"-72.73","46.56","SHAWINIGAN","7018001","2020-12-21 03:00","2020","12","21","03:00","-0.5","","-0.8","","98","","","","19","","9","","","","99.63","","","","-4","","NA"
"-72.73","46.56","SHAWINIGAN","7018001","2020-12-21 04:00","2020","12","21","04:00","-0.4","","-0.7","","98","","","","19","","10","","","","99.61","","","","-4","","NA"
"-72.73","46.56","SHAWINIGAN","7018001","2020-12-21 05:00","2020","12","21","05:00","-0.3","","-0.8","","96","","","","20","","8","","","","99.59","","","","-3","","NA"
"-72.73","46.56","SHAWINIGAN","7018001","2020-12-21 06:00","2020","12","21","06:00","-0.3","","-0.8","","96","","","","19","","7","","","","99.59","","","","-3","","NA"
"-72.73","46.56","SHAWINIGAN","7018001","2020-12-21 07:00","2020","12","21","07:00","-0.2","","-0.7","","96","","","","20","","6","","","","99.58","","","","-2","","NA"
"-72.73","46.56","SHAWINIGAN","7018001","2020-12-21 08:00","2020","12","21","08:00","0.0","","-0.6","","96","","","","18","","7","","","","99.56","","","","-2","","NA"
"-72.73","46.56","SHAWINIGAN","7018001","2020-12-21 09:00","2020","12","21","09:00","0.2","","-0.4","","96","","","","20","","8","","","","99.58","","","","","","NA"
"-72.73","46.56","SHAWINIGAN","7018001","2020-12-21 10:00","2020","12","21","10:00","0.4","","-0.1","","96","","","","19","","9","","","","99.58","","","","","","NA"
"-72.73","46.56","SHAWINIGAN","7018001","2020-12-21 11:00","2020","12","21","11:00","0.5","","-0.1","","96","","0.8","","18","","9","","","","99.52","","","","","","NA"
"-72.73","46.56","SHAWINIGAN","7018001","2020-12-21 12:00","2020","12","21","12:00","0.6","","-0.2","","95","","1.8","","19","","6","","","","99.45","","","","","","NA"
"-72.73","46.56","SHAWINIGAN","7018001","2020-12-21 13:00","2020","12","21","13:00","0.6","","0.0","","96","","0.4","","18","","6","","","","99.38","","","","","","NA"
"-72.73","46.56","SHAWINIGAN","7018001","2020-12-21 14:00","2020","12","21","14:00","0.5","","0.1","","97","","0.0","","14","","4","","","","99.31","","","","","","NA"
"-72.73","46.56","SHAWINIGAN","7018001","2020-12-21 15:00","2020","12","21","15:00","0.6","","0.2","","97","","0.0","","8","","2","","","","99.31","","","","","","NA"
"-72.73","46.56","SHAWINIGAN","7018001","2020-12-21 16:00","2020","12","21","16:00","0.3","","-0.1","","97","","","","8","","4","","","","99.29","","","","","","NA"
"-72.73","46.56","SHAWINIGAN","7018001","2020-12-21 17:00","2020","12","21","17:00","0.3","","-0.1","","97","","","","4","","5","","","","99.28","","","","","","NA"
"-72.73","46.56","SHAWINIGAN","7018001","2020-12-21 18:00","2020","12","21","18:00","0.2","","-0.2","","97","","","","6","","3","","","","99.29","","","","","","NA"
"-72.73","46.56","SHAWINIGAN","7018001","2020-12-21 19:00","2020","12","21","19:00","0.2","","-0.2","","97","","","","3","","4","","","","99.26","","","","","","NA"
"-72.73","46.56","SHAWINIGAN","7018001","2020-12-21 20:00","2020","12","21","20:00","0.2","","-0.2","","97","","","","3","","4","","","","99.22","","","","","","NA"
"-72.73","46.56","SHAWINIGAN","7018001","2020-12-21 21:00","2020","12","21","21:00","0.1","","-0.2","","98","","","","36","","3","","","","99.16","","","","","","NA"
"-72.73","46.56","SHAWINIGAN","7018001","2020-12-21 22:00","2020","12","21","22:00","0.1","","-0.2","","98","","","","3","","3","","","","99.09","","","","","","NA"
"-72.73","46.56","SHAWINIGAN","7018001","2020-12-21 23:00","2020","12","21","23:00","0.0","","-0.3","","98","","","","4","","4","","","","99.00","","","","-1","","NA"
"-72.73","46.56","SHAWINIGAN","7018001","2020-12-22 00:00","2020","12","22","00:00","0.0","","-0.3","","98","","","","2","","2","","","","98.93","","","","-1","","NA"
"-72.73","46.56","SHAWINIGAN","7018001","2020-12-22 01:00","2020","12","22","01:00","-0.1","","-0.3","","99","","","","31","","4","","","","98.89","","","","-1","","NA"
"-72.73","46.56","SHAWINIGAN","7018001","2020-12-22 02:00","2020","12","22","02:00","-0.1","","-0.3","","98","","","","30","","3","","","","98.90","","","","-1","","NA"
"-72.73","46.56","SHAWINIGAN","7018001","2020-12-22 03:00","2020","12","22","03:00","-0.1","","-0.5","","97","","","","30","","4","","","","98.89","","","","-1","","NA"
"-72.73","46.56","SHAWINIGAN","7018001","2020-12-22 04:00","2020","12","22","04:00","-0.1","","-0.6","","96","","","","27","","3","","","","98.84","","","","-1","","NA"
"-72.73","46.56","SHAWINIGAN","7018001","2020-12-22 05:00","2020","12","22","05:00","0.0","","-0.9","","94","","","","30","","5","","","","98.83","","","","-2","","NA"
"-72.73","46.56","SHAWINIGAN","7018001","2020-12-22 06:00","2020","12","22","06:00","-0.2","","-1.1","","94","","","","29","","2","","","","98.82","","","","-1","","NA"
"-72.73","46.56","SHAWINIGAN","7018001","2020-12-22 07:00","2020","12","22","07:00","-1.0","","-1.6","","96","","","","31","","1","","","","98.79","","","","-1","","NA"
"-72.73","46.56","SHAWINIGAN","7018001","2020-12-22 08:00","2020","12","22","08:00","-0.7","","-1.2","","97","","","","24","","10","","","","98.80","","","","-4","","NA"
"-72.73","46.56","SHAWINIGAN","7018001","2020-12-22 09:00","2020","12","22","09:00","-0.7","","-1.1","","97","","","","27","","3","","","","98.82","","","","-2","","NA"
"-72.73","46.56","SHAWINIGAN","7018001","2020-12-22 10:00","2020","12","22","10:00","-0.1","","-1.0","","94","","","","24","","8","","","","98.87","","","","-3","","NA"
"-72.73","46.56","SHAWINIGAN","7018001","2020-12-22 11:00","2020","12","22","11:00","0.6","","-0.7","","92","","0.0","","21","","5","","","","98.85","","","","","","NA"
"-72.73","46.56","SHAWINIGAN","7018001","2020-12-22 12:00","2020","12","22","12:00","1.8","","-0.4","","85","","0.0","","26","","9","","","","98.84","","","","","","NA"
"-72.73","46.56","SHAWINIGAN","7018001","2020-12-22 13:00","2020","12","22","13:00","2.3","","-0.6","","81","","0.0","","28","","3","","","","98.85","","","","","","NA"
"-72.73","46.56","SHAWINIGAN","7018001","2020-12-22 14:00","2020","12","22","14:00","2.0","","-0.4","","84","","0.0","","21","","7","","","","98.89","","","","","","NA"
"-72.73","46.56","SHAWINIGAN","7018001","2020-12-22 15:00","2020","12","22","15:00","1.9","","-0.1","","86","","0.0","","25","","6","","","","99.00","","","","","","NA"
"-72.73","46.56","SHAWINIGAN","7018001","2020-12-22 16:00","2020","12","22","16:00","1.3","","0.0","","91","","0.0","","24","","10","","","","99.08","","","","","","NA"
"-72.73","46.56","SHAWINIGAN","7018001","2020-12-22 17:00","2020","12","22","17:00","1.6","","-0.8","","84","","0.0","","28","","6","","","","99.17","","","","","","NA"
"-72.73","46.56","SHAWINIGAN","7018001","2020-12-22 18:00","2020","12","22","18:00","1.5","","-0.6","","86","","0.0","","29","","10","","","","99.32","","","","","","NA"
"-72.73","46.56","SHAWINIGAN","7018001","2020-12-22 19:00","2020","12","22","19:00","0.8","","-2.6","","79","","0.0","","33","","16","","","","99.50","","","","","","NA"
"-72.73","46.56","SHAWINIGAN","7018001","2020-12-22 20:00","2020","12","22","20:00","-0.7","","-5.0","","73","","","","33","","21","","","","99.68","","","","-6","","NA"
"-72.73","46.56","SHAWINIGAN","7018001","2020-12-22 21:00","2020","12","22","21:00","-2.5","","-7.1","","71","","","","31","","16","","","","99.83","","","","-8","","NA"
"-72.73","46.56","SHAWINIGAN","7018001","2020-12-22 22:00","2020","12","22","22:00","-3.9","","-9.0","","67","","","","32","","23","","","","99.94","","","","-11","","NA"
"-72.73","46.56","SHAWINIGAN","7018001","2020-12-22 23:00","2020","12","22","23:00","-5.2","","-10.1","","68","","","","31","","14","","","","100.21","","","","-11","","NA"
"-72.73","46.56","SHAWINIGAN","7018001","2020-12-23 00:00","2020","12","23","00:00","-5.9","","-11.4","","65","","","","31","","16","","","","100.26","","","","-12","","NA"
"-72.73","46.56","SHAWINIGAN","7018001","2020-12-23 01:00","2020","12","23","01:00","-7.0","","-12.7","","64","","","","30","","16","","","","100.44","","","","-13","","NA"
"-72.73","46.56","SHAWINIGAN","7018001","2020-12-23 02:00","2020","12","23","02:00","-7.7","","-13.6","","63","","","","30","","10","","","","100.62","","","","-13","","NA"
"-72.73","46.56","SHAWINIGAN","7018001","2020-12-23 03:00","2020","12","23","03:00","-8.4","","-14.4","","62","","","","33","","14","","","","100.78","","","","-15","","NA"
"-72.73","46.56","SHAWINIGAN","7018001","2020-12-23 04:00","2020","12","23","04:00","-8.8","","-13.9","","67","","","","31","","7","","","","100.86","","","","-13","","NA"
"-72.73","46.56","SHAWINIGAN","7018001","2020-12-23 05:00","2020","12","23","05:00","-9.7","","-15.0","","65","","","","30","","10","","","","101.01","","","","-15","","NA"
"-72.73","46.56","SHAWINIGAN","7018001","2020-12-23 06:00","2020","12","23","06:00","-10.3","","-15.0","","68","","","","31","","7","","","","101.10","","","","-14","","NA"
"-72.73","46.56","SHAWINIGAN","7018001","2020-12-23 07:00","2020","12","23","07:00","-10.6","","-15.1","","69","","","","30","","3","","","","101.19","","","","-12","","NA"
"-72.73","46.56","SHAWINIGAN","7018001","2020-12-23 08:00","2020","12","23","08:00","-10.8","","-14.6","","73","","","","4","","2","","","","101.20","","","","-12","","NA"
"-72.73","46.56","SHAWINIGAN","7018001","2020-12-23 09:00","2020","12","23","09:00","-9.4","","-14.0","","69","","","","10","","1","","","","101.33","","","","-10","","NA"
"-72.73","46.56","SHAWINIGAN","7018001","2020-12-23 10:00","2020","12","23","10:00","-9.0","","-14.6","","64","","","","30","","7","","","","101.36","","","","-13","","NA"
"-72.73","46.56","SHAWINIGAN","7018001","2020-12-23 11:00","2020","12","23","11:00","-8.7","","-14.2","","64","","","","17","","6","","","","101.31","","","","-12","","NA"
"-72.73","46.56","SHAWINIGAN","7018001","2020-12-23 12:00","2020","12","23","12:00","-8.1","","-14.0","","62","","","","22","","9","","","","101.29","","","","-13","","NA"
"-72.73","46.56","SHAWINIGAN","7018001","2020-12-23 13:00","2020","12","23","13:00","-7.8","","-13.6","","63","","","","18","","10","","","","101.21","","","","-13","","NA"
"-72.73","46.56","SHAWINIGAN","7018001","2020-12-23 14:00","2020","12","23","14:00","-7.8","","-13.3","","65","","","","19","","12","","","","101.18","","","","-13","","NA"
"-72.73","46.56","SHAWINIGAN","7018001","2020-12-23 15:00","2020","12","23","15:00","-7.2","","-12.8","","64","","","","19","","8","","","","101.15","","","","-11","","NA"
"-72.73","46.56","SHAWINIGAN","7018001","2020-12-23 16:00","2020","12","23","16:00","-7.7","","-10.1","","82","","","","18","","8","","","","101.14","","","","-12","","NA"
"-72.73","46.56","SHAWINIGAN","7018001","2020-12-23 17:00","2020","12","23","17:00","-7.6","","-9.4","","87","","","","15","","5","","","","101.11","","","","-10","","NA"
"-72.73","46.56","SHAWINIGAN","7018001","2020-12-23 18:00","2020","12","23","18:00","-7.0","","-8.6","","88","","","","13","","7","","","","101.03","","","","-11","","NA"
"-72.73","46.56","SHAWINIGAN","7018001","2020-12-23 19:00","2020","12","23","19:00","-6.8","","-8.4","","88","","","","10","","5","","","","100.96","","","","-9","","NA"
"-72.73","46.56","SHAWINIGAN","7018001","2020-12-23 20:00","2020","12","23","20:00","-6.7","","-8.2","","89","","","","11","","5","","","","100.85","","","","-9","","NA"
"-72.73","46.56","SHAWINIGAN","7018001","2020-12-23 21:00","2020","12","23","21:00","-6.9","","-8.2","","90","","","","7","","12","","","","100.71","","","","-12","","NA"
"-72.73","46.56","SHAWINIGAN","7018001","2020-12-23 22:00","2020","12","23","22:00","-7.0","","-8.5","","89","","","","8","","12","","","","100.57","","","","-12","","NA"
"-72.73","46.56","SHAWINIGAN","7018001","2020-12-23 23:00","2020","12","23","23:00","-7.1","","-8.7","","88","","","","7","","7","","","","100.55","","","","-11","","NA"
"-72.73","46.56","SHAWINIGAN","7018001","2020-12-24 00:00","2020","12","24","00:00","-7.3","","-8.9","","89","","","","5","","4","","","","100.48","","","","-9","","NA"
"-72.73","46.56","SHAWINIGAN","7018001","2020-12-24 01:00","2020","12","24","01:00","-7.5","","-8.8","","90","","","","6","","5","","","","100.41","","","","-10","","NA"
"-72.73","46.56","SHAWINIGAN","7018001","2020-12-24 02:00","2020","12","24","02:00","-7.4","","-8.6","","91","","","","34","","4","","","","100.44","","","","-9","","NA"
"-72.73","46.56","SHAWINIGAN","7018001","2020-12-24 03:00","2020","12","24","03:00","-6.6","","-7.8","","91","","","","7","","6","","","","100.37","","","","-10","","NA"
"-72.73","46.56","SHAWINIGAN","7018001","2020-12-24 04:00","2020","12","24","04:00","-5.7","","-7.1","","90","","","","6","","4","","","","100.33","","","","-8","","NA"
"-72.73","46.56","SHAWINIGAN","7018001","2020-12-24 05:00","2020","12","24","05:00","-4.8","","-6.5","","88","","","","5","","5","","","","100.32","","","","-7","","NA"
"-72.73","46.56","SHAWINIGAN","7018001","2020-12-24 06:00","2020","12","24","06:00","-4.0","","-6.1","","85","","","","5","","5","","","","100.28","","","","-6","","NA"
"-72.73","46.56","SHAWINIGAN","7018001","2020-12-24 07:00","2020","12","24","07:00","-4.6","","-6.5","","87","","","","7","","6","","","","100.23","","","","-7","","NA"
"-72.73","46.56","SHAWINIGAN","7018001","2020-12-24 08:00","2020","12","24","08:00","-4.4","","-6.4","","86","","","","6","","6","","","","100.26","","","","-7","","NA"
"-72.73","46.56","SHAWINIGAN","7018001","2020-12-24 09:00","2020","12","24","09:00","-3.3","","-5.7","","84","","","","5","","7","","","","100.21","","","","-6","","NA"
"-72.73","46.56","SHAWINIGAN","7018001","2020-12-24 10:00","2020","12","24","10:00","-1.6","","-4.2","","82","","","","5","","5","","","","100.17","","","","-3","","NA"
"-72.73","46.56","SHAWINIGAN","7018001","2020-12-24 11:00","2020","12","24","11:00","0.9","","-2.3","","79","","0.0","","6","","6","","","","100.03","","","","","","NA"
"-72.73","46.56","SHAWINIGAN","7018001","2020-12-24 12:00","2020","12","24","12:00","1.1","","-1.1","","85","","0.2","","5","","6","","","","99.89","","","","","","NA"
"-72.73","46.56","SHAWINIGAN","7018001","2020-12-24 13:00","2020","12","24","13:00","0.9","","0.1","","95","","0.8","","5","","6","","","","99.81","","","","","","NA"
"-72.73","46.56","SHAWINIGAN","7018001","2020-12-24 14:00","2020","12","24","14:00","1.4","","1.0","","97","","1.2","","6","","5","","","","99.79","","","","","","NA"
"-72.73","46.56","SHAWINIGAN","7018001","2020-12-24 15:00","2020","12","24","15:00","2.0","","1.7","","98","","1.8","","5","","6","","","","99.78","","","","","","NA"
"-72.73","46.56","SHAWINIGAN","7018001","2020-12-24 16:00","2020","12","24","16:00","2.6","","2.3","","98","","0.6","","7","","7","","","","99.84","","","","","","NA"
"-72.73","46.56","SHAWINIGAN","7018001","2020-12-24 17:00","2020","12","24","17:00","2.8","","2.5","","98","","0.8","","7","","6","","","","99.79","","","","","","NA"
"-72.73","46.56","SHAWINIGAN","7018001","2020-12-24 18:00","2020","12","24","18:00","3.3","","3.0","","98","","0.6","","3","","2","","","","99.75","","","","","","NA"
"-72.73","46.56","SHAWINIGAN","7018001","2020-12-24 19:00","2020","12","24","19:00","3.2","","2.9","","98","","0.4","","6","","4","","","","99.71","","","","","","NA"
"-72.73","46.56","SHAWINIGAN","7018001","2020-12-24 20:00","2020","12","24","20:00","5.8","","5.5","","99","","1.4","","15","","6","","","","99.66","","","","","","NA"
"-72.73","46.56","SHAWINIGAN","7018001","2020-12-24 21:00","2020","12","24","21:00","5.4","","5.2","","98","","3.8","","4","","4","","","","99.55","","","","","","NA"
"-72.73","46.56","SHAWINIGAN","7018001","2020-12-24 22:00","2020","12","24","22:00","5.5","","5.3","","99","","3.4","","8","","6","","","","99.38","","","","","","NA"
"-72.73","46.56","SHAWINIGAN","7018001","2020-12-24 23:00","2020","12","24","23:00","6.2","","6.0","","99","","2.6","","9","","6","","","","99.30","","","","","","NA"
"-72.73","46.56","SHAWINIGAN","7018001","2020-12-25 00:00","2020","12","25","00:00","6.1","","5.9","","99","","4.6","","9","","7","","","","99.19","","","","","","NA"
"-72.73","46.56","SHAWINIGAN","7018001","2020-12-25 01:00","2020","12","25","01:00","6.5","","6.3","","99","","4.4","","9","","7","","","","99.09","","","","","","NA"
"-72.73","46.56","SHAWINIGAN","7018001","2020-12-25 02:00","2020","12","25","02:00","6.6","","6.4","","99","","3.4","","9","","5","","","","99.03","","","","","","NA"
"-72.73","46.56","SHAWINIGAN","7018001","2020-12-25 03:00","2020","12","25","03:00","6.6","","6.5","","99","","3.6","","6","","7","","","","98.95","","","","","","NA"
"-72.73","46.56","SHAWINIGAN","7018001","2020-12-25 04:00","2020","12","25","04:00","6.5","","6.3","","99","","4.8","","6","","10","","","","98.77","","","","","","NA"
"-72.73","46.56","SHAWINIGAN","7018001","2020-12-25 05:00","2020","12","25","05:00","7.2","","7.0","","99","","3.6","","7","","10","","","","98.57","","","","","","NA"
"-72.73","46.56","SHAWINIGAN","7018001","2020-12-25 06:00","2020","12","25","06:00","7.3","","7.1","","99","","1.4","","8","","11","","","","98.43","","","","","","NA"
"-72.73","46.56","SHAWINIGAN","7018001","2020-12-25 07:00","2020","12","25","07:00","7.5","","7.3","","99","","0.8","","7","","11","","","","98.35","","","","","","NA"
"-72.73","46.56","SHAWINIGAN","7018001","2020-12-25 08:00","2020","12","25","08:00","7.7","","7.5","","99","","0.8","","7","","10","","","","98.26","","","","","","NA"
"-72.73","46.56","SHAWINIGAN","7018001","2020-12-25 09:00","2020","12","25","09:00","7.9","","7.7","","99","","0.2","","6","","5","","","","98.22","","","","","","NA"
"-72.73","46.56","SHAWINIGAN","7018001","2020-12-25 10:00","2020","12","25","10:00","9.0","","8.7","","98","","1.6","","36","","2","","","","98.35","","","","","","NA"
"-72.73","46.56","SHAWINIGAN","7018001","2020-12-25 11:00","2020","12","25","11:00","9.9","","9.7","","99","","1.2","","16","","6","","","","98.30","","","","","","NA"
"-72.73","46.56","SHAWINIGAN","7018001","2020-12-25 12:00","2020","12","25","12:00","10.5","","10.3","","99","","2.2","","22","","6","","","","98.29","","","","","","NA"
"-72.73","46.56","SHAWINIGAN","7018001","2020-12-25 13:00","2020","12","25","13:00","9.5","","9.3","","99","","2.0","","6","","6","","","","98.14","","","","","","NA"
"-72.73","46.56","SHAWINIGAN","7018001","2020-12-25 14:00","2020","12","25","14:00","10.6","","10.5","","99","","1.8","","9","","7","","","","98.12","","","","","","NA"
"-72.73","46.56","SHAWINIGAN","7018001","2020-12-25 15:00","2020","12","25","15:00","11.1","","10.9","","99","","0.4","","11","","9","","","","98.10","","","","","","NA"
"-72.73","46.56","SHAWINIGAN","7018001","2020-12-25 16:00","2020","12","25","16:00","11.1","","10.9","","99","","3.6","","11","","3","","","","98.16","","","","","","NA"
"-72.73","46.56","SHAWINIGAN","7018001","2020-12-25 17:00","2020","12","25","17:00","11.4","","11.2","","99","","0.8","","13","","17","","","","98.16","","","","","","NA"
"-72.73","46.56","SHAWINIGAN","7018001","2020-12-25 18:00","2020","12","25","18:00","10.7","","9.3","","92","","0.2","","19","","12","","","","98.07","","","","","","NA"
"-72.73","46.56","SHAWINIGAN","7018001","2020-12-25 19:00","2020","12","25","19:00","10.2","","8.9","","91","","0.0","","14","","10","","","","98.01","","","","","","NA"
"-72.73","46.56","SHAWINIGAN","7018001","2020-12-25 20:00","2020","12","25","20:00","6.9","","5.8","","93","","0.0","","20","","20","","","","98.03","","","","","","NA"
"-72.73","46.56","SHAWINIGAN","7018001","2020-12-25 21:00","2020","12","25","21:00","2.7","","2.0","","95","","0.0","","20","","14","","","","98.08","","","","","","NA"
"-72.73","46.56","SHAWINIGAN","7018001","2020-12-25 22:00","2020","12","25","22:00","1.7","","1.2","","97","","0.0","","21","","20","","","","98.18","","","","","","NA"
"-72.73","46.56","SHAWINIGAN","7018001","2020-12-25 23:00","2020","12","25","23:00","0.7","","0.2","","97","","0.4","","20","","21","","","","98.26","","","","","","NA"
"-72.73","46.56","SHAWINIGAN","7018001","2020-12-26 00:00","2020","12","26","00:00","0.4","","-0.1","","96","","","","21","","15","","","","98.24","","","","","","NA"
"-72.73","46.56","SHAWINIGAN","7018001","2020-12-26 01:00","2020","12","26","01:00","0.3","","-0.6","","93","","","","21","","17","","","","98.29","","","","","","NA"
"-72.73","46.56","SHAWINIGAN","7018001","2020-12-26 02:00","2020","12","26","02:00","0.0","","-1.4","","90","","","","20","","16","","","","98.33","","","","-5","","NA"
"-72.73","46.56","SHAWINIGAN","7018001","2020-12-26 03:00","2020","12","26","03:00","-1.0","","-3.8","","81","","","","21","","21","","","","98.41","","","","-7","","NA"
"-72.73","46.56","SHAWINIGAN","7018001","2020-12-26 04:00","2020","12","26","04:00","-1.5","","-4.6","","79","","","","21","","14","","","","98.41","","","","-6","","NA"
"-72.73","46.56","SHAWINIGAN","7018001","2020-12-26 05:00","2020","12","26","05:00","-1.9","","-5.0","","79","","","","21","","16","","","","98.47","","","","-7","","NA"
"-72.73","46.56","SHAWINIGAN","7018001","2020-12-26 06:00","2020","12","26","06:00","-2.1","","-5.0","","80","","","","20","","14","","","","98.55","","","","-7","","NA"
"-72.73","46.56","SHAWINIGAN","7018001","2020-12-26 07:00","2020","12","26","07:00","-1.8","","-4.2","","84","","","","20","","13","","","","98.57","","","","-6","","NA"
"-72.73","46.56","SHAWINIGAN","7018001","2020-12-26 08:00","2020","12","26","08:00","-1.7","","-6.0","","72","","","","20","","20","","","","98.64","","","","-7","","NA"
"-72.73","46.56","SHAWINIGAN","7018001","2020-12-26 09:00","2020","12","26","09:00","-1.8","","-6.2","","72","","","","21","","21","","","","98.65","","","","-8","","NA"
"-72.73","46.56","SHAWINIGAN","7018001","2020-12-26 10:00","2020","12","26","10:00","-2.1","","-7.3","","67","","","","21","","24","","","","98.67","","","","-8","","NA"
"-72.73","46.56","SHAWINIGAN","7018001","2020-12-26 11:00","2020","12","26","11:00","-2.1","","-7.0","","69","","","","21","","21","","","","98.58","","","","-8","","NA"
"-72.73","46.56","SHAWINIGAN","7018001","2020-12-26 12:00","2020","12","26","12:00","-1.8","","-6.6","","70","","","","21","","23","","","","98.51","","","","-8","","NA"
"-72.73","46.56","SHAWINIGAN","7018001","2020-12-26 13:00","2020","12","26","13:00","-2.6","","-6.6","","74","","","","22","","20","","","","98.49","","","","-9","","NA"
"-72.73","46.56","SHAWINIGAN","7018001","2020-12-26 14:00","2020","12","26","14:00","-2.9","","-8.8","","64","","","","22","","19","","","","98.52","","","","-9","","NA"
"-72.73","46.56","SHAWINIGAN","7018001","2020-12-26 15:00","2020","12","26","15:00","-4.6","","-7.9","","78","","","","28","","11","","","","98.64","","","","-9","","NA"
"-72.73","46.56","SHAWINIGAN","7018001","2020-12-26 16:00","2020","12","26","16:00","-6.2","","-13.3","","57","","","","28","","19","","","","98.78","","","","-13","","NA"
"-72.73","46.56","SHAWINIGAN","7018001","2020-12-26 17:00","2020","12","26","17:00","-7.4","","-14.0","","59","","","","27","","17","","","","98.92","","","","-14","","NA"
"-72.73","46.56","SHAWINIGAN","7018001","2020-12-26 18:00","2020","12","26","18:00","-8.4","","-15.6","","56","","","","29","","17","","","","99.06","","","","-15","","NA"
"-72.73","46.56","SHAWINIGAN","7018001","2020-12-26 19:00","2020","12","26","19:00","-8.8","","-15.2","","60","","","","29","","13","","","","99.17","","","","-15","","NA"
"-72.73","46.56","SHAWINIGAN","7018001","2020-12-26 20:00","2020","12","26","20:00","-8.9","","-15.2","","61","","","","29","","9","","","","99.28","","","","-14","","NA"
"-72.73","46.56","SHAWINIGAN","7018001","2020-12-26 21:00","2020","12","26","21:00","-9.2","","-15.1","","62","","","","29","","8","","","","99.39","","","","-14","","NA"
"-72.73","46.56","SHAWINIGAN","7018001","2020-12-26 22:00","2020","12","26","22:00","-9.0","","-14.7","","64","","","","28","","7","","","","99.45","","","","-13","","NA"
"-72.73","46.56","SHAWINIGAN","7018001","2020-12-26 23:00","2020","12","26","23:00","-9.0","","-14.5","","64","","","","28","","8","","","","99.55","","","","-13","","NA"
"-72.73","46.56","SHAWINIGAN","7018001","2020-12-27 00:00","2020","12","27","00:00","-9.4","","-15.1","","63","","","","27","","12","","","","99.60","","","","-15","","NA"
"-72.73","46.56","SHAWINIGAN","7018001","2020-12-27 01:00","2020","12","27","01:00","-10.0","","-15.1","","66","","","","26","","8","","","","99.71","","","","-14","","NA"
"-72.73","46.56","SHAWINIGAN","7018001","2020-12-27 02:00","2020","12","27","02:00","-10.2","","-15.3","","66","","","","25","","10","","","","99.85","","","","-15","","NA"
"-72.73","46.56","SHAWINIGAN","7018001","2020-12-27 03:00","2020","12","27","03:00","-10.7","","-16.5","","63","","","","26","","10","","","","99.98","","","","-16","","NA"
"-72.73","46.56","SHAWINIGAN","7018001","2020-12-27 04:00","2020","12","27","04:00","-11.4","","-16.9","","64","","","","27","","5","","","","100.08","","","","-15","","NA"
"-72.73","46.56","SHAWINIGAN","7018001","2020-12-27 05:00","2020","12","27","05:00","-11.8","","-17.4","","64","","","","28","","5","","","","100.20","","","","-15","","NA"
"-72.73","46.56","SHAWINIGAN","7018001","2020-12-27 06:00","2020","12","27","06:00","-11.4","","-16.9","","64","","","","26","","11","","","","100.33","","","","-17","","NA"
"-72.73","46.56","SHAWINIGAN","7018001","2020-12-27 07:00","2020","12","27","07:00","-11.2","","-16.8","","63","","","","32","","5","","","","100.45","","","","-14","","NA"
"-72.73","46.56","SHAWINIGAN","7018001","2020-12-27 08:00","2020","12","27","08:00","-11.0","","-16.3","","65","","","","32","","5","","","","100.53","","","","-14","","NA"
"-72.73","46.56","SHAWINIGAN","7018001","2020-12-27 09:00","2020","12","27","09:00","-10.4","","-15.4","","67","","","","29","","2","","","","100.64","","","","-12","","NA"
"-72.73","46.56","SHAWINIGAN","7018001","2020-12-27 10:00","2020","12","27","10:00","-8.4","","-13.9","","64","","","","20","","4","","","","100.74","","","","-11","","NA"
"-72.73","46.56","SHAWINIGAN","7018001","2020-12-27 11:00","2020","12","27","11:00","-7.8","","-14.3","","60","","","","22","","11","","","","100.82","","","","-13","","NA"
"-72.73","46.56","SHAWINIGAN","7018001","2020-12-27 12:00","2020","12","27","12:00","-7.0","","-14.9","","53","","","","22","","10","","","","100.76","","","","-12","","NA"
"-72.73","46.56","SHAWINIGAN","7018001","2020-12-27 13:00","2020","12","27","13:00","-6.6","","-15.1","","51","","","","19","","10","","","","100.78","","","","-11","","NA"
"-72.73","46.56","SHAWINIGAN","7018001","2020-12-27 14:00","2020","12","27","14:00","-5.9","","-14.1","","52","","","","18","","7","","","","100.83","","","","-9","","NA"
"-72.73","46.56","SHAWINIGAN","7018001","2020-12-27 15:00","2020","12","27","15:00","-5.8","","-13.9","","53","","","","18","","13","","","","100.91","","","","-11","","NA"
"-72.73","46.56","SHAWINIGAN","7018001","2020-12-27 16:00","2020","12","27","16:00","-6.6","","-13.9","","56","","","","19","","7","","","","100.98","","","","-10","","NA"
"-72.73","46.56","SHAWINIGAN","7018001","2020-12-27 17:00","2020","12","27","17:00","-6.7","","-13.5","","58","","","","21","","8","","","","101.01","","","","-11","","NA"
"-72.73","46.56","SHAWINIGAN","7018001","2020-12-27 18:00","2020","12","27","18:00","-7.3","","-12.9","","64","","","","17","","5","","","","101.05","","","","-10","","NA"
"-72.73","46.56","SHAWINIGAN","7018001","2020-12-27 19:00","2020","12","27","19:00","-7.8","","-12.7","","68","","","","15","","3","","","","101.07","","","","-9","","NA"
"-72.73","46.56","SHAWINIGAN","7018001","2020-12-27 20:00","2020","12","27","20:00","-8.4","","-12.9","","70","","","","15","","4","","","","101.13","","","","-11","","NA"
"-72.73","46.56","SHAWINIGAN","7018001","2020-12-27 21:00","2020","12","27","21:00","-8.2","","-11.7","","76","","","","6","","2","","","","101.14","","","","-9","","NA"
"-72.73","46.56","SHAWINIGAN","7018001","2020-12-27 22:00","2020","12","27","22:00","-7.6","","-10.6","","79","","","","12","","4","","","","101.11","","","","-10","","NA"
"-72.73","46.56","SHAWINIGAN","7018001","2020-12-27 23:00","2020","12","27","23:00","-7.6","","-10.3","","81","","","","6","","3","","","","101.02","","","","-9","","NA"
"-72.73","46.56","SHAWINIGAN","7018001","2020-12-28 00:00","2020","12","28","00:00","-7.3","","-9.8","","82","","","","8","","7","","","","100.93","","","","-11","","NA"
"-72.73","46.56","SHAWINIGAN","7018001","2020-12-28 01:00","2020","12","28","01:00","-7.1","","-9.6","","82","","","","5","","10","","","","100.83","","","","-12","","NA"
"-72.73","46.56","SHAWINIGAN","7018001","2020-12-28 02:00","2020","12","28","02:00","-6.7","","-9.6","","80","","","","7","","9","","","","100.73","","","","-11","","NA"
"-72.73","46.56","SHAWINIGAN","7018001","2020-12-28 03:00","2020","12","28","03:00","-6.5","","-9.6","","79","","","","7","","12","","","","100.59","","","","-12","","NA"
"-72.73","46.56","SHAWINIGAN","7018001","2020-12-28 04:00","2020","12","28","04:00","-6.4","","-9.1","","81","","","","7","","12","","","","100.45","","","","-12","","NA"
"-72.73","46.56","SHAWINIGAN","7018001","2020-12-28 05:00","2020","12","28","05:00","-6.1","","-8.8","","81","","","","6","","9","","","","100.29","","","","-10","","NA"
"-72.73","46.56","SHAWINIGAN","7018001","2020-12-28 06:00","2020","12","28","06:00","-5.6","","-8.3","","81","","","","7","","13","","","","100.20","","","","-11","","NA"
"-72.73","46.56","SHAWINIGAN","7018001","2020-12-28 07:00","2020","12","28","07:00","-5.2","","-8.1","","80","","","","7","","9","","","","100.08","","","","-9","","NA"
"-72.73","46.56","SHAWINIGAN","7018001","2020-12-28 08:00","2020","12","28","08:00","-5.0","","-8.1","","79","","","","6","","5","","","","100.00","","","","-7","","NA"
"-72.73","46.56","SHAWINIGAN","7018001","2020-12-28 09:00","2020","12","28","09:00","-3.8","","-7.3","","77","","","","8","","6","","","","99.93","","","","-6","","NA"
"-72.73","46.56","SHAWINIGAN","7018001","2020-12-28 10:00","2020","12","28","10:00","-2.0","","-6.4","","72","","","","11","","6","","","","99.88","","","","-4","","NA"
"-72.73","46.56","SHAWINIGAN","7018001","2020-12-28 11:00","2020","12","28","11:00","-1.5","","-4.0","","84","","","","13","","7","","","","99.79","","","","-4","","NA"
"-72.73","46.56","SHAWINIGAN","7018001","2020-12-28 12:00","2020","12","28","12:00","-1.9","","-2.7","","94","","","","9","","6","","","","99.66","","","","-4","","NA"
"-72.73","46.56","SHAWINIGAN","7018001","2020-12-28 13:00","2020","12","28","13:00","-0.9","","-1.5","","96","","","","11","","4","","","","99.52","","","","-2","","NA"
"-72.73","46.56","SHAWINIGAN","7018001","2020-12-28 14:00","2020","12","28","14:00","0.1","","-0.2","","98","","","","16","","10","","","","99.43","","","","","","NA"
"-72.73","46.56","SHAWINIGAN","7018001","2020-12-28 15:00","2020","12","28","15:00","0.5","","0.2","","97","","0.0","","19","","14","","","","99.41","","","","","","NA"
"-72.73","46.56","SHAWINIGAN","7018001","2020-12-28 16:00","2020","12","28","16:00","0.8","","0.5","","97","","0.2","","20","","18","","","","99.42","","","","","","NA"
"-72.73","46.56","SHAWINIGAN","7018001","2020-12-28 17:00","2020","12","28","17:00","1.5","","0.9","","96","","1.0","","21","","14","","","","99.46","","","","","","NA"
"-72.73","46.56","SHAWINIGAN","7018001","2020-12-28 18:00","2020","12","28","18:00","2.0","","1.2","","95","","2.2","","22","","19","","","","99.53","","","","","","NA"
"-72.73","46.56","SHAWINIGAN","7018001","2020-12-28 19:00","2020","12","28","19:00","1.9","","1.0","","94","","1.8","","21","","19","","","","99.57","","","","","","NA"
"-72.73","46.56","SHAWINIGAN","7018001","2020-12-28 20:00","2020","12","28","20:00","1.7","","0.3","","90","","1.2","","21","","18","","","","99.62","","","","","","NA"
"-72.73","46.56","SHAWINIGAN","7018001","2020-12-28 21:00","2020","12","28","21:00","1.2","","-0.4","","89","","0.8","","26","","16","","","","99.75","","","","","","NA"
"-72.73","46.56","SHAWINIGAN","7018001","2020-12-28 22:00","2020","12","28","22:00","0.1","","-3.2","","79","","","","28","","15","","","","99.85","","","","","","NA"
"-72.73","46.56","SHAWINIGAN","7018001","2020-12-28 23:00","2020","12","28","23:00","-0.9","","-4.4","","77","","","","27","","10","","","","99.98","","","","-4","","NA"
"-72.73","46.56","SHAWINIGAN","7018001","2020-12-29 00:00","2020","12","29","00:00","-2.5","","-7.4","","69","","","","28","","16","","","","100.07","","","","-8","","NA"
"-72.73","46.56","SHAWINIGAN","7018001","2020-12-29 01:00","2020","12","29","01:00","-3.2","","-7.3","","73","","","","29","","11","","","","100.14","","","","-7","","NA"
"-72.73","46.56","SHAWINIGAN","7018001","2020-12-29 02:00","2020","12","29","02:00","-4.9","","-10.0","","67","","","","32","","11","","","","100.32","","","","-9","","NA"
"-72.73","46.56","SHAWINIGAN","7018001","2020-12-29 03:00","2020","12","29","03:00","-6.4","","-11.5","","68","","","","32","","17","","","","100.41","","","","-13","","NA"
"-72.73","46.56","SHAWINIGAN","7018001","2020-12-29 04:00","2020","12","29","04:00","-7.7","","-12.5","","68","","","","32","","10","","","","100.55","","","","-13","","NA"
"-72.73","46.56","SHAWINIGAN","7018001","2020-12-29 05:00","2020","12","29","05:00","-9.4","","-13.3","","73","","","","30","","7","","","","100.66","","","","-13","","NA"
"-72.73","46.56","SHAWINIGAN","7018001","2020-12-29 06:00","2020","12","29","06:00","-10.6","","-15.2","","69","","","","30","","8","","","","100.82","","","","-15","","NA"
"-72.73","46.56","SHAWINIGAN","7018001","2020-12-29 07:00","2020","12","29","07:00","-11.9","","-17.1","","66","","","","29","","9","","","","100.95","","","","-17","","NA"
"-72.73","46.56","SHAWINIGAN","7018001","2020-12-29 08:00","2020","12","29","08:00","-12.7","","-17.4","","68","","","","30","","13","","","","101.04","","","","-20","","NA"
"-72.73","46.56","SHAWINIGAN","7018001","2020-12-29 09:00","2020","12","29","09:00","-12.4","","-18.0","","63","","","","31","","15","","","","101.17","","","","-20","","NA"
"-72.73","46.56","SHAWINIGAN","7018001","2020-12-29 10:00","2020","12","29","10:00","-11.3","","-18.0","","58","","","","31","","14","","","","101.26","","","","-18","","NA"
"-72.73","46.56","SHAWINIGAN","7018001","2020-12-29 11:00","2020","12","29","11:00","-10.1","","-17.6","","54","","","","31","","17","","","","101.29","","","","-17","","NA"
"-72.73","46.56","SHAWINIGAN","7018001","2020-12-29 12:00","2020","12","29","12:00","-8.9","","-16.5","","54","","","","31","","16","","","","101.24","","","","-16","","NA"
"-72.73","46.56","SHAWINIGAN","7018001","2020-12-29 13:00","2020","12","29","13:00","-7.7","","-15.8","","52","","","","28","","11","","","","101.25","","","","-13","","NA"
"-72.73","46.56","SHAWINIGAN","7018001","2020-12-29 14:00","2020","12","29","14:00","-7.2","","-15.8","","50","","","","28","","9","","","","101.26","","","","-12","","NA"
"-72.73","46.56","SHAWINIGAN","7018001","2020-12-29 15:00","2020","12","29","15:00","-7.2","","-16.2","","49","","","","29","","11","","","","101.30","","","","-12","","NA"
"-72.73","46.56","SHAWINIGAN","7018001","2020-12-29 16:00","2020","12","29","16:00","-7.8","","-15.6","","54","","","","25","","16","","","","101.33","","","","-14","","NA"
"-72.73","46.56","SHAWINIGAN","7018001","2020-12-29 17:00","2020","12","29","17:00","-7.9","","-15.2","","56","","","","23","","13","","","","101.36","","","","-14","","NA"
"-72.73","46.56","SHAWINIGAN","7018001","2020-12-29 18:00","2020","12","29","18:00","-8.3","","-15.5","","56","","","","25","","13","","","","101.35","","","","-14","","NA"
"-72.73","46.56","SHAWINIGAN","7018001","2020-12-29 19:00","2020","12","29","19:00","-8.9","","-15.5","","59","","","","25","","13","","","","101.34","","","","-15","","NA"
"-72.73","46.56","SHAWINIGAN","7018001","2020-12-29 20:00","2020","12","29","20:00","-9.8","","-15.0","","66","","","","23","","11","","","","101.36","","","","-15","","NA"
"-72.73","46.56","SHAWINIGAN","7018001","2020-12-29 21:00","2020","12","29","21:00","-10.7","","-15.0","","71","","","","23","","11","","","","101.40","","","","-16","","NA"
"-72.73","46.56","SHAWINIGAN","7018001","2020-12-29 22:00","2020","12","29","22:00","-11.3","","-15.4","","72","","","","23","","8","","","","101.45","","","","-16","","NA"
"-72.73","46.56","SHAWINIGAN","7018001","2020-12-29 23:00","2020","12","29","23:00","-11.9","","-15.3","","76","","","","24","","8","","","","101.52","","","","-17","","NA"
"-72.73","46.56","SHAWINIGAN","7018001","2020-12-30 00:00","2020","12","30","00:00","-12.3","","-15.8","","76","","","","22","","9","","","","101.48","","","","-18","","NA"
"-72.73","46.56","SHAWINIGAN","7018001","2020-12-30 01:00","2020","12","30","01:00","-13.4","","-16.0","","81","","","","24","","11","","","","101.50","","","","-20","","NA"
"-72.73","46.56","SHAWINIGAN","7018001","2020-12-30 02:00","2020","12","30","02:00","-14.9","","-16.9","","85","","","","15","","5","","","","101.54","","","","-18","","NA"
"-72.73","46.56","SHAWINIGAN","7018001","2020-12-30 03:00","2020","12","30","03:00","-14.9","","-16.6","","86","","","","34","","1","","","","101.50","","","","-16","","NA"
"-72.73","46.56","SHAWINIGAN","7018001","2020-12-30 04:00","2020","12","30","04:00","-13.9","","-15.9","","85","","","","30","","4","","","","101.49","","","","-17","","NA"
"-72.73","46.56","SHAWINIGAN","7018001","2020-12-30 05:00","2020","12","30","05:00","-13.3","","-15.0","","87","","","","26","","6","","","","101.50","","","","-17","","NA"
"-72.73","46.56","SHAWINIGAN","7018001","2020-12-30 06:00","2020","12","30","06:00","-12.9","","-14.5","","87","","","","25","","8","","","","101.46","","","","-18","","NA"
"-72.73","46.56","SHAWINIGAN","7018001","2020-12-30 07:00","2020","12","30","07:00","-12.3","","-14.6","","83","","","","22","","3","","","","101.43","","","","-14","","NA"
"-72.73","46.56","SHAWINIGAN","7018001","2020-12-30 08:00","2020","12","30","08:00","-12.3","","-14.2","","86","","","","8","","2","","","","101.36","","","","-14","","NA"
"-72.73","46.56","SHAWINIGAN","7018001","2020-12-30 09:00","2020","12","30","09:00","-11.4","","-13.5","","85","","","","6","","2","","","","101.29","","","","-13","","NA"
"-72.73","46.56","SHAWINIGAN","7018001","2020-12-30 10:00","2020","12","30","10:00","-10.3","","-12.4","","85","","","","0","","1","","","","101.24","","","","-11","","NA"
"-72.73","46.56","SHAWINIGAN","7018001","2020-12-30 11:00","2020","12","30","11:00","-9.2","","-12.0","","80","","","","19","","3","","","","101.07","","","","-11","","NA"
"-72.73","46.56","SHAWINIGAN","7018001","2020-12-30 12:00","2020","12","30","12:00","-7.9","","-10.3","","83","","","","16","","4","","","","100.82","","","","-10","","NA"
"-72.73","46.56","SHAWINIGAN","7018001","2020-12-30 13:00","2020","12","30","13:00","-7.1","","-9.6","","82","","","","11","","6","","","","100.65","","","","-10","","NA"
"-72.73","46.56","SHAWINIGAN","7018001","2020-12-30 14:00","2020","12","30","14:00","-6.6","","-9.3","","81","","","","8","","10","","","","100.41","","","","-11","","NA"
"-72.73","46.56","SHAWINIGAN","7018001","2020-12-30 15:00","2020","12","30","15:00","-6.6","","-9.2","","82","","","","7","","11","","","","100.23","","","","-12","","NA"
"-72.73","46.56","SHAWINIGAN","7018001","2020-12-30 16:00","2020","12","30","16:00","-6.9","","-8.5","","89","","","","7","","11","","","","100.15","","","","-12","","NA"
"-72.73","46.56","SHAWINIGAN","7018001","2020-12-30 17:00","2020","12","30","17:00","-7.3","","-8.6","","90","","","","8","","10","","","","99.82","","","","-12","","NA"
"-72.73","46.56","SHAWINIGAN","7018001","2020-12-30 18:00","2020","12","30","18:00","-6.8","","-7.9","","92","","","","8","","5","","","","99.75","","","","-9","","NA"
"-72.73","46.56","SHAWINIGAN","7018001","2020-12-30 19:00","2020","12","30","19:00","-6.4","","-7.4","","92","","","","8","","5","","","","99.58","","","","-9","","NA"
"-72.73","46.56","SHAWINIGAN","7018001","2020-12-30 20:00","2020","12","30","20:00","-6.0","","-6.9","","93","","","","10","","5","","","","99.43","","","","-8","","NA"
"-72.73","46.56","SHAWINIGAN","7018001","2020-12-30 21:00","2020","12","30","21:00","-5.6","","-6.5","","94","","","","8","","4","","","","99.33","","","","-7","","NA"
"-72.73","46.56","SHAWINIGAN","7018001","2020-12-30 22:00","2020","12","30","22:00","-5.1","","-5.9","","94","","","","9","","4","","","","99.16","","","","-7","","NA"
"-72.73","46.56","SHAWINIGAN","7018001","2020-12-30 23:00","2020","12","30","23:00","-4.5","","-5.1","","95","","","","12","","4","","","","99.01","","","","-6","","NA"
"-72.73","46.56","SHAWINIGAN","7018001","2020-12-31 00:00","2020","12","31","00:00","-4.0","","-4.7","","96","","","","10","","1","","","","98.97","","","","-4","","NA"
"-72.73","46.56","SHAWINIGAN","7018001","2020-12-31 01:00","2020","12","31","01:00","-3.4","","-3.9","","96","","","","","","0","","","","98.89","","","","","","NA"
"-72.73","46.56","SHAWINIGAN","7018001","2020-12-31 02:00","2020","12","31","02:00","-2.6","","-3.1","","96","","","","24","","7","","","","98.89","","","","-5","","NA"
"-72.73","46.56","SHAWINIGAN","7018001","2020-12-31 03:00","2020","12","31","03:00","-2.2","","-2.7","","96","","","","22","","11","","","","98.92","","","","-6","","NA"
"-72.73","46.56","SHAWINIGAN","7018001","2020-12-31 04:00","2020","12","31","04:00","-1.6","","-2.2","","95","","","","21","","10","","","","98.97","","","","-5","","NA"
"-72.73","46.56","SHAWINIGAN","7018001","2020-12-31 05:00","2020","12","31","05:00","-1.4","","-2.1","","95","","","","23","","9","","","","99.04","","","","-5","","NA"
"-72.73","46.56","SHAWINIGAN","7018001","2020-12-31 06:00","2020","12","31","06:00","-1.2","","-3.3","","86","","","","24","","12","","","","99.22","","","","-5","","NA"
"-72.73","46.56","SHAWINIGAN","7018001","2020-12-31 07:00","2020","12","31","07:00","-0.5","","-4.0","","77","","","","22","","13","","","","99.37","","","","-5","","NA"
"-72.73","46.56","SHAWINIGAN","7018001","2020-12-31 08:00","2020","12","31","08:00","-1.4","","-3.9","","83","","","","24","","7","","","","99.51","","","","-4","","NA"
"-72.73","46.56","SHAWINIGAN","7018001","2020-12-31 09:00","2020","12","31","09:00","-0.9","","-3.7","","81","","","","21","","11","","","","99.66","","","","-5","","NA"
"-72.73","46.56","SHAWINIGAN","7018001","2020-12-31 10:00","2020","12","31","10:00","-0.2","","-3.7","","77","","","","26","","12","","","","99.89","","","","-4","","NA"
"-72.73","46.56","SHAWINIGAN","7018001","2020-12-31 11:00","2020","12","31","11:00","-0.9","","-7.3","","62","","","","30","","17","","","","100.06","","","","-6","","NA"
"-72.73","46.56","SHAWINIGAN","7018001","2020-12-31 12:00","2020","12","31","12:00","-0.5","","-8.1","","57","","","","29","","18","","","","100.15","","","","-6","","NA"
"-72.73","46.56","SHAWINIGAN","7018001","2020-12-31 13:00","2020","12","31","13:00","-0.6","","-8.2","","56","","","","28","","18","","","","100.24","","","","-6","","NA"
"-72.73","46.56","SHAWINIGAN","7018001","2020-12-31 14:00","2020","12","31","14:00","-1.0","","-8.6","","56","","","","29","","13","","","","100.40","","","","-5","","NA"
"-72.73","46.56","SHAWINIGAN","7018001","2020-12-31 15:00","2020","12","31","15:00","-1.9","","-8.2","","62","","","","29","","14","","","","100.55","","","","-7","","NA"
"-72.73","46.56","SHAWINIGAN","7018001","2020-12-31 16:00","2020","12","31","16:00","-2.3","","-8.7","","62","","","","30","","11","","","","100.68","","","","-6","","NA"
"-72.73","46.56","SHAWINIGAN","7018001","2020-12-31 17:00","2020","12","31","17:00","-3.2","","-8.9","","65","","","","28","","9","","","","100.79","","","","-7","","NA"
"-72.73","46.56","SHAWINIGAN","7018001","2020-12-31 18:00","2020","12","31","18:00","-4.2","","-8.8","","70","","","","28","","6","","","","100.92","","","","-7","","NA"
"-72.73","46.56","SHAWINIGAN","7018001","2020-12-31 19:00","2020","12","31","19:00","-5.0","","-8.7","","75","","","","27","","6","","","","101.03","","","","-8","","NA"
"-72.73","46.56","SHAWINIGAN","7018001","2020-12-31 20:00","2020","12","31","20:00","-4.7","","-9.3","","70","","","","27","","8","","","","101.14","","","","-8","","NA"
"-72.73","46.56","SHAWINIGAN","7018001","2020-12-31 21:00","2020","12","31","21:00","-5.8","","-10.6","","69","","","","31","","7","","","","101.26","","","","-9","","NA"
"-72.73","46.56","SHAWINIGAN","7018001","2020-12-31 22:00","2020","12","31","22:00","-7.0","","-11.6","","70","","","","26","","8","","","","101.36","","","","-11","","NA"
"-72.73","46.56","SHAWINIGAN","7018001","2020-12-31 23:00","2020","12","31","23:00","-8.3","","-12.0","","74","","","","26","","8","","","","101.46","","","","-12","","NA"
