"Longitude (x)","Latitude (y)","Station Name","Climate ID","Date/Time (LST)","Year","Month","Day","Time (LST)","Temp (°C)","Temp Flag","Dew Point Temp (°C)","Dew Point Temp Flag","Rel Hum (%)","Rel Hum Flag","Precip. Amount (mm)","Precip. Amount Flag","Wind Dir (10s deg)","Wind Dir Flag","Wind Spd (km/h)","Wind Spd Flag","Visibility (km)","Visibility Flag","Stn Press (kPa)","Stn Press Flag","Hmdx","Hmdx Flag","Wind Chill","Wind Chill Flag","Weather"
"-115.14","67.82","KUGLUKTUK A","2300903","2021-02-01 00:00","2021","02","01","00:00","-31.8","","-34.9","","75","","","","24","","7","","24.1","","103.35","","","","-39","","Ice Crystals"
"-115.14","67.82","KUGLUKTUK A","2300903","2021-02-01 01:00","2021","02","01","01:00","-33.3","","-36.6","","73","","","","22","","20","","24.1","","103.37","","","","-47","","Ice Crystals"
"-115.14","67.82","KUGLUKTUK A","2300903","2021-02-01 02:00","2021","02","01","02:00","-32.9","","-36.2","","74","","","","22","","17","","24.1","","103.40","","","","-46","","Ice Crystals"
"-115.14","67.82","KUGLUKTUK A","2300903","2021-02-01 03:00","2021","02","01","03:00","-33.6","","-36.9","","73","","","","22","","21","","24.1","","103.44","","","","-48","","Ice Crystals"
"-115.14","67.82","KUGLUKTUK A","2300903","2021-02-01 04:00","2021","02","01","04:00","-33.4","","-36.7","","73","","","","22","","22","","19.3","","103.46","","","","-48","","Ice Crystals"
"-115.14","67.82","KUGLUKTUK A","2300903","2021-02-01 05:00","2021","02","01","05:00","-34.0","","-37.4","","72","","","","22","","19","","19.3","","103.47","","","","-48","","Ice Crystals"
"-115.14","67.82","KUGLUKTUK A","2300903","2021-02-01 06:00","2021","02","01","06:00","-33.4","","-36.8","","73","","","","22","","21","","19.3","","103.48","","","","-48","","Ice Crystals"
"-115.14","67.82","KUGLUKTUK A","2300903","2021-02-01 07:00","2021","02","01","07:00","-34.3","","-37.8","","72","","","","23","","23","","19.3","","103.47","","","","-49","","Ice Crystals"
"-115.14","67.82","KUGLUKTUK A","2300903","2021-02-01 08:00","2021","02","01","08:00","-34.9","","-38.4","","71","","","","22","","20","","19.3","","103.50","","","","-49","","Ice Crystals"
"-115.14","67.82","KUGLUKTUK A","2300903","2021-02-01 09:00","2021","02","01","09:00","-34.6","","-38.1","","72","","","","23","","23","","19.3","","103.50","","","","-50","","Ice Crystals,Blowing Snow"
"-115.14","67.82","KUGLUKTUK A","2300903","2021-02-01 10:00","2021","02","01","10:00","-34.1","","-37.5","","72","","","","22","","22","","16.1","","103.48","","","","-49","","Ice Crystals"
"-115.14","67.82","KUGLUKTUK A","2300903","2021-02-01 11:00","2021","02","01","11:00","-32.4","","-35.7","","73","","","","23","","19","","16.1","","103.52","","","","-46","","Ice Crystals"
"-115.14","67.82","KUGLUKTUK A","2300903","2021-02-01 12:00","2021","02","01","12:00","-32.0","","-35.4","","73","","","","22","","21","","16.1","","103.51","","","","-46","","Ice Crystals"
"-115.14","67.82","KUGLUKTUK A","2300903","2021-02-01 13:00","2021","02","01","13:00","-30.9","","-34.2","","74","","","","22","","16","","19.3","","103.52","","","","-43","","Ice Crystals"
"-115.14","67.82","KUGLUKTUK A","2300903","2021-02-01 14:00","2021","02","01","14:00","-29.9","","-33.1","","74","","","","23","","18","","16.1","","103.50","","","","-42","","Ice Crystals"
"-115.14","67.82","KUGLUKTUK A","2300903","2021-02-01 15:00","2021","02","01","15:00","-28.9","","-32.0","","75","","","","26","","18","","16.1","","103.51","","","","-41","","Ice Crystals"
"-115.14","67.82","KUGLUKTUK A","2300903","2021-02-01 16:00","2021","02","01","16:00","-29.2","","-32.4","","75","","","","27","","17","","16.1","","103.51","","","","-41","","Ice Crystals"
"-115.14","67.82","KUGLUKTUK A","2300903","2021-02-01 17:00","2021","02","01","17:00","-29.4","","-32.6","","75","","","","25","","19","","12.9","","103.49","","","","-42","","Snow"
"-115.14","67.82","KUGLUKTUK A","2300903","2021-02-01 18:00","2021","02","01","18:00","-29.3","","-32.4","","75","","","","24","","17","","12.9","","103.45","","","","-41","","Snow"
"-115.14","67.82","KUGLUKTUK A","2300903","2021-02-01 19:00","2021","02","01","19:00","-29.4","","-32.6","","75","","","","23","","17","","12.9","","103.44","","","","-41","","Snow"
"-115.14","67.82","KUGLUKTUK A","2300903","2021-02-01 20:00","2021","02","01","20:00","-29.9","","-33.1","","74","","","","24","","23","","12.9","","103.37","","","","-44","","Snow"
"-115.14","67.82","KUGLUKTUK A","2300903","2021-02-01 21:00","2021","02","01","21:00","-30.4","","-33.6","","74","","","","25","","25","","12.9","","103.33","","","","-45","","Snow"
"-115.14","67.82","KUGLUKTUK A","2300903","2021-02-01 22:00","2021","02","01","22:00","-30.0","","-33.2","","74","","","","25","","24","","12.9","","103.33","","","","-44","","Snow"
"-115.14","67.82","KUGLUKTUK A","2300903","2021-02-01 23:00","2021","02","01","23:00","-30.6","","-33.9","","74","","","","24","","23","","16.1","","103.32","","","","-45","","Snow"
"-115.14","67.82","KUGLUKTUK A","2300903","2021-02-02 00:00","2021","02","02","00:00","-30.6","","-33.8","","74","","","","24","","23","","16.1","","103.29","","","","-45","","Snow"
"-115.14","67.82","KUGLUKTUK A","2300903","2021-02-02 01:00","2021","02","02","01:00","-31.4","","-34.8","","73","","","","23","","20","","16.1","","103.30","","","","-45","","Snow"
"-115.14","67.82","KUGLUKTUK A","2300903","2021-02-02 02:00","2021","02","02","02:00","-29.4","","-32.6","","75","","","","25","","21","","12.9","","103.31","","","","-43","","Snow"
"-115.14","67.82","KUGLUKTUK A","2300903","2021-02-02 03:00","2021","02","02","03:00","-29.1","","-32.3","","75","","","","24","","15","","12.9","","103.30","","","","-40","","Snow"
"-115.14","67.82","KUGLUKTUK A","2300903","2021-02-02 04:00","2021","02","02","04:00","-29.4","","-32.6","","75","","","","23","","20","","16.1","","103.27","","","","-42","","Snow"
"-115.14","67.82","KUGLUKTUK A","2300903","2021-02-02 05:00","2021","02","02","05:00","-28.7","","-31.8","","75","","","","23","","21","","12.9","","103.24","","","","-42","","Snow"
"-115.14","67.82","KUGLUKTUK A","2300903","2021-02-02 06:00","2021","02","02","06:00","-27.7","","-30.7","","76","","","","26","","25","","12.9","","103.22","","","","-42","","Snow"
"-115.14","67.82","KUGLUKTUK A","2300903","2021-02-02 07:00","2021","02","02","07:00","-27.7","","-30.7","","76","","","","26","","24","","12.9","","103.18","","","","-41","","Snow,Blowing Snow"
"-115.14","67.82","KUGLUKTUK A","2300903","2021-02-02 08:00","2021","02","02","08:00","-26.9","","-29.9","","76","","","","25","","20","","9.7","","103.17","","","","-39","","Snow,Blowing Snow"
"-115.14","67.82","KUGLUKTUK A","2300903","2021-02-02 09:00","2021","02","02","09:00","-26.5","","-29.5","","76","","","","26","","23","","8.1","","103.18","","","","-39","","Snow,Blowing Snow"
"-115.14","67.82","KUGLUKTUK A","2300903","2021-02-02 10:00","2021","02","02","10:00","-26.2","","-29.2","","77","","","","26","","21","","8.1","","103.20","","","","-39","","Snow,Blowing Snow"
"-115.14","67.82","KUGLUKTUK A","2300903","2021-02-02 11:00","2021","02","02","11:00","-26.2","","-29.2","","77","","","","28","","18","","9.7","","103.24","","","","-38","","Snow,Blowing Snow"
"-115.14","67.82","KUGLUKTUK A","2300903","2021-02-02 12:00","2021","02","02","12:00","-25.6","","-28.7","","76","","","","36","","21","","12.9","","103.26","","","","-38","","Snow,Blowing Snow"
"-115.14","67.82","KUGLUKTUK A","2300903","2021-02-02 13:00","2021","02","02","13:00","-26.1","","-29.3","","75","","","","32","","14","","8.1","","103.27","","","","-36","","Snow"
"-115.14","67.82","KUGLUKTUK A","2300903","2021-02-02 14:00","2021","02","02","14:00","-27.3","","-30.8","","73","","","","29","","13","","8.1","","103.30","","","","-37","","Snow"
"-115.14","67.82","KUGLUKTUK A","2300903","2021-02-02 15:00","2021","02","02","15:00","-27.5","","-31.0","","73","","","","33","","17","","8.1","","103.33","","","","-39","","Snow"
"-115.14","67.82","KUGLUKTUK A","2300903","2021-02-02 16:00","2021","02","02","16:00","-29.2","","-32.7","","73","","","","33","","13","","9.7","","103.32","","","","-40","","Snow"
"-115.14","67.82","KUGLUKTUK A","2300903","2021-02-02 17:00","2021","02","02","17:00","-30.9","","-34.2","","73","","","","25","","12","","12.9","","103.31","","","","-41","","Snow"
"-115.14","67.82","KUGLUKTUK A","2300903","2021-02-02 18:00","2021","02","02","18:00","-32.5","","-35.8","","73","","","","27","","15","","19.3","","103.29","","","","-44","","Ice Crystals"
"-115.14","67.82","KUGLUKTUK A","2300903","2021-02-02 19:00","2021","02","02","19:00","-32.9","","-36.4","","72","","","","26","","21","","24.1","","103.30","","","","-47","","Ice Crystals"
"-115.14","67.82","KUGLUKTUK A","2300903","2021-02-02 20:00","2021","02","02","20:00","-35.4","","-38.9","","71","","","","23","","20","","24.1","","103.28","","","","-50","","Ice Crystals"
"-115.14","67.82","KUGLUKTUK A","2300903","2021-02-02 21:00","2021","02","02","21:00","-35.1","","-38.6","","71","","","","23","","24","","24.1","","103.27","","","","-51","","Ice Crystals"
"-115.14","67.82","KUGLUKTUK A","2300903","2021-02-02 22:00","2021","02","02","22:00","-34.2","","-37.6","","72","","","","25","","28","","24.1","","103.23","","","","-51","","Ice Crystals"
"-115.14","67.82","KUGLUKTUK A","2300903","2021-02-02 23:00","2021","02","02","23:00","-35.5","","-39.0","","71","","","","25","","23","","24.1","","103.20","","","","-51","","Ice Crystals"
"-115.14","67.82","KUGLUKTUK A","2300903","2021-02-03 00:00","2021","02","03","00:00","-35.6","","-39.2","","71","","","","24","","24","","24.1","","103.18","","","","-51","","Ice Crystals"
"-115.14","67.82","KUGLUKTUK A","2300903","2021-02-03 01:00","2021","02","03","01:00","-36.2","","-39.8","","70","","","","24","","22","","24.1","","103.15","","","","-52","","Ice Crystals"
"-115.14","67.82","KUGLUKTUK A","2300903","2021-02-03 02:00","2021","02","03","02:00","-35.9","","-39.5","","71","","","","23","","24","","24.1","","103.12","","","","-52","","Ice Crystals"
"-115.14","67.82","KUGLUKTUK A","2300903","2021-02-03 03:00","2021","02","03","03:00","-37.0","","-40.7","","70","","","","22","","21","","24.1","","103.11","","","","-52","","Ice Crystals"
"-115.14","67.82","KUGLUKTUK A","2300903","2021-02-03 04:00","2021","02","03","04:00","-36.5","","-40.1","","70","","","","23","","25","","24.1","","103.06","","","","-53","","Ice Crystals"
"-115.14","67.82","KUGLUKTUK A","2300903","2021-02-03 05:00","2021","02","03","05:00","-36.5","","-40.0","","71","","","","23","","23","","24.1","","103.04","","","","-52","","Ice Crystals"
"-115.14","67.82","KUGLUKTUK A","2300903","2021-02-03 06:00","2021","02","03","06:00","-37.5","","-41.1","","70","","","","18","","5","","24.1","","103.01","","","","-44","","Ice Crystals"
"-115.14","67.82","KUGLUKTUK A","2300903","2021-02-03 07:00","2021","02","03","07:00","-37.3","","-40.8","","71","","","","23","","22","","24.1","","102.94","","","","-53","","Ice Crystals"
"-115.14","67.82","KUGLUKTUK A","2300903","2021-02-03 08:00","2021","02","03","08:00","-37.3","","-40.9","","70","","","","23","","23","","16.1","","102.90","","","","-53","","Ice Crystals"
"-115.14","67.82","KUGLUKTUK A","2300903","2021-02-03 09:00","2021","02","03","09:00","-36.4","","-39.9","","70","","","","24","","25","","12.9","","102.85","","","","-53","","Ice Crystals,Blowing Snow"
"-115.14","67.82","KUGLUKTUK A","2300903","2021-02-03 10:00","2021","02","03","10:00","-37.5","","-41.2","","70","","","","23","","28","","12.9","","102.81","","","","-55","","Ice Crystals,Blowing Snow"
"-115.14","67.82","KUGLUKTUK A","2300903","2021-02-03 11:00","2021","02","03","11:00","-37.2","","-40.9","","70","","","","23","","30","","12.9","","102.79","","","","-55","","Ice Crystals,Blowing Snow"
"-115.14","67.82","KUGLUKTUK A","2300903","2021-02-03 12:00","2021","02","03","12:00","-36.8","","-40.5","","70","","","","23","","25","","12.9","","102.74","","","","-53","","Ice Crystals,Blowing Snow"
"-115.14","67.82","KUGLUKTUK A","2300903","2021-02-03 13:00","2021","02","03","13:00","-35.8","","-39.5","","70","","","","23","","23","","12.9","","102.72","","","","-51","","Ice Crystals,Blowing Snow"
"-115.14","67.82","KUGLUKTUK A","2300903","2021-02-03 14:00","2021","02","03","14:00","-36.7","","-40.5","","69","","","","23","","22","","12.9","","102.68","","","","-52","","Ice Crystals,Blowing Snow"
"-115.14","67.82","KUGLUKTUK A","2300903","2021-02-03 15:00","2021","02","03","15:00","-36.2","","-40.0","","69","","","","24","","31","","12.9","","102.63","","","","-54","","Ice Crystals,Blowing Snow"
"-115.14","67.82","KUGLUKTUK A","2300903","2021-02-03 16:00","2021","02","03","16:00","-35.9","","-39.5","","70","","","","24","","27","","8.1","","102.61","","","","-53","","Ice Crystals,Blowing Snow"
"-115.14","67.82","KUGLUKTUK A","2300903","2021-02-03 17:00","2021","02","03","17:00","-35.6","","-39.3","","69","","","","23","","21","","2.4","","102.59","","","","-50","","Ice Crystals,Blowing Snow"
"-115.14","67.82","KUGLUKTUK A","2300903","2021-02-03 18:00","2021","02","03","18:00","-34.5","","-38.2","","70","","","","24","","23","","3.2","","102.55","","","","-50","","Ice Crystals,Blowing Snow"
"-115.14","67.82","KUGLUKTUK A","2300903","2021-02-03 19:00","2021","02","03","19:00","-34.7","","-38.4","","70","","","","23","","21","","3.2","","102.51","","","","-49","","Ice Crystals,Blowing Snow"
"-115.14","67.82","KUGLUKTUK A","2300903","2021-02-03 20:00","2021","02","03","20:00","-33.5","","-37.2","","71","","","","24","","25","","3.2","","102.49","","","","-49","","Ice Crystals,Blowing Snow"
"-115.14","67.82","KUGLUKTUK A","2300903","2021-02-03 21:00","2021","02","03","21:00","-33.7","","-37.3","","71","","","","24","","26","","3.2","","102.49","","","","-49","","Ice Crystals,Blowing Snow"
"-115.14","67.82","KUGLUKTUK A","2300903","2021-02-03 22:00","2021","02","03","22:00","-32.5","","-36.1","","71","","","","25","","19","","3.2","","102.48","","","","-46","","Ice Crystals,Blowing Snow"
"-115.14","67.82","KUGLUKTUK A","2300903","2021-02-03 23:00","2021","02","03","23:00","-33.8","","-37.4","","70","","","","24","","24","","6.4","","102.45","","","","-49","","Ice Crystals,Blowing Snow"
"-115.14","67.82","KUGLUKTUK A","2300903","2021-02-04 00:00","2021","02","04","00:00","-34.6","","-38.4","","70","","","","23","","27","","9.7","","102.43","","","","-51","","Ice Crystals,Blowing Snow"
"-115.14","67.82","KUGLUKTUK A","2300903","2021-02-04 01:00","2021","02","04","01:00","-35.1","","-38.8","","69","","","","25","","25","","9.7","","102.43","","","","-51","","Ice Crystals,Blowing Snow"
"-115.14","67.82","KUGLUKTUK A","2300903","2021-02-04 02:00","2021","02","04","02:00","-33.6","","-37.4","","70","","","","26","","32","","9.7","","102.41","","","","-51","","Ice Crystals,Blowing Snow"
"-115.14","67.82","KUGLUKTUK A","2300903","2021-02-04 03:00","2021","02","04","03:00","-34.4","","-38.1","","69","","","","26","","27","","9.7","","102.41","","","","-51","","Ice Crystals,Blowing Snow"
"-115.14","67.82","KUGLUKTUK A","2300903","2021-02-04 04:00","2021","02","04","04:00","-34.6","","-38.4","","69","","","","27","","29","","16.1","","102.38","","","","-51","","Ice Crystals,Blowing Snow"
"-115.14","67.82","KUGLUKTUK A","2300903","2021-02-04 05:00","2021","02","04","05:00","-35.0","","-38.9","","69","","","","26","","30","","12.9","","102.37","","","","-52","","Ice Crystals,Blowing Snow"
"-115.14","67.82","KUGLUKTUK A","2300903","2021-02-04 06:00","2021","02","04","06:00","-35.6","","-39.4","","69","","","","25","","21","","12.9","","102.40","","","","-50","","Ice Crystals,Blowing Snow"
"-115.14","67.82","KUGLUKTUK A","2300903","2021-02-04 07:00","2021","02","04","07:00","-35.2","","-38.9","","69","","","","26","","25","","12.9","","102.41","","","","-51","","Ice Crystals,Blowing Snow"
"-115.14","67.82","KUGLUKTUK A","2300903","2021-02-04 08:00","2021","02","04","08:00","-35.7","","-39.5","","69","","","","26","","26","","12.9","","102.42","","","","-52","","Ice Crystals,Blowing Snow"
"-115.14","67.82","KUGLUKTUK A","2300903","2021-02-04 09:00","2021","02","04","09:00","-35.4","","-39.3","","69","","","","26","","25","","4.8","","102.44","","","","-51","","Ice Crystals,Blowing Snow"
"-115.14","67.82","KUGLUKTUK A","2300903","2021-02-04 10:00","2021","02","04","10:00","-35.5","","-39.3","","69","","","","26","","24","","2.4","","102.45","","","","-51","","Ice Crystals,Blowing Snow"
"-115.14","67.82","KUGLUKTUK A","2300903","2021-02-04 11:00","2021","02","04","11:00","-35.5","","-39.3","","69","","","","25","","25","","1.6","","102.47","","","","-52","","Ice Crystals,Blowing Snow"
"-115.14","67.82","KUGLUKTUK A","2300903","2021-02-04 12:00","2021","02","04","12:00","-35.0","","-38.8","","69","","","","26","","26","","1.6","","102.49","","","","-51","","Ice Crystals,Blowing Snow"
"-115.14","67.82","KUGLUKTUK A","2300903","2021-02-04 13:00","2021","02","04","13:00","-35.0","","-38.8","","69","","","","26","","22","","1.6","","102.52","","","","-50","","Ice Crystals,Blowing Snow"
"-115.14","67.82","KUGLUKTUK A","2300903","2021-02-04 14:00","2021","02","04","14:00","-34.6","","-38.4","","69","","","","26","","20","","1.2","","102.55","","","","-49","","Ice Crystals,Fog,Blowing Snow"
"-115.14","67.82","KUGLUKTUK A","2300903","2021-02-04 15:00","2021","02","04","15:00","-34.9","","-38.8","","69","","","","26","","21","","1.6","","102.58","","","","-50","","Ice Crystals,Fog,Blowing Snow"
"-115.14","67.82","KUGLUKTUK A","2300903","2021-02-04 16:00","2021","02","04","16:00","-34.9","","-38.7","","69","","","","26","","24","","1.6","","102.61","","","","-50","","Ice Crystals,Fog,Blowing Snow"
"-115.14","67.82","KUGLUKTUK A","2300903","2021-02-04 17:00","2021","02","04","17:00","-35.4","","-39.1","","69","","","","27","","27","","1.6","","102.62","","","","-52","","Ice Crystals,Fog,Blowing Snow"
"-115.14","67.82","KUGLUKTUK A","2300903","2021-02-04 18:00","2021","02","04","18:00","-35.8","","-39.6","","69","","","","26","","23","","1.6","","102.66","","","","-51","","Ice Crystals,Fog,Blowing Snow"
"-115.14","67.82","KUGLUKTUK A","2300903","2021-02-04 19:00","2021","02","04","19:00","-36.3","","-40.1","","69","","","","27","","27","","2.4","","102.65","","","","-53","","Ice Crystals,Blowing Snow"
"-115.14","67.82","KUGLUKTUK A","2300903","2021-02-04 20:00","2021","02","04","20:00","-36.9","","-40.8","","68","","","","26","","24","","12.9","","102.68","","","","-53","","Ice Crystals,Blowing Snow"
"-115.14","67.82","KUGLUKTUK A","2300903","2021-02-04 21:00","2021","02","04","21:00","-37.0","","-40.9","","68","","","","28","","17","","24.1","","102.74","","","","-51","","Ice Crystals"
"-115.14","67.82","KUGLUKTUK A","2300903","2021-02-04 22:00","2021","02","04","22:00","-37.4","","-41.4","","67","","","","28","","18","","24.1","","102.78","","","","-52","","Ice Crystals"
"-115.14","67.82","KUGLUKTUK A","2300903","2021-02-04 23:00","2021","02","04","23:00","-37.8","","-42.0","","66","","","","26","","21","","24.1","","102.80","","","","-53","","Ice Crystals"
"-115.14","67.82","KUGLUKTUK A","2300903","2021-02-05 00:00","2021","02","05","00:00","-37.9","","-42.0","","67","","","","26","","25","","24.1","","102.84","","","","-55","","NA"
"-115.14","67.82","KUGLUKTUK A","2300903","2021-02-05 01:00","2021","02","05","01:00","-37.8","","-41.8","","67","","","","26","","27","","16.1","","102.87","","","","-55","","Ice Crystals"
"-115.14","67.82","KUGLUKTUK A","2300903","2021-02-05 02:00","2021","02","05","02:00","-37.5","","-41.6","","67","","","","26","","28","","16.1","","102.89","","","","-55","","Ice Crystals,Blowing Snow"
"-115.14","67.82","KUGLUKTUK A","2300903","2021-02-05 03:00","2021","02","05","03:00","-37.5","","-41.5","","67","","","","26","","26","","16.1","","102.94","","","","-54","","Ice Crystals,Blowing Snow"
"-115.14","67.82","KUGLUKTUK A","2300903","2021-02-05 04:00","2021","02","05","04:00","-36.9","","-41.0","","67","","","","26","","25","","16.1","","102.94","","","","-53","","Ice Crystals,Blowing Snow"
"-115.14","67.82","KUGLUKTUK A","2300903","2021-02-05 05:00","2021","02","05","05:00","-36.4","","-40.5","","67","","","","27","","23","","16.1","","102.98","","","","-52","","Ice Crystals"
"-115.14","67.82","KUGLUKTUK A","2300903","2021-02-05 06:00","2021","02","05","06:00","-35.8","","-39.8","","67","","","","28","","26","","16.1","","103.00","","","","-52","","Ice Crystals"
"-115.14","67.82","KUGLUKTUK A","2300903","2021-02-05 07:00","2021","02","05","07:00","-36.3","","-40.4","","67","","","","29","","17","","16.1","","103.06","","","","-50","","Ice Crystals"
"-115.14","67.82","KUGLUKTUK A","2300903","2021-02-05 08:00","2021","02","05","08:00","-37.0","","-41.2","","66","","","","29","","21","","19.3","","103.06","","","","-52","","Ice Crystals"
"-115.14","67.82","KUGLUKTUK A","2300903","2021-02-05 09:00","2021","02","05","09:00","-36.2","","-40.4","","67","","","","31","","22","","12.9","","103.09","","","","-52","","Ice Crystals"
"-115.14","67.82","KUGLUKTUK A","2300903","2021-02-05 10:00","2021","02","05","10:00","-36.0","","-40.2","","66","","","","28","","20","","12.9","","103.12","","","","-51","","Ice Crystals"
"-115.14","67.82","KUGLUKTUK A","2300903","2021-02-05 11:00","2021","02","05","11:00","-35.9","","-40.5","","64","","","","28","","18","","12.9","","103.13","","","","-50","","Ice Crystals"
"-115.14","67.82","KUGLUKTUK A","2300903","2021-02-05 12:00","2021","02","05","12:00","-35.3","","-39.6","","65","","","","28","","23","","12.9","","103.13","","","","-51","","Ice Crystals"
"-115.14","67.82","KUGLUKTUK A","2300903","2021-02-05 13:00","2021","02","05","13:00","-35.3","","-39.6","","65","","","","28","","21","","12.9","","103.16","","","","-50","","Ice Crystals"
"-115.14","67.82","KUGLUKTUK A","2300903","2021-02-05 14:00","2021","02","05","14:00","-35.5","","-40.1","","64","","","","27","","23","","16.1","","103.16","","","","-51","","Ice Crystals"
"-115.14","67.82","KUGLUKTUK A","2300903","2021-02-05 15:00","2021","02","05","15:00","-36.1","","-40.4","","65","","","","26","","24","","19.3","","103.18","","","","-52","","Ice Crystals"
"-115.14","67.82","KUGLUKTUK A","2300903","2021-02-05 16:00","2021","02","05","16:00","-36.2","","-40.2","","67","","","","26","","27","","12.9","","103.18","","","","-53","","Ice Crystals,Blowing Snow"
"-115.14","67.82","KUGLUKTUK A","2300903","2021-02-05 17:00","2021","02","05","17:00","-36.1","","-40.1","","67","","","","26","","25","","2.4","","103.21","","","","-52","","Ice Crystals,Blowing Snow"
"-115.14","67.82","KUGLUKTUK A","2300903","2021-02-05 18:00","2021","02","05","18:00","-36.6","","-40.4","","69","","","","27","","26","","6.4","","103.19","","","","-53","","Ice Crystals,Blowing Snow"
"-115.14","67.82","KUGLUKTUK A","2300903","2021-02-05 19:00","2021","02","05","19:00","-36.6","","-40.5","","69","","","","27","","21","","12.9","","103.17","","","","-52","","Ice Crystals"
"-115.14","67.82","KUGLUKTUK A","2300903","2021-02-05 20:00","2021","02","05","20:00","-37.2","","-41.1","","68","","","","26","","26","","16.1","","103.17","","","","-54","","Ice Crystals,Blowing Snow"
"-115.14","67.82","KUGLUKTUK A","2300903","2021-02-05 21:00","2021","02","05","21:00","-36.9","","-40.7","","69","","","","24","","22","","2.8","","103.17","","","","-52","","Fog,Blowing Snow"
"-115.14","67.82","KUGLUKTUK A","2300903","2021-02-05 22:00","2021","02","05","22:00","-36.1","","-40.0","","68","","","","26","","22","","3.6","","103.16","","","","-51","","Fog,Blowing Snow"
"-115.14","67.82","KUGLUKTUK A","2300903","2021-02-05 23:00","2021","02","05","23:00","-36.6","","-40.6","","68","","","","26","","20","","3.2","","103.15","","","","-51","","Ice Crystals"
"-115.14","67.82","KUGLUKTUK A","2300903","2021-02-06 00:00","2021","02","06","00:00","-36.2","","-40.0","","69","","","","25","","19","","3.2","","103.16","","","","-51","","Ice Crystals,Blowing Snow"
"-115.14","67.82","KUGLUKTUK A","2300903","2021-02-06 01:00","2021","02","06","01:00","-36.3","","-40.1","","68","","","","26","","22","","3.2","","103.17","","","","-52","","Ice Crystals,Blowing Snow"
"-115.14","67.82","KUGLUKTUK A","2300903","2021-02-06 02:00","2021","02","06","02:00","-36.9","","-40.7","","69","","","","26","","23","","2.8","","103.18","","","","-53","","Ice Crystals,Blowing Snow"
"-115.14","67.82","KUGLUKTUK A","2300903","2021-02-06 03:00","2021","02","06","03:00","-37.6","","-41.5","","68","","","","27","","25","","3.2","","103.17","","","","-54","","Ice Crystals,Blowing Snow"
"-115.14","67.82","KUGLUKTUK A","2300903","2021-02-06 04:00","2021","02","06","04:00","-38.3","","-42.2","","67","","","","25","","23","","6.4","","103.15","","","","-55","","Ice Crystals"
"-115.14","67.82","KUGLUKTUK A","2300903","2021-02-06 05:00","2021","02","06","05:00","-38.6","","-42.7","","66","","","","25","","25","","4.8","","103.13","","","","-56","","Ice Crystals"
"-115.14","67.82","KUGLUKTUK A","2300903","2021-02-06 06:00","2021","02","06","06:00","-39.4","","-43.7","","65","","","","24","","25","","12.9","","103.10","","","","-57","","Ice Crystals"
"-115.14","67.82","KUGLUKTUK A","2300903","2021-02-06 07:00","2021","02","06","07:00","-40.6","","-44.9","","64","","","","23","","21","","16.1","","103.08","","","","-57","","Ice Crystals"
"-115.14","67.82","KUGLUKTUK A","2300903","2021-02-06 08:00","2021","02","06","08:00","-40.6","","-44.7","","66","","","","22","","22","","16.1","","103.01","","","","-57","","Ice Crystals"
"-115.14","67.82","KUGLUKTUK A","2300903","2021-02-06 09:00","2021","02","06","09:00","-40.3","","-44.8","","64","","","","23","","23","","24.1","","102.98","","","","-57","","Ice Crystals"
"-115.14","67.82","KUGLUKTUK A","2300903","2021-02-06 10:00","2021","02","06","10:00","-39.4","","-43.8","","64","","","","23","","24","","19.3","","102.97","","","","-56","","Ice Crystals"
"-115.14","67.82","KUGLUKTUK A","2300903","2021-02-06 11:00","2021","02","06","11:00","-39.4","","-44.2","","62","","","","22","","22","","19.3","","102.96","","","","-56","","Ice Crystals"
"-115.14","67.82","KUGLUKTUK A","2300903","2021-02-06 12:00","2021","02","06","12:00","-39.0","","-43.8","","62","","","","22","","22","","19.3","","102.93","","","","-55","","Ice Crystals"
"-115.14","67.82","KUGLUKTUK A","2300903","2021-02-06 13:00","2021","02","06","13:00","-38.8","","-43.4","","63","","","","23","","18","","19.3","","102.90","","","","-53","","Ice Crystals"
"-115.14","67.82","KUGLUKTUK A","2300903","2021-02-06 14:00","2021","02","06","14:00","-38.2","","-42.7","","64","","","","22","","8","","24.1","","102.92","","","","-48","","Ice Crystals"
"-115.14","67.82","KUGLUKTUK A","2300903","2021-02-06 15:00","2021","02","06","15:00","-37.8","","-42.2","","64","","","","23","","20","","24.1","","102.91","","","","-53","","NA"
"-115.14","67.82","KUGLUKTUK A","2300903","2021-02-06 16:00","2021","02","06","16:00","-38.5","","-42.8","","65","","","","23","","7","","24.1","","102.93","","","","-47","","NA"
"-115.14","67.82","KUGLUKTUK A","2300903","2021-02-06 17:00","2021","02","06","17:00","-39.4","","-43.6","","66","","","","23","","19","","24.1","","102.91","","","","-55","","Mainly Clear"
"-115.14","67.82","KUGLUKTUK A","2300903","2021-02-06 18:00","2021","02","06","18:00","-39.1","","-43.6","","64","","","","22","","22","","24.1","","102.90","","","","-55","","NA"
"-115.14","67.82","KUGLUKTUK A","2300903","2021-02-06 19:00","2021","02","06","19:00","-38.6","","-43.1","","64","","","","21","","27","","24.1","","102.90","","","","-56","","Blowing Snow"
"-115.14","67.82","KUGLUKTUK A","2300903","2021-02-06 20:00","2021","02","06","20:00","-39.7","","-44.0","","65","","","","22","","20","","24.1","","102.90","","","","-55","","Blowing Snow"
"-115.14","67.82","KUGLUKTUK A","2300903","2021-02-06 21:00","2021","02","06","21:00","-38.9","","-43.3","","64","","","","20","","17","","24.1","","102.89","","","","-53","","NA"
"-115.14","67.82","KUGLUKTUK A","2300903","2021-02-06 22:00","2021","02","06","22:00","-38.7","","-43.1","","64","","","","22","","22","","24.1","","102.94","","","","-55","","NA"
"-115.14","67.82","KUGLUKTUK A","2300903","2021-02-06 23:00","2021","02","06","23:00","-39.5","","-43.9","","64","","","","20","","12","","24.1","","102.98","","","","-52","","Clear"
"-115.14","67.82","KUGLUKTUK A","2300903","2021-02-07 00:00","2021","02","07","00:00","-38.9","","-43.5","","63","","","","19","","16","","24.1","","103.00","","","","-53","","NA"
"-115.14","67.82","KUGLUKTUK A","2300903","2021-02-07 01:00","2021","02","07","01:00","-38.4","","-42.9","","63","","","","22","","17","","24.1","","103.03","","","","-53","","NA"
"-115.14","67.82","KUGLUKTUK A","2300903","2021-02-07 02:00","2021","02","07","02:00","-38.0","","-42.6","","63","","","","21","","14","","24.1","","103.08","","","","-51","","Clear"
"-115.14","67.82","KUGLUKTUK A","2300903","2021-02-07 03:00","2021","02","07","03:00","-38.5","","-43.1","","63","","","","21","","14","","24.1","","103.12","","","","-51","","NA"
"-115.14","67.82","KUGLUKTUK A","2300903","2021-02-07 04:00","2021","02","07","04:00","-38.0","","-42.6","","63","","","","21","","14","","24.1","","103.16","","","","-51","","NA"
"-115.14","67.82","KUGLUKTUK A","2300903","2021-02-07 05:00","2021","02","07","05:00","-37.5","","-42.1","","63","","","","36","","1","","24.1","","103.19","","","","-39","","Clear"
"-115.14","67.82","KUGLUKTUK A","2300903","2021-02-07 06:00","2021","02","07","06:00","-38.1","","-42.5","","64","","","","19","","5","","24.1","","103.28","","","","-45","","NA"
"-115.14","67.82","KUGLUKTUK A","2300903","2021-02-07 07:00","2021","02","07","07:00","-38.4","","-42.5","","67","","","","20","","9","","24.1","","103.31","","","","-49","","NA"
"-115.14","67.82","KUGLUKTUK A","2300903","2021-02-07 08:00","2021","02","07","08:00","-40.0","","-44.1","","66","","","","29","","4","","24.1","","103.38","","","","-46","","Clear"
"-115.14","67.82","KUGLUKTUK A","2300903","2021-02-07 09:00","2021","02","07","09:00","-39.8","","-43.8","","67","","","","31","","4","","24.1","","103.42","","","","-45","","NA"
"-115.14","67.82","KUGLUKTUK A","2300903","2021-02-07 10:00","2021","02","07","10:00","-40.3","","-44.1","","68","","","","35","","4","","19.3","","103.50","","","","-46","","NA"
"-115.14","67.82","KUGLUKTUK A","2300903","2021-02-07 11:00","2021","02","07","11:00","-40.0","","-43.9","","68","","","","36","","1","","19.3","","103.56","","","","-41","","Clear"
"-115.14","67.82","KUGLUKTUK A","2300903","2021-02-07 12:00","2021","02","07","12:00","-41.2","","-45.0","","68","","","","36","","4","","9.7","","103.92","","","","-47","","Fog"
"-115.14","67.82","KUGLUKTUK A","2300903","2021-02-07 13:00","2021","02","07","13:00","-40.6","","-44.7","","66","","","","29","","9","","24.1","","103.70","","","","-51","","NA"
"-115.14","67.82","KUGLUKTUK A","2300903","2021-02-07 14:00","2021","02","07","14:00","-40.3","","-44.2","","67","","","","26","","15","","24.1","","103.78","","","","-54","","Clear"
"-115.14","67.82","KUGLUKTUK A","2300903","2021-02-07 15:00","2021","02","07","15:00","-40.0","","-44.2","","65","","","","26","","8","","24.1","","103.85","","","","-50","","NA"
"-115.14","67.82","KUGLUKTUK A","2300903","2021-02-07 16:00","2021","02","07","16:00","-39.7","","-43.8","","66","","","","23","","17","","24.1","","103.92","","","","-54","","NA"
"-115.14","67.82","KUGLUKTUK A","2300903","2021-02-07 17:00","2021","02","07","17:00","-40.0","","-44.0","","67","","","","23","","19","","24.1","","103.97","","","","-55","","Mainly Clear"
"-115.14","67.82","KUGLUKTUK A","2300903","2021-02-07 18:00","2021","02","07","18:00","-39.4","","-43.4","","67","","","","23","","25","","24.1","","103.98","","","","-57","","NA"
"-115.14","67.82","KUGLUKTUK A","2300903","2021-02-07 19:00","2021","02","07","19:00","-40.6","","-44.7","","66","","","","22","","21","","24.1","","104.03","","","","-57","","NA"
"-115.14","67.82","KUGLUKTUK A","2300903","2021-02-07 20:00","2021","02","07","20:00","-40.0","","-44.0","","66","","","","22","","21","","24.1","","104.10","","","","-56","","Clear"
"-115.14","67.82","KUGLUKTUK A","2300903","2021-02-07 21:00","2021","02","07","21:00","-39.2","","-43.5","","64","","","","24","","29","","24.1","","104.07","","","","-57","","NA"
"-115.14","67.82","KUGLUKTUK A","2300903","2021-02-07 22:00","2021","02","07","22:00","-40.2","","-44.5","","65","","","","23","","31","","24.1","","104.13","","","","-59","","NA"
"-115.14","67.82","KUGLUKTUK A","2300903","2021-02-07 23:00","2021","02","07","23:00","-39.8","","-44.3","","64","","","","23","","29","","24.1","","104.15","","","","-58","","Clear"
"-115.14","67.82","KUGLUKTUK A","2300903","2021-02-08 00:00","2021","02","08","00:00","-39.4","","-43.8","","64","","","","24","","27","","24.1","","104.19","","","","-57","","NA"
"-115.14","67.82","KUGLUKTUK A","2300903","2021-02-08 01:00","2021","02","08","01:00","-39.9","","-44.3","","64","","","","24","","28","","24.1","","104.24","","","","-58","","NA"
"-115.14","67.82","KUGLUKTUK A","2300903","2021-02-08 02:00","2021","02","08","02:00","-39.6","","-43.8","","66","","","","24","","28","","24.1","","104.23","","","","-58","","Clear"
"-115.14","67.82","KUGLUKTUK A","2300903","2021-02-08 03:00","2021","02","08","03:00","-40.1","","-44.3","","66","","","","23","","25","","24.1","","104.29","","","","-57","","Ice Crystals"
"-115.14","67.82","KUGLUKTUK A","2300903","2021-02-08 04:00","2021","02","08","04:00","-40.4","","-44.5","","66","","","","23","","26","","24.1","","104.28","","","","-58","","Ice Crystals"
"-115.14","67.82","KUGLUKTUK A","2300903","2021-02-08 05:00","2021","02","08","05:00","-39.4","","-43.4","","67","","","","23","","29","","24.1","","104.27","","","","-58","","Mainly Clear"
"-115.14","67.82","KUGLUKTUK A","2300903","2021-02-08 06:00","2021","02","08","06:00","-37.8","","-41.8","","68","","","","24","","32","","24.1","","104.27","","","","-56","","Ice Crystals,Blowing Snow"
"-115.14","67.82","KUGLUKTUK A","2300903","2021-02-08 07:00","2021","02","08","07:00","-35.8","","-39.9","","67","","","","25","","35","","16.1","","104.26","","","","-54","","Ice Crystals,Blowing Snow"
"-115.14","67.82","KUGLUKTUK A","2300903","2021-02-08 08:00","2021","02","08","08:00","-35.4","","-39.7","","65","","","","25","","35","","9.7","","104.22","","","","-54","","Ice Crystals,Blowing Snow"
"-115.14","67.82","KUGLUKTUK A","2300903","2021-02-08 09:00","2021","02","08","09:00","-34.7","","-38.7","","68","","","","25","","30","","8.1","","104.18","","","","-52","","Ice Crystals,Blowing Snow"
"-115.14","67.82","KUGLUKTUK A","2300903","2021-02-08 10:00","2021","02","08","10:00","-33.2","","-37.0","","70","","","","25","","27","","4.8","","104.20","","","","-49","","Snow,Fog,Blowing Snow"
"-115.14","67.82","KUGLUKTUK A","2300903","2021-02-08 11:00","2021","02","08","11:00","-32.5","","-36.2","","70","","","","25","","23","","2.4","","104.20","","","","-47","","Snow,Fog,Blowing Snow"
"-115.14","67.82","KUGLUKTUK A","2300903","2021-02-08 12:00","2021","02","08","12:00","-31.3","","-34.9","","71","","","","25","","23","","2.4","","104.20","","","","-46","","Snow,Fog,Blowing Snow"
"-115.14","67.82","KUGLUKTUK A","2300903","2021-02-08 13:00","2021","02","08","13:00","-30.0","","-33.4","","73","","","","27","","16","","1.6","","104.22","","","","-42","","Snow,Fog"
"-115.14","67.82","KUGLUKTUK A","2300903","2021-02-08 14:00","2021","02","08","14:00","-29.2","","-32.5","","74","","","","27","","12","","1.6","","104.20","","","","-39","","Snow,Fog"
"-115.14","67.82","KUGLUKTUK A","2300903","2021-02-08 15:00","2021","02","08","15:00","-28.9","","-32.1","","74","","","","27","","16","","1.6","","104.21","","","","-40","","Snow,Fog"
"-115.14","67.82","KUGLUKTUK A","2300903","2021-02-08 16:00","2021","02","08","16:00","-29.3","","-32.5","","74","","","","27","","10","","1.6","","104.25","","","","-38","","Snow,Fog"
"-115.14","67.82","KUGLUKTUK A","2300903","2021-02-08 17:00","2021","02","08","17:00","-28.8","","-32.0","","74","","","","28","","11","","3.2","","104.26","","","","-38","","Snow,Fog"
"-115.14","67.82","KUGLUKTUK A","2300903","2021-02-08 18:00","2021","02","08","18:00","-28.7","","-31.9","","75","","","","31","","14","","3.2","","104.24","","","","-39","","Snow,Fog"
"-115.14","67.82","KUGLUKTUK A","2300903","2021-02-08 19:00","2021","02","08","19:00","-28.9","","-32.3","","74","","","","31","","18","","3.2","","104.22","","","","-41","","Snow,Fog"
"-115.14","67.82","KUGLUKTUK A","2300903","2021-02-08 20:00","2021","02","08","20:00","-28.5","","-31.7","","75","","","","32","","24","","2.8","","104.23","","","","-42","","Snow"
"-115.14","67.82","KUGLUKTUK A","2300903","2021-02-08 21:00","2021","02","08","21:00","-28.7","","-31.9","","75","","","","30","","17","","3.2","","104.29","","","","-41","","Snow,Fog"
"-115.14","67.82","KUGLUKTUK A","2300903","2021-02-08 22:00","2021","02","08","22:00","-28.7","","-31.8","","75","","","","31","","16","","3.2","","104.28","","","","-40","","Snow Grains"
"-115.14","67.82","KUGLUKTUK A","2300903","2021-02-08 23:00","2021","02","08","23:00","-28.5","","-31.9","","74","","","","29","","18","","4.0","","104.26","","","","-41","","Snow Grains"
"-115.14","67.82","KUGLUKTUK A","2300903","2021-02-09 00:00","2021","02","09","00:00","-28.3","","-31.6","","74","","","","29","","15","","3.2","","104.26","","","","-39","","Snow Grains"
"-115.14","67.82","KUGLUKTUK A","2300903","2021-02-09 01:00","2021","02","09","01:00","-28.3","","-31.5","","74","","","","28","","14","","1.2","","104.26","","","","-39","","Fog"
"-115.14","67.82","KUGLUKTUK A","2300903","2021-02-09 02:00","2021","02","09","02:00","-28.4","","-31.7","","74","","","","29","","12","","2.4","","104.27","","","","-38","","Snow Grains"
"-115.14","67.82","KUGLUKTUK A","2300903","2021-02-09 03:00","2021","02","09","03:00","-28.2","","-31.6","","74","","","","29","","17","","9.7","","104.28","","","","-40","","Ice Crystals"
"-115.14","67.82","KUGLUKTUK A","2300903","2021-02-09 04:00","2021","02","09","04:00","-28.1","","-31.5","","74","","","","29","","9","","12.9","","104.31","","","","-36","","Ice Crystals"
"-115.14","67.82","KUGLUKTUK A","2300903","2021-02-09 05:00","2021","02","09","05:00","-29.2","","-32.6","","73","","","","28","","13","","9.7","","104.31","","","","-40","","Ice Crystals"
"-115.14","67.82","KUGLUKTUK A","2300903","2021-02-09 06:00","2021","02","09","06:00","-30.3","","-33.6","","74","","","","29","","19","","12.9","","104.30","","","","-43","","Ice Crystals"
"-115.14","67.82","KUGLUKTUK A","2300903","2021-02-09 07:00","2021","02","09","07:00","-30.0","","-33.4","","73","","","","29","","20","","12.9","","104.34","","","","-43","","Ice Crystals"
"-115.14","67.82","KUGLUKTUK A","2300903","2021-02-09 08:00","2021","02","09","08:00","-30.4","","-33.7","","74","","","","27","","17","","12.9","","104.31","","","","-43","","Ice Crystals"
"-115.14","67.82","KUGLUKTUK A","2300903","2021-02-09 09:00","2021","02","09","09:00","-29.6","","-32.8","","74","","","","28","","21","","12.9","","104.29","","","","-43","","Ice Crystals"
"-115.14","67.82","KUGLUKTUK A","2300903","2021-02-09 10:00","2021","02","09","10:00","-29.2","","-32.6","","74","","","","26","","19","","6.4","","104.31","","","","-42","","Ice Crystals"
"-115.14","67.82","KUGLUKTUK A","2300903","2021-02-09 11:00","2021","02","09","11:00","-28.6","","-31.8","","74","","","","27","","19","","4.8","","104.35","","","","-41","","Ice Crystals"
"-115.14","67.82","KUGLUKTUK A","2300903","2021-02-09 12:00","2021","02","09","12:00","-27.8","","-31.0","","74","","","","25","","17","","4.8","","104.36","","","","-39","","Ice Crystals"
"-115.14","67.82","KUGLUKTUK A","2300903","2021-02-09 13:00","2021","02","09","13:00","-27.1","","-30.3","","75","","","","25","","17","","4.8","","104.39","","","","-39","","Ice Crystals"
"-115.14","67.82","KUGLUKTUK A","2300903","2021-02-09 14:00","2021","02","09","14:00","-25.9","","-28.9","","76","","","","30","","14","","4.8","","104.37","","","","-36","","Ice Crystals"
"-115.14","67.82","KUGLUKTUK A","2300903","2021-02-09 15:00","2021","02","09","15:00","-25.2","","-28.6","","74","","","","30","","20","","9.7","","104.40","","","","-37","","Snow"
"-115.14","67.82","KUGLUKTUK A","2300903","2021-02-09 16:00","2021","02","09","16:00","-25.1","","-28.1","","76","","","","28","","15","","6.4","","104.40","","","","-35","","Snow"
"-115.14","67.82","KUGLUKTUK A","2300903","2021-02-09 17:00","2021","02","09","17:00","-24.6","","-27.7","","76","","","","32","","18","","6.4","","104.44","","","","-36","","Snow"
"-115.14","67.82","KUGLUKTUK A","2300903","2021-02-09 18:00","2021","02","09","18:00","-24.5","","-27.4","","77","","","","28","","13","","6.4","","104.43","","","","-34","","Snow"
"-115.14","67.82","KUGLUKTUK A","2300903","2021-02-09 19:00","2021","02","09","19:00","-24.0","","-26.8","","78","","","","32","","14","","6.4","","104.43","","","","-34","","Snow"
"-115.14","67.82","KUGLUKTUK A","2300903","2021-02-09 20:00","2021","02","09","20:00","-24.4","","-27.4","","76","","","","32","","14","","6.4","","104.42","","","","-34","","Snow Grains"
"-115.14","67.82","KUGLUKTUK A","2300903","2021-02-09 21:00","2021","02","09","21:00","-24.7","","-27.7","","77","","","","34","","22","","2.4","","104.41","","","","-37","","Ice Crystals"
"-115.14","67.82","KUGLUKTUK A","2300903","2021-02-09 22:00","2021","02","09","22:00","-25.0","","-27.9","","77","","","","33","","21","","3.2","","104.41","","","","-37","","Ice Crystals"
"-115.14","67.82","KUGLUKTUK A","2300903","2021-02-09 23:00","2021","02","09","23:00","-25.8","","-28.6","","77","","","","29","","12","","1.6","","104.42","","","","-35","","Ice Crystals"
"-115.14","67.82","KUGLUKTUK A","2300903","2021-02-10 00:00","2021","02","10","00:00","-25.4","","-28.3","","78","","","","25","","6","","2.0","","104.47","","","","-31","","Ice Crystals"
"-115.14","67.82","KUGLUKTUK A","2300903","2021-02-10 01:00","2021","02","10","01:00","-25.2","","-28.0","","78","","","","22","","7","","0.2","","104.48","","","","-32","","Freezing Fog"
"-115.14","67.82","KUGLUKTUK A","2300903","2021-02-10 02:00","2021","02","10","02:00","-25.2","","-28.0","","78","","","","30","","7","","1.2","","104.53","","","","-32","","Fog"
"-115.14","67.82","KUGLUKTUK A","2300903","2021-02-10 03:00","2021","02","10","03:00","-25.5","","-28.5","","77","","","","32","","18","","1.6","","104.53","","","","-37","","Fog"
"-115.14","67.82","KUGLUKTUK A","2300903","2021-02-10 04:00","2021","02","10","04:00","-25.2","","-28.2","","77","","","","33","","9","","2.4","","104.57","","","","-33","","Ice Crystals"
"-115.14","67.82","KUGLUKTUK A","2300903","2021-02-10 05:00","2021","02","10","05:00","-25.5","","-28.5","","77","","","","29","","6","","3.6","","104.61","","","","-31","","Ice Crystals"
"-115.14","67.82","KUGLUKTUK A","2300903","2021-02-10 06:00","2021","02","10","06:00","-25.7","","-28.7","","76","","","","33","","14","","3.2","","104.64","","","","-36","","Ice Crystals"
"-115.14","67.82","KUGLUKTUK A","2300903","2021-02-10 07:00","2021","02","10","07:00","-25.5","","-28.6","","76","","","","33","","19","","6.4","","104.65","","","","-37","","Ice Crystals"
"-115.14","67.82","KUGLUKTUK A","2300903","2021-02-10 08:00","2021","02","10","08:00","-25.7","","-28.8","","76","","","","28","","6","","6.4","","104.70","","","","-32","","Ice Crystals"
"-115.14","67.82","KUGLUKTUK A","2300903","2021-02-10 09:00","2021","02","10","09:00","-25.6","","-28.6","","76","","","","22","","7","","12.9","","104.74","","","","-32","","Ice Crystals"
"-115.14","67.82","KUGLUKTUK A","2300903","2021-02-10 10:00","2021","02","10","10:00","-25.7","","-28.7","","77","","","","17","","8","","12.9","","104.81","","","","-33","","Ice Crystals"
"-115.14","67.82","KUGLUKTUK A","2300903","2021-02-10 11:00","2021","02","10","11:00","-25.4","","-28.5","","76","","","","21","","5","","9.7","","104.87","","","","-30","","Ice Crystals"
"-115.14","67.82","KUGLUKTUK A","2300903","2021-02-10 12:00","2021","02","10","12:00","-25.3","","-28.4","","75","","","","30","","9","","12.9","","104.89","","","","-33","","Ice Crystals"
"-115.14","67.82","KUGLUKTUK A","2300903","2021-02-10 13:00","2021","02","10","13:00","-25.4","","-28.6","","75","","","","30","","10","","16.1","","104.91","","","","-34","","Ice Crystals"
"-115.14","67.82","KUGLUKTUK A","2300903","2021-02-10 14:00","2021","02","10","14:00","-25.5","","-28.8","","74","","","","27","","5","","12.9","","104.98","","","","-31","","Cloudy"
"-115.14","67.82","KUGLUKTUK A","2300903","2021-02-10 15:00","2021","02","10","15:00","-25.4","","-28.6","","75","","","","28","","5","","16.1","","105.01","","","","-30","","NA"
"-115.14","67.82","KUGLUKTUK A","2300903","2021-02-10 16:00","2021","02","10","16:00","-25.6","","-29.0","","74","","","","25","","13","","24.1","","105.01","","","","-35","","NA"
"-115.14","67.82","KUGLUKTUK A","2300903","2021-02-10 17:00","2021","02","10","17:00","-26.5","","-29.9","","74","","","","25","","16","","16.1","","105.02","","","","-37","","Ice Crystals"
"-115.14","67.82","KUGLUKTUK A","2300903","2021-02-10 18:00","2021","02","10","18:00","-26.9","","-30.3","","73","","","","25","","19","","16.1","","105.05","","","","-39","","Ice Crystals"
"-115.14","67.82","KUGLUKTUK A","2300903","2021-02-10 19:00","2021","02","10","19:00","-27.7","","-31.1","","74","","","","24","","19","","16.1","","105.02","","","","-40","","Ice Crystals"
"-115.14","67.82","KUGLUKTUK A","2300903","2021-02-10 20:00","2021","02","10","20:00","-28.4","","-31.7","","74","","","","23","","21","","24.1","","104.99","","","","-41","","Ice Crystals"
"-115.14","67.82","KUGLUKTUK A","2300903","2021-02-10 21:00","2021","02","10","21:00","-28.8","","-32.4","","72","","","","24","","21","","24.1","","104.97","","","","-42","","NA"
"-115.14","67.82","KUGLUKTUK A","2300903","2021-02-10 22:00","2021","02","10","22:00","-29.1","","-32.6","","73","","","","24","","25","","24.1","","104.95","","","","-43","","NA"
"-115.14","67.82","KUGLUKTUK A","2300903","2021-02-10 23:00","2021","02","10","23:00","-29.5","","-32.9","","73","","","","24","","19","","24.1","","104.95","","","","-42","","Clear"
"-115.14","67.82","KUGLUKTUK A","2300903","2021-02-11 00:00","2021","02","11","00:00","-29.1","","-32.5","","73","","","","24","","24","","24.1","","104.94","","","","-43","","NA"
"-115.14","67.82","KUGLUKTUK A","2300903","2021-02-11 01:00","2021","02","11","01:00","-28.8","","-32.3","","73","","","","23","","22","","24.1","","104.89","","","","-42","","NA"
"-115.14","67.82","KUGLUKTUK A","2300903","2021-02-11 02:00","2021","02","11","02:00","-28.8","","-32.1","","74","","","","23","","24","","24.1","","104.88","","","","-43","","Clear"
"-115.14","67.82","KUGLUKTUK A","2300903","2021-02-11 03:00","2021","02","11","03:00","-28.7","","-32.0","","73","","","","23","","22","","24.1","","104.84","","","","-42","","NA"
"-115.14","67.82","KUGLUKTUK A","2300903","2021-02-11 04:00","2021","02","11","04:00","-28.5","","-31.8","","74","","","","23","","23","","24.1","","104.79","","","","-42","","NA"
"-115.14","67.82","KUGLUKTUK A","2300903","2021-02-11 05:00","2021","02","11","05:00","-28.7","","-32.0","","74","","","","23","","19","","24.1","","104.77","","","","-41","","Clear"
"-115.14","67.82","KUGLUKTUK A","2300903","2021-02-11 06:00","2021","02","11","06:00","-28.5","","-31.7","","74","","","","24","","12","","24.1","","104.75","","","","-38","","NA"
"-115.14","67.82","KUGLUKTUK A","2300903","2021-02-11 07:00","2021","02","11","07:00","-29.2","","-32.4","","75","","","","21","","6","","24.1","","104.71","","","","-36","","NA"
"-115.14","67.82","KUGLUKTUK A","2300903","2021-02-11 08:00","2021","02","11","08:00","-29.4","","-32.4","","76","","","","23","","23","","24.1","","104.65","","","","-43","","Clear"
"-115.14","67.82","KUGLUKTUK A","2300903","2021-02-11 09:00","2021","02","11","09:00","-29.0","","-32.1","","75","","","","18","","5","","24.1","","104.63","","","","-34","","NA"
"-115.14","67.82","KUGLUKTUK A","2300903","2021-02-11 10:00","2021","02","11","10:00","-29.2","","-32.2","","76","","","","23","","19","","24.1","","104.59","","","","-42","","NA"
"-115.14","67.82","KUGLUKTUK A","2300903","2021-02-11 11:00","2021","02","11","11:00","-28.7","","-32.1","","74","","","","23","","11","","24.1","","104.54","","","","-38","","Clear"
"-115.14","67.82","KUGLUKTUK A","2300903","2021-02-11 12:00","2021","02","11","12:00","-27.7","","-31.2","","73","","","","23","","15","","24.1","","104.50","","","","-39","","NA"
"-115.14","67.82","KUGLUKTUK A","2300903","2021-02-11 13:00","2021","02","11","13:00","-27.6","","-31.2","","72","","","","23","","12","","24.1","","104.42","","","","-37","","NA"
"-115.14","67.82","KUGLUKTUK A","2300903","2021-02-11 14:00","2021","02","11","14:00","-26.9","","-30.6","","72","","","","24","","13","","24.1","","104.36","","","","-37","","Clear"
"-115.14","67.82","KUGLUKTUK A","2300903","2021-02-11 15:00","2021","02","11","15:00","-28.1","","-31.5","","73","","","","24","","14","","24.1","","104.35","","","","-39","","NA"
"-115.14","67.82","KUGLUKTUK A","2300903","2021-02-11 16:00","2021","02","11","16:00","-27.7","","-30.8","","75","","","","22","","14","","24.1","","104.29","","","","-38","","NA"
"-115.14","67.82","KUGLUKTUK A","2300903","2021-02-11 17:00","2021","02","11","17:00","-27.4","","-30.4","","76","","","","21","","14","","24.1","","104.22","","","","-38","","Clear"
"-115.14","67.82","KUGLUKTUK A","2300903","2021-02-11 18:00","2021","02","11","18:00","-28.2","","-31.6","","74","","","","23","","14","","24.1","","104.16","","","","-39","","NA"
"-115.14","67.82","KUGLUKTUK A","2300903","2021-02-11 19:00","2021","02","11","19:00","-27.7","","-30.8","","75","","","","25","","16","","24.1","","104.11","","","","-39","","NA"
"-115.14","67.82","KUGLUKTUK A","2300903","2021-02-11 20:00","2021","02","11","20:00","-27.5","","-30.6","","75","","","","24","","4","","24.1","","104.03","","","","-32","","Clear"
"-115.14","67.82","KUGLUKTUK A","2300903","2021-02-11 21:00","2021","02","11","21:00","-26.6","","-29.6","","77","","","","24","","9","","24.1","","103.96","","","","-35","","NA"
"-115.14","67.82","KUGLUKTUK A","2300903","2021-02-11 22:00","2021","02","11","22:00","-28.4","","-31.0","","79","","","","18","","13","","24.1","","103.92","","","","-39","","NA"
"-115.14","67.82","KUGLUKTUK A","2300903","2021-02-11 23:00","2021","02","11","23:00","-28.7","","-31.6","","76","","","","19","","8","","24.1","","103.92","","","","-36","","Clear"
"-115.14","67.82","KUGLUKTUK A","2300903","2021-02-12 00:00","2021","02","12","00:00","-31.2","","-34.3","","75","","","","32","","4","","24.1","","103.92","","","","-36","","Ice Crystals"
"-115.14","67.82","KUGLUKTUK A","2300903","2021-02-12 01:00","2021","02","12","01:00","-26.6","","-29.5","","77","","","","28","","7","","24.1","","103.82","","","","-33","","Ice Crystals"
"-115.14","67.82","KUGLUKTUK A","2300903","2021-02-12 02:00","2021","02","12","02:00","-30.0","","-33.1","","75","","","","22","","29","","24.1","","103.75","","","","-45","","Ice Crystals"
"-115.14","67.82","KUGLUKTUK A","2300903","2021-02-12 03:00","2021","02","12","03:00","-29.4","","-32.4","","76","","","","23","","21","","24.1","","103.73","","","","-43","","Ice Crystals"
"-115.14","67.82","KUGLUKTUK A","2300903","2021-02-12 04:00","2021","02","12","04:00","-28.4","","-31.4","","76","","","","22","","18","","24.1","","103.68","","","","-40","","Ice Crystals"
"-115.14","67.82","KUGLUKTUK A","2300903","2021-02-12 05:00","2021","02","12","05:00","-29.1","","-32.0","","76","","","","20","","5","","24.1","","103.66","","","","-35","","Ice Crystals"
"-115.14","67.82","KUGLUKTUK A","2300903","2021-02-12 06:00","2021","02","12","06:00","-29.6","","-32.5","","77","","","","25","","10","","24.1","","103.61","","","","-39","","Ice Crystals"
"-115.14","67.82","KUGLUKTUK A","2300903","2021-02-12 07:00","2021","02","12","07:00","-27.6","","-30.7","","75","","","","22","","12","","24.1","","103.59","","","","-37","","NA"
"-115.14","67.82","KUGLUKTUK A","2300903","2021-02-12 08:00","2021","02","12","08:00","-28.9","","-32.0","","75","","","","27","","8","","24.1","","103.57","","","","-37","","Clear"
"-115.14","67.82","KUGLUKTUK A","2300903","2021-02-12 09:00","2021","02","12","09:00","-29.4","","-32.6","","74","","","","23","","10","","24.1","","103.53","","","","-38","","NA"
"-115.14","67.82","KUGLUKTUK A","2300903","2021-02-12 10:00","2021","02","12","10:00","-30.6","","-33.6","","76","","","","21","","4","","24.1","","103.57","","","","-35","","NA"
"-115.14","67.82","KUGLUKTUK A","2300903","2021-02-12 11:00","2021","02","12","11:00","-30.4","","-33.4","","76","","","","20","","13","","24.1","","103.50","","","","-41","","Clear"
"-115.14","67.82","KUGLUKTUK A","2300903","2021-02-12 12:00","2021","02","12","12:00","-30.5","","-33.7","","74","","","","29","","4","","24.1","","103.44","","","","-35","","NA"
"-115.14","67.82","KUGLUKTUK A","2300903","2021-02-12 13:00","2021","02","12","13:00","-29.4","","-32.5","","75","","","","36","","1","","24.1","","103.40","","","","-31","","NA"
"-115.14","67.82","KUGLUKTUK A","2300903","2021-02-12 14:00","2021","02","12","14:00","-30.4","","-33.8","","73","","","","13","","9","","24.1","","103.41","","","","-39","","Clear"
"-115.14","67.82","KUGLUKTUK A","2300903","2021-02-12 15:00","2021","02","12","15:00","-30.3","","-33.8","","72","","","","32","","4","","24.1","","103.38","","","","-35","","NA"
"-115.14","67.82","KUGLUKTUK A","2300903","2021-02-12 16:00","2021","02","12","16:00","-30.5","","-33.8","","73","","","","34","","4","","24.1","","103.36","","","","-35","","NA"
"-115.14","67.82","KUGLUKTUK A","2300903","2021-02-12 17:00","2021","02","12","17:00","-31.4","","-34.5","","74","","","","22","","4","","24.1","","103.37","","","","-36","","Clear"
"-115.14","67.82","KUGLUKTUK A","2300903","2021-02-12 18:00","2021","02","12","18:00","-31.0","","-34.0","","75","","","","36","","2","","24.1","","103.33","","","","-33","","Ice Crystals"
"-115.14","67.82","KUGLUKTUK A","2300903","2021-02-12 19:00","2021","02","12","19:00","-30.0","","-32.9","","77","","","","36","","1","","24.1","","103.28","","","","-31","","Ice Crystals"
"-115.14","67.82","KUGLUKTUK A","2300903","2021-02-12 20:00","2021","02","12","20:00","-31.6","","-34.6","","75","","","","36","","2","","24.1","","103.25","","","","-34","","Ice Crystals"
"-115.14","67.82","KUGLUKTUK A","2300903","2021-02-12 21:00","2021","02","12","21:00","-30.8","","-33.8","","76","","","","15","","5","","24.1","","103.22","","","","-37","","NA"
"-115.14","67.82","KUGLUKTUK A","2300903","2021-02-12 22:00","2021","02","12","22:00","-33.3","","-36.6","","73","","","","32","","8","","24.1","","103.21","","","","-42","","NA"
"-115.14","67.82","KUGLUKTUK A","2300903","2021-02-12 23:00","2021","02","12","23:00","-31.0","","-34.0","","76","","","","21","","4","","24.1","","103.16","","","","-36","","Ice Crystals"
"-115.14","67.82","KUGLUKTUK A","2300903","2021-02-13 00:00","2021","02","13","00:00","-32.5","","-35.9","","73","","","","36","","10","","19.3","","103.11","","","","-42","","Ice Crystals"
"-115.14","67.82","KUGLUKTUK A","2300903","2021-02-13 01:00","2021","02","13","01:00","-31.0","","-34.1","","75","","","","30","","8","","24.1","","103.11","","","","-39","","Ice Crystals"
"-115.14","67.82","KUGLUKTUK A","2300903","2021-02-13 02:00","2021","02","13","02:00","-23.4","","-25.9","","81","","","","21","","15","","24.1","","103.07","","","","-33","","Ice Crystals"
"-115.14","67.82","KUGLUKTUK A","2300903","2021-02-13 03:00","2021","02","13","03:00","-26.8","","-35.0","","47","","","","28","","7","","24.1","","103.02","","","","-34","","Ice Crystals"
"-115.14","67.82","KUGLUKTUK A","2300903","2021-02-13 04:00","2021","02","13","04:00","-29.0","","-32.0","","76","","","","32","","12","","16.1","","103.04","","","","-39","","Ice Crystals"
"-115.14","67.82","KUGLUKTUK A","2300903","2021-02-13 05:00","2021","02","13","05:00","-22.4","","-25.6","","76","","","","23","","22","","24.1","","102.99","","","","-34","","Ice Crystals"
"-115.14","67.82","KUGLUKTUK A","2300903","2021-02-13 06:00","2021","02","13","06:00","-20.9","","-25.4","","68","","","","21","","34","","19.3","","102.93","","","","-34","","Ice Crystals,Blowing Snow"
"-115.14","67.82","KUGLUKTUK A","2300903","2021-02-13 07:00","2021","02","13","07:00","-21.6","","-26.0","","68","","","","21","","27","","19.3","","102.89","","","","-34","","Ice Crystals,Blowing Snow"
"-115.14","67.82","KUGLUKTUK A","2300903","2021-02-13 08:00","2021","02","13","08:00","-20.8","","-25.0","","70","","","","21","","28","","24.1","","102.87","","","","-33","","Ice Crystals,Blowing Snow"
"-115.14","67.82","KUGLUKTUK A","2300903","2021-02-13 09:00","2021","02","13","09:00","-20.4","","-24.0","","73","","","","22","","30","","24.1","","102.84","","","","-33","","Blowing Snow"
"-115.14","67.82","KUGLUKTUK A","2300903","2021-02-13 10:00","2021","02","13","10:00","-20.6","","-24.4","","72","","","","22","","33","","24.1","","102.76","","","","-34","","Blowing Snow"
"-115.14","67.82","KUGLUKTUK A","2300903","2021-02-13 11:00","2021","02","13","11:00","-20.0","","-24.0","","71","","","","22","","45","","6.4","","102.67","","","","-35","","Blowing Snow"
"-115.14","67.82","KUGLUKTUK A","2300903","2021-02-13 12:00","2021","02","13","12:00","-20.1","","-24.3","","70","","","","21","","40","","16.1","","102.63","","","","-34","","Blowing Snow"
"-115.14","67.82","KUGLUKTUK A","2300903","2021-02-13 13:00","2021","02","13","13:00","-19.1","","-23.1","","71","","","","21","","34","","24.1","","102.64","","","","-32","","Blowing Snow"
"-115.14","67.82","KUGLUKTUK A","2300903","2021-02-13 14:00","2021","02","13","14:00","-19.3","","-22.9","","74","","","","22","","40","","24.1","","102.60","","","","-33","","Blowing Snow"
"-115.14","67.82","KUGLUKTUK A","2300903","2021-02-13 15:00","2021","02","13","15:00","-19.2","","-22.6","","74","","","","22","","36","","24.1","","102.53","","","","-32","","Blowing Snow"
"-115.14","67.82","KUGLUKTUK A","2300903","2021-02-13 16:00","2021","02","13","16:00","-19.3","","-22.7","","75","","","","22","","42","","24.1","","102.46","","","","-33","","Blowing Snow"
"-115.14","67.82","KUGLUKTUK A","2300903","2021-02-13 17:00","2021","02","13","17:00","-19.6","","-22.9","","75","","","","21","","20","","24.1","","102.40","","","","-30","","Blowing Snow"
"-115.14","67.82","KUGLUKTUK A","2300903","2021-02-13 18:00","2021","02","13","18:00","-18.8","","-22.7","","72","","","","22","","32","","24.1","","102.31","","","","-31","","Blowing Snow"
"-115.14","67.82","KUGLUKTUK A","2300903","2021-02-13 19:00","2021","02","13","19:00","-19.8","","-24.1","","69","","","","22","","17","","24.1","","102.26","","","","-29","","Blowing Snow"
"-115.14","67.82","KUGLUKTUK A","2300903","2021-02-13 20:00","2021","02","13","20:00","-20.2","","-24.5","","69","","","","36","","5","","24.1","","102.21","","","","-25","","Clear"
"-115.14","67.82","KUGLUKTUK A","2300903","2021-02-13 21:00","2021","02","13","21:00","-22.2","","-25.9","","72","","","","22","","16","","24.1","","102.11","","","","-32","","NA"
"-115.14","67.82","KUGLUKTUK A","2300903","2021-02-13 22:00","2021","02","13","22:00","-22.9","","-26.9","","70","","","","1","","5","","24.1","","102.04","","","","-28","","NA"
"-115.14","67.82","KUGLUKTUK A","2300903","2021-02-13 23:00","2021","02","13","23:00","-21.4","","-25.5","","70","","","","24","","16","","24.1","","101.98","","","","-31","","Clear"
"-115.14","67.82","KUGLUKTUK A","2300903","2021-02-14 00:00","2021","02","14","00:00","-21.9","","-26.3","","68","","","","23","","32","","24.1","","101.89","","","","-35","","NA"
"-115.14","67.82","KUGLUKTUK A","2300903","2021-02-14 01:00","2021","02","14","01:00","-20.8","","-24.7","","71","","","","24","","17","","24.1","","101.87","","","","-31","","Blowing Snow"
"-115.14","67.82","KUGLUKTUK A","2300903","2021-02-14 02:00","2021","02","14","02:00","-22.4","","-26.7","","69","","","","23","","29","","24.1","","101.77","","","","-36","","Ice Crystals,Blowing Snow"
"-115.14","67.82","KUGLUKTUK A","2300903","2021-02-14 03:00","2021","02","14","03:00","-19.8","","-24.3","","68","","","","22","","35","","24.1","","101.70","","","","-33","","Ice Crystals,Blowing Snow"
"-115.14","67.82","KUGLUKTUK A","2300903","2021-02-14 04:00","2021","02","14","04:00","-20.3","","-24.3","","71","","","","23","","34","","24.1","","101.64","","","","-34","","Ice Crystals,Blowing Snow"
"-115.14","67.82","KUGLUKTUK A","2300903","2021-02-14 05:00","2021","02","14","05:00","-22.1","","-26.3","","69","","","","31","","10","","24.1","","101.58","","","","-30","","Ice Crystals,Blowing Snow"
"-115.14","67.82","KUGLUKTUK A","2300903","2021-02-14 06:00","2021","02","14","06:00","-22.1","","-26.0","","72","","","","27","","12","","24.1","","101.54","","","","-31","","Ice Crystals"
"-115.14","67.82","KUGLUKTUK A","2300903","2021-02-14 07:00","2021","02","14","07:00","-23.9","","-27.4","","73","","","","31","","7","","24.1","","101.48","","","","-30","","Ice Crystals"
"-115.14","67.82","KUGLUKTUK A","2300903","2021-02-14 08:00","2021","02","14","08:00","-20.9","","-25.0","","71","","","","23","","27","","24.1","","101.40","","","","-33","","Clear"
"-115.14","67.82","KUGLUKTUK A","2300903","2021-02-14 09:00","2021","02","14","09:00","-24.5","","-28.7","","69","","","","28","","19","","24.1","","101.35","","","","-36","","NA"
"-115.14","67.82","KUGLUKTUK A","2300903","2021-02-14 10:00","2021","02","14","10:00","-25.9","","-29.6","","72","","","","28","","14","","24.1","","101.31","","","","-36","","NA"
"-115.14","67.82","KUGLUKTUK A","2300903","2021-02-14 11:00","2021","02","14","11:00","-25.4","","-29.7","","68","","","","26","","16","","24.1","","101.26","","","","-36","","Clear"
"-115.14","67.82","KUGLUKTUK A","2300903","2021-02-14 12:00","2021","02","14","12:00","-26.4","","-30.4","","70","","","","21","","15","","24.1","","101.23","","","","-37","","NA"
"-115.14","67.82","KUGLUKTUK A","2300903","2021-02-14 13:00","2021","02","14","13:00","-26.4","","-30.5","","69","","","","26","","20","","24.1","","101.18","","","","-39","","NA"
"-115.14","67.82","KUGLUKTUK A","2300903","2021-02-14 14:00","2021","02","14","14:00","-25.5","","-29.4","","71","","","","27","","12","","24.1","","101.16","","","","-35","","Mostly Cloudy"
"-115.14","67.82","KUGLUKTUK A","2300903","2021-02-14 15:00","2021","02","14","15:00","-25.9","","-29.5","","72","","","","25","","18","","24.1","","101.12","","","","-37","","NA"
"-115.14","67.82","KUGLUKTUK A","2300903","2021-02-14 16:00","2021","02","14","16:00","-24.4","","-27.5","","76","","","","27","","18","","24.1","","101.11","","","","-35","","NA"
"-115.14","67.82","KUGLUKTUK A","2300903","2021-02-14 17:00","2021","02","14","17:00","-25.0","","-28.3","","75","","","","26","","17","","24.1","","101.10","","","","-36","","Clear"
"-115.14","67.82","KUGLUKTUK A","2300903","2021-02-14 18:00","2021","02","14","18:00","-24.7","","-27.9","","76","","","","27","","20","","24.1","","101.08","","","","-36","","NA"
"-115.14","67.82","KUGLUKTUK A","2300903","2021-02-14 19:00","2021","02","14","19:00","-25.2","","-27.9","","79","","","","25","","14","","24.1","","101.05","","","","-35","","Ice Crystals"
"-115.14","67.82","KUGLUKTUK A","2300903","2021-02-14 20:00","2021","02","14","20:00","-28.0","","-31.2","","75","","","","24","","14","","24.1","","101.05","","","","-39","","Ice Crystals"
"-115.14","67.82","KUGLUKTUK A","2300903","2021-02-14 21:00","2021","02","14","21:00","-27.1","","-29.8","","78","","","","27","","27","","24.1","","101.05","","","","-41","","Ice Crystals,Blowing Snow"
"-115.14","67.82","KUGLUKTUK A","2300903","2021-02-14 22:00","2021","02","14","22:00","-26.6","","-29.6","","76","","","","26","","21","","24.1","","101.07","","","","-39","","Ice Crystals,Blowing Snow"
"-115.14","67.82","KUGLUKTUK A","2300903","2021-02-14 23:00","2021","02","14","23:00","-26.8","","-30.3","","73","","","","26","","33","","24.1","","101.06","","","","-42","","Ice Crystals,Blowing Snow"
"-115.14","67.82","KUGLUKTUK A","2300903","2021-02-15 00:00","2021","02","15","00:00","-26.9","","-30.5","","72","","","","23","","33","","19.3","","101.11","","","","-42","","Ice Crystals,Blowing Snow"
"-115.14","67.82","KUGLUKTUK A","2300903","2021-02-15 01:00","2021","02","15","01:00","-26.0","","-29.5","","73","","","","26","","34","","16.1","","101.13","","","","-41","","Ice Crystals,Blowing Snow"
"-115.14","67.82","KUGLUKTUK A","2300903","2021-02-15 02:00","2021","02","15","02:00","-25.6","","-29.1","","73","","","","27","","29","","16.1","","101.14","","","","-40","","Snow,Blowing Snow"
"-115.14","67.82","KUGLUKTUK A","2300903","2021-02-15 03:00","2021","02","15","03:00","-24.5","","-28.0","","74","","","","26","","26","","16.1","","101.16","","","","-38","","Snow,Blowing Snow"
"-115.14","67.82","KUGLUKTUK A","2300903","2021-02-15 04:00","2021","02","15","04:00","-24.2","","-27.7","","74","","","","25","","19","","24.1","","101.20","","","","-36","","Snow"
"-115.14","67.82","KUGLUKTUK A","2300903","2021-02-15 05:00","2021","02","15","05:00","-25.9","","-29.2","","74","","","","22","","13","","24.1","","101.22","","","","-36","","Mainly Clear"
"-115.14","67.82","KUGLUKTUK A","2300903","2021-02-15 06:00","2021","02","15","06:00","-27.0","","-30.2","","75","","","","22","","11","","24.1","","101.21","","","","-36","","NA"
"-115.14","67.82","KUGLUKTUK A","2300903","2021-02-15 07:00","2021","02","15","07:00","-26.0","","-29.1","","75","","","","25","","10","","24.1","","101.20","","","","-34","","NA"
"-115.14","67.82","KUGLUKTUK A","2300903","2021-02-15 08:00","2021","02","15","08:00","-27.1","","-29.8","","79","","","","30","","7","","24.1","","101.19","","","","-34","","Clear"
"-115.14","67.82","KUGLUKTUK A","2300903","2021-02-15 09:00","2021","02","15","09:00","-29.2","","-32.1","","76","","","","20","","5","","24.1","","101.18","","","","-35","","NA"
"-115.14","67.82","KUGLUKTUK A","2300903","2021-02-15 10:00","2021","02","15","10:00","-29.7","","-32.6","","77","","","","22","","10","","24.1","","101.18","","","","-39","","NA"
"-115.14","67.82","KUGLUKTUK A","2300903","2021-02-15 11:00","2021","02","15","11:00","-28.1","","-31.1","","76","","","","23","","14","","24.1","","101.16","","","","-39","","Mainly Clear"
"-115.14","67.82","KUGLUKTUK A","2300903","2021-02-15 12:00","2021","02","15","12:00","-27.3","","-30.6","","74","","","","24","","19","","24.1","","101.16","","","","-39","","NA"
"-115.14","67.82","KUGLUKTUK A","2300903","2021-02-15 13:00","2021","02","15","13:00","-27.1","","-30.8","","71","","","","23","","16","","24.1","","101.14","","","","-38","","NA"
"-115.14","67.82","KUGLUKTUK A","2300903","2021-02-15 14:00","2021","02","15","14:00","-28.0","","-31.5","","72","","","","24","","22","","24.1","","101.10","","","","-41","","Clear"
"-115.14","67.82","KUGLUKTUK A","2300903","2021-02-15 15:00","2021","02","15","15:00","-27.0","","-30.6","","72","","","","25","","23","","24.1","","101.05","","","","-40","","NA"
"-115.14","67.82","KUGLUKTUK A","2300903","2021-02-15 16:00","2021","02","15","16:00","-28.0","","-31.6","","72","","","","24","","24","","24.1","","101.05","","","","-42","","NA"
"-115.14","67.82","KUGLUKTUK A","2300903","2021-02-15 17:00","2021","02","15","17:00","-30.2","","-33.4","","74","","","","23","","20","","24.1","","101.05","","","","-43","","Mainly Clear"
"-115.14","67.82","KUGLUKTUK A","2300903","2021-02-15 18:00","2021","02","15","18:00","-30.3","","-33.6","","73","","","","23","","21","","24.1","","101.04","","","","-44","","NA"
"-115.14","67.82","KUGLUKTUK A","2300903","2021-02-15 19:00","2021","02","15","19:00","-31.0","","-34.2","","74","","","","22","","23","","24.1","","101.03","","","","-45","","NA"
"-115.14","67.82","KUGLUKTUK A","2300903","2021-02-15 20:00","2021","02","15","20:00","-28.6","","-32.1","","72","","","","25","","30","","24.1","","101.04","","","","-44","","Mainly Clear"
"-115.14","67.82","KUGLUKTUK A","2300903","2021-02-15 21:00","2021","02","15","21:00","-29.8","","-33.4","","72","","","","28","","21","","24.1","","101.10","","","","-43","","NA"
"-115.14","67.82","KUGLUKTUK A","2300903","2021-02-15 22:00","2021","02","15","22:00","-30.8","","-34.1","","74","","","","23","","11","","24.1","","101.11","","","","-41","","NA"
"-115.14","67.82","KUGLUKTUK A","2300903","2021-02-15 23:00","2021","02","15","23:00","-30.7","","-33.9","","74","","","","23","","19","","24.1","","101.14","","","","-44","","Clear"
"-115.14","67.82","KUGLUKTUK A","2300903","2021-02-16 00:00","2021","02","16","00:00","-31.8","","-35.0","","74","","","","23","","22","","19.3","","101.15","","","","-46","","Ice Crystals"
"-115.14","67.82","KUGLUKTUK A","2300903","2021-02-16 01:00","2021","02","16","01:00","-32.8","","-36.0","","74","","","","22","","21","","24.1","","101.17","","","","-47","","Ice Crystals"
"-115.14","67.82","KUGLUKTUK A","2300903","2021-02-16 02:00","2021","02","16","02:00","-31.4","","-34.4","","75","","","","24","","23","","19.3","","101.20","","","","-46","","Ice Crystals"
"-115.14","67.82","KUGLUKTUK A","2300903","2021-02-16 03:00","2021","02","16","03:00","-32.0","","-35.3","","74","","","","24","","24","","24.1","","101.21","","","","-47","","Ice Crystals"
"-115.14","67.82","KUGLUKTUK A","2300903","2021-02-16 04:00","2021","02","16","04:00","-32.2","","-35.6","","73","","","","24","","22","","24.1","","101.21","","","","-46","","Ice Crystals"
"-115.14","67.82","KUGLUKTUK A","2300903","2021-02-16 05:00","2021","02","16","05:00","-31.6","","-34.8","","74","","","","24","","23","","24.1","","101.20","","","","-46","","Ice Crystals"
"-115.14","67.82","KUGLUKTUK A","2300903","2021-02-16 06:00","2021","02","16","06:00","-32.5","","-35.7","","74","","","","24","","26","","24.1","","101.21","","","","-48","","Ice Crystals"
"-115.14","67.82","KUGLUKTUK A","2300903","2021-02-16 07:00","2021","02","16","07:00","-32.0","","-35.3","","73","","","","20","","14","","12.9","","101.21","","","","-43","","Ice Crystals"
"-115.14","67.82","KUGLUKTUK A","2300903","2021-02-16 08:00","2021","02","16","08:00","-31.6","","-35.0","","73","","","","24","","23","","24.1","","101.20","","","","-46","","Ice Crystals,Blowing Snow"
"-115.14","67.82","KUGLUKTUK A","2300903","2021-02-16 09:00","2021","02","16","09:00","-31.8","","-35.1","","74","","","","26","","21","","24.1","","101.23","","","","-46","","Blowing Snow"
"-115.14","67.82","KUGLUKTUK A","2300903","2021-02-16 10:00","2021","02","16","10:00","-33.0","","-36.3","","73","","","","22","","21","","24.1","","101.27","","","","-47","","Blowing Snow"
"-115.14","67.82","KUGLUKTUK A","2300903","2021-02-16 11:00","2021","02","16","11:00","-32.5","","-35.9","","72","","","","22","","28","","24.1","","101.27","","","","-48","","Mainly Clear"
"-115.14","67.82","KUGLUKTUK A","2300903","2021-02-16 12:00","2021","02","16","12:00","-30.3","","-33.8","","72","","","","24","","27","","24.1","","101.31","","","","-45","","NA"
"-115.14","67.82","KUGLUKTUK A","2300903","2021-02-16 13:00","2021","02","16","13:00","-30.3","","-34.0","","71","","","","23","","27","","24.1","","101.32","","","","-45","","NA"
"-115.14","67.82","KUGLUKTUK A","2300903","2021-02-16 14:00","2021","02","16","14:00","-29.2","","-33.1","","69","","","","23","","30","","24.1","","101.32","","","","-45","","Mostly Cloudy"
"-115.14","67.82","KUGLUKTUK A","2300903","2021-02-16 15:00","2021","02","16","15:00","-28.0","","-32.0","","69","","","","24","","34","","24.1","","101.32","","","","-44","","Blowing Snow"
"-115.14","67.82","KUGLUKTUK A","2300903","2021-02-16 16:00","2021","02","16","16:00","-27.9","","-31.9","","69","","","","24","","31","","24.1","","101.37","","","","-43","","Blowing Snow"
"-115.14","67.82","KUGLUKTUK A","2300903","2021-02-16 17:00","2021","02","16","17:00","-28.1","","-31.9","","71","","","","24","","30","","24.1","","101.42","","","","-43","","Mostly Cloudy"
"-115.14","67.82","KUGLUKTUK A","2300903","2021-02-16 18:00","2021","02","16","18:00","-27.5","","-31.2","","71","","","","24","","22","","24.1","","101.44","","","","-40","","NA"
"-115.14","67.82","KUGLUKTUK A","2300903","2021-02-16 19:00","2021","02","16","19:00","-27.8","","-31.5","","71","","","","24","","29","","24.1","","101.45","","","","-43","","NA"
"-115.14","67.82","KUGLUKTUK A","2300903","2021-02-16 20:00","2021","02","16","20:00","-28.1","","-31.6","","72","","","","24","","31","","24.1","","101.46","","","","-43","","Blowing Snow"
"-115.14","67.82","KUGLUKTUK A","2300903","2021-02-16 21:00","2021","02","16","21:00","-26.8","","-30.6","","71","","","","25","","26","","24.1","","101.48","","","","-41","","Blowing Snow"
"-115.14","67.82","KUGLUKTUK A","2300903","2021-02-16 22:00","2021","02","16","22:00","-26.7","","-30.6","","70","","","","26","","34","","16.1","","101.48","","","","-42","","Snow,Blowing Snow"
"-115.14","67.82","KUGLUKTUK A","2300903","2021-02-16 23:00","2021","02","16","23:00","-27.3","","-31.1","","71","","","","25","","32","","16.1","","101.54","","","","-42","","Snow,Blowing Snow"
"-115.14","67.82","KUGLUKTUK A","2300903","2021-02-17 00:00","2021","02","17","00:00","-26.8","","-30.8","","70","","","","25","","32","","12.9","","101.54","","","","-42","","Snow,Blowing Snow"
"-115.14","67.82","KUGLUKTUK A","2300903","2021-02-17 01:00","2021","02","17","01:00","-27.3","","-30.9","","72","","","","25","","32","","12.9","","101.57","","","","-42","","Snow,Blowing Snow"
"-115.14","67.82","KUGLUKTUK A","2300903","2021-02-17 02:00","2021","02","17","02:00","-27.6","","-31.4","","71","","","","26","","25","","16.1","","101.61","","","","-41","","Snow,Blowing Snow"
"-115.14","67.82","KUGLUKTUK A","2300903","2021-02-17 03:00","2021","02","17","03:00","-28.7","","-32.5","","71","","","","25","","30","","16.1","","101.65","","","","-44","","Snow,Blowing Snow"
"-115.14","67.82","KUGLUKTUK A","2300903","2021-02-17 04:00","2021","02","17","04:00","-29.9","","-33.6","","71","","","","24","","30","","24.1","","101.65","","","","-45","","Blowing Snow"
"-115.14","67.82","KUGLUKTUK A","2300903","2021-02-17 05:00","2021","02","17","05:00","-27.7","","-31.5","","71","","","","25","","34","","16.1","","101.66","","","","-43","","Snow,Blowing Snow"
"-115.14","67.82","KUGLUKTUK A","2300903","2021-02-17 06:00","2021","02","17","06:00","-29.4","","-33.2","","71","","","","23","","28","","16.1","","101.68","","","","-44","","Snow,Blowing Snow"
"-115.14","67.82","KUGLUKTUK A","2300903","2021-02-17 07:00","2021","02","17","07:00","-29.0","","-33.1","","69","","","","24","","32","","16.1","","101.70","","","","-45","","Snow,Blowing Snow"
"-115.14","67.82","KUGLUKTUK A","2300903","2021-02-17 08:00","2021","02","17","08:00","-30.2","","-33.8","","72","","","","23","","32","","24.1","","101.68","","","","-46","","Mainly Clear"
"-115.14","67.82","KUGLUKTUK A","2300903","2021-02-17 09:00","2021","02","17","09:00","-30.1","","-33.6","","72","","","","23","","30","","24.1","","101.65","","","","-46","","NA"
"-115.14","67.82","KUGLUKTUK A","2300903","2021-02-17 10:00","2021","02","17","10:00","-29.6","","-33.4","","71","","","","23","","30","","24.1","","101.64","","","","-45","","NA"
"-115.14","67.82","KUGLUKTUK A","2300903","2021-02-17 11:00","2021","02","17","11:00","-29.9","","-33.7","","70","","","","23","","27","","24.1","","101.61","","","","-45","","Clear"
"-115.14","67.82","KUGLUKTUK A","2300903","2021-02-17 12:00","2021","02","17","12:00","-29.4","","-33.2","","70","","","","23","","30","","24.1","","101.62","","","","-45","","NA"
"-115.14","67.82","KUGLUKTUK A","2300903","2021-02-17 13:00","2021","02","17","13:00","-29.7","","-33.5","","70","","","","23","","11","","24.1","","101.62","","","","-39","","NA"
"-115.14","67.82","KUGLUKTUK A","2300903","2021-02-17 14:00","2021","02","17","14:00","-29.2","","-33.0","","71","","","","22","","21","","24.1","","101.58","","","","-42","","Mainly Clear"
"-115.14","67.82","KUGLUKTUK A","2300903","2021-02-17 15:00","2021","02","17","15:00","-30.1","","-33.5","","73","","","","21","","21","","24.1","","101.54","","","","-44","","NA"
"-115.14","67.82","KUGLUKTUK A","2300903","2021-02-17 16:00","2021","02","17","16:00","-27.9","","-31.6","","71","","","","22","","22","","24.1","","101.48","","","","-41","","NA"
"-115.14","67.82","KUGLUKTUK A","2300903","2021-02-17 17:00","2021","02","17","17:00","-28.3","","-31.7","","73","","","","23","","23","","24.1","","101.42","","","","-42","","Clear"
"-115.14","67.82","KUGLUKTUK A","2300903","2021-02-17 18:00","2021","02","17","18:00","-29.2","","-32.6","","73","","","","23","","19","","24.1","","101.36","","","","-42","","NA"
"-115.14","67.82","KUGLUKTUK A","2300903","2021-02-17 19:00","2021","02","17","19:00","-29.6","","-32.9","","74","","","","23","","25","","24.1","","101.29","","","","-44","","NA"
"-115.14","67.82","KUGLUKTUK A","2300903","2021-02-17 20:00","2021","02","17","20:00","-27.2","","-30.5","","74","","","","23","","23","","16.1","","101.23","","","","-40","","Snow"
"-115.14","67.82","KUGLUKTUK A","2300903","2021-02-17 21:00","2021","02","17","21:00","-27.0","","-30.6","","72","","","","3","","28","","16.1","","101.16","","","","-41","","Snow"
"-115.14","67.82","KUGLUKTUK A","2300903","2021-02-17 22:00","2021","02","17","22:00","-27.9","","-31.6","","72","","","","","","","M","19.3","","101.12","","","","","","Snow"
"-115.14","67.82","KUGLUKTUK A","2300903","2021-02-17 23:00","2021","02","17","23:00","-28.7","","-32.4","","71","","","","","","","M","24.1","","101.08","","","","","","Mainly Clear"
"-115.14","67.82","KUGLUKTUK A","2300903","2021-02-18 00:00","2021","02","18","00:00","28.0","","22.0","","69","","","","","","","M","24.1","","101.08","","37","","","","NA"
"-115.14","67.82","KUGLUKTUK A","2300903","2021-02-18 01:00","2021","02","18","01:00","-29.4","","-33.0","","72","","","","","","","M","24.1","","101.07","","","","","","NA"
"-115.14","67.82","KUGLUKTUK A","2300903","2021-02-18 02:00","2021","02","18","02:00","-28.6","","-31.9","","74","","","","","","","M","24.1","","101.02","","","","","","Mainly Clear"
"-115.14","67.82","KUGLUKTUK A","2300903","2021-02-18 03:00","2021","02","18","03:00","-29.8","","-33.2","","73","","","","","","","M","24.1","","101.02","","","","","","NA"
"-115.14","67.82","KUGLUKTUK A","2300903","2021-02-18 04:00","2021","02","18","04:00","-31.4","","-34.8","","73","","","","","","","M","24.1","","101.01","","","","","","NA"
"-115.14","67.82","KUGLUKTUK A","2300903","2021-02-18 05:00","2021","02","18","05:00","-30.2","","-33.4","","74","","","","","","","M","24.1","","100.96","","","","","","Mainly Clear"
"-115.14","67.82","KUGLUKTUK A","2300903","2021-02-18 06:00","2021","02","18","06:00","-31.5","","-34.8","","73","","","","","","","M","24.1","","100.91","","","","","","NA"
"-115.14","67.82","KUGLUKTUK A","2300903","2021-02-18 07:00","2021","02","18","07:00","-31.7","","-35.2","","71","","","","","","","M","24.1","","100.85","","","","","","NA"
"-115.14","67.82","KUGLUKTUK A","2300903","2021-02-18 08:00","2021","02","18","08:00","-30.1","","-33.7","","72","","","","25","","8","","24.1","","100.80","","","","-38","","Mostly Cloudy"
"-115.14","67.82","KUGLUKTUK A","2300903","2021-02-18 09:00","2021","02","18","09:00","-31.2","","-34.5","","73","","","","32","","6","","24.1","","100.78","","","","-38","","NA"
"-115.14","67.82","KUGLUKTUK A","2300903","2021-02-18 10:00","2021","02","18","10:00","-29.9","","-33.5","","72","","","","21","","8","","24.1","","100.75","","","","-38","","NA"
"-115.14","67.82","KUGLUKTUK A","2300903","2021-02-18 11:00","2021","02","18","11:00","-28.9","","-32.3","","73","","","","36","","4","","24.1","","100.71","","","","-33","","Ice Crystals"
"-115.14","67.82","KUGLUKTUK A","2300903","2021-02-18 12:00","2021","02","18","12:00","-28.9","","-32.5","","72","","","","7","","4","","24.1","","100.70","","","","-33","","Ice Crystals"
"-115.14","67.82","KUGLUKTUK A","2300903","2021-02-18 13:00","2021","02","18","13:00","-28.6","","-32.0","","73","","","","36","","3","","24.1","","100.65","","","","-32","","Ice Crystals"
"-115.14","67.82","KUGLUKTUK A","2300903","2021-02-18 14:00","2021","02","18","14:00","-28.4","","-31.9","","73","","","","36","","3","","24.1","","100.64","","","","-32","","Ice Crystals"
"-115.14","67.82","KUGLUKTUK A","2300903","2021-02-18 15:00","2021","02","18","15:00","-28.2","","-31.5","","74","","","","10","","7","","24.1","","100.56","","","","-35","","Ice Crystals"
"-115.14","67.82","KUGLUKTUK A","2300903","2021-02-18 16:00","2021","02","18","16:00","-27.2","","-30.4","","75","","","","4","","5","","24.1","","100.49","","","","-32","","Ice Crystals"
"-115.14","67.82","KUGLUKTUK A","2300903","2021-02-18 17:00","2021","02","18","17:00","-27.4","","-30.7","","75","","","","4","","8","","24.1","","100.45","","","","-35","","Ice Crystals"
"-115.14","67.82","KUGLUKTUK A","2300903","2021-02-18 18:00","2021","02","18","18:00","-27.1","","-30.1","","76","","","","4","","8","","12.9","","100.42","","","","-35","","Snow"
"-115.14","67.82","KUGLUKTUK A","2300903","2021-02-18 19:00","2021","02","18","19:00","-26.7","","-29.9","","75","","","","5","","10","","8.1","","100.35","","","","-35","","Ice Crystals"
"-115.14","67.82","KUGLUKTUK A","2300903","2021-02-18 20:00","2021","02","18","20:00","-26.2","","-29.2","","76","","","","6","","9","","9.7","","100.31","","","","-34","","Ice Crystals"
"-115.14","67.82","KUGLUKTUK A","2300903","2021-02-18 21:00","2021","02","18","21:00","-25.9","","-29.0","","76","","","","4","","14","","9.7","","100.26","","","","-36","","Snow"
"-115.14","67.82","KUGLUKTUK A","2300903","2021-02-18 22:00","2021","02","18","22:00","-25.8","","-28.8","","76","","","","6","","12","","8.1","","100.20","","","","-35","","Snow"
"-115.14","67.82","KUGLUKTUK A","2300903","2021-02-18 23:00","2021","02","18","23:00","-25.6","","-28.7","","76","","","","7","","15","","12.9","","100.14","","","","-36","","Snow"
"-115.14","67.82","KUGLUKTUK A","2300903","2021-02-19 00:00","2021","02","19","00:00","-25.5","","-28.6","","76","","","","5","","14","","16.1","","100.11","","","","-35","","Snow"
"-115.14","67.82","KUGLUKTUK A","2300903","2021-02-19 01:00","2021","02","19","01:00","-25.3","","-28.3","","77","","","","3","","17","","19.3","","100.13","","","","-36","","Snow"
"-115.14","67.82","KUGLUKTUK A","2300903","2021-02-19 02:00","2021","02","19","02:00","-25.2","","-28.1","","77","","","","7","","17","","19.3","","100.05","","","","-36","","Snow"
"-115.14","67.82","KUGLUKTUK A","2300903","2021-02-19 03:00","2021","02","19","03:00","-24.8","","-27.7","","77","","","","6","","17","","16.1","","100.01","","","","-36","","Snow"
"-115.14","67.82","KUGLUKTUK A","2300903","2021-02-19 04:00","2021","02","19","04:00","-24.9","","-27.9","","77","","","","6","","20","","16.1","","99.97","","","","-37","","Snow"
"-115.14","67.82","KUGLUKTUK A","2300903","2021-02-19 05:00","2021","02","19","05:00","-24.8","","-27.9","","76","","","","6","","20","","16.1","","99.95","","","","-37","","Snow"
"-115.14","67.82","KUGLUKTUK A","2300903","2021-02-19 06:00","2021","02","19","06:00","-24.7","","-27.8","","76","","","","6","","16","","16.1","","99.90","","","","-35","","Snow"
"-115.14","67.82","KUGLUKTUK A","2300903","2021-02-19 07:00","2021","02","19","07:00","-24.9","","-27.9","","77","","","","7","","17","","6.4","","99.85","","","","-36","","Snow"
"-115.14","67.82","KUGLUKTUK A","2300903","2021-02-19 08:00","2021","02","19","08:00","-25.1","","-28.3","","76","","","","7","","22","","9.7","","99.81","","","","-37","","Snow,Blowing Snow"
"-115.14","67.82","KUGLUKTUK A","2300903","2021-02-19 09:00","2021","02","19","09:00","-25.1","","-28.0","","77","","","","6","","18","","6.4","","99.69","","","","-36","","Snow"
"-115.14","67.82","KUGLUKTUK A","2300903","2021-02-19 10:00","2021","02","19","10:00","-24.9","","-28.0","","76","","","","6","","17","","8.1","","99.66","","","","-36","","Snow"
"-115.14","67.82","KUGLUKTUK A","2300903","2021-02-19 11:00","2021","02","19","11:00","-24.8","","-27.9","","76","","","","6","","18","","6.4","","99.60","","","","-36","","Snow,Blowing Snow"
"-115.14","67.82","KUGLUKTUK A","2300903","2021-02-19 12:00","2021","02","19","12:00","-24.7","","-27.8","","76","","","","5","","20","","6.4","","99.56","","","","-36","","Snow"
"-115.14","67.82","KUGLUKTUK A","2300903","2021-02-19 13:00","2021","02","19","13:00","-24.5","","-27.6","","76","","","","4","","20","","3.2","","99.45","","","","-36","","Snow,Blowing Snow"
"-115.14","67.82","KUGLUKTUK A","2300903","2021-02-19 14:00","2021","02","19","14:00","-24.4","","-27.5","","76","","","","4","","21","","3.2","","99.42","","","","-36","","Snow,Blowing Snow"
"-115.14","67.82","KUGLUKTUK A","2300903","2021-02-19 15:00","2021","02","19","15:00","-24.5","","-27.6","","76","","","","4","","24","","3.2","","99.37","","","","-37","","Snow,Blowing Snow"
"-115.14","67.82","KUGLUKTUK A","2300903","2021-02-19 16:00","2021","02","19","16:00","-24.5","","-27.8","","75","","","","3","","23","","4.8","","99.33","","","","-37","","Snow,Blowing Snow"
"-115.14","67.82","KUGLUKTUK A","2300903","2021-02-19 17:00","2021","02","19","17:00","-25.2","","-28.4","","76","","","","3","","28","","3.2","","99.34","","","","-39","","Snow,Blowing Snow"
"-115.14","67.82","KUGLUKTUK A","2300903","2021-02-19 18:00","2021","02","19","18:00","-25.3","","-28.5","","75","","","","2","","23","","3.2","","99.39","","","","-38","","Snow,Blowing Snow"
"-115.14","67.82","KUGLUKTUK A","2300903","2021-02-19 19:00","2021","02","19","19:00","-25.3","","-28.6","","75","","","","1","","23","","6.4","","99.38","","","","-38","","Snow,Blowing Snow"
"-115.14","67.82","KUGLUKTUK A","2300903","2021-02-19 20:00","2021","02","19","20:00","-25.2","","-28.3","","76","","","","1","","20","","6.4","","99.38","","","","-37","","Snow,Blowing Snow"
"-115.14","67.82","KUGLUKTUK A","2300903","2021-02-19 21:00","2021","02","19","21:00","-25.7","","-28.8","","76","","","","36","","24","","6.4","","99.42","","","","-39","","Snow,Blowing Snow"
"-115.14","67.82","KUGLUKTUK A","2300903","2021-02-19 22:00","2021","02","19","22:00","-26.7","","-29.9","","74","","","","35","","27","","6.4","","99.45","","","","-41","","Snow,Blowing Snow"
"-115.14","67.82","KUGLUKTUK A","2300903","2021-02-19 23:00","2021","02","19","23:00","-27.3","","-30.8","","73","","","","35","","34","","9.7","","99.49","","","","-43","","Snow,Blowing Snow"
"-115.14","67.82","KUGLUKTUK A","2300903","2021-02-20 00:00","2021","02","20","00:00","-27.3","","-30.7","","74","","","","36","","25","","12.9","","99.54","","","","-41","","Snow,Blowing Snow"
"-115.14","67.82","KUGLUKTUK A","2300903","2021-02-20 01:00","2021","02","20","01:00","-27.6","","-31.1","","73","","","","34","","22","","12.9","","99.60","","","","-41","","Snow,Blowing Snow"
"-115.14","67.82","KUGLUKTUK A","2300903","2021-02-20 02:00","2021","02","20","02:00","-27.8","","-31.3","","72","","","","30","","9","","19.3","","99.62","","","","-36","","Snow"
"-115.14","67.82","KUGLUKTUK A","2300903","2021-02-20 03:00","2021","02","20","03:00","-27.2","","-30.6","","73","","","","25","","14","","19.3","","99.66","","","","-38","","Snow"
"-115.14","67.82","KUGLUKTUK A","2300903","2021-02-20 04:00","2021","02","20","04:00","-25.5","","-29.1","","73","","","","35","","25","","12.9","","99.68","","","","-39","","Snow,Blowing Snow"
"-115.14","67.82","KUGLUKTUK A","2300903","2021-02-20 05:00","2021","02","20","05:00","-26.3","","-29.7","","73","","","","34","","26","","12.9","","99.70","","","","-40","","Snow,Blowing Snow"
"-115.14","67.82","KUGLUKTUK A","2300903","2021-02-20 06:00","2021","02","20","06:00","-26.9","","-30.3","","74","","","","35","","28","","12.9","","99.73","","","","-41","","Snow,Blowing Snow"
"-115.14","67.82","KUGLUKTUK A","2300903","2021-02-20 07:00","2021","02","20","07:00","-27.5","","-31.0","","73","","","","34","","30","","12.9","","99.75","","","","-42","","Snow,Blowing Snow"
"-115.14","67.82","KUGLUKTUK A","2300903","2021-02-20 08:00","2021","02","20","08:00","-29.1","","-32.6","","72","","","","32","","22","","6.4","","99.80","","","","-43","","Ice Crystals,Fog,Blowing Snow"
"-115.14","67.82","KUGLUKTUK A","2300903","2021-02-20 09:00","2021","02","20","09:00","-30.3","","-33.5","","74","","","","33","","17","","3.2","","99.83","","","","-43","","Ice Crystals,Fog"
"-115.14","67.82","KUGLUKTUK A","2300903","2021-02-20 10:00","2021","02","20","10:00","-32.3","","-35.8","","72","","","","24","","14","","12.9","","99.89","","","","-44","","Ice Crystals"
"-115.14","67.82","KUGLUKTUK A","2300903","2021-02-20 11:00","2021","02","20","11:00","-31.3","","-35.1","","70","","","","28","","18","","19.3","","99.89","","","","-44","","Ice Crystals"
"-115.14","67.82","KUGLUKTUK A","2300903","2021-02-20 12:00","2021","02","20","12:00","-32.0","","-35.9","","69","","","","28","","16","","19.3","","99.91","","","","-44","","Ice Crystals"
"-115.14","67.82","KUGLUKTUK A","2300903","2021-02-20 13:00","2021","02","20","13:00","-32.3","","-36.3","","69","","","","23","","16","","19.3","","99.95","","","","-45","","Ice Crystals"
"-115.14","67.82","KUGLUKTUK A","2300903","2021-02-20 14:00","2021","02","20","14:00","-31.4","","-35.4","","69","","","","25","","18","","19.3","","99.95","","","","-44","","Ice Crystals"
"-115.14","67.82","KUGLUKTUK A","2300903","2021-02-20 15:00","2021","02","20","15:00","-32.5","","-36.6","","68","","","","23","","17","","19.3","","99.94","","","","-45","","Ice Crystals"
"-115.14","67.82","KUGLUKTUK A","2300903","2021-02-20 16:00","2021","02","20","16:00","-32.4","","-36.3","","69","","","","24","","20","","19.3","","99.94","","","","-46","","Ice Crystals"
"-115.14","67.82","KUGLUKTUK A","2300903","2021-02-20 17:00","2021","02","20","17:00","-33.5","","-37.3","","70","","","","22","","18","","19.3","","99.95","","","","-47","","Ice Crystals"
"-115.14","67.82","KUGLUKTUK A","2300903","2021-02-20 18:00","2021","02","20","18:00","-34.5","","-38.1","","71","","","","23","","18","","24.1","","99.92","","","","-48","","Ice Crystals"
"-115.14","67.82","KUGLUKTUK A","2300903","2021-02-20 19:00","2021","02","20","19:00","-34.4","","-37.9","","71","","","","21","","14","","24.1","","99.90","","","","-46","","Ice Crystals"
"-115.14","67.82","KUGLUKTUK A","2300903","2021-02-20 20:00","2021","02","20","20:00","-33.3","","-36.8","","71","","","","21","","15","","24.1","","99.84","","","","-45","","Cloudy"
"-115.14","67.82","KUGLUKTUK A","2300903","2021-02-20 21:00","2021","02","20","21:00","-32.9","","-36.5","","71","","","","22","","16","","24.1","","99.82","","","","-45","","NA"
"-115.14","67.82","KUGLUKTUK A","2300903","2021-02-20 22:00","2021","02","20","22:00","-32.8","","-36.4","","71","","","","20","","11","","24.1","","99.76","","","","-43","","NA"
"-115.14","67.82","KUGLUKTUK A","2300903","2021-02-20 23:00","2021","02","20","23:00","-31.5","","-35.2","","70","","","","21","","12","","24.1","","99.71","","","","-42","","Cloudy"
"-115.14","67.82","KUGLUKTUK A","2300903","2021-02-21 00:00","2021","02","21","00:00","-30.6","","-34.5","","70","","","","21","","8","","16.1","","99.65","","","","-39","","Snow"
"-115.14","67.82","KUGLUKTUK A","2300903","2021-02-21 01:00","2021","02","21","01:00","-31.1","","-34.4","","73","","","","2","","5","","12.9","","99.59","","","","-37","","Snow"
"-115.14","67.82","KUGLUKTUK A","2300903","2021-02-21 02:00","2021","02","21","02:00","-30.4","","-33.8","","73","","","","13","","5","","12.9","","99.54","","","","-36","","Snow"
"-115.14","67.82","KUGLUKTUK A","2300903","2021-02-21 03:00","2021","02","21","03:00","-30.1","","-33.4","","74","","","","8","","4","","9.7","","99.49","","","","-35","","Snow"
"-115.14","67.82","KUGLUKTUK A","2300903","2021-02-21 04:00","2021","02","21","04:00","-29.7","","-32.9","","74","","","","12","","6","","12.9","","99.40","","","","-36","","Snow"
"-115.14","67.82","KUGLUKTUK A","2300903","2021-02-21 05:00","2021","02","21","05:00","-30.2","","-33.3","","75","","","","11","","8","","16.1","","99.37","","","","-38","","Snow"
"-115.14","67.82","KUGLUKTUK A","2300903","2021-02-21 06:00","2021","02","21","06:00","-30.4","","-33.5","","75","","","","15","","6","","19.3","","99.32","","","","-37","","Snow"
"-115.14","67.82","KUGLUKTUK A","2300903","2021-02-21 07:00","2021","02","21","07:00","-31.0","","-34.0","","76","","","","21","","4","","19.3","","99.31","","","","-36","","Snow"
"-115.14","67.82","KUGLUKTUK A","2300903","2021-02-21 08:00","2021","02","21","08:00","-33.1","","-36.3","","74","","","","22","","11","","19.3","","99.26","","","","-43","","Ice Crystals"
"-115.14","67.82","KUGLUKTUK A","2300903","2021-02-21 09:00","2021","02","21","09:00","-32.7","","-35.9","","74","","","","24","","6","","12.9","","99.22","","","","-40","","Ice Crystals"
"-115.14","67.82","KUGLUKTUK A","2300903","2021-02-21 10:00","2021","02","21","10:00","-31.5","","-34.5","","75","","","","22","","3","","16.1","","99.20","","","","-35","","Ice Crystals"
"-115.14","67.82","KUGLUKTUK A","2300903","2021-02-21 11:00","2021","02","21","11:00","-31.6","","-34.9","","73","","","","23","","8","","19.3","","99.18","","","","-40","","Ice Crystals"
"-115.14","67.82","KUGLUKTUK A","2300903","2021-02-21 12:00","2021","02","21","12:00","-31.7","","-35.1","","73","","","","23","","3","","19.3","","99.15","","","","-35","","Ice Crystals"
"-115.14","67.82","KUGLUKTUK A","2300903","2021-02-21 13:00","2021","02","21","13:00","-32.1","","-35.7","","71","","","","24","","10","","24.1","","99.16","","","","-42","","Ice Crystals"
"-115.14","67.82","KUGLUKTUK A","2300903","2021-02-21 14:00","2021","02","21","14:00","-31.7","","-35.4","","70","","","","22","","12","","24.1","","99.16","","","","-42","","Ice Crystals"
"-115.14","67.82","KUGLUKTUK A","2300903","2021-02-21 15:00","2021","02","21","15:00","-31.5","","-35.5","","69","","","","22","","5","","24.1","","99.16","","","","-37","","Ice Crystals"
"-115.14","67.82","KUGLUKTUK A","2300903","2021-02-21 16:00","2021","02","21","16:00","-32.2","","-36.0","","70","","","","25","","9","","24.1","","99.17","","","","-41","","Ice Crystals"
"-115.14","67.82","KUGLUKTUK A","2300903","2021-02-21 17:00","2021","02","21","17:00","-33.6","","-37.5","","69","","","","22","","10","","24.1","","99.22","","","","-43","","Ice Crystals"
"-115.14","67.82","KUGLUKTUK A","2300903","2021-02-21 18:00","2021","02","21","18:00","-34.6","","-38.3","","70","","","","22","","20","","24.1","","99.22","","","","-49","","Ice Crystals"
"-115.14","67.82","KUGLUKTUK A","2300903","2021-02-21 19:00","2021","02","21","19:00","-33.8","","-37.3","","71","","","","22","","16","","24.1","","99.24","","","","-46","","Ice Crystals"
"-115.14","67.82","KUGLUKTUK A","2300903","2021-02-21 20:00","2021","02","21","20:00","-34.0","","-37.7","","70","","","","20","","16","","24.1","","99.26","","","","-47","","Ice Crystals"
"-115.14","67.82","KUGLUKTUK A","2300903","2021-02-21 21:00","2021","02","21","21:00","-34.0","","-37.9","","69","","","","23","","28","","24.1","","99.25","","","","-50","","Ice Crystals,Blowing Snow"
"-115.14","67.82","KUGLUKTUK A","2300903","2021-02-21 22:00","2021","02","21","22:00","-33.8","","-37.6","","69","","","","23","","26","","24.1","","99.28","","","","-50","","NA"
"-115.14","67.82","KUGLUKTUK A","2300903","2021-02-21 23:00","2021","02","21","23:00","-33.9","","-37.9","","68","","","","22","","30","","24.1","","99.28","","","","-51","","Ice Crystals,Blowing Snow"
"-115.14","67.82","KUGLUKTUK A","2300903","2021-02-22 00:00","2021","02","22","00:00","-32.8","","-36.6","","69","","","","22","","27","","24.1","","99.30","","","","-49","","Ice Crystals,Blowing Snow"
"-115.14","67.82","KUGLUKTUK A","2300903","2021-02-22 01:00","2021","02","22","01:00","-32.9","","-36.8","","69","","","","23","","28","","24.1","","99.36","","","","-49","","Ice Crystals,Blowing Snow"
"-115.14","67.82","KUGLUKTUK A","2300903","2021-02-22 02:00","2021","02","22","02:00","-31.5","","-35.4","","70","","","","24","","37","","24.1","","99.40","","","","-49","","Ice Crystals,Blowing Snow"
"-115.14","67.82","KUGLUKTUK A","2300903","2021-02-22 03:00","2021","02","22","03:00","-32.9","","-36.8","","69","","","","20","","17","","24.1","","99.47","","","","-46","","Ice Crystals"
"-115.14","67.82","KUGLUKTUK A","2300903","2021-02-22 04:00","2021","02","22","04:00","-32.1","","-36.0","","69","","","","22","","22","","24.1","","99.49","","","","-46","","Ice Crystals,Blowing Snow"
"-115.14","67.82","KUGLUKTUK A","2300903","2021-02-22 05:00","2021","02","22","05:00","-31.6","","-35.4","","70","","","","24","","30","","24.1","","99.49","","","","-48","","Ice Crystals,Blowing Snow"
"-115.14","67.82","KUGLUKTUK A","2300903","2021-02-22 06:00","2021","02","22","06:00","-31.4","","-35.4","","69","","","","23","","25","","24.1","","99.54","","","","-46","","Ice Crystals,Blowing Snow"
"-115.14","67.82","KUGLUKTUK A","2300903","2021-02-22 07:00","2021","02","22","07:00","-28.6","","-32.5","","70","","","","24","","31","","24.1","","99.56","","","","-44","","Ice Crystals,Blowing Snow"
"-115.14","67.82","KUGLUKTUK A","2300903","2021-02-22 08:00","2021","02","22","08:00","-28.0","","-32.0","","70","","","","23","","28","","19.3","","99.63","","","","-43","","Ice Crystals,Blowing Snow"
"-115.14","67.82","KUGLUKTUK A","2300903","2021-02-22 09:00","2021","02","22","09:00","-28.1","","-32.0","","70","","","","23","","26","","24.1","","99.67","","","","-42","","Ice Crystals,Blowing Snow"
"-115.14","67.82","KUGLUKTUK A","2300903","2021-02-22 10:00","2021","02","22","10:00","-27.4","","-31.4","","70","","","","24","","32","","16.1","","99.67","","","","-43","","Ice Crystals,Blowing Snow"
"-115.14","67.82","KUGLUKTUK A","2300903","2021-02-22 11:00","2021","02","22","11:00","-26.6","","-30.4","","71","","","","24","","34","","9.7","","99.71","","","","-42","","Snow,Fog,Blowing Snow"
"-115.14","67.82","KUGLUKTUK A","2300903","2021-02-22 12:00","2021","02","22","12:00","-25.7","","-29.3","","73","","","","25","","38","","6.4","","99.77","","","","-41","","Snow,Blowing Snow"
"-115.14","67.82","KUGLUKTUK A","2300903","2021-02-22 13:00","2021","02","22","13:00","-25.1","","-28.7","","73","","","","25","","34","","8.1","","99.84","","","","-40","","Snow,Blowing Snow"
"-115.14","67.82","KUGLUKTUK A","2300903","2021-02-22 14:00","2021","02","22","14:00","-25.1","","-28.7","","73","","","","24","","27","","12.9","","99.92","","","","-39","","Snow,Blowing Snow"
"-115.14","67.82","KUGLUKTUK A","2300903","2021-02-22 15:00","2021","02","22","15:00","-25.3","","-29.3","","70","","","","24","","31","","19.3","","99.97","","","","-40","","Snow,Blowing Snow"
"-115.14","67.82","KUGLUKTUK A","2300903","2021-02-22 16:00","2021","02","22","16:00","-25.7","","-29.9","","69","","","","25","","31","","24.1","","100.03","","","","-40","","Snow,Blowing Snow"
"-115.14","67.82","KUGLUKTUK A","2300903","2021-02-22 17:00","2021","02","22","17:00","-26.1","","-30.1","","70","","","","25","","27","","24.1","","100.08","","","","-40","","Snow,Blowing Snow"
"-115.14","67.82","KUGLUKTUK A","2300903","2021-02-22 18:00","2021","02","22","18:00","-26.3","","-30.2","","70","","","","25","","27","","24.1","","100.15","","","","-40","","Blowing Snow"
"-115.14","67.82","KUGLUKTUK A","2300903","2021-02-22 19:00","2021","02","22","19:00","-25.7","","-29.5","","71","","","","25","","25","","24.1","","100.18","","","","-39","","NA"
"-115.14","67.82","KUGLUKTUK A","2300903","2021-02-22 20:00","2021","02","22","20:00","-26.9","","-30.4","","72","","","","24","","28","","24.1","","100.21","","","","-41","","Blowing Snow"
"-115.14","67.82","KUGLUKTUK A","2300903","2021-02-22 21:00","2021","02","22","21:00","-27.5","","-31.3","","71","","","","23","","21","","24.1","","100.24","","","","-40","","NA"
"-115.14","67.82","KUGLUKTUK A","2300903","2021-02-22 22:00","2021","02","22","22:00","-27.9","","-31.6","","71","","","","23","","20","","24.1","","100.28","","","","-40","","NA"
"-115.14","67.82","KUGLUKTUK A","2300903","2021-02-22 23:00","2021","02","22","23:00","-27.4","","-30.9","","73","","","","22","","22","","24.1","","100.33","","","","-40","","Mainly Clear"
"-115.14","67.82","KUGLUKTUK A","2300903","2021-02-23 00:00","2021","02","23","00:00","-26.9","","-30.3","","74","","","","22","","15","","12.9","","100.36","","","","-38","","Ice Crystals"
"-115.14","67.82","KUGLUKTUK A","2300903","2021-02-23 01:00","2021","02","23","01:00","-26.1","","-29.6","","73","","","","23","","19","","6.4","","100.43","","","","-38","","Ice Crystals"
"-115.14","67.82","KUGLUKTUK A","2300903","2021-02-23 02:00","2021","02","23","02:00","-26.6","","-30.2","","73","","","","24","","26","","9.7","","100.46","","","","-40","","Ice Crystals"
"-115.14","67.82","KUGLUKTUK A","2300903","2021-02-23 03:00","2021","02","23","03:00","-28.7","","-32.2","","72","","","","23","","21","","12.9","","100.54","","","","-42","","Ice Crystals"
"-115.14","67.82","KUGLUKTUK A","2300903","2021-02-23 04:00","2021","02","23","04:00","-29.3","","-32.5","","74","","","","23","","21","","12.9","","100.59","","","","-43","","Ice Crystals"
"-115.14","67.82","KUGLUKTUK A","2300903","2021-02-23 05:00","2021","02","23","05:00","-29.0","","-32.5","","73","","","","24","","30","","24.1","","100.61","","","","-44","","Ice Crystals"
"-115.14","67.82","KUGLUKTUK A","2300903","2021-02-23 06:00","2021","02","23","06:00","-29.3","","-32.8","","72","","","","25","","31","","16.1","","100.66","","","","-45","","Ice Crystals,Blowing Snow"
"-115.14","67.82","KUGLUKTUK A","2300903","2021-02-23 07:00","2021","02","23","07:00","-29.1","","-33.0","","70","","","","24","","27","","24.1","","100.72","","","","-44","","Ice Crystals,Blowing Snow"
"-115.14","67.82","KUGLUKTUK A","2300903","2021-02-23 08:00","2021","02","23","08:00","-28.7","","-32.9","","68","","","","26","","29","","24.1","","100.75","","","","-44","","Blowing Snow"
"-115.14","67.82","KUGLUKTUK A","2300903","2021-02-23 09:00","2021","02","23","09:00","-29.0","","-33.2","","68","","","","21","","18","","19.3","","100.80","","","","-41","","NA"
"-115.14","67.82","KUGLUKTUK A","2300903","2021-02-23 10:00","2021","02","23","10:00","-28.1","","-32.1","","69","","","","24","","23","","19.3","","100.86","","","","-42","","Blowing Snow"
"-115.14","67.82","KUGLUKTUK A","2300903","2021-02-23 11:00","2021","02","23","11:00","-28.2","","-32.0","","71","","","","24","","26","","19.3","","100.91","","","","-42","","Ice Crystals,Blowing Snow"
"-115.14","67.82","KUGLUKTUK A","2300903","2021-02-23 12:00","2021","02","23","12:00","-26.8","","-30.4","","72","","","","24","","28","","19.3","","100.90","","","","-41","","Ice Crystals,Blowing Snow"
"-115.14","67.82","KUGLUKTUK A","2300903","2021-02-23 13:00","2021","02","23","13:00","-25.7","","-29.9","","68","","","","27","","28","","19.3","","100.96","","","","-40","","Ice Crystals,Blowing Snow"
"-115.14","67.82","KUGLUKTUK A","2300903","2021-02-23 14:00","2021","02","23","14:00","-26.1","","-30.2","","69","","","","25","","32","","16.1","","101.01","","","","-41","","Ice Crystals,Blowing Snow"
"-115.14","67.82","KUGLUKTUK A","2300903","2021-02-23 15:00","2021","02","23","15:00","-25.5","","-30.2","","65","","","","27","","28","","19.3","","101.06","","","","-39","","Ice Crystals,Blowing Snow"
"-115.14","67.82","KUGLUKTUK A","2300903","2021-02-23 16:00","2021","02","23","16:00","-26.8","","-31.4","","66","","","","25","","25","","24.1","","101.12","","","","-40","","Ice Crystals,Blowing Snow"
"-115.14","67.82","KUGLUKTUK A","2300903","2021-02-23 17:00","2021","02","23","17:00","-28.2","","-32.2","","69","","","","24","","26","","24.1","","101.12","","","","-42","","Ice Crystals,Blowing Snow"
"-115.14","67.82","KUGLUKTUK A","2300903","2021-02-23 18:00","2021","02","23","18:00","-27.6","","-31.6","","70","","","","26","","44","","12.9","","101.10","","","","-45","","Ice Crystals,Blowing Snow"
"-115.14","67.82","KUGLUKTUK A","2300903","2021-02-23 19:00","2021","02","23","19:00","-27.9","","-31.9","","69","","","","26","","34","","12.9","","101.17","","","","-44","","Ice Crystals,Blowing Snow"
"-115.14","67.82","KUGLUKTUK A","2300903","2021-02-23 20:00","2021","02","23","20:00","-27.6","","-31.7","","69","","","","27","","37","","9.7","","101.22","","","","-44","","Ice Crystals,Blowing Snow"
"-115.14","67.82","KUGLUKTUK A","2300903","2021-02-23 21:00","2021","02","23","21:00","-27.4","","-31.7","","68","","","","26","","39","","16.1","","101.20","","","","-44","","Ice Crystals,Blowing Snow"
"-115.14","67.82","KUGLUKTUK A","2300903","2021-02-23 22:00","2021","02","23","22:00","-26.8","","-31.7","","64","","","","26","","31","","24.1","","101.23","","","","-42","","Ice Crystals,Blowing Snow"
"-115.14","67.82","KUGLUKTUK A","2300903","2021-02-23 23:00","2021","02","23","23:00","-26.4","","-31.6","","63","","","","26","","30","","16.1","","101.18","","","","-41","","Ice Crystals,Blowing Snow"
"-115.14","67.82","KUGLUKTUK A","2300903","2021-02-24 00:00","2021","02","24","00:00","-26.1","","-30.9","","65","","","","26","","30","","16.1","","101.16","","","","-41","","Ice Crystals,Blowing Snow"
"-115.14","67.82","KUGLUKTUK A","2300903","2021-02-24 01:00","2021","02","24","01:00","-26.0","","-30.7","","66","","","","26","","33","","16.1","","101.14","","","","-41","","Ice Crystals,Blowing Snow"
"-115.14","67.82","KUGLUKTUK A","2300903","2021-02-24 02:00","2021","02","24","02:00","-25.7","","-30.6","","64","","","","25","","33","","16.1","","101.14","","","","-41","","Ice Crystals,Blowing Snow"
"-115.14","67.82","KUGLUKTUK A","2300903","2021-02-24 03:00","2021","02","24","03:00","-25.6","","-30.4","","64","","","","25","","28","","16.1","","101.10","","","","-39","","Ice Crystals,Blowing Snow"
"-115.14","67.82","KUGLUKTUK A","2300903","2021-02-24 04:00","2021","02","24","04:00","-25.6","","-30.2","","66","","","","24","","27","","9.7","","101.05","","","","-39","","Ice Crystals,Blowing Snow"
"-115.14","67.82","KUGLUKTUK A","2300903","2021-02-24 05:00","2021","02","24","05:00","-25.7","","-29.0","","75","","","","24","","37","","2.4","","100.91","","","","-41","","Snow,Blowing Snow"
"-115.14","67.82","KUGLUKTUK A","2300903","2021-02-24 06:00","2021","02","24","06:00","-25.2","","-28.3","","76","","","","25","","39","","1.2","","100.82","","","","-41","","Snow,Blowing Snow"
"-115.14","67.82","KUGLUKTUK A","2300903","2021-02-24 07:00","2021","02","24","07:00","-25.0","","-28.1","","76","","","","26","","41","","1.2","","100.74","","","","-41","","Snow,Blowing Snow"
"-115.14","67.82","KUGLUKTUK A","2300903","2021-02-24 08:00","2021","02","24","08:00","-25.2","","-28.3","","76","","","","27","","32","","2.0","","100.68","","","","-40","","Snow,Blowing Snow"
"-115.14","67.82","KUGLUKTUK A","2300903","2021-02-24 09:00","2021","02","24","09:00","-25.8","","-29.5","","72","","","","30","","34","","3.2","","100.67","","","","-41","","Snow,Blowing Snow"
"-115.14","67.82","KUGLUKTUK A","2300903","2021-02-24 10:00","2021","02","24","10:00","-27.9","","-32.3","","67","","","","33","","27","","24.1","","100.71","","","","-42","","Blowing Snow"
"-115.14","67.82","KUGLUKTUK A","2300903","2021-02-24 11:00","2021","02","24","11:00","-29.5","","-34.1","","66","","","","33","","21","","19.3","","100.79","","","","-43","","Blowing Snow"
"-115.14","67.82","KUGLUKTUK A","2300903","2021-02-24 12:00","2021","02","24","12:00","-31.1","","-35.0","","69","","","","33","","33","","8.1","","100.87","","","","-48","","Blowing Snow"
"-115.14","67.82","KUGLUKTUK A","2300903","2021-02-24 13:00","2021","02","24","13:00","-32.0","","-36.2","","67","","","","33","","40","","9.7","","100.91","","","","-50","","Blowing Snow"
"-115.14","67.82","KUGLUKTUK A","2300903","2021-02-24 14:00","2021","02","24","14:00","-32.9","","-36.8","","69","","","","31","","43","","2.4","","101.00","","","","-52","","Blowing Snow"
"-115.14","67.82","KUGLUKTUK A","2300903","2021-02-24 15:00","2021","02","24","15:00","-34.2","","-38.0","","69","","","","32","","42","","0.8","","101.10","","","","-53","","Snow,Blowing Snow"
"-115.14","67.82","KUGLUKTUK A","2300903","2021-02-24 16:00","2021","02","24","16:00","-35.4","","-39.3","","68","","","","30","","33","","1.6","","101.22","","","","-53","","Snow,Blowing Snow"
"-115.14","67.82","KUGLUKTUK A","2300903","2021-02-24 17:00","2021","02","24","17:00","-35.8","","-39.6","","70","","","","31","","37","","1.6","","101.28","","","","-55","","Snow,Blowing Snow"
"-115.14","67.82","KUGLUKTUK A","2300903","2021-02-24 18:00","2021","02","24","18:00","-36.5","","-40.2","","70","","","","32","","37","","1.2","","101.33","","","","-56","","Snow,Blowing Snow"
"-115.14","67.82","KUGLUKTUK A","2300903","2021-02-24 19:00","2021","02","24","19:00","-37.0","","-40.8","","69","","","","31","","29","","2.0","","101.38","","","","-55","","Ice Crystals,Blowing Snow"
"-115.14","67.82","KUGLUKTUK A","2300903","2021-02-24 20:00","2021","02","24","20:00","-37.5","","-41.4","","68","","","","28","","28","","6.4","","101.41","","","","-55","","Ice Crystals,Blowing Snow"
"-115.14","67.82","KUGLUKTUK A","2300903","2021-02-24 21:00","2021","02","24","21:00","-37.6","","-41.4","","68","","","","31","","37","","4.8","","101.41","","","","-57","","Ice Crystals,Blowing Snow"
"-115.14","67.82","KUGLUKTUK A","2300903","2021-02-24 22:00","2021","02","24","22:00","-37.6","","-41.4","","69","","","","26","","26","","1.2","","101.44","","","","-55","","Ice Crystals,Blowing Snow"
"-115.14","67.82","KUGLUKTUK A","2300903","2021-02-24 23:00","2021","02","24","23:00","-37.3","","-41.2","","68","","","","29","","31","","1.2","","101.38","","","","-55","","Ice Crystals,Blowing Snow"
"-115.14","67.82","KUGLUKTUK A","2300903","2021-02-25 00:00","2021","02","25","00:00","-37.2","","-41.2","","67","","","","25","","26","","2.4","","101.41","","","","-54","","Fog,Blowing Snow"
"-115.14","67.82","KUGLUKTUK A","2300903","2021-02-25 01:00","2021","02","25","01:00","-37.7","","-41.7","","68","","","","27","","34","","6.4","","101.35","","","","-57","","Ice Crystals,Blowing Snow"
"-115.14","67.82","KUGLUKTUK A","2300903","2021-02-25 02:00","2021","02","25","02:00","-37.2","","-41.0","","68","","","","24","","41","","3.2","","101.37","","","","-57","","Ice Crystals,Blowing Snow"
"-115.14","67.82","KUGLUKTUK A","2300903","2021-02-25 03:00","2021","02","25","03:00","-37.6","","-41.6","","67","","","","29","","30","","3.6","","101.37","","","","-56","","Ice Crystals,Blowing Snow"
"-115.14","67.82","KUGLUKTUK A","2300903","2021-02-25 04:00","2021","02","25","04:00","-37.5","","-41.7","","66","","","","25","","30","","3.2","","101.37","","","","-55","","Ice Crystals,Blowing Snow"
"-115.14","67.82","KUGLUKTUK A","2300903","2021-02-25 05:00","2021","02","25","05:00","-37.2","","-41.4","","66","","","","25","","29","","12.9","","101.36","","","","-55","","Ice Crystals,Blowing Snow"
"-115.14","67.82","KUGLUKTUK A","2300903","2021-02-25 06:00","2021","02","25","06:00","-37.0","","-41.4","","65","","","","27","","34","","12.9","","101.32","","","","-56","","Ice Crystals,Blowing Snow"
"-115.14","67.82","KUGLUKTUK A","2300903","2021-02-25 07:00","2021","02","25","07:00","-36.6","","-41.0","","65","","","","27","","35","","24.1","","101.29","","","","-55","","Blowing Snow"
"-115.14","67.82","KUGLUKTUK A","2300903","2021-02-25 08:00","2021","02","25","08:00","-35.9","","-40.4","","64","","","","26","","33","","24.1","","101.27","","","","-54","","Blowing Snow"
"-115.14","67.82","KUGLUKTUK A","2300903","2021-02-25 09:00","2021","02","25","09:00","-35.2","","-40.2","","62","","","","27","","35","","24.1","","101.23","","","","-53","","Blowing Snow"
"-115.14","67.82","KUGLUKTUK A","2300903","2021-02-25 10:00","2021","02","25","10:00","-34.6","","-40.1","","59","","","","26","","31","","16.1","","101.21","","","","-52","","Blowing Snow"
"-115.14","67.82","KUGLUKTUK A","2300903","2021-02-25 11:00","2021","02","25","11:00","-35.5","","-40.7","","60","","","","24","","34","","16.1","","101.15","","","","-54","","Blowing Snow"
"-115.14","67.82","KUGLUKTUK A","2300903","2021-02-25 12:00","2021","02","25","12:00","-34.0","","-40.1","","55","","","","26","","28","","24.1","","101.15","","","","-50","","Blowing Snow"
"-115.14","67.82","KUGLUKTUK A","2300903","2021-02-25 13:00","2021","02","25","13:00","-32.6","","-38.8","","55","","","","26","","28","","24.1","","101.09","","","","-49","","Blowing Snow"
"-115.14","67.82","KUGLUKTUK A","2300903","2021-02-25 14:00","2021","02","25","14:00","-32.4","","-38.7","","55","","","","25","","32","","24.1","","101.04","","","","-49","","Blowing Snow"
"-115.14","67.82","KUGLUKTUK A","2300903","2021-02-25 15:00","2021","02","25","15:00","-33.1","","-38.5","","60","","","","24","","34","","16.1","","100.99","","","","-51","","Blowing Snow"
"-115.14","67.82","KUGLUKTUK A","2300903","2021-02-25 16:00","2021","02","25","16:00","-33.5","","-38.1","","64","","","","24","","32","","9.7","","100.98","","","","-51","","Fog,Blowing Snow"
"-115.14","67.82","KUGLUKTUK A","2300903","2021-02-25 17:00","2021","02","25","17:00","-33.5","","-37.5","","68","","","","24","","34","","6.4","","100.99","","","","-51","","Fog,Blowing Snow"
"-115.14","67.82","KUGLUKTUK A","2300903","2021-02-25 18:00","2021","02","25","18:00","-33.4","","-37.2","","70","","","","24","","40","","4.8","","100.93","","","","-52","","Ice Crystals,Fog,Blowing Snow"
"-115.14","67.82","KUGLUKTUK A","2300903","2021-02-25 19:00","2021","02","25","19:00","-32.6","","-36.3","","71","","","","24","","38","","2.0","","100.88","","","","-51","","Ice Crystals,Fog,Blowing Snow"
"-115.14","67.82","KUGLUKTUK A","2300903","2021-02-25 20:00","2021","02","25","20:00","-32.1","","-35.8","","71","","","","25","","35","","1.6","","100.91","","","","-49","","Ice Crystals,Blowing Snow"
"-115.14","67.82","KUGLUKTUK A","2300903","2021-02-25 21:00","2021","02","25","21:00","-31.4","","-35.1","","70","","","","27","","37","","2.4","","100.89","","","","-49","","Ice Crystals,Blowing Snow"
"-115.14","67.82","KUGLUKTUK A","2300903","2021-02-25 22:00","2021","02","25","22:00","-30.5","","-34.0","","72","","","","27","","30","","4.8","","100.86","","","","-46","","Ice Crystals,Blowing Snow"
"-115.14","67.82","KUGLUKTUK A","2300903","2021-02-25 23:00","2021","02","25","23:00","-30.2","","-34.0","","70","","","","27","","29","","9.7","","100.86","","","","-46","","Ice Crystals,Blowing Snow"
"-115.14","67.82","KUGLUKTUK A","2300903","2021-02-26 00:00","2021","02","26","00:00","-30.0","","-33.8","","70","","","","28","","28","","4.8","","100.83","","","","-45","","Ice Crystals,Blowing Snow"
"-115.14","67.82","KUGLUKTUK A","2300903","2021-02-26 01:00","2021","02","26","01:00","-29.5","","-33.4","","70","","","","29","","37","","4.8","","100.82","","","","-46","","Ice Crystals,Blowing Snow"
"-115.14","67.82","KUGLUKTUK A","2300903","2021-02-26 02:00","2021","02","26","02:00","-29.2","","-33.5","","67","","","","29","","36","","4.0","","100.83","","","","-46","","Ice Crystals,Blowing Snow"
"-115.14","67.82","KUGLUKTUK A","2300903","2021-02-26 03:00","2021","02","26","03:00","-29.2","","-33.2","","69","","","","30","","30","","3.2","","100.88","","","","-45","","Ice Crystals,Blowing Snow"
"-115.14","67.82","KUGLUKTUK A","2300903","2021-02-26 04:00","2021","02","26","04:00","-29.6","","-33.7","","68","","","","31","","34","","3.2","","100.87","","","","-46","","Ice Crystals,Blowing Snow"
"-115.14","67.82","KUGLUKTUK A","2300903","2021-02-26 05:00","2021","02","26","05:00","-29.5","","-33.4","","69","","","","30","","28","","3.2","","100.86","","","","-45","","Ice Crystals,Blowing Snow"
"-115.14","67.82","KUGLUKTUK A","2300903","2021-02-26 06:00","2021","02","26","06:00","-29.6","","-33.8","","68","","","","31","","35","","4.0","","100.90","","","","-46","","Ice Crystals,Blowing Snow"
"-115.14","67.82","KUGLUKTUK A","2300903","2021-02-26 07:00","2021","02","26","07:00","-29.8","","-34.5","","65","","","","31","","35","","12.9","","100.90","","","","-46","","Snow,Blowing Snow"
"-115.14","67.82","KUGLUKTUK A","2300903","2021-02-26 08:00","2021","02","26","08:00","-29.9","","-35.0","","63","","","","31","","26","","16.1","","100.91","","","","-45","","Snow,Blowing Snow"
"-115.14","67.82","KUGLUKTUK A","2300903","2021-02-26 09:00","2021","02","26","09:00","-30.9","","-35.5","","64","","","","30","","18","","16.1","","100.97","","","","-44","","Blowing Snow"
"-115.14","67.82","KUGLUKTUK A","2300903","2021-02-26 10:00","2021","02","26","10:00","-30.7","","-35.4","","64","","","","29","","36","","16.1","","100.92","","","","-48","","Blowing Snow"
"-115.14","67.82","KUGLUKTUK A","2300903","2021-02-26 11:00","2021","02","26","11:00","-30.7","","-35.6","","63","","","","29","","27","","16.1","","100.96","","","","-46","","Blowing Snow"
"-115.14","67.82","KUGLUKTUK A","2300903","2021-02-26 12:00","2021","02","26","12:00","-30.3","","-35.1","","64","","","","29","","33","","6.4","","100.94","","","","-47","","Snow,Fog,Blowing Snow"
"-115.14","67.82","KUGLUKTUK A","2300903","2021-02-26 13:00","2021","02","26","13:00","-30.0","","-34.6","","66","","","","30","","34","","4.8","","100.95","","","","-46","","Snow,Fog,Blowing Snow"
"-115.14","67.82","KUGLUKTUK A","2300903","2021-02-26 14:00","2021","02","26","14:00","-30.1","","-34.3","","68","","","","31","","41","","4.8","","100.96","","","","-48","","Snow,Fog,Blowing Snow"
"-115.14","67.82","KUGLUKTUK A","2300903","2021-02-26 15:00","2021","02","26","15:00","-30.3","","-34.3","","69","","","","32","","40","","4.8","","101.02","","","","-48","","Snow,Fog,Blowing Snow"
"-115.14","67.82","KUGLUKTUK A","2300903","2021-02-26 16:00","2021","02","26","16:00","-31.2","","-35.2","","69","","","","34","","36","","3.2","","101.08","","","","-48","","Snow,Fog,Blowing Snow"
"-115.14","67.82","KUGLUKTUK A","2300903","2021-02-26 17:00","2021","02","26","17:00","-31.5","","-35.5","","68","","","","33","","32","","3.6","","101.14","","","","-48","","Snow,Fog,Blowing Snow"
"-115.14","67.82","KUGLUKTUK A","2300903","2021-02-26 18:00","2021","02","26","18:00","-32.0","","-36.3","","67","","","","33","","35","","16.1","","101.18","","","","-49","","Snow,Blowing Snow"
"-115.14","67.82","KUGLUKTUK A","2300903","2021-02-26 19:00","2021","02","26","19:00","-32.5","","-37.0","","66","","","","32","","33","","16.1","","101.20","","","","-50","","Snow,Blowing Snow"
"-115.14","67.82","KUGLUKTUK A","2300903","2021-02-26 20:00","2021","02","26","20:00","-33.9","","-38.2","","66","","","","32","","22","","24.1","","101.26","","","","-49","","Blowing Snow"
"-115.14","67.82","KUGLUKTUK A","2300903","2021-02-26 21:00","2021","02","26","21:00","-35.7","","-39.6","","68","","","","3","","14","","24.1","","101.41","","","","-48","","NA"
"-115.14","67.82","KUGLUKTUK A","2300903","2021-02-26 22:00","2021","02","26","22:00","-37.4","","-41.5","","66","","","","33","","13","","24.1","","101.44","","","","-50","","NA"
"-115.14","67.82","KUGLUKTUK A","2300903","2021-02-26 23:00","2021","02","26","23:00","-38.1","","-42.2","","67","","","","35","","13","","24.1","","101.52","","","","-50","","Clear"
"-115.14","67.82","KUGLUKTUK A","2300903","2021-02-27 00:00","2021","02","27","00:00","-38.9","","-43.0","","66","","","","36","","22","","24.1","","101.61","","","","-55","","NA"
"-115.14","67.82","KUGLUKTUK A","2300903","2021-02-27 01:00","2021","02","27","01:00","-39.6","","-43.7","","66","","","","36","","14","","24.1","","101.72","","","","-53","","NA"
"-115.14","67.82","KUGLUKTUK A","2300903","2021-02-27 02:00","2021","02","27","02:00","-40.1","","-44.2","","66","","","","36","","7","","24.1","","101.81","","","","-49","","Clear"
"-115.14","67.82","KUGLUKTUK A","2300903","2021-02-27 03:00","2021","02","27","03:00","-40.6","","-44.8","","66","","","","4","","8","","24.1","","101.87","","","","-50","","NA"
"-115.14","67.82","KUGLUKTUK A","2300903","2021-02-27 04:00","2021","02","27","04:00","-40.4","","-44.5","","66","","","","31","","4","","24.1","","101.93","","","","-46","","NA"
"-115.14","67.82","KUGLUKTUK A","2300903","2021-02-27 05:00","2021","02","27","05:00","-42.7","","-46.7","","67","","","","22","","18","","24.1","","101.97","","","","-58","","Clear"
"-115.14","67.82","KUGLUKTUK A","2300903","2021-02-27 06:00","2021","02","27","06:00","-43.2","","-47.1","","67","","","","22","","19","","24.1","","101.99","","","","-59","","NA"
"-115.14","67.82","KUGLUKTUK A","2300903","2021-02-27 07:00","2021","02","27","07:00","-43.2","","-47.2","","66","","","","23","","26","","24.1","","102.02","","","","-62","","NA"
"-115.14","67.82","KUGLUKTUK A","2300903","2021-02-27 08:00","2021","02","27","08:00","-42.5","","-46.5","","66","","","","23","","26","","24.1","","102.03","","","","-61","","Clear"
"-115.14","67.82","KUGLUKTUK A","2300903","2021-02-27 09:00","2021","02","27","09:00","-42.0","","-46.1","","66","","","","23","","30","","24.1","","102.03","","","","-61","","NA"
"-115.14","67.82","KUGLUKTUK A","2300903","2021-02-27 10:00","2021","02","27","10:00","-41.0","","-45.1","","65","","","","23","","30","","24.1","","102.04","","","","-60","","NA"
"-115.14","67.82","KUGLUKTUK A","2300903","2021-02-27 11:00","2021","02","27","11:00","-38.8","","-43.1","","65","","","","24","","28","","24.1","","102.05","","","","-57","","Blowing Snow"
"-115.14","67.82","KUGLUKTUK A","2300903","2021-02-27 12:00","2021","02","27","12:00","-37.8","","-42.1","","65","","","","24","","32","","24.1","","102.06","","","","-56","","Blowing Snow"
"-115.14","67.82","KUGLUKTUK A","2300903","2021-02-27 13:00","2021","02","27","13:00","-36.6","","-41.2","","64","","","","23","","27","","24.1","","102.09","","","","-53","","Blowing Snow"
"-115.14","67.82","KUGLUKTUK A","2300903","2021-02-27 14:00","2021","02","27","14:00","-36.1","","-40.8","","63","","","","24","","32","","24.1","","102.06","","","","-54","","Blowing Snow"
"-115.14","67.82","KUGLUKTUK A","2300903","2021-02-27 15:00","2021","02","27","15:00","-35.0","","-40.0","","62","","","","24","","32","","24.1","","102.03","","","","-53","","Blowing Snow"
"-115.14","67.82","KUGLUKTUK A","2300903","2021-02-27 16:00","2021","02","27","16:00","-34.2","","-39.2","","62","","","","24","","32","","24.1","","102.04","","","","-52","","Blowing Snow"
"-115.14","67.82","KUGLUKTUK A","2300903","2021-02-27 17:00","2021","02","27","17:00","-35.2","","-39.9","","63","","","","22","","31","","24.1","","102.03","","","","-53","","Blowing Snow"
"-115.14","67.82","KUGLUKTUK A","2300903","2021-02-27 18:00","2021","02","27","18:00","-35.2","","-39.8","","64","","","","21","","23","","24.1","","102.02","","","","-51","","Blowing Snow"
"-115.14","67.82","KUGLUKTUK A","2300903","2021-02-27 19:00","2021","02","27","19:00","-35.4","","-39.9","","64","","","","23","","21","","24.1","","102.01","","","","-50","","Ice Crystals"
"-115.14","67.82","KUGLUKTUK A","2300903","2021-02-27 20:00","2021","02","27","20:00","-35.6","","-39.9","","66","","","","24","","22","","24.1","","102.00","","","","-51","","Clear"
"-115.14","67.82","KUGLUKTUK A","2300903","2021-02-27 21:00","2021","02","27","21:00","-34.7","","-39.3","","64","","","","25","","28","","24.1","","101.96","","","","-51","","NA"
"-115.14","67.82","KUGLUKTUK A","2300903","2021-02-27 22:00","2021","02","27","22:00","-34.4","","-39.0","","64","","","","24","","25","","24.1","","101.95","","","","-50","","NA"
"-115.14","67.82","KUGLUKTUK A","2300903","2021-02-27 23:00","2021","02","27","23:00","-35.3","","-39.7","","65","","","","24","","31","","24.1","","101.91","","","","-53","","Clear"
"-115.14","67.82","KUGLUKTUK A","2300903","2021-02-28 00:00","2021","02","28","00:00","-35.7","","-39.9","","66","","","","24","","32","","24.1","","101.91","","","","-54","","NA"
"-115.14","67.82","KUGLUKTUK A","2300903","2021-02-28 01:00","2021","02","28","01:00","-35.8","","-39.7","","68","","","","23","","26","","24.1","","101.89","","","","-52","","NA"
"-115.14","67.82","KUGLUKTUK A","2300903","2021-02-28 02:00","2021","02","28","02:00","-35.9","","-40.1","","66","","","","23","","19","","24.1","","101.95","","","","-50","","Clear"
"-115.14","67.82","KUGLUKTUK A","2300903","2021-02-28 03:00","2021","02","28","03:00","-35.2","","-39.2","","67","","","","24","","26","","24.1","","101.94","","","","-51","","NA"
"-115.14","67.82","KUGLUKTUK A","2300903","2021-02-28 04:00","2021","02","28","04:00","-35.5","","-39.5","","68","","","","24","","26","","24.1","","101.98","","","","-52","","NA"
"-115.14","67.82","KUGLUKTUK A","2300903","2021-02-28 05:00","2021","02","28","05:00","-34.3","","-38.6","","66","","","","24","","31","","24.1","","101.97","","","","-51","","Mostly Cloudy"
"-115.14","67.82","KUGLUKTUK A","2300903","2021-02-28 06:00","2021","02","28","06:00","-34.3","","-38.9","","64","","","","24","","32","","24.1","","101.96","","","","-52","","NA"
"-115.14","67.82","KUGLUKTUK A","2300903","2021-02-28 07:00","2021","02","28","07:00","-34.5","","-39.2","","64","","","","23","","25","","24.1","","101.96","","","","-50","","NA"
"-115.14","67.82","KUGLUKTUK A","2300903","2021-02-28 08:00","2021","02","28","08:00","-33.0","","-37.8","","64","","","","24","","31","","24.1","","101.92","","","","-50","","Cloudy"
"-115.14","67.82","KUGLUKTUK A","2300903","2021-02-28 09:00","2021","02","28","09:00","-32.5","","-37.5","","62","","","","22","","28","","24.1","","101.89","","","","-48","","NA"
"-115.14","67.82","KUGLUKTUK A","2300903","2021-02-28 10:00","2021","02","28","10:00","-31.2","","-36.3","","62","","","","24","","34","","24.1","","101.92","","","","-48","","Blowing Snow"
"-115.14","67.82","KUGLUKTUK A","2300903","2021-02-28 11:00","2021","02","28","11:00","-30.8","","-36.1","","61","","","","24","","32","","24.1","","101.93","","","","-47","","Blowing Snow"
"-115.14","67.82","KUGLUKTUK A","2300903","2021-02-28 12:00","2021","02","28","12:00","-30.1","","-35.6","","60","","","","24","","31","","24.1","","101.93","","","","-46","","Blowing Snow"
"-115.14","67.82","KUGLUKTUK A","2300903","2021-02-28 13:00","2021","02","28","13:00","-30.5","","-35.9","","61","","","","24","","31","","24.1","","101.94","","","","-46","","Blowing Snow"
"-115.14","67.82","KUGLUKTUK A","2300903","2021-02-28 14:00","2021","02","28","14:00","-30.2","","-35.6","","60","","","","23","","27","","24.1","","101.91","","","","-45","","Blowing Snow"
"-115.14","67.82","KUGLUKTUK A","2300903","2021-02-28 15:00","2021","02","28","15:00","-30.6","","-36.2","","60","","","","23","","27","","24.1","","101.89","","","","-46","","Blowing Snow"
"-115.14","67.82","KUGLUKTUK A","2300903","2021-02-28 16:00","2021","02","28","16:00","-31.1","","-36.4","","60","","","","23","","31","","24.1","","101.88","","","","-47","","Blowing Snow"
"-115.14","67.82","KUGLUKTUK A","2300903","2021-02-28 17:00","2021","02","28","17:00","-31.6","","-36.9","","60","","","","22","","26","","24.1","","101.89","","","","-47","","Blowing Snow"
"-115.14","67.82","KUGLUKTUK A","2300903","2021-02-28 18:00","2021","02","28","18:00","-32.5","","-37.6","","62","","","","23","","29","","24.1","","101.86","","","","-49","","Blowing Snow"
"-115.14","67.82","KUGLUKTUK A","2300903","2021-02-28 19:00","2021","02","28","19:00","-33.2","","-38.2","","62","","","","23","","27","","24.1","","101.84","","","","-49","","NA"
"-115.14","67.82","KUGLUKTUK A","2300903","2021-02-28 20:00","2021","02","28","20:00","-33.0","","-38.2","","61","","","","23","","28","","24.1","","101.80","","","","-49","","Ice Crystals"
"-115.14","67.82","KUGLUKTUK A","2300903","2021-02-28 21:00","2021","02","28","21:00","-32.5","","-37.9","","60","","","","23","","29","","24.1","","101.81","","","","-49","","Ice Crystals,Blowing Snow"
"-115.14","67.82","KUGLUKTUK A","2300903","2021-02-28 22:00","2021","02","28","22:00","-32.0","","-37.0","","62","","","","23","","25","","24.1","","101.79","","","","-47","","Snow"
"-115.14","67.82","KUGLUKTUK A","2300903","2021-02-28 23:00","2021","02","28","23:00","-31.5","","-36.8","","60","","","","24","","28","","24.1","","101.75","","","","-47","","Snow,Blowing Snow"
