"Longitude (x)","Latitude (y)","Station Name","Climate ID","Date/Time (LST)","Year","Month","Day","Time (LST)","Temp (°C)","Temp Flag","Dew Point Temp (°C)","Dew Point Temp Flag","Rel Hum (%)","Rel Hum Flag","Precip. Amount (mm)","Precip. Amount Flag","Wind Dir (10s deg)","Wind Dir Flag","Wind Spd (km/h)","Wind Spd Flag","Visibility (km)","Visibility Flag","Stn Press (kPa)","Stn Press Flag","Hmdx","Hmdx Flag","Wind Chill","Wind Chill Flag","Weather"
"-115.14","67.82","KUGLUKTUK A","2300903","2021-03-01 00:00","2021","03","01","00:00","-31.0","","-36.5","","59","","","","24","","30","","24.1","","101.74","","","","-47","","Snow,Blowing Snow"
"-115.14","67.82","KUGLUKTUK A","2300903","2021-03-01 01:00","2021","03","01","01:00","-30.6","","-36.1","","60","","","","24","","37","","9.7","","101.73","","","","-48","","Snow,Blowing Snow"
"-115.14","67.82","KUGLUKTUK A","2300903","2021-03-01 02:00","2021","03","01","02:00","-30.2","","-35.4","","61","","","","23","","34","","16.1","","101.72","","","","-47","","Snow,Blowing Snow"
"-115.14","67.82","KUGLUKTUK A","2300903","2021-03-01 03:00","2021","03","01","03:00","-29.8","","-35.1","","61","","","","23","","34","","12.9","","101.73","","","","-46","","Snow,Blowing Snow"
"-115.14","67.82","KUGLUKTUK A","2300903","2021-03-01 04:00","2021","03","01","04:00","-29.4","","-35.1","","59","","","","24","","32","","16.1","","101.73","","","","-45","","Snow,Blowing Snow"
"-115.14","67.82","KUGLUKTUK A","2300903","2021-03-01 05:00","2021","03","01","05:00","-29.8","","-35.1","","61","","","","24","","37","","16.1","","101.66","","","","-47","","Snow,Blowing Snow"
"-115.14","67.82","KUGLUKTUK A","2300903","2021-03-01 06:00","2021","03","01","06:00","-30.2","","-35.3","","62","","","","24","","35","","16.1","","101.64","","","","-47","","Snow,Blowing Snow"
"-115.14","67.82","KUGLUKTUK A","2300903","2021-03-01 07:00","2021","03","01","07:00","-29.9","","-34.8","","64","","","","23","","28","","16.1","","101.60","","","","-45","","Snow,Blowing Snow"
"-115.14","67.82","KUGLUKTUK A","2300903","2021-03-01 08:00","2021","03","01","08:00","-29.6","","-34.3","","65","","","","25","","34","","12.9","","101.55","","","","-46","","Snow,Blowing Snow"
"-115.14","67.82","KUGLUKTUK A","2300903","2021-03-01 09:00","2021","03","01","09:00","-29.5","","-33.8","","67","","","","23","","31","","12.9","","101.50","","","","-45","","Blowing Snow"
"-115.14","67.82","KUGLUKTUK A","2300903","2021-03-01 10:00","2021","03","01","10:00","-28.7","","-32.5","","70","","","","24","","31","","12.9","","101.49","","","","-44","","Blowing Snow"
"-115.14","67.82","KUGLUKTUK A","2300903","2021-03-01 11:00","2021","03","01","11:00","-29.2","","-33.3","","68","","","","24","","27","","8.1","","101.45","","","","-44","","Ice Crystals,Blowing Snow"
"-115.14","67.82","KUGLUKTUK A","2300903","2021-03-01 12:00","2021","03","01","12:00","-28.8","","-32.5","","71","","","","23","","25","","12.9","","101.43","","","","-43","","Ice Crystals,Blowing Snow"
"-115.14","67.82","KUGLUKTUK A","2300903","2021-03-01 13:00","2021","03","01","13:00","-28.3","","-32.1","","71","","","","23","","27","","16.1","","101.42","","","","-43","","Ice Crystals"
"-115.14","67.82","KUGLUKTUK A","2300903","2021-03-01 14:00","2021","03","01","14:00","-27.6","","-31.5","","70","","","","24","","27","","16.1","","101.38","","","","-42","","Ice Crystals,Blowing Snow"
"-115.14","67.82","KUGLUKTUK A","2300903","2021-03-01 15:00","2021","03","01","15:00","-27.4","","-31.4","","70","","","","24","","31","","16.1","","101.36","","","","-42","","Ice Crystals,Blowing Snow"
"-115.14","67.82","KUGLUKTUK A","2300903","2021-03-01 16:00","2021","03","01","16:00","-27.5","","-31.1","","72","","","","23","","22","","16.1","","101.35","","","","-40","","Ice Crystals"
"-115.14","67.82","KUGLUKTUK A","2300903","2021-03-01 17:00","2021","03","01","17:00","-28.6","","-32.3","","71","","","","24","","21","","24.1","","101.31","","","","-42","","Ice Crystals"
"-115.14","67.82","KUGLUKTUK A","2300903","2021-03-01 18:00","2021","03","01","18:00","-29.3","","-32.9","","72","","","","23","","20","","19.3","","101.27","","","","-42","","Ice Crystals"
"-115.14","67.82","KUGLUKTUK A","2300903","2021-03-01 19:00","2021","03","01","19:00","-30.3","","-33.7","","73","","","","23","","22","","19.3","","101.21","","","","-44","","Ice Crystals"
"-115.14","67.82","KUGLUKTUK A","2300903","2021-03-01 20:00","2021","03","01","20:00","-29.7","","-33.1","","73","","","","23","","22","","19.3","","101.18","","","","-43","","Ice Crystals,Blowing Snow"
"-115.14","67.82","KUGLUKTUK A","2300903","2021-03-01 21:00","2021","03","01","21:00","-29.6","","-32.5","","76","","","","22","","19","","16.1","","101.15","","","","-42","","Ice Crystals"
"-115.14","67.82","KUGLUKTUK A","2300903","2021-03-01 22:00","2021","03","01","22:00","-29.4","","-32.3","","77","","","","24","","8","","16.1","","101.14","","","","-37","","Ice Crystals"
"-115.14","67.82","KUGLUKTUK A","2300903","2021-03-01 23:00","2021","03","01","23:00","-29.6","","-32.6","","76","","","","28","","5","","19.3","","101.11","","","","-35","","Ice Crystals"
"-115.14","67.82","KUGLUKTUK A","2300903","2021-03-02 00:00","2021","03","02","00:00","-30.4","","-33.6","","74","","","","28","","4","","16.1","","101.08","","","","-35","","Ice Crystals"
"-115.14","67.82","KUGLUKTUK A","2300903","2021-03-02 01:00","2021","03","02","01:00","-32.4","","-35.7","","73","","","","22","","17","","19.3","","101.06","","","","-45","","Ice Crystals"
"-115.14","67.82","KUGLUKTUK A","2300903","2021-03-02 02:00","2021","03","02","02:00","-33.5","","-37.0","","72","","","","21","","19","","24.1","","101.04","","","","-47","","Ice Crystals"
"-115.14","67.82","KUGLUKTUK A","2300903","2021-03-02 03:00","2021","03","02","03:00","-33.0","","-36.6","","71","","","","21","","17","","24.1","","101.03","","","","-46","","Ice Crystals"
"-115.14","67.82","KUGLUKTUK A","2300903","2021-03-02 04:00","2021","03","02","04:00","-33.1","","-36.7","","71","","","","22","","16","","24.1","","100.97","","","","-46","","Ice Crystals"
"-115.14","67.82","KUGLUKTUK A","2300903","2021-03-02 05:00","2021","03","02","05:00","-33.1","","-36.8","","71","","","","31","","4","","24.1","","100.94","","","","-38","","Mainly Clear"
"-115.14","67.82","KUGLUKTUK A","2300903","2021-03-02 06:00","2021","03","02","06:00","-34.0","","-37.2","","73","","","","18","","4","","24.1","","100.87","","","","-39","","Ice Crystals"
"-115.14","67.82","KUGLUKTUK A","2300903","2021-03-02 07:00","2021","03","02","07:00","-33.8","","-36.8","","75","","","","36","","2","","9.7","","100.82","","","","-36","","Ice Crystals,Fog"
"-115.14","67.82","KUGLUKTUK A","2300903","2021-03-02 08:00","2021","03","02","08:00","-34.0","","-37.2","","74","","","","23","","5","","1.2","","100.83","","","","-40","","Ice Crystals,Fog"
"-115.14","67.82","KUGLUKTUK A","2300903","2021-03-02 09:00","2021","03","02","09:00","-34.7","","-38.1","","72","","","","24","","10","","9.7","","100.83","","","","-45","","Ice Crystals,Fog"
"-115.14","67.82","KUGLUKTUK A","2300903","2021-03-02 10:00","2021","03","02","10:00","-33.7","","-37.1","","72","","","","24","","5","","12.9","","100.83","","","","-40","","NA"
"-115.14","67.82","KUGLUKTUK A","2300903","2021-03-02 11:00","2021","03","02","11:00","-32.2","","-35.5","","73","","","","12","","3","","16.1","","100.80","","","","-36","","Cloudy"
"-115.14","67.82","KUGLUKTUK A","2300903","2021-03-02 12:00","2021","03","02","12:00","-31.8","","-35.1","","73","","","","27","","10","","16.1","","100.81","","","","-41","","NA"
"-115.14","67.82","KUGLUKTUK A","2300903","2021-03-02 13:00","2021","03","02","13:00","-31.9","","-35.3","","73","","","","30","","6","","16.1","","100.80","","","","-39","","Ice Crystals"
"-115.14","67.82","KUGLUKTUK A","2300903","2021-03-02 14:00","2021","03","02","14:00","-31.1","","-34.4","","73","","","","0","","1","","24.1","","100.75","","","","-32","","Ice Crystals"
"-115.14","67.82","KUGLUKTUK A","2300903","2021-03-02 15:00","2021","03","02","15:00","-30.6","","-33.9","","74","","","","36","","2","","24.1","","100.76","","","","-33","","Ice Crystals"
"-115.14","67.82","KUGLUKTUK A","2300903","2021-03-02 16:00","2021","03","02","16:00","-31.1","","-34.5","","73","","","","19","","4","","24.1","","100.80","","","","-36","","Ice Crystals"
"-115.14","67.82","KUGLUKTUK A","2300903","2021-03-02 17:00","2021","03","02","17:00","-31.5","","-34.8","","73","","","","29","","4","","24.1","","100.85","","","","-36","","Ice Crystals"
"-115.14","67.82","KUGLUKTUK A","2300903","2021-03-02 18:00","2021","03","02","18:00","-32.5","","-35.8","","73","","","","30","","7","","24.1","","100.84","","","","-40","","Ice Crystals"
"-115.14","67.82","KUGLUKTUK A","2300903","2021-03-02 19:00","2021","03","02","19:00","-32.5","","-35.9","","73","","","","1","","5","","16.1","","100.88","","","","-38","","Ice Crystals"
"-115.14","67.82","KUGLUKTUK A","2300903","2021-03-02 20:00","2021","03","02","20:00","-32.1","","-35.5","","73","","","","7","","11","","8.1","","100.95","","","","-42","","Ice Crystals"
"-115.14","67.82","KUGLUKTUK A","2300903","2021-03-02 21:00","2021","03","02","21:00","-32.9","","-36.4","","72","","","","6","","13","","19.3","","100.98","","","","-44","","Ice Crystals"
"-115.14","67.82","KUGLUKTUK A","2300903","2021-03-02 22:00","2021","03","02","22:00","-33.6","","-37.1","","72","","","","4","","15","","24.1","","101.01","","","","-46","","Ice Crystals"
"-115.14","67.82","KUGLUKTUK A","2300903","2021-03-02 23:00","2021","03","02","23:00","-34.1","","-37.6","","72","","","","5","","14","","24.1","","101.11","","","","-46","","Ice Crystals"
"-115.14","67.82","KUGLUKTUK A","2300903","2021-03-03 00:00","2021","03","03","00:00","-34.7","","-38.3","","71","","","","5","","12","","19.3","","101.17","","","","-46","","Ice Crystals"
"-115.14","67.82","KUGLUKTUK A","2300903","2021-03-03 01:00","2021","03","03","01:00","-35.3","","-38.9","","71","","","","4","","11","","24.1","","101.24","","","","-46","","Ice Crystals"
"-115.14","67.82","KUGLUKTUK A","2300903","2021-03-03 02:00","2021","03","03","02:00","-35.9","","-39.5","","70","","","","3","","10","","24.1","","101.32","","","","-46","","Ice Crystals"
"-115.14","67.82","KUGLUKTUK A","2300903","2021-03-03 03:00","2021","03","03","03:00","-36.0","","-39.6","","70","","","","4","","9","","24.1","","101.37","","","","-46","","Ice Crystals"
"-115.14","67.82","KUGLUKTUK A","2300903","2021-03-03 04:00","2021","03","03","04:00","-36.5","","-40.1","","70","","","","3","","10","","24.1","","101.47","","","","-47","","Ice Crystals"
"-115.14","67.82","KUGLUKTUK A","2300903","2021-03-03 05:00","2021","03","03","05:00","-37.2","","-40.9","","70","","","","32","","5","","24.1","","101.54","","","","-44","","Ice Crystals"
"-115.14","67.82","KUGLUKTUK A","2300903","2021-03-03 06:00","2021","03","03","06:00","-37.1","","-40.8","","70","","","","34","","3","","24.1","","101.64","","","","-41","","Ice Crystals"
"-115.14","67.82","KUGLUKTUK A","2300903","2021-03-03 07:00","2021","03","03","07:00","-36.9","","-40.6","","70","","","","35","","4","","19.3","","101.73","","","","-42","","Ice Crystals"
"-115.14","67.82","KUGLUKTUK A","2300903","2021-03-03 08:00","2021","03","03","08:00","-37.8","","-41.5","","69","","","","29","","7","","24.1","","101.83","","","","-46","","Clear"
"-115.14","67.82","KUGLUKTUK A","2300903","2021-03-03 09:00","2021","03","03","09:00","-38.4","","-42.2","","69","","","","28","","12","","24.1","","101.92","","","","-50","","NA"
"-115.14","67.82","KUGLUKTUK A","2300903","2021-03-03 10:00","2021","03","03","10:00","-37.8","","-41.5","","69","","","","28","","12","","24.1","","102.01","","","","-50","","NA"
"-115.14","67.82","KUGLUKTUK A","2300903","2021-03-03 11:00","2021","03","03","11:00","-37.4","","-41.1","","69","","","","27","","10","","24.1","","102.10","","","","-48","","Clear"
"-115.14","67.82","KUGLUKTUK A","2300903","2021-03-03 12:00","2021","03","03","12:00","-37.6","","-41.4","","69","","","","25","","8","","24.1","","102.19","","","","-47","","NA"
"-115.14","67.82","KUGLUKTUK A","2300903","2021-03-03 13:00","2021","03","03","13:00","-37.0","","-40.7","","69","","","","23","","5","","24.1","","102.29","","","","-44","","NA"
"-115.14","67.82","KUGLUKTUK A","2300903","2021-03-03 14:00","2021","03","03","14:00","-36.5","","-40.2","","69","","","","25","","3","","24.1","","102.40","","","","-40","","Clear"
"-115.14","67.82","KUGLUKTUK A","2300903","2021-03-03 15:00","2021","03","03","15:00","-36.3","","-40.0","","69","","","","25","","4","","24.1","","102.48","","","","-41","","NA"
"-115.14","67.82","KUGLUKTUK A","2300903","2021-03-03 16:00","2021","03","03","16:00","-36.4","","-40.1","","69","","","","23","","4","","24.1","","102.61","","","","-42","","NA"
"-115.14","67.82","KUGLUKTUK A","2300903","2021-03-03 17:00","2021","03","03","17:00","-36.6","","-40.3","","69","","","","35","","3","","24.1","","102.72","","","","-41","","Clear"
"-115.14","67.82","KUGLUKTUK A","2300903","2021-03-03 18:00","2021","03","03","18:00","-36.5","","-40.2","","70","","","","36","","1","","24.1","","102.80","","","","-38","","NA"
"-115.14","67.82","KUGLUKTUK A","2300903","2021-03-03 19:00","2021","03","03","19:00","-37.3","","-41.0","","69","","","","13","","4","","24.1","","102.90","","","","-43","","NA"
"-115.14","67.82","KUGLUKTUK A","2300903","2021-03-03 20:00","2021","03","03","20:00","-38.1","","-41.9","","69","","","","15","","4","","24.1","","102.97","","","","-43","","Ice Crystals"
"-115.14","67.82","KUGLUKTUK A","2300903","2021-03-03 21:00","2021","03","03","21:00","-38.3","","-42.0","","69","","","","36","","4","","24.1","","103.08","","","","-44","","Ice Crystals"
"-115.14","67.82","KUGLUKTUK A","2300903","2021-03-03 22:00","2021","03","03","22:00","-38.9","","-42.7","","68","","","","34","","5","","24.1","","103.14","","","","-46","","Ice Crystals"
"-115.14","67.82","KUGLUKTUK A","2300903","2021-03-03 23:00","2021","03","03","23:00","-38.1","","-41.8","","69","","","","36","","2","","12.9","","103.23","","","","-41","","Ice Crystals"
"-115.14","67.82","KUGLUKTUK A","2300903","2021-03-04 00:00","2021","03","04","00:00","-38.2","","-42.0","","69","","","","36","","2","","16.1","","103.30","","","","-41","","Ice Crystals"
"-115.14","67.82","KUGLUKTUK A","2300903","2021-03-04 01:00","2021","03","04","01:00","-39.3","","-43.2","","68","","","","36","","2","","24.1","","103.38","","","","-42","","Ice Crystals"
"-115.14","67.82","KUGLUKTUK A","2300903","2021-03-04 02:00","2021","03","04","02:00","-38.9","","-42.6","","68","","","","36","","1","","24.1","","103.43","","","","-40","","Ice Crystals"
"-115.14","67.82","KUGLUKTUK A","2300903","2021-03-04 03:00","2021","03","04","03:00","-39.4","","-43.2","","68","","","","36","","1","","24.1","","103.49","","","","-41","","Ice Crystals"
"-115.14","67.82","KUGLUKTUK A","2300903","2021-03-04 04:00","2021","03","04","04:00","-38.4","","-42.2","","69","","","","28","","3","","24.1","","103.56","","","","-42","","Ice Crystals"
"-115.14","67.82","KUGLUKTUK A","2300903","2021-03-04 05:00","2021","03","04","05:00","-38.4","","-42.1","","69","","","","36","","2","","19.3","","103.63","","","","-41","","Ice Crystals"
"-115.14","67.82","KUGLUKTUK A","2300903","2021-03-04 06:00","2021","03","04","06:00","-39.5","","-43.3","","68","","","","29","","6","","19.3","","103.66","","","","-47","","Ice Crystals"
"-115.14","67.82","KUGLUKTUK A","2300903","2021-03-04 07:00","2021","03","04","07:00","-39.5","","-43.4","","68","","","","30","","5","","16.1","","103.70","","","","-46","","Ice Crystals"
"-115.14","67.82","KUGLUKTUK A","2300903","2021-03-04 08:00","2021","03","04","08:00","-40.1","","-43.9","","68","","","","36","","1","","16.1","","103.73","","","","-41","","Ice Crystals"
"-115.14","67.82","KUGLUKTUK A","2300903","2021-03-04 09:00","2021","03","04","09:00","-39.9","","-43.8","","67","","","","36","","3","","19.3","","103.79","","","","-44","","Ice Crystals"
"-115.14","67.82","KUGLUKTUK A","2300903","2021-03-04 10:00","2021","03","04","10:00","-38.6","","-42.5","","68","","","","31","","3","","24.1","","103.81","","","","-43","","NA"
"-115.14","67.82","KUGLUKTUK A","2300903","2021-03-04 11:00","2021","03","04","11:00","-38.2","","-42.1","","68","","","","0","","1","","24.1","","103.85","","","","-40","","Clear"
"-115.14","67.82","KUGLUKTUK A","2300903","2021-03-04 12:00","2021","03","04","12:00","-38.0","","-41.8","","68","","","","36","","1","","24.1","","103.84","","","","-39","","NA"
"-115.14","67.82","KUGLUKTUK A","2300903","2021-03-04 13:00","2021","03","04","13:00","-37.5","","-41.3","","69","","","","2","","8","","24.1","","103.81","","","","-47","","Ice Crystals"
"-115.14","67.82","KUGLUKTUK A","2300903","2021-03-04 14:00","2021","03","04","14:00","-36.0","","-39.8","","69","","","","2","","8","","24.1","","103.76","","","","-45","","Ice Crystals"
"-115.14","67.82","KUGLUKTUK A","2300903","2021-03-04 15:00","2021","03","04","15:00","-34.4","","-38.0","","71","","","","2","","6","","24.1","","103.71","","","","-42","","Ice Crystals"
"-115.14","67.82","KUGLUKTUK A","2300903","2021-03-04 16:00","2021","03","04","16:00","-35.7","","-39.4","","69","","","","36","","1","","24.1","","103.66","","","","-37","","Ice Crystals"
"-115.14","67.82","KUGLUKTUK A","2300903","2021-03-04 17:00","2021","03","04","17:00","-35.8","","-39.5","","70","","","","13","","14","","24.1","","103.56","","","","-48","","Mainly Clear"
"-115.14","67.82","KUGLUKTUK A","2300903","2021-03-04 18:00","2021","03","04","18:00","-27.3","","-30.3","","76","","","","16","","24","","24.1","","103.49","","","","-41","","NA"
"-115.14","67.82","KUGLUKTUK A","2300903","2021-03-04 19:00","2021","03","04","19:00","-25.3","","-28.3","","77","","","","15","","29","","24.1","","103.41","","","","-39","","Ice Crystals"
"-115.14","67.82","KUGLUKTUK A","2300903","2021-03-04 20:00","2021","03","04","20:00","-26.9","","-30.2","","74","","","","10","","23","","24.1","","103.31","","","","-40","","Ice Crystals"
"-115.14","67.82","KUGLUKTUK A","2300903","2021-03-04 21:00","2021","03","04","21:00","-26.6","","-30.0","","73","","","","11","","22","","24.1","","103.21","","","","-39","","Ice Crystals"
"-115.14","67.82","KUGLUKTUK A","2300903","2021-03-04 22:00","2021","03","04","22:00","-26.4","","-30.9","","67","","","","11","","14","","24.1","","103.10","","","","-37","","Ice Crystals"
"-115.14","67.82","KUGLUKTUK A","2300903","2021-03-04 23:00","2021","03","04","23:00","-25.3","","-29.5","","69","","","","19","","4","","24.1","","102.99","","","","-29","","Clear"
"-115.14","67.82","KUGLUKTUK A","2300903","2021-03-05 00:00","2021","03","05","00:00","-21.7","","-26.1","","69","","","","13","","37","","9.7","","102.80","","","","-36","","Ice Crystals,Blowing Snow"
"-115.14","67.82","KUGLUKTUK A","2300903","2021-03-05 01:00","2021","03","05","01:00","-21.7","","-25.6","","71","","","","8","","22","","16.1","","102.66","","","","-33","","Ice Crystals,Blowing Snow"
"-115.14","67.82","KUGLUKTUK A","2300903","2021-03-05 02:00","2021","03","05","02:00","-18.7","","-22.7","","71","","","","15","","48","","9.7","","102.40","","","","-33","","Ice Crystals,Blowing Snow"
"-115.14","67.82","KUGLUKTUK A","2300903","2021-03-05 03:00","2021","03","05","03:00","-19.2","","-22.7","","75","","","","6","","26","","16.1","","102.25","","","","-31","","Ice Crystals,Blowing Snow"
"-115.14","67.82","KUGLUKTUK A","2300903","2021-03-05 04:00","2021","03","05","04:00","-16.8","","-19.3","","81","","","","11","","28","","4.8","","102.09","","","","-28","","Snow,Blowing Snow"
"-115.14","67.82","KUGLUKTUK A","2300903","2021-03-05 05:00","2021","03","05","05:00","-16.2","","-18.4","","84","","","","13","","9","","1.6","","102.00","","","","-22","","Snow"
"-115.14","67.82","KUGLUKTUK A","2300903","2021-03-05 06:00","2021","03","05","06:00","-16.8","","-19.3","","81","","","","17","","34","","2.4","","101.86","","","","-29","","Snow,Blowing Snow"
"-115.14","67.82","KUGLUKTUK A","2300903","2021-03-05 07:00","2021","03","05","07:00","-17.4","","-19.8","","82","","","","16","","35","","0.8","","101.67","","","","-30","","Snow,Blowing Snow"
"-115.14","67.82","KUGLUKTUK A","2300903","2021-03-05 08:00","2021","03","05","08:00","-17.4","","-19.8","","82","","","","16","","25","","1.6","","101.50","","","","-28","","Snow,Blowing Snow"
"-115.14","67.82","KUGLUKTUK A","2300903","2021-03-05 09:00","2021","03","05","09:00","-16.8","","-19.2","","82","","","","17","","27","","1.6","","101.32","","","","-28","","Snow,Blowing Snow"
"-115.14","67.82","KUGLUKTUK A","2300903","2021-03-05 10:00","2021","03","05","10:00","-16.4","","-18.9","","81","","","","18","","28","","1.6","","101.20","","","","-28","","Snow,Blowing Snow"
"-115.14","67.82","KUGLUKTUK A","2300903","2021-03-05 11:00","2021","03","05","11:00","-16.4","","-18.8","","82","","","","19","","30","","1.6","","101.12","","","","-28","","Snow,Blowing Snow"
"-115.14","67.82","KUGLUKTUK A","2300903","2021-03-05 12:00","2021","03","05","12:00","-15.8","","-18.5","","80","","","","20","","22","","1.6","","100.99","","","","-26","","Snow,Blowing Snow"
"-115.14","67.82","KUGLUKTUK A","2300903","2021-03-05 13:00","2021","03","05","13:00","-15.8","","-18.2","","82","","","","19","","19","","2.0","","100.87","","","","-25","","Snow"
"-115.14","67.82","KUGLUKTUK A","2300903","2021-03-05 14:00","2021","03","05","14:00","-15.4","","-18.0","","80","","","","20","","16","","3.2","","100.77","","","","-24","","Snow"
"-115.14","67.82","KUGLUKTUK A","2300903","2021-03-05 15:00","2021","03","05","15:00","-15.5","","-17.9","","82","","","","20","","12","","2.4","","100.65","","","","-23","","Snow"
"-115.14","67.82","KUGLUKTUK A","2300903","2021-03-05 16:00","2021","03","05","16:00","-15.7","","-17.9","","84","","","","19","","7","","6.4","","100.50","","","","-21","","Ice Crystals"
"-115.14","67.82","KUGLUKTUK A","2300903","2021-03-05 17:00","2021","03","05","17:00","-15.6","","-17.7","","84","","","","11","","5","","12.9","","100.41","","","","-19","","Ice Crystals"
"-115.14","67.82","KUGLUKTUK A","2300903","2021-03-05 18:00","2021","03","05","18:00","-15.5","","-17.9","","82","","","","17","","4","","12.9","","100.30","","","","-18","","Ice Crystals"
"-115.14","67.82","KUGLUKTUK A","2300903","2021-03-05 19:00","2021","03","05","19:00","-15.9","","-18.1","","84","","","","29","","4","","4.8","","100.20","","","","-19","","Snow"
"-115.14","67.82","KUGLUKTUK A","2300903","2021-03-05 20:00","2021","03","05","20:00","-15.8","","-17.8","","85","","","","27","","6","","6.4","","100.10","","","","-20","","Snow"
"-115.14","67.82","KUGLUKTUK A","2300903","2021-03-05 21:00","2021","03","05","21:00","-16.4","","-18.2","","86","","","","36","","5","","9.7","","100.02","","","","-20","","Snow"
"-115.14","67.82","KUGLUKTUK A","2300903","2021-03-05 22:00","2021","03","05","22:00","-16.5","","-18.3","","86","","","","35","","4","","9.7","","99.92","","","","-20","","Snow"
"-115.14","67.82","KUGLUKTUK A","2300903","2021-03-05 23:00","2021","03","05","23:00","-17.0","","-18.8","","86","","","","33","","6","","9.7","","99.85","","","","-22","","Snow"
"-115.14","67.82","KUGLUKTUK A","2300903","2021-03-06 00:00","2021","03","06","00:00","-17.2","","-19.1","","85","","","","35","","6","","4.8","","99.76","","","","-22","","Snow"
"-115.14","67.82","KUGLUKTUK A","2300903","2021-03-06 01:00","2021","03","06","01:00","-17.1","","-18.9","","86","","","","31","","5","","2.4","","99.71","","","","-21","","Snow"
"-115.14","67.82","KUGLUKTUK A","2300903","2021-03-06 02:00","2021","03","06","02:00","-17.1","","-19.0","","86","","","","36","","2","","4.8","","99.68","","","","-19","","Snow"
"-115.14","67.82","KUGLUKTUK A","2300903","2021-03-06 03:00","2021","03","06","03:00","-16.9","","-18.9","","85","","","","23","","6","","3.2","","99.65","","","","-21","","Snow"
"-115.14","67.82","KUGLUKTUK A","2300903","2021-03-06 04:00","2021","03","06","04:00","-16.6","","-18.6","","85","","","","26","","12","","3.2","","99.61","","","","-24","","Snow"
"-115.14","67.82","KUGLUKTUK A","2300903","2021-03-06 05:00","2021","03","06","05:00","-16.7","","-18.7","","84","","","","26","","15","","3.2","","99.57","","","","-25","","Snow"
"-115.14","67.82","KUGLUKTUK A","2300903","2021-03-06 06:00","2021","03","06","06:00","-16.4","","-18.5","","84","","","","26","","14","","3.2","","99.56","","","","-24","","Snow"
"-115.14","67.82","KUGLUKTUK A","2300903","2021-03-06 07:00","2021","03","06","07:00","-16.3","","-18.4","","84","","","","25","","13","","3.2","","99.56","","","","-24","","Snow"
"-115.14","67.82","KUGLUKTUK A","2300903","2021-03-06 08:00","2021","03","06","08:00","-16.1","","-18.2","","84","","","","25","","12","","4.8","","99.55","","","","-23","","Snow"
"-115.14","67.82","KUGLUKTUK A","2300903","2021-03-06 09:00","2021","03","06","09:00","-17.1","","-19.3","","84","","","","27","","19","","12.9","","99.53","","","","-27","","Ice Crystals"
"-115.14","67.82","KUGLUKTUK A","2300903","2021-03-06 10:00","2021","03","06","10:00","-19.4","","-22.4","","78","","","","26","","26","","24.1","","99.55","","","","-31","","NA"
"-115.14","67.82","KUGLUKTUK A","2300903","2021-03-06 11:00","2021","03","06","11:00","-19.8","","-22.9","","77","","","","26","","23","","24.1","","99.56","","","","-31","","Blowing Snow"
"-115.14","67.82","KUGLUKTUK A","2300903","2021-03-06 12:00","2021","03","06","12:00","-20.9","","-24.1","","75","","","","25","","21","","24.1","","99.58","","","","-32","","NA"
"-115.14","67.82","KUGLUKTUK A","2300903","2021-03-06 13:00","2021","03","06","13:00","-21.5","","-24.9","","75","","","","23","","23","","24.1","","99.63","","","","-33","","Ice Crystals,Blowing Snow"
"-115.14","67.82","KUGLUKTUK A","2300903","2021-03-06 14:00","2021","03","06","14:00","-19.8","","-22.6","","78","","","","25","","14","","24.1","","99.62","","","","-29","","Ice Crystals"
"-115.14","67.82","KUGLUKTUK A","2300903","2021-03-06 15:00","2021","03","06","15:00","-18.6","","-21.4","","79","","","","26","","20","","19.3","","99.69","","","","-29","","Ice Crystals"
"-115.14","67.82","KUGLUKTUK A","2300903","2021-03-06 16:00","2021","03","06","16:00","-18.1","","-20.7","","80","","","","25","","16","","12.9","","99.74","","","","-27","","Ice Crystals"
"-115.14","67.82","KUGLUKTUK A","2300903","2021-03-06 17:00","2021","03","06","17:00","-17.8","","-20.5","","80","","","","26","","20","","8.1","","99.77","","","","-28","","Ice Crystals"
"-115.14","67.82","KUGLUKTUK A","2300903","2021-03-06 18:00","2021","03","06","18:00","-18.0","","-20.6","","81","","","","26","","21","","8.1","","99.79","","","","-28","","Ice Crystals"
"-115.14","67.82","KUGLUKTUK A","2300903","2021-03-06 19:00","2021","03","06","19:00","-17.9","","-20.6","","80","","","","26","","23","","9.7","","99.84","","","","-29","","Ice Crystals"
"-115.14","67.82","KUGLUKTUK A","2300903","2021-03-06 20:00","2021","03","06","20:00","-18.4","","-21.0","","81","","","","26","","21","","9.7","","99.87","","","","-29","","Ice Crystals"
"-115.14","67.82","KUGLUKTUK A","2300903","2021-03-06 21:00","2021","03","06","21:00","-18.9","","-21.5","","80","","","","27","","18","","9.7","","99.94","","","","-29","","Ice Crystals"
"-115.14","67.82","KUGLUKTUK A","2300903","2021-03-06 22:00","2021","03","06","22:00","-19.2","","-22.2","","77","","","","29","","16","","9.7","","99.95","","","","-28","","Ice Crystals"
"-115.14","67.82","KUGLUKTUK A","2300903","2021-03-06 23:00","2021","03","06","23:00","-19.1","","-22.1","","78","","","","28","","16","","12.9","","99.99","","","","-28","","Ice Crystals"
"-115.14","67.82","KUGLUKTUK A","2300903","2021-03-07 00:00","2021","03","07","00:00","-19.2","","-22.3","","77","","","","27","","15","","12.9","","100.06","","","","-28","","Snow"
"-115.14","67.82","KUGLUKTUK A","2300903","2021-03-07 01:00","2021","03","07","01:00","-19.1","","-22.2","","77","","","","27","","17","","12.9","","100.09","","","","-29","","Snow"
"-115.14","67.82","KUGLUKTUK A","2300903","2021-03-07 02:00","2021","03","07","02:00","-18.7","","-21.6","","78","","","","26","","14","","12.9","","100.15","","","","-27","","Snow"
"-115.14","67.82","KUGLUKTUK A","2300903","2021-03-07 03:00","2021","03","07","03:00","-18.7","","-21.2","","81","","","","26","","18","","12.9","","100.19","","","","-28","","Snow"
"-115.14","67.82","KUGLUKTUK A","2300903","2021-03-07 04:00","2021","03","07","04:00","-18.8","","-21.2","","81","","","","26","","20","","12.9","","100.21","","","","-29","","Snow"
"-115.14","67.82","KUGLUKTUK A","2300903","2021-03-07 05:00","2021","03","07","05:00","-19.0","","-21.7","","80","","","","27","","21","","12.9","","100.23","","","","-29","","Snow"
"-115.14","67.82","KUGLUKTUK A","2300903","2021-03-07 06:00","2021","03","07","06:00","-19.0","","-21.9","","79","","","","26","","21","","12.9","","100.25","","","","-29","","Snow"
"-115.14","67.82","KUGLUKTUK A","2300903","2021-03-07 07:00","2021","03","07","07:00","-18.9","","-21.4","","80","","","","26","","24","","12.9","","100.26","","","","-30","","Snow"
"-115.14","67.82","KUGLUKTUK A","2300903","2021-03-07 08:00","2021","03","07","08:00","-19.0","","-21.5","","81","","","","28","","19","","19.3","","100.29","","","","-29","","Snow"
"-115.14","67.82","KUGLUKTUK A","2300903","2021-03-07 09:00","2021","03","07","09:00","-19.0","","-21.5","","81","","","","28","","17","","6.4","","100.33","","","","-28","","Snow,Snow Pellets"
"-115.14","67.82","KUGLUKTUK A","2300903","2021-03-07 10:00","2021","03","07","10:00","-19.2","","-21.8","","81","","","","28","","12","","9.7","","100.36","","","","-27","","Snow"
"-115.14","67.82","KUGLUKTUK A","2300903","2021-03-07 11:00","2021","03","07","11:00","-19.2","","-21.8","","80","","","","28","","14","","6.4","","100.41","","","","-28","","Snow"
"-115.14","67.82","KUGLUKTUK A","2300903","2021-03-07 12:00","2021","03","07","12:00","-19.0","","-21.9","","78","","","","25","","14","","4.8","","100.46","","","","-28","","Snow"
"-115.14","67.82","KUGLUKTUK A","2300903","2021-03-07 13:00","2021","03","07","13:00","-18.8","","-21.7","","78","","","","28","","14","","4.8","","100.49","","","","-27","","Snow"
"-115.14","67.82","KUGLUKTUK A","2300903","2021-03-07 14:00","2021","03","07","14:00","-18.9","","-21.8","","78","","","","27","","13","","6.4","","100.53","","","","-27","","Snow"
"-115.14","67.82","KUGLUKTUK A","2300903","2021-03-07 15:00","2021","03","07","15:00","-19.1","","-22.3","","76","","","","29","","14","","6.4","","100.58","","","","-28","","Snow"
"-115.14","67.82","KUGLUKTUK A","2300903","2021-03-07 16:00","2021","03","07","16:00","-19.6","","-23.0","","75","","","","31","","19","","4.8","","100.64","","","","-30","","Snow"
"-115.14","67.82","KUGLUKTUK A","2300903","2021-03-07 17:00","2021","03","07","17:00","-20.9","","-23.7","","79","","","","27","","26","","8.1","","100.67","","","","-33","","Snow"
"-115.14","67.82","KUGLUKTUK A","2300903","2021-03-07 18:00","2021","03","07","18:00","-22.7","","-25.5","","78","","","","27","","39","","2.4","","100.71","","","","-38","","Ice Crystals,Blowing Snow"
"-115.14","67.82","KUGLUKTUK A","2300903","2021-03-07 19:00","2021","03","07","19:00","-24.4","","-27.5","","76","","","","26","","35","","4.8","","100.78","","","","-39","","Ice Crystals,Blowing Snow"
"-115.14","67.82","KUGLUKTUK A","2300903","2021-03-07 20:00","2021","03","07","20:00","-25.4","","-28.6","","75","","","","25","","39","","4.8","","100.83","","","","-41","","Ice Crystals,Blowing Snow"
"-115.14","67.82","KUGLUKTUK A","2300903","2021-03-07 21:00","2021","03","07","21:00","-25.0","","-28.3","","75","","","","25","","37","","4.8","","100.84","","","","-40","","Ice Crystals,Blowing Snow"
"-115.14","67.82","KUGLUKTUK A","2300903","2021-03-07 22:00","2021","03","07","22:00","-24.7","","-27.8","","76","","","","26","","35","","4.8","","100.86","","","","-40","","Ice Crystals,Blowing Snow"
"-115.14","67.82","KUGLUKTUK A","2300903","2021-03-07 23:00","2021","03","07","23:00","-23.8","","-26.9","","77","","","","27","","34","","4.8","","100.89","","","","-38","","Ice Crystals,Blowing Snow"
"-115.14","67.82","KUGLUKTUK A","2300903","2021-03-08 00:00","2021","03","08","00:00","-23.5","","-26.5","","77","","","","26","","26","","6.4","","100.92","","","","-36","","Ice Crystals,Blowing Snow"
"-115.14","67.82","KUGLUKTUK A","2300903","2021-03-08 01:00","2021","03","08","01:00","-22.0","","-25.2","","76","","","","28","","36","","4.8","","100.97","","","","-36","","Snow,Blowing Snow"
"-115.14","67.82","KUGLUKTUK A","2300903","2021-03-08 02:00","2021","03","08","02:00","-22.4","","-25.6","","76","","","","28","","33","","4.8","","101.03","","","","-36","","Snow,Blowing Snow"
"-115.14","67.82","KUGLUKTUK A","2300903","2021-03-08 03:00","2021","03","08","03:00","-22.5","","-25.5","","77","","","","29","","36","","4.8","","101.08","","","","-37","","Snow,Blowing Snow"
"-115.14","67.82","KUGLUKTUK A","2300903","2021-03-08 04:00","2021","03","08","04:00","-22.6","","-25.8","","76","","","","28","","38","","4.8","","101.13","","","","-37","","Snow,Blowing Snow"
"-115.14","67.82","KUGLUKTUK A","2300903","2021-03-08 05:00","2021","03","08","05:00","-22.9","","-26.3","","74","","","","28","","33","","6.4","","101.18","","","","-37","","Snow,Blowing Snow"
"-115.14","67.82","KUGLUKTUK A","2300903","2021-03-08 06:00","2021","03","08","06:00","-23.4","","-26.9","","74","","","","28","","32","","9.7","","101.19","","","","-37","","Ice Crystals,Blowing Snow"
"-115.14","67.82","KUGLUKTUK A","2300903","2021-03-08 07:00","2021","03","08","07:00","-23.7","","-27.3","","73","","","","27","","28","","9.7","","101.22","","","","-37","","Ice Crystals,Blowing Snow"
"-115.14","67.82","KUGLUKTUK A","2300903","2021-03-08 08:00","2021","03","08","08:00","-24.0","","-27.4","","73","","","","26","","27","","8.1","","101.27","","","","-37","","Ice Crystals,Blowing Snow"
"-115.14","67.82","KUGLUKTUK A","2300903","2021-03-08 09:00","2021","03","08","09:00","-24.1","","-27.2","","76","","","","27","","31","","4.8","","101.25","","","","-38","","Ice Crystals,Blowing Snow"
"-115.14","67.82","KUGLUKTUK A","2300903","2021-03-08 10:00","2021","03","08","10:00","-23.4","","-26.6","","76","","","","30","","25","","2.4","","101.32","","","","-36","","Snow,Blowing Snow"
"-115.14","67.82","KUGLUKTUK A","2300903","2021-03-08 11:00","2021","03","08","11:00","-23.4","","-26.8","","74","","","","30","","26","","2.4","","101.36","","","","-36","","Snow,Blowing Snow"
"-115.14","67.82","KUGLUKTUK A","2300903","2021-03-08 12:00","2021","03","08","12:00","-23.4","","-26.8","","74","","","","30","","27","","1.2","","101.39","","","","-36","","Snow Pellets,Blowing Snow"
"-115.14","67.82","KUGLUKTUK A","2300903","2021-03-08 13:00","2021","03","08","13:00","-23.8","","-27.0","","75","","","","30","","27","","0.8","","101.43","","","","-37","","Snow Pellets,Blowing Snow"
"-115.14","67.82","KUGLUKTUK A","2300903","2021-03-08 14:00","2021","03","08","14:00","-24.1","","-27.5","","74","","","","30","","16","","1.6","","101.49","","","","-34","","Snow,Blowing Snow"
"-115.14","67.82","KUGLUKTUK A","2300903","2021-03-08 15:00","2021","03","08","15:00","-24.1","","-27.7","","73","","","","31","","22","","1.0","","101.50","","","","-36","","Snow,Blowing Snow"
"-115.14","67.82","KUGLUKTUK A","2300903","2021-03-08 16:00","2021","03","08","16:00","-24.3","","-27.8","","73","","","","31","","21","","1.2","","101.55","","","","-36","","Snow,Blowing Snow"
"-115.14","67.82","KUGLUKTUK A","2300903","2021-03-08 17:00","2021","03","08","17:00","-24.5","","-27.6","","76","","","","31","","27","","2.4","","101.57","","","","-38","","Ice Crystals,Blowing Snow"
"-115.14","67.82","KUGLUKTUK A","2300903","2021-03-08 18:00","2021","03","08","18:00","-24.4","","-27.5","","76","","","","31","","17","","2.8","","101.60","","","","-35","","Ice Crystals,Blowing Snow"
"-115.14","67.82","KUGLUKTUK A","2300903","2021-03-08 19:00","2021","03","08","19:00","-24.5","","-27.6","","76","","","","29","","11","","4.8","","101.63","","","","-33","","Ice Crystals"
"-115.14","67.82","KUGLUKTUK A","2300903","2021-03-08 20:00","2021","03","08","20:00","-24.8","","-27.9","","76","","","","32","","21","","6.4","","101.63","","","","-37","","Ice Crystals,Blowing Snow"
"-115.14","67.82","KUGLUKTUK A","2300903","2021-03-08 21:00","2021","03","08","21:00","-25.7","","-28.7","","76","","","","29","","17","","6.4","","101.64","","","","-37","","Ice Crystals"
"-115.14","67.82","KUGLUKTUK A","2300903","2021-03-08 22:00","2021","03","08","22:00","-25.7","","-28.7","","76","","","","29","","12","","6.4","","101.64","","","","-35","","Ice Crystals"
"-115.14","67.82","KUGLUKTUK A","2300903","2021-03-08 23:00","2021","03","08","23:00","-25.4","","-28.6","","75","","","","30","","28","","6.4","","101.62","","","","-39","","Ice Crystals"
"-115.14","67.82","KUGLUKTUK A","2300903","2021-03-09 00:00","2021","03","09","00:00","-25.5","","-28.9","","73","","","","30","","22","","6.4","","101.64","","","","-38","","Snow,Blowing Snow"
"-115.14","67.82","KUGLUKTUK A","2300903","2021-03-09 01:00","2021","03","09","01:00","-26.0","","-29.3","","74","","","","31","","22","","4.8","","101.64","","","","-39","","Snow,Blowing Snow"
"-115.14","67.82","KUGLUKTUK A","2300903","2021-03-09 02:00","2021","03","09","02:00","-26.6","","-29.7","","75","","","","31","","23","","4.8","","101.70","","","","-40","","Snow,Blowing Snow"
"-115.14","67.82","KUGLUKTUK A","2300903","2021-03-09 03:00","2021","03","09","03:00","-26.9","","-29.9","","76","","","","29","","25","","2.4","","101.70","","","","-40","","Snow,Blowing Snow"
"-115.14","67.82","KUGLUKTUK A","2300903","2021-03-09 04:00","2021","03","09","04:00","-27.4","","-30.5","","75","","","","29","","25","","3.2","","101.76","","","","-41","","Snow,Blowing Snow"
"-115.14","67.82","KUGLUKTUK A","2300903","2021-03-09 05:00","2021","03","09","05:00","-28.0","","-31.4","","73","","","","27","","22","","6.4","","101.75","","","","-41","","Ice Crystals,Blowing Snow"
"-115.14","67.82","KUGLUKTUK A","2300903","2021-03-09 06:00","2021","03","09","06:00","-28.4","","-32.0","","72","","","","27","","27","","6.4","","101.75","","","","-43","","Ice Crystals,Blowing Snow"
"-115.14","67.82","KUGLUKTUK A","2300903","2021-03-09 07:00","2021","03","09","07:00","-28.5","","-32.0","","72","","","","27","","30","","6.4","","101.75","","","","-44","","Snow,Blowing Snow"
"-115.14","67.82","KUGLUKTUK A","2300903","2021-03-09 08:00","2021","03","09","08:00","-28.9","","-32.3","","73","","","","26","","29","","8.1","","101.76","","","","-44","","Snow,Blowing Snow"
"-115.14","67.82","KUGLUKTUK A","2300903","2021-03-09 09:00","2021","03","09","09:00","-29.5","","-32.9","","73","","","","26","","30","","12.9","","101.81","","","","-45","","Ice Crystals,Blowing Snow"
"-115.14","67.82","KUGLUKTUK A","2300903","2021-03-09 10:00","2021","03","09","10:00","-28.7","","-32.3","","72","","","","26","","25","","12.9","","101.85","","","","-43","","Ice Crystals,Blowing Snow"
"-115.14","67.82","KUGLUKTUK A","2300903","2021-03-09 11:00","2021","03","09","11:00","-28.3","","-32.0","","71","","","","25","","26","","12.9","","101.88","","","","-43","","Ice Crystals,Blowing Snow"
"-115.14","67.82","KUGLUKTUK A","2300903","2021-03-09 12:00","2021","03","09","12:00","-27.8","","-31.5","","71","","","","25","","22","","16.1","","101.92","","","","-41","","Ice Crystals,Blowing Snow"
"-115.14","67.82","KUGLUKTUK A","2300903","2021-03-09 13:00","2021","03","09","13:00","-27.3","","-31.1","","71","","","","25","","25","","16.1","","101.92","","","","-41","","Ice Crystals,Blowing Snow"
"-115.14","67.82","KUGLUKTUK A","2300903","2021-03-09 14:00","2021","03","09","14:00","-26.9","","-30.7","","71","","","","26","","30","","19.3","","101.97","","","","-42","","Ice Crystals,Blowing Snow"
"-115.14","67.82","KUGLUKTUK A","2300903","2021-03-09 15:00","2021","03","09","15:00","-26.7","","-30.6","","70","","","","26","","29","","19.3","","102.00","","","","-41","","Ice Crystals,Blowing Snow"
"-115.14","67.82","KUGLUKTUK A","2300903","2021-03-09 16:00","2021","03","09","16:00","-27.0","","-30.9","","70","","","","25","","28","","24.1","","101.99","","","","-41","","Ice Crystals,Blowing Snow"
"-115.14","67.82","KUGLUKTUK A","2300903","2021-03-09 17:00","2021","03","09","17:00","-26.9","","-30.8","","71","","","","26","","29","","24.1","","101.97","","","","-41","","Ice Crystals,Blowing Snow"
"-115.14","67.82","KUGLUKTUK A","2300903","2021-03-09 18:00","2021","03","09","18:00","-27.5","","-31.2","","71","","","","26","","29","","24.1","","101.98","","","","-42","","Ice Crystals,Blowing Snow"
"-115.14","67.82","KUGLUKTUK A","2300903","2021-03-09 19:00","2021","03","09","19:00","-28.5","","-32.1","","72","","","","25","","31","","24.1","","101.94","","","","-44","","Ice Crystals,Blowing Snow"
"-115.14","67.82","KUGLUKTUK A","2300903","2021-03-09 20:00","2021","03","09","20:00","-29.8","","-33.4","","72","","","","23","","25","","24.1","","101.92","","","","-44","","Ice Crystals,Blowing Snow"
"-115.14","67.82","KUGLUKTUK A","2300903","2021-03-09 21:00","2021","03","09","21:00","-29.8","","-33.4","","71","","","","23","","28","","24.1","","101.87","","","","-45","","Ice Crystals,Blowing Snow"
"-115.14","67.82","KUGLUKTUK A","2300903","2021-03-09 22:00","2021","03","09","22:00","-30.1","","-33.7","","71","","","","23","","34","","24.1","","101.82","","","","-47","","Ice Crystals,Blowing Snow"
"-115.14","67.82","KUGLUKTUK A","2300903","2021-03-09 23:00","2021","03","09","23:00","-29.9","","-33.6","","71","","","","23","","31","","24.1","","101.80","","","","-46","","Ice Crystals,Blowing Snow"
"-115.14","67.82","KUGLUKTUK A","2300903","2021-03-10 00:00","2021","03","10","00:00","-30.0","","-33.7","","71","","","","23","","35","","24.1","","101.76","","","","-47","","Ice Crystals,Blowing Snow"
"-115.14","67.82","KUGLUKTUK A","2300903","2021-03-10 01:00","2021","03","10","01:00","-28.5","","-32.1","","72","","","","24","","35","","24.1","","101.79","","","","-45","","Ice Crystals,Blowing Snow"
"-115.14","67.82","KUGLUKTUK A","2300903","2021-03-10 02:00","2021","03","10","02:00","-28.8","","-32.2","","73","","","","24","","34","","24.1","","101.77","","","","-45","","Ice Crystals,Blowing Snow"
"-115.14","67.82","KUGLUKTUK A","2300903","2021-03-10 03:00","2021","03","10","03:00","-29.1","","-32.5","","73","","","","24","","33","","24.1","","101.77","","","","-45","","Ice Crystals,Blowing Snow"
"-115.14","67.82","KUGLUKTUK A","2300903","2021-03-10 04:00","2021","03","10","04:00","-28.3","","-31.7","","73","","","","24","","40","","24.1","","101.75","","","","-45","","Ice Crystals,Blowing Snow"
"-115.14","67.82","KUGLUKTUK A","2300903","2021-03-10 05:00","2021","03","10","05:00","-28.1","","-31.6","","73","","","","24","","35","","24.1","","101.76","","","","-44","","Ice Crystals,Blowing Snow"
"-115.14","67.82","KUGLUKTUK A","2300903","2021-03-10 06:00","2021","03","10","06:00","-26.7","","-29.9","","75","","","","26","","37","","24.1","","101.74","","","","-43","","Ice Crystals,Blowing Snow"
"-115.14","67.82","KUGLUKTUK A","2300903","2021-03-10 07:00","2021","03","10","07:00","-28.1","","-31.7","","72","","","","25","","26","","24.1","","101.77","","","","-42","","Ice Crystals,Blowing Snow"
"-115.14","67.82","KUGLUKTUK A","2300903","2021-03-10 08:00","2021","03","10","08:00","-27.2","","-30.7","","73","","","","26","","28","","24.1","","101.79","","","","-42","","Ice Crystals,Blowing Snow"
"-115.14","67.82","KUGLUKTUK A","2300903","2021-03-10 09:00","2021","03","10","09:00","-28.0","","-31.5","","72","","","","24","","31","","24.1","","101.75","","","","-43","","Ice Crystals,Blowing Snow"
"-115.14","67.82","KUGLUKTUK A","2300903","2021-03-10 10:00","2021","03","10","10:00","-27.2","","-31.1","","70","","","","24","","27","","24.1","","101.75","","","","-41","","Ice Crystals,Blowing Snow"
"-115.14","67.82","KUGLUKTUK A","2300903","2021-03-10 11:00","2021","03","10","11:00","-26.0","","-30.1","","70","","","","23","","21","","24.1","","101.73","","","","-38","","Ice Crystals"
"-115.14","67.82","KUGLUKTUK A","2300903","2021-03-10 12:00","2021","03","10","12:00","-25.8","","-29.9","","69","","","","23","","29","","24.1","","101.68","","","","-40","","Ice Crystals,Blowing Snow"
"-115.14","67.82","KUGLUKTUK A","2300903","2021-03-10 13:00","2021","03","10","13:00","-25.2","","-29.3","","69","","","","22","","24","","24.1","","101.67","","","","-38","","Ice Crystals,Blowing Snow"
"-115.14","67.82","KUGLUKTUK A","2300903","2021-03-10 14:00","2021","03","10","14:00","-24.4","","-28.5","","69","","","","22","","23","","24.1","","101.67","","","","-37","","Blowing Snow"
"-115.14","67.82","KUGLUKTUK A","2300903","2021-03-10 15:00","2021","03","10","15:00","-23.4","","-27.6","","69","","","","24","","25","","24.1","","101.68","","","","-36","","Blowing Snow"
"-115.14","67.82","KUGLUKTUK A","2300903","2021-03-10 16:00","2021","03","10","16:00","-24.9","","-28.9","","70","","","","22","","18","","24.1","","101.65","","","","-36","","NA"
"-115.14","67.82","KUGLUKTUK A","2300903","2021-03-10 17:00","2021","03","10","17:00","-25.6","","-29.5","","70","","","","22","","19","","24.1","","101.61","","","","-37","","Clear"
"-115.14","67.82","KUGLUKTUK A","2300903","2021-03-10 18:00","2021","03","10","18:00","-25.0","","-28.9","","70","","","","21","","25","","24.1","","101.53","","","","-38","","NA"
"-115.14","67.82","KUGLUKTUK A","2300903","2021-03-10 19:00","2021","03","10","19:00","-26.5","","-30.4","","70","","","","22","","22","","24.1","","101.49","","","","-39","","NA"
"-115.14","67.82","KUGLUKTUK A","2300903","2021-03-10 20:00","2021","03","10","20:00","-26.7","","-30.3","","72","","","","22","","25","","24.1","","101.46","","","","-40","","Clear"
"-115.14","67.82","KUGLUKTUK A","2300903","2021-03-10 21:00","2021","03","10","21:00","-26.8","","-30.5","","71","","","","22","","27","","24.1","","101.41","","","","-41","","NA"
"-115.14","67.82","KUGLUKTUK A","2300903","2021-03-10 22:00","2021","03","10","22:00","-26.7","","-30.4","","71","","","","22","","27","","24.1","","101.35","","","","-41","","NA"
"-115.14","67.82","KUGLUKTUK A","2300903","2021-03-10 23:00","2021","03","10","23:00","-26.5","","-30.2","","71","","","","23","","26","","24.1","","101.30","","","","-40","","Clear"
"-115.14","67.82","KUGLUKTUK A","2300903","2021-03-11 00:00","2021","03","11","00:00","-25.7","","-29.7","","70","","","","23","","23","","24.1","","101.25","","","","-38","","Ice Crystals"
"-115.14","67.82","KUGLUKTUK A","2300903","2021-03-11 01:00","2021","03","11","01:00","-24.9","","-29.1","","69","","","","23","","11","","24.1","","101.24","","","","-34","","Ice Crystals"
"-115.14","67.82","KUGLUKTUK A","2300903","2021-03-11 02:00","2021","03","11","02:00","-24.0","","-28.0","","70","","","","24","","19","","24.1","","101.25","","","","-35","","Ice Crystals"
"-115.14","67.82","KUGLUKTUK A","2300903","2021-03-11 03:00","2021","03","11","03:00","-24.6","","-28.7","","70","","","","23","","19","","24.1","","101.18","","","","-36","","Ice Crystals"
"-115.14","67.82","KUGLUKTUK A","2300903","2021-03-11 04:00","2021","03","11","04:00","-24.4","","-28.5","","69","","","","25","","12","","24.1","","101.13","","","","-33","","Ice Crystals"
"-115.14","67.82","KUGLUKTUK A","2300903","2021-03-11 05:00","2021","03","11","05:00","-26.6","","-30.1","","73","","","","31","","8","","24.1","","101.12","","","","-34","","Ice Crystals"
"-115.14","67.82","KUGLUKTUK A","2300903","2021-03-11 06:00","2021","03","11","06:00","-23.5","","-28.0","","67","","","","21","","7","","24.1","","101.07","","","","-30","","Ice Crystals"
"-115.14","67.82","KUGLUKTUK A","2300903","2021-03-11 07:00","2021","03","11","07:00","-23.9","","-28.3","","68","","","","24","","10","","24.1","","101.00","","","","-32","","NA"
"-115.14","67.82","KUGLUKTUK A","2300903","2021-03-11 08:00","2021","03","11","08:00","-22.8","","-27.5","","67","","","","24","","10","","24.1","","100.92","","","","-31","","Mainly Clear"
"-115.14","67.82","KUGLUKTUK A","2300903","2021-03-11 09:00","2021","03","11","09:00","-26.0","","-29.6","","72","","","","34","","5","","24.1","","100.89","","","","-31","","NA"
"-115.14","67.82","KUGLUKTUK A","2300903","2021-03-11 10:00","2021","03","11","10:00","-25.2","","-29.1","","71","","","","10","","4","","24.1","","100.84","","","","-29","","NA"
"-115.14","67.82","KUGLUKTUK A","2300903","2021-03-11 11:00","2021","03","11","11:00","-24.0","","-28.1","","69","","","","36","","4","","24.1","","100.79","","","","-28","","Mostly Cloudy"
"-115.14","67.82","KUGLUKTUK A","2300903","2021-03-11 12:00","2021","03","11","12:00","-24.5","","-28.3","","71","","","","1","","6","","24.1","","100.74","","","","-30","","NA"
"-115.14","67.82","KUGLUKTUK A","2300903","2021-03-11 13:00","2021","03","11","13:00","-23.6","","-27.3","","73","","","","35","","7","","24.1","","100.71","","","","-30","","NA"
"-115.14","67.82","KUGLUKTUK A","2300903","2021-03-11 14:00","2021","03","11","14:00","-21.9","","-25.3","","75","","","","34","","9","","24.1","","100.73","","","","-29","","Mostly Cloudy"
"-115.14","67.82","KUGLUKTUK A","2300903","2021-03-11 15:00","2021","03","11","15:00","-22.5","","-25.8","","75","","","","36","","7","","24.1","","100.73","","","","-29","","NA"
"-115.14","67.82","KUGLUKTUK A","2300903","2021-03-11 16:00","2021","03","11","16:00","-22.6","","-25.9","","75","","","","35","","4","","24.1","","100.68","","","","-26","","NA"
"-115.14","67.82","KUGLUKTUK A","2300903","2021-03-11 17:00","2021","03","11","17:00","-22.8","","-25.7","","78","","","","31","","5","","24.1","","100.65","","","","-27","","Mostly Cloudy"
"-115.14","67.82","KUGLUKTUK A","2300903","2021-03-11 18:00","2021","03","11","18:00","-22.4","","-25.2","","78","","","","36","","6","","24.1","","100.60","","","","-28","","NA"
"-115.14","67.82","KUGLUKTUK A","2300903","2021-03-11 19:00","2021","03","11","19:00","-19.8","","-24.3","","68","","","","11","","13","","24.1","","100.57","","","","-28","","NA"
"-115.14","67.82","KUGLUKTUK A","2300903","2021-03-11 20:00","2021","03","11","20:00","-19.9","","-24.2","","69","","","","8","","18","","24.1","","100.58","","","","-30","","Cloudy"
"-115.14","67.82","KUGLUKTUK A","2300903","2021-03-11 21:00","2021","03","11","21:00","-18.7","","-23.8","","65","","","","8","","27","","24.1","","100.58","","","","-30","","Ice Crystals"
"-115.14","67.82","KUGLUKTUK A","2300903","2021-03-11 22:00","2021","03","11","22:00","-19.2","","-23.7","","68","","","","8","","24","","24.1","","100.62","","","","-30","","Ice Crystals"
"-115.14","67.82","KUGLUKTUK A","2300903","2021-03-11 23:00","2021","03","11","23:00","-20.0","","-23.1","","77","","","","4","","14","","24.1","","100.67","","","","-29","","Ice Crystals"
"-115.14","67.82","KUGLUKTUK A","2300903","2021-03-12 00:00","2021","03","12","00:00","-21.1","","-24.1","","77","","","","4","","19","","24.1","","100.73","","","","-32","","Ice Crystals"
"-115.14","67.82","KUGLUKTUK A","2300903","2021-03-12 01:00","2021","03","12","01:00","-22.3","","-25.2","","77","","","","4","","18","","24.1","","100.81","","","","-33","","Ice Crystals"
"-115.14","67.82","KUGLUKTUK A","2300903","2021-03-12 02:00","2021","03","12","02:00","-22.9","","-25.8","","77","","","","5","","15","","24.1","","100.88","","","","-33","","Ice Crystals"
"-115.14","67.82","KUGLUKTUK A","2300903","2021-03-12 03:00","2021","03","12","03:00","-24.2","","-27.2","","77","","","","4","","24","","24.1","","100.96","","","","-37","","Ice Crystals"
"-115.14","67.82","KUGLUKTUK A","2300903","2021-03-12 04:00","2021","03","12","04:00","-24.9","","-28.0","","76","","","","4","","22","","24.1","","101.05","","","","-37","","Ice Crystals"
"-115.14","67.82","KUGLUKTUK A","2300903","2021-03-12 05:00","2021","03","12","05:00","-25.3","","-28.6","","75","","","","4","","23","","24.1","","101.17","","","","-38","","Ice Crystals"
"-115.14","67.82","KUGLUKTUK A","2300903","2021-03-12 06:00","2021","03","12","06:00","-25.5","","-28.8","","75","","","","4","","16","","24.1","","101.24","","","","-36","","Ice Crystals"
"-115.14","67.82","KUGLUKTUK A","2300903","2021-03-12 07:00","2021","03","12","07:00","-26.2","","-29.4","","76","","","","3","","18","","24.1","","101.34","","","","-38","","NA"
"-115.14","67.82","KUGLUKTUK A","2300903","2021-03-12 08:00","2021","03","12","08:00","-26.4","","-29.7","","75","","","","3","","20","","24.1","","101.46","","","","-39","","Cloudy"
"-115.14","67.82","KUGLUKTUK A","2300903","2021-03-12 09:00","2021","03","12","09:00","-27.2","","-30.5","","74","","","","3","","15","","19.3","","101.58","","","","-38","","NA"
"-115.14","67.82","KUGLUKTUK A","2300903","2021-03-12 10:00","2021","03","12","10:00","-27.3","","-30.7","","73","","","","4","","16","","19.3","","101.70","","","","-38","","NA"
"-115.14","67.82","KUGLUKTUK A","2300903","2021-03-12 11:00","2021","03","12","11:00","-26.8","","-30.6","","71","","","","6","","13","","19.3","","101.83","","","","-37","","Cloudy"
"-115.14","67.82","KUGLUKTUK A","2300903","2021-03-12 12:00","2021","03","12","12:00","-26.8","","-30.8","","70","","","","6","","11","","19.3","","101.96","","","","-36","","NA"
"-115.14","67.82","KUGLUKTUK A","2300903","2021-03-12 13:00","2021","03","12","13:00","-26.7","","-30.6","","70","","","","5","","11","","24.1","","102.11","","","","-36","","NA"
"-115.14","67.82","KUGLUKTUK A","2300903","2021-03-12 14:00","2021","03","12","14:00","-26.5","","-30.5","","70","","","","3","","7","","24.1","","102.25","","","","-33","","Mostly Cloudy"
"-115.14","67.82","KUGLUKTUK A","2300903","2021-03-12 15:00","2021","03","12","15:00","-26.2","","-30.1","","71","","","","","","0","","24.1","","102.38","","","","","","NA"
"-115.14","67.82","KUGLUKTUK A","2300903","2021-03-12 16:00","2021","03","12","16:00","-27.0","","-30.7","","72","","","","20","","7","","24.1","","102.51","","","","-34","","NA"
"-115.14","67.82","KUGLUKTUK A","2300903","2021-03-12 17:00","2021","03","12","17:00","-26.5","","-30.4","","70","","","","0","","1","","24.1","","102.63","","","","-28","","Cloudy"
"-115.14","67.82","KUGLUKTUK A","2300903","2021-03-12 18:00","2021","03","12","18:00","-26.6","","-30.0","","74","","","","6","","3","","24.1","","102.74","","","","-30","","NA"
"-115.14","67.82","KUGLUKTUK A","2300903","2021-03-12 19:00","2021","03","12","19:00","-27.2","","-30.2","","76","","","","36","","1","","24.1","","102.83","","","","-28","","NA"
"-115.14","67.82","KUGLUKTUK A","2300903","2021-03-12 20:00","2021","03","12","20:00","-29.1","","-32.0","","77","","","","29","","7","","24.1","","102.95","","","","-36","","Mainly Clear"
"-115.14","67.82","KUGLUKTUK A","2300903","2021-03-12 21:00","2021","03","12","21:00","-28.9","","-31.6","","78","","","","29","","8","","24.1","","103.05","","","","-37","","NA"
"-115.14","67.82","KUGLUKTUK A","2300903","2021-03-12 22:00","2021","03","12","22:00","-31.6","","-34.6","","76","","","","23","","5","","24.1","","103.13","","","","-37","","NA"
"-115.14","67.82","KUGLUKTUK A","2300903","2021-03-12 23:00","2021","03","12","23:00","-29.4","","-32.2","","77","","","","24","","4","","24.1","","103.19","","","","-34","","Mainly Clear"
"-115.14","67.82","KUGLUKTUK A","2300903","2021-03-13 00:00","2021","03","13","00:00","-31.0","","-33.8","","77","","","","25","","12","","24.1","","103.28","","","","-41","","NA"
"-115.14","67.82","KUGLUKTUK A","2300903","2021-03-13 01:00","2021","03","13","01:00","-30.4","","-33.2","","77","","","","26","","12","","24.1","","103.37","","","","-41","","NA"
"-115.14","67.82","KUGLUKTUK A","2300903","2021-03-13 02:00","2021","03","13","02:00","-31.1","","-34.1","","75","","","","22","","17","","24.1","","103.43","","","","-44","","Clear"
"-115.14","67.82","KUGLUKTUK A","2300903","2021-03-13 03:00","2021","03","13","03:00","-30.9","","-34.0","","75","","","","22","","18","","24.1","","103.47","","","","-44","","NA"
"-115.14","67.82","KUGLUKTUK A","2300903","2021-03-13 04:00","2021","03","13","04:00","-30.5","","-33.6","","75","","","","21","","14","","24.1","","103.53","","","","-42","","NA"
"-115.14","67.82","KUGLUKTUK A","2300903","2021-03-13 05:00","2021","03","13","05:00","-31.3","","-34.5","","74","","","","21","","13","","24.1","","103.57","","","","-42","","Mainly Clear"
"-115.14","67.82","KUGLUKTUK A","2300903","2021-03-13 06:00","2021","03","13","06:00","-30.6","","-33.8","","74","","","","22","","19","","24.1","","103.59","","","","-44","","NA"
"-115.14","67.82","KUGLUKTUK A","2300903","2021-03-13 07:00","2021","03","13","07:00","-30.6","","-33.8","","74","","","","22","","17","","24.1","","103.59","","","","-43","","NA"
"-115.14","67.82","KUGLUKTUK A","2300903","2021-03-13 08:00","2021","03","13","08:00","-29.8","","-33.0","","74","","","","24","","5","","24.1","","103.60","","","","-35","","Mostly Cloudy"
"-115.14","67.82","KUGLUKTUK A","2300903","2021-03-13 09:00","2021","03","13","09:00","-30.6","","-33.8","","74","","","","26","","4","","24.1","","103.65","","","","-35","","NA"
"-115.14","67.82","KUGLUKTUK A","2300903","2021-03-13 10:00","2021","03","13","10:00","-29.5","","-32.8","","74","","","","20","","9","","24.1","","103.66","","","","-38","","NA"
"-115.14","67.82","KUGLUKTUK A","2300903","2021-03-13 11:00","2021","03","13","11:00","-29.2","","-32.6","","74","","","","32","","5","","24.1","","103.66","","","","-35","","Cloudy"
"-115.14","67.82","KUGLUKTUK A","2300903","2021-03-13 12:00","2021","03","13","12:00","-28.2","","-31.9","","71","","","","34","","3","","24.1","","103.66","","","","-31","","NA"
"-115.14","67.82","KUGLUKTUK A","2300903","2021-03-13 13:00","2021","03","13","13:00","-27.6","","-31.6","","69","","","","36","","3","","24.1","","103.67","","","","-31","","NA"
"-115.14","67.82","KUGLUKTUK A","2300903","2021-03-13 14:00","2021","03","13","14:00","-27.8","","-31.7","","70","","","","1","","3","","24.1","","103.64","","","","-31","","Mostly Cloudy"
"-115.14","67.82","KUGLUKTUK A","2300903","2021-03-13 15:00","2021","03","13","15:00","-27.4","","-31.0","","72","","","","12","","4","","24.1","","103.58","","","","-32","","NA"
"-115.14","67.82","KUGLUKTUK A","2300903","2021-03-13 16:00","2021","03","13","16:00","-27.0","","-30.7","","71","","","","33","","5","","24.1","","103.52","","","","-32","","NA"
"-115.14","67.82","KUGLUKTUK A","2300903","2021-03-13 17:00","2021","03","13","17:00","-26.6","","-30.3","","72","","","","35","","5","","24.1","","103.50","","","","-32","","Mostly Cloudy"
"-115.14","67.82","KUGLUKTUK A","2300903","2021-03-13 18:00","2021","03","13","18:00","-27.1","","-30.4","","74","","","","36","","4","","24.1","","103.48","","","","-31","","NA"
"-115.14","67.82","KUGLUKTUK A","2300903","2021-03-13 19:00","2021","03","13","19:00","-28.4","","-31.5","","75","","","","20","","5","","24.1","","103.44","","","","-34","","NA"
"-115.14","67.82","KUGLUKTUK A","2300903","2021-03-13 20:00","2021","03","13","20:00","-27.9","","-30.7","","77","","","","36","","1","","24.1","","103.39","","","","-29","","Clear"
"-115.14","67.82","KUGLUKTUK A","2300903","2021-03-13 21:00","2021","03","13","21:00","-29.3","","-32.1","","78","","","","30","","5","","24.1","","103.35","","","","-35","","NA"
"-115.14","67.82","KUGLUKTUK A","2300903","2021-03-13 22:00","2021","03","13","22:00","-30.0","","-32.6","","78","","","","0","","1","","24.1","","103.33","","","","-31","","NA"
"-115.14","67.82","KUGLUKTUK A","2300903","2021-03-13 23:00","2021","03","13","23:00","-29.9","","-32.7","","78","","","","30","","9","","24.1","","103.30","","","","-38","","Clear"
"-115.14","67.82","KUGLUKTUK A","2300903","2021-03-14 00:00","2021","03","14","00:00","-30.7","","-33.5","","77","","","","36","","1","","24.1","","103.22","","","","-32","","NA"
"-115.14","67.82","KUGLUKTUK A","2300903","2021-03-14 01:00","2021","03","14","01:00","-31.1","","-33.7","","79","","","","21","","9","","24.1","","103.17","","","","-40","","NA"
"-115.14","67.82","KUGLUKTUK A","2300903","2021-03-14 02:00","2021","03","14","02:00","-34.3","","-37.4","","74","","","","34","","9","","24.1","","103.13","","","","-44","","Clear"
"-115.14","67.82","KUGLUKTUK A","2300903","2021-03-14 03:00","2021","03","14","03:00","-32.8","","-35.6","","77","","","","24","","5","","24.1","","103.11","","","","-39","","NA"
"-115.14","67.82","KUGLUKTUK A","2300903","2021-03-14 04:00","2021","03","14","04:00","-33.0","","-35.9","","76","","","","36","","3","","24.1","","103.05","","","","-37","","NA"
"-115.14","67.82","KUGLUKTUK A","2300903","2021-03-14 05:00","2021","03","14","05:00","-31.0","","-33.9","","76","","","","35","","3","","24.1","","103.02","","","","-34","","Mainly Clear"
"-115.14","67.82","KUGLUKTUK A","2300903","2021-03-14 06:00","2021","03","14","06:00","-33.7","","-37.0","","73","","","","33","","8","","24.1","","102.92","","","","-42","","NA"
"-115.14","67.82","KUGLUKTUK A","2300903","2021-03-14 07:00","2021","03","14","07:00","-32.1","","-35.1","","75","","","","1","","4","","24.1","","102.89","","","","-37","","NA"
"-115.14","67.82","KUGLUKTUK A","2300903","2021-03-14 08:00","2021","03","14","08:00","-32.4","","-35.6","","74","","","","4","","7","","19.3","","102.80","","","","-40","","Mostly Cloudy"
"-115.14","67.82","KUGLUKTUK A","2300903","2021-03-14 09:00","2021","03","14","09:00","-31.4","","-34.6","","74","","","","1","","5","","24.1","","102.76","","","","-37","","NA"
"-115.14","67.82","KUGLUKTUK A","2300903","2021-03-14 10:00","2021","03","14","10:00","-29.6","","-32.8","","74","","","","4","","10","","24.1","","102.71","","","","-39","","Snow"
"-115.14","67.82","KUGLUKTUK A","2300903","2021-03-14 11:00","2021","03","14","11:00","-29.1","","-32.3","","75","","","","3","","15","","16.1","","102.59","","","","-40","","Snow"
"-115.14","67.82","KUGLUKTUK A","2300903","2021-03-14 12:00","2021","03","14","12:00","-28.8","","-31.9","","75","","","","5","","12","","16.1","","102.52","","","","-39","","Snow"
"-115.14","67.82","KUGLUKTUK A","2300903","2021-03-14 13:00","2021","03","14","13:00","-27.1","","-30.1","","76","","","","4","","14","","12.9","","102.43","","","","-37","","Snow"
"-115.14","67.82","KUGLUKTUK A","2300903","2021-03-14 14:00","2021","03","14","14:00","-26.4","","-29.4","","76","","","","5","","13","","9.7","","102.38","","","","-36","","Snow"
"-115.14","67.82","KUGLUKTUK A","2300903","2021-03-14 15:00","2021","03","14","15:00","-25.3","","-28.2","","77","","","","6","","10","","16.1","","102.26","","","","-34","","NA"
"-115.14","67.82","KUGLUKTUK A","2300903","2021-03-14 16:00","2021","03","14","16:00","-22.4","","-25.0","","80","","","","7","","18","","12.9","","102.12","","","","-33","","NA"
"-115.14","67.82","KUGLUKTUK A","2300903","2021-03-14 17:00","2021","03","14","17:00","-21.3","","-23.8","","80","","","","7","","30","","2.4","","102.04","","","","-34","","Snow,Fog,Blowing Snow"
"-115.14","67.82","KUGLUKTUK A","2300903","2021-03-14 18:00","2021","03","14","18:00","-21.2","","-23.7","","81","","","","7","","36","","0.8","","101.92","","","","-35","","Snow,Blowing Snow"
"-115.14","67.82","KUGLUKTUK A","2300903","2021-03-14 19:00","2021","03","14","19:00","-20.9","","-23.3","","81","","","","8","","44","","0.2","","101.82","","","","-36","","Blowing Snow"
"-115.14","67.82","KUGLUKTUK A","2300903","2021-03-14 20:00","2021","03","14","20:00","-20.5","","-22.9","","81","","","","8","","49","","0.2","","101.73","","","","-36","","Blowing Snow"
"-115.14","67.82","KUGLUKTUK A","2300903","2021-03-14 21:00","2021","03","14","21:00","-20.2","","-22.6","","81","","","","8","","48","","0.2","","101.69","","","","-35","","Blowing Snow"
"-115.14","67.82","KUGLUKTUK A","2300903","2021-03-14 22:00","2021","03","14","22:00","-19.9","","-22.2","","82","","","","8","","48","","0.0","","101.60","","","","-35","","Blowing Snow"
"-115.14","67.82","KUGLUKTUK A","2300903","2021-03-14 23:00","2021","03","14","23:00","-19.9","","-22.2","","82","","","","8","","57","","0.2","","101.52","","","","-36","","Blowing Snow"
"-115.14","67.82","KUGLUKTUK A","2300903","2021-03-15 00:00","2021","03","15","00:00","-19.7","","-22.0","","82","","","","9","","53","","0.0","","101.40","","","","-35","","Blowing Snow"
"-115.14","67.82","KUGLUKTUK A","2300903","2021-03-15 01:00","2021","03","15","01:00","-19.6","","-21.9","","82","","","","8","","54","","0.0","","101.28","","","","-35","","Blowing Snow"
"-115.14","67.82","KUGLUKTUK A","2300903","2021-03-15 02:00","2021","03","15","02:00","-19.4","","-21.8","","82","","","","8","","47","","0.0","","101.18","","","","-34","","Blowing Snow"
"-115.14","67.82","KUGLUKTUK A","2300903","2021-03-15 03:00","2021","03","15","03:00","-19.5","","-21.9","","82","","","","9","","52","","0.0","","101.07","","","","-35","","Blowing Snow"
"-115.14","67.82","KUGLUKTUK A","2300903","2021-03-15 04:00","2021","03","15","04:00","-19.1","","-21.4","","82","","","","9","","52","","0.0","","101.01","","","","-34","","Blowing Snow"
"-115.14","67.82","KUGLUKTUK A","2300903","2021-03-15 05:00","2021","03","15","05:00","-18.6","","-20.9","","83","","","","9","","59","","0.0","","100.89","","","","-34","","Blowing Snow"
"-115.14","67.82","KUGLUKTUK A","2300903","2021-03-15 06:00","2021","03","15","06:00","-18.2","","-20.4","","83","","","","9","","48","","0.0","","100.89","","","","-33","","Blowing Snow"
"-115.14","67.82","KUGLUKTUK A","2300903","2021-03-15 07:00","2021","03","15","07:00","-18.1","","-20.2","","83","","","","9","","45","","0.0","","100.82","","","","-32","","Blowing Snow"
"-115.14","67.82","KUGLUKTUK A","2300903","2021-03-15 08:00","2021","03","15","08:00","-17.6","","-19.6","","84","","","","9","","44","","0.0","","100.75","","","","-31","","Blowing Snow"
"-115.14","67.82","KUGLUKTUK A","2300903","2021-03-15 09:00","2021","03","15","09:00","-16.9","","-19.0","","84","","","","10","","35","","0.2","","100.71","","","","-29","","Blowing Snow"
"-115.14","67.82","KUGLUKTUK A","2300903","2021-03-15 10:00","2021","03","15","10:00","-15.9","","-18.1","","83","","","","11","","40","","0.2","","100.65","","","","-29","","Blowing Snow"
"-115.14","67.82","KUGLUKTUK A","2300903","2021-03-15 11:00","2021","03","15","11:00","-15.8","","-18.1","","83","","","","11","","31","","0.8","","100.60","","","","-27","","Blowing Snow"
"-115.14","67.82","KUGLUKTUK A","2300903","2021-03-15 12:00","2021","03","15","12:00","-15.7","","-18.0","","83","","","","11","","26","","0.8","","100.57","","","","-26","","Blowing Snow"
"-115.14","67.82","KUGLUKTUK A","2300903","2021-03-15 13:00","2021","03","15","13:00","-15.6","","-17.9","","83","","","","10","","26","","1.2","","100.52","","","","-26","","Blowing Snow"
"-115.14","67.82","KUGLUKTUK A","2300903","2021-03-15 14:00","2021","03","15","14:00","-15.6","","-17.9","","83","","","","10","","30","","1.6","","100.48","","","","-27","","Blowing Snow"
"-115.14","67.82","KUGLUKTUK A","2300903","2021-03-15 15:00","2021","03","15","15:00","-15.6","","-17.9","","83","","","","10","","23","","2.0","","100.45","","","","-26","","Blowing Snow"
"-115.14","67.82","KUGLUKTUK A","2300903","2021-03-15 16:00","2021","03","15","16:00","-16.0","","-18.4","","82","","","","8","","27","","1.6","","100.44","","","","-27","","Snow,Blowing Snow"
"-115.14","67.82","KUGLUKTUK A","2300903","2021-03-15 17:00","2021","03","15","17:00","-17.2","","-19.3","","84","","","","9","","28","","1.2","","100.46","","","","-29","","Snow,Blowing Snow"
"-115.14","67.82","KUGLUKTUK A","2300903","2021-03-15 18:00","2021","03","15","18:00","-18.2","","-20.4","","83","","","","9","","27","","1.0","","100.46","","","","-30","","Snow,Blowing Snow"
"-115.14","67.82","KUGLUKTUK A","2300903","2021-03-15 19:00","2021","03","15","19:00","-18.8","","-21.1","","83","","","","9","","26","","1.2","","100.47","","","","-30","","Snow,Blowing Snow"
"-115.14","67.82","KUGLUKTUK A","2300903","2021-03-15 20:00","2021","03","15","20:00","-19.1","","-21.6","","81","","","","9","","18","","6.4","","100.51","","","","-29","","Snow"
"-115.14","67.82","KUGLUKTUK A","2300903","2021-03-15 21:00","2021","03","15","21:00","-19.5","","-21.9","","81","","","","8","","21","","4.8","","100.52","","","","-30","","Snow"
"-115.14","67.82","KUGLUKTUK A","2300903","2021-03-15 22:00","2021","03","15","22:00","-19.6","","-22.1","","81","","","","8","","19","","12.9","","100.53","","","","-30","","Ice Crystals"
"-115.14","67.82","KUGLUKTUK A","2300903","2021-03-15 23:00","2021","03","15","23:00","-19.8","","-22.2","","82","","","","2","","21","","12.9","","100.61","","","","-30","","Ice Crystals"
"-115.14","67.82","KUGLUKTUK A","2300903","2021-03-16 00:00","2021","03","16","00:00","-20.1","","-22.7","","81","","","","3","","24","","8.1","","100.66","","","","-32","","Ice Crystals"
"-115.14","67.82","KUGLUKTUK A","2300903","2021-03-16 01:00","2021","03","16","01:00","-21.0","","-23.5","","81","","","","3","","19","","12.9","","100.72","","","","-31","","Ice Crystals"
"-115.14","67.82","KUGLUKTUK A","2300903","2021-03-16 02:00","2021","03","16","02:00","-22.1","","-24.6","","80","","","","36","","8","","6.4","","100.78","","","","-29","","Ice Crystals"
"-115.14","67.82","KUGLUKTUK A","2300903","2021-03-16 03:00","2021","03","16","03:00","-23.1","","-25.5","","81","","","","32","","15","","4.8","","100.85","","","","-33","","Ice Crystals"
"-115.14","67.82","KUGLUKTUK A","2300903","2021-03-16 04:00","2021","03","16","04:00","-23.5","","-25.9","","82","","","","29","","6","","16.1","","100.85","","","","-29","","Ice Crystals"
"-115.14","67.82","KUGLUKTUK A","2300903","2021-03-16 05:00","2021","03","16","05:00","-24.9","","-27.3","","80","","","","28","","11","","16.1","","100.92","","","","-34","","Ice Crystals"
"-115.14","67.82","KUGLUKTUK A","2300903","2021-03-16 06:00","2021","03","16","06:00","-24.8","","-27.3","","80","","","","29","","8","","24.1","","100.95","","","","-32","","Ice Crystals"
"-115.14","67.82","KUGLUKTUK A","2300903","2021-03-16 07:00","2021","03","16","07:00","-25.8","","-28.4","","79","","","","25","","11","","24.1","","101.01","","","","-35","","Ice Crystals"
"-115.14","67.82","KUGLUKTUK A","2300903","2021-03-16 08:00","2021","03","16","08:00","-26.9","","-29.6","","78","","","","23","","17","","24.1","","101.05","","","","-38","","Ice Crystals"
"-115.14","67.82","KUGLUKTUK A","2300903","2021-03-16 09:00","2021","03","16","09:00","-27.5","","-30.4","","77","","","","23","","25","","24.1","","101.11","","","","-41","","Ice Crystals"
"-115.14","67.82","KUGLUKTUK A","2300903","2021-03-16 10:00","2021","03","16","10:00","-27.4","","-30.5","","76","","","","23","","22","","24.1","","101.18","","","","-40","","NA"
"-115.14","67.82","KUGLUKTUK A","2300903","2021-03-16 11:00","2021","03","16","11:00","-26.6","","-29.8","","75","","","","22","","21","","24.1","","101.22","","","","-39","","Clear"
"-115.14","67.82","KUGLUKTUK A","2300903","2021-03-16 12:00","2021","03","16","12:00","-25.5","","-28.9","","73","","","","22","","16","","24.1","","101.25","","","","-36","","NA"
"-115.14","67.82","KUGLUKTUK A","2300903","2021-03-16 13:00","2021","03","16","13:00","-24.4","","-27.9","","73","","","","23","","23","","24.1","","101.23","","","","-37","","NA"
"-115.14","67.82","KUGLUKTUK A","2300903","2021-03-16 14:00","2021","03","16","14:00","-24.1","","-27.6","","74","","","","23","","16","","24.1","","101.25","","","","-34","","Mainly Clear"
"-115.14","67.82","KUGLUKTUK A","2300903","2021-03-16 15:00","2021","03","16","15:00","-24.3","","-27.7","","74","","","","24","","23","","24.1","","101.26","","","","-37","","NA"
"-115.14","67.82","KUGLUKTUK A","2300903","2021-03-16 16:00","2021","03","16","16:00","-24.6","","-27.9","","75","","","","24","","23","","24.1","","101.29","","","","-37","","NA"
"-115.14","67.82","KUGLUKTUK A","2300903","2021-03-16 17:00","2021","03","16","17:00","-25.6","","-28.9","","74","","","","23","","19","","24.1","","101.30","","","","-37","","Mainly Clear"
"-115.14","67.82","KUGLUKTUK A","2300903","2021-03-16 18:00","2021","03","16","18:00","-25.7","","-28.8","","76","","","","23","","15","","24.1","","101.26","","","","-36","","NA"
"-115.14","67.82","KUGLUKTUK A","2300903","2021-03-16 19:00","2021","03","16","19:00","-26.5","","-29.6","","76","","","","23","","14","","24.1","","101.27","","","","-37","","NA"
"-115.14","67.82","KUGLUKTUK A","2300903","2021-03-16 20:00","2021","03","16","20:00","-26.3","","-29.3","","76","","","","24","","18","","24.1","","101.25","","","","-38","","Clear"
"-115.14","67.82","KUGLUKTUK A","2300903","2021-03-16 21:00","2021","03","16","21:00","-26.7","","-29.7","","76","","","","22","","21","","24.1","","101.23","","","","-39","","NA"
"-115.14","67.82","KUGLUKTUK A","2300903","2021-03-16 22:00","2021","03","16","22:00","-26.9","","-30.0","","75","","","","22","","20","","24.1","","101.22","","","","-39","","NA"
"-115.14","67.82","KUGLUKTUK A","2300903","2021-03-16 23:00","2021","03","16","23:00","-27.3","","-30.5","","75","","","","23","","20","","24.1","","101.20","","","","-40","","Clear"
"-115.14","67.82","KUGLUKTUK A","2300903","2021-03-17 00:00","2021","03","17","00:00","-27.0","","-30.4","","73","","","","23","","21","","24.1","","101.23","","","","-40","","NA"
"-115.14","67.82","KUGLUKTUK A","2300903","2021-03-17 01:00","2021","03","17","01:00","-28.2","","-31.5","","74","","","","22","","21","","24.1","","101.20","","","","-41","","NA"
"-115.14","67.82","KUGLUKTUK A","2300903","2021-03-17 02:00","2021","03","17","02:00","-28.4","","-31.5","","75","","","","23","","23","","24.1","","101.18","","","","-42","","Clear"
"-115.14","67.82","KUGLUKTUK A","2300903","2021-03-17 03:00","2021","03","17","03:00","-28.2","","-31.6","","73","","","","23","","28","","24.1","","101.18","","","","-43","","NA"
"-115.14","67.82","KUGLUKTUK A","2300903","2021-03-17 04:00","2021","03","17","04:00","-28.3","","-31.6","","74","","","","23","","26","","24.1","","101.20","","","","-43","","NA"
"-115.14","67.82","KUGLUKTUK A","2300903","2021-03-17 05:00","2021","03","17","05:00","-28.5","","-32.0","","73","","","","22","","20","","24.1","","101.20","","","","-41","","Clear"
"-115.14","67.82","KUGLUKTUK A","2300903","2021-03-17 06:00","2021","03","17","06:00","-28.5","","-32.0","","73","","","","22","","21","","24.1","","101.20","","","","-41","","NA"
"-115.14","67.82","KUGLUKTUK A","2300903","2021-03-17 07:00","2021","03","17","07:00","-29.2","","-32.6","","73","","","","23","","24","","24.1","","101.16","","","","-43","","NA"
"-115.14","67.82","KUGLUKTUK A","2300903","2021-03-17 08:00","2021","03","17","08:00","-27.7","","-31.3","","72","","","","23","","27","","24.1","","101.19","","","","-42","","Clear"
"-115.14","67.82","KUGLUKTUK A","2300903","2021-03-17 09:00","2021","03","17","09:00","-26.5","","-30.3","","71","","","","23","","29","","24.1","","101.17","","","","-41","","Blowing Snow"
"-115.14","67.82","KUGLUKTUK A","2300903","2021-03-17 10:00","2021","03","17","10:00","-25.8","","-29.8","","70","","","","23","","22","","24.1","","101.20","","","","-38","","NA"
"-115.14","67.82","KUGLUKTUK A","2300903","2021-03-17 11:00","2021","03","17","11:00","-25.1","","-29.1","","70","","","","22","","16","","24.1","","101.20","","","","-36","","Clear"
"-115.14","67.82","KUGLUKTUK A","2300903","2021-03-17 12:00","2021","03","17","12:00","-23.6","","-27.8","","69","","","","24","","26","","24.1","","101.16","","","","-36","","NA"
"-115.14","67.82","KUGLUKTUK A","2300903","2021-03-17 13:00","2021","03","17","13:00","-23.5","","-27.6","","70","","","","23","","18","","24.1","","101.14","","","","-34","","NA"
"-115.14","67.82","KUGLUKTUK A","2300903","2021-03-17 14:00","2021","03","17","14:00","-22.3","","-26.5","","70","","","","24","","26","","24.1","","101.13","","","","-35","","Blowing Snow"
"-115.14","67.82","KUGLUKTUK A","2300903","2021-03-17 15:00","2021","03","17","15:00","-22.3","","-26.5","","69","","","","23","","23","","24.1","","101.10","","","","-34","","NA"
"-115.14","67.82","KUGLUKTUK A","2300903","2021-03-17 16:00","2021","03","17","16:00","-22.2","","-26.4","","69","","","","23","","19","","24.1","","101.04","","","","-33","","NA"
"-115.14","67.82","KUGLUKTUK A","2300903","2021-03-17 17:00","2021","03","17","17:00","-22.8","","-27.0","","69","","","","22","","24","","24.1","","100.99","","","","-35","","Clear"
"-115.14","67.82","KUGLUKTUK A","2300903","2021-03-17 18:00","2021","03","17","18:00","-25.0","","-28.8","","72","","","","22","","18","","24.1","","100.93","","","","-36","","NA"
"-115.14","67.82","KUGLUKTUK A","2300903","2021-03-17 19:00","2021","03","17","19:00","-25.3","","-28.9","","73","","","","22","","24","","24.1","","100.83","","","","-38","","NA"
"-115.14","67.82","KUGLUKTUK A","2300903","2021-03-17 20:00","2021","03","17","20:00","-25.0","","-28.9","","70","","","","23","","28","","24.1","","100.78","","","","-39","","Clear"
"-115.14","67.82","KUGLUKTUK A","2300903","2021-03-17 21:00","2021","03","17","21:00","-25.7","","-29.2","","73","","","","23","","20","","24.1","","100.71","","","","-38","","NA"
"-115.14","67.82","KUGLUKTUK A","2300903","2021-03-17 22:00","2021","03","17","22:00","-24.9","","-28.5","","72","","","","24","","19","","24.1","","100.66","","","","-36","","NA"
"-115.14","67.82","KUGLUKTUK A","2300903","2021-03-17 23:00","2021","03","17","23:00","-24.3","","-28.7","","68","","","","23","","21","","24.1","","100.57","","","","-36","","Clear"
"-115.14","67.82","KUGLUKTUK A","2300903","2021-03-18 00:00","2021","03","18","00:00","-25.6","","-29.8","","69","","","","24","","17","","24.1","","100.53","","","","-37","","NA"
"-115.14","67.82","KUGLUKTUK A","2300903","2021-03-18 01:00","2021","03","18","01:00","-25.9","","-29.2","","74","","","","28","","12","","24.1","","100.49","","","","-35","","NA"
"-115.14","67.82","KUGLUKTUK A","2300903","2021-03-18 02:00","2021","03","18","02:00","-27.5","","-30.4","","77","","","","18","","9","","24.1","","100.43","","","","-36","","Clear"
"-115.14","67.82","KUGLUKTUK A","2300903","2021-03-18 03:00","2021","03","18","03:00","-27.1","","-30.3","","75","","","","22","","15","","24.1","","100.37","","","","-38","","NA"
"-115.14","67.82","KUGLUKTUK A","2300903","2021-03-18 04:00","2021","03","18","04:00","-24.2","","-27.4","","75","","","","30","","8","","24.1","","100.39","","","","-31","","NA"
"-115.14","67.82","KUGLUKTUK A","2300903","2021-03-18 05:00","2021","03","18","05:00","-25.9","","-28.9","","76","","","","22","","5","","24.1","","100.38","","","","-31","","Mainly Clear"
"-115.14","67.82","KUGLUKTUK A","2300903","2021-03-18 06:00","2021","03","18","06:00","-26.4","","-29.7","","74","","","","24","","5","","24.1","","100.39","","","","-32","","NA"
"-115.14","67.82","KUGLUKTUK A","2300903","2021-03-18 07:00","2021","03","18","07:00","-29.4","","-32.3","","76","","","","23","","24","","24.1","","100.37","","","","-43","","NA"
"-115.14","67.82","KUGLUKTUK A","2300903","2021-03-18 08:00","2021","03","18","08:00","-27.4","","-30.6","","75","","","","24","","21","","24.1","","100.41","","","","-40","","Clear"
"-115.14","67.82","KUGLUKTUK A","2300903","2021-03-18 09:00","2021","03","18","09:00","-27.4","","-30.9","","73","","","","24","","9","","24.1","","100.48","","","","-36","","NA"
"-115.14","67.82","KUGLUKTUK A","2300903","2021-03-18 10:00","2021","03","18","10:00","-26.8","","-30.2","","73","","","","23","","9","","24.1","","100.51","","","","-35","","NA"
"-115.14","67.82","KUGLUKTUK A","2300903","2021-03-18 11:00","2021","03","18","11:00","-26.9","","-30.7","","71","","","","22","","14","","24.1","","100.54","","","","-37","","Mainly Clear"
"-115.14","67.82","KUGLUKTUK A","2300903","2021-03-18 12:00","2021","03","18","12:00","-25.4","","-29.1","","72","","","","21","","9","","24.1","","100.56","","","","-33","","NA"
"-115.14","67.82","KUGLUKTUK A","2300903","2021-03-18 13:00","2021","03","18","13:00","-24.4","","-28.5","","70","","","","23","","19","","24.1","","100.59","","","","-36","","NA"
"-115.14","67.82","KUGLUKTUK A","2300903","2021-03-18 14:00","2021","03","18","14:00","-23.6","","-27.7","","70","","","","23","","22","","24.1","","100.62","","","","-36","","Clear"
"-115.14","67.82","KUGLUKTUK A","2300903","2021-03-18 15:00","2021","03","18","15:00","-22.7","","-26.8","","70","","","","22","","19","","24.1","","100.67","","","","-34","","NA"
"-115.14","67.82","KUGLUKTUK A","2300903","2021-03-18 16:00","2021","03","18","16:00","-22.5","","-26.9","","68","","","","27","","3","","24.1","","100.67","","","","-25","","NA"
"-115.14","67.82","KUGLUKTUK A","2300903","2021-03-18 17:00","2021","03","18","17:00","-23.8","","-27.4","","72","","","","23","","3","","24.1","","100.73","","","","-27","","Mostly Cloudy"
"-115.14","67.82","KUGLUKTUK A","2300903","2021-03-18 18:00","2021","03","18","18:00","-23.4","","-27.0","","73","","","","22","","19","","24.1","","100.75","","","","-34","","NA"
"-115.14","67.82","KUGLUKTUK A","2300903","2021-03-18 19:00","2021","03","18","19:00","-23.0","","-27.0","","70","","","","23","","17","","24.1","","100.80","","","","-33","","NA"
"-115.14","67.82","KUGLUKTUK A","2300903","2021-03-18 20:00","2021","03","18","20:00","-23.6","","-27.8","","69","","","","26","","9","","24.1","","100.86","","","","-31","","Mainly Clear"
"-115.14","67.82","KUGLUKTUK A","2300903","2021-03-18 21:00","2021","03","18","21:00","-25.2","","-28.6","","74","","","","22","","14","","24.1","","100.85","","","","-35","","NA"
"-115.14","67.82","KUGLUKTUK A","2300903","2021-03-18 22:00","2021","03","18","22:00","-26.5","","-29.6","","76","","","","25","","3","","24.1","","100.91","","","","-30","","NA"
"-115.14","67.82","KUGLUKTUK A","2300903","2021-03-18 23:00","2021","03","18","23:00","-27.2","","-30.3","","75","","","","29","","5","","24.1","","100.95","","","","-32","","Clear"
"-115.14","67.82","KUGLUKTUK A","2300903","2021-03-19 00:00","2021","03","19","00:00","-26.1","","-29.2","","76","","","","23","","10","","24.1","","101.04","","","","-34","","NA"
"-115.14","67.82","KUGLUKTUK A","2300903","2021-03-19 01:00","2021","03","19","01:00","-28.6","","-31.8","","75","","","","33","","3","","24.1","","101.08","","","","-32","","NA"
"-115.14","67.82","KUGLUKTUK A","2300903","2021-03-19 02:00","2021","03","19","02:00","-27.9","","-30.8","","77","","","","28","","7","","24.1","","101.14","","","","-35","","Clear"
"-115.14","67.82","KUGLUKTUK A","2300903","2021-03-19 03:00","2021","03","19","03:00","-29.6","","-32.4","","77","","","","21","","9","","24.1","","101.18","","","","-38","","NA"
"-115.14","67.82","KUGLUKTUK A","2300903","2021-03-19 04:00","2021","03","19","04:00","-28.6","","-31.6","","76","","","","36","","2","","24.1","","101.19","","","","-31","","NA"
"-115.14","67.82","KUGLUKTUK A","2300903","2021-03-19 05:00","2021","03","19","05:00","-29.4","","-32.3","","77","","","","22","","3","","24.1","","101.22","","","","-33","","Clear"
"-115.14","67.82","KUGLUKTUK A","2300903","2021-03-19 06:00","2021","03","19","06:00","-28.5","","-31.2","","78","","","","23","","9","","24.1","","101.25","","","","-37","","NA"
"-115.14","67.82","KUGLUKTUK A","2300903","2021-03-19 07:00","2021","03","19","07:00","-31.0","","-34.1","","75","","","","36","","3","","24.1","","101.28","","","","-34","","NA"
"-115.14","67.82","KUGLUKTUK A","2300903","2021-03-19 08:00","2021","03","19","08:00","-31.6","","-34.6","","76","","","","34","","9","","24.1","","101.32","","","","-40","","Ice Crystals"
"-115.14","67.82","KUGLUKTUK A","2300903","2021-03-19 09:00","2021","03","19","09:00","-29.9","","-32.8","","77","","","","22","","9","","24.1","","101.40","","","","-38","","NA"
"-115.14","67.82","KUGLUKTUK A","2300903","2021-03-19 10:00","2021","03","19","10:00","-28.0","","-31.1","","76","","","","22","","7","","24.1","","101.40","","","","-35","","NA"
"-115.14","67.82","KUGLUKTUK A","2300903","2021-03-19 11:00","2021","03","19","11:00","-28.1","","-31.3","","74","","","","36","","4","","24.1","","101.40","","","","-32","","Clear"
"-115.14","67.82","KUGLUKTUK A","2300903","2021-03-19 12:00","2021","03","19","12:00","-26.7","","-29.9","","75","","","","33","","7","","24.1","","101.42","","","","-33","","NA"
"-115.14","67.82","KUGLUKTUK A","2300903","2021-03-19 13:00","2021","03","19","13:00","-26.5","","-30.1","","73","","","","27","","8","","24.1","","101.41","","","","-34","","NA"
"-115.14","67.82","KUGLUKTUK A","2300903","2021-03-19 14:00","2021","03","19","14:00","-25.1","","-28.6","","73","","","","22","","4","","24.1","","101.42","","","","-29","","Clear"
"-115.14","67.82","KUGLUKTUK A","2300903","2021-03-19 15:00","2021","03","19","15:00","-25.4","","-29.3","","70","","","","33","","3","","24.1","","101.40","","","","-28","","NA"
"-115.14","67.82","KUGLUKTUK A","2300903","2021-03-19 16:00","2021","03","19","16:00","-25.4","","-29.0","","73","","","","2","","4","","24.1","","101.40","","","","-29","","NA"
"-115.14","67.82","KUGLUKTUK A","2300903","2021-03-19 17:00","2021","03","19","17:00","-26.8","","-30.0","","74","","","","31","","6","","24.1","","101.45","","","","-33","","Mostly Cloudy"
"-115.14","67.82","KUGLUKTUK A","2300903","2021-03-19 18:00","2021","03","19","18:00","-26.4","","-29.6","","75","","","","36","","2","","24.1","","101.47","","","","-28","","NA"
"-115.14","67.82","KUGLUKTUK A","2300903","2021-03-19 19:00","2021","03","19","19:00","-28.0","","-31.1","","76","","","","21","","5","","24.1","","101.47","","","","-33","","NA"
"-115.14","67.82","KUGLUKTUK A","2300903","2021-03-19 20:00","2021","03","19","20:00","-27.2","","-30.3","","76","","","","23","","7","","24.1","","101.50","","","","-34","","Mostly Cloudy"
"-115.14","67.82","KUGLUKTUK A","2300903","2021-03-19 21:00","2021","03","19","21:00","-28.1","","-31.3","","75","","","","24","","7","","24.1","","101.49","","","","-35","","NA"
"-115.14","67.82","KUGLUKTUK A","2300903","2021-03-19 22:00","2021","03","19","22:00","-27.5","","-30.5","","76","","","","36","","3","","24.1","","101.49","","","","-31","","NA"
"-115.14","67.82","KUGLUKTUK A","2300903","2021-03-19 23:00","2021","03","19","23:00","-27.0","","-30.1","","76","","","","23","","7","","24.1","","101.46","","","","-34","","Mostly Cloudy"
"-115.14","67.82","KUGLUKTUK A","2300903","2021-03-20 00:00","2021","03","20","00:00","-27.0","","-30.2","","75","","","","29","","5","","24.1","","101.47","","","","-32","","NA"
"-115.14","67.82","KUGLUKTUK A","2300903","2021-03-20 01:00","2021","03","20","01:00","-28.0","","-31.1","","76","","","","21","","4","","24.1","","101.45","","","","-32","","NA"
"-115.14","67.82","KUGLUKTUK A","2300903","2021-03-20 02:00","2021","03","20","02:00","-28.6","","-31.6","","77","","","","23","","10","","24.1","","101.47","","","","-37","","Mainly Clear"
"-115.14","67.82","KUGLUKTUK A","2300903","2021-03-20 03:00","2021","03","20","03:00","-28.4","","-31.2","","77","","","","25","","5","","24.1","","101.46","","","","-34","","Ice Crystals"
"-115.14","67.82","KUGLUKTUK A","2300903","2021-03-20 04:00","2021","03","20","04:00","-28.8","","-31.5","","78","","","","23","","8","","19.3","","101.50","","","","-37","","Ice Crystals"
"-115.14","67.82","KUGLUKTUK A","2300903","2021-03-20 05:00","2021","03","20","05:00","-29.4","","-32.3","","77","","","","25","","10","","24.1","","101.49","","","","-38","","Ice Crystals"
"-115.14","67.82","KUGLUKTUK A","2300903","2021-03-20 06:00","2021","03","20","06:00","-28.4","","-31.1","","78","","","","19","","4","","19.3","","101.53","","","","-33","","Ice Crystals"
"-115.14","67.82","KUGLUKTUK A","2300903","2021-03-20 07:00","2021","03","20","07:00","-28.0","","-30.8","","78","","","","26","","4","","19.3","","101.55","","","","-32","","Ice Crystals"
"-115.14","67.82","KUGLUKTUK A","2300903","2021-03-20 08:00","2021","03","20","08:00","-28.7","","-31.6","","77","","","","28","","15","","9.7","","101.58","","","","-40","","Ice Crystals,Fog"
"-115.14","67.82","KUGLUKTUK A","2300903","2021-03-20 09:00","2021","03","20","09:00","-26.3","","-29.2","","77","","","","28","","9","","16.1","","101.60","","","","-34","","NA"
"-115.14","67.82","KUGLUKTUK A","2300903","2021-03-20 10:00","2021","03","20","10:00","-27.5","","-30.4","","77","","","","25","","8","","19.3","","101.58","","","","-35","","NA"
"-115.14","67.82","KUGLUKTUK A","2300903","2021-03-20 11:00","2021","03","20","11:00","-25.7","","-29.0","","75","","","","24","","12","","16.1","","101.59","","","","-35","","Mostly Cloudy"
"-115.14","67.82","KUGLUKTUK A","2300903","2021-03-20 12:00","2021","03","20","12:00","-25.4","","-28.6","","75","","","","24","","14","","16.1","","101.59","","","","-35","","NA"
"-115.14","67.82","KUGLUKTUK A","2300903","2021-03-20 13:00","2021","03","20","13:00","-25.4","","-28.8","","74","","","","23","","12","","24.1","","101.57","","","","-35","","NA"
"-115.14","67.82","KUGLUKTUK A","2300903","2021-03-20 14:00","2021","03","20","14:00","-23.8","","-28.0","","69","","","","29","","9","","24.1","","101.59","","","","-31","","Cloudy"
"-115.14","67.82","KUGLUKTUK A","2300903","2021-03-20 15:00","2021","03","20","15:00","-23.9","","-27.8","","71","","","","31","","7","","16.1","","101.62","","","","-30","","NA"
"-115.14","67.82","KUGLUKTUK A","2300903","2021-03-20 16:00","2021","03","20","16:00","-23.6","","-27.4","","71","","","","33","","13","","16.1","","101.65","","","","-33","","NA"
"-115.14","67.82","KUGLUKTUK A","2300903","2021-03-20 17:00","2021","03","20","17:00","-23.8","","-27.1","","75","","","","30","","15","","4.8","","101.68","","","","-34","","Ice Crystals,Fog"
"-115.14","67.82","KUGLUKTUK A","2300903","2021-03-20 18:00","2021","03","20","18:00","-24.2","","-27.4","","75","","","","28","","13","","4.8","","101.73","","","","-34","","Ice Crystals,Fog"
"-115.14","67.82","KUGLUKTUK A","2300903","2021-03-20 19:00","2021","03","20","19:00","-24.4","","-27.7","","75","","","","30","","9","","4.8","","101.77","","","","-32","","Snow"
"-115.14","67.82","KUGLUKTUK A","2300903","2021-03-20 20:00","2021","03","20","20:00","-24.4","","-27.5","","77","","","","32","","18","","4.8","","101.80","","","","-35","","Snow"
"-115.14","67.82","KUGLUKTUK A","2300903","2021-03-20 21:00","2021","03","20","21:00","-25.7","","-28.6","","77","","","","31","","12","","19.3","","101.81","","","","-35","","NA"
"-115.14","67.82","KUGLUKTUK A","2300903","2021-03-20 22:00","2021","03","20","22:00","-25.7","","-28.6","","77","","","","32","","14","","19.3","","101.82","","","","-36","","Ice Crystals"
"-115.14","67.82","KUGLUKTUK A","2300903","2021-03-20 23:00","2021","03","20","23:00","-25.2","","-28.0","","78","","","","35","","11","","19.3","","101.85","","","","-34","","Ice Crystals"
"-115.14","67.82","KUGLUKTUK A","2300903","2021-03-21 00:00","2021","03","21","00:00","-25.4","","-28.1","","78","","","","2","","8","","19.3","","101.89","","","","-33","","Ice Crystals"
"-115.14","67.82","KUGLUKTUK A","2300903","2021-03-21 01:00","2021","03","21","01:00","-25.8","","-28.6","","78","","","","1","","10","","24.1","","101.92","","","","-34","","Ice Crystals"
"-115.14","67.82","KUGLUKTUK A","2300903","2021-03-21 02:00","2021","03","21","02:00","-26.4","","-29.2","","78","","","","4","","5","","24.1","","101.94","","","","-32","","Ice Crystals"
"-115.14","67.82","KUGLUKTUK A","2300903","2021-03-21 03:00","2021","03","21","03:00","-26.4","","-28.9","","79","","","","32","","5","","24.1","","101.96","","","","-32","","Ice Crystals"
"-115.14","67.82","KUGLUKTUK A","2300903","2021-03-21 04:00","2021","03","21","04:00","-27.2","","-30.0","","78","","","","4","","8","","19.3","","102.04","","","","-35","","Snow"
"-115.14","67.82","KUGLUKTUK A","2300903","2021-03-21 05:00","2021","03","21","05:00","-28.2","","-31.1","","77","","","","3","","8","","19.3","","102.10","","","","-36","","Snow"
"-115.14","67.82","KUGLUKTUK A","2300903","2021-03-21 06:00","2021","03","21","06:00","-28.3","","-31.3","","76","","","","1","","7","","9.7","","102.13","","","","-35","","Snow"
"-115.14","67.82","KUGLUKTUK A","2300903","2021-03-21 07:00","2021","03","21","07:00","-28.1","","-31.0","","76","","","","2","","13","","12.9","","102.17","","","","-38","","Snow"
"-115.14","67.82","KUGLUKTUK A","2300903","2021-03-21 08:00","2021","03","21","08:00","-28.4","","-31.5","","75","","","","3","","13","","12.9","","102.24","","","","-39","","Snow"
"-115.14","67.82","KUGLUKTUK A","2300903","2021-03-21 09:00","2021","03","21","09:00","-29.4","","-32.6","","74","","","","1","","14","","19.3","","102.29","","","","-40","","NA"
"-115.14","67.82","KUGLUKTUK A","2300903","2021-03-21 10:00","2021","03","21","10:00","-29.8","","-33.3","","72","","","","2","","17","","24.1","","102.37","","","","-42","","NA"
"-115.14","67.82","KUGLUKTUK A","2300903","2021-03-21 11:00","2021","03","21","11:00","-29.6","","-33.5","","70","","","","3","","13","","24.1","","102.44","","","","-40","","Mainly Clear"
"-115.14","67.82","KUGLUKTUK A","2300903","2021-03-21 12:00","2021","03","21","12:00","-29.7","","-33.7","","69","","","","2","","13","","24.1","","102.51","","","","-40","","NA"
"-115.14","67.82","KUGLUKTUK A","2300903","2021-03-21 13:00","2021","03","21","13:00","-29.7","","-33.8","","68","","","","3","","12","","24.1","","102.56","","","","-40","","NA"
"-115.14","67.82","KUGLUKTUK A","2300903","2021-03-21 14:00","2021","03","21","14:00","-29.7","","-33.8","","68","","","","3","","14","","24.1","","102.62","","","","-41","","Clear"
"-115.14","67.82","KUGLUKTUK A","2300903","2021-03-21 15:00","2021","03","21","15:00","-30.0","","-34.1","","68","","","","2","","10","","24.1","","102.67","","","","-39","","NA"
"-115.14","67.82","KUGLUKTUK A","2300903","2021-03-21 16:00","2021","03","21","16:00","-30.0","","-34.2","","68","","","","3","","10","","24.1","","102.71","","","","-39","","NA"
"-115.14","67.82","KUGLUKTUK A","2300903","2021-03-21 17:00","2021","03","21","17:00","-30.6","","-34.6","","68","","","","1","","9","","24.1","","102.74","","","","-39","","Clear"
"-115.14","67.82","KUGLUKTUK A","2300903","2021-03-21 18:00","2021","03","21","18:00","-31.0","","-34.8","","70","","","","3","","8","","24.1","","102.77","","","","-39","","NA"
"-115.14","67.82","KUGLUKTUK A","2300903","2021-03-21 19:00","2021","03","21","19:00","-32.3","","-35.9","","71","","","","2","","10","","24.1","","102.81","","","","-42","","NA"
"-115.14","67.82","KUGLUKTUK A","2300903","2021-03-21 20:00","2021","03","21","20:00","-32.3","","-35.8","","72","","","","3","","8","","24.1","","102.83","","","","-41","","Clear"
"-115.14","67.82","KUGLUKTUK A","2300903","2021-03-21 21:00","2021","03","21","21:00","-32.7","","-36.0","","73","","","","36","","2","","24.1","","102.88","","","","-35","","NA"
"-115.14","67.82","KUGLUKTUK A","2300903","2021-03-21 22:00","2021","03","21","22:00","-33.0","","-36.1","","74","","","","36","","2","","24.1","","102.89","","","","-35","","Ice Crystals"
"-115.14","67.82","KUGLUKTUK A","2300903","2021-03-21 23:00","2021","03","21","23:00","-34.1","","-37.2","","74","","","","30","","4","","24.1","","102.94","","","","-39","","Ice Crystals"
"-115.14","67.82","KUGLUKTUK A","2300903","2021-03-22 00:00","2021","03","22","00:00","-33.6","","-36.8","","74","","","","36","","3","","24.1","","102.97","","","","-37","","NA"
"-115.14","67.82","KUGLUKTUK A","2300903","2021-03-22 01:00","2021","03","22","01:00","-35.5","","-38.6","","74","","","","29","","3","","24.1","","103.03","","","","-39","","NA"
"-115.14","67.82","KUGLUKTUK A","2300903","2021-03-22 02:00","2021","03","22","02:00","-38.4","","-41.4","","74","","","","23","","8","","24.1","","103.07","","","","-48","","Clear"
"-115.14","67.82","KUGLUKTUK A","2300903","2021-03-22 03:00","2021","03","22","03:00","-37.3","","-40.5","","73","","","","23","","7","","24.1","","103.10","","","","-46","","NA"
"-115.14","67.82","KUGLUKTUK A","2300903","2021-03-22 04:00","2021","03","22","04:00","-38.1","","-41.4","","72","","","","22","","15","","24.1","","103.09","","","","-51","","NA"
"-115.14","67.82","KUGLUKTUK A","2300903","2021-03-22 05:00","2021","03","22","05:00","-37.7","","-41.0","","72","","","","23","","14","","24.1","","103.12","","","","-50","","Clear"
"-115.14","67.82","KUGLUKTUK A","2300903","2021-03-22 06:00","2021","03","22","06:00","-38.2","","-41.7","","71","","","","23","","19","","24.1","","103.13","","","","-53","","NA"
"-115.14","67.82","KUGLUKTUK A","2300903","2021-03-22 07:00","2021","03","22","07:00","-38.4","","-42.0","","70","","","","21","","15","","24.1","","103.15","","","","-52","","NA"
"-115.14","67.82","KUGLUKTUK A","2300903","2021-03-22 08:00","2021","03","22","08:00","-37.0","","-40.5","","71","","","","22","","17","","24.1","","103.18","","","","-51","","Clear"
"-115.14","67.82","KUGLUKTUK A","2300903","2021-03-22 09:00","2021","03","22","09:00","-37.1","","-40.8","","70","","","","22","","19","","24.1","","103.21","","","","-52","","NA"
"-115.14","67.82","KUGLUKTUK A","2300903","2021-03-22 10:00","2021","03","22","10:00","-35.6","","-39.1","","71","","","","22","","19","","24.1","","103.23","","","","-50","","NA"
"-115.14","67.82","KUGLUKTUK A","2300903","2021-03-22 11:00","2021","03","22","11:00","-34.4","","-38.0","","71","","","","22","","14","","12.9","","103.27","","","","-46","","Clear"
"-115.14","67.82","KUGLUKTUK A","2300903","2021-03-22 12:00","2021","03","22","12:00","-33.1","","-36.7","","71","","","","24","","11","","9.7","","103.31","","","","-43","","Fog"
"-115.14","67.82","KUGLUKTUK A","2300903","2021-03-22 13:00","2021","03","22","13:00","-32.3","","-35.9","","71","","","","23","","17","","16.1","","103.35","","","","-45","","NA"
"-115.14","67.82","KUGLUKTUK A","2300903","2021-03-22 14:00","2021","03","22","14:00","-31.3","","-35.0","","71","","","","23","","17","","24.1","","103.38","","","","-44","","Clear"
"-115.14","67.82","KUGLUKTUK A","2300903","2021-03-22 15:00","2021","03","22","15:00","-30.5","","-34.5","","69","","","","24","","13","","24.1","","103.38","","","","-41","","NA"
"-115.14","67.82","KUGLUKTUK A","2300903","2021-03-22 16:00","2021","03","22","16:00","-30.6","","-34.8","","68","","","","22","","9","","24.1","","103.39","","","","-39","","NA"
"-115.14","67.82","KUGLUKTUK A","2300903","2021-03-22 17:00","2021","03","22","17:00","-31.3","","-35.5","","67","","","","23","","13","","24.1","","103.39","","","","-42","","Clear"
"-115.14","67.82","KUGLUKTUK A","2300903","2021-03-22 18:00","2021","03","22","18:00","-32.3","","-36.3","","68","","","","24","","17","","24.1","","103.39","","","","-45","","NA"
"-115.14","67.82","KUGLUKTUK A","2300903","2021-03-22 19:00","2021","03","22","19:00","-33.7","","-37.4","","70","","","","23","","17","","24.1","","103.41","","","","-47","","NA"
"-115.14","67.82","KUGLUKTUK A","2300903","2021-03-22 20:00","2021","03","22","20:00","-34.5","","-38.1","","71","","","","22","","19","","24.1","","103.42","","","","-48","","Clear"
"-115.14","67.82","KUGLUKTUK A","2300903","2021-03-22 21:00","2021","03","22","21:00","-34.5","","-38.0","","71","","","","21","","15","","24.1","","103.45","","","","-47","","NA"
"-115.14","67.82","KUGLUKTUK A","2300903","2021-03-22 22:00","2021","03","22","22:00","-34.1","","-37.6","","72","","","","22","","20","","24.1","","103.45","","","","-48","","NA"
"-115.14","67.82","KUGLUKTUK A","2300903","2021-03-22 23:00","2021","03","22","23:00","-34.3","","-37.7","","72","","","","22","","18","","24.1","","103.45","","","","-48","","Clear"
"-115.14","67.82","KUGLUKTUK A","2300903","2021-03-23 00:00","2021","03","23","00:00","-34.6","","-38.0","","72","","","","22","","14","","24.1","","103.44","","","","-47","","NA"
"-115.14","67.82","KUGLUKTUK A","2300903","2021-03-23 01:00","2021","03","23","01:00","-34.4","","-37.8","","72","","","","22","","20","","24.1","","103.45","","","","-49","","NA"
"-115.14","67.82","KUGLUKTUK A","2300903","2021-03-23 02:00","2021","03","23","02:00","-34.2","","-37.7","","72","","","","21","","13","","24.1","","103.47","","","","-46","","Clear"
"-115.14","67.82","KUGLUKTUK A","2300903","2021-03-23 03:00","2021","03","23","03:00","-32.8","","-36.2","","72","","","","23","","23","","24.1","","103.47","","","","-48","","NA"
"-115.14","67.82","KUGLUKTUK A","2300903","2021-03-23 04:00","2021","03","23","04:00","-31.0","","-34.8","","70","","","","25","","22","","24.1","","103.45","","","","-45","","NA"
"-115.14","67.82","KUGLUKTUK A","2300903","2021-03-23 05:00","2021","03","23","05:00","-34.7","","-38.5","","69","","","","22","","14","","19.3","","103.44","","","","-47","","Clear"
"-115.14","67.82","KUGLUKTUK A","2300903","2021-03-23 06:00","2021","03","23","06:00","-33.1","","-36.9","","70","","","","23","","18","","24.1","","103.42","","","","-46","","NA"
"-115.14","67.82","KUGLUKTUK A","2300903","2021-03-23 07:00","2021","03","23","07:00","-33.1","","-37.1","","68","","","","23","","21","","24.1","","103.40","","","","-47","","NA"
"-115.14","67.82","KUGLUKTUK A","2300903","2021-03-23 08:00","2021","03","23","08:00","-33.1","","-37.3","","67","","","","22","","21","","24.1","","103.36","","","","-47","","Clear"
"-115.14","67.82","KUGLUKTUK A","2300903","2021-03-23 09:00","2021","03","23","09:00","-31.9","","-37.0","","62","","","","31","","7","","24.1","","103.35","","","","-39","","NA"
"-115.14","67.82","KUGLUKTUK A","2300903","2021-03-23 10:00","2021","03","23","10:00","-30.3","","-35.1","","64","","","","23","","3","","24.1","","103.29","","","","-34","","NA"
"-115.14","67.82","KUGLUKTUK A","2300903","2021-03-23 11:00","2021","03","23","11:00","-30.3","","-35.1","","64","","","","35","","4","","24.1","","103.26","","","","-35","","Clear"
"-115.14","67.82","KUGLUKTUK A","2300903","2021-03-23 12:00","2021","03","23","12:00","-29.3","","-33.7","","67","","","","9","","4","","24.1","","103.22","","","","-34","","NA"
"-115.14","67.82","KUGLUKTUK A","2300903","2021-03-23 13:00","2021","03","23","13:00","-28.2","","-32.8","","66","","","","36","","1","","24.1","","103.19","","","","-29","","NA"
"-115.14","67.82","KUGLUKTUK A","2300903","2021-03-23 14:00","2021","03","23","14:00","-28.1","","-32.9","","65","","","","36","","2","","24.1","","103.16","","","","-30","","Clear"
"-115.14","67.82","KUGLUKTUK A","2300903","2021-03-23 15:00","2021","03","23","15:00","-27.1","","-31.3","","68","","","","11","","5","","24.1","","103.12","","","","-32","","NA"
"-115.14","67.82","KUGLUKTUK A","2300903","2021-03-23 16:00","2021","03","23","16:00","-26.4","","-30.8","","67","","","","36","","4","","24.1","","103.07","","","","-31","","NA"
"-115.14","67.82","KUGLUKTUK A","2300903","2021-03-23 17:00","2021","03","23","17:00","-29.1","","-33.2","","68","","","","33","","5","","24.1","","102.99","","","","-35","","Clear"
"-115.14","67.82","KUGLUKTUK A","2300903","2021-03-23 18:00","2021","03","23","18:00","-29.5","","-33.4","","70","","","","33","","5","","24.1","","102.91","","","","-35","","NA"
"-115.14","67.82","KUGLUKTUK A","2300903","2021-03-23 19:00","2021","03","23","19:00","-29.3","","-32.8","","72","","","","36","","2","","24.1","","102.83","","","","-32","","NA"
"-115.14","67.82","KUGLUKTUK A","2300903","2021-03-23 20:00","2021","03","23","20:00","-29.8","","-32.7","","76","","","","32","","4","","24.1","","102.77","","","","-34","","Clear"
"-115.14","67.82","KUGLUKTUK A","2300903","2021-03-23 21:00","2021","03","23","21:00","-30.7","","-33.6","","76","","","","31","","5","","24.1","","102.71","","","","-36","","NA"
"-115.14","67.82","KUGLUKTUK A","2300903","2021-03-23 22:00","2021","03","23","22:00","-31.9","","-34.8","","76","","","","31","","6","","24.1","","102.65","","","","-39","","NA"
"-115.14","67.82","KUGLUKTUK A","2300903","2021-03-23 23:00","2021","03","23","23:00","-31.4","","-34.3","","76","","","","32","","6","","24.1","","102.58","","","","-38","","Clear"
"-115.14","67.82","KUGLUKTUK A","2300903","2021-03-24 00:00","2021","03","24","00:00","-32.1","","-35.2","","74","","","","34","","5","","24.1","","102.53","","","","-38","","NA"
"-115.14","67.82","KUGLUKTUK A","2300903","2021-03-24 01:00","2021","03","24","01:00","-31.8","","-35.1","","73","","","","12","","5","","24.1","","102.48","","","","-38","","NA"
"-115.14","67.82","KUGLUKTUK A","2300903","2021-03-24 02:00","2021","03","24","02:00","-27.3","","-30.5","","75","","","","22","","8","","24.1","","102.44","","","","-35","","Clear"
"-115.14","67.82","KUGLUKTUK A","2300903","2021-03-24 03:00","2021","03","24","03:00","-24.1","","-28.7","","67","","","","18","","17","","24.1","","102.36","","","","-35","","NA"
"-115.14","67.82","KUGLUKTUK A","2300903","2021-03-24 04:00","2021","03","24","04:00","-23.2","","-28.5","","63","","","","21","","12","","24.1","","102.32","","","","-32","","NA"
"-115.14","67.82","KUGLUKTUK A","2300903","2021-03-24 05:00","2021","03","24","05:00","-23.2","","-28.6","","62","","","","19","","15","","24.1","","102.24","","","","-33","","Clear"
"-115.14","67.82","KUGLUKTUK A","2300903","2021-03-24 06:00","2021","03","24","06:00","-23.5","","-28.8","","62","","","","19","","10","","24.1","","102.20","","","","-31","","NA"
"-115.14","67.82","KUGLUKTUK A","2300903","2021-03-24 07:00","2021","03","24","07:00","-24.9","","-29.6","","65","","","","19","","26","","24.1","","102.12","","","","-38","","NA"
"-115.14","67.82","KUGLUKTUK A","2300903","2021-03-24 08:00","2021","03","24","08:00","-22.9","","-28.0","","64","","","","21","","35","","24.1","","102.09","","","","-37","","Blowing Snow"
"-115.14","67.82","KUGLUKTUK A","2300903","2021-03-24 09:00","2021","03","24","09:00","-22.9","","-27.8","","65","","","","22","","21","","24.1","","102.05","","","","-34","","NA"
"-115.14","67.82","KUGLUKTUK A","2300903","2021-03-24 10:00","2021","03","24","10:00","-21.1","","-26.2","","64","","","","21","","14","","24.1","","102.06","","","","-30","","NA"
"-115.14","67.82","KUGLUKTUK A","2300903","2021-03-24 11:00","2021","03","24","11:00","-19.7","","-25.8","","59","","","","20","","21","","24.1","","101.97","","","","-30","","Mainly Clear"
"-115.14","67.82","KUGLUKTUK A","2300903","2021-03-24 12:00","2021","03","24","12:00","-19.2","","-24.3","","65","","","","21","","15","","24.1","","101.91","","","","-28","","NA"
"-115.14","67.82","KUGLUKTUK A","2300903","2021-03-24 13:00","2021","03","24","13:00","-18.5","","-23.5","","66","","","","21","","27","","24.1","","101.88","","","","-30","","Blowing Snow"
"-115.14","67.82","KUGLUKTUK A","2300903","2021-03-24 14:00","2021","03","24","14:00","-18.1","","-23.6","","63","","","","19","","36","","24.1","","101.82","","","","-31","","Blowing Snow"
"-115.14","67.82","KUGLUKTUK A","2300903","2021-03-24 15:00","2021","03","24","15:00","-18.3","","-22.9","","68","","","","21","","32","","24.1","","101.76","","","","-31","","Blowing Snow"
"-115.14","67.82","KUGLUKTUK A","2300903","2021-03-24 16:00","2021","03","24","16:00","-18.1","","-23.0","","66","","","","20","","24","","24.1","","101.66","","","","-29","","Blowing Snow"
"-115.14","67.82","KUGLUKTUK A","2300903","2021-03-24 17:00","2021","03","24","17:00","-17.7","","-22.6","","66","","","","20","","22","","24.1","","101.61","","","","-28","","Blowing Snow"
"-115.14","67.82","KUGLUKTUK A","2300903","2021-03-24 18:00","2021","03","24","18:00","-17.6","","-22.3","","67","","","","17","","17","","24.1","","101.54","","","","-27","","NA"
"-115.14","67.82","KUGLUKTUK A","2300903","2021-03-24 19:00","2021","03","24","19:00","-17.7","","-22.1","","69","","","","21","","25","","24.1","","101.48","","","","-29","","Blowing Snow"
"-115.14","67.82","KUGLUKTUK A","2300903","2021-03-24 20:00","2021","03","24","20:00","-17.4","","-22.0","","68","","","","21","","29","","24.1","","101.45","","","","-29","","Blowing Snow"
"-115.14","67.82","KUGLUKTUK A","2300903","2021-03-24 21:00","2021","03","24","21:00","-18.1","","-23.0","","66","","","","21","","29","","24.1","","101.43","","","","-30","","Blowing Snow"
"-115.14","67.82","KUGLUKTUK A","2300903","2021-03-24 22:00","2021","03","24","22:00","-19.9","","-24.6","","67","","","","31","","14","","24.1","","101.47","","","","-29","","NA"
"-115.14","67.82","KUGLUKTUK A","2300903","2021-03-24 23:00","2021","03","24","23:00","-18.4","","-22.9","","68","","","","20","","14","","24.1","","101.39","","","","-27","","Blowing Snow"
"-115.14","67.82","KUGLUKTUK A","2300903","2021-03-25 00:00","2021","03","25","00:00","-18.6","","-22.6","","71","","","","20","","30","","12.9","","101.33","","","","-31","","Ice Crystals,Blowing Snow"
"-115.14","67.82","KUGLUKTUK A","2300903","2021-03-25 01:00","2021","03","25","01:00","-18.6","","-23.5","","66","","","","20","","26","","16.1","","101.32","","","","-30","","Ice Crystals,Blowing Snow"
"-115.14","67.82","KUGLUKTUK A","2300903","2021-03-25 02:00","2021","03","25","02:00","-18.9","","-23.4","","68","","","","21","","31","","9.7","","101.30","","","","-31","","Ice Crystals,Blowing Snow"
"-115.14","67.82","KUGLUKTUK A","2300903","2021-03-25 03:00","2021","03","25","03:00","-18.5","","-22.9","","69","","","","21","","34","","9.7","","101.30","","","","-31","","Ice Crystals,Blowing Snow"
"-115.14","67.82","KUGLUKTUK A","2300903","2021-03-25 04:00","2021","03","25","04:00","-18.2","","-22.1","","72","","","","20","","41","","8.1","","101.22","","","","-32","","Snow,Blowing Snow"
"-115.14","67.82","KUGLUKTUK A","2300903","2021-03-25 05:00","2021","03","25","05:00","-18.0","","-21.0","","78","","","","21","","28","","4.8","","101.19","","","","-30","","Snow,Blowing Snow"
"-115.14","67.82","KUGLUKTUK A","2300903","2021-03-25 06:00","2021","03","25","06:00","-18.0","","-21.4","","75","","","","21","","32","","12.9","","101.12","","","","-30","","Snow,Blowing Snow"
"-115.14","67.82","KUGLUKTUK A","2300903","2021-03-25 07:00","2021","03","25","07:00","-17.9","","-21.6","","73","","","","21","","35","","24.1","","101.09","","","","-31","","Blowing Snow"
"-115.14","67.82","KUGLUKTUK A","2300903","2021-03-25 08:00","2021","03","25","08:00","-18.0","","-21.6","","74","","","","21","","35","","24.1","","101.03","","","","-31","","Blowing Snow"
"-115.14","67.82","KUGLUKTUK A","2300903","2021-03-25 09:00","2021","03","25","09:00","-17.5","","-21.6","","71","","","","21","","37","","24.1","","101.00","","","","-30","","Blowing Snow"
"-115.14","67.82","KUGLUKTUK A","2300903","2021-03-25 10:00","2021","03","25","10:00","-17.4","","-21.6","","70","","","","21","","37","","24.1","","100.98","","","","-30","","Blowing Snow"
"-115.14","67.82","KUGLUKTUK A","2300903","2021-03-25 11:00","2021","03","25","11:00","-16.9","","-21.8","","66","","","","22","","30","","24.1","","100.97","","","","-29","","Blowing Snow"
"-115.14","67.82","KUGLUKTUK A","2300903","2021-03-25 12:00","2021","03","25","12:00","-15.6","","-19.3","","74","","","","22","","36","","24.1","","100.93","","","","-28","","Blowing Snow"
"-115.14","67.82","KUGLUKTUK A","2300903","2021-03-25 13:00","2021","03","25","13:00","-15.2","","-19.1","","73","","","","21","","38","","24.1","","100.88","","","","-27","","Blowing Snow"
"-115.14","67.82","KUGLUKTUK A","2300903","2021-03-25 14:00","2021","03","25","14:00","-14.7","","-18.6","","73","","","","20","","32","","24.1","","100.87","","","","-26","","Blowing Snow"
"-115.14","67.82","KUGLUKTUK A","2300903","2021-03-25 15:00","2021","03","25","15:00","-14.9","","-18.7","","73","","","","21","","34","","24.1","","100.83","","","","-27","","Blowing Snow"
"-115.14","67.82","KUGLUKTUK A","2300903","2021-03-25 16:00","2021","03","25","16:00","-14.2","","-17.5","","76","","","","22","","33","","24.1","","100.78","","","","-25","","Blowing Snow"
"-115.14","67.82","KUGLUKTUK A","2300903","2021-03-25 17:00","2021","03","25","17:00","-14.3","","-18.0","","74","","","","20","","27","","24.1","","100.76","","","","-25","","Mostly Cloudy"
"-115.14","67.82","KUGLUKTUK A","2300903","2021-03-25 18:00","2021","03","25","18:00","-15.4","","-19.0","","74","","","","22","","23","","24.1","","100.73","","","","-25","","NA"
"-115.14","67.82","KUGLUKTUK A","2300903","2021-03-25 19:00","2021","03","25","19:00","-15.1","","-18.1","","78","","","","21","","28","","16.1","","100.71","","","","-26","","Blowing Snow"
"-115.14","67.82","KUGLUKTUK A","2300903","2021-03-25 20:00","2021","03","25","20:00","-15.1","","-17.5","","82","","","","21","","32","","4.8","","100.69","","","","-26","","Snow,Blowing Snow"
"-115.14","67.82","KUGLUKTUK A","2300903","2021-03-25 21:00","2021","03","25","21:00","-15.9","","-18.7","","79","","","","21","","31","","16.1","","100.65","","","","-27","","Snow,Blowing Snow"
"-115.14","67.82","KUGLUKTUK A","2300903","2021-03-25 22:00","2021","03","25","22:00","-17.2","","-19.9","","80","","","","22","","24","","24.1","","100.63","","","","-28","","NA"
"-115.14","67.82","KUGLUKTUK A","2300903","2021-03-25 23:00","2021","03","25","23:00","-16.3","","-19.5","","77","","","","20","","23","","24.1","","100.62","","","","-26","","Mostly Cloudy"
"-115.14","67.82","KUGLUKTUK A","2300903","2021-03-26 00:00","2021","03","26","00:00","-16.3","","-19.3","","78","","","","21","","22","","24.1","","100.59","","","","-26","","NA"
"-115.14","67.82","KUGLUKTUK A","2300903","2021-03-26 01:00","2021","03","26","01:00","-16.8","","-19.6","","79","","","","22","","16","","24.1","","100.59","","","","-25","","Snow"
"-115.14","67.82","KUGLUKTUK A","2300903","2021-03-26 02:00","2021","03","26","02:00","-17.6","","-20.6","","77","","","","22","","19","","24.1","","100.58","","","","-27","","Mostly Cloudy"
"-115.14","67.82","KUGLUKTUK A","2300903","2021-03-26 03:00","2021","03","26","03:00","-16.7","","-19.7","","78","","","","24","","14","","24.1","","100.57","","","","-25","","NA"
"-115.14","67.82","KUGLUKTUK A","2300903","2021-03-26 04:00","2021","03","26","04:00","-17.4","","-19.2","","86","","","","26","","18","","24.1","","100.53","","","","-27","","NA"
"-115.14","67.82","KUGLUKTUK A","2300903","2021-03-26 05:00","2021","03","26","05:00","-18.6","","-20.8","","83","","","","23","","19","","24.1","","100.54","","","","-28","","Mostly Cloudy"
"-115.14","67.82","KUGLUKTUK A","2300903","2021-03-26 06:00","2021","03","26","06:00","-17.9","","-21.0","","77","","","","25","","28","","24.1","","100.55","","","","-29","","Snow"
"-115.14","67.82","KUGLUKTUK A","2300903","2021-03-26 07:00","2021","03","26","07:00","-19.9","","-22.9","","77","","","","24","","24","","24.1","","100.58","","","","-31","","NA"
"-115.14","67.82","KUGLUKTUK A","2300903","2021-03-26 08:00","2021","03","26","08:00","-20.3","","-23.2","","78","","","","25","","21","","24.1","","100.62","","","","-31","","Mostly Cloudy"
"-115.14","67.82","KUGLUKTUK A","2300903","2021-03-26 09:00","2021","03","26","09:00","-20.4","","-23.5","","77","","","","24","","23","","24.1","","100.66","","","","-32","","NA"
"-115.14","67.82","KUGLUKTUK A","2300903","2021-03-26 10:00","2021","03","26","10:00","-19.4","","-22.5","","76","","","","23","","22","","24.1","","100.66","","","","-30","","NA"
"-115.14","67.82","KUGLUKTUK A","2300903","2021-03-26 11:00","2021","03","26","11:00","-19.0","","-22.6","","74","","","","26","","27","","24.1","","100.70","","","","-31","","Mostly Cloudy"
"-115.14","67.82","KUGLUKTUK A","2300903","2021-03-26 12:00","2021","03","26","12:00","-17.8","","-20.9","","77","","","","25","","16","","24.1","","100.76","","","","-27","","Ice Crystals"
"-115.14","67.82","KUGLUKTUK A","2300903","2021-03-26 13:00","2021","03","26","13:00","-17.0","","-20.3","","76","","","","24","","16","","19.3","","100.83","","","","-26","","Ice Crystals"
"-115.14","67.82","KUGLUKTUK A","2300903","2021-03-26 14:00","2021","03","26","14:00","-16.3","","-19.4","","77","","","","25","","18","","16.1","","100.89","","","","-25","","Ice Crystals"
"-115.14","67.82","KUGLUKTUK A","2300903","2021-03-26 15:00","2021","03","26","15:00","-15.9","","-18.8","","78","","","","26","","18","","19.3","","100.93","","","","-25","","Ice Crystals"
"-115.14","67.82","KUGLUKTUK A","2300903","2021-03-26 16:00","2021","03","26","16:00","-15.9","","-18.9","","78","","","","27","","16","","19.3","","100.96","","","","-24","","Ice Crystals"
"-115.14","67.82","KUGLUKTUK A","2300903","2021-03-26 17:00","2021","03","26","17:00","-17.4","","-20.0","","80","","","","25","","19","","24.1","","101.01","","","","-27","","Ice Crystals"
"-115.14","67.82","KUGLUKTUK A","2300903","2021-03-26 18:00","2021","03","26","18:00","-16.7","","-19.5","","79","","","","27","","15","","24.1","","101.05","","","","-25","","Ice Crystals"
"-115.14","67.82","KUGLUKTUK A","2300903","2021-03-26 19:00","2021","03","26","19:00","-20.6","","-23.3","","79","","","","31","","7","","24.1","","101.14","","","","-26","","NA"
"-115.14","67.82","KUGLUKTUK A","2300903","2021-03-26 20:00","2021","03","26","20:00","-21.6","","-24.5","","77","","","","22","","5","","24.1","","101.21","","","","-26","","Mainly Clear"
"-115.14","67.82","KUGLUKTUK A","2300903","2021-03-26 21:00","2021","03","26","21:00","-21.9","","-24.4","","80","","","","28","","16","","16.1","","101.25","","","","-32","","Snow"
"-115.14","67.82","KUGLUKTUK A","2300903","2021-03-26 22:00","2021","03","26","22:00","-22.0","","-24.3","","82","","","","28","","10","","16.1","","101.28","","","","-30","","Snow"
"-115.14","67.82","KUGLUKTUK A","2300903","2021-03-26 23:00","2021","03","26","23:00","-25.1","","-27.8","","79","","","","21","","9","","19.3","","101.33","","","","-33","","Ice Crystals"
"-115.14","67.82","KUGLUKTUK A","2300903","2021-03-27 00:00","2021","03","27","00:00","-24.3","","-26.6","","82","","","","24","","16","","24.1","","101.37","","","","-35","","Ice Crystals"
"-115.14","67.82","KUGLUKTUK A","2300903","2021-03-27 01:00","2021","03","27","01:00","-25.1","","-27.6","","80","","","","25","","16","","24.1","","101.41","","","","-36","","Ice Crystals"
"-115.14","67.82","KUGLUKTUK A","2300903","2021-03-27 02:00","2021","03","27","02:00","-25.5","","-28.0","","80","","","","22","","18","","19.3","","101.45","","","","-37","","Ice Crystals"
"-115.14","67.82","KUGLUKTUK A","2300903","2021-03-27 03:00","2021","03","27","03:00","-26.3","","-28.9","","79","","","","23","","18","","19.3","","101.50","","","","-38","","Ice Crystals"
"-115.14","67.82","KUGLUKTUK A","2300903","2021-03-27 04:00","2021","03","27","04:00","-27.0","","-29.5","","80","","","","24","","17","","24.1","","101.50","","","","-38","","Ice Crystals"
"-115.14","67.82","KUGLUKTUK A","2300903","2021-03-27 05:00","2021","03","27","05:00","-28.0","","-30.7","","78","","","","23","","16","","19.3","","101.54","","","","-39","","Ice Crystals"
"-115.14","67.82","KUGLUKTUK A","2300903","2021-03-27 06:00","2021","03","27","06:00","-28.4","","-31.1","","78","","","","22","","19","","12.9","","101.55","","","","-41","","Ice Crystals"
"-115.14","67.82","KUGLUKTUK A","2300903","2021-03-27 07:00","2021","03","27","07:00","-28.5","","-31.2","","78","","","","23","","16","","19.3","","101.57","","","","-40","","Ice Crystals"
"-115.14","67.82","KUGLUKTUK A","2300903","2021-03-27 08:00","2021","03","27","08:00","-28.0","","-30.7","","78","","","","22","","18","","24.1","","101.58","","","","-40","","Clear"
"-115.14","67.82","KUGLUKTUK A","2300903","2021-03-27 09:00","2021","03","27","09:00","-27.4","","-30.2","","78","","","","22","","17","","24.1","","101.58","","","","-39","","NA"
"-115.14","67.82","KUGLUKTUK A","2300903","2021-03-27 10:00","2021","03","27","10:00","-26.5","","-29.3","","78","","","","23","","5","","24.1","","101.61","","","","-32","","Ice Crystals"
"-115.14","67.82","KUGLUKTUK A","2300903","2021-03-27 11:00","2021","03","27","11:00","-26.2","","-29.0","","78","","","","22","","12","","24.1","","101.60","","","","-36","","Ice Crystals"
"-115.14","67.82","KUGLUKTUK A","2300903","2021-03-27 12:00","2021","03","27","12:00","-25.3","","-28.2","","77","","","","22","","8","","24.1","","101.61","","","","-32","","Ice Crystals"
"-115.14","67.82","KUGLUKTUK A","2300903","2021-03-27 13:00","2021","03","27","13:00","-24.6","","-27.5","","77","","","","23","","9","","24.1","","101.59","","","","-32","","Ice Crystals"
"-115.14","67.82","KUGLUKTUK A","2300903","2021-03-27 14:00","2021","03","27","14:00","-24.0","","-27.2","","76","","","","35","","4","","24.1","","101.61","","","","-28","","Ice Crystals"
"-115.14","67.82","KUGLUKTUK A","2300903","2021-03-27 15:00","2021","03","27","15:00","-24.1","","-27.4","","75","","","","30","","7","","24.1","","101.63","","","","-30","","Ice Crystals"
"-115.14","67.82","KUGLUKTUK A","2300903","2021-03-27 16:00","2021","03","27","16:00","-23.7","","-27.3","","73","","","","31","","3","","24.1","","101.66","","","","-27","","NA"
"-115.14","67.82","KUGLUKTUK A","2300903","2021-03-27 17:00","2021","03","27","17:00","-24.9","","-28.0","","76","","","","22","","7","","24.1","","101.66","","","","-31","","Clear"
"-115.14","67.82","KUGLUKTUK A","2300903","2021-03-27 18:00","2021","03","27","18:00","-25.8","","-28.9","","76","","","","24","","9","","24.1","","101.68","","","","-34","","NA"
"-115.14","67.82","KUGLUKTUK A","2300903","2021-03-27 19:00","2021","03","27","19:00","-26.3","","-29.3","","76","","","","27","","11","","24.1","","101.69","","","","-35","","NA"
"-115.14","67.82","KUGLUKTUK A","2300903","2021-03-27 20:00","2021","03","27","20:00","-28.2","","-30.9","","79","","","","26","","8","","24.1","","101.73","","","","-36","","Clear"
"-115.14","67.82","KUGLUKTUK A","2300903","2021-03-27 21:00","2021","03","27","21:00","-29.5","","-32.1","","79","","","","22","","9","","24.1","","101.74","","","","-38","","Ice Crystals"
"-115.14","67.82","KUGLUKTUK A","2300903","2021-03-27 22:00","2021","03","27","22:00","-30.7","","-33.5","","77","","","","23","","20","","24.1","","101.77","","","","-44","","Ice Crystals"
"-115.14","67.82","KUGLUKTUK A","2300903","2021-03-27 23:00","2021","03","27","23:00","-29.4","","-32.2","","77","","","","25","","6","","24.1","","101.80","","","","-36","","Ice Crystals"
"-115.14","67.82","KUGLUKTUK A","2300903","2021-03-28 00:00","2021","03","28","00:00","-32.1","","-35.0","","76","","","","22","","18","","24.1","","101.84","","","","-45","","Ice Crystals"
"-115.14","67.82","KUGLUKTUK A","2300903","2021-03-28 01:00","2021","03","28","01:00","-32.4","","-35.5","","75","","","","22","","22","","24.1","","101.87","","","","-47","","Ice Crystals"
"-115.14","67.82","KUGLUKTUK A","2300903","2021-03-28 02:00","2021","03","28","02:00","-32.5","","-35.6","","75","","","","22","","20","","24.1","","101.89","","","","-46","","Mainly Clear"
"-115.14","67.82","KUGLUKTUK A","2300903","2021-03-28 03:00","2021","03","28","03:00","-33.2","","-36.4","","74","","","","22","","22","","24.1","","101.92","","","","-48","","Ice Crystals"
"-115.14","67.82","KUGLUKTUK A","2300903","2021-03-28 04:00","2021","03","28","04:00","-33.6","","-36.9","","73","","","","22","","22","","24.1","","101.96","","","","-48","","Ice Crystals"
"-115.14","67.82","KUGLUKTUK A","2300903","2021-03-28 05:00","2021","03","28","05:00","-33.5","","-36.7","","73","","","","22","","22","","16.1","","101.98","","","","-48","","Ice Crystals"
"-115.14","67.82","KUGLUKTUK A","2300903","2021-03-28 06:00","2021","03","28","06:00","-33.7","","-37.0","","73","","","","22","","23","","16.1","","101.99","","","","-49","","Ice Crystals"
"-115.14","67.82","KUGLUKTUK A","2300903","2021-03-28 07:00","2021","03","28","07:00","-33.4","","-36.7","","73","","","","22","","23","","24.1","","102.03","","","","-48","","NA"
"-115.14","67.82","KUGLUKTUK A","2300903","2021-03-28 08:00","2021","03","28","08:00","-32.5","","-35.9","","73","","","","23","","25","","24.1","","102.07","","","","-48","","Ice Crystals"
"-115.14","67.82","KUGLUKTUK A","2300903","2021-03-28 09:00","2021","03","28","09:00","-31.8","","-35.1","","73","","","","22","","21","","24.1","","102.10","","","","-46","","NA"
"-115.14","67.82","KUGLUKTUK A","2300903","2021-03-28 10:00","2021","03","28","10:00","-30.5","","-33.8","","74","","","","22","","22","","24.1","","102.13","","","","-44","","Ice Crystals"
"-115.14","67.82","KUGLUKTUK A","2300903","2021-03-28 11:00","2021","03","28","11:00","-28.9","","-32.1","","74","","","","23","","21","","24.1","","102.16","","","","-42","","Ice Crystals"
"-115.14","67.82","KUGLUKTUK A","2300903","2021-03-28 12:00","2021","03","28","12:00","-27.9","","-31.2","","75","","","","22","","18","","24.1","","102.17","","","","-40","","NA"
"-115.14","67.82","KUGLUKTUK A","2300903","2021-03-28 13:00","2021","03","28","13:00","-26.4","","-29.6","","75","","","","26","","23","","24.1","","102.22","","","","-39","","NA"
"-115.14","67.82","KUGLUKTUK A","2300903","2021-03-28 14:00","2021","03","28","14:00","-25.6","","-29.0","","73","","","","26","","24","","24.1","","102.23","","","","-39","","Mainly Clear"
"-115.14","67.82","KUGLUKTUK A","2300903","2021-03-28 15:00","2021","03","28","15:00","-25.0","","-28.9","","71","","","","26","","20","","24.1","","102.25","","","","-37","","NA"
"-115.14","67.82","KUGLUKTUK A","2300903","2021-03-28 16:00","2021","03","28","16:00","-25.4","","-29.1","","72","","","","23","","22","","24.1","","102.26","","","","-38","","NA"
"-115.14","67.82","KUGLUKTUK A","2300903","2021-03-28 17:00","2021","03","28","17:00","-26.1","","-29.7","","73","","","","23","","22","","24.1","","102.26","","","","-39","","Mostly Cloudy"
"-115.14","67.82","KUGLUKTUK A","2300903","2021-03-28 18:00","2021","03","28","18:00","-25.8","","-29.8","","70","","","","23","","23","","24.1","","102.26","","","","-39","","NA"
"-115.14","67.82","KUGLUKTUK A","2300903","2021-03-28 19:00","2021","03","28","19:00","-26.8","","-30.7","","70","","","","25","","21","","24.1","","102.30","","","","-39","","NA"
"-115.14","67.82","KUGLUKTUK A","2300903","2021-03-28 20:00","2021","03","28","20:00","-27.4","","-30.9","","73","","","","25","","23","","24.1","","102.31","","","","-41","","Mostly Cloudy"
"-115.14","67.82","KUGLUKTUK A","2300903","2021-03-28 21:00","2021","03","28","21:00","-27.0","","-30.8","","71","","","","25","","22","","24.1","","102.32","","","","-40","","Ice Crystals"
"-115.14","67.82","KUGLUKTUK A","2300903","2021-03-28 22:00","2021","03","28","22:00","-28.1","","-31.7","","72","","","","27","","18","","24.1","","102.34","","","","-40","","Ice Crystals"
"-115.14","67.82","KUGLUKTUK A","2300903","2021-03-28 23:00","2021","03","28","23:00","-29.1","","-32.4","","74","","","","23","","18","","24.1","","102.35","","","","-41","","Ice Crystals"
"-115.14","67.82","KUGLUKTUK A","2300903","2021-03-29 00:00","2021","03","29","00:00","-28.1","","-31.6","","73","","","","26","","20","","19.3","","102.38","","","","-41","","Ice Crystals"
"-115.14","67.82","KUGLUKTUK A","2300903","2021-03-29 01:00","2021","03","29","01:00","-29.1","","-32.5","","73","","","","25","","18","","9.7","","102.39","","","","-41","","Snow,Blowing Snow"
"-115.14","67.82","KUGLUKTUK A","2300903","2021-03-29 02:00","2021","03","29","02:00","-30.8","","-34.3","","72","","","","22","","21","","16.1","","102.37","","","","-44","","Snow,Blowing Snow"
"-115.14","67.82","KUGLUKTUK A","2300903","2021-03-29 03:00","2021","03","29","03:00","-30.4","","-33.5","","74","","","","23","","25","","19.3","","102.34","","","","-45","","Ice Crystals,Blowing Snow"
"-115.14","67.82","KUGLUKTUK A","2300903","2021-03-29 04:00","2021","03","29","04:00","-31.9","","-35.3","","72","","","","22","","24","","12.9","","102.36","","","","-47","","Ice Crystals,Blowing Snow"
"-115.14","67.82","KUGLUKTUK A","2300903","2021-03-29 05:00","2021","03","29","05:00","-31.3","","-34.7","","73","","","","23","","21","","6.4","","102.34","","","","-45","","Ice Crystals,Blowing Snow"
"-115.14","67.82","KUGLUKTUK A","2300903","2021-03-29 06:00","2021","03","29","06:00","-31.3","","-35.1","","70","","","","23","","30","","12.9","","102.30","","","","-47","","Ice Crystals,Blowing Snow"
"-115.14","67.82","KUGLUKTUK A","2300903","2021-03-29 07:00","2021","03","29","07:00","-31.3","","-35.5","","67","","","","24","","7","","24.1","","102.31","","","","-39","","Blowing Snow"
"-115.14","67.82","KUGLUKTUK A","2300903","2021-03-29 08:00","2021","03","29","08:00","-30.2","","-34.5","","67","","","","24","","26","","24.1","","102.28","","","","-45","","Mainly Clear"
"-115.14","67.82","KUGLUKTUK A","2300903","2021-03-29 09:00","2021","03","29","09:00","-30.5","","-34.6","","68","","","","22","","23","","24.1","","102.28","","","","-45","","NA"
"-115.14","67.82","KUGLUKTUK A","2300903","2021-03-29 10:00","2021","03","29","10:00","-29.4","","-33.7","","67","","","","23","","21","","24.1","","102.27","","","","-43","","NA"
"-115.14","67.82","KUGLUKTUK A","2300903","2021-03-29 11:00","2021","03","29","11:00","-27.5","","-32.3","","65","","","","24","","27","","24.1","","102.24","","","","-42","","Clear"
"-115.14","67.82","KUGLUKTUK A","2300903","2021-03-29 12:00","2021","03","29","12:00","-27.2","","-31.8","","66","","","","23","","12","","24.1","","102.27","","","","-37","","NA"
"-115.14","67.82","KUGLUKTUK A","2300903","2021-03-29 13:00","2021","03","29","13:00","-26.2","","-30.7","","67","","","","24","","14","","24.1","","102.25","","","","-36","","NA"
"-115.14","67.82","KUGLUKTUK A","2300903","2021-03-29 14:00","2021","03","29","14:00","-25.5","","-29.9","","67","","","","23","","17","","24.1","","102.22","","","","-37","","Clear"
"-115.14","67.82","KUGLUKTUK A","2300903","2021-03-29 15:00","2021","03","29","15:00","-25.0","","-29.8","","65","","","","26","","20","","24.1","","102.20","","","","-37","","NA"
"-115.14","67.82","KUGLUKTUK A","2300903","2021-03-29 16:00","2021","03","29","16:00","-25.4","","-30.1","","66","","","","24","","18","","24.1","","102.18","","","","-37","","NA"
"-115.14","67.82","KUGLUKTUK A","2300903","2021-03-29 17:00","2021","03","29","17:00","-26.0","","-30.7","","65","","","","26","","16","","24.1","","102.18","","","","-37","","Clear"
"-115.14","67.82","KUGLUKTUK A","2300903","2021-03-29 18:00","2021","03","29","18:00","-26.7","","-31.1","","68","","","","24","","19","","24.1","","102.14","","","","-39","","NA"
"-115.14","67.82","KUGLUKTUK A","2300903","2021-03-29 19:00","2021","03","29","19:00","-28.9","","-32.9","","69","","","","23","","16","","24.1","","102.14","","","","-40","","NA"
"-115.14","67.82","KUGLUKTUK A","2300903","2021-03-29 20:00","2021","03","29","20:00","-30.3","","-33.9","","72","","","","23","","19","","24.1","","102.13","","","","-43","","Clear"
"-115.14","67.82","KUGLUKTUK A","2300903","2021-03-29 21:00","2021","03","29","21:00","-30.5","","-34.0","","72","","","","23","","17","","24.1","","102.10","","","","-43","","NA"
"-115.14","67.82","KUGLUKTUK A","2300903","2021-03-29 22:00","2021","03","29","22:00","-30.2","","-33.7","","72","","","","23","","13","","24.1","","102.04","","","","-41","","NA"
"-115.14","67.82","KUGLUKTUK A","2300903","2021-03-29 23:00","2021","03","29","23:00","-30.5","","-34.0","","72","","","","23","","8","","24.1","","102.02","","","","-39","","Clear"
"-115.14","67.82","KUGLUKTUK A","2300903","2021-03-30 00:00","2021","03","30","00:00","-30.8","","-34.2","","73","","","","22","","11","","24.1","","101.98","","","","-41","","NA"
"-115.14","67.82","KUGLUKTUK A","2300903","2021-03-30 01:00","2021","03","30","01:00","-31.0","","-34.4","","73","","","","21","","9","","24.1","","101.94","","","","-40","","NA"
"-115.14","67.82","KUGLUKTUK A","2300903","2021-03-30 02:00","2021","03","30","02:00","-31.7","","-34.9","","75","","","","23","","4","","24.1","","101.92","","","","-36","","Clear"
"-115.14","67.82","KUGLUKTUK A","2300903","2021-03-30 03:00","2021","03","30","03:00","-33.2","","-36.3","","74","","","","35","","4","","24.1","","101.89","","","","-38","","NA"
"-115.14","67.82","KUGLUKTUK A","2300903","2021-03-30 04:00","2021","03","30","04:00","-33.1","","-36.2","","74","","","","0","","1","","24.1","","101.88","","","","-34","","Ice Crystals"
"-115.14","67.82","KUGLUKTUK A","2300903","2021-03-30 05:00","2021","03","30","05:00","-33.7","","-36.8","","74","","","","36","","3","","24.1","","101.83","","","","-37","","Ice Crystals"
"-115.14","67.82","KUGLUKTUK A","2300903","2021-03-30 06:00","2021","03","30","06:00","-34.1","","-37.3","","73","","","","32","","3","","24.1","","101.82","","","","-38","","NA"
"-115.14","67.82","KUGLUKTUK A","2300903","2021-03-30 07:00","2021","03","30","07:00","-33.5","","-36.5","","75","","","","36","","2","","24.1","","101.78","","","","-36","","NA"
"-115.14","67.82","KUGLUKTUK A","2300903","2021-03-30 08:00","2021","03","30","08:00","-33.1","","-36.2","","75","","","","36","","1","","24.1","","101.76","","","","-34","","Mainly Clear"
"-115.14","67.82","KUGLUKTUK A","2300903","2021-03-30 09:00","2021","03","30","09:00","-34.2","","-37.5","","72","","","","35","","5","","24.1","","101.70","","","","-40","","Ice Crystals"
"-115.14","67.82","KUGLUKTUK A","2300903","2021-03-30 10:00","2021","03","30","10:00","-33.6","","-37.1","","71","","","","36","","4","","24.1","","101.66","","","","-38","","Ice Crystals"
"-115.14","67.82","KUGLUKTUK A","2300903","2021-03-30 11:00","2021","03","30","11:00","-32.1","","-35.4","","73","","","","1","","5","","24.1","","101.62","","","","-38","","Ice Crystals"
"-115.14","67.82","KUGLUKTUK A","2300903","2021-03-30 12:00","2021","03","30","12:00","-30.9","","-34.2","","74","","","","1","","7","","24.1","","101.62","","","","-38","","Ice Crystals"
"-115.14","67.82","KUGLUKTUK A","2300903","2021-03-30 13:00","2021","03","30","13:00","-30.0","","-33.3","","73","","","","3","","4","","24.1","","101.61","","","","-35","","Ice Crystals"
"-115.14","67.82","KUGLUKTUK A","2300903","2021-03-30 14:00","2021","03","30","14:00","-29.3","","-32.5","","75","","","","3","","11","","24.1","","101.60","","","","-39","","Ice Crystals"
"-115.14","67.82","KUGLUKTUK A","2300903","2021-03-30 15:00","2021","03","30","15:00","-28.9","","-32.0","","75","","","","4","","13","","24.1","","101.61","","","","-39","","Ice Crystals"
"-115.14","67.82","KUGLUKTUK A","2300903","2021-03-30 16:00","2021","03","30","16:00","-28.6","","-31.8","","75","","","","3","","13","","24.1","","101.60","","","","-39","","NA"
"-115.14","67.82","KUGLUKTUK A","2300903","2021-03-30 17:00","2021","03","30","17:00","-28.8","","-32.1","","74","","","","3","","11","","24.1","","101.64","","","","-38","","Clear"
"-115.14","67.82","KUGLUKTUK A","2300903","2021-03-30 18:00","2021","03","30","18:00","-29.7","","-33.0","","74","","","","1","","10","","24.1","","101.65","","","","-39","","NA"
"-115.14","67.82","KUGLUKTUK A","2300903","2021-03-30 19:00","2021","03","30","19:00","-30.5","","-33.7","","74","","","","34","","4","","24.1","","101.66","","","","-35","","NA"
"-115.14","67.82","KUGLUKTUK A","2300903","2021-03-30 20:00","2021","03","30","20:00","-31.5","","-34.6","","74","","","","35","","5","","24.1","","101.67","","","","-37","","Clear"
"-115.14","67.82","KUGLUKTUK A","2300903","2021-03-30 21:00","2021","03","30","21:00","-32.2","","-35.4","","74","","","","34","","3","","24.1","","101.66","","","","-36","","Ice Crystals"
"-115.14","67.82","KUGLUKTUK A","2300903","2021-03-30 22:00","2021","03","30","22:00","-33.7","","-36.9","","74","","","","29","","8","","24.1","","101.67","","","","-42","","Ice Crystals"
"-115.14","67.82","KUGLUKTUK A","2300903","2021-03-30 23:00","2021","03","30","23:00","-33.9","","-37.1","","73","","","","30","","7","","24.1","","101.67","","","","-42","","Ice Crystals"
"-115.14","67.82","KUGLUKTUK A","2300903","2021-03-31 00:00","2021","03","31","00:00","-34.7","","-38.0","","73","","","","30","","9","","24.1","","101.69","","","","-44","","NA"
"-115.14","67.82","KUGLUKTUK A","2300903","2021-03-31 01:00","2021","03","31","01:00","-37.0","","-40.4","","71","","","","24","","5","","24.1","","101.72","","","","-44","","Ice Crystals"
"-115.14","67.82","KUGLUKTUK A","2300903","2021-03-31 02:00","2021","03","31","02:00","-37.1","","-40.5","","71","","","","23","","4","","24.1","","101.73","","","","-42","","Ice Crystals"
"-115.14","67.82","KUGLUKTUK A","2300903","2021-03-31 03:00","2021","03","31","03:00","-35.9","","-39.3","","72","","","","27","","7","","24.1","","101.73","","","","-44","","Ice Crystals"
"-115.14","67.82","KUGLUKTUK A","2300903","2021-03-31 04:00","2021","03","31","04:00","-37.6","","-41.1","","71","","","","24","","9","","24.1","","101.72","","","","-48","","Ice Crystals"
"-115.14","67.82","KUGLUKTUK A","2300903","2021-03-31 05:00","2021","03","31","05:00","-36.5","","-39.9","","72","","","","36","","2","","24.1","","101.73","","","","-39","","Ice Crystals"
"-115.14","67.82","KUGLUKTUK A","2300903","2021-03-31 06:00","2021","03","31","06:00","-38.5","","-42.1","","70","","","","23","","11","","24.1","","101.76","","","","-50","","NA"
"-115.14","67.82","KUGLUKTUK A","2300903","2021-03-31 07:00","2021","03","31","07:00","-37.5","","-41.1","","70","","","","24","","4","","24.1","","101.78","","","","-43","","NA"
"-115.14","67.82","KUGLUKTUK A","2300903","2021-03-31 08:00","2021","03","31","08:00","-37.1","","-40.8","","70","","","","23","","12","","24.1","","101.79","","","","-49","","Clear"
"-115.14","67.82","KUGLUKTUK A","2300903","2021-03-31 09:00","2021","03","31","09:00","-36.2","","-39.8","","70","","","","23","","4","","19.3","","101.81","","","","-41","","Ice Crystals"
"-115.14","67.82","KUGLUKTUK A","2300903","2021-03-31 10:00","2021","03","31","10:00","-35.6","","-39.2","","70","","","","36","","2","","19.3","","101.85","","","","-38","","Ice Crystals"
"-115.14","67.82","KUGLUKTUK A","2300903","2021-03-31 11:00","2021","03","31","11:00","-35.0","","-38.6","","71","","","","36","","4","","19.3","","101.84","","","","-40","","Ice Crystals"
"-115.14","67.82","KUGLUKTUK A","2300903","2021-03-31 12:00","2021","03","31","12:00","-34.0","","-37.5","","71","","","","20","","5","","24.1","","101.86","","","","-40","","Ice Crystals"
"-115.14","67.82","KUGLUKTUK A","2300903","2021-03-31 13:00","2021","03","31","13:00","-33.6","","-37.1","","72","","","","22","","3","","24.1","","101.88","","","","-37","","Ice Crystals"
"-115.14","67.82","KUGLUKTUK A","2300903","2021-03-31 14:00","2021","03","31","14:00","-32.8","","-36.3","","72","","","","33","","5","","19.3","","101.87","","","","-39","","Ice Crystals"
"-115.14","67.82","KUGLUKTUK A","2300903","2021-03-31 15:00","2021","03","31","15:00","-32.7","","-36.2","","72","","","","34","","5","","19.3","","101.87","","","","-39","","Ice Crystals"
"-115.14","67.82","KUGLUKTUK A","2300903","2021-03-31 16:00","2021","03","31","16:00","-32.5","","-35.9","","72","","","","2","","4","","16.1","","101.86","","","","-37","","Ice Crystals"
"-115.14","67.82","KUGLUKTUK A","2300903","2021-03-31 17:00","2021","03","31","17:00","-31.7","","-35.1","","73","","","","9","","5","","19.3","","101.86","","","","-38","","Ice Crystals"
"-115.14","67.82","KUGLUKTUK A","2300903","2021-03-31 18:00","2021","03","31","18:00","-31.4","","-34.7","","73","","","","36","","2","","19.3","","101.84","","","","-34","","Ice Crystals"
"-115.14","67.82","KUGLUKTUK A","2300903","2021-03-31 19:00","2021","03","31","19:00","-32.2","","-35.6","","73","","","","36","","3","","24.1","","101.84","","","","-36","","Ice Crystals"
"-115.14","67.82","KUGLUKTUK A","2300903","2021-03-31 20:00","2021","03","31","20:00","-33.9","","-37.3","","72","","","","32","","5","","24.1","","101.82","","","","-40","","Ice Crystals"
"-115.14","67.82","KUGLUKTUK A","2300903","2021-03-31 21:00","2021","03","31","21:00","-35.0","","-38.5","","71","","","","15","","5","","24.1","","101.82","","","","-41","","Ice Crystals"
"-115.14","67.82","KUGLUKTUK A","2300903","2021-03-31 22:00","2021","03","31","22:00","-35.6","","-39.1","","71","","","","36","","9","","24.1","","101.76","","","","-45","","Ice Crystals"
"-115.14","67.82","KUGLUKTUK A","2300903","2021-03-31 23:00","2021","03","31","23:00","-35.5","","-39.0","","71","","","","36","","5","","24.1","","101.72","","","","-42","","Ice Crystals"
