"Longitude (x)","Latitude (y)","Station Name","Climate ID","Date/Time (LST)","Year","Month","Day","Time (LST)","Temp (°C)","Temp Flag","Dew Point Temp (°C)","Dew Point Temp Flag","Rel Hum (%)","Rel Hum Flag","Precip. Amount (mm)","Precip. Amount Flag","Wind Dir (10s deg)","Wind Dir Flag","Wind Spd (km/h)","Wind Spd Flag","Visibility (km)","Visibility Flag","Stn Press (kPa)","Stn Press Flag","Hmdx","Hmdx Flag","Wind Chill","Wind Chill Flag","Weather"
"-115.14","67.82","KUGLUKTUK A","2300903","2021-04-01 00:00","2021","04","01","00:00","-35.8","","-39.3","","71","","","","36","","3","","24.1","","101.69","","","","-40","","Ice Crystals"
"-115.14","67.82","KUGLUKTUK A","2300903","2021-04-01 01:00","2021","04","01","01:00","-38.0","","-41.7","","69","","","","22","","3","","24.1","","101.69","","","","-42","","Ice Crystals"
"-115.14","67.82","KUGLUKTUK A","2300903","2021-04-01 02:00","2021","04","01","02:00","-37.0","","-40.6","","70","","","","33","","8","","24.1","","101.67","","","","-46","","Ice Crystals"
"-115.14","67.82","KUGLUKTUK A","2300903","2021-04-01 03:00","2021","04","01","03:00","-37.1","","-40.8","","70","","","","30","","5","","24.1","","101.66","","","","-44","","Ice Crystals"
"-115.14","67.82","KUGLUKTUK A","2300903","2021-04-01 04:00","2021","04","01","04:00","-37.4","","-41.0","","70","","","","34","","5","","24.1","","101.65","","","","-44","","Ice Crystals"
"-115.14","67.82","KUGLUKTUK A","2300903","2021-04-01 05:00","2021","04","01","05:00","-39.4","","-43.2","","68","","","","36","","3","","24.1","","101.65","","","","-44","","Ice Crystals"
"-115.14","67.82","KUGLUKTUK A","2300903","2021-04-01 06:00","2021","04","01","06:00","-37.5","","-41.1","","70","","","","28","","4","","24.1","","101.62","","","","-43","","Ice Crystals"
"-115.14","67.82","KUGLUKTUK A","2300903","2021-04-01 07:00","2021","04","01","07:00","-37.6","","-41.3","","69","","","","30","","6","","19.3","","101.62","","","","-45","","Ice Crystals"
"-115.14","67.82","KUGLUKTUK A","2300903","2021-04-01 08:00","2021","04","01","08:00","-36.4","","-40.0","","70","","","","31","","5","","19.3","","101.62","","","","-43","","Ice Crystals"
"-115.14","67.82","KUGLUKTUK A","2300903","2021-04-01 09:00","2021","04","01","09:00","-35.2","","-38.9","","70","","","","34","","5","","19.3","","101.61","","","","-42","","Ice Crystals"
"-115.14","67.82","KUGLUKTUK A","2300903","2021-04-01 10:00","2021","04","01","10:00","-35.4","","-39.0","","70","","","","25","","3","","19.3","","101.60","","","","-39","","Ice Crystals"
"-115.14","67.82","KUGLUKTUK A","2300903","2021-04-01 11:00","2021","04","01","11:00","-34.9","","-38.5","","70","","","","30","","9","","19.3","","101.58","","","","-44","","Ice Crystals"
"-115.14","67.82","KUGLUKTUK A","2300903","2021-04-01 12:00","2021","04","01","12:00","-33.6","","-37.2","","71","","","","31","","4","","24.1","","101.58","","","","-38","","Ice Crystals"
"-115.14","67.82","KUGLUKTUK A","2300903","2021-04-01 13:00","2021","04","01","13:00","-33.1","","-36.6","","72","","","","29","","10","","19.3","","101.60","","","","-43","","Ice Crystals"
"-115.14","67.82","KUGLUKTUK A","2300903","2021-04-01 14:00","2021","04","01","14:00","-32.6","","-36.0","","72","","","","27","","9","","19.3","","101.64","","","","-42","","Ice Crystals"
"-115.14","67.82","KUGLUKTUK A","2300903","2021-04-01 15:00","2021","04","01","15:00","-32.0","","-35.5","","72","","","","25","","11","","19.3","","101.66","","","","-42","","Ice Crystals"
"-115.14","67.82","KUGLUKTUK A","2300903","2021-04-01 16:00","2021","04","01","16:00","-32.0","","-35.4","","72","","","","25","","12","","24.1","","101.69","","","","-43","","Ice Crystals"
"-115.14","67.82","KUGLUKTUK A","2300903","2021-04-01 17:00","2021","04","01","17:00","-32.2","","-35.7","","72","","","","23","","13","","19.3","","101.73","","","","-43","","Ice Crystals"
"-115.14","67.82","KUGLUKTUK A","2300903","2021-04-01 18:00","2021","04","01","18:00","-33.0","","-36.5","","72","","","","24","","11","","24.1","","101.75","","","","-43","","Ice Crystals"
"-115.14","67.82","KUGLUKTUK A","2300903","2021-04-01 19:00","2021","04","01","19:00","-32.0","","-35.3","","73","","","","28","","12","","24.1","","101.76","","","","-43","","Ice Crystals"
"-115.14","67.82","KUGLUKTUK A","2300903","2021-04-01 20:00","2021","04","01","20:00","-33.0","","-36.4","","72","","","","28","","12","","24.1","","101.78","","","","-44","","Ice Crystals"
"-115.14","67.82","KUGLUKTUK A","2300903","2021-04-01 21:00","2021","04","01","21:00","-34.4","","-37.9","","71","","","","28","","3","","24.1","","101.83","","","","-38","","Ice Crystals"
"-115.14","67.82","KUGLUKTUK A","2300903","2021-04-01 22:00","2021","04","01","22:00","-34.4","","-37.8","","71","","","","30","","4","","19.3","","101.86","","","","-39","","Ice Crystals"
"-115.14","67.82","KUGLUKTUK A","2300903","2021-04-01 23:00","2021","04","01","23:00","-33.6","","-37.0","","72","","","","32","","7","","24.1","","101.90","","","","-41","","Ice Crystals"
"-115.14","67.82","KUGLUKTUK A","2300903","2021-04-02 00:00","2021","04","02","00:00","-33.8","","-37.3","","72","","","","32","","6","","19.3","","101.93","","","","-41","","Ice Crystals"
"-115.14","67.82","KUGLUKTUK A","2300903","2021-04-02 01:00","2021","04","02","01:00","-34.3","","-37.8","","71","","","","34","","5","","19.3","","101.98","","","","-41","","Ice Crystals"
"-115.14","67.82","KUGLUKTUK A","2300903","2021-04-02 02:00","2021","04","02","02:00","-34.2","","-37.7","","72","","","","30","","4","","19.3","","102.05","","","","-39","","Ice Crystals"
"-115.14","67.82","KUGLUKTUK A","2300903","2021-04-02 03:00","2021","04","02","03:00","-37.9","","-41.7","","69","","","","28","","7","","19.3","","102.11","","","","-46","","Ice Crystals"
"-115.14","67.82","KUGLUKTUK A","2300903","2021-04-02 04:00","2021","04","02","04:00","-36.1","","-39.7","","70","","","","28","","11","","19.3","","102.16","","","","-47","","Ice Crystals"
"-115.14","67.82","KUGLUKTUK A","2300903","2021-04-02 05:00","2021","04","02","05:00","-37.0","","-40.6","","69","","","","29","","9","","19.3","","102.21","","","","-47","","Ice Crystals"
"-115.14","67.82","KUGLUKTUK A","2300903","2021-04-02 06:00","2021","04","02","06:00","-36.2","","-39.8","","70","","","","27","","12","","24.1","","102.26","","","","-48","","Ice Crystals"
"-115.14","67.82","KUGLUKTUK A","2300903","2021-04-02 07:00","2021","04","02","07:00","-37.9","","-41.6","","69","","","","26","","12","","24.1","","102.32","","","","-50","","Ice Crystals"
"-115.14","67.82","KUGLUKTUK A","2300903","2021-04-02 08:00","2021","04","02","08:00","-37.3","","-41.1","","69","","","","26","","9","","24.1","","102.38","","","","-47","","Ice Crystals"
"-115.14","67.82","KUGLUKTUK A","2300903","2021-04-02 09:00","2021","04","02","09:00","-35.3","","-38.9","","70","","","","25","","5","","24.1","","102.42","","","","-42","","Ice Crystals"
"-115.14","67.82","KUGLUKTUK A","2300903","2021-04-02 10:00","2021","04","02","10:00","-35.0","","-38.6","","70","","","","22","","6","","24.1","","102.46","","","","-42","","Ice Crystals"
"-115.14","67.82","KUGLUKTUK A","2300903","2021-04-02 11:00","2021","04","02","11:00","-32.8","","-36.3","","72","","","","36","","2","","19.3","","102.47","","","","-35","","Ice Crystals"
"-115.14","67.82","KUGLUKTUK A","2300903","2021-04-02 12:00","2021","04","02","12:00","-32.2","","-35.6","","72","","","","36","","3","","24.1","","102.49","","","","-36","","Ice Crystals"
"-115.14","67.82","KUGLUKTUK A","2300903","2021-04-02 13:00","2021","04","02","13:00","-32.1","","-35.6","","72","","","","11","","7","","19.3","","102.49","","","","-40","","Ice Crystals"
"-115.14","67.82","KUGLUKTUK A","2300903","2021-04-02 14:00","2021","04","02","14:00","-31.2","","-34.6","","73","","","","7","","11","","19.3","","102.48","","","","-41","","Ice Crystals"
"-115.14","67.82","KUGLUKTUK A","2300903","2021-04-02 15:00","2021","04","02","15:00","-30.4","","-33.7","","73","","","","7","","15","","24.1","","102.46","","","","-42","","Ice Crystals"
"-115.14","67.82","KUGLUKTUK A","2300903","2021-04-02 16:00","2021","04","02","16:00","-29.7","","-33.0","","74","","","","8","","15","","19.3","","102.46","","","","-41","","Ice Crystals"
"-115.14","67.82","KUGLUKTUK A","2300903","2021-04-02 17:00","2021","04","02","17:00","-28.9","","-32.0","","75","","","","7","","11","","19.3","","102.44","","","","-38","","Ice Crystals"
"-115.14","67.82","KUGLUKTUK A","2300903","2021-04-02 18:00","2021","04","02","18:00","-28.2","","-31.3","","75","","","","8","","13","","24.1","","102.43","","","","-38","","Ice Crystals"
"-115.14","67.82","KUGLUKTUK A","2300903","2021-04-02 19:00","2021","04","02","19:00","-27.9","","-31.0","","75","","","","9","","20","","24.1","","102.37","","","","-40","","Ice Crystals"
"-115.14","67.82","KUGLUKTUK A","2300903","2021-04-02 20:00","2021","04","02","20:00","-27.2","","-30.2","","76","","","","10","","18","","24.1","","102.33","","","","-39","","Mainly Clear"
"-115.14","67.82","KUGLUKTUK A","2300903","2021-04-02 21:00","2021","04","02","21:00","-26.8","","-29.8","","76","","","","11","","16","","24.1","","102.36","","","","-38","","NA"
"-115.14","67.82","KUGLUKTUK A","2300903","2021-04-02 22:00","2021","04","02","22:00","-27.7","","-30.7","","76","","","","11","","17","","24.1","","102.36","","","","-39","","NA"
"-115.14","67.82","KUGLUKTUK A","2300903","2021-04-02 23:00","2021","04","02","23:00","-27.5","","-30.6","","76","","","","11","","10","","24.1","","102.36","","","","-36","","Mainly Clear"
"-115.14","67.82","KUGLUKTUK A","2300903","2021-04-03 00:00","2021","04","03","00:00","-26.4","","-29.1","","78","","","","12","","6","","24.1","","102.34","","","","-32","","NA"
"-115.14","67.82","KUGLUKTUK A","2300903","2021-04-03 01:00","2021","04","03","01:00","-29.2","","-32.4","","75","","","","31","","7","","24.1","","102.34","","","","-36","","NA"
"-115.14","67.82","KUGLUKTUK A","2300903","2021-04-03 02:00","2021","04","03","02:00","-27.5","","-30.5","","76","","","","36","","2","","24.1","","102.34","","","","-30","","Mostly Cloudy"
"-115.14","67.82","KUGLUKTUK A","2300903","2021-04-03 03:00","2021","04","03","03:00","-28.3","","-31.4","","75","","","","36","","3","","24.1","","102.35","","","","-32","","NA"
"-115.14","67.82","KUGLUKTUK A","2300903","2021-04-03 04:00","2021","04","03","04:00","-27.2","","-30.4","","75","","","","12","","5","","24.1","","102.33","","","","-32","","NA"
"-115.14","67.82","KUGLUKTUK A","2300903","2021-04-03 05:00","2021","04","03","05:00","-28.1","","-31.4","","74","","","","34","","4","","24.1","","102.31","","","","-32","","Mainly Clear"
"-115.14","67.82","KUGLUKTUK A","2300903","2021-04-03 06:00","2021","04","03","06:00","-26.8","","-29.8","","76","","","","32","","4","","24.1","","102.29","","","","-31","","NA"
"-115.14","67.82","KUGLUKTUK A","2300903","2021-04-03 07:00","2021","04","03","07:00","-25.9","","-28.8","","77","","","","32","","6","","24.1","","102.26","","","","-32","","NA"
"-115.14","67.82","KUGLUKTUK A","2300903","2021-04-03 08:00","2021","04","03","08:00","-25.5","","-28.5","","77","","","","30","","8","","24.1","","102.25","","","","-33","","Cloudy"
"-115.14","67.82","KUGLUKTUK A","2300903","2021-04-03 09:00","2021","04","03","09:00","-23.6","","-26.6","","77","","","","26","","3","","24.1","","102.22","","","","-26","","NA"
"-115.14","67.82","KUGLUKTUK A","2300903","2021-04-03 10:00","2021","04","03","10:00","-22.8","","-26.1","","75","","","","30","","6","","24.1","","102.21","","","","-28","","NA"
"-115.14","67.82","KUGLUKTUK A","2300903","2021-04-03 11:00","2021","04","03","11:00","-20.6","","-26.3","","61","","","","11","","11","","24.1","","102.19","","","","-28","","Mostly Cloudy"
"-115.14","67.82","KUGLUKTUK A","2300903","2021-04-03 12:00","2021","04","03","12:00","-17.9","","-25.3","","53","","","","12","","13","","24.1","","102.17","","","","-26","","NA"
"-115.14","67.82","KUGLUKTUK A","2300903","2021-04-03 13:00","2021","04","03","13:00","-17.7","","-24.5","","56","","","","10","","26","","24.1","","102.09","","","","-29","","NA"
"-115.14","67.82","KUGLUKTUK A","2300903","2021-04-03 14:00","2021","04","03","14:00","-17.0","","-24.1","","55","","","","10","","27","","24.1","","102.07","","","","-28","","Mostly Cloudy"
"-115.14","67.82","KUGLUKTUK A","2300903","2021-04-03 15:00","2021","04","03","15:00","-17.8","","-23.1","","64","","","","11","","30","","24.1","","101.98","","","","-30","","NA"
"-115.14","67.82","KUGLUKTUK A","2300903","2021-04-03 16:00","2021","04","03","16:00","-17.0","","-23.0","","60","","","","10","","22","","19.3","","101.95","","","","-27","","NA"
"-115.14","67.82","KUGLUKTUK A","2300903","2021-04-03 17:00","2021","04","03","17:00","-17.8","","-23.3","","62","","","","10","","23","","16.1","","101.86","","","","-28","","Snow"
"-115.14","67.82","KUGLUKTUK A","2300903","2021-04-03 18:00","2021","04","03","18:00","-17.7","","-22.7","","65","","","","10","","19","","6.4","","101.85","","","","-27","","Snow"
"-115.14","67.82","KUGLUKTUK A","2300903","2021-04-03 19:00","2021","04","03","19:00","-17.6","","-21.6","","71","","","","11","","21","","3.6","","101.80","","","","-28","","Snow"
"-115.14","67.82","KUGLUKTUK A","2300903","2021-04-03 20:00","2021","04","03","20:00","-19.3","","-24.6","","63","","","","10","","23","","9.7","","101.76","","","","-30","","Ice Crystals"
"-115.14","67.82","KUGLUKTUK A","2300903","2021-04-03 21:00","2021","04","03","21:00","-19.0","","-24.7","","61","","","","9","","21","","12.9","","101.71","","","","-29","","Ice Crystals"
"-115.14","67.82","KUGLUKTUK A","2300903","2021-04-03 22:00","2021","04","03","22:00","-18.1","","-25.3","","54","","","","13","","17","","16.1","","101.66","","","","-27","","Ice Crystals"
"-115.14","67.82","KUGLUKTUK A","2300903","2021-04-03 23:00","2021","04","03","23:00","-18.8","","-24.8","","60","","","","15","","15","","24.1","","101.61","","","","-28","","Ice Crystals"
"-115.14","67.82","KUGLUKTUK A","2300903","2021-04-04 00:00","2021","04","04","00:00","-18.2","","-24.3","","60","","","","18","","9","","16.1","","101.58","","","","-25","","Snow"
"-115.14","67.82","KUGLUKTUK A","2300903","2021-04-04 01:00","2021","04","04","01:00","-20.2","","-23.5","","75","","","","29","","13","","9.7","","101.55","","","","-29","","Snow"
"-115.14","67.82","KUGLUKTUK A","2300903","2021-04-04 02:00","2021","04","04","02:00","-21.3","","-24.3","","77","","","","33","","11","","6.4","","101.52","","","","-29","","Ice Crystals"
"-115.14","67.82","KUGLUKTUK A","2300903","2021-04-04 03:00","2021","04","04","03:00","-22.2","","-25.1","","78","","","","34","","9","","4.8","","101.51","","","","-29","","Ice Crystals"
"-115.14","67.82","KUGLUKTUK A","2300903","2021-04-04 04:00","2021","04","04","04:00","-23.2","","-26.1","","78","","","","34","","12","","8.1","","101.48","","","","-32","","Ice Crystals"
"-115.14","67.82","KUGLUKTUK A","2300903","2021-04-04 05:00","2021","04","04","05:00","-23.9","","-26.7","","78","","","","34","","8","","9.7","","101.43","","","","-31","","Ice Crystals"
"-115.14","67.82","KUGLUKTUK A","2300903","2021-04-04 06:00","2021","04","04","06:00","-24.2","","-27.1","","78","","","","1","","7","","16.1","","101.44","","","","-31","","Ice Crystals"
"-115.14","67.82","KUGLUKTUK A","2300903","2021-04-04 07:00","2021","04","04","07:00","-24.2","","-27.0","","78","","","","36","","4","","19.3","","101.41","","","","-28","","Ice Crystals"
"-115.14","67.82","KUGLUKTUK A","2300903","2021-04-04 08:00","2021","04","04","08:00","-24.5","","-27.4","","77","","","","16","","4","","19.3","","101.35","","","","-28","","Ice Crystals"
"-115.14","67.82","KUGLUKTUK A","2300903","2021-04-04 09:00","2021","04","04","09:00","-24.2","","-28.0","","72","","","","32","","4","","24.1","","101.34","","","","-28","","Ice Crystals"
"-115.14","67.82","KUGLUKTUK A","2300903","2021-04-04 10:00","2021","04","04","10:00","-23.6","","-27.2","","73","","","","31","","4","","24.1","","101.31","","","","-27","","Ice Crystals"
"-115.14","67.82","KUGLUKTUK A","2300903","2021-04-04 11:00","2021","04","04","11:00","-23.8","","-27.4","","73","","","","36","","3","","19.3","","101.26","","","","-27","","Ice Crystals"
"-115.14","67.82","KUGLUKTUK A","2300903","2021-04-04 12:00","2021","04","04","12:00","-22.0","","-25.5","","74","","","","20","","4","","24.1","","101.22","","","","-26","","Ice Crystals"
"-115.14","67.82","KUGLUKTUK A","2300903","2021-04-04 13:00","2021","04","04","13:00","-21.2","","-25.3","","70","","","","31","","4","","24.1","","101.19","","","","-25","","Ice Crystals"
"-115.14","67.82","KUGLUKTUK A","2300903","2021-04-04 14:00","2021","04","04","14:00","-20.4","","-23.9","","74","","","","25","","8","","24.1","","101.15","","","","-27","","Ice Crystals"
"-115.14","67.82","KUGLUKTUK A","2300903","2021-04-04 15:00","2021","04","04","15:00","-20.5","","-24.1","","74","","","","25","","4","","24.1","","101.13","","","","-24","","Ice Crystals"
"-115.14","67.82","KUGLUKTUK A","2300903","2021-04-04 16:00","2021","04","04","16:00","-20.7","","-24.0","","75","","","","21","","9","","24.1","","101.10","","","","-28","","NA"
"-115.14","67.82","KUGLUKTUK A","2300903","2021-04-04 17:00","2021","04","04","17:00","-21.1","","-24.3","","76","","","","19","","9","","24.1","","101.03","","","","-28","","Clear"
"-115.14","67.82","KUGLUKTUK A","2300903","2021-04-04 18:00","2021","04","04","18:00","-21.8","","-24.9","","76","","","","5","","4","","24.1","","100.99","","","","-25","","NA"
"-115.14","67.82","KUGLUKTUK A","2300903","2021-04-04 19:00","2021","04","04","19:00","-23.6","","-26.6","","77","","","","1","","7","","24.1","","100.95","","","","-30","","NA"
"-115.14","67.82","KUGLUKTUK A","2300903","2021-04-04 20:00","2021","04","04","20:00","-23.1","","-25.6","","80","","","","6","","7","","24.1","","100.91","","","","-29","","Mainly Clear"
"-115.14","67.82","KUGLUKTUK A","2300903","2021-04-04 21:00","2021","04","04","21:00","-24.9","","-27.0","","83","","","","3","","3","","24.1","","100.86","","","","-28","","NA"
"-115.14","67.82","KUGLUKTUK A","2300903","2021-04-04 22:00","2021","04","04","22:00","-26.9","","-29.4","","80","","","","34","","4","","24.1","","100.79","","","","-31","","NA"
"-115.14","67.82","KUGLUKTUK A","2300903","2021-04-04 23:00","2021","04","04","23:00","-26.6","","-29.2","","80","","","","35","","5","","24.1","","100.71","","","","-32","","Mostly Cloudy"
"-115.14","67.82","KUGLUKTUK A","2300903","2021-04-05 00:00","2021","04","05","00:00","-26.7","","-29.2","","79","","","","1","","9","","24.1","","100.67","","","","-35","","NA"
"-115.14","67.82","KUGLUKTUK A","2300903","2021-04-05 01:00","2021","04","05","01:00","-26.3","","-28.9","","80","","","","5","","8","","24.1","","100.62","","","","-34","","NA"
"-115.14","67.82","KUGLUKTUK A","2300903","2021-04-05 02:00","2021","04","05","02:00","-27.2","","-29.9","","78","","","","1","","9","","24.1","","100.57","","","","-35","","Ice Crystals"
"-115.14","67.82","KUGLUKTUK A","2300903","2021-04-05 03:00","2021","04","05","03:00","-27.2","","-30.0","","78","","","","2","","10","","24.1","","100.54","","","","-36","","Ice Crystals"
"-115.14","67.82","KUGLUKTUK A","2300903","2021-04-05 04:00","2021","04","05","04:00","-27.5","","-30.3","","77","","","","35","","11","","24.1","","100.46","","","","-37","","Ice Crystals"
"-115.14","67.82","KUGLUKTUK A","2300903","2021-04-05 05:00","2021","04","05","05:00","-27.1","","-29.9","","77","","","","2","","10","","24.1","","100.41","","","","-36","","Mainly Clear"
"-115.14","67.82","KUGLUKTUK A","2300903","2021-04-05 06:00","2021","04","05","06:00","-25.5","","-28.2","","79","","","","4","","8","","24.1","","100.38","","","","-33","","Ice Crystals"
"-115.14","67.82","KUGLUKTUK A","2300903","2021-04-05 07:00","2021","04","05","07:00","-24.3","","-27.0","","79","","","","4","","8","","19.3","","100.37","","","","-31","","Ice Crystals"
"-115.14","67.82","KUGLUKTUK A","2300903","2021-04-05 08:00","2021","04","05","08:00","-23.5","","-26.2","","79","","","","36","","5","","19.3","","100.35","","","","-28","","Ice Crystals"
"-115.14","67.82","KUGLUKTUK A","2300903","2021-04-05 09:00","2021","04","05","09:00","-22.6","","-25.2","","80","","","","7","","3","","19.3","","100.36","","","","-25","","Snow"
"-115.14","67.82","KUGLUKTUK A","2300903","2021-04-05 10:00","2021","04","05","10:00","-21.2","","-24.4","","76","","","","1","","4","","24.1","","100.30","","","","-25","","NA"
"-115.14","67.82","KUGLUKTUK A","2300903","2021-04-05 11:00","2021","04","05","11:00","-20.4","","-23.5","","76","","","","34","","12","","24.1","","100.35","","","","-29","","Cloudy"
"-115.14","67.82","KUGLUKTUK A","2300903","2021-04-05 12:00","2021","04","05","12:00","-20.0","","-23.4","","74","","","","27","","8","","24.1","","100.37","","","","-26","","NA"
"-115.14","67.82","KUGLUKTUK A","2300903","2021-04-05 13:00","2021","04","05","13:00","-19.6","","-23.0","","75","","","","25","","7","","24.1","","100.37","","","","-25","","NA"
"-115.14","67.82","KUGLUKTUK A","2300903","2021-04-05 14:00","2021","04","05","14:00","-19.2","","-22.9","","73","","","","27","","13","","24.1","","100.41","","","","-27","","Cloudy"
"-115.14","67.82","KUGLUKTUK A","2300903","2021-04-05 15:00","2021","04","05","15:00","-17.6","","-21.3","","74","","","","21","","14","","4.8","","100.40","","","","-26","","Snow"
"-115.14","67.82","KUGLUKTUK A","2300903","2021-04-05 16:00","2021","04","05","16:00","-14.8","","-17.1","","83","","","","25","","23","","4.8","","100.43","","","","-25","","Snow"
"-115.14","67.82","KUGLUKTUK A","2300903","2021-04-05 17:00","2021","04","05","17:00","-14.4","","-16.7","","83","","","","26","","36","","2.8","","100.50","","","","-26","","Snow Showers"
"-115.14","67.82","KUGLUKTUK A","2300903","2021-04-05 18:00","2021","04","05","18:00","-14.7","","-16.9","","84","","","","28","","28","","6.4","","100.67","","","","-25","","Snow"
"-115.14","67.82","KUGLUKTUK A","2300903","2021-04-05 19:00","2021","04","05","19:00","-14.7","","-18.2","","75","","","","29","","39","","4.8","","100.85","","","","-27","","Snow,Blowing Snow"
"-115.14","67.82","KUGLUKTUK A","2300903","2021-04-05 20:00","2021","04","05","20:00","-16.9","","-19.7","","79","","","","28","","43","","9.7","","100.99","","","","-30","","Blowing Snow"
"-115.14","67.82","KUGLUKTUK A","2300903","2021-04-05 21:00","2021","04","05","21:00","-19.1","","-22.2","","77","","","","27","","37","","19.3","","101.12","","","","-33","","Blowing Snow"
"-115.14","67.82","KUGLUKTUK A","2300903","2021-04-05 22:00","2021","04","05","22:00","-20.4","","-23.7","","75","","","","26","","33","","16.1","","101.24","","","","-34","","Blowing Snow"
"-115.14","67.82","KUGLUKTUK A","2300903","2021-04-05 23:00","2021","04","05","23:00","-21.2","","-24.8","","74","","","","26","","33","","12.9","","101.29","","","","-35","","Blowing Snow"
"-115.14","67.82","KUGLUKTUK A","2300903","2021-04-06 00:00","2021","04","06","00:00","-21.6","","-25.5","","71","","","","26","","39","","12.9","","101.32","","","","-36","","Blowing Snow"
"-115.14","67.82","KUGLUKTUK A","2300903","2021-04-06 01:00","2021","04","06","01:00","-23.1","","-26.9","","71","","","","27","","36","","24.1","","101.40","","","","-38","","Blowing Snow"
"-115.14","67.82","KUGLUKTUK A","2300903","2021-04-06 02:00","2021","04","06","02:00","-23.4","","-27.2","","72","","","","26","","32","","24.1","","101.48","","","","-37","","Blowing Snow"
"-115.14","67.82","KUGLUKTUK A","2300903","2021-04-06 03:00","2021","04","06","03:00","-24.2","","-27.8","","73","","","","26","","34","","24.1","","101.54","","","","-39","","Ice Crystals,Blowing Snow"
"-115.14","67.82","KUGLUKTUK A","2300903","2021-04-06 04:00","2021","04","06","04:00","-24.5","","-27.8","","75","","","","26","","34","","24.1","","101.62","","","","-39","","Ice Crystals,Blowing Snow"
"-115.14","67.82","KUGLUKTUK A","2300903","2021-04-06 05:00","2021","04","06","05:00","-24.7","","-28.0","","75","","","","26","","34","","24.1","","101.69","","","","-39","","Blowing Snow"
"-115.14","67.82","KUGLUKTUK A","2300903","2021-04-06 06:00","2021","04","06","06:00","-24.4","","-27.9","","73","","","","25","","31","","24.1","","101.75","","","","-38","","Blowing Snow"
"-115.14","67.82","KUGLUKTUK A","2300903","2021-04-06 07:00","2021","04","06","07:00","-24.1","","-27.8","","72","","","","26","","33","","24.1","","101.83","","","","-38","","Blowing Snow"
"-115.14","67.82","KUGLUKTUK A","2300903","2021-04-06 08:00","2021","04","06","08:00","-24.1","","-28.2","","70","","","","24","","27","","24.1","","101.86","","","","-37","","Blowing Snow"
"-115.14","67.82","KUGLUKTUK A","2300903","2021-04-06 09:00","2021","04","06","09:00","-23.4","","-27.4","","70","","","","24","","27","","24.1","","101.94","","","","-36","","Blowing Snow"
"-115.14","67.82","KUGLUKTUK A","2300903","2021-04-06 10:00","2021","04","06","10:00","-22.5","","-26.8","","69","","","","24","","26","","24.1","","101.97","","","","-35","","NA"
"-115.14","67.82","KUGLUKTUK A","2300903","2021-04-06 11:00","2021","04","06","11:00","-21.4","","-26.0","","67","","","","24","","26","","24.1","","102.04","","","","-34","","Mainly Clear"
"-115.14","67.82","KUGLUKTUK A","2300903","2021-04-06 12:00","2021","04","06","12:00","-20.8","","-25.3","","68","","","","23","","23","","24.1","","102.09","","","","-32","","NA"
"-115.14","67.82","KUGLUKTUK A","2300903","2021-04-06 13:00","2021","04","06","13:00","-20.2","","-24.6","","69","","","","23","","18","","24.1","","102.14","","","","-30","","NA"
"-115.14","67.82","KUGLUKTUK A","2300903","2021-04-06 14:00","2021","04","06","14:00","-19.7","","-24.7","","65","","","","24","","19","","24.1","","102.23","","","","-30","","Clear"
"-115.14","67.82","KUGLUKTUK A","2300903","2021-04-06 15:00","2021","04","06","15:00","-19.5","","-24.4","","66","","","","24","","18","","24.1","","102.27","","","","-29","","NA"
"-115.14","67.82","KUGLUKTUK A","2300903","2021-04-06 16:00","2021","04","06","16:00","-19.9","","-24.4","","68","","","","22","","10","","24.1","","102.30","","","","-27","","NA"
"-115.14","67.82","KUGLUKTUK A","2300903","2021-04-06 17:00","2021","04","06","17:00","-20.4","","-24.7","","69","","","","23","","10","","24.1","","102.31","","","","-28","","Clear"
"-115.14","67.82","KUGLUKTUK A","2300903","2021-04-06 18:00","2021","04","06","18:00","-20.9","","-25.1","","70","","","","26","","10","","24.1","","102.33","","","","-28","","NA"
"-115.14","67.82","KUGLUKTUK A","2300903","2021-04-06 19:00","2021","04","06","19:00","-22.6","","-26.3","","72","","","","22","","12","","24.1","","102.37","","","","-31","","NA"
"-115.14","67.82","KUGLUKTUK A","2300903","2021-04-06 20:00","2021","04","06","20:00","-23.9","","-27.4","","74","","","","21","","12","","24.1","","102.39","","","","-33","","Clear"
"-115.14","67.82","KUGLUKTUK A","2300903","2021-04-06 21:00","2021","04","06","21:00","-24.9","","-28.4","","73","","","","21","","13","","24.1","","102.42","","","","-34","","NA"
"-115.14","67.82","KUGLUKTUK A","2300903","2021-04-06 22:00","2021","04","06","22:00","-25.2","","-28.7","","73","","","","20","","13","","24.1","","102.44","","","","-35","","NA"
"-115.14","67.82","KUGLUKTUK A","2300903","2021-04-06 23:00","2021","04","06","23:00","-24.6","","-28.4","","72","","","","21","","11","","24.1","","102.47","","","","-33","","Clear"
"-115.14","67.82","KUGLUKTUK A","2300903","2021-04-07 00:00","2021","04","07","00:00","-25.1","","-28.9","","71","","","","23","","7","","24.1","","102.48","","","","-32","","NA"
"-115.14","67.82","KUGLUKTUK A","2300903","2021-04-07 01:00","2021","04","07","01:00","-25.8","","-29.6","","71","","","","20","","11","","24.1","","102.51","","","","-35","","NA"
"-115.14","67.82","KUGLUKTUK A","2300903","2021-04-07 02:00","2021","04","07","02:00","-26.9","","-30.6","","72","","","","19","","8","","24.1","","102.53","","","","-34","","Clear"
"-115.14","67.82","KUGLUKTUK A","2300903","2021-04-07 03:00","2021","04","07","03:00","-27.0","","-30.4","","74","","","","25","","5","","24.1","","102.54","","","","-32","","NA"
"-115.14","67.82","KUGLUKTUK A","2300903","2021-04-07 04:00","2021","04","07","04:00","-28.6","","-32.0","","73","","","","1","","5","","24.1","","102.55","","","","-34","","NA"
"-115.14","67.82","KUGLUKTUK A","2300903","2021-04-07 05:00","2021","04","07","05:00","-29.1","","-32.1","","76","","","","36","","1","","24.1","","102.55","","","","-30","","Mainly Clear"
"-115.14","67.82","KUGLUKTUK A","2300903","2021-04-07 06:00","2021","04","07","06:00","-28.9","","-31.7","","77","","","","36","","1","","24.1","","102.55","","","","-30","","NA"
"-115.14","67.82","KUGLUKTUK A","2300903","2021-04-07 07:00","2021","04","07","07:00","-28.6","","-31.7","","76","","","","31","","3","","24.1","","102.57","","","","-32","","NA"
"-115.14","67.82","KUGLUKTUK A","2300903","2021-04-07 08:00","2021","04","07","08:00","-28.2","","-31.4","","75","","","","35","","5","","24.1","","102.55","","","","-34","","Cloudy"
"-115.14","67.82","KUGLUKTUK A","2300903","2021-04-07 09:00","2021","04","07","09:00","-27.5","","-30.9","","73","","","","2","","5","","24.1","","102.55","","","","-33","","NA"
"-115.14","67.82","KUGLUKTUK A","2300903","2021-04-07 10:00","2021","04","07","10:00","-26.6","","-30.0","","74","","","","3","","4","","24.1","","102.54","","","","-31","","NA"
"-115.14","67.82","KUGLUKTUK A","2300903","2021-04-07 11:00","2021","04","07","11:00","-25.6","","-29.1","","73","","","","2","","7","","24.1","","102.50","","","","-32","","Cloudy"
"-115.14","67.82","KUGLUKTUK A","2300903","2021-04-07 12:00","2021","04","07","12:00","-24.2","","-27.7","","73","","","","2","","7","","16.1","","102.47","","","","-31","","Snow"
"-115.14","67.82","KUGLUKTUK A","2300903","2021-04-07 13:00","2021","04","07","13:00","-23.1","","-26.3","","75","","","","36","","2","","12.9","","102.45","","","","-25","","Snow"
"-115.14","67.82","KUGLUKTUK A","2300903","2021-04-07 14:00","2021","04","07","14:00","-22.3","","-25.6","","75","","","","11","","3","","16.1","","102.40","","","","-25","","Snow"
"-115.14","67.82","KUGLUKTUK A","2300903","2021-04-07 15:00","2021","04","07","15:00","-21.1","","-24.4","","75","","","","13","","4","","12.9","","102.37","","","","-25","","Snow"
"-115.14","67.82","KUGLUKTUK A","2300903","2021-04-07 16:00","2021","04","07","16:00","-19.9","","-23.1","","76","","","","8","","9","","9.7","","102.31","","","","-27","","Snow"
"-115.14","67.82","KUGLUKTUK A","2300903","2021-04-07 17:00","2021","04","07","17:00","-20.1","","-23.0","","78","","","","10","","5","","6.4","","102.27","","","","-24","","Snow"
"-115.14","67.82","KUGLUKTUK A","2300903","2021-04-07 18:00","2021","04","07","18:00","-19.3","","-22.1","","79","","","","6","","16","","6.4","","102.23","","","","-29","","Snow"
"-115.14","67.82","KUGLUKTUK A","2300903","2021-04-07 19:00","2021","04","07","19:00","-19.6","","-22.2","","80","","","","5","","17","","8.1","","102.18","","","","-29","","Snow"
"-115.14","67.82","KUGLUKTUK A","2300903","2021-04-07 20:00","2021","04","07","20:00","-19.8","","-22.4","","81","","","","5","","14","","6.4","","102.12","","","","-29","","Snow"
"-115.14","67.82","KUGLUKTUK A","2300903","2021-04-07 21:00","2021","04","07","21:00","-20.1","","-22.5","","81","","","","3","","20","","4.8","","102.07","","","","-31","","Snow"
"-115.14","67.82","KUGLUKTUK A","2300903","2021-04-07 22:00","2021","04","07","22:00","-20.3","","-22.7","","81","","","","3","","18","","4.8","","101.99","","","","-30","","Snow"
"-115.14","67.82","KUGLUKTUK A","2300903","2021-04-07 23:00","2021","04","07","23:00","-20.2","","-22.5","","82","","","","2","","18","","6.4","","101.91","","","","-30","","Snow"
"-115.14","67.82","KUGLUKTUK A","2300903","2021-04-08 00:00","2021","04","08","00:00","-20.0","","-22.3","","83","","","","2","","16","","4.8","","101.83","","","","-29","","Snow"
"-115.14","67.82","KUGLUKTUK A","2300903","2021-04-08 01:00","2021","04","08","01:00","-20.1","","-22.4","","82","","","","1","","17","","4.8","","101.76","","","","-30","","Snow"
"-115.14","67.82","KUGLUKTUK A","2300903","2021-04-08 02:00","2021","04","08","02:00","-20.7","","-23.1","","82","","","","36","","16","","6.4","","101.69","","","","-30","","Snow"
"-115.14","67.82","KUGLUKTUK A","2300903","2021-04-08 03:00","2021","04","08","03:00","-21.4","","-23.8","","82","","","","35","","17","","6.4","","101.62","","","","-31","","Snow"
"-115.14","67.82","KUGLUKTUK A","2300903","2021-04-08 04:00","2021","04","08","04:00","-21.7","","-24.1","","81","","","","35","","21","","8.1","","101.58","","","","-33","","Snow"
"-115.14","67.82","KUGLUKTUK A","2300903","2021-04-08 05:00","2021","04","08","05:00","-22.2","","-24.7","","80","","","","35","","23","","12.9","","101.54","","","","-34","","Ice Crystals,Blowing Snow"
"-115.14","67.82","KUGLUKTUK A","2300903","2021-04-08 06:00","2021","04","08","06:00","-23.1","","-25.7","","79","","","","34","","20","","16.1","","101.50","","","","-34","","Ice Crystals,Blowing Snow"
"-115.14","67.82","KUGLUKTUK A","2300903","2021-04-08 07:00","2021","04","08","07:00","-22.3","","-25.1","","78","","","","33","","25","","16.1","","101.49","","","","-35","","Ice Crystals"
"-115.14","67.82","KUGLUKTUK A","2300903","2021-04-08 08:00","2021","04","08","08:00","-22.4","","-25.3","","78","","","","33","","22","","4.8","","101.48","","","","-34","","Snow,Blowing Snow"
"-115.14","67.82","KUGLUKTUK A","2300903","2021-04-08 09:00","2021","04","08","09:00","-21.8","","-24.9","","77","","","","33","","26","","6.4","","101.44","","","","-34","","Snow,Blowing Snow"
"-115.14","67.82","KUGLUKTUK A","2300903","2021-04-08 10:00","2021","04","08","10:00","-22.0","","-25.6","","73","","","","31","","21","","12.9","","101.42","","","","-33","","Snow"
"-115.14","67.82","KUGLUKTUK A","2300903","2021-04-08 11:00","2021","04","08","11:00","-21.5","","-25.7","","70","","","","31","","20","","24.1","","101.42","","","","-32","","Ice Crystals"
"-115.14","67.82","KUGLUKTUK A","2300903","2021-04-08 12:00","2021","04","08","12:00","-21.4","","-25.4","","71","","","","31","","22","","24.1","","101.45","","","","-33","","Ice Crystals"
"-115.14","67.82","KUGLUKTUK A","2300903","2021-04-08 13:00","2021","04","08","13:00","-21.1","","-25.2","","70","","","","32","","22","","24.1","","101.45","","","","-32","","NA"
"-115.14","67.82","KUGLUKTUK A","2300903","2021-04-08 14:00","2021","04","08","14:00","-20.5","","-25.0","","68","","","","31","","19","","24.1","","101.45","","","","-31","","Clear"
"-115.14","67.82","KUGLUKTUK A","2300903","2021-04-08 15:00","2021","04","08","15:00","-20.4","","-24.7","","69","","","","32","","19","","24.1","","101.44","","","","-31","","NA"
"-115.14","67.82","KUGLUKTUK A","2300903","2021-04-08 16:00","2021","04","08","16:00","-20.6","","-24.9","","69","","","","29","","17","","24.1","","101.46","","","","-30","","NA"
"-115.14","67.82","KUGLUKTUK A","2300903","2021-04-08 17:00","2021","04","08","17:00","-20.9","","-24.8","","72","","","","27","","14","","24.1","","101.48","","","","-30","","Clear"
"-115.14","67.82","KUGLUKTUK A","2300903","2021-04-08 18:00","2021","04","08","18:00","-21.8","","-25.5","","72","","","","27","","14","","24.1","","101.46","","","","-31","","Ice Crystals"
"-115.14","67.82","KUGLUKTUK A","2300903","2021-04-08 19:00","2021","04","08","19:00","-23.0","","-26.6","","73","","","","26","","20","","24.1","","101.45","","","","-34","","Ice Crystals"
"-115.14","67.82","KUGLUKTUK A","2300903","2021-04-08 20:00","2021","04","08","20:00","-24.1","","-27.4","","74","","","","27","","22","","24.1","","101.45","","","","-36","","Ice Crystals"
"-115.14","67.82","KUGLUKTUK A","2300903","2021-04-08 21:00","2021","04","08","21:00","-25.4","","-28.4","","76","","","","27","","20","","19.3","","101.47","","","","-37","","Ice Crystals"
"-115.14","67.82","KUGLUKTUK A","2300903","2021-04-08 22:00","2021","04","08","22:00","-25.5","","-28.2","","79","","","","26","","21","","19.3","","101.49","","","","-38","","Ice Crystals"
"-115.14","67.82","KUGLUKTUK A","2300903","2021-04-08 23:00","2021","04","08","23:00","-25.4","","-28.2","","78","","","","26","","26","","19.3","","101.50","","","","-39","","Ice Crystals,Blowing Snow"
"-115.14","67.82","KUGLUKTUK A","2300903","2021-04-09 00:00","2021","04","09","00:00","-26.8","","-29.7","","77","","","","26","","22","","19.3","","101.54","","","","-40","","Ice Crystals"
"-115.14","67.82","KUGLUKTUK A","2300903","2021-04-09 01:00","2021","04","09","01:00","-28.8","","-32.3","","73","","","","24","","15","","19.3","","101.57","","","","-40","","Ice Crystals"
"-115.14","67.82","KUGLUKTUK A","2300903","2021-04-09 02:00","2021","04","09","02:00","-27.7","","-30.7","","76","","","","25","","18","","19.3","","101.62","","","","-40","","Ice Crystals"
"-115.14","67.82","KUGLUKTUK A","2300903","2021-04-09 03:00","2021","04","09","03:00","-28.4","","-31.4","","76","","","","25","","27","","19.3","","101.65","","","","-43","","Ice Crystals,Blowing Snow"
"-115.14","67.82","KUGLUKTUK A","2300903","2021-04-09 04:00","2021","04","09","04:00","-26.9","","-29.8","","77","","","","26","","27","","12.9","","101.72","","","","-41","","Ice Crystals,Blowing Snow"
"-115.14","67.82","KUGLUKTUK A","2300903","2021-04-09 05:00","2021","04","09","05:00","-30.3","","-33.5","","74","","","","24","","26","","8.1","","101.75","","","","-45","","Ice Crystals,Blowing Snow"
"-115.14","67.82","KUGLUKTUK A","2300903","2021-04-09 06:00","2021","04","09","06:00","-28.7","","-31.8","","75","","","","25","","23","","16.1","","101.76","","","","-42","","Ice Crystals,Blowing Snow"
"-115.14","67.82","KUGLUKTUK A","2300903","2021-04-09 07:00","2021","04","09","07:00","-28.0","","-31.2","","75","","","","25","","28","","19.3","","101.82","","","","-43","","Ice Crystals,Blowing Snow"
"-115.14","67.82","KUGLUKTUK A","2300903","2021-04-09 08:00","2021","04","09","08:00","-26.1","","-29.6","","73","","","","26","","28","","24.1","","101.87","","","","-40","","Ice Crystals,Blowing Snow"
"-115.14","67.82","KUGLUKTUK A","2300903","2021-04-09 09:00","2021","04","09","09:00","-25.1","","-28.9","","71","","","","27","","21","","19.3","","101.91","","","","-37","","Ice Crystals,Blowing Snow"
"-115.14","67.82","KUGLUKTUK A","2300903","2021-04-09 10:00","2021","04","09","10:00","-24.1","","-27.9","","71","","","","26","","26","","19.3","","101.97","","","","-37","","Ice Crystals,Blowing Snow"
"-115.14","67.82","KUGLUKTUK A","2300903","2021-04-09 11:00","2021","04","09","11:00","-22.6","","-26.4","","72","","","","27","","25","","19.3","","102.02","","","","-35","","Ice Crystals,Blowing Snow"
"-115.14","67.82","KUGLUKTUK A","2300903","2021-04-09 12:00","2021","04","09","12:00","-21.1","","-25.6","","68","","","","28","","21","","24.1","","102.10","","","","-32","","Ice Crystals,Blowing Snow"
"-115.14","67.82","KUGLUKTUK A","2300903","2021-04-09 13:00","2021","04","09","13:00","-20.6","","-24.9","","69","","","","30","","23","","16.1","","102.16","","","","-32","","Ice Crystals,Blowing Snow"
"-115.14","67.82","KUGLUKTUK A","2300903","2021-04-09 14:00","2021","04","09","14:00","-20.2","","-24.7","","68","","","","29","","18","","24.1","","102.22","","","","-30","","Ice Crystals"
"-115.14","67.82","KUGLUKTUK A","2300903","2021-04-09 15:00","2021","04","09","15:00","-20.0","","-24.4","","68","","","","30","","13","","24.1","","102.27","","","","-28","","Ice Crystals"
"-115.14","67.82","KUGLUKTUK A","2300903","2021-04-09 16:00","2021","04","09","16:00","-20.2","","-24.5","","69","","","","31","","15","","24.1","","102.31","","","","-29","","Ice Crystals"
"-115.14","67.82","KUGLUKTUK A","2300903","2021-04-09 17:00","2021","04","09","17:00","-21.1","","-25.2","","70","","","","32","","21","","24.1","","102.38","","","","-32","","Ice Crystals"
"-115.14","67.82","KUGLUKTUK A","2300903","2021-04-09 18:00","2021","04","09","18:00","-22.0","","-26.1","","70","","","","29","","13","","24.1","","102.46","","","","-31","","Ice Crystals"
"-115.14","67.82","KUGLUKTUK A","2300903","2021-04-09 19:00","2021","04","09","19:00","-23.1","","-27.0","","71","","","","28","","16","","24.1","","102.53","","","","-33","","Ice Crystals"
"-115.14","67.82","KUGLUKTUK A","2300903","2021-04-09 20:00","2021","04","09","20:00","-24.3","","-27.7","","74","","","","31","","21","","24.1","","102.59","","","","-36","","Ice Crystals"
"-115.14","67.82","KUGLUKTUK A","2300903","2021-04-09 21:00","2021","04","09","21:00","-24.5","","-27.6","","76","","","","29","","19","","19.3","","102.63","","","","-36","","Ice Crystals"
"-115.14","67.82","KUGLUKTUK A","2300903","2021-04-09 22:00","2021","04","09","22:00","-25.6","","-28.5","","78","","","","28","","22","","16.1","","102.64","","","","-38","","Ice Crystals"
"-115.14","67.82","KUGLUKTUK A","2300903","2021-04-09 23:00","2021","04","09","23:00","-25.4","","-28.3","","77","","","","26","","16","","9.7","","102.70","","","","-36","","Ice Crystals"
"-115.14","67.82","KUGLUKTUK A","2300903","2021-04-10 00:00","2021","04","10","00:00","-27.9","","-30.8","","77","","","","24","","18","","12.9","","102.76","","","","-40","","Ice Crystals"
"-115.14","67.82","KUGLUKTUK A","2300903","2021-04-10 01:00","2021","04","10","01:00","-26.4","","-29.3","","77","","","","28","","20","","9.7","","102.80","","","","-39","","Ice Crystals"
"-115.14","67.82","KUGLUKTUK A","2300903","2021-04-10 02:00","2021","04","10","02:00","-27.6","","-30.6","","76","","","","26","","19","","9.7","","102.83","","","","-40","","Ice Crystals"
"-115.14","67.82","KUGLUKTUK A","2300903","2021-04-10 03:00","2021","04","10","03:00","-29.9","","-33.0","","75","","","","24","","17","","12.9","","102.87","","","","-42","","Ice Crystals"
"-115.14","67.82","KUGLUKTUK A","2300903","2021-04-10 04:00","2021","04","10","04:00","-27.5","","-30.4","","77","","","","26","","16","","8.1","","102.90","","","","-39","","Ice Crystals"
"-115.14","67.82","KUGLUKTUK A","2300903","2021-04-10 05:00","2021","04","10","05:00","-29.5","","-32.6","","75","","","","25","","19","","12.9","","102.94","","","","-42","","Ice Crystals"
"-115.14","67.82","KUGLUKTUK A","2300903","2021-04-10 06:00","2021","04","10","06:00","-27.4","","-30.4","","76","","","","26","","18","","19.3","","103.00","","","","-39","","Ice Crystals"
"-115.14","67.82","KUGLUKTUK A","2300903","2021-04-10 07:00","2021","04","10","07:00","-28.8","","-31.9","","75","","","","25","","18","","19.3","","103.04","","","","-41","","Ice Crystals"
"-115.14","67.82","KUGLUKTUK A","2300903","2021-04-10 08:00","2021","04","10","08:00","-26.9","","-30.2","","74","","","","25","","20","","19.3","","103.05","","","","-39","","Ice Crystals"
"-115.14","67.82","KUGLUKTUK A","2300903","2021-04-10 09:00","2021","04","10","09:00","-25.8","","-29.3","","73","","","","27","","15","","24.1","","103.05","","","","-36","","Ice Crystals"
"-115.14","67.82","KUGLUKTUK A","2300903","2021-04-10 10:00","2021","04","10","10:00","-26.3","","-29.8","","73","","","","23","","20","","24.1","","103.05","","","","-38","","Ice Crystals"
"-115.14","67.82","KUGLUKTUK A","2300903","2021-04-10 11:00","2021","04","10","11:00","-25.1","","-28.7","","72","","","","24","","18","","24.1","","103.09","","","","-36","","Ice Crystals"
"-115.14","67.82","KUGLUKTUK A","2300903","2021-04-10 12:00","2021","04","10","12:00","-23.8","","-27.6","","71","","","","26","","20","","24.1","","103.10","","","","-35","","Ice Crystals"
"-115.14","67.82","KUGLUKTUK A","2300903","2021-04-10 13:00","2021","04","10","13:00","-23.1","","-27.0","","71","","","","25","","19","","24.1","","103.14","","","","-34","","NA"
"-115.14","67.82","KUGLUKTUK A","2300903","2021-04-10 14:00","2021","04","10","14:00","-22.8","","-26.9","","70","","","","26","","20","","24.1","","103.15","","","","-34","","Mainly Clear"
"-115.14","67.82","KUGLUKTUK A","2300903","2021-04-10 15:00","2021","04","10","15:00","-22.1","","-26.2","","70","","","","25","","17","","24.1","","103.16","","","","-32","","NA"
"-115.14","67.82","KUGLUKTUK A","2300903","2021-04-10 16:00","2021","04","10","16:00","-22.7","","-26.6","","71","","","","26","","23","","24.1","","103.20","","","","-35","","NA"
"-115.14","67.82","KUGLUKTUK A","2300903","2021-04-10 17:00","2021","04","10","17:00","-22.8","","-26.7","","71","","","","26","","19","","24.1","","103.19","","","","-34","","Mostly Cloudy"
"-115.14","67.82","KUGLUKTUK A","2300903","2021-04-10 18:00","2021","04","10","18:00","-23.6","","-27.2","","73","","","","26","","11","","24.1","","103.18","","","","-32","","NA"
"-115.14","67.82","KUGLUKTUK A","2300903","2021-04-10 19:00","2021","04","10","19:00","-25.2","","-28.9","","72","","","","23","","13","","24.1","","103.18","","","","-35","","NA"
"-115.14","67.82","KUGLUKTUK A","2300903","2021-04-10 20:00","2021","04","10","20:00","-26.1","","-29.4","","74","","","","23","","10","","24.1","","103.20","","","","-34","","Mainly Clear"
"-115.14","67.82","KUGLUKTUK A","2300903","2021-04-10 21:00","2021","04","10","21:00","-26.9","","-29.9","","76","","","","23","","9","","24.1","","103.22","","","","-35","","NA"
"-115.14","67.82","KUGLUKTUK A","2300903","2021-04-10 22:00","2021","04","10","22:00","-27.7","","-30.4","","78","","","","22","","10","","24.1","","103.23","","","","-36","","NA"
"-115.14","67.82","KUGLUKTUK A","2300903","2021-04-10 23:00","2021","04","10","23:00","-28.8","","-31.6","","77","","","","21","","16","","24.1","","103.23","","","","-40","","Mainly Clear"
"-115.14","67.82","KUGLUKTUK A","2300903","2021-04-11 00:00","2021","04","11","00:00","-29.0","","-31.8","","77","","","","22","","17","","24.1","","103.24","","","","-41","","NA"
"-115.14","67.82","KUGLUKTUK A","2300903","2021-04-11 01:00","2021","04","11","01:00","-29.6","","-32.5","","76","","","","21","","12","","24.1","","103.25","","","","-40","","NA"
"-115.14","67.82","KUGLUKTUK A","2300903","2021-04-11 02:00","2021","04","11","02:00","-29.6","","-32.5","","77","","","","22","","12","","24.1","","103.23","","","","-40","","Mainly Clear"
"-115.14","67.82","KUGLUKTUK A","2300903","2021-04-11 03:00","2021","04","11","03:00","-29.7","","-32.7","","76","","","","21","","16","","24.1","","103.24","","","","-41","","NA"
"-115.14","67.82","KUGLUKTUK A","2300903","2021-04-11 04:00","2021","04","11","04:00","-29.3","","-32.4","","75","","","","16","","5","","24.1","","103.24","","","","-35","","NA"
"-115.14","67.82","KUGLUKTUK A","2300903","2021-04-11 05:00","2021","04","11","05:00","-30.4","","-33.4","","76","","","","36","","2","","24.1","","103.25","","","","-33","","Mostly Cloudy"
"-115.14","67.82","KUGLUKTUK A","2300903","2021-04-11 06:00","2021","04","11","06:00","-30.0","","-33.0","","76","","","","36","","1","","24.1","","103.26","","","","-31","","NA"
"-115.14","67.82","KUGLUKTUK A","2300903","2021-04-11 07:00","2021","04","11","07:00","-28.8","","-31.8","","76","","","","36","","3","","24.1","","103.25","","","","-32","","NA"
"-115.14","67.82","KUGLUKTUK A","2300903","2021-04-11 08:00","2021","04","11","08:00","-28.6","","-31.6","","75","","","","32","","3","","24.1","","103.26","","","","-32","","Cloudy"
"-115.14","67.82","KUGLUKTUK A","2300903","2021-04-11 09:00","2021","04","11","09:00","-27.3","","-30.3","","76","","","","36","","1","","24.1","","103.25","","","","-28","","NA"
"-115.14","67.82","KUGLUKTUK A","2300903","2021-04-11 10:00","2021","04","11","10:00","-26.5","","-29.9","","74","","","","36","","3","","24.1","","103.24","","","","-30","","NA"
"-115.14","67.82","KUGLUKTUK A","2300903","2021-04-11 11:00","2021","04","11","11:00","-25.5","","-29.3","","71","","","","35","","3","","24.1","","103.23","","","","-29","","Cloudy"
"-115.14","67.82","KUGLUKTUK A","2300903","2021-04-11 12:00","2021","04","11","12:00","-24.8","","-28.8","","70","","","","31","","3","","24.1","","103.21","","","","-28","","NA"
"-115.14","67.82","KUGLUKTUK A","2300903","2021-04-11 13:00","2021","04","11","13:00","-24.0","","-28.1","","69","","","","31","","5","","24.1","","103.20","","","","-29","","NA"
"-115.14","67.82","KUGLUKTUK A","2300903","2021-04-11 14:00","2021","04","11","14:00","-23.6","","-27.8","","69","","","","30","","5","","24.1","","103.19","","","","-28","","Cloudy"
"-115.14","67.82","KUGLUKTUK A","2300903","2021-04-11 15:00","2021","04","11","15:00","-23.4","","-27.6","","69","","","","29","","5","","24.1","","103.22","","","","-28","","NA"
"-115.14","67.82","KUGLUKTUK A","2300903","2021-04-11 16:00","2021","04","11","16:00","-23.5","","-27.4","","71","","","","27","","4","","24.1","","103.21","","","","-27","","NA"
"-115.14","67.82","KUGLUKTUK A","2300903","2021-04-11 17:00","2021","04","11","17:00","-23.2","","-26.9","","72","","","","23","","3","","24.1","","103.20","","","","-26","","Cloudy"
"-115.14","67.82","KUGLUKTUK A","2300903","2021-04-11 18:00","2021","04","11","18:00","-23.1","","-27.0","","71","","","","29","","5","","24.1","","103.18","","","","-28","","NA"
"-115.14","67.82","KUGLUKTUK A","2300903","2021-04-11 19:00","2021","04","11","19:00","-24.3","","-27.8","","74","","","","23","","7","","24.1","","103.17","","","","-31","","NA"
"-115.14","67.82","KUGLUKTUK A","2300903","2021-04-11 20:00","2021","04","11","20:00","-25.1","","-28.4","","74","","","","22","","7","","24.1","","103.14","","","","-32","","Clear"
"-115.14","67.82","KUGLUKTUK A","2300903","2021-04-11 21:00","2021","04","11","21:00","-27.0","","-30.5","","72","","","","26","","5","","24.1","","103.13","","","","-32","","NA"
"-115.14","67.82","KUGLUKTUK A","2300903","2021-04-11 22:00","2021","04","11","22:00","-25.9","","-28.8","","77","","","","29","","4","","24.1","","103.13","","","","-30","","NA"
"-115.14","67.82","KUGLUKTUK A","2300903","2021-04-11 23:00","2021","04","11","23:00","-26.0","","-29.0","","76","","","","17","","7","","24.1","","103.12","","","","-33","","Clear"
"-115.14","67.82","KUGLUKTUK A","2300903","2021-04-12 00:00","2021","04","12","00:00","-27.9","","-30.6","","78","","","","19","","11","","24.1","","103.09","","","","-37","","NA"
"-115.14","67.82","KUGLUKTUK A","2300903","2021-04-12 01:00","2021","04","12","01:00","-26.7","","-29.8","","76","","","","36","","3","","24.1","","103.09","","","","-30","","NA"
"-115.14","67.82","KUGLUKTUK A","2300903","2021-04-12 02:00","2021","04","12","02:00","-25.0","","-28.4","","74","","","","20","","8","","24.1","","103.05","","","","-32","","Clear"
"-115.14","67.82","KUGLUKTUK A","2300903","2021-04-12 03:00","2021","04","12","03:00","-26.6","","-29.9","","74","","","","19","","8","","24.1","","103.00","","","","-34","","NA"
"-115.14","67.82","KUGLUKTUK A","2300903","2021-04-12 04:00","2021","04","12","04:00","-25.1","","-28.2","","76","","","","21","","13","","24.1","","102.99","","","","-35","","NA"
"-115.14","67.82","KUGLUKTUK A","2300903","2021-04-12 05:00","2021","04","12","05:00","-25.5","","-28.7","","75","","","","36","","3","","24.1","","103.02","","","","-29","","Clear"
"-115.14","67.82","KUGLUKTUK A","2300903","2021-04-12 06:00","2021","04","12","06:00","-25.3","","-28.4","","76","","","","21","","9","","24.1","","103.01","","","","-33","","NA"
"-115.14","67.82","KUGLUKTUK A","2300903","2021-04-12 07:00","2021","04","12","07:00","-24.9","","-27.9","","77","","","","24","","5","","24.1","","102.95","","","","-30","","NA"
"-115.14","67.82","KUGLUKTUK A","2300903","2021-04-12 08:00","2021","04","12","08:00","-25.5","","-29.1","","72","","","","5","","5","","24.1","","102.89","","","","-31","","Cloudy"
"-115.14","67.82","KUGLUKTUK A","2300903","2021-04-12 09:00","2021","04","12","09:00","-24.1","","-28.4","","68","","","","32","","5","","24.1","","102.87","","","","-29","","NA"
"-115.14","67.82","KUGLUKTUK A","2300903","2021-04-12 10:00","2021","04","12","10:00","-23.8","","-27.8","","70","","","","35","","7","","24.1","","102.83","","","","-30","","NA"
"-115.14","67.82","KUGLUKTUK A","2300903","2021-04-12 11:00","2021","04","12","11:00","-21.1","","-25.6","","68","","","","1","","4","","24.1","","102.76","","","","-25","","Mostly Cloudy"
"-115.14","67.82","KUGLUKTUK A","2300903","2021-04-12 12:00","2021","04","12","12:00","-20.2","","-24.5","","69","","","","32","","5","","24.1","","102.72","","","","-25","","NA"
"-115.14","67.82","KUGLUKTUK A","2300903","2021-04-12 13:00","2021","04","12","13:00","-19.4","","-23.4","","71","","","","2","","4","","24.1","","102.68","","","","-23","","NA"
"-115.14","67.82","KUGLUKTUK A","2300903","2021-04-12 14:00","2021","04","12","14:00","-15.7","","-20.3","","68","","","","36","","2","","24.1","","102.62","","","","-17","","Clear"
"-115.14","67.82","KUGLUKTUK A","2300903","2021-04-12 15:00","2021","04","12","15:00","-13.5","","-18.6","","66","","","","36","","3","","24.1","","102.56","","","","-16","","NA"
"-115.14","67.82","KUGLUKTUK A","2300903","2021-04-12 16:00","2021","04","12","16:00","-14.0","","-18.5","","69","","","","6","","4","","24.1","","102.53","","","","-17","","NA"
"-115.14","67.82","KUGLUKTUK A","2300903","2021-04-12 17:00","2021","04","12","17:00","-15.5","","-18.7","","77","","","","28","","5","","24.1","","102.50","","","","-19","","Clear"
"-115.14","67.82","KUGLUKTUK A","2300903","2021-04-12 18:00","2021","04","12","18:00","-15.1","","-18.3","","77","","","","9","","8","","24.1","","102.45","","","","-20","","NA"
"-115.14","67.82","KUGLUKTUK A","2300903","2021-04-12 19:00","2021","04","12","19:00","-17.3","","-20.4","","77","","","","34","","4","","24.1","","102.47","","","","-20","","NA"
"-115.14","67.82","KUGLUKTUK A","2300903","2021-04-12 20:00","2021","04","12","20:00","-18.5","","-21.0","","81","","","","33","","3","","24.1","","102.47","","","","-21","","Mainly Clear"
"-115.14","67.82","KUGLUKTUK A","2300903","2021-04-12 21:00","2021","04","12","21:00","-17.3","","-20.1","","79","","","","24","","6","","24.1","","102.46","","","","-22","","NA"
"-115.14","67.82","KUGLUKTUK A","2300903","2021-04-12 22:00","2021","04","12","22:00","-18.2","","-21.0","","79","","","","19","","8","","24.1","","102.44","","","","-24","","NA"
"-115.14","67.82","KUGLUKTUK A","2300903","2021-04-12 23:00","2021","04","12","23:00","-21.4","","-24.8","","75","","","","28","","3","","24.1","","102.41","","","","-24","","Mainly Clear"
"-115.14","67.82","KUGLUKTUK A","2300903","2021-04-13 00:00","2021","04","13","00:00","-22.0","","-24.0","","84","","","","36","","2","","24.1","","102.40","","","","-24","","NA"
"-115.14","67.82","KUGLUKTUK A","2300903","2021-04-13 01:00","2021","04","13","01:00","-23.8","","-26.0","","82","","","","33","","5","","24.1","","102.39","","","","-29","","NA"
"-115.14","67.82","KUGLUKTUK A","2300903","2021-04-13 02:00","2021","04","13","02:00","-23.9","","-26.3","","81","","","","33","","4","","24.1","","102.38","","","","-28","","Mostly Cloudy"
"-115.14","67.82","KUGLUKTUK A","2300903","2021-04-13 03:00","2021","04","13","03:00","-24.3","","-26.9","","80","","","","36","","2","","24.1","","102.39","","","","-26","","NA"
"-115.14","67.82","KUGLUKTUK A","2300903","2021-04-13 04:00","2021","04","13","04:00","-24.6","","-27.2","","80","","","","1","","7","","24.1","","102.40","","","","-31","","NA"
"-115.14","67.82","KUGLUKTUK A","2300903","2021-04-13 05:00","2021","04","13","05:00","-24.2","","-26.8","","80","","","","33","","7","","24.1","","102.43","","","","-31","","Mostly Cloudy"
"-115.14","67.82","KUGLUKTUK A","2300903","2021-04-13 06:00","2021","04","13","06:00","-24.4","","-27.1","","79","","","","32","","11","","24.1","","102.49","","","","-33","","NA"
"-115.14","67.82","KUGLUKTUK A","2300903","2021-04-13 07:00","2021","04","13","07:00","-23.5","","-26.0","","80","","","","28","","7","","24.1","","102.51","","","","-30","","NA"
"-115.14","67.82","KUGLUKTUK A","2300903","2021-04-13 08:00","2021","04","13","08:00","-22.8","","-25.4","","80","","","","36","","2","","24.1","","102.50","","","","-25","","Clear"
"-115.14","67.82","KUGLUKTUK A","2300903","2021-04-13 09:00","2021","04","13","09:00","-21.9","","-25.0","","77","","","","34","","4","","24.1","","102.50","","","","-26","","NA"
"-115.14","67.82","KUGLUKTUK A","2300903","2021-04-13 10:00","2021","04","13","10:00","-20.7","","-24.5","","72","","","","36","","1","","24.1","","102.53","","","","-22","","NA"
"-115.14","67.82","KUGLUKTUK A","2300903","2021-04-13 11:00","2021","04","13","11:00","-20.0","","-23.7","","72","","","","31","","5","","24.1","","102.53","","","","-24","","Mainly Clear"
"-115.14","67.82","KUGLUKTUK A","2300903","2021-04-13 12:00","2021","04","13","12:00","-20.1","","-23.6","","74","","","","32","","8","","24.1","","102.54","","","","-26","","NA"
"-115.14","67.82","KUGLUKTUK A","2300903","2021-04-13 13:00","2021","04","13","13:00","-19.6","","-23.2","","74","","","","36","","7","","24.1","","102.54","","","","-25","","NA"
"-115.14","67.82","KUGLUKTUK A","2300903","2021-04-13 14:00","2021","04","13","14:00","-19.0","","-22.5","","75","","","","5","","5","","24.1","","102.56","","","","-23","","Mainly Clear"
"-115.14","67.82","KUGLUKTUK A","2300903","2021-04-13 15:00","2021","04","13","15:00","-18.3","","-22.3","","71","","","","35","","7","","24.1","","102.57","","","","-24","","NA"
"-115.14","67.82","KUGLUKTUK A","2300903","2021-04-13 16:00","2021","04","13","16:00","-18.0","","-21.6","","74","","","","2","","4","","24.1","","102.57","","","","-21","","NA"
"-115.14","67.82","KUGLUKTUK A","2300903","2021-04-13 17:00","2021","04","13","17:00","-17.5","","-21.3","","73","","","","36","","3","","24.1","","102.56","","","","-20","","Mainly Clear"
"-115.14","67.82","KUGLUKTUK A","2300903","2021-04-13 18:00","2021","04","13","18:00","-17.9","","-21.2","","75","","","","23","","3","","24.1","","102.57","","","","-20","","NA"
"-115.14","67.82","KUGLUKTUK A","2300903","2021-04-13 19:00","2021","04","13","19:00","-18.2","","-21.2","","78","","","","36","","2","","24.1","","102.57","","","","-20","","NA"
"-115.14","67.82","KUGLUKTUK A","2300903","2021-04-13 20:00","2021","04","13","20:00","-19.5","","-22.0","","81","","","","36","","2","","24.1","","102.58","","","","-21","","Clear"
"-115.14","67.82","KUGLUKTUK A","2300903","2021-04-13 21:00","2021","04","13","21:00","-19.7","","-22.1","","82","","","","36","","3","","24.1","","102.58","","","","-22","","NA"
"-115.14","67.82","KUGLUKTUK A","2300903","2021-04-13 22:00","2021","04","13","22:00","-20.1","","-22.0","","85","","","","36","","3","","24.1","","102.58","","","","-23","","NA"
"-115.14","67.82","KUGLUKTUK A","2300903","2021-04-13 23:00","2021","04","13","23:00","-21.9","","-23.9","","84","","","","31","","7","","24.1","","102.59","","","","-28","","Clear"
"-115.14","67.82","KUGLUKTUK A","2300903","2021-04-14 00:00","2021","04","14","00:00","-22.2","","-24.4","","83","","","","33","","5","","24.1","","102.62","","","","-27","","NA"
"-115.14","67.82","KUGLUKTUK A","2300903","2021-04-14 01:00","2021","04","14","01:00","-22.6","","-24.7","","83","","","","30","","8","","24.1","","102.62","","","","-29","","NA"
"-115.14","67.82","KUGLUKTUK A","2300903","2021-04-14 02:00","2021","04","14","02:00","-23.7","","-26.0","","82","","","","32","","9","","24.1","","102.66","","","","-31","","Clear"
"-115.14","67.82","KUGLUKTUK A","2300903","2021-04-14 03:00","2021","04","14","03:00","-23.7","","-26.0","","82","","","","36","","3","","24.1","","102.71","","","","-27","","NA"
"-115.14","67.82","KUGLUKTUK A","2300903","2021-04-14 04:00","2021","04","14","04:00","-23.7","","-26.2","","81","","","","36","","3","","24.1","","102.73","","","","-27","","NA"
"-115.14","67.82","KUGLUKTUK A","2300903","2021-04-14 05:00","2021","04","14","05:00","-24.3","","-26.6","","81","","","","36","","2","","24.1","","102.75","","","","-26","","Clear"
"-115.14","67.82","KUGLUKTUK A","2300903","2021-04-14 06:00","2021","04","14","06:00","-24.1","","-26.5","","81","","","","30","","6","","24.1","","102.77","","","","-30","","NA"
"-115.14","67.82","KUGLUKTUK A","2300903","2021-04-14 07:00","2021","04","14","07:00","-23.6","","-25.9","","81","","","","34","","4","","24.1","","102.76","","","","-27","","NA"
"-115.14","67.82","KUGLUKTUK A","2300903","2021-04-14 08:00","2021","04","14","08:00","-23.4","","-26.2","","78","","","","33","","6","","24.1","","102.75","","","","-29","","Mainly Clear"
"-115.14","67.82","KUGLUKTUK A","2300903","2021-04-14 09:00","2021","04","14","09:00","-22.1","","-25.2","","77","","","","36","","2","","24.1","","102.78","","","","-24","","NA"
"-115.14","67.82","KUGLUKTUK A","2300903","2021-04-14 10:00","2021","04","14","10:00","-20.8","","-24.1","","76","","","","34","","3","","24.1","","102.78","","","","-23","","NA"
"-115.14","67.82","KUGLUKTUK A","2300903","2021-04-14 11:00","2021","04","14","11:00","-20.4","","-23.5","","77","","","","36","","7","","24.1","","102.78","","","","-26","","Mainly Clear"
"-115.14","67.82","KUGLUKTUK A","2300903","2021-04-14 12:00","2021","04","14","12:00","-19.4","","-22.8","","75","","","","2","","7","","24.1","","102.81","","","","-25","","NA"
"-115.14","67.82","KUGLUKTUK A","2300903","2021-04-14 13:00","2021","04","14","13:00","-18.2","","-21.5","","75","","","","10","","8","","24.1","","102.79","","","","-24","","NA"
"-115.14","67.82","KUGLUKTUK A","2300903","2021-04-14 14:00","2021","04","14","14:00","-16.8","","-20.4","","74","","","","9","","5","","24.1","","102.80","","","","-21","","Clear"
"-115.14","67.82","KUGLUKTUK A","2300903","2021-04-14 15:00","2021","04","14","15:00","-16.0","","-19.2","","77","","","","7","","5","","24.1","","102.78","","","","-20","","NA"
"-115.14","67.82","KUGLUKTUK A","2300903","2021-04-14 16:00","2021","04","14","16:00","-15.2","","-18.4","","77","","","","7","","5","","24.1","","102.76","","","","-19","","NA"
"-115.14","67.82","KUGLUKTUK A","2300903","2021-04-14 17:00","2021","04","14","17:00","-14.9","","-18.0","","78","","","","7","","8","","24.1","","102.75","","","","-20","","Clear"
"-115.14","67.82","KUGLUKTUK A","2300903","2021-04-14 18:00","2021","04","14","18:00","-14.9","","-17.6","","80","","","","7","","9","","24.1","","102.70","","","","-21","","NA"
"-115.14","67.82","KUGLUKTUK A","2300903","2021-04-14 19:00","2021","04","14","19:00","-16.2","","-18.6","","82","","","","3","","8","","24.1","","102.69","","","","-22","","NA"
"-115.14","67.82","KUGLUKTUK A","2300903","2021-04-14 20:00","2021","04","14","20:00","-17.6","","-19.9","","83","","","","3","","9","","24.1","","102.66","","","","-24","","Mainly Clear"
"-115.14","67.82","KUGLUKTUK A","2300903","2021-04-14 21:00","2021","04","14","21:00","-18.8","","-21.0","","83","","","","2","","10","","24.1","","102.65","","","","-26","","NA"
"-115.14","67.82","KUGLUKTUK A","2300903","2021-04-14 22:00","2021","04","14","22:00","-19.6","","-21.8","","83","","","","3","","8","","24.1","","102.62","","","","-26","","Ice Crystals"
"-115.14","67.82","KUGLUKTUK A","2300903","2021-04-14 23:00","2021","04","14","23:00","-19.7","","-21.9","","83","","","","4","","8","","24.1","","102.61","","","","-26","","Ice Crystals"
"-115.14","67.82","KUGLUKTUK A","2300903","2021-04-15 00:00","2021","04","15","00:00","-19.9","","-22.2","","82","","","","2","","8","","24.1","","102.61","","","","-26","","Ice Crystals"
"-115.14","67.82","KUGLUKTUK A","2300903","2021-04-15 01:00","2021","04","15","01:00","-19.3","","-21.5","","83","","","","3","","12","","24.1","","102.59","","","","-27","","Ice Crystals"
"-115.14","67.82","KUGLUKTUK A","2300903","2021-04-15 02:00","2021","04","15","02:00","-18.8","","-21.2","","82","","","","3","","11","","24.1","","102.55","","","","-26","","Ice Crystals"
"-115.14","67.82","KUGLUKTUK A","2300903","2021-04-15 03:00","2021","04","15","03:00","-18.2","","-20.6","","82","","","","4","","10","","24.1","","102.49","","","","-25","","Ice Crystals"
"-115.14","67.82","KUGLUKTUK A","2300903","2021-04-15 04:00","2021","04","15","04:00","-17.7","","-20.1","","82","","","","3","","12","","24.1","","102.45","","","","-25","","Ice Crystals"
"-115.14","67.82","KUGLUKTUK A","2300903","2021-04-15 05:00","2021","04","15","05:00","-17.2","","-19.6","","82","","","","4","","10","","24.1","","102.39","","","","-24","","Ice Crystals"
"-115.14","67.82","KUGLUKTUK A","2300903","2021-04-15 06:00","2021","04","15","06:00","-16.8","","-19.3","","81","","","","2","","14","","24.1","","102.38","","","","-25","","NA"
"-115.14","67.82","KUGLUKTUK A","2300903","2021-04-15 07:00","2021","04","15","07:00","-15.9","","-18.2","","83","","","","3","","15","","4.8","","102.36","","","","-24","","Snow"
"-115.14","67.82","KUGLUKTUK A","2300903","2021-04-15 08:00","2021","04","15","08:00","-14.9","","-17.1","","83","","","","4","","14","","19.3","","102.34","","","","-22","","Snow"
"-115.14","67.82","KUGLUKTUK A","2300903","2021-04-15 09:00","2021","04","15","09:00","-13.7","","-15.9","","84","","","","4","","16","","24.1","","102.27","","","","-22","","Snow"
"-115.14","67.82","KUGLUKTUK A","2300903","2021-04-15 10:00","2021","04","15","10:00","-12.1","","-14.8","","81","","","","6","","12","","24.1","","102.21","","","","-18","","NA"
"-115.14","67.82","KUGLUKTUK A","2300903","2021-04-15 11:00","2021","04","15","11:00","-12.0","","-14.3","","83","","","","2","","13","","24.1","","102.15","","","","-19","","Mostly Cloudy"
"-115.14","67.82","KUGLUKTUK A","2300903","2021-04-15 12:00","2021","04","15","12:00","-10.9","","-13.2","","84","","","","36","","14","","24.1","","102.13","","","","-18","","NA"
"-115.14","67.82","KUGLUKTUK A","2300903","2021-04-15 13:00","2021","04","15","13:00","-10.2","","-12.4","","84","","","","35","","16","","24.1","","102.15","","","","-17","","NA"
"-115.14","67.82","KUGLUKTUK A","2300903","2021-04-15 14:00","2021","04","15","14:00","-10.1","","-12.2","","85","","","","36","","12","","24.1","","102.15","","","","-16","","Mostly Cloudy"
"-115.14","67.82","KUGLUKTUK A","2300903","2021-04-15 15:00","2021","04","15","15:00","-9.5","","-11.9","","83","","","","31","","12","","24.1","","102.19","","","","-15","","NA"
"-115.14","67.82","KUGLUKTUK A","2300903","2021-04-15 16:00","2021","04","15","16:00","-9.8","","-12.4","","81","","","","31","","7","","24.1","","102.18","","","","-14","","NA"
"-115.14","67.82","KUGLUKTUK A","2300903","2021-04-15 17:00","2021","04","15","17:00","-9.8","","-12.2","","82","","","","30","","6","","24.1","","102.18","","","","-13","","Clear"
"-115.14","67.82","KUGLUKTUK A","2300903","2021-04-15 18:00","2021","04","15","18:00","-10.1","","-12.4","","83","","","","29","","5","","24.1","","102.17","","","","-13","","NA"
"-115.14","67.82","KUGLUKTUK A","2300903","2021-04-15 19:00","2021","04","15","19:00","-10.7","","-12.7","","85","","","","26","","7","","24.1","","102.19","","","","-15","","NA"
"-115.14","67.82","KUGLUKTUK A","2300903","2021-04-15 20:00","2021","04","15","20:00","-11.4","","-13.1","","88","","","","24","","12","","24.1","","102.20","","","","-18","","Mostly Cloudy"
"-115.14","67.82","KUGLUKTUK A","2300903","2021-04-15 21:00","2021","04","15","21:00","-11.4","","-13.7","","83","","","","25","","16","","24.1","","102.25","","","","-19","","NA"
"-115.14","67.82","KUGLUKTUK A","2300903","2021-04-15 22:00","2021","04","15","22:00","-11.7","","-14.3","","82","","","","21","","6","","24.1","","102.25","","","","-15","","NA"
"-115.14","67.82","KUGLUKTUK A","2300903","2021-04-15 23:00","2021","04","15","23:00","-10.2","","-12.9","","81","","","","25","","25","","24.1","","102.28","","","","-19","","Cloudy"
"-115.14","67.82","KUGLUKTUK A","2300903","2021-04-16 00:00","2021","04","16","00:00","-10.1","","-12.5","","83","","","","28","","25","","24.1","","102.37","","","","-19","","NA"
"-115.14","67.82","KUGLUKTUK A","2300903","2021-04-16 01:00","2021","04","16","01:00","-10.5","","-12.7","","84","","","","34","","31","","24.1","","102.49","","","","-20","","NA"
"-115.14","67.82","KUGLUKTUK A","2300903","2021-04-16 02:00","2021","04","16","02:00","-12.2","","-14.1","","86","","","","34","","16","","16.1","","102.62","","","","-20","","Snow"
"-115.14","67.82","KUGLUKTUK A","2300903","2021-04-16 03:00","2021","04","16","03:00","-12.3","","-14.4","","85","","","","34","","22","","16.1","","102.74","","","","-21","","Snow"
"-115.14","67.82","KUGLUKTUK A","2300903","2021-04-16 04:00","2021","04","16","04:00","-12.2","","-14.5","","83","","","","33","","16","","19.3","","102.80","","","","-20","","Snow"
"-115.14","67.82","KUGLUKTUK A","2300903","2021-04-16 05:00","2021","04","16","05:00","-14.4","","-16.7","","83","","","","35","","18","","19.3","","102.90","","","","-23","","Snow"
"-115.14","67.82","KUGLUKTUK A","2300903","2021-04-16 06:00","2021","04","16","06:00","-13.7","","-16.1","","82","","","","34","","12","","24.1","","102.96","","","","-20","","NA"
"-115.14","67.82","KUGLUKTUK A","2300903","2021-04-16 07:00","2021","04","16","07:00","-13.7","","-16.2","","81","","","","34","","13","","24.1","","102.99","","","","-21","","NA"
"-115.14","67.82","KUGLUKTUK A","2300903","2021-04-16 08:00","2021","04","16","08:00","-13.0","","-15.7","","80","","","","29","","7","","24.1","","103.03","","","","-18","","Snow"
"-115.14","67.82","KUGLUKTUK A","2300903","2021-04-16 09:00","2021","04","16","09:00","-12.6","","-15.2","","81","","","","26","","13","","16.1","","103.07","","","","-19","","Snow"
"-115.14","67.82","KUGLUKTUK A","2300903","2021-04-16 10:00","2021","04","16","10:00","-11.7","","-14.5","","80","","","","27","","7","","16.1","","103.07","","","","-16","","Snow"
"-115.14","67.82","KUGLUKTUK A","2300903","2021-04-16 11:00","2021","04","16","11:00","-11.2","","-14.1","","80","","","","22","","9","","19.3","","103.08","","","","-16","","Snow"
"-115.14","67.82","KUGLUKTUK A","2300903","2021-04-16 12:00","2021","04","16","12:00","-10.6","","-13.8","","78","","","","23","","9","","19.3","","103.10","","","","-16","","Snow"
"-115.14","67.82","KUGLUKTUK A","2300903","2021-04-16 13:00","2021","04","16","13:00","-10.2","","-13.8","","75","","","","25","","8","","19.3","","103.11","","","","-15","","Snow"
"-115.14","67.82","KUGLUKTUK A","2300903","2021-04-16 14:00","2021","04","16","14:00","-9.6","","-13.1","","76","","","","24","","10","","19.3","","103.12","","","","-15","","Snow"
"-115.14","67.82","KUGLUKTUK A","2300903","2021-04-16 15:00","2021","04","16","15:00","-9.4","","-12.8","","76","","","","23","","10","","24.1","","103.12","","","","-15","","Snow"
"-115.14","67.82","KUGLUKTUK A","2300903","2021-04-16 16:00","2021","04","16","16:00","-9.1","","-11.9","","80","","","","23","","12","","24.1","","103.08","","","","-15","","Snow"
"-115.14","67.82","KUGLUKTUK A","2300903","2021-04-16 17:00","2021","04","16","17:00","-8.2","","-10.2","","86","","","","22","","17","","24.1","","103.05","","","","-15","","Snow"
"-115.14","67.82","KUGLUKTUK A","2300903","2021-04-16 18:00","2021","04","16","18:00","-8.1","","-10.0","","86","","","","23","","10","","24.1","","103.01","","","","-13","","Snow"
"-115.14","67.82","KUGLUKTUK A","2300903","2021-04-16 19:00","2021","04","16","19:00","-7.4","","-9.0","","88","","","","27","","6","","24.1","","102.99","","","","-11","","Snow"
"-115.14","67.82","KUGLUKTUK A","2300903","2021-04-16 20:00","2021","04","16","20:00","-7.8","","-9.3","","89","","","","18","","5","","24.1","","102.95","","","","-10","","Snow"
"-115.14","67.82","KUGLUKTUK A","2300903","2021-04-16 21:00","2021","04","16","21:00","-8.4","","-9.8","","90","","","","10","","6","","24.1","","102.90","","","","-12","","Snow"
"-115.14","67.82","KUGLUKTUK A","2300903","2021-04-16 22:00","2021","04","16","22:00","-8.8","","-10.1","","91","","","","9","","7","","24.1","","102.87","","","","-13","","Snow"
"-115.14","67.82","KUGLUKTUK A","2300903","2021-04-16 23:00","2021","04","16","23:00","-8.4","","-9.8","","90","","","","11","","6","","16.1","","102.85","","","","-12","","Snow"
"-115.14","67.82","KUGLUKTUK A","2300903","2021-04-17 00:00","2021","04","17","00:00","-9.1","","-10.2","","92","","","","30","","5","","19.3","","102.83","","","","-12","","Snow"
"-115.14","67.82","KUGLUKTUK A","2300903","2021-04-17 01:00","2021","04","17","01:00","-9.4","","-10.3","","93","","","","32","","3","","16.1","","102.83","","","","-11","","Snow"
"-115.14","67.82","KUGLUKTUK A","2300903","2021-04-17 02:00","2021","04","17","02:00","-9.0","","-10.0","","93","","","","36","","1","","16.1","","102.87","","","","-10","","Snow"
"-115.14","67.82","KUGLUKTUK A","2300903","2021-04-17 03:00","2021","04","17","03:00","-8.8","","-9.8","","92","","","","36","","3","","12.9","","102.92","","","","-10","","Snow"
"-115.14","67.82","KUGLUKTUK A","2300903","2021-04-17 04:00","2021","04","17","04:00","-7.7","","-8.8","","91","","","","30","","11","","6.4","","102.95","","","","-13","","Snow"
"-115.14","67.82","KUGLUKTUK A","2300903","2021-04-17 05:00","2021","04","17","05:00","-7.9","","-9.0","","92","","","","25","","11","","4.8","","102.95","","","","-13","","Snow"
"-115.14","67.82","KUGLUKTUK A","2300903","2021-04-17 06:00","2021","04","17","06:00","-7.6","","-8.8","","91","","","","26","","21","","4.8","","102.98","","","","-15","","Snow"
"-115.14","67.82","KUGLUKTUK A","2300903","2021-04-17 07:00","2021","04","17","07:00","-7.1","","-8.6","","89","","","","28","","11","","9.7","","103.00","","","","-12","","Snow"
"-115.14","67.82","KUGLUKTUK A","2300903","2021-04-17 08:00","2021","04","17","08:00","-7.4","","-9.4","","86","","","","31","","17","","19.3","","103.04","","","","-14","","Snow"
"-115.14","67.82","KUGLUKTUK A","2300903","2021-04-17 09:00","2021","04","17","09:00","-7.3","","-9.5","","84","","","","29","","8","","8.1","","103.07","","","","-11","","Snow"
"-115.14","67.82","KUGLUKTUK A","2300903","2021-04-17 10:00","2021","04","17","10:00","-7.3","","-9.8","","83","","","","32","","14","","12.9","","103.11","","","","-13","","Snow"
"-115.14","67.82","KUGLUKTUK A","2300903","2021-04-17 11:00","2021","04","17","11:00","-7.2","","-9.5","","83","","","","32","","28","","16.1","","103.16","","","","-16","","Snow,Blowing Snow"
"-115.14","67.82","KUGLUKTUK A","2300903","2021-04-17 12:00","2021","04","17","12:00","-7.2","","-9.8","","82","","","","33","","22","","24.1","","103.23","","","","-15","","NA"
"-115.14","67.82","KUGLUKTUK A","2300903","2021-04-17 13:00","2021","04","17","13:00","-7.6","","-10.9","","78","","","","33","","26","","24.1","","103.25","","","","-16","","Blowing Snow"
"-115.14","67.82","KUGLUKTUK A","2300903","2021-04-17 14:00","2021","04","17","14:00","-7.5","","-11.1","","75","","","","31","","22","","24.1","","103.31","","","","-15","","Mostly Cloudy"
"-115.14","67.82","KUGLUKTUK A","2300903","2021-04-17 15:00","2021","04","17","15:00","-7.8","","-10.8","","79","","","","33","","22","","24.1","","103.34","","","","-15","","NA"
"-115.14","67.82","KUGLUKTUK A","2300903","2021-04-17 16:00","2021","04","17","16:00","-8.3","","-11.3","","79","","","","33","","22","","24.1","","103.40","","","","-16","","NA"
"-115.14","67.82","KUGLUKTUK A","2300903","2021-04-17 17:00","2021","04","17","17:00","-8.4","","-11.6","","78","","","","33","","4","","24.1","","103.42","","","","-11","","Mainly Clear"
"-115.14","67.82","KUGLUKTUK A","2300903","2021-04-17 18:00","2021","04","17","18:00","-10.3","","-12.9","","81","","","","36","","3","","24.1","","103.47","","","","-12","","NA"
"-115.14","67.82","KUGLUKTUK A","2300903","2021-04-17 19:00","2021","04","17","19:00","-10.8","","-13.2","","83","","","","34","","9","","24.1","","103.48","","","","-16","","NA"
"-115.14","67.82","KUGLUKTUK A","2300903","2021-04-17 20:00","2021","04","17","20:00","-11.2","","-13.0","","86","","","","26","","6","","24.1","","103.47","","","","-15","","Cloudy"
"-115.14","67.82","KUGLUKTUK A","2300903","2021-04-17 21:00","2021","04","17","21:00","-12.2","","-13.8","","88","","","","25","","3","","24.1","","103.45","","","","-14","","NA"
"-115.14","67.82","KUGLUKTUK A","2300903","2021-04-17 22:00","2021","04","17","22:00","-12.9","","-14.5","","88","","","","22","","17","","24.1","","103.42","","","","-21","","NA"
"-115.14","67.82","KUGLUKTUK A","2300903","2021-04-17 23:00","2021","04","17","23:00","-12.4","","-14.0","","88","","","","21","","14","","24.1","","103.40","","","","-19","","Cloudy"
"-115.14","67.82","KUGLUKTUK A","2300903","2021-04-18 00:00","2021","04","18","00:00","-11.9","","-13.5","","88","","","","21","","9","","24.1","","103.36","","","","-17","","NA"
"-115.14","67.82","KUGLUKTUK A","2300903","2021-04-18 01:00","2021","04","18","01:00","-13.5","","-14.7","","91","","","","21","","8","","24.1","","103.31","","","","-19","","NA"
"-115.14","67.82","KUGLUKTUK A","2300903","2021-04-18 02:00","2021","04","18","02:00","-11.9","","-13.3","","89","","","","23","","22","","24.1","","103.26","","","","-21","","Mainly Clear"
"-115.14","67.82","KUGLUKTUK A","2300903","2021-04-18 03:00","2021","04","18","03:00","-11.7","","-13.5","","87","","","","22","","25","","24.1","","103.19","","","","-21","","NA"
"-115.14","67.82","KUGLUKTUK A","2300903","2021-04-18 04:00","2021","04","18","04:00","-9.4","","-11.2","","87","","","","22","","25","","24.1","","103.16","","","","-18","","NA"
"-115.14","67.82","KUGLUKTUK A","2300903","2021-04-18 05:00","2021","04","18","05:00","-8.6","","-10.5","","86","","","","23","","32","","24.1","","103.15","","","","-18","","Cloudy"
"-115.14","67.82","KUGLUKTUK A","2300903","2021-04-18 06:00","2021","04","18","06:00","-6.5","","-8.9","","83","","","","23","","31","","24.1","","103.10","","","","-15","","NA"
"-115.14","67.82","KUGLUKTUK A","2300903","2021-04-18 07:00","2021","04","18","07:00","-5.9","","-8.7","","81","","","","24","","24","","24.1","","103.14","","","","-13","","NA"
"-115.14","67.82","KUGLUKTUK A","2300903","2021-04-18 08:00","2021","04","18","08:00","-5.2","","-8.1","","80","","","","25","","28","","24.1","","103.12","","","","-13","","Cloudy"
"-115.14","67.82","KUGLUKTUK A","2300903","2021-04-18 09:00","2021","04","18","09:00","-4.7","","-7.6","","80","","","","26","","30","","24.1","","103.13","","","","-13","","NA"
"-115.14","67.82","KUGLUKTUK A","2300903","2021-04-18 10:00","2021","04","18","10:00","-3.1","","-5.5","","83","","","","26","","17","","12.9","","103.18","","","","-9","","Snow,Blowing Snow"
"-115.14","67.82","KUGLUKTUK A","2300903","2021-04-18 11:00","2021","04","18","11:00","-3.1","","-5.5","","84","","","","33","","28","","19.3","","103.25","","","","-10","","Snow,Blowing Snow"
"-115.14","67.82","KUGLUKTUK A","2300903","2021-04-18 12:00","2021","04","18","12:00","-3.5","","-5.8","","84","","","","32","","22","","24.1","","103.32","","","","-10","","Blowing Snow"
"-115.14","67.82","KUGLUKTUK A","2300903","2021-04-18 13:00","2021","04","18","13:00","-3.7","","-5.9","","84","","","","32","","23","","24.1","","103.38","","","","-10","","NA"
"-115.14","67.82","KUGLUKTUK A","2300903","2021-04-18 14:00","2021","04","18","14:00","-3.3","","-5.4","","85","","","","34","","19","","24.1","","103.41","","","","-9","","Cloudy"
"-115.14","67.82","KUGLUKTUK A","2300903","2021-04-18 15:00","2021","04","18","15:00","-3.5","","-5.5","","86","","","","34","","24","","24.1","","103.47","","","","-10","","NA"
"-115.14","67.82","KUGLUKTUK A","2300903","2021-04-18 16:00","2021","04","18","16:00","-3.7","","-5.4","","88","","","","34","","21","","24.1","","103.51","","","","-10","","NA"
"-115.14","67.82","KUGLUKTUK A","2300903","2021-04-18 17:00","2021","04","18","17:00","-4.9","","-6.5","","89","","","","34","","27","","24.1","","103.48","","","","-12","","Mostly Cloudy"
"-115.14","67.82","KUGLUKTUK A","2300903","2021-04-18 18:00","2021","04","18","18:00","-4.8","","-6.3","","89","","","","31","","10","","24.1","","103.49","","","","-9","","NA"
"-115.14","67.82","KUGLUKTUK A","2300903","2021-04-18 19:00","2021","04","18","19:00","-5.6","","-7.7","","85","","","","32","","13","","24.1","","103.46","","","","-11","","NA"
"-115.14","67.82","KUGLUKTUK A","2300903","2021-04-18 20:00","2021","04","18","20:00","-7.9","","-9.9","","86","","","","24","","8","","24.1","","103.42","","","","-12","","Mainly Clear"
"-115.14","67.82","KUGLUKTUK A","2300903","2021-04-18 21:00","2021","04","18","21:00","-8.9","","-9.7","","94","","","","24","","17","","24.1","","103.40","","","","-16","","NA"
"-115.14","67.82","KUGLUKTUK A","2300903","2021-04-18 22:00","2021","04","18","22:00","-9.0","","-10.0","","93","","","","23","","18","","24.1","","103.36","","","","-16","","NA"
"-115.14","67.82","KUGLUKTUK A","2300903","2021-04-18 23:00","2021","04","18","23:00","-7.6","","-8.5","","94","","","","24","","21","","24.1","","103.33","","","","-15","","Mainly Clear"
"-115.14","67.82","KUGLUKTUK A","2300903","2021-04-19 00:00","2021","04","19","00:00","-8.1","","-8.9","","94","","","","23","","20","","24.1","","103.29","","","","-15","","NA"
"-115.14","67.82","KUGLUKTUK A","2300903","2021-04-19 01:00","2021","04","19","01:00","-9.8","","-10.8","","92","","","","22","","21","","24.1","","103.25","","","","-18","","NA"
"-115.14","67.82","KUGLUKTUK A","2300903","2021-04-19 02:00","2021","04","19","02:00","-10.3","","-11.9","","89","","","","23","","22","","24.1","","103.22","","","","-19","","Clear"
"-115.14","67.82","KUGLUKTUK A","2300903","2021-04-19 03:00","2021","04","19","03:00","-8.1","","-9.8","","88","","","","22","","31","","24.1","","103.09","","","","-17","","Snow"
"-115.14","67.82","KUGLUKTUK A","2300903","2021-04-19 04:00","2021","04","19","04:00","-7.7","","-10.1","","83","","","","22","","29","","24.1","","103.03","","","","-16","","Blowing Snow"
"-115.14","67.82","KUGLUKTUK A","2300903","2021-04-19 05:00","2021","04","19","05:00","-6.7","","-8.9","","84","","","","22","","23","","24.1","","103.00","","","","-14","","Cloudy"
"-115.14","67.82","KUGLUKTUK A","2300903","2021-04-19 06:00","2021","04","19","06:00","-5.8","","-8.2","","83","","","","22","","23","","24.1","","102.95","","","","-13","","NA"
"-115.14","67.82","KUGLUKTUK A","2300903","2021-04-19 07:00","2021","04","19","07:00","-6.4","","-9.4","","80","","","","22","","17","","24.1","","102.91","","","","-13","","NA"
"-115.14","67.82","KUGLUKTUK A","2300903","2021-04-19 08:00","2021","04","19","08:00","-6.3","","-9.2","","80","","","","23","","21","","24.1","","102.85","","","","-13","","Mainly Clear"
"-115.14","67.82","KUGLUKTUK A","2300903","2021-04-19 09:00","2021","04","19","09:00","-4.9","","-8.1","","78","","","","22","","27","","24.1","","102.78","","","","-12","","NA"
"-115.14","67.82","KUGLUKTUK A","2300903","2021-04-19 10:00","2021","04","19","10:00","-3.9","","-7.3","","77","","","","24","","25","","24.1","","102.70","","","","-11","","NA"
"-115.14","67.82","KUGLUKTUK A","2300903","2021-04-19 11:00","2021","04","19","11:00","-3.8","","-7.1","","78","","","","26","","27","","24.1","","102.61","","","","-11","","Mostly Cloudy"
"-115.14","67.82","KUGLUKTUK A","2300903","2021-04-19 12:00","2021","04","19","12:00","-2.9","","-6.2","","78","","","","23","","16","","24.1","","102.54","","","","-8","","NA"
"-115.14","67.82","KUGLUKTUK A","2300903","2021-04-19 13:00","2021","04","19","13:00","-3.0","","-5.9","","80","","","","26","","17","","24.1","","102.45","","","","-9","","NA"
"-115.14","67.82","KUGLUKTUK A","2300903","2021-04-19 14:00","2021","04","19","14:00","-1.3","","-4.3","","80","","","","24","","20","","24.1","","102.30","","","","-7","","Mostly Cloudy"
"-115.14","67.82","KUGLUKTUK A","2300903","2021-04-19 15:00","2021","04","19","15:00","-0.5","","-4.7","","73","","","","25","","26","","24.1","","102.18","","","","-7","","NA"
"-115.14","67.82","KUGLUKTUK A","2300903","2021-04-19 16:00","2021","04","19","16:00","-0.6","","-3.7","","80","","","","24","","28","","24.1","","102.05","","","","-7","","NA"
"-115.14","67.82","KUGLUKTUK A","2300903","2021-04-19 17:00","2021","04","19","17:00","-0.5","","-3.6","","79","","","","24","","36","","24.1","","101.91","","","","-8","","Mostly Cloudy"
"-115.14","67.82","KUGLUKTUK A","2300903","2021-04-19 18:00","2021","04","19","18:00","-0.5","","-3.4","","81","","","","23","","34","","24.1","","101.81","","","","-8","","NA"
"-115.14","67.82","KUGLUKTUK A","2300903","2021-04-19 19:00","2021","04","19","19:00","-0.8","","-4.0","","79","","","","24","","29","","24.1","","101.78","","","","-7","","NA"
"-115.14","67.82","KUGLUKTUK A","2300903","2021-04-19 20:00","2021","04","19","20:00","-2.1","","-4.4","","85","","","","23","","24","","24.1","","101.72","","","","-8","","Mostly Cloudy"
"-115.14","67.82","KUGLUKTUK A","2300903","2021-04-19 21:00","2021","04","19","21:00","-2.6","","-5.2","","83","","","","25","","25","","24.1","","101.64","","","","-9","","NA"
"-115.14","67.82","KUGLUKTUK A","2300903","2021-04-19 22:00","2021","04","19","22:00","-5.5","","-7.2","","88","","","","20","","14","","24.1","","101.58","","","","-11","","NA"
"-115.14","67.82","KUGLUKTUK A","2300903","2021-04-19 23:00","2021","04","19","23:00","-6.0","","-7.8","","87","","","","22","","23","","24.1","","101.52","","","","-13","","Mainly Clear"
"-115.14","67.82","KUGLUKTUK A","2300903","2021-04-20 00:00","2021","04","20","00:00","-3.5","","-6.2","","81","","","","24","","18","","24.1","","101.45","","","","-9","","NA"
"-115.14","67.82","KUGLUKTUK A","2300903","2021-04-20 01:00","2021","04","20","01:00","-4.0","","-7.0","","79","","","","24","","24","","24.1","","101.34","","","","-11","","NA"
"-115.14","67.82","KUGLUKTUK A","2300903","2021-04-20 02:00","2021","04","20","02:00","-6.2","","-8.3","","85","","","","23","","14","","24.1","","101.30","","","","-12","","Clear"
"-115.14","67.82","KUGLUKTUK A","2300903","2021-04-20 03:00","2021","04","20","03:00","-6.0","","-7.8","","87","","","","25","","22","","24.1","","101.21","","","","-13","","NA"
"-115.14","67.82","KUGLUKTUK A","2300903","2021-04-20 04:00","2021","04","20","04:00","-8.2","","-10.0","","87","","","","23","","22","","24.1","","101.14","","","","-16","","NA"
"-115.14","67.82","KUGLUKTUK A","2300903","2021-04-20 05:00","2021","04","20","05:00","-6.0","","-7.7","","88","","","","24","","33","","24.1","","101.08","","","","-15","","Mainly Clear"
"-115.14","67.82","KUGLUKTUK A","2300903","2021-04-20 06:00","2021","04","20","06:00","-5.7","","-7.8","","85","","","","24","","37","","24.1","","101.02","","","","-15","","NA"
"-115.14","67.82","KUGLUKTUK A","2300903","2021-04-20 07:00","2021","04","20","07:00","-7.1","","-9.5","","84","","","","24","","32","","24.1","","101.00","","","","-16","","NA"
"-115.14","67.82","KUGLUKTUK A","2300903","2021-04-20 08:00","2021","04","20","08:00","-6.2","","-9.1","","80","","","","27","","28","","24.1","","101.03","","","","-14","","Mainly Clear"
"-115.14","67.82","KUGLUKTUK A","2300903","2021-04-20 09:00","2021","04","20","09:00","-6.2","","-8.5","","84","","","","22","","16","","24.1","","101.01","","","","-12","","NA"
"-115.14","67.82","KUGLUKTUK A","2300903","2021-04-20 10:00","2021","04","20","10:00","-4.9","","-8.0","","79","","","","25","","18","","24.1","","101.04","","","","-11","","NA"
"-115.14","67.82","KUGLUKTUK A","2300903","2021-04-20 11:00","2021","04","20","11:00","-4.2","","-7.0","","81","","","","27","","18","","24.1","","101.08","","","","-10","","Mostly Cloudy"
"-115.14","67.82","KUGLUKTUK A","2300903","2021-04-20 12:00","2021","04","20","12:00","-2.7","","-5.7","","80","","","","28","","21","","24.1","","101.10","","","","-9","","NA"
"-115.14","67.82","KUGLUKTUK A","2300903","2021-04-20 13:00","2021","04","20","13:00","-2.2","","-5.1","","81","","","","31","","23","","24.1","","101.17","","","","-8","","NA"
"-115.14","67.82","KUGLUKTUK A","2300903","2021-04-20 14:00","2021","04","20","14:00","-2.2","","-5.6","","78","","","","32","","41","","19.3","","101.19","","","","-10","","Mostly Cloudy"
"-115.14","67.82","KUGLUKTUK A","2300903","2021-04-20 15:00","2021","04","20","15:00","-3.2","","-6.1","","81","","","","33","","28","","19.3","","101.28","","","","-10","","NA"
"-115.14","67.82","KUGLUKTUK A","2300903","2021-04-20 16:00","2021","04","20","16:00","-3.6","","-6.0","","83","","","","32","","21","","16.1","","101.32","","","","-10","","NA"
"-115.14","67.82","KUGLUKTUK A","2300903","2021-04-20 17:00","2021","04","20","17:00","-4.3","","-6.2","","87","","","","35","","26","","16.1","","101.35","","","","-12","","Cloudy"
"-115.14","67.82","KUGLUKTUK A","2300903","2021-04-20 18:00","2021","04","20","18:00","-5.7","","-7.8","","85","","","","33","","44","","9.7","","101.40","","","","-15","","Snow,Blowing Snow"
"-115.14","67.82","KUGLUKTUK A","2300903","2021-04-20 19:00","2021","04","20","19:00","-6.2","","-7.9","","88","","","","34","","30","","4.8","","101.48","","","","-15","","Snow,Blowing Snow"
"-115.14","67.82","KUGLUKTUK A","2300903","2021-04-20 20:00","2021","04","20","20:00","-6.7","","-8.8","","85","","","","33","","35","","6.4","","101.50","","","","-16","","Snow,Blowing Snow"
"-115.14","67.82","KUGLUKTUK A","2300903","2021-04-20 21:00","2021","04","20","21:00","-7.0","","-9.2","","84","","","","32","","34","","9.7","","101.56","","","","-16","","Snow,Blowing Snow"
"-115.14","67.82","KUGLUKTUK A","2300903","2021-04-20 22:00","2021","04","20","22:00","-7.6","","-8.8","","91","","","","32","","33","","4.8","","101.58","","","","-17","","Snow,Blowing Snow"
"-115.14","67.82","KUGLUKTUK A","2300903","2021-04-20 23:00","2021","04","20","23:00","-7.7","","-10.4","","81","","","","32","","39","","12.9","","101.62","","","","-18","","Snow,Blowing Snow"
"-115.14","67.82","KUGLUKTUK A","2300903","2021-04-21 00:00","2021","04","21","00:00","-7.6","","-10.8","","78","","","","32","","32","","16.1","","101.64","","","","-17","","Snow,Blowing Snow"
"-115.14","67.82","KUGLUKTUK A","2300903","2021-04-21 01:00","2021","04","21","01:00","-8.4","","-10.7","","83","","","","31","","40","","16.1","","101.62","","","","-19","","Snow,Blowing Snow"
"-115.14","67.82","KUGLUKTUK A","2300903","2021-04-21 02:00","2021","04","21","02:00","-9.7","","-12.0","","83","","","","31","","45","","24.1","","101.63","","","","-21","","Snow,Blowing Snow"
"-115.14","67.82","KUGLUKTUK A","2300903","2021-04-21 03:00","2021","04","21","03:00","-11.8","","-14.2","","83","","","","32","","46","","16.1","","101.74","","","","-24","","Snow,Blowing Snow"
"-115.14","67.82","KUGLUKTUK A","2300903","2021-04-21 04:00","2021","04","21","04:00","-13.2","","-16.5","","76","","","","31","","36","","16.1","","101.80","","","","-25","","Snow,Blowing Snow"
"-115.14","67.82","KUGLUKTUK A","2300903","2021-04-21 05:00","2021","04","21","05:00","-13.0","","-16.7","","74","","","","28","","31","","16.1","","101.78","","","","-24","","Snow,Blowing Snow"
"-115.14","67.82","KUGLUKTUK A","2300903","2021-04-21 06:00","2021","04","21","06:00","-13.8","","-16.8","","78","","","","28","","39","","16.1","","101.75","","","","-26","","Blowing Snow"
"-115.14","67.82","KUGLUKTUK A","2300903","2021-04-21 07:00","2021","04","21","07:00","-13.7","","-16.8","","78","","","","27","","34","","24.1","","101.71","","","","-25","","Blowing Snow"
"-115.14","67.82","KUGLUKTUK A","2300903","2021-04-21 08:00","2021","04","21","08:00","-13.3","","-16.8","","75","","","","27","","43","","16.1","","101.66","","","","-26","","Blowing Snow"
"-115.14","67.82","KUGLUKTUK A","2300903","2021-04-21 09:00","2021","04","21","09:00","-13.0","","-16.4","","76","","","","26","","40","","9.7","","101.62","","","","-25","","Snow,Blowing Snow"
"-115.14","67.82","KUGLUKTUK A","2300903","2021-04-21 10:00","2021","04","21","10:00","-12.5","","-15.1","","81","","","","27","","46","","9.7","","101.56","","","","-25","","Blowing Snow"
"-115.14","67.82","KUGLUKTUK A","2300903","2021-04-21 11:00","2021","04","21","11:00","-11.6","","-14.9","","77","","","","27","","40","","9.7","","101.54","","","","-23","","Blowing Snow"
"-115.14","67.82","KUGLUKTUK A","2300903","2021-04-21 12:00","2021","04","21","12:00","-11.5","","-14.2","","81","","","","26","","51","","1.6","","101.47","","","","-24","","Snow,Blowing Snow"
"-115.14","67.82","KUGLUKTUK A","2300903","2021-04-21 13:00","2021","04","21","13:00","-11.4","","-13.5","","85","","","","26","","43","","1.6","","101.44","","","","-23","","Snow,Blowing Snow"
"-115.14","67.82","KUGLUKTUK A","2300903","2021-04-21 14:00","2021","04","21","14:00","-11.3","","-14.2","","79","","","","27","","40","","8.1","","101.42","","","","-23","","Snow,Blowing Snow"
"-115.14","67.82","KUGLUKTUK A","2300903","2021-04-21 15:00","2021","04","21","15:00","-11.4","","-13.8","","83","","","","27","","48","","1.2","","101.39","","","","-23","","Snow,Blowing Snow"
"-115.14","67.82","KUGLUKTUK A","2300903","2021-04-21 16:00","2021","04","21","16:00","-11.6","","-13.7","","84","","","","27","","45","","1.2","","101.36","","","","-23","","Snow,Blowing Snow"
"-115.14","67.82","KUGLUKTUK A","2300903","2021-04-21 17:00","2021","04","21","17:00","-11.9","","-13.7","","87","","","","28","","51","","0.4","","101.26","","","","-24","","Snow,Blowing Snow"
"-115.14","67.82","KUGLUKTUK A","2300903","2021-04-21 18:00","2021","04","21","18:00","-12.3","","-14.1","","87","","","","27","","52","","0.2","","101.22","","","","-25","","Snow,Blowing Snow"
"-115.14","67.82","KUGLUKTUK A","2300903","2021-04-21 19:00","2021","04","21","19:00","-12.5","","-14.4","","86","","","","27","","46","","0.2","","101.20","","","","-25","","Blowing Snow"
"-115.14","67.82","KUGLUKTUK A","2300903","2021-04-21 20:00","2021","04","21","20:00","-13.2","","-16.4","","77","","","","30","","34","","6.4","","101.24","","","","-24","","Snow,Blowing Snow"
"-115.14","67.82","KUGLUKTUK A","2300903","2021-04-21 21:00","2021","04","21","21:00","-13.4","","-16.3","","79","","","","29","","31","","12.9","","101.24","","","","-24","","Blowing Snow"
"-115.14","67.82","KUGLUKTUK A","2300903","2021-04-21 22:00","2021","04","21","22:00","-14.0","","-17.4","","76","","","","30","","41","","2.4","","101.21","","","","-26","","Snow,Blowing Snow"
"-115.14","67.82","KUGLUKTUK A","2300903","2021-04-21 23:00","2021","04","21","23:00","-14.5","","-17.1","","81","","","","29","","36","","4.0","","101.21","","","","-26","","Snow,Blowing Snow"
"-115.14","67.82","KUGLUKTUK A","2300903","2021-04-22 00:00","2021","04","22","00:00","-14.4","","-17.5","","78","","","","30","","36","","12.9","","101.17","","","","-26","","Snow,Blowing Snow"
"-115.14","67.82","KUGLUKTUK A","2300903","2021-04-22 01:00","2021","04","22","01:00","-14.0","","-16.6","","81","","","","30","","39","","4.8","","101.18","","","","-26","","Snow,Blowing Snow"
"-115.14","67.82","KUGLUKTUK A","2300903","2021-04-22 02:00","2021","04","22","02:00","-14.3","","-17.2","","79","","","","30","","37","","6.4","","101.18","","","","-26","","Snow,Blowing Snow"
"-115.14","67.82","KUGLUKTUK A","2300903","2021-04-22 03:00","2021","04","22","03:00","-14.1","","-16.4","","82","","","","31","","34","","16.1","","101.19","","","","-25","","Snow,Blowing Snow"
"-115.14","67.82","KUGLUKTUK A","2300903","2021-04-22 04:00","2021","04","22","04:00","-13.7","","-15.8","","84","","","","32","","35","","8.1","","101.21","","","","-25","","Snow,Blowing Snow"
"-115.14","67.82","KUGLUKTUK A","2300903","2021-04-22 05:00","2021","04","22","05:00","-14.1","","-16.3","","84","","","","32","","41","","6.4","","101.29","","","","-26","","Snow,Blowing Snow"
"-115.14","67.82","KUGLUKTUK A","2300903","2021-04-22 06:00","2021","04","22","06:00","-15.8","","-18.5","","80","","","","32","","41","","12.9","","101.42","","","","-29","","Blowing Snow"
"-115.14","67.82","KUGLUKTUK A","2300903","2021-04-22 07:00","2021","04","22","07:00","-16.5","","-19.4","","78","","","","32","","35","","19.3","","101.51","","","","-29","","Blowing Snow"
"-115.14","67.82","KUGLUKTUK A","2300903","2021-04-22 08:00","2021","04","22","08:00","-15.0","","-18.1","","77","","","","33","","28","","19.3","","101.59","","","","-26","","Blowing Snow"
"-115.14","67.82","KUGLUKTUK A","2300903","2021-04-22 09:00","2021","04","22","09:00","-14.2","","-17.2","","78","","","","32","","19","","9.7","","101.62","","","","-23","","Snow"
"-115.14","67.82","KUGLUKTUK A","2300903","2021-04-22 10:00","2021","04","22","10:00","-13.6","","-16.8","","77","","","","31","","22","","8.1","","101.64","","","","-23","","Snow"
"-115.14","67.82","KUGLUKTUK A","2300903","2021-04-22 11:00","2021","04","22","11:00","-13.2","","-16.2","","78","","","","32","","18","","8.1","","101.67","","","","-21","","Snow"
"-115.14","67.82","KUGLUKTUK A","2300903","2021-04-22 12:00","2021","04","22","12:00","-12.3","","-15.7","","76","","","","31","","17","","16.1","","101.71","","","","-20","","Snow"
"-115.14","67.82","KUGLUKTUK A","2300903","2021-04-22 13:00","2021","04","22","13:00","-11.7","","-14.0","","83","","","","28","","21","","2.4","","101.71","","","","-20","","Snow"
"-115.14","67.82","KUGLUKTUK A","2300903","2021-04-22 14:00","2021","04","22","14:00","-11.6","","-14.1","","82","","","","32","","37","","2.0","","101.74","","","","-23","","Snow,Blowing Snow"
"-115.14","67.82","KUGLUKTUK A","2300903","2021-04-22 15:00","2021","04","22","15:00","-11.5","","-14.0","","82","","","","31","","38","","9.7","","101.77","","","","-23","","Snow,Blowing Snow"
"-115.14","67.82","KUGLUKTUK A","2300903","2021-04-22 16:00","2021","04","22","16:00","-12.1","","-15.8","","74","","","","32","","39","","12.9","","101.82","","","","-23","","Snow,Blowing Snow"
"-115.14","67.82","KUGLUKTUK A","2300903","2021-04-22 17:00","2021","04","22","17:00","-12.7","","-16.2","","76","","","","33","","32","","9.7","","101.87","","","","-23","","Snow,Blowing Snow"
"-115.14","67.82","KUGLUKTUK A","2300903","2021-04-22 18:00","2021","04","22","18:00","-13.1","","-15.8","","80","","","","32","","33","","3.2","","101.90","","","","-24","","Snow,Blowing Snow"
"-115.14","67.82","KUGLUKTUK A","2300903","2021-04-22 19:00","2021","04","22","19:00","-13.3","","-17.0","","74","","","","32","","27","","24.1","","101.95","","","","-23","","Blowing Snow"
"-115.14","67.82","KUGLUKTUK A","2300903","2021-04-22 20:00","2021","04","22","20:00","-13.3","","-16.5","","77","","","","30","","21","","24.1","","101.98","","","","-22","","Cloudy"
"-115.14","67.82","KUGLUKTUK A","2300903","2021-04-22 21:00","2021","04","22","21:00","-13.1","","-16.1","","78","","","","30","","26","","24.1","","101.97","","","","-23","","Snow Grains"
"-115.14","67.82","KUGLUKTUK A","2300903","2021-04-22 22:00","2021","04","22","22:00","-13.0","","-15.0","","85","","","","31","","21","","12.9","","101.97","","","","-22","","Snow,Blowing Snow"
"-115.14","67.82","KUGLUKTUK A","2300903","2021-04-22 23:00","2021","04","22","23:00","-13.2","","-15.1","","86","","","","32","","23","","9.7","","101.97","","","","-23","","Snow,Blowing Snow"
"-115.14","67.82","KUGLUKTUK A","2300903","2021-04-23 00:00","2021","04","23","00:00","-13.1","","-15.7","","81","","","","32","","29","","12.9","","101.95","","","","-23","","Snow,Blowing Snow"
"-115.14","67.82","KUGLUKTUK A","2300903","2021-04-23 01:00","2021","04","23","01:00","-13.3","","-15.9","","81","","","","31","","23","","24.1","","101.96","","","","-23","","Snow,Blowing Snow"
"-115.14","67.82","KUGLUKTUK A","2300903","2021-04-23 02:00","2021","04","23","02:00","-13.6","","-16.2","","81","","","","32","","22","","24.1","","101.95","","","","-23","","Snow"
"-115.14","67.82","KUGLUKTUK A","2300903","2021-04-23 03:00","2021","04","23","03:00","-13.6","","-16.6","","78","","","","32","","25","","24.1","","101.96","","","","-23","","NA"
"-115.14","67.82","KUGLUKTUK A","2300903","2021-04-23 04:00","2021","04","23","04:00","-13.8","","-16.6","","80","","","","31","","26","","16.1","","101.98","","","","-24","","Snow"
"-115.14","67.82","KUGLUKTUK A","2300903","2021-04-23 05:00","2021","04","23","05:00","-13.8","","-16.4","","81","","","","31","","25","","6.4","","101.98","","","","-24","","Snow,Blowing Snow"
"-115.14","67.82","KUGLUKTUK A","2300903","2021-04-23 06:00","2021","04","23","06:00","-14.4","","-16.3","","85","","","","32","","19","","4.8","","101.98","","","","-23","","Snow,Blowing Snow"
"-115.14","67.82","KUGLUKTUK A","2300903","2021-04-23 07:00","2021","04","23","07:00","-14.6","","-16.6","","85","","","","31","","32","","6.4","","101.98","","","","-26","","Snow,Blowing Snow"
"-115.14","67.82","KUGLUKTUK A","2300903","2021-04-23 08:00","2021","04","23","08:00","-14.5","","-16.7","","84","","","","30","","32","","2.4","","101.96","","","","-26","","Snow,Blowing Snow"
"-115.14","67.82","KUGLUKTUK A","2300903","2021-04-23 09:00","2021","04","23","09:00","-15.6","","-18.2","","81","","","","27","","36","","2.4","","101.95","","","","-28","","Snow,Blowing Snow"
"-115.14","67.82","KUGLUKTUK A","2300903","2021-04-23 10:00","2021","04","23","10:00","-14.8","","-17.6","","80","","","","30","","34","","2.4","","101.95","","","","-26","","Snow,Blowing Snow"
"-115.14","67.82","KUGLUKTUK A","2300903","2021-04-23 11:00","2021","04","23","11:00","-14.3","","-17.3","","78","","","","31","","22","","6.4","","101.98","","","","-24","","Snow,Blowing Snow"
"-115.14","67.82","KUGLUKTUK A","2300903","2021-04-23 12:00","2021","04","23","12:00","-14.4","","-16.8","","82","","","","34","","46","","1.0","","101.96","","","","-27","","Snow,Blowing Snow"
"-115.14","67.82","KUGLUKTUK A","2300903","2021-04-23 13:00","2021","04","23","13:00","-14.3","","-16.7","","83","","","","33","","33","","4.8","","102.01","","","","-26","","Snow,Blowing Snow"
"-115.14","67.82","KUGLUKTUK A","2300903","2021-04-23 14:00","2021","04","23","14:00","-14.3","","-16.8","","82","","","","33","","41","","4.8","","102.01","","","","-27","","Snow,Blowing Snow"
"-115.14","67.82","KUGLUKTUK A","2300903","2021-04-23 15:00","2021","04","23","15:00","-14.5","","-16.9","","82","","","","35","","24","","4.8","","102.03","","","","-24","","Snow,Blowing Snow"
"-115.14","67.82","KUGLUKTUK A","2300903","2021-04-23 16:00","2021","04","23","16:00","-14.5","","-17.6","","78","","","","35","","28","","12.9","","102.04","","","","-25","","Blowing Snow"
"-115.14","67.82","KUGLUKTUK A","2300903","2021-04-23 17:00","2021","04","23","17:00","-14.5","","-17.5","","78","","","","34","","27","","12.9","","102.02","","","","-25","","Blowing Snow"
"-115.14","67.82","KUGLUKTUK A","2300903","2021-04-23 18:00","2021","04","23","18:00","-15.3","","-18.1","","79","","","","33","","15","","19.3","","102.02","","","","-23","","NA"
"-115.14","67.82","KUGLUKTUK A","2300903","2021-04-23 19:00","2021","04","23","19:00","-15.6","","-18.7","","78","","","","30","","17","","24.1","","102.01","","","","-24","","NA"
"-115.14","67.82","KUGLUKTUK A","2300903","2021-04-23 20:00","2021","04","23","20:00","-16.6","","-19.6","","78","","","","30","","20","","24.1","","102.00","","","","-26","","Mostly Cloudy"
"-115.14","67.82","KUGLUKTUK A","2300903","2021-04-23 21:00","2021","04","23","21:00","-16.4","","-19.5","","78","","","","29","","19","","24.1","","101.95","","","","-26","","NA"
"-115.14","67.82","KUGLUKTUK A","2300903","2021-04-23 22:00","2021","04","23","22:00","-16.2","","-19.1","","79","","","","29","","24","","24.1","","101.91","","","","-27","","Snow"
"-115.14","67.82","KUGLUKTUK A","2300903","2021-04-23 23:00","2021","04","23","23:00","-16.8","","-19.6","","79","","","","28","","24","","24.1","","101.87","","","","-27","","Snow"
"-115.14","67.82","KUGLUKTUK A","2300903","2021-04-24 00:00","2021","04","24","00:00","-17.8","","-20.7","","79","","","","27","","24","","24.1","","101.82","","","","-29","","Snow"
"-115.14","67.82","KUGLUKTUK A","2300903","2021-04-24 01:00","2021","04","24","01:00","-18.0","","-20.8","","79","","","","28","","25","","24.1","","101.80","","","","-29","","Snow"
"-115.14","67.82","KUGLUKTUK A","2300903","2021-04-24 02:00","2021","04","24","02:00","-18.1","","-21.0","","79","","","","27","","17","","24.1","","101.80","","","","-27","","Mainly Clear"
"-115.14","67.82","KUGLUKTUK A","2300903","2021-04-24 03:00","2021","04","24","03:00","-19.5","","-22.2","","79","","","","28","","24","","24.1","","101.79","","","","-31","","NA"
"-115.14","67.82","KUGLUKTUK A","2300903","2021-04-24 04:00","2021","04","24","04:00","-19.6","","-22.5","","78","","","","27","","25","","24.1","","101.74","","","","-31","","NA"
"-115.14","67.82","KUGLUKTUK A","2300903","2021-04-24 05:00","2021","04","24","05:00","-18.3","","-21.6","","76","","","","27","","21","","24.1","","101.73","","","","-29","","Mostly Cloudy"
"-115.14","67.82","KUGLUKTUK A","2300903","2021-04-24 06:00","2021","04","24","06:00","-17.8","","-21.2","","75","","","","28","","18","","24.1","","101.71","","","","-27","","NA"
"-115.14","67.82","KUGLUKTUK A","2300903","2021-04-24 07:00","2021","04","24","07:00","-16.7","","-19.4","","80","","","","33","","28","","16.1","","101.66","","","","-28","","Snow"
"-115.14","67.82","KUGLUKTUK A","2300903","2021-04-24 08:00","2021","04","24","08:00","-15.5","","-18.3","","79","","","","33","","28","","16.1","","101.63","","","","-26","","Snow,Blowing Snow"
"-115.14","67.82","KUGLUKTUK A","2300903","2021-04-24 09:00","2021","04","24","09:00","-15.0","","-17.8","","80","","","","34","","30","","12.9","","101.61","","","","-26","","Snow,Blowing Snow"
"-115.14","67.82","KUGLUKTUK A","2300903","2021-04-24 10:00","2021","04","24","10:00","-14.6","","-17.3","","80","","","","34","","30","","6.4","","101.59","","","","-26","","Snow,Blowing Snow"
"-115.14","67.82","KUGLUKTUK A","2300903","2021-04-24 11:00","2021","04","24","11:00","-14.1","","-17.2","","78","","","","34","","28","","9.7","","101.58","","","","-25","","Snow,Blowing Snow"
"-115.14","67.82","KUGLUKTUK A","2300903","2021-04-24 12:00","2021","04","24","12:00","-13.7","","-17.3","","75","","","","34","","27","","8.1","","101.57","","","","-24","","Snow,Blowing Snow"
"-115.14","67.82","KUGLUKTUK A","2300903","2021-04-24 13:00","2021","04","24","13:00","-13.4","","-16.7","","77","","","","35","","23","","6.4","","101.55","","","","-23","","Snow,Blowing Snow"
"-115.14","67.82","KUGLUKTUK A","2300903","2021-04-24 14:00","2021","04","24","14:00","-13.3","","-17.6","","71","","","","35","","17","","12.9","","101.56","","","","-21","","Snow"
"-115.14","67.82","KUGLUKTUK A","2300903","2021-04-24 15:00","2021","04","24","15:00","-13.3","","-17.4","","71","","","","35","","22","","16.1","","101.56","","","","-22","","Snow"
"-115.14","67.82","KUGLUKTUK A","2300903","2021-04-24 16:00","2021","04","24","16:00","-13.6","","-18.0","","70","","","","34","","20","","24.1","","101.55","","","","-22","","NA"
"-115.14","67.82","KUGLUKTUK A","2300903","2021-04-24 17:00","2021","04","24","17:00","-13.8","","-18.1","","71","","","","35","","21","","24.1","","101.54","","","","-23","","Mostly Cloudy"
"-115.14","67.82","KUGLUKTUK A","2300903","2021-04-24 18:00","2021","04","24","18:00","-14.1","","-17.6","","75","","","","32","","10","","24.1","","101.53","","","","-20","","NA"
"-115.14","67.82","KUGLUKTUK A","2300903","2021-04-24 19:00","2021","04","24","19:00","-15.2","","-18.8","","74","","","","30","","11","","24.1","","101.49","","","","-22","","NA"
"-115.14","67.82","KUGLUKTUK A","2300903","2021-04-24 20:00","2021","04","24","20:00","-15.7","","-19.2","","74","","","","30","","11","","24.1","","101.47","","","","-22","","Mostly Cloudy"
"-115.14","67.82","KUGLUKTUK A","2300903","2021-04-24 21:00","2021","04","24","21:00","-15.2","","-18.9","","74","","","","28","","10","","24.1","","101.43","","","","-21","","NA"
"-115.14","67.82","KUGLUKTUK A","2300903","2021-04-24 22:00","2021","04","24","22:00","-14.9","","-18.7","","73","","","","25","","9","","24.1","","101.38","","","","-21","","NA"
"-115.14","67.82","KUGLUKTUK A","2300903","2021-04-24 23:00","2021","04","24","23:00","-15.1","","-19.3","","71","","","","23","","9","","24.1","","101.33","","","","-21","","Cloudy"
"-115.14","67.82","KUGLUKTUK A","2300903","2021-04-25 00:00","2021","04","25","00:00","-15.5","","-19.5","","72","","","","24","","12","","24.1","","101.27","","","","-23","","NA"
"-115.14","67.82","KUGLUKTUK A","2300903","2021-04-25 01:00","2021","04","25","01:00","-16.1","","-19.3","","77","","","","23","","11","","24.1","","101.21","","","","-23","","NA"
"-115.14","67.82","KUGLUKTUK A","2300903","2021-04-25 02:00","2021","04","25","02:00","-16.0","","-19.2","","77","","","","23","","12","","24.1","","101.13","","","","-23","","Cloudy"
"-115.14","67.82","KUGLUKTUK A","2300903","2021-04-25 03:00","2021","04","25","03:00","-15.8","","-18.9","","77","","","","23","","10","","24.1","","101.08","","","","-22","","Snow"
"-115.14","67.82","KUGLUKTUK A","2300903","2021-04-25 04:00","2021","04","25","04:00","-15.6","","-18.4","","79","","","","20","","10","","8.1","","101.03","","","","-22","","Snow"
"-115.14","67.82","KUGLUKTUK A","2300903","2021-04-25 05:00","2021","04","25","05:00","-15.8","","-18.3","","81","","","","16","","8","","9.7","","100.97","","","","-21","","Snow"
"-115.14","67.82","KUGLUKTUK A","2300903","2021-04-25 06:00","2021","04","25","06:00","-15.9","","-18.3","","82","","","","16","","10","","9.7","","100.93","","","","-22","","Snow"
"-115.14","67.82","KUGLUKTUK A","2300903","2021-04-25 07:00","2021","04","25","07:00","-15.7","","-18.6","","79","","","","16","","11","","9.7","","100.87","","","","-22","","Ice Crystals"
"-115.14","67.82","KUGLUKTUK A","2300903","2021-04-25 08:00","2021","04","25","08:00","-15.7","","-19.0","","76","","","","15","","15","","12.9","","100.84","","","","-24","","Snow"
"-115.14","67.82","KUGLUKTUK A","2300903","2021-04-25 09:00","2021","04","25","09:00","-15.1","","-18.9","","73","","","","12","","10","","6.4","","100.80","","","","-21","","Snow"
"-115.14","67.82","KUGLUKTUK A","2300903","2021-04-25 10:00","2021","04","25","10:00","-15.0","","-18.5","","75","","","","11","","10","","19.3","","100.80","","","","-21","","Snow"
"-115.14","67.82","KUGLUKTUK A","2300903","2021-04-25 11:00","2021","04","25","11:00","-14.1","","-18.1","","72","","","","10","","12","","24.1","","100.80","","","","-21","","Snow"
"-115.14","67.82","KUGLUKTUK A","2300903","2021-04-25 12:00","2021","04","25","12:00","-14.1","","-17.4","","76","","","","5","","17","","9.7","","100.85","","","","-22","","Snow"
"-115.14","67.82","KUGLUKTUK A","2300903","2021-04-25 13:00","2021","04","25","13:00","-13.8","","-17.8","","72","","","","5","","16","","8.1","","100.91","","","","-22","","Fog"
"-115.14","67.82","KUGLUKTUK A","2300903","2021-04-25 14:00","2021","04","25","14:00","-13.8","","-18.0","","71","","","","6","","18","","16.1","","100.97","","","","-22","","Mainly Clear"
"-115.14","67.82","KUGLUKTUK A","2300903","2021-04-25 15:00","2021","04","25","15:00","-13.4","","-17.8","","70","","","","7","","15","","24.1","","101.02","","","","-21","","NA"
"-115.14","67.82","KUGLUKTUK A","2300903","2021-04-25 16:00","2021","04","25","16:00","-13.4","","-17.6","","71","","","","7","","14","","24.1","","101.08","","","","-21","","NA"
"-115.14","67.82","KUGLUKTUK A","2300903","2021-04-25 17:00","2021","04","25","17:00","-13.5","","-18.5","","67","","","","7","","13","","24.1","","101.13","","","","-20","","Clear"
"-115.14","67.82","KUGLUKTUK A","2300903","2021-04-25 18:00","2021","04","25","18:00","-14.3","","-19.3","","66","","","","11","","12","","24.1","","101.20","","","","-21","","NA"
"-115.14","67.82","KUGLUKTUK A","2300903","2021-04-25 19:00","2021","04","25","19:00","-15.7","","-20.2","","69","","","","11","","10","","24.1","","101.27","","","","-22","","NA"
"-115.14","67.82","KUGLUKTUK A","2300903","2021-04-25 20:00","2021","04","25","20:00","-16.8","","-20.9","","71","","","","9","","13","","24.1","","101.37","","","","-25","","Clear"
"-115.14","67.82","KUGLUKTUK A","2300903","2021-04-25 21:00","2021","04","25","21:00","-18.2","","-22.0","","73","","","","11","","13","","24.1","","101.43","","","","-26","","NA"
"-115.14","67.82","KUGLUKTUK A","2300903","2021-04-25 22:00","2021","04","25","22:00","-19.5","","-22.7","","76","","","","9","","15","","24.1","","101.52","","","","-28","","NA"
"-115.14","67.82","KUGLUKTUK A","2300903","2021-04-25 23:00","2021","04","25","23:00","-19.9","","-23.3","","75","","","","11","","12","","24.1","","101.59","","","","-28","","Clear"
"-115.14","67.82","KUGLUKTUK A","2300903","2021-04-26 00:00","2021","04","26","00:00","-21.3","","-23.9","","80","","","","10","","10","","24.1","","101.68","","","","-29","","NA"
"-115.14","67.82","KUGLUKTUK A","2300903","2021-04-26 01:00","2021","04","26","01:00","-24.4","","-26.4","","83","","","","32","","3","","24.1","","101.77","","","","-27","","NA"
"-115.14","67.82","KUGLUKTUK A","2300903","2021-04-26 02:00","2021","04","26","02:00","-25.8","","-28.1","","82","","","","35","","9","","24.1","","101.86","","","","-34","","Clear"
"-115.14","67.82","KUGLUKTUK A","2300903","2021-04-26 03:00","2021","04","26","03:00","-24.8","","-26.9","","83","","","","3","","8","","24.1","","101.96","","","","-32","","NA"
"-115.14","67.82","KUGLUKTUK A","2300903","2021-04-26 04:00","2021","04","26","04:00","-24.1","","-26.3","","82","","","","3","","5","","24.1","","102.07","","","","-29","","NA"
"-115.14","67.82","KUGLUKTUK A","2300903","2021-04-26 05:00","2021","04","26","05:00","-25.0","","-27.2","","82","","","","32","","7","","24.1","","102.18","","","","-31","","Clear"
"-115.14","67.82","KUGLUKTUK A","2300903","2021-04-26 06:00","2021","04","26","06:00","-25.0","","-27.4","","81","","","","35","","4","","24.1","","102.26","","","","-29","","NA"
"-115.14","67.82","KUGLUKTUK A","2300903","2021-04-26 07:00","2021","04","26","07:00","-22.4","","-24.7","","81","","","","3","","22","","16.1","","102.34","","","","-34","","Ice Crystals"
"-115.14","67.82","KUGLUKTUK A","2300903","2021-04-26 08:00","2021","04","26","08:00","-21.6","","-24.0","","81","","","","4","","24","","16.1","","102.43","","","","-33","","Ice Crystals"
"-115.14","67.82","KUGLUKTUK A","2300903","2021-04-26 09:00","2021","04","26","09:00","-21.3","","-23.9","","80","","","","3","","18","","16.1","","102.51","","","","-32","","NA"
"-115.14","67.82","KUGLUKTUK A","2300903","2021-04-26 10:00","2021","04","26","10:00","-21.1","","-23.9","","78","","","","1","","14","","19.3","","102.55","","","","-30","","NA"
"-115.14","67.82","KUGLUKTUK A","2300903","2021-04-26 11:00","2021","04","26","11:00","-20.5","","-23.6","","76","","","","1","","13","","19.3","","102.60","","","","-29","","Mostly Cloudy"
"-115.14","67.82","KUGLUKTUK A","2300903","2021-04-26 12:00","2021","04","26","12:00","-20.1","","-23.5","","75","","","","36","","14","","19.3","","102.63","","","","-29","","NA"
"-115.14","67.82","KUGLUKTUK A","2300903","2021-04-26 13:00","2021","04","26","13:00","-19.4","","-22.8","","75","","","","36","","15","","24.1","","102.67","","","","-28","","NA"
"-115.14","67.82","KUGLUKTUK A","2300903","2021-04-26 14:00","2021","04","26","14:00","-18.8","","-22.1","","76","","","","36","","16","","24.1","","102.69","","","","-28","","Mostly Cloudy"
"-115.14","67.82","KUGLUKTUK A","2300903","2021-04-26 15:00","2021","04","26","15:00","-18.2","","-21.5","","75","","","","35","","18","","24.1","","102.70","","","","-28","","NA"
"-115.14","67.82","KUGLUKTUK A","2300903","2021-04-26 16:00","2021","04","26","16:00","-17.5","","-21.6","","71","","","","34","","14","","24.1","","102.69","","","","-26","","NA"
"-115.14","67.82","KUGLUKTUK A","2300903","2021-04-26 17:00","2021","04","26","17:00","-17.6","","-21.1","","74","","","","26","","15","","24.1","","102.67","","","","-26","","Cloudy"
"-115.14","67.82","KUGLUKTUK A","2300903","2021-04-26 18:00","2021","04","26","18:00","-17.8","","-21.1","","76","","","","24","","16","","24.1","","102.62","","","","-27","","NA"
"-115.14","67.82","KUGLUKTUK A","2300903","2021-04-26 19:00","2021","04","26","19:00","-17.5","","-21.0","","74","","","","26","","14","","24.1","","102.55","","","","-26","","NA"
"-115.14","67.82","KUGLUKTUK A","2300903","2021-04-26 20:00","2021","04","26","20:00","-17.5","","-20.9","","75","","","","26","","16","","24.1","","102.48","","","","-26","","Cloudy"
"-115.14","67.82","KUGLUKTUK A","2300903","2021-04-26 21:00","2021","04","26","21:00","-17.3","","-20.2","","79","","","","26","","22","","9.7","","102.40","","","","-28","","Snow,Blowing Snow"
"-115.14","67.82","KUGLUKTUK A","2300903","2021-04-26 22:00","2021","04","26","22:00","-17.3","","-19.8","","81","","","","26","","34","","4.8","","102.29","","","","-30","","Snow,Blowing Snow"
"-115.14","67.82","KUGLUKTUK A","2300903","2021-04-26 23:00","2021","04","26","23:00","-17.2","","-19.7","","81","","","","25","","35","","2.4","","102.14","","","","-30","","Snow,Blowing Snow"
"-115.14","67.82","KUGLUKTUK A","2300903","2021-04-27 00:00","2021","04","27","00:00","-17.0","","-19.2","","83","","","","26","","37","","2.4","","102.02","","","","-30","","Snow,Blowing Snow"
"-115.14","67.82","KUGLUKTUK A","2300903","2021-04-27 01:00","2021","04","27","01:00","-16.2","","-18.2","","85","","","","27","","41","","0.4","","101.87","","","","-29","","Snow,Blowing Snow"
"-115.14","67.82","KUGLUKTUK A","2300903","2021-04-27 02:00","2021","04","27","02:00","-15.6","","-17.6","","85","","","","27","","38","","0.4","","101.75","","","","-28","","Snow,Blowing Snow"
"-115.14","67.82","KUGLUKTUK A","2300903","2021-04-27 03:00","2021","04","27","03:00","-14.9","","-16.7","","86","","","","27","","36","","0.6","","101.59","","","","-27","","Snow,Blowing Snow"
"-115.14","67.82","KUGLUKTUK A","2300903","2021-04-27 04:00","2021","04","27","04:00","-14.3","","-16.2","","86","","","","28","","41","","0.4","","101.46","","","","-27","","Snow,Blowing Snow"
"-115.14","67.82","KUGLUKTUK A","2300903","2021-04-27 05:00","2021","04","27","05:00","-13.9","","-15.8","","86","","","","28","","45","","0.2","","101.29","","","","-27","","Snow,Blowing Snow"
"-115.14","67.82","KUGLUKTUK A","2300903","2021-04-27 06:00","2021","04","27","06:00","-13.2","","-15.2","","85","","","","27","","34","","0.4","","101.18","","","","-24","","Snow,Blowing Snow"
"-115.14","67.82","KUGLUKTUK A","2300903","2021-04-27 07:00","2021","04","27","07:00","-11.9","","-13.5","","88","","","","32","","28","","0.8","","101.08","","","","-22","","Snow,Blowing Snow"
"-115.14","67.82","KUGLUKTUK A","2300903","2021-04-27 08:00","2021","04","27","08:00","-10.9","","-12.5","","88","","","","32","","39","","0.8","","100.95","","","","-22","","Snow,Blowing Snow"
"-115.14","67.82","KUGLUKTUK A","2300903","2021-04-27 09:00","2021","04","27","09:00","-9.6","","-11.2","","88","","","","33","","36","","1.0","","100.85","","","","-20","","Snow,Blowing Snow"
"-115.14","67.82","KUGLUKTUK A","2300903","2021-04-27 10:00","2021","04","27","10:00","-8.8","","-10.4","","88","","","","34","","41","","1.6","","100.80","","","","-19","","Snow,Blowing Snow"
"-115.14","67.82","KUGLUKTUK A","2300903","2021-04-27 11:00","2021","04","27","11:00","-7.4","","-8.8","","90","","","","34","","40","","2.0","","100.79","","","","-17","","Snow,Blowing Snow"
"-115.14","67.82","KUGLUKTUK A","2300903","2021-04-27 12:00","2021","04","27","12:00","-7.7","","-9.2","","89","","","","1","","30","","9.7","","100.82","","","","-17","","Snow,Blowing Snow"
"-115.14","67.82","KUGLUKTUK A","2300903","2021-04-27 13:00","2021","04","27","13:00","-8.5","","-11.0","","82","","","","3","","28","","16.1","","100.85","","","","-17","","Snow,Blowing Snow"
"-115.14","67.82","KUGLUKTUK A","2300903","2021-04-27 14:00","2021","04","27","14:00","-9.3","","-11.8","","82","","","","3","","26","","16.1","","100.90","","","","-18","","Snow,Blowing Snow"
"-115.14","67.82","KUGLUKTUK A","2300903","2021-04-27 15:00","2021","04","27","15:00","-9.8","","-12.5","","81","","","","4","","31","","16.1","","100.97","","","","-19","","Snow,Blowing Snow"
"-115.14","67.82","KUGLUKTUK A","2300903","2021-04-27 16:00","2021","04","27","16:00","-10.6","","-13.2","","81","","","","2","","28","","16.1","","101.03","","","","-20","","Snow,Blowing Snow"
"-115.14","67.82","KUGLUKTUK A","2300903","2021-04-27 17:00","2021","04","27","17:00","-11.2","","-13.6","","83","","","","1","","28","","12.9","","101.11","","","","-21","","Snow,Blowing Snow"
"-115.14","67.82","KUGLUKTUK A","2300903","2021-04-27 18:00","2021","04","27","18:00","-10.8","","-12.5","","88","","","","1","","28","","6.4","","101.14","","","","-20","","Snow,Blowing Snow"
"-115.14","67.82","KUGLUKTUK A","2300903","2021-04-27 19:00","2021","04","27","19:00","-11.8","","-14.0","","83","","","","5","","27","","12.9","","101.24","","","","-21","","Snow,Blowing Snow"
"-115.14","67.82","KUGLUKTUK A","2300903","2021-04-27 20:00","2021","04","27","20:00","-13.3","","-15.7","","82","","","","5","","23","","19.3","","101.34","","","","-23","","Snow,Blowing Snow"
"-115.14","67.82","KUGLUKTUK A","2300903","2021-04-27 21:00","2021","04","27","21:00","-14.8","","-16.6","","86","","","","4","","22","","19.3","","101.44","","","","-24","","NA"
"-115.14","67.82","KUGLUKTUK A","2300903","2021-04-27 22:00","2021","04","27","22:00","-17.0","","-19.1","","84","","","","4","","20","","24.1","","101.51","","","","-27","","NA"
"-115.14","67.82","KUGLUKTUK A","2300903","2021-04-27 23:00","2021","04","27","23:00","-18.0","","-20.0","","85","","","","5","","18","","19.3","","101.55","","","","-27","","Ice Crystals"
"-115.14","67.82","KUGLUKTUK A","2300903","2021-04-28 00:00","2021","04","28","00:00","-19.1","","-21.1","","84","","","","5","","18","","12.9","","101.65","","","","-29","","Ice Crystals"
"-115.14","67.82","KUGLUKTUK A","2300903","2021-04-28 01:00","2021","04","28","01:00","-19.9","","-22.1","","83","","","","5","","16","","24.1","","101.74","","","","-29","","Ice Crystals"
"-115.14","67.82","KUGLUKTUK A","2300903","2021-04-28 02:00","2021","04","28","02:00","-20.5","","-22.6","","84","","","","5","","16","","24.1","","101.82","","","","-30","","Ice Crystals"
"-115.14","67.82","KUGLUKTUK A","2300903","2021-04-28 03:00","2021","04","28","03:00","-21.3","","-23.2","","85","","","","5","","15","","24.1","","101.89","","","","-31","","Ice Crystals"
"-115.14","67.82","KUGLUKTUK A","2300903","2021-04-28 04:00","2021","04","28","04:00","-20.9","","-22.9","","84","","","","36","","2","","19.3","","101.94","","","","-23","","Snow"
"-115.14","67.82","KUGLUKTUK A","2300903","2021-04-28 05:00","2021","04","28","05:00","-20.1","","-22.3","","83","","","","36","","3","","24.1","","102.00","","","","-23","","Snow"
"-115.14","67.82","KUGLUKTUK A","2300903","2021-04-28 06:00","2021","04","28","06:00","-18.4","","-20.5","","84","","","","30","","10","","19.3","","102.00","","","","-25","","Snow"
"-115.14","67.82","KUGLUKTUK A","2300903","2021-04-28 07:00","2021","04","28","07:00","-18.3","","-20.5","","83","","","","27","","14","","16.1","","102.04","","","","-27","","Snow"
"-115.14","67.82","KUGLUKTUK A","2300903","2021-04-28 08:00","2021","04","28","08:00","-17.8","","-20.1","","82","","","","26","","17","","16.1","","102.08","","","","-27","","Snow"
"-115.14","67.82","KUGLUKTUK A","2300903","2021-04-28 09:00","2021","04","28","09:00","-16.2","","-18.9","","80","","","","27","","19","","19.3","","102.07","","","","-25","","NA"
"-115.14","67.82","KUGLUKTUK A","2300903","2021-04-28 10:00","2021","04","28","10:00","-13.7","","-17.5","","74","","","","34","","21","","24.1","","102.10","","","","-23","","NA"
"-115.14","67.82","KUGLUKTUK A","2300903","2021-04-28 11:00","2021","04","28","11:00","-13.0","","-17.2","","71","","","","35","","22","","24.1","","102.11","","","","-22","","Cloudy"
"-115.14","67.82","KUGLUKTUK A","2300903","2021-04-28 12:00","2021","04","28","12:00","-12.5","","-16.5","","72","","","","36","","20","","24.1","","102.14","","","","-21","","NA"
"-115.14","67.82","KUGLUKTUK A","2300903","2021-04-28 13:00","2021","04","28","13:00","-11.9","","-16.0","","72","","","","34","","17","","24.1","","102.18","","","","-20","","NA"
"-115.14","67.82","KUGLUKTUK A","2300903","2021-04-28 14:00","2021","04","28","14:00","-11.7","","-15.7","","72","","","","36","","22","","24.1","","102.21","","","","-20","","Cloudy"
"-115.14","67.82","KUGLUKTUK A","2300903","2021-04-28 15:00","2021","04","28","15:00","-11.1","","-15.2","","73","","","","35","","15","","24.1","","102.25","","","","-18","","NA"
"-115.14","67.82","KUGLUKTUK A","2300903","2021-04-28 16:00","2021","04","28","16:00","-10.8","","-14.1","","77","","","","35","","13","","16.1","","102.26","","","","-17","","Snow"
"-115.14","67.82","KUGLUKTUK A","2300903","2021-04-28 17:00","2021","04","28","17:00","-10.6","","-14.0","","76","","","","34","","11","","16.1","","102.30","","","","-16","","Snow"
"-115.14","67.82","KUGLUKTUK A","2300903","2021-04-28 18:00","2021","04","28","18:00","-10.5","","-13.4","","80","","","","33","","8","","16.1","","102.30","","","","-15","","Snow"
"-115.14","67.82","KUGLUKTUK A","2300903","2021-04-28 19:00","2021","04","28","19:00","-10.4","","-13.3","","80","","","","31","","8","","16.1","","102.25","","","","-15","","Snow"
"-115.14","67.82","KUGLUKTUK A","2300903","2021-04-28 20:00","2021","04","28","20:00","-10.6","","-11.7","","91","","","","29","","7","","16.1","","102.26","","","","-15","","Snow"
"-115.14","67.82","KUGLUKTUK A","2300903","2021-04-28 21:00","2021","04","28","21:00","-10.4","","-12.4","","85","","","","25","","6","","19.3","","102.24","","","","-14","","Snow"
"-115.14","67.82","KUGLUKTUK A","2300903","2021-04-28 22:00","2021","04","28","22:00","-10.9","","-13.6","","81","","","","24","","11","","24.1","","102.21","","","","-17","","Snow"
"-115.14","67.82","KUGLUKTUK A","2300903","2021-04-28 23:00","2021","04","28","23:00","-11.0","","-13.7","","80","","","","24","","18","","24.1","","102.18","","","","-19","","Snow"
"-115.14","67.82","KUGLUKTUK A","2300903","2021-04-29 00:00","2021","04","29","00:00","-11.6","","-13.9","","83","","","","25","","15","","24.1","","102.16","","","","-19","","Snow"
"-115.14","67.82","KUGLUKTUK A","2300903","2021-04-29 01:00","2021","04","29","01:00","-12.4","","-14.3","","85","","","","23","","20","","24.1","","102.10","","","","-21","","Snow"
"-115.14","67.82","KUGLUKTUK A","2300903","2021-04-29 02:00","2021","04","29","02:00","-12.0","","-14.2","","84","","","","22","","14","","24.1","","102.08","","","","-19","","Snow"
"-115.14","67.82","KUGLUKTUK A","2300903","2021-04-29 03:00","2021","04","29","03:00","-12.9","","-15.2","","83","","","","23","","21","","24.1","","102.07","","","","-22","","NA"
"-115.14","67.82","KUGLUKTUK A","2300903","2021-04-29 04:00","2021","04","29","04:00","-12.1","","-13.3","","91","","","","23","","21","","12.9","","102.02","","","","-21","","NA"
"-115.14","67.82","KUGLUKTUK A","2300903","2021-04-29 05:00","2021","04","29","05:00","-11.0","","-12.4","","90","","","","23","","23","","12.9","","101.99","","","","-20","","Cloudy"
"-115.14","67.82","KUGLUKTUK A","2300903","2021-04-29 06:00","2021","04","29","06:00","-10.8","","-12.2","","89","","","","22","","20","","16.1","","101.94","","","","-19","","Snow"
"-115.14","67.82","KUGLUKTUK A","2300903","2021-04-29 07:00","2021","04","29","07:00","-11.3","","-12.9","","88","","","","22","","26","","6.4","","101.89","","","","-21","","Snow Grains,Blowing Snow"
"-115.14","67.82","KUGLUKTUK A","2300903","2021-04-29 08:00","2021","04","29","08:00","-11.1","","-12.9","","87","","","","23","","22","","12.9","","101.85","","","","-20","","Snow,Blowing Snow"
"-115.14","67.82","KUGLUKTUK A","2300903","2021-04-29 09:00","2021","04","29","09:00","-11.5","","-13.3","","86","","","","22","","20","","16.1","","101.79","","","","-20","","Snow"
"-115.14","67.82","KUGLUKTUK A","2300903","2021-04-29 10:00","2021","04","29","10:00","-10.4","","-12.1","","88","","","","23","","17","","16.1","","101.71","","","","-18","","Snow"
"-115.14","67.82","KUGLUKTUK A","2300903","2021-04-29 11:00","2021","04","29","11:00","-9.7","","-11.6","","86","","","","22","","14","","24.1","","101.66","","","","-16","","Snow"
"-115.14","67.82","KUGLUKTUK A","2300903","2021-04-29 12:00","2021","04","29","12:00","-9.4","","-11.2","","86","","","","21","","15","","24.1","","101.60","","","","-16","","Snow"
"-115.14","67.82","KUGLUKTUK A","2300903","2021-04-29 13:00","2021","04","29","13:00","-9.5","","-11.4","","86","","","","27","","9","","24.1","","101.56","","","","-14","","Snow"
"-115.14","67.82","KUGLUKTUK A","2300903","2021-04-29 14:00","2021","04","29","14:00","-9.5","","-12.8","","77","","","","21","","9","","24.1","","101.49","","","","-14","","Mainly Clear"
"-115.14","67.82","KUGLUKTUK A","2300903","2021-04-29 15:00","2021","04","29","15:00","-9.2","","-12.6","","77","","","","19","","7","","24.1","","101.42","","","","-13","","NA"
"-115.14","67.82","KUGLUKTUK A","2300903","2021-04-29 16:00","2021","04","29","16:00","-9.2","","-12.4","","77","","","","25","","4","","24.1","","101.35","","","","-11","","NA"
"-115.14","67.82","KUGLUKTUK A","2300903","2021-04-29 17:00","2021","04","29","17:00","-9.5","","-12.6","","78","","","","11","","10","","24.1","","101.27","","","","-15","","Mainly Clear"
"-115.14","67.82","KUGLUKTUK A","2300903","2021-04-29 18:00","2021","04","29","18:00","-10.3","","-12.9","","81","","","","9","","13","","24.1","","101.17","","","","-17","","NA"
"-115.14","67.82","KUGLUKTUK A","2300903","2021-04-29 19:00","2021","04","29","19:00","-11.0","","-13.1","","85","","","","9","","13","","24.1","","101.10","","","","-17","","NA"
"-115.14","67.82","KUGLUKTUK A","2300903","2021-04-29 20:00","2021","04","29","20:00","-11.9","","-14.1","","84","","","","9","","14","","24.1","","101.03","","","","-19","","Clear"
"-115.14","67.82","KUGLUKTUK A","2300903","2021-04-29 21:00","2021","04","29","21:00","-14.5","","-15.9","","89","","","","36","","2","","24.1","","100.99","","","","-16","","NA"
"-115.14","67.82","KUGLUKTUK A","2300903","2021-04-29 22:00","2021","04","29","22:00","-14.7","","-15.9","","91","","","","8","","5","","24.1","","100.91","","","","-18","","Ice Crystals"
"-115.14","67.82","KUGLUKTUK A","2300903","2021-04-29 23:00","2021","04","29","23:00","-16.1","","-17.5","","89","","","","11","","9","","24.1","","100.85","","","","-22","","Ice Crystals"
"-115.14","67.82","KUGLUKTUK A","2300903","2021-04-30 00:00","2021","04","30","00:00","-18.7","","-20.3","","87","","","","32","","9","","24.1","","100.81","","","","-25","","Ice Crystals"
"-115.14","67.82","KUGLUKTUK A","2300903","2021-04-30 01:00","2021","04","30","01:00","-19.2","","-20.7","","88","","","","31","","7","","24.1","","100.76","","","","-25","","Ice Crystals"
"-115.14","67.82","KUGLUKTUK A","2300903","2021-04-30 02:00","2021","04","30","02:00","-19.8","","-21.5","","87","","","","0","","1","","24.1","","100.71","","","","-21","","Ice Crystals"
"-115.14","67.82","KUGLUKTUK A","2300903","2021-04-30 03:00","2021","04","30","03:00","-19.9","","-21.7","","85","","","","34","","4","","24.1","","100.67","","","","-23","","Ice Crystals"
"-115.14","67.82","KUGLUKTUK A","2300903","2021-04-30 04:00","2021","04","30","04:00","-19.6","","-21.4","","86","","","","28","","4","","24.1","","100.64","","","","-23","","Ice Crystals"
"-115.14","67.82","KUGLUKTUK A","2300903","2021-04-30 05:00","2021","04","30","05:00","-19.6","","-21.5","","85","","","","31","","7","","24.1","","100.66","","","","-25","","Ice Crystals"
"-115.14","67.82","KUGLUKTUK A","2300903","2021-04-30 06:00","2021","04","30","06:00","-19.2","","-21.2","","84","","","","30","","9","","24.1","","100.65","","","","-26","","NA"
"-115.14","67.82","KUGLUKTUK A","2300903","2021-04-30 07:00","2021","04","30","07:00","-17.6","","-19.5","","85","","","","29","","5","","24.1","","100.63","","","","-22","","NA"
"-115.14","67.82","KUGLUKTUK A","2300903","2021-04-30 08:00","2021","04","30","08:00","-17.9","","-19.8","","85","","","","24","","12","","24.1","","100.63","","","","-25","","Mainly Clear"
"-115.14","67.82","KUGLUKTUK A","2300903","2021-04-30 09:00","2021","04","30","09:00","-16.8","","-18.7","","85","","","","28","","10","","24.1","","100.65","","","","-23","","NA"
"-115.14","67.82","KUGLUKTUK A","2300903","2021-04-30 10:00","2021","04","30","10:00","-16.2","","-18.1","","85","","","","25","","10","","24.1","","100.66","","","","-23","","NA"
"-115.14","67.82","KUGLUKTUK A","2300903","2021-04-30 11:00","2021","04","30","11:00","-15.0","","-16.8","","87","","","","26","","9","","24.1","","100.64","","","","-21","","Mainly Clear"
"-115.14","67.82","KUGLUKTUK A","2300903","2021-04-30 12:00","2021","04","30","12:00","-14.0","","-15.8","","87","","","","30","","5","","24.1","","100.67","","","","-17","","NA"
"-115.14","67.82","KUGLUKTUK A","2300903","2021-04-30 13:00","2021","04","30","13:00","-13.3","","-15.2","","86","","","","31","","5","","24.1","","100.70","","","","-17","","NA"
"-115.14","67.82","KUGLUKTUK A","2300903","2021-04-30 14:00","2021","04","30","14:00","-12.7","","-14.6","","86","","","","30","","5","","24.1","","100.73","","","","-16","","Mainly Clear"
"-115.14","67.82","KUGLUKTUK A","2300903","2021-04-30 15:00","2021","04","30","15:00","-12.3","","-14.5","","84","","","","30","","6","","24.1","","100.75","","","","-16","","NA"
"-115.14","67.82","KUGLUKTUK A","2300903","2021-04-30 16:00","2021","04","30","16:00","-11.2","","-14.0","","80","","","","36","","2","","24.1","","100.76","","","","-12","","NA"
"-115.14","67.82","KUGLUKTUK A","2300903","2021-04-30 17:00","2021","04","30","17:00","-12.0","","-14.7","","81","","","","21","","7","","24.1","","100.79","","","","-16","","Mainly Clear"
"-115.14","67.82","KUGLUKTUK A","2300903","2021-04-30 18:00","2021","04","30","18:00","-12.0","","-14.6","","82","","","","22","","7","","24.1","","100.81","","","","-16","","NA"
"-115.14","67.82","KUGLUKTUK A","2300903","2021-04-30 19:00","2021","04","30","19:00","-13.0","","-15.0","","85","","","","21","","9","","24.1","","100.81","","","","-18","","NA"
"-115.14","67.82","KUGLUKTUK A","2300903","2021-04-30 20:00","2021","04","30","20:00","-13.8","","-15.8","","85","","","","22","","13","","24.1","","100.82","","","","-21","","Mainly Clear"
"-115.14","67.82","KUGLUKTUK A","2300903","2021-04-30 21:00","2021","04","30","21:00","-14.0","","-16.1","","84","","","","24","","9","","24.1","","100.85","","","","-20","","NA"
"-115.14","67.82","KUGLUKTUK A","2300903","2021-04-30 22:00","2021","04","30","22:00","-14.0","","-15.8","","87","","","","22","","9","","3.2","","100.89","","","","-20","","Snow"
"-115.14","67.82","KUGLUKTUK A","2300903","2021-04-30 23:00","2021","04","30","23:00","-12.5","","-14.1","","88","","","","24","","4","","3.2","","100.92","","","","-15","","Snow"
